 2013  3 1 0804  3.0 L   6.834 -73.152145.9  RSN 11 0.5 2.0LRSN                1
 GAP= 81        0.93       3.8     3.7  6.7  0.5948E+00  0.5596E+01  0.5833E+01E
 Epicentro: LOS SANTOS - SANTANDER                                             3
 ACTION:UPD 13-04-09 13:59 OP:ep   STATUS:               ID:20130301080403 L   I
 2013-03-01-0758-40M.COL___162                                                 6
 STAT SP IPHASW D HRMM SECON CODA AMPLIT PERI AZIMU VELO AIN AR TRES W  DIS CAZ7
 BAR2 SZ EP   1    8 4 22.71                             169   -0.03 7 27.0 187 
 BAR2 SZ ES   1    8 4 37.58                             169   -0.54 7 27.0 187 
 BAR2 SZ I         8 4 39.09        35.1 0.22            168           27.0 187 
 BRR  HZ EP   1    8 4 24.42                             153    0.38 7 68.8 296 
 BRR  HN ES   1    8 4 41.26                             153    0.81 7 68.8 296 
 BRR  HZ I         8 4 43.82        16.6 0.14            151           68.8 296 
 PAM  SZ EP   1    8 4 25.57                             152    0.47 7 75.0  42 
 PAM  SN ES   1    8 4 42.45                             152    0.12 7 75.0  42 
 PAM  SZ I         8 4 44.91        13.6 0.58            155           75.0  42 
 PTB  HZ EP   1    8 4 29.41                             132   -0.59 7  148 257 
 PTB  HN ES   1    8 4 50.17                             132   -0.88 7  148 257 
 PTB  HZ I         8 4 53.24        14.1 0.14            131            148 257 
 OCA  HN ES   1    8 4 52.75                             130   -0.03 7  156 353 
 OCA  HZ I         8 4 55.71        14.7 0.18            131            156 353 
 TAM  HZ EP   1    8 4 31.04                             130    0.18 7  157 106 
 TAM  HN ES   1    8 4 52.36                             130   -0.22 7  157 106 
 TAM  HZ I         8 4 53.31         6.3 0.30            133            157 106 
 ZAR  HZ EP   1    8 4 35.95                             123    0.69 6  202 291 
 ZAR  HE ES   1    8 5  0.56                             123    0.16 6  202 291 
 ZAR  HZ I         8 5  7.11         8.8 0.24            122            202 291 
 SML  HZ EP   1    8 4 38.68                             118   -0.56 6  240 335 
 SML  HN ES   1    8 5  6.58                             118   -0.92 6  240 335 
 SML  HZ I         8 5 11.37        12.7 0.11            118            240 335 
 CHI  HZ EP   1    8 4 40.92                             117   -0.17 6  252 195 
 CHI  HN ES   1    8 5 11.03                             117    0.23 6  252 195 
 CHI  HZ I         8 5 18.14         5.1 0.36            117            252 195 
 HEL  HZ EP   1    8 4 44.08                             115    0.82 6  272 255 
 HEL  HN ES   1    8 5 15.05                             115    0.39 6  272 255 
 HEL  HZ I         8 5 23.08         5.2 0.62            115            272 255 
 PRA  HZ EP   1    8 4 55.98                             106   -0.90 4  395 209 
 PRA  HN ES   1    8 5 39.00                             106    0.10 4  395 209 
 PRA  HZ I         8 5 43.19         4.7 0.36            107            395 209 
                                                                                
