 2017  6 1 0325 34.4 L   6.815 -73.137144.7  RSN  9 0.3 1.7LRSN                1
 GAP=215        0.94       4.7     4.2  6.6  0.9209E+01 -0.3428E+01 -0.8363E+00E
 Epicentro: LOS SANTOS - SANTANDER                                             3
 ACTION:UPD 17-09-14 16:48 OP:jn   STATUS:               ID:20170601032534 L   I
 OLDACT:DUP 17-06-01 15:35 OP:osc  STATUS:               ID:20170601031738d    3
 OLDACT:REG 17-06-01 12:38 OP:and  STATUS:               ID:20170601031737     3
 2017-06-01-0318-00M.COL___356                                                 6
 STAT SP IPHASW D HRMM SECON CODA AMPLIT PERI AZIMU VELO AIN AR TRES W  DIS CAZ7
 BRR  HZ EP        325 55.19                             152   -0.2910 71.3 297 
 BRR  HN ES        326 12.01                             152    0.1210 71.3 297 
 BRR  HZ I         326 16.39         6.8 0.12            153           71.3 297 
 RUS  HZ EP        325 57.87                             143   -0.3310  102 177 
 RUS  HE ES        326 16.62                             143   -0.1110  102 177 
 RUS  HZ I         326 17.82         6.7 0.30            144            102 177 
 PTB  HZ EP   9    326  0.41                             132   -1.02 0  149 258 
 PTB  HN ES        326 20.78                                   -0.68 9  149 258 
 PTB  HZ I         326 24.62         5.7 0.36            132            149 258 
 SPBC HZ EP   9    326  1.89                             129   -1.14 0  165 219 
 SPBC HN ES        326 24.92                                    0.73 9  165 219 
 SPBC HZ I         326 34.21         6.2 0.18            129            165 219 
 YPLC HZ EP        326  4.14                             126   -0.11 9  178 152 
 YPLC HN ES        326 28.08                             126    0.57 9  178 152 
 YPLC HZ I         326 30.46         9.4 0.54            128            178 152 
 ZAR  HZ EP   4    326  7.94                             122    1.10 0  204 292 
 ZAR  HN ES        326 32.46                             122    0.35 9  204 292 
 ZAR  HZ I         326 35.36         4.0 0.16            124            204 292 
 NOR  HZ EP        326 10.15                             118   -0.14 8  236 234 
 NOR  HE ES        326 37.94                             118   -0.31 8  236 234 
 NOR  HZ I         326 40.66         2.8 0.22            119            236 234 
 CHI  HZ EP   2    326 12.98                             117    0.71 4  250 195 
 CHI  HN ES   2    326 41.43                             117   -0.36 4  250 195 
 HEL  HE ES        326 46.56                             115    0.38 8  273 256 
                                                                                
