 2010  2 1 0321  9.0 L   6.794 -72.977150.0  RSN  6 0.4 1.7LRSN                1
 GAP=200        0.68       5.2     7.5  7.6 -0.6240E+00  0.1645E+02  0.2538E+01E
 Epicentro: CEPITA - SANTANDER                                                 3
 ACTION:UP  10-08-24 09:47 OP:vdl  STATUS:               ID:20100201032109 L   I
 2010-02-01-0319-33S.COL___094                                                 6
 STAT SP IPHASW D HRMM SECON CODA AMPLIT PERI AZIMU VELO SNR AR TRES W  DIS CAZ7
 BAR2 SZ EP        321 29.26                             167     0.010   32 226 
 BAR2 SZ ES   2    321 44.24                             167    -0.9 5   32 226 
 GIR2 SZ ES   2    321 45.52                             165     0.2 5   40 323 
 RUS  BZ EP   1    321 33.16                             145     0.0 7  100 187 
 RUS  BN ES   1    321 52.48                             145     0.5 7  100 187 
 RUS  BZ I         321 53.39         6.3 0.30                           100 187 
 OCA  SZ EP   2    321 38.07                             130     0.1 5  164 347 
 CHI  HZ EP   1    321 47.25                             118    -0.2 6  254 199 
 CHI  HE ES   1    322 17.06                             118    -0.4 6  254 199 
 CHI  HZ I         322 26.11         3.6 0.77                           254 199 
 HEL  HZ EP   2    321 51.17                             114    -0.2 4  290 257 
 HEL  HN ES   1    322 24.71                             114     0.3 5  290 257 
 HEL  HZ I         322 30.49         3.4 0.40                           290 257 
                                                                                
