 2017  7 1 0849 24.7 L   6.665 -73.172148.0  RSN  4 0.4 1.2LRSN                1
 GAP=239        0.60       8.3     5.0  6.9  0.1145E+01 -0.2142E+01  0.1840E+02E
 Epicentro: VILLANUEVA - SANTANDER                                             3
 ACTION:UPD 17-08-30 15:28 OP:rebc STATUS:               ID:20170701084924 L   I
 OLDACT:REG 17-07-01 12:53 OP:and  STATUS:               ID:20170701084736     3
 2017-07-01-0848-00M.COL___371                                                 6
 STAT SP IPHASW D HRMM SECON CODA AMPLIT PERI AZIMU VELO AIN AR TRES W  DIS CAZ7
 BAR2 EZ EP        849 44.55                             176    0.1110 8.14 188 
 BAR2 EZ ES   2    849 59.58                             176   -0.22 5 8.14 188 
 BAR2 EZ I         850  3.90         4.0 0.47            171           8.14 188 
 BRR  HZ IP     C  849 46.20                             151   -0.2810 77.2 309 
 BRR  HN ES        850  3.67                             151    0.2410 77.2 309 
 BRR  HZ I         850  8.36         2.3 0.37            151           77.2 309 
 PTB  HZ EP        849 51.44                             134   -0.01 9  143 264 
 PTB  HN ES        850 12.31                             134    0.03 9  143 264 
 PTB  HZ I         850 19.56         1.5 0.44            135            143 264 
 ZAR  HZ EP   3    849 59.45                             123    1.75 2  208 296 
 ZAR  HN ES   2    850 22.82                             123   -0.58 4  208 296 
 ZAR  HZ I         850 28.04         1.9 0.28            126            208 296 
                                                                                
