 2014  4 1 0608 17.0 L   6.808 -73.140145.6  RSN 10 0.3 1.8LRSN                1
 GAP=137        0.82       2.2     3.6  4.9 -0.1577E+01  0.6642E+01 -0.1001E+01E
 Epicentro: LOS SANTOS - SANTANDER                                             3
 ACTION:UPD 14-05-13 23:05 OP:nd   STATUS:               ID:20140401060817 L   I
 OLDACT:REG 14-04-01 13:37 OP:carl STATUS:               ID:20140401060042     3
 2014-04-01-0600-42M.COL___246                                                 6
 STAT SP IPHASW D HRMM SECON CODA AMPLIT PERI AZIMU VELO AIN AR TRES W  DIS CAZ7
 BAR2 SZ EP        6 8 36.54                             170   -0.1310 24.3 191 
 BAR2 SZ ES        6 8 51.94                             170   -0.0510 24.3 191 
 BAR2 SZ I         6 8 54.78        16.6 0.36            168           24.3 191 
 PAM  SZ EP        6 8 39.74                             151    0.5710 76.3  40 
 PAM  SE ES        6 8 56.59                             151    0.1510 76.3  40 
 PAM  SZ I         6 8 59.84         3.3 0.18            156           76.3  40 
 RUS  HN ES        6 8 59.39                             143   -0.0110  101 176 
 RUS  HZ I         6 9  0.39         6.0 0.30            146            101 176 
 PTB  HZ EP        6 8 43.79                             132   -0.28 9  149 259 
 PTB  HN ES        6 9  4.81                             132   -0.34 9  149 259 
 PTB  HZ I         6 9 12.35        11.1 0.26            131            149 259 
 OCA  HZ EP        6 8 45.60                             130    0.34 9  159 353 
 OCA  HN ES        6 9  7.05                             130   -0.22 9  159 353 
 SPBC HZ EP        6 8 45.53                             129   -0.10 9  164 219 
 SPBC HE ES        6 9  8.00                             129    0.06 9  164 219 
 SPBC HZ I         6 9 12.71        11.6 0.18            130            164 219 
 ZAR  HZ EP        6 8 49.42                             122   -0.08 9  204 292 
 ZAR  HN ES        6 9 15.56                             122    0.74 9  204 292 
 ZAR  HZ I         6 9 21.90         9.3 0.26            123            204 292 
 SML  HZ EP        6 8 53.23                             117   -0.37 8  243 335 
 SML  HE ES        6 9 21.51                             117   -0.60 8  243 335 
 SML  HZ I         6 9 29.10         9.2 0.26            119            243 335 
 CHI  HZ EP        6 8 54.86                             117    0.02 8  250 195 
 CHI  HN ES        6 9 23.88                             117   -0.45 8  250 195 
 CHI  HZ I         6 9 29.21         3.3 0.56            119            250 195 
 RREF HZ EP        6 9  3.47                             111    0.17 7  323 229 
 RREF HE ES        6 9 39.95                             111    0.57 7  323 229 
 RREF HZ I         6 9 48.97         4.1 0.28            112            323 229 
                                                                                
