 2011 12 1 0332 18.0 L   6.796 -73.100145.4  RSN 12 0.5 2.5LRSN                1
 GAP=143        1.00       3.7     5.8  6.2 -0.6523E+01  0.1099E+02  0.3701E+00E
 Epicentro: LOS SANTOS - SANTANDER                                             3
 ACTION:UPD 12-07-13 16:13 OP:ep   STATUS:               ID:20111201033218 L   I
 2011-12-01-0330-25S.COL___159                                                 6
 STAT SP IPHASW D HRMM SECON CODA AMPLIT PERI AZIMU VELO AIN AR TRES W  DIS CAZ7
 BAR2 SZ EP        332 37.58                             170   -0.0110 24.4 202 
 BAR2 SZ ES   1    332 52.73                             170   -0.15 7 24.4 202 
 BAR2 SZ I         332 54.31        99.6 0.37                          24.4 202 
 PAM  SZ IP        332 40.33                             152    0.3410 74.6  36 
 PAM  SN ES   1    332 57.36                             152    0.20 7 74.6  36 
 BRR  HZ EP        332 39.32                             151   -0.0510 75.9 297 
 BRR  HZ I         332 39.83        96.5 0.12                          75.9 297 
 BRR  HN ES   1    332 56.33                             151    0.29 7 75.9 297 
 RUS  HZ EP        332 41.50                             144   -0.1510100.0 179 
 RUS  HN ES   1    332 59.63                             144   -0.48 7100.0 179 
 RUS  HZ I         333  1.36        21.1 0.28                         100.0 179 
 OCA  SZ EP        332 46.17                             129   -0.20 9  161 351 
 OCA  SZ ES   2    333  9.47                             129    0.96 5  161 351 
 OCA  SZ I         333 12.39        41.7 0.17                           161 351 
 NOR  SZ EP        332 53.84                             118   -0.28 8  239 235 
 NOR  SN ES   1    333 21.58                             118   -0.72 6  239 235 
 CHI  HZ EP        332 55.83                             117    0.06 8  250 196 
 CHI  HN ES   2    333 24.81                             117   -0.43 4  250 196 
 CHI  HZ I         333 34.64        12.4 0.40                           250 196 
 CVER SZ EP        332 58.85                             114    0.35 8  274 203 
 HEL  HZ EP        332 59.93                             114    1.21 7  277 256 
 HEL  HE ES   1    333 30.13                             114   -0.36 6  277 256 
 HEL  HZ I         333 38.23        16.4 0.30                           277 256 
 RREF HZ EP        333  5.29                             110    0.76 7  325 230 
 RREF HZ I         333 49.09        15.3 0.62                           325 230 
 COD  HZ EP        333  5.37                             109   -1.08 6  349 354 
 COD  HE ES   1    333 43.27                             109   -0.99 5  349 354 
 ANIL HN ES   2    333 46.89                             108   -0.40 3  361 225 
                                                                                
