 2016  9 1 0633 42.4 L   6.727 -73.198147.1  RSN  4 0.2 0.9LRSN                1
 GAP=226        0.50       3.0     3.6  4.5  0.3269E+01 -0.6362E+00  0.5222E+00E
 Epicentro: VILLANUEVA - SANTANDER                                             3
 ACTION:UPD 17-08-17 21:05 OP:lp   STATUS:               ID:20160901063342 L   I
 OLDACT:DUP 16-09-01 17:55 OP:drio STATUS:               ID:20160901062740d    3
 2016-09-01-0628-00M.COL___358                                                 6
 STAT SP IPHASW D HRMM SECON CODA AMPLIT PERI AZIMU VELO AIN AR TRES W  DIS CAZ7
 BRR  HZ EP        634  3.59                             153   -0.0910 70.7 307 
 BRR  HE ES        634 20.32                             153    0.0510 70.7 307 
 RUS  HZ EP        634  5.52                             146   -0.2610 93.2 172 
 RUS  HE ES        634 24.14                             146    0.1410 93.2 172 
 RUS  HZ I         634 24.85         1.0 0.32            142           93.2 172 
 PTB  HZ EP        634  9.18                             134    0.32 9  141 262 
 PTB  HE ES        634 29.30                             134   -0.19 9  141 262 
 PTB  HZ I         634 32.07         1.1 0.10            130            141 262 
 SPBC HZ EP        634 10.16                             131    0.07 9  153 219 
 SPBC HE ES        634 31.67                             131   -0.02 9  153 219 
 SPBC HZ I         634 39.52         1.6 0.46            127            153 219 
                                                                                
