 2012  1 1 0240 37.7 L   6.807 -73.168150.2  RSN 19 0.4 4.1LRSN                1
 GAP=111        0.87       2.7     3.6  5.3  0.5751E-01  0.5657E+01  0.2199E+01E
 Epicentro: LOS SANTOS - SANTANDER                                             3
 ACTION:UP  12-02-03 08:12 OP:REBC STATUS:               ID:20120101024037 L   I
 2012-01-01-0240-00M.COL___186                                                 6
 STAT SP IPHASW D HRMM SECON CODA AMPLIT PERI AZIMU VELO SNR AR TRES W  DIS CAZ7
 BAR2 SZ IP        240 57.94                             171     0.010   24 184 
 BAR2 SZ ES   1    241 13.00                             171    -0.7 7   24 184 
 BAR2 SZ I         241 17.05      3148.8 0.72                            24 184 
 BRR  HZ IP     C  240 59.80                             154     0.610   69 299 
 BRR  HZ I         241 19.74      1772.2 0.19                            69 299 
 PAM  SZ EP        241  0.76                             151     0.310   78  41 
 PAM  SZ I         241  1.14      1387.9 0.21                            78  41 
 PAM  SE ES   1    241 18.32                             151     0.1 7   78  41 
 RUS  HZ IP     D  241  1.85                             144    -0.210  102 175 
 RUS  HN ES   1    241 20.83                             144    -0.1 7  102 175 
 RUS  HZ I         241 23.45      1757.2 0.48                           102 175 
 PTB  HZ EP        241  4.52                             133    -0.4 9  146 258 
 PTB  HN ES   1    241 25.90                             133    -0.1 7  146 258 
 OCA  SZ EP   1    241  6.10                             131    -0.2 7  159 354 
 OCA  SZ ES   1    241 28.67                             131     0.1 7  159 354 
 YOP  SZ EP        241  8.53                             127     0.2 9  181 153 
 YOP  SE ES   1    241 32.62                             127     0.5 7  181 153 
 YOP  SZ I         241 36.43      1053.1 0.64                           181 153 
 ZAR  HZ EP   1    241 10.15                             124    -0.1 6  201 292 
 ZAR  HE ES   1    241 35.50                             124    -0.1 6  201 292 
 ZAR  HZ I         241 42.72      1888.4 0.52                           201 292 
 NOR  SZ EP        241 13.61                             120     0.0 8  233 234 
 NOR  SE ES   1    241 41.83                             120     0.3 6  233 234 
 CHI  HZ IP     D  241 15.58                             118    -0.1 8  249 195 
 CHI  HN ES   1    241 45.06                             118    -0.3 6  249 195 
 CHI  HZ I         241 53.87       904.2 0.53                           249 195 
 HEL  HZ EP   1    241 17.86                             116    -0.1 6  270 256 
 HEL  HN ES   1    241 49.93                             116     0.6 6  270 256 
 HEL  HZ I         241 56.87       883.1 0.66                           270 256 
 VIL  SZ EP   1    241 21.00                             113    -0.4 5  304 191 
 VIL  SN ES   1    241 55.67                             113     0.2 5  304 191 
 VIL  SZ I         242  3.46       498.0 0.51                           304 191 
 RREF HZ EP   1    241 23.58                             112    -0.4 5  320 229 
 RREF HZ I         242  9.80       989.3 0.45                           320 229 
 DBB  SZ EP   1    241 26.01                             110     0.9 5  337 274 
 TOL  SZ EP   1    241 26.79                             110     0.7 5  342 224 
 COD  HZ EP        241 25.23                             110    -0.9 6  347 355 
 COD  HZ I         242 12.14       830.3 0.57                           347 355 
 PRA  HZ EP   1    241 30.96                             107    -0.4 4  392 209 
 PRA  HN ES   1    242 12.43                             107    -0.8 4  392 209 
 YOT  HZ EP   1    241 40.51                             104    -0.2 4  471 229 
 YOT  HZ I         241 43.61       292.9 0.53                           471 229 
 HORQ SZ EP   1    241 48.58                             102     0.4 3  531 226 
 HORQ SZ I         242 51.68        75.6 0.53                           531 226 
                                                                                
