 2010  5 1 0948 48.3 L   6.757 -73.008145.0  RSN  9 0.3 2.1LRSN                1
 GAP=186        0.55       3.1     5.1  4.8 -0.6192E+01 -0.3509E+01  0.1638E+01E
 Epicentro: CEPITA - SANTANDER                                                 3
 ACTION:UP  10-08-24 10:02 OP:vdl  STATUS:               ID:20100501094848 L   I
 2010-05-01-0945-36S.COL___105                                                 6
 STAT SP IPHASW D HRMM SECON CODA AMPLIT PERI AZIMU VELO SNR AR TRES W  DIS CAZ7
 BAR2 SZ IP        949  7.76                             169    -0.210   27 227 
 BAR2 SZ ES   1    949 22.98                             169    -0.3 7   27 227 
 BRR  HZ IP        949 10.31                             147     0.010   87 297 
 BRR  HN ES   1    949 27.70                             147     0.2 7   87 297 
 BRR  HZ I         949 29.51        20.2 0.14                            87 297 
 BRI  SZ EP        949 12.40                             141     0.210  109  12 
 GUE  SZ EP   1    949 13.12                             139    -0.1 7  119   4 
 GRA  SZ EP   1    949 13.39                             137    -0.2 7  127  10 
 OCA  SZ EP   1    949 17.11                             128    -0.1 7  167 348 
 OCA  SZ ES   1    949 40.24                             128     0.4 7  167 348 
 OCA  SZ I         949 44.03        25.0 0.18                           167 348 
 CHI  HZ EP   2    949 25.83                             117    -0.1 4  249 199 
 CHI  HN ES   2    949 56.21                             117     0.9 4  249 199 
 CHI  HZ I         950  1.02         5.1 0.28                           249 199 
 HEL  HZ EP   1    949 29.92                             113    -0.1 6  286 257 
 HEL  HN ES   2    950  2.12                             113    -0.4 4  286 257 
 HEL  HZ I         950  6.73         4.4 0.34                           286 257 
 PRA  HZ EP   1    949 42.14                             106    -0.1 4  396 212 
 PRA  HN ES   2    950 24.76                             106     0.5 3  396 212 
 PRA  HZ I         950 29.55         5.1 0.34                           396 212 
                                                                                
