 2014  1 1 0951 56.4 L   6.567 -73.586104.6  RSN  7 0.5 1.6LRSN                1
 GAP=101        1.41       4.2     5.2  9.4 -0.4591E+01  0.1188E+02 -0.2884E+01E
 Epicentro: EL CARMEN DE CHUCURI - SANTANDER                                   3
 ACTION:UPD 14-03-13 09:50 OP:ep   STATUS:               ID:20140101095156 L   I
 OLDACT:REG 14-01-01 09:32 OP:stll STATUS:               ID:20140101094818     3
 2014-01-01-0948-18M.COL___228                                                 6
 STAT SP IPHASW D HRMM SECON CODA AMPLIT PERI AZIMU VELO AIN AR TRES W  DIS CAZ7
 BAR2 SZ EP        952 12.70                             155    0.7510 44.7  86 
 BAR2 SZ ES        952 24.51                             155    0.4210 44.7  86 
 BAR2 SZ I         952 26.20        83.0 0.40            157           44.7  86 
 RUS  HZ EP        952 15.16                             135   -0.5410 93.1 143 
 RUS  HN ES        952 29.88                             135   -0.9010 93.1 143 
 RUS  HZ I         952 32.21         4.2 0.38            137           93.1 143 
 PTB  HZ EP        952 14.88                             134   -0.4510 96.3 268 
 PTB  HN ES        952 29.78                             134   -0.3310 96.3 268 
 PTB  HZ I         952 34.41         9.3 0.12            133           96.3 268 
 SPBC HZ EP        952 17.66                             128    0.5410  115 208 
 SPBC HN ES        952 33.86                             128    0.5710  115 208 
 SPBC HZ I         952 37.20         9.7 0.24            129            115 208 
 NOR  HZ EP        952 24.63                             115    0.71 9  180 232 
 NOR  HN ES        952 44.89                             115   -0.51 9  180 232 
 NOR  HZ I         952 48.82         6.5 0.18            115            180 232 
 OCA  HZ EP        952 24.13                             114   -0.68 9  187   9 
 OCA  HN ES        952 47.30                             114    0.30 9  187   9 
 OCA  HZ I         952 55.05         4.7 0.26            114            187   9 
 CHI  HZ EP        952 28.25                             111   -0.02 8  215 184 
 CHI  HN ES        952 53.33                             111    0.18 8  215 184 
 CHI  HZ I         953  3.24         1.4 0.34            111            215 184 
                                                                                
