 2015  5 1 0107 39.3 L   6.830 -73.127143.6  RSN 19 0.5 2.2LRSN                1
 GAP= 71        1.05       2.9     3.2  5.5 -0.5568E+00  0.4904E+01  0.8678E+00E
 Epicentro: LOS SANTOS - SANTANDER                                             3
 ACTION:UPD 15-09-10 22:00 OP:cam  STATUS:               ID:20150501010739 L   I
 OLDACT:UP  15-05-11 21:42 OP:spq  STATUS:               ID:20150501005744d    3
 OLDACT:DUP 15-05-11 20:17 OP:spq  STATUS:               ID:20150501005744d    3
 2015-05-01-0057-43M.COL___276                                                 6
 STAT SP IPHASW D HRMM SECON CODA AMPLIT PERI AZIMU VELO AIN AR TRES W  DIS CAZ7
 BAR2 EZ EP        1 7 58.66                             169   -0.1210 27.0 193 
 BAR2 EZ ES   1    1 8 14.03                             169    0.08 7 27.0 193 
 BAR2 EZ I         1 8 14.82        39.1 0.20            168           27.0 193 
 BRR  HZ IP     C  1 8  0.47                             152    0.2010 71.5 295 
 BRR  HN ES        1 8 17.26                             152    0.6710 71.5 295 
 BRR  HZ I         1 8 21.43        29.4 0.16            150           71.5 295 
 PAM  SZ EP        1 8  1.41                             152    0.3210 73.5  40 
 PAM  SN ES        1 8 18.27                             152    0.2210 73.5  40 
 PAM  SZ I         1 8 20.70        32.4 0.34            155           73.5  40 
 RUS  HZ EP        1 8  2.67                             142   -0.4410  104 177 
 RUS  HN ES        1 8 21.16                             142   -0.4910  104 177 
 RUS  HZ I         1 8 22.50        14.2 0.27            144            104 177 
 TAM  HZ EP        1 8  7.05                             130    0.31 9  154 106 
 TAM  HN ES        1 8 28.49                             130    0.38 9  154 106 
 TAM  HZ I         1 8 29.16        16.0 0.34            134            154 106 
 OCA  HZ EP        1 8  6.87                             130   -0.32 9  157 352 
 OCA  HN ES        1 8 28.20                             130   -0.71 9  157 352 
 OCA  HZ I         1 8 33.59        29.1 0.38            131            157 352 
 SPBC HZ EP        1 8  7.74                             128   -0.30 9  167 219 
 SPBC HN ES        1 8 29.65                             128   -0.78 9  167 219 
 SPBC HZ I         1 8 35.01        19.9 0.10            128            167 219 
 ZAR  HZ EP        1 8 11.61                             122   -0.10 9  205 291 
 ZAR  HE ES        1 8 37.48                             122    0.52 9  205 291 
 ZAR  HZ I         1 8 42.54        33.5 0.36            122            205 291 
 NOR  HZ EP   1    1 8 15.39                             118    0.06 6  238 234 
 NOR  HE ES        1 8 43.25                             118   -0.15 8  238 234 
 NOR  HZ I         1 8 46.47        13.1 0.42            118            238 234 
 SML  HZ EP        1 8 14.82                             117   -0.78 8  242 335 
 SML  HE ES   1    1 8 43.37                             117   -0.52 6  242 335 
 SML  HZ I         1 8 52.01        23.0 0.12            118            242 335 
 CHI  HZ EP   1    1 8 17.86                             116    0.54 6  252 195 
 ROSC BZ EP   4    1 8 19.26                             116    1.50 0  257 211 
 HEL  HZ EP        1 8 20.71                             114    0.96 8  275 255 
 HEL  HN ES   1    1 8 51.60                             114    0.32 6  275 255 
 HEL  HZ I         1 8 57.21         8.1 0.52            114            275 255 
 GUY2CHZ EP   1    1 8 23.75                             112    0.50 5  305 234 
 GUY2CHN ES   1    1 8 57.64                             112    0.13 5  305 234 
 GUY2CHZ I         1 9  5.56         5.3 0.59                           305 234 
 RREF HZ EP   1    1 8 26.19                             110    0.38 5  326 229 
 RREF HN ES   4    1 9  4.03                             110    1.97 0  326 229 
 RREF HZ I         1 9  8.12         2.6 0.26            111            326 229 
 CBOC HZ EP   1    1 8 26.91                             109    0.41 5  337 252 
 CBOC HN ES   4    1 9  4.54                             109    1.24 0  337 252 
 CBOC HZ I         1 9  8.97         2.3 0.48            110            337 252 
 TOL  SN ES   4    1 9  7.79                             109    1.93 0  347 224 
 TOL  SZ I         1 9 15.11         5.4 0.34            109            347 224 
 MON  HZ EP   4    1 8 26.07                             108   -2.13 0  353 308 
 MON  HE ES   4    1 9  4.96                             108   -1.36 0  353 308 
 MON  HZ I         1 9  5.53         4.7 0.20            109            353 308 
 ORTC HN ES   4    1 9 17.30                             106    1.30 0  399 216 
 ORTC HZ I         1 9 22.80         3.4 0.60            107            399 216 
 SJC  HZ EP   4    1 8 33.44                             105   -1.19 0  408 326 
 SJC  HN ES   4    1 9 14.24                             105   -3.52 0  408 326 
 SJC  HZ I         1 9 18.26         3.3 0.58            106            408 326 
                                                                                
