 2010 11 1 0933 27.5 L   6.787 -73.127139.8  RSN  5 0.5 1.6LRSN                1
 GAP=161        1.24       6.8    16.5 13.2  0.7964E+01 -0.7668E+02 -0.3472E+02E
 Epicentro: LOS SANTOS - SANTANDER                                             3
 ACTION:UP  10-12-17 16:49 OP:REBC STATUS:               ID:20101101093327 L   I
 2010-11-01-0931-45S.COL___125                                                 6
 STAT SP IPHASW D HRMM SECON CODA AMPLIT PERI AZIMU VELO SNR AR TRES W  DIS CAZ7
 BAR2 SZ EP        933 46.27                             171    -0.110   22 196 
 BAR2 SZ ES   1    934  0.44                             171    -0.7 7   22 196 
 BAR2 SZ I         934  5.76         7.5 0.44                            22 196 
 BRR  HN ES   1    934  4.83                             151     0.6 7   74 299 
 RUS  HZ EP   2    933 50.65                             143     0.1 5   99 177 
 RUS  HN ES   1    934  8.74                             143     0.2 7   99 177 
 RUS  HZ I         934 10.73         5.8 0.26                            99 177 
 GRA  SZ EP        933 52.90                             135     0.610  127  16 
 GRA  SZ ES   1    934 11.76                             135     0.2 7  127  16 
 GRA  SZ I         934 13.65         8.4 0.21                           127  16 
 OCA  SZ EP        933 54.76                             128    -0.7 9  162 352 
 OCA  SZ ES   2    934 16.96                             128    -0.4 5  162 352 
 OCA  SZ I         934 17.55         6.0 0.27                           162 352 
                                                                                
