 2014  5 1 0511 28.8 L   6.865 -73.186142.9  RSN 10 0.4 1.9LRSN                1
 GAP=128        0.99       3.6     4.7  8.8 -0.5104E+01  0.1758E+02 -0.4656E+01E
 Epicentro: ZAPATOCA - SANTANDER                                               3
 ACTION:UPD 15-03-16 16:54 OP:nd   STATUS:               ID:20140501051128 L   I
 OLDACT:UP  14-05-01 16:40 OP:mh   STATUS:               ID:20140501051000     3
 OLDACT:UP  14-05-01 16:39 OP:mh   STATUS:               ID:20140501051000     3
 OLDACT:REG 14-05-01 13:37 OP:mh   STATUS:               ID:20140501051000     3
 2014-05-01-0510-00M.COL___273                                                 6
 STAT SP IPHASW D HRMM SECON CODA AMPLIT PERI AZIMU VELO AIN AR TRES W  DIS CAZ7
 PAM  SZ EP        511 50.92                             151    0.3510 75.0  46 
 PAM  SN ES        512  7.45                             151   -0.1010 75.0  46 
 PAM  SZ I         512 10.11         9.8 0.33            156           75.0  46 
 RUS  HZ EP   1    511 52.47                             141   -0.37 7  108 174 
 RUS  HN ES        512 11.43                             141   -0.1610  108 174 
 RUS  HZ I         512 12.78         7.0 0.33            149            108 174 
 PTB  HZ EP        511 54.60                             132   -0.69 9  145 256 
 PTB  HN ES        512 15.75                             132   -0.20 9  145 256 
 PTB  HZ I         512 23.01        10.0 0.16            133            145 256 
 SPBC HZ EP   1    511 57.07                             128   -0.30 7  166 216 
 SPBC HN ES        512 20.29                             128    0.63 9  166 216 
 ZAR  HZ EP   1    512  1.11                             123    0.74 6  197 291 
 ZAR  HN ES   1    512 25.16                             123    0.18 6  197 291 
 ZAR  HZ I         512 33.93         7.9 0.23            124            197 291 
 NOR  HZ EP   1    512  4.37                             118   -0.08 6  235 232 
 NOR  HN ES        512 31.63                             118   -0.62 8  235 232 
 NOR  HZ I         512 34.02        13.6 0.05            121            235 232 
 SML  HZ EP   1    512  4.29                             118   -0.07 6  235 336 
 SML  HN ES   1    512 32.37                             118    0.28 6  235 336 
 SML  HZ I         512 36.66                             120            235 336 
 ROSC BN ES        512 37.96                             116    0.79 8  257 209 
 HEL  HZ EP   4    512 10.06                             114    1.45 0  270 254 
 HEL  HN ES   4    512 42.09                             114    2.44 0  270 254 
 HEL  HZ I         512 46.79         4.5 0.27            117            270 254 
 URE  HN ES   4    512 44.80                             113    4.49 0  277 291 
 GUY2CHZ EP   4    512 14.79                             112    2.43 0  302 233 
 GUY2CHN ES   4    512 47.91                             112    1.58 0  302 233 
 GUY2CHZ I         512 54.63         2.9 0.13                           302 233 
 SJC  HZ EP   4    512 22.20                             106   -1.08 0  401 327 
 SJC  HN ES   4    513  2.48                             106   -3.28 0  401 327 
                                                                                
