 2013 11 1 0953  7.4 L   6.848 -73.217140.4  RSN  9 0.5 1.8LRSN                1
 GAP=126        1.16       3.9     4.7  8.1 -0.3061E+01  0.1544E+02 -0.7866E+01E
 Epicentro: ZAPATOCA - SANTANDER                                               3
 ACTION:UPD 14-01-09 16:24 OP:ep   STATUS:               ID:20131101095307 L   I
 OLDACT:UP  13-11-01 14:24 OP:jn   STATUS:               ID:20131101095001d    3
 OLDACT:DUP 13-11-01 14:20 OP:jn   STATUS:               ID:20131101095001d    3
 2013-11-01-0950-00M.COL___273                                                 6
 STAT SP IPHASW D HRMM SECON CODA AMPLIT PERI AZIMU VELO AIN AR TRES W  DIS CAZ7
 BAR2 SZ EP        953 26.51                             168   -0.0310 28.5 172 
 BAR2 SZ ES        953 40.69                             168   -0.7610 28.5 172 
 BAR2 SZ I         953 42.51        27.8 0.26            172           28.5 172 
 BRR  HZ EP        953 28.34                             155    0.8510 61.8 298 
 BRR  HN ES   4    953 45.04                             155    1.90 0 61.8 298 
 BRR  HZ I         953 49.03        12.0 0.40            153           61.8 298 
 PAM  SZ EP        953 29.46                             149    0.2910 78.8  46 
 PAM  SN ES        953 46.53                             149    0.4010 78.8  46 
 PAM  SZ I         953 48.55        17.2 0.54            153           78.8  46 
 RUS  HZ EP        953 30.84                             141   -0.2810  107 172 
 RUS  HN ES        953 49.57                             141   -0.0310  107 172 
 RUS  HZ I         953 50.28         5.9 0.26            148            107 172 
 PTB  HZ EP        953 33.09                             132   -0.29 9  141 256 
 PTB  HN ES        953 53.99                             132    0.38 9  141 256 
 PTB  HZ I         953 56.38         5.0 0.10            134            141 256 
 SPBC HZ EP        953 35.50                             128    0.02 9  163 216 
 SPBC HN ES        953 57.18                             128   -0.17 9  163 216 
 SPBC HZ I         954  0.12         7.9 0.36            132            163 216 
 ZAR  HZ EP        953 37.80                             122   -0.78 9  195 292 
 ZAR  HN ES        954  2.51                             122   -0.36 9  195 292 
 ZAR  HZ I         954 11.26         4.9 0.14            124            195 292 
 NOR  HE ES        954 10.75                             118    0.86 8  232 232 
 SML  HZ EP        953 42.67                             117   -0.22 8  236 336 
 SML  HN ES        954 10.62                             117    0.08 8  236 336 
 SML  HZ I         954 14.83         9.1 0.26            120            236 336 
                                                                                
