 2013  8 1 0311 33.1 L   6.761 -73.142150.0  RSN  8 0.4 1.8LRSN                1
 GAP=183        0.79       4.1     5.7  6.4  0.6577E+01  0.6838E+01 -0.1170E+01E
 Epicentro: LOS SANTOS - SANTANDER                                             3
 ACTION:UPD 14-01-14 08:58 OP:ep   STATUS:               ID:20130801031133 L   I
 OLDACT:REG 13-08-01 07:42 OP:carl STATUS:               ID:20130801030959     3
 2013-08-01-0309-59M.COL___268                                                 6
 STAT SP IPHASW D HRMM SECON CODA AMPLIT PERI AZIMU VELO AIN AR TRES W  DIS CAZ7
 BAR2 SZ EP   1    311 53.35                             172    0.22 7 19.2 193 
 BAR2 SZ ES   1    312  8.42                             172   -0.37 7 19.2 193 
 BAR2 SZ I         312  9.34         9.7 0.38            172           19.2 193 
 GIR2 SZ EP   1    311 53.07                             166   -0.30 7 35.6 351 
 GIR2 SZ ES   1    312  9.30                             166    0.10 7 35.6 351 
 GIR2 SZ I         312  9.55         6.5 0.20            165           35.6 351 
 BRR  HZ EP   1    311 54.86                             152    0.04 7 73.7 301 
 BRR  HN ES        312 12.22                             152    0.4410 73.7 301 
 RUS  HZ EP   1    311 57.08                             146    0.14 7 96.3 176 
 RUS  HE ES   1    312 15.65                             146    0.09 7 96.3 176 
 RUS  HZ I         312 16.69         5.3 0.20            147           96.3 176 
 PTB  HZ EP   1    311 59.68                             133   -0.67 7  147 261 
 PTB  HE ES   1    312 21.46                             133   -0.17 7  147 261 
 PTB  HZ I         312 24.93         5.2 0.12            132            147 261 
 OCA  HN ES   1    312 24.19                             130   -0.58 7  165 353 
 OCA  HN I         312 28.56        18.6 0.22            130            165 353 
 ZAR  HZ EP   1    312  6.80                             123    0.80 6  206 293 
 ZAR  HN ES   1    312 31.23                             123   -0.46 6  206 293 
 ZAR  HZ I         312 34.06         4.9 0.12            123            206 293 
 SML  HN ES   1    312 39.86                             118    0.39 6  248 336 
 SML  HN I         312 40.58        27.0 0.10            118            248 336 
                                                                                
