 2017 11 1 0645 30.0 L   6.785 -73.149139.4  RSN  5 0.3 1.0LRSN                1
 GAP=137        0.79       4.4     4.5  7.7 -0.1557E+01  0.9075E+01 -0.4298E+00E
 Epicentro: LOS SANTOS - SANTANDER                                             3
 ACTION:UPD 17-12-12 19:50 OP:rebc STATUS:               ID:20171101064530 L   I
 OLDACT:DUP 17-11-01 17:23 OP:dnl  STATUS:               ID:20171101063740d    3
 OLDACT:UP  17-11-01 17:23 OP:dnl  STATUS:               ID:20171101063739     3
 OLDACT:REG 17-11-01 14:08 OP:dnl  STATUS:               ID:20171101063739     3
 2017-11-01-0638-00M.COL___420                                                 6
 STAT SP IPHASW D HRMM SECON CODA AMPLIT PERI AZIMU VELO AIN AR TRES W  DIS CAZ7
 BAR2 EZ EP   2    645 48.93                             171    0.11 5 21.6 190 
 BAR2 EZ ES        646  3.46                             171   -0.0510 21.6 190 
 BAR2 EZ I         646  5.59         4.6 0.40            171           21.6 190 
 BRR  HZ EP        645 50.84                             151    0.3610 71.7 300 
 BRR  HN ES        646  6.94                             151    0.4710 71.7 300 
 BRR  HZ I         646 11.74         1.9 0.50            151           71.7 300 
 PAM  EZ EP   2    645 51.81                             149    0.19 5 78.9  39 
 PAM  EN ES        646  8.06                             149   -0.4410 78.9  39 
 PAM  EZ I         646  9.08         2.0 0.24            153           78.9  39 
 RUS  HZ EP   2    645 53.07                             143    0.07 5 99.0 176 
 RUS  HN ES        646 11.05                             143    0.1010 99.0 176 
 RUS  HZ I         646 11.99         0.8 0.28            147           99.0 176 
 PTB  HZ EP   2    645 55.95                             130   -0.43 5  147 259 
 PTB  HE ES        646 16.47                             130   -0.50 9  147 259 
 PTB  HZ I         646 18.76         1.1 0.18            132            147 259 
                                                                                
