 2017  9 1 0241 35.6 L   6.808 -73.121143.4  RSN  5 0.1 1.1LRSN                1
 GAP=139        0.29       1.5     1.6  2.4  0.4845E+00  0.5395E+00 -0.8978E-01E
 Epicentro: LOS SANTOS - SANTANDER                                             3
 ACTION:UPD 17-10-05 19:07 OP:rebc STATUS:               ID:20170901024135 L   I
 OLDACT:REG 17-09-01 13:00 OP:dani STATUS:               ID:20170901023739     3
 2017-09-01-0238-00M.COL___411                                                 6
 STAT SP IPHASW D HRMM SECON CODA AMPLIT PERI AZIMU VELO AIN AR TRES W  DIS CAZ7
 BAR2 EZ ES        242 10.12                             170   -0.0110 24.8 196 
 BRR  HZ EP        241 56.69                             151    0.0510 73.2 297 
 BRR  HN ES        242 13.12                             151    0.0910 73.2 297 
 BRR  HZ I         242 14.22         3.9 0.30            152           73.2 297 
 PAM  EZ EP        241 57.49                             151    0.0310 75.0  38 
 PAM  EN ES        242 14.42                             151   -0.0610 75.0  38 
 PAM  EZ I         242 15.88         1.7 0.22            152           75.0  38 
 RUS  HZ EP        241 59.19                             143   -0.0210  101 178 
 RUS  HN ES        242 17.58                             143   -0.0210  101 178 
 RUS  HZ I         242 18.57         1.4 0.39            144            101 178 
 ZAR  HE ES        242 33.42                             122   -0.10 8  206 292 
                                                                                
