 2017  6 1 0001  8.7 L   6.798 -73.171153.0  RSN  6 0.2 1.5LRSN                1
 GAP=211        0.45       2.9     3.1  4.1  0.6030E+01 -0.2127E+01 -0.1243E+01E
 Epicentro: LOS SANTOS - SANTANDER                                             3
 ACTION:UPD 17-09-14 16:48 OP:jn   STATUS:               ID:20170601000108 L   I
 OLDACT:REG 17-06-01 12:28 OP:and  STATUS:               ID:20170601000000     3
 2017-06-01-0000-15M.COL___356                                                 6
 STAT SP IPHASW D HRMM SECON CODA AMPLIT PERI AZIMU VELO AIN AR TRES W  DIS CAZ7
 BRR  HZ EP        0 1 30.61                             154    0.0910 68.8 300 
 BRR  HN ES        0 1 47.66                             154    0.1210 68.8 300 
 BRR  HZ I         0 1 51.67        13.0 0.42            151           68.8 300 
 RUS  HZ EP        0 1 33.09                             145   -0.1010  101 174 
 RUS  HN ES        0 1 52.08                             145   -0.1910  101 174 
 RUS  HZ I         0 1 52.60         2.0 0.28            148            101 174 
 PTB  HZ EP        0 1 36.23                             134    0.19 9  145 259 
 PTB  HN ES   4    0 2  0.78                             134    3.43 0  145 259 
 PTB  HZ I         0 2  2.31         4.2 0.34            133            145 259 
 SPBC HN ES        0 2  0.23                             131    0.10 9  161 218 
 YPLC HZ EP        0 1 39.06                             128   -0.10 9  178 151 
 YPLC HE ES        0 2  3.04                             128    0.14 9  178 151 
 ZAR  HZ EP   4    0 1 43.47                             124    2.08 0  202 292 
 ZAR  HE ES        0 2  6.59                             124   -0.28 9  202 292 
 ZAR  HZ I         0 2 13.62         2.0 0.10            124            202 292 
                                                                                
