 2014  6 1 0538 24.9 L   7.440 -73.205132.1  RSN  5 0.2 1.4LRSN                1
 GAP=115        0.46       2.5     2.6  3.7 -0.2129E+01  0.1464E+01  0.1518E+01E
 Epicentro: EL PLAYON - SANTANDER                                              3
 ACTION:UPD 14-07-01 22:49 OP:nd   STATUS:               ID:20140601053824 L   I
 OLDACT:REG 14-06-01 15:35 OP:stll STATUS:               ID:20140601053814     3
 2014-06-01-0538-14M.COL___250                                                 6
 STAT SP IPHASW D HRMM SECON CODA AMPLIT PERI AZIMU VELO AIN AR TRES W  DIS CAZ7
 PAM  SZ EP        538 44.74                             156    0.2310 56.9 101 
 PAM  SN ES        538 59.71                             156   -0.0910 56.9 101 
 PAM  SZ I         539  2.31         8.8 0.42            142           56.9 101 
 BRR  HZ EP        538 44.45                             151    0.1010 67.0 237 
 BRR  HN ES        538 59.41                             151   -0.0910 67.0 237 
 BRR  HZ I         539  0.46         7.8 0.26            146           67.0 237 
 OCA  HZ EP        538 46.00                             144   -0.0210 89.2 352 
 OCA  HN ES        539  2.49                             144    0.0010 89.2 352 
 OCA  HZ I         539  5.26         3.4 0.26            141           89.2 352 
 BAR2 SZ EP        538 46.42                             143   -0.0610 93.8 178 
 BAR2 SZ I         539  7.56         3.5 0.36            130           93.8 178 
 PTB  HZ EP        538 52.71                             124   -0.31 9  170 234 
 PTB  HN ES        539 15.17                             124    0.23 9  170 234 
 PTB  HZ I         539 18.07         3.7 0.28            117            170 234 
                                                                                
