 2016  9 1 0753 16.7 L   6.763 -73.092140.1  RSN  7 0.3 1.5LRSN                1
 GAP=145        0.70       3.0     3.1  4.8 -0.5498E+00  0.3265E+01  0.1172E+01E
 Epicentro: LOS SANTOS - SANTANDER                                             3
 ACTION:UPD 17-08-17 21:05 OP:lp   STATUS:               ID:20160901075316 L   I
 OLDACT:REG 16-09-01 12:59 OP:drio STATUS:               ID:20160901074731     3
 2016-09-01-0748-00M.COL___346                                                 6
 STAT SP IPHASW D HRMM SECON CODA AMPLIT PERI AZIMU VELO AIN AR TRES W  DIS CAZ7
 BAR2 EZ EP        753 35.57                             171   -0.0310 21.4 208 
 BAR2 EZ ES        753 49.87                             171   -0.4810 21.4 208 
 BAR2 EZ I         753 51.58         6.7 0.20            169           21.4 208 
 PAM  EZ EP        753 38.55                             150    0.2710 77.1  34 
 PAM  EE ES        753 55.07                             150   -0.0610 77.1  34 
 PAM  EZ I         753 57.15        10.3 0.44            154           77.1  34 
 BRR  HZ EP        753 37.32                             149   -0.3410 78.4 299 
 BRR  HE ES        753 54.25                             149    0.2210 78.4 299 
 BRR  HZ I         753 58.78         4.7 0.12            149           78.4 299 
 RUS  HZ EP        753 39.77                             144    0.2010 96.3 179 
 RUS  HN ES        753 57.81                             144    0.3910 96.3 179 
 RUS  HZ I         753 59.57         3.8 0.24            146           96.3 179 
 PTB  HZ EP        753 43.51                             130   -0.17 9  153 261 
 PTB  HE ES        754  4.99                             130    0.26 9  153 261 
 PTB  HZ I         754  6.00         3.0 0.38            130            153 261 
 SPBC HZ EP        753 44.63                             128   -0.20 9  164 222 
 SPBC HN ES        754  6.56                             128   -0.22 9  164 222 
 SPBC HZ I         754 13.18         4.0 0.36            129            164 222 
 ZAR  HE ES        754 15.26                             120    0.15 8  211 293 
 ZAR  HZ I         754 20.39         3.1 0.24            121            211 293 
                                                                                
