 2011  4 1 0309 15.7 L   6.869 -73.295121.9  RSN  8 0.2 1.9LRSN                1
 GAP=121        0.47       2.1     4.2  3.5  0.1579E+01 -0.4026E+01 -0.3574E+00E
 Epicentro: BETULIA - SANTANDER                                                3
 ACTION:UP  11-06-22 15:27 OP:REBC STATUS:               ID:20110401030915 L   I
 2011-04-01-0307-12S.COL___138                                                 6
 STAT SP IPHASW D HRMM SECON CODA AMPLIT PERI AZIMU VELO SNR AR TRES W  DIS CAZ7
 BTL  SZ IP        3 9 32.25                             176     0.110    6  29 
 BTL  SZ ES   2    3 9 45.34                             176     0.3 5    6  29 
 GIR2 SZ EP        3 9 32.31                             167     0.010   26  26 
 GIR2 SZ ES   2    3 9 45.23                             167    -0.1 5   26  26 
 BAR2 SZ IP        3 9 32.76                             164     0.010   33 158 
 BAR2 SZ ES   1    3 9 45.85                             164    -0.2 7   33 158 
 BAR2 SZ I         3 9 47.10        44.2 0.46                            33 158 
 BRR  HZ IP     D  3 9 33.15                             155    -0.110   53 300 
 BRR  HN ES   1    3 9 46.92                             155     0.0 7   53 300 
 BRR  HZ I         3 9 48.03        23.6 0.13                            53 300 
 GRA  SZ EP        3 9 38.98                             131     0.210  125  26 
 GRA  SZ ES   1    3 9 57.14                             131     0.3 7  125  26 
 GRA  SZ I         310  5.87         8.4 0.28                           125  26 
 OCA  SZ EP        3 9 41.04                             125    -0.3 9  152 359 
 OCA  SZ ES   1    310  1.32                             125    -0.1 7  152 359 
 OCA  SZ I         310  8.38        16.1 0.19                           152 359 
 YOP  SZ EP        3 9 45.70                             118     0.0 9  193 150 
 YOP  SN ES   2    310  9.12                             118     0.1 4  193 150 
 HEL  HZ EP   3    3 9 54.46                             111     1.3 2  258 253 
 HEL  HZ I         310 27.28         3.3 0.65                           258 253 
                                                                                
