 2014  8 1 0146  7.1 L   6.792 -73.136150.9  RSN  8 0.4 1.7LRSN                1
 GAP=138        0.97       4.0     4.0  6.2 -0.1997E+01  0.6667E+01  0.5024E+00E
 Epicentro: LOS SANTOS - SANTANDER                                             3
 ACTION:UPD 14-09-15 21:46 OP:nd   STATUS:               ID:20140801014607 L   I
 OLDACT:REG 14-08-01 13:15 OP:y    STATUS:               ID:20140801013817     3
 2014-08-01-0138-17M.COL___260                                                 6
 STAT SP IPHASW D HRMM SECON CODA AMPLIT PERI AZIMU VELO AIN AR TRES W  DIS CAZ7
 BAR2 SZ EP        146 27.37                             171   -0.0110 22.6 193 
 BAR2 SZ ES        146 43.34                             171    0.1710 22.6 193 
 BAR2 SZ I         146 43.83        10.0 0.16            168           22.6 193 
 BRR  HZ EP        146 29.20                             153    0.2710 72.5 299 
 BRR  HN ES        146 46.51                             153    0.5910 72.5 299 
 BRR  HZ I         146 49.25        10.1 0.46            151           72.5 299 
 PAM  SZ EP        146 30.12                             152    0.2010 77.4  39 
 PAM  SN ES        146 47.18                             152   -0.5010 77.4  39 
 PAM  SZ I         146 48.69         5.8 0.16            157           77.4  39 
 RUS  HZ EP        146 31.29                             145   -0.0510 99.6 177 
 RUS  HN ES        146 50.31                             145    0.1010 99.6 177 
 RUS  HZ I         146 51.57         4.1 0.32            146           99.6 177 
 PTB  HZ EP        146 34.21                             133   -0.40 9  149 259 
 PTB  HN ES        146 55.28                             133   -0.76 9  149 259 
 PTB  HZ I         147  0.26         7.6 0.42            132            149 259 
 SPBC HZ EP        146 36.29                             130    0.25 9  163 219 
 SPBC HE ES        146 58.12                             130   -0.46 9  163 219 
 SPBC HZ I         147  5.59        10.7 0.24            130            163 219 
 ZAR  HZ EP        146 39.99                             123   -0.08 8  205 292 
 ZAR  HN ES        147  5.80                             123    0.06 8  205 292 
 ZAR  HZ I         147 11.73         5.1 0.26            123            205 292 
 NOR  HN ES        147 11.98                             120    0.64 8  235 235 
 NOR  HZ I         147 18.42         5.3 0.18            120            235 235 
                                                                                
