 2011  3 1 0721 47.9 L   6.756 -73.145135.8  RSN  4 0.4 1.5LRSN                1
 GAP=160        0.72       8.1    41.7 18.4 -0.1077E+03  0.7011E+02 -0.1135E+03E
 Epicentro: LOS SANTOS - SANTANDER                                             3
 ACTION:UP  11-06-16 14:31 OP:jfem STATUS:               ID:20110301071945 L   I
 2011-03-01-0719-45S.COL___135                                                 6
 STAT SP IPHASW D HRMM SECON CODA AMPLIT PERI AZIMU VELO SNR AR TRES W  DIS CAZ7
 BAR2 SZ EP   3    722  6.86                             171     0.6 3   19 193 
 BAR2 SZ ES   3    722 21.36                             171     0.8 3   19 193 
 BAR2 SZ I         722 23.80         6.1 0.69                            19 193 
 RUS  HZ EP   1 C  722 10.69                             142     0.4 8   96 176 
 RUS  HN ES   1    722 27.36                             142    -0.4 8   96 176 
 GRA  SZ EP        722 12.71                             133     0.110  130  17 
 OCA  SZ EP   2    722 15.41                             125    -0.5 5  165 353 
 OCA  SZ I         722 41.97         4.1 0.27                           165 353 
                                                                                
