 2011 10 1 0843 17.0 L   6.806 -73.087134.3  RSN  4 0.1 1.4LRSN                1
 GAP=144        0.33       2.8     3.7  3.8  0.1083E+01 -0.3095E+01  0.1809E+00E
 Epicentro: LOS SANTOS - SANTANDER                                             3
 ACTION:UPD 12-07-13 16:01 OP:ep   STATUS:               ID:20111001084316 L   I
 2011-10-01-0842-06S.COL___168                                                 6
 STAT SP IPHASW D HRMM SECON CODA AMPLIT PERI AZIMU VELO AIN AR TRES W  DIS CAZ7
 BAR2 SZ EP   1    843 35.23                             169   -0.04 7 25.9 204 
 BAR2 SZ ES   1    843 49.53                             169   -0.02 7 25.9 204 
 BAR2 SZ I         843 51.57         6.2 0.15                          25.9 204 
 PAM  SZ EP   1    843 37.87                             150    0.19 7 72.8  36 
 PAM  SE ES   2    843 53.68                             150   -0.17 5 72.8  36 
 BRR  HZ EP   1    843 37.07                             149   -0.15 7 76.6 296 
 BRR  HN ES   1    843 53.10                             149    0.08 7 76.6 296 
 BRR  HZ I         843 57.95         8.0 0.09                          76.6 296 
 RUS  HZ EP   1    843 39.59                             141   -0.05 7  101 180 
 RUS  HN ES   2    843 57.45                             141    0.13 5  101 180 
 RUS  HZ I         843 59.65         2.8 0.19                           101 180 
                                                                                
