 2012  4 1 0237 50.8 L   6.782 -73.105143.6  RSN  5 0.2 1.7LRSN                1
 GAP=240        0.56       8.6     9.1  9.2  0.5118E+02  0.1566E+02 -0.2408E+02E
 Epicentro: LOS SANTOS - SANTANDER                                             3
 ACTION:UPD 12-07-05 11:49 OP:tino STATUS:               ID:20120401023750 L   I
 2012-04-01-0230-00M.COL___196                                                 6
 STAT SP IPHASW D HRMM SECON CODA AMPLIT PERI AZIMU VELO AIN AR TRES W  DIS CAZ7
 BAR2 SZ EP   1    238 10.24                             170     0.1 7   23 202 
 BAR2 SZ ES   1    238 24.95                             170    -0.3 7   23 202 
 BAR2 SZ I         238 26.00         7.2 0.26                            23 202 
 BRR  HZ EP   1    238 12.09                             150     0.1 7   76 298 
 BRR  HZ I         238 12.54        12.7 0.10                            76 298 
 RUS  HN ES   1    238 32.56                             143     0.2 7   98 179 
 PTB  HZ EP   2    238 17.41                             130    -0.5 5  152 260 
 ZAR  HN ES   1    238 49.36                             121     0.2 6  209 292 
 ZAR  HZ I         239  4.75         4.3 0.08                           209 292 
                                                                                
