 2015 11 1 0105 16.9 L   6.496 -73.506112.3  RSN  6 0.4 1.4LRSN                1
 GAP= 93        1.06       4.2     6.0  8.7  0.6504E+01  0.2507E+02  0.3543E+01E
 Epicentro: SIMACOTA - SANTANDER                                               3
 ACTION:UPD 15-12-28 16:08 OP:cam  STATUS:               ID:20151101010516 L   I
 OLDACT:UP  15-11-16 04:14 OP:AR   STATUS:               ID:20151101010516 L   3
 OLDACT:UP  15-11-06 04:23 OP:mh   STATUS:               ID:20151101010516 L   3
 OLDACT:UP  15-11-06 04:23 OP:mh   STATUS:               ID:20151101010516 L   3
 OLDACT:UP  15-11-06 04:22 OP:mh   STATUS:               ID:20151101010516 L   3
 OLDACT:UP  15-11-06 04:22 OP:mh   STATUS:               ID:20151101010516 L   3
 OLDACT:UP  15-11-06 04:22 OP:mh   STATUS:               ID:20151101010516 L   3
 OLDACT:UP  15-11-05 10:09 OP:Mher STATUS:               ID:20151101010516 L   3
 OLDACT:UP  15-11-01 12:34 OP:mh   STATUS:               ID:20151101005748     3
 OLDACT:REG 15-11-01 12:24 OP:mh   STATUS:               ID:20151101005748     3
 2015-11-01-0057-48M.COL___292                                                 6
 STAT SP IPHASW D HRMM SECON CODA AMPLIT PERI AZIMU VELO AIN AR TRES W  DIS CAZ7
 BAR2 EZ EP     D  1 5 33.34                             160    0.3610 37.3  73 
 BAR2 EZ ES        1 5 45.97                             160    0.4410 37.3  73 
 BAR2 EZ I         1 5 47.02        10.2 0.26            165           37.3  73 
 BRR  HZ EP        1 5 34.25                             145   -0.2910 71.3 341 
 BRR  HN ES        1 5 47.61                             145   -0.7010 71.3 341 
 BRR  HZ I         1 5 55.81         6.7 0.32            147           71.3 341 
 RUS  HZ EP        1 5 35.63                             141   -0.3510 81.5 145 
 RUS  HN ES        1 5 51.12                             141    0.2510 81.5 145 
 RUS  HZ I         1 5 51.92         4.4 0.24            150           81.5 145 
 SPBC HZ EP        1 5 37.93                             132   -0.0910  112 214 
 SPBC HN ES        1 5 54.31                             132   -0.1910  112 214 
 SPBC HZ I         1 5 56.07         6.8 0.10            137            112 214 
 ZAR  HZ EP        1 5 45.54                             116    0.18 9  186 306 
 ZAR  HN ES   1    1 6  8.53                             116    0.96 7  186 306 
 ZAR  HZ I         1 6  9.18         5.4 0.28            120            186 306 
 GUY2CHZ EP   4    1 5 55.36                             109    2.24 0  249 236 
 GUY2CHN ES   4    1 6 24.40                             109    3.01 0  249 236 
 GUY2CHZ I         1 6 32.01         1.0 0.58                           249 236 
                                                                                
