 2014 10 1 0443 11.5 L   5.950 -73.833112.0  RSN  5 0.2 1.2LRSN                1
 GAP=130        0.67       2.2     3.7  6.0 -0.1077E+01 -0.5023E+01  0.1921E+01E
 Epicentro: SUCRE - SANTANDER                                                  3
 ACTION:UPD 14-11-29 23:45 OP:nd   STATUS:               ID:20141001044311 L   I
 OLDACT:REG 14-10-01 12:51 OP:stll STATUS:               ID:20141001043817     3
 2014-10-01-0438-17M.COL___286                                                 6
 STAT SP IPHASW D HRMM SECON CODA AMPLIT PERI AZIMU VELO AIN AR TRES W  DIS CAZ7
 SPBC HZ EP        443 27.99                             158    0.3910 42.3 219 
 SPBC HZ I         443 28.12         4.4 0.18            158           42.3 219 
 SPBC HN ES        443 40.27                             158    0.1510 42.3 219 
 PTB  HZ EP        443 30.69                             137   -0.3210 94.8 313 
 PTB  HN ES        443 46.12                             137   -0.0710 94.8 313 
 PTB  HZ I         443 48.76         2.1 0.16            136           94.8 313 
 BAR2 SZ EP        443 32.20                             135    0.3510  101  45 
 BAR2 SZ ES        443 47.44                             135   -0.2510  101  45 
 BAR2 SZ I         443 49.16         7.4 0.50            135            101  45 
 BRR  HN ES        443 51.67                             127    0.0410  129   6 
 CHI  HZ EP        443 36.32                             124   -0.07 9  146 176 
 CHI  HZ I         443 37.52         1.3 0.38            124            146 176 
 CHI  HN ES        443 55.51                             124   -0.26 9  146 176 
                                                                                
