 2012  8 1 0400  7.0 L   7.419 -73.152140.6  RSN  6 0.3 1.8LRSN                1
 GAP=189        0.57       3.0     4.1  6.0  0.1510E+01 -0.1824E+01  0.1740E+01E
 Epicentro: EL PLAYON - SANTANDER                                              3
 ACTION:UPD 12-09-10 11:53 OP:ep   STATUS:               ID:20120801040007 L   I
 2012-08-01-0400-00M.COL___215                                                 6
 STAT SP IPHASW D HRMM SECON CODA AMPLIT PERI AZIMU VELO AIN AR TRES W  DIS CAZ7
 BRR  HZ EP        4 0 27.71                             152    0.1310 70.8 241 
 BRR  HN ES   1    4 0 44.14                             152    0.51 7 70.8 241 
 BRR  HZ I         4 0 45.13        19.0 0.10                          70.8 241 
 BAR2 SZ EP        4 0 29.38                             145    0.1410 91.5 182 
 BAR2 SZ ES   1    4 0 46.54                             145   -0.05 7 91.5 182 
 BAR2 SZ I         4 0 47.37        10.4 0.30                          91.5 182 
 OCA  HZ EP   1    4 0 29.31                             145    0.12 7 92.5 348 
 OCA  HN ES   1    4 0 46.14                             145   -0.36 7 92.5 348 
 RUS  HZ EP   1    4 0 36.26                             127    0.05 7  169 177 
 RUS  HN ES   1    4 0 58.46                             127   -0.53 7  169 177 
 PTB  HZ EP   1    4 0 36.00                             126   -0.06 7  174 236 
 PTB  HN ES   1    4 0 58.71                             126   -0.02 7  174 236 
 PTB  HZ I         4 1  1.53         5.8 0.15                           174 236 
 ZAR  HN ES   1    4 1  1.00                             123   -0.32 7  189 273 
                                                                                
