 2017 11 1 0304 58.1 L   6.799 -73.150145.6  RSN 16 0.4 2.3LRSN                1
 GAP=101        0.91       2.8     2.5  4.7  0.2811E+00  0.2378E+01  0.2265E+01E
 Epicentro: LOS SANTOS - SANTANDER                                             3
 ACTION:UPD 17-12-12 19:50 OP:rebc STATUS:               ID:20171101030458 L   I
 OLDACT:UP  17-11-01 15:28 OP:dnl  STATUS:               ID:20171101025740     3
 OLDACT:REG 17-11-01 13:28 OP:dnl  STATUS:               ID:20171101025740     3
 2017-11-01-0258-00M.COL___420                                                 6
 STAT SP IPHASW D HRMM SECON CODA AMPLIT PERI AZIMU VELO AIN AR TRES W  DIS CAZ7
 BAR2 EZ EP        3 5 17.56                             171   -0.1410 23.2 189 
 BAR2 EZ ES        3 5 32.50                             171   -0.4910 23.2 189 
 BAR2 EZ I         3 5 33.52        97.1 0.22            168           23.2 189 
 BRR  HZ IP     C  3 5 19.42                             153    0.2210 70.9 299 
 BRR  HE ES        3 5 36.51                             153    0.8410 70.9 299 
 BRR  HZ I         3 5 37.47        36.8 0.14            153           70.9 299 
 PAM  EZ EP        3 5 20.38                             151    0.0710 77.7  40 
 PAM  EE ES        3 5 37.50                             151   -0.1410 77.7  40 
 PAM  EZ I         3 5 39.81        37.2 0.66            154           77.7  40 
 RUS  HZ EP        3 5 21.58                             144   -0.2410  101 176 
 RUS  HE ES        3 5 40.26                             144   -0.0710  101 176 
 RUS  HZ I         3 5 41.05        19.3 0.34            143            101 176 
 PTB  HZ EP        3 5 24.35                             132   -0.66 9  147 259 
 PTB  HE ES        3 5 45.59                             132   -0.41 9  147 259 
 PTB  HZ I         3 5 49.29        19.3 0.12            132            147 259 
 TAM  HZ EP        3 5 25.89                             130    0.09 9  156 105 
 TAM  HE ES        3 5 47.21                             130   -0.19 9  156 105 
 SPBC HZ EP        3 5 26.53                             129   -0.02 9  163 219 
 SPBC HE ES        3 5 48.87                             129    0.13 9  163 219 
 SPBC HZ I         3 5 53.64        26.9 0.36            129            163 219 
 YPLC HZ EP        3 5 27.96                             127    0.07 9  177 151 
 YPLC HN ES        3 5 51.79                             127    0.66 9  177 151 
 YPLC HZ I         3 5 54.52         9.2 0.24            127            177 151 
 ZAR  HZ EP        3 5 30.61                             122    0.12 9  204 292 
 ZAR  HE ES        3 5 56.39                             122    0.63 9  204 292 
 ZAR  HZ I         3 5 58.49        18.1 0.20            123            204 292 
 NOR  HZ EP        3 5 33.73                             119   -0.04 8  234 234 
 NOR  HN ES        3 6  1.17                             119   -0.42 8  234 234 
 NOR  HZ I         3 6  5.49        15.0 0.40            119            234 234 
 CHI  HZ EP   2    3 5 35.92                             117    0.16 4  248 195 
 CHI  HN ES        3 6  5.27                             117    0.13 8  248 195 
 CHI  HZ I         3 6  8.69         5.8 0.64            117            248 195 
 URE  HZ EP        3 5 38.51                             114   -0.60 7  283 292 
 URE  HE ES   4    3 6  9.59                             114   -1.52 0  283 292 
 URE  HZ I         3 6 11.62        15.3 0.14            114            283 292 
 GUY2CHZ EP   4    3 5 42.92                             112    1.27 0  301 235 
 GUY2CHN ES        3 6 15.59                             112   -0.03 7  301 235 
 GUY2CHZ I         3 6 22.92         7.8 0.70                           301 235 
 PTGC HZ EP   4    3 5 40.67                             112   -1.28 0  309 159 
 PTGC HE ES   4    3 6 13.83                             112   -2.33 0  309 159 
 PTGC HZ I         3 6 22.60        11.9 0.44            112            309 159 
 PRA  HZ EP   2    3 5 52.31                             107    0.74 3  392 210 
 PRA  HN ES        3 6 33.90                             107    0.61 6  392 210 
 PRA  HZ I         3 6 39.17         3.7 0.18            107            392 210 
 SJC  HZ EP   4    3 5 52.32                             106   -1.31 0  409 327 
 SJC  HN ES   4    3 6 32.44                             106   -4.51 0  409 327 
 SJC  HZ I         3 6 37.47         4.3 0.68            106            409 327 
                                                                                
