 2013  3 1 0007 56.3 L   6.816 -73.151142.1  RSN 14 0.5 2.7LRSN 3.2WRSN        1
 SPEC AVERAGE  MO 13.8 ST  8.7 OM  1.9 f0 3.80 R0.4150 AL 2.28 WI 23.9 MW  3.2 3
 SPEC SD       MO  0.2 ST 10.7 OM  0.4 f0 1.02 R0.1081 AL      WI      MW  0.2 3
 GAP= 70        1.09       2.9     3.3  5.9 -0.4616E+00  0.5816E+01  0.1349E+01E
 Epicentro: LOS SANTOS - SANTANDER                                             3
 SPEC ZAR HH N MO 14.1 ST 38.6 OM  2.3 f0 6.10 R0.2410 AL 2.86 WI 29.3 MW  3.3 3
 SPEC ZAR HH N T 0 853 K 0.000 GD  247 VS 4.20 DE 3.20 Q0300.0 QA 0.60 VS 4.20 3
 SPEC TAM HH N MO 13.7 ST0.918 OM  2.0 f0 2.33 R0.6309 AL 2.04 WI 16.1 MW  3.1 3
 SPEC TAM HH N T 0 844 K 0.000 GD  211 VS 4.20 DE 3.20 Q0300.0 QA 0.60 VS 4.20 3
 SPEC PRA HH N MO 13.6 ST  1.7 OM  1.6 f0 3.09 R0.4757 AL 1.81 WI 18.7 MW  3.0 3
 SPEC PRA HH N T 0 930 K 0.000 GD  417 VS 4.20 DE 3.20 Q0300.0 QA 0.60 VS 4.20 3
 SPEC RREFHH Z MO 13.6 ST  4.7 OM  0.9 f0 4.34 R0.3387 AL 2.45 WI 27.9 MW  3.0 3
 SPEC RREFHH Z T 0 843 K 0.000 GD  352 VP 7.60 DE 3.20 Q0300.0 QA 0.60 VS 4.20 3
 SPEC PTB HH N MO 13.8 ST  5.9 OM  2.1 f0 4.06 R0.3621 AL 1.47 WI 33.7 MW  3.1 3
 SPEC PTB HH N T 0 842 K 0.000 GD  205 VS 4.20 DE 3.20 Q0300.0 QA 0.60 VS 4.20 3
 SPEC RUS HH N MO 13.5 ST  1.2 OM  1.9 f0 2.91 R0.5052 AL 2.36 WI 18.2 MW  3.0 3
 SPEC RUS HH N T 0 837 K 0.000 GD  174 VS 4.20 DE 3.20 Q0300.0 QA 0.60 VS 4.20 3
 SPEC HEL HH N MO 13.6 ST  1.3 OM  1.7 f0 2.89 R0.5087 AL 1.79 WI 34.8 MW  3.0 3
 SPEC HEL HH N T 0 9 7 K 0.000 GD  306 VS 4.20 DE 3.20 Q0300.0 QA 0.60 VS 4.20 3
 SPEC OCA HH N MO 14.2 ST 11.5 OM  2.5 f0 3.68 R0.3995 AL 2.49 WI 23.2 MW  3.4 3
 SPEC OCA HH N T 0 845 K 0.000 GD  212 VS 4.20 DE 3.20 Q0300.0 QA 0.60 VS 4.20 3
 SPEC PAM SH Z MO 14.1 ST 11.2 OM  1.7 f0 4.08 R0.3603 AL 2.16 WI 12.6 MW  3.3 3
 SPEC PAM SH Z T 0 818 K 0.000 GD  161 VP 7.60 DE 3.20 Q0300.0 QA 0.60 VS 4.20 3
 SPEC BRR HH N MO 13.9 ST  9.8 OM  2.3 f0 4.48 R0.3281 AL 3.40 WI 24.7 MW  3.2 3
 SPEC BRR HH N T 0 834 K 0.000 GD  158 VS 4.20 DE 3.20 Q0300.0 QA 0.60 VS 4.20 3
 ACTION:UPD 13-04-09 13:58 OP:ep   STATUS:               ID:20130301000756 L   I
 2013-03-01-0000-50M.COL___199                                                 6
 STAT SP IPHASW D HRMM SECON CODA AMPLIT PERI AZIMU VELO AIN AR TRES W  DIS CAZ7
 BAR2 SZ IP     C  0 8 15.54                             169    0.0110 25.0 188 
 BAR2 SZ ES        0 8 30.39                             169   -0.1310 25.0 188 
 BAR2 SZ I         0 8 31.44       111.5 0.20            169           25.0 188 
 BRR  HZ IP     D  0 8 17.45                             152    0.4710 69.9 297 
 BRR  HZ I         0 8 17.75        82.4 0.24            150           69.9 297 
 PAM  SZ EP        0 8 18.37                             150    0.3010 76.3  41 
 PAM  SZ I         0 8 18.74       124.2 0.24            145           76.3  41 
 PAM  SN ES        0 8 35.30                             150    0.2610 76.3  41 
 RUS  HZ EP        0 8 19.57                             142   -0.2610  102 176 
 RUS  HN ES        0 8 37.79                             142   -0.3910  102 176 
 RUS  HN I         0 8 39.78        50.3 0.26            139            102 176 
 PTB  HZ I         0 8 24.78        39.8 0.36            128            148 258 
 PTB  HN ES        0 8 43.29                             131   -0.46 9  148 258 
 TAM  HZ EP        0 8 23.78                             129   -0.01 9  156 106 
 TAM  HN ES        0 8 45.37                             129    0.15 9  156 106 
 TAM  HN I         0 8 45.79        77.2 0.42            124            156 106 
 OCA  HZ EP        0 8 23.88                             129   -0.27 9  158 353 
 OCA  HN ES        0 8 45.58                             129   -0.30 9  158 353 
 OCA  HN I         0 8 49.60       236.6 0.18            124            158 353 
 ZAR  HZ EP        0 8 28.64                             122    0.25 9  203 292 
 ZAR  HN ES        0 8 53.93                             122    0.52 9  203 292 
 ZAR  HN I         0 8 59.92        75.7 0.20            118            203 292 
 SML  HZ EP        0 8 32.04                             117   -0.48 8  242 335 
 SML  HE ES   1    0 9  0.35                             117   -0.42 6  242 335 
 SML  HN I         0 9  9.65       110.5 0.10            113            242 335 
 CHI  HZ EP        0 8 33.77                             116   -0.21 8  250 195 
 CHI  HN ES   1    0 9  2.97                             116   -0.39 6  250 195 
 CHI  HN I         0 9  8.64        25.6 0.68            113            250 195 
 ROSC BZ EP        0 8 35.66                             116    1.30 8  254 211 
 ROSC BN ES   1    0 9  5.67                             116    1.62 6  254 211 
 ROSC BZ I         0 9 11.55        20.4 0.50            112            254 211 
 HEL  HZ EP   1    0 8 35.90                             114   -0.42 6  272 255 
 HEL  HN ES        0 9  7.75                             114    0.22 8  272 255 
 HEL  HN I         0 9 13.24        14.8 0.60            111            272 255 
 RREF HN ES        0 9 17.72                             110   -0.59 7  323 229 
 PRA  HE EP        0 8 49.12                             106   -0.73 6  393 209 
 PRA  HN ES        0 9 31.15                             106   -0.47 6  393 209 
 PRA  HN I         0 9 37.49         9.6 0.62            103            393 209 
                                                                                
