 2015  2 1 0930  9.5 L   6.751 -73.080151.8  RSN  5 0.3 1.4LRSN                1
 GAP=238        0.55       3.0     5.8  5.3  0.1172E+01  0.4032E+01 -0.2466E+01E
 Epicentro: LOS SANTOS - SANTANDER                                             3
 ACTION:UPD 15-04-30 21:20 OP:nd   STATUS:               ID:20150201093009 L   I
 OLDACT:REG 15-02-01 12:28 OP:spq  STATUS:               ID:20150201092744     3
 2015-02-01-0927-44M.COL___255                                                 6
 STAT SP IPHASW D HRMM SECON CODA AMPLIT PERI AZIMU VELO AIN AR TRES W  DIS CAZ7
 BAR2 EZ ES   1    930 45.51                             172   -0.18 7 20.9 213 
 BAR2 EZ I         930 46.37         3.4 0.16            166           20.9 213 
 BRR  HZ EP   1    930 32.36                             151    0.51 7 80.1 299 
 BRR  HE ES        930 49.22                             151   -0.0410 80.1 299 
 BRR  HZ I         930 53.29         4.2 0.42            147           80.1 299 
 SPBC HZ EP   1    930 38.20                             130   -0.36 7  164 222 
 SPBC HE ES        931  1.36                             130    0.16 9  164 222 
 SPBC HZ I         931  5.15         2.7 0.22            129            164 222 
 ZAR  HN ES        931  9.45                             122   -0.14 8  213 293 
 ZAR  HZ I         931 14.58         1.9 0.19            122            213 293 
 SML  HZ EP   1    930 47.13                             118   -0.23 6  252 334 
 SML  HN ES   1    931 17.03                             118    0.17 6  252 334 
 SML  HZ I         931 18.44         2.6 0.10            118            252 334 
                                                                                
