 2014  5 1 0854 58.1 L   6.880 -73.085143.0  RSN  4 0.3 1.1LRSN                1
 GAP=251        0.69       6.7     5.2 11.4  0.1713E+02 -0.1379E+02 -0.4179E+02E
 Epicentro: LOS SANTOS - SANTANDER                                             3
 ACTION:UPD 15-03-16 16:54 OP:nd   STATUS:               ID:20140501085458 L   I
 OLDACT:REG 14-05-01 13:53 OP:mh   STATUS:               ID:20140501085000     3
 2014-05-01-0850-00M.COL___273                                                 6
 STAT SP IPHASW D HRMM SECON CODA AMPLIT PERI AZIMU VELO AIN AR TRES W  DIS CAZ7
 RUS  HZ EP        855 22.35                             141    0.1210  109 180 
 RUS  HN ES   1    855 41.09                             141    0.05 7  109 180 
 RUS  HZ I         855 44.21         1.0 0.32            159            109 180 
 PTB  HZ EP        855 25.64                             130    0.02 9  156 256 
 PTB  HN ES        855 46.66                             130   -0.43 9  156 256 
 PTB  HZ I         855 48.73         2.2 0.11            140            156 256 
 ZAR  HZ EP        855 30.43                             121   -0.26 9  207 289 
 ZAR  HE ES   1    855 56.79                             121    0.68 6  207 289 
 ZAR  HZ I         856  7.67         1.1 0.17            129            207 289 
 NOR  HN ES        856  3.63                             117    0.18 8  245 234 
                                                                                
