 2015  8 1 0101  7.0 L   7.466 -73.196131.8  RSN  5 0.3 1.6LRSN                1
 GAP=131        0.88       4.4     4.3  7.0  0.5894E+00  0.9873E+01 -0.5223E+01E
 Epicentro: EL PLAYON - SANTANDER                                              3
 ACTION:UPD 15-09-15 22:59 OP:cam  STATUS:               ID:20150801010107 L   I
 OLDACT:DUP 15-08-01 13:57 OP:drio STATUS:               ID:20150801005750d    3
 OLDACT:UP  15-08-01 13:51 OP:drio STATUS:               ID:20150801005749d    3
 OLDACT:DUP 15-08-01 12:49 OP:drio STATUS:               ID:20150801005749d    3
 2015-08-01-0057-48M.COL___352                                                 6
 STAT SP IPHASW D HRMM SECON CODA AMPLIT PERI AZIMU VELO AIN AR TRES W  DIS CAZ7
 PAM  EZ EP        1 1 26.62                             156    0.0510 56.6 104 
 PAM  EN ES        1 1 41.69                             156   -0.1310 56.6 104 
 PAM  EZ I         1 1 43.60         5.8 0.60            158           56.6 104 
 BRR  HZ EP        1 1 26.40                             150   -0.1610 69.4 235 
 BRR  HN ES        1 1 41.57                             150   -0.2410 69.4 235 
 BRR  HZ I         1 1 42.01         8.0 0.14            152           69.4 235 
 OCA  HZ EP        1 1 28.33                             145    0.4210 86.5 351 
 OCA  HN ES        1 1 44.61                             145    0.4110 86.5 351 
 OCA  HZ I         1 1 46.63         8.9 0.18            145           86.5 351 
 SML  HZ EP        1 1 35.40                             123   -0.28 9  176 327 
 SML  HN ES        1 1 57.36                             123   -0.68 9  176 327 
 SML  HZ I         1 1 59.19         7.7 0.32            124            176 327 
 ZAR  HZ EP        1 1 36.47                             122    0.04 9  183 271 
 ZAR  HN ES        1 1 59.85                             122    0.48 9  183 271 
 ZAR  HZ I         1 2  2.84         5.8 0.40            123            183 271 
                                                                                
