 2015  1 1 0729 30.0 L   6.675 -73.568109.6  RSN  4 0.2 0.7LRSN                1
 GAP=121        0.62       3.9     3.2  6.2  0.4738E+01  0.6674E+01  0.5045E+01E
 Epicentro: EL CARMEN - SANTANDER                                              3
 ACTION:UPD 15-03-02 15:35 OP:nd   STATUS:               ID:20150101072930 L   I
 OLDACT:DUP 15-01-01 18:56 OP:stll STATUS:               ID:20150101072738d    3
 OLDACT:DUP 15-01-01 18:53 OP:stll STATUS:               ID:20150101072737d    3
 OLDACT:DUP 15-01-01 18:42 OP:stll STATUS:               ID:20150101072736d    3
 OLDACT:REG 15-01-01 15:24 OP:stll STATUS:               ID:20150101072735     3
 2015-01-01-0727-35M.COL___277                                                 6
 STAT SP IPHASW D HRMM SECON CODA AMPLIT PERI AZIMU VELO AIN AR TRES W  DIS CAZ7
 BAR2 EZ EP        729 46.01                             157   -0.0610 43.6 102 
 BAR2 EZ ES        729 58.34                             157   -0.2610 43.6 102 
 BAR2 EZ I         729 59.09         3.5 0.20            157           43.6 102 
 BRR  HZ EP        729 45.86                             153   -0.2010 50.3 342 
 BRR  HZ I         729 46.55         1.3 0.40            156           50.3 342 
 BRR  HN ES        729 58.92                             153    0.3310 50.3 342 
 PTB  HZ EP        729 49.83                             134    0.1910 99.4 261 
 PTB  HN ES        730  4.77                             134   -0.2010 99.4 261 
 PTB  HZ I         730  6.43         1.0 0.16            134           99.4 261 
 RUS  HN ES        730  6.71                             134    0.2010  102 148 
 RUS  HZ I         730  8.51         0.9 0.26            134            102 148 
                                                                                
