 2014  9 1 0132 51.8 L   6.786 -73.150150.0  RSN  9 0.4 2.0LRSN                1
 GAP=200        0.82       3.2     4.9  5.4  0.2362E+01  0.3631E+01  0.1085E+01E
 Epicentro: LOS SANTOS - SANTANDER                                             3
 ACTION:UPD 14-10-03 23:01 OP:nd   STATUS:               ID:20140901013251 L   I
 OLDACT:REG 14-09-01 11:49 OP:mh   STATUS:               ID:20140901013000     3
 2014-09-01-0130-00M.COL___282                                                 6
 STAT SP IPHASW D HRMM SECON CODA AMPLIT PERI AZIMU VELO AIN AR TRES W  DIS CAZ7
 BAR2 SZ EP        133 12.12                             171    0.2110 21.7 190 
 BAR2 SZ ES        133 27.10                             171   -0.5010 21.7 190 
 BAR2 SZ I         133 28.57        31.9 0.42            168           21.7 190 
 BRR  HZ IP     C  133 13.97                             153    0.5410 71.6 300 
 BRR  HN ES   1    133 30.92                             153    0.62 7 71.6 300 
 BRR  HZ I         133 34.26        11.3 0.23            149           71.6 300 
 RUS  HZ EP        133 15.80                             145   -0.0610 99.0 176 
 RUS  HN ES   1    133 34.53                             145   -0.10 7 99.0 176 
 RUS  HZ I         133 36.14         9.9 0.24            147           99.0 176 
 PTB  HZ EP   1    133 18.69                             133   -0.36 7  147 259 
 PTB  HN ES   1    133 40.02                             133   -0.28 7  147 259 
 PTB  HZ I         133 43.82         8.2 0.41            131            147 259 
 SPBC HZ EP        133 20.95                             130    0.46 9  162 219 
 SPBC HN ES        133 42.90                             130    0.04 9  162 219 
 SPBC HZ I         133 49.03        16.4 0.22            130            162 219 
 ZAR  HN ES   1    133 50.05                             123   -0.03 6  204 293 
 ZAR  HZ I         133 56.50         6.9 0.30            122            204 293 
 NOR  HZ EP        133 27.62                             119   -0.02 8  233 235 
 NOR  HN ES   1    133 55.43                             119   -0.17 6  233 235 
 NOR  HZ I         134  0.17         8.0 0.13            119            233 235 
 SML  HZ EP   1    133 27.94                             118   -0.86 6  245 336 
 SML  HN ES   1    133 57.25                             118   -0.42 6  245 336 
 SML  HZ I         134  2.53        16.8 0.05            119            245 336 
 CHI  HZ EP        133 29.78                             118    0.22 8  247 195 
 CHI  HN ES        133 58.72                             118   -0.29 8  247 195 
 CHI  HZ I         134  2.12         3.0 0.25            119            247 195 
                                                                                
