 2012 11 1 0334 55.7 L   6.825 -73.078150.0  RSN  8 0.3 2.1LRSN                1
 GAP=144        0.71       3.4     5.7  7.1  0.4241E+01  0.9296E+01  0.5401E+01E
 Epicentro: LOS SANTOS - SANTANDER                                             3
 ACTION:UPD 12-12-05 15:30 OP:}ep  STATUS:               ID:20121101033455 L   I
 2012-11-01-0330-00M.COL___234                                                 6
 STAT SP IPHASW D HRMM SECON CODA AMPLIT PERI AZIMU VELO AIN AR TRES W  DIS CAZ7
 BAR2 SZ EP        335 15.90                             169    0.0010 28.2 204 
 BAR2 SZ ES   1    335 31.78                             169    0.09 7 28.2 204 
 BAR2 SZ I         335 32.66        19.0 0.24                          28.2 204 
 GIR2 SZ EP   2    335 16.08                             168    0.26 5 30.8 335 
 PAM  SE ES   1    335 35.13                             154   -0.19 7 70.6  36 
 PAM  SE I         335 38.70         9.8 0.54                          70.6  36 
 BRR  HZ EP        335 17.80                             151    0.2210 76.7 294 
 BRR  HN ES   1    335 35.31                             151    0.64 7 76.7 294 
 BRR  HN I         335 35.81        34.6 0.22                          76.7 294 
 RUS  HZ EP        335 20.12                             144    0.1110  103 180 
 RUS  HE ES   1    335 38.50                             144   -0.50 7  103 180 
 RUS  HE I         335 39.62        11.8 0.54                           103 180 
 OCA  HN ES   1    335 46.10                             131   -0.27 7  159 350 
 OCA  HN I         335 50.07        30.2 0.26                           159 350 
 ZAR  HE ES   1    335 54.27                             122   -0.73 6  210 291 
 ZAR  HE I         336  0.08        31.5 0.34                           210 291 
 CHI  HN ES   1    336  4.12                             117    0.03 6  253 197 
 CHI  HN I         336  5.70         5.6 0.24                           253 197 
                                                                                
