 2016  2 1 0340 43.5 L   6.791 -73.243143.6  RSN  4 0.4 1.1LRSN                1
 GAP=192        0.51       4.5     7.1 10.2  0.7794E+01 -0.7768E+01 -0.1844E+02E
 Epicentro: ZAPATOCA - SANTANDER                                               3
 ACTION:UP  16-03-04 21:22 OP:rebc STATUS:               ID:20160201034044dL   I
 OLDACT:UPD 16-03-02 21:07 OP:rebc STATUS:               ID:20160201034044dL   3
 OLDACT:REG 16-02-01 13:24 OP:dnl  STATUS:               ID:20160201032842     3
 2016-02-01-0334-00M.COL___415                                                 6
 STAT SP IPHASW D HRMM SECON CODA AMPLIT PERI AZIMU VELO AIN AR TRES W  DIS CAZ7
 RUS  HZ EP   2    341  6.73                             143   -0.34 5  101 170 
 RUS  HE ES   2    341 25.51                             143    0.06 5  101 170 
 RUS  HZ I         341 26.10         0.8 0.25            148            101 170 
 PTB  HZ EP   2    341  9.46                             134    0.12 5  137 258 
 PTB  HN ES   2    341 28.97                             134   -0.51 5  137 258 
 PTB  HZ I         341 36.25         1.5 0.23            131            137 258 
 SPBC HZ EP        341 11.32                             130    0.1710  156 216 
 SPBC HN ES   2    341 32.86                             130    0.16 5  156 216 
 SPBC HZ I         341 40.70         2.4 0.38            131            156 216 
 SML  HZ EP   2    341 19.00                             117   -0.66 4  240 338 
 SML  HE ES   2    341 48.38                             117    0.53 4  240 338 
 SML  HZ I         341 52.10         1.8 0.08            120            240 338 
                                                                                
