 2011  7 1 0947 31.9 L   6.791 -73.073146.2  RSN  7 0.2 1.5LRSN                1
 GAP=146        0.57       2.8     5.5  5.5  0.8132E+00 -0.1258E+02 -0.3338E+01E
 Epicentro: LOS SANTOS - SANTANDER                                             3
 ACTION:UPD 12-07-25 13:57 OP:epov STATUS:               ID:20110701094731 L   I
 2011-07-01-0945-29S.COL___140                                                 6
 STAT SP IPHASW D HRMM SECON CODA AMPLIT PERI AZIMU VELO AIN AR TRES W  DIS CAZ7
 BAR2 SZ EP        947 51.40                             170   -0.2510 25.1 209 
 BAR2 SZ ES   1    948  7.45                             170    0.42 7 25.1 209 
 BAR2 SZ I         948  8.15         5.9 0.11                          25.1 209 
 GIR2 SZ EP   1    947 51.67                             166   -0.07 7 34.4 337 
 PAM  SZ EP        947 54.24                             152    0.2910 73.3  34 
 PAM  SZ I         947 54.64         4.1 0.23                          73.3  34 
 BRR  HZ EP        947 53.34                             150   -0.2310 78.8 296 
 BRR  HZ I         947 53.82        13.1 0.15                          78.8 296 
 BRR  HN ES        948 10.44                             150    0.0010 78.8 296 
 RUS  HZ EP   1    947 55.82                             144    0.18 7 99.4 181 
 RUS  HE ES   1    948 13.90                             144   -0.23 7 99.4 181 
 RUS  HZ I         948 15.22         3.6 0.35                          99.4 181 
 GRA  SZ EP        947 57.13                             137    0.0210  124  14 
 GRA  SZ I         947 58.58         4.3 0.37                           124  14 
 GRA  SZ ES   1    948 16.33                             137   -0.41 7  124  14 
 OCA  SZ EP   1    948  0.71                             129    0.24 7  162 350 
 OCA  SZ ES   1    948 22.95                             129    0.22 7  162 350 
 OCA  SZ I         948 25.92         6.0 0.22                           162 350 
                                                                                
