 2013  1 1 0413 32.3 L   6.751 -73.411117.2  RSN  4 0.3 1.1LRSN                1
 GAP=165        0.84       5.7     4.9  7.0  0.1368E+02  0.8755E+01  0.9676E+01E
 Epicentro: EL CARMEN DE CHUCURI - SANTANDER                                   3
 ACTION:UPD 13-02-15 09:11 OP:ep   STATUS:               ID:20130101041332 L   I
 2013-01-01-0410-00M.COL___242                                                 6
 STAT SP IPHASW D HRMM SECON CODA AMPLIT PERI AZIMU VELO AIN AR TRES W  DIS CAZ7
 BAR2 SZ EP        413 48.70                             164   -0.0210 30.8 125 
 BAR2 SZ ES        414  1.14                             164   -0.4010 30.8 125 
 BAR2 SZ I         414  2.93        11.4 0.38            163           30.8 125 
 BRR  HZ EP        413 49.10                             155   -0.1610 51.5 320 
 BRR  HN ES        414  2.89                             155    0.4010 51.5 320 
 BRR  HN I         414  3.73        10.5 0.20            157           51.5 320 
 RUS  HZ EP        413 53.95                             137    0.5010  102 159 
 RUS  HN ES        414  9.97                             137    0.0110  102 159 
 RUS  HN I         414 13.95         1.0 0.38            136            102 159 
 PTB  HZ EP        413 53.80                             131   -0.4310  118 259 
 PTB  HZ I         413 56.20         1.0 0.20            132            118 259 
 PTB  HN ES        414 11.43                             131    0.0910  118 259 
                                                                                
