 2017  5 1 0237 58.1 L   6.805 -73.129151.6  RSN 12 0.6 2.1LRSN                1
 GAP=113        1.40       4.8     4.6  8.8  0.2994E+01  0.3982E+01  0.1066E+02E
 Epicentro: LOS SANTOS - SANTANDER                                             3
 ACTION:UPD 17-06-16 13:31 OP:jn   STATUS:               ID:20170501023758 L   I
 OLDACT:UP  17-05-01 14:28 OP:ar   STATUS:               ID:20170501022739d    3
 OLDACT:UP  17-05-01 14:15 OP:ar   STATUS:               ID:20170501022739d    3
 OLDACT:DUP 17-05-01 13:57 OP:ar   STATUS:               ID:20170501022739d    3
 2017-05-01-0228-00M.COL___377                                                 6
 STAT SP IPHASW D HRMM SECON CODA AMPLIT PERI AZIMU VELO AIN AR TRES W  DIS CAZ7
 BRR  HZ IP     C  238 20.02                             153    0.0410 72.5 297 
 BRR  HE ES        238 37.54                             153    0.5210 72.5 297 
 BRR  HZ I         238 40.44        25.2 0.16            152           72.5 297 
 PAM  EZ EP        238 21.10                             152    0.2310 75.8  39 
 PAM  EE ES        238 38.39                             152   -0.2210 75.8  39 
 PAM  EZ I         238 40.26        37.5 0.56            158           75.8  39 
 RUS  HZ EP        238 21.98                             145   -0.5010  101 177 
 RUS  HN ES        238 41.12                             145   -0.3610  101 177 
 RUS  HZ I         238 42.28         7.4 0.40            145            101 177 
 PTB  HZ EP        238 25.03                             133   -0.71 9  150 259 
 PTB  HN ES        238 46.16                             133   -1.12 9  150 259 
 PTB  HZ I         238 53.47        28.7 0.42            132            150 259 
 SPBC HZ EP        238 27.10                             130   -0.12 9  165 219 
 SPBC HE ES        238 50.24                             130    0.33 9  165 219 
 SPBC HZ I         238 54.16        14.5 0.48            130            165 219 
 YPLC HZ EP        238 28.31                             128    0.00 9  176 152 
 YPLC HE ES        238 52.69                             128    0.84 9  176 152 
 YPLC HZ I         238 54.48         6.0 0.24            130            176 152 
 ZAR  HZ EP        238 32.31                             123    1.21 8  206 292 
 ZAR  HE ES        238 56.74                             123   -0.09 8  206 292 
 ZAR  HZ I         239  4.23        14.6 0.48            124            206 292 
 NOR  HZ EP   4    238 36.23                             119    1.85 0  236 235 
 NOR  HE ES        239  2.83                             119    0.16 8  236 235 
 NOR  HZ I         239  7.84         6.5 0.12            120            236 235 
 CHI  HZ EP        238 36.76                             118    0.50 8  250 196 
 CHI  HE ES        239  6.39                             118    0.39 8  250 196 
 CHI  HZ I         239 10.64         5.0 0.26            119            250 196 
 ROSC BE ES   4    239  8.55                             118    1.73 0  254 211 
 ROSC BZ I         239 16.39         9.9 0.40            118            254 211 
 HEL  HE ES        239 10.88                             116    0.27 8  274 256 
 HEL  HZ I         239 16.74         5.9 0.36            116            274 256 
 PTGC HZ EP        238 40.98                             113   -1.25 7  309 159 
 PTGC HE ES   4    239 14.36                             113   -2.27 0  309 159 
                                                                                
