 2017 12 1 0827  8.1 L   6.653 -74.194 42.6  RSN  6 0.4 1.3LRSN                1
 GAP=132        0.86       6.6     5.1 11.8  0.2781E+02 -0.5023E+02 -0.6133E+02E
 Epicentro: PUERTO PARRA - SANTANDER                                           3
 ACTION:UPD 18-01-04 13:16 OP:rebc STATUS:               ID:20171201082708 L   I
 OLDACT:UP  17-12-01 17:29 OP:dnl  STATUS:               ID:20171201081740     3
 OLDACT:UP  17-12-01 17:28 OP:dnl  STATUS:               ID:20171201081740     3
 OLDACT:UP  17-12-01 17:27 OP:dnl  STATUS:               ID:20171201081740     3
 OLDACT:REG 17-12-01 13:02 OP:dhb  STATUS:               ID:20171201081740     3
 2017-12-01-0818-00M.COL___483                                                 6
 STAT SP IPHASW D HRMM SECON CODA AMPLIT PERI AZIMU VELO AIN AR TRES W  DIS CAZ7
 PTB  HZ IP     D  827 16.39                             136    0.3710 31.6 247 
 PTB  HN ES        827 21.99                             136   -0.1910 31.6 247 
 PTB  HZ I         827 22.18        32.8 0.14            144           31.6 247 
 SPBC HZ I         827 36.01         5.2 0.10            100            111 173 
 BAR2 EZ EP   3    827 26.56                              96    1.10 2  112  93 
 BAR2 EZ ES        827 39.08                              96    0.0910  112  93 
 BAR2 EZ I         827 40.27        12.2 0.16             95            112  93 
 ZAR  HZ EP        827 26.08                              95    0.1310  118 322 
 ZAR  HN ES        827 39.55                              95   -0.3110  118 322 
 ZAR  HZ I         827 48.47         3.0 0.20             94            118 322 
 RUS  HZ EP        827 30.71                              93    0.40 9  149 124 
 RUS  HE ES        827 47.02                              93   -0.59 9  149 124 
 RUS  HZ I         827 47.90         4.4 0.18             93            149 124 
 PAM  EZ EP   4    827 40.34                              92    5.99 0  182  65 
 PAM  EN ES   4    827 59.30                              92    4.48 0  182  65 
 PAM  EZ I         828  1.10         2.7 0.18             92            182  65 
                                                                                
