 2012  4 1 0213 40.0 L   6.789 -73.268131.9  RSN  5 0.3 1.4LRSN                1
 GAP=211        0.76       8.7     8.2 10.2  0.2860E+02  0.3736E+02  0.6917E+01E
 Epicentro: ZAPATOCA - SANTANDER                                               3
 ACTION:UPD 12-07-05 11:49 OP:tino STATUS:               ID:20120401021340 L   I
 2012-04-01-0210-00M.COL___196                                                 6
 STAT SP IPHASW D HRMM SECON CODA AMPLIT PERI AZIMU VELO AIN AR TRES W  DIS CAZ7
 BAR2 SZ ES   1    214 12.24                             169     0.3 7   24 156 
 BAR2 SZ I         214 13.60        11.2 0.25                            24 156 
 BRR  HZ EP   1    213 59.45                             154     0.4 7   60 306 
 BRR  HN ES   1    214 13.45                             154    -0.4 7   60 306 
 BRR  HZ I         214 14.40         7.8 0.15                            60 306 
 RUS  HN ES   2    214 19.68                             140    -0.3 5  101 168 
 PTB  HZ EP   1    214  4.21                             132    -0.4 7  134 258 
 PTB  HE ES   1    214 24.08                             132     0.3 7  134 258 
 PTB  HZ I         214 26.30         1.7 0.13                           134 258 
 ZAR  HE ES   2    214 33.83                             121    -0.1 4  192 294 
                                                                                
