 2015 11 1 0158 44.4 L   7.457 -73.197127.5  RSN  6 0.4 1.7LRSN                1
 GAP=112        0.88       3.5     4.9  7.4  0.2988E+01  0.9068E+01 -0.3545E+01E
 Epicentro: EL PLAYON - SANTANDER                                              3
 ACTION:UPD 15-12-28 16:08 OP:cam  STATUS:               ID:20151101015844 L   I
 OLDACT:UP  15-11-01 13:06 OP:mh   STATUS:               ID:20151101015741     3
 OLDACT:REG 15-11-01 12:25 OP:mh   STATUS:               ID:20151101015741     3
 2015-11-01-0157-41M.COL___292                                                 6
 STAT SP IPHASW D HRMM SECON CODA AMPLIT PERI AZIMU VELO AIN AR TRES W  DIS CAZ7
 PAM  EZ EP        159  3.19                             155   -0.3010 56.5 103 
 PAM  EN ES        159 18.98                             155    0.6110 56.5 103 
 PAM  EZ I         159 19.77         7.4 0.16            159           56.5 103 
 BRR  HZ EP        159  3.68                             150    0.2010 68.7 236 
 BRR  HN ES        159 18.31                             150   -0.0310 68.7 236 
 BRR  HZ I         159 20.94         7.7 0.26            151           68.7 236 
 OCA  HZ EP        159  5.30                             143    0.3410 87.5 351 
 OCA  HN ES        159 20.57                             143   -0.4110 87.5 351 
 OCA  HZ I         159 23.91        12.9 0.14            146           87.5 351 
 BAR2 EZ EP   1    159  5.72                             141    0.04 7 95.6 179 
 BAR2 EZ ES        159 21.89                             141   -0.3810 95.6 179 
 BAR2 EZ I         159 23.26        30.5 0.05            144           95.6 179 
 SML  HN ES        159 34.90                             122   -0.19 9  177 327 
 ZAR  HZ EP   1    159 13.36                             121   -0.19 7  183 271 
 ZAR  HN ES   2    159 37.18                             121    0.91 4  183 271 
 ZAR  HZ I         159 37.87         5.7 0.28            123            183 271 
                                                                                
