 2010  3 1 0330 43.9 L   6.789 -72.997147.3  RSN  7 0.5 1.9LRSN                1
 GAP=198        1.03       4.5    10.1  8.8 -0.1362E+01 -0.6154E+01  0.1083E+02E
 Epicentro: CEPITA - SANTANDER                                                 3
 ACTION:UP  10-08-24 09:51 OP:vdl  STATUS:               ID:20100301033044 L   I
 2010-03-01-0327-25S.COL___093                                                 6
 STAT SP IPHASW D HRMM SECON CODA AMPLIT PERI AZIMU VELO SNR AR TRES W  DIS CAZ7
 BAR2 SZ EP        331  3.74                             168    -0.110   30 223 
 BAR2 SZ ES   2    331 19.28                             168    -0.1 5   30 223 
 BRR  HZ IP        331  5.76                             148    -0.410   87 294 
 BRR  HN ES        331 23.24                             148    -0.210   87 294 
 BRR  HZ I         331 24.97        15.2 0.05                            87 294 
 RUS  BZ EP   1    331  7.92                             144     0.2 7  100 185 
 RUS  BN ES   1    331 26.32                             144     0.0 7  100 185 
 RUS  BZ I         331 27.71         4.4 0.03                           100 185 
 OCA  SZ EP   1    331 12.89                             129     0.2 7  164 348 
 OCA  SZ ES   1    331 35.89                             129     0.7 7  164 348 
 OCA  SZ I         331 40.03        16.8 0.28                           164 348 
 CHI  HZ EP   1    331 21.84                             117    -0.2 6  252 199 
 CHI  HN ES   1    331 52.83                             117     1.0 6  252 199 
 CHI  HZ I         331 59.97         3.3 1.05                           252 199 
 RREF BN ES   1    332  9.50                             110     1.0 5  334 231 
 RREF BZ I         332 22.06         4.4 0.24                           334 231 
 PRA  HZ EP        331 37.88                             106    -0.4 6  399 212 
 PRA  HN ES   1    332 19.91                             106    -0.9 4  399 212 
 PRA  HZ I         332 23.06         3.6 0.46                           399 212 
                                                                                
