 2012  4 1 0941 12.5 L   6.802 -73.136153.8  RSN  6 0.3 1.8LRSN                1
 GAP=138        0.68       4.4     4.5  7.1 -0.2666E+00  0.6785E+01  0.2261E+01E
 Epicentro: LOS SANTOS - SANTANDER                                             3
 ACTION:UPD 12-07-05 11:49 OP:tino STATUS:               ID:20120401094112 L   I
 2012-04-01-0940-00M.COL___196                                                 6
 STAT SP IPHASW D HRMM SECON CODA AMPLIT PERI AZIMU VELO AIN AR TRES W  DIS CAZ7
 BAR2 SZ EP   1    941 32.92                             171    -0.2 7   24 193 
 BAR2 SZ ES   1    941 48.94                             171    -0.2 7   24 193 
 BAR2 SZ I         941 50.62        10.6 0.24                            24 193 
 BRR  HZ EP   1    941 34.82                             154     0.3 7   72 298 
 BRR  HE ES   1    941 52.20                             154     0.4 7   72 298 
 BRR  HZ I         941 53.94        14.2 0.15                            72 298 
 PAM  SZ EP   1    941 35.85                             152     0.3 7   77  39 
 PAM  SN ES   1    941 53.13                             152    -0.3 7   77  39 
 PAM  SZ I         941 55.14         7.0 0.63                            77  39 
 RUS  HZ EP   1    941 36.83                             145    -0.2 7  101 177 
 RUS  HN ES   1    941 56.44                             145     0.2 7  101 177 
 ZAR  HN ES   1    942 11.01                             124    -0.4 6  205 292 
 ZAR  HZ I         942 21.82         5.8 0.32                           205 292 
 NOR  SN ES   1    942 17.06                             120    -0.1 6  236 235 
                                                                                
