 2011  9 1 0435  1.4 L   6.366 -73.625108.4  RSN 11 0.2 2.2LRSN                1
 GAP= 68        0.35       1.5     2.1  3.5 -0.9820E-01  0.4429E+01 -0.3345E+00E
 Epicentro: SANTA HELENA DEL OPON - SANTANDER                                  3
 ACTION:UPD 12-07-13 15:54 OP:ep   STATUS:               ID:20110901043501 L   I
 2011-09-01-0434-10S.COL___168                                                 6
 STAT SP IPHASW D HRMM SECON CODA AMPLIT PERI AZIMU VELO AIN AR TRES W  DIS CAZ7
 BAR2 SZ EP   1    435 18.04                             151    0.13 7 54.9  63 
 BAR2 SZ ES   1    435 30.89                             151    0.08 7 54.9  63 
 BAR2 SZ I         435 32.02       110.8 0.14                          54.9  63 
 RUS  HZ EP   1    435 19.85                             141   -0.10 7 79.6 131 
 RUS  HZ I         435 20.47        16.7 0.31                          79.6 131 
 RUS  HE ES        435 34.53                             141    0.0910 79.6 131 
 BRR  HZ IP     C  435 19.12                             140   -0.3610 82.5 353 
 BRR  HZ I         435 19.45        34.3 0.10                          82.5 353 
 BRR  HE ES   2    435 33.42                             140   -0.19 5 82.5 353 
 GIR2 SZ EP   1    435 20.54                             136    0.08 7 92.1  31 
 NOR  SZ EP   1    435 27.39                             119    0.05 7  164 237 
 NOR  SN ES   2    435 47.63                             119    0.03 5  164 237 
 ZAR  HZ EP   2    435 29.54                             115    0.01 4  185 312 
 ZAR  HE ES   2    435 51.83                             115    0.34 4  185 312 
 ZAR  HZ I         435 55.76        15.5 0.20                           185 312 
 OCA  SZ EP   1    435 32.74                             112    0.21 6  210   9 
 OCA  SZ ES   2    435 56.93                             112    0.10 4  210   9 
 OCA  SZ I         436  4.05        27.0 0.34                           210   9 
 HEL  HZ EP   2    435 33.34                             112    0.34 4  212 265 
 HEL  HN ES   2    435 57.54                             112   -0.14 4  212 265 
 HEL  HZ I         436  0.65         7.0 0.38                           212 265 
 PRA  HZ EP   2    435 46.08                             102    0.25 3  325 206 
 PRA  HE ES   2    436 20.44                             102   -0.06 3  325 206 
 SJA  SZ EP   2    435 48.14                             101   -0.05 3  344 186 
 SJA  SZ ES   2    436 24.30                             101   -0.40 3  344 186 
 COD  HZ EP   2    435 54.29                              99    0.10 3  395   3 
 COD  HZ I         436 46.12        12.1 1.35                           395   3 
                                                                                
