 2010 12 1 0738 51.2 L   6.765 -73.125146.1  RSN  9 0.4 1.6LRSN                1
 GAP=161        0.79       3.5     6.3  6.4 -0.4736E+01  0.2207E+01  0.2378E+01E
 Epicentro: LOS SANTOS - SANTANDER                                             3
 ACTION:UP  11-01-14 15:22 OP:pat  STATUS:               ID:20101201073851 L   I
 2010-12-01-0737-05S.COL___132                                                 6
 STAT SP IPHASW D HRMM SECON CODA AMPLIT PERI AZIMU VELO SNR AR TRES W  DIS CAZ7
 BAR2 SZ EP        739 10.67                             172    -0.110   20 199 
 BAR2 SZ ES   1    739 25.56                             172    -0.5 7   20 199 
 BAR2 SZ I         739 29.20        11.9 0.64                            20 199 
 BRR  HZ EP        739 12.63                             151     0.010   75 300 
 BRR  HN ES   1    739 29.85                             151     0.6 7   75 300 
 BRR  HZ I         739 33.79         8.2 0.08                            75 300 
 RUS  HZ EP        739 14.80                             145     0.110   97 177 
 RUS  HE ES   1    739 33.34                             145     0.3 7   97 177 
 RUS  HZ I         739 34.85         4.4 0.31                            97 177 
 GUE  SZ EP        739 16.12                             139    -0.110  120  11 
 GRA  SZ ES   1    739 36.56                             136     0.0 7  129  16 
 OCA  SZ EP   2    739 19.40                             129    -0.5 5  164 353 
 OCA  SZ I         739 45.88         6.4 0.48                           164 353 
 NOR  SN ES   2    739 54.62                             119    -0.1 4  234 236 
 CHI  HZ EP        739 28.83                             117     0.3 8  246 196 
 CHI  HE ES   1    739 57.20                             117    -0.5 6  246 196 
 CHI  HZ I         740  3.54         2.5 1.22                           246 196 
 HEL  HZ EP   2    739 32.08                             115     0.5 4  273 257 
 HEL  HN ES   2    740  2.06                             115    -1.0 4  273 257 
 HEL  HZ I         740  8.10         3.2 0.40                           273 257 
                                                                                
