 2013  1 1 0656 36.8 L   7.463 -73.161141.0  RSN  6 0.2 1.7LRSN                1
 GAP=189        0.47       3.2     3.1  5.2 -0.1965E+01 -0.4047E+01  0.9385E+01E
 Epicentro: EL PLAYON - SANTANDER                                              3
 ACTION:UPD 13-02-15 09:11 OP:ep   STATUS:               ID:20130101065638 L   I
 2013-01-01-0650-00M.COL___242                                                 6
 STAT SP IPHASW D HRMM SECON CODA AMPLIT PERI AZIMU VELO AIN AR TRES W  DIS CAZ7
 BRR  HZ EP        656 57.67                             151    0.1610 72.5 237 
 BRR  HN ES        657 13.76                             151    0.0910 72.5 237 
 BRR  HZ I         657 17.82         4.0 0.15            153           72.5 237 
 OCA  HN ES        657 15.65                             146   -0.1010 87.5 348 
 OCA  HN I         657 18.82        18.9 0.20            152           87.5 348 
 BAR2 SZ EP        656 59.31                             144   -0.1110 96.4 181 
 RUS  HZ EP        657  6.71                             126    0.19 9  174 177 
 PTB  HZ EP        657  5.88                             126   -0.20 9  176 235 
 PTB  HN ES        657 28.68                             126   -0.24 9  176 235 
 PTB  HN I         657 34.39         5.3 0.30            129            176 235 
 ZAR  HN ES        657 31.15                             124    0.20 9  187 271 
                                                                                
