 2012 12 1 0753 10.4 L   6.790 -73.147142.7  RSN  7 0.3 1.9LRSN                1
 GAP=183        0.84       3.4     5.7  6.2  0.2250E+01  0.1118E+02  0.2399E+01E
 Epicentro: LOS SANTOS - SANTANDER                                             3
 ACTION:UPD 13-01-04 14:24 OP:ep   STATUS:               ID:20121201075310 L   I
 2012-12-01-0750-00M.COL___236                                                 6
 STAT SP IPHASW D HRMM SECON CODA AMPLIT PERI AZIMU VELO AIN AR TRES W  DIS CAZ7
 BAR2 SZ EP        753 29.43                             171   -0.2010 22.2 190 
 BAR2 SZ ES        753 44.69                             171    0.0510 22.2 190 
 BAR2 SZ I         753 48.88         7.7 0.28                          22.2 190 
 RUS  HZ EP        753 33.55                             143   -0.2210 99.5 176 
 RUS  HN ES        753 52.14                             143    0.1410 99.5 176 
 RUS  HN I         753 53.92         7.0 0.20                          99.5 176 
 PTB  HZ EP        753 36.40                             131   -0.68 9  147 259 
 PTB  HN ES        753 57.85                             131   -0.04 9  147 259 
 PTB  HN I         754  2.84        20.8 0.60                           147 259 
 OCA  HN ES        754  0.78                             129    0.24 9  161 353 
 OCA  HN I         754  3.60        27.7 0.26                           161 353 
 ZAR  HN I         754 16.39        10.2 0.30                           204 292 
 CHI  HZ EP        753 47.91                             117    0.10 8  248 195 
 CHI  HN ES        754 17.21                             117    0.23 8  248 195 
 CHI  HN I         754 21.72         5.4 0.30                           248 195 
 HEL  HZ EP        753 51.18                             114    0.78 8  272 256 
 HEL  HN I         754 30.38         2.7 0.44                           272 256 
                                                                                
