 2014 12 1 0152  6.5 L   6.771 -73.187150.9  RSN  7 0.4 1.5LRSN                1
 GAP=231        1.08       4.9     6.2  6.8  0.1227E+02  0.6960E+01  0.4210E+01E
 Epicentro: LOS SANTOS - SANTANDER                                             3
 ACTION:UPD 15-02-10 16:59 OP:nd   STATUS:               ID:20141201015206 L   I
 OLDACT:REG 14-12-01 12:12 OP:carl STATUS:               ID:20141201014745     3
 2014-12-01-0147-45M.COL___300                                                 6
 STAT SP IPHASW D HRMM SECON CODA AMPLIT PERI AZIMU VELO AIN AR TRES W  DIS CAZ7
 BAR2 SZ EP        152 26.39                             172   -0.2510 19.8 179 
 BAR2 SZ ES        152 41.98                             172   -0.4010 19.8 179 
 BAR2 SZ I         152 44.22         7.9 0.46            167           19.8 179 
 BRR  HZ EP        152 28.35                             154    0.3110 68.9 303 
 BRR  HN ES        152 45.43                             154    0.5610 68.9 303 
 BRR  HZ I         152 50.01         4.8 0.28            153           68.9 303 
 RUS  HZ EP        152 31.10                             146    0.5810 97.9 173 
 RUS  HN ES        152 48.96                             146   -0.3410 97.9 173 
 RUS  HZ I         152 50.71         3.6 0.42            145           97.9 173 
 PTB  HZ EP        152 32.94                             134   -0.46 9  143 260 
 PTB  HN ES        152 54.17                             134   -0.25 9  143 260 
 PTB  HZ I         152 56.46         6.0 0.38            133            143 260 
 SPBC HZ EP        152 35.33                             131    0.47 9  158 218 
 SPBC HN ES        152 57.45                             131    0.43 9  158 218 
 SPBC HZ I         153  2.55         7.6 0.34            130            158 218 
 ZAR  HZ EP        152 38.15                             124   -0.79 9  201 293 
 ZAR  HN ES        153  4.38                             124    0.10 9  201 293 
 ZAR  HZ I         153  8.41         3.1 0.14            125            201 293 
 CHI  HZ EP        152 44.15                             119    0.16 8  244 194 
 CHI  HN ES        153 12.96                             119   -0.31 8  244 194 
 CHI  HZ I         153 23.57         1.8 0.38            119            244 194 
                                                                                
