 2010  9 1 0241 36.8 L   6.799 -73.060150.3  RSN  8 0.1 1.7LRSN                1
 GAP=168        0.33       2.2     4.0  3.8  0.1095E+01 -0.2734E+01 -0.5968E+00E
 Epicentro: LOS SANTOS - SANTANDER                                             3
 ACTION:UP  11-02-18 10:59 OP:tino STATUS:               ID:20100901024136 L   I
 2010-09-01-0240-07S.COL___120                                                 6
 STAT SP IPHASW D HRMM SECON CODA AMPLIT PERI AZIMU VELO SNR AR TRES W  DIS CAZ7
 BAR2 SZ IP        241 56.97                             169     0.010   27 211 
 BAR2 SZ I         242 13.74         8.7 0.37                            27 211 
 BRR  HZ EP        241 58.90                             151     0.010   80 295 
 BRR  HZ I         242  0.44        17.3 0.11                            80 295 
 BRR  HN ES   1    242 16.15                             151     0.0 7   80 295 
 RUS  HZ EP   1    242  0.88                             145    -0.1 7  100 181 
 RUS  HN ES   1    242 19.84                             145     0.0 7  100 181 
 RUS  HZ I         242 20.88         4.1 0.19                           100 181 
 GUE  SZ EP   1    242  1.95                             141     0.2 7  115   7 
 GRA  SZ EP   2    242  1.99                             138    -0.2 5  123  13 
 GRA  SZ I         242 24.61         6.2 0.35                           123  13 
 CHI  HZ EP   2    242 15.34                             118     0.3 4  251 197 
 CHI  HZ I         242 50.30         3.1 0.38                           251 197 
 HEL  HZ EP   2    242 18.30                             115     0.1 4  281 256 
 PRA  HZ EP   2    242 30.72                             107    -0.3 3  397 211 
 PRA  HN ES   2    243 13.16                             107    -0.1 3  397 211 
 PRA  HZ I         243 18.74         3.8 0.31                           397 211 
                                                                                
