 2017  4 1 0452 50.5 L   6.749 -73.138145.9  RSN  7 0.3 1.5LRSN                1
 GAP=234        0.81       3.9     4.2  5.2  0.4080E+01  0.5536E+01  0.8308E+00E
 Epicentro: LOS SANTOS - SANTANDER                                             3
 ACTION:UPD 17-05-30 21:07 OP:jn   STATUS:               ID:20170401045250 L   I
 OLDACT:DUP 17-04-01 15:00 OP:lv   STATUS:               ID:20170401044743d    3
 2017-04-01-0448-00M.COL___362                                                 6
 STAT SP IPHASW D HRMM SECON CODA AMPLIT PERI AZIMU VELO AIN AR TRES W  DIS CAZ7
 BAR2 EZ EP        453 10.14                             173    0.1010 18.0 196 
 BAR2 EZ ES        453 25.50                             173    0.2110 18.0 196 
 BAR2 EZ I         453 27.47         4.5 0.11            168           18.0 196 
 BRR  HZ EP        453 11.30                             151   -0.5610 74.8 302 
 BRR  HE ES        453 28.51                             151   -0.0210 74.8 302 
 BRR  HZ I         453 32.81         9.7 0.05            149           74.8 302 
 RUS  HZ EP        453 13.95                             145    0.1010 94.9 176 
 RUS  HN ES        453 32.03                             145   -0.0510 94.9 176 
 RUS  HZ I         453 33.60         2.5 0.27            146           94.9 176 
 PTB  HZ EP        453 17.08                             132   -0.37 9  148 261 
 PTB  HN ES        453 37.94                             132   -0.55 9  148 261 
 PTB  HZ I         453 43.02         4.1 0.23            131            148 261 
 SPBC HZ EP        453 18.97                             130    0.33 9  159 221 
 SPBC HN ES        453 40.66                             130    0.06 9  159 221 
 SPBC HZ I         453 47.39         4.8 0.24            130            159 221 
 ZAR  HZ EP        453 23.58                             122    0.33 8  207 293 
 ZAR  HE ES        453 49.38                             122    0.58 8  207 293 
 ZAR  HZ I         453 54.54         5.0 0.25            123            207 293 
 NOR  HZ EP        453 25.83                             119   -0.12 8  232 236 
 NOR  HN ES        453 53.80                             119    0.18 8  232 236 
 NOR  HZ I         453 59.27         1.9 0.19            120            232 236 
                                                                                
