 2017  8 1 0835 36.9 L   6.788 -73.129140.5  RSN 15 0.7 1.8LRSN                1
 GAP=114        1.51       4.5     4.5  7.2  0.1243E+01  0.9339E+01  0.5685E+01E
 Epicentro: LOS SANTOS - SANTANDER                                             3
 ACTION:UPD 17-09-04 20:15 OP:rebc STATUS:               ID:20170801083536 L   I
 OLDACT:REG 17-08-01 14:39 OP:osc  STATUS:               ID:20170801082743     3
 2017-08-01-0828-00M.COL___383                                                 6
 STAT SP IPHASW D HRMM SECON CODA AMPLIT PERI AZIMU VELO AIN AR TRES W  DIS CAZ7
 BAR2 EZ IP     C  835 55.74                             171   -0.1810 22.4 195 
 BAR2 EZ ES        836 10.35                             171   -0.3810 22.4 195 
 BAR2 EZ I         836 11.32        23.9 0.32            170           22.4 195 
 BRR  HZ IP     C  835 57.68                             151    0.0210 73.5 299 
 BRR  HE ES        836 14.56                             151    0.7410 73.5 299 
 BRR  HZ I         836 19.52         9.4 0.10            151           73.5 299 
 PAM  EZ EP        835 58.64                             150    0.0410 77.3  38 
 PAM  EN ES        836 15.43                             150   -0.0510 77.3  38 
 PAM  EZ I         836 16.15        10.8 0.38            152           77.3  38 
 RUS  HZ EP        836  0.09                             143    0.0110 99.1 177 
 RUS  HN ES        836 17.88                             143   -0.2410 99.1 177 
 RUS  HZ I         836 18.97         7.6 0.24            145           99.1 177 
 PTB  HZ EP        836  2.42                             130   -1.21 9  149 259 
 PTB  HE ES        836 24.17                             130   -0.28 9  149 259 
 PTB  HZ I         836 25.71         7.6 0.20            131            149 259 
 SPBC HZ EP        836  5.06                             128    0.00 9  163 220 
 SPBC HE ES        836 26.68                             128   -0.31 9  163 220 
 SPBC HZ I         836 28.65        11.1 0.12            129            163 220 
 YPLC HZ EP        836  6.25                             126    0.09 9  175 152 
 YPLC HE ES        836 30.11                             126    1.17 9  175 152 
 YPLC HZ I         836 32.14         3.6 0.50            128            175 152 
 ZAR  HZ EP        836  8.97                             121   -0.31 8  206 292 
 ZAR  HE ES        836 35.22                             121    0.71 8  206 292 
 ZAR  HZ I         836 42.35         7.3 0.26            122            206 292 
 NOR  HZ EP        836 13.57                             117    1.12 8  235 235 
 NOR  HE ES        836 39.42                             117   -0.73 8  235 235 
 NOR  HZ I         836 41.54         4.4 0.18            118            235 235 
 CHI  HZ EP        836 13.16                             116   -1.11 8  248 196 
 CHI  HN ES        836 42.81                             116   -0.57 8  248 196 
 HEL  HZ EP        836 18.48                             113    1.42 8  274 256 
 HEL  HN ES        836 48.72                             113    0.37 8  274 256 
 GUY2CHZ EP   9    836 22.19                             111    1.79 0  302 235 
 GUY2CHE ES        836 55.67                                   -0.41 7  302 235 
 GUY2CHZ I         837  1.15         3.4 0.24                           302 235 
 CBOC HZ EP        836 24.66                             109    0.86 7  335 252 
 CBOC HE ES        837  0.05                             109   -0.30 7  335 252 
 CBOC HZ I         837  0.38         1.3 0.32            110            335 252 
 ORTC HZ EP        836 31.15                             105    0.46 6  395 217 
 ORTC HE ES        837 13.07                             105    0.46 6  395 217 
 ORTC HZ I         837 20.35         1.2 0.36            106            395 217 
 SJC  HZ EP        836 31.02                             105   -1.57 6  411 327 
 SJC  HE ES   4    837 11.92                             105   -4.07 0  411 327 
 SJC  HZ I         837 15.30         1.5 0.44            106            411 327 
                                                                                
