 2015 12 1 0337 47.7 L   6.049 -73.882 99.2  RSN  8 0.4 1.5LRSN                1
 GAP=105        1.08       3.5     3.0  7.0 -0.1002E+01  0.5856E+01 -0.5079E+00E
 Epicentro: EL PENON - SANTANDER                                               3
 ACTION:UPD 16-02-04 15:01 OP:cam  STATUS:               ID:20151201033747 L   I
 OLDACT:REG 15-12-01 12:09 OP:mh   STATUS:               ID:20151201032750     3
 2015-12-01-0327-50M.COL___307                                                 6
 STAT SP IPHASW D HRMM SECON CODA AMPLIT PERI AZIMU VELO AIN AR TRES W  DIS CAZ7
 SPBC HZ IP     D  338  2.88                             152    0.2310 48.7 206 
 SPBC HN ES        338 15.09                             152    0.7610 48.7 206 
 SPBC HZ I         338 21.59         7.9 0.10            150           48.7 206 
 PTB  HZ EP   1    338  4.51                             137   -0.55 7 83.5 311 
 PTB  HN ES        338 17.98                             137   -0.6410 83.5 311 
 PTB  HZ I         338 22.89        13.1 0.05            141           83.5 311 
 RUS  HZ EP        338  6.33                             135    0.0510 90.1 101 
 RUS  HN ES        338 20.27                             135   -0.5210 90.1 101 
 BAR2 EZ EP   1    338  6.92                             132    0.29 7 98.0  52 
 BAR2 EZ ES        338 21.66                             132    0.2410 98.0  52 
 BAR2 EZ I         338 24.26         7.1 0.29            139           98.0  52 
 NOR  HZ EP        338  8.15                             126   -0.5310  122 244 
 NOR  HE ES        338 24.68                             126   -0.3810  122 244 
 NOR  HZ I         338 27.60        12.5 0.16            127            122 244 
 HEL  HZ EP   1    338 16.11                             114    0.46 7  183 275 
 HEL  HN ES        338 37.60                             114    0.13 9  183 275 
 HEL  HZ I         338 41.42         3.7 0.34            116            183 275 
 ZAR  HZ EP        338 16.27                             113   -0.02 9  193 326 
 ZAR  HE ES        338 39.27                             113    0.66 9  193 326 
 ORTC HZ EP        338 26.43                             105   -0.21 7  281 213 
 ORTC HN ES        338 57.41                             105    0.39 7  281 213 
 ORTC HZ I         339 11.85         1.4 0.42            105            281 213 
                                                                                
