 2012  6 1 0223 59.1 L   6.820 -73.162147.2  RSN 10 0.4 2.0LRSN                1
 GAP=134        0.78       3.1     3.7  6.3 -0.1396E+01  0.7775E+01  0.8399E+00E
 Epicentro: LOS SANTOS - SANTANDER                                             3
 ACTION:UP  12-08-06 17:46 OP:ep   STATUS:               ID:20120601022358 L   I
 2012-06-01-0220-00M.COL___201                                                 6
 STAT SP IPHASW D HRMM SECON CODA AMPLIT PERI AZIMU VELO AIN AR TRES W  DIS CAZ7
 BAR2 SZ EP   1    224 19.28                             170    0.36 8 25.3 185 
 BAR2 SZ ES   1    224 34.63                             170    0.23 8 25.3 185 
 BAR2 SZ I         224 35.26        21.4 0.35            171           25.3 185 
 PAM  SZ EP   1    224 21.86                             151    0.45 8 76.9  42 
 PAM  SZ I         224 22.37        10.7 0.26            152           76.9  42 
 PAM  SN ES   1    224 38.82                             151   -0.02 8 76.9  42 
 RUS  HZ EP   1    224 23.40                             144    0.27 8  103 175 
 RUS  HN ES   1    224 41.28                             144   -0.62 8  103 175 
 RUS  HZ I         224 42.87         9.5 0.40            147            103 175 
 PTB  HZ EP   1    224 26.00                             133   -0.04 7  146 258 
 PTB  HN ES        224 47.20                             133    0.1210  146 258 
 PTB  HZ I         224 48.52         6.8 0.16            131            146 258 
 OCA  HZ EP   1    224 27.10                             130   -0.17 7  158 354 
 OCA  HN ES   1    224 48.53                             130   -0.74 7  158 354 
 OCA  HZ I         224 55.07        21.8 0.18            129            158 354 
 ZAR  HZ EP   1    224 30.88                             123   -0.48 7  202 292 
 ZAR  HN ES        224 57.08                             123    0.53 9  202 292 
 ZAR  HZ I         225  4.23        11.7 0.15            122            202 292 
 NOR  SE ES   1    225  2.71                             119   -0.08 6  235 234 
 CHI  HN ES   1    225  6.53                             117   -0.10 6  250 195 
 HEL  HZ EP   1    224 38.54                             115   -0.69 6  271 255 
 HEL  HE ES   1    225 10.48                             115   -0.07 6  271 255 
 HEL  HZ I         225 18.04         5.7 0.38            115            271 255 
 PRA  HZ EP   1    224 53.69                             107    0.93 5  393 209 
 PRA  HN ES   1    225 34.14                             107   -0.50 5  393 209 
                                                                                
