 2016 11 1 0029 45.9 L   6.815 -73.142144.7  RSN 25 0.6 2.9LRSN                1
 GAP= 71        1.22       3.4     3.5  5.6 -0.2839E+01  0.2680E+01  0.3920E+01E
 Epicentro: LOS SANTOS - SANTANDER                                             3
 ACTION:UPD 17-10-26 21:03 OP:lp   STATUS:               ID:20161101002945 L   I
 OLDACT:UP  16-11-01 13:01 OP:dani STATUS:               ID:20161101002746     3
 OLDACT:UP  16-11-01 12:59 OP:dani STATUS:               ID:20161101002746     3
 OLDACT:UP  16-11-01 12:59 OP:dani STATUS:               ID:20161101002746     3
 OLDACT:UP  16-11-01 12:58 OP:dani STATUS:               ID:20161101002746     3
 OLDACT:UP  16-11-01 12:57 OP:dani STATUS:               ID:20161101002746     3
 OLDACT:UP  16-11-01 12:56 OP:dani STATUS:               ID:20161101002746     3
 OLDACT:UP  16-11-01 12:50 OP:dani STATUS:               ID:20161101002746     3
 OLDACT:REG 16-11-01 12:05 OP:dani STATUS:               ID:20161101002746     3
 2016-11-01-0028-00M.COL___325                                                 6
 STAT SP IPHASW D HRMM SECON CODA AMPLIT PERI AZIMU VELO AIN AR TRES W  DIS CAZ7
 BAR2 EZ EP     C  030  5.37                             170   -0.0410 25.1 190 
 BAR2 HE ES        030 20.43                             170   -0.2210 25.1 190 
 BRR  HZ EP     D  030  7.10                             152    0.2210 70.8 297 
 BRR  HN ES        030 23.98                             152    0.7210 70.8 297 
 BRR  HZ I         030 24.70       212.4 0.34            156           70.8 297 
 PAM  EZ EP     D  030  8.07                             151    0.2010 75.8  40 
 PAM  EE ES        030 25.21                             151    0.1710 75.8  40 
 PAM  EZ I         030 27.22       259.3 0.48            164           75.8  40 
 RUS  HZ EP     C  030  9.28                             143   -0.3610  102 176 
 RUS  HE ES        030 27.60                             143   -0.5710  102 176 
 PTB  HZ EP        030 11.91                             132   -0.91 9  149 258 
 PTB  HN ES        030 32.88                             132   -0.96 9  149 258 
 PTB  HZ I         030 40.40       101.8 0.28            133            149 258 
 TAM  HZ EP     C  030 13.76                             130    0.30 9  155 106 
 TAM  HE ES        030 35.33                             130    0.34 9  155 106 
 TAM  HZ I         030 36.72        34.9 0.50            135            155 106 
 SPBC HZ EP        030 14.34                             128   -0.10 9  165 219 
 SPBC HE ES        030 36.76                             128    0.04 9  165 219 
 SPBC HZ I         030 45.15        84.7 0.20            129            165 219 
 NOR  HZ EP        030 21.98                             118    0.30 8  236 234 
 NOR  HN ES        030 50.36                             118    0.75 8  236 234 
 NOR  HZ I         030 58.00        46.8 0.20            120            236 234 
 CHI  HZ EP        030 23.68                             117   -0.02 8  250 195 
 CHI  HN ES        030 52.90                             117   -0.31 8  250 195 
 CHI  HZ I         031  0.05        32.2 0.62            118            250 195 
 ROSC BZ EP   3    030 25.24                             116    1.13 2  254 211 
 ROSC BE ES        030 53.58                             116   -0.36 8  254 211 
 ROSC BZ I         031  1.95        48.6 0.60            118            254 211 
 HEL  HZ EP   9    030 26.91                             114    0.79 0  273 255 
 HEL  HE ES        030 59.21                             115    0.90 8  273 255 
 HEL  HZ I         031  3.66        52.1 0.36            118            273 255 
 URE  HZ EP   9    030 25.52                             113   -1.34 0  284 292 
 URE  HN ES        030 57.24                             113   -0.25 7  284 292 
 URE  HZ I         031  9.79        38.1 0.20            118            284 292 
 GUY2CHZ EP        030 30.33                             112    0.75 7  303 235 
 GUY2CHN ES        031  5.29                             112    1.62 7  303 235 
 VIL  HZ EP        030 28.85                             112   -0.59 7  305 192 
 VIL  HN ES        031  4.15                             112    0.73 7  305 192 
 PTGC HZ EP   4    030 28.67                             111   -1.17 0  310 159 
 PTGC HE ES   4    031  1.84                             111   -2.30 0  310 159 
 PTGC HZ I         031  4.70        39.0 0.43            114            310 159 
 LL6C HZ EP   9    030 10.68                             110   -20.6 0  323 357 
 LL6C HN ES        030 45.73                             114   -0.41 7  323 357 
 LL6C HZ I         030 53.80        15.4 0.27            117            323 357 
 ELA  HZ EP   4    030 34.31                             110    1.47 0  331 229 
 ELA  HN ES        031  9.63                             110    0.16 7  331 229 
 ELA  HZ I         031 17.24        21.5 0.64            112            331 229 
 CBOC HZ EP   4    030 34.24                             110    1.39 0  335 252 
 ARGC HZ EP        030 35.37                             108    0.06 6  358 340 
 ARGC HN ES        031 13.15                             108   -0.73 6  358 340 
 ARGC HZ I         031 21.16        12.4 0.09            114            358 340 
 ANIL HZ EP   4    030 36.93                             108    1.12 0  359 224 
 ANIL HN ES        031 13.98                             108   -0.78 6  359 224 
 ANIL HZ I         031 22.97        80.8 0.36            111            359 224 
 PRA  HZ EP        030 39.43                             106   -0.12 6  394 209 
 PRA  HN ES   4    031 20.24                             106   -1.18 0  394 209 
 PRA  HZ I         031 29.05        43.5 0.42            109            394 209 
 ORTC HZ EP        030 39.86                             106   -0.08 6  397 216 
 ORTC HN ES   4    031 24.01                             106    1.89 0  397 216 
 ORTC HZ I         031 27.92        30.7 0.31            109            397 216 
 SJC  HZ EP   4    030 39.35                             106   -1.90 0  408 327 
 SJC  HE ES   4    031 21.79                             106   -2.66 0  408 327 
 SJC  HZ I         031 24.96        33.0 0.58            111            408 327 
 CRJC HZ EP   4    030 45.75                             103   -2.38 0  466   4 
 CRJC HN ES   4    031 31.40                             103   -5.30 0  466   4 
 CRJC HZ I         031 36.26        26.9 0.18            108            466   4 
 YOT  HZ EP   4    030 50.19                             103    1.14 0  473 229 
 YOT  HN ES   4    031 44.08                             103    5.74 0  473 229 
 MACC HZ EP   9    033 53.72                             101   179.0 0  522 189 
 MACC HN ES   2    034 45.65                                   -1.81 2  522 189 
 MACC HZ I         035 11.29         9.1 0.47            104            522 189 
 URI  HZ EP   4    030 55.92                             100   -2.71 0  555  13 
 URI  HN ES   4    031 51.57                             100   -3.82 0  555  13 
 URI  HZ I         031 57.43         2.7 0.26            105            555  13 
                                                                                
