 2012 11 1 0913  0.5 L   6.794 -73.142142.9  RSN  7 0.5 1.8LRSN                1
 GAP=137        0.87       3.9     6.1  7.5  0.3403E+01  0.1260E+02  0.5109E+01E
 Epicentro: LOS SANTOS - SANTANDER                                             3
 ACTION:UPD 12-12-05 15:30 OP:}ep  STATUS:               ID:20121101091300 L   I
 2012-11-01-0910-00M.COL___234                                                 6
 STAT SP IPHASW D HRMM SECON CODA AMPLIT PERI AZIMU VELO AIN AR TRES W  DIS CAZ7
 BAR2 SZ EP   1    913 19.66                             170   -0.16 7 22.8 191 
 BAR2 SZ ES   1    913 34.26                             170   -0.59 7 22.8 191 
 BAR2 SZ I         913 35.99        13.6 0.16                          22.8 191 
 BRR  HZ EP   1    913 21.52                             152    0.10 7 71.8 299 
 BRR  HN ES   1    913 38.44                             152    0.73 7 71.8 299 
 BRR  HN I         913 38.95        19.1 0.22                          71.8 299 
 PAM  SZ EP   1    913 22.54                             150    0.07 7 77.6  39 
 PAM  SN ES   1    913 39.41                             150   -0.17 7 77.6  39 
 PAM  SN I         913 41.45         9.5 0.60                          77.6  39 
 RUS  HZ EP   1    913 23.70                             143   -0.26 7 99.9 176 
 RUS  HN ES   1    913 42.18                             143   -0.05 7 99.9 176 
 RUS  HN I         913 45.33         5.6 0.32                          99.9 176 
 OCA  HN ES   1    913 51.23                             129    0.57 7  161 353 
 ZAR  HZ EP   1    913 32.54                             122   -0.32 6  205 292 
 ZAR  HN ES   1    913 57.35                             122   -0.72 6  205 292 
 ZAR  HN I         914  4.71         9.1 0.36                           205 292 
 CHI  HZ EP   1    913 38.04                             116    0.02 6  248 195 
 CHI  HN ES   1    914  8.21                             116    0.95 6  248 195 
 CHI  HN I         914 10.07         6.1 0.34                           248 195 
                                                                                
