 2010 11 1 0841 17.7 L   6.797 -73.169138.8  RSN  6 0.5 1.5LRSN                1
 GAP=156        0.83       4.2    15.7  9.6 -0.1347E+01 -0.1366E+02 -0.6422E+01E
 Epicentro: LOS SANTOS - SANTANDER                                             3
 ACTION:UP  10-12-17 16:49 OP:REBC STATUS:               ID:20101101084117 L   I
 2010-11-01-0839-31S.COL___125                                                 6
 STAT SP IPHASW D HRMM SECON CODA AMPLIT PERI AZIMU VELO SNR AR TRES W  DIS CAZ7
 BAR2 SZ EP        841 36.26                             170    -0.210   23 184 
 BAR2 SZ ES   1    841 50.90                             170    -0.2 7   23 184 
 BAR2 SZ I         841 52.52         7.9 0.11                            23 184 
 BRR  HZ EP   3    841 39.02                             152     1.1 2   69 300 
 BRR  HE ES   3    841 54.95                             152     1.2 2   69 300 
 RUS  HZ EP        841 40.45                             142    -0.310  100 175 
 RUS  HN ES   1    841 59.28                             142     0.5 7  100 175 
 RUS  HZ I         842  0.20         4.7 0.26                           100 175 
 GRA  SZ EP   1    841 43.01                             135     0.6 7  127  19 
 GRA  SZ ES   2    842  1.85                             135     0.1 5  127  19 
 GRA  SZ I         842  3.55         4.0 0.38                           127  19 
 OCA  SZ EP   3    841 45.56                             128     0.1 2  160 354 
 OCA  SZ ES   1    842  6.77                             128    -0.4 7  160 354 
 OCA  SZ I         842 11.23         6.3 0.43                           160 354 
 NOR  SN ES   3    842 20.58                             117     0.4 2  232 234 
                                                                                
