 2011  9 1 0400  2.0 L   6.774 -73.055144.5  RSN  4 0.1 1.6LRSN                1
 GAP=206        0.32       6.5    10.4  6.0  0.5662E+02 -0.3756E+02 -0.2019E+02E
 Epicentro: LOS SANTOS - SANTANDER                                             3
 ACTION:UPD 12-07-13 15:54 OP:ep   STATUS:               ID:20110901040002 L   I
 2011-09-01-0400-00M.COL___169                                                 6
 STAT SP IPHASW D HRMM SECON CODA AMPLIT PERI AZIMU VELO AIN AR TRES W  DIS CAZ7
 BAR2 SZ EP   1    4 0 21.52                             170    0.03 7 24.5 215 
 BAR2 SZ ES   2    4 0 36.52                             170   -0.17 5 24.5 215 
 BAR2 SZ I         4 0 38.49         6.0 0.19                          24.5 215 
 GIR2 SZ EP   2    4 0 21.80                             165    0.13 5 37.0 336 
 BRR  HZ EP   1    4 0 23.59                             149   -0.02 7 81.4 297 
 BRR  HZ I         4 0 24.05        14.8 0.12                          81.4 297 
 BRR  HN ES   1    4 0 40.48                             149    0.01 7 81.4 297 
 RUS  HZ EP   2    4 0 25.19                             144   -0.20 5 97.5 182 
 RUS  HN ES   2    4 0 43.82                             144    0.18 5 97.5 182 
 RUS  HZ I         4 0 44.75         3.5 0.33                          97.5 182 
                                                                                
