 2014  5 1 0603 48.1 L   6.590 -73.436118.1  RSN 13 0.4 2.2LRSN                1
 GAP= 60        0.95       2.5     2.6  6.3 -0.1323E+01  0.4920E+01 -0.2387E+01E
 Epicentro: EL CARMEN DE CHUCURI - SANTANDER                                   3
 ACTION:UPD 15-03-16 16:54 OP:nd   STATUS:               ID:20140501060348 L   I
 OLDACT:UP  14-05-01 17:12 OP:mh   STATUS:               ID:20140501060000     3
 OLDACT:REG 14-05-01 13:41 OP:mh   STATUS:               ID:20140501060000     3
 2014-05-01-0600-00M.COL___273                                                 6
 STAT SP IPHASW D HRMM SECON CODA AMPLIT PERI AZIMU VELO AIN AR TRES W  DIS CAZ7
 RUS  HZ EP        6 4  7.97                             142   -0.1510 86.4 153 
 RUS  HN ES        6 4 24.01                             142    0.2710 86.4 153 
 PTB  HZ EP   1    6 4  8.55                             133   -1.11 7  113 267 
 PTB  HN ES   1    6 4 26.67                             133    0.20 7  113 267 
 PTB  HZ I         6 4 27.91        33.2 0.09            133            113 267 
 PAM  SZ EP        6 4 10.83                             133    0.2410  116  44 
 PAM  SN ES        6 4 28.16                             133    0.0310  116  44 
 PAM  SZ I         6 4 31.83        24.3 0.23            130            116  44 
 SPBC HZ EP        6 4 10.66                             130   -0.2310  125 214 
 SPBC HN ES        6 4 28.27                             130   -0.3910  125 214 
 SPBC HZ I         6 4 33.22        34.9 0.18            129            125 214 
 TAM  HZ EP        6 4 16.69                             118    0.05 9  183  95 
 TAM  HZ I         6 4 38.21        30.1 0.09            116            183  95 
 TAM  HN ES   1    6 4 38.68                             118   -0.22 7  183  95 
 ZAR  HZ EP        6 4 17.11                             118    0.16 9  186 303 
 ZAR  HN ES   1    6 4 39.58                             118    0.13 7  186 303 
 ZAR  HZ I         6 4 46.11        17.3 0.11            117            186 303 
 NOR  HZ EP        6 4 17.99                             117    0.01 9  195 234 
 NOR  HN ES        6 4 40.82                             117   -0.46 9  195 234 
 NOR  HZ I         6 4 45.90        16.7 0.14            116            195 234 
 ROSC BZ EP   4    6 4 22.47                             114    1.66 0  217 207 
 ROSC BN ES   4    6 4 48.02                             114    1.69 0  217 207 
 CHI  HZ EP        6 4 20.79                             114   -0.32 8  219 189 
 CHI  HN ES        6 4 47.42                             114    0.57 8  219 189 
 CHI  HZ I         6 4 51.11        11.7 0.22            112            219 189 
 HEL  HZ EP        6 4 23.28                             112    0.38 8  236 259 
 HEL  HN ES        6 4 50.44                             112    0.40 8  236 259 
 HEL  HZ I         6 4 56.38         8.8 0.26            111            236 259 
 SML  HZ EP        6 4 23.69                             110   -0.86 8  254 344 
 SML  HN ES        6 4 53.36                             110    0.37 8  254 344 
 GUY2CHZ EP        6 4 27.04                             109    1.06 8  262 235 
 GUY2CHN ES   4    6 4 57.05                             109    1.52 0  262 235 
 CBOC HZ EP        6 4 29.61                             107   -0.00 7  296 254 
 CBOC HN ES        6 5  1.82                             107   -0.17 7  296 254 
 PRA  HZ EP   1    6 4 36.50                             103   -0.05 5  356 207 
 PRA  HN ES   1    6 5 14.30                             103   -0.04 5  356 207 
                                                                                
