 2013  2 1 0821  9.8 L   6.728 -73.153145.5  RSN  5 0.3 1.6LRSN                1
 GAP=231        0.84       4.7     6.0  6.1  0.1093E+02  0.6130E+01  0.8038E+01E
 Epicentro: VILLANUEVA - SANTANDER                                             3
 ACTION:UPD 13-03-12 09:29 OP:ep   STATUS:               ID:20130201082109 L   I
 2013-02-01-0820-00M.COL___241                                                 6
 STAT SP IPHASW D HRMM SECON CODA AMPLIT PERI AZIMU VELO AIN AR TRES W  DIS CAZ7
 BAR2 SZ EP        821 29.21                             174   -0.0210 15.4 192 
 BAR2 SZ ES        821 44.06                             174   -0.3610 15.4 192 
 BAR2 SZ I         821 45.87         8.3 0.26            166           15.4 192 
 BRR  HZ EP     C  821 31.05                             151   -0.0410 74.7 304 
 BRR  HN ES        821 48.26                             151    0.5410 74.7 304 
 BRR  HN I         821 48.77        12.1 0.28            151           74.7 304 
 RUS  HZ EP        821 33.23                             146    0.2910 92.7 175 
 RUS  HN ES        821 50.90                             146   -0.1210 92.7 175 
 RUS  HN I         821 53.30         4.9 0.32            143           92.7 175 
 PTB  HZ EP        821 35.88                             132   -0.65 9  146 262 
 PTB  HN ES        821 57.38                             132   -0.01 9  146 262 
 PTB  HN I         822  0.94         5.9 0.14            131            146 262 
 CHI  HZ EP        821 46.91                             118    0.31 8  241 195 
 CHI  HN ES        822 15.47                             118    0.14 8  241 195 
 CHI  HN I         822 22.97         2.1 0.46            117            241 195 
                                                                                
