 2017  1 1 0056 54.3 L   6.798 -73.099143.5  RSN  6 0.5 1.5LRSN                1
 GAP=242        1.18       7.1     7.0  8.5  0.2038E+02  0.1559E+02  0.2158E+00E
 Epicentro: LOS SANTOS - SANTANDER                                             3
 ACTION:UPD 17-05-22 15:53 OP:jn   STATUS:               ID:20170101005653 L   I
 OLDACT:REG 17-01-01 13:35 OP:dnl  STATUS:               ID:20170101004742     3
 2017-01-01-0048-00M.COL___382                                                 6
 STAT SP IPHASW D HRMM SECON CODA AMPLIT PERI AZIMU VELO AIN AR TRES W  DIS CAZ7
 BAR2 EZ IP     C  057 13.70                             170    0.0110 24.5 202 
 BAR2 EZ ES        057 28.86                             170    0.0610 24.5 202 
 BAR2 EZ I         057 30.96         6.5 0.32            170           24.5 202 
 BRR  HZ IP     C  057 15.61                             151    0.1310 75.9 297 
 BRR  HN ES        057 32.38                             151    0.3810 75.9 297 
 BRR  HZ I         057 33.61         6.3 0.42            150           75.9 297 
 RUS  HZ EP        057 17.73                             144   -0.0710  100 179 
 RUS  HN ES        057 36.14                             144    0.0210  100 179 
 RUS  HZ I         057 36.98         2.1 0.24            146            100 179 
 PTB  HZ EP        057 20.52                             131   -1.03 9  153 259 
 PTB  HE ES        057 42.24                             131   -0.56 9  153 259 
 PTB  HZ I         057 45.12         2.7 0.54            131            153 259 
 ZAR  HZ EP        057 27.86                             121    0.75 8  209 292 
 ZAR  HE ES        057 52.50                             121   -0.20 8  209 292 
 ZAR  HZ I         057 57.79         3.9 0.34            122            209 292 
 GUY2CHE ES        058 13.43                             112    0.87 7  305 235 
 GUY2CHZ I         058 18.89         2.0 0.42                           305 235 
                                                                                
