 2013 10 1 0048 21.5 L   6.796 -73.170139.6  RSN  4 0.2 1.4LRSN                1
 GAP=134        0.60       3.2     3.6  5.3 -0.2698E+00  0.1885E+01  0.3279E+01E
 Epicentro: LOS SANTOS - SANTANDER                                             3
 ACTION:UPD 13-11-25 09:18 OP:ep   STATUS:               ID:20131001004821 L   I
 OLDACT:REG 13-10-01 05:29 OP:nd   STATUS:               ID:20131001003960d    3
 2013-10-01-0039-59M.COL___272                                                 6
 STAT SP IPHASW D HRMM SECON CODA AMPLIT PERI AZIMU VELO AIN AR TRES W  DIS CAZ7
 BRR  HZ IP     C  048 42.11                             152    0.2710 69.0 300 
 BRR  HN ES   2    048 57.89                             152    0.17 5 69.0 300 
 BRR  HN IS        048 57.89                             152    0.1710 69.0 300 
 BRR  HZ I         049  3.37         6.0 0.42            150           69.0 300 
 PAM  SZ IP     D  048 43.20                             149    0.0410 79.4  41 
 PAM  SN ES        048 59.82                             149   -0.2610 79.4  41 
 PAM  SZ I         049  0.51         3.4 0.32            155           79.4  41 
 RUS  HZ EP        048 44.84                             142    0.2310  100 175 
 RUS  HN ES        049  2.58                             142   -0.0810  100 175 
 RUS  HZ I         049  4.43         4.4 0.24            146            100 175 
 PTB  HZ EP        048 47.29                             131   -0.41 9  145 259 
 PTB  HN ES   2    049  7.84                             131   -0.31 5  145 259 
 PTB  HZ I         049 13.22         3.8 0.32            132            145 259 
                                                                                
