 2013  4 1 0945 46.6 L   6.813 -73.146151.6  RSN 10 0.3 2.1LRSN                1
 GAP=183        0.69       2.9     4.4  4.4  0.2169E+01  0.4481E+01 -0.1096E+01E
 Epicentro: LOS SANTOS - SANTANDER                                             3
 ACTION:UPD 13-05-22 14:35 OP:EP   STATUS:               ID:20130401094546 L   I
 2013-04-01-0940-00M.COL___245                                                 6
 STAT SP IPHASW D HRMM SECON CODA AMPLIT PERI AZIMU VELO AIN AR TRES W  DIS CAZ7
 BAR2 SZ EP     C  946  6.94                             170    0.0210 24.8 189 
 BAR2 SZ ES        946 22.73                             170   -0.0710 24.8 189 
 BAR2 SZ I         946 23.69        34.3 0.38            164           24.8 189 
 BRR  HZ EP     C  946  8.84                             154    0.5310 70.5 297 
 BRR  HN ES   1    946 25.90                             154    0.63 7 70.5 297 
 BRR  HZ I         946 29.20        18.5 0.18            141           70.5 297 
 RUS  HZ EP        946 10.91                             145   -0.0810  102 176 
 RUS  HN ES   1    946 29.91                             145   -0.14 7  102 176 
 RUS  HZ I         946 31.63         5.5 0.22            144            102 176 
 PTB  HZ EP        946 13.52                             133   -0.52 9  148 258 
 PTB  HN ES   1    946 34.88                             133   -0.59 7  148 258 
 PTB  HZ I         946 42.26        24.6 0.28            124            148 258 
 OCA  HZ EP        946 15.08                             131   -0.12 9  159 353 
 OCA  HN ES   1    946 37.29                             131   -0.24 7  159 353 
 OCA  HZ I         946 46.90        10.9 0.24            125            159 353 
 ZAR  HZ EP        946 19.55                             124    0.21 9  204 292 
 ZAR  HN ES   1    946 45.17                             124    0.27 6  204 292 
 ZAR  HZ I         946 53.12        11.6 0.44            116            204 292 
 SML  HZ EP   1    946 23.32                             119   -0.06 6  242 335 
 SML  HN ES   1    946 51.81                             119   -0.29 6  242 335 
 HEL  HZ EP        946 27.27                             116    0.15 8  272 256 
 HEL  HN ES   4    946 57.31                             116   -1.44 0  272 256 
 HEL  HZ I         947  5.26         7.3 0.30            111            272 256 
 URE  HZ EP   2    946 27.67                             115   -0.19 4  283 292 
 URE  HZ I         947  7.70         9.6 0.36            109            283 292 
 PRA  HZ EP        946 40.64                             107    0.20 6  393 209 
 PRA  HE ES   2    947 22.52                             107    0.06 3  393 209 
 PRA  HZ I         947 26.10         5.4 0.66            105            393 209 
                                                                                
