 2012  3 1 0238 51.3 L   6.725 -73.061137.1  RSN  5 0.3 1.6LRSN                1
 GAP=151        0.72       3.8     6.1  6.6  0.2261E+01 -0.7046E+01 -0.4579E+01E
 ACTION:UP  12-03-31 23:16 OP:EP   STATUS:               ID:20120301023851 L   I
 2012-03-01-0234-45S.COL___177                                                 6
 STAT SP IPHASW D HRMM SECON CODA AMPLIT PERI AZIMU VELO SNR AR TRES W  DIS CAZ7
 BAR2 SZ EP   1    239  9.78                             171     0.0 7   20 222 
 BAR2 SZ I         239 10.01         7.6 0.20                            20 222 
 BAR2 SZ ES   1    239 23.95                             171    -0.3 7   20 222 
 PAM  SZ EP        239 12.88                             149     0.210   79  30 
 PAM  SN ES   1    239 29.27                             149    -0.1 7   79  30 
 BRR  HZ EP        239 11.83                             147    -0.410   83 300 
 BRR  HZ I         239 13.25        14.5 0.18                            83 300 
 BRR  HN ES        239 28.94                             147     0.310   83 300 
 RUS  HZ EP   1    239 13.50                             144     0.0 7   92 182 
 RUS  HE ES   1    239 31.05                             144     0.1 7   92 182 
 RUS  HZ I         239 33.17         5.1 0.47                            92 182 
 OCA  SZ EP   1    239 20.25                             126     0.4 7  170 350 
 OCA  SZ ES   1    239 41.75                             126    -0.4 7  170 350 
                                                                                
