 2012  5 1 0653 33.5 L   6.700 -73.231147.1  RSN  4 0.3 1.1LRSN                1
 GAP=205        0.67       7.1     6.9  9.0  0.2463E+02 -0.5715E+01 -0.3366E+01E
 Epicentro: VILLANUEVA - SANTANDER                                             3
 ACTION:UP  12-07-05 12:01 OP:pat  STATUS:               ID:20120501065333 L   I
 2012-05-01-0650-00M.COL___189                                                 6
 STAT SP IPHASW D HRMM SECON CODA AMPLIT PERI AZIMU VELO SNR AR TRES W  DIS CAZ7
 BAR2 SZ EP   1    653 52.74                             175    -0.4 7   13 156 
 BRR  HZ EP   1    653 54.52                             153    -0.2 7   70 310 
 BRR  HZ I         653 54.79         4.8 0.09                            70 310 
 BRR  HE ES   1    654 11.46                             153     0.2 7   70 310 
 RUS  HZ EP   1    653 57.19                             147     0.5 7   91 170 
 RUS  HZ I         653 58.93         1.3 0.41                            91 170 
 RUS  HN ES   1    654 14.61                             147    -0.2 7   91 170 
 PTB  HZ EP   1    653 59.51                             135     0.0 7  137 263 
 PTB  HN ES   1    654 19.86                             135    -0.1 7  137 263 
 PTB  HZ I         654 25.67         1.0 0.45                           137 263 
                                                                                
