 2017  9 1 0559 42.5 L   6.764 -73.179149.2  RSN  4 0.2 1.4LRSN                1
 GAP=231        0.59       6.8     7.4  6.3  0.4032E+02  0.2397E+01 -0.7120E+01E
 Epicentro: LOS SANTOS - SANTANDER                                             3
 ACTION:UPD 17-10-05 19:08 OP:rebc STATUS:               ID:20170901055942 L   I
 OLDACT:DUP 17-09-01 14:54 OP:dani STATUS:               ID:20170901055742d    3
 OLDACT:UP  17-09-01 14:54 OP:dani STATUS:               ID:20170901055741     3
 OLDACT:REG 17-09-01 13:05 OP:dani STATUS:               ID:20170901055741     3
 2017-09-01-0558-00M.COL___404                                                 6
 STAT SP IPHASW D HRMM SECON CODA AMPLIT PERI AZIMU VELO AIN AR TRES W  DIS CAZ7
 BAR2 EZ EP        6 0  2.20                             172   -0.2710 19.0 181 
 BAR2 EZ ES        6 0 17.88                             172   -0.1610 19.0 181 
 BAR2 EZ I         6 0 18.54         4.0 0.22            174           19.0 181 
 BRR  HZ EP        6 0  4.26                             153    0.3010 70.0 303 
 BRR  HN ES        6 0 20.85                             153    0.1510 70.0 303 
 BRR  HZ I         6 0 22.04         6.4 0.29            154           70.0 303 
 RUS  HN ES        6 0 25.05                             146    0.1210 96.9 174 
 ZAR  HN ES        6 0 40.12                             123   -0.20 9  202 294 
                                                                                
