 2013  2 1 0128 44.6 L   6.787 -73.170144.2  RSN  7 0.4 1.7LRSN                1
 GAP=134        1.09       4.5     4.9  7.6  0.1864E+01  0.7898E+01  0.6911E+01E
 Epicentro: LOS SANTOS - SANTANDER                                             3
 ACTION:UPD 13-03-12 09:29 OP:ep   STATUS:               ID:20130201012844 L   I
 2013-02-01-0126-48M.COL___183                                                 6
 STAT SP IPHASW D HRMM SECON CODA AMPLIT PERI AZIMU VELO AIN AR TRES W  DIS CAZ7
 BAR2 SZ ES        129 19.18                             171    0.0010 21.6 184 
 BAR2 SZ I         129 20.44        17.7 0.22            169           21.6 184 
 BRR  HZ EP        129  5.44                             153   -0.0810 69.5 301 
 BRR  HN ES        129 22.74                             153    0.9310 69.5 301 
 BRR  HN I         129 23.35        18.3 0.26            151           69.5 301 
 PAM  SZ EP        129  7.17                             150    0.3110 80.2  40 
 PAM  SN ES        129 23.43                             150   -0.7610 80.2  40 
 PAM  SN I         129 26.59         4.5 0.44            153           80.2  40 
 RUS  HZ EP        129  8.32                             144    0.1710 99.4 174 
 RUS  HN ES        129 26.62                             144    0.1410 99.4 174 
 RUS  HN I         129 28.40         7.0 0.24            144           99.4 174 
 PTB  HZ EP        129 11.20                             132   -0.01 9  145 259 
 PTB  HN ES        129 31.37                             132   -0.56 9  145 259 
 PTB  HN I         129 36.55         5.6 0.22            131            145 259 
 ZAR  HE ES        129 41.65                             122   -0.19 9  202 293 
 ZAR  HE I         129 48.22        10.7 0.48            122            202 293 
 CHI  HZ EP   1    129 22.27                             117    0.25 6  247 195 
 CHI  HN ES        129 50.92                             117   -0.26 8  247 195 
 CHI  HN I         129 58.30         2.3 0.56            117            247 195 
                                                                                
