 2011  3 1 0004 18.4 L   6.810 -73.156136.5  RSN  8 0.4 2.9LRSN                1
 GAP=157        0.86       3.6     9.5  8.4 -0.1167E+02  0.4641E+02 -0.3670E+01E
 Epicentro: LOS SANTOS - SANTANDER                                             3
 ACTION:UP  11-06-16 14:31 OP:jfem STATUS:               ID:20110301000418 L   I
 2011-03-01-0002-31S.COL___135                                                 6
 STAT SP IPHASW D HRMM SECON CODA AMPLIT PERI AZIMU VELO SNR AR TRES W  DIS CAZ7
 BAR2 SZ EP        0 4 37.31                             169     0.310   24 187 
 BAR2 SZ ES   1    0 4 51.16                             169    -0.3 7   24 187 
 BAR2 SZ I         0 4 54.08       461.3 0.19                            24 187 
 RUS  HZ EP        0 4 41.13                             141    -0.210  102 175 
 RUS  HN ES   2    0 4 59.19                             141    -0.1 5  102 175 
 RUS  HZ I         0 5  1.25       150.4 0.33                           102 175 
 GRA  SZ IP        0 4 43.09                             135     0.310  125  18 
 GRA  SZ ES   1    0 5  1.48                             135    -0.3 7  125  18 
 GRA  SZ I         0 5  4.29        95.9 0.32                           125  18 
 OCA  SZ EP   1    0 4 45.49                             128    -0.4 7  159 354 
 OCA  SZ ES   1    0 5  7.71                             128     0.4 7  159 354 
 OCA  SZ I         0 5 11.87        79.6 0.30                           159 354 
 CHI  HZ EP   2    0 4 55.03                             115    -0.7 4  249 195 
 CHI  HN ES   1    0 5 25.19                             115     0.4 6  249 195 
 CHI  HZ I         0 5 30.13        49.2 0.50                           249 195 
 HEL  HZ EP   1    0 4 58.46                             113     0.4 6  271 256 
 HEL  HZ I         0 5 35.00        28.4 0.26                           271 256 
 DBB  SZ EP        0 5  4.77                             108    -0.6 7  338 274 
 TOL  SZ EP        0 5  6.59                             107     0.3 7  343 224 
                                                                                
