 2015  3 1 0943 40.3 L   6.792 -73.148149.0  RSN  8 0.5 1.7LRSN                1
 GAP=137        1.29       4.6     5.5  7.7 -0.1518E+00  0.1040E+02 -0.5303E+01E
 Epicentro: LOS SANTOS - SANTANDER                                             3
 ACTION:UPD 15-04-30 16:22 OP:nd   STATUS:               ID:20150301094340 L   I
 OLDACT:REG 15-03-01 15:29 OP:carl STATUS:               ID:20150301093748     3
 2015-03-01-0937-48M.COL___289                                                 6
 STAT SP IPHASW D HRMM SECON CODA AMPLIT PERI AZIMU VELO AIN AR TRES W  DIS CAZ7
 BAR2 EZ EP        944  0.34                             171    0.0410 22.4 190 
 BAR2 EZ ES        944 15.63                             171   -0.2710 22.4 190 
 BAR2 EZ I         944 17.12        10.9 0.42            172           22.4 190 
 BRR  HZ EP        944  2.29                             153    0.4910 71.4 299 
 BRR  HN ES        944 19.71                             153    1.1310 71.4 299 
 BRR  HZ I         944 22.77         6.1 0.18            151           71.4 299 
 PAM  SZ EP        944  3.20                             151    0.3010 78.2  39 
 PAM  SN ES        944 20.18                             151   -0.3610 78.2  39 
 PAM  SZ I         944 22.39        10.5 0.54            153           78.2  39 
 RUS  HZ EP        944  4.23                             145   -0.0810 99.7 176 
 RUS  HN ES        944 23.02                             145   -0.0210 99.7 176 
 RUS  HZ I         944 23.97         3.3 0.22            148           99.7 176 
 PTB  HZ EP        944  7.34                             133   -0.15 9  147 259 
 PTB  HN ES        944 28.14                             133   -0.56 9  147 259 
 PTB  HZ I         944 29.52         7.1 0.20            133            147 259 
 SPBC HZ EP        944  8.81                             130   -0.15 9  162 219 
 SPBC HN ES        944 31.11                             130   -0.22 9  162 219 
 SPBC HZ I         944 33.88         8.5 0.28            132            162 219 
 ZAR  HZ EP        944 14.01                             123    1.05 9  204 292 
 ZAR  HN ES        944 38.15                             123   -0.29 9  204 292 
 ZAR  HZ I         944 45.43         5.1 0.28            124            204 292 
 SML  HZ EP        944 16.65                             118   -0.52 8  244 335 
 SML  HN ES        944 45.10                             118   -0.84 8  244 335 
 SML  HZ I         944 50.08         8.1 0.10            119            244 335 
                                                                                
