 2013  3 1 0522 49.2 L   6.820 -73.151144.9  RSN  9 0.5 2.3LRSN                1
 GAP= 70        1.20       4.2     4.7  8.2  0.2384E+01 -0.1030E+01 -0.3366E+01E
 Epicentro: LOS SANTOS - SANTANDER                                             3
 ACTION:UPD 13-04-09 13:58 OP:ep   STATUS:               ID:20130301052249 L   I
 2013-03-01-0518-45M.COL___196                                                 6
 STAT SP IPHASW D HRMM SECON CODA AMPLIT PERI AZIMU VELO AIN AR TRES W  DIS CAZ7
 BAR2 SZ EP        523  8.69                             170   -0.0510 25.4 188 
 BAR2 SZ I         523 24.50        22.6 0.16            170           25.4 188 
 BRR  HZ EP        523 10.64                             153    0.5010 69.7 297 
 BRR  HE ES        523 27.52                             153    1.0310 69.7 297 
 BRR  HN I         523 32.77        27.9 0.16            154           69.7 297 
 PAM  SZ EP        523 11.69                             151    0.4810 76.1  41 
 PAM  SN ES        523 28.20                             151   -0.2110 76.1  41 
 PAM  SN I         523 29.75        46.3 0.48            153           76.1  41 
 RUS  HZ EP        523 13.15                             143    0.1510  103 176 
 RUS  HN ES        523 30.91                             143   -0.6710  103 176 
 RUS  HN I         523 32.84        17.2 0.42            144            103 176 
 PTB  HZ EP        523 15.96                             132   -0.09 9  148 258 
 PTB  HN ES        523 36.47                             132   -0.55 9  148 258 
 PTB  HN I         523 38.74        25.8 0.26            134            148 258 
 TAM  HZ IP        523 17.13                             130    0.25 9  156 106 
 TAM  HZ I         523 17.25        22.4 0.20            132            156 106 
 OCA  HZ EP        523 17.14                             130   -0.06 9  158 353 
 OCA  HN ES        523 38.49                             130   -0.57 9  158 353 
 OCA  HN I         523 42.78        76.2 0.20            132            158 353 
 ZAR  HN ES        523 46.84                             122    0.27 9  203 292 
 ZAR  HN I         523 48.47        13.7 0.10            124            203 292 
 SML  HZ EP        523 25.15                             118   -0.35 8  241 335 
 SML  HN ES        523 53.36                             118   -0.48 8  241 335 
                                                                                
