 2017  2 1 0515  1.2 L   6.780 -73.129145.4  RSN 25 0.4 2.9LRSN                1
 GAP= 67        0.71       1.9     2.1  3.2 -0.1363E+00  0.1494E+01  0.2026E+00E
 Epicentro: LOS SANTOS - SANTANDER                                             3
 ACTION:UPD 17-05-24 15:31 OP:jn   STATUS:               ID:20170201051501 L   I
 OLDACT:UP  17-02-01 16:38 OP:and  STATUS:               ID:20170201050740d    3
 OLDACT:UP  17-02-01 16:38 OP:and  STATUS:               ID:20170201050740d    3
 OLDACT:UP  17-02-01 16:35 OP:and  STATUS:               ID:20170201050740d    3
 OLDACT:UP  17-02-01 16:35 OP:and  STATUS:               ID:20170201050740d    3
 OLDACT:UP  17-02-01 16:34 OP:and  STATUS:               ID:20170201050740d    3
 OLDACT:UP  17-02-01 16:33 OP:and  STATUS:               ID:20170201050740d    3
 OLDACT:UP  17-02-01 16:31 OP:and  STATUS:               ID:20170201050740d    3
 OLDACT:UP  17-02-01 16:28 OP:and  STATUS:               ID:20170201050740d    3
 OLDACT:UP  17-02-01 16:26 OP:and  STATUS:               ID:20170201050740d    3
 OLDACT:UP  17-02-01 16:26 OP:and  STATUS:               ID:20170201050740d    3
 OLDACT:UP  17-02-01 16:25 OP:and  STATUS:               ID:20170201050740d    3
 OLDACT:UP  17-02-01 16:24 OP:and  STATUS:               ID:20170201050740d    3
 OLDACT:UP  17-02-01 16:22 OP:and  STATUS:               ID:20170201050740d    3
 OLDACT:UP  17-02-01 16:21 OP:and  STATUS:               ID:20170201050740d    3
 OLDACT:UP  17-02-01 16:20 OP:and  STATUS:               ID:20170201050740d    3
 OLDACT:DUP 17-02-01 16:09 OP:and  STATUS:               ID:20170201050740d    3
 2017-02-01-0508-00M.COL___325                                                 6
 STAT SP IPHASW D HRMM SECON CODA AMPLIT PERI AZIMU VELO AIN AR TRES W  DIS CAZ7
 BAR2 EZ IP     C  515 20.59                             171   -0.1410 21.6 196 
 BAR2 EZ ES        515 35.91                             171   -0.0710 21.6 196 
 BAR2 EZ I         515 36.78       252.6 0.30            166           21.6 196 
 BRR  HZ IP     D  515 22.43                             152   -0.0210 73.9 299 
 BRR  HN ES        515 39.66                             152    0.6310 73.9 299 
 BRR  HZ I         515 42.86       123.9 0.30            148           73.9 299 
 PAM  EZ IP     D  515 23.36       351.9 0.54            151   -0.0310 77.9  37 
 PAM  EN ES        515 40.41                             151   -0.3010 77.9  37 
 PAM  EZ I         515 42.72       351.9 0.54            157           77.9  37 
 RUS  HZ IP     C  515 24.44                             145   -0.2910 98.3 177 
 RUS  HN ES        515 43.19                             145    0.1010 98.3 177 
 RUS  HZ I         515 44.97        67.3 0.30            144           98.3 177 
 PTB  HZ IP   9 C  515 27.10                             132   -1.15 0  149 260 
 PTB  HN ES        515 48.40                             132    0.19 9  149 260 
 PTB  HZ I         515 55.82       137.8 0.40            129            149 260 
 TAM  HZ IP     C  515 28.80                             131    0.19 9  153 104 
 TAM  HN ES        515 50.28                             131    0.28 9  153 104 
 ZAR  HZ EP        515 33.57                             122   -0.30 8  207 293 
 ZAR  HN ES        515 59.13                             122   -0.24 8  207 293 
 ZAR  HZ I         516  4.70       111.1 0.26            121            207 293 
 NOR  HZ EP        515 36.49                             118   -0.43 8  235 235 
 NOR  HN ES        516  5.41                             118    0.62 8  235 235 
 NOR  HZ I         516 13.23        48.3 0.24            118            235 235 
 CHI  HZ EP        515 38.66                             117   -0.02 8  247 196 
 CHI  HN ES        516  7.79                             117   -0.14 8  247 196 
 CHI  HZ I         516 16.26        33.1 0.37            117            247 196 
 ROSC BZ EP   3    515 40.28                             117    1.10 2  252 212 
 ROSC BE ES        516  8.58                             117   -0.24 8  252 212 
 ROSC BZ I         516 18.32       115.4 0.40            116            252 212 
 URE  HZ EP   9    515 40.57                             113   -1.95 0  286 292 
 URE  HN ES        516 12.58                             114   -0.23 7  286 292 
 URE  HZ I         516 24.75        54.3 0.24            113            286 292 
 PTGC HZ IP   9 C  515 43.54                             112   -1.17 0  306 159 
 PTGC HN ES        516 16.71                             112   -0.78 7  306 159 
 PTGC HZ I         516 19.56        47.2 0.42            113            306 159 
 LL1C HZ EP        515 45.62                             112    0.58 7  309 351 
 LL1C HN ES   4    516 21.44                             112    2.19 0  309 351 
 LL6C HZ EP   9    515 26.16                             110   -21.0 0  327 357 
 LL6C HE ES        516  2.65                                    0.65 7  327 357 
 LL6C HZ I         516 12.15        17.0 0.36            112            327 357 
 CBOC HZ EP   3    515 48.78                             110    0.57 2  335 253 
 CBOC HN ES        516 24.68                             110   -0.21 7  335 253 
 CBOC HZ I         516 33.81        14.3 0.36            110            335 253 
 DBB  EZ EP        515 48.91                             109    0.03 7  342 275 
 DBB  EN ES   3    516 24.19                             109   -1.89 2  342 275 
 DBB  EZ I         516 29.37        17.8 0.24            109            342 275 
 ARGC HZ EP        515 51.24                             108    0.10 6  362 340 
 ARGC HN ES        516 29.64                             108   -0.47 6  362 340 
 ARGC HZ I         516 38.81        22.9 0.34            109            362 340 
 ORTC HZ EP        515 55.08                             106    0.07 6  395 217 
 ORTC HN ES   3    516 38.35                             106    1.35 1  395 217 
 ORTC HZ I         516 45.39        25.5 0.36            106            395 217 
 PAL  HZ EP        515 56.72                             106    0.33 6  406 239 
 PAL  HN ES   3    516 40.89                             106    1.44 1  406 239 
 PAL  HZ I         516 43.48        12.0 0.28            106            406 239 
 SJC  HZ EP   4    515 54.83                             106   -2.24 0  412 327 
 SJC  HN ES   4    516 36.04                             106   -4.62 0  412 327 
 SJC  HZ I         516 40.31        33.0 0.44            106            412 327 
 CRJC HZ EP   9    516  0.70                             103   -3.22 0  470   3 
 CRJC HE ES        516 49.53                             103   -0.10 5  470   3 
 CRJC HZ I         516 56.99        28.0 0.28            104            470   3 
 YOT  HZ EP   4    516  2.73                             103   -1.48 0  472 229 
 YOT  HN ES   4    516 54.96                             103    1.58 0  472 229 
 SMAR HZ EP   4    516  6.13                             102   -1.23 0  500 346 
 SMAR HN ES   4    516 53.68                             102   -5.29 0  500 346 
 SMAR HZ I         516 57.33        14.2 0.18            103            500 346 
 MACC HZ EP   4    516  7.39                             102   -2.27 0  519 189 
 MACC HN ES   4    516 58.50                             102   -4.57 0  519 189 
 MACC HZ I         517  2.01         6.7 0.42            102            519 189 
 URI  HZ EP   4    516 10.70                             101   -3.69 0  558  13 
 URI  HN ES   4    517  9.16                             101   -2.32 0  558  13 
 GARC HZ EP   4    516 14.58                             100   -1.72 0  572 207 
 GARC HN ES   4    517 12.61                             100   -2.27 0  572 207 
 GARC HZ I         517 16.66         9.8 0.28            101            572 207 
 FLO2 HZ EP        516 23.64                              99   -0.52 2  639 206 
 FLO2 HN ES        517 28.75                              99   -0.13 2  639 206 
                                                                                
