 2011  7 1 0404 22.2 L   6.856 -73.349112.9  RSN  9 0.2 1.7LRSN                1
 GAP=113        0.55       2.3     3.1  4.2 -0.2517E+01  0.2657E+01 -0.1283E+01E
 Epicentro: ZAPATOCA - SANTANDER                                               3
 ACTION:UPD 12-07-25 13:57 OP:epov STATUS:               ID:20110701040422 L   I
 2011-07-01-0400-11S.COL___140                                                 6
 STAT SP IPHASW D HRMM SECON CODA AMPLIT PERI AZIMU VELO AIN AR TRES W  DIS CAZ7
 GIR2 SZ EP        4 4 38.01                             164    0.0210 30.1  35 
 BAR2 SZ EP        4 4 38.42                             162    0.1310 34.5 148 
 BAR2 SZ ES   1    4 4 50.56                             162   -0.25 7 34.5 148 
 BAR2 SZ I         4 4 52.37        36.1 0.17                          34.5 148 
 BRR  HZ EP        4 4 38.28                             155   -0.3010 48.7 305 
 BRR  HZ I         4 4 38.67        15.1 0.12                          48.7 305 
 BRR  HE ES   1    4 4 51.50                             155    0.18 7 48.7 305 
 RUS  HZ EP        4 4 43.46                             133   -0.3310  111 165 
 RUS  HE ES   1    4 5  0.99                             133    0.38 7  111 165 
 RUS  HZ I         4 5  1.94         3.8 0.17                           111 165 
 BRI  SZ EP        4 4 43.79                             132    0.1910  113  33 
 GRA  SZ EP        4 4 44.85                             128   -0.2010  129  28 
 GRA  SZ I         4 4 46.48         5.8 0.20                           129  28 
 GRA  SZ ES   1    4 5  3.12                             128    0.29 7  129  28 
 OCA  SZ EP   1    4 4 47.34                             122   -0.13 7  153   1 
 OCA  SZ I         4 5 15.47         8.2 0.42                           153   1 
 NOR  SZ EP   1    4 4 55.00                             112    0.29 6  221 230 
 NOR  SN ES   1    4 5 19.99                             112   -0.04 6  221 230 
 HEL  HZ EP   1    4 4 59.07                             109    0.39 6  252 253 
 HEL  HE ES   2    4 5 26.98                             109   -0.12 4  252 253 
 HEL  HZ I         4 5 31.28         4.8 0.32                           252 253 
                                                                                
