 2014  1 1 0330 14.7 L   6.809 -73.137143.7  RSN 10 0.5 1.6LRSN                1
 GAP=137        1.10       3.0     5.0  6.1 -0.2625E+01  0.7623E+01  0.1416E+01E
 Epicentro: LOS SANTOS - SANTANDER                                             3
 ACTION:UPD 14-03-13 09:50 OP:ep   STATUS:               ID:20140101033014 L   I
 OLDACT:REG 14-01-01 09:18 OP:stll STATUS:               ID:20140101032818     3
 2014-01-01-0328-18M.COL___237                                                 6
 STAT SP IPHASW D HRMM SECON CODA AMPLIT PERI AZIMU VELO AIN AR TRES W  DIS CAZ7
 BAR2 SZ EP        330 34.23                             170    0.1410 24.5 192 
 BAR2 SZ ES        330 48.99                             170   -0.2410 24.5 192 
 BAR2 SZ I         330 50.96        12.1 0.48            170           24.5 192 
 BRR  HZ EP        330 36.03                             152    0.3910 71.6 297 
 BRR  HN ES        330 52.74                             152    0.7610 71.6 297 
 BRR  HZ I         330 58.83         4.4 0.20            151           71.6 297 
 PAM  SZ EP        330 36.80                             151    0.2010 76.0  39 
 PAM  SN ES        330 53.30                             151   -0.4010 76.0  39 
 PAM  SZ I         330 56.34         7.2 0.56            155           76.0  39 
 RUS  HZ EP        330 38.50                             143    0.2010  101 177 
 RUS  HN ES        330 56.83                             143    0.1110  101 177 
 RUS  HZ I         330 59.34         4.4 0.46            147            101 177 
 PTB  HZ EP        330 40.97                             131   -0.63 9  149 259 
 PTB  HN ES        331  2.21                             131   -0.37 9  149 259 
 PTB  HZ I         331  9.64         5.6 0.40            132            149 259 
 OCA  HN ES        331  5.10                             129    0.44 9  159 353 
 OCA  HZ I         331  9.10         5.2 0.26            132            159 353 
 SPBC HZ EP        330 43.08                             128   -0.08 9  165 219 
 SPBC HN ES        331  4.95                             128   -0.42 9  165 219 
 SPBC HZ I         331 10.07         7.1 0.36            131            165 219 
 SML  HZ EP        330 50.64                             117   -0.51 8  243 335 
 SML  HN ES        331 18.87                             117   -0.72 8  243 335 
 SML  HZ I         331 22.05         7.2 0.32            119            243 335 
 CHI  HZ EP        330 52.32                             117   -0.08 8  250 195 
 CHI  HZ I         330 53.78         1.5 0.18            120            250 195 
 CHI  HN ES        331 21.49                             117   -0.33 8  250 195 
 GUY2CHZ EP        330 59.44                             112    1.08 7  303 235 
 GUY2CHN ES        331 32.90                             112    0.48 7  303 235 
 GUY2CHZ I         331 39.39         2.2 0.34                           303 235 
                                                                                
