 2014  6 1 0142 46.6 L   6.778 -73.131147.7  RSN  5 0.5 1.1LRSN                1
 GAP=139        1.37       8.0     7.8 12.9  0.2652E+01  0.2106E+02  0.2658E+02E
 Epicentro: LOS SANTOS - SANTANDER                                             3
 ACTION:UPD 14-07-01 22:49 OP:nd   STATUS:               ID:20140601014246 L   I
 OLDACT:DUP 14-06-01 17:13 OP:stll STATUS:               ID:20140601013815d    3
 2014-06-01-0138-14M.COL___256                                                 6
 STAT SP IPHASW D HRMM SECON CODA AMPLIT PERI AZIMU VELO AIN AR TRES W  DIS CAZ7
 BAR2 SZ EP        143  6.40                             171    0.0210 21.4 196 
 BAR2 SZ I         143  6.85         3.9 0.30            169           21.4 196 
 BRR  HZ EP        143  8.47                             152    0.4110 73.8 300 
 BRR  HZ I         143  8.98         2.5 0.60            150           73.8 300 
 BRR  HN ES        143 25.64                             152    0.8110 73.8 300 
 PAM  SN ES        143 25.94                             151   -0.6110 78.2  37 
 PAM  SZ I         143 27.27         2.4 0.22            155           78.2  37 
 RUS  HZ EP        143 10.90                             145    0.5810 98.1 177 
 RUS  HZ I         143 11.03         1.0 0.24            146           98.1 177 
 RUS  HN ES        143 28.71                             145   -0.1510 98.1 177 
 PTB  HZ EP        143 13.14                             132   -0.65 9  149 260 
 PTB  HN ES        143 34.47                             132   -0.56 9  149 260 
 PTB  HZ I         143 42.11         2.7 0.34            131            149 260 
                                                                                
