 2010  1 1 0846  8.5 L   6.823 -73.023137.6  RSN  9 0.5 1.9LRSN                1
 GAP=135        0.97       5.4    10.2 11.4 -0.3334E+02  0.1819E+02 -0.1376E+02E
 Epicentro: CEPITA - SANTANDER                                                 3
 ACTION:UP  10-08-24 09:42 OP:vdl  STATUS:               ID:20100101084608 L   I
 2010-01-01-0840-00S.COL___096                                                 6
 STAT SP IPHASW D HRMM SECON CODA AMPLIT PERI AZIMU VELO SNR AR TRES W  DIS CAZ7
 BAR2 SZ IP        846 27.77                             167     0.410   31 215 
 GIR2 SZ EP        846 26.75                             165    -0.510   34 326 
 RUS  BZ EP   1    846 31.81                             141     0.1 7  103 184 
 RUS  BN ES   1    846 49.91                             141     0.2 7  103 184 
 RUS  BZ I         846 51.82        13.6 0.31                           103 184 
 OCA  SZ IP        846 36.04                             128    -0.1 9  160 348 
 CHI  HZ EP        846 46.19                             115    -0.3 8  255 198 
 CHI  HN ES   1    847 15.58                             115    -0.5 6  255 198 
 CHI  HZ I         847 22.59         3.4 0.42                           255 198 
 ROSC BE ES   1    847 18.00                             114     0.5 6  262 213 
 RREF BN ES   1    847 33.16                             109     0.6 5  334 231 
 RREF BZ I         847 38.15         4.3 0.32                           334 231 
 SDV  BZ IP        846 57.37                             107     0.5 6  348  49 
 PRA  HE ES   1    847 44.32                             105    -0.9 4  401 211 
                                                                                
