 2015  8 1 0709 34.3 L   6.859 -73.076137.6  RSN 16 0.4 2.1LRSN                1
 GAP=190        0.88       2.3     4.0  4.5  0.1023E+00  0.5913E+01  0.1215E+01E
 Epicentro: LOS SANTOS - SANTANDER                                             3
 ACTION:UPD 15-09-15 22:59 OP:cam  STATUS:               ID:20150801070934 L   I
 OLDACT:REG 15-08-01 12:21 OP:drio STATUS:               ID:20150801070739     3
 2015-08-01-0707-39M.COL___352                                                 6
 STAT SP IPHASW D HRMM SECON CODA AMPLIT PERI AZIMU VELO AIN AR TRES W  DIS CAZ7
 BAR2 EZ EP        7 9 53.17                             166    0.0110 31.7 202 
 BAR2 EZ ES        710  7.70                             166   -0.1810 31.7 202 
 BAR2 EZ I         710  9.23        29.2 0.20            164           31.7 202 
 BRR  HZ EP     D  7 9 54.96                             150    0.1310 75.4 291 
 BRR  HE ES        710 11.18                             150    0.3410 75.4 291 
 BRR  HZ I         710 15.58        23.8 0.16            146           75.4 291 
 RUS  HZ EP        7 9 57.62                             140   -0.1210  107 180 
 RUS  HE ES        710 15.76                             140   -0.2610  107 180 
 RUS  HZ I         710 17.29        10.2 0.24            142            107 180 
 OCA  HZ EP        710  1.30                             129   -0.18 9  155 350 
 OCA  HN ES        710 22.99                             129    0.30 9  155 350 
 OCA  HZ I         710 27.82        40.3 0.28            129            155 350 
 ZAR  HZ EP        710  7.65                             120    0.91 8  209 290 
 ZAR  HN ES        710 31.67                             120   -0.37 8  209 290 
 SML  HZ EP        710  9.56                             116   -0.65 8  241 333 
 SML  HE ES        710 38.20                             116   -0.02 8  241 333 
 SML  HZ I         710 44.11        23.2 0.24            116            241 333 
 NOR  HZ EP        710  9.83                             116   -0.84 8  245 234 
 NOR  HE ES   4    710 37.32                             116   -1.71 0  245 234 
 NOR  HZ I         710 39.82        11.9 0.20            116            245 234 
 CHI  HZ EP        710 12.85                             114    0.37 8  257 196 
 CHI  HN ES   4    710 40.90                             114   -1.36 0  257 196 
 CHI  HZ I         710 48.33         6.1 0.64            116            257 196 
 ROSC BZ EP        710 13.60                             114    0.55 8  262 212 
 ROSC BN ES        710 43.65                             114    0.38 8  262 212 
 ROSC BZ I         710 47.82        10.0 0.30            115            262 212 
 HEL  HZ EP        710 14.94                             112   -0.19 7  281 255 
 HEL  HN ES        710 46.25                             112   -0.73 7  281 255 
 HEL  HZ I         710 51.63         7.5 0.36            112            281 255 
 URE  HN ES   4    710 45.15                             111   -2.55 0  289 290 
 GUY2CHZ EP        710 18.76                             110    0.07 7  311 235 
 GUY2CHN ES        710 53.58                             110    0.27 7  311 235 
 GUY2CHZ I         710 58.64         5.6 0.62                           311 235 
 CBOC HZ EP        710 22.21                             108    0.24 7  343 251 
 CBOC HE ES        710 59.38                             108    0.23 7  343 251 
 CBOC HZ I         711  8.53         2.2 0.72            108            343 251 
 MON  HZ EP   4    710 20.65                             107   -2.60 0  356 307 
 MON  HN ES   4    710 59.14                             107   -2.28 0  356 307 
 MON  HZ I         711 14.96         2.8 0.64            107            356 307 
 ORTC HZ EP        710 28.97                             104   -0.14 6  405 217 
 ORTC HN ES        711 11.99                             104    0.14 6  405 217 
 ORTC HZ I         711 17.70         3.2 0.40            105            405 217 
 SJC  HZ EP   4 D  710 27.72                             104   -1.75 0  408 326 
 SJC  HN ES   4    711  9.02                             104   -3.49 0  408 326 
 SJC  HZ I         711 12.28         4.7 0.42            105            408 326 
 PAL  HZ EP        710 30.11                             104   -0.26 5  416 239 
 PAL  HE ES   4    711 10.54                             104   -3.57 0  416 239 
 PAL  HZ I         711 14.71         1.7 0.18            105            416 239 
                                                                                
