 2010  4 1 0350 39.4 L   6.801 -73.052147.4  RSN 11 0.6 2.3LRSN                1
 GAP=148        1.11       5.6     8.3  7.8 -0.1448E+02  0.2297E+01  0.1255E+02E
 Epicentro: LOS SANTOS - SANTANDER                                             3
 ACTION:UPD 10-08-24 09:57 OP:vdl  STATUS:               ID:20100401035039 L   I
 2010-04-01-0349-34S.COL___098                                                 6
 STAT SP IPHASW D HRMM SECON CODA AMPLIT PERI AZIMU VELO AIN AR TRES W  DIS CAZ7
 BAR2 SZ IP        350 59.37                             169     0.110   27 212 
 BAR2 SZ ES   1    351 14.55                             169    -0.3 7   27 212 
 BRR  HZ IP        351  1.58                             150     0.310   80 295 
 BRR  HE ES   1    351 18.38                             150     0.1 7   80 295 
 BRR  HZ I         351 22.42        26.5 0.12                            80 295 
 OCA  SZ ES   1    351 30.17                             130    -0.1 7  162 349 
 OCA  SZ I         351 35.23        34.5 0.22                           162 349 
 CHI  HZ EP   3    351 17.03                             117    -0.5 2  252 197 
 CHI  HZ I         351 20.24         5.9 0.54                           252 197 
 CHI  HE ES   1    351 46.75                             117    -0.5 6  252 197 
 ROSC BZ EP        351 18.24                             116     0.0 8  258 213 
 ROSC BN ES   2    351 49.42                             116     0.9 4  258 213 
 ROSC BZ I         351 57.34        14.1 0.44                           258 213 
 HEL  HZ EP        351 20.81                             114     0.0 7  282 256 
 HEL  HN ES   2    351 53.68                             114     0.6 4  282 256 
 HEL  HZ I         351 59.01        10.6 0.35                           282 256 
 RREF BZ EP        351 26.60                             111     0.1 7  330 231 
 RREF BN ES   2    352  3.28                             111     0.0 3  330 231 
 RREF BZ I         352 11.19        11.2 0.27                           330 231 
 DBB  SZ EP        351 26.75                             109    -1.4 6  350 274 
 TOL  SZ EP        351 29.91                             109     1.3 6  351 226 
 SDV  BZ IP        351 28.62                             109     0.0 6  352  49 
 PRA  HZ EP        351 32.96                             106    -0.6 6  397 211 
 PRA  HE ES   2    352 15.03                             106    -0.8 3  397 211 
 PRA  HZ I         352 23.63         7.6 0.44                           397 211 
                                                                                
