 2017  2 1 0923  6.9 L   6.785 -73.147148.0  RSN 13 0.4 2.1LRSN                1
 GAP= 99        1.01       3.8     3.0  5.4  0.9722E+00  0.4405E+01  0.3229E+01E
 Epicentro: LOS SANTOS - SANTANDER                                             3
 ACTION:UPD 17-05-24 15:31 OP:jn   STATUS:               ID:20170201092306 L   I
 OLDACT:REG 17-02-01 15:18 OP:dnl  STATUS:               ID:20170201091742     3
 2017-02-01-0918-00M.COL___316                                                 6
 STAT SP IPHASW D HRMM SECON CODA AMPLIT PERI AZIMU VELO AIN AR TRES W  DIS CAZ7
 BAR2 EZ IP     C  923 26.75                             171   -0.0310 21.7 191 
 BAR2 EZ ES        923 41.58                             171   -0.6910 21.7 191 
 BAR2 EZ I         923 42.95        52.5 0.12            169           21.7 191 
 BRR  HZ IP     C  923 28.60                             153    0.2610 71.9 300 
 BRR  HE ES        923 45.98                             153    0.9210 71.9 300 
 BRR  HZ I         923 46.88        21.9 0.32            152           71.9 300 
 PAM  EZ IP     C  923 29.63                             151    0.1910 78.7  39 
 PAM  EN ES        923 46.91                             151   -0.1110 78.7  39 
 PAM  EZ I         923 48.29        15.9 0.42            151           78.7  39 
 RUS  HZ EP        923 30.66                             145   -0.1110 98.9 176 
 RUS  HN ES        923 49.63                             145    0.2610 98.9 176 
 RUS  HZ I         923 50.33        19.2 0.34            143           98.9 176 
 PTB  HZ EP        923 33.20                             133   -0.82 9  147 259 
 PTB  HE ES        923 54.77                             133   -0.40 9  147 259 
 PTB  HZ I         923 56.40        22.1 0.50            131            147 259 
 TAM  HZ IP     D  923 34.95                             131    0.22 9  155 104 
 TAM  HN ES        923 56.33                             131   -0.11 9  155 104 
 TAM  HZ I         924  3.78         8.0 0.26            131            155 104 
 ZAR  HZ EP        923 39.55                             123   -0.01 9  205 293 
 ZAR  HE ES        924  5.20                             123    0.18 9  205 293 
 ZAR  HZ I         924 11.70        19.3 0.38            122            205 293 
 CHI  HZ EP        923 44.84                             118    0.28 8  247 195 
 CHI  HN ES        924 14.08                             118    0.16 8  247 195 
 CHI  HZ I         924 21.11         4.7 0.24            117            247 195 
 URE  HZ EP        923 47.29                             114   -0.86 7  284 292 
 URE  HN ES   4    924 18.09                             114   -2.22 0  284 292 
 URE  HZ I         924 27.33        11.3 0.16            113            284 292 
 CBOC HZ EP   4    923 54.87                             110    1.02 0  333 252 
 CBOC HE ES        924 30.75                             110    0.29 7  333 252 
 CBOC HZ I         924 34.10         2.4 0.32            109            333 252 
 DBB  EZ EP   2    923 54.76                             110    0.28 3  340 275 
 DBB  EN ES   4    924 28.86                             110   -2.72 0  340 275 
 DBB  EZ I         924 32.81         4.9 0.34            109            340 275 
 ORTC HZ EP   2    924  1.79                             107    1.05 3  394 216 
 ORTC HE ES   4    924 44.82                             107    2.09 0  394 216 
 ORTC HZ I         924 50.05         4.6 0.52            106            394 216 
 PAL  HZ EP   2    924  2.34                             106    0.30 3  405 239 
 PAL  HE ES        924 45.26                             106    0.23 6  405 239 
 PAL  HZ I         924 51.24         3.2 0.54            105            405 239 
                                                                                
