 2015  1 1 0618 41.3 L   6.803 -73.144142.7  RSN 10 0.6 1.9LRSN                1
 GAP=119        1.76       5.2     7.2  9.7  0.5091E+00  0.1768E+02  0.6651E+00E
 Epicentro: LOS SANTOS - SANTANDER                                             3
 ACTION:UPD 15-03-02 15:35 OP:nd   STATUS:               ID:20150101061841 L   I
 OLDACT:REG 15-01-01 15:21 OP:stll STATUS:               ID:20150101061735     3
 2015-01-01-0617-35M.COL___277                                                 6
 STAT SP IPHASW D HRMM SECON CODA AMPLIT PERI AZIMU VELO AIN AR TRES W  DIS CAZ7
 BAR2 EZ EP        619  0.85                             170    0.2810 23.7 190 
 BAR2 EZ ES        619 14.97                             170   -0.6310 23.7 190 
 BAR2 EZ I         619 18.43        16.8 0.30            169           23.7 190 
 BRR  HZ EP        619  2.60                             152    0.4810 71.2 298 
 BRR  HZ I         619  2.92        10.0 0.16            148           71.2 298 
 BRR  HN ES        619 19.48                             152    1.1210 71.2 298 
 PAM  SZ EP        619  3.56                             151    0.3910 77.0  40 
 PAM  SZ I         619  3.98        27.3 0.22            153           77.0  40 
 PAM  SN ES        619 20.40                             151    0.1710 77.0  40 
 RUS  HZ EP        619  4.81                             143    0.0310  101 176 
 RUS  HZ I         619  5.82         4.2 0.16            145            101 176 
 RUS  HN ES        619 22.98                             143   -0.1110  101 176 
 PTB  HZ EP        619  7.76                             131   -0.29 9  148 259 
 PTB  HN ES        619 28.27                             131   -0.64 9  148 259 
 PTB  HZ I         619 35.99        11.1 0.38            130            148 259 
 SPBC HZ EP        619  9.87                             128    0.26 9  164 219 
 SPBC HZ I         619 10.17        14.6 0.10            128            164 219 
 SPBC HE ES        619 31.63                             128   -0.05 9  164 219 
 ZAR  HZ EP        619 13.67                             122    0.11 9  204 292 
 ZAR  HN ES        619 39.20                             122    0.49 9  204 292 
 ZAR  HZ I         619 47.06         5.2 0.22            121            204 292 
 SML  HZ EP        619 17.23                             117   -0.51 8  243 335 
 SML  HN ES        619 44.70                             117   -1.45 8  243 335 
 SML  HZ I         619 51.24        12.9 0.10            117            243 335 
 CHI  HZ EP        619 19.13                             116    0.26 8  249 195 
 CHI  HN ES        619 47.45                             116   -0.73 8  249 195 
 CHI  HZ I         619 50.73         2.8 0.30            118            249 195 
 SOCV BZ EP   9    619 23.54                             112   -0.63 0  301  57 
 SOCV BN ES        619 54.43                                   -2.55 7  301  57 
                                                                                
