 2015 11 1 0127 20.4 L   6.812 -73.148147.7  RSN 16 0.4 2.4LRSN 3.3WRSN        1
 SPEC AVERAGE  MO 14.0 ST0.117 OM  1.9 f0 1.10 R2.1242 AL 0.00 WI 35.0 MW  3.3 3
 SPEC SD       MO  5.7 ST0.134 OM  0.9 f00.624 R1.3814 AL      WI      MW  1.4 3
 GAP= 71        0.92       2.5     2.9  4.8  0.4637E-01  0.4203E+01  0.1173E+01E
 Epicentro: LOS SANTOS - SANTANDER                                             3
 SPEC PAM EH Z MO 14.5 ST0.017 OM  2.6 f00.432 R4.4537 AL-0.00 WI 35.0 MW  3.6 3
 SPEC PAM EH Z T 12758 K 0.000 GD  166 VS 5.20 DE 3.50 Q0750.0 QA 1.50 VS 3.50 3
 SPEC OCA HH Z MO 13.9 ST0.376 OM  1.9 f0 1.90 R1.0126 AL-0.00 WI 35.0 MW  3.2 3
 SPEC OCA HH Z T 128 8 K 0.000 GD  217 VS 5.20 DE 3.50 Q0750.0 QA 1.50 VS 3.50 3
 SPEC CHI HH Z MO 13.8 ST0.039 OM  1.6 f0 1.02 R1.8863 AL-0.00 WI 35.0 MW  3.1 3
 SPEC CHI HH Z T 12826 K 0.000 GD  290 VS 5.20 DE 3.50 Q0750.0 QA 1.50 VS 3.50 3
 SPEC ROSCBH Z MO 14.0 ST0.047 OM  1.8 f00.927 R2.0755 AL-0.00 WI 35.0 MW  3.3 3
 SPEC ROSCBH Z T 12829 K 0.000 GD  293 VS 5.20 DE 3.50 Q0750.0 QA 1.50 VS 3.50 3
 SPEC HEL HH Z MO 13.6 ST0.039 OM  1.4 f0 1.16 R1.6586 AL-0.00 WI 35.0 MW  3.0 3
 SPEC HEL HH Z T 12831 K 0.000 GD  309 VS 5.20 DE 3.50 Q0750.0 QA 1.50 VS 3.50 3
 SPECGUY2CHH Z MO 13.8 ST0.037 OM  1.6 f00.953 R2.0189 AL-0.00 WI 35.0 MW  3.2 3
 SPECGUY2CHH Z T 12839 K 0.000 GD  336 VS 5.20 DE 3.50 Q0750.0 QA 1.50 Q1 0.00 3
 SPEC DBB SH Z MO 14.3 ST0.184 OM  2.0 f0 1.16 R1.6586 AL-0.00 WI 35.0 MW  3.5 3
 SPEC DBB SH Z T 12841 K 0.000 GD  369 VS 5.20 DE 3.50 Q0750.0 QA 1.50 VS 3.50 3
 OLDACT:UP  15-11-01 12:50 OP:mh   STATUS:               ID:20151101011747     3
 OLDACT:UP  15-11-01 12:50 OP:mh   STATUS:               ID:20151101011747     3
 OLDACT:UP  15-11-01 12:49 OP:mh   STATUS:               ID:20151101011747     3
 OLDACT:REG 15-11-01 12:24 OP:mh   STATUS:               ID:20151101011747     3
 ACTION:UPD 15-12-28 16:08 OP:cam  STATUS:               ID:20151101012720 L   I
 OLDACT:UP  15-11-01 14:11 OP:mh   STATUS:               ID:20151101011747     3
 2015-11-01-0117-47M.COL___292                                                 6
 STAT SP IPHASW D HRMM SECON CODA AMPLIT PERI AZIMU VELO AIN AR TRES W  DIS CAZ7
 BAR2 EZ EP   1    127 40.31                             170    0.06 7 24.6 189 
 BAR2 EZ ES        127 55.70                             170   -0.0710 24.6 189 
 BAR2 EZ I         127 56.13        42.3 0.26            170           24.6 189 
 BRR  HZ EP   1    127 42.13                             153    0.45 7 70.4 298 
 BRR  HN ES        127 58.79                             153    0.4910 70.4 298 
 BRR  HZ I         128  2.74        33.6 0.26            152           70.4 298 
 PAM  EZ EP   1    127 43.15                             151    0.41 7 76.5  40 
 PAM  EN ES        128  0.32                             151    0.1410 76.5  40 
 PAM  EZ I         128  3.34        28.6 0.50            147           76.5  40 
 RUS  HZ EP        127 44.24                             144   -0.1610  102 176 
 RUS  HN ES        128  2.31                             144   -0.8410  102 176 
 RUS  HZ I         128  4.07        17.1 0.34            141            102 176 
 TAM  HZ EP   1    127 48.79                             131    0.54 7  156 105 
 TAM  HZ I         128  9.22        22.0 0.38            127            156 105 
 TAM  HN ES        128 10.42                             131    0.42 9  156 105 
 OCA  HZ EP   1    127 48.48                             130   -0.22 7  159 353 
 OCA  HN ES   1    128 10.17                             130   -0.63 7  159 353 
 OCA  HZ I         128 18.40        59.2 0.46            127            159 353 
 SPBC HZ EP        127 49.18                             129    0.08 9  164 219 
 SPBC HN ES        128 11.16                             129   -0.35 9  164 219 
 SPBC HZ I         128 15.64        35.3 0.28            127            164 219 
 ZAR  HZ EP   1    127 52.75                             123   -0.12 6  203 292 
 ZAR  HN ES        128 18.46                             123    0.24 9  203 292 
 ZAR  HZ I         128 23.21        25.6 0.40            121            203 292 
 NOR  HZ EP        127 56.04                             119   -0.23 8  235 234 
 NOR  HN ES        128 24.64                             119    0.36 8  235 234 
 NOR  HZ I         128 29.35        15.0 0.16            117            235 234 
 SML  HZ EP   1    127 56.60                             118   -0.36 6  242 335 
 SML  HN ES        128 24.76                             118   -0.74 8  242 335 
 SML  HZ I         128 29.13        26.3 0.10            115            242 335 
 CHI  HZ EP   1    127 58.50                             117    0.20 6  250 195 
 CHI  HN ES        128 27.83                             117   -0.07 8  250 195 
 CHI  HZ I         128 32.88        15.6 0.32            115            250 195 
 ROSC BZ EP   1    127 58.44                             117   -0.26 6  254 211 
 ROSC BN ES   4    128 30.79                             117    2.18 0  254 211 
 ROSC BZ I         128 34.55        42.9 0.40            115            254 211 
 HEL  HZ EP   1    128  1.62                             115    0.93 6  272 256 
 HEL  HN ES        128 32.78                             115    0.64 8  272 256 
 HEL  HZ I         128 38.68        12.7 0.24            113            272 256 
 GUY2CHZ EP   1    128  4.13                             113    0.00 5  302 235 
 GUY2CHN ES   4    128 40.85                             113    2.58 0  302 235 
 GUY2CHZ I         128 46.38        14.6 0.60                           302 235 
 DBB  SZ EP        128  7.25                             110   -0.63 7  339 274 
 DBB  SZ ES   4    128 42.95                             110   -2.00 0  339 274 
 DBB  SZ I         128 46.52        41.0 0.50            108            339 274 
 MON  HZ EP   9    128  6.81                             109   -2.52 0  353 308 
 MON  HN ES        128 45.19                             109    0.19 6  353 308 
 MON  HZ I         128 48.09         6.0 0.32            107            353 308 
 ANIL HZ EP   4    128 12.76                             109    2.42 0  358 224 
 ANIL HE ES   4    128 53.31                             109    4.00 0  358 224 
                                                                                
