 2011  7 1 0535 29.0 L   6.699 -73.421121.3  RSN  5 0.2 1.5LRSN                1
 GAP=250        0.41       3.1    11.3  5.6 -0.1273E+02  0.3054E+02 -0.8929E+01E
 Epicentro: EL CARMEN DE CHUCURI - SANTANDER                                   3
 *BAR2-BTL-GIR                                                                 3
 ACTION:UPD 12-07-25 13:57 OP:epov STATUS:               ID:20110701052000 L   I
 2011-07-01-0520-00M.COL___124                                                 6
 STAT SP IPHASW D HRMM SECON CODA AMPLIT PERI AZIMU VELO AIN AR TRES W  DIS CAZ7
 BAR2 SZ EP        535 45.78                             166   -0.1110 28.9 114 
 BAR2 SZ I         535 46.15        10.4 0.25                          28.9 114 
 BAR2 SZ ES        535 58.94                             166   -0.0910 28.9 114 
 BTL  SZ EP   1    535 45.89                             165   -0.02 7 29.6  35 
 GIR2 SZ EP   1    535 46.88                             157    0.35 7 48.9  31 
 GIR2 SZ ES   2    536  0.50                             157    0.32 5 48.9  31 
 GRA  SZ EP   2    535 54.38                             126    0.06 5  148  27 
 GRA  SZ ES   1    536 14.01                             126   -0.03 7  148  27 
 GRA  SZ I         536 15.62         3.2 0.36                           148  27 
 OCA  SZ ES   1    536 18.03                             121   -0.15 7  171   4 
 OCA  SZ I         536 19.71         3.6 0.16                           171   4 
                                                                                
