 2011  7 1 0526 13.5 L   6.753 -73.110144.3  RSN 12 0.4 2.3LRSN                1
 GAP=160        0.74       2.9     4.6  5.2 -0.5013E+01  0.3656E+01  0.1015E+01E
 Epicentro: LOS SANTOS - SANTANDER                                             3
 ACTION:UPD 12-07-25 13:57 OP:epov STATUS:               ID:20110701052613 L   I
 2011-07-01-0520-00M.COL___124                                                 6
 STAT SP IPHASW D HRMM SECON CODA AMPLIT PERI AZIMU VELO AIN AR TRES W  DIS CAZ7
 BAR2 SZ EP        526 32.89                             172   -0.0110 19.5 204 
 BAR2 SZ ES   1    526 47.85                             172   -0.17 7 19.5 204 
 BAR2 SZ I         526 49.81        47.9 0.33                          19.5 204 
 BTL  SZ EP        526 33.10                             169    0.0810 25.2 316 
 GIR2 SZ EP        526 33.07                             165   -0.1210 37.2 346 
 BRR  HZ EP   1    526 34.98                             150    0.12 7 77.2 301 
 BRR  HZ I         526 35.31        46.1 0.11                          77.2 301 
 BRR  HN ES   1    526 52.25                             150    0.74 7 77.2 301 
 RUS  HZ EP        526 36.95                             145    0.2010 95.2 178 
 RUS  HE ES   1    526 54.88                             145    0.02 7 95.2 178 
 RUS  HZ I         526 56.54        21.2 0.28                          95.2 178 
 BRI  SZ EP   1    526 37.20                             140   -0.35 7  112  18 
 GRA  SZ EP        526 38.59                             136   -0.3710  130  15 
 GRA  SZ ES   1    526 58.31                             136   -0.49 7  130  15 
 GRA  SZ I         527  1.46        17.2 0.29                           130  15 
 OCA  SZ EP        526 42.47                             128    0.22 9  166 352 
 OCA  SZ ES   1    527  5.20                             128    0.53 7  166 352 
 OCA  SZ I         527  9.77        36.2 0.27                           166 352 
 NOR  SZ EP   1    526 48.82                             118   -0.37 6  235 236 
 NOR  SN ES   1    527 16.15                             118   -0.87 6  235 236 
 CHI  HZ EP   1    526 50.95                             117    0.24 6  245 196 
 CHI  HZ I         527 26.35        12.8 0.46                           245 196 
 HEL  HZ EP   1    526 54.27                             114    0.32 6  275 257 
 HEL  HN ES   1    527 25.05                             114   -0.43 6  275 257 
 HEL  HZ I         527 32.04         8.5 0.37                           275 257 
 PRA  HZ EP        527  7.00                             106    0.30 6  389 210 
 PRA  HE ES   1    527 48.75                             106    0.58 4  389 210 
                                                                                
