 2017  8 1 0640 45.2 L   6.760 -73.142145.4  RSN 10 0.5 1.3LRSN                1
 GAP=113        1.17       4.1     4.1  6.9  0.2032E+01  0.4936E+01  0.3825E+01E
 Epicentro: LOS SANTOS - SANTANDER                                             3
 ACTION:UPD 17-09-04 20:15 OP:rebc STATUS:               ID:20170801064045 L   I
 OLDACT:REG 17-08-01 14:16 OP:osc  STATUS:               ID:20170801063748     3
 2017-08-01-0638-00M.COL___398                                                 6
 STAT SP IPHASW D HRMM SECON CODA AMPLIT PERI AZIMU VELO AIN AR TRES W  DIS CAZ7
 BAR2 EZ EP        641  4.49                             172   -0.1710 19.1 193 
 BAR2 EZ ES        641 20.11                             172    0.2410 19.1 193 
 BAR2 EZ I         641 21.08         3.9 0.16            172           19.1 193 
 BRR  HZ EP        641  6.27                             151   -0.1310 73.7 301 
 BRR  HE ES        641 23.62                             151    0.6410 73.7 301 
 BRR  HZ I         641 26.56         4.4 0.22            152           73.7 301 
 PAM  EZ EP        641  7.50                             150   -0.0210 80.6  37 
 PAM  EN ES        641 24.62                             150   -0.3510 80.6  37 
 PAM  EZ I         641 27.24         3.1 0.38            153           80.6  37 
 RUS  HZ EP        641  8.73                             145    0.1810 96.1 176 
 RUS  HN ES        641 26.01                             145   -0.7810 96.1 176 
 RUS  HZ I         641 29.20         1.4 0.28            147           96.1 176 
 PTB  HZ EP        641 11.35                             132   -0.70 9  147 261 
 PTB  HE ES        641 32.80                             132   -0.22 9  147 261 
 PTB  HZ I         641 37.46         2.0 0.21            134            147 261 
 SPBC HZ EP        641 13.78                             129    0.46 9  160 220 
 SPBC HE ES        641 35.89                             129    0.60 9  160 220 
 SPBC HZ I         641 37.94         4.1 0.10            132            160 220 
 YPLC HZ EP        641 14.63                             127    0.11 9  173 151 
 YPLC HE ES        641 37.81                             127    0.38 9  173 151 
 ZAR  HZ EP        641 18.35                             122    0.57 8  206 293 
 ZAR  HN ES        641 42.80                             122   -0.43 8  206 293 
 NOR  HZ EP   4    641 18.64                             119   -1.98 0  232 235 
 NOR  HE ES        641 48.43                             119    0.15 8  232 235 
 CHI  HN ES   2    641 49.56                             117   -1.85 4  244 196 
                                                                                
