 2017  9 1 0859 13.0 L   6.823 -73.142145.0  RSN 15 0.5 2.3LRSN                1
 GAP=111        0.92       2.9     3.5  5.0  0.1028E+01  0.5975E+01  0.5380E+01E
 Epicentro: LOS SANTOS - SANTANDER                                             3
 ACTION:UPD 17-10-05 19:08 OP:rebc STATUS:               ID:20170901085913 L   I
 OLDACT:UP  17-09-01 16:19 OP:dani STATUS:               ID:20170901085743     3
 OLDACT:REG 17-09-01 13:09 OP:dani STATUS:               ID:20170901085743     3
 2017-09-01-0858-00M.COL___393                                                 6
 STAT SP IPHASW D HRMM SECON CODA AMPLIT PERI AZIMU VELO AIN AR TRES W  DIS CAZ7
 BAR2 EZ EP     D  859 32.29                             169   -0.2610 25.9 190 
 BAR2 EZ ES        859 47.31                             169   -0.5310 25.9 190 
 BAR2 EZ I         859 48.40        41.6 0.36            166           25.9 190 
 BRR  HZ EP     C  859 34.17                             153    0.1910 70.3 297 
 BRR  HN ES        859 50.86                             153    0.4910 70.3 297 
 BRR  HZ I         859 51.96        19.8 0.10            151           70.3 297 
 PAM  EZ EP        859 35.31                             151    0.3510 75.2  41 
 PAM  EN ES        859 52.23                             151    0.1010 75.2  41 
 PAM  EZ I         859 54.52        37.5 0.54            156           75.2  41 
 RUS  HZ EP        859 36.51                             143   -0.3110  103 176 
 RUS  HN ES        859 55.26                             143   -0.1810  103 176 
 RUS  HZ I         859 56.60        15.7 0.44            143            103 176 
 YPLC HZ IP     D  859 42.74                             126   -0.16 9  179 152 
 YPLC HN ES        9 0  6.91                             126    0.65 9  179 152 
 YPLC HZ I         9 0  9.43        12.2 0.28            128            179 152 
 ZAR  HZ EP        859 44.85                             122   -0.44 9  203 291 
 ZAR  HN ES        9 0 10.36                             122   -0.15 9  203 291 
 ZAR  HZ I         9 0 15.69        17.6 0.34            122            203 291 
 TABC EZ EP   3    859 50.66                             119    1.74 2  232 210 
 NOR  HZ EP        859 48.41                             118   -0.43 8  236 234 
 NOR  HE ES        9 0 16.74                             118   -0.08 8  236 234 
 NOR  HZ I         9 0 25.65         9.8 0.36            118            236 234 
 CHI  HZ EP        859 50.62                             117   -0.28 8  251 195 
 CHI  HN ES        9 0 19.87                             117   -0.62 8  251 195 
 CHI  HZ I         9 0 23.31        12.4 0.58            117            251 195 
 ROSC BZ EP   3    859 52.56                             116    1.26 2  255 211 
 ROSC BN ES        9 0 22.07                             116    0.87 8  255 211 
 ROSC BZ I         9 0 26.75        25.8 0.48            116            255 211 
 GUY2CHZ EP        859 57.33                             112    0.60 7  303 234 
 GUY2CHE ES   4    9 0 35.09                             112    4.21 0  303 234 
 GUY2CHZ I         9 0 38.55         8.7 0.36                           303 234 
 VIL  EE ES        9 0 30.65                             112   -0.05 7  306 192 
 ELA  HZ EP   4 D  859 56.47                             110   -3.53 0  331 229 
 ELA  HN ES   3    9 0 36.00                             110   -0.69 2  331 229 
 ELA  HZ I         9 0 45.34         7.7 0.74            110            331 229 
 PRA  HZ EP        9 0  6.66                             106   -0.07 6  394 209 
 PRA  HN ES        9 0 48.84                             106    0.16 6  394 209 
 PRA  HZ I         9 0 54.39         9.1 0.70            107            394 209 
 ORTC HZ EP        9 0  6.77                             106   -0.35 6  398 216 
 ORTC HN ES        9 0 50.13                             106    0.76 6  398 216 
 ORTC HZ I         9 0 53.72         6.1 0.28            107            398 216 
                                                                                
