 2016  9 1 0529 57.6 L   6.743 -73.146136.0  RSN  6 0.4 1.4LRSN                1
 GAP=233        1.17       6.2     6.7  8.5  0.1714E+02  0.1269E+02  0.4817E+01E
 Epicentro: LOS SANTOS - SANTANDER                                             3
 ACTION:UPD 17-08-17 21:05 OP:lp   STATUS:               ID:20160901052957 L   I
 OLDACT:REG 16-09-01 12:51 OP:drio STATUS:               ID:20160901052729     3
 2016-09-01-0528-00M.COL___358                                                 6
 STAT SP IPHASW D HRMM SECON CODA AMPLIT PERI AZIMU VELO AIN AR TRES W  DIS CAZ7
 BAR2 EZ EP        530 15.90                             172   -0.0910 17.1 194 
 BAR2 EZ ES        530 29.45                             172   -0.8510 17.1 194 
 BAR2 EZ I         530 31.99         7.8 0.20            165           17.1 194 
 BRR  HZ EP        530 17.61                             150   -0.3310 74.4 303 
 BRR  HN ES        530 34.60                             150    0.8210 74.4 303 
 BRR  HZ I         530 38.98         6.3 0.14            148           74.4 303 
 RUS  HZ EP        530 20.14                             144    0.1510 94.3 176 
 RUS  HE ES        530 38.02                             144    0.6110 94.3 176 
 RUS  HZ I         530 39.95         3.0 0.40            143           94.3 176 
 PTB  HZ EP        530 23.74                             130    0.01 9  147 261 
 PTB  HE ES        530 43.67                             130   -0.41 9  147 261 
 PTB  HZ I         530 46.61         2.6 0.26            129            147 261 
 SPBC HZ EP        530 24.92                             128   -0.02 9  158 220 
 SPBC HE ES        530 46.16                             128   -0.07 9  158 220 
 SPBC HZ I         530 56.38         3.3 0.26            127            158 220 
 ZAR  HE ES        530 54.91                             120    0.15 8  206 294 
 ZAR  HZ I         531  0.48         3.6 0.62            121            206 294 
                                                                                
