 2013 10 1 0940 18.2 L   6.812 -73.140142.2  RSN  9 0.3 1.8LRSN                1
 GAP=137        0.84       2.6     3.6  5.4 -0.9576E+00  0.6762E+01 -0.2660E+01E
 Epicentro: LOS SANTOS - SANTANDER                                             3
 ACTION:UPD 13-11-25 09:18 OP:ep   STATUS:               ID:20131001094018 L   I
 OLDACT:REG 13-10-01 05:57 OP:nd   STATUS:               ID:20131001093959     3
 2013-10-01-0939-59M.COL___272                                                 6
 STAT SP IPHASW D HRMM SECON CODA AMPLIT PERI AZIMU VELO AIN AR TRES W  DIS CAZ7
 BAR2 SZ IP     D  940 37.66                             170    0.2510 24.8 191 
 BAR2 SZ ES        940 51.89                             170   -0.5210 24.8 191 
 BAR2 SZ I         940 57.26         9.9 0.18            171           24.8 191 
 BRR  HZ EP        940 39.53                             152    0.6010 71.1 297 
 BRR  HN ES   2    940 55.61                             152    0.48 5 71.1 297 
 BRR  HZ I         941  0.33        10.7 0.12            151           71.1 297 
 PAM  SZ EP        940 40.33                             150    0.4010 76.0  40 
 PAM  SN ES        940 57.08                             150    0.1810 76.0  40 
 RUS  HZ EP        940 41.56                             142   -0.1210  102 176 
 RUS  HN ES        940 59.89                             142   -0.1210  102 176 
 RUS  HZ I         941  1.63         5.5 0.32            149            102 176 
 PTB  HZ EP        940 44.54                             131   -0.39 9  149 258 
 PTB  HN ES        941  5.68                             131   -0.12 9  149 258 
 PTB  HZ I         941  9.51         6.1 0.16            133            149 258 
 OCA  HZ EP   2    940 45.51                             129   -0.58 5  159 353 
 OCA  HN ES        941  7.36                             129   -0.50 9  159 353 
 OCA  HZ I         941 15.05         7.9 0.32            132            159 353 
 SPBC HZ IP     D  940 46.78                             128    0.24 9  165 219 
 SPBC HN ES        941  8.63                             128   -0.04 9  165 219 
 SPBC HZ I         941 13.68         4.4 0.18            132            165 219 
 ZAR  HZ EP     C  940 50.32                             121   -0.07 9  204 292 
 ZAR  HN ES        941 15.88                             121    0.36 9  204 292 
 ZAR  HZ I         941 21.81        11.7 0.40            124            204 292 
 SML  HZ EP        940 54.09                             117   -0.40 8  243 335 
 SML  HE ES        941 22.94                             117    0.12 8  243 335 
 SML  HZ I         941 26.45         8.8 0.10            120            243 335 
                                                                                
