 2010  6 1 0425 16.4 L   6.767 -73.021146.7  RSN  6 0.3 1.9LRSN                1
 GAP=212        0.67       5.9    14.0  7.1 -0.5313E+02  0.2649E+02 -0.1021E+02E
 Epicentro: CEPITA - SANTANDER                                                 3
 ACTION:UP  10-08-24 10:07 OP:vdl  STATUS:               ID:20100601042516 L   I
 2010-06-01-0423-21S.COL___109                                                 6
 STAT SP IPHASW D HRMM SECON CODA AMPLIT PERI AZIMU VELO SNR AR TRES W  DIS CAZ7
 BAR2 SZ IP        425 36.22                             169     0.110   27 223 
 BAR2 SZ ES   1    425 51.42                             169    -0.2 7   27 223 
 GUE  SZ EP   1    425 41.05                             139    -0.2 7  118   5 
 GUE  SZ ES   2    426  0.08                             139    -0.6 5  118   5 
 GRA  SZ IP        425 41.99                             137     0.310  126  11 
 GRA  SZ ES   1    426  1.75                             137     0.3 7  126  11 
 OCA  SZ EP   1    425 44.79                             129    -0.5 7  166 349 
 OCA  SZ ES   2    426  8.34                             129     0.5 5  166 349 
 OCA  SZ I         426 14.83         7.3 0.38                           166 349 
 HEL  HZ EP   2    425 58.16                             114     0.1 4  285 257 
 HEL  HZ I         426 34.34         4.0 0.24                           285 257 
 RREF BZ EP   2    426  3.67                             110     0.2 3  330 231 
 RREF BZ I         426 48.33         4.1 0.36                           330 231 
                                                                                
