 2015  1 1 0735 12.2 L   6.449 -73.770 95.9  RSN  4 0.3 1.0LRSN                1
 GAP=149        0.75       4.1     3.1  7.5  0.4463E+01  0.2848E+01  0.8517E+01E
 Epicentro: SANTA HELENA DEL OPON - SANTANDER                                  3
 ACTION:UPD 15-03-02 15:35 OP:nd   STATUS:               ID:20150101073512 L   I
 OLDACT:DUP 15-01-01 18:42 OP:stll STATUS:               ID:20150101072736d    3
 OLDACT:REG 15-01-01 15:24 OP:stll STATUS:               ID:20150101072735     3
 2015-01-01-0727-35M.COL___277                                                 6
 STAT SP IPHASW D HRMM SECON CODA AMPLIT PERI AZIMU VELO AIN AR TRES W  DIS CAZ7
 BAR2 EZ EP        735 27.87                             143   -0.3410 66.9  76 
 BAR2 EZ I         735 28.59         4.7 0.10            145           66.9  76 
 BAR2 EZ ES        735 40.77                             143    0.0410 66.9  76 
 BRR  HZ EP        735 28.02                             140   -0.3310 73.0   5 
 BRR  HZ I         735 28.33         2.7 0.24            144           73.0   5 
 BRR  HN ES        735 41.27                             140    0.2910 73.0   5 
 PTB  HZ EP        735 28.80                             138    0.1510 76.5 278 
 PTB  HN ES        735 41.40                             138   -0.1210 76.5 278 
 PTB  HZ I         735 43.19         4.8 0.10            140           76.5 278 
 RUS  HZ EP        735 31.64                             132    0.4810 97.8 129 
 RUS  HN ES        735 45.82                             132   -0.1710 97.8 129 
 RUS  HZ I         735 48.55         1.3 0.34            132           97.8 129 
                                                                                
