 2017  5 1 0135 47.6 L   6.786 -73.161147.9  RSN 11 0.5 2.1LRSN                1
 GAP=111        1.27       4.4     4.4  8.2  0.1745E+01  0.1095E+01  0.1263E+02E
 Epicentro: LOS SANTOS - SANTANDER                                             3
 ACTION:UPD 17-06-16 13:31 OP:jn   STATUS:               ID:20170501013547 L   I
 OLDACT:UP  17-05-01 13:44 OP:ar   STATUS:               ID:20170501012740     3
 OLDACT:UP  17-05-01 13:43 OP:ar   STATUS:               ID:20170501012740     3
 OLDACT:REG 17-05-01 12:29 OP:ar   STATUS:               ID:20170501012740     3
 2017-05-01-0128-00M.COL___377                                                 6
 STAT SP IPHASW D HRMM SECON CODA AMPLIT PERI AZIMU VELO AIN AR TRES W  DIS CAZ7
 BRR  HZ IP     C  136  9.06                             153    0.0810 70.5 300 
 BRR  HN ES        136 26.31                             153    0.6810 70.5 300 
 BRR  HZ I         136 30.08        25.9 0.32            153           70.5 300 
 PAM  EZ EP        136 10.09                             150   -0.1310 79.7  40 
 PAM  EE ES        136 27.92                             150    0.0910 79.7  40 
 PAM  EZ I         136 29.46        19.8 0.48            155           79.7  40 
 RUS  HZ EP        136 11.22                             145   -0.2810 99.1 175 
 RUS  HZ E         136 11.24                                           99.1 175 
 RUS  HE ES        136 29.90                             145   -0.2010 99.1 175 
 RUS  HZ I         136 31.32        14.5 0.30            146           99.1 175 
 PTB  HZ EP        136 13.82                             133   -0.79 9  146 259 
 PTB  HN ES        136 34.96                             133   -0.68 9  146 259 
 PTB  HZ I         136 40.09         8.8 0.28            134            146 259 
 SPBC HZ EP        136 16.35                             130    0.26 9  161 219 
 SPBC HN ES        136 37.99                             130   -0.28 9  161 219 
 SPBC HZ I         136 41.03        19.9 0.14            131            161 219 
 YPLC HZ EP        136 17.75                             127    0.22 9  176 151 
 YPLC HE ES        136 40.79                             127   -0.06 9  176 151 
 YPLC HZ I         136 44.25        15.0 0.26            130            176 151 
 ZAR  HZ EP   4    136 22.77                             123    2.64 0  203 293 
 ZAR  HE ES        136 45.49                             123    0.02 9  203 293 
 ZAR  HZ I         136 50.50        17.2 0.38            125            203 293 
 NOR  HE ES        136 51.10                             119    0.08 8  232 235 
 NOR  HZ I         136 55.28         5.3 0.18            121            232 235 
 CHI  HZ EP        136 25.45                             118    0.21 8  247 195 
 CHI  HE ES        136 55.00                             118    0.43 8  247 195 
 CHI  HZ I         136 56.90         6.5 0.44            119            247 195 
 ROSC BZ EP        136 27.21                             117    1.58 8  251 211 
 ROSC BE ES   4    136 57.48                             117    2.21 0  251 211 
 ROSC BZ I         137  2.11        13.5 0.35            119            251 211 
 PTGC HZ EP        136 30.46                             112   -1.03 7  308 158 
 PTGC HN ES   4    137  4.19                             112   -1.51 0  308 158 
 PTGC HZ I         137  6.45         7.1 0.38            114            308 158 
                                                                                
