 2012  7 1 0651 59.0 L   6.754 -73.212147.2  RSN  6 0.4 1.7LRSN                1
 GAP=174        0.86       4.9     6.1  8.4  0.7060E+01  0.1241E+01 -0.8551E+01E
 Epicentro: VILLANUEVA - SANTANDER                                             3
 ACTION:UPD 12-08-14 11:41 OP:ep   STATUS:               ID:20120701065159 L   I
 2012-07-01-0650-00M.COL___201                                                 6
 STAT SP IPHASW D HRMM SECON CODA AMPLIT PERI AZIMU VELO AIN AR TRES W  DIS CAZ7
 BAR2 SZ EP   1    652 18.56                             173    -0.1 7   18 170 
 BAR2 SZ ES   1    652 33.50                             173    -0.6 7   18 170 
 BAR2 SZ I         652 35.17        13.3 0.24            174             18 170 
 BRR  HZ EP   1    652 20.29                             154     0.2 7   68 305 
 BRR  HN ES   1    652 37.27                             154     0.7 7   68 305 
 BRR  HZ I         652 41.11        10.1 0.17            153             68 305 
 RUS  HZ EP   1    652 22.65                             145     0.1 7   96 172 
 RUS  HN ES   1    652 41.26                             145     0.3 7   96 172 
 PTB  HZ EP   1    652 25.70                             134     0.4 7  140 260 
 PTB  HN ES   1    652 45.34                             134    -0.6 7  140 260 
 PTB  HZ I         652 48.96         4.2 0.18            135            140 260 
 OCA  HZ EP   1    652 27.40                             129    -0.4 7  165 356 
 OCA  HN ES   1    652 50.32                             129     0.0 7  165 356 
 ZAR  HE ES   1    652 55.98                             123    -0.1 6  199 294 
