 2017  9 1 0303 46.6 L   6.807 -73.120144.7  RSN  6 0.4 1.6LRSN                1
 GAP=114        1.04       4.7     5.3  6.7  0.1179E+02  0.4646E+01  0.3591E+01E
 Epicentro: LOS SANTOS - SANTANDER                                             3
 ACTION:UPD 17-10-05 19:07 OP:rebc STATUS:               ID:20170901030346 L   I
 OLDACT:UP  17-09-01 14:07 OP:dani STATUS:               ID:20170901025738     3
 OLDACT:REG 17-09-01 13:00 OP:dani STATUS:               ID:20170901025738     3
 2017-09-01-0258-00M.COL___411                                                 6
 STAT SP IPHASW D HRMM SECON CODA AMPLIT PERI AZIMU VELO AIN AR TRES W  DIS CAZ7
 BAR2 EZ EP        3 4  5.16                             170   -0.9410 24.7 196 
 BAR2 EZ ES        3 4 21.11                             170   -0.2310 24.7 196 
 BRR  HZ EP        3 4  7.82                             152    0.1010 73.3 297 
 BRR  HE ES        3 4 24.62                             152    0.3910 73.3 297 
 BRR  HZ I         3 4 29.41         6.2 0.66            151           73.3 297 
 PAM  EZ EP        3 4  8.74                             151    0.2110 75.0  38 
 PAM  EN ES        3 4 25.65                             151   -0.0110 75.0  38 
 PAM  EZ I         3 4 27.70        11.8 0.52            155           75.0  38 
 RUS  HZ EP        3 4  9.94                             143   -0.3210  101 178 
 RUS  HE ES        3 4 28.66                             143   -0.0810  101 178 
 RUS  HZ I         3 4 30.01         4.4 0.38            145            101 178 
 YPLC HZ EP        3 4 16.30                             126    0.08 9  176 152 
 YPLC HN ES        3 4 40.13                             126    0.78 9  176 152 
 YPLC HZ I         3 4 43.97         6.5 0.50            129            176 152 
 ZAR  HZ EP        3 4 19.34                             122    0.16 8  206 292 
 ZAR  HN ES        3 4 44.74                             122    0.12 8  206 292 
 ZAR  HZ I         3 4 50.87         4.4 0.22            123            206 292 
                                                                                
