 2011  8 1 0705 28.8 L   6.790 -73.117148.2  RSN  7 0.4 1.5LRSN                1
 GAP=141        0.79       4.4     5.8  7.0 -0.7778E+01  0.6687E+01 -0.4466E+01E
 Epicentro: LOS SANTOS - SANTANDER                                             3
 ACTION:UPD 12-07-25 14:05 OP:epov STATUS:               ID:20110801070528 L   I
 2011-08-01-0704-51S.COL___142                                                 6
 STAT SP IPHASW D HRMM SECON CODA AMPLIT PERI AZIMU VELO AIN AR TRES W  DIS CAZ7
 BAR2 SZ EP   1    7 5 48.79                             171    0.07 7 23.0 198 
 BAR2 SZ ES   1    7 6  3.39                             171   -0.87 7 23.0 198 
 BAR2 SZ I         7 6  5.67         6.2 0.18                          23.0 198 
 BRR  HZ EP   1    7 5 50.70                             152    0.29 7 74.5 298 
 BRR  HZ I         7 5 50.96         8.5 0.13                          74.5 298 
 BRR  HN ES   1    7 6  7.77                             152    0.51 7 74.5 298 
 PAM  SZ EP   1    7 5 51.49                             152    0.27 7 76.3  37 
 PAM  SZ I         7 5 51.79         4.8 0.16                          76.3  37 
 PAM  SN ES   1    7 6  8.94                             152    0.24 7 76.3  37 
 RUS  HZ EP   1    7 5 52.71                             145    0.00 7 99.3 178 
 RUS  HN ES   1    7 6 11.58                             145    0.23 7 99.3 178 
 RUS  HZ I         7 6 13.11         2.7 0.37                          99.3 178 
 GRA  SZ EP   1    7 5 54.37                             137    0.09 7  126  16 
 GRA  SZ I         7 5 55.82         6.3 0.31                           126  16 
 GRA  SZ ES   1    7 6 14.01                             137   -0.14 7  126  16 
 OCA  SZ EP   1    7 5 56.72                             130   -0.73 7  162 352 
 HEL  HN ES   1    7 6 41.00                             115   -0.16 6  275 256 
                                                                                
