 2013  3 1 0551 57.8 L   6.818 -73.149146.0  RSN  9 0.5 2.3LRSN 2.9WRSN        1
 SPEC AVERAGE  MO 13.4 ST  2.8 OM  2.6 f0 3.77 R0.4261 AL 2.69 WI 22.5 MW  2.9 3
 SPEC SD       MO  0.3 ST  2.0 OM  0.9 f0 1.14 R0.1227 AL      WI      MW  0.2 3
 GAP=135        1.20       4.1     5.1  7.1  0.4047E+00  0.8856E+01 -0.5743E+01E
 Epicentro: LOS SANTOS - SANTANDER                                             3
 SPEC RUS HH N MO 12.9 ST0.201 OM  1.3 f0 2.54 R0.5787 AL 1.85 WI 12.4 MW  2.6 3
 SPEC RUS HH N T 55239 K 0.000 GD  178 VS 4.20 DE 3.20 Q0300.0 QA 0.60 VS 4.20 3
 SPEC OCA HH N MO 13.7 ST  3.1 OM  2.0 f0 3.49 R0.4212 AL 2.00 WI 35.2 MW  3.1 3
 SPEC OCA HH N T 55246 K 0.000 GD  215 VS 4.20 DE 3.20 Q0300.0 QA 0.60 VS 4.20 3
 SPEC BRR HH N MO 13.4 ST  5.2 OM  1.8 f0 5.28 R0.2784 AL 4.21 WI 20.0 MW  2.9 3
 SPEC BRR HH N T 55236 K 0.000 GD  161 VS 4.20 DE 3.20 Q0300.0 QA 0.60 VS 4.20 3
 ACTION:UPD 13-04-09 13:59 OP:ep   STATUS:               ID:20130301055158 L   I
 2013-03-01-0548-40M.COL___196                                                 6
 STAT SP IPHASW D HRMM SECON CODA AMPLIT PERI AZIMU VELO AIN AR TRES W  DIS CAZ7
 BAR2 SZ IP        552 17.59                             170    0.0710 25.2 188 
 BAR2 SZ I         552 17.93        43.1 0.34            162           25.2 188 
 BAR2 SZ ES        552 32.87                             170   -0.0110 25.2 188 
 BRR  HZ IP     C  552 19.43                             153    0.5110 70.0 297 
 BRR  HE ES        552 36.12                             153    0.7410 70.0 297 
 BRR  HN I         552 40.22        91.1 0.16            144           70.0 297 
 PAM  SZ EP        552 20.38                             151    0.4010 76.1  41 
 PAM  SN ES        552 37.23                             151   -0.0410 76.1  41 
 PAM  SN I         552 38.06        20.7 0.42            153           76.1  41 
 RUS  HZ EP        552 21.46                             143   -0.2810  103 176 
 RUS  HN ES        552 39.86                             143   -0.5310  103 176 
 RUS  HN I         552 43.09        18.5 0.30            137            103 176 
 PTB  HZ EP        552 24.26                             132   -0.55 9  148 258 
 PTB  HN ES        552 45.67                             132   -0.19 9  148 258 
 PTB  HN I         552 51.13        33.6 0.50            124            148 258 
 OCA  HZ EP        552 26.53                             130    0.57 9  158 353 
 OCA  HN ES        552 47.56                             130   -0.35 9  158 353 
 OCA  HN I         552 54.48        58.9 0.18            126            158 353 
 ZAR  HZ EP        552 30.19                             123    0.02 9  203 292 
 ZAR  HN ES        552 55.35                             123   -0.05 9  203 292 
 ZAR  HZ I         553  1.45        17.6 0.36            116            203 292 
 SML  HZ EP        552 33.84                             118   -0.41 8  242 335 
 SML  HN ES        553  1.72                             118   -0.94 8  242 335 
 HEL  HZ EP   1    552 39.49                             115    1.43 6  272 255 
 HEL  HN I         553 17.28         6.6 0.56            109            272 255 
                                                                                
