 2015  4 1 0150 40.6 L   6.824 -73.154144.6  RSN  7 0.5 1.6LRSN                1
 GAP=134        1.18       4.6     6.2  8.2  0.4920E+01  0.1092E+02 -0.8746E+01E
 Epicentro: LOS SANTOS - SANTANDER                                             3
 ACTION:UPD 15-06-03 16:51 OP:cam  STATUS:               ID:20150401015040 L   I
 OLDACT:UP  15-04-01 14:00 OP:mh   STATUS:               ID:20150401014748     3
 OLDACT:UP  15-04-01 14:00 OP:mh   STATUS:               ID:20150401014748     3
 OLDACT:REG 15-04-01 12:23 OP:mh   STATUS:               ID:20150401014748     3
 2015-04-01-0147-48M.COL___277                                                 6
 STAT SP IPHASW D HRMM SECON CODA AMPLIT PERI AZIMU VELO AIN AR TRES W  DIS CAZ7
 BAR2 EZ EP        151  0.19                             170    0.0410 25.8 187 
 BAR2 EZ ES        151 15.26                             170   -0.1410 25.8 187 
 BAR2 EZ I         151 17.84         9.6 0.26            173           25.8 187 
 BRR  HZ EP        151  2.03                             153    0.5110 69.2 297 
 BRR  HN ES        151 18.37                             153    0.5410 69.2 297 
 BRR  HZ I         151 21.43         6.5 0.12            152           69.2 297 
 PAM  SZ EP        151  3.16                             151    0.5410 76.0  41 
 PAM  SN ES        151 19.99                             151    0.2110 76.0  41 
 PAM  SZ I         151 23.26         6.2 0.39            152           76.0  41 
 RUS  HZ EP   1    151  4.41                             143   -0.03 7  103 176 
 RUS  HN ES        151 22.24                             143   -0.7910  103 176 
 RUS  HZ I         151 24.02         4.3 0.28            149            103 176 
 OCA  HZ EP        151  8.10                             130   -0.47 9  158 353 
 OCA  HN ES        151 30.23                             130   -0.16 9  158 353 
 OCA  HZ I         151 39.59         9.1 0.28            131            158 353 
 ZAR  HZ EP        151 13.21                             122    0.42 9  202 292 
 ZAR  HN ES        151 37.82                             122   -0.07 9  202 292 
 ZAR  HZ I         151 44.93         3.9 0.28            124            202 292 
 SML  HN ES        151 44.17                             117   -0.98 8  241 335 
                                                                                
