 2015  9 1 0906 40.9 L   6.806 -73.154140.3  RSN 14 0.4 2.1LRSN                1
 GAP=182        1.00       2.8     4.5  5.2 -0.1910E+01  0.7990E+01 -0.3712E-01E
 Epicentro: LOS SANTOS - SANTANDER                                             3
 ACTION:UPD 15-10-28 16:23 OP:cam  STATUS:               ID:20150901090640 L   I
 OLDACT:REG 15-09-01 13:56 OP:stll STATUS:               ID:20150901085748     3
 2015-09-01-0857-48M.COL___355                                                 6
 STAT SP IPHASW D HRMM SECON CODA AMPLIT PERI AZIMU VELO AIN AR TRES W  DIS CAZ7
 BAR2 EZ IP     C  9 7  0.02                             170    0.1610 23.9 188 
 BAR2 EZ ES        9 7 14.36                             170   -0.3010 23.9 188 
 BAR2 EZ I         9 7 16.08        14.1 0.20            169           23.9 188 
 BRR  HZ EP     C  9 7  1.95                             152    0.5810 70.1 298 
 BRR  HN ES        9 7 17.75                             152    0.4010 70.1 298 
 BRR  HZ I         9 7 22.23        20.3 0.40            149           70.1 298 
 RUS  HZ EP        9 7  3.90                             142   -0.2410  101 176 
 RUS  HN ES        9 7 22.46                             142    0.1610  101 176 
 RUS  HZ I         9 7 25.27        11.6 0.34            146            101 176 
 OCA  HZ EP        9 7  8.63                             128   -0.06 9  159 353 
 OCA  HN ES        9 7 29.63                             128   -0.75 9  159 353 
 OCA  HZ I         9 7 34.82        25.9 0.42            130            159 353 
 SPBC HZ EP        9 7  9.01                             128    0.06 9  163 219 
 SPBC HN ES        9 7 30.87                             128    0.01 9  163 219 
 SPBC HZ I         9 7 35.36        19.4 0.28            129            163 219 
 ZAR  HZ EP        9 7 13.41                             121    0.56 9  203 292 
 ZAR  HN ES        9 7 38.45                             121    0.65 9  203 292 
 ZAR  HZ I         9 7 45.17        16.6 0.36            122            203 292 
 NOR  HZ EP        9 7 16.48                             117    0.23 8  234 234 
 NOR  HN ES        9 7 43.68                             117   -0.17 8  234 234 
 NOR  HZ I         9 7 46.94        13.5 0.30            119            234 234 
 SML  HZ EP        9 7 16.69                             116   -0.40 8  243 335 
 SML  HN ES   4    9 7 41.40                             116   -3.93 0  243 335 
 SML  HZ I         9 7 54.14        12.3 0.26            118            243 335 
 HEL  HZ EP        9 7 20.78                             114    0.05 8  271 256 
 HEL  HE ES        9 7 51.32                             114   -0.50 8  271 256 
 HEL  HZ I         9 7 58.78         6.4 0.22            115            271 256 
 URE  HZ EP        9 7 20.96                             113   -0.60 7  283 292 
 URE  HN ES   4    9 7 49.50                             113   -3.79 0  283 292 
 GUY2CHZ EP        9 7 25.06                             111    0.87 7  301 235 
 GUY2CHN ES        9 7 56.91                             111   -1.07 7  301 235 
 GUY2CHZ I         9 8  7.48         9.0 0.42                           301 235 
 TOL  SZ EP        9 7 28.88                             108   -0.02 7  343 224 
 TOL  SE ES        9 8  6.23                             108   -0.12 7  343 224 
 TOL  SZ I         9 8 12.58         4.8 0.20            110            343 224 
 PRA  HZ EP        9 7 34.13                             106   -0.10 6  392 209 
 PRA  HN ES        9 8 15.79                             106   -0.05 6  392 209 
 PRA  HZ I         9 8 21.32         4.3 0.20            107            392 209 
 SJC  HZ EP   4    9 7 33.68                             105   -2.45 0  408 327 
 SJC  HN ES   4    9 8 13.21                             105   -6.03 0  408 327 
 SJC  HZ I         9 8 20.10         2.3 0.48            106            408 327 
                                                                                
