 2017 12 1 0207  3.3 L   6.814 -73.146139.2  RSN  6 0.4 1.3LRSN                1
 GAP=136        1.02       4.5     4.6  7.5 -0.2733E+01  0.1339E+02 -0.3512E+01E
 Epicentro: LOS SANTOS - SANTANDER                                             3
 ACTION:UPD 18-01-04 13:15 OP:rebc STATUS:               ID:20171201020703 L   I
 OLDACT:REG 17-12-01 12:23 OP:dhb  STATUS:               ID:20171201014450     3
 2017-12-01-0158-00M.COL___498                                                 6
 STAT SP IPHASW D HRMM SECON CODA AMPLIT PERI AZIMU VELO AIN AR TRES W  DIS CAZ7
 BAR2 EZ EP        2 7 21.62                             169   -0.5110 24.9 189 
 BAR2 EZ ES        2 7 36.48                             169   -0.3710 24.9 189 
 BAR2 EZ I         2 7 38.03         5.5 0.38            171           24.9 189 
 PAM  EZ EP        2 7 24.89                             150    0.1910 76.2  40 
 PAM  EN ES        2 7 41.76                             150    0.3310 76.2  40 
 PAM  EZ I         2 7 44.21         2.6 0.68            152           76.2  40 
 RUS  HZ EP        2 7 26.40                             142   -0.0810  102 176 
 RUS  HN ES        2 7 44.71                             142    0.1110  102 176 
 RUS  HZ I         2 7 45.43         3.3 0.30            146            102 176 
 PTB  HZ EP        2 7 29.07                             130   -0.65 9  148 258 
 PTB  HN ES        2 7 50.22                             130   -0.14 9  148 258 
 PTB  HZ I         2 7 51.59         1.4 0.28            131            148 258 
 SPBC HZ EP        2 7 31.28                             127   -0.09 9  164 219 
 SPBC HN ES        2 7 54.10                             127    0.80 9  164 219 
 SPBC HZ I         2 7 57.69         2.8 0.10            129            164 219 
 ZAR  HZ EP        2 7 35.80                             121    0.59 9  203 292 
 ZAR  HE ES        2 8  0.12                             121   -0.02 9  203 292 
 ZAR  HZ I         2 8 10.54         3.0 0.42            121            203 292 
                                                                                
