 2011  2 1 0506 58.9 L   6.664 -73.570 98.0  RSN  6 0.2 1.2LRSN                1
 GAP=221        0.49       3.7    15.9 15.3 -0.2872E+00  0.1411E+03 -0.1950E+02E
 Epicentro: EL CARMEN DE CHUCURI - SANTANDER                                   3
 ACTION:UP  11-03-28 15:05 OP:jfem STATUS:               ID:20110201050658 L   I
 2011-02-01-0504-56S.COL___138                                                 6
 STAT SP IPHASW D HRMM SECON CODA AMPLIT PERI AZIMU VELO SNR AR TRES W  DIS CAZ7
 BAR2 SZ EP   2    5 7 13.60                             154    -0.1 5   43 101 
 BAR2 SZ I         5 7 28.01         5.7 0.48                            43 101 
 BTL  SZ EP        5 7 13.58                             154    -0.110   44  50 
 GIR2 SZ EP   2    5 7 15.32                             145     0.6 5   62  42 
 RUS  HZ EP   1    5 7 18.38                             131     0.0 7  101 148 
 RUS  HN ES   2    5 7 33.74                             131     0.1 5  101 148 
 RUS  HZ I         5 7 36.16         2.2 0.37                           101 148 
 GRA  SZ ES   2    5 7 43.37                             117    -0.1 5  159  32 
 OCA  SZ EP   1    5 7 25.92                             114     0.1 7  176   9 
 OCA  SZ I         5 7 51.44         2.8 0.35                           176   9 
                                                                                
