 2016  7 1 0749 15.1 L   6.787 -73.192142.0  RSN 17 0.5 2.0LRSN                1
 GAP=131        1.04       3.1     3.5  5.4  0.2049E+00  0.7437E+01  0.4161E+01E
 Epicentro: ZAPATOCA - SANTANDER                                               3
 ACTION:UPD 17-03-29 16:45 OP:lp   STATUS:               ID:20160701074915 L   I
 OLDACT:DUP 16-07-01 17:28 OP:ak   STATUS:               ID:20160701074747d    3
 2016-07-01-0747-46M.COL___334                                                 6
 STAT SP IPHASW D HRMM SECON CODA AMPLIT PERI AZIMU VELO AIN AR TRES W  DIS CAZ7
 BAR2 EZ EP        749 34.16                             171   -0.0710 21.5 177 
 BAR2 EZ ES        749 48.97                             171   -0.1910 21.5 177 
 BAR2 EZ I         749 50.90        21.1 0.18            169           21.5 177 
 BRR  HZ EP        749 35.95                             153    0.3310 67.5 302 
 BRR  HN ES        749 52.63                             153    0.9910 67.5 302 
 BRR  HZ I         749 54.84        13.7 0.18            150           67.5 302 
 PAM  EZ EP        749 37.25                             149    0.0710 81.9  42 
 PAM  EN ES        749 54.23                             149   -0.1810 81.9  42 
 PAM  EZ I         749 56.39        33.5 0.48            154           81.9  42 
 RUS  HZ EP        749 38.18                             143   -0.2110 99.6 173 
 RUS  HN ES        749 56.89                             143    0.3110 99.6 173 
 RUS  HZ I         749 57.95        12.8 0.22            145           99.6 173 
 PTB  HZ EP        749 40.75                             132   -0.51 9  142 259 
 PTB  HN ES        750  1.30                             132   -0.38 9  142 259 
 PTB  HZ I         750  5.57         6.9 0.14            131            142 259 
 SPBC HZ EP        749 42.99                             129    0.11 9  159 218 
 SPBC HN ES        750  3.93                             129   -0.63 9  159 218 
 SPBC HZ I         750  7.73        24.3 0.38            129            159 218 
 ZAR  HZ EP        749 45.88                             122   -0.98 9  200 293 
 ZAR  HN ES        750 11.60                             122   -0.04 9  200 293 
 ZAR  HZ I         750 18.34         9.2 0.07            122            200 293 
 NOR  HZ EP        749 50.65                             118    0.59 8  230 234 
 NOR  HE ES   4    750 18.90                             118    1.57 0  230 234 
 NOR  HZ I         750 20.68         9.7 0.16            119            230 234 
 CHI  HZ EP        749 52.32                             117    0.04 8  246 194 
 CHI  HN ES        750 20.62                             117   -0.67 8  246 194 
 CHI  HZ I         750 25.41         8.9 0.32            118            246 194 
 ROSC BZ EP   4    749 54.57                             116    2.00 0  249 210 
 ROSC BN ES        750 22.14                             116    0.32 8  249 210 
 ROSC BZ I         750 27.79        13.2 0.35            117            249 210 
 HEL  HZ EP   2    749 54.98                             115    0.47 4  267 256 
 HEL  HN ES        750 24.90                             115   -0.37 8  267 256 
 HEL  HZ I         750 33.13         4.6 0.42            115            267 256 
 URE  HZ EP   2    749 54.68                             113   -0.82 4  280 293 
 URE  HN ES        750 27.14                             113    0.11 7  280 293 
 URE  HZ I         750 36.92         8.0 0.20            114            280 293 
 GUY2CHZ EP   4    750  0.21                             112    2.26 0  296 234 
 GUY2CHN ES   4    750 36.12                             112    4.74 0  296 234 
 GUY2CHZ I         750 40.29         5.1 0.26                           296 234 
 CBOC HZ EP        750  1.89                             110    0.66 7  328 252 
 CBOC HN ES        750 37.23                             110    0.01 7  328 252 
 CBOC HZ I         750 41.52         1.2 0.18            110            328 252 
 PRA  HZ EP        750  7.72                             106   -0.31 6  388 209 
 PRA  HN ES        750 50.21                             106    0.88 6  388 209 
 PRA  HZ I         750 55.31         5.0 0.50            107            388 209 
 ORTC HZ EP   2    750  8.98                             106    0.60 3  391 216 
 ORTC HN ES        750 50.54                             106    0.59 6  391 216 
 ORTC HZ I         750 55.37         3.4 0.54            107            391 216 
 PAL  HZ EP   2    750 10.24                             106    0.73 3  401 239 
 PAL  HN ES        750 52.25                             106    0.28 6  401 239 
 PAL  HZ I         750 56.60         1.7 0.13            106            401 239 
 CRJC HZ EP   4    750 14.56                             103   -3.14 0  469   4 
                                                                                
