 2017 11 1 0617  4.4 L   6.792 -73.126143.5  RSN 12 0.3 1.6LRSN                1
 GAP=114        0.79       2.7     2.9  4.7  0.5131E+00  0.2634E+01  0.2382E+01E
 Epicentro: LOS SANTOS - SANTANDER                                             3
 ACTION:UPD 17-12-12 19:50 OP:rebc STATUS:               ID:20171101061704 L   I
 OLDACT:UP  17-11-01 17:10 OP:dnl  STATUS:               ID:20171101060743d    3
 OLDACT:DUP 17-11-01 17:04 OP:dnl  STATUS:               ID:20171101060743d    3
 2017-11-01-0608-00M.COL___411                                                 6
 STAT SP IPHASW D HRMM SECON CODA AMPLIT PERI AZIMU VELO AIN AR TRES W  DIS CAZ7
 BAR2 EZ EP        617 23.47                             171   -0.2510 23.0 196 
 BAR2 EZ ES        617 38.99                             171    0.1810 23.0 196 
 BAR2 EZ I         617 39.55        11.3 0.16            169           23.0 196 
 BRR  HZ EP        617 25.50                             151    0.0910 73.5 298 
 BRR  HE ES        617 42.40                             151    0.5810 73.5 298 
 BRR  HZ I         617 46.68         8.8 0.12            151           73.5 298 
 PAM  EZ EP        617 26.33                             151    0.0310 76.7  38 
 PAM  EE ES        617 43.21                             151   -0.2010 76.7  38 
 PAM  EZ I         617 45.65         5.3 0.62            153           76.7  38 
 RUS  HZ EP        617 27.51                             144   -0.3110 99.6 177 
 RUS  HE ES        617 45.87                             144   -0.2510 99.6 177 
 RUS  HZ I         617 46.75         3.8 0.50            143           99.6 177 
 PTB  HZ EP        617 31.21                             131   -0.12 9  150 259 
 PTB  HN ES   4    617 51.05                             131   -1.32 0  150 259 
 PTB  HZ I         617 53.52         4.2 0.24            130            150 259 
 SPBC HZ EP        617 32.65                             128   -0.11 9  164 220 
 SPBC HE ES        617 54.43                             128   -0.48 9  164 220 
 SPBC HZ I         617 58.21         4.7 0.14            128            164 220 
 YPLC HZ EP        617 33.94                             126    0.12 9  175 152 
 YPLC HN ES        617 57.40                             126    0.61 9  175 152 
 YPLC HZ I         618  0.33         3.5 0.30            126            175 152 
 ZAR  HZ EP   2    617 37.81                             122    0.90 4  206 292 
 ZAR  HE ES        618  1.89                             122   -0.40 8  206 292 
 ZAR  HZ I         618  8.28         4.3 0.28            121            206 292 
 NOR  HE ES        618  8.21                             118    0.23 8  236 235 
 NOR  HZ I         618 13.35         3.3 0.16            117            236 235 
 GUY2CHZ EP   9    617 50.14                             112    2.12 0  302 235 
 GUY2CHE ES        618 24.48                             112    0.29 7  302 235 
 GUY2CHZ I         618 28.82         1.9 0.30                           302 235 
 PTGC HZ EP   9    617 46.76                             111   -1.18 0  307 159 
 PTGC HE ES        618 20.33                             111   -0.42 7  307 159 
 PTGC HZ I         618 29.75         2.8 0.44            111            307 159 
 PRA  HZ EP   2    617 58.12                             106    0.27 3  392 210 
 PRA  HN ES        618 39.80                             106    0.24 6  392 210 
 PRA  HZ I         618 45.06         1.7 0.52            106            392 210 
                                                                                
