 2014  6 1 0332 15.3 L   6.795 -73.190136.0  RSN  7 0.4 1.4LRSN                1
 GAP=131        1.01       4.2     4.1  7.2 -0.4173E+00  0.6659E+01 -0.2231E+01E
 Epicentro: ZAPATOCA - SANTANDER                                               3
 ACTION:UPD 14-07-01 22:49 OP:nd   STATUS:               ID:20140601033215 L   I
 OLDACT:DUP 14-06-01 19:17 OP:stll STATUS:               ID:20140601032809d    3
 2014-06-01-0328-06M.COL___256                                                 6
 STAT SP IPHASW D HRMM SECON CODA AMPLIT PERI AZIMU VELO AIN AR TRES W  DIS CAZ7
 BAR2 SZ EP        332 33.34                             170   -0.4010 22.4 178 
 BAR2 SZ ES        332 48.77                             170    0.6510 22.4 178 
 BAR2 SZ I         332 50.27         5.1 0.20            171           22.4 178 
 BRR  HZ EP        332 35.41                             152    0.2410 67.2 301 
 BRR  HN ES        332 50.43                             152   -0.2410 67.2 301 
 BRR  HZ I         332 56.67         4.4 0.20            151           67.2 301 
 PAM  SZ EP        332 36.46                             148   -0.2610 81.0  42 
 PAM  SZ I         332 36.73         5.9 0.20            152           81.0  42 
 PAM  SN ES        332 53.25                             148   -0.1810 81.0  42 
 RUS  HZ EP        332 37.93                             142   -0.1710  101 173 
 RUS  HN ES        332 56.15                             142    0.2710  101 173 
 RUS  HZ I         332 57.84         2.6 0.50            146            101 173 
 PTB  HN ES        333  0.70                             131   -0.40 9  143 259 
 SPBC HN ES        333  3.85                             127   -0.28 9  160 218 
 SPBC HZ I         333  7.00         4.4 0.30            130            160 218 
 ZAR  HZ EP        332 47.56                             121    0.88 9  200 293 
 ZAR  HN ES        333 11.19                             121    0.05 9  200 293 
 ZAR  HZ I         333 16.86         2.5 0.50            122            200 293 
                                                                                
