 2010  6 1 0104 59.0 L   6.808 -73.093146.0  RSN 13 0.6 2.9LRSN                1
 GAP=147        1.10       5.8     9.0  7.3 -0.3370E+02  0.6797E+01  0.6163E+01E
 Epicentro: LOS SANTOS - SANTANDER                                             3
 ACTION:UP  10-08-24 10:07 OP:vdl  STATUS:               ID:20100601010459 L   I
 2010-06-01-0103-20S.COL___109                                                 6
 STAT SP IPHASW D HRMM SECON CODA AMPLIT PERI AZIMU VELO SNR AR TRES W  DIS CAZ7
 BAR2 SZ IP        1 5 18.54                             169    -0.210   26 203 
 BAR2 SZ ES   1    1 5 33.21                             169    -0.9 7   26 203 
 GIR2 SZ EP   1    1 5 18.56                             167    -0.2 7   32 340 
 GIR2 SZ ES   1    1 5 34.65                             167     0.5 7   32 340 
 GUE  SZ EP   1    1 5 24.29                             140     0.7 7  115   9 
 GRA  SZ IP        1 5 24.31                             138     0.210  123  15 
 GRA  SZ ES   1    1 5 44.29                             138     0.6 7  123  15 
 OCA  SZ EP   1    1 5 26.86                             130    -0.5 7  160 351 
 OCA  SZ ES   1    1 5 49.23                             130    -0.2 7  160 351 
 OCA  SZ I         1 5 56.03       100.4 0.29                           160 351 
 CHI  HZ EP   2    1 5 36.25                             117    -0.8 4  251 196 
 CHI  HZ I         1 6  9.47        55.9 0.40                           251 196 
 ROSC BZ IP        1 5 38.18                             116     0.6 8  257 212 
 ROSC BN ES   1    1 6  8.42                             116     0.8 6  257 212 
 ROSC BZ I         1 6 12.36        72.1 0.53                           257 212 
 CVER SZ EP   2    1 5 39.43                             115    -0.3 4  275 203 
 HEL  HZ EP   1    1 5 40.04                             114     0.1 6  278 256 
 HEL  HE ES   2    1 6 11.01                             114    -0.8 4  278 256 
 HEL  HZ I         1 6 17.11        26.2 0.29                           278 256 
 RREF BZ EP   1    1 5 45.65                             111    -0.1 5  327 230 
 RREF BN ES   1    1 6 21.92                             111    -0.3 5  327 230 
 RREF BZ I         1 6 31.09        72.1 0.41                           327 230 
 DBB  SZ EP   1    1 5 46.50                             109    -0.7 5  345 274 
 TOL  SZ EP   1    1 5 48.74                             109     0.9 5  348 225 
 SDV  BZ IP     C  1 5 47.78                             109    -0.7 6  355  50 
 SDV  BZ I         1 6 27.35        16.3 0.27                           355  50 
                                                                                
