 2012  6 1 0438  1.2 L   6.722 -73.114154.0  RSN  8 0.4 1.7LRSN                1
 GAP=144        0.77       3.2     4.6  7.3 -0.2795E+01  0.1428E+02  0.2400E+01E
 Epicentro: JORDAN - SANTANDER                                                 3
 ACTION:UP  12-08-06 17:46 OP:ep   STATUS:               ID:20120601043759 L   I
 2012-06-01-0430-00M.COL___201                                                 6
 STAT SP IPHASW D HRMM SECON CODA AMPLIT PERI AZIMU VELO AIN AR TRES W  DIS CAZ7
 BAR2 SZ ES   1    438 38.31                             174    0.64 7 16.2 208 
 BAR2 SZ I         438 39.95         9.9 0.23            171           16.2 208 
 PAM  SZ EP        438 24.92                             151    0.3710 82.3  34 
 PAM  SN ES        438 42.54                             151   -0.2510 82.3  34 
 RUS  HZ EP   1    438 25.33                             148    0.19 7 91.7 178 
 RUS  HN ES   1    438 43.62                             148   -0.22 7 91.7 178 
 RUS  HZ I         438 48.10         5.3 0.24            151           91.7 178 
 OCA  HN ES   1    438 53.57                             130   -0.64 7  169 352 
 OCA  HZ I         438 58.64         7.3 0.35                           169 352 
 ZAR  HZ EP   1    438 35.35                             123    0.52 6  211 294 
 ZAR  HN ES   1    439  0.87                             123   -0.22 6  211 294 
 ZAR  HZ I         439  7.32         6.9 0.26            125            211 294 
 NOR  SN ES   1    439  5.46                             120    0.20 6  233 237 
 CHI  HZ EP   1    438 38.24                             120   -0.31 6  241 197 
 CHI  HN ES        439  7.30                             120   -0.40 8  241 197 
 HEL  HE ES   1    439 13.80                             116    0.01 6  273 258 
                                                                                
