 2010  9 1 0801 22.8 L   6.752 -73.139151.2  RSN  8 0.3 2.0LRSN                1
 GAP=160        0.83       3.5     9.8  6.9 -0.4228E+01 -0.9235E+01  0.8957E+00E
 Epicentro: LOS SANTOS - SANTANDER                                             3
 ACTION:UP  11-02-18 10:59 OP:tino STATUS:               ID:20100901080122 L   I
 2010-09-01-0757-40S.COL___120                                                 6
 STAT SP IPHASW D HRMM SECON CODA AMPLIT PERI AZIMU VELO SNR AR TRES W  DIS CAZ7
 BAR2 SZ EP        8 1 42.80                             173    -0.210   18 195 
 BAR2 SZ I         8 1 42.98        18.2 0.20                            18 195 
 BAR2 SZ ES   1    8 1 58.84                             173     0.1 7   18 195 
 BRR  HZ EP   1    8 1 44.78                             152     0.0 7   75 302 
 BRR  HE ES   1    8 2  2.10                             152     0.3 7   75 302 
 BRR  HZ I         8 2  3.65        34.4 0.13                            75 302 
 RUS  HZ EP        8 1 46.63                             146    -0.110   95 176 
 RUS  HZ I         8 1 47.74         8.4 0.11                            95 176 
 RUS  HE ES   1    8 2  5.28                             146    -0.1 7   95 176 
 GUE  SZ EP   1    8 1 48.09                             139    -0.3 7  122  11 
 GRA  SZ EP   1    8 1 49.87                             137     0.9 7  131  16 
 GRA  SZ ES   1    8 2  9.58                             137     0.3 7  131  16 
 GRA  SZ I         8 2 10.84        12.6 0.42                           131  16 
 OCA  SZ EP   1    8 1 51.73                             130    -0.3 7  166 353 
 OCA  SZ ES   1    8 2 14.31                             130    -0.5 7  166 353 
 OCA  SZ I         8 2 18.70         8.7 0.31                           166 353 
 CHI  HZ EP   1    8 2  0.44                             119     0.2 6  244 196 
 CHI  HN ES   2    8 2 29.66                             119     0.1 4  244 196 
 CHI  HZ I         8 2 38.40         3.6 0.55                           244 196 
 PRA  HZ EP   2    8 2 16.42                             108     0.4 3  388 210 
 PRA  HZ I         8 3  3.24         4.7 0.30                           388 210 
                                                                                
