 2016 12 1 0439 52.7 L   6.430 -73.545105.3  RSN  5 0.5 1.0LRSN                1
 GAP=211        1.09       8.5     4.4  8.4  0.2604E+00  0.7975E+01 -0.8946E+00E
 Epicentro: SANTA HELENA DEL OPON - SANTANDER                                  3
 ACTION:UPD 17-01-11 20:11 OP:rebc STATUS:               ID:20161201043952 L   I
 OLDACT:UP  16-12-01 15:07 OP:dani STATUS:               ID:20161201043742     3
 OLDACT:REG 16-12-01 13:09 OP:dani STATUS:               ID:20161201043742     3
 2016-12-01-0438-00M.COL___336                                                 6
 STAT SP IPHASW D HRMM SECON CODA AMPLIT PERI AZIMU VELO AIN AR TRES W  DIS CAZ7
 BAR2 EZ EP        440  8.89                             156    0.6010 44.0  66 
 BAR2 EZ ES        440 20.84                             156    0.3710 44.0  66 
 BRR  HZ EP        440  9.93                             141   -0.1610 77.1 346 
 BRR  HN ES        440 23.62                             141   -0.0510 77.1 346 
 BRR  HZ I         440 27.47         2.1 0.44            138           77.1 346 
 PTB  HZ EP        440 11.83                             132   -0.3310  102 277 
 PTB  HN ES        440 26.83                             132   -0.5310  102 277 
 PTB  HZ I         440 31.01         2.5 0.12            132            102 277 
 PAM  EZ EP        440 15.84                             123   -0.41 9  137  43 
 PAM  EN ES   2    440 33.54                             123   -1.09 5  137  43 
 PAM  EZ I         440 35.30         2.5 0.25            125            137  43 
 ZAR  HZ EP        440 21.46                             114    0.54 9  187 309 
 ZAR  HN ES        440 43.33                             114    0.39 9  187 309 
 ZAR  HZ I         440 48.50         1.0 0.06            115            187 309 
                                                                                
