 2011  5 1 0625 37.1 L   6.793 -73.111138.6  RSN  8 0.4 2.0LRSN                1
 GAP=141        0.89       4.1     6.9  7.0 -0.6462E+01  0.4443E+01 -0.4418E+01E
 Epicentro: LOS SANTOS - SANTANDER                                             3
 ACTION:UP  11-06-29 08:50 OP:tino STATUS:               ID:20110501062537 L   I
 2011-05-01-0623-35S.COL___128                                                 6
 STAT SP IPHASW D HRMM SECON CODA AMPLIT PERI AZIMU VELO SNR AR TRES W  DIS CAZ7
 BAR2 SZ EP   1    625 55.80                             170    -0.1 7   24 199 
 BAR2 SZ ES   1    626 10.22                             170    -0.3 7   24 199 
 BAR2 SZ I         626 11.84        36.6 0.32                            24 199 
 BRR  HZ IP     D  625 57.54                             150    -0.210   75 298 
 BRR  HN ES   1    626 13.90                             150     0.1 7   75 298 
 BRR  HZ I         626 15.19        29.0 0.12                            75 298 
 PAM  SZ EP        625 58.71                             150     0.310   76  37 
 PAM  SN ES   1    626 15.42                             150     0.3 7   76  37 
 RUS  HZ EP   1    625 59.83                             142    -0.2 7  100 178 
 RUS  HN ES   1    626 18.00                             142     0.0 7  100 178 
 RUS  HZ I         626 20.35         8.4 0.24                           100 178 
 BRI  SZ EP   1    626  0.57                             140     0.3 7  108  19 
 GRA  SZ EP        626  1.58                             135    -0.110  125  16 
 GRA  SZ ES   1    626 20.96                             135     0.1 7  125  16 
 GRA  SZ I         626 21.88        10.0 0.42                           125  16 
 OCA  SZ EP   1    626  4.06                             128    -0.9 7  161 352 
 OCA  SZ ES   1    626 26.61                             128    -0.1 7  161 352 
 OCA  SZ I         626 29.51        12.5 0.14                           161 352 
 HEL  HZ EP   1    626 18.36                             113     1.0 6  276 256 
 HEL  HZ I         626 54.18         6.6 0.53                           276 256 
                                                                                
