 2013  6 1 0854 32.3 L   7.298 -74.316  4.0  RSN  9 0.5 1.9LRSN                1
 GAP= 79        1.27       2.7     2.5  6.9 -0.2004E+00  0.2650E+01  0.9235E+01E
 Epicentro: PUERTO WILCHES - SANTANDER                                         3
 ACTION:UPD 14-01-08 09:51 OP:ep   STATUS:               ID:20130601085432 L   I
 2013-06-01-0850-00M.COL___261                                                 6
 STAT SP IPHASW D HRMM SECON CODA AMPLIT PERI AZIMU VELO AIN AR TRES W  DIS CAZ7
 ZAR  HZ IP     C  854 42.68                              90    0.1910 63.6 290 
 ZAR  HN ES        854 50.69                              90    0.2110 63.6 290 
 ZAR  HZ I         854 51.53       115.9 0.12             47           63.6 290 
 BRR  HZ IP     C  854 43.47                              90    0.0310 69.9 107 
 BRR  HN ES        854 51.65                              90   -0.5110 69.9 107 
 BRR  HZ I         854 53.03        31.8 0.10             47           69.9 107 
 PTB  HZ IP     D  854 45.90                              90    0.1210 85.2 191 
 PTB  HN ES        854 55.69                              90   -0.6410 85.2 191 
 PTB  HZ I         854 56.32        36.9 0.30             47           85.2 191 
 OCA  HZ EP        854 56.42                              90    0.48 9  151  46 
 OCA  HN ES        855 14.63                              90    0.21 9  151  46 
 OCA  HZ I         855 17.74         8.6 0.16             47            151  46 
 SML  HZ EP        854 58.22                              90   -0.14 9  168   9 
 SML  HN ES        855 17.77                              90   -0.96 9  168   9 
 SML  HZ I         855 19.13        57.1 0.36             47            168   9 
 HEL  HZ IP     C  855  0.89                              56    0.24 9  182 228 
 HEL  HN ES        855 22.77                              56   -0.03 9  182 228 
 HEL  HZ I         855 25.08         9.5 0.24             47            182 228 
 NOR  HZ EP        855  3.29                              56    0.56 9  201 198 
 NOR  HN ES        855 25.69                              56   -0.82 9  201 198 
 NOR  HZ I         855 30.05         8.2 0.20             37            201 198 
 RUS  HZ EP   2    855  5.22                              56    1.28 4  207 139 
 RUS  HN ES        855 29.63                              56    0.98 8  207 139 
 RUS  HZ I         855 32.19         8.1 0.34             37            207 139 
 GUY2CHZ EP   4    855 11.99                              56    1.78 0  257 207 
 GUY2CHN ES   4    855 41.39                              56    1.58 0  257 207 
 GUY2CHZ I         855 48.93         2.8 0.50                           257 2077
                                                                                
