 2012  6 1 0400 34.0 L   6.799 -73.183139.4  RSN 14 0.4 3.1LRSN                1
 GAP=132        0.74       2.7     3.1  4.8 -0.1556E+01  0.5271E+01  0.1417E+01E
 Epicentro: LOS SANTOS - SANTANDER                                             3
 ACTION:UP  12-08-06 17:46 OP:ep   STATUS:               ID:20120601040042 L   I
 2012-06-01-0400-00M.COL___211                                                 6
 STAT SP IPHASW D HRMM SECON CODA AMPLIT PERI AZIMU VELO AIN AR TRES W  DIS CAZ7
 BAR2 SZ EP   1    4 0 53.12                             170    0.27 7 22.8 180 
 BAR2 SZ ES   1    4 1  7.64                             170    0.09 7 22.8 180 
 BAR2 SZ I         4 1  9.36       427.5 0.19            156           22.8 180 
 PAM  SZ EP   1    4 0 56.01                             149    0.30 7 80.2  42 
 PAM  SZ I         4 0 56.18       215.6 0.21            136           80.2  42 
 PAM  SN ES        4 1 12.98                             149    0.3310 80.2  42 
 RUS  HZ EP   1    4 0 57.11                             142   -0.03 7  101 174 
 RUS  HN ES   1    4 1 14.75                             142   -0.44 7  101 174 
 RUS  HZ I         4 1 16.68       135.2 0.23            124            101 174 
 PTB  HZ EP   1    4 0 59.57                             131   -0.50 7  144 259 
 PTB  HN ES        4 1 20.26                             131   -0.15 9  144 259 
 OCA  HZ EP   1    4 1  1.34                             128   -0.45 7  160 355 
 OCA  HN ES   1    4 1 22.84                             128   -0.63 7  160 355 
 OCA  HZ I         4 1 26.70       197.6 0.24            117            160 355 
 ZAR  HZ EP   1    4 1  6.22                             121    0.59 6  200 293 
 ZAR  HN ES   1    4 1 30.52                             121    0.21 6  200 293 
 ZAR  HZ I         4 1 35.99        56.7 0.18            111            200 293 
 NOR  SZ EP   1    4 1  9.31                             117    0.33 6  231 234 
 NOR  SN ES   1    4 1 36.92                             117    0.65 6  231 234 
 CHI  HZ EP   1    4 1 11.39                             116    0.18 6  247 194 
 CHI  HN ES   1    4 1 40.09                             116   -0.15 6  247 194 
 CHI  HZ I         4 1 48.36        40.8 0.37            105            247 194 
 HEL  HZ EP   1    4 1 14.15                             114    0.72 6  268 256 
 HEL  HN ES        4 1 43.61                             114   -0.58 8  268 256 
 VIL  SZ EP   1    4 1 16.84                             111   -0.17 5  302 191 
 DBB  SZ EP        4 1 21.19                             108    0.45 7  335 274 
 COD  HZ EP   1    4 1 21.54                             108   -0.56 5  348 355 
 PRA  HZ EP   1    4 1 26.51                             105   -0.53 4  390 209 
 PRA  HN ES   1    4 2  8.19                             105   -0.23 4  390 209 
 PRA  HZ I         4 2 12.50       113.5 0.20             99            390 209 
 SJA  SZ EP   1    4 1 28.13                             105   -0.08 4  399 192 
 SJA  SZ I         4 2 16.87        78.6 0.31             98            399 192 
                                                                                
