 2011 10 1 0922 36.9 L   6.785 -73.147144.8  RSN  8 0.3 1.8LRSN                1
 GAP=137        0.54       2.5     3.6  4.1  0.4675E+00  0.3088E+01  0.9082E+00E
 Epicentro: LOS SANTOS - SANTANDER                                             3
 ACTION:UPD 12-07-13 16:01 OP:ep   STATUS:               ID:20111001092236 L   I
 2011-10-01-0917-09S.COL___167                                                 6
 STAT SP IPHASW D HRMM SECON CODA AMPLIT PERI AZIMU VELO AIN AR TRES W  DIS CAZ7
 BAR2 SZ EP   1    922 56.28                             171   -0.15 7 21.6 190 
 BAR2 SZ ES   1    923 11.38                             171   -0.25 7 21.6 190 
 BAR2 SZ I         923 12.57        14.8 0.16                          21.6 190 
 BRR  HZ EP   1    922 58.21                             152    0.18 7 71.9 300 
 BRR  HN ES   1    923 14.95                             152    0.47 7 71.9 300 
 BRR  HZ I         923 17.77        10.9 0.16                          71.9 300 
 PAM  SZ EP        922 59.25                             150    0.1110 78.8  39 
 PAM  SN ES   1    923 16.18                             150   -0.28 7 78.8  39 
 RUS  HZ EP   1    923  0.24                             144   -0.24 7 98.9 176 
 RUS  HN ES   1    923 19.07                             144    0.23 7 98.9 176 
 RUS  HZ I         923 20.49         6.9 0.47                          98.9 176 
 OCA  SZ EP   1    923  5.67                             129    0.33 7  162 353 
 OCA  SZ I         923 32.59        10.7 0.42                           162 353 
 ZAR  HZ EP   1    923  8.97                             122   -0.41 6  205 293 
 ZAR  HN ES   1    923 34.36                             122   -0.32 6  205 293 
 ZAR  HZ I         923 41.42         7.1 0.21                           205 293 
 CHI  HZ EP   1    923 14.45                             117    0.04 6  247 195 
 CHI  HE ES   1    923 43.60                             117   -0.03 6  247 195 
 CHI  HZ I         923 47.76         2.2 0.26                           247 195 
 PRA  HZ EP   1    923 30.55                             106    0.30 4  390 210 
                                                                                
