 2015  1 1 0817 10.9 L   6.896 -73.201136.0  RSN 20 0.8 2.1LRSN                1
 GAP= 65        1.69       3.8     4.3  7.5 -0.1763E+01  0.8650E+01  0.4988E+01E
 Epicentro: BETULIA - SANTANDER                                                3
 ACTION:UPD 15-03-02 15:35 OP:nd   STATUS:               ID:20150101081710 L   I
 OLDACT:DUP 15-01-01 19:01 OP:stll STATUS:               ID:20150101080736d    3
 2015-01-01-0807-35M.COL___277                                                 6
 STAT SP IPHASW D HRMM SECON CODA AMPLIT PERI AZIMU VELO AIN AR TRES W  DIS CAZ7
 BAR2 EZ EP        817 29.73                             165    0.1310 33.7 176 
 BAR2 EZ ES        817 45.18                             165    0.9710 33.7 176 
 BAR2 EZ I         817 46.32        17.8 0.38            167           33.7 176 
 BRR  HZ IP     C  817 31.30                             154    0.9010 61.1 292 
 BRR  HN ES        817 45.88                             154    0.2410 61.1 292 
 BRR  HZ I         817 50.97        27.5 0.32            152           61.1 292 
 PAM  SZ EP        817 32.22                             150    0.3710 74.0  48 
 PAM  SN ES        817 48.39                             150    0.1810 74.0  48 
 PAM  SZ I         817 50.10        23.7 0.30            154           74.0  48 
 RUS  HZ EP        817 34.16                             139   -0.3910  112 173 
 RUS  HE ES        817 52.67                             139   -0.3510  112 173 
 RUS  HZ I         817 56.05         8.4 0.32            142            112 173 
 PTB  HZ EP        817 36.44                             130   -0.30 9  144 254 
 PTB  HN ES        817 55.75                             130   -1.16 9  144 254 
 PTB  HZ I         818  0.57        39.0 0.26            131            144 254 
 OCA  HZ EP        817 37.17                             129   -0.20 9  149 355 
 OCA  HN ES        817 58.01                             129   -0.02 9  149 355 
 OCA  HZ I         818  8.56        16.3 0.28            131            149 355 
 TAM  HZ EP        817 38.51                             126   -0.15 9  164 108 
 TAM  HZ I         817 38.55         9.8 0.22            131            164 108 
 TAM  HE ES        817 59.27                             126   -1.06 9  164 108 
 SPBC HZ EP        817 38.89                             126   -0.23 9  168 215 
 SPBC HN ES        818  1.54                             126    0.40 9  168 215 
 SPBC HZ I         818  9.07        24.7 0.48            128            168 215 
 ZAR  HZ EP        817 41.95                             121    0.25 9  194 290 
 ZAR  HN ES        818  6.60                             121    0.86 9  194 290 
 SML  HZ EP        817 45.01                             117   -0.62 8  231 336 
 SML  HE ES        818 11.94                             117   -0.80 8  231 336 
 SML  HZ I         818 18.69        26.4 0.10            118            231 336 
 NOR  HZ EP        817 45.83                             116   -0.39 8  236 231 
 NOR  HE ES        818 12.88                             116   -0.91 8  236 231 
 NOR  HZ I         818 17.14        13.2 0.20            118            236 231 
 CHI  HZ EP        817 49.04                             114    0.01 8  257 193 
 CHI  HZ I         817 49.84         7.3 0.22            116            257 193 
 CHI  HN ES        818 18.02                             114   -0.77 8  257 193 
 HEL  HZ EP        817 51.48                             113    1.22 8  269 253 
 HEL  HN ES        818 20.74                             113   -0.24 8  269 253 
 HEL  HZ I         818 27.61         8.4 0.28            114            269 253 
 URE  HZ EP   9    817 49.41                             112   -0.99 0  274 290 
 URE  HN ES        818 19.29                                   -0.95 8  274 290 
 RREF HZ EP        817 57.94                             109    1.04 7  324 227 
 RREF HE ES        818 34.56                             109    1.76 7  324 227 
 RREF HZ I         818 42.36         7.8 0.50            110            324 227 
 CBOC HZ EP        817 57.68                             108    0.55 7  331 250 
 CBOC HE ES        818 30.95                             108   -2.26 7  331 250 
 CBOC HZ I         818 41.97         2.7 0.44            110            331 250 
 TOL  SZ EP        818  0.17                             107    1.01 6  347 223 
 TOL  SE ES        818 36.36                             107   -0.46 6  347 223 
 ARGC HZ EP   9    817 59.57                             107    0.81 0  347 341 
 ARGC HN ES        818 35.79                                   -1.13 6  347 341 
 ANIL HN ES        818 39.74                             106    0.13 6  361 223 
 ANIL HZ I         818 49.92         1.7 0.26            108            361 223 
 ORTC HZ EP        818  5.37                             104    0.29 6  401 215 
 ORTC HZ I         818  6.17         4.5 0.12            106            401 215 
 ORTC HN ES        818 48.04                             104    0.67 6  401 215 
                                                                                
