 2015  6 1 0321 53.0 L   5.875 -73.755118.9  RSN 18 0.5 2.0LRSN                1
 GAP= 90        1.23       2.8     3.3  6.0 -0.4547E+01  0.6107E+01 -0.4794E+01E
 Epicentro: JESUS MARIA - SANTANDER                                            3
 ACTION:UPD 15-09-10 22:08 OP:cam  STATUS:               ID:20150601032153 L   I
 OLDACT:REG 15-06-01 12:58 OP:ak   STATUS:               ID:20150601031738     3
 2015-06-01-0317-38M.COL___303                                                 6
 STAT SP IPHASW D HRMM SECON CODA AMPLIT PERI AZIMU VELO AIN AR TRES W  DIS CAZ7
 SPBC HZ IP     C  322  9.88                             159   -0.0110 42.9 235 
 SPBC HN ES        322 22.79                             159   -0.2610 42.9 235 
 SPBC HZ I         322 24.38        52.6 0.17            158           42.9 235 
 RUS  HZ IP     D  322 12.07                             146   -0.1910 74.4  89 
 RUS  HN ES        322 26.99                             146   -0.2710 74.4  89 
 RUS  HZ I         322 28.27        10.5 0.25            150           74.4  89 
 BAR2 EZ EP        322 14.31                             137    0.3510  101  39 
 BAR2 EZ ES        322 30.22                             137   -0.0810  101  39 
 NOR  HZ EP        322 16.46                             129    0.3710  128 254 
 NOR  HN ES        322 34.42                             129    0.3410  128 254 
 NOR  HZ I         322 36.78        35.6 0.15            130            128 254 
 ROSC BZ EP        322 17.47                             129    0.7110  130 209 
 ROSC BN ES        322 36.04                             129    0.7510  130 209 
 ROSC BZ I         322 39.34        22.2 0.40            131            130 209 
 BRR  HZ EP        322 17.08                             127    0.29 9  136   2 
 BRR  HN ES        322 36.00                             127    0.67 9  136   2 
 BRR  HZ I         322 39.97        13.4 0.11            128            136   2 
 CHI  HZ EP        322 17.20                             127   -0.29 9  138 179 
 CHI  HN ES        322 35.78                             127   -0.80 9  138 179 
 CHI  HZ I         322 39.54        15.6 0.31            130            138 179 
 GUY2CHZ EP        322 23.33                             118    0.13 9  192 248 
 GUY2CHN ES        322 46.77                             118    0.04 9  192 248 
 GUY2CHZ I         322 53.97         9.2 0.41                           192 248 
 HEL  HZ EP        322 24.77                             116    0.94 9  199 280 
 HEL  HN ES        322 47.48                             116   -0.38 9  199 280 
 HEL  HZ I         322 52.88         7.6 0.33            117            199 280 
 PAM  SZ EP        322 24.14                             117    0.14 9  200  36 
 PAM  SN ES        322 47.38                             117   -0.78 9  200  36 
 PAM  SZ I         322 52.01         9.3 0.45            118            200  36 
 TOL  SZ EP        322 26.70                             113    0.13 8  225 231 
 TOL  SN ES        322 52.22                             113   -0.52 8  225 231 
 TOL  SZ I         322 58.12         7.0 0.11            115            225 231 
 CBOC HZ EP        322 29.92                             111    0.69 8  250 270 
 CBOC HN ES        322 56.48                             111   -0.99 8  250 270 
 CBOC HZ I         323  7.74         3.2 0.42            111            250 270 
 OCA  HZ EP        322 31.40                             109    0.39 8  266  10 
 OCA  HN ES        323  1.34                             109    0.69 8  266  10 
 OCA  HZ I         323 10.89        21.5 0.32            110            266  10 
 ORTC HZ EP        322 31.19                             108   -0.54 8  273 217 
 ORTC HN ES        323  1.60                             108   -0.32 8  273 217 
 ORTC HZ I         323  5.96         6.7 0.25            110            273 217 
 SML  HZ EP        322 37.00                             105   -0.77 7  325 354 
 SML  HN ES        323 11.77                             105   -0.91 7  325 354 
 SML  HZ I         323 17.52        10.0 0.07            106            325 354 
 MON  HZ EP   1    322 44.29                             102   -0.45 4  384 327 
 MON  HN ES        323 24.09                             102   -0.99 6  384 327 
 MON  HZ I         323 24.84         1.9 0.18            103            384 327 
 SJC  HZ EP   4    322 53.20                              98   -2.13 0  472 341 
 SJC  HN ES   4    323 40.75                              98   -3.18 0  472 341 
 SJC  HZ I         323 46.33         1.7 0.27             99            472 341 
 SDV  BZ EP        322 56.53                              98    0.14 5  479  46 
 SDV  BN ES   4    323 42.13                              98   -3.69 0  479  46 
 SDV  BZ I         323 44.99         1.7 0.30             99            479  46 
                                                                                
