 2014  5 1 0221 44.3 L   6.803 -73.130149.1  RSN 14 0.4 2.2LRSN                1
 GAP=138        0.81       2.5     3.7  5.8 -0.1333E+01  0.8418E+01  0.3664E+00E
 Epicentro: LOS SANTOS - SANTANDER                                             3
 ACTION:UPD 15-03-16 16:54 OP:nd   STATUS:               ID:20140501022144 L   I
 OLDACT:UP  14-05-01 15:48 OP:mh   STATUS:               ID:20140501022000     3
 OLDACT:UP  14-05-01 15:48 OP:mh   STATUS:               ID:20140501022000     3
 OLDACT:REG 14-05-01 13:18 OP:mh   STATUS:               ID:20140501022000     3
 2014-05-01-0220-00M.COL___273                                                 6
 STAT SP IPHASW D HRMM SECON CODA AMPLIT PERI AZIMU VELO AIN AR TRES W  DIS CAZ7
 PAM  SZ EP        222  7.00                             152    0.2510 76.0  39 
 PAM  SN ES        222 24.56                             152    0.2610 76.0  39 
 PAM  SZ I         222 26.62        26.8 0.54            155           76.0  39 
 RUS  HZ EP        222  8.24                             144   -0.1210  101 177 
 RUS  HN ES        222 26.85                             144   -0.3110  101 177 
 PTB  HZ EP   1    222 11.10                             132   -0.56 7  150 259 
 PTB  HN ES   1    222 32.63                             132   -0.40 7  150 259 
 SPBC HZ EP        222 13.35                             129    0.20 9  165 219 
 SPBC HN ES        222 35.32                             129   -0.36 9  165 219 
 SPBC HZ I         222 41.48        18.3 0.26            130            165 219 
 ZAR  HZ EP        222 17.13                             123    0.05 8  206 292 
 ZAR  HN ES        222 43.23                             123    0.56 8  206 292 
 NOR  HZ EP        222 20.52                             119    0.16 8  236 235 
 NOR  HN ES        222 48.82                             119    0.30 8  236 235 
 SML  HZ EP   1    222 20.52                             118   -0.60 6  244 335 
 SML  HN ES   1    222 49.44                             118   -0.43 6  244 335 
 SML  HZ I         222 53.29        21.5 0.07            120            244 335 
 CHI  HZ EP   2    222 21.99                             118   -0.24 4  249 196 
 CHI  HN ES        222 52.00                             118    0.15 8  249 196 
 ROSC BZ EP   4    222 17.84                             117   -4.86 0  254 211 
 ROSC BN ES   4    222 47.90                             117   -4.77 0  254 211 
 ROSC BZ I         222 58.36        10.6 0.46            118            254 211 
 URE  HZ EP   1    222 25.02                             114   -0.64 6  285 292 
 URE  HN ES   4    222 55.88                             114   -2.07 0  285 292 
 GUY2CHZ EP   4    222 29.50                             113    1.29 0  303 235 
 GUY2CHN ES   4    223  3.37                             113    0.88 0  303 235 
 GUY2CHZ I         223  9.85         4.2 0.17                           303 235 
 PRA  HZ EP        222 39.14                             107    1.10 6  393 210 
 PRA  HN ES        223 20.13                             107    0.15 6  393 210 
 PRA  HZ I         223 24.04         3.6 0.47            108            393 210 
 ORTC HZ EP   1    222 37.63                             107   -0.82 4  397 216 
 ORTC HN ES   1    223 20.79                             107    0.07 4  397 216 
 ORTC HZ I         223 25.58         3.1 0.14            108            397 216 
 SJC  HZ EP   4    222 38.26                             106   -1.75 0  410 327 
 SJC  HN ES   4    223 21.62                             106   -1.87 0  410 327 
 SJC  HZ I         223 25.83         2.4 0.36            107            410 327 
                                                                                
