 2014 10 1 0532 42.8 L   6.731 -73.175140.2  RSN  4 0.4 1.3LRSN                1
 GAP=238        0.97      10.3     7.6  8.4  0.1148E+02  0.1345E+02  0.3232E+02E
 Epicentro: VILLANUEVA - SANTANDER                                             3
 ACTION:UPD 14-11-29 23:45 OP:nd   STATUS:               ID:20141001053242 L   I
 OLDACT:REG 14-10-01 13:03 OP:stll STATUS:               ID:20141001052817     3
 2014-10-01-0528-17M.COL___289                                                 6
 STAT SP IPHASW D HRMM SECON CODA AMPLIT PERI AZIMU VELO AIN AR TRES W  DIS CAZ7
 BAR2 SZ EP        533  1.33                             174   -0.3110 15.3 183 
 BAR2 SZ ES        533 16.20                             174   -0.1210 15.3 183 
 BAR2 SZ I         533 17.19         5.6 0.24            136           15.3 183 
 BRR  HZ EP        533  3.36                             151   -0.0810 72.5 305 
 BRR  HZ I         533  3.65         4.7 0.26            143           72.5 305 
 BRR  HN ES        533 20.01                             151    0.4810 72.5 305 
 PTB  HZ EP        533  8.63                             132   -0.29 9  143 262 
 PTB  HN ES        533 28.93                             132   -0.35 9  143 262 
 PTB  HZ I         533 31.86         3.0 0.14            114            143 262 
 SPBC HZ EP        533 10.83                             129    0.70 9  155 220 
 SPBC HZ I         533 36.77         1.4 0.28            109            155 220 
                                                                                
