 2017  2 1 0912  1.5 L   6.801 -73.145148.1  RSN  7 0.4 1.6LRSN                1
 GAP=136        0.95       4.2     4.7  6.6  0.4856E+01  0.9999E+01  0.9007E+01E
 Epicentro: LOS SANTOS - SANTANDER                                             3
 ACTION:UPD 17-05-24 15:31 OP:jn   STATUS:               ID:20170201091201 L   I
 OLDACT:REG 17-02-01 15:17 OP:dnl  STATUS:               ID:20170201090744     3
 2017-02-01-0908-00M.COL___313                                                 6
 STAT SP IPHASW D HRMM SECON CODA AMPLIT PERI AZIMU VELO AIN AR TRES W  DIS CAZ7
 BAR2 EZ EP        912 21.38                             171   -0.0810 23.4 190 
 BAR2 EZ ES        912 36.59                             171   -0.4010 23.4 190 
 BAR2 EZ I         912 37.43         9.8 0.30            167           23.4 190 
 BRR  HZ EP        912 23.23                             153    0.2810 71.2 298 
 BRR  HN ES        912 40.42                             153    0.7810 71.2 298 
 BRR  HZ I         912 43.65         6.9 0.16            150           71.2 298 
 PAM  EE ES        912 41.29                             151   -0.2310 77.3  40 
 PAM  EZ I         912 43.58         8.3 0.52            156           77.3  40 
 RUS  HZ EP        912 25.64                             144    0.1110  101 176 
 RUS  HN ES        912 44.25                             144    0.0110  101 176 
 RUS  HZ I         912 45.13         5.4 0.40            144            101 176 
 PTB  HZ EP        912 28.39                             132   -0.32 9  148 259 
 PTB  HN ES        912 49.34                             132   -0.55 9  148 259 
 PTB  HZ I         912 56.79         6.0 0.40            131            148 259 
 ZAR  HZ EP   2    912 33.20                             123   -0.94 4  204 292 
 ZAR  HN ES        912 59.68                             123    0.11 9  204 292 
 ZAR  HZ I         913  5.02         7.6 0.56            123            204 292 
 CHI  HZ EP        912 39.77                             117    0.38 8  249 195 
 CHI  HN ES        913  9.13                             117    0.23 8  249 195 
 CHI  HZ I         913 17.23         2.0 0.28            118            249 195 
                                                                                
