 2016  6 1 0233 58.5 L   6.015 -73.690120.1  RSN  7 0.4 1.5LRSN                1
 GAP=106        0.95       3.4     3.6  6.3 -0.3546E+01  0.3778E+01  0.3458E+01E
 Epicentro: VELEZ - SANTANDER                                                  3
 ACTION:UPD 16-07-21 22:14 OP:rebc STATUS:               ID:20160601023358 L   I
 OLDACT:UP  16-06-01 16:24 OP:edw  STATUS:               ID:20160601022744     3
 OLDACT:REG 16-06-01 12:57 OP:edw  STATUS:               ID:20160601022744     3
 2016-06-01-0227-44M.COL___310                                                 6
 STAT SP IPHASW D HRMM SECON CODA AMPLIT PERI AZIMU VELO AIN AR TRES W  DIS CAZ7
 SPBC HZ EP        234 16.31                             152    0.0510 58.3 227 
 SPBC HE ES        234 30.27                             152    0.1510 58.3 227 
 SPBC HZ I         234 32.33        14.8 0.18                          58.3 227 
 RUS  HZ EP        234 17.12                             149   -0.3310 68.6 101 
 RUS  HN ES        234 32.13                             149   -0.1210 68.6 101 
 RUS  HZ I         234 34.52         4.2 0.42                          68.6 101 
 BAR2 EZ EP        234 18.21                             142   -0.0210 85.0  41 
 BAR2 EZ ES        234 33.78                             142    0.1510 85.0  41 
 PTB  HZ EP        234 18.64                             137   -0.6810  103 304 
 PTB  HN ES        234 34.96                             137   -0.6210  103 304 
 PTB  HZ I         234 41.34         4.6 0.10                           103 304 
 BRR  HZ EP        234 21.40                             132    0.5110  121 359 
 BRR  HN ES        234 38.68                             132    0.3210  121 359 
 NOR  HZ EP        234 23.19                             127    0.44 9  140 249 
 NOR  HE ES        234 42.09                             127    0.40 9  140 249 
 PRA  HZ EP        234 38.67                             108   -0.16 7  287 208 
 PRA  HE ES        235 10.26                             108   -0.05 7  287 208 
 PRA  HZ I         235 15.24         2.6 0.32                           287 208 
                                                                                
