 2013  3 1 0956 12.9 L   6.816 -73.185146.5  RSN 13 0.2 2.3LRSN                1
 GAP=136        0.52       1.6     2.3  3.5 -0.8521E+00  0.2451E+01  0.8709E+00E
 Epicentro: ZAPATOCA - SANTANDER                                               3
 ACTION:UPD 13-04-09 13:59 OP:ep   STATUS:               ID:20130301095612 L   I
 2013-03-01-0948-42M.COL___159                                                 6
 STAT SP IPHASW D HRMM SECON CODA AMPLIT PERI AZIMU VELO AIN AR TRES W  DIS CAZ7
 BAR2 SZ IP        956 32.51                             170   -0.1410 24.8 179 
 BAR2 SZ ES   1    956 48.10                             170    0.05 7 24.8 179 
 BAR2 SZ I         956 49.61        76.5 0.42            171           24.8 179 
 BRR  HZ IP     C  956 34.40                             154    0.5210 66.5 299 
 BRR  HN ES   4    956 51.89                             154    1.66 0 66.5 299 
 BRR  HZ I         956 54.70        26.1 0.16            150           66.5 299 
 PAM  SZ EP        956 35.41                             150    0.1210 78.9  43 
 PAM  SN ES        956 52.69                             150   -0.0510 78.9  43 
 PAM  SZ I         956 56.87        14.9 0.48            145           78.9  43 
 PTB  HZ EP        956 39.09                             133   -0.49 9  144 258 
 PTB  HN ES        957  0.32                             133   -0.06 9  144 258 
 PTB  HZ I         957  8.26        38.2 0.37            129            144 258 
 OCA  HZ EP        956 41.06                             130    0.00 9  158 355 
 OCA  HN ES        957  2.93                             130   -0.09 9  158 355 
 OCA  HZ I         957 13.28        15.3 0.15            125            158 355 
 ZAR  HZ EP   1    956 45.14                             123    0.23 6  199 292 
 ZAR  HN ES        957  9.87                             123   -0.01 9  199 292 
 ZAR  HZ I         957 17.60        34.6 0.24            119            199 292 
 SML  HZ EP        956 49.20                             118    0.00 8  240 336 
 SML  HE ES        957 17.37                             118   -0.14 8  240 336 
 CHI  HZ EP   2    956 50.00                             117   -0.71 4  249 194 
 CHI  HN ES   2    957 20.10                             117   -0.10 4  249 194 
 CHI  HZ I         957 28.15        11.6 0.31            114            249 194 
 ROSC BZ EP        956 51.08                             117    0.09 8  252 210 
 ROSC BN ES        957 20.75                             117    0.06 8  252 210 
 ROSC BZ I         957 26.19        19.3 0.41            114            252 210 
 HEL  HZ EP        956 52.85                             115    0.11 8  268 255 
 HEL  HN ES   2    957 23.79                             115   -0.01 4  268 255 
 HEL  HZ I         957 30.97        11.3 0.28            112            268 255 
 URE  HZ EP   4    956 52.32                             114   -1.16 0  279 292 
 URE  HN ES   4    957 23.50                             114   -1.63 0  279 292 
 URE  HZ I         957 36.66        19.7 0.30            110            279 292 
 SDV  BZ EP   4    957  1.63                             108   -1.60 0  363  51 
 SDV  BZ I         957 41.38         2.5 0.42            105            363  51 
 PRA  HZ EP        957  6.30                             107   -0.08 6  391 209 
 PRA  HN ES        957 48.37                             107    0.27 6  391 209 
 PRA  HZ I         957 51.80        10.5 0.32            104            391 209 
                                                                                
