 2012  3 1 0228 32.2 L   5.912 -73.739107.9  RSN  6 0.2 1.5LRSN                1
 GAP= 88        0.50       2.1     2.5  6.4 -0.2495E+00  0.4484E+00  0.1524E+01E
 ACTION:UP  12-03-31 23:16 OP:EP   STATUS:               ID:20120301022832 L   I
 2012-03-01-0220-00M.COL___191                                                 6
 STAT SP IPHASW D HRMM SECON CODA AMPLIT PERI AZIMU VELO SNR AR TRES W  DIS CAZ7
 RUS  HZ EP        228 50.32                             144     0.210   73  92 
 RUS  HZ I         228 50.99         6.2 0.18                            73  92 
 RUS  HN ES   2    229  4.17                             144     0.0 5   73  92 
 BAR2 SZ EP   2    228 52.09                             135     0.3 5   97  39 
 BAR2 SZ ES   2    229  7.28                             135     0.2 5   97  39 
 PTB  HZ EP   1    228 51.87                             132    -0.3 7  105 311 
 PTB  HN ES   1    229  7.78                             132     0.0 7  105 311 
 NOR  SZ EP   1    228 54.92                             125     0.2 7  131 253 
 NOR  SE ES   1    229 12.53                             125     0.3 7  131 253 
 BRR  HZ EP        228 54.66                             125    -0.110  132   1 
 BRR  HZ I         228 55.05        12.7 0.17                           132   1 
 BRR  HN ES   1    229 12.16                             125    -0.2 7  132   1 
 CHI  HZ EP   1    228 56.21                             123     0.0 7  142 180 
 CHI  HN ES   1    229 14.68                             123    -0.4 7  142 180 
 CHI  HZ I         229 19.61         3.3 0.45                           142 180 
                                                                                
