 2010  5 1 0734 16.3 L   6.733 -73.055134.0  RSN  4 0.1 1.5LRSN                1
 GAP=215        0.31       5.2     5.0  3.7  0.9564E+01 -0.2349E+01 -0.5300E+01E
 Epicentro: ARATOCA - SANTANDER                                                3
 ACTION:UP  10-08-24 10:02 OP:vdl  STATUS:               ID:20100501073416 L   I
 2010-05-01-0732-16S.COL___105                                                 6
 STAT SP IPHASW D HRMM SECON CODA AMPLIT PERI AZIMU VELO SNR AR TRES W  DIS CAZ7
 BAR2 SZ EP   1    734 34.57                             171     0.1 7   21 222 
 BAR2 SZ ES   1    734 48.64                             171     0.0 7   21 222 
 BRR  HZ EP        734 37.06                             146     0.010   84 300 
 BRR  HN ES   1    734 53.16                             146     0.0 7   84 300 
 BRR  HZ I         734 54.51         5.9 0.30                            84 300 
 GUE  SZ EP   2    734 40.38                             135    -0.1 5  122   7 
 HEL  HZ EP   2    734 56.79                             112    -0.1 4  280 258 
 HEL  HZ I         735 32.86         2.1 0.82                           280 258 
                                                                                
