 2017 11 1 0122 55.6 L   6.792 -73.123141.2  RSN  9 0.3 1.7LRSN                1
 GAP=114        0.77       2.8     2.8  4.9  0.7325E+00  0.3036E+01  0.1461E+01E
 Epicentro: LOS SANTOS - SANTANDER                                             3
 ACTION:UPD 17-12-12 19:50 OP:rebc STATUS:               ID:20171101012255 L   I
 OLDACT:REG 17-11-01 13:22 OP:dnl  STATUS:               ID:20171101011745     3
 2017-11-01-0118-00M.COL___419                                                 6
 STAT SP IPHASW D HRMM SECON CODA AMPLIT PERI AZIMU VELO AIN AR TRES W  DIS CAZ7
 BAR2 EZ EP        123 14.58                             170   -0.1310 23.1 196 
 BAR2 EZ ES        123 29.36                             170   -0.2310 23.1 196 
 BAR2 EZ I         123 30.25        14.0 0.26            171           23.1 196 
 BRR  HZ EP        123 16.51                             151    0.0710 73.8 298 
 BRR  HE ES        123 33.42                             151    0.7510 73.8 298 
 BRR  HZ I         123 36.63        11.5 0.12            150           73.8 298 
 PAM  EZ EP        123 17.46                             151    0.1410 76.5  38 
 PAM  EN ES        123 34.07                             151   -0.1610 76.5  38 
 PAM  EZ I         123 36.56        19.6 0.42            152           76.5  38 
 RUS  HZ EP        123 18.73                             143   -0.1410 99.6 177 
 RUS  HE ES        123 37.27                             143    0.2810 99.6 177 
 RUS  HZ I         123 38.70         4.7 0.40            145           99.6 177 
 PTB  HZ EP   2    123 22.95                             131    0.51 5  150 259 
 PTB  HE ES        123 43.13                             131   -0.22 9  150 259 
 PTB  HZ I         123 44.56         6.4 0.14            131            150 259 
 SPBC HZ EP        123 23.80                             128   -0.08 9  164 220 
 SPBC HN ES        123 45.94                             128    0.04 9  164 220 
 SPBC HZ I         123 48.36         5.8 0.10            129            164 220 
 YPLC HZ EP   2    123 25.83                             126    0.92 4  175 152 
 YPLC HE ES        123 47.46                             126   -0.29 9  175 152 
 YPLC HZ I         123 49.70         5.4 0.28            128            175 152 
 ZAR  HZ EP        123 27.82                             121   -0.24 8  207 292 
 ZAR  HN ES        123 52.91                             121   -0.44 8  207 292 
 ZAR  HZ I         124  1.38         8.0 0.48            122            207 292 
 NOR  HE ES        123 59.17                             118    0.11 8  236 235 
 NOR  HZ I         124  1.05         3.2 0.14            118            236 235 
                                                                                
