 2013  3 1 0013 14.1 L   6.727 -73.200146.4  RSN  4 0.2 1.4LRSN                1
 GAP=225        0.59       4.8     4.8  5.2  0.1245E+02  0.3142E+01  0.1582E+01E
 Epicentro: VILLANUEVA - SANTANDER                                             3
 ACTION:UPD 13-04-09 13:58 OP:ep   STATUS:               ID:20130301001314 L   I
 2013-03-01-0008-50M.COL___199                                                 6
 STAT SP IPHASW D HRMM SECON CODA AMPLIT PERI AZIMU VELO AIN AR TRES W  DIS CAZ7
 BAR2 SZ ES   1    013 48.49                             174   -0.40 7 15.0 173 
 BRR  HZ EP        013 35.13                             153   -0.1110 70.5 307 
 BRR  HN ES        013 52.02                             153    0.2610 70.5 307 
 RUS  HZ EP        013 37.62                             146    0.2710 93.1 172 
 RUS  HZ I         013 38.53         1.9 0.22            143           93.1 172 
 RUS  HN ES        013 55.52                             146    0.0010 93.1 172 
 PTB  HZ EP        013 40.19                             134   -0.24 9  140 262 
 PTB  HN ES        014  1.01                             134    0.02 9  140 262 
 PTB  HN I         014  6.40         8.2 0.32            129            140 262 
                                                                                
