 2014 11 1 0926  3.7 L   6.808 -73.107145.2  RSN  5 0.4 1.7LRSN                1
 GAP=141        1.07       4.5     8.4  8.7  0.1983E+01 -0.4050E+01 -0.7830E+00E
 Epicentro: LOS SANTOS - SANTANDER                                             3
 ACTION:UPD 14-12-19 15:38 OP:nd   STATUS:               ID:20141101092603 L   I
 OLDACT:REG 14-11-01 14:21 OP:carl STATUS:               ID:20141101091742     3
 2014-11-01-0917-42M.COL___259                                                 6
 STAT SP IPHASW D HRMM SECON CODA AMPLIT PERI AZIMU VELO AIN AR TRES W  DIS CAZ7
 BAR2 SZ EP        926 23.24                             170   -0.0610 25.3 199 
 BAR2 SZ ES        926 38.39                             170   -0.2010 25.3 199 
 BAR2 SZ I         926 39.09         9.0 0.16            171           25.3 199 
 PAM  SZ EP        926 26.25                             152    0.6010 74.0  37 
 PAM  SN ES        926 42.98                             152    0.2010 74.0  37 
 PAM  SZ I         926 45.14        13.1 0.58            153           74.0  37 
 BRR  HZ EP        926 25.16                             151    0.1810 74.6 296 
 BRR  HN ES        926 42.04                             151    0.4610 74.6 296 
 BRR  HZ I         926 46.51         6.3 0.12            149           74.6 296 
 RUS  HZ EP        926 27.20                             143   -0.2410  101 179 
 RUS  HN ES        926 45.74                             143   -0.2210  101 179 
 RUS  HZ I         926 47.41         6.3 0.40            147            101 179 
 OCA  HN ES        926 53.07                             129   -0.88 9  160 352 
 OCA  HZ I         926 59.80         6.4 0.36            130            160 352 
                                                                                
