 2014  5 1 0823 32.8 L   6.774 -73.182138.1  RSN  4 0.2 1.5LRSN                1
 GAP=133        0.45       2.6     2.3  5.1 -0.1234E+01  0.5949E+01 -0.4104E+01E
 Epicentro: LOS SANTOS - SANTANDER                                             3
 ACTION:UPD 15-03-16 16:54 OP:nd   STATUS:               ID:20140501082332 L   I
 OLDACT:UP  14-05-01 17:46 OP:mh   STATUS:               ID:20140501082000     3
 OLDACT:REG 14-05-01 13:50 OP:mh   STATUS:               ID:20140501082000     3
 2014-05-01-0820-00M.COL___273                                                 6
 STAT SP IPHASW D HRMM SECON CODA AMPLIT PERI AZIMU VELO AIN AR TRES W  DIS CAZ7
 PAM  SZ EP        823 54.65                             148    0.1310 82.2  40 
 PAM  SN ES        824 11.33                             148   -0.1210 82.2  40 
 RUS  HN ES        824 13.53                             143    0.1110 98.0 174 
 PTB  HZ EP        823 58.47                             131   -0.28 9  143 260 
 PTB  HN ES        824 18.92                             131   -0.06 9  143 260 
 PTB  HZ I         824 26.09         3.3 0.20            132            143 260 
 ZAR  HZ EP        824  4.58                             121    0.08 9  202 293 
 ZAR  HN ES        824 29.39                             121    0.17 9  202 293 
 ZAR  HZ I         824 35.68         3.6 0.17            123            202 293 
                                                                                
