 2010 12 1 0824 20.3 L   6.792 -73.094144.7  RSN  9 0.4 2.2LRSN                1
 GAP=170        1.03       4.9     7.3  7.3 -0.4260E+01  0.1302E+02 -0.6256E+00E
 Epicentro: LOS SANTOS - SANTANDER                                             3
 ACTION:UP  11-01-14 15:22 OP:pat  STATUS:               ID:20101201082420 L   I
 2010-12-01-0820-15S.COL___132                                                 6
 STAT SP IPHASW D HRMM SECON CODA AMPLIT PERI AZIMU VELO SNR AR TRES W  DIS CAZ7
 BAR2 SZ EP        824 39.74                             170    -0.110   24 204 
 BAR2 SZ ES   1    824 54.75                             170    -0.3 7   24 204 
 BRR  HZ EP        824 41.81                             150     0.210   77 297 
 BRR  HN ES   1    824 58.66                             150     0.4 7   77 297 
 RUS  HZ EP        824 43.71                             144    -0.110   99 179 
 RUS  HE ES   1    825  2.46                             144     0.2 7   99 179 
 RUS  HZ I         825  3.50        14.3 0.21                            99 179 
 GUE  SZ EP        824 45.11                             139     0.210  116   9 
 OCA  SZ EP        824 48.20                             129    -0.5 9  162 351 
 OCA  SZ I         825 14.21        25.9 0.35                           162 351 
 NOR  SZ EP        824 55.65                             118    -0.8 8  239 236 
 CHI  HZ EP        824 57.85                             117    -0.1 8  249 196 
 CHI  HN ES   2    825 27.55                             117     0.1 4  249 196 
 CHI  HZ I         825 35.86         5.6 0.77                           249 196 
 HEL  HZ EP        825  1.57                             114     0.5 7  277 256 
 HEL  HN ES   1    825 32.09                             114    -0.7 6  277 256 
 HEL  HZ I         825 40.33        10.6 0.31                           277 256 
 GUY  SZ EP        825  5.16                             112     0.8 7  306 236 
 GUY  SZ I         825 50.33        17.1 0.11                           306 236 
                                                                                
