 2015  7 1 0427 29.2 L   6.856 -73.119154.0  RSN  7 0.5 1.9LRSN                1
 GAP=186        1.02       3.6     5.4  7.6 -0.3637E-01  0.1701E+02 -0.5327E+01E
 Epicentro: LOS SANTOS - SANTANDER                                             3
 ACTION:UPD 15-09-08 21:46 OP:cam  STATUS:               ID:20150701042729 L   I
 OLDACT:UP  15-07-03 20:22 OP:nlst STATUS:               ID:20150701042729 L   3
 OLDACT:UP  15-07-01 17:00 OP:ar   STATUS:               ID:20150701041746     3
 OLDACT:UP  15-07-01 16:45 OP:ar   STATUS:               ID:20150701041746     3
 OLDACT:UP  15-07-01 16:39 OP:ar   STATUS:               ID:20150701041746     3
 OLDACT:UP  15-07-01 16:38 OP:ar   STATUS:               ID:20150701041746     3
 OLDACT:REG 15-07-01 14:18 OP:ar   STATUS:               ID:20150701041746     3
 2015-07-01-0417-46M.COL___322                                                 6
 STAT SP IPHASW D HRMM SECON CODA AMPLIT PERI AZIMU VELO AIN AR TRES W  DIS CAZ7
 BAR2 EZ EP        427 49.74                             168   -0.2110 30.0 194 
 BAR2 EZ ES        428  6.43                             168    0.2810 30.0 194 
 BAR2 EZ I         428  7.54        14.1 0.50            167           30.0 194 
 RUS  HZ EP        427 53.83                             144   -0.3510  107 178 
 RUS  HN ES        428 13.62                             144   -0.0510  107 178 
 RUS  HZ I         428 14.64         4.2 0.30            148            107 178 
 OCA  HZ EP        427 57.62                             133   -0.01 9  155 352 
 OCA  HN ES        428 20.43                             133    0.61 9  155 352 
 OCA  HZ I         428 25.90        16.2 0.34            134            155 352 
 ZAR  HZ EP   4    428  4.34                             124    2.10 0  205 290 
 ZAR  HN ES        428 27.97                             124   -0.05 9  205 290 
 ZAR  HZ I         428 35.03         9.5 0.26            124            205 290 
 SML  HZ EP        428  5.20                             120   -0.63 8  239 334 
 SML  HN ES        428 33.91                             120   -0.50 8  239 334 
 SML  HZ I         428 38.84         9.1 0.10            121            239 334 
 HEL  HZ EP        428 11.33                             116    1.01 7  277 255 
 HEL  HN ES        428 42.08                             116   -0.32 7  277 255 
 HEL  HZ I         428 51.93         4.2 0.30            117            277 255 
 CBOC HZ EP        428 17.64                             111    0.64 7  338 251 
 CBOC HN ES        428 54.05                             111   -0.24 7  338 251 
 CBOC HZ I         429  2.35         1.2 0.46            112            338 251 
                                                                                
