 2011  9 1 0641 57.7 L   6.788 -73.040145.1  RSN  8 0.2 2.0LRSN                1
 GAP=194        0.42       2.9     4.2  5.0 -0.1139E+01  0.5181E+01 -0.2261E+01E
 Epicentro: CEPITA - SANTANDER                                                 3
 ACTION:UPD 12-07-13 15:54 OP:ep   STATUS:               ID:20110901064157 L   I
 2011-09-01-0640-00M.COL___169                                                 6
 STAT SP IPHASW D HRMM SECON CODA AMPLIT PERI AZIMU VELO AIN AR TRES W  DIS CAZ7
 BAR2 SZ EP   1    642 17.44                             169    0.14 7 26.7 216 
 BAR2 SZ ES   2    642 32.79                             169    0.18 5 26.7 216 
 BAR2 SZ I         642 34.15        33.6 0.19                          26.7 216 
 GIR2 SZ EP   1    642 17.57                             165    0.15 7 36.4 332 
 BRR  HZ EP   1    642 19.38                             149   -0.03 7 82.2 295 
 BRR  HN ES   2    642 36.42                             149    0.05 5 82.2 295 
 BRR  HZ I         642 38.37        17.7 0.16                          82.2 295 
 RUS  HZ EP   1    642 20.95                             144   -0.30 7 99.1 183 
 RUS  HZ I         642 22.16         6.6 0.25                          99.1 183 
 RUS  HN ES   2    642 39.55                             144   -0.09 5 99.1 183 
 OCA  SZ EP   1    642 26.45                             129    0.22 7  163 349 
 OCA  SZ ES   2    642 47.94                             129   -0.57 5  163 349 
 OCA  SZ I         642 52.74        10.4 0.36                           163 349 
 ZAR  HZ EP   2    642 30.90                             121   -0.36 4  215 291 
 ZAR  HZ I         643  2.08        11.8 0.35                           215 291 
 NOR  SN ES   2    643  2.64                             117   -0.26 4  244 236 
 HEL  HZ EP   1    642 39.38                             114    0.30 6  283 257 
 HEL  HN ES   2    643 11.45                             114    0.08 4  283 257 
 HEL  HZ I         643 16.93         4.5 0.39                           283 257 
                                                                                
