 2016  1 1 0404 29.5 L   6.862 -73.147143.5  RSN  6 0.3 1.5LRSN                1
 GAP=195        0.74       3.5     4.4  5.6 -0.1394E+01  0.1676E+01 -0.6857E+01E
 Epicentro: LOS SANTOS - SANTANDER                                             3
 ACTION:UPD 16-03-09 23:21 OP:cam  STATUS:               ID:20160101040429 L   I
 OLDACT:REG 16-01-01 13:46 OP:drio STATUS:               ID:20160101035748     3
 2016-01-01-0357-48M.COL___317                                                 6
 STAT SP IPHASW D HRMM SECON CODA AMPLIT PERI AZIMU VELO AIN AR TRES W  DIS CAZ7
 BAR2 EZ EP        4 4 48.75                             168   -0.2510 30.1 187 
 BAR2 EZ ES        4 5  4.37                             168    0.1410 30.1 187 
 BAR2 EZ I         4 5  4.82         5.0 0.28            169           30.1 187 
 BRR  HZ EP        4 4 50.83                             153    0.6210 68.0 293 
 BRR  HN ES        4 5  6.25                             153   -0.1310 68.0 293 
 BRR  HZ I         4 5 10.98         3.7 0.12            147           68.0 293 
 PTB  HZ EP        4 4 56.61                             131    0.22 9  149 256 
 PTB  HE ES        4 5 17.05                             131   -0.33 9  149 256 
 PTB  HZ I         4 5 22.48         2.3 0.32            131            149 256 
 OCA  HZ EP        4 4 56.67                             130   -0.31 9  153 353 
 OCA  HE ES        4 5 18.35                             130   -0.07 9  153 353 
 OCA  HZ I         4 5 22.79        11.4 0.20            130            153 353 
 ZAR  HZ EP   4    4 5  3.48                             122    1.97 0  201 290 
 ZAR  HE ES        4 5 26.55                             122    0.06 9  201 290 
 ZAR  HZ I         4 5 33.41         2.7 0.44            122            201 290 
 SML  HZ EP        4 5  5.04                             118   -0.26 8  237 335 
 SML  HE ES        4 5 33.50                             118    0.26 8  237 335 
 SML  HZ I         4 5 42.10         5.5 0.10            118            237 335 
                                                                                
