 2015 10 1 0745 15.0 L   6.747 -73.110147.8  RSN  7 0.3 1.4LRSN                1
 GAP=144        0.69       3.0     4.1  4.5 -0.2425E+01  0.5518E+01  0.3320E+01E
 Epicentro: LOS SANTOS - SANTANDER                                             3
 ACTION:UPD 15-12-22 20:36 OP:cam  STATUS:               ID:20151001074515 L   I
 OLDACT:REG 15-10-01 14:09 OP:spq  STATUS:               ID:20151001073742     3
 2015-10-01-0737-42M.COL___358                                                 6
 STAT SP IPHASW D HRMM SECON CODA AMPLIT PERI AZIMU VELO AIN AR TRES W  DIS CAZ7
 BAR2 EZ EP        745 34.91                             172    0.0910 18.9 205 
 BAR2 EZ ES        745 50.36                             172    0.1110 18.9 205 
 BAR2 EZ I         745 52.58         6.2 0.26            168           18.9 205 
 BRR  HZ EP        745 36.81                             151    0.0510 77.6 301 
 BRR  HN ES        745 53.95                             151    0.2410 77.6 301 
 PAM  EZ EP        745 37.63                             150    0.0410 79.6  35 
 PAM  EN ES        745 55.07                             150   -0.1210 79.6  35 
 PAM  EZ I         745 57.04         4.0 0.20            157           79.6  35 
 RUS  HZ EP        745 38.20                             146   -0.3510 94.5 178 
 RUS  HE ES        745 56.78                             146   -0.1210 94.5 178 
 RUS  HZ I         745 58.94         2.0 0.40            146           94.5 178 
 PTB  HZ EP        745 41.90                             132   -0.52 9  151 261 
 PTB  HE ES   4    746  1.84                             132   -1.95 0  151 261 
 PTB  HZ I         746 10.48         3.8 0.26            132            151 261 
 CHI  HZ EP        745 53.00                             118    0.65 8  244 196 
 CHI  HE ES        746 21.57                             118    0.11 8  244 196 
 CHI  HZ I         746 30.59         1.0 0.38            119            244 196 
 GUY2CHZ EP        745 58.99                             113    0.27 7  301 236 
 GUY2CHE ES        746 32.59                             113   -0.22 7  301 236 
 GUY2CHZ I         746 41.75         2.7 0.74                           301 236 
                                                                                
