 2017  1 1 0728 25.2 L   6.691 -73.183144.0  RSN  5 0.3 1.2LRSN                1
 GAP=231        0.74       5.3     4.6  5.9  0.8677E+00  0.8343E+01  0.7568E+01E
 Epicentro: VILLANUEVA - SANTANDER                                             3
 ACTION:UPD 17-05-22 15:54 OP:jn   STATUS:               ID:20170101072825 L   I
 OLDACT:REG 17-01-01 13:49 OP:dnl  STATUS:               ID:20170101071747     3
 2017-01-01-0718-00M.COL___372                                                 6
 STAT SP IPHASW D HRMM SECON CODA AMPLIT PERI AZIMU VELO AIN AR TRES W  DIS CAZ7
 BAR2 EZ EP        728 44.28                             175   -0.1310 11.0 180 
 BAR2 EZ ES        728 59.41                             175    0.0110 11.0 180 
 BAR2 EZ I         729  1.67         4.3 0.26            168           11.0 180 
 BRR  HZ EP        728 46.12                             151   -0.2010 74.4 308 
 BRR  HE ES        729  3.28                             151    0.4710 74.4 308 
 BRR  HZ I         729  4.93         1.8 0.14            149           74.4 308 
 PTB  HZ EP        728 51.16                             133   -0.30 9  142 263 
 PTB  HN ES        729 11.92                             133   -0.04 9  142 263 
 PTB  HZ I         729 19.36         1.8 0.42            131            142 263 
 ZAR  HZ EP   2    728 58.76                             122    1.14 4  205 296 
 ZAR  HE ES        729 22.56                             122   -0.37 9  205 296 
 ZAR  HZ I         729 28.50         2.5 0.30            123            205 296 
 NOR  HZ EP        728 59.88                             120    0.17 8  224 236 
 NOR  HE ES        729 26.78                             120    0.13 8  224 236 
 NOR  HZ I         729 33.36         1.4 0.34            120            224 236 
                                                                                
