 2011  6 1 0521 52.6 L   6.766 -73.075148.8  RSN  9 0.2 2.1LRSN                1
 GAP=164        0.47       2.2     4.6  3.3 -0.3987E+01 -0.1673E+00  0.2560E+00E
 Epicentro: LOS SANTOS - SANTANDER                                             3
 ACTION:UP  11-07-14 19:02 OP:ep   STATUS:               ID:20110601052152 L   I
 2011-06-01-0520-00M.COL___116                                                 6
 STAT SP IPHASW D HRMM SECON CODA AMPLIT PERI AZIMU VELO SNR AR TRES W  DIS CAZ7
 BAR2 SZ EP   1    522 12.42                             171    -0.2 8   23 212 
 BAR2 SZ ES   1    522 28.15                             171     0.0 8   23 212 
 BAR2 SZ I         522 28.71        32.0 0.36                            23 212 
 BTL  SZ EP   1    522 12.76                             170     0.1 8   27 308 
 BTL  SZ ES   1    522 28.10                             170    -0.2 8   27 308 
 BRR  HZ EP   1    522 14.31                             151    -0.3 8   80 298 
 BRR  HZ I         522 14.63        71.0 0.19                            80 298 
 BRR  HN ES   1    522 31.82                             151     0.1 8   80 298 
 RUS  HZ EP   1    522 16.38                             146     0.0 8   97 181 
 RUS  HN ES   1    522 35.12                             146     0.2 8   97 181 
 RUS  HZ I         522 36.31        13.1 0.36                            97 181 
 BRI  SZ EP   1    522 16.95                             142     0.1 8  110  16 
 BRI  SZ ES   1    522 36.07                             142     0.3 8  110  16 
 BRI  SZ I         522 40.46        11.3 0.37                           110  16 
 GRA  SZ IP        522 18.22                             137     0.010  127  14 
 GRA  SZ ES   1    522 37.93                             137    -0.3 7  127  14 
 GRA  SZ I         522 38.90        14.0 0.31                           127  14 
 OCA  SZ EP   1    522 21.46                             130    -0.1 7  165 351 
 OCA  SZ ES   2    522 44.58                             130     0.4 5  165 351 
 OCA  SZ I         522 49.00        17.5 0.27                           165 351 
 HEL  HZ EP   2    522 34.29                             115     0.6 4  279 257 
 HEL  HZ I         523 11.10         5.8 0.34                           279 257 
 PRA  HZ EP   1    522 46.28                             107     0.0 5  393 211 
 PRA  HN ES   1    523 27.97                             107    -0.2 5  393 211 
                                                                                
