 2012  5 1 0739 55.2 L   6.776 -73.139141.8  RSN  6 0.3 1.2LRSN                1
 GAP=138        0.57       4.9     4.4  6.6  0.2090E+01  0.1856E+01  0.3869E+01E
 Epicentro: LOS SANTOS - SANTANDER                                             3
 ACTION:UP  12-07-05 12:01 OP:pat  STATUS:               ID:20120501073955 L   I
 2012-05-01-0740-00M.COL___189                                                 6
 STAT SP IPHASW D HRMM SECON CODA AMPLIT PERI AZIMU VELO SNR AR TRES W  DIS CAZ7
 BAR2 SZ ES   2    740 29.00                             171    -0.2 5   21 193 
 BRR  HZ EP   1    740 16.07                             151     0.0 7   73 300 
 BRR  HN ES   1    740 32.65                             151     0.4 7   73 300 
 BRR  HZ I         740 37.38         8.2 0.21                            73 300 
 PAM  SZ EP   1    740 17.12                             150     0.0 7   79  38 
 PAM  SN ES   2    740 33.67                             150    -0.5 5   79  38 
 RUS  HZ EP   1    740 18.70                             144     0.3 7   98 176 
 RUS  HN ES   2    740 36.28                             144    -0.2 5   98 176 
 RUS  HZ I         740 37.45         2.0 0.43                            98 176 
 PTB  HZ EP   1    740 21.51                             131    -0.3 7  148 260 
 PTB  HN ES   2    740 42.32                             131    -0.3 5  148 260 
 PTB  HZ I         740 47.32         1.4 0.26                           148 260 
 ZAR  HN ES   2    740 52.78                             121     0.0 4  206 293 
                                                                                
