 2015  1 1 0755 42.6 L   6.520 -73.213165.3  RSN  6 0.7 1.3LRSN                1
 GAP=145        1.75      10.0    12.7 11.9  0.4862E+02  0.1571E+02 -0.3224E+02E
 Epicentro: PINCHOTE - SANTANDER                                               3
 ACTION:UPD 15-03-02 15:35 OP:nd   STATUS:               ID:20150101075542 L   I
 OLDACT:REG 15-01-01 15:24 OP:stll STATUS:               ID:20150101074740     3
 2015-01-01-0747-40M.COL___274                                                 6
 STAT SP IPHASW D HRMM SECON CODA AMPLIT PERI AZIMU VELO AIN AR TRES W  DIS CAZ7
 BAR2 EZ EP        756  4.39                             177    0.0410 8.65  23 
 BAR2 EZ ES        756 20.59                             177   -0.7610 8.65  23 
 BAR2 EZ I         756 21.95         4.1 0.36            171           8.65  23 
 RUS  HZ EP        756  6.53                             156   -0.0110 70.9 168 
 RUS  HZ I         756  6.82         1.4 0.14            151           70.9 168 
 RUS  HN ES        756 25.19                             156   -0.0610 70.9 168 
 BRR  HZ EP        756  7.49                             151    0.8910 85.2 320 
 BRR  HN ES        756 26.65                             151    1.3010 85.2 320 
 BRR  HZ I         756 27.01         3.0 0.28            140           85.2 320 
 PTB  HZ EP        756 10.07                             138   -0.25 9  138 271 
 PTB  HN ES        756 31.24                             138   -0.74 9  138 271 
 PTB  HZ I         756 34.98         2.1 0.26            126            138 271 
 ZAR  HZ EP        756 17.66                             125    0.62 8  211 301 
 ZAR  HZ I         756 50.66         1.9 0.32            115            211 301 
 SML  HZ EP        756 22.52                             118   -0.54 8  269 339 
 SML  HN ES        756 53.55                             118   -1.11 8  269 339 
 SML  HZ I         757  0.62         1.6 0.50            110            269 339 
                                                                                
