 2013 10 1 0742  2.2 L   6.833 -73.145138.3  RSN  8 0.4 1.7LRSN                1
 GAP=183        1.03       3.7     5.2  7.1  0.1428E+01  0.5849E+01 -0.4476E+01E
 Epicentro: LOS SANTOS - SANTANDER                                             3
 ACTION:UPD 13-11-25 09:18 OP:ep   STATUS:               ID:20131001074202 L   I
 OLDACT:REG 13-10-01 05:51 OP:nd   STATUS:               ID:20131001073959     3
 2013-10-01-0739-59M.COL___272                                                 6
 STAT SP IPHASW D HRMM SECON CODA AMPLIT PERI AZIMU VELO AIN AR TRES W  DIS CAZ7
 BAR2 SZ IP     C  742 21.47                             168    0.4610 26.9 189 
 BAR2 SZ ES        742 35.83                             168    0.1510 26.9 189 
 BAR2 SZ I         742 37.24        16.5 0.32            170           26.9 189 
 BRR  HZ EP   1    742 22.49                             152    0.04 7 69.6 296 
 BRR  HN ES   1    742 38.62                             152    0.38 7 69.6 296 
 BRR  HZ I         742 44.44         6.6 0.12            150           69.6 296 
 RUS  HZ EP        742 25.50                             141    0.0110  104 176 
 RUS  HN ES        742 43.66                             141    0.0010  104 176 
 RUS  HZ I         742 45.65         5.8 0.40            147            104 176 
 PTB  HZ EP        742 28.24                             130   -0.40 9  149 257 
 PTB  HN ES        742 48.53                             130   -0.73 9  149 257 
 PTB  HZ I         742 52.40         5.9 0.17            132            149 257 
 OCA  HZ EP        742 29.17                             129   -0.42 9  157 353 
 OCA  HN ES        742 50.49                             129   -0.47 9  157 353 
 OCA  HZ I         742 55.59         7.9 0.20            131            157 353 
 SPBC HZ EP        742 30.60                             127    0.19 9  166 218 
 SPBC HN ES        742 52.08                             127   -0.33 9  166 218 
 SPBC HZ I         742 55.75         6.0 0.18            130            166 218 
 ZAR  HZ EP        742 34.63                             121    0.60 9  203 291 
 ZAR  HN ES        742 59.59                             121    0.73 9  203 291 
 ZAR  HZ I         743  6.49         5.8 0.24            123            203 291 
 GUY2CHZ EP   4 C  742 47.26                             111    1.55 0  303 234 
 GUY2CHN ES   4    743 21.76                             111    2.11 0  303 234 
 GUY2CHZ I         743 26.89         1.7 0.24                           303 234 
                                                                                
