 2012  8 1 0907 42.3 L   6.808 -73.171134.4  RSN  9 0.4 2.1LRSN                1
 GAP=133        0.84       4.1     4.9  8.1 -0.3198E+01  0.1791E+02 -0.3084E+00E
 Epicentro: LOS SANTOS - SANTANDER                                             3
 ACTION:UPD 12-09-10 11:53 OP:ep   STATUS:               ID:20120801090743dL   I
 2012-08-01-0900-00M.COL___215                                                 6
 STAT SP IPHASW D HRMM SECON CODA AMPLIT PERI AZIMU VELO AIN AR TRES W  DIS CAZ7
 BAR2 SZ EP   1    9 8  0.60                             169    0.05 7 23.8 183 
 BAR2 SZ ES   1    9 8 14.89                             169    0.08 7 23.8 183 
 BAR2 SZ I         9 8 16.37        35.3 0.17                          23.8 183 
 BRR  HZ EP   1    9 8  2.48                             151    0.44 7 68.3 299 
 BRR  HZ I         9 8 20.58        25.1 0.14                          68.3 299 
 PAM  SZ EP   1    9 8  3.63                             148    0.26 7 78.6  42 
 PAM  SN ES   1    9 8 20.14                             148    0.32 7 78.6  42 
 RUS  HZ EP   1    9 8  4.47                             141   -0.54 7  102 175 
 RUS  HN ES   1    9 8 22.69                             141   -0.05 7  102 175 
 RUS  HZ I         9 8 24.68        21.2 0.33                           102 175 
 PTB  HZ EP   1    9 8  7.64                             130   -0.46 7  145 258 
 PTB  HN ES   1    9 8 27.51                             130   -0.73 7  145 258 
 PTB  HZ I         9 8 30.58        10.8 0.15                           145 258 
 OCA  HN ES   1    9 8 30.30                             127   -0.64 7  159 354 
 ZAR  HN ES   1    9 8 38.67                             120    0.46 6  201 292 
 NOR  SZ EP   1    9 8 16.98                             116   -0.19 6  233 234 
 NOR  SN ES   1    9 8 45.13                             116    0.73 6  233 234 
 HEL  HZ EP   1    9 8 22.17                             113    0.52 6  270 255 
 HEL  HZ I         9 8 59.96         8.4 0.34                           270 255 
                                                                                
