 2011 11 1 0525 39.9 L   6.763 -73.071140.0  RSN  5 0.1 1.4LRSN                1
 GAP=148        0.32       2.3     4.0  4.1 -0.1975E+01  0.7288E+01 -0.3797E+00E
 Epicentro: LOS SANTOS - SANTANDER                                             3
 ACTION:UPD 12-07-13 16:07 OP:ep   STATUS:               ID:20111101052539 L   I
 2011-11-01-0520-00M.COL___176                                                 6
 STAT SP IPHASW D HRMM SECON CODA AMPLIT PERI AZIMU VELO AIN AR TRES W  DIS CAZ7
 BAR2 SZ EP        525 58.95                             170    0.1110 22.6 213 
 BAR2 SZ ES   2    526 13.39                             170   -0.21 5 22.6 213 
 BAR2 SZ I         526 14.67         4.4 0.28                          22.6 213 
 GIR2 SZ EP        525 59.08                             164   -0.0210 37.4 339 
 GIR2 SZ ES   2    526 14.33                             164    0.28 5 37.4 339 
 PAM  SE ES        526 18.17                             150   -0.0310 75.8  33 
 BRR  HZ EP        526  0.95                             148   -0.0610 80.4 298 
 BRR  HZ I         526  1.26         5.6 0.10                          80.4 298 
 BRR  HN ES   2    526 17.46                             148    0.00 5 80.4 298 
 RUS  HN ES   1    526 20.61                             144   -0.03 7 96.3 181 
                                                                                
