 2012  6 1 0932  7.3 L   6.716 -73.158146.4  RSN  4 0.3 1.4LRSN                1
 GAP=240        0.56       7.6     5.9  7.6  0.2315E+02  0.9205E+01 -0.2147E+02E
 Epicentro: VILLANUEVA - SANTANDER                                             3
 ACTION:UP  12-08-06 17:46 OP:ep   STATUS:               ID:20120601093206 L   I
 2012-06-01-0930-00M.COL___201                                                 6
 STAT SP IPHASW D HRMM SECON CODA AMPLIT PERI AZIMU VELO AIN AR TRES W  DIS CAZ7
 BAR2 SZ EP   1    932 26.90                             174    0.08 7 13.9 191 
 BAR2 SZ ES   1    932 42.06                             174   -0.02 7 13.9 191 
 RUS  HN ES   1    932 48.46                             147   -0.06 7 91.4 175 
 PTB  HZ EP   1    932 34.46                             133    0.43 7  145 262 
 PTB  HN ES   1    932 54.72                             133   -0.19 7  145 262 
 PTB  HZ I         932 56.88         2.1 0.12            132            145 262 
 ZAR  HZ EP   1    932 39.45                             122   -0.55 6  207 295 
 ZAR  HN ES   1    933  5.79                             122    0.24 6  207 295 
 ZAR  HZ I         933  8.17         3.6 0.10            122            207 295 
                                                                                
