 2013 12 1 0316  3.8 L   6.197 -73.855 11.1  RSN  8 0.5 1.7LRSN                1
 GAP=179        0.99       3.5     3.2  6.0 -0.5394E+01 -0.7670E+01  0.1280E+01E
 Epicentro: LANDAZURI - SANTANDER                                              3
 ACTION:UPD 14-01-13 10:15 OP:ep   STATUS:               ID:20131201031603 L   I
 OLDACT:UP  13-12-01 10:34 OP:mh   STATUS:               ID:20131201031000     3
 OLDACT:REG 13-12-01 08:28 OP:mh   STATUS:               ID:20131201031000     3
 2013-12-01-0310-00M.COL___282                                                 6
 STAT SP IPHASW D HRMM SECON CODA AMPLIT PERI AZIMU VELO AIN AR TRES W  DIS CAZ7
 PTB  HZ EP   1    316 16.07                              96    0.01 7 76.6 300 
 PTB  HN ES        316 25.71                              96    0.0810 76.6 300 
 PTB  HZ I         316 28.88        55.3 0.12            103           76.6 300 
 BAR2 SZ EP   1    316 16.83                              95   -0.93 7 86.3  60 
 BAR2 SZ I         316 28.07        16.8 0.26            101           86.3  60 
 BRR  HZ EP   1    316 19.89                              94    0.02 7  102   9 
 BRR  HN ES        316 32.55                              94    0.1510  102   9 
 BRR  HZ I         316 37.25        12.0 0.11             99            102   9 
 NOR  HZ EP   1    316 24.91                              93    0.38 7  132 238 
 NOR  HN ES        316 40.41                              93   -0.2910  132 238 
 NOR  HZ I         316 41.56        10.4 0.10             56            132 238 
 PAM  SZ EP        316 32.29                              56    0.80 9  180  45 
 PAM  SN ES        316 52.89                              56   -0.20 9  180  45 
 PAM  SZ I         316 57.19         9.7 0.14             56            180  45 
 ZAR  HN ES   1    316 51.70                              56   -0.69 7  181 322 
 ZAR  HZ I         316 54.40        11.3 0.28             56            181 322 
 HEL  HZ EP   1    316 32.45                              56    0.41 7  185 270 
 HEL  HZ I         316 55.80        17.9 0.33             56            185 270 
 GUY2CHZ EP   4    316 35.51                              56    1.64 0  199 237 
 GUY2CHN ES   4    316 58.97                              56    1.64 0  199 237 
 GUY2CHZ I         317  4.01         3.6 0.35                           199 237 
 SML  HZ EP   4    316 46.32                              55    1.78 0  289 355 
                                                                                
