 2016  8 1 0028 37.5 L   6.822 -73.150149.2  RSN  8 0.3 1.5LRSN                1
 GAP=135        0.80       3.4     3.4  5.0 -0.5219E+00  0.4613E+01  0.6326E+00E
 Epicentro: LOS SANTOS - SANTANDER                                             3
 ACTION:UPD 16-10-29 15:31 OP:rebc STATUS:               ID:20160801002837 L   I
 OLDACT:UP  16-08-13 16:10 OP:dani STATUS:               ID:20160801002837 L   3
 OLDACT:REG 16-08-01 13:40 OP:edw  STATUS:               ID:20160801002759     3
 2016-08-01-0027-59S.COL___340                                                 6
 STAT SP IPHASW D HRMM SECON CODA AMPLIT PERI AZIMU VELO AIN AR TRES W  DIS CAZ7
 BAR2 EZ EP        028 57.34                             170   -0.2610 25.7 188 
 BAR2 EZ ES        029 13.22                             170   -0.0510 25.7 188 
 BRR  HZ EP        028 59.20                             154    0.2610 69.7 297 
 BRR  HN ES        029 16.24                             154    0.5810 69.7 297 
 BRR  HZ I         029 20.13         7.3 0.42                          69.7 297 
 PAM  EZ EP        029  0.30                             152    0.3110 75.8  41 
 PAM  EE ES        029 17.18                             152   -0.3510 75.8  41 
 PAM  EZ I         029 19.49         4.1 0.56                          75.8  41 
 RUS  HZ EP        029  1.87                             144    0.1010  103 176 
 RUS  HN ES        029 20.44                             144   -0.2610  103 176 
 RUS  HZ I         029 21.44         1.5 0.20                           103 176 
 PTB  HZ EP        029  4.87                             133    0.11 9  148 258 
 PTB  HE ES        029 25.85                             133   -0.17 9  148 258 
 PTB  HZ I         029 32.56         2.3 0.22                           148 258 
 SPBC HZ EP        029  6.11                             129   -0.31 9  165 218 
 SPBC HN ES        029 29.44                             129    0.46 9  165 218 
 SPBC HZ I         029 37.70        10.8 0.20                           165 218 
 ZAR  HZ EP        029 10.15                             123    0.11 9  203 292 
 ZAR  HN ES        029 34.79                             123   -0.63 9  203 292 
 ZAR  HZ I         029 37.23         3.9 0.48                           203 292 
 GUY2CHZ EP   2    029 21.38                             113   -0.01 4  302 234 
 GUY2CHN ES   2    029 55.49                             113   -0.14 4  302 234 
 GUY2CHZ I         030  2.83         1.3 0.42                           302 234 
                                                                                
