 2016  9 1 0328 50.6 L   6.762 -73.169149.1  RSN  5 0.5 1.7LRSN                1
 GAP=242        1.24       7.8     8.2 10.0  0.1010E+02  0.1530E+02  0.1201E+02E
 Epicentro: LOS SANTOS - SANTANDER                                             3
 ACTION:UPD 17-08-17 21:05 OP:lp   STATUS:               ID:20160901032850 L   I
 OLDACT:DUP 16-09-01 16:21 OP:drio STATUS:               ID:20160901031742d    3
 OLDACT:UP  16-09-01 16:20 OP:drio STATUS:               ID:20160901031741d    3
 OLDACT:UP  16-09-01 16:19 OP:drio STATUS:               ID:20160901031741d    3
 OLDACT:UP  16-09-01 16:19 OP:drio STATUS:               ID:20160901031741d    3
 OLDACT:DUP 16-09-01 16:03 OP:drio STATUS:               ID:20160901031741d    3
 2016-09-01-0318-00M.COL___358                                                 6
 STAT SP IPHASW D HRMM SECON CODA AMPLIT PERI AZIMU VELO AIN AR TRES W  DIS CAZ7
 BAR2 EZ EP        329 10.33                             173   -0.2310 18.8 184 
 BAR2 EZ ES        329 25.69                             173   -0.4310 18.8 184 
 BRR  HZ EP        329 12.11                             153   -0.0110 71.1 303 
 BRR  HN ES        329 29.70                             153    0.8110 71.1 303 
 PTB  HZ EP        329 18.24                             133    0.68 9  144 260 
 PTB  HN ES        329 38.03                             133   -0.54 9  144 260 
 PTB  HZ I         329 43.36         4.1 0.10            129            144 260 
 SPBC HZ EP        329 18.68                             131   -0.23 9  158 219 
 SPBC HE ES        329 41.38                             131    0.40 9  158 219 
 SPBC HZ I         329 48.33         8.8 0.36            127            158 219 
 ZAR  HZ EP   4    329 25.03                             123    1.83 0  203 294 
 ZAR  HN ES        329 48.07                             123   -0.54 9  203 294 
 ZAR  HZ I         329 55.90         3.9 0.16            121            203 294 
                                                                                
