 2010  6 1 0928  4.8 L   6.890 -73.601104.5  RSN  5 0.3 1.7LRSN                1
 GAP=246        0.72       6.1    17.5 14.8 -0.4763E+02  0.1817E+03 -0.6224E+02E
 Epicentro: SAN VICENTE DE CHUCURI - SANTANDER                                 3
 ACTION:UP  10-08-24 10:07 OP:vdl  STATUS:               ID:20100601092804 L   I
 2010-06-01-0923-48S.COL___109                                                 6
 STAT SP IPHASW D HRMM SECON CODA AMPLIT PERI AZIMU VELO SNR AR TRES W  DIS CAZ7
 GIR2 SZ EP   2    928 19.81                             154    -0.6 5   50  65 
 BAR2 SZ IP        928 21.16                             151     0.210   57 126 
 BAR2 SZ ES   1    928 33.64                             151     0.0 7   57 126 
 GUE  SZ EP   1    928 26.55                             126    -0.6 7  128  36 
 GRA  SZ EP   1    928 28.01                             123    -0.2 7  141  39 
 GRA  SZ ES   1    928 46.81                             123     0.3 7  141  39 
 OCA  SZ IP        928 29.77                             120     0.4 9  152  12 
 OCA  SZ ES   2    928 48.38                             120    -0.2 5  152  12 
 OCA  SZ I         928 55.67         7.0 0.21                           152  12 
                                                                                
