 2010 10 1 0709 32.5 L   6.821 -72.975141.2  RSN  7 0.5 2.0LRSN                1
 GAP=200        1.06       4.4    12.4 10.0  0.3346E+00 -0.3801E+02  0.1019E+02E
 Epicentro: CEPITA - SANTANDER                                                 3
 ACTION:UP  11-02-18 17:13 OP:tino STATUS:               ID:20101001070932 L   I
 2010-10-01-0706-00S.COL___120                                                 6
 STAT SP IPHASW D HRMM SECON CODA AMPLIT PERI AZIMU VELO SNR AR TRES W  DIS CAZ7
 BAR2 SZ EP        7 9 52.09                             166    0.2510 34.3 222 
 BAR2 SZ I         710 10.69        16.1 0.18                          34.3 222 
 BRR  HZ EP        7 9 53.92                             147   -0.2310 87.4 291 
 BRR  HN ES        710 10.98                             147   -0.0810 87.4 291 
 BRR  HZ I         710 14.46        23.8 0.45                          87.4 291 
 RUS  HZ EP   1    7 9 56.14                             142    0.15 7  103 187 
 RUS  HN ES   1    710 14.27                             142   -0.05 7  103 187 
 RUS  HZ I         710 16.47         7.6 0.30                           103 187 
 OCA  SZ EP        710  0.65                             128    0.11 9  161 346 
 OCA  SZ ES   1    710 22.38                             128   -0.04 7  161 346 
 OCA  SZ I         710 26.82        15.0 0.22                           161 346 
 CHI  HZ EP        710 10.34                             115   -0.44 8  256 199 
 CHI  HN ES   1    710 40.09                             115   -0.57 6  256 199 
 CHI  HZ I         710 46.12         1.8 0.34                           256 199 
 ROSC BZ EP   1    710 12.99                             115    1.30 6  265 214 
 ROSC BN ES   2    710 43.43                             115    1.15 4  265 214 
 ROSC BZ I         710 48.38         5.8 0.92                           265 214 
 PRA  HZ EP   1    710 26.32                             105   -0.89 4  404 212 
 PRA  HZ I         710 28.05        14.6 0.27                           404 212 
 PRA  HN ES   2    711  9.25                             105   -0.64 3  404 212 
                                                                                
