 2010  8 1 0519 11.1 L   6.793 -73.138148.2  RSN  4 0.1 1.6LRSN                1
 GAP=165        0.39       5.5    11.3  8.4  0.4901E+02 -0.6711E+02 -0.2822E+02E
 Epicentro: LOS SANTOS - SANTANDER                                             3
 ACTION:UP  10-09-07 10:51 OP:vdl  STATUS:               ID:20100801051911 L   I
 2010-08-01-0516-51S.COL___123                                                 6
 STAT SP IPHASW D HRMM SECON CODA AMPLIT PERI AZIMU VELO SNR AR TRES W  DIS CAZ7
 BAR2 SZ EP   2    519 30.62                             171    -0.3 5   23 193 
 BAR2 SZ I         519 46.72         9.4 0.24                            23 193 
 BRR  HZ EP   1    519 32.48                             152     0.0 7   72 299 
 BRR  HE ES   1    519 49.32                             152     0.0 7   72 299 
 BRR  HZ I         519 53.56         8.2 0.07                            72 299 
 RUS  HZ EP   1    519 35.11                             144     0.1 7  100 176 
 RUS  HN ES   1    519 53.64                             144     0.0 7  100 176 
 RUS  HZ I         519 55.10         4.5 0.17                           100 176 
 GUE  SZ EP   2    519 36.13                             140     0.1 5  117  12 
                                                                                
