 2017  2 1 0811 32.5 L   6.672 -73.179140.7  RSN  4 0.2 1.0LRSN                1
 GAP=224        0.53       4.6     4.7  6.6  0.1167E+02  0.1189E+02  0.6542E+01E
 Epicentro: VILLANUEVA - SANTANDER                                             3
 ACTION:UPD 17-05-24 15:31 OP:jn   STATUS:               ID:20170201081132 L   I
 OLDACT:REG 17-02-01 15:12 OP:dnl  STATUS:               ID:20170201080743     3
 2017-02-01-0808-00M.COL___313                                                 6
 STAT SP IPHASW D HRMM SECON CODA AMPLIT PERI AZIMU VELO AIN AR TRES W  DIS CAZ7
 BAR2 EZ EP   2    811 51.17                             176   -0.18 5 8.78 182 
 BAR2 EZ ES        812  5.75                             176   -0.2710 8.78 182 
 BAR2 EZ I         812  7.11         3.5 0.24            174           8.78 182 
 BRR  HZ EP   2    811 53.12                             150   -0.32 5 76.1 309 
 BRR  HN ES        812 10.03                             150    0.3010 76.1 309 
 BRR  HZ I         812 12.60         2.9 0.28            150           76.1 309 
 RUS  HZ EP   2    811 55.14                             147    0.31 5 86.8 173 
 RUS  HN ES        812 12.35                             147    0.1410 86.8 173 
 RUS  HZ I         812 14.38         0.9 0.32            148           86.8 173 
 PTB  HZ EP   2    811 58.63                             132    0.06 5  142 264 
 PTB  HN ES        812 18.72                             132   -0.15 9  142 264 
 PTB  HZ I         812 21.61         0.8 0.54            132            142 264 
                                                                                
