 2010 10 1 0932 43.6 L   6.727 -73.110150.0  RSN  5 0.2 1.4LRSN                1
 GAP=169        0.44       4.0     7.1  6.6  0.1257E+02 -0.1201E+02 -0.6401E+01E
 Epicentro: JORDAN - SANTANDER                                                 3
 ACTION:UP  11-02-18 11:06 OP:tino STATUS:               ID:20101001093243 L   I
 2010-10-01-0929-06S.COL___125                                                 6
 STAT SP IPHASW D HRMM SECON CODA AMPLIT PERI AZIMU VELO SNR AR TRES W  DIS CAZ7
 BAR2 SZ ES   3    933 18.77                             173    -0.5 2   17 209 
 BAR2 SZ I         933 20.26         6.6 0.06                            17 209 
 BTL  SZ EP   1    933  4.03                             169     0.2 7   27 321 
 BRR  HZ EP        933  5.47                             151    -0.210   79 302 
 BRR  HZ I         933  8.65         8.0 0.64                            79 302 
 BRR  HN ES        933 22.88                             151     0.110   79 302 
 RUS  HN ES   1    933 25.59                             147     0.0 7   92 178 
 RUS  HZ I         933 27.51         2.3 0.31                            92 178 
 GUE  SZ ES   2    933 29.24                             139     0.0 5  124   9 
                                                                                
