 2014  3 1 0858  5.2 L   6.766 -73.188141.8  RSN  7 0.2 1.6LRSN                1
 GAP=133        0.60       2.1     3.1  5.0 -0.1537E+01  0.4971E+01 -0.2327E+01E
 Epicentro: VILLANUEVA - SANTANDER                                             3
 ACTION:UPD 14-04-09 23:13 OP:nd   STATUS:               ID:20140301085805 L   I
 OLDACT:REG 14-03-01 09:04 OP:stll STATUS:               ID:20140301084818     3
 2014-03-01-0848-18M.COL___219                                                 6
 STAT SP IPHASW D HRMM SECON CODA AMPLIT PERI AZIMU VELO AIN AR TRES W  DIS CAZ7
 BAR2 SZ EP        858 24.50                             172    0.1910 19.2 178 
 BAR2 SZ ES        858 39.05                             172   -0.1410 19.2 178 
 BAR2 SZ I         858 41.57        12.6 0.24            172           19.2 178 
 PAM  SZ EP        858 27.53                             148    0.1310 83.3  40 
 PAM  SZ I         858 27.85        10.0 0.40            151           83.3  40 
 PAM  SN ES        858 44.46                             148   -0.2310 83.3  40 
 RUS  HZ EP        858 28.34                             144   -0.0110 97.2 173 
 RUS  HN ES        858 46.52                             144    0.1310 97.2 173 
 RUS  HZ I         858 48.18         4.9 0.30            146           97.2 173 
 PTB  HZ EP        858 31.16                             132   -0.23 9  142 260 
 PTB  HN ES        858 52.14                             132    0.35 9  142 260 
 PTB  HZ I         858 54.50         5.1 0.54            133            142 260 
 SPBC HN ES        858 54.14                             129   -0.28 9  157 219 
 SPBC HZ I         858 59.58         5.0 0.18            131            157 219 
 OCA  HN ES        858 55.93                             128    0.29 9  164 355 
 OCA  HZ I         859  0.41         4.7 0.18            130            164 355 
 SML  HN ES        859 10.02                             116   -0.31 8  245 337 
                                                                                
