 2015  2 1 0955 52.7 L   6.802 -73.114147.1  RSN  7 0.4 1.4LRSN                1
 GAP=186        0.80       3.1     6.3  7.5  0.2451E+01  0.3254E+01 -0.8784E+00E
 Epicentro: LOS SANTOS - SANTANDER                                             3
 ACTION:UPD 15-04-30 21:20 OP:nd   STATUS:               ID:20150201095552 L   I
 OLDACT:REG 15-02-01 12:29 OP:spq  STATUS:               ID:20150201094747     3
 2015-02-01-0947-47M.COL___246                                                 6
 STAT SP IPHASW D HRMM SECON CODA AMPLIT PERI AZIMU VELO AIN AR TRES W  DIS CAZ7
 BAR2 EZ EP   1    956 12.48                             170   -0.03 7 24.4 198 
 BAR2 EZ ES   1    956 27.38                             170   -0.59 7 24.4 198 
 BAR2 EZ I         956 28.29         7.2 0.36            165           24.4 198 
 BRR  HZ EP        956 14.29                             152    0.1310 74.2 297 
 BRR  HE ES        956 31.40                             152    0.5010 74.2 297 
 BRR  HZ I         956 34.69         4.3 0.38            146           74.2 297 
 RUS  HZ EP   1    956 16.71                             144    0.12 7  101 178 
 RUS  HE ES   1    956 34.89                             144   -0.33 7  101 178 
 RUS  HZ I         956 36.95         3.4 0.82            144            101 178 
 OCA  HN ES        956 43.50                             130    0.18 9  161 352 
 OCA  HZ I         956 45.52         2.3 0.25            129            161 352 
 SPBC HZ EP   1    956 21.67                             129    0.14 7  166 220 
 SPBC HN ES        956 44.16                             129    0.15 9  166 220 
 SPBC HZ I         956 51.06         3.0 0.34            126            166 220 
 ZAR  HE ES   1    956 50.39                             122   -0.79 6  207 292 
 ZAR  HZ I         956 56.17         2.5 0.64            120            207 292 
 SML  HN ES   1    956 57.75                             118   -0.52 6  245 335 
 SML  HZ I         957  3.24         2.5 0.10            117            245 335 
                                                                                
