 2017  9 1 0324 31.5 L   6.809 -73.134144.4  RSN  5 0.2 1.4LRSN                1
 GAP=138        0.50       2.3     2.8  3.9 -0.8980E+00  0.4727E+01 -0.9585E+00E
 Epicentro: LOS SANTOS - SANTANDER                                             3
 ACTION:UPD 17-10-05 19:07 OP:rebc STATUS:               ID:20170901032431 L   I
 OLDACT:UP  17-09-01 14:15 OP:dani STATUS:               ID:20170901031744     3
 OLDACT:REG 17-09-01 13:00 OP:dani STATUS:               ID:20170901031744     3
 2017-09-01-0318-00M.COL___411                                                 6
 STAT SP IPHASW D HRMM SECON CODA AMPLIT PERI AZIMU VELO AIN AR TRES W  DIS CAZ7
 BAR2 EZ EP        324 50.91                             170   -0.0910 24.5 193 
 BAR2 EZ ES        325  6.05                             170   -0.1610 24.5 193 
 BAR2 EZ I         325  7.43         9.2 0.18            168           24.5 193 
 PAM  EZ EP        324 53.68                             151    0.1910 75.8  39 
 PAM  EN ES        325 10.56                             151   -0.0710 75.8  39 
 RUS  HZ EP        324 54.98                             143   -0.2110  101 177 
 RUS  HE ES        325 14.02                             143    0.3610  101 177 
 RUS  HZ I         325 14.69         2.3 0.27            147            101 177 
 SPBC HZ EP        324 59.90                             128   -0.15 9  165 219 
 SPBC HN ES        325 22.28                             128   -0.03 9  165 219 
 SPBC HZ I         325 24.67         3.4 0.27            129            165 219 
 ZAR  HZ EP        325  4.12                             122    0.17 9  205 292 
 ZAR  HN ES        325 29.29                             122    0.04 9  205 292 
 ZAR  HZ I         325 39.96         1.5 0.27            121            205 292 
                                                                                
