 2013  8 1 0903  6.0 L   6.778 -73.164143.9  RSN  6 0.5 1.5LRSN                1
 GAP=234        0.96       7.0     7.5 10.8  0.1913E+02  0.2159E+02 -0.2449E+02E
 Epicentro: LOS SANTOS - SANTANDER                                             3
 ACTION:UPD 14-01-14 08:58 OP:ep   STATUS:               ID:20130801090306 L   I
 OLDACT:REG 13-08-01 07:59 OP:carl STATUS:               ID:20130801085959     3
 2013-08-01-0859-59M.COL___268                                                 6
 STAT SP IPHASW D HRMM SECON CODA AMPLIT PERI AZIMU VELO AIN AR TRES W  DIS CAZ7
 BAR2 SZ EP   1    9 3 25.12                             171   -0.24 7 20.7 186 
 BAR2 SZ ES   1    9 3 40.94                             171    0.48 7 20.7 186 
 BAR2 SZ I         9 3 41.90         5.5 0.36            166           20.7 186 
 BRR  HZ EP        9 3 26.97                             152    0.0510 70.6 301 
 RUS  HN ES        9 3 47.38                             144   -0.3010 98.4 175 
 RUS  HN I         9 3 48.22         6.7 0.28            146           98.4 175 
 PTB  HZ EP   1    9 3 32.20                             132   -0.40 7  145 260 
 PTB  HN ES   1    9 3 53.22                             132   -0.12 7  145 260 
 PTB  HZ I         9 3 58.99         3.0 0.14            130            145 260 
 SPBC HZ EP   1    9 3 33.82                             129   -0.24 7  160 219 
 SPBC HE ES   1    9 3 56.63                             129    0.68 7  160 219 
 SPBC HZ I         9 4  0.11         4.6 0.24            129            160 219 
 ZAR  HZ EP   1    9 3 39.40                             122    1.17 6  203 293 
 ZAR  HE ES        9 4  2.94                             122   -0.42 9  203 293 
 ZAR  HZ I         9 4 10.15         5.6 0.40            122            203 293 
                                                                                
