 2010  1 1 0733 57.2 L   6.773 -73.080148.0  RSN  6 0.3 1.6LRSN                1
 GAP=189        0.52       2.4     6.9  4.8 -0.1728E+01  0.9300E+01 -0.9087E+00E
 Epicentro: LOS SANTOS - SANTANDER                                             3
 ACTION:UP  10-08-24 09:41 OP:vdl  STATUS:               ID:20100101073357 L   I
 2010-01-01-0732-11S.COL___096                                                 6
 STAT SP IPHASW D HRMM SECON CODA AMPLIT PERI AZIMU VELO SNR AR TRES W  DIS CAZ7
 BAR2 SZ IP        734 17.06                             171     0.010   23 210 
 BAR2 SZ ES   1    734 32.85                             171     0.3 7   23 210 
 GIR2 SZ EP   2    734 17.20                             166    -0.1 5   36 340 
 GIR2 SZ ES   2    734 33.05                             166     0.1 5   36 340 
 RUS  BZ EP   1    734 21.10                             145     0.2 7   97 180 
 RUS  BN ES   1    734 39.19                             145    -0.2 7   97 180 
 RUS  BZ I         734 41.43         4.7 0.26                            97 180 
 OCA  SZ EP        734 25.89                             129    -0.1 9  164 351 
 OCA  SZ ES   1    734 48.44                             129    -0.1 7  164 351 
 CHI  HZ EP   1    734 35.16                             117     0.3 6  248 197 
 CHI  HE ES   1    735  3.99                             117    -0.3 6  248 197 
 CHI  HZ I         735 14.21         2.1 0.41                           248 197 
 HEL  HZ EP   2    734 39.08                             114     0.9 4  278 257 
 HEL  HN ES   2    735  9.86                             114    -0.3 4  278 257 
 HEL  HZ I         735 17.78         2.8 0.17                           278 257 
                                                                                
