 2014  7 1 0050 55.0 L   6.024 -73.856 40.0  RSN  9 0.4 1.2LRSN                1
 GAP=105        0.98       2.9     2.7  6.4 -0.2331E+01  0.3928E+01  0.2989E+01E
 Epicentro: EL PENON - SANTANDER                                               3
 ACTION:UPD 15-03-16 20:40 OP:nd   STATUS:               ID:20140701005055 L   I
 OLDACT:REG 14-07-01 12:32 OP:spq  STATUS:               ID:20140701004811     3
 2014-07-01-0048-11M.COL___247                                                 6
 STAT SP IPHASW D HRMM SECON CODA AMPLIT PERI AZIMU VELO AIN AR TRES W  DIS CAZ7
 SPBC HN ES        051 19.94                             150   -0.4110 47.6 210 
 SPBC HZ I         051 22.55        12.3 0.20            153           47.6 210 
 RUS  HZ EP        051 13.20                             133    0.3710 86.8 100 
 RUS  HN ES        051 27.05                             133    0.3410 86.8 100 
 RUS  HZ I         051 29.06         6.2 0.22            138           86.8 100 
 PTB  HZ EP        051 11.56                             132   -0.6910 87.6 311 
 PTB  HN ES        051 25.58                             132   -0.1110 87.6 311 
 PTB  HZ I         051 29.68         3.9 0.10            134           87.6 311 
 BAR2 SZ EP        051 13.41                             129   -0.0710 97.5  50 
 BAR2 SZ ES   1    051 27.50                             129   -0.37 7 97.5  50 
 BAR2 SZ I         051 30.45         6.1 0.10            133           97.5  50 
 BRR  HZ EP        051 15.33                             122   -0.1810  121   8 
 BRR  HN ES        051 31.93                             122    0.4510  121   8 
 BRR  HZ I         051 37.30         3.9 0.13            125            121   8 
 HEL  HN ES        051 45.64                             111    0.42 9  186 276 
 HEL  HZ I         051 50.06         2.5 0.36            114            186 276 
 GUY2CHZ EP        051 24.12                             111    0.41 9  189 242 
 GUY2CHN ES        051 46.50                             111    0.42 9  189 242 
 GUY2CHZ I         051 52.96         2.7 0.34                           189 242 
 RREF HZ EP        051 26.11                             109    0.15 8  207 233 
 RREF HN ES        051 49.67                             109   -0.42 8  207 233 
 RREF HZ I         051 54.88         2.7 0.28            112            207 233 
 PRA  HZ EP        051 34.23                             103    0.25 7  280 204 
 PRA  HN ES        052  3.66                             103   -0.69 7  280 204 
 PRA  HZ I         052  7.73         1.3 0.40            106            280 204 
                                                                                
