 2014 10 1 0503 56.0 L   6.764 -73.182142.2  RSN 12 0.5 2.0LRSN                1
 GAP= 77        1.27       3.8     3.5  6.5 -0.2389E+01  0.2624E+01  0.6636E+01E
 Epicentro: LOS SANTOS - SANTANDER                                             3
 ACTION:UPD 14-11-29 23:45 OP:nd   STATUS:               ID:20141001050356 L   I
 OLDACT:REG 14-10-01 13:01 OP:stll STATUS:               ID:20141001045815     3
 2014-10-01-0458-15M.COL___289                                                 6
 STAT SP IPHASW D HRMM SECON CODA AMPLIT PERI AZIMU VELO AIN AR TRES W  DIS CAZ7
 BAR2 SZ EP        5 4 15.43                             172    0.3010 19.0 180 
 BAR2 SZ ES        5 4 30.03                             172   -0.0110 19.0 180 
 BAR2 SZ I         5 4 31.94        17.2 0.50            173           19.0 180 
 BRR  HZ IP     D  5 4 17.38                             152    0.6910 69.8 303 
 BRR  HN ES        5 4 33.89                             152    1.0710 69.8 303 
 BRR  HZ I         5 4 35.24        22.8 0.16            151           69.8 303 
 PAM  SZ EP        5 4 18.42                             148    0.2310 83.0  40 
 PAM  SZ I         5 4 18.90        36.5 0.18            149           83.0  40 
 PAM  SN ES        5 4 35.14                             148   -0.3610 83.0  40 
 PTB  HZ EP        5 4 22.05                             132   -0.21 9  143 260 
 PTB  HZ I         5 4 23.06        14.8 0.16            132            143 260 
 PTB  HN ES        5 4 42.18                             132   -0.56 9  143 260 
 PTB  HN ISg       5 4 42.60                             132   -0.14 9  143 260 
 TAM  HZ IP     D  5 4 23.96                             129    0.28 9  158 103 
 TAM  HZ I         5 4 24.11        31.6 0.20            131            158 103 
 TAM  HE ES        5 4 45.20                             129   -0.07 9  158 103 
 SPBC HZ EP        5 4 24.18                             129    0.48 9  158 219 
 SPBC HN ES        5 4 45.37                             129    0.07 9  158 219 
 SPBC HZ I         5 4 48.40        12.6 0.36            130            158 219 
 OCA  HZ EP        5 4 24.06                             128   -0.32 9  164 355 
 OCA  HN ES        5 4 45.28                             128   -1.23 9  164 355 
 OCA  HZ I         5 4 52.23         8.3 0.16            128            164 355 
 ZAR  HZ EP        5 4 28.25                             122    0.25 9  202 294 
 ZAR  HN ES        5 4 52.99                             122    0.04 9  202 294 
 ZAR  HZ I         5 4 59.65        13.6 0.44            122            202 294 
 CHI  HZ EP        5 4 33.35                             117    0.37 8  244 194 
 CHI  HN ES        5 5  0.45                             117   -1.37 8  244 194 
 CHI  HZ I         5 5  4.63         4.2 0.34            117            244 194 
 GUY2CHZ EP        5 4 38.51                             112   -0.31 7  296 235 
 GUY2CHN ES        5 5 12.42                             112    0.21 7  296 235 
 GUY2CHZ I         5 5 21.00         4.1 0.32                           296 235 
 CBOC HZ EP        5 4 42.56                             110    0.37 7  329 253 
 CBOC HZ I         5 4 46.20         2.0 0.16            110            329 253 
 CBOC HN ES        5 5 17.86                             110   -0.36 7  329 253 
 PRA  HZ EP        5 4 48.78                             106    0.01 6  387 209 
 PRA  HN ES        5 5 29.87                             106   -0.05 6  387 209 
 PRA  HZ I         5 5 35.93         2.8 0.40            106            387 209 
                                                                                
