 2012 10 1 0912  6.7 L   7.508 -73.331126.5  RSN  4 0.3 1.8LRSN                1
 GAP=293        0.55      15.7     9.9 10.8  0.1079E+02 -0.6549E+02 -0.3080E+02E
 Epicentro: EL PLAYON - SANTANDER                                              3
 ACTION:UPD 12-11-22 17:01 OP:ep   STATUS:               ID:20121001091206 L   I
 2012-10-01-0909-49M.COL___186                                                 6
 STAT SP IPHASW D HRMM SECON CODA AMPLIT PERI AZIMU VELO AIN AR TRES W  DIS CAZ7
 GIR2 SZ EP        912 24.58                             156   -0.2510 49.8 162 
 GIR2 SZ ES   3    912 38.20                             156   -0.77 2 49.8 162 
 BRR  HZ EP        912 25.38                             151    0.1710 61.1 224 
 BRR  HN ES   1    912 39.68                             151    0.04 7 61.1 224 
 BRR  HN I         912 41.01        25.2 0.12                          61.1 224 
 BAR2 SZ EP        912 28.60                             137    0.1710  103 171 
 BAR2 SZ I         912 28.73         8.9 0.10                           103 171 
 PTB  HE ES   3    912 53.92                             123   -1.02 2  164 229 
                                                                                
