 2011  4 1 0823 47.2 L   6.748 -73.074147.8  RSN  5 0.1 1.7LRSN                1
 GAP=202        0.35       4.7     5.2  4.2  0.3860E+01 -0.9696E+01 -0.7848E+01E
 Epicentro: LOS SANTOS - SANTANDER                                             3
 ACTION:UP  11-06-22 15:27 OP:REBC STATUS:               ID:20110401082347 L   I
 2011-04-01-0821-29S.COL___138                                                 6
 STAT SP IPHASW D HRMM SECON CODA AMPLIT PERI AZIMU VELO SNR AR TRES W  DIS CAZ7
 BAR2 SZ EP        824  7.12                             172     0.110   21 215 
 BAR2 SZ ES   1    824 22.42                             172    -0.1 7   21 215 
 BAR2 SZ I         824 23.75        14.1 0.17                            21 215 
 BTL  SZ EP        824  7.30                             169     0.110   29 311 
 BTL  SZ ES   2    824 22.81                             169     0.0 5   29 311 
 GIR2 SZ EP   2    824  7.26                             164    -0.1 5   39 340 
 GIR2 SZ ES   3    824 22.66                             164    -0.4 2   39 340 
 BRR  HZ EP        824  9.01                             150    -0.210   81 299 
 BRR  HZ I         824  9.17        10.3 0.11                            81 299 
 BRR  HN ES   1    824 26.39                             150     0.1 7   81 299 
 GRA  SZ EP        824 12.97                             137     0.010  129  13 
 GRA  SZ I         824 14.23         3.3 0.41                           129  13 
                                                                                
