 2011  5 1 0638 28.6 L   6.851 -73.394 18.6  RSN  5 0.4 0.8LRSN                1
 GAP=147        0.87       2.9     3.7  7.0  0.2846E+01 -0.1100E+02 -0.7054E+01E
 Epicentro: SAN VICENTE DE CHUCURI - SANTANDER                                 3
 ACTION:UP  11-06-29 08:50 OP:tino STATUS:               ID:20110501063828 L   I
 2011-05-01-0636-50S.COL___128                                                 6
 STAT SP IPHASW D HRMM SECON CODA AMPLIT PERI AZIMU VELO SNR AR TRES W  DIS CAZ7
 BAR2 SZ EP   1    638 36.38                             115     0.8 7   37 141 
 BRR  HZ EP   1    638 36.41                             109     0.0 7   45 309 
 BRR  HN ES   1    638 42.46                             109    -0.1 7   45 309 
 BRR  HZ I         638 45.07         3.1 0.11                            45 309 
 PAM  SZ EP   1    638 44.21                             100     0.1 7   94  55 
 PAM  SN ES   1    638 55.95                             100    -0.3 7   94  55 
 RUS  HZ EP   1    638 46.81                              98     0.0 7  111 162 
 RUS  HN ES   1    639  0.36                              98    -0.6 7  111 162 
 RUS  HZ I         639  2.19         1.1 0.25                           111 162 
 GRA  SZ ES   1    639  5.46                              56     0.1 7  132  30 
 GRA  SZ I         639  6.18         7.6 0.24                           132  30 
                                                                                
