 2014 10 1 0918 18.3 L   6.668 -73.167146.6  RSN  5 0.4 1.2LRSN                1
 GAP=242        0.74       5.5     5.9  7.7  0.5383E+01  0.2242E+00  0.1295E+01E
 Epicentro: VILLANUEVA - SANTANDER                                             3
 ACTION:UPD 14-11-29 23:45 OP:nd   STATUS:               ID:20141001091818 L   I
 OLDACT:DUP 14-10-01 16:42 OP:fm   STATUS:               ID:20141001090810d    3
 2014-10-01-0908-08M.COL___289                                                 6
 STAT SP IPHASW D HRMM SECON CODA AMPLIT PERI AZIMU VELO AIN AR TRES W  DIS CAZ7
 BAR2 SZ EP   1    918 37.43                             177   -0.43 8 8.53 191 
 BAR2 SZ ES   2    918 52.61                             177   -0.48 5 8.53 191 
 BAR2 SZ I         918 54.83         3.7 0.26            174           8.53 191 
 BRR  HZ EP   1    918 40.36                             151    0.43 8 77.4 309 
 BRR  HN ES   1    918 57.34                             151    0.57 8 77.4 309 
 BRR  HZ I         919  0.50         2.8 0.40            150           77.4 309 
 PTB  HZ EP        918 44.77                             133   -0.1910  143 264 
 PTB  HN ES        919  5.43                             133   -0.3110  143 264 
 PTB  HZ I         919  7.00         1.8 0.60            134            143 264 
 SPBC HZ EP   1    918 46.15                             132    0.43 7  151 222 
 SPBC HN ES   1    919  7.38                             132    0.30 7  151 222 
 SPBC HZ I         919 12.26         1.9 0.24            133            151 222 
 ZAR  HZ EP   1    918 51.20                             122   -0.02 7  208 296 
 ZAR  HE ES        919 16.73                             122   -0.15 9  208 296 
 ZAR  HZ I         919 23.74         1.6 0.32            124            208 296 
                                                                                
