 2016  2 1 0514 40.0 L   6.824 -73.182140.4  RSN 21 0.5 2.3LRSN                1
 GAP=131        0.73       2.0     3.5  4.5 -0.1707E+01  0.7573E+01 -0.9781E+00E
 Epicentro: ZAPATOCA - SANTANDER                                               3
 ACTION:UPD 16-03-04 21:22 OP:rebc STATUS:               ID:20160201051440 L   I
 OLDACT:REG 16-02-01 13:28 OP:dnl  STATUS:               ID:20160201050450     3
 2016-02-01-0510-00M.COL___415                                                 6
 STAT SP IPHASW D HRMM SECON CODA AMPLIT PERI AZIMU VELO AIN AR TRES W  DIS CAZ7
 BAR2 EZ EP     C  514 59.20                             169    0.1510 25.6 180 
 BAR2 EZ ES        515 14.15                             169    0.2510 25.6 180 
 BAR2 EZ I         515 16.76        40.4 0.15            162           25.6 180 
 PAM  EZ EP     C  515  2.22                             149    0.5210 78.0  43 
 PAM  EE ES   2    515 18.90                             149    0.28 5 78.0  43 
 PAM  EZ I         515 21.41        28.6 0.49            158           78.0  43 
 RUS  HZ EP     C  515  3.16                             142   -0.3010  104 174 
 RUS  HN ES        515 21.27                             142   -0.4810  104 174 
 RUS  HZ I         515 22.95        24.0 0.22            146            104 174 
 PTB  HZ EP        515  5.70                             131   -0.54 9  144 258 
 PTB  HN ES   2    515 26.92                             131    0.22 5  144 258 
 PTB  HZ I         515 28.71        23.7 0.12            128            144 258 
 OCA  HZ EP        515  7.72                             129    0.10 9  157 354 
 OCA  HN ES        515 29.14                             129   -0.02 9  157 354 
 OCA  HZ I         515 35.99        36.4 0.34            130            157 354 
 SPBC HZ EP        515  7.88                             128   -0.19 9  163 217 
 SPBC HE ES   2    515 30.74                             128    0.79 5  163 217 
 SPBC HZ I         515 37.24        41.2 0.20            128            163 217 
 ZAR  HZ EP        515 11.47                             122   -0.16 9  199 292 
 ZAR  HN ES   2    515 35.73                             122   -0.56 4  199 292 
 ZAR  HZ I         515 47.32        16.1 0.26            120            199 292 
 NOR  HZ EP        515 15.26                             117    0.00 8  233 233 
 NOR  HN ES        515 42.57                             117   -0.18 8  233 233 
 NOR  HZ I         515 51.11        20.6 0.18            118            233 233 
 SML  HZ EP        515 15.52                             117   -0.38 8  240 336 
 SML  HE ES   2    515 44.09                             117    0.19 4  240 336 
 SML  HZ I         515 47.65        31.7 0.08            118            240 336 
 CHI  HZ EP        515 17.38                             116   -0.21 8  250 194 
 CHI  HE ES        515 47.07                             116    0.17 8  250 194 
 CHI  HZ I         515 50.20        12.6 0.39            119            250 194 
 ROSC BZ EP   4    515 19.12                             115    1.25 0  253 210 
 ROSC BE ES   2    515 47.48                             115    0.08 4  253 210 
 ROSC BZ I         515 55.48        19.2 0.37            117            253 210 
 HEL  HZ EP   2    515 20.20                             114    0.60 4  269 255 
 HEL  HE ES   2    515 50.10                             114   -0.38 4  269 255 
 HEL  HZ I         515 58.71        10.7 0.18            114            269 255 
 URE  HZ EP   4    515 19.09                             113   -1.21 0  279 292 
 URE  HE ES   4    515 49.96                             113   -1.77 0  279 292 
 URE  HZ I         516  3.82        14.0 0.17            113            279 292 
 GUY2CHZ EP   2    515 23.52                             111    0.33 4  299 234 
 GUY2CHN ES   2    515 57.69                             111    0.83 4  299 234 
 GUY2CHZ I         516  5.50        10.1 0.26                           299 234 
 ELA  HZ EP   2    515 27.23                             109    0.73 3  328 229 
 ELA  HN ES   2    516  2.83                             109    0.08 3  328 229 
 ELA  HZ I         516 18.46         7.1 0.38            111            328 229 
 CBOC HZ EP        515 27.45                             109    1.08 7  331 251 
 CBOC HN ES   2    516  1.84                             109   -0.69 3  331 251 
 CBOC HZ I         516 20.57         3.9 0.55            110            331 251 
 MON  HZ EP   4    515 26.28                             108   -1.98 0  349 308 
 MON  HN ES   2    516  4.93                             108   -0.96 3  349 308 
 MON  HZ I         516 21.18         4.8 0.32            109            349 308 
 ANIL HZ EP   2    515 30.24                             107    0.73 3  356 224 
 ANIL HN ES   2    516  9.44                             107    1.32 3  356 224 
 PRA  HZ EP   2    515 32.99                             106   -0.40 3  392 209 
 PRA  HN ES   2    516 14.57                             106   -0.46 3  392 209 
 PRA  HZ I         516 19.02         8.0 0.26            108            392 209 
 ORTC HZ EP   2    515 33.37                             105   -0.36 3  395 215 
 ORTC HE ES   2    516 16.06                             105    0.43 3  395 215 
 ORTC HZ I         516 23.18         4.8 0.22            108            395 215 
 PAL  HZ EP   2    515 34.61                             105   -0.15 3  404 238 
 PAL  HN ES   2    516 17.35                             105   -0.11 3  404 238 
 PAL  HZ I         516 23.39         3.5 0.34            107            404 238 
                                                                                
