 2014  4 1 0817 53.1 L   7.562 -73.065156.0  RSN 12 0.5 2.2LRSN                1
 GAP=142        1.09       3.1     4.9  6.4  0.1532E+01  0.1070E+02  0.5801E+01E
 Epicentro: EL PLAYON - SANTANDER                                              3
 ACTION:UPD 14-05-13 23:05 OP:nd   STATUS:               ID:20140401081753 L   I
 OLDACT:REG 14-04-01 13:40 OP:carl STATUS:               ID:20140401081035     3
 2014-04-01-0810-35M.COL___243                                                 6
 STAT SP IPHASW D HRMM SECON CODA AMPLIT PERI AZIMU VELO AIN AR TRES W  DIS CAZ7
 PAM  SZ IP     C  818 15.43                             162    0.4510 47.3 121 
 PAM  SE ES        818 32.02                             162   -0.0410 47.3 121 
 PAM  SZ I         818 35.88        26.9 0.38            167           47.3 121 
 OCA  HZ EP        818 16.48                             152    0.4310 79.9 339 
 OCA  HN ES        818 34.04                             152    0.0710 79.9 339 
 OCA  HZ I         818 36.51        25.0 0.26            153           79.9 339 
 BAR2 SZ EP        818 18.25                             144    0.2410  108 187 
 BAR2 SZ ES        818 37.63                             144    0.1710  108 187 
 BAR2 SZ I         818 39.13        41.8 0.18            144            108 187 
 SML  HZ EP        818 23.25                             129   -0.22 9  176 321 
 SML  HN ES        818 46.32                             129   -0.86 9  176 321 
 SML  HZ I         818 53.04        35.2 0.10            131            176 321 
 RUS  HZ EP        818 24.66                             128   -0.28 9  185 181 
 RUS  HE ES        818 49.03                             128   -0.76 9  185 181 
 RUS  HZ I         818 52.55         4.2 0.14            130            185 181 
 PTB  HZ EP        818 24.88                             127   -0.02 9  191 234 
 PTB  HN ES        818 49.26                             127   -0.47 9  191 234 
 PTB  HZ I         818 54.18        11.4 0.30            127            191 234 
 ZAR  HZ EP        818 25.77                             125    0.17 9  198 268 
 ZAR  HN ES        818 51.39                             125    0.42 9  198 268 
 ZAR  HZ I         818 59.17        14.5 0.22            126            198 268 
 SPBC HZ EP        818 29.67                             120   -0.23 8  239 208 
 SPBC HE ES        818 59.80                             120    1.19 8  239 208 
 SPBC HZ I         819  8.58        11.6 0.30            122            239 208 
 NOR  HZ EP        818 35.88                             114   -0.37 7  298 222 
 NOR  HN ES        819  9.67                             114   -0.26 7  298 222 
 NOR  HZ I         819 19.26         9.2 0.22            116            298 222 
 CHI  HZ EP        818 40.30                             112   -0.32 7  333 193 
 CHI  HN ES        819 17.18                             112   -0.52 7  333 193 
 CHI  HZ I         819 26.69         2.0 0.52            114            333 193 
 GUY2CHZ EP        818 45.21                             110    1.08 6  363 225 
 GUY2CHE ES        819 24.33                             110    0.37 6  363 225 
 GUY2CHZ I         819 38.23         6.0 0.46                           363 225 
 PRA  HZ EP        818 56.12                             105   -0.08 5  471 205 
 PRA  HN ES        819 44.65                             105   -0.79 5  471 205 
 PRA  HZ I         819 55.17         2.4 0.30            106            471 205 
                                                                                
