 2017  9 1 0603 20.7 L   6.984 -72.904180.0  RSN  7 0.5 1.6LRSN                1
 GAP=191        1.07       7.3     6.0  7.2  0.1415E+02 -0.2165E+01 -0.4966E+01E
 Epicentro: SANTA BARBARA - SANTANDER                                          3
 ACTION:UPD 17-10-05 19:08 OP:rebc STATUS:               ID:20170901060320 L   I
 OLDACT:UP  17-09-01 14:54 OP:dani STATUS:               ID:20170901055741     3
 OLDACT:REG 17-09-01 13:05 OP:dani STATUS:               ID:20170901055741     3
 2017-09-01-0558-00M.COL___404                                                 6
 STAT SP IPHASW D HRMM SECON CODA AMPLIT PERI AZIMU VELO AIN AR TRES W  DIS CAZ7
 BAR2 EZ EP        6 3 45.08                             163   -0.1310 53.1 215 
 BAR2 EZ ES        6 4  4.15                             163   -0.2010 53.1 215 
 BAR2 EZ I         6 4  6.88         4.5 0.44            163           53.1 215 
 BRR  HZ EP        6 3 46.62                             152    0.0210 90.3 279 
 BRR  HN ES        6 4  7.11                             152    0.2910 90.3 279 
 BRR  HZ I         6 4  8.13         5.2 0.34            153           90.3 279 
 RUS  HZ EP        6 3 49.19                             145   -0.1710  122 189 
 RUS  HN ES        6 4 12.12                             145    0.3910  122 189 
 RUS  HZ I         6 4 13.14         3.7 0.30            145            122 189 
 TAM  HZ EP        6 3 49.74                             141   -0.09 9  137 116 
 ZAR  HZ EP        6 3 56.82                             127   -0.57 8  223 285 
 ZAR  HN ES        6 4 26.25                             127    0.23 8  223 285 
 ZAR  HZ I         6 4 27.59         4.3 0.12            128            223 285 
 NOR  HZ EP        6 4  2.09                             121    0.06 8  268 234 
 NOR  HE ES        6 4 33.38                             121   -0.90 8  268 234 
 NOR  HZ I         6 4 35.77         3.3 0.44            122            268 234 
 GUY2CHZ EP        6 4 11.09                             116    1.38 7  335 235 
 GUY2CHZ I         6 4 54.11         1.7 0.48                           335 235 
                                                                                
