 2016  6 1 0738 15.0 L   6.879 -73.280120.0  RSN 11 0.4 2.0LRSN                1
 GAP=108        0.87       2.6     2.5  4.6 -0.1466E+00  0.1609E+01  0.1203E+01E
 Epicentro: BETULIA - SANTANDER                                                3
 ACTION:UPD 16-07-21 22:14 OP:rebc STATUS:               ID:20160601073815 L   I
 OLDACT:REG 16-06-01 13:48 OP:edw  STATUS:               ID:20160601073742     3
 2016-06-01-0737-42M.COL___304                                                 6
 STAT SP IPHASW D HRMM SECON CODA AMPLIT PERI AZIMU VELO AIN AR TRES W  DIS CAZ7
 BAR2 EZ IP        738 32.14                             164    0.3010 33.4 161 
 BAR2 EZ ES        738 45.22                             164    0.2410 33.4 161 
 BRR  HZ EP        738 32.65                             154    0.2510 54.0 298 
 BRR  HN ES        738 46.19                             154    0.2210 54.0 298 
 BRR  HZ I         738 47.44        31.9 0.12                          54.0 298 
 RUS  HZ EP        738 37.23                             135    0.0210  111 169 
 RUS  HN ES        738 54.38                             135   -0.1610  111 169 
 RUS  HZ I         738 55.80        17.5 0.26                           111 169 
 PTB  HZ EP        738 38.13                             128   -0.66 9  135 254 
 PTB  HN ES        738 57.52                             128    0.17 9  135 254 
 PTB  HZ I         738 59.50        18.2 0.18                           135 254 
 OCA  HZ EP        738 40.09                             125   -0.37 9  150 358 
 OCA  HN ES        739  0.12                             125   -0.19 9  150 358 
 SPBC HZ EP        738 41.72                             123    0.23 9  162 213 
 SPBC HN ES        739  1.50                             123   -0.65 9  162 213 
 SPBC HZ I         739  6.34        20.2 0.40                           162 213 
 TAM  HZ EP        738 42.97                             121    0.49 9  172 106 
 TAM  HE ES        739  3.46                             121   -0.46 9  172 106 
 TAM  HZ I         739  5.40        19.4 0.22                           172 106 
 CHI  HZ EP        738 51.84                             111   -0.14 8  254 191 
 CHI  HN ES        739 21.10                             111    0.27 8  254 191 
 CHI  HZ I         739 28.03         4.6 0.24                           254 191 
 HEL  HZ EP        738 53.16                             110    0.50 8  260 253 
 HEL  HN ES        739 21.66                             110   -0.38 8  260 253 
 HEL  HZ I         739 27.25         6.0 0.24                           260 253 
 URE  HE ES   4    739 20.57                             109   -2.06 0  267 291 
 URE  HZ I         739 30.67         8.3 0.16                           267 291 
 CBOC HZ EP        739  0.11                             105    0.45 7  322 250 
 CBOC HN ES        739 34.55                             105    0.05 7  322 250 
 CBOC HZ I         739 36.91         2.7 0.26                           322 250 
                                                                                
