 2011  1 1 0731 27.1 L   6.833 -73.351135.9  RSN  4 0.2 1.4LRSN                1
 GAP=197        0.47       3.3    22.1  9.3  0.3967E+02  0.4922E+01 -0.1020E+02E
 Epicentro: ZAPATOCA - SANTANDER                                               3
 ACTION:UP  11-02-08 08:37 OP:pat  STATUS:               ID:20110101073127 L   I
 2011-01-01-0720-00M.COL___137                                                 6
 STAT SP IPHASW D HRMM SECON CODA AMPLIT PERI AZIMU VELO SNR AR TRES W  DIS CAZ7
 BAR2 SZ EP   2    731 46.07                             166     0.3 5   33 145 
 BAR2 SZ I         732  1.92         6.2 0.31                            33 145 
 RUS  HZ EP   1    731 50.59                             139     0.1 7  108 164 
 RUS  HN ES   1    732  8.55                             139    -0.2 7  108 164 
 RUS  HZ I         732  9.63         2.6 0.20                           108 164 
 GRA  SZ EP   1    731 51.95                             133     0.0 7  131  27 
 GRA  SZ I         732 12.84         3.3 0.14                           131  27 
 OCA  SZ EP   1    731 53.93                             128    -0.2 7  155   1 
 OCA  SZ ES   1    732 15.40                             128     0.1 7  155   1 
 OCA  SZ I         732 23.82         4.0 0.51                           155   1 
                                                                                
