 2014  2 1 0909 36.6 L   6.790 -73.145138.3  RSN  9 0.5 1.7LRSN                1
 GAP=137        1.27       3.5     6.4  7.7 -0.4883E+01  0.1694E+02  0.4406E+00E
 Epicentro: LOS SANTOS - SANTANDER                                             3
 ACTION:UPD 14-03-10 08:06 OP:ep   STATUS:               ID:20140201090936 L   I
 OLDACT:REG 14-02-01 08:01 OP:stll STATUS:               ID:20140201090806     3
 2014-02-01-0908-06M.COL___231                                                 6
 STAT SP IPHASW D HRMM SECON CODA AMPLIT PERI AZIMU VELO AIN AR TRES W  DIS CAZ7
 BAR2 SZ EP        9 9 55.71                             170    0.3910 22.2 191 
 BAR2 SZ ES        910  9.62                             170   -0.3010 22.2 191 
 BAR2 SZ I         910 11.39        19.6 0.20            170           22.2 191 
 PAM  SZ EP        9 9 58.64                             149    0.5510 78.2  39 
 PAM  SZ I         9 9 58.94        15.3 0.20            150           78.2  39 
 PAM  SN ES        910 15.22                             149    0.3810 78.2  39 
 RUS  HZ EP        9 9 59.76                             142    0.2110 99.4 176 
 RUS  HZ I         910  0.74         5.0 0.12            143           99.4 176 
 RUS  HN ES        910 17.23                             142   -0.2210 99.4 176 
 PTB  HZ EP        910  3.55                             130    0.58 9  148 259 
 PTB  HN ES        910 24.19                             130    0.67 9  148 259 
 OCA  HN ES        910 25.00                             128   -1.18 9  161 353 
 SPBC HZ EP        910  4.30                             127   -0.17 9  162 219 
 SPBC HN ES        910 26.25                             127    0.06 9  162 219 
 SPBC HZ I         910 30.38         5.0 0.16            127            162 219 
 SML  HZ EP        910 12.69                             116   -0.26 8  245 335 
 SML  HN ES        910 41.06                             116   -0.23 8  245 335 
 SML  HZ I         910 45.20         7.9 0.28            116            245 335 
 CHI  HZ EP        910 14.08                             116    0.29 8  248 195 
 CHI  HZ I         910 16.44         1.7 0.28            116            248 195 
 CHI  HN ES        910 41.63                             116   -1.16 8  248 195 
 PRA  HZ EP        910 29.88                             105    0.11 6  391 210 
 PRA  HN ES        911 10.62                             105   -0.62 6  391 210 
                                                                                
