 2017 11 1 0658 38.9 L   6.796 -73.132140.6  RSN 25 0.5 2.6LRSN                1
 GAP= 67        0.93       2.7     2.8  4.2  0.6183E+00  0.2390E+01  0.2572E+01E
 Epicentro: LOS SANTOS - SANTANDER                                             3
 ACTION:UPD 17-12-12 19:50 OP:rebc STATUS:               ID:20171101065838 L   I
 OLDACT:UP  17-11-01 18:37 OP:dnl  STATUS:               ID:20171101064740d    3
 OLDACT:UP  17-11-01 18:37 OP:dnl  STATUS:               ID:20171101064740d    3
 OLDACT:UP  17-11-01 18:36 OP:dnl  STATUS:               ID:20171101064740d    3
 OLDACT:DUP 17-11-01 17:35 OP:dnl  STATUS:               ID:20171101064740d    3
 2017-11-01-0648-00M.COL___420                                                 6
 STAT SP IPHASW D HRMM SECON CODA AMPLIT PERI AZIMU VELO AIN AR TRES W  DIS CAZ7
 BAR2 EZ IP     C  658 57.71                             170   -0.2210 23.2 194 
 BAR2 EZ ES        659 12.46                             170   -0.3010 23.2 194 
 BAR2 EZ I         659 13.71       211.0 0.18            167           23.2 194 
 BRR  HZ IP     D  658 59.64                             151    0.0410 72.7 298 
 BRR  HN ES        659 16.38                             151    0.6410 72.7 298 
 BRR  HZ I         659 19.73        64.3 0.20            147           72.7 298 
 PAM  EZ IP     D  659  0.63                             150    0.0810 76.8  38 
 PAM  EN ES        659 17.38                             150   -0.0510 76.8  38 
 PAM  EZ I         659 19.70        56.3 0.46            149           76.8  38 
 RUS  HZ IP     C  659  1.62                             143   -0.5110  100 177 
 RUS  HN ES        659 19.89                             143   -0.3410  100 177 
 RUS  HZ I         659 21.15        44.0 0.40            139            100 177 
 PTB  HZ EP   9    659  4.39                             130   -1.21 0  149 259 
 PTB  HN ES        659 25.08                             131   -0.12 9  149 259 
 PTB  HZ I         659 28.58        49.3 0.12            126            149 259 
 TAM  HZ EP        659  5.90                             130   -0.15 9  154 105 
 TAM  HZ I         659 26.56        17.3 0.44            127            154 105 
 TAM  HN ES        659 27.41                             130    0.21 9  154 105 
 SPBC HZ EP        659  6.67                             128   -0.42 9  164 219 
 SPBC HE ES        659 28.60                             128   -0.46 9  164 219 
 SPBC HZ I         659 29.95        45.7 0.30            123            164 219 
 YPLC HZ IP     C  659  8.14                             125   -0.09 9  176 152 
 YPLC HN ES        659 31.66                             125    0.56 9  176 152 
 YPLC HZ I         659 34.53        52.9 0.28            122            176 152 
 ZAR  HZ EP   2    659 11.22                             121    0.02 4  206 292 
 ZAR  HN ES        659 36.52                             121    0.15 8  206 292 
 ZAR  HZ I         659 41.75        60.2 0.52            117            206 292 
 TABC EZ EP        659 15.29                             118    0.88 8  230 211 
 TABC EZ ES   4    659 44.52                             118    2.43 0  230 211 
 TABC EZ I         659 50.21        29.7 0.40            114            230 211 
 NOR  HZ EP        659 13.71                             117   -0.75 8  236 235 
 NOR  HN ES   4    659 41.17                             117   -1.01 0  236 235 
 NOR  HZ I         659 48.90        21.5 0.18            114            236 235 
 CHI  HZ EP        659 16.02                             116   -0.31 8  249 196 
 CHI  HE ES   4    659 46.82                             116    1.30 0  249 196 
 CHI  HZ I         659 52.00        12.7 0.60            113            249 196 
 ROSC BZ EP        659 17.56                             115    0.75 8  253 211 
 ROSC BN ES   4    659 50.69                             115    4.33 0  253 211 
 ROSC BZ I         659 54.70        27.9 0.40            112            253 211 
 URE  HZ EP   4    659 22.33                             112    2.41 0  285 292 
 URE  HN ES   4    659 50.44                             112   -1.46 0  285 292 
 URE  HZ I         7 0  3.22        23.8 0.24            109            285 292 
 GUY2CHZ EP        659 23.01                             111    0.61 7  302 235 
 GUY2CHN ES   4    659 58.97                             111    2.65 0  302 235 
 GUY2CHZ I         7 0  2.78        12.9 0.26                           302 235 
 VIL  EZ EP   2    659 21.31                             111   -0.78 4  303 192 
 VIL  EE ES        659 56.18                             111    0.41 7  303 192 
 VIL  EZ I         7 0  1.49        23.0 0.48            108            303 192 
 PTGC HZ EP   4    659 21.02                             111   -1.42 0  308 159 
 PTGC HN ES   4    659 54.06                             111   -2.33 0  308 159 
 PTGC HZ I         659 56.11        19.6 0.22            108            308 159 
 ELA  HZ EP   2    659 26.31                             109    0.65 3  330 230 
 ELA  HN ES   4    659 59.93                             109   -2.18 0  330 230 
 ELA  HZ I         7 0 11.33        13.4 0.60            106            330 230 
 DBB  EZ EP   2    659 25.90                             108   -0.47 3  341 274 
 DBB  EN ES   4    7 0  1.68                             108   -1.70 0  341 274 
 DBB  EZ I         7 0  4.77        13.2 0.16            105            341 274 
 ANIL HZ EP   4    659 29.70                             107    1.08 0  358 225 
 ANIL HN ES   4    7 0  9.90                             107    2.52 0  358 225 
 ANIL HZ I         7 0 18.09        33.6 0.30            105            358 225 
 ARGC HZ EP   2    659 28.30                             107   -0.19 3  360 340 
 ARGC HE ES        7 0  7.14                             107   -0.01 6  360 340 
 ARGC HZ I         7 0 11.86         6.8 0.50            105            360 340 
 PRA  HZ EP   2    659 31.24                             105   -1.07 3  392 210 
 PRA  HN ES   4    7 0 12.78                             105   -1.17 0  392 210 
 PRA  HZ I         7 0 21.16        18.1 0.38            103            392 210 
 ORTC HZ EP        659 32.75                             105    0.02 6  396 216 
 ORTC HN ES        7 0 15.34                             105    0.64 6  396 216 
 ORTC HZ I         7 0 21.15        10.9 0.32            103            396 216 
 APAC HZ EP   2    659 32.35                             105   -0.77 3  400 288 
 APAC HN ES   4    7 0 16.12                             105    0.72 0  400 288 
 APAC HZ I         7 0 21.90         8.5 0.36            103            400 288 
 SJC  HZ EP   4    659 32.78                             105   -1.67 0  410 327 
 SJC  HN ES   4    7 0 13.69                             105   -4.08 0  410 327 
 SJC  HZ I         7 0 18.15        18.7 0.48            102            410 327 
                                                                                
