 2016 12 1 0327 12.5 L   6.794 -73.123144.8  RSN 23 0.7 2.9LRSN                1
 GAP= 67        1.02       3.8     2.9  5.3  0.5952E+00  0.5127E+01  0.8729E+01E
 Epicentro: LOS SANTOS - SANTANDER                                             3
 ACTION:UPD 17-01-11 20:11 OP:rebc STATUS:               ID:20161201032712 L   I
 OLDACT:UP  16-12-01 14:52 OP:dani STATUS:               ID:20161201031743     3
 OLDACT:REG 16-12-01 12:54 OP:dani STATUS:               ID:20161201031743     3
 2016-12-01-0318-00M.COL___336                                                 6
 STAT SP IPHASW D HRMM SECON CODA AMPLIT PERI AZIMU VELO AIN AR TRES W  DIS CAZ7
 BAR2 EZ EP     C  327 31.95                             170   -0.0610 23.2 196 
 BAR2 EZ ES        327 46.62                             170   -0.6110 23.2 196 
 BAR2 EZ I         327 49.33       227.8 0.44            163           23.2 196 
 BRR  HZ EP     C  327 33.87                             151    0.1910 73.7 298 
 BRR  HE ES        327 50.77                             151    0.5510 73.7 298 
 BRR  HZ I         327 55.75       156.3 0.46            154           73.7 298 
 PAM  EZ EP     C  327 34.81                             151    0.2610 76.4  38 
 PAM  EN ES        327 51.76                             151    0.0110 76.4  38 
 PAM  EZ I         327 54.08       359.9 0.66            163           76.4  38 
 PTB  HZ EP        327 38.62                             131   -0.97 9  150 259 
 PTB  HN ES   3    327 59.64                             131   -1.09 2  150 259 
 PTB  HZ I         328  2.01       109.3 0.14            133            150 259 
 TAM  HZ EP     C  327 40.27                             131    0.42 9  153 105 
 TAM  HE ES        328  1.24                             131    0.04 9  153 105 
 TAM  HZ I         328  2.74        57.7 0.40            137            153 105 
 ZAR  HZ EP        327 45.38                             122    0.24 8  207 292 
 ZAR  HN ES        328 10.77                             122    0.16 8  207 292 
 ZAR  HZ I         328 16.24       138.2 0.42            127            207 292 
 NOR  HZ EP     C  327 48.63                             118    0.29 8  236 235 
 NOR  HN ES        328 16.71                             118    0.41 8  236 235 
 NOR  HZ I         328 17.87        72.7 0.12            121            236 235 
 CHI  HZ EP        327 50.22                             117    0.09 8  249 196 
 CHI  HE ES   3    328 18.07                             117   -1.43 2  249 196 
 CHI  HZ I         328 26.41        23.3 0.52            119            249 196 
 ROSC BZ EP   2    327 51.71                             116    1.08 4  253 212 
 ROSC BE ES   2    328 20.09                             116   -0.30 4  253 212 
 ROSC BZ I         328 29.76        62.9 0.40            119            253 212 
 URE  HZ EP   3    327 52.30                             113   -1.50 2  286 292 
 URE  HE ES   3    328 23.23                             113   -2.80 2  286 292 
 URE  HZ I         328 25.88       127.5 0.12            118            286 292 
 PTGC HZ EP        327 55.18                             111   -0.95 7  307 159 
 PTGC HE ES   4    328 27.83                             111   -2.33 0  307 159 
 PTGC HZ I         328 30.74        62.7 0.36            115            307 159 
 LL6C HZ EP   9    327 37.44                             110   -20.8 0  326 357 
 LL6C HE ES        328 12.40                                   -0.73 7  326 357 
 LL6C HZ I         328 14.52        15.3 0.55            116            326 357 
 ELA  HZ EP   3    328  1.20                             110    1.73 2  331 230 
 ELA  HN ES   3    328 39.88                             110    3.77 2  331 230 
 ELA  HZ I         328 45.47        30.0 0.66            113            331 230 
 CBOC HZ EP        328  0.14                             110    0.53 7  336 252 
 CBOC HN ES        328 37.08                             110    0.71 7  336 252 
 CBOC HZ I         328 41.15        16.5 0.20            113            336 252 
 DBB  EZ EP        328  0.24                             109    0.02 7  342 274 
 DBB  HN ES        328 36.42                             109   -1.03 7  342 274 
 ANIL HZ EP   9    328  3.55                             108    1.15 0  359 225 
 ANIL HE ES        328 42.79                             108    0.31 6  359 225 
 PRA  HZ EP        328  5.26                             106   -0.79 6  393 210 
 PRA  HN ES        328 47.86                             106    0.03 6  393 210 
 PRA  HZ I         328 53.90        39.2 0.24            109            393 210 
 ORTC HZ EP        328  6.38                             106   -0.10 6  396 217 
 ORTC HN ES        328 48.87                             106    0.27 6  396 217 
 ORTC HZ I         328 55.15        24.1 0.38            109            396 217 
 PAL  HZ EP     D  328  8.32                             106    0.49 6  407 239 
 PAL  HN ES        328 50.65                             106   -0.34 6  407 239 
 PAL  HZ I         328 53.66        17.4 0.34            108            407 239 
 SJC  HZ EP   4    328  6.31                             105   -1.94 0  411 327 
 SJC  HN ES   4    328 48.07                             105   -3.68 0  411 327 
 SJC  HZ I         328 55.99        17.0 0.34            110            411 327 
 LCBC HZ EP   4    328  6.83                             105   -2.89 0  424 303 
 LCBC HN ES        328 53.92                             105   -0.44 5  424 303 
 YOT  HZ EP        328 15.31                             103   -0.37 5  473 229 
 MACC HZ EP   4    328 19.11                             101   -2.03 0  520 189 
 BBAC HZ EP        328 43.56                              98    0.74 1  698 221 
                                                                                
