 2011  5 1 0612 33.9 L   6.776 -73.091149.2  RSN  6 0.2 1.5LRSN                1
 GAP=145        0.59       3.4     5.5  5.8 -0.4433E+01  0.4977E+01 -0.8621E-01E
 Epicentro: LOS SANTOS - SANTANDER                                             3
 ACTION:UP  11-06-29 08:50 OP:tino STATUS:               ID:20110501061233 L   I
 2011-05-01-0610-18S.COL___128                                                 6
 STAT SP IPHASW D HRMM SECON CODA AMPLIT PERI AZIMU VELO SNR AR TRES W  DIS CAZ7
 BAR2 SZ EP   1    612 53.87                             171     0.0 7   23 206 
 BAR2 SZ I         613 11.92         6.6 0.24                            23 206 
 PAM  SZ EP   1    612 56.74                             152     0.4 7   76  35 
 PAM  SE ES        613 14.00                             152     0.110   76  35 
 BRR  HZ EP        612 55.86                             151     0.110   78 298 
 BRR  HN ES   1    613 12.97                             151     0.1 7   78 298 
 BRR  HZ I         613 15.52         8.1 0.09                            78 298 
 RUS  HZ EP   1    612 57.78                             145     0.0 7   98 179 
 RUS  HN ES   1    613 16.19                             145    -0.2 7   98 179 
 RUS  HZ I         613 17.83         2.5 0.13                            98 179 
 GRA  SZ EP   1    612 59.68                             137     0.2 7  127  15 
 GRA  SZ ES   1    613 19.19                             137    -0.3 7  127  15 
 GRA  SZ I         613 20.48         5.9 0.20                           127  15 
 OCA  SZ EP   1    613  2.31                             130    -0.5 7  164 351 
 OCA  SZ I         613 29.29         4.4 0.28                           164 351 
                                                                                
