 2015  7 1 0954 14.9 L   6.811 -73.142148.8  RSN  9 0.4 2.0LRSN                1
 GAP=183        0.78       2.8     5.0  6.7  0.6533E+00  0.1149E+02 -0.4073E+01E
 Epicentro: LOS SANTOS - SANTANDER                                             3
 ACTION:UPD 15-09-08 21:46 OP:cam  STATUS:               ID:20150701095415 L   I
 OLDACT:REG 15-07-01 14:46 OP:ar   STATUS:               ID:20150701094748     3
 2015-07-01-0947-48M.COL___313                                                 6
 STAT SP IPHASW D HRMM SECON CODA AMPLIT PERI AZIMU VELO AIN AR TRES W  DIS CAZ7
 BAR2 EZ EP     D  954 34.96                             170    0.0010 24.6 190 
 BAR2 EZ ES   1    954 50.24                             170   -0.34 7 24.6 190 
 BAR2 EZ I         954 52.61        13.4 0.24            168           24.6 190 
 RUS  HZ EP   1    954 38.91                             144   -0.16 7  102 176 
 RUS  HE ES        954 57.86                             144   -0.0410  102 176 
 RUS  HZ I         955  0.24         5.7 0.26            146            102 176 
 OCA  HZ EP   1    954 43.38                             130   -0.00 7  159 353 
 OCA  HE ES        955  6.21                             130    0.64 9  159 353 
 OCA  HZ I         955  9.08        30.0 0.12            132            159 353 
 ZAR  HZ EP   1    954 46.93                             123   -0.65 6  204 292 
 ZAR  HE ES        955 13.38                             123    0.34 9  204 292 
 ZAR  HZ I         955 19.49        15.7 0.40            123            204 292 
 NOR  HZ EP   1    954 51.23                             119    0.28 6  236 234 
 NOR  HE ES        955 19.12                             119    0.07 8  236 234 
 NOR  HZ I         955 24.50         7.1 0.28            120            236 234 
 SML  HZ EP        954 51.32                             118   -0.32 8  243 335 
 SML  HE ES        955 19.79                             118   -0.47 8  243 335 
 SML  HZ I         955 24.30        12.7 0.10            120            243 335 
 GUY2CHE ES   4    955 35.01                             113    1.99 0  302 235 
 GUY2CHZ I         955 41.61         4.0 0.58                           302 235 
 MON  HZ EP   4    955  2.12                             109   -1.89 0  353 308 
 MON  HN ES   4    955 41.06                             109   -1.23 0  353 308 
 MON  HZ I         955 45.41         1.7 0.30            110            353 308 
 PRA  HZ EP   1    955  9.48                             107    0.77 4  393 210 
 PRA  HE ES   4    955 52.13                             107    1.48 0  393 210 
 PRA  HZ I         955 55.75         1.7 0.22            108            393 210 
                                                                                
