 2016 11 1 0217 12.3 L   6.832 -73.149150.4  RSN  4 0.4 1.3LRSN                1
 GAP=135        0.96       5.5     5.1  8.4 -0.3447E+01  0.3523E+01  0.6967E+01E
 Epicentro: LOS SANTOS - SANTANDER                                             3
 ACTION:UPD 17-10-26 21:03 OP:lp   STATUS:               ID:20161101021712 L   I
 OLDACT:REG 16-11-01 12:14 OP:dani STATUS:               ID:20161101020746     3
 2016-11-01-0208-00M.COL___313                                                 6
 STAT SP IPHASW D HRMM SECON CODA AMPLIT PERI AZIMU VELO AIN AR TRES W  DIS CAZ7
 BRR  HZ EP        217 34.08                             154    0.2110 69.3 296 
 BRR  HN ES        217 51.20                             154    0.5210 69.3 296 
 BRR  HZ I         217 55.37         4.5 0.12            157           69.3 296 
 PAM  EZ EP        217 35.15                             152    0.2510 75.0  41 
 PAM  EN ES        217 51.99                             152   -0.5210 75.0  41 
 PAM  EZ I         217 53.99         5.1 0.52            158           75.0  41 
 RUS  HZ EP        217 37.06                             144    0.2710  104 176 
 RUS  HN ES        217 55.84                             144   -0.0310  104 176 
 RUS  HZ I         218  0.68         1.1 0.33            146            104 176 
 PTB  HZ EP        217 39.17                             133   -0.54 9  148 257 
 PTB  HN ES        218  0.79                             133   -0.27 9  148 257 
 PTB  HZ I         218  3.07         4.2 0.12            136            148 257 
                                                                                
