 2013  5 1 0254 37.6 L   6.810 -73.174142.2  RSN  9 0.4 1.8LRSN                1
 GAP=132        1.05       3.5     5.0  6.4 -0.3862E+01  0.1165E+02 -0.1649E+01E
 Epicentro: LOS SANTOS - SANTANDER                                             3
 ACTION:UPD 13-06-20 09:47 OP:ep   STATUS:               ID:20130501025437 L   I
 2013-05-01-0250-00M.COL___253                                                 6
 STAT SP IPHASW D HRMM SECON CODA AMPLIT PERI AZIMU VELO AIN AR TRES W  DIS CAZ7
 BAR2 SZ EP     D  254 56.74                             170   -0.0610 24.0 182 
 BAR2 SZ ES        255 11.30                             170   -0.4910 24.0 182 
 BAR2 SZ I         255 12.93        16.3 0.36            172           24.0 182 
 GIR2 SZ EP        254 56.89                             168    0.1010 29.8 356 
 GIR2 SZ ES        255 12.29                             168    0.5210 29.8 356 
 GIR2 SZ I         255 14.04        11.8 0.30            166           29.8 356 
 BRR  HZ IP     C  254 58.65                             153    0.4910 67.9 299 
 BRR  HN ES   1    255 15.21                             153    1.00 7 67.9 299 
 BRR  HZ I         255 18.95         9.9 0.28            152           67.9 299 
 PAM  SZ IP     C  254 59.81                             150    0.3110 78.7  42 
 PAM  SN ES        255 16.48                             150   -0.1110 78.7  42 
 PAM  SZ I         255 18.92        13.4 0.62            152           78.7  42 
 RUS  HZ EP   1    255  1.41                             143    0.32 7  102 174 
 RUS  HN ES        255 18.95                             143   -0.4610  102 174 
 RUS  HZ I         255 21.33         4.6 0.40            146            102 174 
 PTB  HZ EP        255  3.47                             132   -0.53 9  145 258 
 PTB  HN ES        255 24.43                             132   -0.17 9  145 258 
 PTB  HZ I         255 27.19         9.5 0.12            133            145 258 
 OCA  HN ES        255 26.78                             129   -0.47 9  159 354 
 NOR  HZ EP        255 13.45                             118    0.55 8  233 234 
 NOR  HN ES        255 40.45                             118    0.01 8  233 234 
 NOR  HZ I         255 42.52         5.6 0.22            120            233 234 
 SML  HZ EP   1    255 13.53                             117   -0.24 6  241 336 
 SML  HN ES        255 41.50                             117   -0.49 8  241 336 
 SML  HZ I         255 47.85         8.1 0.26            118            241 336 
                                                                                
