 2017 11 1 0620 57.3 L   6.812 -73.173142.4  RSN 10 0.3 1.5LRSN                1
 GAP=109        0.69       3.0     3.0  4.9 -0.9038E+00  0.1277E+01  0.1619E+01E
 Epicentro: LOS SANTOS - SANTANDER                                             3
 ACTION:UPD 17-12-12 19:50 OP:rebc STATUS:               ID:20171101062057 L   I
 OLDACT:UP  17-11-01 17:17 OP:dnl  STATUS:               ID:20171101061737     3
 OLDACT:UP  17-11-01 17:16 OP:dnl  STATUS:               ID:20171101061737     3
 OLDACT:UP  17-11-01 17:14 OP:dnl  STATUS:               ID:20171101061737     3
 OLDACT:UP  17-11-01 17:13 OP:dnl  STATUS:               ID:20171101061737     3
 OLDACT:REG 17-11-01 14:06 OP:dnl  STATUS:               ID:20171101061737     3
 2017-11-01-0618-00M.COL___420                                                 6
 STAT SP IPHASW D HRMM SECON CODA AMPLIT PERI AZIMU VELO AIN AR TRES W  DIS CAZ7
 BAR2 EZ EP        621 16.33                             170   -0.1710 24.3 182 
 BAR2 EZ ES        621 31.19                             170   -0.3210 24.3 182 
 BAR2 EZ I         621 32.52        10.8 0.30            167           24.3 182 
 BRR  HZ EP        621 18.24                             153    0.3910 67.9 299 
 BRR  HN ES   4    621 35.17                             153    1.25 0 67.9 299 
 BRR  HZ I         621 39.23         6.7 0.30            148           67.9 299 
 PAM  EZ EP        621 19.20                             150    0.0310 78.3  42 
 PAM  EN ES        621 36.31                             150    0.0510 78.3  42 
 PAM  EZ I         621 37.03         4.0 0.22            155           78.3  42 
 RUS  HZ EP        621 20.50                             143   -0.2910  102 174 
 RUS  HN ES        621 39.12                             143   -0.0310  102 174 
 RUS  HZ I         621 39.93         2.7 0.26            143            102 174 
 PTB  HZ EP   2    621 23.20                             132   -0.50 5  145 258 
 PTB  HE ES        621 44.76                             132    0.43 9  145 258 
 PTB  HZ I         621 50.68         2.9 0.42            129            145 258 
 SPBC HZ EP        621 25.28                             128   -0.14 9  162 218 
 SPBC HN ES        621 47.17                             128   -0.21 9  162 218 
 SPBC HZ I         621 51.70         6.6 0.20            127            162 218 
 YPLC HZ EP   2    621 26.76                             125   -0.31 4  179 151 
 YPLC HE ES        621 50.89                             125    0.57 9  179 151 
 YPLC HZ I         621 52.14         2.2 0.32            128            179 151 
 ZAR  HZ EP   9    621 27.30                             122   -1.84 0  201 292 
 ZAR  HN ES        621 52.04                             123   -0.13 9  201 292 
 ZAR  HZ I         621 59.49         5.4 0.24            121            201 292 
 NOR  HZ EP   2    621 32.49                             118   -0.12 4  233 234 
 NOR  HN ES   4    621 59.59                             118   -0.60 0  233 234 
 NOR  HZ I         622 10.06         2.0 0.34            117            233 234 
 GUY2CHZ EP   4    621 41.98                             112    1.46 0  300 234 
 GUY2CHE ES   4    622 18.53                             112    4.27 0  300 234 
 GUY2CHZ I         622 22.56         2.5 0.34                           300 234 
                                                                                
