 2012  5 1 0828 19.8 L   6.720 -73.175155.7  RSN  4 0.3 1.3LRSN                1
 GAP=228        0.59       6.8     8.5  6.9  0.3506E+02  0.4675E+01 -0.1311E+01E
 Epicentro: VILLANUEVA - SANTANDER                                             3
 ACTION:UP  12-07-05 12:01 OP:pat  STATUS:               ID:20120501082819 L   I
 2012-05-01-0820-00M.COL___189                                                 6
 STAT SP IPHASW D HRMM SECON CODA AMPLIT PERI AZIMU VELO SNR AR TRES W  DIS CAZ7
 BAR2 SZ ES   2    828 56.17                             175    -0.5 5   14 183 
 BRR  HZ EP        828 42.33                             154     0.210   73 306 
 BRR  HZ I         828 42.50         8.0 0.14                            73 306 
 BRR  HE ES   1    828 59.60                             154     0.0 7   73 306 
 RUS  HZ EP   1    828 44.01                             148     0.0 7   92 174 
 RUS  HZ I         829  2.86         2.9 0.56                            92 174 
 RUS  HE ES   1    829  2.89                             148     0.1 7   92 174 
 PTB  HZ EP   1    828 46.75                             135    -0.4 7  143 262 
 PTB  HE ES   2    829  8.83                             135     0.3 5  143 262 
 PTB  HZ I         829  9.24         1.0 0.42                           143 262 
                                                                                
