 2017  4 1 0552 14.1 L   6.786 -73.170143.6  RSN  8 0.4 1.5LRSN                1
 GAP=134        0.95       3.7     3.8  5.7 -0.1690E+01  0.6516E+01  0.1326E+01E
 Epicentro: LOS SANTOS - SANTANDER                                             3
 ACTION:UPD 17-05-30 21:07 OP:jn   STATUS:               ID:20170401055214 L   I
 OLDACT:REG 17-04-01 13:21 OP:lv   STATUS:               ID:20170401054742     3
 2017-04-01-0548-00M.COL___362                                                 6
 STAT SP IPHASW D HRMM SECON CODA AMPLIT PERI AZIMU VELO AIN AR TRES W  DIS CAZ7
 BAR2 EZ EP        552 33.34                             171   -0.0910 21.5 184 
 BAR2 EZ ES        552 48.33                             171   -0.1810 21.5 184 
 BAR2 EZ I         552 49.32         7.9 0.16            169           21.5 184 
 BRR  HZ EP        552 34.96                             153    0.0410 69.6 301 
 BRR  HN ES        552 51.88                             153    0.7210 69.6 301 
 PAM  EZ EP        552 36.15                             149   -0.1110 80.3  40 
 PAM  EN ES        552 53.31                             149   -0.2310 80.3  40 
 PAM  EZ I         552 55.51         6.6 0.47            154           80.3  40 
 RUS  HZ EP        552 37.58                             144    0.0410 99.3 174 
 RUS  HN ES        552 56.01                             144    0.1910 99.3 174 
 RUS  HZ I         552 57.11         4.4 0.34            144           99.3 174 
 PTB  HZ EP        552 40.08                             132   -0.54 9  145 259 
 PTB  HN ES        553  0.47                             132   -0.84 9  145 259 
 PTB  HZ I         553  3.30         2.9 0.19            131            145 259 
 SPBC HZ EP        552 42.48                             129    0.33 9  160 219 
 SPBC HN ES        553  4.16                             129    0.12 9  160 219 
 SPBC HZ I         553 10.56         3.8 0.10            129            160 219 
 ZAR  HZ EP        552 46.78                             122    0.58 9  202 293 
 ZAR  HN ES        553 11.24                             122   -0.00 9  202 293 
 ZAR  HZ I         553 17.12         3.8 0.23            122            202 293 
 NOR  HZ EP        552 49.21                             118   -0.15 8  232 234 
 NOR  HN ES        553 17.05                             118    0.17 8  232 234 
 NOR  HZ I         553 24.13         2.0 0.11            119            232 234 
                                                                                
