 2011  4 1 0107 10.3 L   6.789 -73.101145.1  RSN 13 0.4 2.5LRSN                1
 GAP=119        0.89       3.8     5.9  5.3 -0.5271E+01  0.1462E+01  0.7191E+01E
 Epicentro: LOS SANTOS - SANTANDER                                             3
 ACTION:UP  11-06-22 15:27 OP:REBC STATUS:               ID:20110401010710 L   I
 2011-04-01-0102-16S.COL___137                                                 6
 STAT SP IPHASW D HRMM SECON CODA AMPLIT PERI AZIMU VELO SNR AR TRES W  DIS CAZ7
 BTL  SZ IP        1 7 29.82                             170     0.010   23 308 
 BTL  SZ ES   1    1 7 45.36                             170     0.3 7   23 308 
 BAR2 SZ IP        1 7 29.61                             170    -0.210   24 203 
 BAR2 SZ ES   1    1 7 44.45                             170    -0.6 7   24 203 
 BAR2 SZ I         1 7 45.90        47.8 0.48                            24 203 
 GIR2 SZ EP        1 7 29.74                             166    -0.210   34 342 
 GIR2 SZ ES   2    1 7 44.13                             166    -1.1 5   34 342 
 PAM  SZ EP        1 7 32.55                             151     0.310   75  36 
 PAM  SN ES   1    1 7 49.86                             151     0.4 7   75  36 
 BRR  HZ EP        1 7 31.53                             151    -0.110   76 298 
 BRR  HN ES   1    1 7 49.01                             151     0.7 7   76 298 
 BRR  HZ I         1 7 51.24        73.0 0.16                            76 298 
 GRA  SZ IP        1 7 35.44                             137     0.010  126  15 
 GRA  SZ ES   1    1 7 55.22                             137     0.2 7  126  15 
 GRA  SZ I         1 7 56.28        43.3 0.44                           126  15 
 OCA  SZ EP        1 7 38.31                             129    -0.4 9  162 351 
 OCA  SZ I         1 8  4.86        40.7 0.53                           162 351 
 YOP  SZ EP        1 7 39.94                             127     0.0 9  176 155 
 YOP  SN ES   2    1 8  4.16                             127     1.1 4  176 155 
 CHI  HZ IP     C  1 7 47.80                             117    -0.1 8  249 196 
 CHI  HN ES   2    1 8 17.02                             117    -0.3 4  249 196 
 CHI  HZ I         1 8 20.55        11.6 0.66                           249 196 
 HEL  HZ EP   2    1 7 51.35                             114     0.4 4  277 256 
 HEL  HN ES   3    1 8 23.05                             114     0.4 2  277 256 
 RREF HZ EP        1 7 57.44                             110     0.7 7  325 230 
 RREF HZ I         1 8 42.16        20.4 0.32                           325 230 
 TOL  SZ EP   2    1 7 58.33                             109    -0.5 3  346 225 
 PRA  HZ EP        1 8  3.75                             106    -0.2 6  393 210 
 PRA  HN ES   2    1 8 45.61                             106    -0.2 3  393 210 
 PRA  HZ I         1 8 48.43        25.3 0.27                           393 210 
                                                                                
