 2013 11 1 0249 54.6 L   6.192 -73.690106.0  RSN  8 0.5 1.6LRSN                1
 GAP= 99        1.31       4.5     4.4  9.4 -0.2926E+01  0.1348E+02  0.9095E+00E
 Epicentro: LANDAZURI - SANTANDER                                              3
 ACTION:UPD 14-01-09 16:24 OP:ep   STATUS:               ID:20131101024954 L   I
 OLDACT:REG 13-11-01 08:34 OP:jn   STATUS:               ID:20131101025000     3
 2013-11-01-0250-00M.COL___273                                                 6
 STAT SP IPHASW D HRMM SECON CODA AMPLIT PERI AZIMU VELO AIN AR TRES W  DIS CAZ7
 BAR2 SZ EP        250 12.15                             144    0.1510 71.4  52 
 BAR2 SZ ES        250 25.70                             144    0.1410 71.4  52 
 BAR2 SZ I         250 27.18        51.0 0.24            148           71.4  52 
 SPBC HZ EP        250 11.85                             143   -0.0710 73.2 215 
 SPBC HN ES        250 26.43                             143    1.0110 73.2 215 
 SPBC HZ I         250 28.12         9.4 0.26            147           73.2 215 
 RUS  HZ EP        250 12.33                             142   -0.2810 74.9 116 
 RUS  HN ES        250 26.07                             142   -0.5710 74.9 116 
 RUS  HZ I         250 27.34         4.6 0.36            149           74.9 116 
 PTB  HZ EP        250 12.78                             135   -0.6310 93.1 294 
 PTB  HN ES        250 27.37                             135   -0.7010 93.1 294 
 PTB  HZ I         250 31.22         4.9 0.14            137           93.1 294 
 BRR  HZ EP        250 14.22                             133    0.1210  101 359 
 BRR  HE ES        250 29.83                             133    0.5410  101 359 
 BRR  HZ I         250 34.65         4.5 0.26            136            101 359 
 NOR  HZ EP        250 18.76                             121    0.00 9  148 242 
 NOR  HN ES        250 37.16                             121   -0.42 9  148 242 
 NOR  HZ I         250 40.68         5.2 0.14            125            148 242 
 ZAR  HN ES   1    250 46.46                             113    0.23 7  193 318 
 ZAR  HZ I         250 48.81         8.4 0.40            117            193 318 
 GUY2CHZ EP        250 27.37                             111    0.79 8  214 240 
 GUY2CHZ I         250 59.22         2.7 0.36                           214 240 
                                                                                
