 2011 10 1 0008 52.3 L   6.804 -73.069142.6  RSN  4 0.2 1.4LRSN                1
 GAP=205        0.42      11.1    21.2 12.1  0.2209E+03 -0.2110E+03 -0.1042E+03E
 Epicentro: LOS SANTOS - SANTANDER                                             3
 ACTION:UPD 12-07-13 16:01 OP:ep   STATUS:               ID:20111001000852 L   I
 2011-10-01-0000-00M.COL___169                                                 6
 STAT SP IPHASW D HRMM SECON CODA AMPLIT PERI AZIMU VELO AIN AR TRES W  DIS CAZ7
 BAR2 SZ EP   1    0 9 11.67                             169    0.04 7 26.6 208 
 BAR2 SZ I         0 9 27.96         7.9 0.12                          26.6 208 
 GIR2 SZ EP   3    0 9 11.60                             166   -0.06 2 33.3 336 
 BRR  HZ EP   1    0 9 13.80                             150    0.24 7 78.6 295 
 BRR  HN ES   1    0 9 29.98                             150   -0.15 7 78.6 295 
 RUS  HZ EP   1    0 9 15.52                             143   -0.25 7  101 181 
 RUS  HN ES   1    0 9 34.19                             143    0.12 7  101 181 
 RUS  HZ I         0 9 35.87         3.0 0.27                           101 181 
                                                                                
