 2012  8 1 0414 39.7 L   6.683 -73.181143.6  RSN  4 0.2 0.9LRSN                1
 GAP=224        0.47      10.0     6.4  8.4  0.3527E+02  0.1542E+02  0.5454E+02E
 Epicentro: VILLANUEVA - SANTANDER                                             3
 ACTION:UPD 12-09-10 11:53 OP:ep   STATUS:               ID:20120801041441 L   I
 2012-08-01-0410-00M.COL___215                                                 6
 STAT SP IPHASW D HRMM SECON CODA AMPLIT PERI AZIMU VELO AIN AR TRES W  DIS CAZ7
 BAR2 SZ EP   1    414 58.70                             176   -0.17 7 10.0 181 
 BAR2 SZ ES   2    415 13.49                             176   -0.34 5 10.0 181 
 BAR2 SZ I         415 14.67         2.5 0.15                          10.0 181 
 BRR  HN ES   1    415 17.53                             151    0.19 7 75.2 309 
 RUS  HZ EP   1    415  2.65                             147    0.29 7 88.1 173 
 RUS  HZ I         415  4.99         1.0 0.52                          88.1 173 
 PTB  HZ EP   1    415  5.78                             133   -0.18 7  142 264 
 PTB  HZ I         415  6.76         1.1 0.10                           142 264 
 PTB  HE ES   2    415 26.46                             133    0.01 5  142 264 
                                                                                
