 2016  3 1 0222 44.2 L   6.782 -73.153151.2  RSN 10 0.3 1.7LRSN                1
 GAP=136        0.73       2.8     3.2  5.2 -0.1167E+01  0.4759E+01  0.5780E+00E
 Epicentro: LOS SANTOS - SANTANDER                                             3
 ACTION:UPD 16-05-13 21:20 OP:cam  STATUS:               ID:20160301022244 L   I
 OLDACT:UP  16-03-01 18:13 OP:mh   STATUS:               ID:20160301021750     3
 OLDACT:REG 16-03-01 12:55 OP:mh   STATUS:               ID:20160301021750     3
 2016-03-01-0217-50M.COL___322                                                 6
 STAT SP IPHASW D HRMM SECON CODA AMPLIT PERI AZIMU VELO AIN AR TRES W  DIS CAZ7
 BAR2 EZ EP        223  4.20                             172   -0.2510 21.2 189 
 BAR2 EZ ES   1    223 19.84                             172   -0.40 7 21.2 189 
 BAR2 EZ I         223 20.63        10.6 0.24            171           21.2 189 
 PAM  EZ EP        223  6.78                             151   -0.3410 79.5  39 
 PAM  EN ES        223 25.01                             151    0.0110 79.5  39 
 PAM  EZ I         223 26.91         4.7 0.40            153           79.5  39 
 RUS  HZ EP        223  9.04                             145    0.6810 98.6 175 
 RUS  HN ES        223 27.40                             145    0.2010 98.6 175 
 RUS  HZ I         223 27.97         3.7 0.24            146           98.6 175 
 PTB  HE EP        223 11.58                             133    0.06 9  147 260 
 PTB  HZ ES        223 32.79                             133   -0.03 9  147 260 
 PTB  HE ES        223 33.02                             133            147 260 
 PTB  HE I         223 34.33         9.3 0.30            132            147 260 
 SPBC HZ EP        223 13.04                             131    0.10 9  161 219 
 SPBC HN ES        223 35.31                             131   -0.03 9  161 219 
 SPBC HZ I         223 39.95         4.9 0.42            130            161 219 
 OCA  HN ES   1    223 36.13                             130    0.46 7  162 354 
 OCA  HZ I         223 41.46         9.2 0.12            130            162 354 
 ZAR  HZ EP        223 17.03                             124    0.02 9  204 293 
 ZAR  HN ES        223 42.46                             124   -0.14 9  204 293 
 ZAR  HZ I         223 49.92         3.3 0.40            123            204 293 
 NOR  HN ES   1    223 48.07                             120    0.04 6  233 235 
 NOR  HZ I         223 52.70         2.6 0.31            119            233 235 
 CHI  HZ EP        223 21.52                             118   -0.46 8  246 195 
 CHI  HN ES   4    223 49.86                             118   -1.58 0  246 195 
 CHI  HZ I         223 59.70         9.6 1.02            119            246 195 
 URE  HZ EP   4    223 24.19                             115   -1.35 0  284 292 
 URE  HN ES   4    223 59.72                             115    1.93 0  284 292 
 URE  HZ I         224  1.76         2.3 0.34            114            284 292 
                                                                                
