 2016  2 1 0828 12.1 L   6.800 -73.135138.0  RSN  9 0.7 1.4LRSN                1
 GAP=184        0.77       5.2     7.6  9.8  0.5429E+00  0.1979E+02 -0.5680E+01E
 Epicentro: LOS SANTOS - SANTANDER                                             3
 ACTION:UPD 16-03-04 21:22 OP:rebc STATUS:               ID:20160201082812 L   I
 OLDACT:REG 16-02-01 13:44 OP:dnl  STATUS:               ID:20160201081706     3
 2016-02-01-0822-00M.COL___400                                                 6
 STAT SP IPHASW D HRMM SECON CODA AMPLIT PERI AZIMU VELO AIN AR TRES W  DIS CAZ7
 BAR2 EZ EP   2    828 30.95                             170    0.18 5 23.6 193 
 BAR2 EZ ES   2    828 45.54                             170    0.18 5 23.6 193 
 BAR2 EZ I         828 49.25         3.7 0.16            150           23.6 193 
 RUS  HZ EP   2    828 34.91                             142   -0.15 5  101 177 
 RUS  HN ES   2    828 52.41                             142   -0.59 5  101 177 
 RUS  HZ I         828 57.74         1.3 0.30            117            101 177 
 PTB  HZ EP   2    828 37.94                             130   -0.58 5  149 259 
 PTB  HN ES   2    828 59.28                             130    0.12 5  149 259 
 PTB  HZ I         829  6.26         3.4 0.18            112            149 259 
 OCA  HZ EP   3    828 41.81                             128    2.01 2  160 353 
 OCA  HN ES   2    829  2.33                             128    0.91 5  160 353 
 OCA  HZ I         829  6.92         6.3 0.27            110            160 353 
 SPBC HZ EP   2    828 39.91                             127   -0.15 5  164 219 
 SPBC HE ES   2    829  2.48                             127    0.59 5  164 219 
 SPBC HZ I         829  5.39         5.2 0.10            108            164 219 
 ZAR  HZ EP   2    828 43.41                             121   -0.72 4  205 292 
 ZAR  HN ES   2    829  8.35                             121   -0.79 4  205 292 
 ZAR  HZ I         829 16.16         4.1 0.28            105            205 292 
 SML  HZ EP   2    828 47.43                             116   -0.89 4  244 335 
 SML  HN ES   4    829 14.78                             116   -1.82 0  244 335 
 SML  HZ I         829 21.30         4.2 0.09            102            244 335 
 CHI  HZ EP   2    828 49.20                             116   -0.19 4  249 195 
 CHI  HZ I         829 26.06         0.8 0.20            100            249 195 
 GUY2CHZ EP   2    828 56.41                             111    0.97 4  302 235 
 GUY2CHE ES   2    829 30.32                             111    1.05 4  302 235 
 GUY2CHZ I         829 36.05         1.7 0.35                           302 235 
                                                                                
