 2017  4 1 0940 18.5 L   6.785 -73.143144.5  RSN  9 0.4 1.6LRSN                1
 GAP=138        0.99       4.1     4.3  6.3 -0.2976E+00  0.1121E+02  0.3640E+01E
 Epicentro: LOS SANTOS - SANTANDER                                             3
 ACTION:UPD 17-05-30 21:07 OP:jn   STATUS:               ID:20170401094018 L   I
 OLDACT:REG 17-04-01 13:40 OP:lv   STATUS:               ID:20170401093740     3
 2017-04-01-0938-00M.COL___362                                                 6
 STAT SP IPHASW D HRMM SECON CODA AMPLIT PERI AZIMU VELO AIN AR TRES W  DIS CAZ7
 BAR2 EZ EP        940 37.72                             171   -0.2010 21.8 192 
 BAR2 EZ ES        940 52.69                             171   -0.4010 21.8 192 
 BAR2 EZ I         940 55.22         7.5 0.25            141           21.8 192 
 BRR  HZ EP        940 39.50                             152   -0.0410 72.3 300 
 BRR  HE ES        940 56.55                             152    0.5710 72.3 300 
 BRR  HZ I         941  1.34         9.5 0.11            163           72.3 300 
 PAM  EN ES        940 58.04                             150    0.1510 78.4  39 
 PAM  EZ I         940 59.35         8.6 0.06            142           78.4  39 
 RUS  HZ EP        940 41.85                             144   -0.1310 99.0 176 
 RUS  HN ES        941  0.55                             144    0.2310 99.0 176 
 RUS  HZ I         941  2.92         4.6 0.40            124           99.0 176 
 PTB  HZ EP        940 44.80                             132   -0.53 9  148 259 
 PTB  HN ES        941  5.48                             132   -0.81 9  148 259 
 SPBC HZ EP        940 46.79                             129    0.02 9  162 219 
 SPBC HN ES        941  8.87                             129    0.02 9  162 219 
 ZAR  HZ EP        940 51.01                             122    0.08 9  205 293 
 ZAR  HE ES        941 16.41                             122    0.17 9  205 293 
 ZAR  HZ I         941 21.55         9.6 0.35            133            205 293 
 NOR  HZ EP        940 54.55                             118    0.50 8  234 235 
 NOR  HN ES        941 22.65                             118    0.84 8  234 235 
 NOR  HZ I         941 27.88         4.5 0.10            115            234 235 
 CBOC HZ EP   4    941  6.52                             110    1.21 0  333 252 
 CBOC HE ES        941 41.59                             110   -0.26 7  333 252 
 CBOC HZ I         941 51.16         0.7 0.27            110            333 252 
                                                                                
