 2011  4 1 0703 50.5 L   6.802 -73.085150.4  RSN 10 0.3 2.0LRSN                1
 GAP=120        0.62       2.5     4.8  4.8 -0.1709E+01  0.2151E+01  0.2166E+01E
 Epicentro: LOS SANTOS - SANTANDER                                             3
 ACTION:UP  11-06-22 15:27 OP:REBC STATUS:               ID:20110401070350 L   I
 2011-04-01-0702-05S.COL___138                                                 6
 STAT SP IPHASW D HRMM SECON CODA AMPLIT PERI AZIMU VELO SNR AR TRES W  DIS CAZ7
 BTL  SZ EP        7 4 10.77                             171     0.110   24 303 
 BAR2 SZ EP        7 4 10.41                             170    -0.310   26 205 
 BAR2 SZ ES   1    7 4 26.27                             170    -0.2 7   26 205 
 BAR2 SZ I         7 4 28.44        13.7 0.32                            26 205 
 PAM  SN ES   2    7 4 30.40                             153    -0.1 5   73  36 
 BRR  HZ IP     D  7 4 12.39                             151    -0.110   77 296 
 BRR  HZ I         7 4 13.84        20.1 0.30                            77 296 
 BRR  HN ES   1    7 4 29.76                             151     0.1 7   77 296 
 GRA  SZ EP        7 4 16.24                             138     0.310  124  15 
 GRA  SZ ES   1    7 4 35.90                             138     0.0 7  124  15 
 GRA  SZ I         7 4 40.90         8.0 0.36                           124  15 
 OCA  SZ EP        7 4 19.34                             130     0.1 9  161 351 
 OCA  SZ ES   2    7 4 41.49                             130    -0.2 5  161 351 
 OCA  SZ I         7 4 45.85        15.8 0.36                           161 351 
 YOP  SZ EP   2    7 4 20.68                             128     0.1 4  176 155 
 YOP  SN ES   1    7 4 44.23                             128     0.1 7  176 155 
 YOP  SZ I         7 4 47.40         4.8 0.00                           176 155 
 CHI  HZ EP   2    7 4 28.16                             118    -0.5 4  251 197 
 CHI  HN ES   1    7 4 59.05                             118     0.6 6  251 197 
 CHI  HZ I         7 5  6.12         4.0 0.68                           251 197 
 RREF HZ EP   2    7 4 36.56                             111    -0.9 3  327 230 
 RREF HN ES   2    7 5 14.84                             111     0.8 3  327 230 
 RREF HZ I         7 5 21.17         4.8 0.24                           327 230 
 PRA  HZ EP        7 4 44.59                             107     0.0 6  396 210 
 PRA  HZ I         7 4 46.03        14.0 0.22                           396 210 
 PRA  HN ES   2    7 5 26.16                             107    -0.6 3  396 210 
                                                                                
