 2010  5 1 0620 41.9 L   7.371 -73.147126.7  RSN  5 0.1 1.4LRSN                1
 GAP=141        0.38       8.7     9.4  8.0 -0.5173E+02  0.7471E+01  0.3739E+02E
 Epicentro: RIONEGRO - SANTANDER                                               3
 ACTION:UP  10-08-24 10:02 OP:vdl  STATUS:               ID:20100501062041 L   I
 2010-05-01-0619-04S.COL___105                                                 6
 STAT SP IPHASW D HRMM SECON CODA AMPLIT PERI AZIMU VELO SNR AR TRES W  DIS CAZ7
 BRI  SZ EP   1    621  0.50                             155     0.2 7   54  45 
 BRI  SZ ES   2    621 14.51                             155    -0.1 5   54  45 
 GUE  SZ EP   1    621  0.36                             155    -0.2 7   56  26 
 GUE  SZ ES   1    621 15.26                             155     0.1 7   56  26 
 GRA  SZ ES   1    621 15.92                             150     0.0 7   68  34 
 BRR  HZ EP   1    621  0.85                             150     0.0 7   69 245 
 BRR  HZ I         621 17.14         5.2 0.13                            69 245 
 BAR2 SZ EP   2    621  2.28                             144    -0.1 5   86 183 
                                                                                
