 2017  5 1 0643 38.1 L   6.796 -73.137144.1  RSN  8 0.4 1.8LRSN                1
 GAP=113        1.04       3.8     3.7  6.9  0.1808E+01  0.4514E+01  0.4871E+01E
 Epicentro: LOS SANTOS - SANTANDER                                             3
 ACTION:UPD 17-06-16 13:31 OP:jn   STATUS:               ID:20170501064338 L   I
 OLDACT:REG 17-05-01 12:58 OP:ar   STATUS:               ID:20170501063741     3
 2017-05-01-0638-00M.COL___368                                                 6
 STAT SP IPHASW D HRMM SECON CODA AMPLIT PERI AZIMU VELO AIN AR TRES W  DIS CAZ7
 BRR  HZ EP        643 59.17                             152    0.0610 72.3 298 
 BRR  HE ES        644 16.16                             152    0.6510 72.3 298 
 BRR  HZ I         644 19.87        13.3 0.22            152           72.3 298 
 PAM  EZ EP        644  0.26                             151    0.1610 77.1  39 
 PAM  EE ES        644 16.94                             151   -0.3310 77.1  39 
 PAM  EZ I         644 19.01        12.6 0.50            155           77.1  39 
 RUS  HZ EP        644  1.29                             144   -0.3410  100 177 
 RUS  HE ES        644 19.64                             144   -0.3610  100 177 
 RUS  HZ I         644 20.09         6.9 0.46            145            100 177 
 PTB  HZ EP        644  4.37                             131   -0.62 9  149 259 
 PTB  HN ES        644 25.16                             131   -0.83 9  149 259 
 PTB  HZ I         644 27.62         4.0 0.24            133            149 259 
 SPBC HZ EP        644  6.51                             129    0.03 9  163 219 
 SPBC HE ES        644 28.78                             129    0.15 9  163 219 
 SPBC HZ I         644 35.62         7.7 0.26            130            163 219 
 YPLC HZ EP        644  7.69                             126    0.02 9  176 152 
 YPLC HN ES        644 31.38                             126    0.63 9  176 152 
 YPLC HZ I         644 33.68         7.3 0.34            129            176 152 
 ZAR  HZ EP        644 10.67                             122    0.14 9  205 292 
 ZAR  HN ES        644 36.20                             122    0.36 9  205 292 
 ZAR  HZ I         644 41.15        10.6 0.34            124            205 292 
 NOR  HZ EP        644 13.92                             118    0.14 8  235 235 
 NOR  HE ES        644 42.07                             118    0.45 8  235 235 
 NOR  HZ I         644 46.14         2.5 0.24            120            235 235 
                                                                                
