 2014  1 1 0635 27.4 L   6.707 -73.173144.0  RSN  5 0.5 1.1LRSN                1
 GAP=227        1.13       6.2     7.9  8.2  0.1903E+02  0.1183E+02  0.1486E+02E
 Epicentro: VILLANUEVA - SANTANDER                                             3
 ACTION:UPD 14-03-13 09:50 OP:ep   STATUS:               ID:20140101063527 L   I
 OLDACT:REG 14-01-01 09:29 OP:stll STATUS:               ID:20140101062814     3
 2014-01-01-0628-14M.COL___231                                                 6
 STAT SP IPHASW D HRMM SECON CODA AMPLIT PERI AZIMU VELO AIN AR TRES W  DIS CAZ7
 BAR2 SZ EP        635 46.42                             175   -0.2310 12.7 185 
 BAR2 SZ ES        636  1.27                             175   -0.3910 12.7 185 
 BAR2 SZ I         636  4.01         3.4 0.16            170           12.7 185 
 BRR  HZ EP        635 48.10                             151   -0.4310 74.2 307 
 BRR  HN ES        636  5.72                             151    0.7110 74.2 307 
 BRR  HZ I         636  8.07         1.8 0.46            148           74.2 307 
 RUS  HZ EP        635 50.12                             146   -0.1510 90.6 174 
 RUS  HN ES        636  8.60                             146    0.4910 90.6 174 
 PTB  HZ EP        635 53.80                             133   -0.00 9  143 263 
 PTB  HN ES        636 14.17                             133   -0.23 9  143 263 
 PTB  HZ I         636 21.91         1.7 0.28            131            143 263 
 CHI  HZ EP        636  4.65                             118    0.82 8  238 195 
 CHI  HN ES        636 31.76                             118   -0.49 8  238 195 
                                                                                
