 2015 10 1 0104 51.9 L   6.735 -73.142142.0  RSN  7 0.4 1.5LRSN                1
 GAP=140        1.02       5.1     4.6  8.2  0.2306E+00  0.8295E+01 -0.1616E+01E
 Epicentro: LOS SANTOS - SANTANDER                                             3
 ACTION:UPD 15-12-22 20:36 OP:cam  STATUS:               ID:20151001010451 L   I
 OLDACT:REG 15-10-01 14:32 OP:spq  STATUS:               ID:20151001005748     3
 2015-10-01-0057-48M.COL___358                                                 6
 STAT SP IPHASW D HRMM SECON CODA AMPLIT PERI AZIMU VELO AIN AR TRES W  DIS CAZ7
 BAR2 EZ EP   1    1 5 11.02                             173    0.07 7 16.4 196 
 BAR2 EZ ES   1    1 5 25.72                             173   -0.09 7 16.4 196 
 BAR2 EZ I         1 5 26.69         7.6 0.18            174           16.4 196 
 BRR  HZ EP        1 5 12.82                             151   -0.0510 75.2 303 
 BRR  HN ES        1 5 29.64                             151    0.4010 75.2 303 
 BRR  HZ I         1 5 35.14        11.7 0.32            150           75.2 303 
 PAM  EZ EP        1 5 14.13                             148    0.0810 82.8  36 
 PAM  EN ES        1 5 30.88                             148   -0.4510 82.8  36 
 PAM  EZ I         1 5 33.05         5.3 0.64            150           82.8  36 
 RUS  HZ EP   1    1 5 15.38                             145    0.62 7 93.4 176 
 RUS  HE ES   1    1 5 33.06                             145    0.46 7 93.4 176 
 RUS  HZ I         1 5 34.78         2.1 0.52            149           93.4 176 
 PTB  HZ EP        1 5 17.82                             131   -0.66 9  147 262 
 PTB  HN ES        1 5 38.61                             131   -0.60 9  147 262 
 PTB  HZ I         1 5 41.00         3.0 0.22            133            147 262 
 ZAR  HE ES        1 5 50.39                             121    0.59 8  207 294 
 ZAR  HZ I         1 5 53.23         2.6 0.19            123            207 294 
 SML  HE ES   1    1 5 58.32                             116    0.30 6  250 336 
 SML  HZ I         1 6  1.86         4.7 0.10            118            250 336 
                                                                                
