 2013  6 1 0801 51.0 L   6.237 -73.709112.0  RSN  4 0.5 1.3LRSN                1
 GAP=183        1.30      12.8     7.2 14.9 -0.5788E+02 -0.1364E+02  0.1089E+03E
 Epicentro: LANDAZURI - SANTANDER                                              3
 ACTION:UPD 14-01-08 09:51 OP:ep   STATUS:               ID:20130601080151 L   I
 2013-06-01-0800-00M.COL___261                                                 6
 STAT SP IPHASW D HRMM SECON CODA AMPLIT PERI AZIMU VELO AIN AR TRES W  DIS CAZ7
 BAR2 SZ EP        8 2  8.81                             146   -0.0610 70.2  56 
 BAR2 SZ ES        8 2 23.02                             146    0.1910 70.2  56 
 BAR2 SZ I         8 2 23.93         5.9 0.22            150           70.2  56 
 PTB  HZ EP     D  8 2  9.35                             139   -0.6410 89.2 292 
 PTB  HN ES        8 2 25.19                             139    0.3810 89.2 292 
 PTB  HZ I         8 2 27.45         3.4 0.16            140           89.2 292 
 NOR  HZ EP        8 2 15.27                             123   -0.30 9  149 240 
 NOR  HN ES        8 2 33.98                             123   -0.76 9  149 240 
 NOR  HZ I         8 2 36.43         4.4 0.34            126            149 240 
 GUY2CHZ EP        8 2 24.04                             113    0.74 8  215 239 
 GUY2CHN ES        8 2 49.26                             113    0.76 8  215 239 
 GUY2CHZ I         8 2 55.29         1.8 0.36                           215 2399
                                                                                
