 2012  5 1 0534 29.3 L   6.765 -73.172151.9  RSN  6 0.3 1.4LRSN                1
 GAP=135        0.62       5.7     4.7  9.8  0.1081E+02 -0.1044E+02 -0.2141E+02E
 Epicentro: LOS SANTOS - SANTANDER                                             3
 ACTION:UP  12-07-05 12:01 OP:pat  STATUS:               ID:20120501053429 L   I
 2012-05-01-0530-00M.COL___189                                                 6
 STAT SP IPHASW D HRMM SECON CODA AMPLIT PERI AZIMU VELO SNR AR TRES W  DIS CAZ7
 BAR2 SZ EP   1    534 49.46                             172    -0.2 7   19 183 
 BAR2 SZ I         534 49.95         8.7 0.38                            19 183 
 BRR  HZ EP   1    534 51.36                             154     0.2 7   71 302 
 BRR  HZ I         534 51.53         7.4 0.20                            71 302 
 BRR  HN ES   2    535  8.30                             154     0.2 5   71 302 
 PAM  SZ EP   1    534 52.17                             150    -0.3 7   82  39 
 RUS  HZ EP   1    534 53.73                             146     0.3 7   97 174 
 RUS  HN ES   1    535 12.31                             146     0.1 7   97 174 
 RUS  HZ I         535 12.99         1.8 0.38                            97 174 
 PTB  HZ EP   1    534 56.43                             134    -0.1 7  144 260 
 PTB  HN ES   1    535 17.24                             134    -0.4 7  144 260 
 PTB  HZ I         535 23.38         2.6 0.34                           144 260 
 ZAR  HN ES   1    535 27.89                             124     0.3 6  203 293 
                                                                                
