 2017  9 1 0021 53.8 L   6.765 -73.118147.0  RSN  4 0.2 1.4LRSN                1
 GAP=142        0.48       2.6     3.8  3.9 -0.1528E+00 -0.9740E+00  0.2998E+00E
 Epicentro: LOS SANTOS - SANTANDER                                             3
 ACTION:UPD 17-10-05 19:07 OP:rebc STATUS:               ID:20170901002153 L   I
 OLDACT:REG 17-09-01 12:57 OP:dani STATUS:               ID:20170901001737     3
 2017-09-01-0018-00M.COL___411                                                 6
 STAT SP IPHASW D HRMM SECON CODA AMPLIT PERI AZIMU VELO AIN AR TRES W  DIS CAZ7
 BAR2 EZ EP        022 13.25                             172   -0.3210 20.3 200 
 BAR2 EZ ES        022 28.87                             172   -0.0810 20.3 200 
 BAR2 EZ I         022 29.76         5.8 0.15            173           20.3 200 
 BRR  HZ EP        022 15.53                             151    0.1410 75.7 300 
 BRR  HN ES        022 32.19                             151    0.0010 75.7 300 
 BRR  HZ I         022 33.37         6.1 0.19            153           75.7 300 
 PAM  EZ EP        022 16.15                             151   -0.1110 78.6  36 
 PAM  EN ES        022 33.88                             151    0.1310 78.6  36 
 PAM  EZ I         022 35.70         2.6 0.25            151           78.6  36 
 RUS  HZ EP        022 17.62                             145    0.1910 96.5 178 
 RUS  HN ES        022 35.86                             145    0.0410 96.5 178 
 RUS  HZ I         022 37.15         3.5 0.28            147           96.5 178 
                                                                                
