 2013  3 1 0540 54.0 L   6.290 -73.734 96.8  RSN  9 0.4 1.7LRSN                1
 GAP= 87        0.97       3.8     3.6  6.5  0.5194E+01  0.7578E+01  0.3127E+01E
 Epicentro: LANDAZURI - SANTANDER                                              3
 ACTION:UPD 13-04-09 13:59 OP:ep   STATUS:               ID:20130301054054 L   I
 2013-03-01-0538-50M.COL___196                                                 6
 STAT SP IPHASW D HRMM SECON CODA AMPLIT PERI AZIMU VELO AIN AR TRES W  DIS CAZ7
 BAR2 SZ EP        541 10.41                             142    0.1010 69.5  61 
 BAR2 SZ ES        541 23.22                             142    0.1710 69.5  61 
 BAR2 SZ I         541 24.23        30.6 0.34            150           69.5  61 
 RUS  HZ EP        541 11.56                             136   -0.3010 84.3 121 
 RUS  HN ES        541 25.66                             136   -0.1510 84.3 121 
 RUS  HN I         541 27.14         8.1 0.16            136           84.3 121 
 PTB  HZ EP        541 10.90                             136   -0.3210 84.6 289 
 PTB  HN ES        541 24.72                             136    0.0410 84.6 289 
 PTB  HN I         541 27.18        18.5 0.34            127           84.6 289 
 BRR  HZ EP        541 11.54                             134   -0.1710 90.4   2 
 BRR  HN ES        541 25.74                             134    0.1910 90.4   2 
 BRR  HN I         541 26.81        21.2 0.14            134           90.4   2 
 ZAR  HZ EP        541 21.24                             114   -0.01 9  182 317 
 ZAR  HN ES        541 42.24                             114   -0.29 9  182 317 
 CHI  HZ EP        541 22.10                             114    0.15 9  184 180 
 CHI  HZ I         541 22.70         4.7 0.16            109            184 180 
 HEL  HZ EP   1    541 24.66                             112    1.02 6  199 267 
 HEL  HE I         541 52.90         4.4 0.64            107            199 267 
 OCA  HZ EP        541 26.73                             109    0.89 8  220  12 
 SML  HZ EP        541 31.85                             105   -0.86 7  280 352 
                                                                                
