 2017  2 1 0234 53.9 L   6.799 -73.149145.9  RSN 11 0.4 2.1LRSN                1
 GAP=136        0.93       3.5     3.6  5.7 -0.4983E+00  0.6159E+01  0.6253E+01E
 Epicentro: LOS SANTOS - SANTANDER                                             3
 ACTION:UPD 17-05-24 15:31 OP:jn   STATUS:               ID:20170201023453 L   I
 OLDACT:REG 17-02-01 14:57 OP:dnl  STATUS:               ID:20170201022744     3
 2017-02-01-0228-00M.COL___325                                                 6
 STAT SP IPHASW D HRMM SECON CODA AMPLIT PERI AZIMU VELO AIN AR TRES W  DIS CAZ7
 BAR2 EZ EP        235 13.47                             171   -0.1010 23.2 189 
 BAR2 EZ ES        235 28.67                             171   -0.2210 23.2 189 
 BAR2 EZ I         235 31.27        46.9 0.32            168           23.2 189 
 BRR  HZ EP        235 15.29                             153    0.2210 70.9 299 
 BRR  HN ES        235 32.37                             153    0.8010 70.9 299 
 BRR  HZ I         235 36.28        29.2 0.40            153           70.9 299 
 PAM  EZ EP        235 16.27                             151    0.1010 77.7  40 
 PAM  EN ES        235 33.45                             151   -0.0710 77.7  40 
 PAM  EZ I         235 35.60        18.3 0.56            156           77.7  40 
 RUS  HZ EP        235 17.44                             144   -0.2510  101 176 
 RUS  HE ES        235 36.22                             144   -0.0010  101 176 
 RUS  HZ I         235 37.57        10.7 0.24            145            101 176 
 PTB  HZ EP   2    235 19.75                             132   -1.12 5  147 259 
 PTB  HN ES        235 40.96                             132   -0.93 9  147 259 
 PTB  HZ I         235 43.84        12.3 0.16            133            147 259 
 ZAR  HZ EP   2    235 26.13                             122   -0.22 4  204 292 
 ZAR  HN ES        235 51.43                             122   -0.21 9  204 292 
 ZAR  HZ I         235 56.69        15.3 0.24            124            204 292 
 NOR  HZ EP        235 29.58                             119   -0.05 8  234 234 
 NOR  HE ES        235 58.16                             119    0.69 8  234 234 
 NOR  HZ I         236  7.24         5.4 0.26            120            234 234 
 CHI  HZ EP        235 31.79                             117    0.18 8  248 195 
 CHI  HN ES        236  1.09                             117    0.08 8  248 195 
 CHI  HZ I         236  4.49         9.4 0.60            119            248 195 
 ROSC BZ EP   4    235 34.07                             117    2.04 0  253 211 
 ROSC BN ES   4    236  3.93                             117    2.19 0  253 211 
 ROSC BZ I         236  7.96        21.1 0.45            118            253 211 
 CBOC HZ EP   2    235 40.93                             110    0.13 3  333 252 
 CBOC HN ES        236 17.51                             110    0.14 7  333 252 
 CBOC HZ I         236 32.07         2.2 0.26            111            333 252 
 ORTC HZ EP   2    235 48.67                             106    0.85 3  395 216 
 ORTC HN ES        236 29.99                             106    0.13 6  395 216 
 ORTC HZ I         236 34.89         4.8 0.24            108            395 216 
                                                                                
