 2014  8 1 0453  0.5 L   7.461 -73.232130.9  RSN  7 0.5 1.6LRSN                1
 GAP=109        1.18       4.1     5.9  8.7 -0.4248E+00  0.1629E+02  0.7683E+01E
 Epicentro: EL PLAYON - SANTANDER                                              3
 ACTION:UPD 14-09-15 21:46 OP:nd   STATUS:               ID:20140801045300 L   I
 OLDACT:REG 14-08-01 13:29 OP:y    STATUS:               ID:20140801044806     3
 2014-08-01-0448-06M.COL___260                                                 6
 STAT SP IPHASW D HRMM SECON CODA AMPLIT PERI AZIMU VELO AIN AR TRES W  DIS CAZ7
 PAM  SZ EP        453 20.43                             154    0.3210 60.3 103 
 PAM  SN ES        453 35.53                             154    0.1010 60.3 103 
 PAM  SZ I         453 38.12         7.9 0.36            160           60.3 103 
 BRR  HZ EP        453 20.01                             152    0.3010 65.9 234 
 BRR  HN ES        453 35.24                             152    0.5210 65.9 234 
 BRR  HZ I         453 39.93         5.9 0.36            151           65.9 234 
 OCA  HN ES        453 37.69                             144    0.1910 86.6 354 
 OCA  HZ I         453 40.14         8.8 0.18            148           86.6 354 
 BAR2 SZ EP        453 21.97                             142   -0.1310 96.2 177 
 BAR2 SZ ES        453 37.94                             142   -1.0210 96.2 177 
 BAR2 SZ I         453 39.47         6.8 0.10            144           96.2 177 
 PTB  HZ EP        453 27.91                             124   -0.48 9  169 233 
 PTB  HN ES        453 50.00                             124   -0.17 9  169 233 
 PTB  HZ I         453 53.37         3.4 0.16            126            169 233 
 SML  HN ES        453 50.64                             123   -0.46 9  175 328 
 SML  HZ I         453 53.10        11.2 0.10            126            175 328 
 SPBC HZ EP        453 34.05                             117    0.18 8  221 205 
 SPBC HN ES        454  0.64                             117    0.71 8  221 205 
 SPBC HZ I         454  7.82         3.5 0.16            119            221 205 
                                                                                
