 2010  4 1 0208  2.1 L   6.836 -72.990130.9  RSN  4 0.3 2.1LRSN                1
 GAP=169        0.66       5.4     8.1  8.8  0.1017E+02 -0.4489E+02 -0.2277E+02E
 Epicentro: CEPITA - SANTANDER                                                 3
 ACTION:UPD 10-08-24 09:57 OP:vdl  STATUS:               ID:20100401020802 L   I
 2010-04-01-0205-48S.COL___098                                                 6
 STAT SP IPHASW D HRMM SECON CODA AMPLIT PERI AZIMU VELO AIN AR TRES W  DIS CAZ7
 BAR2 SZ EP        2 8 20.25                             165     0.010   35 218 
 BAR2 SZ ES   1    2 8 34.16                             165    -0.2 7   35 218 
 BRR  HZ EP        2 8 22.43                             145    -0.110   85 291 
 BRR  HN ES   1    2 8 39.06                             145     0.5 7   85 291 
 BRR  HZ I         2 8 40.31        15.6 0.11                            85 291 
 OCA  SZ EP        2 8 28.99                             126    -0.2 9  159 347 
 OCA  SZ ES   1    2 8 50.15                             126    -0.2 7  159 347 
 OCA  SZ I         2 8 54.94        22.3 0.26                           159 347 
 SDV  BZ EP        2 8 50.15                             106     0.4 7  345  49 
                                                                                
