 2013  2 1 0847  5.9 L   6.603 -73.190158.9  RSN  5 0.4 1.4LRSN                1
 GAP=191        1.01       6.5     8.3 11.1  0.1815E+02  0.1159E+01 -0.3321E+01E
 Epicentro: BARICHARA - SANTANDER                                              3
 ACTION:UPD 13-03-12 09:29 OP:ep   STATUS:               ID:20130201084705 L   I
 2013-02-01-0840-00M.COL___241                                                 6
 STAT SP IPHASW D HRMM SECON CODA AMPLIT PERI AZIMU VELO AIN AR TRES W  DIS CAZ7
 BAR2 SZ EP        847 27.50                             179    0.6510 1.41 145 
 RUS  HN ES        847 48.18                             152    0.0710 79.4 171 
 RUS  HN I         847 51.54         2.6 0.26            147           79.4 171 
 BRR  HZ EP        847 28.36                             152   -0.5810 80.3 314 
 BRR  HN ES        847 46.68                             152   -0.2610 80.3 314 
 BRR  HN I         847 47.21         6.1 0.28            151           80.3 314 
 PTB  HZ EP   1    847 33.55                             136    0.27 7  140 267 
 PTB  HN ES        847 54.90                             136    0.23 9  140 267 
 PTB  HN I         848  0.35         4.0 0.32            133            140 267 
 CHI  HN ES   1    848  9.57                             122   -0.58 6  226 195 
 CHI  HN I         848 17.16         1.2 0.28            120            226 195 
                                                                                
