 2010  8 1 0941 14.5 L   6.760 -73.140152.5  RSN  4 0.4 1.2LRSN                1
 GAP=160        0.90       8.5    18.4 18.0  0.8624E+02 -0.2361E+03 -0.9349E+02E
 Epicentro: LOS SANTOS - SANTANDER                                             3
 ACTION:UP  10-09-07 10:51 OP:vdl  STATUS:               ID:20100801094114 L   I
 2010-08-01-0939-39S.COL___123                                                 6
 STAT SP IPHASW D HRMM SECON CODA AMPLIT PERI AZIMU VELO SNR AR TRES W  DIS CAZ7
 BRR  HZ EP   1    941 36.41                             153    -0.2 7   74 301 
 BRR  HN ES   1    941 53.90                             153     0.1 7   74 301 
 BRR  HZ I         941 56.14         3.6 0.27                            74 301 
 RUS  HZ EP   1    941 38.88                             146     0.2 7   96 176 
 RUS  HN ES   1    941 57.34                             146    -0.1 7   96 176 
 RUS  HZ I         941 58.35         1.6 0.28                            96 176 
 GUE  SZ EP   1    941 39.57                             140    -0.6 7  121  11 
 GRA  SZ EP   1    941 41.32                             137     0.6 7  130  17 
 GRA  SZ I         941 42.45         2.7 0.34                           130  17 
                                                                                
