 2012 12 1 0125 28.2 L   6.795 -73.155139.3  RSN  9 0.4 2.2LRSN                1
 GAP=136        1.11       3.2     4.9  6.4  0.2164E+00  0.1044E+02  0.3606E+00E
 Epicentro: LOS SANTOS - SANTANDER                                             3
 ACTION:UPD 13-01-04 14:24 OP:ep   STATUS:               ID:20121201012528 L   I
 2012-12-01-0120-00M.COL___233                                                 6
 STAT SP IPHASW D HRMM SECON CODA AMPLIT PERI AZIMU VELO AIN AR TRES W  DIS CAZ7
 BAR2 SZ EP        125 47.13                             170    0.1210 22.6 188 
 BAR2 SZ ES        126  1.67                             170   -0.0410 22.6 188 
 BAR2 SZ I         126  3.54        28.7 0.38                          22.6 188 
 GIR2 SZ EP        125 47.05                             167   -0.0410 31.7 352 
 GIR2 SZ ES        126  1.63                             167   -0.2210 31.7 352 
 GIR2 SZ I         126  3.74        20.8 0.40                          31.7 352 
 PAM  SZ IP     C  125 50.07                             149    0.2910 78.5  40 
 PAM  SN ES        126  6.86                             149    0.2310 78.5  40 
 PAM  SN I         126  8.16        13.3 0.30                          78.5  40 
 RUS  HZ EP        125 51.08                             142   -0.1810  100 175 
 RUS  HN ES        126  9.76                             142    0.4910  100 175 
 RUS  HN I         126 12.82         8.7 0.42                           100 175 
 PTB  HZ EP        125 53.95                             131   -0.57 9  147 259 
 PTB  HN ES        126 14.53                             131   -0.53 9  147 259 
 PTB  HN I         126 19.98        31.8 0.52                           147 259 
 OCA  HZ EP        125 55.46                             128   -0.57 9  161 354 
 OCA  HN ES        126 17.12                             128   -0.65 9  161 354 
 OCA  HN I         126 20.05        63.0 0.26                           161 354 
 ZAR  HZ EP        126  1.15                             121    1.02 9  203 292 
 ZAR  HN ES        126 25.50                             121    0.45 9  203 292 
 ZAR  HN I         126 32.31        31.9 0.34                           203 292 
 SML  HN ES        126 33.35                             116    0.60 8  244 336 
 SML  HN I         126 39.74        34.1 0.10                           244 336 
 CHI  HZ EP        126  5.18                             116   -0.25 8  248 195 
 CHI  HN ES        126 34.54                             116    0.05 8  248 195 
 CHI  HN I         126 37.50         9.5 0.36                           248 195 
                                                                                
