 2011  8 1 0500 33.9 L   6.736 -73.092147.6  RSN  6 0.2 1.1LRSN                1
 GAP=146        0.49       3.2     5.5  5.0 -0.4066E+01 -0.7673E+01 -0.5959E+00E
 Epicentro: JORDAN - SANTANDER                                                 3
 ACTION:UPD 12-07-25 14:05 OP:epov STATUS:               ID:20110801050033 L   I
 2011-08-01-0500-39S.COL___142                                                 6
 STAT SP IPHASW D HRMM SECON CODA AMPLIT PERI AZIMU VELO AIN AR TRES W  DIS CAZ7
 BAR2 SZ EP   1    5 0 53.33                             172   -0.32 7 18.8 212 
 BAR2 SZ ES   1    5 1  9.00                             172   -0.07 7 18.8 212 
 BAR2 SZ I         5 1 11.25         3.1 0.58                          18.8 212 
 PAM  SZ EP   1    5 0 56.91                             150    0.48 7 79.6  33 
 PAM  SE ES   2    5 1 14.26                             150    0.25 5 79.6  33 
 BRR  HZ EP   1    5 0 55.72                             150   -0.02 7 79.9 301 
 BRR  HZ I         5 0 57.95         4.0 0.38                          79.9 301 
 BRR  HN ES   1    5 1 12.98                             150    0.19 7 79.9 301 
 RUS  HZ EP   1    5 0 57.31                             146    0.00 7 93.2 179 
 RUS  HN ES   2    5 1 15.59                             146    0.01 5 93.2 179 
 RUS  HZ I         5 1 17.16         1.5 0.30                          93.2 179 
 BRI  SZ EP   1    5 0 58.34                             140    0.02 7  113  17 
 GRA  SZ EP   1    5 0 59.67                             136   -0.06 7  131  14 
 GRA  SZ ES   1    5 1 19.52                             136   -0.37 7  131  14 
 GRA  SZ I         5 1 21.69         1.9 0.32                           131  14 
                                                                                
