 2013  1 1 0903 22.8 L   6.727 -73.164147.3  RSN  4 0.2 1.5LRSN                1
 GAP=230        0.61       4.9     4.6  4.9  0.1113E+02  0.2364E+01  0.5198E+00E
 Epicentro: VILLANUEVA - SANTANDER                                             3
 ACTION:UPD 13-02-15 09:11 OP:ep   STATUS:               ID:20130101090322 L   I
 2013-01-01-0900-00M.COL___242                                                 6
 STAT SP IPHASW D HRMM SECON CODA AMPLIT PERI AZIMU VELO AIN AR TRES W  DIS CAZ7
 BAR2 SZ EP        9 3 42.43                             174   -0.0210 15.0 188 
 BAR2 SZ ES        9 3 57.41                             174   -0.3910 15.0 188 
 BAR2 SZ I         9 3 59.55         6.6 0.28            171           15.0 188 
 BRR  HZ EP        9 3 44.41                             152    0.1810 73.7 305 
 BRR  HN ES        9 4  1.19                             152    0.2210 73.7 305 
 BRR  HN I         9 4  1.78         8.9 0.20            153           73.7 305 
 RUS  HZ EP        9 3 46.02                             146   -0.1110 92.7 174 
 RUS  HN ES        9 4  4.67                             146    0.3210 92.7 174 
 RUS  HN I         9 4  6.51         4.5 0.30            146           92.7 174 
 PTB  HZ EP        9 3 49.43                             133   -0.13 9  144 262 
 PTB  HN ES        9 4 10.37                             133   -0.09 9  144 262 
 PTB  HN I         9 4 12.86         3.2 0.32            133            144 262 
                                                                                
