 2013  7 1 0209 45.6 L   6.746 -73.170149.7  RSN  8 0.4 1.7LRSN                1
 GAP=107        1.11       5.3     5.3  7.0  0.1117E+02 -0.1487E+01 -0.3128E+01E
 Epicentro: VILLANUEVA - SANTANDER                                             3
 ACTION:UPD 13-08-12 10:34 OP:ep   STATUS:               ID:20130701020945 L   I
 OLDACT:REG 13-07-01 08:56 OP:stll STATUS:               ID:20130701020835     3
 2013-07-01-0208-35M.COL___230                                                 6
 STAT SP IPHASW D HRMM SECON CODA AMPLIT PERI AZIMU VELO AIN AR TRES W  DIS CAZ7
 BAR2 SZ EP        210  5.60                             173   -0.0010 17.0 185 
 BAR2 SZ ES        210 20.97                             173   -0.2210 17.0 185 
 BAR2 SZ I         210 21.82         8.7 0.18            171           17.0 185 
 GIR2 SZ EP        210  6.06                             165    0.1610 36.9 356 
 GIR2 SZ ES        210 21.46                             165   -0.2710 36.9 356 
 BRR  HZ EP        210  7.85                             153    0.6310 72.0 304 
 BRR  HN ES        210 24.82                             153    0.7410 72.0 304 
 BRR  HN I         210 28.92        15.5 0.20            152           72.0 304 
 RUS  HZ EP        210  9.35                             146    0.0010 94.8 174 
 RUS  HE ES        210 27.87                             146    0.0110 94.8 174 
 RUS  HN I         210 29.42         7.0 0.28            147           94.8 174 
 PTB  HZ EP        210 12.49                             134   -0.08 9  144 261 
 PTB  HN ES        210 32.82                             134   -0.78 9  144 261 
 PTB  HN I         210 38.52         7.3 0.38            133            144 261 
 TAM  HZ EP        210 13.61                             131   -0.10 9  156 103 
 ZAR  HE ES        210 44.23                             123    0.44 9  204 294 
 SML  HE ES        210 51.21                             118   -0.82 8  248 336 
                                                                                
