 2011  2 1 0335 33.3 L   6.760 -73.178139.3  RSN 15 0.4 3.2LRSN                1
 GAP=133        0.82       3.2     4.7  5.9 -0.2746E+01  0.9051E+01  0.1669E+01E
 Epicentro: VILLANUEVA - SANTANDER                                             3
 ACTION:UP  11-03-28 15:05 OP:jfem STATUS:               ID:20110201033533 L   I
 2011-02-01-0333-05S.COL___138                                                 6
 STAT SP IPHASW D HRMM SECON CODA AMPLIT PERI AZIMU VELO SNR AR TRES W  DIS CAZ7
 BAR2 SZ IP        335 51.86                             172    -0.210   19 182 
 BAR2 SZ ES   1    336  6.05                             172    -0.6 7   19 182 
 BAR2 SZ I         336  7.93       702.4 0.29                            19 182 
 BTL  SZ EP        335 52.11                             171     0.010   20 331 
 GIR2 SZ EP        335 52.85                             165     0.610   35 357 
 GIR2 SZ ES   2    336  7.98                             165     0.9 5   35 357 
 RUS  HZ EP        335 55.83                             144    -0.310   96 174 
 RUS  HE ES   1    336 13.93                             144     0.1 7   96 174 
 RUS  HZ I         336 15.70       136.0 0.43                            96 174 
 GRA  SZ IP        335 58.63                             134     0.210  131  18 
 GRA  SZ I         336 19.44       162.8 0.59                           131  18 
 OCA  SZ ES   2    336 22.58                             127    -0.9 5  164 355 
 OCA  SZ I         336 26.85       240.1 0.15                           164 355 
 YOP  SZ EP        336  2.61                             125     0.0 9  177 152 
 YOP  SZ I         336  3.28        88.1 0.19                           177 152 
 YOP  SN ES   2    336 25.32                             125    -0.2 4  177 152 
 NOR  SZ EP        336  7.99                             118    -0.1 8  229 235 
 NOR  SN ES   1    336 35.25                             118     0.1 6  229 235 
 CHI  HZ EP   1    336  9.96                             116    -0.1 6  243 195 
 CHI  HN ES   1    336 39.17                             116     0.4 6  243 195 
 CHI  HZ I         336 43.22        88.9 0.67                           243 195 
 ROSC BN ES   1    336 39.09                             116    -0.3 6  247 211 
 ROSC BZ I         336 46.56       133.1 0.44                           247 211 
 HEL  HZ EP   2    336 12.42                             114    -0.2 4  268 257 
 HEL  HN ES   2    336 43.79                             114     0.4 4  268 257 
 HEL  HZ I         336 50.76       103.0 0.85                           268 257 
 VIL  SZ EP   1    336 15.38                             111    -0.3 5  297 189 
 VIL  SE ES   2    336 49.27                             111     0.6 4  297 189 
 VIL  SZ I         336 55.42        71.5 0.37                           297 189 
 RREF HZ EP   2    336 18.34                             110    -0.2 3  316 230 
 RREF HE ES   2    336 54.48                             110     0.7 3  316 230 
 RREF HZ I         337  1.82        95.9 0.25                           316 230 
 DBB  SZ EP        336 19.57                             108    -0.6 7  336 275 
 TOL  SZ EP   1    336 21.03                             108     0.4 5  338 225 
                                                                                
