 2017 11 1 0345 49.0 L   6.792 -73.160146.1  RSN 10 0.4 1.6LRSN                1
 GAP=111        0.87       3.1     3.3  5.8  0.1456E+01  0.1358E+01  0.3497E+01E
 Epicentro: LOS SANTOS - SANTANDER                                             3
 ACTION:UPD 17-12-12 19:50 OP:rebc STATUS:               ID:20171101034549 L   I
 OLDACT:UP  17-11-01 15:45 OP:dnl  STATUS:               ID:20171101033739d    3
 OLDACT:DUP 17-11-01 15:37 OP:dnl  STATUS:               ID:20171101033739d    3
 2017-11-01-0338-00M.COL___420                                                 6
 STAT SP IPHASW D HRMM SECON CODA AMPLIT PERI AZIMU VELO AIN AR TRES W  DIS CAZ7
 BAR2 EZ EP        346  8.47                             171   -0.1410 22.3 186 
 BAR2 EZ ES        346 24.08                             171    0.1410 22.3 186 
 BAR2 EZ I         346 24.43        11.1 0.38            169           22.3 186 
 BRR  HZ IP     C  346 10.22                             153    0.1310 70.2 300 
 BRR  HN ES        346 27.38                             153    0.8110 70.2 300 
 BRR  HZ I         346 29.01         6.9 0.12            151           70.2 300 
 PAM  EZ EP        346 11.44                             150    0.1310 79.1  40 
 PAM  EE ES        346 28.36                             150   -0.3910 79.1  40 
 PAM  EZ I         346 29.39         4.4 0.18            152           79.1  40 
 RUS  HZ EP   2    346 12.30                             144   -0.40 5 99.9 175 
 RUS  HN ES        346 30.57                             144   -0.6310 99.9 175 
 RUS  HZ I         346 32.11         3.9 0.42            143           99.9 175 
 PTB  HZ EP   2    346 15.03                             132   -0.77 5  146 259 
 PTB  HE ES        346 36.60                             132   -0.13 9  146 259 
 PTB  HZ I         346 41.12         3.8 0.26            131            146 259 
 SPBC HZ EP   2    346 17.69                             129    0.36 5  161 219 
 SPBC HN ES        346 39.38                             129   -0.07 9  161 219 
 SPBC HZ I         346 42.10         8.1 0.34            128            161 219 
 YPLC HZ EP        346 19.05                             127    0.26 9  177 151 
 YPLC HE ES        346 42.31                             127    0.26 9  177 151 
 YPLC HZ I         346 45.56         4.1 0.40            127            177 151 
 ZAR  HZ EP   2    346 21.19                             123   -0.12 4  203 293 
 ZAR  HE ES        346 46.12                             123   -0.42 9  203 293 
 ZAR  HZ I         346 52.31         6.9 0.30            122            203 293 
 CHI  HZ EP   2    346 27.00                             117    0.45 4  247 195 
 CHI  HN ES        346 56.10                             117    0.24 8  247 195 
 CHI  HZ I         347  0.12         2.2 0.38            117            247 195 
 GUY2CHZ EP   4    346 35.27                             112    2.89 0  299 235 
 GUY2CHN ES   4    347  9.70                             112    3.45 0  299 235 
 GUY2CHZ I         347 16.29         1.6 0.26                           299 235 
                                                                                
