 2012  4 1 0702 17.9 L   6.779 -73.172143.8  RSN  8 0.3 1.9LRSN                1
 GAP=134        0.80       5.0     4.7  7.4 -0.3428E+01  0.1596E+02 -0.3244E+01E
 Epicentro: LOS SANTOS - SANTANDER                                             3
 ACTION:UPD 12-07-05 11:49 OP:tino STATUS:               ID:20120401070217 L   I
 2012-04-01-0700-00M.COL___196                                                 6
 STAT SP IPHASW D HRMM SECON CODA AMPLIT PERI AZIMU VELO AIN AR TRES W  DIS CAZ7
 BAR2 SZ EP   1    7 2 37.12                             171    -0.1 7   21 183 
 BAR2 SZ ES   1    7 2 52.31                             171     0.0 7   21 183 
 BAR2 SZ I         7 2 55.16        32.5 0.33                            21 183 
 BRR  HZ EP   1    7 2 39.11                             153     0.4 7   70 301 
 BRR  HZ I         7 2 59.00        20.0 0.12                            70 301 
 PAM  SZ EP   1    7 2 40.06                             149     0.0 7   81  40 
 PAM  SN ES   1    7 2 57.32                             149    -0.1 7   81  40 
 PAM  SZ I         7 2 59.35         7.1 0.19                            81  40 
 RUS  HZ EP   1    7 2 40.86                             144    -0.4 7   99 174 
 RUS  HN ES   1    7 2 59.95                             144     0.4 7   99 174 
 RUS  HZ I         7 3  1.03         9.9 0.22                            99 174 
 PTB  HZ EP   1    7 2 43.81                             132    -0.5 7  144 260 
 PTB  HN ES   1    7 3  4.55                             132    -0.5 7  144 260 
 PTB  HZ I         7 3  8.11         9.7 0.16                           144 260 
 ZAR  HZ EP   1    7 2 49.90                             122    -0.1 6  202 293 
 ZAR  HE ES   1    7 3 15.37                             122     0.3 6  202 293 
 ZAR  HZ I         7 3 20.70        11.2 0.32                           202 293 
 NOR  SZ EP   1    7 2 53.15                             118     0.1 6  231 235 
 NOR  SN ES   1    7 3 20.47                             118    -0.1 6  231 235 
 HEL  HZ EP   1    7 2 58.34                             115     0.8 6  269 256 
 HEL  HZ I         7 3 35.54         5.5 0.26                           269 256 
                                                                                
