 2013  9 1 0846 23.7 L   6.794 -73.109146.1  RSN 12 0.5 1.8LRSN                1
 GAP=141        0.87       2.9     4.8  5.9 -0.5793E+00  0.4966E+01 -0.5185E+00E
 Epicentro: LOS SANTOS - SANTANDER                                             3
 ACTION:UPD 13-10-22 09:19 OP:ep   STATUS:               ID:20130901084623 L   I
 OLDACT:UP  13-09-01 11:37 OP:mh   STATUS:               ID:20130901083959     3
 OLDACT:REG 13-09-01 08:54 OP:mh   STATUS:               ID:20130901083959     3
 2013-09-01-0839-59M.COL___269                                                 6
 STAT SP IPHASW D HRMM SECON CODA AMPLIT PERI AZIMU VELO AIN AR TRES W  DIS CAZ7
 BAR2 SZ EP   1    846 43.55                             170    0.13 7 23.7 200 
 BAR2 SZ ES   1    846 58.52                             170   -0.25 7 23.7 200 
 BAR2 SZ I         847  0.71         9.2 0.24            168           23.7 200 
 BRR  HZ EP     C  846 45.48                             151    0.3310 75.1 298 
 BRR  HN ES        847  2.17                             151    0.3210 75.1 298 
 BRR  HZ I         847  7.24        14.0 0.12            149           75.1 298 
 PAM  SZ EP     C  846 46.57                             151    0.6910 75.4  37 
 PAM  SN ES   1    847  3.16                             151    0.01 7 75.4  37 
 PAM  SZ I         847  5.71         7.6 0.59            156           75.4  37 
 RUS  HZ EP   1    846 47.20                             144   -0.26 7 99.7 178 
 RUS  HN ES   1    847  5.75                             144   -0.22 7 99.7 178 
 RUS  HZ I         847  6.84         4.4 0.20            146           99.7 178 
 PTB  HZ EP   1    846 50.21                             131   -0.87 7  152 259 
 PTB  HE ES   2    847 11.98                             131   -0.43 5  152 259 
 PTB  HZ I         847 14.12         9.9 0.18            131            152 259 
 OCA  HZ EP   1    846 51.86                             129   -0.33 7  161 352 
 OCA  HE ES        847 13.86                             129   -0.52 9  161 352 
 OCA  HZ I         847 16.91         9.7 0.38            132            161 352 
 SPBC HZ EP   1    846 52.28                             129   -0.18 7  165 220 
 SPBC HN ES   1    847 14.78                             129   -0.08 7  165 220 
 SPBC HZ I         847 19.05         6.5 0.40            130            165 220 
 ZAR  HZ EP   1    846 56.68                             122    0.06 6  208 292 
 ZAR  HN ES   1    847 22.97                             122    0.71 6  208 292 
 ZAR  HZ I         847 28.37         8.8 0.28            123            208 292 
 SML  HZ EP   1    847  0.14                             117   -0.50 6  246 335 
 SML  HE ES        847 29.32                             117   -0.10 8  246 335 
 SML  HZ I         847 31.62        11.3 0.06            119            246 335 
 CHI  HN ES   2    847 30.35                             117   -0.61 4  249 196 
 CHI  HN I         847 34.40         7.6 0.30            119            249 196 
 HEL  HZ EP   4    847  5.49                             114    1.11 0  276 256 
 HEL  HN ES   4    847 34.44                             114   -1.65 0  276 256 
 HEL  HZ I         847 42.83         1.9 0.24            115            276 256 
 GUY2CHZ EP   4    847  8.87                             112    1.18 0  304 235 
 GUY2CHN ES   4    847 42.36                             112    0.39 0  304 235 
 PRA  HZ EP   1    847 18.32                             106    0.88 4  393 210 
 PRA  HN ES   2    848  0.20                             106    0.88 3  393 210 
                                                                                
