 2013  8 1 0340 25.5 L   6.752 -73.190140.9  RSN  5 0.2 1.5LRSN                1
 GAP=174        0.55       4.6     3.6  5.0  0.9014E+01  0.1382E+01 -0.7627E+01E
 Epicentro: VILLANUEVA - SANTANDER                                             3
 ACTION:UPD 14-01-14 08:58 OP:ep   STATUS:               ID:20130801034025 L   I
 OLDACT:REG 13-08-01 07:43 OP:carl STATUS:               ID:20130801033959     3
 2013-08-01-0339-59M.COL___268                                                 6
 STAT SP IPHASW D HRMM SECON CODA AMPLIT PERI AZIMU VELO AIN AR TRES W  DIS CAZ7
 BAR2 SZ EP        340 44.46                             172   -0.0010 17.7 177 
 BAR2 SZ ES        340 59.22                             172   -0.0210 17.7 177 
 GIR2 SZ EP   1    340 44.45                             165   -0.31 7 36.1 359 
 RUS  HZ EP        340 48.50                             144    0.0510 95.8 173 
 RUS  HN ES        341  6.51                             144    0.1810 95.8 173 
 PTB  HZ EP   1    340 51.56                             132   -0.01 7  142 261 
 PTB  HN ES        341 11.54                             132   -0.35 9  142 261 
 PTB  HZ I         341 14.27         4.4 0.16            131            142 261 
 ZAR  HZ EP        340 57.38                             122   -0.02 9  202 294 
 ZAR  HN ES        341 22.68                             122    0.40 9  202 294 
                                                                                
