 2010 10 1 0242  1.7 L   6.796 -73.025142.9  RSN  6 0.3 1.7LRSN                1
 GAP=247        0.78       6.9     9.6  8.5  0.1523E+02 -0.1435E+02  0.2306E+02E
 Epicentro: CEPITA - SANTANDER                                                 3
 ACTION:UP  11-02-18 11:06 OP:tino STATUS:               ID:20101001024201 L   I
 2010-10-01-0241-17S.COL___125                                                 6
 STAT SP IPHASW D HRMM SECON CODA AMPLIT PERI AZIMU VELO SNR AR TRES W  DIS CAZ7
 BAR2 SZ EP        242 21.27                             169     0.210   29 218 
 BAR2 SZ ES   1    242 36.08                             169    -0.1 7   29 218 
 BAR2 SZ I         242 37.94        14.5 0.28                            29 218 
 BTL  SZ EP        242 21.54                             168     0.410   30 297 
 BRR  HZ EP        242 22.88                             149    -0.410   83 294 
 BRR  HZ I         242 23.37        21.5 0.13                            83 294 
 BRR  HN ES        242 39.94                             149    -0.110   83 294 
 RUS  HZ EP   1    242 24.99                             143    -0.1 7  100 184 
 RUS  HZ I         242 44.72         3.8 0.14                           100 184 
 CHI  HZ EP   1    242 39.26                             116    -0.3 6  252 198 
 CHI  HZ I         242 40.07         2.8 0.34                           252 198 
 CHI  HN ES   2    243  9.36                             116     0.2 4  252 198 
 RREF HN ES   2    243 26.16                             110     0.6 3  332 231 
 RREF HZ I         243 28.49         2.6 0.46                           332 231 
                                                                                
