 2017 11 1 0452 48.8 L   6.768 -73.088147.4  RSN  4 0.3 1.2LRSN                1
 GAP=241        0.64       4.6     7.0  7.8  0.9767E+01  0.1486E+02  0.1125E+02E
 Epicentro: LOS SANTOS - SANTANDER                                             3
 ACTION:UPD 17-12-12 19:50 OP:rebc STATUS:               ID:20171101045248 L   I
 OLDACT:DUP 17-11-01 16:55 OP:dnl  STATUS:               ID:20171101044748d    3
 OLDACT:UP  17-11-01 16:54 OP:dnl  STATUS:               ID:20171101044747d    3
 OLDACT:DUP 17-11-01 16:51 OP:dnl  STATUS:               ID:20171101044747d    3
 OLDACT:UP  17-11-01 16:50 OP:dnl  STATUS:               ID:20171101044746     3
 OLDACT:UP  17-11-01 16:50 OP:dnl  STATUS:               ID:20171101044746     3
 OLDACT:REG 17-11-01 13:37 OP:dnl  STATUS:               ID:20171101044746     3
 2017-11-01-0448-00M.COL___420                                                 6
 STAT SP IPHASW D HRMM SECON CODA AMPLIT PERI AZIMU VELO AIN AR TRES W  DIS CAZ7
 BAR2 EZ EP   2    453  8.51                             171   -0.11 5 22.1 208 
 BAR2 EZ ES        453 23.62                             171   -0.4510 22.1 208 
 BAR2 EZ I         453 25.27         4.7 0.16            165           22.1 208 
 BRR  HZ EP   2    453 10.56                             150   -0.01 5 78.5 299 
 BRR  HE ES        453 27.79                             150    0.2610 78.5 299 
 BRR  HZ I         453 28.13         3.0 0.34            149           78.5 299 
 RUS  HZ EP   2    453 12.49                             145    0.03 5 96.8 180 
 RUS  HN ES        453 31.27                             145    0.3610 96.8 180 
 RUS  HZ I         453 32.37         0.8 0.28            143           96.8 180 
 SPBC HZ EP   2    453 17.40                             129   -0.18 5  165 222 
 SPBC HE ES        453 39.87                             129   -0.14 9  165 222 
 SPBC HZ I         453 44.43         3.4 0.24            127            165 222 
                                                                                
