 2012 10 1 0701 27.5 L   6.730 -73.100142.0  RSN  4 0.2 1.9LRSN                1
 GAP=212        0.45       4.0     9.1 11.1 -0.8026E+01 -0.5807E+02  0.2111E+02E
 Epicentro: JORDAN - SANTANDER                                                 3
 ACTION:UPD 12-11-22 17:01 OP:ep   STATUS:               ID:20121001070127 L   I
 2012-10-01-0659-37M.COL___184                                                 6
 STAT SP IPHASW D HRMM SECON CODA AMPLIT PERI AZIMU VELO AIN AR TRES W  DIS CAZ7
 BAR2 SZ EP        7 1 46.79                             173    0.2210 17.7 211 
 BAR2 SZ I         7 2  2.70        17.1 0.26                          17.7 211 
 GIR2 SZ EP        7 1 46.81                             164   -0.1810 39.9 345 
 BRR  HZ EP        7 1 48.66                             150   -0.0710 79.4 302 
 BRR  HN ES   1    7 2  5.41                             150    0.11 7 79.4 302 
 BRR  HZ I         7 2  9.61        17.4 0.14                          79.4 302 
 CHI  HZ EP   3    7 2  4.96                             118    0.63 2  243 197 
 CHI  HN ES   1    7 2 32.90                             118   -0.16 6  243 197 
 CHI  HN I         7 2 41.10         6.2 0.48                           243 197 
                                                                                
