 2013 11 1 0625 32.7 L   6.818 -73.131145.9  RSN  5 0.3 1.2LRSN                1
 GAP=246        0.81       5.8     5.0  7.2  0.1217E+02  0.6466E+01 -0.5200E+01E
 Epicentro: LOS SANTOS - SANTANDER                                             3
 ACTION:UPD 14-01-09 16:24 OP:ep   STATUS:               ID:20131101062532 L   I
 OLDACT:REG 13-11-01 08:38 OP:jn   STATUS:               ID:20131101062000     3
 2013-11-01-0620-00M.COL___273                                                 6
 STAT SP IPHASW D HRMM SECON CODA AMPLIT PERI AZIMU VELO AIN AR TRES W  DIS CAZ7
 BAR2 SZ EP        625 52.16                             170   -0.2710 25.6 193 
 BAR2 SZ ES        626  7.96                             170    0.1710 25.6 193 
 RUS  HZ EP        625 57.01                             143    0.3710  102 177 
 RUS  HN ES        626 15.06                             143   -0.2210  102 177 
 RUS  HZ I         626 17.13         1.3 0.76            140            102 177 
 PTB  HZ EP        625 59.64                             132   -0.26 9  150 258 
 PTB  HN ES        626 20.61                             132   -0.47 9  150 258 
 PTB  HZ I         626 25.57         2.8 0.40            129            150 258 
 SPBC HZ EP   1    626  1.41                             129   -0.08 7  166 219 
 SPBC HE ES        626 24.31                             129    0.39 9  166 219 
 SPBC HZ I         626 28.78         3.0 0.20            126            166 219 
 ZAR  HE ES        626 31.06                             122    0.42 9  205 291 
                                                                                
