 2015  5 1 0643 57.1 L   7.421 -73.202129.4  RSN  7 0.5 1.8LRSN                1
 GAP=107        1.30       4.1     5.9  8.5  0.6755E+01  0.1193E+02 -0.7080E+00E
 Epicentro: EL PLAYON - SANTANDER                                              3
 ACTION:UPD 15-09-10 22:00 OP:cam  STATUS:               ID:20150501064357 L   I
 OLDACT:REG 15-05-01 12:53 OP:drio STATUS:               ID:20150501063750     3
 2015-05-01-0637-50M.COL___273                                                 6
 STAT SP IPHASW D HRMM SECON CODA AMPLIT PERI AZIMU VELO AIN AR TRES W  DIS CAZ7
 PAM  SZ EP        644 16.87                             155    0.5010 56.2  99 
 PAM  SN ES        644 31.58                             155    0.1810 56.2  99 
 PAM  SZ I         644 33.67        13.7 0.40            159           56.2  99 
 BRR  HZ EP     D  644 16.67                             151    0.4710 66.1 238 
 BRR  HN ES        644 31.27                             151    0.1710 66.1 238 
 BRR  HZ I         644 32.98        18.6 0.12            150           66.1 238 
 OCA  HZ EP        644 18.38                             143    0.2710 91.4 352 
 OCA  HZ I         644 18.65        18.0 0.22            144           91.4 352 
 OCA  HE ES        644 34.44                             143   -0.0610 91.4 352 
 BAR2 EZ EP        644 18.45                             143    0.2010 91.6 179 
 BAR2 EZ ES        644 34.63                             143   -0.1110 91.6 179 
 BAR2 EZ I         644 36.05        12.8 0.30            144           91.6 179 
 RUS  HZ EP        644 25.57                             124    0.00 9  170 176 
 RUS  HZ I         644 26.17         2.3 0.28            126            170 176 
 RUS  HN ES        644 46.54                             124   -1.23 9  170 176 
 SML  HZ EP        644 25.57                             122   -0.44 9  180 328 
 SML  HE ES        644 47.45                             122   -1.10 9  180 328 
 ZAR  HZ EP        644 26.69                             122    0.38 9  183 273 
 ZAR  HN ES        644 49.48                             122    0.39 9  183 273 
 ZAR  HZ I         644 54.38         8.3 0.26            122            183 273 
                                                                                
