 2013  5 1 0602 39.2 L   6.790 -73.130142.3  RSN 11 0.4 2.2LRSN                1
 GAP=139        1.10       3.9     4.5  6.6 -0.2571E+01  0.8289E+01 -0.1306E+01E
 Epicentro: LOS SANTOS - SANTANDER                                             3
 ACTION:UPD 13-06-20 09:47 OP:ep   STATUS:               ID:20130501060239 L   I
 2013-05-01-0600-00M.COL___253                                                 6
 STAT SP IPHASW D HRMM SECON CODA AMPLIT PERI AZIMU VELO AIN AR TRES W  DIS CAZ7
 BAR2 SZ EP        6 2 58.45                             171    0.0710 22.6 195 
 BAR2 SZ ES        6 3 13.11                             171   -0.2510 22.6 195 
 BAR2 SZ I         6 3 14.78        33.4 0.20            169           22.6 195 
 GIR2 SZ EP   1    6 2 58.18                             166   -0.30 7 32.6 348 
 BRR  HZ EP     D  6 3  0.21                             151    0.1410 73.2 299 
 BRR  HN ES        6 3 17.34                             151    0.9710 73.2 299 
 BRR  HZ I         6 3 20.92        46.7 0.12            149           73.2 299 
 PAM  SZ EP     C  6 3  1.37                             150    0.3610 77.2  38 
 PAM  SN ES        6 3 17.43                             150   -0.6210 77.2  38 
 PAM  SZ I         6 3 19.38        10.2 0.18            153           77.2  38 
 RUS  HZ EP        6 3  2.44                             143   -0.0710 99.4 177 
 RUS  HN ES        6 3 21.00                             143    0.3010 99.4 177 
 RUS  HZ I         6 3 22.55        15.2 0.66            145           99.4 177 
 PTB  HZ EP     C  6 3  5.37                             131   -0.63 9  149 259 
 PTB  HN ES        6 3 26.12                             131   -0.80 9  149 259 
 PTB  HZ I         6 3 28.49        22.6 0.64            130            149 259 
 OCA  HZ EP        6 3  7.61                             129    0.27 9  162 353 
 OCA  HN ES        6 3 29.30                             129   -0.01 9  162 353 
 OCA  HZ I         6 3 32.13        22.5 0.14            130            162 353 
 ZAR  HZ EP        6 3 11.65                             121    0.04 8  206 292 
 ZAR  HN ES        6 3 36.82                             121   -0.08 8  206 292 
 ZAR  HZ I         6 3 42.11        16.0 0.30            121            206 292 
 NOR  HZ EP     C  6 3 14.90                             118    0.11 8  235 235 
 NOR  HN ES        6 3 42.96                             118    0.39 8  235 235 
 NOR  HZ I         6 3 48.50        12.5 0.18            118            235 235 
 SML  HZ EP   4    6 3 15.00                             116   -0.80 0  245 335 
 SML  HN ES   4    6 3 45.43                             116    1.07 0  245 335 
 SML  HZ I         6 3 46.69        29.7 0.10            117            245 335 
 PRA  HZ EP   4 C  6 3 33.12                             106    0.55 0  392 210 
 PRA  HN ES   4    6 4 16.92                             106    2.70 0  392 210 
 PRA  HZ I         6 4 20.92        10.3 0.34            107            392 210 
                                                                                
