 2012  5 1 0723 59.8 L   6.644 -73.154154.0  RSN  4 0.3 1.2LRSN                1
 GAP=141        0.53       6.8     6.3  9.0  0.3784E+01 -0.1821E+02 -0.1299E+02E
 Epicentro: VILLANUEVA - SANTANDER                                             3
 ACTION:UP  12-07-05 12:01 OP:pat  STATUS:               ID:20120501072359 L   I
 2012-05-01-0720-00M.COL___189                                                 6
 STAT SP IPHASW D HRMM SECON CODA AMPLIT PERI AZIMU VELO SNR AR TRES W  DIS CAZ7
 BRR  HZ EP   1    724 22.28                             151     0.0 7   80 310 
 BRR  HN ES   1    724 40.12                             151     0.2 7   80 310 
 RUS  HN ES   2    724 41.64                             151     0.1 5   83 175 
 PAM  SZ EP   1    724 23.58                             148    -0.2 7   92  33 
 PTB  HZ EP   2    724 27.57                             135     0.4 5  144 265 
 PTB  HN ES   2    724 47.88                             135    -0.6 5  144 265 
 PTB  HZ I         724 58.87         1.8 0.50                           144 265 
                                                                                
