 2011 11 1 0502 40.9 L   6.793 -73.135141.5  RSN  8 0.4 2.0LRSN                1
 GAP=138        0.78       3.6     5.0  6.4 -0.4444E+01  0.9937E+01 -0.6665E-02E
 Epicentro: LOS SANTOS - SANTANDER                                             3
 ACTION:UPD 12-07-13 16:07 OP:ep   STATUS:               ID:20111101050240 L   I
 2011-11-01-0501-07S.COL___175                                                 6
 STAT SP IPHASW D HRMM SECON CODA AMPLIT PERI AZIMU VELO AIN AR TRES W  DIS CAZ7
 BTL  SZ EP   2    5 3  0.27                             171    0.33 5 20.1 313 
 BAR2 SZ EP        5 2 59.82                             170   -0.1710 22.8 193 
 BAR2 SZ ES   2    5 3 14.35                             170   -0.54 5 22.8 193 
 BAR2 SZ I         5 3 16.00        20.6 0.20                          22.8 193 
 BRR  HZ IP        5 3  1.90                             151    0.2510 72.6 299 
 BRR  HZ I         5 3  4.06        36.5 0.12                          72.6 299 
 BRR  HN ES   1    5 3 18.45                             151    0.60 7 72.6 299 
 PAM  SZ EP        5 3  2.98                             150    0.3410 77.2  39 
 PAM  SN ES   1    5 3 19.66                             150    0.06 7 77.2  39 
 RUS  HZ EP        5 3  4.09                             143   -0.0610 99.8 177 
 RUS  HN ES   1    5 3 22.09                             143   -0.22 7 99.8 177 
 RUS  HZ I         5 3 23.50        10.4 0.40                          99.8 177 
 OCA  SZ EP        5 3  8.58                             129   -0.37 9  161 353 
 OCA  SZ ES   1    5 3 30.22                             129   -0.62 7  161 353 
 NOR  SZ EP   1    5 3 16.06                             118   -0.36 6  235 235 
 NOR  SN ES   1    5 3 44.43                             118    0.29 6  235 235 
 HEL  HZ EP        5 3 21.38                             114    0.40 8  273 256 
 HEL  HN ES   2    5 3 51.14                             114   -1.12 4  273 256 
                                                                                
