 2012  1 1 0825 19.4 L   6.816 -73.150140.0  RSN 10 0.4 2.3LRSN                1
 GAP=135        0.86       4.9     5.0  6.3 -0.2542E+01  0.7446E+01  0.7817E+01E
 Epicentro: LOS SANTOS - SANTANDER                                             3
 ACTION:UP  12-02-03 08:12 OP:REBC STATUS:               ID:20120101082519 L   I
 2012-01-01-0820-00M.COL___186                                                 6
 STAT SP IPHASW D HRMM SECON CODA AMPLIT PERI AZIMU VELO SNR AR TRES W  DIS CAZ7
 BAR2 SZ IP        825 38.37                             169     0.010   25 188 
 BAR2 SZ I         825 38.67        55.1 0.12                            25 188 
 BAR2 SZ ES   1    825 53.17                             169     0.0 7   25 188 
 BRR  HZ IP     C  825 39.78                             152     0.010   70 297 
 BRR  HZ I         825 40.15        50.1 0.11                            70 297 
 BRR  HE ES   1    825 56.58                             152     0.8 7   70 297 
 PAM  SZ EP   1    825 40.86                             150     0.0 7   76  41 
 PAM  SN ES   1    825 57.46                             150    -0.2 7   76  41 
 PAM  SZ I         825 59.69        42.2 0.39                            76  41 
 RUS  HZ EP   1    825 42.72                             142     0.0 7  102 176 
 RUS  HZ I         825 43.43        14.4 0.18                           102 176 
 RUS  HE ES   1    826  0.69                             142    -0.2 7  102 176 
 PTB  HZ EP   1    825 44.92                             131    -0.9 7  148 258 
 PTB  HN ES   1    826  6.05                             131    -0.5 7  148 258 
 ZAR  HZ EP   1    825 51.36                             121     0.0 6  203 292 
 ZAR  HZ I         826 21.44        49.2 0.35                           203 292 
 NOR  SZ EP   1    825 55.13                             117     0.3 6  235 234 
 NOR  SN ES   1    826 22.54                             117     0.1 6  235 234 
 CHI  HZ EP   1    825 57.29                             116     0.4 6  250 195 
 CHI  HZ I         825 59.35         9.8 0.26                           250 195 
 VIL  SZ EP   1    826  2.76                             111     0.1 5  305 191 
 VIL  SZ I         826 48.60        11.7 0.45                           305 191 
 PRA  HZ EP   1    826 13.35                             105     0.5 4  393 209 
                                                                                
