 2016  7 1 0021  1.3 L   6.771 -73.136144.7  RSN  8 0.5 1.8LRSN                1
 GAP=236        1.06       5.2     5.9  7.6  0.6990E+01  0.1417E+02  0.3148E+01E
 Epicentro: LOS SANTOS - SANTANDER                                             3
 ACTION:UPD 17-03-29 16:45 OP:lp   STATUS:               ID:20160701002101 L   I
 OLDACT:REG 16-07-01 12:28 OP:ak   STATUS:               ID:20160701001745     3
 2016-07-01-0017-45M.COL___355                                                 6
 STAT SP IPHASW D HRMM SECON CODA AMPLIT PERI AZIMU VELO AIN AR TRES W  DIS CAZ7
 BAR2 EZ IP     C  021 20.96                             172    0.2310 20.4 195 
 BAR2 EZ ES        021 35.79                             172   -0.1110 20.4 195 
 BAR2 EZ I         021 36.73        12.7 0.28            170           20.4 195 
 BRR  HZ IP     C  021 22.85                             151    0.3810 73.8 300 
 BRR  HN ES        021 39.52                             151    0.5310 73.8 300 
 BRR  HZ I         021 43.88        13.4 0.12            149           73.8 300 
 RUS  HZ EP   2    021 24.32                             145   -0.38 5 97.3 177 
 RUS  HE ES        021 42.46                             145   -0.4910 97.3 177 
 RUS  HZ I         021 44.22         5.4 0.26            147           97.3 177 
 PTB  HZ EP        021 27.40                             132   -0.82 9  148 260 
 PTB  HN ES        021 48.68                             132   -0.53 9  148 260 
 PTB  HZ I         021 52.37         7.5 0.10            131            148 260 
 SPBC HZ EP        021 29.99                             129    0.45 9  161 220 
 SPBC HN ES        021 52.05                             129    0.49 9  161 220 
 SPBC HZ I         021 52.86        12.8 0.08            130            161 220 
 ZAR  HZ EP   2    021 33.17                             122   -0.73 4  206 293 
 ZAR  HN ES        021 59.06                             122   -0.27 8  206 293 
 ZAR  HZ I         022  3.23         6.7 0.23            122            206 293 
 NOR  HZ EP   2    021 37.72                             118    0.86 4  234 235 
 NOR  HE ES        022  4.75                             118    0.16 8  234 235 
 NOR  HZ I         022 10.34         5.4 0.16            119            234 235 
 HEL  HN ES   4    022 11.11                             114   -1.72 0  272 257 
 GUY2CHZ EP   2    021 44.92                             112    0.18 4  300 235 
 GUY2CHE ES   4    022 20.39                             112    1.76 0  300 235 
 GUY2CHZ I         022 26.30         4.2 0.26                           300 235 
                                                                                
