 2014 10 1 0226 25.7 L   6.768 -73.156141.2  RSN 10 0.4 1.8LRSN                1
 GAP=155        1.20       5.3     4.0  6.9 -0.7172E+00  0.1972E+01  0.1095E+02E
 Epicentro: LOS SANTOS - SANTANDER                                             3
 ACTION:UPD 14-11-29 23:45 OP:nd   STATUS:               ID:20141001022625 L   I
 OLDACT:DUP 14-10-01 18:37 OP:stll STATUS:               ID:20141001021818d    3
 2014-10-01-0218-17M.COL___289                                                 6
 STAT SP IPHASW D HRMM SECON CODA AMPLIT PERI AZIMU VELO AIN AR TRES W  DIS CAZ7
 BAR2 SZ EP        226 44.66                             171   -0.0010 19.7 188 
 BAR2 SZ ES        226 59.63                             171    0.1410 19.7 188 
 BAR2 SZ I         227  0.87        28.3 0.14            167           19.7 188 
 BRR  HZ EP        226 46.55                             152    0.2010 72.0 301 
 BRR  HE ES        227  3.21                             152    0.7110 72.0 301 
 BRR  HZ I         227  4.41        17.2 0.12            152           72.0 301 
 RUS  HZ EP        226 48.47                             144   -0.2410 97.2 175 
 RUS  HZ I         226 49.44         9.0 0.48            142           97.2 175 
 RUS  HN ES        227  6.76                             144    0.0710 97.2 175 
 PTB  HZ EP        226 51.52                             131   -0.57 9  146 260 
 PTB  HN ES        227 11.83                             131   -0.88 9  146 260 
 PTB  HZ I         227 18.28         8.0 0.14            131            146 260 
 TAM  HZ EP        226 52.98                             129   -0.02 9  155 104 
 TAM  HZ I         226 53.32        12.6 0.28            132            155 104 
 TAM  HN ES        227 13.90                             129   -0.42 9  155 104 
 SPBC HZ EP        226 53.63                             129    0.15 9  160 219 
 SPBC HN ES        227 14.92                             129   -0.25 9  160 219 
 SPBC HZ I         227 20.98        12.1 0.12            128            160 219 
 CHI  HZ EP        227  2.75                             116    0.05 8  245 195 
 CHI  HN ES        227 32.19                             116    0.60 8  245 195 
 CHI  HZ I         227 39.86         2.3 0.22            117            245 195 
 GUY2CHZ EP        227  9.50                             112    0.78 7  298 235 
 GUY2CHE ES        227 42.42                             112    0.11 7  298 235 
 GUY2CHZ I         227 51.06         5.4 0.42                           298 235 
 MON  HZ EP   9    227 12.29                             108   -2.34 0  355 309 
 MON  HZ I         227 14.73         0.8 0.40            109            355 309 
 MON  HN ES        227 48.70                                   -1.79 6  355 309 
 PRA  HZ EP        227 18.72                             106    0.12 6  388 210 
 PRA  HE ES        227 59.70                             106   -0.19 6  388 210 
 PRA  HZ I         228  3.82         2.7 0.54            106            388 210 
                                                                                
