 2017  4 1 0500 33.3 L   6.768 -73.125138.9  RSN  6 0.4 1.1LRSN                1
 GAP=141        0.91       3.7     4.4  6.1 -0.9220E-01  0.7706E+01  0.4064E+00E
 Epicentro: LOS SANTOS - SANTANDER                                             3
 ACTION:UPD 17-05-30 21:07 OP:jn   STATUS:               ID:20170401050033 L   I
 OLDACT:DUP 17-04-01 15:11 OP:lv   STATUS:               ID:20170401045646d    3
 2017-04-01-0457-00M.COL___362                                                 6
 STAT SP IPHASW D HRMM SECON CODA AMPLIT PERI AZIMU VELO AIN AR TRES W  DIS CAZ7
 BAR2 EZ EP        5 0 51.85                             171   -0.2110 20.5 198 
 BAR2 EZ ES        5 1  6.55                             171   -0.1410 20.5 198 
 BAR2 EZ I         5 1  7.81         5.1 0.09            169           20.5 198 
 BRR  HZ EP        5 0 53.77                             150   -0.1710 74.9 300 
 BRR  HN ES        5 1 10.19                             150    0.1510 74.9 300 
 BRR  HZ I         5 1 11.58         3.9 0.22            148           74.9 300 
 PAM  EZ EP        5 0 54.65                             149   -0.2310 78.7  37 
 PAM  EN ES        5 1 11.61                             149   -0.1010 78.7  37 
 RUS  HZ EP        5 0 56.58                             143    0.4610 97.0 177 
 RUS  HN ES        5 1 14.44                             143    0.5210 97.0 177 
 RUS  HZ I         5 1 15.42         1.4 0.19            144           97.0 177 
 SPBC HZ EP        5 1  0.72                             128   -0.45 9  162 220 
 SPBC HN ES        5 1 22.39                             128   -0.52 9  162 220 
 SPBC HZ I         5 1 25.40         1.9 0.19            128            162 220 
 ZAR  HZ EP        5 1  6.29                             120    0.61 8  208 293 
 ZAR  HE ES        5 1 31.07                             120    0.14 8  208 293 
 ZAR  HZ I         5 1 36.11         0.9 0.11            120            208 293 
                                                                                
