 2015  5 1 0602 19.6 L   6.769 -73.140143.8  RSN  6 0.2 1.3LRSN                1
 GAP=139        0.65       2.7     3.5  4.7  0.1689E+01  0.3982E+01 -0.7836E+00E
 Epicentro: LOS SANTOS - SANTANDER                                             3
 ACTION:UPD 15-09-10 22:00 OP:cam  STATUS:               ID:20150501060219 L   I
 OLDACT:REG 15-05-01 12:51 OP:drio STATUS:               ID:20150501055750     3
 2015-05-01-0557-50M.COL___273                                                 6
 STAT SP IPHASW D HRMM SECON CODA AMPLIT PERI AZIMU VELO AIN AR TRES W  DIS CAZ7
 BAR2 EZ EP        6 2 38.81                             172   -0.1410 20.1 193 
 BAR2 EZ ES        6 2 54.08                             172    0.0410 20.1 193 
 BAR2 EZ I         6 2 54.98         4.7 0.18            171           20.1 193 
 BRR  HZ EP        6 2 40.99                             151    0.3010 73.4 301 
 BRR  HN ES        6 2 57.28                             151    0.1610 73.4 301 
 BRR  HZ I         6 3  1.10         4.8 0.18            151           73.4 301 
 PAM  SZ EP        6 2 42.05                             150    0.2810 79.7  38 
 PAM  SZ I         6 2 42.11         3.2 0.18            152           79.7  38 
 PAM  SN ES        6 2 58.98                             150   -0.0610 79.7  38 
 RUS  HZ EP        6 2 42.53                             144   -0.4010 97.1 176 
 RUS  HN ES        6 3  1.17                             144    0.0510 97.1 176 
 RUS  HZ I         6 3  2.40         1.7 0.38            146           97.1 176 
 OCA  HN ES        6 3 10.04                             129   -0.29 9  164 353 
 ZAR  HZ EP        6 2 52.44                             122    0.31 8  206 293 
 ZAR  HN ES        6 3 17.18                             122   -0.31 8  206 293 
 ZAR  HZ I         6 3 19.57         2.4 0.12            123            206 293 
                                                                                
