 2013  7 1 0552 58.3 L   6.746 -73.191143.0  RSN  4 0.4 1.3LRSN                1
 GAP=228        1.09       8.5     8.4 11.0  0.3671E+02 -0.9430E+01 -0.5112E+01E
 Epicentro: VILLANUEVA - SANTANDER                                             3
 ACTION:UPD 13-08-12 10:34 OP:ep   STATUS:               ID:20130701055258 L   I
 OLDACT:DUP 13-07-01 13:21 OP:stll STATUS:               ID:20130701054837d    3
 2013-07-01-0548-36M.COL___227                                                 6
 STAT SP IPHASW D HRMM SECON CODA AMPLIT PERI AZIMU VELO AIN AR TRES W  DIS CAZ7
 BAR2 SZ EP        553 16.89                             173   -0.5510 17.0 177 
 BAR2 SZ I         553 33.55         2.0 0.18            174           17.0 177 
 BRR  HZ EP        553 18.72                             152   -0.3310 70.1 305 
 BRR  HN ES        553 35.69                             152    0.4310 70.1 305 
 BRR  HN I         553 39.10         6.0 0.16            151           70.1 305 
 RUS  HZ EP        553 21.63                             145    0.2810 95.1 173 
 RUS  HE ES        553 39.40                             145    0.0510 95.1 173 
 RUS  HE I         553 40.77         4.5 0.52            147           95.1 173 
 PTB  HZ EP        553 25.06                             133    0.60 9  142 261 
 PTB  HN ES        553 44.42                             133   -0.47 9  142 261 
 PTB  HN I         553 49.93         3.0 0.28            135            142 261 
                                                                                
