 2012  7 1 0820 32.8 L   6.818 -73.113143.5  RSN 10 0.4 1.8LRSN                1
 GAP=140        0.92       4.3     5.5  7.2  0.4165E+00  0.9427E+01  0.3219E+01E
 Epicentro: LOS SANTOS - SANTANDER                                             3
 ACTION:UPD 12-08-14 11:41 OP:ep   STATUS:               ID:20120701082032 L   I
 2012-07-01-0820-00M.COL___201                                                 6
 STAT SP IPHASW D HRMM SECON CODA AMPLIT PERI AZIMU VELO AIN AR TRES W  DIS CAZ7
 BAR2 SZ EP   1    820 52.21                             169     0.0 7   26 197 
 BAR2 SZ ES   1    821  7.09                             169    -0.3 7   26 197 
 BAR2 SZ I         821  9.98        18.5 0.34            162             26 197 
 PAM  SZ EP   1    820 54.84                             152     0.3 7   74  38 
 BRR  HZ EP        820 53.98                             151     0.110   74 296 
 BRR  HN ES   1    821 10.99                             151     0.7 7   74 296 
 BRR  HZ I         821 14.82        12.8 0.14            141             74 296 
 RUS  HZ EP   1    820 56.60                             143     0.1 7  102 178 
 RUS  HN ES   1    821 15.02                             143     0.1 7  102 178 
 RUS  HZ I         821 16.80         6.4 0.47            134            102 178 
 PTB  HZ EP   1    820 59.08                             131    -0.9 7  152 258 
 PTB  HE ES   1    821 21.08                             131    -0.1 7  152 258 
 PTB  HZ I         821 22.79         6.7 0.10            120            152 258 
 OCA  HN ES   1    821 22.02                             129    -0.6 7  159 352 
 ZAR  HZ EP   1    821  6.10                             121     0.7 6  207 291 
 ZAR  HN ES   1    821 30.69                             121    -0.1 6  207 291 
 ZAR  HZ I         821 36.20         6.7 0.14            113            207 291 
 NOR  SZ EP   1    821  8.80                             118    -0.1 6  239 235 
 NOR  SN ES   1    821 36.57                             118    -0.4 6  239 235 
 HEL  HZ EP   1    821 13.89                             114     0.5 6  276 256 
 HEL  HZ I         821 51.41         4.4 0.43            106            276 256 
 PRA  HZ EP   1    821 26.19                             106    -0.5 4  396 210 
 PRA  HN ES   1    822  9.15                             106     0.5 4  396 210 
