 2016 11 1 0708 28.7 L   6.748 -73.096143.3  RSN 11 0.4 1.7LRSN                1
 GAP=125        0.86       3.3     4.1  4.8 -0.1694E+01 -0.1199E+00  0.6743E+01E
 Epicentro: LOS SANTOS - SANTANDER                                             3
 ACTION:UPD 17-10-26 21:03 OP:lp   STATUS:               ID:20161101070828 L   I
 OLDACT:UP  16-11-01 18:07 OP:dani STATUS:               ID:20161101065746d    3
 OLDACT:UP  16-11-01 18:06 OP:dani STATUS:               ID:20161101065746d    3
 OLDACT:UP  16-11-01 18:06 OP:dani STATUS:               ID:20161101065746d    3
 OLDACT:DUP 16-11-01 18:02 OP:dani STATUS:               ID:20161101065746d    3
 OLDACT:UP  16-11-01 18:01 OP:dani STATUS:               ID:20161101065745     3
 OLDACT:REG 16-11-01 12:33 OP:dani STATUS:               ID:20161101065745     3
 2016-11-01-0658-00M.COL___313                                                 6
 STAT SP IPHASW D HRMM SECON CODA AMPLIT PERI AZIMU VELO AIN AR TRES W  DIS CAZ7
 BAR2 EZ EP        7 8 47.85                             172   -0.0810 19.7 209 
 BAR2 HN ES        7 9  3.36                             172    0.4110 19.7 209 
 PAM  EZ EP        7 8 50.72                             150    0.0210 78.7  34 
 PAM  EE ES        7 9  8.00                             150    0.1110 78.7  34 
 PAM  EZ I         7 9 10.16         7.5 0.42            156           78.7  34 
 BRR  HZ EP        7 8 49.59                             150   -0.4010 78.8 300 
 BRR  HN ES        7 9  6.33                             150   -0.3110 78.8 300 
 BRR  HZ I         7 9 10.62         9.0 0.17            151           78.8 300 
 RUS  HZ EP        7 8 51.71                             145   -0.0310 94.6 179 
 RUS  HE ES        7 9  9.78                             145    0.0310 94.6 179 
 RUS  HZ I         7 9 11.68         7.9 0.37            145           94.6 179 
 PTB  HZ EP   9    7 8 54.53                             131   -1.30 0  152 261 
 PTB  HN ES        7 9 15.64                             130   -0.09 9  152 261 
 PTB  HZ I         7 9 18.13         5.6 0.09            131            152 261 
 SPBC HZ EP        7 8 56.79                             129   -0.10 9  162 222 
 SPBC HN ES   4    7 9 17.29                             129   -1.62 0  162 222 
 SPBC HZ I         7 9 25.70        10.9 0.25            129            162 222 
 NOR  HN ES        7 9 31.73                             118   -0.51 8  236 236 
 CHI  HZ EP        7 9  5.93                             117    0.15 8  245 197 
 CHI  HN ES        7 9 34.94                             117    0.20 8  245 197 
 CHI  HZ I         7 9 41.37         2.4 0.33            118            245 197 
 ROSC BZ EP        7 9  7.21                             116    0.78 8  251 213 
 ROSC BN ES   4    7 9 40.09                             116    4.20 0  251 213 
 ROSC BZ I         7 9 42.73         5.6 0.50            117            251 213 
 PTGC HZ EP        7 9 11.02                             112   -0.55 7  301 159 
 PTGC HN ES        7 9 44.64                             112   -0.41 7  301 159 
 PTGC HZ I         7 9 46.66         2.5 0.26            113            301 159 
 GUY2CHZ EP        7 9 13.17                             112    0.88 7  302 236 
 GUY2CHE ES   4    7 9 50.19                             112    3.86 0  302 236 
 GUY2CHZ I         7 9 54.00         3.1 0.44                           302 236 
                                                                                
