 2010 12 1 0907 17.3 L   6.784 -73.091149.6  RSN  9 0.2 2.0LRSN                1
 GAP=165        0.60       2.2     4.6  4.2 -0.2756E+01  0.2136E+01  0.5205E+00E
 Epicentro: LOS SANTOS - SANTANDER                                             3
 ACTION:UP  11-01-14 15:22 OP:pat  STATUS:               ID:20101201090717 L   I
 2010-12-01-0904-35S.COL___132                                                 6
 STAT SP IPHASW D HRMM SECON CODA AMPLIT PERI AZIMU VELO SNR AR TRES W  DIS CAZ7
 BAR2 SZ IP     C  9 7 37.24                             171    -0.210   24 206 
 BAR2 SZ ES   1    9 7 53.05                             171     0.0 7   24 206 
 BAR2 SZ I         9 7 55.24        19.5 0.38                            24 206 
 BRR  HZ IP     C  9 7 39.14                             151    -0.110   77 298 
 BRR  HZ I         9 7 39.44        38.6 0.11                            77 298 
 BRR  HN ES   1    9 7 56.41                             151     0.1 7   77 298 
 RUS  HZ EP        9 7 41.06                             145    -0.210   99 179 
 RUS  HZ I         9 7 42.31         6.6 0.39                            99 179 
 RUS  HN ES   1    9 8  0.03                             145     0.0 7   99 179 
 GUE  SZ EP        9 7 42.47                             140     0.010  117   9 
 GRA  SZ EP        9 7 43.24                             138     0.310  126  15 
 GRA  SZ ES   1    9 8  3.29                             138     0.4 7  126  15 
 GRA  SZ I         9 8  5.05        15.4 0.46                           126  15 
 OCA  SZ EP        9 7 45.78                             130    -0.4 9  163 351 
 OCA  SZ ES   1    9 8  8.50                             130    -0.2 7  163 351 
 OCA  SZ I         9 8 12.57        19.8 0.36                           163 351 
 CHI  HZ EP        9 7 55.40                             118     0.2 8  249 197 
 CHI  HE ES   1    9 8 25.10                             118     0.3 6  249 197 
 CHI  HZ I         9 8 32.46         4.7 0.06                           249 197 
 HEL  HZ EP        9 7 58.58                             115     0.2 7  277 256 
 HEL  HE ES   2    9 8 30.36                             115     0.0 4  277 256 
 HEL  HZ I         9 8 35.93         6.7 0.23                           277 256 
 PRA  HZ EP   1    9 8 11.26                             107     0.1 4  393 210 
 PRA  HN ES   2    9 8 52.86                             107    -0.3 3  393 210 
                                                                                
