 2012  8 1 0551 33.7 L   6.700 -73.164147.2  RSN  5 0.2 1.2LRSN                1
 GAP=228        0.39       3.9     3.7  4.1  0.7706E+01  0.1485E+01 -0.9452E+00E
 Epicentro: VILLANUEVA - SANTANDER                                             3
 ACTION:UPD 12-09-10 11:53 OP:ep   STATUS:               ID:20120801055133 L   I
 2012-08-01-0550-00M.COL___215                                                 6
 STAT SP IPHASW D HRMM SECON CODA AMPLIT PERI AZIMU VELO AIN AR TRES W  DIS CAZ7
 BAR2 SZ EP   1    551 53.21                             175   -0.12 7 12.1 190 
 BAR2 SZ I         551 53.58         4.0 0.22                          12.1 190 
 BAR2 SZ ES   1    552  8.49                             175   -0.16 7 12.1 190 
 BRR  HZ EP        551 55.25                             151    0.0010 75.5 307 
 BRR  HN ES   1    552 12.19                             151    0.13 7 75.5 307 
 RUS  HZ EP   1    551 57.14                             147    0.29 7 89.8 174 
 RUS  HZ I         551 57.83         1.5 0.18                          89.8 174 
 RUS  HN ES   1    552 14.95                             147    0.04 7 89.8 174 
 PTB  HZ EP   1    552  0.20                             133   -0.25 7  144 263 
 PTB  HN ES   1    552 21.27                             133   -0.05 7  144 263 
 PTB  HZ I         552 27.13         2.3 0.32                           144 263 
 ZAR  HE ES   2    552 32.36                             122    0.26 4  207 295 
                                                                                
