 2012  4 1 0311 17.7 L   6.780 -73.181135.3  RSN 13 0.4 2.4LRSN                1
 GAP=111        0.98       4.2     4.6  7.2  0.1519E+01  0.9866E+01 -0.1746E+01E
 Epicentro: LOS SANTOS - SANTANDER                                             3
 ACTION:UPD 12-07-05 11:49 OP:tino STATUS:               ID:20120401031117 L   I
 2012-04-01-0310-00M.COL___196                                                 6
 STAT SP IPHASW D HRMM SECON CODA AMPLIT PERI AZIMU VELO AIN AR TRES W  DIS CAZ7
 BAR2 SZ EP   1    311 35.86                             171    -0.1 7   21 180 
 BAR2 SZ ES   1    311 50.46                             171     0.2 7   21 180 
 BAR2 SZ I         311 52.94       105.8 0.32                            21 180 
 BRR  HZ EP        311 37.81                             151     0.310   69 302 
 BRR  HZ I         311 56.00        84.0 0.16                            69 302 
 PAM  SZ EP   1    311 38.87                             147    -0.2 7   82  41 
 PAM  SZ I         311 39.10        46.2 0.16                            82  41 
 PAM  SN ES   1    311 55.68                             147    -0.1 7   82  41 
 RUS  HZ EP   1    311 39.74                             142    -0.5 7   99 174 
 RUS  HE ES   1    311 58.15                             142     0.3 7   99 174 
 RUS  HZ I         311 59.88        45.5 0.38                            99 174 
 PTB  HZ EP   1    311 42.63                             130    -0.8 7  143 259 
 PTB  HN ES   1    312  2.82                             130    -0.6 7  143 259 
 PTB  HZ I         312  4.85        22.3 0.11                           143 259 
 OCA  SZ EP   1    311 44.88                             127    -0.5 7  162 355 
 YOP  SZ EP   1    311 46.48                             124    -0.5 7  179 152 
 YOP  SN ES   1    312 10.33                             124     0.5 7  179 152 
 YOP  SZ I         312 13.47        27.0 0.39                           179 152 
 ZAR  HZ EP   1    311 49.52                             120     0.4 6  201 293 
 ZAR  HN ES   1    312 14.44                             120     0.7 6  201 293 
 ZAR  HZ I         312 20.76        37.8 0.37                           201 293 
 NOR  SZ EP   1    311 52.27                             117     0.0 6  230 234 
 NOR  SN ES   1    312 19.14                             117    -0.2 6  230 234 
 CHI  HZ EP   1    311 55.03                             115     0.6 6  245 194 
 CHI  HZ I         312 26.84        13.5 0.47                           245 194 
 HEL  HZ EP   2    311 57.30                             113     0.4 4  268 256 
 HEL  HZ I         312 35.14        16.6 0.45                           268 256 
 DBB  SZ EP   1    312  4.88                             108     0.6 5  336 275 
 COD  HZ EP   1    312  6.39                             107     0.5 5  350 355 
 COD  HZ I         312  7.96        10.2 0.45                           350 355 
                                                                                
