 2010  8 1 0038  5.6 L   6.786 -73.181149.3  RSN  6 0.5 1.5LRSN                1
 GAP=155        1.27       8.5    17.0 16.5 -0.2431E+02 -0.1141E+03 -0.2873E+01E
 Epicentro: LOS SANTOS - SANTANDER                                             3
 ACTION:UP  10-09-07 10:51 OP:vdl  STATUS:               ID:20100801003805 L   I
 2010-08-01-0036-14S.COL___123                                                 6
 STAT SP IPHASW D HRMM SECON CODA AMPLIT PERI AZIMU VELO SNR AR TRES W  DIS CAZ7
 BAR2 SZ EP   2    038 25.23                             171    -0.4 5   22 181 
 BAR2 SZ I         038 43.66         5.8 0.47                            22 181 
 BRR  HZ EP   1    038 27.17                             154     0.1 8   69 301 
 BRR  HN ES   1    038 43.80                             154     0.1 8   69 301 
 BRR  HZ I         038 44.20        12.6 0.32                            69 301 
 RUS  HZ EP   1    038 30.05                             145     0.4 8   99 174 
 RUS  HN ES   2    038 47.80                             145    -0.6 5   99 174 
 RUS  HZ I         038 48.65         1.7 0.30                            99 174 
 GUE  SZ EP   1    038 30.03                             140    -0.8 8  119  14 
 GRA  SZ EP        038 32.11                             137     0.710  128  19 
 GRA  SZ ES   1    038 51.61                             137     0.1 7  128  19 
 GRA  SZ I         038 52.47         3.8 0.52                           128  19 
 OCA  SZ EP   1    038 33.55                             130    -0.8 7  161 355 
 OCA  SZ I         039  5.29         4.0 0.16                           161 355 
                                                                                
