 2013  2 1 0011 58.3 L   6.738 -73.249146.4  RSN  4 0.2 1.7LRSN                1
 GAP=220        0.50       3.7     4.1  5.0  0.7636E+01 -0.1743E+00  0.1210E+01E
 Epicentro: VILLANUEVA - SANTANDER                                             3
 ACTION:UPD 13-03-12 09:29 OP:ep   STATUS:               ID:20130201001158 L   I
 2013-02-01-0010-00M.COL___241                                                 6
 STAT SP IPHASW D HRMM SECON CODA AMPLIT PERI AZIMU VELO AIN AR TRES W  DIS CAZ7
 BRR  HZ EP        012 18.99                             155   -0.1910 65.5 309 
 BRR  HN ES        012 35.59                             155    0.1010 65.5 309 
 BRR  HN I         012 36.68        18.1 0.38            154           65.5 309 
 RUS  HZ EP        012 21.60                             145   -0.1110 95.2 169 
 RUS  HN ES        012 40.06                             145    0.0710 95.2 169 
 RUS  HN I         012 41.44         7.8 0.34            146           95.2 169 
 PTB  HZ EP        012 24.52                             135    0.33 9  135 261 
 PTB  HN ES        012 44.22                             135   -0.18 9  135 261 
 PTB  HZ I         012 48.35         3.9 0.18            134            135 261 
 CHI  HN ES   2    013  3.59                             118   -0.03 4  239 193 
                                                                                
