 2011 11 1 0457 35.3 L   5.906 -73.907113.2  RSN  9 0.4 1.8LRSN                1
 GAP=113        0.75       3.6     3.9  8.6 -0.6259E+01  0.4442E+01  0.5394E+01E
 Epicentro: SUCRE - SANTANDER                                                  3
 ACTION:UPD 12-07-13 16:07 OP:ep   STATUS:               ID:20111101045735 L   I
 2011-11-01-0456-36S.COL___175                                                 6
 STAT SP IPHASW D HRMM SECON CODA AMPLIT PERI AZIMU VELO AIN AR TRES W  DIS CAZ7
 RUS  HE EP   2    457 54.94                             139   -0.28 5 91.2  91 
 BAR2 SZ IP        457 56.59                             133    0.0810  110  47 
 BAR2 SZ ES   1    458 13.01                             133   -0.06 7  110  47 
 NOR  SZ EP        457 56.77                             132    0.2610  113 250 
 NOR  SN ES   1    458 12.74                             132   -0.32 7  113 250 
 BRR  HZ IP        457 58.44                             126   -0.0410  135   9 
 BRR  HZ I         457 58.59        11.0 0.14                           135   9 
 BRR  HN ES   2    458 17.18                             126    0.62 5  135   9 
 HEL  HZ EP        458  4.50                             118    0.59 9  182 280 
 HEL  HZ I         458 30.85         6.8 0.40                           182 280 
 RREF HZ EP        458  5.55                             116   -0.04 9  194 235 
 RREF HZ I         458 33.77         5.9 0.20                           194 235 
 ZAR  HZ EP        458  5.06                             114   -0.84 9  205 329 
 ZAR  HE ES   1    458 29.77                             114    0.00 6  205 329 
 ZAR  HZ I         458 33.32         7.4 0.46                           205 329 
 PAM  SZ EP   2    458  6.91                             114    0.10 4  207  40 
 PRA  HZ EP        458 12.88                             108   -0.02 8  266 204 
 PRA  HN ES   2    458 42.32                             108    0.08 4  266 204 
                                                                                
