 2013  1 1 0717 48.7 L   6.655 -73.227143.5  RSN  5 0.5 1.3LRSN                1
 GAP=191        1.22       8.9     8.2  8.9  0.4442E+02  0.1536E+02 -0.2015E+01E
 Epicentro: BARICHARA - SANTANDER                                              3
 ACTION:UPD 13-02-15 09:11 OP:ep   STATUS:               ID:20130101071748 L   I
 2013-01-01-0710-00M.COL___242                                                 6
 STAT SP IPHASW D HRMM SECON CODA AMPLIT PERI AZIMU VELO AIN AR TRES W  DIS CAZ7
 BAR2 SZ EP        718  7.33                             176   -0.5410 8.58 144 
 BAR2 SZ ES        718 22.73                             176   -0.0710 8.58 144 
 BAR2 SZ I         718 24.01         3.7 0.26            171           8.58 144 
 BRR  HZ EP        718  9.51                             151   -0.2310 73.2 313 
 BRR  HN ES        718 26.45                             151    0.3110 73.2 313 
 BRR  HN I         718 27.19         4.8 0.24            151           73.2 313 
 RUS  HZ EP        718 11.16                             148   -0.0710 85.8 169 
 RUS  HN ES        718 29.21                             148    0.4210 85.8 169 
 RUS  HN I         718 31.12         2.0 0.28            146           85.8 169 
 PTB  HZ EP        718 14.08                             134   -0.41 9  137 265 
 PTB  HN ES        718 34.44                             134   -0.15 9  137 265 
 PTB  HN I         718 40.57         2.6 0.22            132            137 265 
 ZAR  HZ EP        718 22.14                             122    1.28 9  203 297 
 ZAR  HE ES        718 45.58                             122   -0.35 9  203 297 
 ZAR  HN I         718 48.54         2.3 0.14            122            203 297 
                                                                                
