 2014  5 1 0516 53.7 L   6.837 -73.109144.7  RSN 10 0.5 2.1LRSN                1
 GAP=204        0.99       4.1     5.5  9.1  0.4842E+01  0.2176E+01 -0.1472E+02E
 Epicentro: LOS SANTOS - SANTANDER                                             3
 OLDACT:UP  14-05-01 16:56 OP:mh   STATUS:               ID:20140501051001d    3
 OLDACT:UP  14-05-01 16:55 OP:mh   STATUS:               ID:20140501051001d    3
 OLDACT:DUP 14-05-01 16:40 OP:mh   STATUS:               ID:20140501051001d    3
 OLDACT:UP  14-05-01 16:39 OP:mh   STATUS:               ID:20140501051000     3
 OLDACT:REG 14-05-01 13:37 OP:mh   STATUS:               ID:20140501051000     3
 ACTION:UPD 15-03-16 16:54 OP:nd   STATUS:               ID:20140501051653 L   I
 OLDACT:UP  14-05-01 16:57 OP:mh   STATUS:               ID:20140501051001d    3
 OLDACT:UP  14-05-01 16:57 OP:mh   STATUS:               ID:20140501051001d    3
 2014-05-01-0510-00M.COL___273                                                 6
 STAT SP IPHASW D HRMM SECON CODA AMPLIT PERI AZIMU VELO AIN AR TRES W  DIS CAZ7
 RUS  HZ EP   1    517 17.16                             142   -0.50 7  104 178 
 RUS  HN ES        517 36.57                             142    0.2410  104 178 
 PTB  HZ EP        517 20.54                             131   -0.51 9  153 258 
 PTB  HN ES        517 41.65                             131   -0.70 9  153 258 
 PTB  HZ I         517 49.05        18.0 0.40            129            153 258 
 SPBC HZ EP        517 22.98                             128    0.28 9  169 219 
 SPBC HN ES        517 45.30                             128    0.01 9  169 219 
 SPBC HZ I         517 52.61        10.2 0.12            128            169 219 
 ZAR  HZ EP        517 26.63                             122    0.29 9  206 291 
 ZAR  HN ES        517 52.01                             122    0.24 9  206 291 
 ZAR  HZ I         517 58.10        14.1 0.26            122            206 291 
 NOR  HZ EP        517 29.81                             118   -0.20 8  240 234 
 NOR  HN ES        517 58.54                             118    0.24 8  240 234 
 NOR  HZ I         518  3.60         7.2 0.34            118            240 234 
 SML  HZ EP   1    517 30.32                             117    0.24 6  242 334 
 SML  HN ES        517 58.81                             117    0.37 8  242 334 
 SML  HZ I         518  1.99         8.4 0.10            119            242 334 
 ROSC BZ EP   4    517 23.75                             116   -8.65 0  258 211 
 ROSC BN ES   4    518  1.16                             116   -1.41 0  258 211 
 ROSC HZ I         518 11.39         9.1 0.40            117            258 211 
 HEL  HZ EP        517 34.38                             114   -0.06 8  277 255 
 HEL  HN ES        518  7.20                             114    1.02 8  277 255 
 HEL  HZ I         518 13.04         4.7 0.38            115            277 255 
 URE  HZ EP        517 34.79                             113   -0.21 7  286 291 
 URE  HN ES   1    518  6.15                             113   -1.04 6  286 291 
 URE  HZ I         518 18.06         7.5 0.16            114            286 291 
 GUY2CHZ EP   4    517 37.99                             112    0.06 0  307 235 
 GUY2CHN ES   4    518 13.09                             112    0.69 0  307 235 
 GUY2CHZ I         518 16.22         4.3 2.48                           307 235 
 SJC  HZ EP   4    517 47.64                             106   -1.48 0  408 326 
 SJC  HN ES   4    518 29.49                             106   -2.83 0  408 326 
                                                                                
