 2017 10 1 0315  8.3 L   6.845 -73.128151.3  RSN 21 0.4 2.3LRSN                1
 GAP= 75        0.94       2.8     2.5  4.6 -0.4217E+00  0.4562E+01  0.7579E+00E
 Epicentro: LOS SANTOS - SANTANDER                                             3
 ACTION:UPD 17-11-07 19:26 OP:rebc STATUS:               ID:20171001031508 L   I
 OLDACT:UP  17-10-01 16:31 OP:osc  STATUS:               ID:20171001030742d    3
 OLDACT:DUP 17-10-01 16:21 OP:osc  STATUS:               ID:20171001030742d    3
 2017-10-01-0308-00M.COL___414                                                 6
 STAT SP IPHASW D HRMM SECON CODA AMPLIT PERI AZIMU VELO AIN AR TRES W  DIS CAZ7
 BAR2 EZ EP        315 28.49                             169   -0.1810 28.6 192 
 BAR2 EZ ES        315 44.54                             169   -0.0510 28.6 192 
 BAR2 EZ I         315 46.41        32.7 0.29            165           28.6 192 
 PAM  EZ EP        315 31.26                             153    0.4710 72.4  41 
 PAM  EE ES        315 48.40                             153    0.0410 72.4  41 
 PAM  EZ I         315 50.69        17.0 0.56            159           72.4  41 
 RUS  HZ EP        315 32.39                             144   -0.5210  105 177 
 RUS  HE ES        315 51.33                             144   -0.8010  105 177 
 RUS  HZ I         315 52.09        20.7 0.26            143            105 177 
 TAM  HZ EP        315 36.64                             132    0.30 9  155 107 
 TAM  HE ES        315 58.51                             132    0.27 9  155 107 
 SPBC HZ EP        315 37.44                             129   -0.23 9  168 218 
 SPBC HE ES        316  0.97                             129    0.37 9  168 218 
 SPBC HZ I         316  5.99        25.0 0.10            129            168 218 
 YPLC HZ EP        315 38.72                             127   -0.08 9  180 153 
 YPLC HE ES        316  2.70                             127    0.08 9  180 153 
 YPLC HZ I         316  6.89        17.3 0.32            129            180 153 
 ZAR  HZ EP        315 41.22                             123    0.14 9  204 291 
 ZAR  HN ES        316  6.95                             123    0.28 9  204 291 
 ZAR  HZ I         316 12.32        20.2 0.12            125            204 291 
 TABC EZ EP   9    315 46.64                             120    1.74 0  235 211 
 TABC EZ ES        316 15.41                             120    0.19 8  235 211 
 TABC EZ I         316 23.09        20.0 0.68            120            235 211 
 NOR  HZ EP        315 44.45                             119   -0.35 8  239 234 
 NOR  HE ES        316 13.64                             119    0.35 8  239 234 
 NOR  HZ I         316 16.25        18.0 0.16            120            239 234 
 CHI  HZ EP        315 46.74                             118   -0.11 8  254 195 
 CHI  HN ES   4    316 15.97                             118   -0.97 0  254 195 
 CHI  HZ I         316 25.74         8.9 0.32            118            254 195 
 ROSC BZ EP   4    315 48.36                             117    1.10 0  258 211 
 ROSC BE ES   4    316 19.71                             117    2.04 0  258 211 
 ROSC BZ I         316 21.75        17.3 0.45            118            258 211 
 HEL  HZ EP        315 50.41                             115    1.30 8  275 255 
 HEL  HN ES        316 21.30                             115    0.33 8  275 255 
 HEL  HZ I         316 27.61        15.3 0.52            116            275 255 
 URE  HZ EP        315 48.99                             115   -0.62 7  284 291 
 URE  HE ES   4    316 20.44                             115   -1.42 0  284 291 
 GUY2CHZ EP        315 52.79                             113    0.15 7  306 234 
 GUY2CHE ES        316 26.90                             113   -0.34 7  306 234 
 GUY2CHZ I         316 34.63        11.5 0.32                           306 234 
 VIL  EZ EP        315 52.81                             113    0.28 7  309 192 
 VIL  EE ES        316 27.16                             113    0.11 7  309 192 
 ELA  HZ EP        315 56.17                             111    0.28 7  334 229 
 ELA  HN ES        316 33.50                             111    0.46 7  334 229 
 ELA  HZ I         316 40.95         8.5 0.40            112            334 229 
 DBB  EN ES        316 32.88                             110   -0.63 7  341 273 
 PRA  HZ EP        316  2.30                             107   -0.30 6  397 209 
 PRA  HE ES        316 44.56                             107   -0.41 6  397 209 
 PRA  HZ I         316 47.99        10.5 0.54            108            397 209 
 ORTC HZ EP   4    316  1.04                             107   -1.94 0  401 216 
 ORTC HE ES        316 46.18                             107    0.53 6  401 216 
 ORTC HZ I         316 57.31         5.1 0.46            108            401 216 
 SJC  HZ EP        316  2.77                             107   -0.89 6  406 326 
 SJC  HE ES   4    316 45.03                             107   -1.83 0  406 326 
 SJC  HZ I         316 48.72         3.0 0.27            108            406 326 
 PAL  HZ EP        316  4.07                             106   -0.04 6  410 239 
 PAL  HE ES        316 47.03                             106   -0.63 6  410 239 
 PAL  HZ I         316 51.44         4.9 0.22            107            410 239 
                                                                                
