 2010  9 1 0451 55.6 L   6.881 -73.030134.0  RSN  6 0.4 1.5LRSN                1
 GAP=170        0.84       5.9     9.7 12.4 -0.3415E+01 -0.3726E+02  0.6482E+01E
 Epicentro: PIEDECUESTA - SANTANDER                                            3
 ACTION:UP  11-02-18 10:59 OP:tino STATUS:               ID:20100901045155 L   I
 2010-09-01-0449-24S.COL___120                                                 6
 STAT SP IPHASW D HRMM SECON CODA AMPLIT PERI AZIMU VELO SNR AR TRES W  DIS CAZ7
 BAR2 SZ EP        452 14.38                             164     0.210   36 208 
 BAR2 SZ I         452 31.20        10.8 0.52                            36 208 
 BRR  HZ IP     D  452 15.60                             148    -0.410   79 288 
 BRR  HN ES   1    452 32.00                             148     0.1 7   79 288 
 BRR  HZ I         452 34.49        13.4 0.15                            79 288 
 GUE  SZ EP   1    452 18.81                             140     0.5 7  106   6 
 GUE  SZ I         452 28.97         2.5 0.08                           106   6 
 RUS  HZ EP   1    452 19.01                             139     0.1 7  109 183 
 RUS  HN ES   2    452 36.64                             139    -0.4 5  109 183 
 RUS  HZ I         452 39.15         2.8 0.05                           109 183 
 GRA  SZ EP   2    452 18.02                             137    -0.7 5  114  13 
 GRA  SZ ES   2    452 36.76                             137    -0.1 5  114  13 
 GRA  SZ I         452 38.18         6.9 0.32                           114  13 
 HEL  HZ EP   2    452 36.97                             111     0.1 4  287 255 
 HEL  HZ I         453 14.07         1.9 0.47                           287 255 
                                                                                
