 2013  2 1 0347  8.8 L   6.814 -73.184149.9  RSN  4 0.1 1.3LRSN                1
 GAP=131        0.37       1.8     3.9  3.6  0.4215E+00 -0.3393E+01  0.1076E+01E
 Epicentro: ZAPATOCA - SANTANDER                                               3
 ACTION:UPD 13-03-12 09:29 OP:ep   STATUS:               ID:20130201034708 L   I
 2013-02-01-0340-00M.COL___241                                                 6
 STAT SP IPHASW D HRMM SECON CODA AMPLIT PERI AZIMU VELO AIN AR TRES W  DIS CAZ7
 BRR  HZ EP        347 30.35                             155    0.1610 66.7 299 
 BRR  HN ES        347 46.77                             155   -0.0810 66.7 299 
 BRR  HN I         347 47.96         4.5 0.20            152           66.7 299 
 PAM  SZ EP        347 31.51                             151   -0.0810 79.0  43 
 PAM  SN I         347 31.77         3.9 0.16            154           79.0  43 
 RUS  HN ES        347 52.15                             144    0.0710  102 174 
 RUS  HN I         347 53.00         2.7 0.54            141            102 174 
 CHI  HZ EP        347 46.79                             118   -0.02 8  249 194 
 CHI  HN ES        348 16.33                             118   -0.10 8  249 194 
 CHI  HN I         348 23.96         1.3 0.52            116            249 194 
                                                                                
