 2014  9 1 0334 57.7 L   6.764 -73.149138.4  RSN 11 0.5 1.8LRSN                1
 GAP=138        1.11       4.1     4.8  7.6 -0.1624E+01  0.1103E+02 -0.4621E+01E
 Epicentro: LOS SANTOS - SANTANDER                                             3
 ACTION:UPD 14-10-03 23:01 OP:nd   STATUS:               ID:20140901033457 L   I
 OLDACT:UP  14-09-01 16:29 OP:mh   STATUS:               ID:20140901033000     3
 OLDACT:REG 14-09-01 11:57 OP:mh   STATUS:               ID:20140901033000     3
 2014-09-01-0330-00M.COL___282                                                 6
 STAT SP IPHASW D HRMM SECON CODA AMPLIT PERI AZIMU VELO AIN AR TRES W  DIS CAZ7
 BAR2 SZ EP        335 16.78                             172    0.4210 19.3 191 
 BAR2 SZ ES   1    335 30.81                             172   -0.11 7 19.3 191 
 BAR2 SZ I         335 32.93         6.4 0.20            169           19.3 191 
 BRR  HZ IP     C  335 18.71                             151    0.5710 72.9 301 
 BRR  HN ES   1    335 34.30                             151    0.20 7 72.9 301 
 BRR  HZ I         335 38.75         9.5 0.08            147           72.9 301 
 PAM  SZ EP     C  335 19.68                             148    0.3410 80.8  38 
 PAM  SN ES   1    335 36.29                             148    0.06 7 80.8  38 
 PAM  SZ I         335 37.15        10.4 0.39            152           80.8  38 
 RUS  HZ EP        335 19.50                             143   -0.9310 96.6 176 
 RUS  HN ES        335 38.41                             143    0.2410 96.6 176 
 RUS  HZ I         335 40.58         7.6 0.26            146           96.6 176 
 PTB  HZ EP   1    335 23.51                             131   -0.45 7  147 260 
 PTB  HN ES        335 43.88                             131   -0.58 9  147 260 
 PTB  HZ I         335 46.94        14.5 0.18            129            147 260 
 SPBC HZ EP        335 25.40                             128    0.09 9  160 220 
 SPBC HN ES   1    335 46.13                             128   -0.72 7  160 220 
 SPBC HZ I         335 50.30         8.1 0.29            128            160 220 
 ZAR  HZ EP   1    335 30.35                             121    0.56 6  205 293 
 ZAR  HN ES   1    335 55.05                             121    0.22 6  205 293 
 ZAR  HZ I         336  3.79         7.9 0.32            120            205 293 
 NOR  HN ES   1    336  0.72                             117    0.69 6  232 235 
 NOR  HZ I         336  2.72         6.4 0.15            118            232 235 
 SML  HZ EP   1    335 33.36                             115   -0.93 6  247 336 
 SML  HN ES        336  2.33                             115   -0.52 8  247 336 
 SML  HZ I         336 10.26        10.9 0.15            116            247 336 
 HEL  HZ EP        335 37.87                             113    0.49 8  271 257 
 HEL  HN ES   1    336  8.53                             113    0.18 6  271 257 
 HEL  HZ I         336 17.37         4.3 0.36            114            271 257 
 PRA  HZ EP   4    335 50.24                             105   -0.29 0  388 210 
 PRA  HN ES   4    336 29.32                             105   -2.43 0  388 210 
 PRA  HZ I         336 38.49         2.3 0.57            107            388 210 
                                                                                
