 2017 12 1 0351  1.6 L   6.832 -73.299117.5  RSN  5 0.3 0.8LRSN                1
 GAP=117        0.87       4.1     3.5  7.1 -0.1690E+00  0.1034E+02 -0.5362E+01E
 Epicentro: ZAPATOCA - SANTANDER                                               3
 ACTION:UPD 18-01-04 13:15 OP:rebc STATUS:               ID:20171201035101 L   I
 OLDACT:REG 17-12-01 12:32 OP:dhb  STATUS:               ID:20171201034741     3
 2017-12-01-0348-00M.COL___489                                                 6
 STAT SP IPHASW D HRMM SECON CODA AMPLIT PERI AZIMU VELO AIN AR TRES W  DIS CAZ7
 BAR2 EZ IP     C  351 17.86                             165   -0.1710 29.5 154 
 BAR2 EZ ES        351 30.47                             165   -0.3610 29.5 154 
 PAM  EZ EP        351 21.22                             141   -0.3710 86.8  50 
 PAM  EN ES        351 37.60                             141    0.4210 86.8  50 
 PAM  EZ I         351 39.48         1.3 0.34            143           86.8  50 
 RUS  HZ EP        351 23.14                             135   -0.0710  107 167 
 RUS  HN ES        351 40.43                             135    0.3710  107 167 
 PTB  HZ EP        351 24.57                             128   -0.3110  132 256 
 PTB  HN ES        351 43.23                             128    0.2010  132 256 
 PTB  HZ I         351 45.00         1.4 0.48            130            132 256 
 ZAR  HZ EP        351 31.11                             118    0.59 9  187 293 
 ZAR  HN ES        351 52.88                             118   -0.20 9  187 293 
                                                                                
