 2012  9 1 0952  7.6 L   6.337 -73.601106.5  RSN  6 0.5 1.5LRSN                1
 GAP=153        0.88       5.3     5.5 10.2  0.4038E+01  0.1640E+02  0.1444E+02E
 Epicentro: SANTA HELENA DEL OPON - SANTANDER                                  3
 ACTION:UPD 12-10-22 14:16 OP:ep   STATUS:               ID:20120901095207 L   I
 2012-09-01-0950-00M.COL___218                                                 6
 STAT SP IPHASW D HRMM SECON CODA AMPLIT PERI AZIMU VELO AIN AR TRES W  DIS CAZ7
 BAR2 SZ EP        952 24.21                             151    0.2710 54.2  59 
 BAR2 SZ ES   1    952 37.48                             151    0.83 7 54.2  59 
 BAR2 SZ I         952 38.71        23.1 0.42                          54.2  59 
 RUS  HZ EP        952 25.75                             142    0.0210 75.5 131 
 RUS  HZ I         952 26.28         3.4 0.14                          75.5 131 
 RUS  HN ES   2    952 38.60                             142   -1.24 5 75.5 131 
 BRR  HN ES   1    952 39.94                             138   -0.15 7 86.1 352 
 GIR2 SZ EP        952 26.79                             135    0.0910 93.6  29 
 GIR2 SZ ES   1    952 41.07                             135   -0.49 7 93.6  29 
 PTB  HZ EP        952 26.76                             134   -0.0810 97.3 283 
 PTB  HN ES   2    952 41.77                             134   -0.05 5 97.3 283 
 PTB  HZ I         952 45.73         6.5 0.42                          97.3 283 
 OCA  HN ES   2    953  3.04                             111   -0.48 4  213   8 
                                                                                
