 2012  7 1 0510 50.6 L   6.825 -73.034139.2  RSN  5 0.4 1.4LRSN                1
 GAP=194        0.86       5.5    10.6 10.9  0.2160E+02 -0.2366E+02 -0.1005E+02E
 Epicentro: CEPITA - SANTANDER                                                 3
 ACTION:UPD 12-08-14 11:41 OP:ep   STATUS:               ID:20120701051050 L   I
 2012-07-01-0507-59S.COL___215                                                 6
 STAT SP IPHASW D HRMM SECON CODA AMPLIT PERI AZIMU VELO AIN AR TRES W  DIS CAZ7
 BAR2 SZ EP   1    511  9.78                             167     0.2 7   31 213 
 BAR2 SZ ES   1    511 24.50                             167     0.1 7   31 213 
 BAR2 SZ I         511 27.52         7.0 0.29            168             31 213 
 BRR  HZ EP   1    511 12.00                             148     0.4 7   81 293 
 BRR  HN ES   1    511 28.48                             148     0.4 7   81 293 
 BRR  HZ I         511 29.97         7.5 0.18            152             81 293 
 RUS  HZ EP   1    511 13.95                             142     0.1 7  103 183 
 RUS  HN ES   1    511 31.67                             142    -0.4 7  103 183 
 RUS  HZ I         511 34.97         2.6 0.21            144            103 183 
 OCA  HN ES   1    511 39.39                             128    -0.5 7  160 349 
 PTB  HN ES   2    511 38.90                             128    -0.9 5  160 259 
