 2013 11 1 0143  0.0 L   6.794 -73.178147.2  RSN  6 0.4 1.4LRSN                1
 GAP=198        1.06       5.4     6.2  8.3  0.6736E+01  0.9928E+01 -0.5554E+00E
 Epicentro: LOS SANTOS - SANTANDER                                             3
 ACTION:UPD 14-01-09 16:24 OP:ep   STATUS:               ID:20131101014300 L   I
 OLDACT:REG 13-11-01 08:32 OP:jn   STATUS:               ID:20131101014000     3
 2013-11-01-0140-00M.COL___273                                                 6
 STAT SP IPHASW D HRMM SECON CODA AMPLIT PERI AZIMU VELO AIN AR TRES W  DIS CAZ7
 BAR2 SZ EP        143 19.63                             171   -0.1710 22.3 181 
 BAR2 SZ ES        143 34.92                             171   -0.3110 22.3 181 
 BAR2 SZ I         143 36.57         9.9 0.44            174           22.3 181 
 BRR  HZ EP        143 21.64                             154    0.4710 68.4 300 
 BRR  HN ES        143 38.34                             154    0.6810 68.4 300 
 BRR  HZ I         143 46.87         5.1 0.44            154           68.4 300 
 RUS  HZ EP        143 24.07                             144    0.1810  100 174 
 RUS  HN ES        143 42.33                             144   -0.1710  100 174 
 RUS  HZ I         143 44.99         2.8 0.46            150            100 174 
 PTB  HZ EP        143 26.66                             133   -0.12 9  144 259 
 PTB  HN ES        143 46.99                             133   -0.66 9  144 259 
 PTB  HZ I         143 49.99         3.5 0.16            137            144 259 
 NOR  HE ES        144  3.54                             119    0.40 8  231 234 
 SML  HN ES   1    144  4.42                             118   -0.77 6  243 336 
                                                                                
