 2012  1 1 0346  7.7 L   6.785 -73.154151.8  RSN  7 0.4 1.8LRSN                1
 GAP=136        0.98       6.2     5.9  8.1  0.5426E+01  0.1090E+02  0.4630E+01E
 Epicentro: LOS SANTOS - SANTANDER                                             3
 ACTION:UP  12-02-03 08:12 OP:REBC STATUS:               ID:20120101034607 L   I
 2012-01-01-0340-00M.COL___186                                                 6
 STAT SP IPHASW D HRMM SECON CODA AMPLIT PERI AZIMU VELO SNR AR TRES W  DIS CAZ7
 BAR2 SZ EP   1    346 27.94                             172    -0.1 7   22 188 
 BAR2 SZ ES   1    346 43.87                             172     0.0 7   22 188 
 BAR2 SZ I         346 44.71        12.1 0.30                            22 188 
 BRR  HZ EP        346 29.89                             153     0.410   71 300 
 BRR  HE ES   1    346 47.34                             153     0.8 7   71 300 
 BRR  HZ I         346 49.59        17.7 0.15                            71 300 
 PAM  SZ EP   1    346 30.60                             151     0.0 7   79  39 
 PAM  SE ES   1    346 48.14                             151    -0.4 7   79  39 
 PAM  SZ I         346 50.08         7.1 0.22                            79  39 
 RUS  HZ EP   1    346 31.91                             145     0.0 7   99 175 
 RUS  HN ES   1    346 50.46                             145    -0.4 7   99 175 
 RUS  HZ I         346 51.78         6.0 0.44                            99 175 
 PTB  HZ EP   1    346 34.78                             134    -0.3 7  147 259 
 PTB  HN ES   1    346 56.25                             134    -0.1 7  147 259 
 ZAR  HZ EP   1    346 40.48                             124     0.0 6  204 293 
 ZAR  HN ES   1    347  5.25                             124    -0.9 6  204 293 
 ZAR  HZ I         347 12.41        13.6 0.48                           204 293 
 CHI  HZ EP   1    346 45.98                             118     0.5 6  247 195 
 CHI  HZ I         347 21.27         4.1 0.41                           247 195 
                                                                                
