 2013 12 1 0446 25.8 L   6.790 -73.198156.6  RSN  7 0.4 1.5LRSN                1
 GAP=180        1.11       4.7     8.0 10.8 -0.8638E+01 -0.1660E+02 -0.4253E+01E
 Epicentro: ZAPATOCA - SANTANDER                                               3
 ACTION:UPD 14-01-13 10:15 OP:ep   STATUS:               ID:20131201044625 L   I
 OLDACT:UP  13-12-01 11:49 OP:mh   STATUS:               ID:20131201044001d    3
 OLDACT:DUP 13-12-01 11:49 OP:mh   STATUS:               ID:20131201044001d    3
 2013-12-01-0440-00M.COL___282                                                 6
 STAT SP IPHASW D HRMM SECON CODA AMPLIT PERI AZIMU VELO AIN AR TRES W  DIS CAZ7
 BAR2 SZ EP        446 47.00                             172    0.2710 22.0 175 
 BRR  HZ EP        446 48.22                             156    0.3010 66.7 302 
 BRR  HN ES        447  5.68                             156    0.5310 66.7 302 
 BRR  HZ I         447 11.02         4.5 0.17            156           66.7 302 
 PTB  HZ EP        446 53.53                             136    0.35 9  142 259 
 PTB  HN ES        447 14.22                             136   -0.30 9  142 259 
 PTB  HZ I         447 15.75         3.2 0.15            139            142 259 
 SPBC HN ES        447 16.77                             132   -0.58 9  159 218 
 OCA  HN ES        447 16.97                             132   -0.86 9  161 355 
 ZAR  HN ES        447 24.07                             125    0.08 9  199 293 
 SML  HZ EP        447  2.55                             120   -0.38 8  242 337 
 SML  HN ES        447 32.25                             120    0.38 8  242 337 
 SML  HZ I         447 39.65         2.9 0.07            122            242 337 
                                                                                
