 2014 10 1 0742 15.5 L   6.798 -73.143148.0  RSN  7 0.4 1.4LRSN                1
 GAP=238        0.90       4.6     6.0  6.8  0.1026E+02  0.5710E+01  0.1442E+01E
 Epicentro: LOS SANTOS - SANTANDER                                             3
 ACTION:UPD 14-11-29 23:45 OP:nd   STATUS:               ID:20141001074215 L   I
 OLDACT:REG 14-10-01 13:28 OP:stll STATUS:               ID:20141001073819     3
 2014-10-01-0738-19M.COL___286                                                 6
 STAT SP IPHASW D HRMM SECON CODA AMPLIT PERI AZIMU VELO AIN AR TRES W  DIS CAZ7
 BAR2 SZ EP        742 35.35                             171   -0.0710 23.1 191 
 BAR2 SZ ES   1    742 50.60                             171   -0.34 7 23.1 191 
 BAR2 SZ I         742 52.37         4.6 0.14            165           23.1 191 
 BRR  HZ IP     D  742 37.10                             153    0.1710 71.5 299 
 BRR  HN ES        742 54.13                             153    0.5010 71.5 299 
 BRR  HZ I         742 54.94         7.1 0.12            151           71.5 299 
 RUS  HZ EP   1    742 39.29                             144   -0.19 7  100 176 
 RUS  HN ES   1    742 57.99                             144   -0.17 7  100 176 
 RUS  HZ I         742 59.97         3.3 0.32            142            100 176 
 PTB  HZ EP        742 41.93                             133   -0.76 9  148 259 
 PTB  HE ES   1    743  3.45                             133   -0.44 7  148 259 
 PTB  HZ I         743  4.24         3.5 0.12            130            148 259 
 SPBC HZ EP        742 44.46                             130    0.27 9  163 219 
 SPBC HE ES        743  7.00                             130    0.45 9  163 219 
 SPBC HZ I         743 13.41         3.0 0.48            128            163 219 
 ZAR  HZ EP        742 48.57                             123    0.42 9  204 292 
 ZAR  HN ES        743 13.26                             123   -0.34 9  204 292 
 ZAR  HZ I         743 19.39         3.8 0.34            123            204 292 
 CHI  HE ES   1    743 22.88                             118    0.06 6  248 195 
 CHI  HZ I         743 27.60         1.5 0.60            117            248 195 
                                                                                
