 2016  3 1 0558 41.4 L   6.821 -73.187142.4  RSN 16 0.5 2.2LRSN                1
 GAP=130        0.93       2.5     3.3  5.1 -0.4910E+00  0.7211E+01  0.1129E+01E
 Epicentro: ZAPATOCA - SANTANDER                                               3
 ACTION:UPD 16-05-13 21:20 OP:cam  STATUS:               ID:20160301055841 L   I
 OLDACT:UP  16-03-01 19:20 OP:mh   STATUS:               ID:20160301055750     3
 OLDACT:UP  16-03-01 19:19 OP:mh   STATUS:               ID:20160301055750     3
 OLDACT:UP  16-03-01 19:19 OP:mh   STATUS:               ID:20160301055750     3
 OLDACT:UP  16-03-01 19:16 OP:mh   STATUS:               ID:20160301055750     3
 OLDACT:REG 16-03-01 13:01 OP:mh   STATUS:               ID:20160301055750     3
 2016-03-01-0557-50M.COL___321                                                 6
 STAT SP IPHASW D HRMM SECON CODA AMPLIT PERI AZIMU VELO AIN AR TRES W  DIS CAZ7
 BAR2 EZ EP        559  0.61                             169   -0.0810 25.3 179 
 BAR2 EZ ES        559 15.82                             169    0.1010 25.3 179 
 BAR2 EZ I         559 16.86        21.9 0.19            168           25.3 179 
 PAM  EZ EP        559  3.70                             150    0.3410 78.7  43 
 PAM  EN ES        559 20.38                             150   -0.0910 78.7  43 
 PAM  EZ I         559 22.67        29.8 0.50            156           78.7  43 
 RUS  HZ EP   1    559  4.74                             142   -0.30 7  103 174 
 RUS  HN ES        559 23.22                             142   -0.2410  103 174 
 RUS  HZ I         559 24.19        15.7 0.22            146            103 174 
 PTB  HZ EP   1    559  7.49                             132   -0.26 7  144 258 
 PTB  HN ES        559 27.88                             132   -0.41 9  144 258 
 PTB  HZ I         559 35.17        14.1 0.66            131            144 258 
 OCA  HE EP        559  9.25                             129    0.04 9  158 355 
 OCA  HZ ES        559 31.04                             129    0.16 9  158 355 
 OCA  HE I         559 36.50        41.9 0.32            132            158 355 
 SPBC HZ EP        559  9.49                             128   -0.07 9  162 217 
 SPBC HN ES   1    559 31.50                             128   -0.02 7  162 217 
 SPBC HZ I         559 37.28        23.9 0.54            130            162 217 
 ZAR  HZ EP        559 13.45                             122    0.33 9  199 292 
 ZAR  HN ES        559 38.41                             122    0.56 9  199 292 
 ZAR  HZ I         559 44.96         8.5 0.26            123            199 292 
 NOR  HZ EP        559 16.49                             118   -0.21 8  232 233 
 NOR  HN ES        559 44.87                             118    0.64 8  232 233 
 NOR  HZ I         559 52.33        11.9 0.16            119            232 233 
 CHI  HZ EP        559 18.83                             116   -0.22 8  250 194 
 CHI  HN ES        559 48.22                             116   -0.18 8  250 194 
 CHI  HZ I         559 51.78         7.9 0.26            119            250 194 
 HEL  HZ EP        559 20.96                             114   -0.08 8  268 255 
 HEL  HN ES        559 51.28                             114   -0.66 8  268 255 
 HEL  HZ I         559 58.50         6.6 0.26            116            268 255 
 URE  HZ EP   4    559 20.08                             113   -1.68 0  279 292 
 URE  HN ES        559 53.28                             113    0.06 7  279 292 
 URE  HZ I         6 0  3.18         8.3 0.20            115            279 292 
 GUY2CHZ EP   1    559 25.97                             112    1.37 5  299 234 
 GUY2CHN ES   4    6 0  2.31                             112    4.02 0  299 234 
 GUY2CHZ I         6 0  4.33         5.7 0.34                           299 234 
 LL6C HZ EP   4    559 25.11                             110   -1.59 0  322 358 
 LL6C HN ES   4    6 0  1.56                             110   -0.45 0  322 358 
 MON  HZ EP   4    559 27.55                             108   -2.16 0  349 309 
 MON  HN ES        6 0  6.40                             108   -0.98 6  349 309 
 ANIL HZ EP        559 30.79                             108   -0.13 6  356 224 
 ANIL HE ES   4    6 0 11.24                             108    1.71 0  356 224 
 ANIL HZ I         6 0 17.17        14.3 0.32            110            356 224 
 ORTC HZ EP        559 34.89                             106   -0.24 6  395 215 
 ORTC HN ES        6 0 18.46                             106    1.44 6  395 215 
 ORTC HZ I         6 0 21.79         3.8 0.34            108            395 215 
 PAL  HZ EP        559 35.77                             105   -0.38 6  403 238 
 PAL  HN ES   4    6 0 19.85                             105    1.01 0  403 238 
                                                                                
