 2013  2 1 0210 37.0 L   6.821 -73.218144.7  RSN  4 0.4 1.4LRSN                1
 GAP=232        0.89       5.5     7.1  8.9  0.1751E+02  0.2935E-01  0.9157E+01E
 Epicentro: ZAPATOCA - SANTANDER                                               3
 ACTION:UPD 13-03-12 09:29 OP:ep   STATUS:               ID:20130201021037 L   I
 2013-02-01-0210-00M.COL___241                                                 6
 STAT SP IPHASW D HRMM SECON CODA AMPLIT PERI AZIMU VELO AIN AR TRES W  DIS CAZ7
 BRR  HZ EP        210 57.98                             155    0.4110 63.1 300 
 BRR  HN ES        211 13.87                             155    0.2310 63.1 300 
 BRR  HN I         211 16.39         5.6 0.20            152           63.1 300 
 RUS  HZ EP        211  0.52                             143   -0.3410  104 172 
 RUS  HN ES        211 19.23                             143   -0.2510  104 172 
 RUS  HN I         211 19.93         1.5 0.64            144            104 172 
 PTB  HZ EP        211  3.00                             133   -0.20 9  140 257 
 PTB  HN ES        211 23.32                             133   -0.32 9  140 257 
 PTB  HN I         211 29.58         6.8 0.26            132            140 257 
 CHI  HE ES        211 44.68                             117    0.65 8  249 193 
                                                                                
