 2013  9 1 0937 46.0 L   6.800 -73.131149.9  RSN  8 0.4 1.8LRSN                1
 GAP=184        0.88       3.6     5.7  7.5 -0.8464E+00 -0.1947E-01 -0.8518E+01E
 Epicentro: LOS SANTOS - SANTANDER                                             3
 ACTION:UPD 13-10-22 09:19 OP:ep   STATUS:               ID:20130901093746 L   I
 OLDACT:REG 13-09-01 11:54 OP:mh   STATUS:               ID:20130901093736     3
 2013-09-01-0937-36M.COL___211                                                 6
 STAT SP IPHASW D HRMM SECON CODA AMPLIT PERI AZIMU VELO AIN AR TRES W  DIS CAZ7
 BAR2 SZ EP        938  6.11                             171   -0.0110 23.6 194 
 BAR2 SZ ES   1    938 21.73                             171   -0.09 7 23.6 194 
 BRR  HZ EP   1    938  8.46                             153    0.80 7 72.6 298 
 BRR  HN ES   2    938 25.64                             153    1.07 5 72.6 298 
 BRR  HN I         938 26.49        16.7 0.26            153           72.6 298 
 RUS  HZ EP   1    938  9.58                             145   -0.56 7  100 177 
 RUS  HN ES   2    938 28.44                             145   -0.53 5  100 177 
 RUS  HZ I         938 31.95         3.3 0.36            148            100 177 
 PTB  HZ EP   1    938 13.25                             133   -0.18 7  149 259 
 PTB  HN ES        938 34.48                             133   -0.36 9  149 259 
 PTB  HZ I         938 36.52         6.0 0.14            134            149 259 
 OCA  HZ EP        938 14.73                             131    0.08 9  161 353 
 OCA  HN ES   2    938 36.89                             131   -0.11 5  161 353 
 OCA  HN I         938 40.79        15.2 0.32            133            161 353 
 SPBC HZ EP        938 15.49                             130    0.59 9  164 219 
 SPBC HN ES        938 37.71                             130    0.27 9  164 219 
 SPBC HZ I         938 42.45         4.7 0.20            132            164 219 
 ZAR  HZ EP        938 18.34                             123   -0.52 8  206 292 
 ZAR  HN ES   2    938 44.25                             123   -0.24 4  206 292 
 ZAR  HZ I         938 50.04         4.6 0.28            125            206 292 
 SML  HZ EP   1    938 23.00                             118    0.07 6  244 335 
 SML  HN ES        938 51.47                             118   -0.27 8  244 335 
 SML  HZ I         938 54.29         4.4 0.30            121            244 335 
                                                                                
