 2011  8 1 0614 40.1 L   6.771 -73.030136.4  RSN 11 0.2 1.8LRSN                1
 GAP=153        0.38       2.1     3.2  3.1 -0.3013E+01  0.3157E+01  0.6575E-02E
 Epicentro: CEPITA - SANTANDER                                                 3
 ACTION:UPD 12-07-25 14:05 OP:epov STATUS:               ID:20110801061440 L   I
 2011-08-01-0600-00M.COL___141                                                 6
 STAT SP IPHASW D HRMM SECON CODA AMPLIT PERI AZIMU VELO AIN AR TRES W  DIS CAZ7
 BAR2 SZ EP   1    614 58.84                             169    0.16 7 26.0 220 
 BAR2 SZ ES   1    615 12.98                             169   -0.18 7 26.0 220 
 BAR2 SZ I         615 14.38        18.2 0.24                          26.0 220 
 PAM  SZ EP   2    615  1.17                             151    0.12 5 72.7  30 
 PAM  SE ES   2    615 17.53                             151    0.15 5 72.7  30 
 BRR  HZ EP   1    615  0.87                             146   -0.20 7 84.0 296 
 BRR  HZ I         615  1.09        22.3 0.12                          84.0 296 
 BRR  HN ES   2    615 17.73                             146    0.32 5 84.0 296 
 RUS  HZ EP   1    615  2.89                             143    0.18 7 97.4 183 
 RUS  HE ES   2    615 20.33                             143   -0.01 5 97.4 183 
 RUS  HZ I         615 23.52         7.4 0.36                          97.4 183 
 BRI  SZ EP   1    615  3.27                             139    0.21 7  108  14 
 GRA  SZ EP   2    615  4.15                             135   -0.37 5  126  11 
 GRA  SZ ES   2    615 22.86                             135   -0.70 5  126  11 
 GRA  SZ I         615 24.75         4.5 0.38                           126  11 
 OCA  SZ EP   1    615  8.28                             126    0.07 7  165 349 
 OCA  SZ ES   2    615 30.38                             126    0.26 5  165 349 
 OCA  SZ I         615 35.49         7.8 0.27                           165 349 
 NOR  SZ EP   1    615 16.05                             115   -0.22 6  243 237 
 NOR  SN ES   2    615 44.33                             115   -0.15 4  243 237 
 HEL  HZ EP   1    615 21.30                             112    0.13 6  284 257 
 HEL  HN ES   2    615 53.16                             112   -0.05 4  284 257 
 RREF HZ EP   1    615 26.88                             108    0.12 5  330 231 
 RREF HN ES   2    616  3.23                             108    0.08 3  330 231 
 RREF HZ I         616  7.84         2.2 0.22                           330 231 
 PRA  HZ EP   1    615 33.58                             105   -0.18 4  396 211 
 PRA  HN ES   2    616 15.46                             105   -0.15 3  396 211 
                                                                                
