 2013  3 1 0501 12.3 L   6.844 -73.025145.8  RSN  4 0.2 1.5LRSN                1
 GAP=211        0.52       6.6    12.6  6.0  0.7283E+02 -0.5115E+02 -0.2835E+02E
 Epicentro: CEPITA - SANTANDER                                                 3
 ACTION:UPD 13-04-09 13:58 OP:ep   STATUS:               ID:20130301050112 L   I
 2013-03-01-0458-45M.COL___193                                                 6
 STAT SP IPHASW D HRMM SECON CODA AMPLIT PERI AZIMU VELO AIN AR TRES W  DIS CAZ7
 BAR2 SZ EP        5 1 32.39                             167    0.2210 32.8 212 
 BAR2 SZ ES        5 1 47.65                             167   -0.0210 32.8 212 
 BAR2 SZ I         5 1 49.66         7.1 0.26            172           32.8 212 
 BRR  HZ EP        5 1 34.18                             149    0.1210 81.2 291 
 BRR  HZ I         5 1 34.44         5.6 0.26            154           81.2 291 
 BRR  HN ES        5 1 51.04                             149    0.0210 81.2 291 
 RUS  HZ EP        5 1 36.55                             142    0.1310  105 183 
 RUS  HN ES        5 1 54.95                             142   -0.2710  105 183 
 SML  HZ EP        5 1 48.78                             117   -0.32 8  245 332 
                                                                                
