 2017  4 1 0458 41.4 L   6.791 -73.177144.8  RSN 16 0.4 1.9LRSN                1
 GAP=133        1.06       3.5     4.0  5.7 -0.1099E+01  0.7763E+01  0.2838E+01E
 Epicentro: LOS SANTOS - SANTANDER                                             3
 ACTION:UPD 17-05-30 21:07 OP:jn   STATUS:               ID:20170401045841 L   I
 OLDACT:REG 17-04-01 13:18 OP:lv   STATUS:               ID:20170401045645     3
 2017-04-01-0457-00M.COL___362                                                 6
 STAT SP IPHASW D HRMM SECON CODA AMPLIT PERI AZIMU VELO AIN AR TRES W  DIS CAZ7
 BAR2 EZ EP        459  0.72                             171   -0.1510 21.9 182 
 BAR2 EZ ES        459 16.08                             171    0.0110 21.9 182 
 BAR2 EZ I         459 17.57        21.8 0.10            168           21.9 182 
 BRR  HZ EP        459  2.67                             153    0.3810 68.7 301 
 BRR  HN ES        459 19.33                             153    0.7410 68.7 301 
 BRR  HZ I         459 22.39        18.8 0.16            148           68.7 301 
 PAM  EZ EP        459  3.77                             150    0.1010 80.4  41 
 PAM  EN ES        459 21.01                             150   -0.0610 80.4  41 
 PAM  EZ I         459 23.38         8.0 0.32            150           80.4  41 
 RUS  HZ EP        459  4.93                             144   -0.0510 99.8 174 
 RUS  HN ES        459 22.91                             144   -0.4810 99.8 174 
 RUS  HZ I         459 24.67        11.4 0.09            140           99.8 174 
 PTB  HZ EP        459  7.32                             133   -0.62 9  144 259 
 PTB  HN ES        459 27.92                             133   -0.75 9  144 259 
 PTB  HZ I         459 29.98        10.3 0.22            127            144 259 
 SPBC HZ EP        459  9.52                             129   -0.00 9  160 218 
 SPBC HN ES        459 32.15                             129    0.67 9  160 218 
 SPBC HZ I         459 36.05        11.5 0.09            125            160 218 
 ZAR  HZ EP        459 13.64                             123    0.17 9  201 293 
 ZAR  HN ES        459 38.14                             123   -0.37 9  201 293 
 ZAR  HZ I         459 45.59        16.2 0.05            118            201 293 
 NOR  HZ EP        459 16.53                             119   -0.16 8  231 234 
 NOR  HN ES        459 43.87                             119   -0.36 8  231 234 
 NOR  HZ I         459 49.91         6.0 0.32            115            231 234 
 CHI  HN ES        459 48.19                             117    0.17 8  247 194 
 CHI  HZ I         459 50.79         5.2 0.32            114            247 194 
 ROSC BZ EP   4    459 20.78                             117    1.63 0  250 210 
 ROSC BN ES   4    459 47.34                             117   -1.28 0  250 210 
 ROSC BZ I         459 57.65         6.0 0.39            113            250 210 
 HEL  HZ EP   4    459 23.03                             115    1.89 0  268 256 
 HEL  HN ES        459 53.04                             115    0.88 8  268 256 
 HEL  HZ I         5 0  0.10         4.8 0.21            111            268 256 
 URE  HZ EP        459 21.54                             114   -0.55 7  281 292 
 URE  HE ES   4    459 52.75                             114   -1.09 0  281 292 
 PTGC HZ EP   4    459 23.70                             111   -1.52 0  309 158 
 PTGC HN ES   4    459 56.82                             111   -2.60 0  309 158 
 CBOC HZ EP   4    459 29.21                             110    1.37 0  330 252 
 CBOC HN ES   4    5 0  2.69                             110   -1.39 0  330 252 
 CBOC HZ I         5 0 12.22         1.2 0.25            107            330 252 
 DBB  EN ES   4    5 0  2.66                             110   -2.47 0  336 274 
 DBB  EZ I         5 0  3.50         2.7 0.09            106            336 274 
 PRA  HZ EP        459 35.40                             106    0.84 6  389 209 
 PRA  HN ES        5 0 15.87                             106   -0.17 6  389 209 
 PRA  HZ I         5 0 20.04         2.4 0.11            104            389 209 
 PAL  HZ EP        459 36.39                             106    0.29 6  402 239 
 PAL  HZ I         5 0 24.64         1.9 0.37            103            402 239 
 SJC  HZ EP   4    459 35.32                             106   -1.47 0  408 327 
 SJC  HN ES   4    5 0 15.94                             106   -4.08 0  408 327 
                                                                                
