 2014  2 1 0656 59.1 L   6.767 -73.180147.4  RSN  6 0.2 1.5LRSN                1
 GAP=140        0.57       2.8     2.9  3.9 -0.2495E+01  0.2668E+00  0.1923E+01E
 Epicentro: LOS SANTOS - SANTANDER                                             3
 ACTION:UPD 14-03-10 08:06 OP:ep   STATUS:               ID:20140201065659 L   I
 OLDACT:REG 14-02-01 07:59 OP:stll STATUS:               ID:20140201064807     3
 2014-02-01-0648-07M.COL___237                                                 6
 STAT SP IPHASW D HRMM SECON CODA AMPLIT PERI AZIMU VELO AIN AR TRES W  DIS CAZ7
 BAR2 SZ EP        657 18.59                             172   -0.3110 19.3 181 
 BAR2 SZ ES        657 34.10                             172   -0.2110 19.3 181 
 BAR2 SZ I         657 35.63        13.0 0.46            171           19.3 181 
 PAM  SZ EP        657 22.02                             149    0.1810 82.6  40 
 PAM  SN ES        657 39.60                             149    0.0410 82.6  40 
 PAM  SZ I         657 41.27         2.8 0.58            153           82.6  40 
 RUS  HZ EP        657 23.09                             145    0.2710 97.3 174 
 RUS  HE ES        657 41.60                             145    0.3110 97.3 174 
 RUS  HZ I         657 42.39         4.1 0.28            145           97.3 174 
 PTB  HZ EP        657 25.93                             133    0.08 9  143 260 
 PTB  HN ES        657 46.67                             133   -0.01 9  143 260 
 PTB  HZ I         657 51.42         5.1 0.28            133            143 260 
 TAM  HZ EP        657 26.97                             130   -0.23 9  158 103 
 CHI  HZ EP        657 36.50                             118    0.06 8  244 195 
 CHI  HN ES        658  5.26                             118   -0.28 8  244 195 
 CHI  HZ I         658 12.03         1.8 0.26            118            244 195 
                                                                                
