 2017 10 1 0623  3.7 L   6.798 -73.154138.9  RSN  9 0.4 1.6LRSN                1
 GAP=136        0.99       3.5     5.0  6.7 -0.3737E+01  0.1670E+02 -0.5547E+00E
 Epicentro: LOS SANTOS - SANTANDER                                             3
 ACTION:UPD 17-11-07 19:27 OP:rebc STATUS:               ID:20171001062303 L   I
 OLDACT:DUP 17-10-01 17:31 OP:osc  STATUS:               ID:20171001061740d    3
 2017-10-01-0618-00M.COL___408                                                 6
 STAT SP IPHASW D HRMM SECON CODA AMPLIT PERI AZIMU VELO AIN AR TRES W  DIS CAZ7
 BAR2 EZ EP        623 21.85                             170   -0.6310 23.0 188 
 BAR2 EZ ES        623 37.23                             170    0.0910 23.0 188 
 BAR2 EZ I         623 38.58         8.9 0.20            170           23.0 188 
 PAM  EZ EP        623 25.36                             149    0.1410 78.1  40 
 PAM  EE ES        623 42.16                             149    0.1410 78.1  40 
 PAM  EZ I         623 44.14         9.0 0.46            154           78.1  40 
 RUS  HZ EP        623 25.99                             142   -0.7610  100 176 
 RUS  HE ES        623 45.12                             142    0.3710  100 176 
 RUS  HZ I         623 46.67         3.2 0.38            146            100 176 
 SPBC HZ EP        623 31.81                             128    0.22 9  162 219 
 SPBC HE ES        623 53.48                             128    0.12 9  162 219 
 SPBC HZ I         623 59.30         4.1 0.30            130            162 219 
 ZAR  HZ EP        623 36.44                             121    0.83 9  203 292 
 ZAR  HE ES        624  0.09                             121   -0.43 9  203 292 
 ZAR  HZ I         624  7.06         4.3 0.14            122            203 292 
 CHI  HN ES        624 10.01                             116   -0.03 8  248 195 
 GUY2CHN ES        624 20.49                             111   -0.09 7  300 235 
 PRA  HZ EP        623 57.50                             105    0.60 6  391 209 
 PRA  HE ES        624 38.28                             105   -0.13 6  391 209 
 SJC  HZ EP        623 58.92                             105   -0.07 6  409 327 
 SJC  HN ES   4    624 37.38                             105   -4.75 0  409 327 
 SJC  HZ I         624 41.84         1.1 0.48            107            409 327 
                                                                                
