 2012  3 1 0917 23.2 L   6.777 -73.147144.5  RSN  6 0.4 1.6LRSN                1
 GAP=137        1.01       7.3     9.6 11.5 -0.1619E+02  0.4180E+02  0.2891E+01E
 ACTION:UP  12-03-31 23:16 OP:EP   STATUS:               ID:20120301091723 L   I
 2012-03-01-0910-00M.COL___191                                                 6
 STAT SP IPHASW D HRMM SECON CODA AMPLIT PERI AZIMU VELO SNR AR TRES W  DIS CAZ7
 BAR2 SZ EP        917 41.86                             171    -0.810   21 191 
 BAR2 SZ ES   2    917 58.29                             171     0.5 5   21 191 
 BAR2 SZ I         918  0.93        10.9 0.29                            21 191 
 BRR  HZ EP   1    917 44.93                             152     0.7 7   72 300 
 BRR  HZ I         918  6.16        13.9 0.61                            72 300 
 PAM  SZ EP   1    917 45.55                             150     0.2 7   79  38 
 PAM  SN ES   1    918  2.71                             150     0.0 7   79  38 
 RUS  HZ EP   1    917 46.62                             144     0.0 7   98 176 
 RUS  HE ES   1    918  5.11                             144     0.2 7   98 176 
 RUS  HZ I         918  6.85         3.6 0.27                            98 176 
 PTB  HZ EP   1    917 50.04                             132     0.0 7  147 260 
 PTB  HE ES   2    918 10.60                             132    -0.3 5  147 260 
 CHI  HZ EP   1    918  0.96                             117     0.4 6  246 195 
 CHI  HZ I         918  1.98         1.6 0.47                           246 195 
                                                                                
