 2012  1 1 0724 19.2 L   6.747 -73.123146.5  RSN  6 0.4 1.3LRSN                1
 GAP=142        0.89       6.0     5.4  8.6  0.2606E+01  0.9091E+01  0.2356E+00E
 Epicentro: LOS SANTOS - SANTANDER                                             3
 ACTION:UP  12-02-03 08:12 OP:REBC STATUS:               ID:20120101072419 L   I
 2012-01-01-0720-00M.COL___186                                                 6
 STAT SP IPHASW D HRMM SECON CODA AMPLIT PERI AZIMU VELO SNR AR TRES W  DIS CAZ7
 BAR2 SZ EP   1    724 38.84                             173     0.1 7   18 201 
 BAR2 SZ I         724 39.11         4.2 0.20                            18 201 
 BAR2 SZ ES   1    724 53.93                             173    -0.2 7   18 201 
 BRR  HZ EP   1    724 40.85                             151     0.2 7   76 302 
 BRR  HE ES   1    724 58.18                             151     0.7 7   76 302 
 BRR  HZ I         725  0.48         4.8 0.14                            76 302 
 PAM  SZ EP   1    724 41.75                             150     0.1 7   81  36 
 PAM  SN ES   1    724 58.75                             150    -0.4 7   81  36 
 PAM  SZ I         725  1.06         4.4 0.54                            81  36 
 RUS  HZ EP   1    724 42.24                             146    -0.3 7   95 177 
 RUS  HN ES   1    725  1.03                             146     0.2 7   95 177 
 RUS  HZ I         725  4.45         2.9 0.48                            95 177 
 PTB  HZ EP   1    724 46.71                             132     0.4 7  149 261 
 PTB  HN ES   1    725  6.90                             132    -0.6 7  149 261 
 ZAR  HN ES   1    725 17.50                             122    -0.3 6  209 293 
 ZAR  HZ I         725 24.57         2.1 0.37                           209 293 
                                                                                
