 2015  7 1 0030 35.2 L   6.845 -72.998143.4  RSN  5 0.4 1.8LRSN                1
 GAP=214        0.86       7.3     9.1  8.7  0.4155E+02 -0.5590E+01 -0.2323E+02E
 Epicentro: CEPITA - SANTANDER                                                 3
 ACTION:UPD 15-09-08 21:46 OP:cam  STATUS:               ID:20150701002742 L   I
 OLDACT:UP  15-07-06 15:29 OP:cam  STATUS:               ID:20150701002742 L   3
 OLDACT:UPD 15-07-03 20:22 OP:nlst STATUS:               ID:20150701002742 L   3
 2015-07-01-0027-42M.COL___325                                                 6
 STAT SP IPHASW D HRMM SECON CODA AMPLIT PERI AZIMU VELO AIN AR TRES W  DIS CAZ7
 BAR2 EZ EP        030 54.66                             166   -0.1510 34.7 216 
 BAR2 EZ ES        031  9.62                             166   -0.5010 34.7 216 
 BAR2 EZ I         031 10.99        10.8 0.18             47           34.7 216 
 RUS  HZ EP        030 59.15                             142    0.0710  106 185 
 RUS  HN ES        031 18.27                             142    0.5510  106 185 
 RUS  HZ I         031 19.53         3.5 0.28             47            106 185 
 ZAR  HN ES        031 35.31                             120    0.13 8  218 289 
 ZAR  HZ I         031 38.81         8.0 0.28             47            218 289 
 SML  HZ EP   1    031 12.21                             117    0.23 6  247 331 
 SML  HE I         031 47.82        13.1 0.10             37            247 331 
 CHI  HN ES   2    031 43.01                             116   -0.90 4  258 198 
                                                                                
