 2017  4 1 0143 11.6 L   6.794 -73.075136.0  RSN  8 0.5 1.6LRSN                1
 GAP=146        1.24       4.9     5.3  7.6 -0.3385E+01  0.8471E+01  0.1388E+01E
 Epicentro: LOS SANTOS - SANTANDER                                             3
 ACTION:UPD 17-05-30 21:07 OP:jn   STATUS:               ID:20170401014311 L   I
 OLDACT:DUP 17-04-01 14:05 OP:lv   STATUS:               ID:20170401013741d    3
 2017-04-01-0138-00M.COL___362                                                 6
 STAT SP IPHASW D HRMM SECON CODA AMPLIT PERI AZIMU VELO AIN AR TRES W  DIS CAZ7
 BAR2 EZ EP        143 30.45                             169    0.3410 25.2 208 
 BAR2 EZ ES        143 44.69                             169    0.1510 25.2 208 
 BAR2 EZ I         143 47.53         7.3 0.12            168           25.2 208 
 PAM  EZ EP        143 31.79                             150   -0.7510 73.2  34 
 PAM  EN ES        143 48.58                             150   -0.2910 73.2  34 
 PAM  EZ I         143 52.75        11.6 0.17            154           73.2  34 
 BRR  HZ EP        143 32.18                             148    0.0210 78.4 296 
 BRR  HN ES        143 49.00                             148    0.8110 78.4 296 
 RUS  HZ EP        143 34.88                             142    0.5310 99.7 181 
 RUS  HN ES        143 51.67                             142   -0.4110 99.7 181 
 RUS  HZ I         143 54.76         4.3 0.23            143           99.7 181 
 PTB  HZ EP   9    143 37.45                             128   -1.07 0  155 260 
 PTB  HN ES        143 58.08                                   -0.35 9  155 260 
 SPBC HZ EP        143 40.04                             126    0.22 9  168 221 
 SPBC HN ES        144  1.70                             126   -0.13 9  168 221 
 SPBC HZ I         144  6.49         7.7 0.19            127            168 221 
 ZAR  HZ EP        143 44.87                             119    0.63 8  212 292 
 ZAR  HN ES        144  8.87                             119   -0.81 8  212 292 
 ZAR  HZ I         144 14.04         4.4 0.09            120            212 292 
 NOR  HN ES        144 14.89                             116   -0.52 8  241 236 
 NOR  HZ I         144 20.67         2.0 0.16            117            241 236 
                                                                                
