 2012 11 1 0818 32.9 L   6.756 -73.169153.9  RSN  5 0.4 1.7LRSN                1
 GAP=179        0.75       8.2    10.4  8.1  0.5750E+02  0.3820E+02  0.1099E+02E
 Epicentro: LOS SANTOS - SANTANDER                                             3
 ACTION:UPD 12-12-05 15:30 OP:}ep  STATUS:               ID:20121101081832 L   I
 2012-11-01-0810-00M.COL___234                                                 6
 STAT SP IPHASW D HRMM SECON CODA AMPLIT PERI AZIMU VELO AIN AR TRES W  DIS CAZ7
 BAR2 SZ EP   1    818 53.43                             173    0.03 7 18.1 185 
 BAR2 SZ ES   1    819  9.23                             173   -0.18 7 18.1 185 
 BAR2 SZ I         819 10.18        10.2 0.36                          18.1 185 
 GIR2 SZ ES   1    819  9.72                             166   -0.12 7 35.8 356 
 BRR  HZ EP        818 55.29                             154    0.3610 71.5 303 
 RUS  HZ EP   1    818 57.34                             147    0.22 7 95.9 174 
 RUS  HN ES   1    819 15.91                             147   -0.12 7 95.9 174 
 RUS  HN I         819 17.71         5.7 0.18                          95.9 174 
 ZAR  HZ EP   1    819  4.86                             124   -0.96 6  204 294 
 ZAR  HE ES   1    819 31.80                             124    0.29 6  204 294 
 ZAR  HE I         819 38.57         7.6 0.18                           204 294 
                                                                                
