 2012  3 1 0755 59.0 L   6.363 -73.606106.0  RSN  8 0.2 1.4LRSN                1
 GAP= 70        0.41       2.0     1.8  3.8 -0.1440E+00  0.3254E+01  0.1633E+01E
 ACTION:UP  12-03-31 23:16 OP:EP   STATUS:               ID:20120301075559 L   I
 2012-03-01-0750-00M.COL___191                                                 6
 STAT SP IPHASW D HRMM SECON CODA AMPLIT PERI AZIMU VELO SNR AR TRES W  DIS CAZ7
 BAR2 SZ EP        756 15.43                             151     0.210   53  62 
 BAR2 SZ ES        756 27.79                             151     0.010   53  62 
 RUS  HZ EP        756 17.33                             141     0.110   78 132 
 RUS  HE ES   1    756 31.38                             141    -0.1 7   78 132 
 RUS  HZ I         756 33.61         4.5 0.35                            78 132 
 BRR  HZ EP   1    756 16.76                             139    -0.2 7   83 352 
 BRR  HN ES   1    756 31.02                             139     0.1 7   83 352 
 BRR  HZ I         756 31.69         6.4 0.37                            83 352 
 PAM  SZ EP   1    756 23.38                             121    -0.3 7  147  43 
 PAM  SE ES   2    756 42.85                             121     0.0 5  147  43 
 NOR  SZ EP   2    756 24.88                             118    -0.1 5  165 238 
 NOR  SE ES   1    756 45.03                             118    -0.3 7  165 238 
 ZAR  HN ES   2    756 49.29                             114     0.0 4  186 312 
 ZAR  HZ I         756 53.03         6.1 0.24                           186 312 
 CHI  HZ EP   1    756 28.42                             114     0.0 7  192 184 
 CHI  HZ I         756 55.27         1.7 0.44                           192 184 
 HEL  HZ EP   1    756 30.95                             111     0.2 6  214 265 
 HEL  HN ES   1    756 55.69                             111     0.2 6  214 265 
 HEL  HZ I         757  0.56         3.3 0.38                           214 265 
                                                                                
