 2010  7 1 0321 55.5 L   6.818 -73.103142.6  RSN  6 0.3 1.9LRSN                1
 GAP=184        0.52       4.0     6.5  5.2 -0.9363E+01 -0.7658E+01 -0.1939E+01E
 Epicentro: LOS SANTOS - SANTANDER                                             3
 ACTION:UPD 10-12-01 15:14 OP:pat  STATUS:               ID:20100701032155 L   I
 2010-07-01-0320-53S.COL___118                                                 6
 STAT SP IPHASW D HRMM SECON CODA AMPLIT PERI AZIMU VELO AIN AR TRES W  DIS CAZ7
 BAR2 SZ EP   1    322 14.53                             169    -0.3 7   27 200 
 BAR2 SZ ES   1    322 30.04                             169     0.2 7   27 200 
 BRR  HZ IP     D  322 16.41                             151    -0.110   75 295 
 BRR  HZ I         322 16.67        23.2 0.12                            75 295 
 BRR  HN ES   1    322 32.80                             151    -0.1 7   75 295 
 GUE  SZ EP   1    322 19.61                             139    -0.1 7  114  10 
 GRA  SZ EP        322 20.49                             137     0.310  122  16 
 GRA  SZ ES   2    322 39.03                             137    -0.4 5  122  16 
 OCA  SZ EP   1    322 23.31                             129    -0.1 7  159 351 
 OCA  SZ ES   2    322 45.54                             129     0.3 5  159 351 
 OCA  SZ I         322 49.12         5.4 0.30                           159 351 
 PRA  HZ EP   2    322 48.92                             106    -0.5 3  396 210 
 PRA  HN ES   2    323 32.05                             106     0.6 3  396 210 
 PRA  HZ I         323 35.08         1.9 0.40                           396 210 
                                                                                
