 2017  3 1 0356  1.0 L   6.748 -73.153148.7  RSN  6 0.3 1.2LRSN                1
 GAP=138        0.71       4.5     3.9  6.6  0.7029E+01 -0.3825E+01 -0.6421E+01E
 Epicentro: LOS SANTOS - SANTANDER                                             3
 ACTION:UPD 17-05-25 18:34 OP:jn   STATUS:               ID:20170301035601 L   I
 OLDACT:UP  17-03-01 14:59 OP:and  STATUS:               ID:20170301034742d    3
 OLDACT:UP  17-03-01 14:59 OP:and  STATUS:               ID:20170301034742d    3
 OLDACT:UP  17-03-01 14:59 OP:and  STATUS:               ID:20170301034742d    3
 OLDACT:DUP 17-03-01 14:51 OP:and  STATUS:               ID:20170301034742d    3
 OLDACT:UP  17-03-01 14:51 OP:and  STATUS:               ID:20170301034741d    3
 OLDACT:UP  17-03-01 14:49 OP:and  STATUS:               ID:20170301034741d    3
 OLDACT:UP  17-03-01 14:45 OP:and  STATUS:               ID:20170301034741d    3
 OLDACT:UP  17-03-01 14:45 OP:and  STATUS:               ID:20170301034741d    3
 OLDACT:UP  17-03-01 14:45 OP:and  STATUS:               ID:20170301034741d    3
 OLDACT:UP  17-03-01 14:45 OP:and  STATUS:               ID:20170301034741d    3
 OLDACT:UP  17-03-01 14:42 OP:and  STATUS:               ID:20170301034741d    3
 OLDACT:DUP 17-03-01 14:41 OP:and  STATUS:               ID:20170301034741d    3
 OLDACT:UP  17-03-01 14:40 OP:and  STATUS:               ID:20170301034740     3
 OLDACT:UP  17-03-01 14:38 OP:and  STATUS:               ID:20170301034740     3
 OLDACT:UP  17-03-01 14:38 OP:and  STATUS:               ID:20170301034740     3
 OLDACT:UP  17-03-01 14:38 OP:and  STATUS:               ID:20170301034740     3
 OLDACT:UP  17-03-01 14:37 OP:and  STATUS:               ID:20170301034740     3
 OLDACT:UP  17-03-01 14:35 OP:and  STATUS:               ID:20170301034740     3
 OLDACT:UP  17-03-01 14:35 OP:and  STATUS:               ID:20170301034740     3
 OLDACT:UP  17-03-01 14:31 OP:and  STATUS:               ID:20170301034740     3
 OLDACT:UP  17-03-01 14:31 OP:and  STATUS:               ID:20170301034740     3
 OLDACT:UP  17-03-01 14:30 OP:and  STATUS:               ID:20170301034740     3
 OLDACT:REG 17-03-01 12:46 OP:and  STATUS:               ID:20170301034740     3
 2017-03-01-0348-00M.COL___387                                                 6
 STAT SP IPHASW D HRMM SECON CODA AMPLIT PERI AZIMU VELO AIN AR TRES W  DIS CAZ7
 BAR2 EZ EP        356 20.88                             173   -0.0310 17.6 191 
 BAR2 EZ ES   2    356 36.28                             173   -0.13 5 17.6 191 
 BAR2 EZ I         356 37.51         3.2 0.35            169           17.6 191 
 BRR  HZ EP        356 22.67                             152    0.0510 73.4 303 
 BRR  HN ES        356 39.55                             152    0.0910 73.4 303 
 PAM  EZ EP        356 23.56                             150   -0.2910 82.4  37 
 PAM  EN ES   4    356 46.12                             150    4.46 0 82.4  37 
 RUS  HZ EP        356 24.83                             146    0.1610 94.9 175 
 RUS  HN ES        356 43.31                             146    0.1910 94.9 175 
 RUS  HZ I         356 44.62         2.4 0.30            146           94.9 175 
 PTB  HZ EP        356 28.07                             133   -0.00 9  146 261 
 PTB  HN ES        356 48.58                             133   -0.59 9  146 261 
 PTB  HZ I         356 54.45         1.6 0.15            131            146 261 
 ZAR  HN ES        356 59.91                             123    0.52 8  206 294 
 ZAR  HZ I         357  6.47         2.4 0.27            122            206 294 
                                                                                
