 2011  4 1 0948 35.9 L   6.825 -73.257148.3  RSN  4 0.5 1.5LRSN                1
 GAP=140        1.19      11.8    19.7 20.3 -0.9616E+02 -0.1004E+03  0.6695E+02E
 Epicentro: ZAPATOCA - SANTANDER                                               3
 ACTION:UP  11-06-22 15:27 OP:REBC STATUS:               ID:20110401094835 L   I
 2011-04-01-0946-07S.COL___138                                                 6
 STAT SP IPHASW D HRMM SECON CODA AMPLIT PERI AZIMU VELO SNR AR TRES W  DIS CAZ7
 BAR2 SZ EP   1    948 55.15                             169    -0.8 7   27 162 
 BAR2 SZ I         949 10.78         5.8 0.29                            27 162 
 BRR  HZ EP   1    948 57.20                             157     0.5 7   59 302 
 BRR  HZ I         948 58.91        11.5 0.37                            59 302 
 BRR  HN ES   2    949 13.29                             157     0.3 5   59 302 
 GRA  SZ EP   1    949  2.08                             137     0.6 7  127  23 
 GRA  SZ ES   1    949 21.84                             137     0.3 7  127  23 
 GRA  SZ I         949 22.94         3.0 0.32                           127  23 
 OCA  SZ EP   1    949  4.10                             130     0.0 7  156 357 
 OCA  SZ ES   1    949 25.24                             130    -0.8 7  156 357 
                                                                                
