 2017  4 1 0839  5.3 L   6.721 -73.256132.2  RSN  6 0.5 1.0LRSN                1
 GAP=200        1.30       7.0     8.0  9.2  0.2895E+02  0.2630E+02  0.1017E+02E
 Epicentro: GALAN - SANTANDER                                                  3
 ACTION:UPD 17-05-30 21:07 OP:jn   STATUS:               ID:20170401083905 L   I
 OLDACT:REG 17-04-01 13:35 OP:lv   STATUS:               ID:20170401083745     3
 2017-04-01-0838-00M.COL___362                                                 6
 STAT SP IPHASW D HRMM SECON CODA AMPLIT PERI AZIMU VELO AIN AR TRES W  DIS CAZ7
 BAR2 EZ ES        839 36.67                             173   -0.4710 16.4 150 
 BAR2 EZ I         839 37.51         2.5 0.27            174           16.4 150 
 BRR  HE ES        839 40.34                             152    0.5010 66.0 310 
 RUS  HZ EP        839 28.01                             143    0.7610 93.6 168 
 RUS  HN ES        839 44.09                             143   -0.2510 93.6 168 
 RUS  HZ I         839 44.93         0.9 0.25            144           93.6 168 
 PTB  HZ EP        839 29.09                             132   -0.8710  134 261 
 PTB  HE ES        839 49.72                             132    0.5510  134 261 
 PTB  HZ I         839 51.56         1.2 0.08            130            134 261 
 SPBC HZ EP        839 31.83                             129    0.41 9  149 217 
 SPBC HN ES        839 51.50                             129   -0.27 9  149 217 
 SPBC HZ I         839 53.58         2.6 0.11            128            149 217 
 ZAR  HZ EP        839 35.80                             120   -0.32 9  196 296 
 ZAR  HN ES        839 59.95                             120   -0.18 9  196 296 
 ZAR  HZ I         840  5.48         1.3 0.18            120            196 296 
                                                                                
