 2011  8 1 0554 55.9 L   6.791 -73.095142.3  RSN  6 0.3 1.3LRSN                1
 GAP=143        0.56       3.1     5.4  5.2 -0.2377E+01 -0.1743E+01 -0.1681E+01E
 Epicentro: LOS SANTOS - SANTANDER                                             3
 ACTION:UP  12-07-25 14:05 OP:epov STATUS:               ID:20110801055455 L   I
 OLDACT:UPD 12-07-12 22:07 OP:ep   STATUS:               ID:20110801055455 L   3
 2011-08-01-0553-19S.COL___142                                                 6
 STAT SP IPHASW D HRMM SECON CODA AMPLIT PERI AZIMU VELO AIN AR TRES W  DIS CAZ7
 BAR2 SZ ES   1    555 29.69                             170   -0.45 7 24.0 204 
 BAR2 SZ I         555 31.61         8.3 0.41                          24.0 204 
 PAM  SZ EP   1    555 17.90                             151    0.30 7 74.7  36 
 PAM  SN ES   1    555 34.82                             151    0.30 7 74.7  36 
 PAM  SZ I         555 37.39         1.7 0.37                          74.7  36 
 BRR  HZ EP   1    555 16.93                             150   -0.08 7 76.6 297 
 BRR  HN ES   1    555 33.86                             150    0.40 7 76.6 297 
 BRR  HZ I         555 34.86         6.8 0.13                          76.6 297 
 RUS  HZ EP   1    555 19.41                             143    0.17 7 99.4 179 
 RUS  HZ I         555 20.46         2.2 0.16                          99.4 179 
 RUS  HN ES   2    555 37.30                             143   -0.14 5 99.4 179 
 GRA  SZ EP   1    555 20.81                             136    0.01 7  125  15 
 GRA  SZ ES   1    555 39.99                             136   -0.22 7  125  15 
 GRA  SZ I         555 41.50         2.4 0.40                           125  15 
 OCA  SZ EP   1    555 23.77                             128   -0.35 7  162 351 
 OCA  SZ ES   1    555 46.01                             128   -0.11 7  162 351 
                                                                                
