 2010 12 1 0116 21.0 L   6.790 -73.099140.1  RSN  6 0.4 1.5LRSN                1
 GAP=164        0.97       4.6    11.2  8.9 -0.3149E+01 -0.3199E+02 -0.4232E+01E
 Epicentro: LOS SANTOS - SANTANDER                                             3
 ACTION:UP  11-01-14 15:21 OP:pat  STATUS:               ID:20101201011621 L   I
 2010-12-01-0114-21S.COL___132                                                 6
 STAT SP IPHASW D HRMM SECON CODA AMPLIT PERI AZIMU VELO SNR AR TRES W  DIS CAZ7
 BAR2 SZ EP        116 39.76                             170    -0.210   24 203 
 BAR2 SZ ES   1    116 54.39                             170    -0.3 7   24 203 
 BRR  HZ EP        116 41.57                             150    -0.310   76 297 
 BRR  HN ES   1    116 58.23                             150     0.1 7   76 297 
 BRR  HZ I         116 59.22        13.1 0.16                            76 297 
 RUS  HZ EP        116 43.82                             143    -0.310   99 179 
 RUS  HN ES   1    117  2.52                             143     0.4 7   99 179 
 RUS  HZ I         117  4.71         3.2 0.23                            99 179 
 GUE  SZ EP        116 45.81                             138     0.610  117  10 
 GRA  SZ EP        116 45.55                             136    -0.110  125  15 
 GRA  SZ I         116 46.85         4.7 0.35                           125  15 
 CHI  HZ EP   1    116 58.02                             116    -0.4 6  249 196 
 CHI  HN ES   1    117 28.21                             116     0.6 6  249 196 
 CHI  HZ I         117 34.93         2.3 0.37                           249 196 
                                                                                
