 2015  3 1 0409 20.4 L   6.788 -73.148143.1  RSN 15 0.5 2.2LRSN                1
 GAP= 71        1.10       2.6     3.1  5.1 -0.1001E+01  0.3724E+01  0.1611E+01E
 Epicentro: LOS SANTOS - SANTANDER                                             3
 ACTION:UPD 15-04-30 16:21 OP:nd   STATUS:               ID:20150301040920 L   I
 OLDACT:REG 15-03-01 15:20 OP:carl STATUS:               ID:20150301040748     3
 2015-03-01-0407-48M.COL___291                                                 6
 STAT SP IPHASW D HRMM SECON CODA AMPLIT PERI AZIMU VELO AIN AR TRES W  DIS CAZ7
 BAR2 EZ IP     C  4 9 39.75                             171    0.0810 22.0 190 
 BAR2 EZ ES        4 9 54.39                             171   -0.3210 22.0 190 
 BAR2 EZ I         4 9 55.90        31.7 0.22            170           22.0 190 
 BRR  HZ IP     D  4 9 41.64                             152    0.3710 71.6 300 
 BRR  HN ES        4 9 58.73                             152    1.1810 71.6 300 
 BRR  HZ I         4 9 59.18        25.2 0.68            151           71.6 300 
 PAM  SZ EP        4 9 42.56                             150    0.1710 78.6  39 
 PAM  SN ES        4 9 59.71                             150    0.1610 78.6  39 
 PAM  SZ I         410  0.24        10.8 0.40            151           78.6  39 
 RUS  HZ EP        4 9 43.65                             144   -0.1310 99.3 176 
 RUS  HE ES        410  1.81                             144   -0.2210 99.3 176 
 RUS  HZ I         410  2.69        10.5 0.24            144           99.3 176 
 PTB  HZ EP        4 9 46.43                             131   -0.66 9  147 259 
 PTB  HN ES        410  7.00                             131   -0.91 9  147 259 
 PTB  HZ I         410 12.19        15.7 0.12            131            147 259 
 TAM  HZ EP        4 9 47.91                             130    0.06 9  155 104 
 TAM  HE ES        410  9.18                             130   -0.09 9  155 104 
 TAM  HZ I         410 15.72         9.2 0.40            131            155 104 
 OCA  HZ EP        4 9 49.17                             129    0.56 9  162 353 
 OCA  HN ES        410  9.93                             129   -0.69 9  162 353 
 OCA  HZ I         410 13.78        16.5 0.20            129            162 353 
 SPBC HZ EP        4 9 48.66                             129    0.09 9  162 219 
 SPBC HN ES        410 10.59                             129    0.04 9  162 219 
 SPBC HZ I         410 13.06        25.5 0.20            128            162 219 
 ZAR  HZ EP        4 9 52.87                             122    0.19 9  204 293 
 ZAR  HN ES        410 17.85                             122   -0.02 9  204 293 
 ZAR  HZ I         410 23.67        22.3 0.56            121            204 293 
 NOR  HZ EP        4 9 55.61                             118   -0.24 8  234 235 
 NOR  HN ES        410 23.75                             118    0.23 8  234 235 
 NOR  HZ I         410 29.91        17.8 0.18            118            234 235 
 SML  HZ EP        4 9 56.50                             117   -0.48 8  245 335 
 SML  HN ES        410 25.18                             117   -0.34 8  245 335 
 SML  HZ I         410 34.05        18.6 0.24            117            245 335 
 CHI  HZ EP        4 9 57.83                             117    0.04 8  247 195 
 CHI  HN ES        410 26.69                             117   -0.28 8  247 195 
 CHI  HZ I         410 33.06         7.8 0.24            117            247 195 
 GUY2CHZ EP        410  3.94                             112    0.18 7  300 235 
 GUY2CHN ES        410 37.85                             112    0.26 7  300 235 
 GUY2CHZ I         410 46.33        10.4 0.42                           300 235 
 RREF HZ EP        410  7.37                             110    1.08 7  321 230 
 RREF HN ES        410 42.11                             110    0.01 7  321 230 
 RREF HZ I         410 51.50         9.0 0.24            110            321 230 
 PRA  HZ EP        410 12.87                             106   -0.80 6  391 210 
 PRA  HN ES        410 55.71                             106    0.49 6  391 210 
 PRA  HZ I         411  2.02         8.5 0.38            106            391 210 
                                                                                
