 2015  2 1 0347 35.9 L   6.785 -73.086151.1  RSN  5 0.2 1.2LRSN                1
 GAP=189        0.52       2.6     5.5  5.3 -0.1140E+01  0.9803E-01  0.3969E+00E
 Epicentro: LOS SANTOS - SANTANDER                                             3
 ACTION:UPD 15-04-30 21:20 OP:nd   STATUS:               ID:20150201034735 L   I
 OLDACT:REG 15-02-01 12:06 OP:spq  STATUS:               ID:20150201033746     3
 2015-02-01-0337-46M.COL___265                                                 6
 STAT SP IPHASW D HRMM SECON CODA AMPLIT PERI AZIMU VELO AIN AR TRES W  DIS CAZ7
 BAR2 EZ EP        347 56.30                             171    0.0710 23.9 206 
 BAR2 EZ ES   1    348 11.92                             171   -0.12 7 23.9 206 
 BAR2 EZ I         348 12.77         2.7 0.58            173           23.9 206 
 BRR  HZ EP     D  347 58.15                             151    0.1110 77.8 297 
 BRR  HE ES        348 15.51                             151    0.2310 77.8 297 
 BRR  HZ I         348 17.60         2.4 0.16            151           77.8 297 
 RUS  HE ES   1    348 18.96                             145    0.03 7 98.7 180 
 RUS  HZ I         348 20.16         2.1 0.18            148           98.7 180 
 OCA  HN ES   1    348 27.08                             130   -0.41 7  163 351 
 OCA  HZ I         348 31.42         2.0 0.18            130            163 351 
 SPBC HZ EP   1    348  5.29                             130    0.15 7  166 221 
 SPBC HN ES        348 27.61                             130   -0.30 9  166 221 
 SPBC HZ I         348 28.78         4.1 0.09            131            166 221 
                                                                                
