 2011  2 1 0515 24.2 L   6.786 -73.092142.6  RSN  5 0.3 1.2LRSN                1
 GAP=165        0.49       5.4    22.5  7.8 -0.7790E+02  0.2375E+02 -0.4695E+01E
 Epicentro: LOS SANTOS - SANTANDER                                             3
 ACTION:UP  11-03-28 15:05 OP:jfem STATUS:               ID:20110201051524 L   I
 2011-02-01-0514-47S.COL___138                                                 6
 STAT SP IPHASW D HRMM SECON CODA AMPLIT PERI AZIMU VELO SNR AR TRES W  DIS CAZ7
 BAR2 SZ EP   2    515 43.31                             170    -0.1 5   24 205 
 BTL  SZ EP   1    515 43.63                             169     0.2 7   24 307 
 BAR2 SZ ES   2    515 58.23                             170    -0.2 5   24 205 
 BAR2 SZ I         515 59.81         5.2 0.23                            24 205 
 RUS  HZ EP   2    515 47.72                             144     0.2 5   99 179 
 RUS  HE ES   2    516  5.63                             144     0.0 5   99 179 
 RUS  HZ I         516  7.09         2.4 0.26                            99 179 
 GRA  SZ EP   2    515 48.57                             136    -0.6 5  126  15 
 GRA  SZ ES   2    516  8.88                             136     0.3 5  126  15 
 GRA  SZ I         516 11.26         2.3 0.38                           126  15 
 CHI  HZ EP   2    516  1.69                             116     0.0 4  249 197 
 CHI  HZ I         516  4.81         0.8 0.23                           249 197 
                                                                                
