 2016  4 1 0546 42.9 L   5.914 -73.855 13.2  RSN  4 0.5 1.1LRSN                1
 GAP=128        1.14       4.1     2.7  9.0  0.1134E+01 -0.5105E-01 -0.2330E+02E
 Epicentro: SUCRE - SANTANDER                                                  3
 ACTION:UPD 16-05-05 14:17 OP:rebc STATUS:               ID:20160401054642 L   I
 OLDACT:DUP 16-04-01 16:33 OP:ak   STATUS:               ID:20160401053748d    3
 2016-04-01-0537-47M.COL___310                                                 6
 STAT SP IPHASW D HRMM SECON CODA AMPLIT PERI AZIMU VELO AIN AR TRES W  DIS CAZ7
 SPBC HZ IP     C  546 49.83                             106    0.3410 37.7 220 
 SPBC HN ES        546 54.22                             106   -0.4010 37.7 220 
 RUS  HZ EP        546 57.72                              97    0.6810 85.5  92 
 RUS  HN ES        547  7.45                              97   -0.6210 85.5  92 
 RUS  HZ I         547  9.70         5.4 0.32             97           85.5  92 
 PTB  HZ EP        546 58.53                              96    0.4210 95.9 316 
 PTB  HE ES        547  9.70                              96   -0.2810 95.9 316 
 ZAR  HZ EP   2    547 13.67                              56    0.45 4  207 328 
 ZAR  HN ES        547 36.57                              56   -0.30 8  207 328 
                                                                                
