 2013  1 1 0447 13.6 L   6.812 -73.110145.9  RSN 16 0.5 3.0LRSN 3.5WRSN        1
 SPEC AVERAGE  MO 14.3 ST  9.6 OM  3.3 f0 3.16 R0.4879 AL 2.39 WI 39.1 MW  3.5 3
 SPEC SD       MO  0.1 ST  7.5 OM  0.8 f00.737 R0.0948 AL      WI      MW  0.0 3
 GAP=128        1.56       4.1     6.2  7.3 -0.1783E+01 -0.4393E+00  0.2138E+01E
 Epicentro: LOS SANTOS - SANTANDER                                             3
 SPEC HEL HH N MO 14.3 ST  3.9 OM  2.4 f0 2.49 R0.5904 AL 1.86 WI 56.9 MW  3.5 3
 SPEC HEL HH N T 44822 K 0.000 GD  312 VS 4.20 DE 3.00 Q0230.0 QA 0.60 VS 4.20 3
 SPEC PTB HH E MO 14.2 ST  5.5 OM  2.5 f0 2.95 R0.4983 AL 2.09 WI 33.0 MW  3.4 3
 SPEC PTB HH E T 448 1 K 0.000 GD  210 VS 4.20 DE 3.00 Q0230.0 QA 0.60 VS 4.20 3
 SPEC CHI HH N MO 14.3 ST  6.4 OM  2.5 f0 2.78 R0.5288 AL 2.12 WI 34.3 MW  3.5 3
 SPEC CHI HH N T 44820 K 0.000 GD  290 VS 4.20 DE 3.00 Q0230.0 QA 0.60 VS 4.20 3
 SPEC BRR HH N MO 14.3 ST 22.5 OM  2.7 f0 4.40 R0.3341 AL 3.49 WI 32.2 MW  3.5 3
 SPEC BRR HH N T 44751 K 0.000 GD  163 VS 4.20 DE 3.00 Q0230.0 QA 0.60 VS 4.20 3
 ACTION:UPD 13-02-15 09:11 OP:ep   STATUS:               ID:20130101044713 L   I
 2013-01-01-0440-00M.COL___242                                                 6
 STAT SP IPHASW D HRMM SECON CODA AMPLIT PERI AZIMU VELO AIN AR TRES W  DIS CAZ7
 BAR2 SZ IP        447 33.60                             169    0.2610 25.6 198 
 BAR2 SZ ES        447 48.43                             169   -0.2710 25.6 198 
 BAR2 SZ I         447 52.66       158.5 0.46            165           25.6 198 
 BRR  HZ IP     C  447 35.46                             152    0.4910 74.1 296 
 BRR  HN ES        447 52.75                             152    1.1410 74.1 296 
 BRR  HE I         447 56.47       139.4 0.20            147           74.1 296 
 RUS  HZ IP     D  447 37.50                             144    0.0110  102 178 
 RUS  HN ES        447 55.72                             144   -0.3710  102 178 
 RUS  HE I         447 57.28       157.2 0.46            141            102 178 
 PTB  HZ EP        447 40.07                             131   -0.93 9  152 259 
 PTB  HE ES        448  1.70                             131   -0.64 9  152 259 
 PTB  HN I         448  2.84       134.9 0.20            127            152 259 
 OCA  HZ EP        447 41.96                             130    0.07 9  159 352 
 OCA  HE ES        448  3.86                             130   -0.06 9  159 352 
 OCA  HN I         448  7.09       357.6 0.30            128            159 352 
 CTAU SZ EP   9    447 51.29                             123    4.35 0  206 210 
 CTAU SZ ES        448 16.83                                   -0.43 8  206 210 
 ZAR  HZ EP        447 46.00                             122   -0.43 8  207 291 
 ZAR  HE ES        448 11.76                             122   -0.24 8  207 291 
 ZAR  HE I         448 18.20       163.6 0.16            119            207 291 
 CTAB SZ EP   9    447 49.42                             119   -0.32 0  233 211 
 CTAB SZ ES        448 18.62                                    1.04 8  233 211 
 CHI  HZ EP        447 51.38                             117   -0.22 8  251 196 
 CHI  HZ I         447 53.71        28.7 0.16            114            251 196 
 CHI  HN ES        448 20.55                             117   -0.66 8  251 196 
 ROSC BZ EP        447 53.02                             117    0.90 8  256 212 
 ROSC BE ES        448 22.41                             117    0.28 8  256 212 
 ROSC BZ I         448 31.22        54.3 0.45            114            256 212 
 CVER SZ EP   9    447 55.96                             115    1.65 0  275 203 
 CVER SZ ES        448 30.17                                    2.49 8  275 203 
 HEL  HZ EP        447 54.63                             115    0.30 7  276 256 
 HEL  HN ES        448 26.11                             115    0.05 7  276 256 
 HEL  HE I         448 33.56        43.1 0.50            112            276 256 
 URE  HZ EP   4    447 53.45                             114   -1.63 0  287 291 
 VIL  SZ EP        447 56.85                             112   -0.45 7  305 192 
 VIL  SN ES        448 31.52                             112    0.16 7  305 192 
 TOL  SZ EP        448  2.93                             109    0.60 6  347 225 
 TOL  SZ I         448 44.94        13.0 0.50            107            347 225 
 SDV  BZ EP        448  2.86                             109   -0.37 6  356  50 
 ANIL HZ EP        448  4.21                             108    0.33 6  361 225 
 ANIL HN ES        448 43.36                             108    0.29 6  361 225 
 ANIL HE I         448 48.19        72.2 0.44            106            361 225 
                                                                                
