 2015  1 1 0733 41.3 L   6.757 -73.168149.8  RSN  4 0.2 1.1LRSN                1
 GAP=232        0.56       4.5     4.3  4.5  0.9606E+01  0.1625E+01  0.2519E+00E
 Epicentro: LOS SANTOS - SANTANDER                                             3
 ACTION:UPD 15-03-02 15:35 OP:nd   STATUS:               ID:20150101073341 L   I
 OLDACT:REG 15-01-01 15:24 OP:stll STATUS:               ID:20150101072735     3
 2015-01-01-0727-35M.COL___277                                                 6
 STAT SP IPHASW D HRMM SECON CODA AMPLIT PERI AZIMU VELO AIN AR TRES W  DIS CAZ7
 BAR2 EZ EP        734  1.35                             173    0.0210 18.3 185 
 BAR2 EZ ES        734 16.68                             173   -0.2710 18.3 185 
 BAR2 EZ I         734 18.97         3.6 0.22            168           18.3 185 
 BRR  HZ EP        734  3.19                             153    0.2910 71.5 303 
 BRR  HN ES        734 19.79                             153    0.0410 71.5 303 
 BRR  HZ I         734 23.23         2.4 0.28            150           71.5 303 
 RUS  HZ EP        734  5.10                             146   -0.0410 96.0 174 
 RUS  HZ I         734  6.02         1.2 0.48            146           96.0 174 
 RUS  HN ES        734 23.91                             146    0.1810 96.0 174 
 PTB  HZ EP        734  7.96                             134   -0.35 9  144 260 
 PTB  HN ES        734 29.47                             134    0.10 9  144 260 
 PTB  HZ I         734 36.37         1.5 0.26            131            144 260 
                                                                                
