 2017  3 1 0422 13.5 L   6.741 -73.168152.4  RSN  4 0.3 1.0LRSN                1
 GAP=230        0.66       5.4     5.2  6.1  0.1408E+02 -0.2083E+01 -0.1956E+01E
 Epicentro: LOS SANTOS - SANTANDER                                             3
 ACTION:UPD 17-05-25 18:34 OP:jn   STATUS:               ID:20170301042213 L   I
 OLDACT:UP  17-03-01 15:11 OP:and  STATUS:               ID:20170301041743     3
 OLDACT:UP  17-03-01 15:11 OP:and  STATUS:               ID:20170301041743     3
 OLDACT:UP  17-03-01 15:11 OP:and  STATUS:               ID:20170301041743     3
 OLDACT:REG 17-03-01 12:48 OP:and  STATUS:               ID:20170301041743     3
 2017-03-01-0418-00M.COL___387                                                 6
 STAT SP IPHASW D HRMM SECON CODA AMPLIT PERI AZIMU VELO AIN AR TRES W  DIS CAZ7
 BAR2 EZ EP        422 33.54                             174   -0.2310 16.6 186 
 BAR2 EZ ES   2    422 49.09                             174   -0.53 5 16.6 186 
 BAR2 EZ I         422 50.06         2.3 0.19            171           16.6 186 
 BRR  HZ EP        422 35.30                             153   -0.1010 72.5 304 
 BRR  HN ES        422 52.81                             153    0.3010 72.5 304 
 RUS  HZ EP        422 37.84                             147    0.4010 94.3 174 
 RUS  HN ES     D  422 56.17                             147    0.0310 94.3 174 
 RUS  HZ I         422 58.21         0.9 0.26            146           94.3 174 
 PTB  HZ EP        422 40.42                             134   -0.25 9  144 261 
 PTB  HN ES        423  1.83                             134   -0.05 9  144 261 
 PTB  HZ I         423  2.37         1.5 0.26            135            144 261 
                                                                                
