 2012  4 1 0718 53.6 L   6.751 -73.137147.0  RSN  7 0.4 1.8LRSN                1
 GAP=140        0.92       5.7     5.8  8.4 -0.9672E+00  0.1616E+02  0.6274E+01E
 Epicentro: LOS SANTOS - SANTANDER                                             3
 ACTION:UPD 12-07-05 11:49 OP:tino STATUS:               ID:20120401071853 L   I
 2012-04-01-0717-59S.COL___204                                                 6
 STAT SP IPHASW D HRMM SECON CODA AMPLIT PERI AZIMU VELO AIN AR TRES W  DIS CAZ7
 BAR2 SZ EP        719 13.21                             173    -0.110   18 196 
 BAR2 SZ ES   1    719 28.17                             173    -0.5 7   18 196 
 BAR2 SZ I         719 29.26        18.7 0.26                            18 196 
 BRR  HZ EP   1    719 15.37                             152     0.3 7   75 302 
 BRR  HN ES   1    719 32.56                             152     0.7 7   75 302 
 BRR  HZ I         719 37.34        14.9 0.14                            75 302 
 PAM  SZ EP   1    719 16.51                             150     0.3 7   81  37 
 PAM  SZ I         719 16.69         8.1 0.16                            81  37 
 PAM  SN ES   1    719 33.52                             150    -0.2 7   81  37 
 RUS  HZ EP   1    719 16.99                             146    -0.1 7   95 176 
 RUS  HN ES   1    719 35.58                             146     0.2 7   95 176 
 RUS  HZ I         719 37.03        13.2 0.44                            95 176 
 PTB  HZ EP   1    719 20.01                             132    -0.7 7  148 261 
 PTB  HZ I         719 42.14         7.5 0.17                           148 261 
 ZAR  HN ES   1    719 51.54                             122    -0.5 6  207 293 
 NOR  SZ EP   1    719 29.53                             119     0.4 6  232 236 
 NOR  SN ES   1    719 57.04                             119     0.1 6  232 236 
                                                                                
