 2013  7 1 0550 18.3 L   5.827 -73.881103.7  RSN  5 0.3 1.6LRSN                1
 GAP=148        0.87       2.8     4.0  9.0  0.1714E+01  0.8201E+01  0.3654E+01E
 Epicentro: ALBANIA - SANTANDER                                                3
 ACTION:UPD 13-08-12 10:34 OP:ep   STATUS:               ID:20130701055018 L   I
 OLDACT:REG 13-07-01 09:03 OP:stll STATUS:               ID:20130701054836     3
 2013-07-01-0548-36M.COL___227                                                 6
 STAT SP IPHASW D HRMM SECON CODA AMPLIT PERI AZIMU VELO AIN AR TRES W  DIS CAZ7
 RUS  HZ EP        550 37.00                             137   -0.2110 88.6  85 
 RUS  HN ES        550 51.66                             137   -0.2610 88.6  85 
 PTB  HZ EP        550 37.16                             132   -0.5110  101 321 
 PTB  HN ES        550 52.65                             132   -0.0910  101 321 
 PTB  HN I         550 53.41         9.9 0.24            133            101 321 
 BAR2 SZ EP        550 38.92                             128   -0.2910  115  42 
 BAR2 SZ ES        550 55.59                             128    0.1110  115  42 
 BAR2 SZ I         550 57.70         6.5 0.22            129            115  42 
 CHI  HZ EP        550 41.58                             124    0.2810  133 173 
 CHI  HE ES        550 59.47                             124    0.2610  133 173 
 BRR  HZ EP        550 41.93                             121    0.21 9  143   8 
 BRR  HE ES        551  0.62                             121    0.66 9  143   8 
 BRR  HE I         551  2.15         9.2 0.24            122            143   8 
                                                                                
