 2011  7 1 0020 56.5 L   6.760 -73.099139.4  RSN  6 0.3 1.4LRSN                1
 GAP=144        0.58       3.2     6.8  8.3 -0.1897E+01 -0.2385E+02 -0.1960E+00E
 Epicentro: LOS SANTOS - SANTANDER                                             3
 ACTION:UPD 12-07-25 13:57 OP:epov STATUS:               ID:20110701002056 L   I
 2011-07-01-0020-00M.COL___124                                                 6
 STAT SP IPHASW D HRMM SECON CODA AMPLIT PERI AZIMU VELO AIN AR TRES W  DIS CAZ7
 BTL  SZ EP   1    021 15.58                             169    0.19 7 25.5 313 
 GIR2 SZ EP   2    021 15.42                             164   -0.14 5 36.7 344 
 BRR  HZ EP   1    021 17.41                             149    0.07 7 77.8 300 
 BRR  HN ES   1    021 33.59                             149   -0.02 7 77.8 300 
 BRR  HZ I         021 38.26         6.4 0.11                          77.8 300 
 PAM  SZ EP        021 18.47                             149    0.4310 77.8  35 
 RUS  HZ EP        021 19.12                             144   -0.1510 95.9 179 
 RUS  HE ES   1    021 37.00                             144   -0.04 7 95.9 179 
 RUS  HZ I         021 39.34         3.3 0.30                          95.9 179 
 GRA  SZ EP   1    021 20.92                             135   -0.48 7  129  15 
 GRA  SZ ES   1    021 40.64                             135   -0.20 7  129  15 
 GRA  SZ I         021 42.93         3.7 0.61                           129  15 
                                                                                
