 2013  4 1 0610  2.8 L   6.743 -73.136148.6  RSN  6 0.4 1.5LRSN                1
 GAP=140        0.85       4.7     6.1  7.6  0.4498E+01  0.2648E+01 -0.5115E+01E
 Epicentro: JORDAN - SANTANDER                                                 3
 ACTION:UPD 13-05-22 14:35 OP:EP   STATUS:               ID:20130401061002 L   I
 2013-04-01-0610-00M.COL___245                                                 6
 STAT SP IPHASW D HRMM SECON CODA AMPLIT PERI AZIMU VELO AIN AR TRES W  DIS CAZ7
 BAR2 SZ EP        610 22.62                             173   -0.0410 17.5 197 
 BAR2 SZ ES        610 38.39                             173    0.2310 17.5 197 
 BAR2 SZ I         610 38.90         8.3 0.16            175           17.5 197 
 BRR  HZ EP        610 24.74                             152    0.2610 75.3 302 
 BRR  HN ES   1    610 41.93                             152    0.53 7 75.3 302 
 BRR  HZ I         610 42.78         6.2 0.14            152           75.3 302 
 PAM  SZ EP        610 25.86                             150    0.2910 81.7  36 
 PAM  SN ES   1    610 43.08                             150   -0.25 7 81.7  36 
 PAM  SZ I         610 44.91         5.9 0.74            150           81.7  36 
 RUS  HZ EP   1    610 26.39                             146    0.00 7 94.3 176 
 RUS  HN ES   1    610 44.09                             146   -0.69 7 94.3 176 
 RUS  HZ I         610 46.28         3.3 0.26            148           94.3 176 
 OCA  HN ES   1    610 54.00                             129   -0.64 7  167 353 
 OCA  HZ I         610 57.18         2.7 0.13            130            167 353 
 ZAR  HN ES   1    611  0.97                             122   -0.53 6  207 294 
                                                                                
