 2012  9 1 0127 39.5 L   6.443 -73.785 87.3  RSN  7 0.5 1.7LRSN                1
 GAP=134        0.89       5.9     3.7  9.8  0.2698E+01  0.3828E+01  0.1973E+02E
 Epicentro: SANTA HELENA DEL OPON - SANTANDER                                  3
 ACTION:UPD 12-10-22 14:16 OP:ep   STATUS:               ID:20120901012739 L   I
 2012-09-01-0120-00M.COL___218                                                 6
 STAT SP IPHASW D HRMM SECON CODA AMPLIT PERI AZIMU VELO AIN AR TRES W  DIS CAZ7
 BAR2 SZ EP        127 55.37                             139    0.5210 68.7  76 
 BAR2 SZ ES   1    128  6.78                             139   -0.05 7 68.7  76 
 BAR2 SZ I         128  9.13        57.3 0.34                          68.7  76 
 BRR  HZ EP        127 54.53                             136   -0.4210 73.9   6 
 BRR  HZ I         127 55.04        15.9 0.12                          73.9   6 
 BRR  HN ES   1    128  7.18                             136    0.16 7 73.9   6 
 PTB  HZ IP     C  127 54.71                             136   -0.3610 75.0 278 
 PTB  HZ I         127 55.40         6.5 0.16                          75.0 278 
 PTB  HN ES   1    128  7.06                             136   -0.17 7 75.0 278 
 GIR2 SZ EP        127 56.86                             128   -0.3110 96.0  43 
 RUS  HZ EP        127 57.96                             128    0.0710 98.7 128 
 RUS  HZ I         127 58.93         5.1 0.12                          98.7 128 
 RUS  HN ES   3    128 12.80                             128    0.55 2 98.7 128 
 ZAR  HZ EP   3    128  4.15                             113   -0.32 2  166 314 
 ZAR  HE ES   2    128 25.44                             113    1.47 5  166 314 
 HEL  HZ EP   1    128  8.76                             109    0.49 6  195 262 
 HEL  HZ I         128 35.82         8.6 0.32                           195 262 
                                                                                
