 2016  6 1 0555 18.8 L   6.814 -73.153143.4  RSN  5 0.3 1.3LRSN                1
 GAP=238        0.71       4.2     4.5  5.2  0.4521E+01  0.2879E+01  0.2177E+01E
 Epicentro: LOS SANTOS - SANTANDER                                             3
 ACTION:UPD 16-07-21 22:14 OP:rebc STATUS:               ID:20160601055518 L   I
 OLDACT:DUP 16-06-01 18:53 OP:edw  STATUS:               ID:20160601054745d    3
 2016-06-01-0547-44M.COL___301                                                 6
 STAT SP IPHASW D HRMM SECON CODA AMPLIT PERI AZIMU VELO AIN AR TRES W  DIS CAZ7
 BAR2 EZ EP        555 38.18                             170   -0.0010 24.7 187 
 BAR2 EZ ES        555 52.93                             170   -0.3610 24.7 187 
 BAR2 EZ I         555 56.13         3.3 0.38                          24.7 187 
 BRR  HZ EP        555 39.80                             153    0.1810 69.7 298 
 BRR  HN ES        555 56.17                             153    0.3210 69.7 298 
 BRR  HZ I         555 57.48         5.3 0.10                          69.7 298 
 RUS  HZ EP        555 42.62                             143    0.1810  102 176 
 RUS  HE ES        556  0.87                             143   -0.0110  102 176 
 RUS  HZ I         556  2.60         2.4 0.30                           102 176 
 PTB  HZ EP        555 45.36                             132   -0.17 9  147 258 
 PTB  HE ES        556  6.05                             132   -0.33 9  147 258 
 PTB  HZ I         556  8.21         3.2 0.16                           147 258 
 SPBC HZ EP        555 46.90                             128   -0.29 9  164 218 
 SPBC HN ES        556  9.77                             128    0.45 9  164 218 
 SPBC HZ I         556 16.24         3.3 0.28                           164 218 
                                                                                
