 2016 12 1 0810 49.6 L   6.653 -73.144153.0  RSN  4 0.1 1.2LRSN                1
 GAP=180        0.32       4.8     2.6  3.1 -0.5958E+01 -0.1537E+01  0.1805E+01E
 Epicentro: VILLANUEVA - SANTANDER                                             3
 ACTION:UPD 17-01-11 20:11 OP:rebc STATUS:               ID:20161201081049 L   I
 OLDACT:REG 16-12-01 13:25 OP:dani STATUS:               ID:20161201080743     3
 2016-12-01-0808-00M.COL___336                                                 6
 STAT SP IPHASW D HRMM SECON CODA AMPLIT PERI AZIMU VELO AIN AR TRES W  DIS CAZ7
 BAR2 EZ ES   1    811 25.77                             177    0.02 7 8.01 212 
 BRR  HZ EP        811 12.14                             151    0.0710 80.4 309 
 BRR  HE ES        811 29.60                             151    0.0110 80.4 309 
 BRR  HZ I         811 35.13         3.8 0.39            144           80.4 309 
 PAM  EZ EP        811 13.32                             148   -0.0710 90.3  33 
 PTB  HZ EP        811 17.04                             134    0.04 9  146 265 
 PTB  HN ES        811 38.29                             134   -0.07 9  146 265 
 PTB  HZ I         811 40.13         1.4 0.15            133            146 265 
                                                                                
