 2014  1 1 0417 49.4 L   6.737 -73.163145.9  RSN  7 0.7 1.5LRSN                1
 GAP=231        1.60       7.6     8.9 10.2  0.8296E+01  0.1967E+02  0.2176E+02E
 Epicentro: VILLANUEVA - SANTANDER                                             3
 ACTION:UPD 14-03-13 09:50 OP:ep   STATUS:               ID:20140101041749 L   I
 OLDACT:DUP 14-01-01 12:26 OP:stll STATUS:               ID:20140101040821d    3
 2014-01-01-0408-20M.COL___231                                                 6
 STAT SP IPHASW D HRMM SECON CODA AMPLIT PERI AZIMU VELO AIN AR TRES W  DIS CAZ7
 BAR2 SZ EP        418  8.78                             173   -0.2010 16.2 188 
 BAR2 SZ I         418  9.01         7.9 0.32            171           16.2 188 
 BAR2 SZ ES        418 24.35                             173    0.1410 16.2 188 
 BRR  HZ EP        418 10.78                             152    0.0510 73.2 304 
 BRR  HN ES        418 28.26                             152    0.9310 73.2 304 
 BRR  HZ I         418 31.82         6.3 0.14            151           73.2 304 
 RUS  HZ EP        418 12.54                             146   -0.2010 93.8 175 
 RUS  HN ES        418 30.73                             146   -0.1810 93.8 175 
 RUS  HZ I         418 32.23         2.4 0.32            147           93.8 175 
 PTB  HZ EP        418 15.22                             133   -0.93 9  145 261 
 PTB  HN ES        418 35.54                             133   -1.45 9  145 261 
 PTB  HZ I         418 42.60         6.6 0.30            133            145 261 
 SPBC HZ EP        418 17.65                             130    0.30 9  157 220 
 SPBC HZ I         418 17.91         5.4 0.20            131            157 220 
 SPBC HN ES        418 39.53                             130    0.43 9  157 220 
 CHI  HZ EP        418 26.38                             118    0.00 8  241 195 
 CHI  HN ES        418 54.99                             118   -0.19 8  241 195 
 CHI  HZ I         419  1.08         1.5 0.46            119            241 195 
 GUY2CHZ EP        418 33.71                             113    1.26 7  296 236 
 GUY2CHN ES        419  6.71                             113    0.73 7  296 236 
 GUY2CHZ I         419 13.45         1.8 0.28                           296 236 
                                                                                
