 2016  6 1 0350 38.4 L   6.770 -73.177144.3  RSN  4 0.3 1.3LRSN                1
 GAP=232        0.83       6.5     6.2  6.7  0.2027E+02  0.4110E+01  0.1257E+01E
 Epicentro: LOS SANTOS - SANTANDER                                             3
 ACTION:UPD 16-07-21 22:14 OP:rebc STATUS:               ID:20160601035038 L   I
 OLDACT:REG 16-06-01 13:14 OP:edw  STATUS:               ID:20160601034739     3
 2016-06-01-0347-39M.COL___304                                                 6
 STAT SP IPHASW D HRMM SECON CODA AMPLIT PERI AZIMU VELO AIN AR TRES W  DIS CAZ7
 BAR2 EZ EP        350 57.53                             172   -0.3010 19.7 182 
 BAR2 EZ ES        351 12.50                             172   -0.4410 19.7 182 
 BAR2 EZ I         351 13.81         6.0 0.24                          19.7 182 
 BRR  HZ EP        350 59.38                             153    0.0210 69.9 302 
 BRR  HN ES        351 16.13                             153    0.4610 69.9 302 
 BRR  HZ I         351 20.77         4.9 0.34                          69.9 302 
 RUS  HZ EP        351  1.86                             144    0.0310 97.6 174 
 RUS  HE ES        351 20.46                             144    0.3810 97.6 174 
 RUS  HZ I         351 21.35         2.5 0.28                          97.6 174 
 PTB  HZ EP        351  5.07                             132    0.14 9  144 260 
 PTB  HN ES        351 25.25                             132   -0.33 9  144 260 
 PTB  HZ I         351 27.28         2.8 0.42                           144 260 
                                                                                
