 2013  6 1 0047 32.4 L   6.809 -73.181146.0  RSN 10 0.4 1.8LRSN                1
 GAP=132        0.99       3.7     4.8  5.6  0.3135E-01  0.7810E+01 -0.9207E+00E
 Epicentro: LOS SANTOS - SANTANDER                                             3
 ACTION:UPD 14-01-08 09:51 OP:ep   STATUS:               ID:20130601004732 L   I
 2013-06-01-0040-00M.COL___261                                                 6
 STAT SP IPHASW D HRMM SECON CODA AMPLIT PERI AZIMU VELO AIN AR TRES W  DIS CAZ7
 BAR2 SZ EP        047 51.83                             170   -0.2510 24.0 180 
 BAR2 SZ ES        048  6.84                             170   -0.5810 24.0 180 
 BAR2 SZ I         048  8.66        11.3 0.44            173           24.0 180 
 GIR2 SZ EP        047 52.19                             168    0.1210 29.9 357 
 GIR2 SZ ES        048  7.65                             168    0.2410 29.9 357 
 GIR2 SZ I         048  9.31        12.3 0.52            166           29.9 357 
 BRR  HZ IP     D  047 54.00                             154    0.6310 67.3 299 
 BRR  HN ES   1    048 10.37                             154    0.65 7 67.3 299 
 BRR  HZ I         048 14.44        10.5 0.24            152           67.3 299 
 PAM  SZ EP        047 55.07                             150    0.3110 79.2  42 
 PAM  SN ES        048 12.33                             150    0.1410 79.2  42 
 PAM  SZ I         048 21.04        17.5 0.10            152           79.2  42 
 RUS  HZ EP        047 56.54                             143    0.2610  102 174 
 RUS  HN ES        048 14.48                             143   -0.4210  102 174 
 RUS  HZ I         048 16.01         7.2 0.32            148            102 174 
 PTB  HZ EP        047 59.09                             133    0.02 9  144 258 
 PTB  HN ES        048 19.81                             133   -0.05 9  144 258 
 PTB  HZ I         048 22.50         5.5 0.12            134            144 258 
 ZAR  HZ EP   2    048  5.15                             123    0.69 4  200 292 
 ZAR  HN ES   2    048 29.71                             123    0.25 4  200 292 
 ZAR  HZ I         048 38.08         7.9 0.14            124            200 292 
 SML  HZ EP        048  7.97                             118   -0.81 8  241 336 
 SML  HN ES        048 36.40                             118   -0.74 8  241 336 
 SML  HZ I         048 40.43         8.5 0.10            119            241 336 
 GUY2CHZ EP   4    048 13.71                             112   -2.02 0  299 234 
 GUY2CHN ES   4    048 51.17                             112    1.65 0  299 234 
 GUY2CHZ I         048 58.16         2.2 0.36                           299 234 
 PRA  HZ EP        048 25.95                             107    0.13 6  391 209 
 PRA  HN ES   2    049  7.42                             107   -0.05 3  391 209 
 PRA  HZ I         049 12.57         2.2 0.70            108            391 209 
                                                                                
