 2012 10 1 0118 18.9 L   6.796 -73.144144.0  RSN  6 0.2 1.8LRSN                1
 GAP=137        0.41       4.1     3.7  4.5  0.1400E+01  0.7424E+00  0.8683E+01E
 Epicentro: LOS SANTOS - SANTANDER                                             3
 ACTION:UPD 12-11-22 17:01 OP:ep   STATUS:               ID:20121001011818 L   I
 2012-10-01-0109-37M.COL___199                                                 6
 STAT SP IPHASW D HRMM SECON CODA AMPLIT PERI AZIMU VELO AIN AR TRES W  DIS CAZ7
 BAR2 SZ EP        118 38.18                             170   -0.1010 22.9 191 
 BAR2 SZ ES   3    118 53.14                             170   -0.27 2 22.9 191 
 BAR2 SZ I         118 54.77        16.7 0.34                          22.9 191 
 GIR2 SZ EP        118 38.16                             167   -0.1810 31.8 350 
 GIR2 SZ ES   1    118 53.53                             167    0.00 7 31.8 350 
 BRR  HZ EP        118 40.01                             152    0.1610 71.6 299 
 BRR  HN ES   1    118 56.48                             152    0.27 7 71.6 299 
 BRR  HZ I         118 59.86        10.9 0.32                          71.6 299 
 PAM  SZ EP   1    118 40.95                             151    0.04 7 77.6  39 
 PAM  SN ES   3    118 57.77                             151   -0.33 2 77.6  39 
 PAM  SN I         118 59.38        22.4 0.40                          77.6  39 
 RUS  HZ EP        118 42.58                             144    0.1710  100 176 
 RUS  HN ES   3    119  0.82                             144    0.05 2  100 176 
 RUS  HZ I         119  1.92         7.5 0.22                           100 176 
 PTB  HN EP        118 45.51                             132   -0.19 9  148 259 
 PTB  HN ES   3    119  6.00                             132   -0.63 2  148 259 
 PTB  HN I         119  8.04         6.3 0.26                           148 259 
                                                                                
