 2013  8 1 0912 13.8 L   6.812 -73.165142.9  RSN 16 0.5 2.2LRSN                1
 GAP=134        0.87       2.7     4.0  5.2 -0.3792E+01  0.6699E+01 -0.1888E+01E
 Epicentro: LOS SANTOS - SANTANDER                                             3
 ACTION:UPD 14-01-14 08:58 OP:ep   STATUS:               ID:20130801091213 L   I
 OLDACT:UP  13-08-03 04:01 OP:mh   STATUS:               ID:20130801091213 L   3
 OLDACT:UP  13-08-03 04:00 OP:mh   STATUS:               ID:20130801091213 L   3
 OLDACT:UP  13-08-02 00:20 OP:Mher STATUS:               ID:20130801091213 L   3
 OLDACT:REG 13-08-01 07:59 OP:carl STATUS:               ID:20130801090959     3
 2013-08-01-0909-59M.COL___269                                                 6
 STAT SP IPHASW D HRMM SECON CODA AMPLIT PERI AZIMU VELO AIN AR TRES W  DIS CAZ7
 BAR2 SZ EP        912 33.08                             170   -0.0210 24.4 184 
 BAR2 SZ ES   1    912 47.53                             170   -0.63 7 24.4 184 
 BAR2 SZ I         912 49.16        33.9 0.20            169           24.4 184 
 GIR2 SZ EP        912 33.15                             168    0.0710 29.6 354 
 GIR2 SZ ES   1    912 47.78                             168   -0.35 7 29.6 354 
 GIR2 SZ I         912 50.03        34.0 0.52            165           29.6 354 
 BRR  HZ IP     C  912 34.94                             153    0.4510 68.7 298 
 BRR  HN ES   1    912 51.88                             153    1.25 7 68.7 298 
 BRR  HN I         912 56.23        56.4 0.18            149           68.7 298 
 PAM  SZ EP   1    912 36.06                             150    0.33 7 77.8  41 
 PAM  SN ES   1    912 52.94                             150    0.10 7 77.8  41 
 RUS  HZ EP   1    912 37.50                             143    0.12 7  102 175 
 RUS  HN ES   1    912 55.76                             143   -0.01 7  102 175 
 RUS  HN I         912 57.13        15.5 0.44            146            102 175 
 PTB  HZ EP   1    912 40.20                             132   -0.16 7  146 258 
 PTB  HN ES   1    913  0.36                             132   -0.72 7  146 258 
 PTB  HN I         913  2.93        41.2 0.24            131            146 258 
 OCA  HZ EP   1    912 41.42                             129   -0.32 7  159 354 
 OCA  HN ES   1    913  2.86                             129   -0.67 7  159 354 
 OCA  HZ I         913  6.68        20.6 0.44            131            159 354 
 SPBC HN ES        913  4.20                             128    0.11 9  163 218 
 SPBC HN I         913 10.56        44.3 0.70            130            163 218 
 ZAR  HZ EP   1    912 46.03                             122    0.23 6  202 292 
 ZAR  HN ES   1    913 10.94                             122    0.18 6  202 292 
 ZAR  HZ I         913 16.91        11.5 0.26            122            202 292 
 NOR  HZ EP   1    912 49.59                             118    0.33 6  234 234 
 NOR  HE ES   1    913 16.95                             118    0.03 6  234 234 
 NOR  HZ I         913 18.78         9.0 0.16            119            234 234 
 SML  HZ EP   1    912 49.54                             117   -0.49 6  242 336 
 SML  HN ES   1    913 18.01                             117   -0.29 6  242 336 
 SML  HZ I         913 24.51        19.4 0.10            118            242 336 
 HEL  HZ EP   4    912 55.01                             114    1.34 0  270 255 
 HEL  HN ES   1    913 25.18                             114    0.41 6  270 255 
 HEL  HZ I         913 32.12         5.8 0.32            115            270 255 
 GUY2CHZ EP   1    912 57.71                             112    0.55 5  300 234 
 GUY2CHN ES        913 30.32                             112   -0.67 7  300 234 
 GUY2CHZ I         913 40.93         4.4 0.32                           300 234 
 COD  HZ EP   1    913  1.32                             108   -0.56 5  347 355 
 COD  HN ES        913 39.62                             108    0.23 6  347 355 
 PRA  HZ EP   1    913  7.56                             106    0.33 4  392 209 
 PRA  HN ES   1    913 48.23                             106   -0.68 4  392 209 
 PRA  HZ I         913 51.69         3.0 0.30            108            392 209 
 SJC  HZ EP   4    913  7.48                             105   -1.52 0  407 327 
 SJC  HN ES   4    913 47.64                             105   -4.41 0  407 327 
 SJC  HN I         913 53.58         5.3 0.34            107            407 327 
                                                                                
