 2010  1 1 0419 45.2 L   6.775 -72.869143.4  RSN  5 0.4 1.4LRSN                1
 GAP=240        0.71       6.4    11.8  7.9 -0.1884E+02  0.1227E+02  0.1711E+02E
 Epicentro: SAN ANDRES - SANTANDER                                             3
 ACTION:UP  10-08-24 09:41 OP:vdl  STATUS:               ID:20100101041945 L   I
 2010-01-01-0416-47S.COL___097                                                 6
 STAT SP IPHASW D HRMM SECON CODA AMPLIT PERI AZIMU VELO SNR AR TRES W  DIS CAZ7
 BAR2 SZ EP   1    420  5.15                             163     0.1 7   40 240 
 BAR2 SZ ES   1    420 20.31                             163    -0.2 7   40 240 
 GIR2 SZ EP   2    420  5.08                             159    -0.2 5   49 313 
 GIR2 SZ ES   2    420 20.64                             159    -0.2 5   49 313 
 RUS  BZ EP   2    420  9.18                             144     0.4 5  100 194 
 RUS  BN ES   1    420 27.50                             144     0.4 7  100 194 
 RUS  BZ I         420 29.02         4.3 0.38                           100 194 
 CHI  HZ EP   1    420 23.45                             116    -0.1 6  256 202 
 CHI  HE ES   1    420 52.67                             116    -0.8 6  256 202 
 CHI  HZ I         420 58.30         1.3 0.17                           256 202 
 RREF BN ES   1    421 12.18                             109     0.5 5  344 233 
                                                                                
