 2012 12 1 0814 41.5 L   6.808 -73.191134.1  RSN  5 0.4 1.9LRSN                1
 GAP=131        0.96       3.8     4.4  9.8 -0.7624E+00  0.1810E+02 -0.1622E+01E
 Epicentro: ZAPATOCA - SANTANDER                                               3
 ACTION:UPD 13-01-04 14:24 OP:ep   STATUS:               ID:20121201081441 L   I
 2012-12-01-0810-00M.COL___236                                                 6
 STAT SP IPHASW D HRMM SECON CODA AMPLIT PERI AZIMU VELO AIN AR TRES W  DIS CAZ7
 PAM  SZ IP     C  815  2.77                             148    0.0710 80.1  43 
 PAM  SN ES        815 19.67                             148    0.4710 80.1  43 
 PAM  SN I         815 20.51        17.5 0.46                          80.1  43 
 RUS  HZ EP        815  4.45                             141    0.1910  102 173 
 RUS  HN ES        815 21.69                             141   -0.2910  102 173 
 RUS  HN I         815 24.08         5.0 0.34                           102 173 
 PTB  HZ EP        815  6.73                             130   -0.40 9  143 258 
 PTB  HN ES        815 27.07                             130   -0.02 9  143 258 
 PTB  HN I         815 28.70        11.0 0.28                           143 258 
 OCA  HN ES        815 29.38                             127   -0.74 9  159 355 
 OCA  HN I         815 32.24        19.3 0.26                           159 355 
 ZAR  HZ EP        815 13.05                             120    0.33 9  199 292 
 ZAR  HN ES        815 37.46                             120    0.41 9  199 292 
 ZAR  HN I         815 46.21         9.9 0.16                           199 292 
                                                                                
