 2012  1 1 0114 33.3 L   6.192 -73.844 84.0  RSN  4 0.2 1.0LRSN                1
 GAP=124        0.50       3.2     3.3  7.8  0.4354E+01 -0.1552E+00  0.8758E+01E
 Epicentro: LANDAZURI - SANTANDER                                              3
 ACTION:UP  12-02-03 08:12 OP:REBC STATUS:               ID:20120101011433 L   I
 2012-01-01-0110-00M.COL___186                                                 6
 STAT SP IPHASW D HRMM SECON CODA AMPLIT PERI AZIMU VELO SNR AR TRES W  DIS CAZ7
 PTB  HN ES   1    115  0.94                             133     0.0 7   78 300 
 RUS  HZ EP   1    114 50.31                             129    -0.4 7   91 111 
 RUS  HE ES   1    115  4.36                             129     0.1 7   91 111 
 RUS  HZ I         115  5.65         1.9 0.24                            91 111 
 BRR  HZ EP   1    114 51.28                             125     0.1 7  102   8 
 BRR  HZ I         114 51.76         3.6 0.09                           102   8 
 BRR  HN ES   1    115  5.15                             125     0.0 7  102   8 
 CHI  HZ EP   1    114 59.66                             111     0.2 7  173 176 
 CHI  HZ I         115  0.80         1.2 0.39                           173 176 
                                                                                
