 2013  1 1 0921  4.1 L   6.314 -73.695 98.1  RSN  6 0.3 1.7LRSN                1
 GAP=162        0.80       3.5     3.1  7.3  0.3610E+01  0.4270E+01 -0.3017E+01E
 Epicentro: SANTA HELENA DEL OPON - SANTANDER                                  3
 ACTION:UPD 13-02-15 09:11 OP:ep   STATUS:               ID:20130101092104 L   I
 2013-01-01-0920-00M.COL___242                                                 6
 STAT SP IPHASW D HRMM SECON CODA AMPLIT PERI AZIMU VELO AIN AR TRES W  DIS CAZ7
 BAR2 SZ EP        921 20.54                             144    0.3210 64.5  61 
 BAR2 SZ ES        921 32.97                             144    0.2010 64.5  61 
 BAR2 SZ I         921 34.31        30.9 0.46            148           64.5  61 
 RUS  HZ EP        921 22.30                             138    0.3610 82.2 125 
 RUS  HZ I         921 22.56         2.9 0.32            146           82.2 125 
 RUS  HN ES        921 35.56                             138   -0.2910 82.2 125 
 BRR  HZ EP        921 21.43                             135   -0.3110 87.7 359 
 BRR  HN ES        921 35.45                             135   -0.0310 87.7 359 
 BRR  HN I         921 42.01         9.6 0.18            135           87.7 359 
 PTB  HZ EP        921 21.41                             135   -0.3610 87.8 287 
 PTB  HN ES        921 35.48                             135   -0.0610 87.8 287 
 PTB  HN I         921 41.51        10.5 0.20            135           87.8 287 
 ZAR  HN ES        921 53.52                             114    0.51 9  183 315 
 ZAR  HN I         921 58.28         8.4 0.18            115            183 315 
 OCA  HN ES        921 59.90                             110   -0.33 8  217  11 
 OCA  HN I         922  5.22        19.0 0.24            111            217  11 
                                                                                
