 2011 10 1 0332  6.7 L   6.757 -73.134145.3  RSN  6 0.4 1.6LRSN                1
 GAP=140        0.68       4.4     5.4  6.2  0.1537E+01  0.2701E+01  0.1394E+00E
 Epicentro: LOS SANTOS - SANTANDER                                             3
 ACTION:UPD 12-07-13 16:01 OP:ep   STATUS:               ID:20111001033206 L   I
 2011-10-01-0328-31S.COL___160                                                 6
 STAT SP IPHASW D HRMM SECON CODA AMPLIT PERI AZIMU VELO AIN AR TRES W  DIS CAZ7
 BAR2 SZ EP   1    332 26.24                             172    0.02 7 19.0 196 
 BAR2 SZ ES   1    332 41.53                             172    0.11 7 19.0 196 
 BAR2 SZ I         332 43.89        11.6 0.25                          19.0 196 
 BRR  HZ EP   1    332 28.19                             151    0.17 7 74.7 301 
 BRR  HE ES   1    332 45.21                             151    0.58 7 74.7 301 
 BRR  HZ I         332 49.00         8.5 0.10                          74.7 301 
 PAM  SZ EP        332 29.12                             150    0.0610 80.3  37 
 PAM  SN ES   1    332 46.05                             150   -0.44 7 80.3  37 
 RUS  HZ EP   1    332 30.19                             145    0.10 7 95.8 177 
 RUS  HN ES   1    332 47.98                             145   -0.33 7 95.8 177 
 RUS  HZ I         332 50.18         2.9 0.21                          95.8 177 
 ZAR  HZ EP   2    332 38.82                             122   -0.63 4  207 293 
 ZAR  HN ES   2    333  4.10                             122   -0.87 4  207 293 
 ZAR  HZ I         333 10.71         5.6 0.22                           207 293 
 CHI  HZ EP   2    332 44.51                             117    0.57 4  244 196 
 CHI  HZ I         333 17.41         2.0 0.29                           244 196 
                                                                                
