 2017 11 1 0906 35.1 L   6.800 -73.120148.7  RSN 13 0.7 2.0LRSN                1
 GAP=106        1.50       4.9     4.5  7.8  0.7578E+00  0.4332E+01  0.5600E+01E
 Epicentro: LOS SANTOS - SANTANDER                                             3
 ACTION:UPD 17-12-12 19:50 OP:rebc STATUS:               ID:20171101090635 L   I
 OLDACT:UP  17-11-01 16:47 OP:dani STATUS:               ID:20171101085740     3
 OLDACT:UP  17-11-01 16:44 OP:dani STATUS:               ID:20171101085740     3
 OLDACT:REG 17-11-01 14:17 OP:dnl  STATUS:               ID:20171101085740     3
 2017-11-01-0858-00M.COL___417                                                 6
 STAT SP IPHASW D HRMM SECON CODA AMPLIT PERI AZIMU VELO AIN AR TRES W  DIS CAZ7
 BAR2 EZ EP     C  9 6 55.18                             171    0.0710 24.0 197 
 BAR2 EZ ES        9 7 10.98                             171    0.2710 24.0 197 
 BAR2 EZ I         9 7 11.84        18.6 0.32            167           24.0 197 
 PAM  EZ EP        9 6 57.67                             152    0.1210 75.6  38 
 PAM  EN ES        9 7 15.12                             152    0.0810 75.6  38 
 PAM  EZ I         9 7 17.33        11.5 0.50            157           75.6  38 
 RUS  HZ EP        9 6 59.08                             144   -0.0710  100 178 
 RUS  HE ES        9 7 17.86                             144   -0.0310  100 178 
 RUS  HZ I         9 7 20.62        10.8 0.42            144            100 178 
 PTB  HZ EP        9 7  2.07                             132   -0.51 9  151 259 
 PTB  HN ES        9 7 22.87                             132   -1.12 9  151 259 
 PTB  HZ I         9 7 25.22        12.4 0.14            132            151 259 
 TAM  HZ EP        9 7  3.34                             132    0.56 9  152 105 
 SPBC HZ EP        9 7  3.99                             129   -0.02 9  165 220 
 SPBC HN ES        9 7 26.17                             129   -0.38 9  165 220 
 SPBC HZ I         9 7 31.18        18.9 0.22            129            165 220 
 YPLC HZ EP     C  9 7  5.38                             127    0.38 9  175 152 
 YPLC HN ES        9 7 28.89                             127    0.59 9  175 152 
 YPLC HZ I         9 7 33.56         7.6 0.32            128            175 152 
 ZAR  HZ EP        9 7  7.55                             123   -0.48 8  207 292 
 ZAR  HE ES        9 7 33.71                             123    0.02 8  207 292 
 ZAR  HZ I         9 7 38.87        10.5 0.14            124            207 292 
 NOR  HZ EP     C  9 7 11.42                             119    0.16 8  237 235 
 NOR  HN ES        9 7 39.82                             119    0.36 8  237 235 
 NOR  HZ I         9 7 46.27         6.3 0.32            119            237 235 
 CHI  HZ EP        9 7 13.32                             118    0.26 8  249 196 
 CHI  HN ES        9 7 42.49                             118   -0.16 8  249 196 
 CHI  HZ I         9 7 48.52         4.1 0.32            118            249 196 
 ROSC BZ EP   9    9 7 15.77                             117    2.21 0  254 212 
 ROSC BN ES        9 7 45.58                             117   -0.17 8  254 212 
 ROSC BZ I         9 7 52.21         7.0 0.65            118            254 212 
 GUY2CHZ EP        9 7 19.43                             113    0.31 7  303 235 
 GUY2CHN ES        9 7 55.74                             113    2.30 7  303 235 
 GUY2CHZ I         9 8  1.64         5.9 0.28                           303 235 
 PTGC HZ EP        9 7 18.04                             112   -0.95 7  308 159 
 PTGC HE ES        9 7 51.44                             112   -1.77 7  308 159 
 PTGC HZ I         9 7 56.25         4.5 0.27            113            308 159 
                                                                                
