 2014  6 1 0322  9.3 L   6.829 -73.131136.0  RSN  8 0.5 1.8LRSN                1
 GAP= 99        1.32       6.1     5.9  7.9  0.7461E+01  0.2132E+01 -0.2136E+01E
 Epicentro: LOS SANTOS - SANTANDER                                             3
 ACTION:UPD 14-07-01 22:49 OP:nd   STATUS:               ID:20140601032209 L   I
 OLDACT:DUP 14-06-01 18:46 OP:stll STATUS:               ID:20140601031822d    3
 2014-06-01-0318-18M.COL___256                                                 6
 STAT SP IPHASW D HRMM SECON CODA AMPLIT PERI AZIMU VELO AIN AR TRES W  DIS CAZ7
 BAR2 SZ EP        322 27.98                             168    0.1310 26.8 192 
 BAR2 SZ ES        322 41.21                             168   -1.1010 26.8 192 
 BAR2 SZ I         322 43.59        10.4 0.16            159           26.8 192 
 BRR  HZ EP        322 29.80                             151    0.3910 71.2 296 
 BRR  HN ES        322 45.92                             151    0.8310 71.2 296 
 BRR  HZ I         322 50.93        12.5 0.12            147           71.2 296 
 PAM  SZ EP        322 30.82                             150    0.5410 73.9  40 
 PAM  SZ I         322 31.05        22.9 0.18            156           73.9  40 
 PAM  SN ES        322 46.57                             150   -0.0610 73.9  40 
 RUS  HZ EP        322 32.69                             141    0.3410  104 177 
 RUS  HZ I         322 51.28         4.6 0.40            134            104 177 
 TAM  HZ EP        322 36.09                             128   -0.07 9  154 106 
 TAM  HZ I         322 36.39        11.0 0.20            127            154 106 
 OCA  HZ EP        322 36.55                             128   -0.04 9  157 352 
 OCA  HN ES        322 57.83                             128   -0.04 9  157 352 
 OCA  HZ I         323  1.24        11.0 0.44            129            157 352 
 ZAR  HZ EP        322 40.99                             120   -0.18 9  204 291 
 ZAR  HN ES        323  5.75                             120   -0.28 9  204 291 
 ZAR  HZ I         323 12.01         7.1 0.36            117            204 291 
 SML  HZ EP        322 44.20                             115   -0.96 8  241 335 
                                                                                
