 2015  6 1 0808 42.7 L   6.884 -73.230122.2  RSN  6 0.2 2.2LRSN                1
 GAP=175        0.50       2.6     3.7  3.6  0.3905E+00  0.4702E+01 -0.7190E+00E
 Epicentro: BETULIA - SANTANDER                                                3
 ACTION:UPD 15-09-10 22:08 OP:cam  STATUS:               ID:20150601075750dL   I
 OLDACT:UP  15-06-11 22:07 OP:cam  STATUS:               ID:20150601075750dL   3
 OLDACT:DUP 15-06-11 08:25 OP:AR   STATUS:               ID:20150601075750dL   3
 2015-06-01-0757-49M.COL___300                                                 6
 STAT SP IPHASW D HRMM SECON CODA AMPLIT PERI AZIMU VELO AIN AR TRES W  DIS CAZ7
 BAR2 EZ EP        8 9  0.04                             164    0.3110 32.7 171 
 BAR2 EZ ES        8 9 12.84                             164   -0.2010 32.7 171 
 BAR2 EZ I         8 9 14.71        29.8 0.48            162           32.7 171 
 BRR  HZ EP        8 9  0.39                             153   -0.1710 58.7 295 
 BRR  HN ES        8 9 14.68                             153    0.1710 58.7 295 
 BRR  HN I         8 9 15.97        34.7 0.24            147           58.7 295 
 OCA  HZ EP   1    8 9  8.31                             126    0.07 7  150 356 
 OCA  HN ES        8 9 28.06                             126   -0.13 9  150 356 
 OCA  HN I         8 9 29.65        68.1 0.38            123            150 356 
 ZAR  HZ EP        8 9 12.56                             118    0.17 9  192 291 
 ZAR  HZ I         8 9 24.61         6.2 0.18            114            192 291 
 ZAR  HE ES   1    8 9 35.56                             118   -0.01 7  192 291 
 GUY2CHZ EP   1    8 9 25.07                             107    0.01 5  299 232 
 CBOC HZ EP        8 9 27.68                             105   -0.35 7  328 250 
                                                                                
