 2014  7 1 0826 56.6 L   6.810 -73.132138.7  RSN 24 0.4 2.7LRSN                1
 GAP= 71        0.96       2.0     2.6  4.7 -0.8358E+00  0.4491E+01  0.7576E+00E
 Epicentro: LOS SANTOS - SANTANDER                                             3
 ACTION:UPD 15-03-16 20:40 OP:nd   STATUS:               ID:20140701082656 L   I
 OLDACT:REG 14-07-01 13:14 OP:spq  STATUS:               ID:20140701081819     3
 2014-07-01-0818-19M.COL___244                                                 6
 STAT SP IPHASW D HRMM SECON CODA AMPLIT PERI AZIMU VELO AIN AR TRES W  DIS CAZ7
 BAR2 SZ IP     C  827 15.81                             169    0.4410 24.7 193 
 BAR2 SZ ES   1    827 29.61                             169   -0.43 7 24.7 193 
 BAR2 SZ I         827 33.55        57.7 0.33            167           24.7 193 
 PAM  SZ EP        827 18.54                             150    0.6310 75.5  39 
 PAM  SN ES        827 35.22                             150    0.6510 75.5  39 
 PAM  SZ I         827 37.94        73.3 0.52            149           75.5  39 
 RUS  HZ EP        827 19.71                             142    0.0110  102 177 
 RUS  HN ES        827 37.81                             142    0.0610  102 177 
 RUS  HZ I         827 39.46        39.3 0.26            140            102 177 
 PTB  HZ EP        827 22.42                             130   -0.70 9  149 259 
 PTB  HN ES        827 43.69                             130   -0.14 9  149 259 
 PTB  HZ I         827 51.04        89.7 0.34            125            149 259 
 TAM  HZ IP     D  827 23.98                             129    0.40 9  154 106 
 TAM  HN ES        827 43.91                             129   -0.74 9  154 106 
 TAM  HZ I         827 44.78        42.8 0.30            128            154 106 
 OCA  HZ EP        827 24.64                             128    0.40 9  159 353 
 OCA  HN ES        827 45.06                             128   -0.77 9  159 353 
 OCA  HZ I         827 52.85        43.6 0.26            124            159 353 
 SPBC HZ IP     D  827 24.62                             127   -0.08 9  165 219 
 SPBC HE ES        827 46.66                             127    0.01 9  165 219 
 SPBC HZ I         827 54.42        60.1 0.18            123            165 219 
 ZAR  HZ EP        827 28.44                             121   -0.22 9  205 292 
 ZAR  HN ES        827 54.10                             121    0.41 9  205 292 
 ZAR  HZ I         827 59.84        89.2 0.46            116            205 292 
 SML  HZ EP        827 32.21                             116   -0.55 8  243 335 
 SML  HN ES        828  1.13                             116    0.14 8  243 335 
 SML  HZ I         828  5.63        35.4 0.00            112            243 335 
 CHI  HZ EP        827 33.46                             115   -0.58 8  250 195 
 CHI  HN ES        828  2.77                             115   -0.50 8  250 195 
 CHI  HZ I         828 13.12        19.1 0.36            112            250 195 
 ROSC BZ EP   4    827 35.50                             115    1.00 0  255 211 
 ROSC BN ES        828  4.75                             115    0.66 8  255 211 
 ROSC BZ I         828 13.47        56.2 0.45            112            255 211 
 HEL  HZ EP        827 36.62                             113    0.00 8  274 256 
 HEL  HN ES        828  7.49                             113   -0.37 8  274 256 
 HEL  HZ I         828 14.86        31.2 0.38            110            274 256 
 GUY2CHZ EP        827 40.66                             111    0.59 7  303 235 
 GUY2CHN ES        828 14.22                             111    0.22 7  303 235 
 GUY2CHZ I         828 24.58        26.3 0.56                           303 235 
 VIL  SZ EP        827 39.75                             110   -0.08 7  305 192 
 VIL  SN ES        828 13.14                             110   -0.43 7  305 192 
 VIL  SZ I         828 21.15        25.6 0.38            108            305 192 
 PTGC HZ EP   4    827 38.71                             110   -1.46 0  309 159 
 PTGC HN ES   4    828 10.97                             110   -3.21 0  309 159 
 PTGC HZ I         828 14.72        32.2 0.36            108            309 159 
 RREF HZ EP        827 42.56                             109   -0.06 7  324 229 
 RREF HN ES        828 18.74                             109    0.19 7  324 229 
 RREF HZ I         828 27.52        34.7 0.30            106            324 229 
 CBOC HZ EP        827 43.48                             108    0.08 7  335 252 
 CBOC HN ES   4    828 18.40                             108   -1.53 0  335 252 
 CBOC HZ I         828 33.73        10.4 0.42            105            335 252 
 TOL  SZ EP        827 44.94                             108    0.18 6  345 225 
 TOL  SN ES        828 22.46                             108    0.11 6  345 225 
 TOL  SZ I         828 27.03        54.3 0.41            105            345 225 
 ANIL HZ EP        827 47.29                             107    0.97 6  359 225 
 ANIL HN ES        828 25.00                             107   -0.13 6  359 225 
 ANIL HZ I         828 31.77        54.2 0.40            104            359 225 
 ARGC HZ EP        827 46.40                             107    0.51 6  359 340 
 ARGC HN ES        828 23.58                             107   -0.79 6  359 340 
 ARGC HZ I         828 29.24        11.3 0.26            104            359 340 
 PRA  HZ EP        827 49.57                             105   -0.48 6  394 210 
 PRA  HE ES        828 31.71                             105   -0.06 6  394 210 
 PRA  HZ I         828 36.12        17.1 0.25            103            394 210 
 ORTC HZ EP        827 50.29                             105   -0.17 6  397 216 
 ORTC HN ES        828 32.82                             105    0.32 6  397 216 
 ORTC HZ I         828 38.81        11.1 0.58            103            397 216 
 PAL  HZ EP        827 51.84                             105    0.12 6  408 239 
 PAL  HE ES        828 34.52                             105   -0.22 6  408 239 
 PAL  HZ I         828 50.13        17.7 0.10            102            408 239 
 SJC  HZ EP   4    827 49.46                             104   -2.42 0  409 327 
 SJC  HN ES   4    828 30.97                             104   -4.07 0  409 327 
 SJC  HZ I         828 39.19         5.9 0.52            102            409 327 
                                                                                
