 2017  7 1 0620 30.6 L   6.807 -73.114143.5  RSN 18 0.6 2.1LRSN                1
 GAP= 68        1.02       3.6     3.6  5.0 -0.3252E+01  0.2121E+01  0.4516E+01E
 Epicentro: LOS SANTOS - SANTANDER                                             3
 ACTION:UPD 17-08-30 15:28 OP:rebc STATUS:               ID:20170701062030 L   I
 OLDACT:UP  17-07-01 15:23 OP:and  STATUS:               ID:20170701061740     3
 OLDACT:UP  17-07-01 15:19 OP:and  STATUS:               ID:20170701061740     3
 OLDACT:UP  17-07-01 15:19 OP:and  STATUS:               ID:20170701061740     3
 OLDACT:UP  17-07-01 15:19 OP:and  STATUS:               ID:20170701061740     3
 OLDACT:UP  17-07-01 15:17 OP:and  STATUS:               ID:20170701061740     3
 OLDACT:REG 17-07-01 12:46 OP:and  STATUS:               ID:20170701061740     3
 2017-07-01-0618-00M.COL___377                                                 6
 STAT SP IPHASW D HRMM SECON CODA AMPLIT PERI AZIMU VELO AIN AR TRES W  DIS CAZ7
 BAR2 EZ EP        620 49.85                             170   -0.1210 25.0 198 
 BAR2 EZ ES        621  4.74                             170   -0.3610 25.0 198 
 BAR2 EZ I         621  6.11        44.9 0.22            167           25.0 198 
 BRR  HZ IP     D  620 51.76                             151    0.1210 73.9 297 
 BRR  HN ES        621  8.75                             151    0.6810 73.9 297 
 BRR  HZ I         621 12.52        21.1 0.12            153           73.9 297 
 PAM  EZ IP     D  620 52.65                             151    0.2610 74.5  38 
 PAM  EN ES        621  9.58                             151    0.1910 74.5  38 
 PAM  EZ I         621 13.86         9.3 0.24            157           74.5  38 
 PTB  HZ EP   9    620 56.53                             131   -1.17 0  151 259 
 PTB  HN ES        621 17.32                             131   -0.36 9  151 259 
 PTB  HZ I         621 24.68         8.6 0.16            133            151 259 
 TAM  HZ EP   2    620 58.11                             130    0.33 5  152 106 
 SPBC HZ EP        620 58.79                             128   -0.39 9  166 220 
 SPBC HE ES        621 20.78                             128   -0.71 9  166 220 
 SPBC HZ I         621 27.62        23.8 0.40            129            166 220 
 YPLC HZ IP     C  621  0.09                             126   -0.03 9  176 152 
 YPLC HN ES   2    621 23.87                             126    0.71 4  176 152 
 YPLC HZ I         621 32.59         7.5 0.16            128            176 152 
 ZAR  HZ EP        621  3.19                             121    0.00 8  207 292 
 ZAR  HN ES   2    621 28.45                             121   -0.17 4  207 292 
 ZAR  HZ I         621 33.45        15.3 0.29            124            207 292 
 NOR  HZ EP        621  6.34                             118   -0.20 8  238 235 
 NOR  HN ES        621 33.57                             118   -1.02 8  238 235 
 NOR  HZ I         621 36.22        11.8 0.42            120            238 235 
 CHI  HZ EP        621  7.89                             116   -0.45 8  250 196 
 CHI  HN ES        621 38.86                             116    1.06 8  250 196 
 CHI  HZ I         621 43.22         8.3 0.24            118            250 196 
 ROSC BZ EP   3    621  9.98                             116    1.13 2  255 212 
 ROSC BN ES   4    621 41.24                             116    2.53 0  255 212 
 ROSC BZ I         621 45.94        13.2 0.50            118            255 212 
 HEL  HZ EP   3    621 13.89                             114    2.81 2  276 256 
 HEL  HN ES        621 42.54                             114   -0.13 7  276 256 
 HEL  HZ I         621 53.06         5.3 0.30            116            276 256 
 GUY2CHZ EP        621 15.03                             112    0.57 7  305 235 
 GUY2CHN ES   3    621 50.26                             112    1.57 2  305 235 
 GUY2CHZ I         621 56.45         7.8 0.56                           305 235 
 PTGC HZ IP   3 C  621 12.82                             111   -1.46 2  308 159 
 PTGC HN ES   4    621 44.51                             111   -3.86 0  308 159 
 LL6C HZ EP        621 15.49                             110   -0.62 7  324 357 
 LL6C HN ES   3    621 49.38                             110   -2.24 2  324 357 
 CBOC HZ EP        621 18.49                             109    0.67 7  337 252 
 CBOC HN ES        621 54.90                             109    0.24 7  337 252 
 CBOC HZ I         621 56.96         2.6 0.20            111            337 252 
 ORTC HZ EP        621 24.60                             106   -0.15 6  398 217 
 ORTC HN ES        622  7.08                             106    0.09 6  398 217 
 SJC  HZ IP   9 D  621 24.49                             105   -1.73 0  410 326 
 SJC  HN ES        622  7.47                             105   -0.41 6  410 326 
 SJC  HZ I         622  9.99         5.3 0.50            108            410 326 
                                                                                
