 2013  1 1 0804 51.1 L   7.370 -74.100  0.0  RSN  5 0.4 1.5LRSN                1
 GAP=205        0.97       4.6     2.5  6.1  0.6060E+01  0.3491E+01  0.1111E+02E
 Epicentro: PUERTO WILCHES - SANTANDER                                         3
 ACTION:UPD 13-02-15 09:11 OP:ep   STATUS:               ID:20130101080451 L   I
 2013-01-01-0800-00M.COL___242                                                 6
 STAT SP IPHASW D HRMM SECON CODA AMPLIT PERI AZIMU VELO AIN AR TRES W  DIS CAZ7
 BRR  HZ EP        8 4 59.33                              47   -0.8310 51.8 124 
 BRR  HZ I         8 4 59.70         6.7 0.16             47           51.8 124 
 BRR  HE ES        8 5  7.37                              47    0.1910 51.8 124 
 ZAR  HZ EP        8 5  5.50                              47    0.3410 84.7 279 
 ZAR  HN ES        8 5 15.97                              47   -0.1210 84.7 279 
 ZAR  HN I         8 5 17.19        42.6 0.12             47           84.7 279 
 PTB  HZ EP        8 5  7.52                              47    0.0610 99.9 203 
 PTB  HN ES        8 5 19.98                              47   -0.2110 99.9 203 
 PTB  HN I         8 5 20.97         4.4 0.54             47           99.9 203 
 BAR2 SZ EP        8 5 12.66                              47   -0.0410  133 130 
 RUS  HZ EP        8 5 22.77                              37    0.32 9  198 145 
 RUS  HN ES        8 5 47.38                              37    0.51 9  198 145 
 RUS  HN I         8 5 48.54        14.5 0.32             37            198 145 
                                                                                
