 2010  3 1 0826  5.9 L   6.818 -73.000140.8  RSN  7 0.4 1.9LRSN                1
 GAP=198        0.77       3.6     8.3  7.0 -0.5661E+00 -0.1734E+02  0.5107E+01E
 Epicentro: CEPITA - SANTANDER                                                 3
 ACTION:UP  10-08-24 09:51 OP:vdl  STATUS:               ID:20100301082605 L   I
 2010-03-01-0823-32S.COL___093                                                 6
 STAT SP IPHASW D HRMM SECON CODA AMPLIT PERI AZIMU VELO SNR AR TRES W  DIS CAZ7
 BAR2 SZ EP        826 25.27                             167     0.210   32 219 
 BAR2 SZ ES   1    826 39.68                             167    -0.4 7   32 219 
 BRR  HZ EP        826 27.07                             147    -0.310   85 292 
 BRR  HN ES        826 44.07                             147     0.010   85 292 
 BRR  HZ I         826 46.88        12.8 0.09                            85 292 
 RUS  BZ EP        826 29.49                             142     0.210  103 185 
 RUS  BN ES   3    826 48.28                             142     0.7 2  103 185 
 OCA  SZ EP        826 33.87                             128     0.0 9  161 347 
 OCA  SZ ES   1    826 56.00                             128     0.3 7  161 347 
 OCA  SZ I         826 59.83        16.9 0.31                           161 347 
 CHI  HZ EP   1    826 43.51                             115    -0.5 6  255 199 
 CHI  HN ES   2    827 14.71                             115     1.0 4  255 199 
 RREF BE ES   2    827 31.30                             109     0.9 3  335 231 
 RREF BZ I         827 35.90         2.6 0.42                           335 231 
 PRA  HN ES   1    827 42.23                             105    -0.7 4  402 211 
 PRA  HZ I         827 46.15         1.9 0.26                           402 211 
                                                                                
