 2017  3 1 0339 18.6 L   6.742 -73.145158.0  RSN  6 0.3 1.2LRSN                1
 GAP=215        0.60       7.1     7.3  6.6  0.3166E+02 -0.4772E+01  0.1534E+02E
 Epicentro: LOS SANTOS - SANTANDER                                             3
 ACTION:UPD 17-05-25 18:34 OP:jn   STATUS:               ID:20170301033918 L   I
 OLDACT:UP  17-03-01 14:26 OP:and  STATUS:               ID:20170301033743     3
 OLDACT:UP  17-03-01 14:26 OP:and  STATUS:               ID:20170301033743     3
 OLDACT:REG 17-03-01 12:44 OP:and  STATUS:               ID:20170301033743     3
 2017-03-01-0338-00M.COL___390                                                 6
 STAT SP IPHASW D HRMM SECON CODA AMPLIT PERI AZIMU VELO AIN AR TRES W  DIS CAZ7
 BAR2 EZ EP        339 39.28                             173   -0.3310 17.1 194 
 BAR2 EZ ES   3    339 54.84                             173   -1.15 2 17.1 194 
 BAR2 EZ I         339 58.36         3.2 0.14            161           17.1 194 
 BRR  HZ EP        339 41.34                             154    0.0710 74.5 303 
 BRR  HN ES        339 59.12                             154    0.1710 74.5 303 
 RUS  HZ EP        339 43.53                             148    0.3810 94.2 176 
 RUS  HN ES   2    340  2.61                             148    0.31 5 94.2 176 
 RUS  HZ I         340  4.99         1.3 0.22            143           94.2 176 
 PTB  HZ EP        339 46.37                             135   -0.14 9  147 261 
 PTB  HN ES   2    340  8.01                             135   -0.26 5  147 261 
 PTB  HZ I         340 14.72         3.8 0.46            130            147 261 
 ZAR  HZ EP   3    339 52.21                             125    0.07 2  207 294 
 ZAR  HN ES   4    340 19.47                             125    1.18 0  207 294 
 ZAR  HZ I         340 23.96         1.4 0.13            123            207 294 
 PTGC HZ EP        340  2.12                             115   -0.25 7  303 158 
                                                                                
