 2017 10 1 0945  8.7 L   6.833 -73.165143.6  RSN 27 0.6 2.5LRSN                1
 GAP= 64        0.98       2.5     2.6  4.7 -0.8326E+00  0.4962E+01 -0.9856E+00E
 Epicentro: LOS SANTOS - SANTANDER                                             3
 ACTION:UPD 17-11-07 19:27 OP:rebc STATUS:               ID:20171001094508 L   I
 OLDACT:UP  17-10-01 16:39 OP:dhb  STATUS:               ID:20171001093740d    3
 OLDACT:UP  17-10-01 16:38 OP:dhb  STATUS:               ID:20171001093740d    3
 OLDACT:UP  17-10-01 16:36 OP:dhb  STATUS:               ID:20171001093740d    3
 OLDACT:UP  17-10-01 16:35 OP:dhb  STATUS:               ID:20171001093740d    3
 OLDACT:UP  17-10-01 16:34 OP:dhb  STATUS:               ID:20171001093740d    3
 OLDACT:DUP 17-10-01 16:21 OP:dhb  STATUS:               ID:20171001093740d    3
 OLDACT:REG 17-10-01 13:48 OP:osc  STATUS:               ID:20171001093739     3
 2017-10-01-0938-00M.COL___398                                                 6
 STAT SP IPHASW D HRMM SECON CODA AMPLIT PERI AZIMU VELO AIN AR TRES W  DIS CAZ7
 BAR2 EZ IP     C  945 28.02                             169   -0.0710 26.6 184 
 BAR2 HN ES        945 43.29                             169    0.0310 26.6 184 
 BAR2 EZ I         945 44.24        87.9 0.28            170           26.6 184 
 PAM  EZ IP     C  945 31.02                             151    0.4610 76.1  42 
 PAM  EN ES        945 47.82                             151    0.1810 76.1  42 
 PAM  EZ I         945 50.14        54.4 0.52            152           76.1  42 
 RUS  HZ IP     C  945 32.01                             142   -0.4610  104 175 
 RUS  HN ES        945 50.87                             142   -0.1710  104 175 
 RUS  HZ I         945 51.79        43.7 0.28            144            104 175 
 TAM  HZ IP     C  945 36.45                             129    0.01 9  158 106 
 TAM  HN ES        945 57.85                             129   -0.26 9  158 106 
 TAM  HZ I         945 58.71        17.7 0.32            132            158 106 
 SPBC HZ EP        945 36.97                             128   -0.16 9  165 218 
 SPBC HN ES        945 58.79                             128   -0.55 9  165 218 
 SPBC HZ I         946  3.31        51.3 0.42            129            165 218 
 YPLC HZ IP     C  945 38.48                             125   -0.22 9  181 151 
 YPLC HE ES        946  2.90                             125    0.76 9  181 151 
 YPLC HZ I         946  5.32        15.2 0.26            127            181 151 
 ZAR  HZ IP     C  945 41.19                             122    0.58 9  201 291 
 ZAR  HN ES        946  5.99                             122    0.45 9  201 291 
 ZAR  HZ I         946 11.23        25.1 0.11            122            201 291 
 TABC EZ EP   3    945 46.15                             118    1.66 2  232 210 
 TABC EZ ES        946 12.32                             118   -0.13 8  232 210 
 TABC EZ I         946 18.77        26.4 0.32            119            232 210 
 NOR  HZ IP     C  945 44.19                             118   -0.11 8  235 233 
 NOR  HN ES        946 12.27                             118    0.17 8  235 233 
 NOR  HZ I         946 14.81        14.2 0.28            118            235 233 
 CHI  HZ EP        945 46.22                             116   -0.33 8  252 194 
 CHI  HE ES        946 15.48                             116   -0.63 8  252 194 
 CHI  HZ I         946 20.88        18.2 0.32            117            252 194 
 ROSC BZ IP   9 D  945 48.15                             116    1.28 0  255 210 
 ROSC BE ES        946 17.76                             115   -0.20 8  255 210 
 ROSC BZ I         946 22.54        50.1 0.45            117            255 210 
 HEL  HZ EP        945 49.67                             114    1.04 8  271 255 
 HEL  HE ES        946 18.95                             114   -0.86 8  271 255 
 HEL  HZ I         946 26.10        16.9 0.30            114            271 255 
 URE  HZ EP        945 48.61                             113   -0.64 7  281 291 
 URE  HE ES   4    946 18.62                             113   -2.29 0  281 291 
 URE  HZ I         946 27.16        15.6 0.16            113            281 291 
 GUY2CHZ EP        945 52.34                             112    0.14 7  302 234 
 GUY2CHE ES   4    946 29.28                             112    3.11 0  302 234 
 GUY2CHZ I         946 34.48        15.9 0.58                           302 234 
 PTGC HZ IP   3 C  945 51.21                             111   -1.67 2  313 159 
 PTGC HE ES   4    946 24.41                             111   -2.97 0  313 159 
 PTGC HZ I         946 27.28        13.8 0.44            112            313 159 
 LL6C HZ EP        945 53.18                             110   -0.66 7  321 358 
 LL6C HE ES   2    946 27.95                             110   -1.13 3  321 358 
 LL6C HZ I         946 34.94         8.2 0.44            111            321 358 
 ELA  HZ EP   3    945 57.45                             110    1.95 2  330 229 
 ELA  HE ES        946 32.48                             110    0.44 7  330 229 
 ELA  HZ I         946 40.74        13.9 0.60            110            330 229 
 DBB  EZ EP   2    945 57.02                             109    1.25 3  337 274 
 DBB  EN ES        946 31.92                             109   -0.60 7  337 274 
 DBB  EZ I         946 32.78         9.0 0.16            109            337 274 
 ARGC HZ EP        945 58.26                             108    0.51 6  355 340 
 ARGC HE ES   4    946 39.97                             108    3.93 0  355 340 
 ARGC HZ I         946 43.73         4.9 0.32            108            355 340 
 ANIL HZ EP   3    945 59.82                             108    1.32 2  358 224 
 ANIL HE ES        946 38.05                             108    0.67 6  358 224 
 PRA  HZ EP        946  1.94                             106   -0.40 6  394 209 
 PRA  HE ES        946 44.33                             106    0.11 6  394 209 
 PRA  HZ I         946 48.31        16.0 0.44            107            394 209 
 APAC HZ EP        946  3.49                             106    1.09 6  395 288 
 APAC HN ES   2    946 43.45                             106   -0.88 3  395 288 
 APAC HZ I         946 47.08         5.4 0.56            106            395 288 
 ORTC HZ EP        946  2.37                             106   -0.32 6  397 216 
 ORTC HN ES        946 45.75                             106    0.90 6  397 216 
 ORTC HZ I         946 49.44        11.1 0.30            106            397 216 
 SJC  HZ IP   3 D  946  2.21                             105   -1.44 1  405 327 
 SJC  HE ES   4    946 44.06                             105   -2.49 0  405 327 
 SJC  HZ I         946 57.71         4.9 0.74            106            405 327 
 PAL  HZ EP        946  3.47                             105   -0.28 6  406 238 
 PAL  HE ES   3    946 45.66                             105   -1.06 1  406 238 
 CRJC HZ EP   9    946  8.24                             103   -2.44 0  464   4 
 CRJC HE ES        946 56.40                             103   -0.22 5  464   4 
 CRJC HZ I         947  3.32        10.9 0.24            104            464   4 
 MACC HZ EP   4    946 15.51                             101   -2.19 0  524 188 
 MACC HE ES   4    947  6.94                             101   -4.61 0  524 188 
 MACC HZ I         947 11.65         2.6 0.34            102            524 188 
                                                                                
