 2010 12 1 0728 15.2 L   6.814 -73.069142.8  RSN  5 0.2 1.3LRSN                1
 GAP=167        0.56       3.8     8.3  9.8 -0.4862E-01 -0.2370E+02 -0.1171E+01E
 Epicentro: LOS SANTOS - SANTANDER                                             3
 ACTION:UP  11-01-14 15:22 OP:pat  STATUS:               ID:20101201072815 L   I
 2010-12-01-0725-05S.COL___132                                                 6
 STAT SP IPHASW D HRMM SECON CODA AMPLIT PERI AZIMU VELO SNR AR TRES W  DIS CAZ7
 BAR2 SZ EP        728 34.54                             169     0.010   28 207 
 BAR2 SZ I         728 50.57         6.7 0.55                            28 207 
 BRR  HZ EP        728 36.35                             150    -0.110   78 295 
 BRR  HZ I         728 43.49         3.8 0.02                            78 295 
 BRR  HN ES   2    728 53.02                             150     0.0 5   78 295 
 RUS  HZ EP        728 38.59                             143    -0.210  102 181 
 RUS  HN ES   2    728 57.50                             143     0.4 5  102 181 
 RUS  HZ I         729  0.35         1.7 0.46                           102 181 
 GUE  SZ EP        728 39.64                             139     0.310  114   8 
 GRA  SZ ES   2    728 58.70                             137    -0.4 5  122  14 
 GRA  SZ I         729  0.55         4.4 0.28                           122  14 
                                                                                
