 2015  6 1 0027 23.1 L   6.791 -73.174160.7  RSN  6 0.5 1.5LRSN                1
 GAP=198        1.17       4.5     7.7  9.6  0.7562E+01  0.3133E+01 -0.6006E+01E
 Epicentro: LOS SANTOS - SANTANDER                                             3
 ACTION:UPD 15-09-10 22:08 OP:cam  STATUS:               ID:20150601002723 L   I
 OLDACT:REG 15-06-01 12:38 OP:ak   STATUS:               ID:20150601001747     3
 2015-06-01-0017-47M.COL___303                                                 6
 STAT SP IPHASW D HRMM SECON CODA AMPLIT PERI AZIMU VELO AIN AR TRES W  DIS CAZ7
 BRR  HZ EP        027 46.67                             155    0.8610 68.9 301 
 BRR  HN ES        028  3.60                             155    0.1110 68.9 301 
 BRR  HZ I         028  8.87         4.0 0.19            153           68.9 301 
 RUS  HZ EP        027 48.64                             147    0.3010 99.9 174 
 RUS  HE ES        028  7.38                             147   -0.6110 99.9 174 
 RUS  HZ I         028  9.09         1.8 0.23            150           99.9 174 
 SPBC HZ EP        027 52.17                             133   -0.41 9  160 218 
 SPBC HN ES        028 15.71                             133    0.17 9  160 218 
 SPBC HZ I         028 20.69         6.1 0.22            134            160 218 
 ZAR  HN ES        028 21.66                             126   -0.59 9  202 293 
 ZAR  HZ I         028 29.12         2.9 0.15            127            202 293 
 SML  HZ EP        028  0.18                             120   -0.42 8  243 336 
 SML  HN ES        028 29.87                             120    0.04 8  243 336 
 SML  HZ I         028 32.77         4.0 0.09            123            243 336 
 GUY2CHZ EP   2    028  6.18                             115   -0.95 4  298 235 
 GUY2CHN ES        028 42.07                             115    0.63 7  298 235 
 GUY2CHZ I         028 52.86         1.8 0.37                           298 235 
                                                                                
