 2012  9 1 0108 52.4 L   6.749 -73.129145.8  RSN  4 0.2 1.5LRSN                1
 GAP=210        0.42       8.9     8.0  6.5  0.3689E+02 -0.2306E+02 -0.1610E+02E
 Epicentro: LOS SANTOS - SANTANDER                                             3
 ACTION:UPD 12-10-22 14:16 OP:ep   STATUS:               ID:20120901010852 L   I
 2012-09-01-0100-00M.COL___218                                                 6
 STAT SP IPHASW D HRMM SECON CODA AMPLIT PERI AZIMU VELO AIN AR TRES W  DIS CAZ7
 BAR2 SZ EP        1 9 12.12                             172    0.2110 18.3 199 
 BAR2 SZ ES   1    1 9 26.97                             172   -0.18 7 18.3 199 
 BAR2 SZ I         1 9 28.76        14.0 0.18                          18.3 199 
 GIR2 SZ EP        1 9 12.08                             165   -0.1410 37.1 349 
 BRR  HN ES   1    1 9 30.57                             151    0.10 7 75.6 302 
 PTB  HZ EP   3    1 9 19.10                             131   -0.32 2  149 261 
 PTB  HN ES   3    1 9 40.43                             131   -0.08 2  149 261 
 PTB  HZ I         1 9 44.13         2.1 0.24                           149 261 
                                                                                
