 2014  5 1 0614 53.5 L   6.753 -73.178138.7  RSN  5 0.2 1.5LRSN                1
 GAP=240        0.59       4.8     4.0  7.4  0.8983E+01 -0.4275E+01 -0.1954E+02E
 Epicentro: VILLANUEVA - SANTANDER                                             3
 OLDACT:REG 14-05-01 13:42 OP:mh   STATUS:               ID:20140501061000     3
 ACTION:UPD 15-03-16 16:54 OP:nd   STATUS:               ID:20140501061453 L   I
 OLDACT:UP  14-05-01 17:18 OP:mh   STATUS:               ID:20140501061000     3
 OLDACT:UP  14-05-01 17:17 OP:mh   STATUS:               ID:20140501061000     3
 2014-05-01-0610-00M.COL___273                                                 6
 STAT SP IPHASW D HRMM SECON CODA AMPLIT PERI AZIMU VELO AIN AR TRES W  DIS CAZ7
 RUS  HZ EP        615 15.98                             144   -0.2710 95.7 174 
 RUS  HN ES        615 34.16                             144    0.2010 95.7 174 
 RUS  HZ I         615 55.54         2.9 1.42            156           95.7 174 
 PTB  HZ EP        615 19.28                             131   -0.26 9  143 261 
 PTB  HN ES        615 39.68                             131   -0.13 9  143 261 
 PTB  HZ I         615 40.79         3.4 0.86            153            143 261 
 SPBC HZ EP        615 21.27                             128    0.36 9  157 219 
 SPBC HN ES        615 42.05                             128   -0.20 9  157 219 
 SPBC HZ I         615 51.76         6.2 2.28            149            157 219 
 ZAR  HZ EP        615 25.55                             121    0.14 9  203 294 
 ZAR  HN ES   1    615 50.45                             121    0.19 6  203 294 
 ZAR  HZ I         615 56.55         3.2 0.30            140            203 294 
 NOR  HN ES   1    615 55.53                             118    0.24 6  229 235 
                                                                                
