 2013  2 1 0633 28.5 L   6.791 -73.124146.0  RSN  8 0.5 2.1LRSN                1
 GAP=140        1.25       4.1     5.5  7.3 -0.3521E+01  0.9184E+01  0.3042E+01E
 Epicentro: LOS SANTOS - SANTANDER                                             3
 ACTION:UPD 13-03-12 09:29 OP:ep   STATUS:               ID:20130201063329dL   I
 2013-02-01-0630-00M.COL___241                                                 6
 STAT SP IPHASW D HRMM SECON CODA AMPLIT PERI AZIMU VELO AIN AR TRES W  DIS CAZ7
 BAR2 SZ EP        633 48.09                             171   -0.0910 22.9 196 
 BAR2 SZ ES        634  3.21                             171   -0.3010 22.9 196 
 BAR2 SZ I         634  4.81        26.1 0.38            168           22.9 196 
 BRR  HZ EP     C  633 50.01                             152    0.1510 73.8 298 
 BRR  HN ES        634  7.35                             152    0.8610 73.8 298 
 BRR  HN I         634 11.58        38.3 0.18            149           73.8 298 
 PAM  SZ EP        633 50.96                             151    0.2310 76.7  38 
 PAM  SN ES        634  8.34                             151    0.3010 76.7  38 
 PAM  SN I         634  9.09        17.1 0.48            155           76.7  38 
 RUS  HZ EP        633 52.28                             144    0.0610 99.4 177 
 RUS  HN ES        634 10.41                             144   -0.2910 99.4 177 
 RUS  HN I         634 11.08        16.3 0.32            146           99.4 177 
 PTB  HZ EP        633 54.66                             132   -1.06 9  150 259 
 PTB  HN ES        634 16.37                             132   -0.55 9  150 259 
 PTB  HN I         634 20.86        19.0 0.26            130            150 259 
 OCA  HZ EP        633 56.52                             129   -0.47 9  162 352 
 OCA  HN ES        634 18.90                             129   -0.28 9  162 352 
 OCA  HN I         634 22.03        51.3 0.26            130            162 352 
 CHI  HZ EP        634  6.26                             117    0.06 8  248 196 
 CHI  HN ES        634 36.05                             117    0.46 8  248 196 
 CHI  HN I         634 40.10         6.4 0.32            118            248 196 
 HEL  HZ EP        634 10.07                             115    1.08 8  274 256 
 HEL  HN ES        634 40.81                             115    0.27 8  274 256 
 HEL  HN I         634 49.76         4.2 0.24            115            274 256 
                                                                                
