 2015  2 1 0317 42.2 L   6.789 -73.186151.3  RSN  6 0.4 1.4LRSN                1
 GAP=197        0.90       4.6     7.2  7.6  0.5198E+01  0.2862E+01  0.8743E+00E
 Epicentro: ZAPATOCA - SANTANDER                                               3
 ACTION:UPD 15-04-30 21:20 OP:nd   STATUS:               ID:20150201031742 L   I
 OLDACT:REG 15-02-01 12:03 OP:spq  STATUS:               ID:20150201030744     3
 2015-02-01-0307-44M.COL___265                                                 6
 STAT SP IPHASW D HRMM SECON CODA AMPLIT PERI AZIMU VELO AIN AR TRES W  DIS CAZ7
 BAR2 EZ EP   1    318  2.21                             172   -0.21 7 21.8 179 
 BAR2 EZ ES   1    318 17.74                             172   -0.49 7 21.8 179 
 BAR2 EZ I         318 18.55         4.6 0.56            169           21.8 179 
 BRR  HZ EP        318  4.06                             155    0.3310 67.9 301 
 BRR  HN ES        318 21.13                             155    0.5810 67.9 301 
 BRR  HZ I         318 23.44         2.8 0.40            152           67.9 301 
 RUS  HZ EP   1    318  6.56                             145    0.16 7 99.8 173 
 RUS  HN ES   1    318 25.07                             145   -0.24 7 99.8 173 
 RUS  HZ I         318 26.07         2.3 0.34            145           99.8 173 
 PTB  HZ EP   1    318  8.52                             134   -0.65 7  143 259 
 PTB  HN ES   1    318 29.72                             134   -0.52 7  143 259 
 PTB  HZ I         318 31.79         2.2 0.54            133            143 259 
 SPBC HZ EP        318 11.10                             131    0.36 9  159 218 
 SPBC HN ES        318 33.04                             131    0.01 9  159 218 
 SPBC HZ I         318 39.42         4.0 0.24            130            159 218 
 SML  HN ES   1    318 47.22                             119   -0.55 6  243 336 
 SML  HZ I         318 49.39         3.3 0.26            119            243 336 
                                                                                
