 2015 10 1 0802 41.6 L   6.824 -73.157149.4  RSN 10 0.5 1.5LRSN                1
 GAP=134        1.12       3.3     4.5  6.0 -0.4190E+00  0.7352E+01  0.8751E+00E
 Epicentro: LOS SANTOS - SANTANDER                                             3
 ACTION:UPD 15-12-22 20:36 OP:cam  STATUS:               ID:20151001080241 L   I
 OLDACT:DUP 15-10-01 20:17 OP:spq  STATUS:               ID:20151001075741d    3
 2015-10-01-0757-40M.COL___358                                                 6
 STAT SP IPHASW D HRMM SECON CODA AMPLIT PERI AZIMU VELO AIN AR TRES W  DIS CAZ7
 BAR2 EZ EP        8 3  1.77                             170    0.0310 25.8 186 
 BAR2 EZ ES        8 3 17.07                             170   -0.3510 25.8 186 
 BAR2 EZ I         8 3 18.10         5.0 0.26            170           25.8 186 
 BRR  HZ EP        8 3  3.60                             154    0.5710 68.9 297 
 BRR  HN ES        8 3 20.58                             154    0.8510 68.9 297 
 PAM  EZ EP        8 3  4.37                             152    0.2210 76.1  42 
 PAM  EN ES        8 3 21.75                             152    0.0310 76.1  42 
 PAM  EZ I         8 3 23.67         5.0 0.54            155           76.1  42 
 RUS  HZ EP        8 3  6.14                             144    0.2110  103 175 
 RUS  HE ES        8 3 24.38                             144   -0.5010  103 175 
 RUS  HZ I         8 3 26.21         3.5 0.34            146            103 175 
 PTB  HZ EP        8 3  8.63                             133   -0.20 9  147 258 
 PTB  HN ES        8 3 29.30                             133   -0.75 9  147 258 
 PTB  HZ I         8 3 31.23         3.9 0.44            133            147 258 
 SPBC HZ EP        8 3 10.87                             130    0.35 9  165 218 
 SPBC HN ES        8 3 32.69                             130   -0.38 9  165 218 
 SPBC HZ I         8 3 40.01         5.2 0.32            130            165 218 
 ZAR  HZ EP        8 3 13.75                             123   -0.33 9  202 292 
 ZAR  HN ES        8 3 39.78                             123    0.37 9  202 292 
 ZAR  HZ I         8 3 47.98         2.1 0.42            124            202 292 
 SML  HZ EP        8 3 17.08                             118   -1.05 8  241 335 
 SML  HN ES        8 3 46.37                             118   -0.24 8  241 335 
 SML  HZ I         8 3 50.11         4.3 0.26            119            241 335 
 CHI  HZ EP        8 3 20.04                             118    0.27 8  251 195 
 CHI  HN ES        8 3 49.79                             118    0.27 8  251 195 
 GUY2CHZ EP        8 3 25.62                             113    0.16 7  302 234 
 GUY2CHN ES        8 3 59.98                             113    0.32 7  302 234 
 GUY2CHZ I         8 4  7.89         1.3 0.58                           302 234 
                                                                                
