 2017  9 1 0459 50.3 L   6.794 -73.144150.0  RSN 10 0.4 1.9LRSN                1
 GAP=112        0.77       2.9     3.3  5.2  0.4808E+00  0.4013E+01  0.5660E+01E
 Epicentro: LOS SANTOS - SANTANDER                                             3
 ACTION:UPD 17-10-05 19:07 OP:rebc STATUS:               ID:20170901045950 L   I
 OLDACT:UP  17-09-01 14:49 OP:dani STATUS:               ID:20170901045639     3
 OLDACT:UP  17-09-01 14:49 OP:dani STATUS:               ID:20170901045639     3
 OLDACT:REG 17-09-01 13:03 OP:dani STATUS:               ID:20170901045639     3
 2017-09-01-0457-00M.COL___404                                                 6
 STAT SP IPHASW D HRMM SECON CODA AMPLIT PERI AZIMU VELO AIN AR TRES W  DIS CAZ7
 BAR2 EZ EP     C  5 0 10.19                             171   -0.2210 22.8 191 
 BAR2 EZ I         5 0 26.50        33.3 0.22            170           22.8 191 
 BRR  HZ EP     C  5 0 12.03                             153    0.1110 71.7 299 
 BRR  HN ES        5 0 29.36                             153    0.5710 71.7 299 
 BRR  HZ I         5 0 33.18        10.2 0.32            152           71.7 299 
 PAM  EZ EP        5 0 13.05                             151    0.0810 77.7  39 
 PAM  EN ES        5 0 30.48                             151   -0.1910 77.7  39 
 PAM  EZ I         5 0 32.53         6.0 0.22            154           77.7  39 
 RUS  HZ EP        5 0 14.56                             145    0.1510100.0 176 
 RUS  HN ES        5 0 32.76                             145   -0.4710100.0 176 
 RUS  HZ I         5 0 34.09        10.7 0.22            146          100.0 176 
 YPLC HZ EP     D  5 0 20.45                             127    0.12 9  176 151 
 ZAR  HZ EP        5 0 22.66                             123   -0.39 9  204 292 
 ZAR  HN ES        5 0 48.42                             123   -0.19 9  204 292 
 ZAR  HZ E         5 0 51.61                                            204 292 
 ZAR  HZ I         5 0 54.53        10.4 0.38            124            204 292 
 NOR  HZ EP        5 0 26.67                             119    0.43 8  234 235 
 NOR  HN ES        5 0 53.72                             119   -0.57 8  234 235 
 NOR  HZ I         5 1  1.98         4.4 0.22            120            234 235 
 CHI  HZ EP        5 0 28.42                             118    0.26 8  248 195 
 CHI  HN ES        5 0 57.91                             118    0.20 8  248 195 
 CHI  HZ I         5 1  3.13         3.0 0.25            119            248 195 
 PRA  HZ EP        5 0 44.11                             107    0.21 6  392 210 
 PRA  HN ES        5 1 25.97                             107    0.24 6  392 210 
 PRA  HZ I         5 1 28.89         3.3 0.36            108            392 210 
 SJC  HZ EP   3    5 0 44.35                             106   -1.71 1  410 327 
 SJC  HN ES   4    5 1 27.21                             106   -2.36 0  410 327 
 SJC  HZ I         5 1 31.75         1.8 0.37            107            410 327 
                                                                                
