 2015  2 1 0925 55.7 L   6.758 -73.160152.8  RSN  7 0.3 1.5LRSN                1
 GAP=181        0.74       2.9     5.7  6.5  0.1841E+01  0.1075E+01 -0.2228E+01E
 Epicentro: LOS SANTOS - SANTANDER                                             3
 ACTION:UPD 15-04-30 21:20 OP:nd   STATUS:               ID:20150201092555 L   I
 OLDACT:REG 15-02-01 12:27 OP:spq  STATUS:               ID:20150201091745     3
 2015-02-01-0917-45M.COL___252                                                 6
 STAT SP IPHASW D HRMM SECON CODA AMPLIT PERI AZIMU VELO AIN AR TRES W  DIS CAZ7
 BAR2 EZ EP        926 16.05                             173   -0.0510 18.5 188 
 BAR2 EZ ES   1    926 31.60                             173   -0.40 7 18.5 188 
 BAR2 EZ I         926 32.46         4.9 0.42            172           18.5 188 
 BRR  HZ EP   1    926 18.19                             153    0.51 7 72.2 302 
 BRR  HE ES        926 35.12                             153    0.3110 72.2 302 
 BRR  HZ I         926 35.99         4.0 0.25            150           72.2 302 
 RUS  HZ EP   1    926 20.36                             146    0.51 7 96.1 175 
 RUS  HE ES   1    926 38.82                             146    0.15 7 96.1 175 
 RUS  HZ I         926 39.49         2.8 0.30            147           96.1 175 
 SPBC HZ EP   1    926 24.29                             131   -0.04 7  159 220 
 SPBC HE ES        926 46.16                             131   -0.50 9  159 220 
 SPBC HZ I         926 49.51         4.3 0.24            130            159 220 
 OCA  HN ES        926 47.67                             130   -0.15 9  165 354 
 OCA  HZ I         926 50.91         3.0 0.17            129            165 354 
 ZAR  HN ES   1    926 54.66                             124    0.30 6  204 294 
 ZAR  HZ I         926 59.84         2.3 0.40            122            204 294 
 SML  HZ EP   1    926 32.69                             118   -0.43 6  247 336 
 SML  HE ES   1    927  2.00                             118   -0.31 6  247 336 
 SML  HZ I         927  5.16         3.7 0.10            118            247 336 
                                                                                
