 2013 11 1 0256 26.1 L   6.748 -73.205148.8  RSN  5 0.2 1.3LRSN                1
 GAP=176        0.49       3.6     4.2  4.4  0.4149E+01  0.4341E+01 -0.6046E+00E
 Epicentro: VILLANUEVA - SANTANDER                                             3
 ACTION:UPD 14-01-09 16:24 OP:ep   STATUS:               ID:20131101025626 L   I
 OLDACT:DUP 13-11-01 13:10 OP:jn   STATUS:               ID:20131101025001d    3
 2013-11-01-0250-00M.COL___273                                                 6
 STAT SP IPHASW D HRMM SECON CODA AMPLIT PERI AZIMU VELO AIN AR TRES W  DIS CAZ7
 BAR2 SZ EP        256 45.85                             173   -0.1410 17.4 172 
 BAR2 SZ ES        257  1.45                             173   -0.0610 17.4 172 
 BAR2 SZ I         257  2.22         8.0 0.28            170           17.4 172 
 BRR  HZ EP        256 47.78                             154    0.3410 68.7 305 
 BRR  HN ES        257  4.20                             154    0.1210 68.7 305 
 BRR  HZ I         257  5.17         4.4 0.34            152           68.7 305 
 RUS  HN ES   1    257  8.26                             146   -0.03 7 95.6 172 
 RUS  HZ I         257  9.22         1.8 0.22            146           95.6 172 
 PTB  HZ EP        256 52.59                             134   -0.07 9  140 261 
 PTB  HN ES   1    257 13.18                             134   -0.19 7  140 261 
 PTB  HZ I         257 16.99         1.8 0.32            133            140 261 
 OCA  HN ES   2    257 17.37                             129   -0.39 5  165 356 
                                                                                
