 2011 11 1 0438 57.2 L   6.737 -73.018139.1  RSN  4 0.2 1.2LRSN                1
 GAP=157        0.48       4.6     6.6  6.2  0.1252E+02 -0.2735E+00  0.6617E+01E
 Epicentro: ARATOCA - SANTANDER                                                3
 ACTION:UPD 12-07-13 16:07 OP:ep   STATUS:               ID:20111101043857 L   I
 2011-11-01-0437-45S.COL___175                                                 6
 STAT SP IPHASW D HRMM SECON CODA AMPLIT PERI AZIMU VELO AIN AR TRES W  DIS CAZ7
 BAR2 SZ EP        439 16.38                             170    0.3210 24.2 229 
 BAR2 SZ I         439 16.88         2.8 0.16                          24.2 229 
 BAR2 SZ ES   2    439 30.93                             170    0.17 5 24.2 229 
 PAM  SE ES   2    439 35.06                             150   -0.22 5 75.3  28 
 BRR  HZ EP        439 18.48                             146   -0.1610 87.0 298 
 BRR  HN ES   1    439 35.35                             146   -0.01 7 87.0 298 
 BRR  HZ I         439 39.08         4.5 0.42                          87.0 298 
 RUS  HZ EP        439 19.73                             144   -0.0710 93.6 184 
 RUS  HZ I         439 35.67         2.0 0.70                          93.6 184 
 RUS  HE ES   2    439 37.17                             144   -0.26 5 93.6 184 
                                                                                
