 2015 10 1 0204 53.5 L   6.814 -73.152148.0  RSN 15 0.4 2.1LRSN                1
 GAP= 70        0.84       2.3     2.6  4.5 -0.7992E+00  0.1494E+01  0.1472E+01E
 Epicentro: LOS SANTOS - SANTANDER                                             3
 ACTION:UPD 15-12-22 20:36 OP:cam  STATUS:               ID:20151001020453 L   I
 OLDACT:DUP 15-10-01 16:10 OP:spq  STATUS:               ID:20151001015750d    3
 2015-10-01-0157-49M.COL___358                                                 6
 STAT SP IPHASW D HRMM SECON CODA AMPLIT PERI AZIMU VELO AIN AR TRES W  DIS CAZ7
 BAR2 EZ EP     D  2 5 13.23                             170   -0.1610 24.8 188 
 BAR2 EZ ES   1    2 5 28.60                             170   -0.33 7 24.8 188 
 BAR2 EZ I         2 5 29.60        28.3 0.34            171           24.8 188 
 BRR  HZ EP        2 5 15.11                             153    0.3310 69.8 298 
 BRR  HN ES        2 5 32.13                             153    0.7310 69.8 298 
 BRR  HZ I         2 5 36.17        21.9 0.30            152           69.8 298 
 PAM  EZ EP     C  2 5 16.03                             152    0.1610 76.6  41 
 PAM  EE ES        2 5 33.43                             152    0.0810 76.6  41 
 PAM  EZ I         2 5 35.41        24.7 0.50            147           76.6  41 
 RUS  HZ EP        2 5 17.24                             144   -0.3110  102 176 
 RUS  HE ES        2 5 36.14                             144   -0.2010  102 176 
 RUS  HZ I         2 5 37.74         8.5 0.46            142            102 176 
 PTB  HZ EP        2 5 19.96                             133   -0.62 9  147 258 
 PTB  HN ES        2 5 41.04                             133   -0.69 9  147 258 
 PTB  HZ I         2 5 43.04         8.6 0.19            131            147 258 
 TAM  HZ EP     D  2 5 21.67                             131    0.25 9  156 105 
 TAM  HZ I         2 5 42.74         9.2 0.23            127            156 105 
 TAM  HN ES   1    2 5 43.51                             131    0.29 7  156 105 
 OCA  HZ EP        2 5 21.43                             131   -0.36 9  159 353 
 OCA  HN ES        2 5 43.66                             131   -0.23 9  159 353 
 OCA  HZ I         2 5 51.74        25.3 0.22            127            159 353 
 SPBC HZ EP        2 5 22.20                             129   -0.01 9  164 218 
 SPBC HE ES        2 5 45.05                             129    0.42 9  164 218 
 SPBC HZ I         2 5 49.05        22.4 0.34            128            164 218 
 ZAR  HN ES        2 5 51.32                             123    0.07 9  203 292 
 ZAR  HZ I         2 5 56.42        12.4 0.28            121            203 292 
 NOR  HZ EP   1    2 5 29.21                             119   -0.15 6  235 234 
 NOR  HE ES        2 5 57.47                             119    0.11 8  235 234 
 NOR  HZ I         2 6  3.27         7.6 0.23            117            235 234 
 SML  HZ EP   1    2 5 29.97                             118   -0.06 6  242 335 
 SML  HE ES   1    2 5 58.64                             118    0.09 6  242 335 
 SML  HZ I         2 6  1.28        21.5 0.10            115            242 335 
 CHI  HZ EP        2 5 31.45                             118    0.02 8  250 195 
 CHI  HE ES        2 6  0.79                             118   -0.25 8  250 195 
 CHI  HZ I         2 6  4.22         8.2 0.60            115            250 195 
 GUY2CHZ EP        2 5 37.54                             113    0.33 7  302 234 
 GUY2CHE ES        2 6 12.02                             113    0.68 7  302 234 
 GUY2CHZ I         2 6 19.48         4.8 0.34                           302 234 
 ORTC HZ EP   1    2 5 47.72                             107    0.16 4  396 216 
 ORTC HN ES   4    2 6 30.95                             107    1.20 0  396 216 
 ORTC HZ I         2 6 34.61         4.7 0.30            105            396 216 
 SJC  HZ EP   4    2 5 47.45                             106   -1.45 0  408 327 
 SJC  HN ES   4    2 6 29.73                             106   -2.41 0  408 327 
 SJC  HZ I         2 6 40.70         2.6 0.30            104            408 327 
                                                                                
