 2010  4 1 0540 40.2 L   6.814 -73.012142.0  RSN  4 0.5 1.7LRSN                1
 GAP=210        0.98       7.7    17.7 12.1  0.2757E+02 -0.8548E+02 -0.3389E+02E
 Epicentro: CEPITA - SANTANDER                                                 3
 ACTION:UPD 10-08-24 09:57 OP:vdl  STATUS:               ID:20100401054040 L   I
 2010-04-01-0536-29S.COL___098                                                 6
 STAT SP IPHASW D HRMM SECON CODA AMPLIT PERI AZIMU VELO AIN AR TRES W  DIS CAZ7
 BAR2 SZ EP        540 59.93                             167     0.410   31 218 
 BAR2 SZ ES   1    541 14.40                             167    -0.3 7   31 218 
 BRR  HZ EP        541  1.56                             149    -0.210   84 293 
 BRR  HN ES   1    541 18.53                             149     0.0 7   84 293 
 OCA  SZ EP        541  7.70                             129    -0.6 9  161 348 
 OCA  SZ ES   1    541 31.03                             129     0.8 7  161 348 
 OCA  SZ I         541 39.39         6.0 0.18                           161 348 
 CHI  HE ES   3    541 49.07                             116     1.0 2  254 198 
                                                                                
