 2013  3 1 0519 13.6 L   6.570 -73.540111.1  RSN 19 0.6 3.5LRSN 3.7WRSN        1
 SPEC AVERAGE  MO 14.6 ST 13.0 OM  2.6 f0 2.63 R0.6220 AL 2.07 WI 32.9 MW  3.7 3
 SPEC SD       MO  0.2 ST 11.6 OM  0.4 f00.847 R0.2115 AL      WI      MW  0.1 3
 GAP= 52        1.43       2.8     3.3  6.3 -0.3972E+00  0.5151E+01  0.1878E+01E
 Epicentro: EL CARMEN DE CHUCURI - SANTANDER                                   3
 SPEC VIL SH E MO 15.0 ST 11.0 OM  3.1 f0 2.05 R0.7171 AL 2.51 WI 44.3 MW  3.9 3
 SPEC VIL SH E T 52022 K 0.000 GD  293 VS 4.20 DE 3.20 Q0300.0 QA 0.60 VS 4.20 3
 SPEC URE HH N MO 14.6 ST 30.9 OM  2.8 f0 3.71 R0.3962 AL 2.70 WI 67.7 MW  3.7 3
 SPEC URE HH N T 52015 K 0.000 GD  279 VS 4.20 DE 3.20 Q0300.0 QA 0.60 VS 4.20 3
 SPEC TAM HH N MO 14.3 ST  3.3 OM  2.6 f0 2.22 R0.6622 AL 1.44 WI 24.8 MW  3.5 3
 SPEC TAM HH N T 520 4 K 0.000 GD  223 VS 4.20 DE 3.20 Q0300.0 QA 0.60 VS 4.20 3
 SPEC ZAR HH N MO 14.6 ST 27.9 OM  2.9 f0 3.65 R0.4027 AL 2.56 WI 39.1 MW  3.7 3
 SPEC ZAR HH N T 520 3 K 0.000 GD  209 VS 4.20 DE 3.20 Q0300.0 QA 0.60 VS 4.20 3
 SPEC PRA HH N MO 14.4 ST  1.1 OM  2.4 f0 1.51 R0.9735 AL 1.68 WI 41.2 MW  3.5 3
 SPEC PRA HH N T 52037 K 0.000 GD  366 VS 4.20 DE 3.20 Q0300.0 QA 0.60 VS 4.20 3
 SPEC ROSCBH Z MO 14.5 ST  5.4 OM  2.0 f0 2.23 R0.6592 AL 2.34 WI 25.0 MW  3.6 3
 SPEC ROSCBH Z T 51945 K 0.000 GD  237 VP 7.60 DE 3.20 Q0300.0 QA 0.60 VS 4.20 3
 SPEC PTB HH N MO 14.5 ST  5.3 OM  2.9 f0 2.34 R0.6282 AL 1.23 WI 35.7 MW  3.6 3
 SPEC PTB HH N T 51947 K 0.000 GD  150 VS 4.20 DE 3.20 Q0300.0 QA 0.60 VS 4.20 3
 SPEC RUS HH Z MO 14.6 ST  1.4 OM  2.3 f0 1.33 R1.1053 AL 1.36 WI 15.7 MW  3.7 3
 SPEC RUS HH Z T 51932 K 0.000 GD  143 VP 7.60 DE 3.20 Q0300.0 QA 0.60 VS 4.20 3
 SPEC PRA HH Z MO 14.7 ST  8.5 OM  2.0 f0 2.25 R0.6533 AL 1.78 WI 37.3 MW  3.8 3
 SPEC PRA HH Z T 520 0 K 0.000 GD  366 VP 7.60 DE 3.20 Q0300.0 QA 0.60 VS 4.20 3
 SPEC HEL HH Z MO 14.6 ST  7.1 OM  2.0 f0 2.41 R0.6100 AL 1.72 WI 24.0 MW  3.7 3
 SPEC HEL HH Z T 51946 K 0.000 GD  250 VP 7.60 DE 3.20 Q0300.0 QA 0.60 VS 4.20 3
 SPEC OCA HH Z MO 14.6 ST 22.0 OM  2.1 f0 3.41 R0.4311 AL 1.78 WI 22.0 MW  3.7 3
 SPEC OCA HH Z T 51942 K 0.000 GD  216 VP 7.60 DE 3.20 Q0300.0 QA 0.60 VS 4.20 3
 SPEC PAM SH Z MO 14.4 ST 15.8 OM  2.0 f0 3.59 R0.4095 AL 2.48 WI 17.9 MW  3.5 3
 SPEC PAM SH Z T 51936 K 0.000 GD  167 VP 7.60 DE 3.20 Q0300.0 QA 0.60 VS 4.20 3
 SPEC CHI HH N MO 14.5 ST  3.9 OM  2.7 f0 2.10 R0.7000 AL 1.94 WI 28.3 MW  3.6 3
 SPEC CHI HH N T 52011 K 0.000 GD  242 VS 4.20 DE 3.20 Q0300.0 QA 0.60 VS 4.20 3
 SPEC BRR HH N MO 14.6 ST 37.7 OM  3.1 f0 4.09 R0.3594 AL 3.42 WI 38.0 MW  3.7 3
 SPEC BRR HH N T 51944 K 0.000 GD  127 VS 4.20 DE 3.20 Q0300.0 QA 0.60 VS 4.20 3
 ACTION:UPD 13-04-09 13:58 OP:ep   STATUS:               ID:20130301051913 L   I
 2013-03-01-0518-45M.COL___196                                                 6
 STAT SP IPHASW D HRMM SECON CODA AMPLIT PERI AZIMU VELO AIN AR TRES W  DIS CAZ7
 BAR2 SZ IP        519 29.96                             159    0.3410 39.6  86 
 BAR2 SZ ES        519 42.18                             159    0.0510 39.6  86 
 BRR  HZ IP     D  519 30.63                             148    0.1310 62.4 342 
 BRR  HE ES        519 44.71                             148    1.0010 62.4 342 
 BRR  HN I         519 49.89      1107.6 0.20            151           62.4 342 
 RUS  HZ IP     D  519 32.83                             138   -0.4110 90.3 146 
 RUS  HN ES        519 48.29                             138   -0.2910 90.3 146 
 RUS  HE I         519 51.57       443.3 0.42            141           90.3 146 
 PTB  HZ IP     D  519 32.55                             134   -0.9710  101 268 
 PTB  HE ES        519 47.94                             134   -1.1410  101 268 
 PTB  HN I         519 51.71       748.2 0.34            135            101 268 
 PAM  SZ EP        519 36.59                             128    0.1810  126  47 
 PAM  SN ES        519 54.31                             128    0.0810  126  47 
 PAM  SE I         519 55.57       585.5 0.18            132            126  47 
 ZAR  HZ EP        519 41.49                             117    0.36 9  178 305 
 ZAR  HN ES        520  3.51                             117    0.88 9  178 305 
 ZAR  HE I         520  8.00       939.5 0.22            119            178 305 
 OCA  HZ EP        519 42.05                             116   -0.18 9  186   7 
 OCA  HE ES        520  4.58                             116    0.00 9  186   7 
 OCA  HN I         520  9.55      1106.7 0.24            119            186   7 
 TAM  HZ IP     C  519 42.81                             115   -0.13 9  194  94 
 TAM  HZ I         519 43.13       165.8 0.36            118            194  94 
 TAM  HN ES        520  5.02                             115   -0.83 9  194  94 
 ROSC BZ IP     D  519 45.81                             113    0.64 8  210 204 
 ROSC BN ES        520 10.56                             113    0.75 8  210 204 
 ROSC BZ I         520 15.96       151.3 0.35            115            210 204 
 CHI  HZ EP        519 45.55                             112   -0.29 8  216 186 
 CHI  HN ES        520 11.74                             112    0.73 8  216 186 
 CHI  HE I         520 16.77       141.4 0.38            114            216 186 
 HEL  HZ EP        519 46.55                             111   -0.18 8  224 259 
 HEL  HE ES        520 12.23                             111   -0.37 8  224 259 
 HEL  HN I         520 16.49       278.7 0.30            113            224 259 
 SML  HZ EP        519 49.45                             108   -0.21 8  254 347 
 SML  HN ES        520 17.98                             108    0.18 8  254 347 
 URE  HZ EP   1    519 48.79                             108   -1.17 6  256 301 
 URE  HN ES   1    520 16.60                             108   -1.74 6  256 301 
 RREF HZ EP        519 53.08                             107    0.45 8  272 227 
 VIL  SZ EP        519 51.57                             107   -0.44 8  272 184 
 VIL  SE ES   4    520 21.55                             107   -0.44 0  272 184 
 VIL  SN I         520 34.50       240.4 0.38            108            272 184 
 ANIL HE EP        519 57.91                             104    1.39 7  309 222 
 ANIL HE ES   4    520 32.57                             104    2.55 0  309 222 
 ANIL HE I         520 37.92       230.8 0.30            106            309 222 
 PRA  HZ EP        520  0.59                             102   -0.41 6  349 205 
 PRA  HN ES        520 38.23                             102    0.23 6  349 205 
 PAL  HZ EP        520  1.96                             101    0.21 6  355 239 
 COD  HZ EP        520  3.79                             101    0.10 6  372   2 
 COD  HE ES        520 43.51                             101    0.72 6  372   2 
 COD  HN I         520 49.40        72.4 0.30            103            372   2 
 GUA  SZ EP   4    520 12.15                              97   -1.70 0  456 167 
 GUA  SN ES   4    520 58.13                              97   -2.74 0  456 167 
                                                                                
