 2012  1 1 0718 24.4 L   7.291 -74.157  6.9  RSN  9 0.2 2.5LRSN                1
 GAP=115        0.55       2.2     1.3  3.9  0.2298E+00  0.5335E+00  0.4009E+01E
 Epicentro: PUERTO WILCHES - SANTANDER                                         3
 ACTION:UP  12-02-03 08:12 OP:REBC STATUS:               ID:20120101071824 L   I
 2012-01-01-0716-59S.COL___189                                                 6
 STAT SP IPHASW D HRMM SECON CODA AMPLIT PERI AZIMU VELO SNR AR TRES W  DIS CAZ7
 BRR  HZ IP     D  718 33.10                              93     0.110   53 112 
 BRR  HE ES   1    718 40.02                              93     0.2 7   53 112 
 BRR  HZ I         718 40.76       200.9 0.20                            53 112 
 ZAR  HZ EP        718 37.35                              92     0.210   81 286 
 ZAR  HE ES   1    718 47.10                              92    -0.1 7   81 286 
 ZAR  HZ I         718 48.03       147.1 0.10                            81 286 
 PTB  HZ EP   1    718 38.58                              92     0.0 7   89 202 
 PTB  HN ES   1    718 49.27                              92    -0.3 7   89 202 
 BAR2 SZ EP   1    718 45.56                              91     0.3 7  133 126 
 OCA  SZ EP   1    718 46.04                              91    -0.3 7  140  41 
 PAM  SZ EP        718 49.92                              91     0.0 9  161  88 
 PAM  SE ES   1    719  9.19                              91    -0.6 7  161  88 
 PAM  SZ I         719 11.39        76.8 0.41                           161  88 
 HEL  HZ EP   1    718 54.36                              56     0.2 6  194 231 
 HEL  HZ I         719 22.05        31.7 0.41                           194 231 
 RUS  HZ EP        718 54.52                              56     0.2 9  195 142 
 RUS  HE ES   1    719 17.73                              56     0.0 6  195 142 
 RUS  HZ I         719 19.53        42.2 0.60                           195 142 
 NOR  SZ EP   1    718 55.19                              56    -0.1 6  207 202 
 NOR  SN ES   1    719 19.12                              56    -0.3 6  207 202 
                                                                                
