 2016  4 1 0454 54.9 L   6.849 -73.120150.4  RSN 19 0.6 2.1LRSN                1
 GAP=120        1.28       3.5     4.2  6.4 -0.3508E+01  0.9014E+01 -0.1392E+01E
 Epicentro: LOS SANTOS - SANTANDER                                             3
 ACTION:UPD 16-05-05 14:17 OP:rebc STATUS:               ID:20160401045454 L   I
 OLDACT:REG 16-04-01 12:48 OP:ak   STATUS:               ID:20160401044745     3
 2016-04-01-0447-45M.COL___310                                                 6
 STAT SP IPHASW D HRMM SECON CODA AMPLIT PERI AZIMU VELO AIN AR TRES W  DIS CAZ7
 BAR2 EZ EP        455 15.56                             169    0.3310 29.3 194 
 BAR2 EZ ES        455 30.83                             169   -0.2510 29.3 194 
 BAR2 EZ I         455 31.79        26.0 0.22            167           29.3 194 
 PAM  EZ EP        455 18.26                             153    0.9810 71.3  41 
 PAM  EN ES        455 35.24                             153    0.5110 71.3  41 
 PAM  EZ I         455 37.38        25.4 0.52            157           71.3  41 
 RUS  HZ EP        455 19.45                             143   -0.0510  106 178 
 RUS  HN ES        455 38.43                             143   -0.2510  106 178 
 RUS  HZ I         455 40.04        23.7 0.32            144            106 178 
 PTB  HZ EP        455 21.81                             132   -0.81 9  152 257 
 PTB  HE ES        455 43.41                             132   -0.82 9  152 257 
 PTB  HZ I         455 45.71        18.5 0.12            131            152 257 
 OCA  HZ EP   2    455 22.13                             132   -0.99 5  155 352 
 OCA  HN ES        455 45.08                             132   -0.05 9  155 352 
 OCA  HZ I         455 49.98        34.6 0.20            132            155 352 
 SPBC HZ EP        455 24.35                             129    0.01 9  169 219 
 SPBC HN ES        455 46.53                             129   -0.76 9  169 219 
 SPBC HZ I         455 49.25        28.6 0.11            129            169 219 
 ZAR  HZ EP        455 28.25                             123    0.52 9  205 290 
 ZAR  HE ES        455 53.93                             123    0.59 9  205 290 
 ZAR  HZ I         456  0.23        10.3 0.24            123            205 290 
 NOR  HZ EP        455 31.45                             119   -0.05 8  240 234 
 NOR  HN ES        455 59.57                             119   -0.47 8  240 234 
 NOR  HZ I         456  4.71        11.6 0.18            119            240 234 
 CHI  HZ EP        455 33.71                             117    0.19 8  255 195 
 CHI  HN ES        456  3.47                             117   -0.17 8  255 195 
 CHI  HZ I         456  9.73         4.4 0.44            118            255 195 
 ROSC BZ EP   9    455 35.63                             117    1.68 0  259 211 
 ROSC BN ES        456  6.78                                    0.69 8  259 211 
 ROSC BZ I         456 10.45        10.3 0.45            117            259 211 
 HEL  HZ EP   2    455 35.99                             115    0.17 4  276 255 
 HEL  HN ES        456  8.76                             115    1.03 7  276 255 
 HEL  HZ I         456 14.28         7.9 0.32            115            276 255 
 URE  HZ EP        455 35.71                             114   -0.58 7  285 291 
 URE  HE ES   4    456  6.47                             114   -2.09 0  285 291 
 URE  HZ I         456 16.18         5.5 0.09            114            285 291 
 SOCV BZ EP        455 37.03                             113   -0.54 7  296  57 
 SOCV BN ES   4    456  8.70                             113   -2.14 0  296  57 
 GUY2CHZ EP        455 40.28                             113    0.92 7  307 234 
 GUY2CHN ES        456 14.53                             113    0.51 7  307 234 
 GUY2CHZ I         456 21.72         7.2 0.54                           307 234 
 ELA  HZ EP   4    455 44.50                             111    1.88 0  335 229 
 ELA  HN ES        456 20.84                             111    1.01 7  335 229 
 ELA  HZ I         456 29.37         4.5 0.34            111            335 229 
 CBOC HZ EP   2    455 43.13                             110    0.60 3  338 251 
 CBOC HN ES        456 19.69                             110    0.02 7  338 251 
 CBOC HZ I         456 29.49         2.1 0.34            111            338 251 
 MON  HZ EP        455 43.01                             109   -0.96 6  353 307 
 MON  HE ES        456 21.58                             109   -0.66 6  353 307 
 MON  HZ I         456 23.48         1.8 0.31            110            353 307 
 ANIL HN ES   4    456 28.40                             109    3.30 0  363 224 
 SJC  HZ EP   4    455 46.75                             107   -3.53 0  406 326 
 SJC  HN ES   4    456 31.07                             107   -2.40 0  406 326 
 SJC  HZ I         456 34.21         2.9 0.32            107            406 326 
 PAL  HZ EP        455 50.60                             106   -0.25 6  411 239 
 PAL  HE ES   4    456 33.20                             106   -1.28 0  411 239 
 PAL  HZ I         456 39.82         3.0 0.46            107            411 239 
                                                                                
