 2015  7 1 0456  9.2 L   6.806 -73.109138.0  RSN 11 0.5 2.3LRSN                1
 GAP=187        1.06       3.4     5.0  9.9  0.3857E+00  0.2160E+02  0.5757E+00E
 Epicentro: LOS SANTOS - SANTANDER                                             3
 ACTION:UPD 15-09-08 21:46 OP:cam  STATUS:               ID:20150701045609 L   I
 OLDACT:REG 15-07-01 14:21 OP:ar   STATUS:               ID:20150701044749     3
 2015-07-01-0447-49M.COL___322                                                 6
 STAT SP IPHASW D HRMM SECON CODA AMPLIT PERI AZIMU VELO AIN AR TRES W  DIS CAZ7
 BAR2 EZ EP        456 28.08                             169    0.1710 25.0 199 
 BAR2 EZ I         456 44.07        58.4 0.20            171           25.0 199 
 RUS  HZ EP        456 32.09                             142   -0.1110  101 178 
 RUS  HN ES        456 50.52                             142    0.3610  101 178 
 RUS  HZ I         456 51.25        28.0 0.20            145            101 178 
 OCA  HZ EP        456 36.77                             128   -0.11 9  160 352 
 OCA  HN ES        456 58.10                             128   -0.39 9  160 352 
 OCA  HZ I         457  3.67        45.6 0.28            130            160 352 
 ZAR  HN ES        457  7.46                             120    0.75 8  208 292 
 NOR  HE ES        457 11.77                             116   -0.94 8  238 235 
 NOR  HZ I         457 18.84        17.0 0.16            119            238 235 
 CHI  HZ EP        456 46.42                             115   -0.22 8  250 196 
 CHI  HN ES        457 15.36                             115   -0.51 8  250 196 
 CHI  HZ I         457 18.66         5.7 0.24            118            250 196 
 HEL  HZ EP   4    456 46.22                             113   -3.24 0  276 256 
 HEL  HE ES   2    457 19.98                             113   -0.91 4  276 256 
 URE  HN ES   2    457 21.11                             112   -1.23 4  287 291 
 URE  HZ I         457 22.25        20.2 0.14            114            287 291 
 GUY2CHZ EP        456 53.84                             110    0.98 7  305 235 
 GUY2CHN ES        457 27.66                             110    0.73 7  305 235 
 GUY2CHZ I         457 35.94         9.8 0.36                           305 235 
 CBOC HZ EP        456 56.35                             108    0.10 7  338 252 
 CBOC HN ES        457 32.69                             108   -0.28 7  338 252 
 CBOC HZ I         457 35.94         5.1 0.24            110            338 252 
 DBB  SZ EP        456 56.75                             108   -0.06 7  343 274 
 DBB  SZ ES        457 34.09                             108    0.12 7  343 274 
                                                                                
