 2017  6 1 0640 30.2 L   6.762 -73.130148.4  RSN  6 0.1 1.5LRSN                1
 GAP=236        0.33       2.0     2.3  3.9  0.2226E+01 -0.6740E+00 -0.9049E+00E
 Epicentro: LOS SANTOS - SANTANDER                                             3
 ACTION:UPD 17-09-14 16:48 OP:jn   STATUS:               ID:20170601064030 L   I
 OLDACT:REG 17-06-01 12:50 OP:and  STATUS:               ID:20170601063741     3
 2017-06-01-0638-00M.COL___344                                                 6
 STAT SP IPHASW D HRMM SECON CODA AMPLIT PERI AZIMU VELO AIN AR TRES W  DIS CAZ7
 BRR  HZ EP        640 51.83                             152    0.0110 74.8 301 
 BRR  HE ES        641  8.72                             152    0.0210 74.8 301 
 BRR  HZ I         641 12.91         4.6 0.12            152           74.8 301 
 RUS  HZ EP        640 53.85                             146   -0.0410 96.3 177 
 RUS  HN ES        641 12.38                             146   -0.0010 96.3 177 
 RUS  HZ I         641 13.57         1.5 0.24            158           96.3 177 
 PTB  HN ES        641 18.56                             132   -0.16 9  149 261 
 SPBC HE ES        641 21.03                             130    0.11 9  161 220 
 ZAR  HZ EP   4    641  5.94                             122    2.81 0  207 293 
 ZAR  HN ES        641 28.90                             122    0.07 8  207 293 
 ZAR  HZ I         641 37.25         3.9 0.36            127            207 293 
 ROSC BZ EP   4    641 21.83                             117   13.68 0  250 212 
 ROSC BE ES   4    641 27.23                             117   -10.5 0  250 212 
 ROSC BZ I         641 27.84         5.1 0.10            126            250 212 
                                                                                
