 2013  7 1 0846  7.1 L   6.811 -73.145144.0  RSN 23 0.5 3.2LRSN                1
 GAP= 48        1.17       2.6     2.9  4.8 -0.7634E+00  0.2123E+01  0.2081E+01E
 Epicentro: LOS SANTOS - SANTANDER                                             3
 ACTION:UPD 13-08-12 10:34 OP:ep   STATUS:               ID:20130701084607 L   I
 OLDACT:UP  13-07-02 02:36 OP:CAM  STATUS:               ID:20130701084607 L   3
 OLDACT:REG 13-07-01 09:11 OP:stll STATUS:               ID:20130701083836     3
 2013-07-01-0838-36M.COL___230                                                 6
 STAT SP IPHASW D HRMM SECON CODA AMPLIT PERI AZIMU VELO AIN AR TRES W  DIS CAZ7
 BAR2 SZ IP     C  846 26.52                             170   -0.0410 24.5 190 
 BAR2 SZ ES        846 41.08                             170   -0.6410 24.5 190 
 GIR2 SZ EP        846 26.66                             168    0.1210 30.1 350 
 BRR  HZ IP     D  846 28.46                             152    0.4210 70.7 298 
 BRR  HN ES        846 45.19                             152    0.8210 70.7 298 
 BRR  HZ I         846 46.33       193.8 0.16            147           70.7 298 
 PAM  SZ EP        846 29.46                             151    0.3810 76.4  40 
 PAM  SZ I         846 29.81       336.3 0.22            150           76.4  40 
 PAM  SN ES        846 46.43                             151    0.2210 76.4  40 
 RUS  HZ EP        846 30.50                             143   -0.2810  102 176 
 RUS  HN ES        846 48.93                             143   -0.3110  102 176 
 RUS  HZ I         846 50.62       162.0 0.40            141            102 176 
 PTB  HZ EP        846 33.04                             131   -0.93 9  148 258 
 PTB  HN ES        846 53.89                             131   -1.02 9  148 258 
 PTB  HZ I         846 58.02       134.7 0.18            127            148 258 
 CAPV BZ EP        846 34.77                             132    0.50 9  148  38 
 CAPV BZ ES        846 55.43                             132   -0.02 9  148  38 
 TAM  HZ IP     D  846 34.93                             130    0.26 9  155 105 
 TAM  HZ I         846 35.08       198.8 0.20            129            155 105 
 TAM  HN ES        846 56.36                             130    0.19 9  155 105 
 OCA  HZ EP        846 35.02                             129   -0.15 9  159 353 
 OCA  HN ES        846 56.53                             129   -0.53 9  159 353 
 OCA  HN I         847  1.27       560.1 0.22            126            159 353 
 YOP  SZ EP        846 37.28                             126    0.15 9  180 154 
 YOP  SN ES        847  1.20                             126    0.65 9  180 154 
 YOP  SZ I         847  1.63       114.4 0.32            124            180 154 
 ZAR  HZ EP        846 39.62                             122    0.22 9  204 292 
 ZAR  HE ES        847  5.04                             122    0.45 9  204 292 
 AGZ  SZ EP        846 40.83                             120   -0.35 8  221 160 
 AGZ  SZ ES   4    847  4.94                             120   -2.81 0  221 160 
 SML  HN EP        846 43.19                             117   -0.33 8  243 335 
 CHI  HZ EP        846 44.85                             117    0.01 8  250 195 
 CHI  HN ES        847 13.40                             117   -0.87 8  250 195 
 ROSC BZ EP        846 46.06                             116    0.81 8  254 211 
 ROSC BE ES        847 15.26                             116    0.25 8  254 211 
 HEL  HZ EP        846 47.18                             114   -0.10 8  272 256 
 HEL  HE I         847 25.71        71.4 0.56            111            272 256 
 SOCV BZ EP        846 49.11                             112   -0.89 7  301  57 
 GUY2CHZ EP        846 51.12                             112    0.39 7  302 235 
 GUY2CHE I         847 34.56        57.2 0.38                           302 235 
 RREF HZ EP     D  846 53.46                             110    0.18 7  323 229 
 RREF HN ES        847 30.06                             110    0.78 7  323 229 
 DBB  SZ EP        846 54.76                             109    0.24 7  339 274 
 PRA  HZ EP        847  0.46                             106   -0.24 6  393 209 
 PRA  HN ES        847 42.60                             106    0.10 6  393 209 
 ELOV BZ EP        847  1.02                             105   -1.04 6  405  87 
 PAL  HZ EP        847  2.70                             105    0.40 6  406 239 
                                                                                
