 2017  9 1 0440 52.6 L   6.786 -73.094140.7  RSN  4 0.3 1.7LRSN                1
 GAP=242        0.72       7.9     9.1  5.7  0.5991E+02  0.7360E+00 -0.5905E+01E
 Epicentro: LOS SANTOS - SANTANDER                                             3
 ACTION:UPD 17-10-05 19:07 OP:rebc STATUS:               ID:20170901044052 L   I
 OLDACT:REG 17-09-01 13:02 OP:dani STATUS:               ID:20170901043739     3
 2017-09-01-0438-00M.COL___404                                                 6
 STAT SP IPHASW D HRMM SECON CODA AMPLIT PERI AZIMU VELO AIN AR TRES W  DIS CAZ7
 BAR2 EZ EP        441 11.40                             170   -0.2510 23.5 204 
 BAR2 EZ ES        441 26.23                             170   -0.2610 23.5 204 
 BAR2 EZ I         441 27.95        13.8 0.20            160           23.5 204 
 BRR  HZ EP        441 13.47                             150   -0.1010 76.9 298 
 BRR  HN ES        441 30.38                             150    0.4710 76.9 298 
 BRR  HZ I         441 31.39         8.2 0.18            143           76.9 298 
 RUS  HZ EP        441 16.11                             143    0.3610 98.8 179 
 RUS  HN ES        441 33.74                             143   -0.0410 98.8 179 
 RUS  HZ I         441 34.45         7.3 0.24            140           98.8 179 
 ZAR  HZ EP        441 25.37                             120    0.02 8  210 292 
 ZAR  HN ES        441 50.60                             120   -0.29 8  210 292 
 ZAR  HZ I         441 58.12         4.7 0.27            118            210 292 
                                                                                
