 2011  7 1 0756 43.0 L   6.767 -73.098145.8  RSN  6 0.2 1.5LRSN                1
 GAP=164        0.48       2.5     8.6  5.1 -0.3349E+01  0.4616E+01 -0.4594E+01E
 Epicentro: LOS SANTOS - SANTANDER                                             3
 ACTION:UPD 12-07-25 13:57 OP:epov STATUS:               ID:20110701075643 L   I
 2011-07-01-0755-45S.COL___140                                                 6
 STAT SP IPHASW D HRMM SECON CODA AMPLIT PERI AZIMU VELO AIN AR TRES W  DIS CAZ7
 BAR2 SZ EP        757  2.43                             171   -0.1210 21.4 206 
 BAR2 SZ ES   1    757 18.12                             171    0.29 7 21.4 206 
 GIR2 SZ EP        757  2.68                             165   -0.0910 36.1 343 
 BRR  HZ EP   1    757  4.34                             150   -0.13 7 77.6 299 
 RUS  HZ EP   1    757  6.32                             145   -0.11 7 96.7 179 
 RUS  HN ES   1    757 24.68                             145   -0.06 7 96.7 179 
 RUS  HZ I         757 25.63         2.7 0.14                          96.7 179 
 GRA  SZ EP        757  8.69                             136    0.3210  128  15 
 GRA  SZ I         757 10.09         5.6 0.31                           128  15 
 GRA  SZ ES   1    757 27.83                             136   -0.37 7  128  15 
 OCA  SZ EP        757 11.80                             129    0.12 9  165 351 
 OCA  SZ ES   1    757 34.08                             129    0.00 7  165 351 
 OCA  SZ I         757 38.41         6.2 0.16                           165 351 
                                                                                
