 2010  4 1 0405 19.3 L   6.808 -73.041150.5  RSN 12 0.6 2.9LRSN                1
 GAP=149        1.04       5.0     7.3  8.1 -0.1797E+02 -0.8438E+01  0.1411E+02E
 Epicentro: LOS SANTOS - SANTANDER                                             3
 ACTION:UPD 10-08-24 09:57 OP:vdl  STATUS:               ID:20100401040519 L   I
 2010-04-01-0403-52S.COL___098                                                 6
 STAT SP IPHASW D HRMM SECON CODA AMPLIT PERI AZIMU VELO AIN AR TRES W  DIS CAZ7
 BAR2 SZ IP        4 5 39.48                             169    -0.110   29 213 
 BAR2 SZ ES   2    4 5 54.67                             169    -0.8 5   29 213 
 BRR  HZ IP        4 5 41.53                             149     0.010   81 294 
 BRR  HZ I         4 5 41.84       310.0 0.18                            81 294 
 BRR  HN ES   1    4 5 59.20                             149     0.3 7   81 294 
 OCA  SZ EP        4 5 47.86                             130    -0.2 9  161 349 
 OCA  SZ ES   1    4 6 10.76                             130     0.3 7  161 349 
 OCA  SZ I         4 6 15.73       254.3 0.42                           161 349 
 CHI  HZ EP   1    4 5 57.38                             117    -0.3 6  253 198 
 CHI  HE ES   2    4 6 26.44                             117    -1.2 4  253 198 
 CHI  HZ I         4 6 32.75        25.9 0.26                           253 198 
 ROSC BZ EP        4 5 59.06                             117     0.7 8  260 213 
 ROSC BN ES   1    4 6 29.60                             117     0.7 6  260 213 
 ROSC BZ I         4 6 33.20        48.5 0.46                           260 213 
 HEL  HZ EP        4 6  0.64                             114    -0.3 7  284 256 
 HEL  HE ES   2    4 6 33.10                             114    -0.4 4  284 256 
 HEL  HZ I         4 6 38.15        31.8 0.28                           284 256 
 RREF BZ EP        4 6  6.61                             111    -0.1 7  331 231 
 RREF BN ES   2    4 6 44.08                             111     0.4 3  331 231 
 RREF BZ I         4 6 48.91        38.7 0.54                           331 231 
 SDV  BZ EP        4 6  8.76                             109     0.4 6  351  49 
 SDV  BZ I         4 6 16.25         9.7 0.09                           351  49 
 SDV  B2 ES   2    4 6 46.76                             109     0.0 3  351  49 
 DBB  SZ EP        4 6  7.16                             109    -1.1 6  351 274 
 TOL  SZ EP        4 6  9.75                             109     1.0 6  352 226 
 TOL  SZ ES   2    4 6 48.38                             109     1.1 3  352 226 
 ANIL BZ EP   2    4 6 10.25                             108     0.0 3  366 226 
 PRA  HZ EP        4 6 13.05                             107    -0.7 6  399 211 
 PRA  HE ES   2    4 6 55.82                             107    -0.4 3  399 211 
 PRA  HZ I         4 7  0.16        25.4 0.36                           399 211 
                                                                                
