 2011  6 1 0808 44.0 L   6.793 -73.116145.8  RSN 18 0.3 3.2LRSN                1
 GAP=128        0.60       2.4     3.6  3.2 -0.4403E+01  0.2023E+01  0.9817E+00E
 Epicentro: LOS SANTOS - SANTANDER                                             3
 ACTION:UP  11-07-14 19:02 OP:ep   STATUS:               ID:20110601080844 L   I
 2011-06-01-0805-50S.COL___114                                                 6
 STAT SP IPHASW D HRMM SECON CODA AMPLIT PERI AZIMU VELO SNR AR TRES W  DIS CAZ7
 BTL  SZ EP   1    8 9  3.75                             171     0.1 8   22 310 
 BTL  SZ ES   1    8 9 18.69                             171    -0.3 8   22 310 
 BAR2 SZ IP   1    8 9  3.71                             170     0.0 8   23 198 
 BAR2 SZ ES   1    8 9 18.86                             170    -0.1 8   23 198 
 BAR2 SZ I         8 9 20.23       234.3 0.42                            23 198 
 GIR2 SZ EP   1    8 9  3.67                             167    -0.1 8   33 345 
 GIR2 SZ ES   2    8 9 18.73                             167    -0.4 5   33 345 
 BRR  HZ EP   1    8 9  5.46                             152     0.1 8   74 298 
 BRR  HE ES   1    8 9 22.57                             152     0.5 8   74 298 
 BRR  HZ I         8 9 25.95       382.0 0.17                            74 298 
 PAM  SZ EP   1    8 9  6.46                             151     0.3 8   76  37 
 PAM  SE ES   1    8 9 23.52                             151     0.1 8   76  37 
 RUS  HZ EP   1    8 9  7.78                             144     0.0 8  100 178 
 RUS  HZ I         8 9  9.10       139.7 0.15                           100 178 
 RUS  HN ES   1    8 9 26.19                             144     0.0 8  100 178 
 BRI  SZ IP   1    8 9  8.13                             141     0.2 8  108  19 
 BRI  SZ ES   1    8 9 26.89                             141     0.4 8  108  19 
 BRI  SZ I         8 9 29.71       212.3 0.39                           108  19 
 GUE  SZ EP   1    8 9  8.65                             139    -0.1 8  117  10 
 GUE  SZ ES   2    8 9 27.43                             139    -0.6 5  117  10 
 GRA  SZ IP        8 9  9.38                             137     0.110  126  16 
 GRA  SZ ES   1    8 9 28.95                             137     0.0 7  126  16 
 GRA  SZ I         8 9 30.20       315.4 0.28                           126  16 
 OCA  SZ EP   1    8 9 12.06                             129    -0.4 7  161 352 
 OCA  SZ ES   2    8 9 34.41                             129    -0.2 5  161 352 
 OCA  SZ I         8 9 38.40       240.6 0.20                           161 352 
 NOR  SZ EP   1    8 9 19.86                             118    -0.2 6  237 235 
 NOR  SE ES   1    8 9 47.38                             118    -0.7 6  237 235 
 HEL  HZ EP   1    8 9 24.30                             114    -0.3 6  275 256 
 HEL  HE ES   2    8 9 56.34                             114     0.1 4  275 256 
 HEL  HZ I         810  3.24       128.3 0.41                           275 256 
 VIL  SZ EP   1    8 9 27.40                             112    -0.1 6  303 192 
 VIL  SN ES   2    810  1.67                             112     0.4 4  303 192 
 VIL  SZ I         810 12.63        83.2 0.41                           303 192 
 GUY  SZ EP   1    8 9 28.57                             112     0.4 5  306 236 
 GUY  SZ I         810 10.03        82.7 0.39                           306 236 
 DBB  SZ EP   1    8 9 32.24                                     0.3 5  343 274 
 TOL  SZ EP   1    8 9 32.95                             109     0.4 5  345 225 
 SDV  BZ EP   1    8 9 33.15                                    -0.7 5  358  50 
 SDV  BZ I         8 9 34.05        51.4 0.18                           358  50 
 PRA  HZ EP   1    8 9 37.49                             106    -0.2 5  393 210 
 PRA  HE ES   1    810 19.77                             106     0.3 5  393 210 
                                                                                
