 2013  1 1 0420  3.3 L   6.799 -73.107143.8  RSN 13 0.5 3.2LRSN 3.5WRSN        1
 SPEC AVERAGE  MO 14.3 ST  9.6 OM  3.0 f0 2.79 R0.5604 AL 1.90 WI 29.2 MW  3.5 3
 SPEC SD       MO  0.2 ST  9.0 OM  0.6 f00.714 R0.1288 AL      WI      MW  0.1 3
 GAP=129        1.12       3.1     5.2  5.8  0.3807E+00  0.2341E+01  0.2233E+01E
 Epicentro: LOS SANTOS - SANTANDER                                             3
 SPEC RUS HH N MO 14.0 ST  1.8 OM  2.4 f0 2.34 R0.6282 AL 1.46 WI 30.4 MW  3.3 3
 SPEC RUS HH N T 42043 K 0.000 GD  175 VS 4.20 DE 3.00 Q0230.0 QA 0.60 VS 4.20 3
 SPEC MON HH N MO 14.3 ST 14.7 OM  2.3 f0 3.90 R0.3769 AL 1.66 WI 26.7 MW  3.4 3
 SPEC MON HH N T 42127 K 0.000 GD  384 VS 4.20 DE 3.00 Q0230.0 QA 0.60 VS 4.20 3
 SPEC HEL HH N MO 14.3 ST  2.3 OM  2.4 f0 2.09 R0.7033 AL 1.48 WI 24.5 MW  3.5 3
 SPEC HEL HH N T 42113 K 0.000 GD  311 VS 4.20 DE 3.00 Q0230.0 QA 0.60 VS 4.20 3
 SPEC CHI HH N MO 14.4 ST  4.2 OM  2.6 f0 2.24 R0.6562 AL 2.03 WI 33.9 MW  3.6 3
 SPEC CHI HH N T 421 8 K 0.000 GD  288 VS 4.20 DE 3.00 Q0230.0 QA 0.60 VS 4.20 3
 SPEC BRR HH N MO 14.7 ST 25.0 OM  3.1 f0 3.36 R0.4375 AL 2.85 WI 30.5 MW  3.7 3
 SPEC BRR HH N T 42041 K 0.000 GD  162 VS 4.20 DE 3.00 Q0230.0 QA 0.60 VS 4.20 3
 ACTION:UPD 13-02-15 09:11 OP:ep   STATUS:               ID:20130101042003 L   I
 2013-01-01-0420-00M.COL___242                                                 6
 STAT SP IPHASW D HRMM SECON CODA AMPLIT PERI AZIMU VELO AIN AR TRES W  DIS CAZ7
 BAR2 SZ IP        420 23.04                             170    0.3710 24.3 200 
 BAR2 SZ ES        420 37.66                             170   -0.1610 24.3 200 
 BAR2 SZ I         420 38.77       240.6 0.36            162           24.3 200 
 BRR  HZ IP     D  420 24.97                             151    0.5510 75.0 297 
 BRR  HN ES        420 41.63                             151    0.7110 75.0 297 
 BRR  HN I         420 46.01       643.3 0.18            141           75.0 297 
 RUS  HZ IP     C  420 27.03                             144    0.2410  100 178 
 RUS  HE ES        420 45.18                             144    0.0310  100 178 
 RUS  HN I         420 47.06       143.0 0.22            139            100 178 
 PTB  HZ EP        420 29.77                             131   -0.68 9  152 259 
 PTB  HN ES   1    420 51.10                             131   -0.56 7  152 259 
 OCA  HZ EP        420 31.39                             129   -0.09 9  161 352 
 OCA  HN ES        420 52.72                             129   -0.78 9  161 352 
 OCA  HN I         420 57.54       476.1 0.18            124            161 352 
 ZAR  HZ EP        420 36.00                             121    0.01 8  208 292 
 ZAR  HN ES        421  1.77                             121    0.25 8  208 292 
 ZAR  HN I         421  8.48       163.2 0.32            115            208 292 
 CHI  HZ EP        420 41.37                             117    0.41 8  250 196 
 CHI  HN ES        421  9.92                             117   -0.45 8  250 196 
 CHI  HN I         421 13.98        74.7 0.32            112            250 196 
 ROSC BE ES        421 10.32                             116   -1.02 8  255 212 
 HEL  HZ EP        420 43.67                             114   -0.16 7  276 256 
 HEL  HN I         421 22.89        31.8 0.52            109            276 256 
 VIL  SZ EP        420 47.32                             112    0.65 7  304 192 
 VIL  SN ES        421 20.33                             112   -0.21 7  304 192 
 VIL  SN I         421 28.44       133.0 0.48            108            304 192 
 SDV  BZ EP        420 52.38                             108   -0.47 6  357  50 
 MON  HZ EP   4    420 50.85                             108   -1.73 0  357 308 
 MON  HN ES   4    421 29.26                             108   -1.79 0  357 308 
 MON  HN I         421 31.82        29.6 0.38            104            357 308 
 ANIL HZ EP        420 53.89                             108    0.57 6  360 225 
 ANIL HN ES        421 32.73                             108    0.35 6  360 225 
 ANIL HN I         421 41.65        51.7 0.28            104            360 225 
                                                                                
