 2016  9 1 0612  4.1 L   6.786 -73.106139.1  RSN  9 0.5 1.9LRSN                1
 GAP=187        1.23       4.3     6.2  7.5  0.2125E+01  0.7813E+01 -0.3929E+01E
 Epicentro: LOS SANTOS - SANTANDER                                             3
 ACTION:UPD 17-08-17 21:05 OP:lp   STATUS:               ID:20160901061204 L   I
 OLDACT:UP  16-09-01 17:30 OP:drio STATUS:               ID:20160901060739     3
 OLDACT:UP  16-09-01 17:24 OP:drio STATUS:               ID:20160901060739     3
 OLDACT:REG 16-09-01 12:53 OP:drio STATUS:               ID:20160901060739     3
 2016-09-01-0608-00M.COL___358                                                 6
 STAT SP IPHASW D HRMM SECON CODA AMPLIT PERI AZIMU VELO AIN AR TRES W  DIS CAZ7
 BAR2 EZ EP        612 23.14                             170    0.2210 23.0 201 
 BAR2 EZ ES        612 37.25                             170   -0.3510 23.0 201 
 BAR2 EZ I         612 38.80        26.2 0.20            167           23.0 201 
 BRR  HZ EP        612 24.94                             150    0.1410 75.8 298 
 BRR  HN ES        612 41.94                             150    0.9910 75.8 298 
 BRR  HZ I         612 46.04        18.7 0.12            147           75.8 298 
 RUS  HZ EP        612 27.33                             143    0.2610 98.9 179 
 RUS  HE ES        612 45.18                             143    0.1910 98.9 179 
 RUS  HZ I         612 47.01         6.4 0.48            145           98.9 179 
 PTB  HZ EP        612 30.22                             130   -0.68 9  152 260 
 PTB  HE ES        612 51.18                             130   -0.63 9  152 260 
 PTB  HZ I         612 53.26         9.0 0.14            129            152 260 
 OCA  HZ EP        612 31.80                             128   -0.30 9  162 352 
 OCA  HE ES        612 53.39                             128   -0.55 9  162 352 
 OCA  HZ I         612 56.60        20.9 0.32            129            162 352 
 SPBC HZ EP        612 32.31                             127    0.06 9  165 221 
 SPBC HN ES        612 53.66                             127   -0.55 9  165 221 
 SPBC HZ I         612 58.51        11.3 0.40            127            165 221 
 ZAR  HZ EP        612 36.75                             120    0.15 8  209 292 
 ZAR  HN ES        613  2.24                             120    0.29 8  209 292 
 ZAR  HZ I         613  7.92         9.4 0.12            120            209 292 
 HEL  HZ EP        612 45.27                             113    0.86 7  276 256 
 HEL  HN ES   4    613 14.35                             113   -1.51 0  276 256 
 HEL  HZ I         613 24.67         2.9 0.24            114            276 256 
 GUY2CHZ EP   4    612 49.29                             111    1.58 0  304 235 
 GUY2CHN ES   4    613 24.42                             111    2.69 0  304 235 
 GUY2CHZ I         613 28.53         4.0 0.26                           304 235 
                                                                                
