 2013  4 1 0648 11.2 L   6.837 -73.165146.4  RSN  8 0.4 1.6LRSN                1
 GAP=181        0.83       3.6     5.2  6.3  0.4671E+01  0.9778E+01 -0.9918E+00E
 Epicentro: LOS SANTOS - SANTANDER                                             3
 ACTION:UPD 13-05-22 14:35 OP:EP   STATUS:               ID:20130401064811 L   I
 2013-04-01-0646-50M.COL___209                                                 6
 STAT SP IPHASW D HRMM SECON CODA AMPLIT PERI AZIMU VELO AIN AR TRES W  DIS CAZ7
 BAR2 SZ EP        648 30.71                             169   -0.2510 27.1 184 
 BAR2 SZ ES        648 46.72                             169    0.3310 27.1 184 
 BAR2 SZ I         648 47.12         9.3 0.24            169           27.1 184 
 BRR  HZ EP        648 32.67                             154    0.4910 67.4 296 
 BRR  HN ES   1    648 48.97                             154    0.40 7 67.4 296 
 BRR  HZ I         648 53.29         7.8 0.16            150           67.4 296 
 RUS  HZ EP        648 35.46                             143    0.1710  105 175 
 RUS  HN ES        648 53.75                             143   -0.3510  105 175 
 RUS  HZ I         648 54.79         2.9 0.19            146            105 175 
 PTB  HZ EP        648 37.68                             132   -0.40 9  146 257 
 PTB  HN ES   1    648 58.51                             132   -0.55 7  146 257 
 PTB  HZ I         649  2.25         5.1 0.13            132            146 257 
 OCA  HN ES   1    649  0.31                             131   -0.63 7  156 354 
 OCA  HZ I         649  4.92         4.3 0.20            132            156 354 
 ZAR  HZ EP   1    648 43.65                             123    0.35 6  201 291 
 ZAR  HN ES   1    649  8.64                             123    0.29 6  201 291 
 ZAR  HZ I         649 14.59         9.1 0.34            123            201 291 
 NOR  HZ EP   1    648 47.35                             119    0.34 6  235 233 
 NOR  HN ES   1    649 14.88                             119   -0.08 6  235 233 
 NOR  HZ I         649 20.55         4.1 0.32            120            235 233 
 SML  HE ES   1    649 15.38                             118   -0.17 6  239 335 
                                                                                
