 2013  2 1 0618 46.6 L   6.790 -73.128149.2  RSN  7 0.4 1.7LRSN                1
 GAP=139        0.95       3.9     4.3  6.9  0.5366E+00  0.5487E+01 -0.1317E+00E
 Epicentro: LOS SANTOS - SANTANDER                                             3
 ACTION:UPD 13-03-12 09:29 OP:ep   STATUS:               ID:20130201061846 L   I
 2013-02-01-0617-50M.COL___158                                                 6
 STAT SP IPHASW D HRMM SECON CODA AMPLIT PERI AZIMU VELO AIN AR TRES W  DIS CAZ7
 BAR2 SZ EP        619  6.54                             171   -0.1210 22.6 195 
 BAR2 SZ ES        619 22.05                             171   -0.2310 22.6 195 
 BAR2 SZ I         619 22.90         5.7 0.28            171           22.6 195 
 BRR  HZ EP        619  8.44                             152    0.1710 73.4 299 
 BRR  HN ES        619 24.98                             152   -0.1810 73.4 299 
 BRR  HN I         619 28.64        14.4 0.16            152           73.4 299 
 PAM  SZ EP        619  9.41                             151    0.2210 77.0  38 
 PAM  SN ES        619 26.37                             151   -0.4110 77.0  38 
 PAM  SN I         619 27.31         9.5 0.44            154           77.0  38 
 RUS  HZ EP        619 10.21                             145   -0.4210 99.3 177 
 RUS  HN ES        619 30.13                             145    0.7810 99.3 177 
 RUS  HN I         619 32.83         2.0 0.38            146           99.3 177 
 PTB  HZ EP        619 13.74                             132   -0.29 9  149 259 
 PTB  HN ES        619 35.23                             132   -0.17 9  149 259 
 PTB  HN I         619 36.48         6.0 0.22            133            149 259 
 OCA  HN ES        619 38.19                             130    0.47 9  162 353 
 OCA  HN I         619 39.44        11.7 0.64            132            162 353 
 ZAR  HN ES        619 45.44                             123    0.25 8  206 292 
 ZAR  HN I         619 50.04        10.8 0.32            124            206 292 
                                                                                
