 2015  5 1 0257 24.4 L   6.812 -73.118149.9  RSN 23 0.4 2.6LRSN                1
 GAP= 67        0.94       2.6     2.7  4.8 -0.4697E+00  0.3344E+01  0.2693E+01E
 Epicentro: LOS SANTOS - SANTANDER                                             3
 ACTION:UPD 15-09-10 22:00 OP:cam  STATUS:               ID:20150501025724 L   I
 OLDACT:UP  15-05-12 20:50 OP:spq  STATUS:               ID:20150501024748     3
 OLDACT:REG 15-05-11 17:07 OP:spq  STATUS:               ID:20150501024748     3
 2015-05-01-0247-48M.COL___276                                                 6
 STAT SP IPHASW D HRMM SECON CODA AMPLIT PERI AZIMU VELO AIN AR TRES W  DIS CAZ7
 BAR2 EZ IP     C  257 44.45                             170   -0.1410 25.3 196 
 BAR2 EZ ES   1    258  0.23                             170   -0.09 7 25.3 196 
 BAR2 EZ I         258  1.23        71.9 0.46            168           25.3 196 
 BRR  HZ IP     C  257 46.31                             153    0.1710 73.3 296 
 BRR  HN ES        258  3.80                             153    0.7310 73.3 296 
 BRR  HZ I         258  7.52        57.1 0.16            148           73.3 296 
 PAM  SZ EP     C  257 47.20                             152    0.2910 74.4  38 
 PAM  SE ES        258  4.37                             152   -0.0810 74.4  38 
 PAM  SZ I         258  5.10        25.0 0.34            154           74.4  38 
 RUS  HZ EP        257 48.32                             144   -0.3510  102 178 
 RUS  HN ES        258  7.29                             144   -0.2910  102 178 
 RUS  HZ I         258  8.12        44.7 0.26            144            102 178 
 TAM  HZ EP        257 52.65                             132    0.45 9  153 106 
 TAM  HN ES        258 14.40                             132    0.54 9  153 106 
 TAM  HZ I         258 15.02        20.0 0.48            134            153 106 
 OCA  HZ EP   1    257 53.15                             131    0.17 7  159 352 
 OCA  HE ES        258 14.64                             131   -0.60 9  159 352 
 OCA  HZ I         258 20.37       109.8 0.18            129            159 352 
 SPBC HZ EP        257 53.29                             129   -0.24 9  166 220 
 SPBC HN ES        258 15.79                             129   -0.43 9  166 220 
 SPBC HZ I         258 20.05        63.6 0.16            127            166 220 
 ZAR  HZ EP   1    257 57.08                             123   -0.30 6  206 291 
 ZAR  HE ES        258 22.81                             123   -0.28 8  206 291 
 ZAR  HZ I         258 28.57        85.4 0.30            120            206 291 
 NOR  HZ EP        258  0.35                             119   -0.40 8  238 235 
 NOR  HN ES        258 29.15                             119    0.07 8  238 235 
 NOR  HZ I         258 33.77        31.7 0.32            117            238 235 
 SML  HZ EP   1    258  0.87                             118   -0.43 6  244 335 
 SML  HN ES   1    258 29.67                             118   -0.38 6  244 335 
 SML  HZ I         258 37.12        37.7 0.28            117            244 335 
 CHI  HZ EP   1    258  2.65                             118    0.06 6  251 196 
 CHI  HN ES   1    258 31.65                             118   -0.70 6  251 196 
 CHI  HZ I         258 41.80        17.3 0.34            117            251 196 
 ROSC BZ EP   4    258  4.46                             117    1.39 0  255 211 
 ROSC BN ES   4    258 34.86                             117    1.64 0  255 211 
 ROSC BZ I         258 37.91        41.7 0.40            116            255 211 
 HEL  HZ EP   4    258  6.78                             115    1.56 0  275 256 
 HEL  HE ES        258 37.35                             115    0.32 7  275 256 
 HEL  HZ I         258 43.70        19.2 0.56            114            275 256 
 GUY2CHZ EP        258  9.08                             113    0.48 7  304 235 
 GUY2CHE ES   4    258 45.76                             113    2.71 0  304 235 
 GUY2CHZ I         258 53.26        26.5 0.48                           304 235 
 LL2C HZ EP   4    258  9.27                             113    1.18 0  305 353 
 LL2C HN ES   4    258 43.94                             113    1.80 0  305 353 
 LL2C HZ I         258 51.20        30.1 0.24            112            305 353 
 PTGC HZ EP        258  7.46                             112   -1.03 7  309 159 
 PTGC HN ES   4    258 40.86                             112   -2.00 0  309 159 
 PTGC HZ I         258 43.38        24.4 0.34            112            309 159 
 RREF HZ EP        258 11.75                             111    0.63 7  325 230 
 RREF HN ES   4    258 50.09                             111    2.56 0  325 230 
 RREF HZ I         258 56.19        13.1 0.32            110            325 230 
 CBOC HZ EP        258 12.56                             110    0.66 7  337 252 
 CBOC HE ES   1    258 48.95                             110    0.03 5  337 252 
 CBOC HZ I         258 59.21         8.4 0.46            109            337 252 
 TOL  SZ EP   4    258 14.24                             110    1.03 0  347 225 
 TOL  SE ES   4    258 53.01                             110    1.75 0  347 225 
 TOL  SZ I         258 55.60        17.6 0.34            109            347 225 
 MON  HZ EP   4    258 11.65                             109   -2.12 0  355 308 
 MON  HN ES   4    258 50.60                             109   -1.66 0  355 308 
 MON  HZ I         259  5.44        15.9 0.64            108            355 308 
 ANIL HZ EP   4    258 16.91                             109    2.16 0  360 225 
 ANIL HN ES        258 54.62                             109    0.62 6  360 225 
 ANIL HZ I         259  1.56        50.8 0.46            108            360 225 
 ORTC HZ EP   1    258 18.98                             107    0.15 4  398 216 
 ORTC HN ES   1    259  1.89                             107    0.63 4  398 216 
 ORTC HZ I         259  7.37         7.6 0.22            106            398 216 
 SJC  HZ EP   4    258 18.20                             106   -1.99 0  410 326 
 SJC  HN ES   4    259  0.07                             106   -3.62 0  410 326 
 SJC  HZ I         259  3.95         5.0 0.46            105            410 326 
                                                                                
