 2010 11 1 0732 43.7 L   6.801 -73.087146.0  RSN  4 0.3 1.5LRSN                1
 GAP=189        0.66       9.5    18.4 10.2  0.1461E+03 -0.1189E+03 -0.5707E+02E
 Epicentro: LOS SANTOS - SANTANDER                                             3
 ACTION:UP  10-12-17 16:49 OP:REBC STATUS:               ID:20101101073243 L   I
 2010-11-01-0730-36S.COL___125                                                 6
 STAT SP IPHASW D HRMM SECON CODA AMPLIT PERI AZIMU VELO SNR AR TRES W  DIS CAZ7
 BAR2 SZ EP        733  3.30                             170    -0.110   25 205 
 BAR2 SZ ES   2    733 18.38                             170    -0.4 5   25 205 
 BAR2 SZ I         733 19.81        10.0 0.36                            25 205 
 BRR  HZ EP        733  5.11                             151    -0.110   77 296 
 BRR  HE ES   1    733 22.14                             151     0.1 7   77 296 
 BRR  HZ I         733 26.09         5.0 0.33                            77 296 
 RUS  HZ EP        733  7.43                             144    -0.110  100 180 
 RUS  HE ES   1    733 26.36                             144     0.3 7  100 180 
 RUS  HZ I         733 27.66         3.9 0.42                           100 180 
 OCA  SZ EP   2    733 12.82                             130     0.7 5  161 351 
 OCA  SZ I         733 38.70         4.3 0.48                           161 351 
                                                                                
