 2011 11 1 0417  2.0 L   6.779 -73.130142.5  RSN 11 0.4 2.0LRSN                1
 GAP=139        0.89       4.5     5.8  6.4 -0.4012E+01  0.1317E+02  0.4311E+00E
 Epicentro: LOS SANTOS - SANTANDER                                             3
 ACTION:UPD 12-07-13 16:07 OP:ep   STATUS:               ID:20111101041702 L   I
 2011-11-01-0414-40S.COL___175                                                 6
 STAT SP IPHASW D HRMM SECON CODA AMPLIT PERI AZIMU VELO AIN AR TRES W  DIS CAZ7
 BAR2 SZ EP        417 21.14                             171   -0.1010 21.5 196 
 BAR2 SZ ES   1    417 35.44                             171   -0.77 7 21.5 196 
 BAR2 SZ I         417 38.31        24.2 0.24                          21.5 196 
 BTL  SZ EP        417 21.72                             171    0.4810 21.6 315 
 BRR  HZ EP        417 23.16                             151    0.1810 73.8 299 
 BRR  HN ES   1    417 39.97                             151    0.65 7 73.8 299 
 BRR  HZ I         417 44.23        22.0 0.16                          73.8 299 
 PAM  SZ EP        417 24.02                             150    0.0710 78.1  38 
 PAM  SN ES   1    417 40.97                             150   -0.07 7 78.1  38 
 RUS  HZ EP        417 25.02                             144   -0.2710 98.2 177 
 RUS  HN ES   1    417 43.80                             144    0.37 7 98.2 177 
 RUS  HZ I         417 45.22        15.0 0.44                          98.2 177 
 OCA  SZ EP        417 29.77                             128   -0.56 9  163 353 
 OCA  SZ I         417 58.64        12.5 0.30                           163 353 
 ZAR  HZ EP   2    417 34.15                             121   -0.38 4  207 293 
 ZAR  HE ES   2    417 59.18                             121   -0.69 4  207 293 
 NOR  SZ EP        417 37.49                             118   -0.10 8  235 235 
 NOR  SN ES   2    418  4.65                             118   -0.67 4  235 235 
 HEL  HZ EP        417 42.93                             114    0.72 8  273 256 
 HEL  HZ I         418 19.94         4.1 0.32                           273 256 
 RREF HZ EP   2    417 48.29                             110    0.27 3  322 230 
 RREF HZ I         418 33.57         5.7 0.30                           322 230 
 PRA  HZ EP   1    417 54.99                             106   -0.33 4  391 210 
                                                                                
