 2014  8 1 0012 55.5 L   6.830 -73.175140.8  RSN 18 0.5 2.3LRSN                1
 GAP=131        1.08       2.5     3.8  5.1 -0.1892E+01  0.5722E+01  0.1650E+01E
 Epicentro: ZAPATOCA - SANTANDER                                               3
 ACTION:UPD 14-09-15 21:46 OP:nd   STATUS:               ID:20140801001255 L   I
 OLDACT:REG 14-08-01 13:12 OP:y    STATUS:               ID:20140801000815     3
 2014-08-01-0008-15M.COL___260                                                 6
 STAT SP IPHASW D HRMM SECON CODA AMPLIT PERI AZIMU VELO AIN AR TRES W  DIS CAZ7
 BAR2 SZ IP     D  013 14.73                             169    0.1110 26.3 182 
 BAR2 SZ ES        013 29.60                             169    0.0910 26.3 182 
 BAR2 SZ I         013 30.59        51.5 0.28            167           26.3 182 
 BRR  HZ IP     C  013 16.46                             153    0.5710 66.8 297 
 BRR  HN ES        013 32.48                             153    0.7110 66.8 297 
 BRR  HZ I         013 37.24        33.4 0.10            149           66.8 297 
 PAM  SZ EP        013 17.40                             150    0.2110 77.1  43 
 PAM  SN ES        013 34.44                             150    0.3510 77.1  43 
 PAM  SZ I         013 36.21        23.3 0.18            155           77.1  43 
 RUS  HZ EP        013 18.87                             142   -0.1810  104 174 
 RUS  HN ES        013 36.94                             142   -0.4610  104 174 
 RUS  HZ I         013 38.81        35.4 0.24            144            104 174 
 PTB  HZ EP        013 21.33                             131   -0.53 9  145 257 
 PTB  HN ES        013 41.68                             131   -0.72 9  145 257 
 PTB  HZ I         013 47.48        23.0 0.36            130            145 257 
 OCA  HZ EP        013 22.65                             129   -0.46 9  157 354 
 OCA  HN ES        013 44.11                             129   -0.52 9  157 354 
 OCA  HZ I         013 48.99        28.7 0.20            131            157 354 
 SPBC HZ EP        013 24.07                             128    0.37 9  164 217 
 SPBC HN ES        013 45.58                             128   -0.10 9  164 217 
 SPBC HZ I         013 49.43        28.9 0.30            128            164 217 
 ZAR  HZ EP        013 27.56                             122    0.35 9  200 292 
 ZAR  HN ES        013 52.03                             122    0.11 9  200 292 
 ZAR  HZ I         013 59.63        34.2 0.34            122            200 292 
 NOR  HN ES        013 58.20                             117   -0.28 8  234 233 
 NOR  HZ I         014  4.56        16.8 0.16            118            234 233 
 SML  HZ EP        013 31.07                             117   -0.34 8  239 336 
 SML  HN ES        013 58.80                             117   -0.59 8  239 336 
 SML  HZ I         014  4.49        28.6 0.38            118            239 336 
 CHI  HZ EP        013 33.11                             116   -0.10 8  251 194 
 CHI  HN ES        014  1.94                             116   -0.66 8  251 194 
 CHI  HZ I         014  9.58         7.0 0.68            117            251 194 
 ROSC BN ES        014  3.91                             115    0.78 8  254 210 
 HEL  HZ EP        013 35.64                             114    0.41 8  270 255 
 HEL  HN ES        014  6.71                             114    0.51 8  270 255 
 HEL  HZ I         014 16.03         9.4 0.36            114            270 255 
 URE  HZ EP   4    013 37.70                             113    1.82 0  280 292 
 GUY2CHZ EP   4    013 39.90                             111    1.07 0  300 234 
 GUY2CHN ES   4    014 13.81                             111    1.21 0  300 234 
 GUY2CHZ I         014 21.22         8.5 0.58                           300 234 
 RREF HZ EP        013 42.70                             110    1.28 7  321 229 
 RREF HN ES        014 16.48                             110   -0.74 7  321 229 
 RREF HZ I         014 24.83        10.8 0.28            111            321 229 
 TOL  SZ EP        013 43.62                             108    0.02 7  344 224 
 TOL  SN ES        014 21.21                             108    0.12 7  344 224 
 TOL  SZ I         014 29.09        15.3 0.20            109            344 224 
 PRA  HZ EP        013 49.15                             106    0.12 6  393 209 
 PRA  HN ES        014 30.47                             106   -0.29 6  393 209 
 PRA  HZ I         014 36.00         5.9 0.32            107            393 209 
 ORTC HZ EP        013 49.52                             105    0.15 6  396 216 
 ORTC HN ES        014 31.11                             105   -0.25 6  396 216 
 ORTC HZ I         014 38.67         6.8 0.52            107            396 216 
 SJC  HZ EP   4    013 48.56                             105   -1.84 0  405 327 
 SJC  HN ES   4    014 29.53                             105   -3.67 0  405 327 
                                                                                
