 2017 11 1 0216 42.4 L   6.738 -73.140150.0  RSN  5 0.4 1.1LRSN                1
 GAP=140        0.77       4.5     5.0  9.2 -0.9764E+00 -0.1013E+02 -0.5033E+01E
 Epicentro: LOS SANTOS - SANTANDER                                             3
 ACTION:UPD 17-12-12 19:50 OP:rebc STATUS:               ID:20171101021642 L   I
 OLDACT:DUP 17-11-01 14:50 OP:dnl  STATUS:               ID:20171101020740d    3
 2017-11-01-0208-00M.COL___423                                                 6
 STAT SP IPHASW D HRMM SECON CODA AMPLIT PERI AZIMU VELO AIN AR TRES W  DIS CAZ7
 BRR  HZ EP   2    217  4.19                             152   -0.06 5 75.2 303 
 BRR  HE ES        217 21.74                             152    0.4610 75.2 303 
 BRR  HZ I         217 29.52         4.1 0.58            154           75.2 303 
 PAM  EZ EP        217  5.17                             150   -0.2210 82.4  36 
 PAM  EZ I         217 13.99         2.3 0.20            147           82.4  36 
 RUS  HZ EP   2    217  6.71                             147    0.59 5 93.7 176 
 RUS  HN ES        217 24.44                             147   -0.1610 93.7 176 
 RUS  HZ I         217 27.85         1.1 0.42            153           93.7 176 
 PTB  HZ EP   2    217  9.51                             134   -0.17 5  147 261 
 PTB  HN ES        217 30.41                             134   -0.54 9  147 261 
 PTB  HZ I         217 32.67         1.0 0.10            138            147 261 
 SPBC HZ EP   2    217 11.01                             131    0.21 5  158 221 
 SPBC HE ES        217 33.23                             131    0.30 9  158 221 
 SPBC HZ I         217 36.26         2.5 0.24            137            158 221 
                                                                                
