 2017 11 1 0959 22.7 L   6.813 -73.180142.4  RSN  7 0.4 1.6LRSN                1
 GAP=110        1.07       5.2     4.0  8.6  0.2301E+01  0.6352E+01  0.1355E+02E
 Epicentro: ZAPATOCA - SANTANDER                                               3
 ACTION:UPD 17-12-12 19:50 OP:rebc STATUS:               ID:20171101095922 L   I
 OLDACT:REG 17-11-01 16:29 OP:dani STATUS:               ID:20171101095437     3
 2017-11-01-0955-00M.COL___408                                                 6
 STAT SP IPHASW D HRMM SECON CODA AMPLIT PERI AZIMU VELO AIN AR TRES W  DIS CAZ7
 BAR2 EZ EP        959 41.95                             170   -0.0510 24.4 181 
 BAR2 EZ ES        959 56.80                             170   -0.2210 24.4 181 
 BAR2 EZ I         959 57.87        12.0 0.32            166           24.4 181 
 PAM  EZ EP        959 44.84                             150    0.1510 78.7  42 
 PAM  EE ES       10 0  1.90                             150    0.0910 78.7  42 
 PAM  EZ I        10 0  4.15         7.9 0.60            145           78.7  42 
 RUS  HZ EP        959 45.98                             143   -0.3310  102 174 
 RUS  HZ I        10 0  6.81         3.1 0.20            136            102 174 
 PTB  HZ EP        959 48.49                             132   -0.65 9  144 258 
 PTB  HN ES       10 0  9.22                             132   -0.50 9  144 258 
 PTB  HZ I        10 0 12.51         3.6 0.16            127            144 258 
 YPLC HZ EP        959 52.51                             125   -0.10 9  180 150 
 YPLC HN ES       10 0 16.47                             125    0.56 9  180 150 
 YPLC HZ I        10 0 19.28         4.4 0.24            119            180 150 
 ZAR  HZ EP   4    959 57.83                             122    3.27 0  200 292 
 ZAR  HE ES       10 0 20.13                             122    0.76 9  200 292 
 ZAR  HZ I        10 0 25.74         5.1 0.42            117            200 292 
 NOR  HE ES       10 0 26.25                             118    0.67 8  232 234 
                                                                                
