 2011  1 1 0001  4.3 L   6.817 -73.201137.5  RSN  6 0.3 2.2LRSN                1
 GAP=152        0.77       3.8    11.1  8.4 -0.1030E+02  0.3784E+02 -0.1109E+02E
 Epicentro: ZAPATOCA - SANTANDER                                               3
 ACTION:UP  11-02-08 08:37 OP:pat  STATUS:               ID:20110101000104 L   I
 2011-01-01-0000-44S.COL___119                                                 6
 STAT SP IPHASW D HRMM SECON CODA AMPLIT PERI AZIMU VELO SNR AR TRES W  DIS CAZ7
 BTL  SZ EP   1    0 1 23.13                             174     0.4 8   13 327 
 BAR2 SZ EP   1    0 1 22.94                             169     0.0 8   25 176 
 BAR2 SZ ES   1    0 1 37.64                             169     0.2 8   25 176 
 BAR2 SZ I         0 1 38.84        40.7 0.26                            25 176 
 RUS  HZ EP   1    0 1 27.05                             141    -0.3 8  103 173 
 RUS  HE ES   1    0 1 45.21                             141    -0.2 8  103 173 
 RUS  HZ I         0 1 47.21        14.0 0.29                           103 173 
 GRA  SZ IP        0 1 28.93                             135     0.110  126  20 
 GRA  SZ ES   1    0 1 48.23                             135     0.3 7  126  20 
 GRA  SZ I         0 1 49.27        25.2 0.32                           126  20 
 OCA  SZ EP   1    0 1 31.45                             128    -0.2 7  158 355 
 OCA  SZ ES   1    0 1 52.42                             128    -0.7 7  158 355 
 OCA  SZ I         0 1 54.40        23.3 0.26                           158 355 
 DBB  SZ EP   1    0 1 51.11                             108     0.4 5  333 274 
                                                                                
