 2016  5 1 0031 41.1 L   6.827 -73.141139.1  RSN 14 0.5 2.2LRSN                1
 GAP=136        0.98       3.1     3.8  5.8 -0.2733E+01  0.9678E+01  0.1161E+01E
 Epicentro: LOS SANTOS - SANTANDER                                             3
 ACTION:UPD 16-08-18 17:40 OP:cam  STATUS:               ID:20160501003141 L   I
 OLDACT:REG 16-05-01 12:53 OP:dnl  STATUS:               ID:20160501002749     3
 2016-05-01-0027-49M.COL___307                                                 6
 STAT SP IPHASW D HRMM SECON CODA AMPLIT PERI AZIMU VELO AIN AR TRES W  DIS CAZ7
 BAR2 EZ EP        031 59.73                             169   -0.3010 26.3 190 
 BAR2 EZ ES        032 14.74                             169   -0.0310 26.3 190 
 BAR2 EZ I         032 16.20        43.4 0.20            167           26.3 190 
 PAM  EZ EP        032  2.66                             150    0.1710 74.8  41 
 PAM  EN ES        032 19.59                             150    0.4510 74.8  41 
 PAM  EZ I         032 20.32        19.3 0.18            155           74.8  41 
 RUS  HZ EP        032  3.86                             142   -0.6010  104 176 
 RUS  HN ES        032 22.89                             142    0.2410  104 176 
 RUS  HZ I         032 23.55        12.2 0.18            143            104 176 
 PTB  HZ EP   4    032  6.39                             130   -1.28 0  149 258 
 PTB  HN ES        032 27.64                             130   -0.73 9  149 258 
 PTB  HZ I         032 31.01        21.4 0.12            130            149 258 
 OCA  HZ EP   2    032  9.20                             129    0.54 5  157 353 
 OCA  HE ES        032 30.07                             129   -0.06 9  157 353 
 OCA  HZ I         032 32.81        48.0 0.28            130            157 353 
 SPBC HZ EP        032  8.75                             127   -0.64 9  166 218 
 SPBC HE ES        032 31.69                             127    0.27 9  166 218 
 SPBC HZ I         032 38.38        23.6 0.15            128            166 218 
 ZAR  HZ EP        032 13.11                             121    0.02 9  203 291 
 ZAR  HE ES        032 37.81                             121   -0.21 9  203 291 
 ZAR  HZ I         032 43.96        13.7 0.11            121            203 291 
 NOR  HZ EP        032 16.37                             117   -0.35 8  237 234 
 NOR  HE ES        032 44.15                             117   -0.33 8  237 234 
 NOR  HZ I         032 45.73        13.0 0.20            118            237 234 
 CHI  HZ EP   2    032 17.98                             115   -0.82 4  252 195 
 CHI  HE ES   2    032 48.35                             115    0.17 4  252 195 
 CHI  HZ I         032 52.91         6.3 0.42            117            252 195 
 HEL  HZ EP        032 21.61                             113    0.45 8  273 255 
 HEL  HE ES        032 53.07                             113    0.70 8  273 255 
 HEL  HZ I         033  0.48         8.8 0.26            114            273 255 
 URE  HE ES   4    032 51.39                             112   -2.17 0  283 291 
 URE  HZ I         032 56.29        10.1 0.18            113            283 291 
 GUY2CHZ EP        032 25.31                             111    0.62 7  303 234 
 GUY2CHE ES        032 59.57                             111    0.91 7  303 234 
 GUY2CHZ I         033  7.99        10.5 0.78                           303 234 
 DBB  SZ EP   2    032 28.09                             108   -0.30 3  340 274 
 DBB  SZ ES   4    033  2.07                             108   -3.17 0  340 274 
 DBB  SZ I         033  9.25        14.9 0.36            109            340 274 
 ORTC HZ EP        032 35.28                             105    0.13 6  398 216 
 ORTC HN ES        033 17.82                             105    0.53 6  398 216 
 ORTC HZ I         033 22.45         5.1 0.18            106            398 216 
                                                                                
