 2015  6 1 0720 31.1 L   6.801 -73.135145.6  RSN  8 0.4 1.5LRSN                1
 GAP=138        1.06       3.4     5.2  6.8  0.2249E+00  0.6741E+01 -0.6100E+01E
 Epicentro: LOS SANTOS - SANTANDER                                             3
 ACTION:UPD 15-09-10 22:08 OP:cam  STATUS:               ID:20150601072031 L   I
 OLDACT:REG 15-06-01 13:28 OP:ak   STATUS:               ID:20150601071740     3
 2015-06-01-0717-40M.COL___303                                                 6
 STAT SP IPHASW D HRMM SECON CODA AMPLIT PERI AZIMU VELO AIN AR TRES W  DIS CAZ7
 BAR2 EZ EP        720 50.60                             170   -0.0810 23.7 193 
 BAR2 EZ ES        721  5.40                             170   -0.5910 23.7 193 
 BAR2 EZ I         721  7.19         9.1 0.17            171           23.7 193 
 BRR  HZ EP        720 52.57                             152    0.3210 72.2 298 
 BRR  HN ES        721  9.34                             152    0.5610 72.2 298 
 BRR  HZ I         721 12.26         4.7 0.15            150           72.2 298 
 PAM  SZ EP        720 53.45                             151    0.2410 76.5  39 
 PAM  SN ES        721 10.97                             151    0.4910 76.5  39 
 PAM  SZ I         721 12.74         2.8 0.45            154           76.5  39 
 RUS  HZ EP        720 54.59                             144   -0.2210  101 177 
 RUS  HN ES        721 13.44                             144    0.1210  101 177 
 RUS  HZ I         721 14.59         2.0 0.22            147            101 177 
 OCA  HZ EP        720 59.61                             130    0.25 9  160 353 
 OCA  HN ES        721 20.56                             130   -0.87 9  160 353 
 OCA  HZ I         721 25.62         5.1 0.19            131            160 353 
 SPBC HZ EP   4    720 52.94                             129   -6.70 0  164 219 
 SPBC HN ES        721 21.62                             129   -0.30 9  164 219 
 SPBC HZ I         721 25.88         5.7 0.10            130            164 219 
 ZAR  HZ EP   1    721  4.35                             122    0.74 6  205 292 
 ZAR  HN ES        721 29.01                             122    0.02 9  205 292 
 ZAR  HZ I         721 33.94         3.1 0.11            123            205 292 
 SML  HZ EP        721  7.24                             117   -0.48 8  244 335 
 SML  HN ES        721 36.19                             117   -0.12 8  244 335 
 SML  HZ I         721 40.44         3.7 0.09            118            244 335 
                                                                                
