 2016  7 1 0740 58.7 L   6.780 -73.158139.9  RSN  5 0.5 1.3LRSN                1
 GAP=247        1.11       6.9     7.3  8.7  0.6399E+01  0.1614E+02 -0.3744E+01E
 Epicentro: LOS SANTOS - SANTANDER                                             3
 ACTION:UPD 17-03-29 16:45 OP:lp   STATUS:               ID:20160701074058 L   I
 OLDACT:REG 16-07-01 14:50 OP:ak   STATUS:               ID:20160701073746     3
 2016-07-01-0737-46M.COL___340                                                 6
 STAT SP IPHASW D HRMM SECON CODA AMPLIT PERI AZIMU VELO AIN AR TRES W  DIS CAZ7
 BAR2 EZ EP        741 17.34                             171   -0.2010 20.9 187 
 BAR2 EZ ES        741 32.28                             171    0.0110 20.9 187 
 BAR2 EZ I         741 33.61         3.6 0.16            168           20.9 187 
 BRR  HZ IP     D  741 19.30                             152    0.1210 71.1 301 
 BRR  HN ES        741 35.38                             152    0.2010 71.1 301 
 BRR  HZ I         741 39.94         3.4 0.20            148           71.1 301 
 PTB  HZ EP        741 24.52                             131   -0.48 9  146 260 
 PTB  HN ES        741 44.60                             131   -0.94 9  146 260 
 PTB  HZ I         741 47.38         3.2 0.18            130            146 260 
 SPBC HZ EP   2    741 27.15                             128    0.68 5  161 219 
 SPBC HN ES        741 48.77                             128    0.61 9  161 219 
 SPBC HZ I         741 53.81         1.4 0.15            129            161 219 
 ZAR  HZ EP        741 30.75                             121    0.06 9  204 293 
 ZAR  HN ES        741 56.27                             121    0.59 9  204 293 
 ZAR  HZ I         742  4.19         2.8 0.40            121            204 293 
                                                                                
