 2017 11 1 0737 21.6 L   6.795 -73.192145.8  RSN  7 0.5 1.7LRSN                1
 GAP=108        1.26       5.1     5.2  8.1  0.6409E+00  0.1099E+01  0.8707E+01E
 Epicentro: ZAPATOCA - SANTANDER                                               3
 ACTION:UPD 17-12-12 19:50 OP:rebc STATUS:               ID:20171101073721 L   I
 OLDACT:DUP 17-11-01 18:46 OP:dnl  STATUS:               ID:20171101072743d    3
 OLDACT:REG 17-11-01 14:11 OP:dnl  STATUS:               ID:20171101072742     3
 2017-11-01-0728-00M.COL___417                                                 6
 STAT SP IPHASW D HRMM SECON CODA AMPLIT PERI AZIMU VELO AIN AR TRES W  DIS CAZ7
 BAR2 EZ EP        737 41.00                             171   -0.2510 22.4 177 
 BAR2 EZ ES        737 56.68                             171    0.1310 22.4 177 
 BAR2 EZ I         737 57.47         8.2 0.36            170           22.4 177 
 BRR  HZ EP        737 42.83                             154    0.2710 67.1 301 
 BRR  HN ES        737 59.87                             154    0.9910 67.1 301 
 BRR  HZ I         738  0.44        10.8 0.32            154           67.1 301 
 PAM  EZ EP        737 43.92                             150   -0.1610 81.1  42 
 PAM  EN ES        738  1.13                             150   -0.4610 81.1  42 
 PAM  EZ I         738  3.19        16.3 0.50            153           81.1  42 
 RUS  HZ EP        737 45.11                             144   -0.2710  101 173 
 RUS  HN ES        738  3.57                             144   -0.3310  101 173 
 RUS  HZ I         738  4.90         7.9 0.34            145            101 173 
 PTB  HZ EP        737 48.33                             133    0.19 9  143 259 
 PTB  HN ES        738  7.76                             133   -1.06 9  143 259 
 PTB  HZ I         738 16.19         3.0 0.32            133            143 259 
 SPBC HZ EP        737 50.31                             130    0.52 9  160 218 
 SPBC HN ES        738 11.78                             130    0.02 9  160 218 
 SPBC HZ I         738 13.76        11.9 0.16            130            160 218 
 YPLC HZ EP        737 51.55                             126   -0.08 9  179 150 
 YPLC HE ES        738 15.58                             126    0.56 9  179 150 
 YPLC HZ I         738 18.21         7.6 0.26            128            179 150 
                                                                                
