 2017  6 1 0845 31.5 L   6.742 -73.192150.0  RSN  5 0.3 1.5LRSN                1
 GAP=204        0.69       4.3     4.3  7.2  0.9069E+01 -0.1125E+02 -0.1748E+01E
 Epicentro: VILLANUEVA - SANTANDER                                             3
 ACTION:UPD 17-09-14 16:48 OP:jn   STATUS:               ID:20170601084531 L   I
 OLDACT:UP  17-06-01 18:27 OP:and  STATUS:               ID:20170601083743     3
 OLDACT:UP  17-06-01 18:27 OP:and  STATUS:               ID:20170601083743     3
 OLDACT:UP  17-06-01 18:27 OP:and  STATUS:               ID:20170601083743     3
 OLDACT:UP  17-06-01 18:27 OP:and  STATUS:               ID:20170601083743     3
 OLDACT:REG 17-06-01 13:17 OP:and  STATUS:               ID:20170601083743     3
 2017-06-01-0838-00M.COL___338                                                 6
 STAT SP IPHASW D HRMM SECON CODA AMPLIT PERI AZIMU VELO AIN AR TRES W  DIS CAZ7
 BRR  HZ EP        845 52.92                             154   -0.1610 70.3 305 
 BRR  HE ES        846 10.25                             154    0.3510 70.3 305 
 RUS  HZ EP        845 54.99                             147   -0.3010 94.7 173 
 RUS  HN ES        846 13.74                             147   -0.0810 94.7 173 
 RUS  HZ I         846 14.57         3.7 0.30            143           94.7 173 
 PTB  HZ EP   3    845 59.69                             135    1.39 2  142 261 
 PTB  HN ES        846 18.83                             135   -0.35 9  142 261 
 SPBC HN ES        846 21.80                             132    0.31 9  155 219 
 SPBC HZ I         846 26.48         4.5 0.07            130            155 219 
 YPLC HZ EP        846  1.45                             128    0.11 9  174 149 
 YPLC HN ES        846 24.68                             128    0.09 9  174 149 
 YPLC HZ I         846 34.80         3.1 0.36            126            174 149 
                                                                                
