 2015  1 1 0338 19.4 L   7.433 -73.387116.1  RSN  9 0.6 1.8LRSN                1
 GAP= 93        1.60       4.1     5.6  9.8  0.1722E+01  0.1458E+02  0.2898E+01E
 Epicentro: SABANA DE TORRES - SANTANDER                                       3
 ACTION:UPD 15-03-02 15:35 OP:nd   STATUS:               ID:20150101033819 L   I
 OLDACT:DUP 15-01-01 17:29 OP:stll STATUS:               ID:20150101032748d    3
 2015-01-01-0327-47M.COL___277                                                 6
 STAT SP IPHASW D HRMM SECON CODA AMPLIT PERI AZIMU VELO AIN AR TRES W  DIS CAZ7
 BRR  HZ IP     C  338 36.75                             155    0.5510 50.9 225 
 BRR  HN ES        338 49.84                             155    0.5410 50.9 225 
 BRR  HZ I         338 51.05        19.3 0.30            154           50.9 225 
 PAM  SZ EP        338 39.18                             145    0.6910 76.6  98 
 PAM  SN ES        338 53.61                             145    0.2210 76.6  98 
 PAM  SZ I         338 55.21        14.6 0.34            148           76.6  98 
 OCA  HZ EP        338 38.97                             140   -0.0110 89.4   5 
 OCA  HN ES        338 53.69                             140   -0.5710 89.4   5 
 OCA  HZ I         338 58.07        16.8 0.32            141           89.4   5 
 BAR2 EZ EP        338 40.02                             138    0.4210 95.7 166 
 BAR2 EZ I         338 40.19        36.6 0.18            140           95.7 166 
 BAR2 EZ ES        338 55.38                             138    0.0210 95.7 166 
 PTB  HZ EP        338 44.94                             123    0.18 9  154 230 
 PTB  HE ES        339  3.68                             123   -0.87 9  154 230 
 PTB  HZ I         339  7.99         7.9 0.26            124            154 230 
 ZAR  HZ EP        338 46.43                             121    0.80 9  163 272 
 ZAR  HN ES        339  7.00                             121    0.91 9  163 272 
 ZAR  HZ I         339 10.86         7.7 0.36            122            163 272 
 SML  HZ EP        338 46.28                             120   -0.01 9  169 334 
 SML  HN ES        339  5.94                             120   -1.34 9  169 334 
 SML  HZ I         339  7.75        18.8 0.10            121            169 334 
 RUS  HZ EP        338 47.18                             120   -0.24 9  174 169 
 RUS  HZ I         338 48.47         2.9 0.18            122            174 169 
 RUS  HE ES        339  8.38                             120   -0.90 9  174 169 
 SPBC HZ EP        338 50.94                             114   -0.03 8  211 201 
 SPBC HZ I         338 55.14         4.6 0.10            115            211 201 
 SPBC HN ES        339 14.67                             114   -0.94 8  211 201 
                                                                                
