 2014  1 1 0032  8.2 L   6.792 -73.356121.5  RSN 10 0.6 1.7LRSN                1
 GAP=138        1.43       3.8     5.3  8.2 -0.1931E+01  0.1346E+02 -0.5896E+01E
 Epicentro: ZAPATOCA - SANTANDER                                               3
 ACTION:UPD 14-03-13 09:50 OP:ep   STATUS:               ID:20140101003208 L   I
 OLDACT:REG 14-01-01 09:07 OP:stll STATUS:               ID:20140101002812     3
 2014-01-01-0028-12M.COL___240                                                 6
 STAT SP IPHASW D HRMM SECON CODA AMPLIT PERI AZIMU VELO AIN AR TRES W  DIS CAZ7
 BAR2 SZ EP        032 25.34                             166    0.2610 29.3 139 
 BAR2 SZ I         032 25.43        48.5 0.12            169           29.3 139 
 BAR2 SZ ES        032 38.45                             166    0.2010 29.3 139 
 BRR  HZ IP     D  032 26.00                             155    0.3110 52.5 312 
 BRR  HN ES        032 39.90                             155    0.5810 52.5 312 
 RUS  HZ EP        032 29.76                             137   -0.1710  104 163 
 RUS  HN ES        032 46.61                             137   -0.2610  104 163 
 RUS  HZ I         032 48.54         4.2 0.36            139            104 163 
 PTB  HZ EP        032 30.21                             131   -0.9010  125 257 
 PTB  HN ES        032 48.12                             131   -0.8610  125 257 
 PTB  HZ I         032 52.54         9.4 0.34            129            125 257 
 SPBC HN ES        032 53.48                             126    0.21 9  149 212 
 SPBC HZ I         032 58.53         5.2 0.32            125            149 212 
 OCA  HZ EP        032 34.56                             124   -0.17 9  160   1 
 OCA  HN ES        032 54.83                             124   -0.58 9  160   1 
 OCA  HZ I         032 57.32         8.1 0.28            125            160   1 
 ZAR  HZ EP        032 37.32                             120    0.39 9  183 295 
 ZAR  HN ES        033  0.17                             120    0.83 9  183 295 
 ZAR  HZ I         033  3.82         8.7 0.30            119            183 295 
 NOR  HZ EP        032 40.93                             115    0.41 8  216 231 
 NOR  HN ES        033  5.65                             115   -0.08 8  216 231 
 NOR  HZ I         033 12.45         3.3 0.18            115            216 231 
 SML  HZ EP        032 42.40                             113   -0.29 8  236 340 
 SML  HN ES        033  9.40                             113   -0.20 8  236 340 
 SML  HZ I         033 16.05         8.3 0.10            113            236 340 
 HEL  HZ EP        032 46.18                             112    1.48 8  249 255 
 HEL  HN ES        033 12.19                             112   -0.98 8  249 255 
 HEL  HZ I         033 19.79         2.5 0.58            111            249 255 
                                                                                
