 2014  7 1 0452 48.0 L   6.800 -73.121137.1  RSN 26 0.5 2.7LRSN                1
 GAP= 67        1.03       2.2     2.6  4.5 -0.4430E+00  0.3445E+01  0.2161E+01E
 Epicentro: LOS SANTOS - SANTANDER                                             3
 ACTION:UPD 15-03-16 20:40 OP:nd   STATUS:               ID:20140701045248 L   I
 OLDACT:REG 14-07-01 12:54 OP:spq  STATUS:               ID:20140701044818     3
 2014-07-01-0448-18M.COL___247                                                 6
 STAT SP IPHASW D HRMM SECON CODA AMPLIT PERI AZIMU VELO AIN AR TRES W  DIS CAZ7
 BAR2 SZ IP     C  453  7.24                             170    0.6110 24.0 197 
 BAR2 SZ ES   1    453 20.66                             170   -0.49 7 24.0 197 
 BAR2 SZ I         453 23.48       179.8 0.20            166           24.0 197 
 BRR  HZ IP     D  453  9.04                             150    0.6410 73.6 298 
 BRR  HN ES        453 24.72                             150    0.4410 73.6 298 
 BRR  HZ I         453 29.96        84.1 0.16            150           73.6 298 
 PAM  SZ EP        453 10.01                             150    0.7910 75.6  38 
 PAM  SN ES        453 25.58                             150   -0.1810 75.6  38 
 PAM  SZ I         453 27.60        59.1 0.30            156           75.6  38 
 RUS  HZ EP        453 11.28                             142    0.3510  100 178 
 RUS  HE ES        453 28.73                             142   -0.0610  100 178 
 RUS  HZ I         453 31.61        79.4 0.32            143            100 178 
 PTB  HZ EP        453 13.83                             129   -0.73 9  150 259 
 PTB  HN ES        453 34.67                             129   -0.58 9  150 259 
 PTB  HZ I         453 38.83        66.7 0.28            130            150 259 
 TAM  HZ IP     D  453 15.66                             129    0.88 9  152 105 
 TAM  HN ES        453 35.06                             129   -0.59 9  152 105 
 TAM  HZ I         453 37.85        24.6 0.26            133            152 105 
 OCA  HZ EP        453 15.35                             127   -0.36 9  161 352 
 OCA  HN ES        453 36.61                             127   -0.70 9  161 352 
 OCA  HZ I         453 40.47        55.6 0.26            131            161 352 
 SPBC HZ IP     C  453 16.17                             127    0.12 9  165 220 
 SPBC HE ES        453 37.74                             127   -0.16 9  165 220 
 SPBC HZ I         453 40.81       101.6 0.18            127            165 220 
 SML  HZ EP        453 23.59                             115   -0.72 8  245 335 
 SML  HN ES        453 53.05                             115    0.44 8  245 335 
 SML  HZ I         453 54.35        56.9 0.11            118            245 335 
 CHI  HZ EP        453 25.29                             115   -0.05 8  249 196 
 CHI  HN ES        453 53.85                             115   -0.60 8  249 196 
 CHI  HZ I         453 59.37        15.5 0.24            117            249 196 
 ROSC BZ EP   4    453 27.07                             115    1.22 0  254 212 
 ROSC BN ES        453 55.96                             115    0.61 8  254 212 
 ROSC BZ I         454  5.51        26.5 0.31            116            254 212 
 HEL  HZ EP        453 28.28                             113    0.16 8  275 256 
 HEL  HN ES        453 59.62                             113    0.24 8  275 256 
 HEL  HZ I         454  5.66        28.0 0.30            114            275 256 
 URE  HZ EP        453 28.60                             112   -0.38 7  286 292 
 URE  HN ES        454  1.06                             112    0.14 7  286 292 
 URE  HZ I         454  8.69        22.7 0.24            113            286 292 
 GUY2CHZ EP        453 31.80                             110    0.29 7  303 235 
 GUY2CHN ES        454  5.30                             110   -0.12 7  303 235 
 GUY2CHZ I         454 14.12        19.0 0.40                           303 235 
 VIL  SZ EP        453 31.10                             110   -0.03 7  304 192 
 VIL  SN ES        454  5.18                             110    0.43 7  304 192 
 VIL  SZ I         454 16.43        26.0 0.60            112            304 192 
 PTGC HZ EP        453 30.59                             110   -0.81 7  308 159 
 PTGC HN ES   4    454  3.38                             110   -1.84 0  308 159 
 PTGC HZ I         454  5.61        20.3 0.42            112            308 159 
 RREF HZ EP        453 34.01                             109   -0.04 7  324 230 
 RREF HN ES        454 10.08                             109    0.13 7  324 230 
 RREF HZ I         454 19.52        25.5 0.30            110            324 230 
 CBOC HZ EP        453 35.29                             108    0.39 7  336 252 
 CBOC HN ES   4    454  9.25                             108   -2.22 0  336 252 
 CBOC HZ I         454 21.71         8.6 0.36            109            336 252 
 DBB  SZ EP        453 35.39                             108   -0.10 7  342 274 
 DBB  SZ ES   1    454 12.16                             108   -0.35 5  342 274 
 DBB  SZ I         454 19.00        56.4 0.32            109            342 274 
 TOL  SZ EP        453 36.37                             108    0.19 6  345 225 
 TOL  SN ES        454 13.17                             108   -0.56 6  345 225 
 TOL  SZ I         454 19.76        33.2 0.22            109            345 225 
 ANIL HZ EP        453 38.09                             107    0.35 6  359 225 
 ANIL HN ES        454 16.54                             107    0.03 6  359 225 
 ANIL HZ I         454 24.66        44.0 0.28            108            359 225 
 PRA  HZ EP        453 40.77                             105   -0.65 6  393 210 
 PRA  HE ES        454 23.39                             105    0.32 6  393 210 
 PRA  HZ I         454 28.54        21.0 0.32            106            393 210 
 ORTC HZ EP        453 41.42                             105   -0.44 6  397 216 
 ORTC HN ES        454 23.95                             105    0.11 6  397 216 
 ORTC HZ I         454 32.52        15.9 0.44            106            397 216 
 PAL  HZ EP        453 43.03                             104   -0.16 6  408 239 
 SJC  HZ EP   4    453 41.89                             104   -1.61 0  411 327 
 SJC  HN ES   4    454 22.57                             104   -4.19 0  411 327 
 SJC  HZ I         454 27.04        12.1 0.56            106            411 327 
 GUA  SE ES   1    454 39.22                             102   -0.74 4  474 173 
 GUA  SZ I         454 44.21        18.8 0.24            103            474 173 
                                                                                
