 2014 10 1 0051 44.6 L   6.748 -73.178143.2  RSN  4 0.4 1.2LRSN                1
 GAP=230        1.08       8.7     8.7  8.9  0.4097E+02  0.1556E+02  0.7671E+01E
 Epicentro: LOS SANTOS - SANTANDER                                             3
 ACTION:UPD 14-11-29 23:45 OP:nd   STATUS:               ID:20141001005144 L   I
 OLDACT:REG 14-10-01 12:27 OP:stll STATUS:               ID:20141001004817     3
 2014-10-01-0048-17M.COL___286                                                 6
 STAT SP IPHASW D HRMM SECON CODA AMPLIT PERI AZIMU VELO AIN AR TRES W  DIS CAZ7
 BAR2 SZ ES        052 18.20                             173   -0.5610 17.2 181 
 BAR2 SZ I         052 20.41         5.5 0.40            167           17.2 181 
 BRR  HZ EP        052  5.09                             152   -0.3310 71.1 304 
 BRR  HE ES        052 22.33                             152    0.6310 71.1 304 
 RUS  HZ EP        052  8.18                             145    0.5110 95.2 174 
 RUS  HN ES        052 25.78                             145    0.0810 95.2 174 
 RUS  HZ I         052 27.37         1.9 0.40            143           95.2 174 
 PTB  HZ EP        052 10.59                             132   -0.31 9  143 261 
 PTB  HN ES        052 31.40                             132   -0.05 9  143 261 
 PTB  HZ I         052 36.77         1.9 0.16            130            143 261 
                                                                                
