 2015  7 1 0654 53.4 L   6.847 -73.071143.4  RSN  4 0.4 1.4LRSN                1
 GAP=191        1.07       5.3     8.4  9.5  0.1362E+02  0.1372E+02 -0.1240E+02E
 Epicentro: LOS SANTOS - SANTANDER                                             3
 ACTION:UPD 15-09-08 21:46 OP:cam  STATUS:               ID:20150701065453 L   I
 OLDACT:UP  15-07-06 16:02 OP:cam  STATUS:               ID:20150701065453 L   3
 OLDACT:UP  15-07-06 16:02 OP:cam  STATUS:               ID:20150701065453 L   3
 OLDACT:UP  15-07-03 20:22 OP:nlst STATUS:               ID:20150701065453 L   3
 OLDACT:REG 15-07-01 14:31 OP:ar   STATUS:               ID:20150701064746     3
 2015-07-01-0647-46M.COL___319                                                 6
 STAT SP IPHASW D HRMM SECON CODA AMPLIT PERI AZIMU VELO AIN AR TRES W  DIS CAZ7
 BAR2 EZ EP        655 13.01                             167    0.0710 30.7 204 
 BAR2 EZ I         655 13.47         8.6 0.10            161           30.7 204 
 BAR2 EZ ES        655 28.63                             167    0.4710 30.7 204 
 RUS  HZ EP        655 16.99                             142   -0.3110  106 181 
 RUS  HE ES   1    655 35.52                             142   -0.41 7  106 181 
 RUS  HZ I         655 36.68         2.3 0.28            141            106 181 
 OCA  HZ EP        655 21.93                             130    0.76 9  156 350 
 OCA  HN ES        655 42.14                             130   -0.69 9  156 350 
 ZAR  HZ EP        655 26.23                             121   -0.08 8  210 290 
 ZAR  HE ES        655 51.97                             121   -0.00 8  210 290 
 ZAR  HZ I         655 59.62         3.5 0.50            119            210 290 
                                                                                
