 2017 10 1 0447 47.3 L   6.867 -73.152149.7  RSN  3 0.3 1.1LRSN                1
 GAP=319        0.68       7.9     8.6  6.7 -0.3005E+02  0.1854E+02 -0.9917E+01E
 Epicentro: LOS SANTOS - SANTANDER                                             3
 ACTION:UPD 17-11-07 19:27 OP:rebc STATUS:               ID:20171001044747 L   I
 OLDACT:REG 17-10-01 13:12 OP:osc  STATUS:               ID:20171001043742     3
 2017-10-01-0438-00M.COL___414                                                 6
 STAT SP IPHASW D HRMM SECON CODA AMPLIT PERI AZIMU VELO AIN AR TRES W  DIS CAZ7
 BAR2 EZ EP        448  8.00                             168    0.3910 30.5 186 
 BAR2 EZ ES        448 23.19                             168   -0.2210 30.5 186 
 RUS  HZ EP        448 11.66                             143   -0.3610  108 176 
 RUS  HN ES        448 31.46                             143    0.2010  108 176 
 RUS  HZ I         448 31.78         1.1 0.40            142            108 176 
 SPBC HZ EP        448 16.60                             129   -0.05 9  169 217 
 SPBC HE ES        448 39.54                             129    0.03 9  169 217 
 SPBC HZ I         448 43.47         2.4 0.11            127            169 217 
                                                                                
