 2011  7 1 0412 32.3 L   7.538 -72.998153.5  RSN 10 0.4 2.2LRSN                1
 GAP= 93        0.86       3.7     7.2  6.0 -0.3199E+01  0.8148E+01  0.4613E+01E
 Epicentro: SURATA - SANTANDER                                                 3
 ACTION:UPD 12-07-25 13:57 OP:epov STATUS:               ID:20110701041232 L   I
 2011-07-01-0411-24S.COL___140                                                 6
 STAT SP IPHASW D HRMM SECON CODA AMPLIT PERI AZIMU VELO AIN AR TRES W  DIS CAZ7
 BRI  SZ EP        412 52.05                             169   -0.8710 29.7  48 
 PAM  SE ES   1    413  9.96                             165   -0.36 7 39.6 124 
 PAM  SZ I         413 11.98        17.5 0.19                          39.6 124 
 GRA  SZ IP        412 53.84                             163    0.5310 43.9  29 
 GRA  SZ ES        413  9.73                             163    0.0310 43.9  29 
 GRA  SZ I         413 11.40        48.2 0.38                          43.9  29 
 GIR2 SZ EP        412 53.96                             159    0.2310 55.2 203 
 BTL  SZ EP        412 54.93                             153    0.0910 74.7 204 
 OCA  SZ EP        412 55.62                             149    0.2810 85.2 335 
 OCA  SZ I         412 56.02        40.8 0.19                          85.2 335 
 OCA  SZ ES        413 13.24                             149   -0.0710 85.2 335 
 BRR  HZ EP        412 55.59                             147    0.0310 92.1 239 
 BRR  HE ES   1    413 13.65                             147   -0.04 7 92.1 239 
 BRR  HZ I         413 16.46        28.2 0.11                          92.1 239 
 BAR2 SZ EP        412 56.93                             143    0.0310  107 191 
 BAR2 SZ ES        413 16.15                             143    0.0810  107 191 
 BAR2 SZ I         413 20.60        14.7 0.45                           107 191 
 RUS  HZ EP   1    413  3.82                             128    0.07 7  182 183 
 RUS  HN ES   1    413 28.43                             128    0.15 7  182 183 
 RUS  HZ I         413 31.63        16.5 0.32                           182 183 
 HEL  HZ EP   1    413 17.08                             112   -0.83 5  317 242 
 HEL  HZ I         413 40.25         4.7 0.35                           317 242 
                                                                                
