 2012  9 1 0906 39.8 L   6.797 -73.164145.3  RSN  6 0.4 1.7LRSN                1
 GAP=145        0.92       8.7     7.1  7.8 -0.2216E+02  0.6677E+01  0.9093E+01E
 Epicentro: LOS SANTOS - SANTANDER                                             3
 ACTION:UPD 12-10-22 14:16 OP:ep   STATUS:               ID:20120901090639 L   I
 2012-09-01-0900-00M.COL___218                                                 6
 STAT SP IPHASW D HRMM SECON CODA AMPLIT PERI AZIMU VELO AIN AR TRES W  DIS CAZ7
 BAR2 SZ EP        9 6 59.50                             171    0.0910 22.7 185 
 BAR2 SZ ES   1    9 7 14.67                             171    0.00 7 22.7 185 
 BAR2 SZ I         9 7 16.84        12.4 0.24                          22.7 185 
 GIR2 SZ EP        9 6 59.43                             167   -0.0410 31.4 354 
 GIR2 SZ ES   1    9 7 14.33                             167   -0.45 7 31.4 354 
 BRR  HZ EP        9 7  1.28                             153    0.4210 69.6 300 
 BRR  HZ I         9 7  1.50        15.1 0.34                          69.6 300 
 BRR  HN ES   1    9 7 18.01                             153    0.76 7 69.6 300 
 PAM  SZ EP        9 7  2.43                             150    0.3210 79.0  41 
 PAM  SN ES   1    9 7 19.03                             150   -0.45 7 79.0  41 
 PAM  SZ I         9 7 20.97         7.1 0.40                          79.0  41 
 PTB  HZ EP        9 7  5.98                             132   -0.61 9  146 259 
 PTB  HN ES   2    9 7 27.22                             132   -0.23 5  146 259 
 OCA  HN ES   2    9 7 29.58                             129   -0.62 5  160 354 
 OCA  HZ I         9 7 33.25         5.8 0.20                           160 354 
                                                                                
