 2015  8 1 0501 54.1 L   6.827 -73.115146.0  RSN 13 0.4 2.1LRSN                1
 GAP=186        0.97       2.6     4.2  5.3 -0.5920E+00  0.7507E+01  0.5692E+00E
 Epicentro: LOS SANTOS - SANTANDER                                             3
 ACTION:UPD 15-09-15 22:59 OP:cam  STATUS:               ID:20150801050154 L   I
 OLDACT:REG 15-08-01 12:15 OP:drio STATUS:               ID:20150801045735     3
 2015-08-01-0457-35M.COL___352                                                 6
 STAT SP IPHASW D HRMM SECON CODA AMPLIT PERI AZIMU VELO AIN AR TRES W  DIS CAZ7
 BAR2 EZ EP        5 2 13.90                             169    0.0210 27.0 196 
 BAR2 EZ ES        5 2 28.88                             169   -0.3910 27.0 196 
 BAR2 EZ I         5 2 30.51        30.5 0.14            164           27.0 196 
 BRR  HZ EP        5 2 15.61                             152    0.2010 72.9 295 
 BRR  HN ES        5 2 32.74                             152    0.7410 72.9 295 
 BRR  HZ I         5 2 35.22        16.4 0.14            145           72.9 295 
 RUS  HZ EP        5 2 18.15                             143    0.0310  103 178 
 RUS  HN ES        5 2 37.15                             143    0.3310  103 178 
 RUS  HZ I         5 2 37.70        20.7 0.34            144            103 178 
 OCA  HZ IP        5 2 22.97                             130    0.73 9  158 352 
 OCA  HN ES        5 2 43.67                             130   -0.48 9  158 352 
 OCA  HZ I         5 2 48.34        22.0 0.14            130            158 352 
 ZAR  HZ EP        5 2 26.25                             122   -0.56 8  206 291 
 ZAR  HN ES        5 2 51.92                             122   -0.37 8  206 291 
 ZAR  HZ I         5 3  0.65        12.3 0.24            120            206 291 
 NOR  HZ IP        5 2 30.44                             118    0.07 8  239 234 
 NOR  HN ES        5 2 58.24                             118   -0.38 8  239 234 
 NOR  HZ I         5 3  5.73        14.2 0.14            117            239 234 
 SML  HZ EP        5 2 30.51                             118   -0.14 8  242 334 
 SML  HN ES        5 2 58.75                             118   -0.37 8  242 334 
 SML  HZ I         5 3  2.16        26.5 0.26            117            242 334 
 CHI  HZ EP        5 2 31.84                             117   -0.42 8  252 196 
 CHI  HN ES        5 3  1.36                             117   -0.64 8  252 196 
 CHI  HZ I         5 3  7.14         5.7 0.28            117            252 196 
 HEL  HZ EP        5 2 35.29                             114    0.48 7  276 255 
 HEL  HN ES        5 3  6.47                             114   -0.06 7  276 255 
 HEL  HZ I         5 3 13.47         6.9 0.38            113            276 255 
 GUY2CHZ EP        5 2 38.57                             112    0.30 7  306 235 
 GUY2CHN ES        5 3 12.34                             112   -0.34 7  306 235 
 GUY2CHZ I         5 3 20.00         8.1 0.26                           306 235 
 PTGC HZ EP   4    5 2 37.15                             111   -1.04 0  310 159 
 PTGC HN ES   4    5 3 10.77                             111   -1.77 0  310 159 
 CBOC HZ EP        5 2 41.74                             110    0.20 7  338 252 
 CBOC HN ES        5 3 19.02                             110    0.51 7  338 252 
 CBOC HZ I         5 3 34.52         2.7 0.72            109            338 252 
 TOL  SZ EP   4    5 2 43.66                             109    0.73 0  348 225 
 TOL  SN ES        5 3 21.41                             109    0.44 6  348 225 
 TOL  SZ I         5 3 27.41         6.2 0.52            109            348 225 
 MON  HZ EP   4    5 2 40.92                             109   -2.33 0  354 308 
 MON  HE ES   4    5 3 19.74                             109   -1.81 0  354 308 
 MON  HZ I         5 3 35.50         2.1 0.64            108            354 308 
 SJC  HZ EP   4    5 2 48.14                             106   -1.50 0  409 326 
 SJC  HN ES   4    5 3 29.35                             106   -3.57 0  409 326 
                                                                                
