 2012 10 1 0325 26.9 L   6.686 -73.142142.0  RSN  4 0.3 1.6LRSN                1
 GAP=211        0.70      13.3     6.7 10.9 -0.3258E+02 -0.1938E+02  0.8472E+02E
 Epicentro: VILLANUEVA - SANTANDER                                             3
 ACTION:UPD 12-11-22 17:01 OP:ep   STATUS:               ID:20121001032526 L   I
 2012-10-01-0319-37M.COL___199                                                 6
 STAT SP IPHASW D HRMM SECON CODA AMPLIT PERI AZIMU VELO AIN AR TRES W  DIS CAZ7
 BAR2 SZ EP        325 46.13                             175    0.2710 11.2 203 
 BAR2 SZ I         325 46.27         6.4 0.18                          11.2 203 
 GIR2 SZ EP        325 46.15                             163   -0.3510 43.8 353 
 GIR2 SZ ES   2    326  1.51                             163   -0.31 5 43.8 353 
 BRR  HZ EP        325 48.01                             150   -0.0210 78.3 307 
 BRR  HZ I         325 48.45        10.6 0.12                          78.3 307 
 BRR  HN ES   1    326  5.06                             150    0.52 7 78.3 307 
 PTB  HN EP        325 53.46                             132    0.08 9  146 264 
 PTB  HN ES   1    326 13.70                             132   -0.37 7  146 264 
                                                                                
