 2015  8 1 0341 39.2 L   6.809 -73.114143.4  RSN  8 0.5 1.8LRSN                1
 GAP=204        1.15       4.4     6.7  7.1 -0.5830E+00  0.2119E+02 -0.1436E+01E
 Epicentro: LOS SANTOS - SANTANDER                                             3
 ACTION:UPD 15-09-15 22:59 OP:cam  STATUS:               ID:20150801034139 L   I
 OLDACT:REG 15-08-01 12:12 OP:drio STATUS:               ID:20150801033750     3
 2015-08-01-0337-50M.COL___352                                                 6
 STAT SP IPHASW D HRMM SECON CODA AMPLIT PERI AZIMU VELO AIN AR TRES W  DIS CAZ7
 BAR2 EZ EP        341 58.54                             170   -0.0910 25.1 198 
 BAR2 EZ ES        342 13.20                             170   -0.5510 25.1 198 
 BAR2 EZ I         342 14.70        15.5 0.12            166           25.1 198 
 BRR  HZ EP        342  0.48                             151    0.1810 73.9 297 
 BRR  HN ES        342 17.60                             151    0.8810 73.9 297 
 BRR  HZ I         342 21.48         8.1 0.44            147           73.9 297 
 RUS  HZ EP        342  2.58                             143   -0.2410  101 178 
 RUS  HN ES        342 21.46                             143    0.2510  101 178 
 RUS  HZ I         342 22.11         5.9 0.22            145            101 178 
 NOR  HZ EP        342 14.97                             118   -0.24 8  238 235 
 NOR  HN ES        342 42.81                             118   -0.45 8  238 235 
 NOR  HZ I         342 47.92         6.5 0.36            118            238 235 
 SML  HZ EP        342 15.71                             117   -0.10 8  244 334 
 SML  HN ES        342 43.63                             117   -0.70 8  244 334 
 SML  HZ I         342 47.96         6.8 0.10            118            244 334 
 HEL  HZ EP        342 20.42                             114    0.67 7  276 256 
 HEL  HE ES   4    342 49.78                             114   -1.56 0  276 256 
 HEL  HZ I         342 57.37         3.4 0.26            114            276 256 
 GUY2CHZ EP        342 23.77                             112    0.63 7  305 235 
 GUY2CHN ES        342 57.01                             112   -0.36 7  305 235 
 GUY2CHZ I         343  5.03         4.7 0.34                           305 235 
 CBOC HZ EP        342 27.19                             109    0.70 7  337 252 
 CBOC HN ES        343  2.64                             109   -0.69 7  337 252 
 CBOC HZ I         343 12.15         1.0 0.34            110            337 252 
                                                                                
