 2015  6 1 0808 49.2 L   6.792 -73.096145.9  RSN 18 0.5 2.4LRSN                1
 GAP=168        1.02       2.6     3.8  5.2  0.1027E+01  0.4365E+01  0.3746E+01E
 Epicentro: LOS SANTOS - SANTANDER                                             3
 ACTION:UPD 15-09-10 22:08 OP:cam  STATUS:               ID:20150601080849 L   I
 OLDACT:UP  15-06-11 08:25 OP:AR   STATUS:               ID:20150601080849 L   3
 OLDACT:DUP 15-06-01 20:03 OP:stll STATUS:               ID:20150601075752d    3
 2015-06-01-0757-49M.COL___300                                                 6
 STAT SP IPHASW D HRMM SECON CODA AMPLIT PERI AZIMU VELO AIN AR TRES W  DIS CAZ7
 BAR2 EZ EP        8 9  8.94                             170    0.1010 24.1 203 
 BAR2 EZ ES        8 9 24.22                             170    0.0410 24.1 203 
 BAR2 EZ I         8 9 25.64       101.8 0.22            167           24.1 203 
 BRR  HZ IP     C  8 9 10.81                             151    0.1610 76.4 297 
 BRR  HN ES        8 9 27.57                             151    0.1810 76.4 297 
 BRR  HZ I         8 9 29.09        27.8 0.14            146           76.4 297 
 RUS  HZ EP        8 9 13.02                             144    0.1510 99.5 179 
 RUS  HN ES        8 9 31.37                             144    0.0310 99.5 179 
 RUS  HZ I         8 9 32.86        47.7 0.26            144           99.5 179 
 OCA  HN ES        8 9 40.50                             129    0.65 9  162 351 
 OCA  HZ I         8 9 43.25        33.3 0.13            128            162 351 
 SPBC HZ EP        8 9 18.00                             129    0.04 9  166 221 
 SPBC HN ES        8 9 39.90                             129   -0.51 9  166 221 
 SPBC HZ I         8 9 42.67        66.0 0.28            127            166 221 
 ZAR  HE ES        8 9 47.19                             122   -0.75 8  209 292 
 NOR  HZ EP        8 9 25.27                             118   -0.08 8  239 235 
 NOR  HN ES        8 9 52.67                             118   -0.88 8  239 235 
 SML  HZ EP   1    8 9 25.55                             117   -0.60 6  247 334 
 SML  HN ES        8 9 54.33                             117   -0.65 8  247 334 
 SML  HZ I         8 9 58.43        27.2 0.12            116            247 334 
 CHI  HZ EP        8 9 26.95                             117   -0.01 8  249 196 
 CHI  HN ES        8 9 56.90                             117    0.47 8  249 196 
 ROSC BZ EP        8 9 28.44                             116    0.89 8  255 212 
 ROSC BN ES   4    8 9 59.38                             116    1.92 0  255 212 
 ROSC BZ I         810  4.44        26.4 0.40            116            255 212 
 HEL  HN ES        810  2.39                             114    0.61 7  277 256 
 GUY2CHZ EP        8 9 33.47                             112    0.22 7  305 235 
 GUY2CHN ES        810  7.66                             112    0.04 7  305 235 
 GUY2CHZ I         810 15.11         9.4 0.32                           305 235 
 PTGC HZ EP        8 9 31.96                             112   -0.78 7  306 160 
 PTGC HN ES        810  5.75                             112   -0.96 7  306 160 
 CBOC HZ EP        8 9 36.60                             110   -0.07 7  339 253 
 CBOC HN ES        810 13.49                             110   -0.22 7  339 253 
 CBOC HZ I         810 28.94         3.2 0.30            109            339 253 
 TOL  SZ EP        8 9 38.23                             109    0.41 6  347 225 
 TOL  SN ES        810 16.09                             109    0.33 6  347 225 
 TOL  SZ I         810 23.54         9.9 0.59            108            347 225 
 MON  HZ EP   4    8 9 42.60                             108    3.85 0  358 308 
 MON  HN ES   4    810 13.59                             108   -3.81 0  358 308 
 MON  HZ I         810 31.02         5.9 0.66            107            358 308 
 ANIL HN ES        810 18.97                             108    0.46 6  361 225 
 ORTC HZ EP        8 9 44.03                             106    0.62 6  398 217 
 ORTC HN ES        810 25.57                             106   -0.13 6  398 217 
 ORTC HZ I         810 32.61         8.2 0.39            106            398 217 
                                                                                
