 2013  4 1 0441  5.6 L   6.789 -73.144151.4  RSN 10 0.5 1.7LRSN                1
 GAP=137        0.95       4.1     4.9  6.7 -0.1406E+01  0.5006E+01 -0.7151E+00E
 Epicentro: LOS SANTOS - SANTANDER                                             3
 ACTION:UPD 13-05-22 14:34 OP:EP   STATUS:               ID:20130401044105 L   I
 2013-04-01-0440-00M.COL___245                                                 6
 STAT SP IPHASW D HRMM SECON CODA AMPLIT PERI AZIMU VELO AIN AR TRES W  DIS CAZ7
 BAR2 SZ EP   1    441 25.92                             171    0.05 7 22.2 191 
 BAR2 SZ ES   1    441 41.15                             171   -0.55 7 22.2 191 
 BAR2 SZ I         441 43.90        24.5 0.40            170           22.2 191 
 GIR2 SZ EP   1    441 25.97                             167    0.01 7 32.5 350 
 GIR2 SZ ES   1    441 41.47         8.2 0.32            167   -0.38 7 32.5 350 
 BRR  HZ EP        441 27.78                             153    0.4010 71.9 299 
 BRR  HN ES        441 45.25                             153    0.8610 71.9 299 
 BRR  HZ I         441 49.05        11.6 0.18            153           71.9 299 
 PAM  SZ EP     C  441 28.70                             152    0.2510 78.2  39 
 PAM  SN ES   1    441 46.14                             152   -0.15 7 78.2  39 
 PAM  SZ I         441 48.18         5.9 0.22            156           78.2  39 
 RUS  HZ EP   1    441 29.73                             145   -0.08 7 99.4 176 
 RUS  HE ES   1    441 48.74                             145    0.04 7 99.4 176 
 RUS  HZ I         441 50.70         3.9 0.32            147           99.4 176 
 PTB  HN ES   1    441 53.66                             133   -0.74 7  148 259 
 PTB  HZ I         441 57.59         7.8 0.12            134            148 259 
 OCA  HN ES   1    441 56.63                             131   -0.34 7  161 353 
 ZAR  HN ES   1    442  4.48                             123    0.37 6  205 292 
 NOR  HZ EP   1    441 41.84                             120    0.26 6  234 235 
 NOR  HN ES   1    442  9.16                             120   -0.51 6  234 235 
 NOR  HZ I         442 14.21         5.5 0.20            121            234 235 
 SML  HZ EP   1    441 42.16                             118   -0.49 6  245 335 
 SML  HN ES   1    442 10.79                             118   -0.78 6  245 335 
                                                                                
