 2013  7 1 0646 50.7 L   6.799 -73.138146.8  RSN  8 0.5 1.6LRSN                1
 GAP=138        1.36       5.5     6.9  9.2 -0.5873E+01  0.2561E+01 -0.4240E+01E
 Epicentro: LOS SANTOS - SANTANDER                                             3
 ACTION:UPD 13-08-12 10:34 OP:ep   STATUS:               ID:20130701064650 L   I
 OLDACT:REG 13-07-01 09:08 OP:stll STATUS:               ID:20130701063839     3
 2013-07-01-0638-39M.COL___230                                                 6
 STAT SP IPHASW D HRMM SECON CODA AMPLIT PERI AZIMU VELO AIN AR TRES W  DIS CAZ7
 BAR2 SZ EP        647 10.57                             171    0.0810 23.4 192 
 BAR2 SZ ES        647 25.97                             171    0.0710 23.4 192 
 BAR2 SZ I         647 26.81         5.7 0.28            170           23.4 192 
 GIR2 SZ EP        647 10.65                             167    0.1110 31.6 349 
 BRR  HZ EP        647 12.41                             152    0.3710 72.0 298 
 BRR  HN ES        647 29.80                             152    1.1410 72.0 298 
 BRR  HN I         647 33.20        11.0 0.16            150           72.0 298 
 PAM  SZ EP        647 13.44                             151    0.4110 76.9  39 
 PAM  SN ES        647 30.00                             151   -0.4210 76.9  39 
 PAM  SN I         647 31.60         8.6 0.52            154           76.9  39 
 RUS  HZ EP        647 14.87                             144    0.3010  100 177 
 RUS  HN ES        647 32.64                             144   -0.5310  100 177 
 RUS  HN I         647 33.72         4.3 0.32            147            100 177 
 GRA  SZ EP        647 16.17                             137    0.1110  126  17 
 PTB  HZ EP        647 17.45                             132   -0.41 9  149 259 
 PTB  HN ES        647 38.41                             132   -0.61 9  149 259 
 PTB  HN I         647 44.08         6.3 0.50            132            149 259 
 OCA  HN ES        647 40.42                             130   -0.89 9  161 353 
                                                                                
