 2013  4 1 0255 38.4 L   7.237 -73.245  6.1  RSN  6 0.4 0.9LRSN                1
 GAP=107        0.72       3.7     2.3 10.6 -0.3055E+01  0.1024E+02 -0.2897E+02E
 Epicentro: RIONEGRO - SANTANDER                                               3
 ACTION:UPD 13-05-22 14:34 OP:EP   STATUS:               ID:20130401025538 L   I
 2013-04-01-0250-00M.COL___245                                                 6
 STAT SP IPHASW D HRMM SECON CODA AMPLIT PERI AZIMU VELO AIN AR TRES W  DIS CAZ7
 GIR2 SZ EP   1    255 41.78                              99   -0.17 7 18.4 162 
 GIR2 SZ ES   1    255 44.54                              99   -0.18 7 18.4 162 
 BRR  HN ES   1    255 54.03                              92    0.14 7 53.5 254 
 PAM  SZ EP   1    255 49.13                              92    0.35 7 61.3  79 
 PAM  SE ES   1    255 56.54                              92   -0.35 7 61.3  79 
 PAM  SZ I         255 57.27         4.1 0.16             92           61.3  79 
 RUS  HZ EP   1    256  3.03                              91    0.84 7  150 173 
 RUS  HN ES   1    256 20.63                              91   -0.12 7  150 173 
 RUS  HZ I         256 22.10         1.5 0.22             91            150 173 
 PTB  HE ES   1    256 20.74                              91   -0.40 7  155 240 
 PTB  HZ I         256 22.94         2.7 0.34             91            155 240 
 SML  HN ES   1    256 30.79                              56   -0.11 6  195 332 
                                                                                
