 2015  5 1 0720  5.9 L   6.805 -73.128142.6  RSN 14 0.5 1.9LRSN                1
 GAP= 72        1.24       3.1     3.6  6.1 -0.8514E+00  0.6678E+01  0.1642E+01E
 Epicentro: LOS SANTOS - SANTANDER                                             3
 ACTION:UPD 15-09-10 22:00 OP:cam  STATUS:               ID:20150501072005 L   I
 OLDACT:REG 15-05-01 12:56 OP:drio STATUS:               ID:20150501071747     3
 2015-05-01-0717-47M.COL___270                                                 6
 STAT SP IPHASW D HRMM SECON CODA AMPLIT PERI AZIMU VELO AIN AR TRES W  DIS CAZ7
 BAR2 EZ IP     C  720 25.15                             170    0.0410 24.2 194 
 BAR2 EZ ES        720 40.31                             170    0.1710 24.2 194 
 BAR2 EZ I         720 42.67        17.2 0.20            168           24.2 194 
 BRR  HN ES        720 44.01                             152    0.9810 72.6 297 
 PAM  SZ IP     C  720 28.14                             151    0.5110 75.8  39 
 PAM  SZ I         720 28.28        11.1 0.24            154           75.8  39 
 PAM  SN ES        720 44.89                             151    0.2710 75.8  39 
 RUS  HZ EP     C  720 29.00                             143   -0.3210  101 177 
 RUS  HZ I         720 30.17         6.3 0.16            144            101 177 
 RUS  HN ES        720 47.59                             143   -0.0310  101 177 
 TAM  HZ IP     C  720 33.39                             130    0.27 9  153 105 
 TAM  HN ES        720 53.67                             130   -0.71 9  153 105 
 OCA  HZ EP        720 33.85                             129   -0.04 9  160 352 
 OCA  HN ES        720 55.24                             129   -0.52 9  160 352 
 OCA  HZ I         720 58.70        22.3 0.38            130            160 352 
 SPBC HZ EP        720 34.15                             128   -0.11 9  165 219 
 SPBC HZ I         720 34.50        12.1 0.10            128            165 219 
 SPBC HN ES        720 55.94                             128   -0.48 9  165 219 
 ZAR  HZ EP        720 38.04                             122   -0.21 8  206 292 
 ZAR  HE ES        721  3.50                             122   -0.03 8  206 292 
 ZAR  HZ I         721  9.24         8.3 0.26            122            206 292 
 NOR  HZ EP        720 41.35                             118   -0.25 8  237 235 
 NOR  HN ES        721  9.08                             118   -0.40 8  237 235 
 NOR  HZ I         721 17.47         7.4 0.16            118            237 235 
 SML  HZ EP   1    720 43.08                             117    0.75 6  244 335 
 SML  HN ES        721  9.59                             117   -1.20 8  244 335 
 CHI  HZ EP        720 43.24                             116   -0.24 8  250 196 
 CHI  HE ES        721 13.01                             116    0.18 8  250 196 
 CHI  HZ I         721 17.85         3.0 0.28            117            250 196 
 HEL  HZ EP        720 47.04                             114    0.92 8  274 256 
 HEL  HE ES        721 16.55                             114   -0.98 8  274 256 
 HEL  HZ I         721 23.67         3.8 0.32            114            274 256 
 GUY2CHZ EP        720 50.15                             112    0.63 7  303 235 
 GUY2CHN ES        721 23.91                             112    0.32 7  303 235 
 GUY2CHZ I         721 31.53         4.8 0.60                           303 235 
 CBOC HZ EP        720 53.72                             109    0.86 7  336 252 
 CBOC HZ I         720 54.08         2.1 0.34            110            336 252 
                                                                                
