 2012  1 1 0850 24.2 L   6.756 -73.136141.5  RSN  6 0.4 1.5LRSN                1
 GAP=140        0.82       4.4     7.4  7.2 -0.9299E+00  0.1244E+02  0.5726E+01E
 Epicentro: LOS SANTOS - SANTANDER                                             3
 ACTION:UP  12-02-03 08:12 OP:REBC STATUS:               ID:20120101085024 L   I
 2012-01-01-0850-00M.COL___186                                                 6
 STAT SP IPHASW D HRMM SECON CODA AMPLIT PERI AZIMU VELO SNR AR TRES W  DIS CAZ7
 BAR2 SZ EP   1    850 43.28                             172     0.0 7   19 196 
 BAR2 SZ ES   1    850 57.91                             172    -0.2 7   19 196 
 BAR2 SZ I         850 59.79         7.2 0.13                            19 196 
 BRR  HZ EP   1    850 45.05                             150     0.0 7   75 301 
 BRR  HN ES   1    851  1.84                             150     0.5 7   75 301 
 BRR  HZ I         851  5.29         9.7 0.18                            75 301 
 PAM  SZ EP   1    850 46.14                             149     0.0 7   81  37 
 PAM  SN ES   1    851  3.02                             149    -0.3 7   81  37 
 PAM  SZ I         851  3.52         3.0 0.38                            81  37 
 RUS  HZ EP   1    850 47.61                             144     0.4 7   96 176 
 RUS  HZ I         850 48.53         4.9 0.15                            96 176 
 RUS  HN ES   1    851  5.09                             144     0.0 7   96 176 
 ZAR  HZ EP   1    850 56.14                             121    -0.5 6  207 293 
 ZAR  HZ I         851 26.41         4.8 0.19                           207 293 
 CHI  HZ EP   1    851  1.70                             117     0.5 6  244 196 
 CHI  HN ES   1    851 29.39                             117    -0.6 6  244 196 
 CHI  HZ I         851 38.34         2.8 0.45                           244 196 
                                                                                
