 2017  8 1 0551 57.7 L   6.796 -73.149147.0  RSN 14 0.4 1.9LRSN                1
 GAP=112        0.93       2.9     3.1  4.8  0.6841E+00  0.3267E+01  0.4321E+01E
 Epicentro: LOS SANTOS - SANTANDER                                             3
 ACTION:UPD 17-09-04 20:15 OP:rebc STATUS:               ID:20170801055157 L   I
 OLDACT:DUP 17-08-01 17:34 OP:osc  STATUS:               ID:20170801054743d    3
 2017-08-01-0548-00M.COL___398                                                 6
 STAT SP IPHASW D HRMM SECON CODA AMPLIT PERI AZIMU VELO AIN AR TRES W  DIS CAZ7
 BAR2 EZ EP        552 17.17                             171   -0.2510 22.8 189 
 BAR2 EZ ES        552 32.48                             171   -0.3610 22.8 189 
 BAR2 EZ I         552 35.00        19.9 0.26            168           22.8 189 
 BRR  HZ EP        552 18.93                             153    0.0010 71.1 299 
 BRR  HE ES        552 36.30                             153    0.7710 71.1 299 
 BRR  HZ I         552 36.58         8.0 0.13            151           71.1 299 
 PAM  EZ EP        552 20.13                             151    0.0910 78.0  40 
 PAM  EE ES        552 37.57                             151    0.0810 78.0  40 
 PAM  EZ I         552 39.37        14.3 0.48            156           78.0  40 
 RUS  HZ EP        552 21.40                             144   -0.0910  100 176 
 RUS  HN ES        552 39.87                             144   -0.2210  100 176 
 RUS  HZ I         552 41.04        11.1 0.36            144            100 176 
 PTB  HZ EP        552 24.24                             132   -0.44 9  147 259 
 PTB  HE ES        552 45.74                             132   -0.02 9  147 259 
 PTB  HZ I         552 50.54         4.3 0.16            131            147 259 
 SPBC HZ EP        552 26.15                             129   -0.04 9  163 219 
 SPBC HE ES        552 48.09                             129   -0.36 9  163 219 
 SPBC HZ I         552 49.90        14.7 0.16            129            163 219 
 YPLC HZ EP        552 27.59                             127    0.08 9  177 151 
 YPLC HE ES        552 51.27                             127    0.46 9  177 151 
 YPLC HZ I         552 52.53        11.2 0.24            128            177 151 
 ZAR  HZ EP        552 30.25                             123    0.09 9  204 292 
 ZAR  HE ES        552 55.32                             123   -0.20 9  204 292 
 ZAR  HZ I         553  4.13         7.6 0.18            123            204 292 
 NOR  HZ EP        552 33.42                             119    0.03 8  234 235 
 NOR  HE ES        553  0.91                             119   -0.36 8  234 235 
 NOR  HZ I         553  6.78         4.9 0.20            119            234 235 
 CHI  HZ EP        552 35.50                             117    0.14 8  248 195 
 CHI  HE ES        553  4.79                             117    0.02 8  248 195 
 CHI  HZ I         553 14.58         3.4 0.40            118            248 195 
 ROSC BZ EP   4    552 37.80                             117    2.03 0  252 211 
 ROSC BE ES   4    553  6.89                             117    1.38 0  252 211 
 ROSC BZ I         553 11.95         9.4 0.40            117            252 211 
 PTGC HZ EP   2    552 40.30                             112   -1.23 4  308 159 
 PRA  HZ EP        552 50.91                             107   -0.24 6  391 210 
 PRA  HE ES        553 32.48                             107   -0.39 6  391 210 
 PRA  HZ I         553 39.41         3.8 0.38            107            391 210 
 ORTC HZ EP        552 52.48                             106    0.94 6  395 216 
 ORTC HE ES        553 35.14                             106    1.56 6  395 216 
                                                                                
