 2015 10 1 0849 33.9 L   6.809 -73.166141.9  RSN 12 0.4 1.9LRSN                1
 GAP= 70        0.94       2.7     3.2  4.7 -0.2136E+00  0.3105E+01  0.7011E+00E
 Epicentro: LOS SANTOS - SANTANDER                                             3
 ACTION:UPD 15-12-22 20:36 OP:cam  STATUS:               ID:20151001084933 L   I
 OLDACT:REG 15-10-01 14:14 OP:spq  STATUS:               ID:20151001084738     3
 2015-10-01-0847-38M.COL___358                                                 6
 STAT SP IPHASW D HRMM SECON CODA AMPLIT PERI AZIMU VELO AIN AR TRES W  DIS CAZ7
 BAR2 EZ EP        849 53.31                             170    0.1810 24.0 184 
 BAR2 EZ ES        850  8.13                             170    0.0410 24.0 184 
 BAR2 EZ I         850  9.90        13.4 0.42            167           24.0 184 
 BRR  HZ EP        849 55.21                             153    0.6710 68.8 299 
 BRR  HE ES        850 11.08                             153    0.4710 68.8 299 
 PAM  EZ EP        849 56.07                             150    0.2710 78.1  41 
 PAM  EN ES        850 12.74                             150   -0.1010 78.1  41 
 PAM  EZ I         850 15.21        10.0 0.52            150           78.1  41 
 RUS  HZ EP        849 57.44                             143    0.0410  102 175 
 RUS  HN ES        850 15.42                             143   -0.2810  102 175 
 RUS  HZ I         850 17.02         8.3 0.36            139            102 175 
 PTB  HZ EP        849 59.88                             132   -0.54 9  146 258 
 PTB  HE ES        850 20.70                             132   -0.37 9  146 258 
 PTB  HZ I         850 23.54         6.3 0.64            126            146 258 
 TAM  HZ IP     D  850  1.56                             129    0.01 9  157 105 
 TAM  HZ I         850  1.96        17.7 0.44            128            157 105 
 SPBC HZ EP        850  1.86                             128   -0.23 9  163 218 
 SPBC HN ES        850 23.56                             128   -0.48 9  163 218 
 SPBC HZ I         850 30.37        13.5 0.24            123            163 218 
 ZAR  HZ EP        850  6.03                             122    0.14 9  202 292 
 ZAR  HN ES        850 31.30                             122    0.49 9  202 292 
 ZAR  HZ I         850 36.90        10.1 0.52            117            202 292 
 SML  HZ EP        850  9.69                             117   -0.47 8  242 336 
 SML  HN ES        850 37.46                             117   -0.95 8  242 336 
 SML  HZ I         850 41.53         8.3 0.10            113            242 336 
 CHI  HZ EP        850 11.57                             116    0.10 8  249 195 
 CHI  HN ES        850 40.72                             116   -0.02 8  249 195 
 CHI  HZ I         850 44.50         2.8 0.70            113            249 195 
 HEL  HZ EP        850 13.85                             114    0.10 8  270 255 
 HEL  HZ I         850 52.67         4.3 0.38            110            270 255 
 GUY2CHZ EP        850 17.76                             112    0.53 7  300 234 
 GUY2CHN ES        850 51.25                             112    0.25 7  300 234 
 GUY2CHZ I         851  1.77         4.7 0.50                           300 234 
                                                                                
