 2012  8 1 0835 10.6 L   6.472 -73.533118.7  RSN  5 0.4 1.3LRSN                1
 GAP=132        0.85       7.1     6.5 11.7  0.2965E+02  0.1291E+02  0.1502E+01E
 Epicentro: SANTA HELENA DEL OPON - SANTANDER                                  3
 ACTION:UPD 12-09-10 11:53 OP:ep   STATUS:               ID:20120801083509 L   I
 2012-08-01-0830-00M.COL___215                                                 6
 STAT SP IPHASW D HRMM SECON CODA AMPLIT PERI AZIMU VELO AIN AR TRES W  DIS CAZ7
 BAR2 SZ EP   2    835 27.23                             160   -0.33 6 40.9  71 
 BAR2 SZ I         835 46.10         7.8 0.19                          40.9  71 
 BRR  HZ EP   1    835 28.61                             146   -0.39 9 73.0 344 
 BRR  HZ I         835 39.98         6.6 0.13                          73.0 344 
 BRR  HE ES   1    835 43.19                             146   -0.17 9 73.0 344 
 RUS  HZ EP   1    835 30.35                             144    0.08 9 81.1 142 
 RUS  HN ES   1    835 46.04                             144    0.42 9 81.1 142 
 RUS  HZ I         835 48.44         2.2 0.42                          81.1 142 
 PTB  HZ EP   1    835 30.97                             136   -0.31 9  102 274 
 PTB  HN ES   1    835 46.95                             136   -0.47 9  102 274 
 PTB  HZ I         835 51.16         3.4 0.16                           102 274 
 ZAR  HE ES        836  2.48                             118    0.7110  185 308 
                                                                                
