 2010  9 1 0828 25.6 L   6.758 -73.345142.8  RSN  5 0.3 1.6LRSN                1
 GAP=198        0.69       4.7    23.6 10.7 -0.1613E+02  0.7975E+02 -0.1925E+02E
 Epicentro: ZAPATOCA - SANTANDER                                               3
 ACTION:UP  11-02-18 10:59 OP:tino STATUS:               ID:20100901082825 L   I
 2010-09-01-0825-09S.COL___120                                                 6
 STAT SP IPHASW D HRMM SECON CODA AMPLIT PERI AZIMU VELO SNR AR TRES W  DIS CAZ7
 BAR2 SZ EP   1    828 45.00                             169     0.1 7   26 136 
 BAR2 SZ ES   2    828 59.84                             169    -0.2 5   26 136 
 BAR2 SZ I         829  2.94        11.6 0.75                            26 136 
 RUS  HZ EP   1    828 49.09                             143     0.1 7  100 163 
 RUS  HE ES   2    829  7.31                             143     0.0 5  100 163 
 RUS  HZ I         829  8.27         4.5 0.40                           100 163 
 GUE  SZ EP   1    828 50.36                             136    -0.6 7  127  21 
 GRA  SZ EP   1    828 52.21                             133     0.6 7  138  26 
 GRA  SZ ES   2    829 11.81                             133    -0.2 5  138  26 
 GRA  SZ I         829 12.80         3.4 0.42                           138  26 
 OCA  SZ EP   1    828 53.84                             128    -0.2 7  164   1 
 OCA  SZ ES   2    829 16.57                             128     0.4 5  164   1 
 OCA  SZ I         829 20.53         5.3 0.25                           164   1 
                                                                                
