 2016  1 1 0319  5.2 L   6.388 -73.535125.9  RSN  4 0.4 1.6LRSN                1
 GAP=219        1.00       9.4     5.5  8.7  0.1154E+02  0.1803E+02  0.1169E+02E
 Epicentro: SANTA HELENA DEL OPON - SANTANDER                                  3
 ACTION:UP  16-12-12 21:25 OP:cam  STATUS:               ID:20160101031905 L   I
 OLDACT:UPD 16-03-09 23:21 OP:cam  STATUS:               ID:20160101031905 L   3
 OLDACT:REG 16-01-01 13:43 OP:drio STATUS:               ID:20160101031748     3
 2016-01-01-0317-48M.COL___317                                                 6
 STAT SP IPHASW D HRMM SECON CODA AMPLIT PERI AZIMU VELO AIN AR TRES W  DIS CAZ7
 BAR2 EZ EP        319 23.25                             159    0.1110 45.1  60 
 BAR2 EZ ES        319 36.86                             159   -0.3010 45.1  60 
 BAR2 EZ I         319 39.21        13.5 0.30            160           45.1  60 
 BRR  HZ EP        319 24.62                             145   -0.3010 81.9 346 
 BRR  HN ES        319 40.83                             145    0.5110 81.9 346 
 BRR  HZ I         319 42.18         4.1 0.10            143           81.9 346 
 PTB  HZ EP        319 26.46                             138   -0.1110  103 279 
 PTB  HN ES        319 43.43                             138    0.1710  103 279 
 PTB  HZ I         319 45.05         7.7 0.40            138            103 279 
 ZAR  HZ EP        319 35.54                             119    0.60 9  190 310 
 ZAR  HN ES        319 57.46                             119   -0.71 9  190 310 
 ZAR  HZ I         320  2.94         5.8 0.56            120            190 310 
                                                                                
