 2010  9 1 0942  8.3 L   6.764 -73.133140.0  RSN  8 0.4 1.9LRSN                1
 GAP=160        1.19       5.3    12.2  9.6 -0.8915E+01 -0.1616E+02 -0.9367E+01E
 Epicentro: LOS SANTOS - SANTANDER                                             3
 ACTION:UP  11-02-18 10:59 OP:tino STATUS:               ID:20100901094208 L   I
 2010-09-01-0939-49S.COL___120                                                 6
 STAT SP IPHASW D HRMM SECON CODA AMPLIT PERI AZIMU VELO SNR AR TRES W  DIS CAZ7
 BAR2 SZ IP        942 26.76                             172    -0.410   20 196 
 BAR2 SZ ES        942 41.54                             172    -0.310   20 196 
 BAR2 SZ I         942 44.03        24.0 0.33                            20 196 
 BTL  SZ EP        942 27.86                             170     0.710   23 319 
 BRR  HZ IP     C  942 28.60                             151    -0.410   74 301 
 BRR  HZ I         942 28.87        29.3 0.17                            74 301 
 BRR  HE ES   1    942 45.73                             151     0.6 7   74 301 
 RUS  HZ EP   1    942 30.80                             144    -0.4 7   97 177 
 RUS  HN ES   1    942 49.28                             144     0.3 7   97 177 
 RUS  HZ I         942 50.15         8.1 0.28                            97 177 
 GUE  SZ EP        942 32.82                             137     0.110  120  11 
 GUE  SZ I         942 33.94         5.4 0.10                           120  11 
 GRA  SZ IP        942 33.54                             135     0.210  129  16 
 GRA  SZ ES   1    942 53.19                             135     0.4 7  129  16 
 GRA  SZ I         942 54.22        10.5 0.46                           129  16 
 OCA  SZ ES   1    942 57.71                             127    -0.9 7  164 353 
 OCA  SZ I         943  0.28        13.1 0.11                           164 353 
 PRA  HZ EP   2    943  1.38                             106     0.1 3  389 210 
 PRA  HE ES   2    943 42.98                             106     0.4 3  389 210 
 PRA  HZ I         943 45.73         2.4 0.33                           389 210 
                                                                                
