 2014  2 1 0328 16.4 L   6.699 -73.194146.0  RSN  6 0.4 1.5LRSN                1
 GAP=152        0.92       4.7     4.9  6.2  0.4815E+01 -0.2573E+01  0.5406E+01E
 Epicentro: VILLANUEVA - SANTANDER                                             3
 ACTION:UPD 14-03-10 08:06 OP:ep   STATUS:               ID:20140201032816 L   I
 OLDACT:REG 14-02-01 07:53 OP:stll STATUS:               ID:20140201031814     3
 2014-02-01-0318-14M.COL___240                                                 6
 STAT SP IPHASW D HRMM SECON CODA AMPLIT PERI AZIMU VELO AIN AR TRES W  DIS CAZ7
 BAR2 SZ EP        328 35.72                             175   -0.1410 11.9 174 
 BAR2 SZ ES        328 51.02                             175   -0.0310 11.9 174 
 BAR2 SZ I         328 51.72        12.5 0.22            173           11.9 174 
 BRR  HZ EP        328 37.74                             152    0.0910 72.9 308 
 BRR  HE ES        328 54.76                             152    0.5310 72.9 308 
 BRR  HZ I         328 57.69         5.4 0.44            153           72.9 308 
 RUS  HZ EP        328 39.44                             147    0.0210 90.0 172 
 RUS  HN ES        328 57.40                             147    0.0210 90.0 172 
 RUS  HZ I         328 59.35         4.1 0.32            146           90.0 172 
 PTB  HZ EP        328 42.74                             134    0.01 9  141 263 
 PTB  HN ES        329  2.59                             134   -0.70 9  141 263 
 PTB  HZ I         329  4.39         3.9 0.52            134            141 263 
 TAM  HZ EP        328 43.89                             130   -0.43 9  158 101 
 TAM  HZ I         328 44.01         8.3 0.20            132            158 101 
 CHI  HZ EP        328 53.53                             118    0.75 8  236 195 
 CHI  HN ES        329 21.17                             118    0.00 8  236 195 
 CHI  HZ I         329 26.60         1.1 0.66            119            236 195 
                                                                                
