 2016  6 1 0559 33.0 L   6.805 -73.164154.1  RSN  6 0.4 1.5LRSN                1
 GAP=181        1.06       4.1     6.9  9.0 -0.2161E+01 -0.1059E+02 -0.1371E+01E
 Epicentro: LOS SANTOS - SANTANDER                                             3
 ACTION:UPD 16-07-21 22:14 OP:rebc STATUS:               ID:20160601055933 L   I
 OLDACT:REG 16-06-01 13:36 OP:edw  STATUS:               ID:20160601055745     3
 2016-06-01-0557-45M.COL___304                                                 6
 STAT SP IPHASW D HRMM SECON CODA AMPLIT PERI AZIMU VELO AIN AR TRES W  DIS CAZ7
 BAR2 EZ EP        559 53.73                             171    0.0510 23.6 185 
 BRR  HZ EP     D  559 55.50                             155    0.5110 69.1 299 
 BRR  HN ES        6 0 12.87                             155    0.7710 69.1 299 
 BRR  HZ I         6 0 14.94         3.5 0.30                          69.1 299 
 RUS  HZ EP        559 57.79                             145    0.1210  101 175 
 RUS  HN ES        6 0 16.64                             145   -0.2410  101 175 
 RUS  HZ I         6 0 17.43         2.3 0.30                           101 175 
 PTB  HZ EP        6 0  0.50                             134   -0.04 9  146 258 
 PTB  HN ES        6 0 21.63                             134   -0.35 9  146 258 
 PTB  HZ I         6 0 27.36         2.2 0.22                           146 258 
 OCA  HZ EP        6 0  2.04                             132    0.10 9  159 354 
 OCA  HN ES        6 0 23.63                             132   -0.85 9  159 354 
 OCA  HZ I         6 0 28.49         9.0 0.20                           159 354 
 SPBC HZ EP        6 0  2.13                             131    0.01 9  162 218 
 SPBC HN ES        6 0 24.49                             131   -0.30 9  162 218 
 SPBC HZ I         6 0 30.64         6.1 0.30                           162 218 
                                                                                
