 2013  7 1 0526 23.0 L   6.761 -73.225144.5  RSN  4 0.1 1.4LRSN                1
 GAP=220        0.42       3.2     3.0  3.3  0.4799E+01  0.1187E+01  0.5860E+00E
 Epicentro: ZAPATOCA - SANTANDER                                               3
 ACTION:UPD 13-08-12 10:34 OP:ep   STATUS:               ID:20130701052623 L   I
 OLDACT:REG 13-07-01 09:02 OP:stll STATUS:               ID:20130701051840     3
 2013-07-01-0518-40M.COL___230                                                 6
 STAT SP IPHASW D HRMM SECON CODA AMPLIT PERI AZIMU VELO AIN AR TRES W  DIS CAZ7
 BAR2 SZ EP        526 42.25                             172   -0.1510 19.3 166 
 BAR2 SZ ES        526 57.76                             172    0.2310 19.3 166 
 BRR  HZ EP        526 43.69                             154   -0.0310 66.0 305 
 BRR  HN ES        526 59.80                             154   -0.0910 66.0 305 
 BRR  HN I         527  4.71         5.1 0.18            151           66.0 305 
 RUS  HZ EP        526 46.50                             144    0.1110 97.3 171 
 RUS  HN ES        527  4.48                             144   -0.1610 97.3 171 
 RUS  HN I         527  5.59         3.1 0.26            147           97.3 171 
 PTB  HZ EP        526 49.12                             134    0.10 9  138 260 
 PTB  HN ES        527  9.31                             134   -0.00 9  138 260 
 PTB  HN I         527 15.18         4.0 0.38            133            138 260 
                                                                                
