 2015 10 1 0439 21.6 L   6.792 -73.117144.8  RSN  6 0.3 1.6LRSN                1
 GAP=240        0.81       4.6     4.7  5.5  0.2197E+01  0.6393E+01  0.4251E+01E
 Epicentro: LOS SANTOS - SANTANDER                                             3
 ACTION:UPD 15-12-22 20:36 OP:cam  STATUS:               ID:20151001043921 L   I
 OLDACT:REG 15-10-01 14:44 OP:spq  STATUS:               ID:20151001043747     3
 2015-10-01-0437-47M.COL___361                                                 6
 STAT SP IPHASW D HRMM SECON CODA AMPLIT PERI AZIMU VELO AIN AR TRES W  DIS CAZ7
 BAR2 EZ EP        439 41.18                             171    0.0710 23.2 198 
 BAR2 EZ ES        439 56.42                             171    0.0910 23.2 198 
 BAR2 EZ I         439 57.56        13.3 0.14            169           23.2 198 
 BRR  HZ EP        439 42.96                             151    0.1310 74.4 298 
 BRR  HE ES        439 59.63                             151    0.2410 74.4 298 
 RUS  HZ EP        439 45.27                             144    0.0910 99.5 178 
 RUS  HN ES        440  3.55                             144   -0.0210 99.5 178 
 RUS  HZ I         440  4.95         3.7 0.22            144           99.5 178 
 PTB  HZ EP        439 48.18                             131   -0.58 9  151 259 
 PTB  HN ES        440  9.59                             131   -0.35 9  151 259 
 PTB  HZ I         440 11.65         3.8 0.12            132            151 259 
 SPBC HZ EP        439 50.08                             129   -0.07 9  164 220 
 SPBC HN ES        440 12.03                             129   -0.39 9  164 220 
 SPBC HZ I         440 15.00         6.0 0.22            129            164 220 
 GUY2CHZ EP        440  5.65                             112    0.25 7  303 235 
 GUY2CHN ES        440 40.46                             112    0.90 7  303 235 
 GUY2CHZ I         440 51.40         1.6 0.54                           303 235 
                                                                                
