 2011 11 1 0740  5.5 L   6.765 -73.093143.8  RSN  4 0.2 1.3LRSN                1
 GAP=145        0.46       3.2     4.9  6.0  0.2081E+01 -0.7045E+01 -0.5223E+00E
 Epicentro: LOS SANTOS - SANTANDER                                             3
 ACTION:UPD 12-07-13 16:07 OP:ep   STATUS:               ID:20111101074005 L   I
 2011-11-01-0735-45S.COL___175                                                 6
 STAT SP IPHASW D HRMM SECON CODA AMPLIT PERI AZIMU VELO AIN AR TRES W  DIS CAZ7
 BAR2 SZ EP        740 24.67                             171   -0.2010 21.5 207 
 BAR2 SZ I         740 24.87         7.6 0.42                          21.5 207 
 PAM  SZ EP        740 27.73                             150    0.2410 76.9  34 
 PAM  SN ES   2    740 44.35                             150   -0.28 5 76.9  34 
 BRR  HZ EP        740 26.83                             150   -0.0310 78.1 299 
 BRR  HE ES   1    740 43.53                             150    0.03 7 78.1 299 
 BRR  HZ I         740 47.63         5.0 0.14                          78.1 299 
 RUS  HZ EP        740 28.70                             145   -0.0810 96.5 179 
 RUS  HE ES   1    740 47.12                             145    0.20 7 96.5 179 
 RUS  HZ I         740 48.87         2.1 0.40                          96.5 179 
                                                                                
