 2012  9 1 0259 29.6 L   6.790 -73.145147.3  RSN 15 0.4 2.3LRSN 3.0WRSN        1
 SPEC AVERAGE  MO 13.6 ST  4.3 OM  2.2 f0 4.07 R0.3619 AL 1.66 WI 34.0 MW  3.0 3
 SPEC SD       MO  0.2 ST  2.6 OM  0.8 f00.139 R0.0125 AL      WI      MW  0.1 3
 GAP= 71        0.83       3.2     3.0  5.1 -0.2261E-01  0.4089E+01  0.3804E+01E
 Epicentro: LOS SANTOS - SANTANDER                                             3
 SPEC PTB HH N MO 13.5 ST  2.5 OM  1.8 f0 3.89 R0.3779 AL 1.68 WI 34.2 MW  2.9 3
 SPEC PTB HH N T 3 016 K 0.000 GD  208 VS 4.20 DE 3.00 Q0230.0 QA 0.60 VS 4.20 3
 SPEC HEL HH Z MO 13.4 ST  2.5 OM  0.8 f0 4.08 R0.3603 AL 1.42 WI 27.4 MW  2.9 3
 SPEC HEL HH Z T 3 010 K 0.000 GD  309 VP 7.60 DE 3.00 Q0230.0 QA 0.60 VS 4.20 3
 SPEC BRR HH N MO 13.9 ST  8.0 OM  2.3 f0 4.23 R0.3475 AL 1.88 WI 40.4 MW  3.2 3
 SPEC BRR HH N T 3 0 6 K 0.000 GD  163 VS 4.20 DE 3.00 Q0230.0 QA 0.60 VS 4.20 3
 ACTION:UPD 12-10-22 14:16 OP:ep   STATUS:               ID:20120901025929 L   I
 2012-09-01-0257-37M.COL___211                                                 6
 STAT SP IPHASW D HRMM SECON CODA AMPLIT PERI AZIMU VELO AIN AR TRES W  DIS CAZ7
 BAR2 SZ EP        259 49.35                             171   -0.0410 22.2 191 
 BAR2 SZ ES   2    3 0  5.11                             171    0.29 5 22.2 191 
 BAR2 SZ I         3 0  7.45        54.5 0.18                          22.2 191 
 GIR2 SZ EP        259 49.50                             167    0.0210 32.4 350 
 GIR2 SZ ES   3    3 0  4.84                             167   -0.15 2 32.4 350 
 BRR  HZ EP        259 51.43                             153    0.4910 71.8 299 
 BRR  HN ES   1    3 0  8.60                             153    1.01 7 71.8 299 
 BRR  HZ I         3 0 10.38        38.4 0.14                          71.8 299 
 PAM  SZ EP        259 52.22                             151    0.2010 78.2  39 
 PAM  SZ I         259 52.89        22.8 0.20                          78.2  39 
 PAM  SN ES   1    3 0  9.35                             151   -0.16 7 78.2  39 
 RUS  HZ EP        259 53.28                             144   -0.1310 99.4 176 
 RUS  HE ES   1    3 0 11.83                             144   -0.16 7 99.4 176 
 RUS  HZ I         3 0 13.15        13.6 0.36                          99.4 176 
 PTB  HZ EP        259 56.33                             132   -0.35 9  148 259 
 PTB  HN ES   1    3 0 16.88                             132   -0.91 7  148 259 
 PTB  HZ I         3 0 23.46        14.5 0.30                           148 259 
 TAM  HZ EP        259 57.51                             131    0.15 9  155 105 
 TAM  HZ I         3 0 17.12        14.3 0.32                           155 105 
 TAM  HE ES   1    3 0 18.84                             131   -0.17 7  155 105 
 OCA  HZ EP        259 57.82                             130   -0.31 9  161 353 
 OCA  HN ES   1    3 0 19.79                             130   -0.60 7  161 353 
 OCA  HZ I         3 0 25.29        62.0 0.22                           161 353 
 ZAR  HZ EP        3 0  2.05                             123   -0.14 9  205 292 
 ZAR  HE ES   1    3 0 27.50                             123   -0.12 6  205 292 
 ZAR  HZ I         3 0 32.93        23.6 0.42                           205 292 
 NOR  SZ EP        3 0  5.13                             119   -0.22 8  234 235 
 NOR  SN ES   1    3 0 32.86                             119   -0.38 6  234 235 
 NOR  SZ I         3 0 37.36        18.5 0.20                           234 235 
 CHI  HZ EP        3 0  7.17                             117   -0.09 8  248 195 
 CHI  HN ES   3    3 0 36.69                             117    0.05 2  248 195 
 CHI  HZ I         3 0 42.42         8.7 0.34                           248 195 
 HEL  HZ EP        3 0 10.68                             115    0.81 8  272 256 
 HEL  HZ I         3 0 47.95         6.7 0.28                           272 256 
 DBB  SZ EP        3 0 17.48                             110    0.33 7  340 274 
 DBB  SZ I         3 0 55.59         9.5 0.48                           340 274 
 ANIL HZ EP        3 0 19.73                             109    0.36 6  357 225 
 ANIL HZ I         3 1  6.19        35.1 0.42                           357 225 
 PRA  HZ EP        3 0 22.80                             107   -0.26 6  391 210 
 PRA  HN ES   2    3 1  5.77                             107    1.01 3  391 210 
 PRA  HZ I         3 1 10.59        12.9 0.64                           391 210 
                                                                                
