 2013  2 1 0345 21.2 L   6.797 -73.156141.6  RSN  7 0.3 1.7LRSN                1
 GAP=135        0.68       2.7     3.0  4.8  0.5362E+00  0.2152E+01  0.3088E+01E
 Epicentro: LOS SANTOS - SANTANDER                                             3
 ACTION:UPD 13-03-12 09:29 OP:ep   STATUS:               ID:20130201034522dL   I
 2013-02-01-0340-00M.COL___241                                                 6
 STAT SP IPHASW D HRMM SECON CODA AMPLIT PERI AZIMU VELO AIN AR TRES W  DIS CAZ7
 BAR2 SZ EP        345 40.08                             170   -0.2510 22.8 187 
 BAR2 SZ ES        345 55.20                             170   -0.0410 22.8 187 
 BAR2 SZ I         345 59.01         5.6 0.50            168           22.8 187 
 BRR  HZ EP        345 41.83                             152   -0.0310 70.4 299 
 BRR  HN ES        345 58.54                             152    0.5710 70.4 299 
 BRR  HN I         345 59.52        21.2 0.22            151           70.4 299 
 PAM  SZ EP        345 42.99                             150   -0.0510 78.3  40 
 PAM  SN ES        346  0.04                             150   -0.0310 78.3  40 
 PAM  SN I         346  1.18         8.1 0.38            153           78.3  40 
 RUS  HZ EP   1    345 44.63                             143    0.09 7  100 175 
 RUS  HN ES        346  2.56                             143   -0.1710  100 175 
 RUS  HN I         346  4.67         6.9 0.54            143            100 175 
 PTB  HN ES        346  8.00                             131   -0.42 9  147 259 
 ZAR  HN ES        346 18.23                             122   -0.08 9  203 292 
 ZAR  HN I         346 25.78         6.7 0.14            122            203 292 
 CHI  HZ EP        345 58.94                             116    0.32 8  248 195 
 CHI  HN ES        346 28.08                             116    0.29 8  248 195 
 CHI  HN I         346 34.47         2.5 0.60            117            248 195 
                                                                                
