 2010 11 1 0854 54.5 L   6.777 -73.156144.0  RSN  5 0.5 1.4LRSN                1
 GAP=158        1.05       5.4    12.2 12.2  0.7037E+00 -0.4029E+02 -0.1159E+02E
 Epicentro: LOS SANTOS - SANTANDER                                             3
 ACTION:UP  10-12-17 16:49 OP:REBC STATUS:               ID:20101101085454 L   I
 2010-11-01-0851-44S.COL___125                                                 6
 STAT SP IPHASW D HRMM SECON CODA AMPLIT PERI AZIMU VELO SNR AR TRES W  DIS CAZ7
 BAR2 SZ EP   3    855 14.03                             172     0.2 2   21 189 
 BAR2 SZ ES   3    855 28.14                             172    -0.8 2   21 189 
 BRR  HZ EP        855 15.40                             152    -0.110   72 301 
 BRR  HZ I         855 15.68        10.5 0.11                            72 301 
 BRR  HE ES   1    855 32.31                             152     0.5 7   72 301 
 RUS  HZ EP   1    855 18.09                             144     0.2 7   98 175 
 RUS  HN ES   1    855 35.80                             144    -0.4 7   98 175 
 RUS  HZ I         855 37.55         2.2 0.45                            98 175 
 GRA  SZ EP        855 20.41                             136     0.610  129  18 
 GRA  SZ ES   1    855 39.78                             136     0.2 7  129  18 
 GRA  SZ I         855 41.22         2.6 0.31                           129  18 
 OCA  SZ EP   1    855 22.05                             129    -0.9 7  163 354 
 OCA  SZ ES   1    855 44.51                             129    -0.6 7  163 354 
 OCA  SZ I         855 48.56         4.7 0.44                           163 354 
                                                                                
