 2013 12 1 0435 43.0 L   6.803 -73.178140.0  RSN  9 0.4 1.6LRSN                1
 GAP=140        0.88       4.1     4.1  6.6 -0.6134E+01  0.9135E+01 -0.3702E+01E
 Epicentro: LOS SANTOS - SANTANDER                                             3
 ACTION:UPD 14-01-13 10:15 OP:ep   STATUS:               ID:20131201043543 L   I
 OLDACT:UP  13-12-01 11:03 OP:mh   STATUS:               ID:20131201043000     3
 OLDACT:REG 13-12-01 08:33 OP:mh   STATUS:               ID:20131201043000     3
 2013-12-01-0430-00M.COL___282                                                 6
 STAT SP IPHASW D HRMM SECON CODA AMPLIT PERI AZIMU VELO AIN AR TRES W  DIS CAZ7
 BAR2 SZ EP   1    436  1.99                             170    0.09 7 23.4 181 
 BAR2 SZ ES   1    436 16.81                             170    0.14 7 23.4 181 
 BAR2 SZ I         436 19.59        14.5 0.29            169           23.4 181 
 BRR  HZ EP        436  3.88                             152    0.5810 67.9 300 
 BRR  HN ES   1    436 19.72                             152    0.55 7 67.9 300 
 BRR  HZ I         436 23.97         7.2 0.25            156           67.9 300 
 PAM  SZ EP        436  4.87                             149    0.1810 79.4  42 
 PAM  SN ES        436 21.18                             149   -0.4610 79.4  42 
 PAM  SZ I         436 24.00         6.1 0.49            155           79.4  42 
 PTB  HZ EP        436  8.94                             131   -0.21 9  144 258 
 PTB  HN ES        436 29.19                             131   -0.39 9  144 258 
 PTB  HZ I         436 32.17         5.8 0.16            134            144 258 
 SPBC HZ EP   1    436 10.79                             128   -0.05 7  161 218 
 SPBC HN ES   1    436 32.21                             128   -0.37 7  161 218 
 SPBC HZ I         436 38.94         5.5 0.09            131            161 218 
 ZAR  HN ES   1    436 38.66                             121   -0.76 6  201 292 
 NOR  HZ EP   2    436 17.51                             117   -0.56 4  232 234 
 NOR  HN ES   4    436 45.87                             117    0.41 0  232 234 
 SML  HZ EP        436 19.19                             116    0.12 8  242 336 
 SML  HE ES        436 47.15                             116   -0.09 8  242 336 
 HEL  HN ES        436 54.01                             114    0.65 8  269 256 
                                                                                
