 2016 11 1 0611 24.3 L   6.784 -73.115145.4  RSN 11 0.4 2.0LRSN                1
 GAP= 98        0.92       4.1     4.3  5.1 -0.8423E+01 -0.2158E+01  0.7170E+01E
 Epicentro: LOS SANTOS - SANTANDER                                             3
 ACTION:UPD 17-10-26 21:03 OP:lp   STATUS:               ID:20161101061124 L   I
 OLDACT:UP  16-11-01 17:05 OP:dani STATUS:               ID:20161101060749     3
 OLDACT:UP  16-11-01 17:04 OP:dani STATUS:               ID:20161101060749     3
 OLDACT:REG 16-11-01 12:29 OP:dani STATUS:               ID:20161101060749     3
 2016-11-01-0608-00M.COL___313                                                 6
 STAT SP IPHASW D HRMM SECON CODA AMPLIT PERI AZIMU VELO AIN AR TRES W  DIS CAZ7
 BAR2 EZ EP        611 43.61                             171   -0.2410 22.4 199 
 BAR2 HN ES        611 59.08                             171   -0.0410 22.4 199 
 BRR  HN ES        612  2.51                             151    0.2610 75.0 299 
 BRR  HZ I         612  6.44        16.8 0.26            148           75.0 299 
 PAM  EZ EP        611 46.50                             151    0.0810 76.7  37 
 PAM  EN ES        612  3.65                             151   -0.0410 76.7  37 
 PAM  EZ I         612  6.83         9.1 0.46            154           76.7  37 
 RUS  HZ EP        611 47.52                             144   -0.3410 98.6 178 
 RUS  HN ES        612  6.14                             144   -0.1010 98.6 178 
 RUS  HZ I         612  7.65         8.8 0.28            146           98.6 178 
 PTB  HZ EP   9    611 50.32                             131   -1.18 0  151 260 
 PTB  HN ES        612 11.39                             131   -0.15 9  151 260 
 PTB  HZ I         612 18.00        10.0 0.34            130            151 260 
 TAM  HZ EP        611 51.98                             131    0.39 9  151 105 
 SPBC HZ EP        611 52.53                             129   -0.30 9  164 220 
 SPBC HE ES        612 15.35                             129    0.26 9  164 220 
 SPBC HZ I         612 19.44        16.5 0.18            129            164 220 
 NOR  HZ EP        611 59.77                             118   -0.41 8  236 235 
 NOR  HE ES        612 27.50                             118   -0.68 8  236 235 
 NOR  HZ I         612 34.44         6.4 0.20            118            236 235 
 CHI  HZ EP        612  1.64                             117   -0.23 8  248 196 
 CHI  HN ES        612 31.13                             117   -0.06 8  248 196 
 CHI  HZ I         612 34.88         6.0 0.78            118            248 196 
 ROSC BZ EP   4    612  3.77                             116    1.36 0  253 212 
 ROSC BN ES        612 33.09                             116    0.95 8  253 212 
 ROSC BZ I         612 38.26        14.7 0.40            117            253 212 
 GUY2CHZ EP        612  8.93                             112    0.86 7  303 235 
 GUY2CHN ES   4    612 46.03                             112    3.80 0  303 235 
 GUY2CHZ I         612 49.81         5.5 0.33                           303 235 
                                                                                
