 2013  1 1 0923 24.7 L   6.671 -73.874 84.0  RSN  7 0.5 2.3LRSN                1
 GAP= 81        1.20       4.1     3.9  9.1  0.3562E+01 -0.3053E+00  0.7161E+01E
 Epicentro: PUERTO PARRA - SANTANDER                                           3
 ACTION:UPD 13-02-15 09:11 OP:ep   STATUS:               ID:20130101092324 L   I
 2013-01-01-0920-00M.COL___242                                                 6
 STAT SP IPHASW D HRMM SECON CODA AMPLIT PERI AZIMU VELO AIN AR TRES W  DIS CAZ7
 BRR  HZ IP     D  923 38.14                             146    0.0610 51.5  20 
 BRR  HN ES        923 49.18                             146    0.6410 51.5  20 
 BRR  HN I         923 49.60       462.6 0.14            134           51.5  20 
 PTB  HZ IP     D  923 38.83                             139   -0.3710 66.0 257 
 PTB  HN ES        923 49.98                             139   -0.5610 66.0 257 
 PTB  HN I         923 51.04        65.4 0.10            116           66.0 257 
 BAR2 SZ IP     C  923 40.56                             134    0.1110 77.0  96 
 BAR2 SZ ES        923 52.89                             134    0.1410 77.0  96 
 BAR2 SZ I         923 53.90        53.9 0.14            114           77.0  96 
 RUS  HZ EP        923 45.17                             120   -0.1510  123 134 
 RUS  HN ES        924  1.13                             120   -0.2910  123 134 
 RUS  HN I         924  3.01        21.0 0.22            101            123 134 
 ZAR  HN ES        924  4.53                             116    0.53 9  142 310 
 OCA  HN ES        924 12.10                             109   -0.81 9  184  19 
 OCA  HN I         924 13.89        50.8 0.26             97            184  19 
 CHI  HZ EP        923 57.90                             106    0.81 8  226 176 
 CHI  HN I         924 30.72         5.4 0.46             94            226 176 
                                                                                
