 2013  4 1 0206 47.4 L   6.778 -73.141148.2  RSN  8 0.5 1.6LRSN                1
 GAP=138        0.94       4.3     5.2  8.1  0.1876E+01  0.6991E+01 -0.1056E+01E
 Epicentro: LOS SANTOS - SANTANDER                                             3
 ACTION:UPD 13-05-22 14:34 OP:EP   STATUS:               ID:20130401020647 L   I
 2013-04-01-0200-00M.COL___245                                                 6
 STAT SP IPHASW D HRMM SECON CODA AMPLIT PERI AZIMU VELO AIN AR TRES W  DIS CAZ7
 BAR2 SZ EP   1    2 7  7.43                             172    0.16 7 21.1 193 
 BAR2 SZ ES   1    2 7 22.49                             172   -0.28 7 21.1 193 
 BAR2 SZ I         2 7 24.09        15.1 0.40            171           21.1 193 
 BRR  HZ EP     C  2 7  9.21                             152    0.3210 72.9 300 
 BRR  HN ES   1    2 7 26.65                             152    0.99 7 72.9 300 
 BRR  HZ I         2 7 31.42         4.4 0.17            151           72.9 300 
 PAM  SZ EP        2 7 10.18                             151    0.2310 78.9  38 
 PAM  SN ES   1    2 7 27.02                             151   -0.53 7 78.9  38 
 PAM  SZ I         2 7 29.55         4.4 0.56            155           78.9  38 
 RUS  HZ EP        2 7 11.32                             145    0.1210 98.1 176 
 RUS  HN ES   1    2 7 29.52                             145   -0.26 7 98.1 176 
 RUS  HZ I         2 7 31.23        10.1 0.94            150           98.1 176 
 PTB  HZ EP        2 7 14.26                             132   -0.30 9  148 260 
 PTB  HN ES   1    2 7 35.29                             132   -0.46 7  148 260 
 PTB  HZ I         2 7 42.60         7.0 0.38            134            148 260 
 OCA  HE ES   1    2 7 38.71                             130    0.18 7  163 353 
 OCA  HZ I         2 7 43.32         5.9 0.18            132            163 353 
 ZAR  HN ES   1    2 7 45.81                             123    0.13 6  205 293 
 SML  HE ES   1    2 7 52.27                             118   -1.02 6  246 335 
                                                                                
