 2013  9 1 0606 15.0 L   6.758 -73.186146.4  RSN  5 0.2 1.2LRSN                1
 GAP=235        0.39       4.2     5.3  5.2 -0.1379E+01 -0.3479E+01  0.6100E+01E
 Epicentro: VILLANUEVA - SANTANDER                                             3
 ACTION:UPD 13-10-22 09:19 OP:ep   STATUS:               ID:20130901060615 L   I
 OLDACT:DUP 13-09-01 10:21 OP:mh   STATUS:               ID:20130901055960d    3
 2013-09-01-0559-59M.COL___269                                                 6
 STAT SP IPHASW D HRMM SECON CODA AMPLIT PERI AZIMU VELO AIN AR TRES W  DIS CAZ7
 BAR2 SZ EP   1    6 6 34.62                             173   -0.00 7 18.3 179 
 BRR  HZ EP   1    6 6 36.33                             153    0.19 7 69.8 304 
 BRR  HN ES   1    6 6 52.52                             153   -0.12 7 69.8 304 
 BRR  HZ I         6 6 58.45         2.3 0.54            139           69.8 304 
 PTB  HZ EP   1    6 6 41.80                             133    0.24 7  143 260 
 PTB  HN ES   2    6 7  2.43                             133    0.16 5  143 260 
 PTB  HZ I         6 7  2.68         1.2 0.46            128            143 260 
 SPBC HZ EP   1    6 6 42.82                             130   -0.13 7  157 219 
 SPBC HN ES   2    6 7  4.64                             130   -0.11 5  157 219 
 ZAR  HZ EP   1    6 6 46.99                             123   -0.27 6  202 294 
 ZAR  HN ES   4    6 7 12.99                             123    0.57 0  202 294 
 ZAR  HN I         6 7 22.57         3.0 0.26            117            202 294 
                                                                                
