 2016 11 1 0345  2.8 L   6.803 -73.137149.3  RSN  8 0.4 1.5LRSN                1
 GAP=137        1.00       4.2     4.7  6.0 -0.5314E+01  0.4096E+01  0.6357E+01E
 Epicentro: LOS SANTOS - SANTANDER                                             3
 ACTION:UPD 17-10-26 21:03 OP:lp   STATUS:               ID:20161101034502 L   I
 OLDACT:DUP 16-11-01 14:49 OP:dani STATUS:               ID:20161101033745d    3
 2016-11-01-0338-00M.COL___313                                                 6
 STAT SP IPHASW D HRMM SECON CODA AMPLIT PERI AZIMU VELO AIN AR TRES W  DIS CAZ7
 BAR2 EZ EP        345 22.55                             171   -0.3410 23.8 192 
 BAR2 EZ ES        345 38.64                             171    0.1110 23.8 192 
 BRR  HZ EP        345 24.61                             153    0.2210 71.9 298 
 BRR  HN ES        345 41.75                             153    0.5410 71.9 298 
 BRR  HZ I         345 44.68         4.8 0.30            151           71.9 298 
 PAM  EZ EP        345 25.70                             152    0.3310 76.5  39 
 PAM  HE ES        345 42.81                             152   -0.1410 76.5  39 
 PAM  EZ I         345 45.14         5.5 0.53            156           76.5  39 
 RUS  HZ EP        345 26.58                             144   -0.3610  101 177 
 RUS  HE ES        345 45.45                             144   -0.3010  101 177 
 RUS  HZ I         345 47.08         3.0 0.40            146            101 177 
 PTB  HZ EP        345 29.87                             133   -0.30 9  149 259 
 PTB  HN ES        345 50.54                             133   -0.96 9  149 259 
 PTB  HZ I         345 57.43         3.7 0.17            132            149 259 
 SPBC HZ EP        345 31.83                             130    0.16 9  164 219 
 SPBC HN ES        345 54.63                             130    0.46 9  164 219 
 SPBC HZ I         345 57.04         6.7 0.11            130            164 219 
 NOR  HZ EP        345 38.65                             119   -0.21 8  236 235 
 NOR  HE ES        346  7.43                             119    0.46 8  236 235 
 NOR  HZ I         346 16.17         2.7 0.15            120            236 235 
 CHI  HZ EP        345 41.17                             118    0.39 8  249 195 
 CHI  HN ES        346 10.56                             118    0.18 8  249 195 
 CHI  HZ I         346 14.09         2.1 0.36            119            249 195 
                                                                                
