 2016  8 1 0046 42.0 L   6.804 -73.160149.3  RSN  9 0.3 1.6LRSN                1
 GAP=135        0.65       2.8     2.6  4.0 -0.6368E+00  0.3151E+01  0.1212E+01E
 Epicentro: LOS SANTOS - SANTANDER                                             3
 ACTION:UPD 16-10-29 15:31 OP:rebc STATUS:               ID:20160801004642 L   I
 OLDACT:UP  16-08-01 16:05 OP:edw  STATUS:               ID:20160801003759     3
 OLDACT:REG 16-08-01 13:44 OP:edw  STATUS:               ID:20160801003759     3
 2016-08-01-0037-59S.COL___340                                                 6
 STAT SP IPHASW D HRMM SECON CODA AMPLIT PERI AZIMU VELO AIN AR TRES W  DIS CAZ7
 BAR2 EZ EP        047  1.84                             171   -0.2010 23.5 186 
 BAR2 EZ ES        047 17.69                             171    0.0010 23.5 186 
 BRR  HZ EP        047  3.73                             154    0.3110 69.6 299 
 BRR  HE ES        047 20.52                             154    0.3710 69.6 299 
 PAM  EZ EP        047  4.87                             151    0.2610 78.1  41 
 PAM  EN ES        047 22.08                             151   -0.1910 78.1  41 
 PAM  EZ I         047 23.97         9.2 0.54                          78.1  41 
 RUS  HZ EP        047  6.03                             144   -0.0810  101 175 
 RUS  HN ES        047 24.90                             144   -0.0410  101 175 
 RUS  HZ I         047 25.44         4.1 0.32                           101 175 
 PTB  HZ EP        047  8.94                             133   -0.16 9  146 259 
 PTB  HN ES        047 29.91                             133   -0.36 9  146 259 
 PTB  HZ I         047 32.93         4.0 0.54                           146 259 
 SPBC HZ EP        047 10.83                             130    0.14 9  163 218 
 SPBC HN ES        047 33.07                             130   -0.01 9  163 218 
 SPBC HZ I         047 34.99         5.8 0.07                           163 218 
 ZAR  HZ EP   4    047  7.92                             123   -6.57 0  202 292 
 ZAR  HN ES        047 39.46                             123   -0.39 9  202 292 
 ZAR  HZ I         047 45.47         4.9 0.34                           202 292 
 HEL  HZ EP        047 21.93                             116   -0.28 8  271 256 
 HEL  HN ES        047 54.08                             116    0.48 8  271 256 
 GUY2CHZ EP   2    047 25.54                             113   -0.09 4  300 235 
 GUY2CHN ES   2    048  0.49                             113    0.80 4  300 235 
 GUY2CHZ I         048  8.75         2.6 0.68                           300 235 
                                                                                
