 2017  3 1 0556 52.9 L   6.794 -73.138150.2  RSN  5 0.3 1.1LRSN                1
 GAP=138        0.78       4.4     4.1  6.4 -0.1882E+01  0.2158E+01  0.3228E+01E
 Epicentro: LOS SANTOS - SANTANDER                                             3
 ACTION:UPD 17-05-25 18:34 OP:jn   STATUS:               ID:20170301055652 L   I
 OLDACT:UP  17-03-01 16:04 OP:and  STATUS:               ID:20170301054747     3
 OLDACT:UP  17-03-01 16:03 OP:and  STATUS:               ID:20170301054747     3
 OLDACT:REG 17-03-01 12:56 OP:and  STATUS:               ID:20170301054747     3
 2017-03-01-0548-00M.COL___378                                                 6
 STAT SP IPHASW D HRMM SECON CODA AMPLIT PERI AZIMU VELO AIN AR TRES W  DIS CAZ7
 BAR2 EZ EP        557 12.96                             171   -0.0510 22.8 192 
 BAR2 EZ ES   2    557 28.61                             171   -0.12 5 22.8 192 
 BRR  HZ IP     C  557 14.76                             153    0.2210 72.2 299 
 BRR  HN ES        557 31.95                             153    0.4910 72.2 299 
 PAM  EZ IP     D  557 15.79                             152    0.2410 77.4  39 
 PAM  EN ES        557 32.77                             152   -0.4710 77.4  39 
 PAM  EZ I         557 34.23         2.1 0.18            153           77.4  39 
 RUS  HZ EP        557 17.14                             145    0.1410 99.9 176 
 RUS  HN ES        557 35.89                             145    0.0710 99.9 176 
 RUS  HZ I         557 36.82         2.2 0.26            146           99.9 176 
 PTB  HZ EP        557 19.87                             133   -0.38 9  148 259 
 PTB  HN ES        557 41.29                             133   -0.32 9  148 259 
 PTB  HZ I         557 43.36         2.0 0.14            133            148 259 
                                                                                
