 2012  2 1 0714 34.6 L   6.685 -73.153153.9  RSN  4 0.5 1.4LRSN                1
 GAP=228        0.95      10.7    10.7 13.7  0.4830E+02 -0.2666E+01 -0.2857E+02E
 ACTION:UP  12-03-07 16:26 OP:epov STATUS:               ID:20120201071434 L   I
 2012-02-01-0710-00M.COL___188                                                 6
 STAT SP IPHASW D HRMM SECON CODA AMPLIT PERI AZIMU VELO SNR AR TRES W  DIS CAZ7
 BAR2 SZ EP   1    714 54.14                             176   -0.86 7 10.8 198 
 BAR2 SZ I         715 11.46         4.0 0.18                          10.8 198 
 BRR  HZ EP   1    714 57.28                             152    0.34 7 77.4 307 
 BRR  HZ I         714 57.91         4.5 0.08                          77.4 307 
 BRR  HN ES   1    715 14.59                             152    0.19 7 77.4 307 
 RUS  HN ES   1    715 17.10                             149    0.30 7 88.0 175 
 PTB  HZ EP   1    715  2.46                             134    0.49 7  145 264 
 PTB  HN ES   1    715 22.87                             134   -0.47 7  145 264 
 PTB  HZ I         715 23.99         0.0 0.14                           145 264 
                                                                                
