 2011 10 1 0827 34.8 L   6.794 -73.151144.8  RSN  5 0.4 1.4LRSN                1
 GAP=136        0.70       4.4     4.8  7.9  0.8173E+00  0.5321E+01 -0.7888E+01E
 Epicentro: LOS SANTOS - SANTANDER                                             3
 ACTION:UPD 12-07-13 16:01 OP:ep   STATUS:               ID:20111001082734 L   I
 2011-10-01-0826-01S.COL___168                                                 6
 STAT SP IPHASW D HRMM SECON CODA AMPLIT PERI AZIMU VELO AIN AR TRES W  DIS CAZ7
 BRR  HZ EP        827 55.98                             152    0.1210 71.0 299 
 BRR  HN ES   1    828 12.52                             152    0.26 7 71.0 299 
 PAM  SZ EP        827 57.08                             150    0.0910 78.3  40 
 PAM  SN ES   1    828 13.79                             150   -0.49 7 78.3  40 
 PAM  SZ I         828 15.93         4.2 0.22                          78.3  40 
 RUS  HN ES   1    828 16.90                             144    0.05 7100.0 176 
 RUS  HZ I         828 19.26         1.5 0.44                         100.0 176 
 OCA  SZ EP   1    828  2.73                             129   -0.38 7  161 353 
 OCA  SZ ES   1    828 25.71                             129    0.53 7  161 353 
 OCA  SZ I         828 27.57         4.3 0.12                           161 353 
 ZAR  HZ EP   2    828  7.55                             122    0.37 4  204 292 
 ZAR  HE ES   1    828 31.81                             122   -0.60 6  204 292 
 ZAR  HZ I         828 38.31         4.3 0.41                           204 292 
                                                                                
