 2014  4 1 0821 50.1 L   6.829 -73.179141.0  RSN 15 0.5 2.0LRSN                1
 GAP=131        1.07       2.8     3.8  5.8 -0.2916E+01  0.7145E+01  0.1799E+01E
 Epicentro: ZAPATOCA - SANTANDER                                               3
 ACTION:UPD 14-05-13 23:05 OP:nd   STATUS:               ID:20140401082150 L   I
 OLDACT:REG 14-04-01 13:40 OP:carl STATUS:               ID:20140401082035     3
 2014-04-01-0820-35M.COL___243                                                 6
 STAT SP IPHASW D HRMM SECON CODA AMPLIT PERI AZIMU VELO AIN AR TRES W  DIS CAZ7
 BAR2 SZ EP        822  9.25                             169    0.0010 26.1 181 
 BAR2 SZ ES        822 24.54                             169    0.3810 26.1 181 
 BAR2 SZ I         822 25.46        27.8 0.24            165           26.1 181 
 PAM  SZ EP        822 11.97                             150    0.1310 77.4  43 
 PAM  SN ES        822 29.10                             150    0.3310 77.4  43 
 PAM  SZ I         822 31.27        13.5 0.38            151           77.4  43 
 RUS  HZ EP        822 13.65                             142   -0.0210  104 174 
 RUS  HZ I         822 33.11        11.3 0.26            139            104 174 
 PTB  HZ EP        822 15.96                             132   -0.48 9  145 257 
 PTB  HN ES        822 35.82                             132   -1.15 9  145 257 
 PTB  HZ I         822 39.18        19.1 0.40            131            145 257 
 OCA  HZ EP        822 17.95                             129    0.21 9  157 354 
 OCA  HN ES        822 39.52                             129    0.25 9  157 354 
 OCA  HZ I         822 43.09        15.3 0.16            131            157 354 
 SPBC HZ EP        822 17.83                             128   -0.46 9  163 217 
 SPBC HN ES        822 40.03                             128   -0.22 9  163 217 
 SPBC HZ I         822 46.11        15.7 0.22            127            163 217 
 ZAR  HZ EP        822 21.92                             122    0.13 9  199 292 
 ZAR  HN ES        822 46.82                             122    0.33 9  199 292 
 NOR  HZ EP        822 25.42                             118   -0.05 8  234 233 
 NOR  HN ES        822 53.18                             118    0.15 8  234 233 
 NOR  HZ I         823  1.92         8.9 0.14            117            234 233 
 SML  HZ EP        822 25.55                             117   -0.46 8  239 336 
 SML  HN ES        822 53.44                             117   -0.56 8  239 336 
 SML  HZ I         822 57.36        22.3 0.10            118            239 336 
 CHI  HZ EP        822 27.55                             116   -0.25 8  251 194 
 CHI  HN ES        822 56.44                             116   -0.74 8  251 194 
 CHI  HZ I         823  3.90         6.4 0.44            115            251 194 
 HEL  HZ EP        822 30.45                             114    0.65 8  269 255 
 HEL  HN ES        823  1.18                             114    0.44 8  269 255 
 HEL  HZ I         823  8.36         6.1 0.52            114            269 255 
 GUY2CHZ EP        822 33.58                             111    0.19 7  300 234 
 GUY2CHE ES        823  7.57                             111    0.43 7  300 234 
 GUY2CHZ I         823 13.47         3.7 0.24                           300 234 
 RREF HZ EP        822 36.26                             110    0.27 7  321 229 
 RREF HE ES        823 12.17                             110    0.41 7  321 229 
 RREF HZ I         823 23.37         4.6 0.32            110            321 229 
 CBOC HZ EP        822 37.13                             109    0.56 7  331 251 
 CBOC HN ES        823 12.53                             109   -0.25 7  331 251 
 CBOC HZ I         823 22.31         2.4 0.48            109            331 251 
 PRA  HZ EP        822 42.94                             106   -0.66 6  393 209 
 PRA  HE ES        823 26.72                             106    1.41 6  393 209 
 PRA  HZ I         823 29.70         5.6 0.48            105            393 209 
                                                                                
