 2014  1 1 0340 15.2 L   6.717 -73.202141.9  RSN  4 0.3 1.2LRSN                1
 GAP=223        0.76       6.0     6.0  6.3  0.1933E+02  0.8594E+01  0.4530E+01E
 Epicentro: VILLANUEVA - SANTANDER                                             3
 ACTION:UPD 14-03-13 09:50 OP:ep   STATUS:               ID:20140101034015 L   I
 OLDACT:REG 14-01-01 09:19 OP:stll STATUS:               ID:20140101033817     3
 2014-01-01-0338-17M.COL___237                                                 6
 STAT SP IPHASW D HRMM SECON CODA AMPLIT PERI AZIMU VELO AIN AR TRES W  DIS CAZ7
 BAR2 SZ ES        340 48.71                             174   -0.3810 14.0 171 
 BAR2 SZ I         340 49.99         6.5 0.26            172           14.0 171 
 BRR  HZ IP     C  340 35.83                             152   -0.1310 70.9 307 
 BRR  HN ES        340 52.49                             152    0.3710 70.9 307 
 BRR  HZ I         340 53.57         3.7 0.12            153           70.9 307 
 RUS  HZ EP        340 38.39                             145    0.3710 92.1 172 
 RUS  HN ES        340 55.81                             145    0.0310 92.1 172 
 RUS  HZ I         340 58.71         1.7 0.36            145           92.1 172 
 PTB  HZ EP        340 40.86                             133   -0.34 9  140 262 
 PTB  HZ I         340 43.25         2.3 0.16            133            140 262 
 PTB  HN ES        341  1.49                             133    0.04 9  140 262 
                                                                                
