 2011  6 1 0858 43.7 L   6.803 -73.136151.4  RSN  5 0.2 1.4LRSN                1
 GAP=160        0.56       2.8     7.1  5.7  0.1010E+01 -0.8985E+01 -0.3379E+01E
 Epicentro: LOS SANTOS - SANTANDER                                             3
 ACTION:UP  11-07-14 19:02 OP:ep   STATUS:               ID:20110601085843 L   I
 2011-06-01-0857-51S.COL___114                                                 6
 STAT SP IPHASW D HRMM SECON CODA AMPLIT PERI AZIMU VELO SNR AR TRES W  DIS CAZ7
 BAR2 SZ EP   1    859  3.67                             171    -0.3 7   24 193 
 BAR2 SZ I         859  3.97         6.8 0.70                            24 193 
 BAR2 SZ ES   1    859 19.62                             171    -0.2 7   24 193 
 BRR  HZ EP   1    859  5.35                             153    -0.1 7   72 298 
 BRR  HE ES   1    859 22.56                             153     0.1 7   72 298 
 BRR  HZ I         859 23.47         5.3 0.12                            72 298 
 RUS  HZ EP   1    859  7.91                             145    -0.1 7  101 177 
 RUS  HZ I         859  8.51         2.0 0.10                           101 177 
 RUS  HN ES   1    859 27.39                             145     0.4 7  101 177 
 GRA  SZ EP   1    859  9.54                             138     0.2 7  125  17 
 GRA  SZ ES   1    859 29.28                             138    -0.1 7  125  17 
 GRA  SZ I         859 33.45         2.0 0.24                           125  17 
 OCA  SZ EP   1    859 12.52                             131     0.1 7  160 353 
 OCA  SZ ES   1    859 35.02                             131     0.2 7  160 353 
 OCA  SZ I         859 38.65         4.1 0.23                           160 353 
                                                                                
