 2016 11 1 0931 29.3 L   6.804 -73.170151.1  RSN  4 0.3 1.4LRSN                1
 GAP=133        0.84       4.9     4.5  7.6 -0.3023E+01  0.1587E+01  0.6911E+01E
 Epicentro: LOS SANTOS - SANTANDER                                             3
 ACTION:UPD 17-10-26 21:03 OP:lp   STATUS:               ID:20161101093129 L   I
 OLDACT:UP  16-11-01 15:34 OP:dnl  STATUS:               ID:20161101092745     3
 OLDACT:REG 16-11-01 12:45 OP:dani STATUS:               ID:20161101092745     3
 2016-11-01-0928-00M.COL___316                                                 6
 STAT SP IPHASW D HRMM SECON CODA AMPLIT PERI AZIMU VELO AIN AR TRES W  DIS CAZ7
 BRR  HZ EP   2    931 51.18                             154    0.25 5 68.6 299 
 BRR  HN ES        932  8.24                             154    0.4710 68.6 299 
 BRR  HZ I         932 14.71         9.8 0.36            154           68.6 299 
 PAM  EZ EP        931 52.57                             151    0.3610 78.8  41 
 PAM  EN ES        932  9.53                             151   -0.5110 78.8  41 
 PAM  EZ I         932 11.87         2.8 0.62            154           78.8  41 
 RUS  HZ EP        931 53.70                             145    0.0410  101 175 
 RUS  HN ES        932 12.72                             145    0.0810  101 175 
 RUS  HZ I         932 13.36         2.7 0.24            150            101 175 
 PTB  HZ EP        931 56.23                             134   -0.29 9  145 258 
 PTB  HN ES        932 17.45                             134   -0.28 9  145 258 
 PTB  HZ I         932 19.47         3.0 0.46            136            145 258 
                                                                                
