 2012 12 1 0720 15.0 L   6.793 -73.169141.2  RSN 11 0.2 2.2LRSN                1
 GAP=134        0.58       1.5     2.3  3.4 -0.3053E+00  0.3204E+01  0.4801E+00E
 Epicentro: LOS SANTOS - SANTANDER                                             3
 ACTION:UPD 13-01-04 14:24 OP:ep   STATUS:               ID:20121201072015 L   I
 2012-12-01-0720-00M.COL___236                                                 6
 STAT SP IPHASW D HRMM SECON CODA AMPLIT PERI AZIMU VELO AIN AR TRES W  DIS CAZ7
 BAR2 SZ EP        720 33.86                             171   -0.1710 22.2 184 
 BAR2 SZ ES        720 48.89                             171    0.0010 22.2 184 
 BAR2 SZ I         720 50.12        30.2 0.28                          22.2 184 
 PAM  SZ EP        720 36.99                             149    0.1510 79.6  41 
 PAM  SN ES        720 53.90                             149    0.0110 79.6  41 
 PAM  SN I         720 55.29        28.0 0.68                          79.6  41 
 RUS  HZ EP     C  720 38.06                             143   -0.1710  100 175 
 RUS  HN ES        720 56.56                             143    0.1910  100 175 
 RUS  HN I         720 58.17        27.0 0.30                           100 175 
 PTB  HZ EP        720 40.80                             131   -0.52 9  145 259 
 PTB  HN ES        721  2.00                             131    0.13 9  145 259 
 PTB  HN I         721  6.43        21.1 0.24                           145 259 
 OCA  HZ EP        720 42.75                             128   -0.23 9  161 354 
 OCA  HN ES        721  4.68                             128   -0.14 9  161 354 
 OCA  HN I         721  9.51        42.5 0.28                           161 354 
 ZAR  HZ EP        720 46.96                             122    0.06 9  202 293 
 ZAR  HN ES        721 11.99                             122    0.18 9  202 293 
 ZAR  HN I         721 18.19        15.7 0.12                           202 293 
 SML  HN ES        721 20.01                             116    0.37 8  243 336 
 CHI  HZ EP        720 52.31                             116    0.04 8  247 195 
 CHI  HN ES        721 21.39                             116    0.04 8  247 195 
 CHI  HN I         721 23.59         8.5 0.60                           247 195 
 HEL  HZ EP        720 55.00                             114    0.35 8  269 256 
 HEL  HN ES        721 25.05                             114   -0.55 8  269 256 
 HEL  HN I         721 31.71         5.3 0.26                           269 256 
 RREF HZ EP        721  1.06                             110    0.42 7  319 229 
 RREF HN ES        721 36.41                             110    0.16 7  319 229 
 PRA  HZ EP        721  8.19                             106    0.08 6  390 209 
 PRA  HN ES        721 49.55                             106    0.00 6  390 209 
 PRA  HN I         721 55.96         2.3 0.26                           390 209 
                                                                                
