 2014  6 1 0051 28.3 L   6.919 -73.428109.8  RSN  9 0.5 1.7LRSN                1
 GAP= 83        1.31       3.4     4.2  7.8 -0.6182E+00  0.7570E+01 -0.5801E+01E
 Epicentro: SAN VICENTE DE CHUCURI - SANTANDER                                 3
 ACTION:UPD 14-07-01 22:49 OP:nd   STATUS:               ID:20140601005128 L   I
 OLDACT:DUP 14-06-01 16:37 OP:stll STATUS:               ID:20140601004821d    3
 2014-06-01-0048-20M.COL___256                                                 6
 STAT SP IPHASW D HRMM SECON CODA AMPLIT PERI AZIMU VELO AIN AR TRES W  DIS CAZ7
 BRR  HZ IP     D  051 44.19                             160    0.4610 37.7 304 
 BRR  HZ I         051 44.35        22.2 0.10            159           37.7 304 
 BRR  HN ES        051 56.75                             160    0.9610 37.7 304 
 BAR2 SZ IP     C  051 44.83                             156    0.4010 45.2 143 
 BAR2 SZ I         051 44.96        28.6 0.22            159           45.2 143 
 BAR2 SZ ES        051 56.95                             156   -0.0810 45.2 143 
 PAM  SZ EP        051 48.00                             137   -0.0310 93.0  60 
 PAM  SN ES        052  3.00                             137   -0.4410 93.0  60 
 PAM  SZ I         052  7.25         6.7 0.56            138           93.0  60 
 RUS  HZ EP        051 50.51                             129    0.0910  120 161 
 RUS  HN ES        052  7.57                             129   -0.1310  120 161 
 RUS  HZ I         052  8.35         5.9 0.16            132            120 161 
 PTB  HZ EP        051 49.35                             128   -0.5710  121 250 
 PTB  HN ES        052  5.55                             128   -1.2610  121 250 
 PTB  HZ I         052  6.93         9.7 0.18            130            121 250 
 OCA  HZ EP        051 52.79                             123    0.17 9  146   5 
 OCA  HN ES        052 11.11                             123   -0.51 9  146   5 
 OCA  HZ I         052 13.05        11.3 0.56            124            146   5 
 SPBC HZ EP   2    051 54.02                             121    0.37 5  157 207 
 SPBC HE ES        052 13.59                             121    0.15 9  157 207 
 ZAR  HZ EP        051 55.53                             118    0.60 9  170 292 
 ZAR  HE ES        052 16.12                             118    0.39 9  170 292 
 ZAR  HZ I         052 20.88         7.1 0.50            119            170 292 
 SML  HZ EP        052  0.55                             111    0.12 8  220 341 
 SML  HN ES        052 25.08                             111   -0.44 8  220 341 
                                                                                
