 2015 10 1 0035 45.8 L   6.042 -73.730108.8  RSN  7 0.3 1.3LRSN                1
 GAP= 77        0.70       2.5     3.3  7.1  0.1960E+01  0.8645E+01  0.6065E+01E
 Epicentro: VELEZ - SANTANDER                                                  3
 ACTION:UPD 15-12-22 20:36 OP:cam  STATUS:               ID:20151001003545 L   I
 OLDACT:DUP 15-10-01 16:32 OP:spq  STATUS:               ID:20151001002751d    3
 2015-10-01-0027-50M.COL___361                                                 6
 STAT SP IPHASW D HRMM SECON CODA AMPLIT PERI AZIMU VELO AIN AR TRES W  DIS CAZ7
 RUS  HZ EP   1    036  3.76                             144   -0.17 7 73.5 103 
 RUS  HE ES   1    036 17.79                             144   -0.31 7 73.5 103 
 RUS  HZ I         036 19.03         2.9 0.14            149           73.5 103 
 BAR2 EZ EP        036  4.54                             139    0.0210 85.9  45 
 BAR2 EZ ES   1    036 19.32                             139    0.17 7 85.9  45 
 BAR2 EZ I         036 20.61        10.9 0.30            144           85.9  45 
 PTB  HZ EP        036  5.03                             135   -0.1510 97.4 304 
 PTB  HN ES        036 20.16                             135   -0.1610 97.4 304 
 PTB  HZ I         036 22.93         2.7 0.10            138           97.4 304 
 BRR  HZ EP   1    036  7.03                             129    0.01 7  118   1 
 BRR  HN ES        036 23.94                             129    0.3510  118   1 
 BRR  HZ I         036 28.71         6.9 0.48            133            118   1 
 CHI  HZ EP   1    036 10.83                             120   -0.58 7  156 180 
 CHI  HN ES        036 31.64                             120    0.24 9  156 180 
 CHI  HZ I         036 35.18         1.6 0.54            125            156 180 
 GUY2CHZ EP        036 17.06                             113    0.53 9  202 244 
 GUY2CHE ES   4    036 42.31                             113    1.80 0  202 244 
 GUY2CHZ I         036 46.14         1.9 0.29                           202 244 
 ZAR  HE ES   1    036 39.14                             113   -0.47 6  203 322 
 ZAR  HZ I         036 40.77         3.7 0.28            117            203 322 
                                                                                
