 2013 12 1 0755 32.8 L   6.813 -73.153146.2  RSN 13 0.4 2.0LRSN                1
 GAP=135        0.92       2.9     4.0  5.0 -0.2117E+01  0.2591E+01  0.1472E+01E
 Epicentro: LOS SANTOS - SANTANDER                                             3
 ACTION:UPD 14-01-13 10:15 OP:ep   STATUS:               ID:20131201075532 L   I
 OLDACT:REG 13-12-01 08:39 OP:mh   STATUS:               ID:20131201075000     3
 2013-12-01-0750-00M.COL___282                                                 6
 STAT SP IPHASW D HRMM SECON CODA AMPLIT PERI AZIMU VELO AIN AR TRES W  DIS CAZ7
 BAR2 SZ EP   1    755 52.70                             170    0.15 7 24.6 188 
 BAR2 SZ ES        756  7.71                             170   -0.2210 24.6 188 
 BAR2 SZ I         756  9.42        37.0 0.40            168           24.6 188 
 BRR  HZ EP        755 54.31                             153    0.3510 69.8 298 
 BRR  HN ES        756 10.67                             153    0.2410 69.8 298 
 BRR  HZ I         756 14.74        11.9 0.16            155           69.8 298 
 PAM  SZ EP        755 55.44                             151    0.3710 76.8  41 
 PAM  SN ES   1    756 12.60                             151    0.19 7 76.8  41 
 PAM  SZ I         756 14.86        17.2 0.22            153           76.8  41 
 RUS  HZ EP        755 56.56                             143   -0.1810  102 176 
 RUS  HZ I         756 16.94         7.3 0.44            142            102 176 
 PTB  HZ EP        755 59.17                             132   -0.63 9  147 258 
 PTB  HN ES        756 20.31                             132   -0.51 9  147 258 
 PTB  HZ I         756 26.87        14.0 0.30            133            147 258 
 OCA  HZ EP        756  0.77                             130   -0.27 9  159 353 
 OCA  HN ES   1    756 22.75                             130   -0.29 7  159 353 
 OCA  HZ I         756 28.09        11.8 0.16            132            159 353 
 SPBC HZ EP   1    756  1.60                             129    0.17 7  164 218 
 SPBC HN ES   1    756 23.75                             129    0.02 7  164 218 
 ZAR  HZ EP        756  5.59                             123    0.41 9  203 292 
 ZAR  HN ES   1    756 31.62                             123    1.22 6  203 292 
 ZAR  HZ I         756 37.99        10.7 0.31            124            203 292 
 NOR  HZ EP        756  8.61                             119   -0.00 8  235 234 
 NOR  HN ES   1    756 36.56                             119    0.05 6  235 234 
 NOR  HZ I         756 40.65         9.6 0.20            119            235 234 
 SML  HZ EP        756  8.74                             118   -0.57 8  242 335 
 SML  HN ES   1    756 37.44                             118   -0.32 6  242 335 
 SML  HZ I         756 42.41        16.6 0.07            119            242 335 
 CHI  HZ EP        756 10.51                             117   -0.18 8  250 195 
 CHI  HN ES        756 40.37                             117    0.16 8  250 195 
 CHI  HZ I         756 49.77         4.1 0.20            117            250 195 
 HEL  HN ES   1    756 43.73                             115   -0.64 6  272 255 
 GUY2CHZ EP        756 17.25                             112    0.76 7  301 234 
 GUY2CHN ES   4    756 51.01                             112    0.48 0  301 234 
 GUY2CHZ I         756 59.57         6.8 0.27                           301 234 
 SJC  HZ EP   4    756 26.70                             106   -1.52 0  408 327 
 SJC  HN ES   4    757  7.31                             106   -4.11 0  408 327 
                                                                                
