 2012  5 1 0153 11.1 L   6.795 -73.354122.6  RSN  8 0.4 1.9LRSN                1
 GAP= 91        1.01       4.7     4.5  8.5 -0.3834E+00  0.1387E+02 -0.2937E+00E
 Epicentro: ZAPATOCA - SANTANDER                                               3
 ACTION:UP  12-07-05 12:01 OP:pat  STATUS:               ID:20120501015311 L   I
 2012-05-01-0150-00M.COL___189                                                 6
 STAT SP IPHASW D HRMM SECON CODA AMPLIT PERI AZIMU VELO SNR AR TRES W  DIS CAZ7
 BAR2 SZ EP        153 28.23                             166     0.110   29 140 
 BAR2 SZ ES   1    153 41.41                             166     0.0 7   29 140 
 BAR2 SZ I         153 42.03        37.4 0.28                            29 140 
 BRR  HZ EP        153 28.68                             155    -0.110   52 311 
 BRR  HZ I         153 28.96        69.2 0.14                            52 311 
 BRR  HE ES   1    153 42.81                             155     0.3 7   52 311 
 PAM  SZ EP   1    153 32.58                             140     0.4 7   94  50 
 PAM  SE ES   1    153 48.54                             140     0.0 7   94  50 
 RUS  HZ EP   1    153 33.21                             137     0.2 7  104 163 
 RUS  HN ES   1    153 49.94                             137    -0.1 7  104 163 
 RUS  HZ I         153 51.21         4.0 0.23                           104 163 
 PTB  HZ EP   1    153 32.91                             131    -1.2 7  125 257 
 PTB  HN ES   1    153 51.88                             131    -0.2 7  125 257 
 OCA  SZ ES   1    153 57.74                             124    -0.7 7  160   1 
 ZAR  HZ EP   1    153 40.57                             120     0.6 7  183 295 
 ZAR  HN ES   1    154  2.87                             120     0.5 7  183 295 
 ZAR  HZ I         154  6.99         7.3 0.12                           183 295 
 HEL  HZ EP   1    153 47.85                             112     0.1 6  250 255 
 HEL  HN ES   1    154 16.41                             112     0.2 6  250 255 
 HEL  HZ I         154 23.84         4.3 0.54                           250 255 
                                                                                
