 2012  5 1 0012 45.9 L   6.479 -73.985 77.9  RSN  5 0.1 1.5LRSN                1
 GAP=154        0.41       2.5     1.8  4.6  0.2011E+01 -0.2020E+00  0.6685E+00E
 Epicentro: PUERTO PARRA - SANTANDER                                           3
 ACTION:UP  12-07-05 12:01 OP:pat  STATUS:               ID:20120501001245 L   I
 2012-05-01-0010-00M.COL___189                                                 6
 STAT SP IPHASW D HRMM SECON CODA AMPLIT PERI AZIMU VELO SNR AR TRES W  DIS CAZ7
 PTB  HZ EP   1    012 58.71                             143    -0.1 7   53 277 
 PTB  HN ES   1    013  8.95                             143     0.1 7   53 277 
 PTB  HZ I         013  9.37         4.6 0.23                            53 277 
 BRR  HZ EP   1    013  0.51                             132    -0.2 7   76  23 
 BRR  HN ES   1    013 12.37                             132     0.1 7   76  23 
 BRR  HZ I         013 13.02        19.2 0.11                            76  23 
 BAR2 SZ EP   1    013  2.43                             127     0.0 7   90  82 
 BAR2 SZ ES   1    013 15.32                             127     0.1 7   90  82 
 BAR2 SZ I         013 16.95        11.1 0.65                            90  82 
 RUS  HZ EP   1    013  6.04                             118     0.3 7  119 123 
 RUS  HN ES   1    013 21.07                             118    -0.2 7  119 123 
 ZAR  HZ EP   1    013  8.50                             112     0.1 7  148 319 
 ZAR  HN ES   1    013 25.84                             112    -0.1 7  148 319 
 ZAR  HZ I         013 28.58         5.6 0.40                           148 319 
                                                                                
