 2011 12 1 0856 51.3 L   6.801 -73.100142.0  RSN  4 0.3 1.4LRSN                1
 GAP=142        0.57       3.8     6.2  6.5 -0.2985E+01  0.4440E+01  0.2365E+00E
 Epicentro: LOS SANTOS - SANTANDER                                             3
 ACTION:UPD 12-07-13 16:13 OP:ep   STATUS:               ID:20111201085651 L   I
 2011-12-01-0853-11S.COL___160                                                 6
 STAT SP IPHASW D HRMM SECON CODA AMPLIT PERI AZIMU VELO AIN AR TRES W  DIS CAZ7
 BAR2 SZ ES   2    857 24.85                             170   -0.67 5 24.8 202 
 BAR2 SZ I         857 29.59         8.6 0.46                          24.8 202 
 PAM  SZ EP        857 13.09                             151    0.1310 74.2  37 
 PAM  SN ES   1    857 29.76                             151   -0.06 7 74.2  37 
 BRR  HZ EP        857 12.18                             150   -0.1610 75.6 297 
 BRR  HE ES   2    857 29.29                             150    0.57 5 75.6 297 
 BRR  HZ I         857 32.76         5.3 0.22                          75.6 297 
 RUS  HZ EP        857 14.67                             143   -0.0410  100 179 
 RUS  HN ES   1    857 33.16                             143    0.22 7  100 179 
 RUS  HZ I         857 35.57         2.3 0.38                           100 179 
                                                                                
