 2011  9 1 0209 16.7 L   6.781 -73.028144.8  RSN  7 0.2 2.0LRSN                1
 GAP=195        0.39       2.5     3.7  3.6  0.6628E+00 -0.7897E-01  0.9121E-01E
 Epicentro: CEPITA - SANTANDER                                                 3
 ACTION:UPD 12-07-13 15:54 OP:ep   STATUS:               ID:20110901020916 L   I
 2011-09-01-0207-44S.COL___168                                                 6
 STAT SP IPHASW D HRMM SECON CODA AMPLIT PERI AZIMU VELO AIN AR TRES W  DIS CAZ7
 BAR2 SZ EP   1    2 9 36.37                             169    0.11 7 27.0 219 
 BAR2 SZ ES   1    2 9 51.37                             169   -0.17 7 27.0 219 
 BAR2 SZ I         2 9 53.29        18.4 0.15                          27.0 219 
 GIR2 SZ EP   1    2 9 36.61                             165    0.20 7 37.6 331 
 GIR2 SZ ES   2    2 9 52.19                             165    0.38 5 37.6 331 
 BRR  HZ EP   1    2 9 38.37                             148   -0.10 7 83.7 296 
 BRR  HZ I         2 9 38.75        40.6 0.08                          83.7 296 
 BRR  HN ES   1    2 9 55.31                             148   -0.16 7 83.7 296 
 RUS  HZ EP        2 9 40.21                             144    0.0410 98.5 184 
 RUS  HN ES   2    2 9 58.23                             144   -0.27 5 98.5 184 
 RUS  HZ I         2 9 59.93        11.6 0.35                          98.5 184 
 OCA  SZ EP   1    2 9 45.32                             128    0.03 7  164 349 
 OCA  SZ ES   2    210  7.49                             128   -0.12 5  164 349 
 OCA  SZ I         210 17.66        10.6 0.20                           164 349 
 NOR  SN ES   2    210 22.42                             117    0.42 4  244 237 
 HEL  HZ EP   2    2 9 57.61                             113   -0.57 4  284 257 
 HEL  HN ES   2    210 30.76                             113    0.20 4  284 257 
 HEL  HZ I         210 35.78         3.5 0.19                           284 257 
                                                                                
