 2015  5 1 0315 19.5 L   6.806 -73.140148.4  RSN  9 0.3 1.5LRSN                1
 GAP=137        0.79       3.1     4.0  6.3  0.3037E+00  0.6272E+01  0.3488E+01E
 Epicentro: LOS SANTOS - SANTANDER                                             3
 ACTION:UPD 15-09-10 22:00 OP:cam  STATUS:               ID:20150501031519 L   I
 OLDACT:REG 15-05-11 17:09 OP:spq  STATUS:               ID:20150501030749     3
 2015-05-01-0307-49M.COL___276                                                 6
 STAT SP IPHASW D HRMM SECON CODA AMPLIT PERI AZIMU VELO AIN AR TRES W  DIS CAZ7
 BAR2 EZ EP   1    315 39.26                             170   -0.16 7 24.1 191 
 BAR2 EZ ES   1    315 54.54                             170   -0.45 7 24.1 191 
 BAR2 EZ I         315 55.92         7.8 0.20            169           24.1 191 
 BRR  HZ EP        315 41.10                             153    0.1910 71.5 298 
 BRR  HN ES        315 58.18                             153    0.5410 71.5 298 
 BRR  HZ I         316  4.31         7.6 0.24            150           71.5 298 
 PAM  SZ EP        315 42.20                             152    0.3010 76.5  39 
 PAM  SE ES        315 59.51                             152    0.1010 76.5  39 
 PAM  SZ I         316  1.39         5.3 0.48            156           76.5  39 
 RUS  HZ EP        315 43.43                             144   -0.0810  101 176 
 RUS  HE ES        316  2.12                             144   -0.1510  101 176 
 RUS  HZ I         316  2.98         3.4 0.28            147            101 176 
 OCA  HE ES   1    316  9.39                             130   -0.74 7  160 353 
 OCA  HZ I         316 12.51         7.9 0.28            132            160 353 
 ZAR  HN ES        316 17.13                             123   -0.46 9  204 292 
 ZAR  HZ I         316 22.55         3.4 0.19            123            204 292 
 NOR  HZ EP   1    315 55.51                             119    0.07 6  236 234 
 NOR  HN ES   1    316 23.95                             119    0.45 6  236 234 
 NOR  HZ I         316 28.68         1.9 0.18            120            236 234 
 CHI  HN ES   1    316 26.78                             118   -0.19 6  249 195 
 CHI  HZ I         316 30.05         2.3 0.37            119            249 195 
 MON  HE ES   4    316 45.60                             109   -1.29 0  354 308 
 MON  HZ I         316 49.78         0.6 0.23            110            354 308 
                                                                                
