 2017  4 1 0132 33.0 L   6.760 -73.115142.7  RSN  5 0.3 1.3LRSN                1
 GAP=238        0.69       3.9     4.8  5.5  0.1902E+00  0.4859E+01  0.3855E+01E
 Epicentro: LOS SANTOS - SANTANDER                                             3
 ACTION:UPD 17-05-30 21:07 OP:jn   STATUS:               ID:20170401013233 L   I
 OLDACT:REG 17-04-01 13:00 OP:lv   STATUS:               ID:20170401012741     3
 2017-04-01-0128-00M.COL___362                                                 6
 STAT SP IPHASW D HRMM SECON CODA AMPLIT PERI AZIMU VELO AIN AR TRES W  DIS CAZ7
 BAR2 EZ EP        132 52.08                             172   -0.1310 20.0 202 
 BAR2 EZ ES        133  7.18                             172   -0.0010 20.0 202 
 BAR2 EZ I         133  8.59         5.1 0.15            166           20.0 202 
 BRR  HZ EP        132 53.96                             150   -0.1710 76.3 300 
 BRR  HN ES        133 10.75                             150    0.1510 76.3 300 
 RUS  HZ EP        132 56.29                             144    0.1610 96.0 178 
 RUS  HN ES        133 14.33                             144    0.1610 96.0 178 
 RUS  HZ I         133 16.94         1.8 0.21            143           96.0 178 
 SPBC HZ EP        133  1.22                             129    0.06 9  162 221 
 SPBC HE ES        133 22.51                             129   -0.61 9  162 221 
 SPBC HZ I         133 27.45         3.7 0.09            127            162 221 
 NOR  HN ES        133 36.79                             118    0.45 8  235 236 
 NOR  HZ I         133 40.90         2.4 0.06            118            235 236 
                                                                                
