 2015  3 1 0312 49.2 L   6.814 -73.167146.0  RSN 14 0.4 2.2LRSN                1
 GAP= 69        1.10       2.8     3.5  5.3 -0.1782E+01  0.3286E+01  0.1935E+01E
 Epicentro: LOS SANTOS - SANTANDER                                             3
 ACTION:UPD 15-04-30 16:21 OP:nd   STATUS:               ID:20150301031249 L   I
 OLDACT:REG 15-03-01 15:17 OP:carl STATUS:               ID:20150301030745     3
 2015-03-01-0307-45M.COL___293                                                 6
 STAT SP IPHASW D HRMM SECON CODA AMPLIT PERI AZIMU VELO AIN AR TRES W  DIS CAZ7
 BAR2 EZ EP        313  8.95                             170    0.0510 24.6 184 
 BAR2 EZ ES        313 23.50                             170   -0.7510 24.6 184 
 BAR2 EZ I         313 25.12        32.2 0.22            172           24.6 184 
 BRR  HN ES        313 27.99                             153    1.3710 68.4 298 
 PAM  SZ EP        313 11.88                             151    0.4110 77.8  42 
 PAM  SN ES        313 29.17                             151    0.3310 77.8  42 
 PAM  SZ I         313 31.08        35.2 0.44            147           77.8  42 
 RUS  HZ EP        313 13.08                             143   -0.0310  102 175 
 RUS  HN ES        313 31.47                             143   -0.2810  102 175 
 RUS  HZ I         313 32.64        20.2 0.24            143            102 175 
 PTB  HZ EP        313 15.63                             132   -0.39 9  146 258 
 PTB  HN ES        313 36.38                             132   -0.54 9  146 258 
 PTB  HZ I         313 43.65        18.1 0.62            128            146 258 
 TAM  HZ EP        313 17.31                             130    0.15 9  158 105 
 TAM  HZ I         313 38.89         7.3 0.26            129            158 105 
 OCA  HZ EP        313 16.99                             130   -0.38 9  158 354 
 OCA  HN ES        313 38.77                             130   -0.56 9  158 354 
 OCA  HZ I         313 42.30        13.7 0.18            125            158 354 
 TAM  HN ES        313 38.99                             130    0.04 9  158 105 
 SPBC HZ EP        313 17.85                             129    0.15 9  163 218 
 SPBC HN ES        313 39.56                             129   -0.36 9  163 218 
 SPBC HZ I         313 42.44        29.7 0.40            126            163 218 
 NOR  HZ EP        313 24.98                             119    0.13 8  234 234 
 NOR  HN ES        313 53.10                             119    0.46 8  234 234 
 NOR  HZ I         314  0.79        14.1 0.16            116            234 234 
 SML  HZ EP        313 25.54                             118   -0.05 8  241 336 
 SML  HN ES        313 53.78                             118   -0.19 8  241 336 
 SML  HZ I         313 58.40        19.9 0.10            114            241 336 
 CHI  HZ EP        313 27.11                             117    0.09 8  250 195 
 CHI  HN ES        313 56.48                             117   -0.03 8  250 195 
 CHI  HZ I         313 59.89        10.0 0.46            115            250 195 
 GUY2CHZ EP   4    313 34.25                             112    1.54 0  300 234 
 GUY2CHN ES   4    314  8.08                             112    1.44 0  300 234 
 GUY2CHZ I         314 13.06         7.0 0.34                           300 234 
 TOL  SZ EP        313 37.21                             109   -0.20 7  343 224 
 TOL  SN ES        314 15.47                             109    0.46 7  343 224 
 TOL  SZ I         314 22.33         6.5 0.54            107            343 224 
 PRA  HZ EP        313 43.00                             106    0.24 6  392 209 
 PRA  HN ES        314 24.69                             106    0.16 6  392 209 
                                                                                
