 2013  4 1 0030 21.1 L   6.810 -73.148145.5  RSN 10 0.5 2.1LRSN                1
 GAP=136        1.09       4.8     5.6  6.7 -0.4838E+01  0.1120E+02  0.7500E+01E
 Epicentro: LOS SANTOS - SANTANDER                                             3
 ACTION:UPD 13-05-22 14:34 OP:EP   STATUS:               ID:20130401003021 L   I
 2013-04-01-0030-00M.COL___245                                                 6
 STAT SP IPHASW D HRMM SECON CODA AMPLIT PERI AZIMU VELO AIN AR TRES W  DIS CAZ7
 BAR2 SZ EP   1    030 40.57                             170   -0.13 7 24.3 189 
 BAR2 SZ ES   1    030 55.57                             170   -0.43 7 24.3 189 
 BAR2 SZ I         030 56.92        24.7 0.40            162           24.3 189 
 GIR2 SZ EP   1    030 40.96                             168    0.27 7 30.2 350 
 GIR2 SZ ES   1    030 55.98                             168   -0.01 7 30.2 350 
 BRR  HZ EP   1    030 42.55                             153    0.39 7 70.5 298 
 BRR  HE ES        030 59.33                             153    0.7310 70.5 298 
 BRR  HZ I         031  3.53        20.3 0.10            137           70.5 298 
 PAM  SZ EP        030 43.57                             151    0.3410 76.7  40 
 PAM  SE ES        031  0.50                             151    0.0010 76.7  40 
 PAM  SZ I         031  2.47        16.7 0.54            140           76.7  40 
 RUS  HZ EP        030 44.71                             143   -0.1710  102 176 
 RUS  HN ES        031  3.47                             143    0.0210  102 176 
 RUS  HZ I         031  4.85         8.3 0.22            129            102 176 
 PTB  HZ EP        030 47.40                             132   -0.62 9  148 258 
 PTB  HE ES   1    031  8.57                             132   -0.47 7  148 258 
 PTB  HZ I         031 10.86        21.0 0.10            116            148 258 
 OCA  HN ES   1    031  9.96                             130   -1.29 7  159 353 
 OCA  HZ I         031 15.02        24.5 0.22            115            159 353 
 NOR  HZ EP        030 57.16                             118    0.32 8  235 234 
 NOR  HN ES   1    031 24.31                             118   -0.42 6  235 234 
 NOR  HZ I         031 31.82        13.4 0.14            106            235 234 
 HEL  HZ EP        031  2.10                             115    0.82 8  272 256 
 HEL  HZ I         031 41.24         8.1 0.26            104            272 256 
 PRA  HZ EP        031 14.31                             106   -0.37 6  393 209 
 PRA  HZ I         032  1.36         6.1 0.46             99            393 209 
                                                                                
