 2017 10 1 0852 24.5 L   6.816 -73.133142.0  RSN  6 0.4 1.3LRSN                1
 GAP=137        0.78       3.4     4.1  6.0 -0.3193E+01  0.1209E+02 -0.1719E+01E
 Epicentro: LOS SANTOS - SANTANDER                                             3
 ACTION:UPD 17-11-07 19:27 OP:rebc STATUS:               ID:20171001085224 L   I
 OLDACT:UP  17-10-01 17:10 OP:dhb  STATUS:               ID:20171001084737     3
 OLDACT:REG 17-10-01 13:43 OP:osc  STATUS:               ID:20171001084737     3
 2017-10-01-0848-00M.COL___401                                                 6
 STAT SP IPHASW D HRMM SECON CODA AMPLIT PERI AZIMU VELO AIN AR TRES W  DIS CAZ7
 BAR2 EZ EP        852 43.35                             169   -0.4110 25.4 192 
 BAR2 EZ ES        852 58.80                             169    0.0510 25.4 192 
 BAR2 EZ I         853  0.21         5.6 0.16            170           25.4 192 
 PAM  EZ IP     D  852 46.14                             151   -0.0710 75.1  40 
 PAM  EN ES        853  3.31                             151    0.1910 75.1  40 
 PAM  EZ I         853  5.19         3.0 0.30            154           75.1  40 
 RUS  HZ EP        852 47.96                             143   -0.0910  102 177 
 RUS  HN ES        853  6.46                             143    0.0810  102 177 
 RUS  HZ I         853  7.98         2.4 0.46            146            102 177 
 SPBC HZ EP        852 52.92                             128   -0.05 9  165 219 
 SPBC HN ES        853 15.56                             128    0.41 9  165 219 
 SPBC HZ I         853 17.78         2.2 0.10            130            165 219 
 ZAR  HZ EP        852 56.76                             122   -0.05 9  205 292 
 ZAR  HE ES        853 22.08                             122    0.10 9  205 292 
 ZAR  HZ I         853 27.97         3.3 0.08            123            205 292 
 GUY2CHZ EP   2    853  9.98                             112    1.76 4  303 235 
 GUY2CHE ES        853 41.67                             112   -0.63 7  303 235 
 GUY2CHZ I         853 51.46         0.8 0.38                           303 235 
                                                                                
