 2017  9 1 0835 12.0 L   6.817 -73.132146.4  RSN  5 0.4 1.2LRSN                1
 GAP=137        1.00       5.8     5.6  8.0  0.4609E+01  0.1246E+02 -0.9392E+01E
 Epicentro: LOS SANTOS - SANTANDER                                             3
 ACTION:UPD 17-10-05 19:08 OP:rebc STATUS:               ID:20170901083512 L   I
 OLDACT:REG 17-09-01 13:08 OP:dani STATUS:               ID:20170901082745     3
 2017-09-01-0828-00M.COL___402                                                 6
 STAT SP IPHASW D HRMM SECON CODA AMPLIT PERI AZIMU VELO AIN AR TRES W  DIS CAZ7
 BAR2 EZ EP        835 31.65                             170   -0.1110 25.5 193 
 BAR2 EZ ES        835 46.52                             170   -0.6410 25.5 193 
 BAR2 EZ I         835 49.42         3.9 0.26            168           25.5 193 
 BRR  HZ EP        835 33.49                             152    0.2410 71.6 297 
 BRR  HN ES        835 50.51                             152    0.7010 71.6 297 
 PAM  EZ EP        835 34.39                             152    0.2410 75.0  40 
 PAM  EN ES        835 51.22                             152   -0.1910 75.0  40 
 RUS  HN ES        835 54.85                             143    0.2310  102 177 
 ZAR  HZ EP        835 44.28                             122   -0.28 9  205 291 
 ZAR  HN ES        836  9.59                             122   -0.36 9  205 291 
 ZAR  HZ I         836 16.92         1.1 0.25            122            205 291 
                                                                                
