 2017  1 1 0740 29.2 L   6.711 -73.119143.2  RSN  5 0.4 1.7LRSN                1
 GAP=215        1.05       8.6     7.6  8.1  0.4581E+02  0.9367E+01  0.2437E+02E
 Epicentro: JORDAN - SANTANDER                                                 3
 ACTION:UPD 17-05-22 15:54 OP:jn   STATUS:               ID:20170101074029 L   I
 OLDACT:DUP 17-01-01 17:49 OP:ndl  STATUS:               ID:20170101073745d    3
 OLDACT:REG 17-01-01 13:50 OP:dnl  STATUS:               ID:20170101073743     3
 2017-01-01-0738-00M.COL___372                                                 6
 STAT SP IPHASW D HRMM SECON CODA AMPLIT PERI AZIMU VELO AIN AR TRES W  DIS CAZ7
 BAR2 EZ EP        740 48.72                             174    0.3510 14.9 208 
 BAR2 EZ ES        741  2.63                             174   -0.6910 14.9 208 
 BAR2 EZ I         741  6.77        27.5 0.92            177           14.9 208 
 BRR  HZ EP        740 50.58                             149    0.0610 78.8 304 
 BRR  HE ES        741  7.77                             149    0.6210 78.8 304 
 BRR  HZ I         741 12.22         4.5 0.14            148           78.8 304 
 PTB  HZ EP        740 55.62                             131   -0.45 9  149 263 
 PTB  HE ES        741 17.42                             131    0.38 9  149 263 
 PTB  HZ I         741 17.48         5.7 0.70            133            149 263 
 ZAR  HZ EP   2    741  2.18                             121    0.02 4  211 294 
 ZAR  HN ES        741 27.31                             121   -0.56 8  211 294 
 ZAR  HZ I         741 35.93         4.0 0.58            121            211 294 
 PTGC HZ EP        741 11.83                             112    0.06 7  298 158 
 PTGC HE ES        741 45.13                             112    0.15 7  298 158 
                                                                                
