 2010  8 1 0206 42.0 L   6.885 -72.953148.8  RSN  9 0.4 2.1LRSN                1
 GAP=239        0.72       4.7     6.9  6.9  0.3917E+01  0.1033E+02  0.1034E+02E
 Epicentro: GUACA - SANTANDER                                                  3
 ACTION:UP  10-09-07 10:51 OP:vdl  STATUS:               ID:20100801020642 L   I
 2010-08-01-0205-17S.COL___123                                                 6
 STAT SP IPHASW D HRMM SECON CODA AMPLIT PERI AZIMU VELO SNR AR TRES W  DIS CAZ7
 GIR2 SZ EP   2    2 7  1.69                             166    -0.4 5   34 309 
 BAR2 SZ IP        2 7  2.77                             164     0.310   41 218 
 BAR2 SZ I         2 7 23.74        12.4 0.21                            41 218 
 BRR  HZ IP     D  2 7  4.45                             148     0.010   87 286 
 BRR  HN ES   1    2 7 21.70                             148    -0.2 7   87 286 
 BRR  HZ I         2 7 24.95        25.4 0.12                            87 286 
 RUS  HZ EP   1    2 7  6.82                             142     0.1 7  111 187 
 RUS  HE ES   1    2 7 25.93                             142    -0.2 7  111 187 
 RUS  HZ I         2 7 28.63         8.0 0.32                           111 187 
 CHI  HZ EP        2 7 21.30                             116    -0.2 8  264 199 
 CHI  HE ES   1    2 7 52.46                             116     0.1 6  264 199 
 CHI  HZ I         2 7 57.04         4.4 0.54                           264 199 
 HEL  HZ EP   1    2 7 24.34                             113    -0.5 5  295 255 
 HEL  HZ I         2 8  2.35         8.0 0.48                           295 255 
 GUY  SZ EP   1    2 7 28.30                             111     0.0 5  324 236 
 GUY  SE ES   1    2 8  5.25                             111     0.8 5  324 236 
 GUY  SZ I         2 8  8.53        17.6 0.49                           324 236 
 RREF HZ EP        2 7 31.13                             110     0.3 7  344 231 
 RREF HE ES   2    2 8  8.54                             110    -0.3 3  344 231 
 RREF HZ I         2 8 11.16         4.4 0.58                           344 231 
 PRA  HZ EP   1    2 7 37.38                             106    -0.4 4  411 212 
 PRA  HN ES   2    2 8 20.26                             106    -1.1 3  411 212 
 PRA  HZ I         2 8 25.30         7.1 0.32                           411 212 
                                                                                
