 2013  6 1 0343 16.6 L   6.814 -73.151140.3  RSN  6 0.4 1.5LRSN                1
 GAP=185        1.13       6.2     6.2  7.4  0.2375E+01  0.1306E+02  0.1197E+02E
 Epicentro: LOS SANTOS - SANTANDER                                             3
 ACTION:UPD 14-01-08 09:51 OP:ep   STATUS:               ID:20130601034316 L   I
 2013-06-01-0340-00M.COL___260                                                 6
 STAT SP IPHASW D HRMM SECON CODA AMPLIT PERI AZIMU VELO AIN AR TRES W  DIS CAZ7
 BAR2 SZ EP        343 35.75                             170    0.1110 24.7 188 
 BAR2 SZ ES        343 50.46                             170   -0.0010 24.7 188 
 BAR2 SZ I         343 52.42         7.7 0.20            170           24.7 188 
 GIR2 SZ EP        343 35.93                             167    0.3110 29.7 351 
 GIR2 SZ ES        343 49.55                             167   -0.8710 29.7 351 
 GIR2 SZ I         343 52.33         5.8 0.32            165           29.7 351 
 BRR  HZ IP     C  343 37.51                             152    0.3810 70.0 298 
 BRR  HN ES        343 53.84                             152    0.7310 70.0 298 
 BRR  HZ I         344  4.84         8.2 0.40            149           70.0 298 
 RUS  HZ EP        343 39.84                             142   -0.1410  102 176 
 RUS  HN ES        343 58.40                             142    0.2310  102 176 
 RUS  HZ I         343 59.40         3.0 0.18            147            102 176 
 PTB  HZ EP        343 42.44                             131   -0.71 9  148 258 
 PTB  HN ES        344  3.58                             131   -0.24 9  148 258 
 PTB  HZ I         344  5.43         4.2 0.40            132            148 258 
 NOR  HZ EP        343 52.16                             117    0.05 8  235 234 
 NOR  HN ES        344 19.84                             117    0.07 8  235 234 
 NOR  HZ I         344 24.74         2.3 0.16            120            235 234 
                                                                                
