 2011  6 1 0449 16.3 L   6.774 -73.060137.6  RSN  4 0.3 1.5LRSN                1
 GAP=169        0.66       3.3     8.2  8.9  0.9068E+00 -0.2300E+02 -0.4883E+01E
 Epicentro: LOS SANTOS - SANTANDER                                             3
 ACTION:UP  11-07-14 19:02 OP:ep   STATUS:               ID:20110601044916 L   I
 2011-06-01-0447-50S.COL___115                                                 6
 STAT SP IPHASW D HRMM SECON CODA AMPLIT PERI AZIMU VELO SNR AR TRES W  DIS CAZ7
 BRR  HZ EP   1    449 36.63                             148    -0.6 7   81 297 
 BRR  HE ES   1    449 53.70                             148     0.2 7   81 297 
 BRR  HZ I         449 56.14         7.6 0.20                            81 297 
 RUS  HZ EP   1    449 39.20                             143     0.1 7   97 182 
 RUS  HN ES   1    449 56.78                             143     0.0 7   97 182 
 RUS  HZ I         449 57.00         3.3 0.67                            97 182 
 GRA  SZ EP   1    449 40.92                             135     0.0 7  126  13 
 GRA  SZ ES   1    449 59.86                             135    -0.2 7  126  13 
 GRA  SZ I         450  2.54         4.1 0.32                           126  13 
 OCA  SZ EP   1    449 44.79                             127     0.4 7  165 350 
 OCA  SZ ES   1    450  6.42                             127     0.1 7  165 350 
 OCA  SZ I         450  8.60         4.7 0.27                           165 350 
                                                                                
