 2017 10 1 0642  1.2 L   6.812 -73.164145.9  RSN  9 0.4 1.6LRSN                1
 GAP=134        0.75       3.1     3.5  5.4 -0.2802E+01  0.4997E+01  0.2202E+01E
 Epicentro: LOS SANTOS - SANTANDER                                             3
 ACTION:UPD 17-11-07 19:27 OP:rebc STATUS:               ID:20171001064201 L   I
 OLDACT:UP  17-10-01 17:43 OP:osc  STATUS:               ID:20171001062727     3
 OLDACT:REG 17-10-01 13:26 OP:osc  STATUS:               ID:20171001062727     3
 2017-10-01-0638-00M.COL___408                                                 6
 STAT SP IPHASW D HRMM SECON CODA AMPLIT PERI AZIMU VELO AIN AR TRES W  DIS CAZ7
 BAR2 EZ EP        642 20.72                             170   -0.1310 24.4 185 
 BAR2 EZ ES        642 36.08                             170   -0.1110 24.4 185 
 BAR2 EZ I         642 36.86         7.5 0.22            171           24.4 185 
 PAM  EZ EP        642 23.57                             151    0.1410 77.7  41 
 PAM  EN ES        642 40.77                             151   -0.0110 77.7  41 
 PAM  EZ I         642 42.83        10.3 0.52            152           77.7  41 
 RUS  HZ EP        642 25.08                             144    0.0210  102 175 
 RUS  HE ES        642 43.56                             144   -0.1210  102 175 
 RUS  HZ I         642 44.40         4.6 0.24            146            102 175 
 SPBC HZ EP        642 29.57                             129   -0.11 9  163 218 
 SPBC HE ES        642 52.10                             129    0.20 9  163 218 
 SPBC HZ I         642 54.19         7.8 0.38            129            163 218 
 ZAR  HN ES        642 58.76                             123    0.25 9  202 292 
 ZAR  HZ I         643  5.28         3.6 0.24            122            202 292 
 NOR  HE ES        643  5.21                             119    0.58 8  234 234 
 CHI  HZ EP        642 38.87                             117   -0.11 8  249 195 
 CHI  HN ES        643  8.27                             117   -0.18 8  249 195 
 CHI  HZ I         643 11.64         2.9 0.54            118            249 195 
 HEL  HN ES   2    643 10.71                             115   -1.74 4  270 255 
 GUY2CHZ EP   9    642 46.12                             112    1.42 0  300 234 
 GUY2CHE ES        643 20.68                             112    0.62 7  300 234 
 GUY2CHZ I         643 26.78         1.8 0.26                           300 234 
                                                                                
