 2014  7 1 0419  1.0 L   6.779 -73.250143.0  RSN  6 0.3 1.3LRSN                1
 GAP=163        0.85       3.4     7.5  6.5 -0.1042E+02  0.3061E+01 -0.2428E+01E
 Epicentro: ZAPATOCA - SANTANDER                                               3
 ACTION:UPD 15-03-16 20:40 OP:nd   STATUS:               ID:20140701041901 L   I
 OLDACT:DUP 14-07-01 18:50 OP:spq  STATUS:               ID:20140701040821d    3
 OLDACT:UP  14-07-01 15:16 OP:spq  STATUS:               ID:20140701040818     3
 OLDACT:REG 14-07-01 12:50 OP:spq  STATUS:               ID:20140701040818     3
 2014-07-01-0408-18M.COL___247                                                 6
 STAT SP IPHASW D HRMM SECON CODA AMPLIT PERI AZIMU VELO AIN AR TRES W  DIS CAZ7
 BAR2 SZ ES   1    419 34.68                             171   -0.58 7 21.9 160 
 BAR2 SZ I         419 36.00         5.4 0.13            172           21.9 160 
 BRR  HZ IP     C  419 21.57                             155    0.2210 62.6 305 
 BRR  HN ES        419 37.90                             155    0.6610 62.6 305 
 BRR  HZ I         419 40.97         3.6 0.20            154           62.6 305 
 PTB  HZ EP        419 26.61                             134   -0.04 9  136 259 
 PTB  HN ES        419 46.25                             134   -0.42 9  136 259 
 PTB  HZ I         419 49.95         2.1 0.12            134            136 259 
 SPBC HZ EP        419 28.69                             130    0.28 9  154 216 
 SPBC HN ES        419 49.76                             130   -0.05 9  154 216 
 SPBC HZ I         419 52.93         2.4 0.27            132            154 216 
 OCA  HN ES        419 51.13                             129   -0.08 9  162 357 
 OCA  HZ I         419 52.94         2.5 0.14            131            162 357 
 SML  HZ EP        419 36.98                             117   -0.19 8  241 338 
 SML  HN ES        420  5.17                             117   -0.24 8  241 338 
                                                                                
