 2016  7 1 0914 22.8 L   6.768 -73.139138.0  RSN 18 0.5 2.1LRSN                1
 GAP=121        1.15       3.7     3.8  5.7 -0.1027E+01  0.6326E+01  0.5249E+01E
 Epicentro: LOS SANTOS - SANTANDER                                             3
 ACTION:UPD 17-03-29 16:45 OP:lp   STATUS:               ID:20160701091422 L   I
 OLDACT:REG 16-07-01 14:54 OP:ak   STATUS:               ID:20160701090744     3
 2016-07-01-0907-44M.COL___334                                                 6
 STAT SP IPHASW D HRMM SECON CODA AMPLIT PERI AZIMU VELO AIN AR TRES W  DIS CAZ7
 BAR2 EZ IP     C  914 41.53                             171    0.0810 20.1 194 
 BAR2 EZ ES        914 56.18                             171    0.2010 20.1 194 
 BAR2 EZ I         914 57.71        30.3 0.22            168           20.1 194 
 BRR  HZ IP     C  914 43.35                             150    0.0810 73.6 301 
 BRR  HN ES        914 59.84                             150    0.6110 73.6 301 
 BRR  HZ I         915  0.60        26.7 0.28            149           73.6 301 
 PAM  EZ EP        914 44.49                             149    0.1410 79.6  38 
 PAM  EN ES        915  1.23                             149    0.0810 79.6  38 
 PAM  EZ I         915  3.66        24.7 0.48            154           79.6  38 
 RUS  HZ EP        914 45.38                             143   -0.1710 97.0 176 
 RUS  HN ES        915  2.73                             143   -0.5510 97.0 176 
 RUS  HZ I         915  6.39         8.7 0.22            144           97.0 176 
 PTB  HZ EP        914 48.10                             130   -1.07 9  148 260 
 PTB  HN ES        915  9.68                             130   -0.05 9  148 260 
 PTB  HZ I         915 12.59        19.5 0.10            130            148 260 
 SPBC HZ EP        914 50.45                             128   -0.07 9  161 220 
 SPBC HN ES        915 12.30                             128    0.18 9  161 220 
 SPBC HZ I         915 19.55        19.5 0.19            128            161 220 
 ZAR  HZ EP        914 54.81                             120   -0.17 8  206 293 
 ZAR  HN ES        915 19.60                             120   -0.47 8  206 293 
 ZAR  HZ I         915 26.23        21.6 0.30            121            206 293 
 NOR  HZ EP   2    914 57.34                             117   -0.62 4  233 235 
 NOR  HN ES        915 24.46                             117   -0.91 8  233 235 
 NOR  HZ I         915 29.34        15.1 0.38            118            233 235 
 CHI  HZ EP   2    915  0.75                             116    1.00 4  245 196 
 CHI  HN ES        915 29.48                             116    0.93 8  245 196 
 ROSC BZ EP   9    915  2.41                             115    2.17 0  250 212 
 ROSC BN ES   2    915 32.48                                    0.88 4  250 212 
 ROSC BZ I         915 36.38        10.7 0.35            116            250 212 
 HEL  HZ EP        915  3.78                             113    1.15 8  272 257 
 HEL  HN ES        915 33.44                             113   -0.25 8  272 257 
 HEL  HZ I         915 39.98         9.5 0.50            114            272 257 
 URE  HZ EP   4    915  5.29                             112    1.54 0  286 293 
 URE  HN ES   4    915 32.67                             112   -3.01 0  286 293 
 URE  HZ I         915 41.65         6.4 0.16            113            286 293 
 GUY2CHZ EP   2    915  5.69                             111   -0.23 4  300 235 
 GUY2CHN ES        915 40.51                             111    0.97 7  300 235 
 GUY2CHZ I         915 47.93         8.2 0.44                           300 235 
 PTGC HZ EP        915  5.33                             110   -0.60 7  305 159 
 PTGC HN ES   4    915 37.93                             110   -1.63 0  305 159 
 CBOC HZ EP        915  9.29                             109   -0.09 7  333 253 
 CBOC HN ES        915 46.02                             109    0.31 7  333 253 
 CBOC HZ I         915 51.87         2.4 0.38            109            333 253 
 PRA  HZ EP        915 15.95                             105    0.18 6  389 210 
 PRA  HN ES        915 56.62                             105   -0.45 6  389 210 
 PRA  HZ I         916  4.16         5.3 0.28            106            389 210 
 ORTC HZ EP        915 16.60                             105    0.40 6  393 217 
 ORTC HN ES   4    916  1.43                             105    3.59 0  393 217 
 ORTC HZ I         916  3.03         3.6 0.20            106            393 217 
 SJC  HZ EP   4    915 16.12                             104   -2.41 0  413 327 
 SJC  HN ES   4    915 56.79                             104   -5.19 0  413 327 
 SJC  HZ I         916  1.53         1.4 0.37            106            413 327 
                                                                                
