 2011  7 1 0244  5.8 L   7.459 -73.247127.1  RSN  5 0.1 1.6LRSN                1
 GAP=173        0.36       7.6     7.2  5.0 -0.4897E+02 -0.1129E+02  0.1297E+02E
 Epicentro: EL PLAYON - SANTANDER                                              3
 ACTION:UPD 12-07-25 13:57 OP:epov STATUS:               ID:20110701024406 L   I
 2011-07-01-0241-22S.COL___140                                                 6
 STAT SP IPHASW D HRMM SECON CODA AMPLIT PERI AZIMU VELO AIN AR TRES W  DIS CAZ7
 GIR2 SZ EP   1    244 23.36                             160   -0.27 7 42.4 172 
 BRI  SZ EP   2    244 24.61                             154    0.23 5 57.2  60 
 BRI  SZ ES   3    244 38.97                             154    0.07 2 57.2  60 
 BTL  SZ EP   1    244 24.80                             153    0.19 7 59.8 182 
 BRR  HZ EP        244 24.49                             151   -0.0310 64.4 233 
 BRR  HZ I         244 35.53        11.1 0.36                          64.4 233 
 BRR  HE ES   1    244 39.19                             151    0.04 7 64.4 233 
 GRA  SZ EP        244 24.96                             150    0.0110 67.9  46 
 GRA  SZ ES   1    244 39.88                             150   -0.04 7 67.9  46 
 GRA  SZ I         244 40.90         7.9 0.24                          67.9  46 
                                                                                
