 2011 10 1 0705  3.5 L   6.806 -73.109143.1  RSN  8 0.2 1.6LRSN                1
 GAP=141        0.53       2.6     5.0  4.2 -0.1586E+01  0.2228E+01  0.1719E+01E
 Epicentro: LOS SANTOS - SANTANDER                                             3
 ACTION:UPD 12-07-13 16:01 OP:ep   STATUS:               ID:20111001070503 L   I
 2011-10-01-0700-00M.COL___169                                                 6
 STAT SP IPHASW D HRMM SECON CODA AMPLIT PERI AZIMU VELO AIN AR TRES W  DIS CAZ7
 BAR2 SZ EP        7 5 22.81                             170   -0.0310 25.0 199 
 BAR2 SZ ES   1    7 5 37.48                             170   -0.45 7 25.0 199 
 BAR2 SZ I         7 5 39.25         9.0 0.39                          25.0 199 
 GIR2 SZ EP   1    7 5 22.82                             167   -0.04 7 31.5 343 
 PAM  SZ EP   1    7 5 25.65                             151    0.40 7 74.3  38 
 PAM  SN ES   1    7 5 42.24                             151    0.03 7 74.3  38 
 BRR  HZ EP        7 5 24.55                             151    0.0010 74.4 297 
 BRR  HN ES   1    7 5 41.27                             151    0.30 7 74.4 297 
 BRR  HZ I         7 5 44.96        12.1 0.16                          74.4 297 
 RUS  HZ EP        7 5 26.93                             143   -0.1010  101 178 
 RUS  HZ I         7 5 28.14         5.2 0.18                           101 178 
 RUS  HE ES   1    7 5 45.70                             143    0.32 7  101 178 
 OCA  SZ EP   1    7 5 31.18                             129   -0.41 7  160 352 
 OCA  SZ I         7 5 56.23         6.3 0.14                           160 352 
 CHI  HZ EP   1    7 5 41.33                             116    0.09 6  250 196 
 CHI  HN ES   1    7 6 10.50                             116   -0.18 6  250 196 
 CHI  HZ I         7 6 15.73         2.5 0.38                           250 196 
 PRA  HZ EP   1    7 5 57.45                             106    0.22 4  395 210 
                                                                                
