 2017 12 1 0140 48.9 L   6.768 -73.136136.1  RSN  7 0.4 1.4LRSN                1
 GAP=139        1.09       4.5     4.7  7.4 -0.4791E+01  0.1493E+02 -0.2597E+01E
 Epicentro: LOS SANTOS - SANTANDER                                             3
 ACTION:UPD 18-01-04 13:15 OP:rebc STATUS:               ID:20171201014048 L   I
 OLDACT:REG 17-12-01 12:20 OP:dhb  STATUS:               ID:20171201013254     3
 2017-12-01-0138-00M.COL___498                                                 6
 STAT SP IPHASW D HRMM SECON CODA AMPLIT PERI AZIMU VELO AIN AR TRES W  DIS CAZ7
 BAR2 EZ EP        141  7.18                             171   -0.1510 20.1 195 
 BAR2 EZ ES        141 21.03                             171   -0.6610 20.1 195 
 BAR2 EZ I         141 23.02         7.6 0.36            171           20.1 195 
 PAM  EZ IP     D  141 10.38                             148    0.1210 79.5  37 
 PAM  EE ES        141 27.15                             148    0.2510 79.5  37 
 PAM  EZ I         141 30.16         3.4 0.40            152           79.5  37 
 RUS  HZ EP        141 11.26                             143   -0.2110 96.9 177 
 RUS  HE ES        141 29.77                             143    0.7210 96.9 177 
 RUS  HZ I         141 30.60         5.1 0.20            146           96.9 177 
 PTB  HZ EP        141 14.48                             130   -0.68 9  148 260 
 PTB  HE ES        141 36.15                             130    0.52 9  148 260 
 PTB  HZ I         141 37.93         1.9 0.14            130            148 260 
 SPBC HZ EP        141 16.48                             127   -0.02 9  161 220 
 SPBC HN ES        141 37.48                             127   -0.53 9  161 220 
 SPBC HZ I         141 42.64         4.2 0.46            129            161 220 
 ZAR  HZ EP        141 21.42                             120    0.41 8  206 293 
 ZAR  HN ES        141 45.91                             120   -0.13 8  206 293 
 ZAR  HZ I         141 51.96         4.2 0.34            121            206 293 
 NOR  HZ EP        141 24.02                             116    0.03 8  234 235 
 NOR  HN ES        141 51.80                             116    0.47 8  234 235 
 NOR  HZ I         141 57.16         1.9 0.20            118            234 235 
                                                                                
