 2013  2 1 0746 51.7 L   6.790 -73.121144.0  RSN  7 0.5 1.7LRSN                1
 GAP=140        1.14       4.0     5.9  7.5 -0.2328E+01  0.5338E+01  0.6482E+01E
 Epicentro: LOS SANTOS - SANTANDER                                             3
 ACTION:UPD 13-03-12 09:29 OP:ep   STATUS:               ID:20130201074651 L   I
 2013-02-01-0740-00M.COL___241                                                 6
 STAT SP IPHASW D HRMM SECON CODA AMPLIT PERI AZIMU VELO AIN AR TRES W  DIS CAZ7
 BAR2 SZ EP   1    747 10.25                             170   -0.90 7 22.9 197 
 BAR2 SZ ES        747 26.06                             170   -0.2310 22.9 197 
 BAR2 SZ I         747 28.34         6.6 0.16            171           22.9 197 
 BRR  HZ EP        747 12.97                             151    0.1010 74.1 298 
 BRR  HN ES        747 30.21                             151    0.8610 74.1 298 
 BRR  HN I         747 31.06         7.3 0.44            152           74.1 298 
 PAM  SZ EP        747 13.98                             151    0.2610 76.5  37 
 PAM  SN ES        747 30.53                             151   -0.3310 76.5  37 
 PAM  SN I         747 32.46         6.8 0.26            152           76.5  37 
 RUS  HZ EP        747 15.70                             144    0.4710 99.4 178 
 RUS  HN ES        747 33.84                             144    0.2810 99.4 178 
 RUS  HN I         747 35.55         7.6 0.40            145           99.4 178 
 PTB  HZ EP        747 18.94                             131    0.15 9  150 259 
 PTB  HN ES        747 39.31                             131   -0.58 9  150 259 
 PTB  HN I         747 42.39         8.0 0.20            132            150 259 
 OCA  HN ES        747 41.77                             129   -0.36 9  162 352 
 OCA  HN I         747 45.03        14.9 0.56            130            162 352 
 CHI  HZ EP        747 29.38                             117    0.07 8  248 196 
 CHI  HN ES        747 58.14                             117   -0.47 8  248 196 
 CHI  HN I         748  0.99         2.2 0.54            118            248 196 
                                                                                
