 2010  6 1 0208 33.3 L   6.723 -72.866143.0  RSN  4 0.3 1.7LRSN                1
 GAP=231        0.54      14.3    21.6  7.3 -0.2812E+03  0.3528E+02 -0.3654E+02E
 Epicentro: MOLAGAVITA - SANTANDER                                             3
 ACTION:UP  10-08-24 10:07 OP:vdl  STATUS:               ID:20100601020833 L   I
 2010-06-01-0204-19S.COL___109                                                 6
 STAT SP IPHASW D HRMM SECON CODA AMPLIT PERI AZIMU VELO SNR AR TRES W  DIS CAZ7
 BAR2 SZ IP        2 8 52.93                             164    -0.110   38 248 
 BAR2 SZ ES   1    2 9  8.32                             164     0.0 7   38 248 
 GUE  SZ EP   2    2 8 57.56                             137    -0.7 5  123 357 
 GRA  SZ IP        2 8 58.77                             135     0.210  129   3 
 RREF BZ EP   2    2 9 21.36                             109    -0.1 3  341 234 
 RREF BE ES   2    2 9 59.37                             109     0.3 3  341 234 
 RREF BZ I         210  3.31         1.8 0.26                           341 234 
                                                                                
