 2016 11 1 0729 18.1 L   6.707 -73.182151.9  RSN  4 0.3 1.1LRSN                1
 GAP=226        0.92       7.6     7.6  7.6  0.3031E+02  0.1124E+02  0.5065E+01E
 Epicentro: VILLANUEVA - SANTANDER                                             3
 ACTION:UPD 17-10-26 21:03 OP:lp   STATUS:               ID:20161101072918 L   I
 OLDACT:REG 16-11-01 12:35 OP:dani STATUS:               ID:20161101072743     3
 2016-11-01-0728-00M.COL___316                                                 6
 STAT SP IPHASW D HRMM SECON CODA AMPLIT PERI AZIMU VELO AIN AR TRES W  DIS CAZ7
 BAR2 HE ES        729 53.42                             175   -0.6210 12.7 180 
 BRR  HZ EP        729 40.19                             153    0.1910 73.4 307 
 BRR  HE ES        729 57.49                             153    0.3810 73.4 307 
 BRR  HZ I         730  0.24         2.9 0.41            152           73.4 307 
 RUS  HZ EP        729 41.65                             148   -0.1210 90.7 173 
 RUS  HN ES        730  0.70                             148    0.4610 90.7 173 
 RUS  HZ I         730  1.50         1.2 0.22            149           90.7 173 
 PTB  HZ EP        729 44.85                             135   -0.20 9  142 263 
 PTB  HN ES        730  5.96                             135   -0.13 9  142 263 
 PTB  HZ I         730  8.99         1.7 0.14            135            142 263 
                                                                                
