 2013  9 1 0029 30.7 L   6.915 -73.185144.1  RSN 14 0.5 2.6LRSN                1
 GAP= 65        0.92       3.0     3.3  5.6 -0.3985E-01  0.4777E+01  0.2754E+01E
 Epicentro: BETULIA - SANTANDER                                                3
 ACTION:UPD 13-10-22 09:19 OP:ep   STATUS:               ID:20130901002930 L   I
 OLDACT:UP  13-09-01 12:20 OP:mh   STATUS:               ID:20130901002836     3
 OLDACT:UP  13-09-01 12:20 OP:mh   STATUS:               ID:20130901002836     3
 OLDACT:UP  13-09-01 12:18 OP:mh   STATUS:               ID:20130901002836     3
 OLDACT:REG 13-09-01 11:53 OP:mh   STATUS:               ID:20130901002836     3
 2013-09-01-0028-36M.COL___214                                                 6
 STAT SP IPHASW D HRMM SECON CODA AMPLIT PERI AZIMU VELO AIN AR TRES W  DIS CAZ7
 BAR2 SZ EP        029 50.37                             165   -0.0310 35.6 180 
 BAR2 SZ ES   1    030  5.63                             165   -0.17 7 35.6 180 
 BAR2 SZ I         030  6.78        36.5 0.14            165           35.6 180 
 BRR  HZ EP     C  029 51.58                             155    0.4510 62.0 290 
 BRR  HE ES   1    030  7.99                             155    0.89 7 62.0 290 
 BRR  HZ I         030 11.88        63.0 0.14            154           62.0 290 
 PAM  SZ EP   1    029 52.60                             153    0.26 7 71.3  49 
 PAM  SN ES        030  9.50                             153    0.2510 71.3  49 
 PAM  SZ I         030 10.45        92.8 0.24            158           71.3  49 
 RUS  HZ EP   1    029 54.92                             140   -0.31 7  114 174 
 RUS  HN ES   1    030 13.63                             140   -0.76 7  114 174 
 PTB  HZ EP        029 56.89                             132   -0.49 9  147 254 
 PTB  HN ES        030 17.72                             132   -0.51 9  147 254 
 PTB  HZ I         030 19.54        61.9 0.42            132            147 254 
 OCA  HZ EP   1    029 57.48                             132   -0.14 7  147 354 
 OCA  HN ES   1    030 18.32                             132   -0.34 7  147 354 
 OCA  HZ I         030 21.82        23.9 0.50            134            147 354 
 TAM  HZ EP   1    029 58.93                             129   -0.01 7  163 109 
 TAM  HN ES   1    030 20.85                             129   -0.15 7  163 109 
 TAM  HN I         030 22.06        57.2 0.50            133            163 109 
 SPBC HZ EP   1    029 59.80                             127    0.05 7  171 215 
 SPBC HN ES   4    030 23.34                             127    0.90 0  171 215 
 SPBC HZ I         030 29.27        36.1 0.60            128            171 215 
 ZAR  HZ EP   1    030  3.13                             123    1.01 6  196 289 
 ZAR  HN ES   1    030 26.84                             123    0.18 6  196 289 
 ZAR  HN I         030 33.79        53.1 0.16            124            196 289 
 SML  HZ EP   1    030  5.21                             119   -0.54 6  230 335 
 SML  HN ES   1    030 32.37                             119   -0.76 6  230 335 
 NOR  HZ EP   1    030  6.42                             118   -0.32 6  239 231 
 NOR  HN ES   2    030 34.87                             118   -0.02 4  239 231 
 NOR  HZ I         030 39.07        29.6 0.18            119            239 231 
 CHI  HZ EP   1    030  9.50                             116    0.01 6  260 194 
 CHI  HN ES        030 40.31                             116    0.53 8  260 194 
 ROSC BZ EP   4    030 12.22                             115    2.56 0  262 209 
 ROSC BE ES   4    030 43.65                             115    3.58 0  262 209 
 HEL  HZ EP   1    030 11.65                             114    0.95 6  271 253 
 HEL  HN ES   1    030 41.74                             114   -0.20 6  271 253 
 HEL  HZ I         030 48.75        17.4 0.32            116            271 253 
 GUY2CHZ EP   4    030 15.29                             112    0.64 0  305 232 
 GUY2CHN ES   4    030 50.88                             112    1.92 0  305 232 
 PRA  HZ EP   1    030 25.13                             106   -0.05 4  401 208 
 PRA  HN ES   2    031  8.43                             106    0.73 3  401 208 
 PRA  HZ I         031 12.25        11.5 0.30            107            401 208 
                                                                                
