 2012  1 1 0220 35.9 L   6.712 -73.118140.0  RSN  5 0.3 1.4LRSN                1
 GAP=234        0.73       6.3     8.3  8.2  0.1657E+02  0.1079E+02  0.2425E+02E
 Epicentro: JORDAN - SANTANDER                                                 3
 ACTION:UP  12-02-03 08:12 OP:REBC STATUS:               ID:20120101022035 L   I
 2012-01-01-0220-00M.COL___186                                                 6
 STAT SP IPHASW D HRMM SECON CODA AMPLIT PERI AZIMU VELO SNR AR TRES W  DIS CAZ7
 BAR2 SZ ES   1    221  9.01                             174    -0.3 7   15 208 
 BRR  HZ EP   1    220 56.51                             149    -0.4 7   79 304 
 BRR  HE ES   1    221 13.84                             149     0.6 7   79 304 
 BRR  HZ I         221 16.21         8.7 0.13                            79 304 
 RUS  HZ EP   2    220 58.62                             145     0.3 5   91 178 
 RUS  HZ I         221 18.19         2.7 0.25                            91 178 
 PTB  HZ EP   1    221  2.36                             130    -0.1 7  149 263 
 PTB  HE ES   1    221 23.06                             130    -0.2 7  149 263 
 CHI  HZ EP   1    221 12.62                             117     0.3 6  240 196 
 CHI  HE ES   1    221 40.81                             117     0.1 6  240 196 
 CHI  HZ I         221 51.49         1.9 0.66                           240 196 
                                                                                
