 2017  4 1 0417 38.3 L   6.759 -73.204139.0  RSN  6 0.2 1.2LRSN                1
 GAP=228        0.59       3.5     3.5  5.0  0.5650E+01  0.4466E+01  0.2275E+01E
 Epicentro: ZAPATOCA - SANTANDER                                               3
 ACTION:UPD 17-05-30 21:07 OP:jn   STATUS:               ID:20170401041738 L   I
 OLDACT:UP  17-04-01 14:48 OP:lv   STATUS:               ID:20170401040740     3
 OLDACT:REG 17-04-01 13:14 OP:lv   STATUS:               ID:20170401040740     3
 2017-04-01-0408-00M.COL___362                                                 6
 STAT SP IPHASW D HRMM SECON CODA AMPLIT PERI AZIMU VELO AIN AR TRES W  DIS CAZ7
 BAR2 EZ EP        417 56.59                             172   -0.4410 18.6 173 
 BAR2 EZ ES        418 11.60                             172   -0.0310 18.6 173 
 BAR2 EZ I         418 13.90         6.5 0.23            174           18.6 173 
 BRR  HE ES        418 14.53                             152    0.2110 68.1 304 
 RUS  HZ EP        418  1.47                             143    0.3610 96.8 172 
 RUS  HN ES        418 18.89                             143   -0.0110 96.8 172 
 RUS  HZ I         418 20.58         1.3 0.18            146           96.8 172 
 PTB  HZ EP        418  4.16                             132    0.09 9  141 260 
 PTB  HN ES        418 24.20                             132    0.03 9  141 260 
 SPBC HN ES        418 26.72                             129   -0.12 9  156 218 
 ZAR  HE ES        418 34.39                             121   -0.12 9  200 294 
 ZAR  HZ I         418 39.90         1.4 0.07            122            200 294 
                                                                                
