 2013  4 1 0614 27.0 L   6.819 -73.036142.4  RSN  5 0.4 1.0LRSN                1
 GAP=194        0.74       5.3     8.4 10.0  0.1791E+02  0.7113E+01 -0.1588E+02E
 Epicentro: CEPITA - SANTANDER                                                 3
 ACTION:UPD 13-05-22 14:35 OP:EP   STATUS:               ID:20130401061427 L   I
 2013-04-01-0610-00M.COL___245                                                 6
 STAT SP IPHASW D HRMM SECON CODA AMPLIT PERI AZIMU VELO AIN AR TRES W  DIS CAZ7
 BAR2 SZ EP   1    614 46.54                             167    0.17 7 29.9 213 
 BAR2 SZ ES   1    615  1.43                             167   -0.05 7 29.9 213 
 BRR  HZ EP        614 48.66                             149    0.2810 81.2 293 
 BRR  HE ES   1    615  5.56                             149    0.49 7 81.2 293 
 BRR  HZ I         615  6.41         2.4 0.26            141           81.2 293 
 RUS  HN ES   1    615  8.57                             142   -0.37 7  103 183 
 OCA  HN ES   1    615 16.45                             129   -0.43 7  160 349 
 ZAR  HN ES   1    615 25.78                             120   -0.54 6  215 290 
 ZAR  HZ I         615 31.90         0.6 0.11            116            215 290 
                                                                                
