 2013  1 1 0845 58.4 L   6.771 -73.158149.3  RSN  5 0.4 2.0LRSN                1
 GAP=181        0.93       4.3     6.2  7.4  0.5715E+01  0.3106E+01 -0.1188E+01E
 Epicentro: LOS SANTOS - SANTANDER                                             3
 ACTION:UPD 13-02-15 09:11 OP:ep   STATUS:               ID:20130101084558 L   I
 2013-01-01-0840-00M.COL___242                                                 6
 STAT SP IPHASW D HRMM SECON CODA AMPLIT PERI AZIMU VELO AIN AR TRES W  DIS CAZ7
 BAR2 SZ EP        846 18.27                             172   -0.1110 20.0 188 
 BAR2 SZ ES        846 33.46                             172   -0.5210 20.0 188 
 BAR2 SZ I         846 35.12        13.5 0.58            172           20.0 188 
 BRR  HZ EP        846 20.23                             153    0.2910 71.6 301 
 BRR  HN ES        846 37.42                             153    0.6710 71.6 301 
 BRR  HN I         846 38.18        15.6 0.22            151           71.6 301 
 RUS  HZ EP        846 22.44                             145    0.1610 97.5 175 
 RUS  HN ES        846 41.10                             145    0.1910 97.5 175 
 RUS  HN I         846 42.72         9.6 0.26            147           97.5 175 
 PTB  HZ EP        846 25.26                             133   -0.21 9  146 260 
 PTB  HN ES        846 46.27                             133   -0.33 9  146 260 
 PTB  HN I         846 51.99        14.4 0.36            133            146 260 
 OCA  HN ES        846 49.51                             130   -0.26 9  163 354 
 OCA  HN I         846 53.77        26.9 0.24            130            163 354 
                                                                                
