 2015  3 1 0302 50.4 L   6.802 -73.158145.9  RSN  5 0.3 1.5LRSN                1
 GAP=182        0.80       3.5     5.2  6.8 -0.1392E+01  0.8482E+01 -0.1379E+01E
 Epicentro: LOS SANTOS - SANTANDER                                             3
 ACTION:UPD 15-04-30 16:21 OP:nd   STATUS:               ID:20150301030250 L   I
 OLDACT:REG 15-03-01 15:17 OP:carl STATUS:               ID:20150301025739     3
 2015-03-01-0257-39M.COL___293                                                 6
 STAT SP IPHASW D HRMM SECON CODA AMPLIT PERI AZIMU VELO AIN AR TRES W  DIS CAZ7
 BAR2 EZ EP        3 3 10.28                             170    0.2410 23.3 187 
 BAR2 EZ ES        3 3 25.30                             170   -0.0710 23.3 187 
 BAR2 EZ I         3 3 27.83         6.5 0.22            166           23.3 187 
 RUS  HZ EP        3 3 14.25                             144    0.0710  101 175 
 RUS  HN ES        3 3 32.55                             144   -0.1910  101 175 
 RUS  HZ I         3 3 35.98         1.8 0.30            145            101 175 
 PTB  HZ EP        3 3 16.50                             132   -0.76 9  146 259 
 PTB  HN ES        3 3 38.44                             132    0.23 9  146 259 
 PTB  HZ I         3 3 45.43         7.5 0.40            131            146 259 
 OCA  HN ES        3 3 40.80                             130    0.05 9  160 354 
 SPBC HZ EP        3 3 19.24                             129    0.40 9  162 219 
 SPBC HN ES        3 3 41.06                             129    0.04 9  162 219 
 SPBC HZ I         3 3 48.52         6.8 0.12            129            162 219 
                                                                                
