 2011  8 1 0803  0.1 L   6.786 -73.119145.6  RSN 14 0.4 3.0LRSN                1
 GAP=141        0.75       2.5     4.0  4.5 -0.4785E+01  0.5352E+01  0.1906E+01E
 Epicentro: LOS SANTOS - SANTANDER                                             3
 ACTION:UPD 12-07-25 14:05 OP:epov STATUS:               ID:20110801080300 L   I
 2011-08-01-0801-26S.COL___142                                                 6
 STAT SP IPHASW D HRMM SECON CODA AMPLIT PERI AZIMU VELO AIN AR TRES W  DIS CAZ7
 BAR2 SZ EP        8 3 19.73                             171    0.0410 22.5 198 
 BAR2 SZ ES   1    8 3 34.47                             171   -0.50 7 22.5 198 
 BAR2 SZ I         8 3 36.59       207.2 0.33                          22.5 198 
 BRR  HZ IP     C  8 3 21.67                             151    0.2510 74.6 298 
 BRR  HZ I         8 3 21.98       452.0 0.19                          74.6 298 
 BRR  HE ES   1    8 3 38.82                             151    0.77 7 74.6 298 
 PAM  SZ EP        8 3 22.56                             151    0.3010 76.8  37 
 PAM  SN ES   1    8 3 39.53                             151   -0.01 7 76.8  37 
 RUS  HZ EP        8 3 23.58                             144   -0.1310 98.9 178 
 RUS  HN ES   1    8 3 42.04                             144   -0.08 7 98.9 178 
 RUS  HZ I         8 3 43.68        76.1 0.28                          98.9 178 
 BRI  SZ EP        8 3 24.25                             141    0.2410  109  19 
 BRI  SZ ES   1    8 3 42.67                             141    0.02 7  109  19 
 GRA  SZ IP        8 3 25.49                             137    0.1110  126  16 
 GRA  SZ ES        8 3 45.13                             137    0.0310  126  16 
 GRA  SZ I         8 3 48.07       145.3 0.29                           126  16 
 OCA  SZ EP        8 3 28.18                             129   -0.40 9  162 352 
 OCA  SZ ES   1    8 3 49.84                             129   -0.95 7  162 352 
 OCA  SZ I         8 3 56.18       162.4 0.25                           162 352 
 NOR  SZ EP        8 3 35.49                             118   -0.49 8  236 235 
 NOR  SE ES   1    8 4  3.45                             118   -0.52 6  236 235 
 CHI  HZ EP        8 3 37.64                             117   -0.07 8  248 196 
 CHI  HZ I         8 3 40.48        38.0 0.41                           248 196 
 CHI  HN ES   1    8 4  7.24                             117    0.19 6  248 196 
 HEL  HZ EP   1    8 3 40.92                             114    0.34 6  275 256 
 HEL  HN ES   1    8 4 12.05                             114   -0.11 6  275 256 
 RREF HZ EP        8 3 46.81                             111    0.43 7  323 230 
 RREF HN ES   1    8 4 23.16                             111    0.69 5  323 230 
 RREF HZ I         8 4 31.99        43.2 0.25                           323 230 
 DBB  SZ EP   1    8 3 47.78                             109   -0.14 5  343 274 
 TOL  SZ EP   1    8 3 48.79                             109    0.33 5  345 225 
 PRA  HZ EP        8 3 53.27                             106   -0.36 6  392 210 
 PRA  HN ES   1    8 4 35.12                             106   -0.26 4  392 210 
                                                                                
