 2016 11 1 0147  3.6 L   6.825 -73.064146.0  RSN  4 0.6 1.1LRSN                1
 GAP=146        1.41       7.9    10.1 12.7 -0.2042E+01  0.2472E+02  0.1720E+02E
 Epicentro: LOS SANTOS - SANTANDER                                             3
 ACTION:UPD 17-10-26 21:03 OP:lp   STATUS:               ID:20161101014703 L   I
 OLDACT:UP  16-11-01 13:32 OP:dani STATUS:               ID:20161101013740d    3
 OLDACT:UP  16-11-01 13:30 OP:dani STATUS:               ID:20161101013740d    3
 OLDACT:DUP 16-11-01 13:27 OP:dani STATUS:               ID:20161101013740d    3
 2016-11-01-0138-00M.COL___325                                                 6
 STAT SP IPHASW D HRMM SECON CODA AMPLIT PERI AZIMU VELO AIN AR TRES W  DIS CAZ7
 PAM  EZ EP        147 26.14                             153    0.7910 69.6  35 
 PAM  EN ES        147 41.62                             153   -0.7410 69.6  35 
 PAM  EZ I         147 45.38         1.8 0.35            156           69.6  35 
 BRR  HZ EP        147 25.54                             150    0.4110 78.1 294 
 BRR  HE ES        147 42.22                             150    0.2610 78.1 294 
 BRR  HZ I         147 47.91         7.3 0.30            151           78.1 294 
 RUS  HZ EP        147 27.27                             143   -0.2510  103 181 
 RUS  HE ES        147 46.44                             143    0.2310  103 181 
 RUS  HZ I         147 47.29         1.9 0.38            148            103 181 
 PTB  HZ EP        147 30.58                             130   -0.83 9  157 258 
 PTB  HE ES   4    147 50.79                             130   -2.34 0  157 258 
 PTB  HZ I         147 53.62         1.0 0.15            133            157 258 
                                                                                
