 2017 11 1 0418 57.8 L   6.328 -73.606115.5  RSN  7 0.3 1.1LRSN                1
 GAP= 85        0.58       3.3     3.7  5.6 -0.2579E+01  0.5423E+01 -0.2893E+01E
 Epicentro: SANTA HELENA DEL OPON - SANTANDER                                  3
 ACTION:UPD 17-12-12 19:50 OP:rebc STATUS:               ID:20171101041857 L   I
 OLDACT:UP  17-11-01 16:40 OP:dnl  STATUS:               ID:20171101040739d    3
 OLDACT:DUP 17-11-01 16:37 OP:dnl  STATUS:               ID:20171101040739d    3
 OLDACT:UP  17-11-01 16:37 OP:dnl  STATUS:               ID:20171101040738     3
 OLDACT:UP  17-11-01 16:36 OP:dnl  STATUS:               ID:20171101040738     3
 OLDACT:REG 17-11-01 13:34 OP:dnl  STATUS:               ID:20171101040738     3
 2017-11-01-0408-00M.COL___411                                                 6
 STAT SP IPHASW D HRMM SECON CODA AMPLIT PERI AZIMU VELO AIN AR TRES W  DIS CAZ7
 BAR2 EZ EP        419 15.29                             153    0.1310 55.2  58 
 BAR2 EZ ES        419 28.86                             153    0.1910 55.2  58 
 BAR2 EZ I         419 29.83         5.0 0.40            150           55.2  58 
 RUS  HZ EP        419 16.62                             145   -0.1710 75.3 130 
 RUS  HN ES        419 31.28                             145   -0.2910 75.3 130 
 RUS  HZ I         419 32.43         1.5 0.18            149           75.3 130 
 BRR  HZ EP   2    419 16.82                             140   -0.15 5 87.0 352 
 BRR  HN ES   2    419 31.75                             140   -0.13 5 87.0 352 
 BRR  HZ I         419 38.43         3.9 0.26            134           87.0 352 
 SPBC HZ EP   2    419 17.38                             139   -0.02 5 90.8 215 
 SPBC HN ES        419 32.87                             139    0.2210 90.8 215 
 SPBC HZ I         419 34.68         3.2 0.12            139           90.8 215 
 PTB  HZ EP   2    419 17.06                             137   -0.74 5 96.9 284 
 PTB  HE ES   4    419 32.14                             137   -1.22 0 96.9 284 
 PTB  HZ I         419 35.13         1.4 0.34            131           96.9 284 
 YPLC HZ EP   2    419 25.57                             120    0.62 4  170 127 
 YPLC HE ES   4    419 44.49                             120   -1.60 0  170 127 
 YPLC HZ I         419 48.03         1.8 0.58            121            170 127 
 ZAR  HZ EP   2    419 27.23                             117    0.36 4  189 313 
 ZAR  HN ES   4    419 50.89                             117    1.39 0  189 313 
 ZAR  HZ I         419 59.69         3.1 0.38            113            189 313 
                                                                                
