 2012  9 1 0344 47.5 L   6.771 -73.144150.0  RSN  7 0.3 1.8LRSN                1
 GAP=183        0.60       3.2     5.3  5.3  0.2322E+01  0.5022E+00 -0.2624E+00E
 Epicentro: LOS SANTOS - SANTANDER                                             3
 ACTION:UPD 12-10-22 14:16 OP:ep   STATUS:               ID:20120901034447 L   I
 2012-09-01-0340-00M.COL___218                                                 6
 STAT SP IPHASW D HRMM SECON CODA AMPLIT PERI AZIMU VELO AIN AR TRES W  DIS CAZ7
 BAR2 SZ EP        345  7.79                             172    0.1810 20.3 192 
 BAR2 SZ I         345 25.30        22.2 0.26                          20.3 192 
 GIR2 SZ EP        345  7.80                             167    0.0210 34.4 351 
 GIR2 SZ ES   1    345 23.74                             167    0.15 7 34.4 351 
 BRR  HZ EP        345  9.57                             153    0.3510 72.9 301 
 BRR  HZ I         345  9.86        11.9 0.32                          72.9 301 
 BRR  HE ES   1    345 26.52                             153    0.37 7 72.9 301 
 RUS  HZ EP        345 11.43                             146   -0.0410 97.4 176 
 RUS  HZ I         345 12.76         3.1 0.22                          97.4 176 
 RUS  HN ES   1    345 29.92                             146   -0.23 7 97.4 176 
 PTB  HZ EP        345 14.60                             133   -0.20 9  147 260 
 PTB  HN ES   2    345 35.53                             133   -0.54 5  147 260 
 PTB  HZ I         345 42.94         5.8 0.50                           147 260 
 OCA  HZ EP        345 16.12                             130   -0.34 9  163 353 
 OCA  HN ES   1    345 38.74                             130   -0.29 7  163 353 
 OCA  HZ I         345 41.83        13.1 0.18                           163 353 
 ZAR  HZ EP   3    345 21.69                             123    1.31 2  205 293 
 ZAR  HN ES   3    345 45.59                             123   -0.42 2  205 293 
                                                                                
