 2017  3 1 0933 20.5 L   6.805 -73.155149.1  RSN  7 0.3 1.3LRSN                1
 GAP=135        0.76       3.9     3.4  5.4  0.1606E+01  0.4088E+01 -0.1495E+00E
 Epicentro: LOS SANTOS - SANTANDER                                             3
 ACTION:UPD 17-05-25 18:34 OP:jn   STATUS:               ID:20170301093320 L   I
 OLDACT:UP  17-03-01 17:31 OP:and  STATUS:               ID:20170301092744d    3
 OLDACT:DUP 17-03-01 17:29 OP:and  STATUS:               ID:20170301092744d    3
 OLDACT:DUP 17-03-01 17:27 OP:and  STATUS:               ID:20170301092743d    3
 OLDACT:UP  17-03-01 17:26 OP:and  STATUS:               ID:20170301092742     3
 OLDACT:UP  17-03-01 17:26 OP:and  STATUS:               ID:20170301092742     3
 OLDACT:UP  17-03-01 17:26 OP:and  STATUS:               ID:20170301092742     3
 OLDACT:UP  17-03-01 17:25 OP:and  STATUS:               ID:20170301092742     3
 OLDACT:REG 17-03-01 13:15 OP:and  STATUS:               ID:20170301092742     3
 2017-03-01-0928-00M.COL___366                                                 6
 STAT SP IPHASW D HRMM SECON CODA AMPLIT PERI AZIMU VELO AIN AR TRES W  DIS CAZ7
 BAR2 EZ IP     C  933 40.60                             171    0.0310 23.8 187 
 BAR2 EZ ES        933 56.36                             171    0.1710 23.8 187 
 BAR2 EZ I         934  0.52         3.6 0.17            171           23.8 187 
 BRR  HZ EP        933 42.43                             153    0.4610 70.0 298 
 BRR  HN ES        933 59.03                             153    0.3310 70.0 298 
 BRR  HZ I         934  9.30        11.9 0.36            151           70.0 298 
 PAM  EZ IP     D  933 43.43                             151    0.3210 77.6  40 
 PAM  EZ ES        934  0.14                             151   -0.5810 77.6  40 
 PAM  EZ I         934  2.21         3.1 0.36            155           77.6  40 
 RUS  HZ EP        933 44.69                             144    0.0310  101 176 
 RUS  HN ES        934  3.32                             144   -0.1510  101 176 
 RUS  HZ I         934  5.31         2.1 0.30            151            101 176 
 PTB  HZ EP        933 47.28                             133   -0.41 9  147 259 
 PTB  HN ES        934  8.78                             133   -0.10 9  147 259 
 PTB  HZ I         934 11.43         1.7 0.22            134            147 259 
 ZAR  HN ES        934 18.35                             123   -0.11 9  203 292 
 ZAR  HZ I         934 24.36         2.1 0.11            125            203 292 
 URE  HZ EP   2    934  1.38                             114   -0.26 4  283 292 
 URE  HE ES   2    934 33.39                             114   -0.31 4  283 292 
 URE  HZ I         934 42.99         1.5 0.18            117            283 292 
                                                                                
