 2017 12 1 0410 35.3 L   6.775 -73.070148.2  RSN  4 0.2 1.2LRSN                1
 GAP=280        0.66       5.8     4.6  5.6  0.2463E+01  0.5130E+01 -0.4320E+01E
 Epicentro: LOS SANTOS - SANTANDER                                             3
 ACTION:UPD 18-01-04 13:15 OP:rebc STATUS:               ID:20171201041035 L   I
 OLDACT:REG 17-12-01 12:34 OP:dhb  STATUS:               ID:20171201040739     3
 2017-12-01-0408-00M.COL___489                                                 6
 STAT SP IPHASW D HRMM SECON CODA AMPLIT PERI AZIMU VELO AIN AR TRES W  DIS CAZ7
 BAR2 EZ EP        410 55.19                             170   -0.0310 23.7 212 
 BAR2 EZ ES        411 10.51                             170   -0.2610 23.7 212 
 BAR2 EZ I         411 12.96         5.1 0.40            167           23.7 212 
 RUS  HZ EP        410 59.33                             145    0.2610 97.6 181 
 RUS  HN ES        411 17.85                             145    0.2310 97.6 181 
 RUS  HZ I         411 18.68         2.2 0.26            147           97.6 181 
 PTB  HZ EP        411  3.07                             131   -0.09 9  155 260 
 PTB  HN ES        411 25.27                             131    0.38 9  155 260 
 PTB  HZ I         411 30.45         1.4 0.38            130            155 260 
 SPBC HZ EP        411  4.04                             129   -0.25 9  166 222 
 SPBC HN ES        411 26.59                             129   -0.31 9  166 222 
 SPBC HZ I         411 30.58         2.5 0.10            129            166 222 
                                                                                
