 2011  2 1 0510 49.5 L   6.764 -73.158137.7  RSN  4 0.1 1.2LRSN                1
 GAP=210        0.33       3.4    16.8  6.0 -0.1297E+02  0.4793E+02 -0.6843E+00E
 Epicentro: LOS SANTOS - SANTANDER                                             3
 ACTION:UP  11-03-28 15:05 OP:jfem STATUS:               ID:20110201051049 L   I
 2011-02-01-0508-47S.COL___138                                                 6
 STAT SP IPHASW D HRMM SECON CODA AMPLIT PERI AZIMU VELO SNR AR TRES W  DIS CAZ7
 BAR2 SZ EP   2    511  7.86                             172    -0.2 5   19 188 
 BAR2 SZ ES   2    511 22.51                             172     0.0 5   19 188 
 BAR2 SZ I         511 24.57         3.5 0.20                            19 188 
 BTL  SZ EP        511  8.10                             171     0.010   21 325 
 RUS  HZ EP   2    511 12.03                             143    -0.1 5   97 175 
 RUS  HZ I         511 13.32         2.1 0.13                            97 175 
 RUS  HN ES   2    511 29.94                             143     0.1 5   97 175 
 CHI  HZ EP   2    511 26.47                             116     0.2 4  244 195 
 CHI  HE ES   2    511 54.84                             116    -0.1 4  244 195 
 CHI  HZ I         512  3.67         1.2 0.47                           244 195 
                                                                                
