 2013  2 1 0322 37.1 L   6.847 -73.192115.6  RSN  5 0.5 1.1LRSN                1
 GAP=129        1.24       7.2     6.7 13.8  0.6204E+01 -0.1026E+02 -0.1283E+02E
 Epicentro: ZAPATOCA - SANTANDER                                               3
 ACTION:UPD 13-03-12 09:29 OP:ep   STATUS:               ID:20130201032237 L   I
 2013-02-01-0320-00M.COL___241                                                 6
 STAT SP IPHASW D HRMM SECON CODA AMPLIT PERI AZIMU VELO AIN AR TRES W  DIS CAZ7
 BAR2 SZ EP        322 53.11                             165   -0.1710 28.2 178 
 BRR  HZ EP        322 55.40                             149    0.7510 64.2 297 
 BRR  HN ES        323  7.89                             149   -0.4210 64.2 297 
 BRR  HN I         323 15.47         5.2 0.16             47           64.2 297 
 PAM  SZ EP        322 56.28                             144    0.0810 76.9  45 
 PAM  SN I         323 18.74         2.0 0.52             47           76.9  45 
 RUS  HN ES        323 15.28                             135    0.0510  106 173 
 RUS  HN I         323 16.64         2.3 0.30             47            106 173 
 PTB  HZ EP        323  0.61                             125   -0.82 9  144 256 
 PTB  HE ES        323 20.87                             125    0.48 9  144 256 
 PTB  HN I         323 26.90         3.0 0.40             47            144 256 
                                                                                
