 2010 12 1 0705 50.8 L   6.743 -73.090139.5  RSN  4 0.2 1.2LRSN                1
 GAP=239        0.53       6.7    10.4  7.9  0.2876E+02 -0.2147E+02  0.1968E+02E
 Epicentro: JORDAN - SANTANDER                                                 3
 ACTION:UP  11-01-14 15:22 OP:pat  STATUS:               ID:20101201070550 L   I
 2010-12-01-0702-25S.COL___132                                                 6
 STAT SP IPHASW D HRMM SECON CODA AMPLIT PERI AZIMU VELO SNR AR TRES W  DIS CAZ7
 BAR2 SZ EP        7 6  9.40                             171    -0.210   20 212 
 BAR2 SZ ES   1    7 6 24.24                             171    -0.1 7   20 212 
 BRR  HE ES   1    7 6 28.30                             148     0.1 7   80 300 
 BRR  HZ I         7 6 30.55         4.8 0.65                            80 300 
 RUS  HZ EP        7 6 13.71                             144     0.210   94 180 
 RUS  HZ I         7 6 14.21         1.8 0.10                            94 180 
 RUS  HE ES   3    7 6 31.59                             144     0.4 2   94 180 
 CHI  HE ES   2    7 6 56.13                             116    -0.3 4  244 197 
                                                                                
