 2013 11 1 0107  6.6 L   6.841 -73.171144.1  RSN  7 0.5 1.5LRSN                1
 GAP=131        1.21       4.7     5.7  8.0 -0.1841E+01  0.1023E+02 -0.6617E+01E
 Epicentro: LOS SANTOS - SANTANDER                                             3
 ACTION:UPD 14-01-09 16:24 OP:ep   STATUS:               ID:20131101010706 L   I
 OLDACT:REG 13-11-01 08:32 OP:jn   STATUS:               ID:20131101010000     3
 2013-11-01-0100-00M.COL___273                                                 6
 STAT SP IPHASW D HRMM SECON CODA AMPLIT PERI AZIMU VELO AIN AR TRES W  DIS CAZ7
 BAR2 SZ EP        1 7 25.98                             169   -0.1310 27.5 183 
 BAR2 SZ ES        1 7 40.79                             169   -0.5510 27.5 183 
 BAR2 SZ I         1 7 42.29        13.5 0.24            171           27.5 183 
 BRR  HZ EP        1 7 27.88                             154    0.5710 66.7 296 
 BRR  HN ES        1 7 44.49                             154    1.0210 66.7 296 
 BRR  HZ I         1 7 48.13         7.9 0.12            154           66.7 296 
 PAM  SZ EP        1 7 28.88                             151    0.3510 75.8  43 
 PAM  SN ES        1 7 45.55                             151   -0.1010 75.8  43 
 PAM  SZ I         1 7 47.80         4.0 0.24            153           75.8  43 
 RUS  HZ EP        1 7 30.75                             142    0.2310  105 175 
 RUS  HN ES        1 7 48.83                             142   -0.3710  105 175 
 RUS  HZ I         1 7 50.67         3.0 0.26            145            105 175 
 PTB  HZ EP        1 7 32.93                             132   -0.33 9  146 257 
 PTB  HN ES        1 7 53.72                             132   -0.35 9  146 257 
 PTB  HZ I         1 7 55.52         2.9 0.14            134            146 257 
 NOR  HE ES   1    1 8 10.39                             118    0.29 6  235 233 
 SML  HZ EP        1 7 42.47                             118   -0.08 8  238 335 
 SML  HN ES        1 8  9.86                             118   -0.74 8  238 335 
                                                                                
