 2012 11 1 0937 18.2 L   6.787 -73.150151.2  RSN  6 0.4 2.1LRSN                1
 GAP=137        0.81       4.3     5.8  7.0  0.4781E+01  0.1111E+02  0.5365E+01E
 Epicentro: LOS SANTOS - SANTANDER                                             3
 ACTION:UPD 12-12-05 15:30 OP:}ep  STATUS:               ID:20121101093718 L   I
 2012-11-01-0930-00M.COL___234                                                 6
 STAT SP IPHASW D HRMM SECON CODA AMPLIT PERI AZIMU VELO AIN AR TRES W  DIS CAZ7
 BAR2 SZ IP     D  937 38.39                             171   -0.0810 21.8 189 
 BAR2 SZ ES   1    937 54.19                             171   -0.08 7 21.8 189 
 BAR2 SZ I         937 55.27        13.0 0.40                          21.8 189 
 BRR  HZ IP     C  937 40.27                             153    0.3010 71.5 300 
 BRR  HN ES   1    937 57.72                             153    0.78 7 71.5 300 
 BRR  HN I         937 58.16        35.9 0.30                          71.5 300 
 PAM  SZ EP   1    937 41.28                             151    0.19 7 78.8  39 
 PAM  SN ES   1    937 58.65                             151   -0.29 7 78.8  39 
 PAM  SN I         937 59.08        13.8 0.40                          78.8  39 
 RUS  HZ EP   1    937 42.44                             145    0.03 7 99.2 176 
 RUS  HN ES   1    938  0.84                             145   -0.44 7 99.2 176 
 RUS  HN I         938  1.55        10.6 0.32                          99.2 176 
 ZAR  HZ EP   1    937 50.33                             124   -0.70 6  204 293 
 ZAR  HE ES   1    938 16.06                             124   -0.56 6  204 293 
 ZAR  HE I         938 22.57        30.5 0.34                           204 293 
 CHI  HZ EP   1    937 56.55                             118    0.49 6  247 195 
 CHI  HN ES   1    938 25.63                             118    0.05 6  247 195 
 CHI  HN I         938 28.17         6.6 0.26                           247 195 
                                                                                
