 2017 10 1 0835 22.6 L   6.838 -73.199141.6  RSN  7 0.3 1.3LRSN                1
 GAP=128        0.77       3.1     3.9  5.4 -0.2175E+01  0.8451E+01  0.1615E-01E
 Epicentro: ZAPATOCA - SANTANDER                                               3
 ACTION:UPD 17-11-07 19:27 OP:rebc STATUS:               ID:20171001083522 L   I
 OLDACT:UP  17-10-01 17:17 OP:dhb  STATUS:               ID:20171001082740     3
 OLDACT:UP  17-10-01 17:16 OP:dhb  STATUS:               ID:20171001082740     3
 OLDACT:REG 17-10-01 13:41 OP:osc  STATUS:               ID:20171001082740     3
 2017-10-01-0828-00M.COL___402                                                 6
 STAT SP IPHASW D HRMM SECON CODA AMPLIT PERI AZIMU VELO AIN AR TRES W  DIS CAZ7
 BAR2 EZ EP        835 41.42                             169   -0.3710 27.3 176 
 BAR2 EZ ES        835 56.92                             169    0.1410 27.3 176 
 BAR2 EZ I         835 59.34         7.1 0.36            169           27.3 176 
 PAM  EZ IP     D  835 44.64                             150    0.2410 78.2  45 
 PAM  EN ES        836  1.60                             150    0.1810 78.2  45 
 PAM  EZ I         836  4.13         2.4 0.29            153           78.2  45 
 RUS  HZ EP        835 46.24                             142   -0.0410  105 173 
 RUS  HN ES        836  4.40                             142   -0.3610  105 173 
 RUS  HZ I         836  5.33         4.9 0.32            144            105 173 
 SPBC HZ EP        835 50.34                             128   -0.39 9  163 216 
 SPBC HE ES        836 12.98                             128    0.29 9  163 216 
 SPBC HZ I         836 15.91         4.4 0.24            129            163 216 
 ZAR  HZ EP        835 54.20                             122    0.18 9  197 292 
 ZAR  HN ES        836 18.38                             122   -0.16 9  197 292 
 ZAR  HZ I         836 24.56         0.9 0.09            123            197 292 
 GUY2CHZ EP   9    836  7.03                             112    1.30 0  299 233 
 GUY2CHE ES        836 41.39                             111    0.70 7  299 233 
 GUY2CHZ I         836 46.63         0.8 0.40                           299 233 
 PRA  HZ EP        836 16.24                             106    0.19 6  393 209 
 PRA  HE ES        836 58.38                             106    0.62 6  393 209 
 PRA  HZ I         837  5.01         1.0 0.38            107            393 209 
                                                                                
