 2011 11 1 0529 34.3 L   6.761 -73.063142.9  RSN  5 0.2 1.5LRSN                1
 GAP=149        0.49       4.8     6.3  6.1  0.7190E+01 -0.1661E+02 -0.1341E+01E
 Epicentro: LOS SANTOS - SANTANDER                                             3
 ACTION:UPD 12-07-13 16:07 OP:ep   STATUS:               ID:20111101052934 L   I
 2011-11-01-0520-00M.COL___176                                                 6
 STAT SP IPHASW D HRMM SECON CODA AMPLIT PERI AZIMU VELO AIN AR TRES W  DIS CAZ7
 BAR2 SZ EP        529 53.54                             171   -0.0510 22.8 215 
 BAR2 SZ ES   1    530  8.42                             171   -0.21 7 22.8 215 
 BAR2 SZ I         530  9.61         6.6 0.38                          22.8 215 
 GIR2 SZ EP   2    529 53.90                             164    0.05 5 38.0 338 
 PAM  SZ EP        529 56.22                             151    0.1010 75.5  32 
 BRR  HZ EP        529 55.51                             149   -0.2610 81.4 298 
 BRR  HE ES   1    530 12.79                             149    0.29 7 81.4 298 
 BRR  HZ I         530 17.38         5.9 0.58                          81.4 298 
 RUS  HZ EP        529 57.62                             145    0.1610 96.0 181 
                                                                                
