 2013  9 1 0652 31.3 L   6.658 -73.204142.0  RSN  4 0.3 1.3LRSN                1
 GAP=219        0.50       6.0     7.2  5.9  0.2561E+02  0.8377E+01  0.7572E+01E
 Epicentro: BARICHARA - SANTANDER                                              3
 ACTION:UPD 13-10-22 09:19 OP:ep   STATUS:               ID:20130901065231 L   I
 OLDACT:UP  13-09-01 10:26 OP:mh   STATUS:               ID:20130901065000     3
 OLDACT:REG 13-09-01 08:50 OP:mh   STATUS:               ID:20130901065000     3
 2013-09-01-0650-00M.COL___268                                                 6
 STAT SP IPHASW D HRMM SECON CODA AMPLIT PERI AZIMU VELO AIN AR TRES W  DIS CAZ7
 BRR  HZ EP   1    652 52.13                             151   -0.15 7 74.9 312 
 BRR  HN ES        653  8.63                             151    0.0010 74.9 312 
 BRR  HZ I         653 11.68         2.3 0.58            144           74.9 312 
 RUS  HZ EP   2    652 54.21                             147    0.54 5 85.7 171 
 RUS  HN ES   2    653 10.98                             147   -0.12 5 85.7 171 
 PTB  HZ EP   1    652 56.77                             133   -0.42 7  139 265 
 PTB  HN ES   2    653 17.61                             133    0.23 5  139 265 
 PTB  HZ I         653 20.26         2.6 0.50            129            139 265 
 ZAR  HZ EP   1    653  3.83                             121    0.25 6  205 297 
 ZAR  HN ES   2    653 28.94                             121    0.19 4  205 297 
 ZAR  HN I         653 35.33         2.7 0.34            119            205 297 
                                                                                
