 2013  2 1 0318 45.0 L   6.469 -73.724 97.5  RSN  6 0.4 1.5LRSN                1
 GAP=144        1.01       4.3     3.3  8.1  0.3308E+01  0.4250E+00 -0.1243E+01E
 Epicentro: SANTA HELENA DEL OPON - SANTANDER                                  3
 ACTION:UPD 13-03-12 09:29 OP:ep   STATUS:               ID:20130201031845 L   I
 2013-02-01-0317-49M.COL___158                                                 6
 STAT SP IPHASW D HRMM SECON CODA AMPLIT PERI AZIMU VELO AIN AR TRES W  DIS CAZ7
 BAR2 SZ EP        319  1.13                             146    0.2910 61.5  77 
 BAR2 SZ ES        319 13.48                             146    0.3010 61.5  77 
 BAR2 SZ I         319 14.74        10.8 0.44            147           61.5  77 
 BRR  HZ EP        319  1.15                             141   -0.0210 70.6   1 
 BRR  HN ES        319 13.78                             141    0.0010 70.6   1 
 BRR  HN I         319 14.67         7.2 0.28            141           70.6   1 
 PTB  HZ IP     C  319  1.67                             137   -0.3910 81.3 276 
 PTB  HN ES        319 14.80                             137   -0.5510 81.3 276 
 PTB  HN I         319 15.92        18.0 0.10            137           81.3 276 
 RUS  HZ EP        319  4.19                             133    0.2510 95.4 132 
 RUS  HN ES        319 18.81                             133    0.1210 95.4 132 
 RUS  HN I         319 19.89         6.0 0.18            134           95.4 132 
 PAM  SE EP        319  9.01                             119   -0.26 9  149  50 
 PAM  SN ES        319 27.68                             119   -0.51 9  149  50 
 ZAR  HN ES        319 31.85                             116    0.83 9  169 312 
 ZAR  HN I         319 35.05         5.1 0.36            115            169 312 
                                                                                
