 2015  5 1 0445 48.2 L   6.567 -73.217134.0  RSN  7 0.5 1.4LRSN                1
 GAP=115        1.77       6.5     9.2 11.2 -0.5663E+01  0.2322E+02 -0.1545E+02E
 Epicentro: CABRERA - SANTANDER                                                3
 ACTION:UPD 15-09-10 22:00 OP:cam  STATUS:               ID:20150501044548 L   I
 OLDACT:DUP 15-05-01 16:15 OP:Drio STATUS:               ID:20150501043751d    3
 2015-05-01-0437-49M.COL___274                                                 6
 STAT SP IPHASW D HRMM SECON CODA AMPLIT PERI AZIMU VELO AIN AR TRES W  DIS CAZ7
 BAR2 EZ EP        446  6.63                             178    0.4310 4.70  54 
 BAR2 EZ ES        446 19.95                             178   -0.2710 4.70  54 
 BAR2 EZ I         446 22.71         6.5 0.12            176           4.70  54 
 RUS  HZ EP        446  9.43                             151    0.3010 76.0 169 
 RUS  HN ES        446 25.28                             151   -0.1510 76.0 169 
 RUS  HZ I         446 28.17         3.3 0.22            153           76.0 169 
 BRR  HZ EP   9    446  9.21                             148    0.46 0 81.0 318 
 BRR  HE ES        446 27.04                                    1.8310 81.0 318 
 SPBC HZ EP        446 13.19                             133   -0.32 9  139 223 
 SPBC HN ES        446 34.16                             133    0.93 9  139 223 
 OCA  HZ EP        446 17.82                             124   -0.35 9  185 356 
 OCA  HN ES        446 41.95                             124    0.44 9  185 356 
 OCA  HZ I         446 47.04         5.4 0.52            125            185 356 
 ZAR  HZ EP        446 20.17                             120   -0.22 8  208 300 
 ZAR  HN ES        446 44.81                             120   -0.66 8  208 300 
 ZAR  HZ I         446 46.59         2.6 0.38            122            208 300 
 NOR  HE ES        446 46.24                             120   -0.42 8  214 239 
                                                                                
