 2017 12 1 0623 58.5 L   6.792 -73.183139.2  RSN  5 0.3 1.1LRSN                1
 GAP=132        0.71       3.7     3.3  5.6 -0.9439E-01  0.6946E+01 -0.3343E+01E
 Epicentro: LOS SANTOS - SANTANDER                                             3
 ACTION:UPD 18-01-04 13:16 OP:rebc STATUS:               ID:20171201062358 L   I
 OLDACT:REG 17-12-01 12:51 OP:dhb  STATUS:               ID:20171201061737     3
 2017-12-01-0618-00M.COL___492                                                 6
 STAT SP IPHASW D HRMM SECON CODA AMPLIT PERI AZIMU VELO AIN AR TRES W  DIS CAZ7
 BAR2 EZ EP        624 17.14                             171   -0.1310 22.1 180 
 BAR2 EZ ES        624 31.98                             171    0.0310 22.1 180 
 BAR2 EZ I         624 32.47         4.1 0.70            171           22.1 180 
 PAM  EZ EP        624 19.96                             148   -0.2310 80.8  41 
 PAM  EE ES        624 37.19                             148    0.0510 80.8  41 
 PAM  EZ I         624 38.20         1.1 0.44            151           80.8  41 
 RUS  HZ EP        624 21.46                             143   -0.0710  100 174 
 RUS  HN ES        624 39.80                             143    0.2810  100 174 
 RUS  HZ I         624 43.00         1.6 0.34            144            100 174 
 PTB  HZ EP        624 24.20                             131   -0.30 9  143 259 
 PTB  HN ES        624 44.55                             131   -0.27 9  143 259 
 PTB  HZ I         624 46.60         1.0 0.16            132            143 259 
 ZAR  HZ EP        624 30.82                             121    0.71 9  201 293 
 ZAR  HN ES        624 54.88                             121    0.07 9  201 293 
 ZAR  HZ I         625  1.36         2.5 0.28            122            201 293 
                                                                                
