 2016 10 1 0238 55.8 L   6.797 -73.145147.6  RSN  8 0.4 1.6LRSN                1
 GAP=137        1.09       4.5     5.4  7.2 -0.5395E+01  0.2665E+01  0.7656E+01E
 Epicentro: LOS SANTOS - SANTANDER                                             3
 ACTION:UPD 16-11-09 19:15 OP:rebc STATUS:               ID:20161001023855 L   I
 OLDACT:UP  16-10-01 15:00 OP:dani STATUS:               ID:20161001023747     3
 OLDACT:UP  16-10-01 15:00 OP:dani STATUS:               ID:20161001023747     3
 OLDACT:REG 16-10-01 12:50 OP:dani STATUS:               ID:20161001023747     3
 2016-10-01-0238-00M.COL___372                                                 6
 STAT SP IPHASW D HRMM SECON CODA AMPLIT PERI AZIMU VELO AIN AR TRES W  DIS CAZ7
 BAR2 EZ EP        239 15.47                             171   -0.2010 23.1 190 
 BAR2 EZ ES        239 30.34                             171   -0.8110 23.1 190 
 BAR2 EZ I         239 33.40        12.5 0.51            171           23.1 190 
 BRR  HZ EP        239 17.38                             153    0.2010 71.4 299 
 BRR  HN ES        239 34.46                             153    0.6210 71.4 299 
 BRR  HZ I         239 34.94         8.8 0.32            138           71.4 299 
 PAM  EZ EP        239 18.39                             151    0.1410 77.6  39 
 PAM  EN ES        239 35.74                             151    0.0010 77.6  39 
 PAM  EZ I         239 37.67        12.0 0.52            139           77.6  39 
 RUS  HZ EP        239 19.71                             144   -0.0310  100 176 
 RUS  HE ES        239 38.81                             144    0.4210  100 176 
 RUS  HZ I         239 39.30         4.0 0.26            139            100 176 
 PTB  HZ EP        239 22.78                             132   -0.16 9  148 259 
 PTB  HE ES        239 43.45                             132   -0.64 9  148 259 
 PTB  HZ I         239 45.93         2.3 0.20            120            148 259 
 SPBC HE ES        239 47.45                             129    0.68 9  163 219 
 ZAR  HZ EP   4    239 30.12                             123    1.72 0  204 292 
 ZAR  HZ I         240  0.52         3.8 0.12            111            204 292 
 CHI  HZ EP        239 33.44                             117   -0.15 8  248 195 
 CHI  HN ES        240  2.86                             117   -0.20 8  248 195 
 CHI  HZ I         240  6.56         2.5 0.39            109            248 195 
                                                                                
