 2013  2 1 0340 49.1 L   6.808 -73.098148.3  RSN  5 0.3 1.6LRSN                1
 GAP=159        0.75       5.2     4.5  8.2 -0.9359E+01 -0.4154E+01  0.2218E+02E
 Epicentro: LOS SANTOS - SANTANDER                                             3
 ACTION:UPD 13-03-12 09:29 OP:ep   STATUS:               ID:20130201034049 L   I
 2013-02-01-0340-00M.COL___241                                                 6
 STAT SP IPHASW D HRMM SECON CODA AMPLIT PERI AZIMU VELO AIN AR TRES W  DIS CAZ7
 BAR2 SZ EP        341  8.89                             170   -0.1610 25.6 201 
 BAR2 SZ I         341 25.23         7.6 0.18            162           25.6 201 
 PAM  SZ EP        341 11.62                             152    0.3010 73.4  37 
 PAM  SN ES        341 28.44                             152   -0.2510 73.4  37 
 PAM  SN I         341 29.94         7.9 0.46            153           73.4  37 
 BRR  HZ EP     C  341 11.08                             152    0.3510 75.4 296 
 BRR  HN ES        341 27.73                             152    0.1010 75.4 296 
 BRR  HN I         341 28.22        11.3 0.22            157           75.4 296 
 PTB  HZ EP        341 16.15                             131   -0.57 9  153 259 
 PTB  HN ES        341 38.35                             131    0.06 9  153 259 
 PTB  HN I         341 41.80         5.6 0.46            132            153 259 
 CHI  HN ES        341 57.00                             117    0.14 8  251 196 
 CHI  HN I         342  3.39         1.8 0.24            115            251 196 
                                                                                
