 2010  3 1 0512 49.7 L   6.867 -72.906135.5  RSN  5 0.4 1.8LRSN                1
 GAP=207        0.84       5.8    10.4 10.9  0.1391E+02  0.5311E+00  0.3525E+00E
 Epicentro: GUACA - SANTANDER                                                  3
 ACTION:UP  10-08-24 09:51 OP:vdl  STATUS:               ID:20100301051249 L   I
 2010-03-01-0508-59S.COL___093                                                 6
 STAT SP IPHASW D HRMM SECON CODA AMPLIT PERI AZIMU VELO SNR AR TRES W  DIS CAZ7
 BAR2 SZ EP   1    513  8.83                             161     0.1 7   43 225 
 BAR2 SZ ES   2    513 23.93                             161     0.4 5   43 225 
 BRR  HZ EP        513 10.82                             144    -0.410   93 287 
 BRR  HN ES        513 27.90                             144    -0.110   93 287 
 BRR  HZ I         513 31.31         7.4 0.14                            93 287 
 RUS  BN ES   1    513 31.42                             139     0.0 7  109 190 
 RUS  BZ I         513 32.61         7.1 0.52                           109 190 
 OCA  SZ ES   2    513 39.36                             128     0.9 5  158 343 
 RREF BN ES   1    514 16.88                             107     0.6 5  347 231 
 RREF BZ I         514 19.24         4.0 0.17                           347 231 
                                                                                
