 2016  7 1 0202 22.0 L   6.675 -73.579102.0  RSN  7 0.5 1.5LRSN                1
 GAP=119        1.34       5.0     5.1  9.9  0.6830E+01  0.2153E+02  0.9612E+01E
 Epicentro: EL CARMEN - SANTANDER                                              3
 ACTION:UPD 17-03-29 16:45 OP:lp   STATUS:               ID:20160701020222 L   I
 OLDACT:UP  16-07-01 15:58 OP:ak   STATUS:               ID:20160701015745     3
 OLDACT:REG 16-07-01 13:43 OP:ak   STATUS:               ID:20160701015745     3
 2016-07-01-0157-45M.COL___348                                                 6
 STAT SP IPHASW D HRMM SECON CODA AMPLIT PERI AZIMU VELO AIN AR TRES W  DIS CAZ7
 BAR2 EZ EP        2 2 37.05                             155   -0.1910 44.8 102 
 BAR2 EZ ES        2 2 49.57                             155    0.4210 44.8 102 
 BAR2 EZ I         2 2 50.25        29.7 0.24            158           44.8 102 
 BRR  HZ EP        2 2 36.96                             152   -0.2210 50.0 343 
 BRR  HN ES        2 2 49.41                             152    0.3610 50.0 343 
 BRR  HZ I         2 2 50.39         6.7 0.14            155           50.0 343 
 PTB  HZ EP        2 2 39.99                             133   -0.8710 98.2 261 
 PTB  HN ES        2 2 54.68                             133   -0.9310 98.2 261 
 PTB  HZ I         2 2 56.04         9.2 0.08            133           98.2 261 
 RUS  HZ EP        2 2 41.61                             132   -0.2810  102 148 
 RUS  HE ES        2 2 57.42                             132   -0.0210  102 148 
 RUS  HZ I         2 2 59.34         5.2 0.19            134            102 148 
 SPBC HZ EP   4    2 2 45.74                             125    2.15 0  126 206 
 SPBC HN ES        2 3  0.92                             125    0.4610  126 206 
 SPBC HZ I         2 3  6.64         6.3 0.22            126            126 206 
 ZAR  HZ EP        2 2 48.04                             116    0.11 9  168 303 
 ZAR  HN ES        2 3  8.90                             116    0.72 9  168 303 
 ZAR  HZ I         2 3 11.98         6.3 0.19            118            168 303 
 GUY2CHZ EP   2    2 2 59.30                             106    0.85 4  255 231 
 GUY2CHN ES        2 3 27.73                             106    0.82 8  255 231 
 GUY2CHZ I         2 3 34.87         1.9 0.27                           255 231 
                                                                                
