 2013  6 1 0603  2.6 L   7.358 -73.086158.7  RSN  5 0.4 1.6LRSN                1
 GAP=202        0.92       3.7     7.4  7.2 -0.1363E+01 -0.8142E+00 -0.3958E+01E
 Epicentro: MATANZA - SANTANDER                                                3
 ACTION:UPD 14-01-08 09:51 OP:ep   STATUS:               ID:20130601060302 L   I
 2013-06-01-0600-00M.COL___261                                                 6
 STAT SP IPHASW D HRMM SECON CODA AMPLIT PERI AZIMU VELO AIN AR TRES W  DIS CAZ7
 BRR  HZ IP     C  6 3 25.88                             154    0.5910 74.4 248 
 BRR  HN ES        6 3 43.37                             154    0.3510 74.4 248 
 BRR  HZ I         6 3 46.11         6.4 0.14            155           74.4 248 
 BAR2 SZ EP        6 3 26.42                             150    0.1610 85.4 187 
 BAR2 SZ ES        6 3 44.32                             150   -0.4310 85.4 187 
 BAR2 SZ I         6 3 47.54         3.3 0.38            153           85.4 187 
 OCA  HZ EP        6 3 26.81                             146   -0.3210  101 345 
 OCA  HN ES        6 3 46.43                             146    0.1310  101 345 
 OCA  HZ I         6 3 49.22         7.4 0.48            148            101 345 
 PTB  HZ EP        6 3 32.80                             129   -0.40 9  176 239 
 PTB  HN ES        6 3 57.02                             129   -0.08 9  176 239 
 PTB  HZ I         6 3 59.00         2.2 0.18            132            176 239 
 SML  HZ EP        6 3 35.08                             127    0.31 9  193 326 
 SML  HN ES        6 3 59.46                             127   -0.43 9  193 326 
 SML  HZ I         6 4  2.46         7.5 0.22            129            193 326 
                                                                                
