 2011  7 1 0334 20.9 L   6.796 -73.090148.7  RSN  4 0.1 1.4LRSN                1
 GAP=235        0.37       7.7    13.7  8.8  0.9297E+02 -0.8708E+02 -0.4804E+02E
 Epicentro: LOS SANTOS - SANTANDER                                             3
 ACTION:UP  12-07-25 13:57 OP:epov STATUS:               ID:20110701033420 L   I
 2011-07-01-0330-33S.COL___140                                                 6
 STAT SP IPHASW D HRMM SECON CODA AMPLIT PERI AZIMU VELO AIN AR TRES W  DIS CAZ7
 BTL  SZ EP   1    334 41.06                             170    0.20 7 23.8 304 
 BAR2 SZ EP   1    334 40.67                             170   -0.21 7 24.8 204 
 BAR2 SZ ES   2    334 56.43                             170   -0.06 5 24.8 204 
 BAR2 SZ I         335  2.58         6.3 0.78                          24.8 204 
 BRR  HZ EP   2    334 42.65                             151   -0.01 5 76.8 297 
 BRR  HZ I         334 53.90         4.7 0.42                          76.8 297 
 BRR  HN ES   1    334 59.64                             151   -0.01 7 76.8 297 
 RUS  HE ES   1    335  3.63                             145    0.05 7100.0 180 
                                                                                
