 2013  1 1 0620 51.2 L   7.076 -72.843175.4  RSN  5 0.6 1.6LRSN                1
 GAP=214        1.25       8.1    14.4 12.4  0.3777E+02 -0.1294E+02 -0.8965E+01E
 Epicentro: SANTA BARBARA - SANTANDER                                          3
 ACTION:UP  13-02-15 09:11 OP:ep   STATUS:               ID:20130101062051 L   I
 2013-01-01-0620-00M.COL___242                                                 6
 STAT SP IPHASW D HRMM SECON CODA AMPLIT PERI AZIMU VELO AIN AR TRES W  DIS CAZ7
 BAR2 SZ ES        621 34.65                             159   -0.1510 65.4 215 
 BAR2 SZ I         621 36.01         5.4 0.28            165           65.4 215 
 BRR  HZ EP        621 17.43                             150    0.4610 96.1 272 
 BRR  HN ES        621 37.88                             150    0.8110 96.1 272 
 BRR  HN I         621 41.79        10.7 0.20            153           96.1 272 
 RUS  HZ EP   1    621 20.55                             141    0.29 7  134 191 
 RUS  HN ES        621 42.68                             141   -0.2510  134 191 
 RUS  HN I         621 44.45         2.2 0.32            148            134 191 
 OCA  HN ES   1    621 41.94                             140   -0.88 7  139 338 
 OCA  HN I         621 49.56         6.9 0.38            139            139 338 
 PTB  HZ EP   1    621 23.65                             131   -0.58 7  188 252 
 PTB  HN ES   1    621 49.16                             131   -0.83 7  188 252 
 PTB  HN I         621 50.86         3.5 0.18            135            188 252 
                                                                                
