 2013  1 1 0059  1.9 L   6.444 -73.591103.8  RSN  5 0.3 1.5LRSN                1
 GAP=139        0.79       4.4     3.8  6.6  0.7473E+01  0.9549E+01  0.4527E+01E
 Epicentro: SANTA HELENA DEL OPON - SANTANDER                                  3
 ACTION:UPD 13-02-15 09:11 OP:ep   STATUS:               ID:20130101005901 L   I
 2013-01-01-0050-00M.COL___242                                                 6
 STAT SP IPHASW D HRMM SECON CODA AMPLIT PERI AZIMU VELO AIN AR TRES W  DIS CAZ7
 BAR2 SZ EP        059 17.46                             153   -0.0510 48.1  70 
 BAR2 SZ I         059 17.76        22.8 0.24             47           48.1  70 
 BAR2 SZ ES        059 29.95                             153    0.2310 48.1  70 
 BRR  HZ EP        059 18.39                             141   -0.5310 74.6 350 
 BRR  HZ I         059 21.20         4.0 0.12             47           74.6 350 
 BRR  HN ES        059 32.24                             141    0.0110 74.6 350 
 RUS  HZ EP        059 20.42                             139    0.1610 82.9 137 
 RUS  HE ES        059 34.54                             139   -0.0810 82.9 137 
 RUS  HN I         059 39.63         3.1 0.32             47           82.9 137 
 PTB  HZ EP        059 20.47                             133   -0.2710 96.3 276 
 PTB  HN ES        059 35.53                             133    0.0610 96.3 276 
 PTB  HN I         059 36.64         8.5 0.24             47           96.3 276 
 ZAR  HZ EP        059 30.10                             114    0.63 9  182 310 
 ZAR  HN I         059 55.97         6.6 0.26             47            182 310 
                                                                                
