 2017  3 1 0716  4.3 L   6.778 -73.117151.7  RSN 13 0.4 1.6LRSN                1
 GAP=141        0.96       4.0     4.4  6.8  0.5328E+00  0.5300E+01  0.2789E+01E
 Epicentro: LOS SANTOS - SANTANDER                                             3
 ACTION:UPD 17-05-25 18:34 OP:jn   STATUS:               ID:20170301071604 L   I
 OLDACT:UP  17-03-01 16:50 OP:and  STATUS:               ID:20170301070642d    3
 OLDACT:UP  17-03-01 16:49 OP:and  STATUS:               ID:20170301070642d    3
 OLDACT:UP  17-03-01 16:48 OP:and  STATUS:               ID:20170301070642d    3
 OLDACT:UP  17-03-01 16:48 OP:and  STATUS:               ID:20170301070642d    3
 OLDACT:UP  17-03-01 16:48 OP:and  STATUS:               ID:20170301070642d    3
 OLDACT:UP  17-03-01 16:48 OP:and  STATUS:               ID:20170301070642d    3
 OLDACT:UP  17-03-01 16:47 OP:and  STATUS:               ID:20170301070642d    3
 OLDACT:UP  17-03-01 16:47 OP:and  STATUS:               ID:20170301070642d    3
 OLDACT:DUP 17-03-01 16:44 OP:and  STATUS:               ID:20170301070642d    3
 2017-03-01-0707-00M.COL___378                                                 6
 STAT SP IPHASW D HRMM SECON CODA AMPLIT PERI AZIMU VELO AIN AR TRES W  DIS CAZ7
 BAR2 EZ IP     D  716 24.68                             171    0.1110 21.8 199 
 BAR2 EZ ES        716 40.24                             171   -0.1710 21.8 199 
 BAR2 EZ I         716 41.46         6.2 0.20            163           21.8 199 
 BRR  HZ IP     D  716 26.41                             152    0.1510 75.1 299 
 BRR  HN ES        716 43.62                             152    0.1910 75.1 299 
 BRR  HZ I         716 47.49         4.2 0.30            140           75.1 299 
 PAM  EZ EP        716 27.36                             152    0.2610 77.3  37 
 PAM  EN ES        716 44.35                             152   -0.5710 77.3  37 
 PAM  EZ I         716 45.19         8.2 0.26            146           77.3  37 
 RUS  HZ EP        716 28.71                             146    0.3010 98.0 178 
 RUS  HN ES        716 47.83                             146    0.5710 98.0 178 
 RUS  HZ I         716 49.23         2.4 0.38            133           98.0 178 
 PTB  HZ EP        716 31.57                             133   -0.38 9  150 260 
 PTB  HE ES        716 53.75                             133    0.20 9  150 260 
 PTB  HZ I         716 58.93         4.5 0.24            119            150 260 
 ZAR  HN ES        717  3.24                             123   -0.16 8  208 292 
 ZAR  HZ I         717 10.07         3.8 0.21            111            208 292 
 NOR  HN ES   4    717 10.94                             120    2.24 0  236 235 
 NOR  HZ I         717 12.24         3.9 0.15            108            236 235 
 CHI  HN ES        717 10.70                             118   -0.97 8  247 196 
 CHI  HZ I         717 18.22         1.3 0.23            108            247 196 
 ROSC BN ES   4    717 16.71                             118    4.09 0  252 212 
 ROSC BZ I         717 22.82         4.7 0.40            107            252 212 
 HEL  HZ EP   4    716 46.84                             116    1.79 0  275 256 
 HEL  HZ I         717 25.76         1.8 0.45            105            275 256 
 URE  HZ EP   4    716 48.60                             114    2.56 0  288 292 
 URE  HN ES   4    717 16.33                             114   -2.30 0  288 292 
 URE  HZ I         717 18.13         2.3 0.14            104            288 292 
 CBOC HZ EP   3    716 53.06                             111    1.38 2  336 253 
 PRA  HZ EP   9    716 59.30                             107    1.38 0  392 210 
 PRA  HE ES        717 41.04                                   -0.12 6  392 210 
 PRA  HZ I         717 47.69         2.6 0.32             99            392 210 
                                                                                
