 2011  7 1 0533 18.3 L   6.919 -73.342134.0  RSN  4 0.2 1.4LRSN                1
 GAP=235        0.49      13.6    39.1 12.9 -0.4822E+03  0.3832E+03 -0.1461E+03E
 Epicentro: BETULIA - SANTANDER                                                3
 ACTION:UPD 12-07-25 13:57 OP:epov STATUS:               ID:20110701053318 L   I
 2011-07-01-0520-00M.COL___124                                                 6
 STAT SP IPHASW D HRMM SECON CODA AMPLIT PERI AZIMU VELO AIN AR TRES W  DIS CAZ7
 BTL  SZ EP   2    533 35.94                             178   -0.39 5 8.18  90 
 GIR2 SZ EP   1    533 36.67                             170    0.25 7 24.1  43 
 BAR2 SZ EP   1    533 36.81                             163   -0.24 7 40.2 154 
 BAR2 SZ ES   1    533 51.78                             163    0.13 7 40.2 154 
 BAR2 SZ I         533 52.88        10.5 0.34                          40.2 154 
 GRA  SZ EP   1    533 42.41                             135    0.16 7  122  29 
 GRA  SZ ES   2    534  0.61                             135   -0.28 5  122  29 
 GRA  SZ I         534 10.19         2.0 0.16                           122  29 
                                                                                
