 2014  9 1 0134 31.7 L   6.793 -73.130140.8  RSN 11 0.5 1.9LRSN                1
 GAP=139        0.90       2.9     3.9  5.8 -0.4901E+00  0.4920E+01  0.1428E+01E
 Epicentro: LOS SANTOS - SANTANDER                                             3
 ACTION:UPD 14-10-03 23:01 OP:nd   STATUS:               ID:20140901013431 L   I
 OLDACT:UP  14-09-01 15:51 OP:mh   STATUS:               ID:20140901013001d    3
 OLDACT:DUP 14-09-01 15:22 OP:mh   STATUS:               ID:20140901013001d    3
 2014-09-01-0130-00M.COL___282                                                 6
 STAT SP IPHASW D HRMM SECON CODA AMPLIT PERI AZIMU VELO AIN AR TRES W  DIS CAZ7
 BAR2 SZ EP   1    134 50.81                             170    0.05 7 23.0 195 
 BAR2 SZ ES   1    135  4.97                             170   -0.63 7 23.0 195 
 BAR2 SZ I         135  6.88        16.2 0.23            169           23.0 195 
 BRR  HZ EP        134 52.46                             151    0.0010 73.1 298 
 BRR  HN ES   1    135  9.06                             151    0.44 7 73.1 298 
 BRR  HZ I         135 13.16        14.9 0.14            149           73.1 298 
 PAM  SZ EP        134 53.60                             150    0.2110 76.9  38 
 PAM  SN ES   1    135 10.20                             150   -0.08 7 76.9  38 
 PAM  SZ I         135 12.96        12.4 0.20            154           76.9  38 
 RUS  HZ EP        134 54.95                             143    0.0110 99.7 177 
 RUS  HN ES   1    135 13.43                             143    0.39 7 99.7 177 
 RUS  HZ I         135 15.42         9.7 0.26            146           99.7 177 
 PTB  HZ EP   1    134 57.70                             130   -0.74 7  149 259 
 PTB  HN ES        135 18.98                             130   -0.30 9  149 259 
 PTB  HZ I         135 21.11        10.7 0.14            130            149 259 
 SPBC HZ EP        134 59.70                             128   -0.20 9  164 220 
 SPBC HN ES   1    135 22.11                             128    0.23 7  164 220 
 SPBC HZ I         135 25.44        10.7 0.16            129            164 220 
 ZAR  HZ EP   1    135  4.61                             121    0.56 6  206 292 
 ZAR  HN ES   1    135 28.74                             121   -0.52 6  206 292 
 ZAR  HZ I         135 34.51         8.3 0.27            121            206 292 
 NOR  HZ EP        135  7.12                             117   -0.16 8  236 235 
 NOR  HN ES   1    135 35.22                             117    0.21 6  236 235 
 NOR  HZ I         135 44.20         5.4 0.06            118            236 235 
 SML  HZ EP   1    135  6.85                             116   -1.38 6  245 335 
 SML  HN ES        135 37.35                             116    0.64 8  245 335 
 SML  HZ I         135 45.84        13.0 0.13            117            245 335 
 CHI  HZ EP        135  9.26                             116    0.13 8  248 196 
 CHI  HN ES        135 38.35                             116    0.05 8  248 196 
 CHI  HZ I         135 43.87         3.1 0.30            118            248 196 
 HEL  HZ EP   1    135 12.72                             114    0.86 6  274 256 
 HEL  HN ES   1    135 43.40                             114    0.23 6  274 256 
 HEL  HZ I         135 47.39         3.2 0.30            114            274 256 
                                                                                
