 2017  4 1 0247 38.5 L   6.512 -73.532107.2  RSN 11 0.4 1.6LRSN                1
 GAP= 94        0.89       3.1     3.2  5.1 -0.3194E+00  0.7734E+01  0.3300E+01E
 Epicentro: EL CARMEN - SANTANDER                                              3
 ACTION:UPD 17-05-30 21:07 OP:jn   STATUS:               ID:20170401024738 L   I
 OLDACT:DUP 17-04-01 14:17 OP:lv   STATUS:               ID:20170401023741d    3
 2017-04-01-0238-00M.COL___362                                                 6
 STAT SP IPHASW D HRMM SECON CODA AMPLIT PERI AZIMU VELO AIN AR TRES W  DIS CAZ7
 BAR2 EZ EP        247 53.96                             158   -0.1310 39.7  77 
 BAR2 EZ ES        248  6.67                             158    0.3910 39.7  77 
 BRR  HZ EP        247 54.94                             144   -0.5110 68.7 343 
 BRR  HE ES        248  8.85                             144    0.1710 68.7 343 
 BRR  HZ I         248 10.25        11.0 0.10            146           68.7 343 
 RUS  HZ EP        247 57.04                             139   -0.3010 84.6 144 
 RUS  HN ES        248 12.38                             139    0.3310 84.6 144 
 RUS  HZ I         248 14.25         7.0 0.31            139           84.6 144 
 PTB  HZ IP   9 C  247 56.76                             133   -1.42 0  102 272 
 PTB  HN ES        248 11.58                                   -0.5510  102 272 
 PTB  HZ I         248 13.01        22.6 0.05            132            102 272 
 SPBC HZ EP        247 58.89                             130   -0.3110  112 212 
 SPBC HN ES        248 15.22                             130   -0.1510  112 212 
 NOR  HZ EP        248  5.53                             115   -0.75 9  181 235 
 NOR  HN ES        248 27.81                             115   -0.16 9  181 235 
 NOR  HZ I         248 30.84         3.5 0.06            115            181 235 
 ZAR  HZ EP        248  6.73                             115    0.42 9  182 307 
 ZAR  HE ES   4    248 29.66                             115    1.64 0  182 307 
 ZAR  HZ I         248 31.01         7.0 0.17            115            182 307 
 HEL  HZ EP        248 11.58                             110    0.14 8  224 261 
 HEL  HN ES        248 37.29                             110    0.14 8  224 261 
 HEL  HZ I         248 40.10         2.8 0.16            110            224 261 
 CBOC HZ EP        248 18.64                             105    0.47 7  284 256 
 CBOC HN ES        248 49.22                             105    0.09 7  284 256 
 CBOC HZ I         248 52.97         1.9 0.16            104            284 256 
 PRA  HZ EP        248 25.24                             101    0.07 7  344 206 
 PRA  HE ES        249  1.85                             101    0.25 7  344 206 
 PRA  HZ I         249  4.90         1.6 0.25            101            344 206 
 ORTC HZ EP        248 25.88                             101    0.59 7  345 214 
 ORTC HN ES   4    249  4.44                             101    2.64 0  345 214 
 ORTC HZ I         249 12.69         2.2 0.39            101            345 214 
                                                                                
