 2010  8 1 0500 49.9 L   6.777 -73.106143.3  RSN  5 0.1 1.5LRSN                1
 GAP=163        0.36       4.3     7.0  8.4  0.1779E+02 -0.3917E+02 -0.2633E+02E
 Epicentro: LOS SANTOS - SANTANDER                                             3
 ACTION:UP  10-09-07 10:51 OP:vdl  STATUS:               ID:20100801050049 L   I
 2010-08-01-0457-14S.COL___123                                                 6
 STAT SP IPHASW D HRMM SECON CODA AMPLIT PERI AZIMU VELO SNR AR TRES W  DIS CAZ7
 GIR2 SZ EP   2    5 1  9.34                             166    -0.1 5   35 344 
 BRR  HZ EP        5 1 11.15                             150     0.010   76 299 
 BRR  HZ I         5 1 11.58         7.9 0.15                            76 299 
 BRR  HN ES   1    5 1 27.64                             150     0.0 7   76 299 
 RUS  HN ES   1    5 1 31.44                             144     0.0 7   98 179 
 GUE  SZ EP   1    5 1 14.40                             138    -0.2 7  118  10 
 GRA  SZ EP   2    5 1 15.36                             136     0.3 5  127  15 
 GRA  SZ I         5 1 38.08         3.3 0.19                           127  15 
                                                                                
