 2014  9 1 0535  0.0 L   7.476 -73.174130.9  RSN  5 0.3 1.5LRSN                1
 GAP=240        0.80       3.7     7.5  7.8  0.1211E+00 -0.1502E+02 -0.4334E+01E
 Epicentro: EL PLAYON - SANTANDER                                              3
 ACTION:UPD 14-10-03 23:01 OP:nd   STATUS:               ID:20140901053500 L   I
 OLDACT:REG 14-09-01 12:06 OP:mh   STATUS:               ID:20140901053000     3
 2014-09-01-0530-00M.COL___282                                                 6
 STAT SP IPHASW D HRMM SECON CODA AMPLIT PERI AZIMU VELO AIN AR TRES W  DIS CAZ7
 BRR  HZ EP        535 19.88                             149    0.2210 72.0 236 
 BRR  HN ES        535 34.83                             149   -0.1310 72.0 236 
 BRR  HZ I         535 40.39         3.9 0.17            150           72.0 236 
 PTB  HZ EP        535 27.93                             123   -0.66 9  175 234 
 PTB  HN ES        535 50.65                             123   -0.20 9  175 234 
 PTB  HZ I         535 54.33         2.6 0.17            126            175 234 
 SML  HZ EP        535 28.99                             123    0.30 9  177 326 
 SML  HN ES   1    535 50.79                             123   -0.25 7  177 326 
 SML  HZ I         535 55.49         4.9 0.24            127            177 326 
 ZAR  HZ EP        535 29.36                             122   -0.29 9  186 271 
 ZAR  HN ES        535 53.17                             122    0.43 9  186 271 
 ZAR  HZ I         535 57.94         4.3 0.10            124            186 271 
 SPBC HZ EP   1    535 34.24                             116    0.32 6  225 206 
 SPBC HN ES        536  0.68                             116    0.34 8  225 206 
 SPBC HZ I         536  7.78         2.4 0.21            120            225 206 
                                                                                
