 2013  3 1 0547 13.3 L   6.699 -73.271144.8  RSN  4 0.4 1.5LRSN                1
 GAP=188        0.93       7.1     6.6  7.5  0.2230E+02  0.7554E+01  0.4419E+01E
 Epicentro: GALAN - SANTANDER                                                  3
 ACTION:UPD 13-04-09 13:59 OP:ep   STATUS:               ID:20130301054713 L   I
 2013-03-01-0538-50M.COL___196                                                 6
 STAT SP IPHASW D HRMM SECON CODA AMPLIT PERI AZIMU VELO AIN AR TRES W  DIS CAZ7
 BAR2 SZ EP        547 32.19                             174   -0.5310 15.4 140 
 BAR2 SZ ES        547 47.58                             174   -0.2610 15.4 140 
 BAR2 SZ I         547 50.02         6.5 0.50            175           15.4 140 
 BRR  HZ EP        547 34.04                             154   -0.0810 66.4 313 
 BRR  HN ES        547 50.82                             154    0.4910 66.4 313 
 BRR  HN I         547 52.43         7.9 0.20            155           66.4 313 
 RUS  HZ EP        547 36.55                             146    0.1810 91.6 167 
 RUS  HN ES        547 54.59                             146    0.2610 91.6 167 
 PTB  HZ EP        547 39.21                             135    0.3510  132 262 
 PTB  HN ES        547 58.35                             135   -0.4110  132 262 
                                                                                
