 2016  9 1 0134 12.8 L   6.777 -73.133145.6  RSN 13 0.4 2.0LRSN                1
 GAP=139        0.99       3.3     4.1  5.7 -0.2192E+01  0.6316E+01  0.2142E+01E
 Epicentro: LOS SANTOS - SANTANDER                                             3
 ACTION:UPD 17-08-17 21:05 OP:lp   STATUS:               ID:20160901013412 L   I
 OLDACT:UP  16-09-01 14:50 OP:drio STATUS:               ID:20160901012737     3
 OLDACT:UP  16-09-01 14:50 OP:drio STATUS:               ID:20160901012737     3
 OLDACT:REG 16-09-01 12:41 OP:drio STATUS:               ID:20160901012737     3
 2016-09-01-0128-00M.COL___359                                                 6
 STAT SP IPHASW D HRMM SECON CODA AMPLIT PERI AZIMU VELO AIN AR TRES W  DIS CAZ7
 BAR2 EZ EP        134 32.47                             171    0.0610 21.1 195 
 BAR2 HN ES        134 47.37                             171   -0.3010 21.1 195 
 BAR2 EZ I         134 48.40        30.6 0.22            169           21.1 195 
 BRR  HZ EP     C  134 34.29                             152    0.1710 73.7 300 
 BRR  HE ES        134 51.26                             152    0.5510 73.7 300 
 BRR  HZ I         134 55.26        19.5 0.12            149           73.7 300 
 PAM  EZ EP        134 35.18                             150    0.0710 78.5  38 
 PAM  EE ES        134 52.22                             150   -0.2610 78.5  38 
 PAM  EZ I         134 54.28        17.3 0.42            155           78.5  38 
 RUS  HZ EP        134 36.83                             144    0.4410 97.9 177 
 RUS  HN ES        134 54.70                             144   -0.0610 97.9 177 
 RUS  HZ I         134 56.04        16.2 0.24            147           97.9 177 
 PTB  HZ EP        134 39.21                             132   -0.67 9  149 260 
 PTB  HE ES   4    134 59.09                             132   -1.88 0  149 260 
 PTB  HZ I         135  3.17         7.2 0.18            131            149 260 
 SPBC HZ EP        134 41.53                             129    0.30 9  162 220 
 SPBC HN ES        135  3.11                             129   -0.26 9  162 220 
 SPBC HZ I         135 10.15        17.0 0.24            130            162 220 
 OCA  HZ EP        134 40.88                             129   -0.52 9  163 353 
 OCA  HE ES   4    135  1.96                             129   -1.71 0  163 353 
 OCA  HZ I         135  4.37        27.5 0.58            131            163 353 
 ZAR  HZ EP   4    134 46.72                             122    1.20 0  206 293 
 ZAR  HE ES        135 11.58                             122    0.58 8  206 293 
 ZAR  HZ I         135 18.79        11.0 0.60            122            206 293 
 NOR  HZ EP        134 48.36                             118   -0.17 8  234 235 
 NOR  HE ES        135 16.58                             118    0.22 8  234 235 
 NOR  HZ I         135 19.85         6.1 0.16            119            234 235 
 CHI  HZ EP        134 50.94                             117    0.63 8  247 196 
 CHI  HN ES        135 19.39                             117   -0.14 8  247 196 
 CHI  HZ I         135 20.81         3.0 0.48            119            247 196 
 HEL  HZ EP   4    134 54.77                             115    1.64 0  273 256 
 HEL  HE ES        135 23.77                             115   -0.79 8  273 256 
 HEL  HZ I         135 33.93         3.5 0.24            115            273 256 
 GUY2CHZ EP   4    134 58.10                             112    1.69 0  301 235 
 GUY2CHE ES   4    135 33.88                             112    3.49 0  301 235 
 GUY2CHZ I         135 38.97         4.7 0.30                           301 235 
 SJC  HZ EP   4    135  7.35                             105   -1.40 0  412 327 
 SJC  HN ES   4    135 50.47                             105   -1.88 0  412 327 
 SJC  HZ I         135 52.45         2.0 0.30            107            412 327 
                                                                                
