 2010  7 1 0153 20.2 L   6.781 -73.085136.0  RSN  9 0.4 2.0LRSN                1
 GAP=190        0.83       5.8     8.3  7.3 -0.3031E+02 -0.9147E+01  0.1180E+02E
 Epicentro: LOS SANTOS - SANTANDER                                             3
 ACTION:UPD 10-12-01 15:14 OP:pat  STATUS:               ID:20100701015320 L   I
 2010-07-01-0150-28S.COL___118                                                 6
 STAT SP IPHASW D HRMM SECON CODA AMPLIT PERI AZIMU VELO AIN AR TRES W  DIS CAZ7
 BAR2 SZ EP        153 38.70                             170     0.010   24 207 
 BAR2 SZ ES   2    153 52.52                             170    -0.5 5   24 207 
 BRR  HZ EP        153 40.72                             149     0.010   78 298 
 BRR  HN ES   1    153 57.29                             149     0.5 7   78 298 
 BRR  HZ I         153 58.69        18.0 0.17                            78 298 
 BRI  SZ EP        153 43.61                             140     0.410  108  17 
 BRI  SZ ES   1    154  1.34                             140     0.3 7  108  17 
 BRI  SZ I         154  4.07        13.7 0.61                           108  17 
 GUE  SZ EP        153 43.92                             137    -0.210  117   9 
 GRA  SZ EP        153 44.88                             135     0.310  126  14 
 GRA  SZ ES   1    154  3.27                             135    -0.4 7  126  14 
 OCA  SZ EP        153 47.42                             127    -0.7 9  163 351 
 OCA  SZ ES   3    154  9.02                             127    -0.8 2  163 351 
 OCA  SZ I         154 13.01         9.1 0.36                           163 351 
 HEL  HZ EP   2    154  0.90                             113     0.3 4  278 257 
 HEL  HN ES   3    154 31.02                             113    -1.1 2  278 257 
 HEL  HZ I         154 38.16         5.4 0.27                           278 257 
 RREF HZ EP   3    154  7.10                             109     0.7 2  326 230 
 RREF HN ES   3    154 42.87                             109     0.5 2  326 230 
 RREF HZ I         154 47.34         4.3 0.37                           326 230 
 PRA  HZ EP        154 13.43                             105    -0.2 6  393 211 
 PRA  HE ES   2    154 54.73                             105    -0.5 3  393 211 
 PRA  HZ I         155  0.55         2.9 0.32                           393 211 
                                                                                
