 2014 10 1 0313 59.3 L   6.813 -73.144139.7  RSN 16 0.6 2.4LRSN                1
 GAP= 71        1.57       3.7     4.4  7.5 -0.1028E+01  0.7158E+01  0.3201E+01E
 Epicentro: LOS SANTOS - SANTANDER                                             3
 ACTION:UPD 14-11-29 23:45 OP:nd   STATUS:               ID:20141001031359 L   I
 OLDACT:REG 14-10-01 12:38 OP:stll STATUS:               ID:20141001030818     3
 2014-10-01-0308-18M.COL___289                                                 6
 STAT SP IPHASW D HRMM SECON CODA AMPLIT PERI AZIMU VELO AIN AR TRES W  DIS CAZ7
 BAR2 SZ EP        314 18.49                             169    0.2610 24.7 190 
 BAR2 SZ ES        314 33.18                             169    0.1810 24.7 190 
 BAR2 SZ I         314 34.63        48.0 0.26            168           24.7 190 
 BRR  HZ IP     C  314 20.33                             152    0.5710 70.7 297 
 BRR  HZ I         314 20.68        61.2 0.18            150           70.7 297 
 BRR  HE ES        314 36.43                             152    0.7110 70.7 297 
 PAM  SZ IP     C  314 21.18                             150    0.3810 76.2  40 
 PAM  SZ I         314 21.54        43.9 0.24            152           76.2  40 
 PAM  SN ES        314 38.38                             150    0.8110 76.2  40 
 RUS  HZ EP        314 22.44                             142   -0.1210  102 176 
 RUS  HN ES        314 40.34                             142   -0.3710  102 176 
 RUS  HZ I         314 42.26        20.0 0.26            142            102 176 
 PTB  HZ EP        314 25.10                             131   -0.71 9  148 258 
 PTB  HN ES        314 45.63                             131   -0.87 9  148 258 
 PTB  HZ I         314 47.99        31.5 0.44            130            148 258 
 TAM  HZ EP        314 26.38                             129   -0.14 9  155 106 
 TAM  HZ I         314 26.77        26.4 0.20            130            155 106 
 TAM  HN ES        314 47.49                             129   -0.27 9  155 106 
 OCA  HZ EP        314 26.56                             129   -0.45 9  159 353 
 OCA  HE ES        314 48.41                             129   -0.21 9  159 353 
 OCA  HZ I         314 53.44        34.3 0.40            129            159 353 
 SPBC HZ EP        314 27.33                             128   -0.12 9  164 219 
 SPBC HN ES        314 48.84                             128   -0.57 9  164 219 
 SPBC HZ I         314 56.70        36.1 0.18            127            164 219 
 ZAR  HZ EP        314 32.26                             121    0.95 9  204 292 
 ZAR  HZ I         314 33.24        24.1 0.26            121            204 292 
 ZAR  HN ES        314 56.29                             121    0.01 9  204 292 
 SML  HZ EP        314 34.66                             116   -0.79 8  242 335 
 SML  HN ES        315  2.85                             116   -0.81 8  242 335 
 SML  HZ I         315  8.06        28.9 0.10            117            242 335 
 CHI  HZ EP        314 36.18                             116   -0.63 8  250 195 
 CHI  HZ I         314 38.74         7.1 0.14            116            250 195 
 CHI  HN ES        315  5.73                             116   -0.35 8  250 195 
 GUY2CHZ EP        314 43.78                             111    1.05 7  302 235 
 GUY2CHE ES        315 17.60                             111    0.99 7  302 235 
 GUY2CHZ I         315 26.18        12.9 0.26                           302 235 
 TOL  SZ EP        314 48.03                             108    0.59 7  345 224 
 TOL  SE ES        315 25.30                             108    0.31 7  345 224 
 TOL  SZ I         315 30.18        27.1 0.42            108            345 224 
 MON  HZ EP   9    314 45.56                             108   -2.41 0  353 308 
 MON  HN ES        315 22.47                                   -1.06 6  353 308 
 MON  HZ I         315 25.99         6.5 0.20            108            353 308 
 ANIL HE ES        315 27.53                             107   -0.24 6  358 224 
 ANIL HZ I         315 40.02         2.5 0.30            107            358 224 
 SJC  HZ EP   9    314 52.41                             105   -2.12 0  408 327 
 SJC  HN ES        315 32.69                                   -2.81 6  408 327 
                                                                                
