 2015  2 1 0521 45.0 L   6.791 -73.087148.0  RSN  6 0.3 1.4LRSN                1
 GAP=189        0.63       3.2     5.3  5.3  0.4928E+01  0.3309E+01  0.1193E+01E
 Epicentro: LOS SANTOS - SANTANDER                                             3
 ACTION:UPD 15-04-30 21:20 OP:nd   STATUS:               ID:20150201052145 L   I
 OLDACT:REG 15-02-01 12:13 OP:spq  STATUS:               ID:20150201051748     3
 2015-02-01-0517-48M.COL___261                                                 6
 STAT SP IPHASW D HRMM SECON CODA AMPLIT PERI AZIMU VELO AIN AR TRES W  DIS CAZ7
 BAR2 EZ EP     C  522  4.89                             170    0.0210 24.4 206 
 BAR2 EZ ES   1    522 20.03                             170   -0.38 7 24.4 206 
 BAR2 EZ I         522 21.45         6.2 0.14            170           24.4 206 
 BRR  HZ EP        522  6.76                             151    0.0610 77.4 297 
 BRR  HE ES        522 24.14                             151    0.4710 77.4 297 
 BRR  HZ I         522 27.02         3.2 0.35            150           77.4 297 
 RUS  HZ EP   1    522  8.92                             145    0.08 7 99.3 180 
 RUS  HE ES   1    522 27.65                             145    0.19 7 99.3 180 
 RUS  HZ I         522 30.89         1.8 0.22            147           99.3 180 
 OCA  HN ES   1    522 35.55                             130   -0.42 7  162 351 
 OCA  HZ I         522 38.60         2.5 0.27            132            162 351 
 SPBC HZ EP        522 13.88                             129   -0.07 9  167 221 
 SPBC HE ES   1    522 36.20                             129   -0.36 7  167 221 
 SPBC HZ I         522 38.21         5.7 0.26            131            167 221 
 ZAR  HZ EP   1    522 18.40                             122    0.20 6  210 292 
 ZAR  HE ES   1    522 43.77                             122   -0.37 6  210 292 
 ZAR  HZ I         522 48.45         2.9 0.34            123            210 292 
                                                                                
