 2017  3 1 0322 39.0 L   6.193 -73.691111.9  RSN  4 0.1 0.8LRSN                1
 GAP=178        0.38       4.8     4.1  5.6  0.1080E+02  0.1963E+01 -0.6182E+01E
 Epicentro: LA PAZ - SANTANDER                                                 3
 ACTION:UPD 17-05-25 18:34 OP:jn   STATUS:               ID:20170301032239 L   I
 OLDACT:UP  17-03-01 14:18 OP:and  STATUS:               ID:20170301031744     3
 OLDACT:REG 17-03-01 12:43 OP:and  STATUS:               ID:20170301031744     3
 2017-03-01-0318-00M.COL___390                                                 6
 STAT SP IPHASW D HRMM SECON CODA AMPLIT PERI AZIMU VELO AIN AR TRES W  DIS CAZ7
 BAR2 EZ IP     D  322 57.11                             145    0.1410 71.5  52 
 BAR2 EZ ES   2    323 10.75                             145   -0.24 5 71.5  52 
 BAR2 EZ I         323 12.39         3.7 0.20            153           71.5  52 
 RUS  HZ EP        322 57.44                             144   -0.1510 75.1 116 
 RUS  HN ES        323 12.15                             144    0.0710 75.1 116 
 RUS  HZ I         323 17.80         0.9 0.36            148           75.1 116 
 PTB  HZ EP   4    322 56.87                             137   -1.43 0 92.9 294 
 PTB  HN ES   2    323 13.39                             137    0.04 5 92.9 294 
 PTB  HZ I         323 14.73         1.4 0.18            145           92.9 294 
 BRR  HZ EP   2    322 58.95                             135   -0.02 5  101 359 
 BRR  HN ES   4    323 19.22                             135    4.68 0  101 359 
                                                                                
