 2010  2 1 0444 41.8 L   6.697 -72.886145.9  RSN  7 0.4 2.1LRSN                1
 GAP=233        0.77       5.4    12.1  6.6 -0.2443E+02  0.1460E+02  0.9777E+01E
 Epicentro: MOLAGAVITA - SANTANDER                                             3
 ACTION:UP  10-08-24 09:47 OP:vdl  STATUS:               ID:20100201044441 L   I
 2010-02-01-0439-40S.COL___094                                                 6
 STAT SP IPHASW D HRMM SECON CODA AMPLIT PERI AZIMU VELO SNR AR TRES W  DIS CAZ7
 BAR2 SZ IP        445  1.41                             166    -0.310   35 251 
 BAR2 SZ ES   1    445 16.73                             166    -0.6 7   35 251 
 GIR2 SZ EP        445  2.51                             159     0.210   54 321 
 GIR2 SZ ES   2    445 18.82                             159     0.5 5   54 321 
 RUS  BZ EP        445  5.29                             146     0.310   92 194 
 RUS  BE ES   1    445 23.09                             146     0.1 7   92 194 
 RUS  BZ I         445 25.32         7.4 0.25                            92 194 
 CHI  HZ EP        445 19.31                             117     0.0 8  247 202 
 CHI  HE ES   1    445 48.73                             117     0.1 6  247 202 
 CHI  HZ I         445 52.40         4.9 0.39                           247 202 
 ROSC BZ EP   1    445 20.94                             116     0.3 6  260 218 
 ROSC BZ I         445 59.56         9.5 0.45                           260 218 
 RREF BZ EP   1    445 29.51                             110    -0.2 5  337 234 
 RREF BN ES   2    446  7.94                             110     0.8 3  337 234 
 RREF BZ I         446 11.03         6.6 0.26                           337 234 
 PRA  HZ EP   1    445 35.23                             106    -0.7 4  397 214 
 PRA  HE ES   1    446 18.06                             106    -0.2 4  397 214 
 PRA  HZ I         446 23.13         6.2 0.27                           397 214 
                                                                                
