 2016  5 1 0151 44.4 L   6.824 -73.143134.0  RSN  5 0.4 1.6LRSN                1
 GAP=143        0.58       5.5     6.8  7.8 -0.2560E+02  0.2201E+02  0.2386E+01E
 Epicentro: LOS SANTOS - SANTANDER                                             3
 ACTION:UPD 16-08-18 17:40 OP:cam  STATUS:               ID:20160501015144 L   I
 OLDACT:UP  16-05-01 15:16 OP:dnl  STATUS:               ID:20160501014748d    3
 OLDACT:DUP 16-05-01 15:10 OP:dnl  STATUS:               ID:20160501014748d    3
 2016-05-01-0147-47M.COL___299                                                 6
 STAT SP IPHASW D HRMM SECON CODA AMPLIT PERI AZIMU VELO AIN AR TRES W  DIS CAZ7
 BAR2 EZ EP   2    152  2.94                             169    0.23 5 26.0 190 
 BAR2 EZ ES   2    152 16.70                             169   -0.26 5 26.0 190 
 BAR2 EZ I         152 20.65        11.6 0.26            168           26.0 190 
 PAM  EZ EP   3    152  5.87                             150    0.61 2 75.1  41 
 PAM  EN ES        152 21.46                             150   -0.0510 75.1  41 
 PAM  EZ I         152 25.12         4.0 0.56            156           75.1  41 
 RUS  HZ EP   3    152  7.71                             141    0.47 2  103 176 
 RUS  HE ES   2    152 25.76                             141    0.72 5  103 176 
 RUS  HZ I         152 26.78         4.2 0.34            147            103 176 
 PTB  HZ EP   2    152 10.46                             129   -0.08 5  149 258 
 PTB  HE ES   2    152 31.70                             129    0.79 5  149 258 
 PTB  HZ I         152 36.07         6.0 0.18            132            149 258 
 SPBC HZ EP        152 12.01                             126   -0.27 9  165 218 
 SPBC HE ES        152 33.85                             126   -0.15 9  165 218 
 SPBC HZ I         152 39.63         8.0 0.24            130            165 218 
                                                                                
