 2015  2 1 0547 28.3 L   6.783 -73.093147.1  RSN  7 0.4 1.5LRSN                1
 GAP=188        0.80       3.1     5.8  7.0  0.1075E+01  0.3703E+01 -0.4819E+01E
 Epicentro: LOS SANTOS - SANTANDER                                             3
 ACTION:UPD 15-04-30 21:20 OP:nd   STATUS:               ID:20150201054728 L   I
 OLDACT:DUP 15-02-01 15:50 OP:spq  STATUS:               ID:20150201053746d    3
 2015-02-01-0537-45M.COL___261                                                 6
 STAT SP IPHASW D HRMM SECON CODA AMPLIT PERI AZIMU VELO AIN AR TRES W  DIS CAZ7
 BAR2 EZ EP        547 48.27                             171    0.1310 23.3 205 
 BAR2 EZ ES   1    548  3.04                             171   -0.53 7 23.3 205 
 BAR2 EZ I         548  4.30         5.3 0.20            169           23.3 205 
 BRR  HZ EP        547 50.09                             151    0.1010 77.2 298 
 BRR  HN ES        548  7.47                             151    0.6010 77.2 298 
 BRR  HZ I         548  9.11         5.2 0.11            147           77.2 298 
 RUS  HE ES   1    548 10.28                             145   -0.31 7 98.5 179 
 RUS  HZ I         548 11.90         3.1 0.25            146           98.5 179 
 OCA  HZ EP   2    547 57.31                             129    0.30 5  163 351 
 OCA  HN ES        548 19.22                             129   -0.14 9  163 351 
 OCA  HZ I         548 27.22         3.0 0.20            129            163 351 
 SPBC HZ EP   1    547 57.50                             129    0.33 7  165 221 
 SPBC HN ES        548 19.68                             129    0.04 9  165 221 
 SPBC HZ I         548 25.97         4.5 0.12            129            165 221 
 ZAR  HE ES        548 26.79                             122   -0.58 8  210 292 
 ZAR  HZ I         548 33.41         4.2 0.24            121            210 292 
 SML  HZ EP   1    548  5.07                             117   -0.43 6  248 334 
 SML  HE ES   1    548 34.68                             117    0.20 6  248 334 
 SML  HZ I         548 37.99         6.0 0.10            117            248 334 
                                                                                
