 2017  1 1 0746 53.4 L   6.746 -73.191146.2  RSN  5 0.5 1.3LRSN                1
 GAP=228        1.12       8.7     8.1  8.9  0.3768E+02  0.1577E+02 -0.1169E+02E
 Epicentro: VILLANUEVA - SANTANDER                                             3
 ACTION:UPD 17-05-22 15:54 OP:jn   STATUS:               ID:20170101074653 L   I
 OLDACT:DUP 17-01-01 17:54 OP:ndl  STATUS:               ID:20170101073746d    3
 OLDACT:DUP 17-01-01 17:49 OP:ndl  STATUS:               ID:20170101073745d    3
 OLDACT:REG 17-01-01 13:50 OP:dnl  STATUS:               ID:20170101073743     3
 2017-01-01-0738-00M.COL___372                                                 6
 STAT SP IPHASW D HRMM SECON CODA AMPLIT PERI AZIMU VELO AIN AR TRES W  DIS CAZ7
 BAR2 EZ EP        747 12.89                             173   -0.0710 17.0 177 
 BAR2 EZ ES        747 27.35                             173   -0.8810 17.0 177 
 BAR2 EZ I         747 28.85         5.8 0.44            166           17.0 177 
 BRR  HZ EP        747 14.71                             153    0.1810 70.1 305 
 BRR  HE ES        747 31.57                             153    0.5610 70.1 305 
 BRR  HZ I         747 32.03         4.8 0.12            150           70.1 305 
 RUS  HZ EP   3    747 17.79                             145    0.99 2 95.1 173 
 RUS  HN ES        747 35.64                             145    0.5910 95.1 173 
 RUS  HZ I         747 37.31         2.8 0.36            143           95.1 173 
 PTB  HZ EP        747 19.61                             133   -0.25 9  142 261 
 PTB  HE ES        747 40.23                             133   -0.27 9  142 261 
 PTB  HZ I         747 46.07         1.8 0.28            130            142 261 
 ZAR  HZ EP        747 25.37                             123   -0.26 9  202 294 
 ZAR  HN ES        747 51.08                             123    0.29 9  202 294 
 ZAR  HZ I         747 56.38         2.7 0.36            122            202 294 
                                                                                
