 2017 12 1 0632 39.9 L   6.804 -73.133133.9  RSN 15 0.6 1.8LRSN                1
 GAP=113        1.34       3.3     4.0  6.9 -0.8878E+00  0.1027E+02  0.3250E+01E
 Epicentro: LOS SANTOS - SANTANDER                                             3
 ACTION:UPD 18-01-04 13:16 OP:rebc STATUS:               ID:20171201063239 L   I
 OLDACT:REG 17-12-01 12:52 OP:dhb  STATUS:               ID:20171201062741     3
 2017-12-01-0628-00M.COL___489                                                 6
 STAT SP IPHASW D HRMM SECON CODA AMPLIT PERI AZIMU VELO AIN AR TRES W  DIS CAZ7
 BAR2 EZ IP     C  632 58.07                             169   -0.0810 24.0 193 
 BAR2 EZ ES        633 11.73                             169   -0.6310 24.0 193 
 BAR2 EZ I         633 14.53        17.6 0.18            168           24.0 193 
 PAM  HZ IP     C  633  1.03                             149    0.2110 76.2  39 
 PAM  EE ES        633 17.76                             149    0.6410 76.2  39 
 PAM  HZ I         633 20.03        10.2 0.48            153           76.2  39 
 RUS  HZ EP        633  2.07                             141   -0.4910  101 177 
 RUS  HN ES        633 20.43                             141    0.2210  101 177 
 RUS  HZ I         633 22.52         9.3 0.28            143            101 177 
 PTB  HZ EP        633  5.67                             129   -0.42 9  149 259 
 PTB  HN ES        633 26.60                             129    0.10 9  149 259 
 PTB  HZ I         633 27.33         4.8 0.32            129            149 259 
 OCA  HZ EP        633  8.06                             127    0.73 9  160 353 
 OCA  HN ES        633 29.08                             127    0.39 9  160 353 
 OCA  HZ I         633 32.59        24.4 0.24            129            160 353 
 SPBC HZ EP        633  7.04                             126   -0.62 9  164 219 
 SPBC HN ES        633 29.53                             126    0.24 9  164 219 
 SPBC HZ I         633 34.08        11.1 0.26            127            164 219 
 YPLC HZ IP     C  633  8.57                             124   -0.29 9  177 152 
 YPLC HE ES        633 31.23                             124   -0.20 9  177 152 
 YPLC HZ I         633 33.33         3.7 0.32            127            177 152 
 ZAR  HZ EP        633 11.49                             119   -0.26 9  205 292 
 ZAR  HN ES        633 35.47                             119   -1.10 9  205 292 
 ZAR  HZ I         633 42.21         8.3 0.36            121            205 292 
 NOR  HZ EP        633 14.13                             116   -1.02 8  236 235 
 NOR  HN ES        633 42.05                             116   -0.57 8  236 235 
 NOR  HZ I         633 47.18         6.0 0.18            117            236 235 
 CHI  HZ EP        633 16.45                             114   -0.63 8  249 195 
 CHI  HN ES        633 45.98                             114   -0.08 8  249 195 
 CHI  HZ I         633 52.76         3.8 0.48            116            249 195 
 ROSC BZ EP        633 18.76                             114    1.21 8  254 211 
 ROSC BE ES        633 47.86                             114    0.97 8  254 211 
 ROSC BZ I         633 52.32         6.8 0.70            115            254 211 
 HEL  HZ EP        633 19.61                             112   -0.12 8  273 256 
 HEL  HN ES        633 50.71                             112   -0.06 8  273 256 
 HEL  HZ I         633 57.24         4.6 0.52            113            273 256 
 GUY2CHZ EP        633 23.58                             110    0.41 7  303 235 
 GUY2CHE ES        633 57.97                             110    1.07 7  303 235 
 GUY2CHZ I         634  5.91         3.2 0.60                           303 235 
 CBOC HZ EP        633 26.83                             107    0.28 7  335 252 
 CBOC HE ES        634  3.63                             107    0.73 7  335 252 
 CBOC HZ I         634 14.99         1.2 0.58            109            335 252 
 PRA  HZ EP        633 32.87                             104   -0.32 6  393 210 
 PRA  HE ES        634 15.65                             104    0.92 6  393 210 
 PRA  HZ I         634 20.26         4.4 0.24            106            393 210 
                                                                                
