 2014  9 1 0853 55.3 L   6.851 -73.340124.9  RSN  4 0.5 1.1LRSN                1
 GAP=275        1.03       7.1     9.4 10.9 -0.1964E+02 -0.1583E+02 -0.2111E+02E
 Epicentro: BETULIA - SANTANDER                                                3
 ACTION:UPD 14-10-03 23:01 OP:nd   STATUS:               ID:20140901085355 L   I
 OLDACT:DUP 14-09-01 18:16 OP:mh   STATUS:               ID:20140901085001d    3
 2014-09-01-0850-00M.COL___282                                                 6
 STAT SP IPHASW D HRMM SECON CODA AMPLIT PERI AZIMU VELO AIN AR TRES W  DIS CAZ7
 BRR  HZ EP        854 13.60                             157    0.5310 50.0 305 
 BRR  HN ES   1    854 26.82                             157   -0.08 7 50.0 305 
 BRR  HZ I         854 28.65         3.1 0.27            149           50.0 305 
 PTB  HZ EP   1    854 17.91                             131   -0.92 7  128 254 
 PTB  HN ES        854 36.90                             131   -0.2510  128 254 
 PTB  HZ I         854 39.00         1.5 0.09            131            128 254 
 ZAR  HZ EP        854 24.65                             121    0.48 9  182 293 
 ZAR  HE ES        854 46.98                             121    0.32 9  182 293 
 ZAR  HZ I         854 50.22         2.1 0.17            119            182 293 
 SML  HZ EP        854 29.27                             114   -0.11 8  230 340 
 SML  HN ES        854 55.45                             114   -0.48 8  230 340 
 SML  HZ I         855  5.63         1.2 0.09            113            230 340 
                                                                                
