 2015  9 1 0056 55.5 L   6.734 -73.289121.7  RSN  4 0.3 2.1LRSN                1
 GAP=145        0.88       4.9    11.2  7.3  0.2511E+02 -0.2467E+02 -0.9608E+01E
 Epicentro: ZAPATOCA - SANTANDER                                               3
 ACTION:UPD 15-10-28 16:23 OP:cam  STATUS:               ID:20150901005655 L   I
 OLDACT:DUP 15-09-01 14:38 OP:stll STATUS:               ID:20150901004750d    3
 2015-09-01-0047-48M.COL___364                                                 6
 STAT SP IPHASW D HRMM SECON CODA AMPLIT PERI AZIMU VELO AIN AR TRES W  DIS CAZ7
 BAR2 EZ EP        057 12.35                             170    0.2110 19.6 143 
 BAR2 EZ ES        057 25.25                             170    0.1210 19.6 143 
 BAR2 EZ I         057 26.83        37.8 0.44            170           19.6 143 
 BRR  HZ EP        057 13.37                             151   -0.1610 62.4 311 
 BRR  HN ES        057 27.69                             151    0.0710 62.4 311 
 BRR  HZ I         057 28.91        13.9 0.32            153           62.4 311 
 RUS  HZ EP        057 16.20                             140   -0.3610 95.8 166 
 OCA  HZ EP        057 23.31                             122    0.64 9  166 359 
 OCA  HN ES        057 43.38                             122   -0.50 9  166 359 
 OCA  HZ I         057 47.57        24.6 0.22            123            166 359 
                                                                                
