 2014  1 1 0506  1.6 L   6.774 -73.156143.8  RSN  6 0.5 1.5LRSN                1
 GAP=234        1.15       5.7     7.2  7.8  0.9071E+01  0.6269E+01  0.1109E+02E
 Epicentro: LOS SANTOS - SANTANDER                                             3
 ACTION:UPD 14-03-13 09:50 OP:ep   STATUS:               ID:20140101050601 L   I
 OLDACT:REG 14-01-01 09:26 OP:stll STATUS:               ID:20140101045809     3
 2014-01-01-0458-09M.COL___231                                                 6
 STAT SP IPHASW D HRMM SECON CODA AMPLIT PERI AZIMU VELO AIN AR TRES W  DIS CAZ7
 BAR2 SZ EP        5 6 21.22                             172    0.2710 20.3 188 
 BAR2 SZ ES        5 6 35.62                             172   -0.4110 20.3 188 
 BAR2 SZ I         5 6 37.55        11.2 0.18            169           20.3 188 
 BRR  HZ EP        5 6 22.78                             152    0.2110 71.6 301 
 BRR  HN ES        5 6 39.63                             152    0.7110 71.6 301 
 BRR  HZ I         5 6 44.17         5.4 0.18            150           71.6 301 
 RUS  HZ EP        5 6 24.84                             144   -0.1310 97.8 175 
 RUS  HN ES        5 6 42.87                             144   -0.3210 97.8 175 
 RUS  HZ I         5 6 44.76         3.1 0.36            145           97.8 175 
 PTB  HZ EP        5 6 27.41                             132   -0.86 9  146 260 
 PTB  HN ES        5 6 48.50                             132   -0.56 9  146 260 
 PTB  HZ I         5 6 52.23         3.9 0.16            131            146 260 
 SPBC HZ EP        5 6 30.01                             129    0.33 9  160 219 
 SPBC HN ES        5 6 52.03                             129    0.46 9  160 219 
 SPBC HZ I         5 6 57.14        10.1 0.76            129            160 219 
 CHI  HZ EP        5 6 38.91                             117    0.04 8  246 195 
 CHI  HZ I         5 6 41.78         1.8 0.22            118            246 195 
 CHI  HN ES        5 7  8.30                             117    0.37 8  246 195 
                                                                                
