 2017 10 1 0405 48.5 L   6.778 -73.105139.2  RSN  8 0.3 1.5LRSN                1
 GAP=143        0.69       2.7     3.6  4.9 -0.1120E+01  0.8563E+01  0.1237E+01E
 Epicentro: LOS SANTOS - SANTANDER                                             3
 ACTION:UPD 17-11-07 19:27 OP:rebc STATUS:               ID:20171001040548 L   I
 OLDACT:REG 17-10-01 13:08 OP:osc  STATUS:               ID:20171001035740     3
 2017-10-01-0358-00M.COL___414                                                 6
 STAT SP IPHASW D HRMM SECON CODA AMPLIT PERI AZIMU VELO AIN AR TRES W  DIS CAZ7
 BAR2 EZ EP        4 6  7.26                             170   -0.0610 22.3 203 
 BAR2 EZ ES        4 6 21.58                             170   -0.4210 22.3 203 
 BAR2 EZ I         4 6 23.26        10.5 0.26            170           22.3 203 
 PAM  EZ EP        4 6 10.03                             150    0.0610 76.6  36 
 PAM  EE ES        4 6 26.86                             150    0.1410 76.6  36 
 PAM  EZ I         4 6 29.34         8.1 0.36            152           76.6  36 
 RUS  HZ EP        4 6 11.51                             143    0.0910 98.0 179 
 RUS  HE ES        4 6 29.68                             143    0.3910 98.0 179 
 RUS  HZ I         4 6 30.44         2.9 0.24            146           98.0 179 
 SPBC HN ES   2    4 6 37.51                             127   -1.01 5  164 221 
 ZAR  HZ EP        4 6 20.94                             120   -0.13 8  209 292 
 ZAR  HN ES        4 6 46.60                             120    0.14 8  209 292 
 ZAR  HZ I         4 6 54.06         4.9 0.30            120            209 292 
 NOR  HN ES   2    4 6 52.67                             117    0.79 4  237 236 
 CHI  HZ EP        4 6 25.24                             116   -0.49 8  248 196 
 CHI  HN ES        4 6 54.84                             116    0.08 8  248 196 
 CHI  HZ I         4 6 57.81         1.5 0.30            118            248 196 
 GUY2CHZ EP        4 6 32.15                             111    0.07 7  303 236 
 GUY2CHN ES        4 7  6.26                             111    0.19 7  303 236 
 GUY2CHZ I         4 7 10.65         1.0 0.52                           303 236 
                                                                                
