 2016  8 1 0405 16.4 L   5.901 -73.626125.6  RSN 10 0.3 1.8LRSN                1
 GAP=119        0.63       2.1     2.1  3.8 -0.1456E+01  0.3246E+01 -0.1206E+00E
 Epicentro: BARBOSA - SANTANDER                                                3
 ACTION:UPD 16-10-29 15:31 OP:rebc STATUS:               ID:20160801040516 L   I
 OLDACT:REG 16-08-01 14:31 OP:edw  STATUS:               ID:20160801035734     3
 2016-08-01-0358-00M.COL___350                                                 6
 STAT SP IPHASW D HRMM SECON CODA AMPLIT PERI AZIMU VELO AIN AR TRES W  DIS CAZ7
 SPBC HZ EP        4 5 34.38                             154   -0.2710 56.5 241 
 SPBC HN ES        4 5 48.77                             154   -0.1310 56.5 241 
 SPBC HZ I         4 5 49.53        24.5 0.20                          56.5 241 
 RUS  HZ EP        4 5 35.48                             153    0.0510 60.2  91 
 RUS  HN ES        4 5 50.11                             153   -0.1810 60.2  91 
 RUS  HZ I         4 5 50.86        12.8 0.30                          60.2  91 
 BAR2 HZ EP        4 5 36.98                             142   -0.1010 90.8  33 
 BAR2 HZ ES        4 5 53.40                             142    0.1610 90.8  33 
 BRR  HZ EP        4 5 40.42                             130    0.0210  134 356 
 BRR  HN ES        4 5 59.37                             130    0.2210  134 356 
 NOR  HZ EP        4 5 41.45                             128    0.12 9  143 255 
 NOR  HN ES        4 6  1.21                             128    0.42 9  143 255 
 NOR  HZ I         4 6  4.31        14.9 0.40                           143 255 
 GUY2CHZ EP        4 5 48.69                             117    0.22 8  207 249 
 GUY2CHN ES        4 6 13.34                             117   -0.17 8  207 249 
 GUY2CHZ I         4 6 20.88         4.0 0.41                           207 249 
 HEL  HN ES        4 6 14.66                             117    0.17 8  213 279 
 ZAR  HZ EP        4 5 49.35                             115   -0.25 8  222 322 
 ZAR  HN ES        4 6 15.37                             115   -0.15 8  222 322 
 ZAR  HZ I         4 6 20.51         6.2 0.24                           222 322 
 CBOC HZ EP        4 5 54.95                             111    0.46 8  264 269 
 CBOC HN ES        4 6 23.58                             111   -0.65 8  264 269 
 CBOC HZ I         4 6 26.88         1.7 0.16                           264 269 
 PRA  HZ EP        4 5 55.80                             110   -0.26 7  279 210 
 PRA  HN ES        4 6 27.26                             110    0.25 7  279 210 
 PRA  HZ I         4 6 33.40         4.9 0.56                           279 210 
                                                                                
