 2011  7 1 0104 32.1 L   6.793 -72.997146.7  RSN  4 0.2 1.5LRSN                1
 GAP=250        0.46       8.8    22.1  6.9  0.1419E+03 -0.4721E+02 -0.2690E+02E
 Epicentro: CEPITA - SANTANDER                                                 3
 ACTION:UPD 12-07-25 13:57 OP:epov STATUS:               ID:20110701010432 L   I
 2011-07-01-0102-47S.COL___140                                                 6
 STAT SP IPHASW D HRMM SECON CODA AMPLIT PERI AZIMU VELO AIN AR TRES W  DIS CAZ7
 BAR2 SZ EP   1    1 4 51.60                             168   -0.39 7 30.1 223 
 BAR2 SZ I         1 4 52.32         4.6 0.09                          30.1 223 
 BAR2 SZ ES   1    1 5  7.51                             168    0.00 7 30.1 223 
 BTL  SZ EP        1 4 52.24                             167    0.1710 33.0 295 
 BRR  HZ EP   1    1 4 54.23                             148   -0.03 7 86.3 294 
 BRR  HZ I         1 4 58.72        13.9 0.18                          86.3 294 
 RUS  HZ EP   1    1 4 56.01                             144    0.12 7100.0 185 
 RUS  HZ I         1 4 57.18         2.3 0.19                         100.0 185 
 RUS  HN ES   2    1 5 14.46                             144    0.00 5100.0 185 
                                                                                
