 2017 12 1 0600 36.3 L   6.515 -73.541 20.7  RSN  4 0.6 0.8LRSN                1
 GAP=134        1.42       5.5     3.2  7.4  0.3407E+00 -0.1038E+01 -0.2171E+02E
 Epicentro: EL CARMEN - SANTANDER                                              3
 ACTION:UPD 18-01-04 13:15 OP:rebc STATUS:               ID:20171201060036 L   I
 OLDACT:REG 17-12-01 12:49 OP:dhb  STATUS:               ID:20171201055740     3
 2017-12-01-0558-00M.COL___492                                                 6
 STAT SP IPHASW D HRMM SECON CODA AMPLIT PERI AZIMU VELO AIN AR TRES W  DIS CAZ7
 BAR2 EZ EP        6 0 43.99                             115    0.0810 40.6  78 
 BAR2 EZ ES        6 0 49.70                             115   -0.1110 40.6  78 
 BAR2 EZ I         6 0 52.59         5.1 0.76            115           40.6  78 
 RUS  HZ EP        6 0 50.56                             102   -0.1110 85.5 144 
 RUS  HE ES        6 1  1.74                             102   -0.1010 85.5 144 
 RUS  HZ I         6 1  2.66         1.6 0.24             94           85.5 144 
 PTB  HZ EP        6 0 53.43                             100    0.9210  101 272 
 PTB  HE ES        6 1  4.33                             100   -0.7910  101 272 
 PTB  HZ I         6 1  5.09         3.1 0.30             61            101 272 
 PAM  EZ EP        6 0 57.77                              56    0.7410  130  46 
 PAM  EE ES        6 1 12.55                              56   -0.6210  130  46 
 PAM  EZ I         6 1 13.11         2.6 0.26             61            130  46 
                                                                                
