 2013  1 1 0735 29.4 L   6.750 -73.175141.3  RSN  5 0.4 1.5LRSN                1
 GAP=230        0.97       7.3     6.7  7.7  0.3055E+02  0.8576E+01  0.9910E+00E
 Epicentro: VILLANUEVA - SANTANDER                                             3
 ACTION:UPD 13-02-15 09:11 OP:ep   STATUS:               ID:20130101073529 L   I
 2013-01-01-0730-00M.COL___242                                                 6
 STAT SP IPHASW D HRMM SECON CODA AMPLIT PERI AZIMU VELO AIN AR TRES W  DIS CAZ7
 BAR2 SZ EP        735 48.17                             173   -0.2410 17.4 183 
 BAR2 SZ I         735 48.52         7.5 0.36            169           17.4 183 
 BAR2 SZ ES        736  2.64                             173   -0.5710 17.4 183 
 BRR  HZ EP        735 50.18                             152    0.0810 71.3 304 
 BRR  HN ES        736  6.63                             152    0.4110 71.3 304 
 BRR  HN I         736 10.54         6.1 0.14            151           71.3 304 
 RUS  HZ EP        735 52.31                             144   -0.0510 95.3 174 
 RUS  HN ES        736 10.85                             144    0.6110 95.3 174 
 RUS  HN I         736 12.29         3.9 0.30            145           95.3 174 
 PTB  HZ EP        735 55.56                             132   -0.09 9  144 261 
 PTB  HN ES        736 15.68                             132   -0.43 9  144 261 
 PTB  HN I         736 21.64         5.3 0.26            132            144 261 
 ZAR  HN ES        736 26.83                             121    0.31 9  203 294 
                                                                                
