 2012  2 1 0753 35.9 L   6.750 -73.150141.3  RSN 10 0.4 1.9LRSN                1
 GAP=138        0.90       3.7     4.6  6.9 -0.7773E+00  0.7693E+01  0.1100E+01E
 ACTION:UP  12-03-07 16:26 OP:epov STATUS:               ID:20120201075335 L   I
 2012-02-01-0750-00M.COL___188                                                 6
 STAT SP IPHASW D HRMM SECON CODA AMPLIT PERI AZIMU VELO SNR AR TRES W  DIS CAZ7
 BAR2 SZ EP   1    753 55.34                             172    0.41 7 17.8 192 
 BAR2 SZ ES   1    754  9.05                             172   -0.69 7 17.8 192 
 BAR2 SZ I         754 12.67        21.0 0.28                          17.8 192 
 GIR2 SZ EP   1    753 55.42                             165    0.18 7 36.7 353 
 BRR  HZ EP        753 57.33                             151    0.5810 73.6 303 
 BRR  HN ES   1    754 13.60                             151    0.62 7 73.6 303 
 BRR  HZ I         754 15.55        31.0 0.18                          73.6 303 
 PAM  SZ EP   1    753 57.99                             148    0.02 7 82.0  37 
 PAM  SZ I         753 58.58        10.3 0.16                          82.0  37 
 PAM  SN ES   1    754 14.88                             148   -0.28 7 82.0  37 
 RUS  HZ EP   1    753 58.16                             144   -0.70 7 95.1 176 
 RUS  HN ES   1    754 17.29                             144    0.56 7 95.1 176 
 RUS  HZ I         754 19.54         8.2 0.42                          95.1 176 
 PTB  HZ EP   1    754  2.01                             131   -0.40 7  146 261 
 PTB  HN ES   1    754 22.91                             131   -0.15 7  146 261 
 PTB  HZ I         754 27.44                                            146 261 
 OCA  SZ EP   1    754  3.96                             128   -0.47 7  166 354 
 OCA  SZ ES   1    754 26.50                             128   -0.15 7  166 354 
 OCA  SZ I         754 29.12        14.2 0.25                           166 354 
 ZAR  HZ EP   1    754  8.59                             121    0.31 6  206 294 
 ZAR  HN ES   1    754 32.97                             121   -0.53 6  206 294 
 ZAR  HZ I         754 36.60        10.0 0.24                           206 294 
 CHI  HZ EP   1    754 13.24                             117    0.44 6  243 195 
 CHI  HN ES   1    754 41.11                             117   -0.43 6  243 195 
 CHI  HZ I         754 50.06         2.3 0.32                           243 195 
 HEL  HN ES   1    754 46.76                             114    0.00 6  270 257 
 HEL  HZ I         754 54.69         4.0 0.22                           270 257 
                                                                                
