 2014 12 1 0555 55.4 L   6.787 -73.145147.8  RSN  7 0.2 1.7LRSN                1
 GAP=183        0.67       2.4     3.4  4.3  0.7702E+00  0.1515E+01 -0.1492E+01E
 Epicentro: LOS SANTOS - SANTANDER                                             3
 ACTION:UPD 15-02-10 16:59 OP:nd   STATUS:               ID:20141201055555 L   I
 OLDACT:DUP 14-12-01 14:23 OP:carl STATUS:               ID:20141201054750d    3
 2014-12-01-0547-48M.COL___300                                                 6
 STAT SP IPHASW D HRMM SECON CODA AMPLIT PERI AZIMU VELO AIN AR TRES W  DIS CAZ7
 BAR2 SZ EP        556 15.31                             171    0.0310 21.9 191 
 BAR2 SZ ES        556 30.59                             171   -0.1710 21.9 191 
 BAR2 SZ I         556 31.55        18.5 0.22            166           21.9 191 
 BRR  HZ EP        556 17.14                             153    0.2910 72.0 299 
 BRR  HN ES        556 34.17                             153    0.6310 72.0 299 
 BRR  HZ I         556 35.03         8.3 0.14            148           72.0 299 
 RUS  HZ EP        556 19.38                             145    0.1010 99.2 176 
 RUS  HN ES        556 37.78                             145   -0.1110 99.2 176 
 RUS  HZ I         556 39.78         2.9 0.40            144           99.2 176 
 PTB  HZ EP        556 22.60                             132    0.05 9  148 259 
 PTB  HN ES        556 43.37                             132   -0.33 9  148 259 
 PTB  HZ I         556 48.88         6.3 0.30            129            148 259 
 SPBC HZ EP        556 24.05                             130    0.06 9  162 219 
 SPBC HN ES        556 46.14                             130   -0.12 9  162 219 
 SPBC HZ I         556 52.36         7.4 0.20            128            162 219 
 OCA  HZ EP        556 23.99                             130   -0.05 9  162 353 
 OCA  HN ES        556 45.92                             130   -0.42 9  162 353 
 ZAR  HZ EP        556 28.04                             123   -0.04 9  205 293 
 ZAR  HN ES        556 53.46                             123   -0.07 9  205 293 
 ZAR  HZ I         557  2.31         5.6 0.36            121            205 293 
                                                                                
