 2012  3 1 0433 40.2 L   6.786 -73.148143.1  RSN  4 0.4 1.4LRSN                1
 GAP=137        0.80       5.8     5.5  9.4 -0.2953E+01 -0.3320E+00  0.5399E+01E
 ACTION:UP  12-03-31 23:16 OP:EP   STATUS:               ID:20120301043340 L   I
 2012-03-01-0430-00M.COL___191                                                 6
 STAT SP IPHASW D HRMM SECON CODA AMPLIT PERI AZIMU VELO SNR AR TRES W  DIS CAZ7
 BRR  HZ EP        434  1.39                             152     0.310   72 300 
 BRR  HE ES        434 17.78                             152     0.310   72 300 
 BRR  HZ I         434 19.31         4.8 0.12                            72 300 
 PAM  SZ EP   1    434  2.33                             150     0.1 7   79  39 
 PAM  SE ES   1    434 18.90                             150    -0.5 7   79  39 
 RUS  HZ EP   2    434  3.54                             144    -0.1 5   99 176 
 RUS  HN ES   1    434 22.00                             144     0.1 7   99 176 
 PTB  HZ EP   2    434  6.65                             131    -0.3 5  147 259 
 PTB  HN ES   1    434 27.07                             131    -0.7 7  147 259 
                                                                                
