 2010  5 1 0841 52.9 L   6.685 -73.054149.4  RSN  5 0.3 1.4LRSN                1
 GAP=220        0.61       7.2     8.8  7.2 -0.2298E+02 -0.2109E+02 -0.1033E+02E
 Epicentro: ARATOCA - SANTANDER                                                3
 ACTION:UP  10-08-24 10:02 OP:vdl  STATUS:               ID:20100501084152 L   I
 2010-05-01-0839-02S.COL___105                                                 6
 STAT SP IPHASW D HRMM SECON CODA AMPLIT PERI AZIMU VELO SNR AR TRES W  DIS CAZ7
 BAR2 SZ EP   2    842 12.99                             173     0.1 5   18 234 
 BAR2 SZ ES   1    842 28.39                             173     0.0 8   18 234 
 BRR  HZ EP   1    842 15.48                             148     0.1 8   86 303 
 BRR  HE ES   1    842 32.80                             148     0.0 8   86 303 
 BRR  HZ I         842 34.30         4.2 0.11                            86 303 
 BRI  SZ EP   2    842 17.51                             140    -0.3 5  118  14 
 GUE  SZ EP        842 18.44                             137    -0.410  127   6 
 GRA  SZ EP   1    842 19.82                             136     0.6 7  136  12 
 GRA  SZ ES   1    842 39.96                             136     0.1 7  136  12 
                                                                                
