 2011  4 1 0605 22.1 L   6.786 -73.132144.9  RSN 14 0.5 2.3LRSN                1
 GAP=116        1.04       3.7     4.8  6.6 -0.1984E+01  0.6580E+01  0.9003E+01E
 Epicentro: LOS SANTOS - SANTANDER                                             3
 ACTION:UP  11-06-22 15:27 OP:REBC STATUS:               ID:20110401060522 L   I
 2011-04-01-0600-00M.COL___139                                                 6
 STAT SP IPHASW D HRMM SECON CODA AMPLIT PERI AZIMU VELO SNR AR TRES W  DIS CAZ7
 BTL  SZ IP        6 5 41.72                             171     0.110   21 314 
 BAR2 SZ IP        6 5 41.34                             171    -0.310   22 195 
 BAR2 SZ I         6 5 41.70        75.6 0.16                            22 195 
 BAR2 SZ ES   1    6 5 56.53                             171    -0.3 7   22 195 
 GIR2 SZ IP        6 5 41.63                             166    -0.110   33 348 
 GIR2 SZ ES   1    6 5 57.41                             166     0.4 7   33 348 
 BRR  HZ IP     D  6 5 43.23                             152    -0.110   73 299 
 BRR  HN ES   1    6 6  0.56                             152     0.8 7   73 299 
 BRR  HZ I         6 6  2.27        59.7 0.14                            73 299 
 PAM  SZ EP        6 5 44.29                             151     0.010   78  38 
 PAM  SN ES   1    6 6  1.56                             151     0.1 7   78  38 
 PAM  SZ I         6 6  3.64        10.3 0.00                            78  38 
 GRA  SZ IP        6 5 47.16                             136    -0.210  127  17 
 GRA  SZ ES   1    6 6  6.63                             136    -0.4 7  127  17 
 OCA  SZ EP   2    6 5 50.39                             129    -0.1 5  162 353 
 OCA  SZ ES   2    6 6 12.71                             129     0.0 5  162 353 
 OCA  SZ I         6 6 18.37        20.6 0.33                           162 353 
 YOP  SZ EP        6 5 51.82                             126    -0.1 9  177 154 
 YOP  SN ES        6 6 15.09                             126     0.0 9  177 154 
 NOR  SN ES   1    6 6 25.15                             118    -0.5 6  235 235 
 CHI  HZ EP        6 5 59.50                             117    -0.1 8  248 196 
 CHI  HN ES   1    6 6 29.15                             117     0.2 6  248 196 
 CHI  HZ I         6 6 38.17        13.5 0.55                           248 196 
 HEL  HZ EP        6 6  3.00                             114     0.6 8  273 256 
 HEL  HN ES   1    6 6 32.25                             114    -1.6 6  273 256 
 HEL  HZ I         6 6 40.06         9.4 0.00                           273 256 
 VIL  SN ES   3    6 6 39.06                             112     0.0 2  302 192 
 RREF HZ EP        6 6  9.56                             111     1.3 7  322 230 
 PRA  HZ EP        6 6 15.47                             106    -0.1 6  391 210 
 PRA  HN ES   1    6 6 57.18                             106     0.0 4  391 210 
 PRA  HZ I         6 7  0.12        22.6 0.38                           391 210 
                                                                                
