 2017  3 1 0107  6.9 L   6.788 -73.141140.0  RSN 11 0.5 1.8LRSN                1
 GAP= 99        1.08       4.8     4.2  6.6  0.1761E+01  0.2050E+01  0.3556E+01E
 Epicentro: LOS SANTOS - SANTANDER                                             3
 ACTION:UPD 17-05-25 18:34 OP:jn   STATUS:               ID:20170301010706 L   I
 OLDACT:UP  17-03-01 13:30 OP:and  STATUS:               ID:20170301005743     3
 OLDACT:UP  17-03-01 13:30 OP:and  STATUS:               ID:20170301005743     3
 OLDACT:UP  17-03-01 13:28 OP:and  STATUS:               ID:20170301005743     3
 OLDACT:REG 17-03-01 12:32 OP:and  STATUS:               ID:20170301005743     3
 2017-03-01-0058-00M.COL___390                                                 6
 STAT SP IPHASW D HRMM SECON CODA AMPLIT PERI AZIMU VELO AIN AR TRES W  DIS CAZ7
 BAR2 EZ IP     C  1 7 25.78                             171   -0.0510 22.1 192 
 BAR2 EZ ES        1 7 40.57                             171   -0.0110 22.1 192 
 BAR2 EZ I         1 7 41.71        12.4 0.30            168           22.1 192 
 BRR  HZ IP     D  1 7 27.52                             151    0.0110 72.3 299 
 BRR  HN ES        1 7 44.70                             151    1.1310 72.3 299 
 BRR  HZ I         1 7 47.45        11.2 0.14            141           72.3 299 
 PAM  EZ EP        1 7 28.43                             150   -0.1410 78.1  39 
 PAM  EN ES        1 7 45.15                             150   -0.3010 78.1  39 
 PAM  EZ I         1 7 47.62        14.0 0.50            145           78.1  39 
 RUS  HZ EP        1 7 29.89                             143   -0.1210 99.2 176 
 RUS  HN ES        1 7 48.24                             143    0.2310 99.2 176 
 RUS  HZ I         1 7 50.25         6.5 0.32            139           99.2 176 
 PTB  HZ EP        1 7 32.70                             131   -0.74 9  148 259 
 PTB  HN ES        1 7 53.52                             131   -0.62 9  148 259 
 PTB  HZ I         1 7 58.66         5.5 0.18            122            148 259 
 TAM  HZ IP     C  1 7 34.21                             130    0.15 9  154 105 
 ZAR  HZ EP   3    1 7 40.14                             121    1.04 2  205 292 
 ZAR  HN ES        1 8  4.14                             121   -0.06 9  205 292 
 ZAR  HZ I         1 8  9.59         7.6 0.17            113            205 292 
 NOR  HN ES   3    1 8 10.54                             118    0.68 2  234 235 
 NOR  HZ I         1 8 16.71         3.7 0.14            111            234 235 
 URE  HZ EP   4    1 7 49.22                             113    1.40 0  285 292 
 URE  HZ I         1 8 18.00         4.0 0.14            106            285 292 
 URE  HN ES   4    1 8 18.12                             113   -1.61 0  285 292 
 PTGC HZ EP   9    1 7 49.29                             111   -1.07 0  307 159 
 PTGC HN ES        1 8 22.88                             111   -0.29 7  307 159 
 PRA  HZ EP        1 8  0.51                             106    0.37 6  391 210 
 PRA  HN ES   2    1 8 43.28                             106    1.63 3  391 210 
 SJC  HZ EP   4    1 8  0.45                             105   -2.01 0  411 327 
 SJC  HN ES   4    1 8 42.43                             105   -3.35 0  411 327 
                                                                                
