 2015  4 1 0158 36.9 L   6.781 -73.162148.0  RSN  4 0.3 1.7LRSN                1
 GAP=179        0.75       4.6     4.0  8.0 -0.7247E+01  0.6778E+01  0.4936E+01E
 Epicentro: LOS SANTOS - SANTANDER                                             3
 ACTION:UPD 15-06-03 16:51 OP:cam  STATUS:               ID:20150401015836 L   I
 OLDACT:UP  15-04-01 14:03 OP:mh   STATUS:               ID:20150401015746     3
 OLDACT:UP  15-04-01 14:03 OP:mh   STATUS:               ID:20150401015746     3
 OLDACT:REG 15-04-01 12:24 OP:mh   STATUS:               ID:20150401015746     3
 2015-04-01-0157-46M.COL___277                                                 6
 STAT SP IPHASW D HRMM SECON CODA AMPLIT PERI AZIMU VELO AIN AR TRES W  DIS CAZ7
 PAM  SZ EP        158 59.78                             150    0.2510 80.2  40 
 PAM  SN ES        159 17.06                             150   -0.1210 80.2  40 
 PAM  SZ I         159 19.49         6.6 0.54            158           80.2  40 
 PTB  HZ EP        159  3.77                             133   -0.10 9  146 260 
 PTB  HN ES        159 24.72                             133   -0.17 9  146 260 
 PTB  HZ I         159 32.67         7.2 0.34            136            146 260 
 SPBC HZ EP        159  4.77                             130   -0.55 9  160 219 
 SPBC HN ES        159 27.93                             130    0.45 9  160 219 
 SPBC HZ I         159 33.07         7.9 0.09            134            160 219 
 ZAR  HZ EP   1    159  9.81                             123    0.39 6  203 293 
 ZAR  HN ES        159 34.80                             123    0.03 9  203 293 
 ZAR  HZ I         159 37.89                             128            203 293 
                                                                                
