 2015  6 1 0158 11.8 L   5.834 -73.700109.8  RSN  9 0.4 1.4LRSN                1
 GAP=160        1.04       5.2     4.0  7.0 -0.1266E+02  0.1417E+02 -0.1259E+02E
 Epicentro: PUENTE NACIONAL - SANTANDER                                        3
 ACTION:UPD 15-09-10 22:08 OP:cam  STATUS:               ID:20150601015811 L   I
 OLDACT:UP  15-06-01 16:15 OP:ak   STATUS:               ID:20150601014750     3
 OLDACT:REG 15-06-01 12:50 OP:ak   STATUS:               ID:20150601014750     3
 2015-06-01-0147-50M.COL___303                                                 6
 STAT SP IPHASW D HRMM SECON CODA AMPLIT PERI AZIMU VELO AIN AR TRES W  DIS CAZ7
 SPBC HZ EP        158 27.58                             156   -0.2310 45.8 244 
 SPBC HN ES        158 40.51                             156    0.2310 45.8 244 
 SPBC HZ I         158 41.40         6.0 0.42            156           45.8 244 
 RUS  HZ EP        158 30.36                             146    0.6110 68.6  85 
 RUS  HE ES        158 43.37                             146   -0.3610 68.6  85 
 RUS  HZ I         158 46.40         2.4 0.27            149           68.6  85 
 BAR2 EZ EP        158 31.55                             134   -0.4410  102  34 
 BAR2 EZ ES        158 47.99                             134    0.2810  102  34 
 BAR2 EZ I         158 49.39         6.2 0.21            136            102  34 
 NOR  HE ES        158 52.20                             125   -0.3110  133 257 
 BRR  HZ EP        158 35.37                             124   -0.04 9  141 359 
 BRR  HE ES        158 53.94                             124    0.14 9  141 359 
 GUY2CHZ EP        158 42.02                             114    0.06 9  196 250 
 GUY2CHN ES        159  5.16                             114   -0.30 9  196 250 
 GUY2CHZ I         159  9.66         1.8 0.66                           196 250 
 HEL  HZ EP        158 43.78                             113    0.85 8  206 281 
 HEL  HN ES   4    159  6.46                             113   -0.73 0  206 281 
 HEL  HZ I         159 11.30         4.0 0.30            115            206 281 
 ZAR  HZ EP        158 43.54                             111   -0.90 8  224 325 
 ZAR  HE ES   4    159  2.27                             111   -7.61 0  224 325 
 CBOC HZ EP        158 48.57                             108    0.19 8  256 271 
 CBOC HE ES        159 17.17                             108    0.28 8  256 271 
 CBOC HZ I         159 20.87         5.0 0.54            109            256 271 
                                                                                
