 2017  9 1 0854 16.5 L   6.836 -73.016143.3  RSN  5 0.4 1.6LRSN                1
 GAP=253        0.55       3.6     6.1  3.9  0.1212E+02  0.5110E+01  0.2106E+01E
 Epicentro: CEPITA - SANTANDER                                                 3
 ACTION:UPD 17-10-05 19:08 OP:rebc STATUS:               ID:20170901085416 L   I
 OLDACT:UP  17-09-01 16:12 OP:dani STATUS:               ID:20170901084736     3
 OLDACT:REG 17-09-01 13:09 OP:dani STATUS:               ID:20170901084736     3
 2017-09-01-0848-00M.COL___393                                                 6
 STAT SP IPHASW D HRMM SECON CODA AMPLIT PERI AZIMU VELO AIN AR TRES W  DIS CAZ7
 BAR2 EZ EP     D  854 36.00                             166   -0.0510 32.6 214 
 BAR2 EZ ES        854 51.28                             166   -0.0310 32.6 214 
 BAR2 EZ I         854 52.48         6.7 0.20            154           32.6 214 
 BRR  HZ EP        854 37.87                             148   -0.1910 82.6 291 
 BRR  HN ES        854 55.13                             148    0.2410 82.6 291 
 BRR  HZ I         855  4.31         8.1 0.32            139           82.6 291 
 RUS  HZ EP        854 40.37                             142    0.0810  105 184 
 RUS  HN ES        854 58.73                             142   -0.1210  105 184 
 RUS  HZ I         854 59.97         3.5 0.36            140            105 184 
 ZAR  HZ EP        854 50.09                             120    0.06 8  216 290 
 ZAR  HN ES   3    855 14.13                             120   -2.06 2  216 290 
 ZAR  HZ I         855 20.44         3.6 0.12            118            216 290 
 PRA  HZ EP        855 11.15                             106   -0.02 6  403 211 
 PRA  HN ES        855 54.23                             106    0.40 6  403 211 
 PRA  HZ I         856  1.25         1.3 0.38            106            403 211 
                                                                                
