 2014  8 1 0748 16.5 L   6.787 -73.131145.6  RSN  8 0.4 1.2LRSN                1
 GAP=184        0.89       3.6     5.7  6.7  0.3292E+01  0.5381E+01 -0.1148E+01E
 Epicentro: LOS SANTOS - SANTANDER                                             3
 ACTION:UPD 14-09-15 21:46 OP:nd   STATUS:               ID:20140801074816 L   I
 OLDACT:REG 14-08-01 15:50 OP:spq  STATUS:               ID:20140801073815     3
 2014-08-01-0738-15M.COL___257                                                 6
 STAT SP IPHASW D HRMM SECON CODA AMPLIT PERI AZIMU VELO AIN AR TRES W  DIS CAZ7
 BAR2 SZ ES   1    748 51.22                             171   -0.11 7 22.3 195 
 BAR2 SZ I         748 53.48         2.4 0.18            168           22.3 195 
 BRR  HZ EP        748 38.27                             152    0.5610 73.3 299 
 BRR  HE ES        748 54.68                             152    0.4010 73.3 299 
 BRR  HZ I         748 58.56         2.2 0.44            150           73.3 299 
 RUS  HZ EP   1    748 40.28                             144    0.20 7 99.1 177 
 RUS  HE ES   1    748 57.97                             144   -0.55 7 99.1 177 
 RUS  HZ I         749  2.50         0.9 0.28            147           99.1 177 
 PTB  HZ EP        748 43.62                             132    0.09 9  149 259 
 PTB  HN ES        749  4.86                             132    0.21 9  149 259 
 PTB  HZ I         749 11.86         2.6 0.33            132            149 259 
 OCA  HN ES   1    749  6.71                             129   -0.38 7  162 353 
 OCA  HZ I         749 11.46         2.2 0.42            133            162 353 
 SPBC HZ EP        748 45.28                             129    0.34 9  163 220 
 SPBC HE ES        749  6.73                             129   -0.42 9  163 220 
 SPBC HZ I         749 14.55         2.9 0.28            131            163 220 
 ZAR  HZ EP        748 48.53                             122   -0.57 8  206 292 
 ZAR  HE ES        749 14.37                             122   -0.19 8  206 292 
 ZAR  HZ I         749 22.81         1.5 0.23            124            206 292 
 SML  HE ES   1    749 21.55                             117   -0.46 6  246 335 
                                                                                
