 2016  6 1 0311 11.2 L   6.808 -73.082151.7  RSN 12 0.4 2.0LRSN                1
 GAP=144        0.87       2.7     3.8  4.6 -0.3079E+01  0.3782E+01  0.2124E+01E
 Epicentro: LOS SANTOS - SANTANDER                                             3
 ACTION:UPD 16-07-21 22:14 OP:rebc STATUS:               ID:20160601031111 L   I
 OLDACT:UP  16-06-01 16:47 OP:edw  STATUS:               ID:20160601030741     3
 OLDACT:REG 16-06-01 13:05 OP:edw  STATUS:               ID:20160601030741     3
 2016-06-01-0307-41M.COL___304                                                 6
 STAT SP IPHASW D HRMM SECON CODA AMPLIT PERI AZIMU VELO AIN AR TRES W  DIS CAZ7
 BAR2 EZ EP        311 31.53                             170   -0.0810 26.3 205 
 BAR2 EZ ES        311 47.56                             170    0.0310 26.3 205 
 BAR2 EZ I         311 49.23        21.1 0.24                          26.3 205 
 PAM  EZ EP        311 34.12                             154    0.3510 72.4  36 
 PAM  EN ES        311 51.33                             154   -0.0510 72.4  36 
 BRR  HZ EP        311 33.40                             152    0.0810 77.0 295 
 BRR  HN ES        311 50.79                             152    0.2110 77.0 295 
 BRR  HZ I         311 54.17        12.5 0.15                          77.0 295 
 RUS  HZ EP        311 35.46                             145   -0.1310  101 180 
 RUS  HN ES        311 54.59                             145   -0.0210  101 180 
 RUS  HZ I         311 57.23         6.9 0.22                           101 180 
 PTB  HZ EP        311 38.61                             132   -0.68 9  155 259 
 PTB  HE ES        312  0.56                             132   -0.64 9  155 259 
 PTB  HZ I         312  1.73        15.2 0.12                           155 259 
 OCA  HZ EP        311 39.60                             131   -0.39 9  160 351 
 OCA  HN ES        312  2.71                             131    0.27 9  160 351 
 OCA  HZ I         312  9.27        19.0 0.26                           160 351 
 SPBC HZ EP        311 40.55                             129   -0.10 9  168 221 
 SPBC HE ES        312  4.10                             129    0.49 9  168 221 
 SPBC HZ I         312  9.03        14.9 0.24                           168 221 
 NOR  HZ EP        311 48.06                             119    0.11 8  241 235 
 NOR  HN ES        312 16.39                             119   -0.22 8  241 235 
 NOR  HZ I         312 19.43         7.1 0.20                           241 235 
 CHI  HZ EP        311 48.91                             118   -0.63 8  251 197 
 CHI  HN ES        312 19.69                             118    0.25 8  251 197 
 CHI  HZ I         312 21.59         2.6 0.24                           251 197 
 HEL  HZ EP   4    311 54.03                             115    1.54 0  279 256 
 HEL  HE ES   4    312 27.68                             115    2.98 0  279 256 
 HEL  HZ I         312 30.74         5.3 0.36                           279 256 
 CBOC HZ EP        311 59.93                             110    0.77 7  341 252 
 CBOC HE ES        312 37.17                             110    0.60 7  341 252 
 PRA  HZ EP        312  5.98                             107    0.55 6  396 210 
 PRA  HN ES        312 47.87                             107    0.14 6  396 210 
 PRA  HZ I         312 51.33         4.5 0.40                           396 210 
                                                                                
