 2017 11 1 0503  9.1 L   6.801 -73.126148.0  RSN 14 0.5 1.8LRSN                1
 GAP=114        1.07       3.8     4.0  6.0 -0.1333E+01  0.2880E+01  0.4554E+01E
 Epicentro: LOS SANTOS - SANTANDER                                             3
 ACTION:UPD 17-12-12 19:50 OP:rebc STATUS:               ID:20171101050309 L   I
 OLDACT:UP  17-11-01 17:02 OP:dnl  STATUS:               ID:20171101045642     3
 OLDACT:UP  17-11-01 17:02 OP:dnl  STATUS:               ID:20171101045642     3
 OLDACT:REG 17-11-01 13:37 OP:dnl  STATUS:               ID:20171101045642     3
 2017-11-01-0457-00M.COL___420                                                 6
 STAT SP IPHASW D HRMM SECON CODA AMPLIT PERI AZIMU VELO AIN AR TRES W  DIS CAZ7
 BAR2 EZ EP        5 3 28.92                             170   -0.1310 23.9 195 
 BAR2 EZ ES        5 3 44.30                             170   -0.2810 23.9 195 
 BAR2 EZ I         5 3 46.59        12.6 0.20            168           23.9 195 
 BRR  HZ EP        5 3 30.93                             152    0.3010 73.0 298 
 BRR  HE ES        5 3 48.32                             152    0.9310 73.0 298 
 BRR  HZ I         5 3 50.58         7.1 0.12            152           73.0 298 
 PAM  EZ EP        5 3 31.74                             152    0.2310 75.9  38 
 PAM  EE ES        5 3 49.05                             152    0.1010 75.9  38 
 PAM  EZ I         5 3 51.15         9.1 0.20            155           75.9  38 
 RUS  HZ EP        5 3 32.83                             144   -0.2810  101 177 
 RUS  HN ES        5 3 51.17                             144   -0.6410  101 177 
 RUS  HZ I         5 3 52.53         4.7 0.44            143            101 177 
 PTB  HZ EP        5 3 35.85                             132   -0.63 9  150 259 
 PTB  HE ES        5 3 57.41                             132   -0.40 9  150 259 
 PTB  HZ I         5 4  4.50         6.5 0.50            131            150 259 
 SPBC HZ EP        5 3 37.91                             129   -0.04 9  165 220 
 SPBC HN ES        5 4  0.66                             129    0.24 9  165 220 
 SPBC HZ I         5 4  7.07        14.3 0.38            129            165 220 
 YPLC HZ IP     C  5 3 39.12                             127    0.11 9  176 152 
 YPLC HE ES   4    5 4  3.74                             127    1.43 0  176 152 
 YPLC HZ I         5 4 10.53         3.7 0.30            128            176 152 
 ZAR  HZ EP   2    5 3 42.37                             123    0.44 4  206 292 
 ZAR  HN ES        5 4  6.93                             123   -0.57 8  206 292 
 ZAR  HZ I         5 4 12.76         6.8 0.40            123            206 292 
 NOR  HZ EP        5 3 45.00                             119   -0.19 8  237 235 
 NOR  HE ES        5 4 13.61                             119    0.30 8  237 235 
 NOR  HZ I         5 4 16.77         5.4 0.40            118            237 235 
 CHI  HZ EP   2    5 3 47.13                             118    0.09 4  249 196 
 CHI  HN ES        5 4 17.60                             118    1.00 8  249 196 
 CHI  HZ I         5 4 20.33         3.0 0.48            117            249 196 
 ROSC BZ EP   9    5 3 49.21                             117    1.69 0  254 211 
 ROSC BN ES        5 4 19.47                             117    0.33 8  254 211 
 ROSC BZ I         5 4 25.20         5.6 0.50            117            254 211 
 GUY2CHZ EP   2    5 3 53.39                             113    0.33 4  303 235 
 GUY2CHZ I         5 4 35.56         4.0 0.44                           303 235 
 PTGC HZ EP   4    5 3 51.84                             112   -1.19 0  308 159 
 PTGC HE ES   4    5 4 25.08                             112   -2.18 0  308 159 
 PTGC HZ I         5 4 30.36         3.1 0.34            112            308 159 
 SJC  HZ EP   4    5 4  2.24                             106   -2.66 0  410 327 
 SJC  HE ES   4    5 4 43.64                             106   -4.75 0  410 327 
 SJC  HZ I         5 4 56.80         1.2 0.34            107            410 327 
                                                                                
