 2017  3 1 0720 58.2 L   6.771 -73.167151.4  RSN  4 0.3 1.0LRSN                1
 GAP=233        0.61       6.1     4.8  6.3  0.1001E+02 -0.3481E+01  0.8436E+01E
 Epicentro: LOS SANTOS - SANTANDER                                             3
 ACTION:UPD 17-05-25 18:34 OP:jn   STATUS:               ID:20170301072058 L   I
 OLDACT:UP  17-03-01 16:59 OP:e    STATUS:               ID:20170301071744     3
 OLDACT:UP  17-03-01 16:59 OP:e    STATUS:               ID:20170301071744     3
 OLDACT:REG 17-03-01 13:03 OP:and  STATUS:               ID:20170301071744     3
 2017-03-01-0718-00M.COL___378                                                 6
 STAT SP IPHASW D HRMM SECON CODA AMPLIT PERI AZIMU VELO AIN AR TRES W  DIS CAZ7
 BAR2 EZ EP        721 18.32                             172   -0.1410 19.8 185 
 BAR2 EZ ES   2    721 33.40                             172   -0.84 5 19.8 185 
 BRR  HZ IP     C  721 20.10                             154    0.1510 70.8 302 
 BRR  HN ES        721 37.05                             154    0.1410 70.8 302 
 RUS  HZ EP        721 22.37                             146    0.0610 97.5 175 
 RUS  HN ES   2    721 41.74                             146    0.64 5 97.5 175 
 PTB  HZ EP        721 25.25                             134   -0.14 9  145 260 
 PTB  HN ES        721 46.54                             134   -0.05 9  145 260 
 PTB  HZ I         721 47.16         1.1 0.33            133            145 260 
                                                                                
