 2017 10 1 0112  9.5 L   6.766 -73.112138.0  RSN  6 0.2 1.4LRSN                1
 GAP=142        0.59       2.7     3.1  5.8 -0.2583E+01  0.8847E+01  0.3374E+00E
 Epicentro: LOS SANTOS - SANTANDER                                             3
 ACTION:UPD 17-11-07 19:26 OP:rebc STATUS:               ID:20171001011209 L   I
 OLDACT:REG 17-10-01 12:38 OP:osc  STATUS:               ID:20171001010746     3
 2017-10-01-0108-00M.COL___420                                                 6
 STAT SP IPHASW D HRMM SECON CODA AMPLIT PERI AZIMU VELO AIN AR TRES W  DIS CAZ7
 PAM  EZ EP        112 30.86                             149   -0.0910 78.1  36 
 PAM  EN ES        112 47.86                             149    0.1810 78.1  36 
 PAM  EZ I         112 49.94         3.6 0.24            152           78.1  36 
 RUS  HZ EP        112 32.34                             143    0.1210 96.6 178 
 RUS  HN ES        112 49.78                             143   -0.1510 96.6 178 
 RUS  HZ I         112 52.76         2.7 0.32            145           96.6 178 
 SPBC HZ EP        112 36.94                             127   -0.45 9  163 221 
 SPBC HE ES        112 59.18                             127    0.06 9  163 221 
 SPBC HZ I         113  1.47         3.2 0.22            130            163 221 
 ZAR  HE ES        113  7.12                             120   -0.19 8  209 293 
 NOR  HE ES        113 12.83                             117    0.32 8  236 236 
 GUY2CHZ EP        112 53.30                             111    0.42 7  302 236 
 GUY2CHE ES        113 26.67                             111   -0.04 7  302 236 
 GUY2CHZ I         113 34.80         1.7 0.48                           302 236 
                                                                                
