 2016  7 1 0541 59.4 L   6.724 -73.154150.8  RSN  6 0.4 1.4LRSN                1
 GAP=247        0.88       5.8     5.3  7.8 -0.1673E+00  0.1373E+02  0.1016E+01E
 Epicentro: VILLANUEVA - SANTANDER                                             3
 ACTION:UPD 17-03-29 16:45 OP:lp   STATUS:               ID:20160701054159 L   I
 OLDACT:DUP 16-07-01 17:00 OP:ak   STATUS:               ID:20160701053750d    3
 OLDACT:REG 16-07-01 14:44 OP:ak   STATUS:               ID:20160701053749     3
 2016-07-01-0537-49M.COL___344                                                 6
 STAT SP IPHASW D HRMM SECON CODA AMPLIT PERI AZIMU VELO AIN AR TRES W  DIS CAZ7
 BAR2 EZ EP        542 19.37                             174   -0.1510 14.9 192 
 BAR2 EZ ES        542 35.46                             174    0.2610 14.9 192 
 BAR2 EZ I         542 37.64         3.9 0.23            174           14.9 192 
 BRR  HZ EP        542 21.53                             152    0.2110 74.8 305 
 BRR  HN ES        542 38.40                             152    0.0010 74.8 305 
 BRR  HZ I         542 40.31         7.4 0.66            153           74.8 305 
 PTB  HZ EP        542 26.65                             134    0.05 9  145 262 
 PTB  HN ES        542 47.88                             134    0.09 9  145 262 
 PTB  HZ I         542 50.79         2.3 0.15            136            145 262 
 SPBC HN ES        542 49.17                             132   -0.51 9  156 221 
 ZAR  HN ES        542 57.60                             123   -0.61 8  207 294 
 HEL  HE ES        543 11.64                             116    0.74 8  269 257 
                                                                                
