 2011  3 1 0907 26.7 L   6.180 -73.581 97.5  RSN  5 0.4 1.6LRSN                1
 GAP=150        0.97       7.1     8.3 14.0 -0.1929E+02  0.7409E+02 -0.3036E+02E
 Epicentro: LA PAZ - SANTANDER                                                 3
 ACTION:UP  11-06-16 14:31 OP:jfem STATUS:               ID:20110301090727 L   I
 2011-03-01-0906-10S.COL___135                                                 6
 STAT SP IPHASW D HRMM SECON CODA AMPLIT PERI AZIMU VELO SNR AR TRES W  DIS CAZ7
 BAR2 SZ EP        9 7 42.48                             145    -0.210   63  44 
 BAR2 SZ ES   1    9 7 55.32                             145     0.2 7   63  44 
 BAR2 SZ I         9 7 57.24        35.7 0.44                            63  44 
 RUS  HZ EP        9 7 42.80                             146    -0.210   64 120 
 RUS  HN ES   2    9 7 56.21                             146     0.4 5   64 120 
 RUS  HZ I         9 7 58.05         3.8 0.27                            64 120 
 GRA  SZ ES   1    9 8 20.14                             111    -0.6 6  207  24 
 HEL  HZ EP   1    9 7 58.42                             110     0.1 6  216 270 
 HEL  HN ES   2    9 8 22.72                             110    -0.2 4  216 270 
 HEL  HZ I         9 8 25.97         2.1 0.23                           216 270 
 OCA  SZ EP   1    9 8  0.66                             109     1.0 6  230   7 
 OCA  SZ I         9 8 30.46         5.6 0.46                           230   7 
                                                                                
