 2010 12 1 0840 32.6 L   6.744 -73.085146.7  RSN  9 0.4 2.1LRSN                1
 GAP=183        1.08       5.3     9.2  8.3 -0.2748E+02 -0.1453E+01  0.7704E+01E
 Epicentro: JORDAN - SANTANDER                                                 3
 ACTION:UP  11-01-14 15:22 OP:pat  STATUS:               ID:20101201084032 L   I
 2010-12-01-0839-05S.COL___132                                                 6
 STAT SP IPHASW D HRMM SECON CODA AMPLIT PERI AZIMU VELO SNR AR TRES W  DIS CAZ7
 BAR2 SZ IP        840 52.41                             172     0.110   20 213 
 BAR2 SZ I         840 52.57        25.5 0.32                            20 213 
 BAR2 SZ ES   1    841  7.79                             172     0.2 7   20 213 
 BRR  HZ IP     C  840 54.29                             150    -0.110   80 300 
 BRR  HE ES   1    841 11.81                             150     0.4 7   80 300 
 BRR  HZ I         841 14.74        28.2 0.37                            80 300 
 GUE  SZ EP        840 58.31                             139     0.510  121   8 
 GRA  SZ EP        840 58.42                             136     0.110  130  14 
 GRA  SZ ES   1    841 17.66                             136    -0.7 7  130  14 
 GRA  SZ I         841 19.26        10.8 0.23                           130  14 
 OCA  SZ EP        841  1.14                             129    -0.5 9  167 351 
 OCA  SZ ES   2    841 24.12                             129    -0.2 5  167 351 
 OCA  SZ I         841 26.98        17.5 0.39                           167 351 
 NOR  SZ EP        841  7.92                             119    -0.7 8  237 237 
 NOR  SN ES   1    841 36.58                             119    -0.1 6  237 237 
 CHI  HZ EP        841 10.50                             118     0.6 8  245 197 
 CHI  HE ES   1    841 38.37                             118    -0.6 6  245 197 
 CHI  HZ I         841 45.03         5.1 0.26                           245 197 
 HEL  HZ EP   1    841 14.07                             115     0.6 6  277 257 
 HEL  HZ I         841 51.53         8.6 0.50                           277 257 
 GUY  SZ EP   3    841 16.94                             112     0.4 2  303 237 
                                                                                
