 2011  8 1 0539 33.1 L   6.780 -73.075147.3  RSN  5 0.4 1.4LRSN                1
 GAP=167        0.66       4.6     9.4  8.0  0.2129E+01 -0.1911E+02  0.2646E+01E
 Epicentro: LOS SANTOS - SANTANDER                                             3
 ACTION:UPD 12-07-25 14:05 OP:epov STATUS:               ID:20110801053933 L   I
 2011-08-01-0535-52S.COL___142                                                 6
 STAT SP IPHASW D HRMM SECON CODA AMPLIT PERI AZIMU VELO AIN AR TRES W  DIS CAZ7
 BAR2 SZ EP   1    539 52.38                             170   -0.55 7 23.9 210 
 BAR2 SZ ES   1    540  8.06                             170   -0.33 7 23.9 210 
 BAR2 SZ I         540  9.55         6.8 0.22                          23.9 210 
 BRR  HZ EP   1    539 54.74                             150   -0.14 7 79.1 297 
 BRR  HZ I         539 54.90         6.0 0.54                          79.1 297 
 BRR  HE ES   1    540 12.16                             150    0.30 7 79.1 297 
 RUS  HZ EP   1    539 57.25                             145    0.42 7 98.2 181 
 RUS  HE ES   2    540 15.87                             145    0.53 5 98.2 181 
 RUS  HZ I         540 17.22         3.9 0.44                          98.2 181 
 GRA  SZ EP   2    539 58.86                             137    0.38 5  126  14 
 GRA  SZ ES   2    540 18.22                             137   -0.06 5  126  14 
 GRA  SZ I         540 19.60         2.2 0.30                           126  14 
 CHI  HN ES   2    540 40.06                             117   -0.31 4  249 197 
 CHI  HZ I         540 42.39         1.7 0.36                           249 197 
                                                                                
