 2011  4 1 0544  1.7 L   6.033 -74.108 78.9  RSN  6 0.2 1.5LRSN                1
 GAP=169        0.53       4.5     4.2  9.7 -0.1591E+02  0.5971E+00  0.5417E+01E
 Epicentro: LA BELLEZA - SANTANDER                                             3
 ACTION:UP  11-06-22 15:27 OP:REBC STATUS:               ID:20110401054401 L   I
 2011-04-01-0540-47S.COL___138                                                 6
 STAT SP IPHASW D HRMM SECON CODA AMPLIT PERI AZIMU VELO SNR AR TRES W  DIS CAZ7
 NOR  SZ EP        544 19.05                             124     0.110   99 238 
 NOR  SN ES   2    544 32.27                             124    -0.1 5   99 238 
 BAR2 SZ EP   2    544 21.44                             118     0.1 5  120  59 
 BAR2 SZ ES   1    544 36.49                             118    -0.2 7  120  59 
 BAR2 SZ I         544 37.82        15.6 0.33                           120  59 
 BRR  HZ EP        544 21.62                             116    -0.210  127  20 
 BRR  HN ES   1    544 38.01                             116     0.5 7  127  20 
 BRR  HZ I         544 38.34         9.8 0.18                           127  20 
 BTL  SZ EP        544 23.09                             115     0.010  135  43 
 HEL  HZ EP   2    544 25.73                             111    -0.1 5  158 276 
 HEL  HN ES   3    544 44.09                             111    -0.6 2  158 276 
 HEL  HZ I         544 48.14         2.6 0.43                           158 276 
 RREF HZ EP        544 29.57                             108     0.2 9  186 228 
 RREF HN ES   2    544 50.75                             108    -0.3 4  186 228 
 RREF HZ I         544 56.59         2.9 0.06                           186 228 
                                                                                
