 2013  2 1 0124 55.2 L   6.790 -73.125137.8  RSN 10 0.5 2.4LRSN                1
 GAP= 73        1.15       3.5     3.4  6.2  0.6552E+00  0.4129E+01  0.2098E+01E
 Epicentro: LOS SANTOS - SANTANDER                                             3
 ACTION:UPD 13-03-12 09:29 OP:ep   STATUS:               ID:20130201012455 L   I
 2013-02-01-0120-00M.COL___241                                                 6
 STAT SP IPHASW D HRMM SECON CODA AMPLIT PERI AZIMU VELO AIN AR TRES W  DIS CAZ7
 BAR2 SZ EP        125 13.94                             170    0.1010 22.8 196 
 BAR2 SZ ES        125 28.14                             170   -0.2510 22.8 196 
 BAR2 SZ I         125 29.66        74.0 0.18            168           22.8 196 
 BRR  HZ IP     D  125 15.94                             150    0.3210 73.7 298 
 BRR  HN ES        125 32.34                             150    0.7710 73.7 298 
 BRR  HN I         125 32.80       126.9 0.22            150           73.7 298 
 PAM  SZ EP     C  125 16.93                             150    0.4110 76.8  38 
 PAM  SN ES        125 33.52                             150    0.3610 76.8  38 
 PAM  SN I         125 34.80        41.3 0.22            152           76.8  38 
 RUS  HZ EP        125 18.02                             142   -0.0410 99.3 177 
 RUS  HN ES        125 35.88                             142   -0.0310 99.3 177 
 RUS  HN I         125 37.84        50.6 0.26            142           99.3 177 
 PTB  HZ EP        125 21.08                             130   -0.62 9  150 259 
 PTB  HN ES        125 41.62                             130   -0.76 9  150 259 
 PTB  HN I         125 43.86        50.9 0.24            129            150 259 
 TAM  HZ IP     D  125 22.42                             129    0.42 9  153 105 
 TAM  HE ES        125 42.63                             129   -0.30 9  153 105 
 TAM  HE I         125 44.88        32.7 0.58            130            153 105 
 OCA  HZ EP        125 22.60                             128   -0.42 9  162 352 
 OCA  HN ES        125 43.76                             128   -0.97 9  162 352 
 ZAR  HZ EP        125 27.27                             120   -0.11 8  207 292 
 ZAR  HN ES        125 52.83                             120    0.33 8  207 292 
 ZAR  HN I         125 57.86        37.7 0.40            120            207 292 
 CHI  HZ EP        125 32.51                             115    0.11 8  248 196 
 CHI  HN ES        126  1.07                             115   -0.36 8  248 196 
 CHI  HN I         126  7.78        11.8 0.40            115            248 196 
 HEL  HZ EP        125 35.71                             113    0.50 8  274 256 
 HEL  HN ES        126  7.00                             113    0.56 8  274 256 
 HEL  HN I         126 13.36         6.5 0.48            113            274 256 
                                                                                
