 2013  4 1 0742 44.9 L   6.604 -73.184139.5  RSN  4 0.2 1.2LRSN                1
 GAP=219        0.43       6.1     3.9  4.4  0.7241E+01  0.4499E+01 -0.5332E+00E
 Epicentro: BARICHARA - SANTANDER                                              3
 ACTION:UPD 13-05-22 14:35 OP:EP   STATUS:               ID:20130401074244 L   I
 2013-04-01-0740-00M.COL___245                                                 6
 STAT SP IPHASW D HRMM SECON CODA AMPLIT PERI AZIMU VELO AIN AR TRES W  DIS CAZ7
 BAR2 SZ EP   1    743  3.42                             179   -0.08 7 1.33 173 
 BAR2 SZ ES   1    743 18.09                             179    0.06 7 1.33 173 
 BAR2 SZ I         743 19.67         4.8 0.28            173           1.33 173 
 BRR  HZ EP        743  5.76                             148   -0.1710 80.6 314 
 BRR  HN ES   1    743 22.51                             148    0.16 7 80.6 314 
 BRR  HZ I         743 30.21         2.9 0.54            147           80.6 314 
 PTB  HZ EP   1    743 10.73                             132    0.02 7  141 267 
 PTB  HN ES   1    743 30.86                             132    0.00 7  141 267 
 PTB  HZ I         743 35.19         1.2 0.11            135            141 267 
 ZAR  HZ EP   1    743 17.90                             120    0.42 6  209 298 
 ZAR  HE ES   1    743 42.68                             120   -0.24 6  209 298 
 ZAR  HZ I         743 44.25         2.9 0.60            123            209 298 
                                                                                
