 2011  6 1 0826 51.9 L   6.801 -73.156151.2  RSN  4 0.1 1.2LRSN                1
 GAP=157        0.35       2.2     4.6  4.9 -0.5420E+00 -0.7232E+01 -0.3110E+00E
 Epicentro: LOS SANTOS - SANTANDER                                             3
 ACTION:UP  11-07-14 19:02 OP:ep   STATUS:               ID:20110601082651 L   I
 2011-06-01-0823-31S.COL___114                                                 6
 STAT SP IPHASW D HRMM SECON CODA AMPLIT PERI AZIMU VELO SNR AR TRES W  DIS CAZ7
 GIR2 SZ EP   1    827 11.95                             168    -0.2 7   31 352 
 BRR  HZ EP   1    827 13.63                             154     0.1 7   70 299 
 BRR  HZ I         827 15.37         3.7 0.10                            70 299 
 BRR  HE ES   1    827 30.43                             154     0.0 7   70 299 
 RUS  HZ EP   1    827 16.13                             145     0.0 7  101 175 
 RUS  HN ES   1    827 35.17                             145     0.1 7  101 175 
 RUS  HZ I         827 35.70         3.3 0.40                           101 175 
 GRA  SZ EP   1    827 17.69                             138     0.1 7  126  18 
 GRA  SZ ES   1    827 37.70                             138     0.0 7  126  18 
 GRA  SZ I         827 38.06         1.7 0.35                           126  18 
                                                                                
