 2014 11 1 0655 49.5 L   6.762 -73.177154.0  RSN  6 0.4 1.5LRSN                1
 GAP=231        0.93       4.7     5.9  6.8  0.4909E+01  0.4780E+01  0.5339E+01E
 Epicentro: LOS SANTOS - SANTANDER                                             3
 ACTION:UPD 14-12-19 15:38 OP:nd   STATUS:               ID:20141101065549 L   I
 OLDACT:REG 14-11-01 14:15 OP:carl STATUS:               ID:20141101064742     3
 2014-11-01-0647-42M.COL___262                                                 6
 STAT SP IPHASW D HRMM SECON CODA AMPLIT PERI AZIMU VELO AIN AR TRES W  DIS CAZ7
 BAR2 SZ EP        656  9.36                             173   -0.6410 18.8 182 
 BAR2 SZ ES        656 25.79                             173   -0.2310 18.8 182 
 BAR2 SZ I         656 26.38         6.2 0.18            165           18.8 182 
 BRR  HZ EP        656 11.52                             154    0.0610 70.3 303 
 BRR  HN ES        656 29.15                             154    0.5410 70.3 303 
 RUS  HZ EP        656 14.10                             146    0.3410 96.7 174 
 RUS  HE ES        656 32.81                             146    0.0910 96.7 174 
 RUS  HZ I         656 33.87         2.9 0.24            142           96.7 174 
 PTB  HZ EP        656 16.43                             135   -0.31 9  144 260 
 PTB  HE ES        656 37.70                             135   -0.32 9  144 260 
 PTB  HZ I         656 43.30         6.6 0.28            131            144 260 
 SPBC HZ EP        656 18.61                             132    0.51 9  158 219 
 SPBC HN ES        656 40.48                             132    0.04 9  158 219 
 SPBC HZ I         656 44.42         6.6 0.82            128            158 219 
 CHI  HN ES        656 56.36                             119   -0.09 8  244 195 
 CHI  HZ I         657  6.27         2.0 0.54            117            244 195 
                                                                                
