 2017 12 1 0755 28.9 L   6.332 -73.589111.3  RSN  4 0.2 1.1LRSN                1
 GAP=134        0.67       4.1     2.9  6.8  0.2550E+00  0.3862E+01 -0.3468E+01E
 Epicentro: SANTA HELENA DEL OPON - SANTANDER                                  3
 ACTION:UPD 18-01-04 13:16 OP:rebc STATUS:               ID:20171201075528 L   I
 OLDACT:DUP 17-12-01 18:25 OP:dhb  STATUS:               ID:20171201074736d    3
 2017-12-01-0748-00M.COL___480                                                 6
 STAT SP IPHASW D HRMM SECON CODA AMPLIT PERI AZIMU VELO AIN AR TRES W  DIS CAZ7
 BAR2 EZ IP     C  755 46.00                             153    0.3810 53.4  57 
 BAR2 EZ ES        755 58.74                             153    0.0410 53.4  57 
 BAR2 EZ I         755 59.72         4.7 0.56            157           53.4  57 
 RUS  HZ EP        755 47.30                             144   -0.0210 74.2 131 
 RUS  HN ES        756  1.40                             144   -0.3210 74.2 131 
 RUS  HZ I         756  3.29         2.6 0.24            146           74.2 131 
 SPBC HN ES        756  3.48                             137    0.2710 92.3 215 
 SPBC HE I         756  6.34         6.7 0.42            138           92.3 215 
 PTB  HZ EP        755 48.29                             135   -0.3010 98.6 283 
 PTB  HN ES        756  3.92                             135   -0.0610 98.6 283 
 PTB  HZ I         756  5.25         1.6 0.12            137           98.6 283 
                                                                                
