 2016 10 1 0857 11.4 L   6.775 -73.140136.0  RSN 13 0.5 1.8LRSN                1
 GAP=138        0.99       4.1     4.6  9.0  0.2424E+01  0.1734E+01 -0.3459E+01E
 Epicentro: LOS SANTOS - SANTANDER                                             3
 ACTION:UPD 16-11-09 19:15 OP:rebc STATUS:               ID:20161001085711 L   I
 OLDACT:UP  16-10-01 19:30 OP:dani STATUS:               ID:20161001084743     3
 OLDACT:UP  16-10-01 19:29 OP:dani STATUS:               ID:20161001084743     3
 OLDACT:UP  16-10-01 19:29 OP:dani STATUS:               ID:20161001084743     3
 OLDACT:REG 16-10-01 13:27 OP:dani STATUS:               ID:20161001084743     3
 2016-10-01-0848-00M.COL___357                                                 6
 STAT SP IPHASW D HRMM SECON CODA AMPLIT PERI AZIMU VELO AIN AR TRES W  DIS CAZ7
 BAR2 EZ EP        857 30.04                             171    0.2410 20.7 193 
 BAR2 EZ I         857 47.78         9.4 0.26            162           20.7 193 
 BRR  HZ EP        857 31.75                             150    0.1410 73.1 300 
 BRR  HN ES   3    857 49.01                             150    1.63 2 73.1 300 
 BRR  HZ I         857 52.63         8.9 0.14            131           73.1 300 
 PAM  EZ EP        857 32.73                             148    0.0410 79.2  38 
 PAM  EZ I         857 51.85         8.4 0.17            117           79.2  38 
 RUS  HZ EP        857 34.12                             142    0.1310 97.8 176 
 RUS  HE ES        857 50.95                             142   -0.6610 97.8 176 
 RUS  HZ I         857 54.80         6.9 0.37            129           97.8 176 
 PTB  HZ EP        857 36.75                             129   -0.84 9  148 260 
 PTB  HN ES        857 58.33                             129    0.30 9  148 260 
 PTB  HZ I         858  0.12         9.3 0.16            116            148 260 
 SPBC HZ EP        857 39.11                             127    0.12 9  161 220 
 SPBC HE ES        858  1.05                             127    0.54 9  161 220 
 SPBC HZ I         858  1.18        14.0 0.22            115            161 220 
 ZAR  HE ES        858  7.88                             120   -0.47 8  206 293 
 ZAR  HZ I         858 13.84        13.5 0.32            105            206 293 
 NOR  HE ES   3    858 12.55                             116   -1.25 2  234 235 
 NOR  HZ I         858 13.41        13.2 0.20            105            234 235 
 CHI  HZ EP        857 48.60                             115    0.31 8  246 195 
 CHI  HN ES        858 17.02                             115   -0.05 8  246 195 
 CHI  HZ I         858 22.27         2.4 0.31            103            246 195 
 URE  HZ EP   9    857 50.02                             111   -2.17 0  285 292 
 URE  HE ES   2    858 20.87                             111   -0.97 4  285 292 
 URE  HZ I         858 23.20         5.1 0.11            100            285 292 
 GUY2CHZ EP   4    857 57.05                             110    2.61 0  300 235 
 GUY2CHZ I         858 36.91         3.4 0.50                           300 235 
 CBOC HZ EP        857 58.23                             108    0.34 7  333 253 
 CBOC HZ I         858 40.64         0.9 0.19             99            333 253 
 SJC  HZ EP   4    858  4.00                             104   -2.97 0  412 327 
 SJC  HZ I         858 51.82         0.9 0.15             96            412 327 
                                                                                
