 2014  3 1 0018 18.5 L   6.734 -73.096142.2  RSN  4 0.7 1.8LRSN                1
 GAP=146        1.76       9.3     9.2 15.7 -0.9221E+01  0.1667E+02  0.1648E+02E
 Epicentro: JORDAN - SANTANDER                                                 3
 ACTION:UPD 14-04-09 23:13 OP:nd   STATUS:               ID:20140301001818 L   I
 OLDACT:DUP 14-03-01 09:25 OP:stll STATUS:               ID:20140301000817d    3
 2014-03-01-0008-16M.COL___231                                                 6
 STAT SP IPHASW D HRMM SECON CODA AMPLIT PERI AZIMU VELO AIN AR TRES W  DIS CAZ7
 BRR  HZ EP        018 39.92                             149    0.1010 79.5 301 
 BRR  HN ES        018 57.67                             149    1.2610 79.5 301 
 BRR  HZ I         019  0.94        10.3 0.44            150           79.5 301 
 PAM  SZ EP        018 40.71                             149    0.1610 80.0  33 
 PAM  SZ I         018 40.92        15.9 0.22            153           80.0  33 
 PAM  SN ES        018 56.86                             149   -0.8510 80.0  33 
 RUS  HZ EP        018 42.03                             145    0.6110 93.1 179 
 RUS  HN ES        018 59.11                             145   -0.1510 93.1 179 
 RUS  HZ I         019  1.82         5.7 0.50            148           93.1 179 
 PTB  HZ EP        018 45.22                             130   -0.39 9  152 262 
 PTB  HN ES        019  5.78                             130   -0.94 9  152 262 
 PTB  HZ I         019  8.59         9.6 0.16            133            152 262 
                                                                                
