 2013  1 1 0935  5.2 L   6.658 -73.232147.0  RSN  5 0.4 1.6LRSN                1
 GAP=190        1.02       7.6     6.9  7.4  0.3183E+02  0.1022E+02 -0.1700E+01E
 Epicentro: BARICHARA - SANTANDER                                              3
 ACTION:UPD 13-02-15 09:11 OP:ep   STATUS:               ID:20130101093505 L   I
 2013-01-01-0930-00M.COL___242                                                 6
 STAT SP IPHASW D HRMM SECON CODA AMPLIT PERI AZIMU VELO AIN AR TRES W  DIS CAZ7
 BAR2 SZ EP        935 24.40                             176   -0.3510 9.08 143 
 BAR2 SZ I         935 24.57        11.2 0.20            170           9.08 143 
 BAR2 SZ ES        935 39.81                             176   -0.2110 9.08 143 
 BRR  HZ EP        935 26.37                             152   -0.1610 72.7 313 
 BRR  HZ I         935 26.63         7.2 0.24            150           72.7 313 
 BRR  HN ES        935 43.30                             152    0.1010 72.7 313 
 RUS  HZ EP        935 28.50                             148    0.4410 86.2 169 
 RUS  HN ES        935 46.26                             148    0.3410 86.2 169 
 RUS  HN I         935 48.40         5.2 0.32            146           86.2 169 
 PTB  HZ EP        935 31.03                             135   -0.17 9  136 265 
 PTB  HN ES        935 50.95                             135   -0.56 9  136 265 
 PTB  HN I         935 57.28         5.7 0.24            131            136 265 
 ZAR  HZ EP        935 37.28                             123   -0.20 9  202 297 
 ZAR  HN ES        936  3.59                             123    0.90 9  202 297 
 ZAR  HN I         936  8.69         4.9 0.14            122            202 297 
                                                                                
