 2010  3 1 0048 50.5 L   6.812 -72.977147.8  RSN 10 0.3 2.3LRSN                1
 GAP=200        0.54       2.4     4.2  3.7 -0.4164E+00  0.1698E+01  0.1593E+01E
 Epicentro: CEPITA - SANTANDER                                                 3
 ACTION:UP  10-08-24 09:51 OP:vdl  STATUS:               ID:20100301004850 L   I
 2010-03-01-0044-11S.COL___093                                                 6
 STAT SP IPHASW D HRMM SECON CODA AMPLIT PERI AZIMU VELO SNR AR TRES W  DIS CAZ7
 BAR2 SZ EP   1    049 10.77                             167     0.1 7   33 223 
 BAR2 SZ ES   1    049 26.14                             167    -0.2 7   33 223 
 BRR  HZ IP     C  049 12.75                             148    -0.210   88 292 
 BRR  HZ I         049 13.06        63.4 0.21                            88 292 
 BRR  HN ES        049 30.38                             148     0.010   88 292 
 RUS  BZ EP        049 14.74                             144     0.110  102 187 
 RUS  BN ES   1    049 33.46                             144     0.1 7  102 187 
 RUS  BZ I         049 34.98        23.9 0.86                           102 187 
 OCA  SZ EP        049 19.26                             130     0.1 9  162 347 
 CHI  HZ EP   1    049 28.89                             117    -0.2 6  255 199 
 CHI  HN ES        049 59.22                             117     0.1 8  255 199 
 CHI  HZ I         050  6.08         8.7 0.95                           255 199 
 HEL  HE ES   2    050  5.59                             113    -0.4 4  291 256 
 HEL  HZ I         050  9.24        10.9 0.59                           291 256 
 RREF BZ EP        049 38.93                             110     0.4 7  337 231 
 RREF BE ES        050 16.11                             110     0.2 7  337 231 
 RREF BZ I         050 20.55        12.0 0.21                           337 231 
 DBB  SZ EP   1    049 40.28                             109     0.0 5  358 274 
 ANIL BZ EP   1    049 42.54                             108     0.5 5  372 226 
 ANIL BN ES   2    050 22.16                             108    -0.1 3  372 226 
 PRA  HZ EP        049 44.55                             106    -0.8 6  403 212 
 PRA  HN ES   2    050 27.93                             106    -0.2 3  403 212 
                                                                                
