 2017 10 1 0918 26.5 L   6.806 -73.135143.1  RSN  7 0.4 1.4LRSN                1
 GAP=138        0.89       3.8     4.5  6.5 -0.4545E+01  0.1441E+02 -0.2182E+01E
 Epicentro: LOS SANTOS - SANTANDER                                             3
 ACTION:UPD 17-11-07 19:27 OP:rebc STATUS:               ID:20171001091826 L   I
 OLDACT:UP  17-10-01 16:47 OP:dhb  STATUS:               ID:20171001091739     3
 OLDACT:REG 17-10-01 13:46 OP:osc  STATUS:               ID:20171001091739     3
 2017-10-01-0918-00M.COL___398                                                 6
 STAT SP IPHASW D HRMM SECON CODA AMPLIT PERI AZIMU VELO AIN AR TRES W  DIS CAZ7
 BAR2 EZ EP        918 45.61                             170   -0.1810 24.2 192 
 BAR2 EZ ES        919  0.55                             170   -0.3110 24.2 192 
 BAR2 EZ I         919  2.21         6.5 0.20            169           24.2 192 
 PAM  EZ IP     C  918 48.70                             150    0.3810 76.2  39 
 PAM  EN ES        919  5.59                             150    0.2210 76.2  39 
 PAM  EZ I         919  6.32         1.9 0.18            154           76.2  39 
 RUS  HZ EP        918 50.20                             143    0.2110  101 177 
 RUS  HN ES        919  8.05                             143   -0.3010  101 177 
 RUS  HZ I         919  9.45         3.8 0.15            146            101 177 
 SPBC HZ EP        918 54.44                             128   -0.43 9  164 219 
 SPBC HE ES        919 17.70                             128    0.67 9  164 219 
 SPBC HZ I         919 20.57         3.1 0.24            129            164 219 
 ZAR  HZ EP        918 58.96                             122    0.14 9  205 292 
 ZAR  HN ES        919 23.79                             122   -0.26 9  205 292 
 ZAR  HZ I         919 29.57         2.6 0.07            122            205 292 
 NOR  HN ES        919 30.05                             118    0.02 8  236 234 
 NOR  HZ I         919 34.90         2.4 0.16            119            236 234 
 GUY2CHZ EP        919  9.53                             112   -0.56 7  302 235 
 GUY2CHE ES   2    919 45.28                             112    1.16 4  302 235 
 GUY2CHZ I         919 53.61         0.9 0.60                           302 235 
                                                                                
