 2011  9 1 0449 12.2 L   6.818 -73.073148.0  RSN 11 0.3 2.2LRSN                1
 GAP=187        0.47       2.9     4.1  3.9  0.4394E+00  0.4109E+01  0.6560E+00E
 Epicentro: LOS SANTOS - SANTANDER                                             3
 ACTION:UPD 12-07-13 15:54 OP:ep   STATUS:               ID:20110901044912 L   I
 2011-09-01-0440-00M.COL___169                                                 6
 STAT SP IPHASW D HRMM SECON CODA AMPLIT PERI AZIMU VELO AIN AR TRES W  DIS CAZ7
 BAR2 SZ EP   1    449 32.46                             169    0.29 7 27.7 206 
 BAR2 SZ ES   1    449 47.26                             169   -0.51 7 27.7 206 
 BAR2 SZ I         449 48.81        24.2 0.22                          27.7 206 
 GIR2 SZ EP   2    449 32.50                             167    0.37 5 31.8 335 
 GIR2 SZ ES   2    449 47.79                             167    0.10 5 31.8 335 
 BRR  HZ EP   1    449 34.21                             151    0.28 7 77.5 294 
 BRR  HN ES   1    449 51.17                             151    0.27 7 77.5 294 
 BRR  HZ I         449 55.06        26.5 0.29                          77.5 294 
 RUS  HZ EP   2    449 36.45                             144    0.18 5  102 181 
 RUS  HN ES   2    449 54.91                             144   -0.16 5  102 181 
 RUS  HZ I         449 56.68        13.6 0.21                           102 181 
 OCA  SZ EP   2    449 40.72                             130    0.13 5  159 350 
 OCA  SZ ES   2    450  2.31                             130   -0.44 5  159 350 
 OCA  SZ I         450  8.26        28.4 0.32                           159 350 
 ZAR  HZ EP   1    449 45.27                             122   -0.20 6  211 291 
 ZAR  HE ES   2    450 10.88                             122   -0.55 4  211 291 
 ZAR  HZ I         450 16.94        12.3 0.15                           211 291 
 NOR  SZ EP   2    449 48.65                             118   -0.21 4  242 235 
 NOR  SN ES   2    450 17.58                             118    0.10 4  242 235 
 HEL  HZ EP   2    449 53.61                             114    0.19 4  280 256 
 HEL  HN ES   2    450 25.92                             114    0.33 4  280 256 
 HEL  HZ I         450 33.06         7.2 0.38                           280 256 
 COD  HZ EP   2    449 59.95                             109   -0.57 3  347 353 
 COD  HZ I         450 32.47        11.6 0.59                           347 353 
 PRA  HZ EP   2    450  6.23                             106   -0.22 3  398 210 
 PRA  HN ES   2    450 48.38                             106   -0.39 3  398 210 
 SJA  SZ EP   2    450  7.18                             106   -0.07 3  404 194 
                                                                                
