 2011  2 1 0852 39.9 L   6.806 -73.113146.7  RSN  7 0.3 1.6LRSN                1
 GAP=162        0.65       4.6     9.5  7.2 -0.2068E+02  0.2237E+02  0.2253E+00E
 Epicentro: LOS SANTOS - SANTANDER                                             3
 ACTION:UP  11-03-28 15:05 OP:jfem STATUS:               ID:20110201085239 L   I
 2011-02-01-0849-26S.COL___138                                                 6
 STAT SP IPHASW D HRMM SECON CODA AMPLIT PERI AZIMU VELO SNR AR TRES W  DIS CAZ7
 BTL  SZ EP        853  0.02                             171     0.410   21 306 
 BAR2 SZ EP        852 59.70                             170     0.010   25 198 
 BAR2 SZ ES   1    853 15.19                             170     0.1 7   25 198 
 BAR2 SZ I         853 16.46        18.6 0.19                            25 198 
 RUS  HZ EP   1    853  3.57                             144    -0.2 7  101 178 
 RUS  HE ES   2    853 22.42                             144     0.0 5  101 178 
 RUS  HZ I         853 23.26         3.3 0.31                           101 178 
 GRA  SZ EP   2    853  5.42                             138     0.3 5  124  16 
 GRA  SZ ES   2    853 24.00                             138    -0.8 5  124  16 
 GRA  SZ I         853 27.43         4.4 0.27                           124  16 
 NOR  SZ EP   2    853 15.50                             118    -0.6 4  238 235 
 NOR  SE ES   2    853 43.93                             118    -0.4 4  238 235 
 CHI  HZ EP   1    853 17.66                             117    -0.2 6  250 196 
 CHI  HN ES   1    853 47.47                             117     0.0 6  250 196 
 CHI  HZ I         853 55.28         2.2 0.51                           250 196 
 HEL  HZ EP   2    853 21.00                             115     0.4 4  276 256 
 HEL  HZ I         853 59.38         3.2 0.70                           276 256 
                                                                                
