 2013  8 1 0622 49.0 L   6.803 -73.113142.6  RSN 12 0.5 2.1LRSN                1
 GAP=141        0.86       3.5     3.9  6.0 -0.2712E+01  0.8778E+01  0.6528E+00E
 Epicentro: LOS SANTOS - SANTANDER                                             3
 ACTION:UPD 14-01-14 08:58 OP:ep   STATUS:               ID:20130801062249 L   I
 OLDACT:REG 13-08-01 07:55 OP:carl STATUS:               ID:20130801061959     3
 2013-08-01-0619-59M.COL___269                                                 6
 STAT SP IPHASW D HRMM SECON CODA AMPLIT PERI AZIMU VELO AIN AR TRES W  DIS CAZ7
 BAR2 SZ EP        623  8.15                             170   -0.1510 24.5 198 
 BAR2 SZ ES   1    623 22.74                             170   -0.60 7 24.5 198 
 BAR2 SZ I         623 24.07        25.6 0.16            169           24.5 198 
 GIR2 SZ EP        623  8.23                             167   -0.1010 31.8 344 
 GIR2 SZ ES   1    623 23.57                             167    0.17 7 31.8 344 
 GIR2 SZ I         623 24.38        17.1 0.14            163           31.8 344 
 BRR  HZ EP   1    623 10.06                             151    0.05 7 74.3 297 
 BRR  HN ES   1    623 27.01                             151    0.63 7 74.3 297 
 BRR  HZ I         623 27.68        20.4 0.28            147           74.3 297 
 PAM  SZ EP        623 11.09                             151    0.3410 74.9  38 
 PAM  SN ES   1    623 28.01                             151    0.31 7 74.9  38 
 PAM  SN I         623 29.26        29.5 0.48            152           74.9  38 
 RUS  HZ EP   1    623 12.45                             143   -0.02 7  101 178 
 RUS  HN ES   1    623 30.92                             143    0.15 7  101 178 
 RUS  HZ I         623 31.56         7.3 0.36            145            101 178 
 PTB  HZ EP   4    623 15.05                             131   -1.02 0  151 259 
 PTB  HE ES   4    623 35.94                             131   -1.22 0  151 259 
 PTB  HE I         623 37.73        27.7 0.30            129            151 259 
 SPBC HZ EP   1    623 17.02                             128   -0.51 7  166 220 
 SPBC HN ES   1    623 39.15                             128   -0.61 7  166 220 
 SPBC HZ I         623 44.88        12.4 0.26            128            166 220 
 SPBC HN I         623 46.02        33.5 0.34                           166 220 
 ZAR  HE ES        623 46.95                             121   -0.06 8  207 292 
 ZAR  HE I         623 54.52        40.5 0.16            120            207 292 
 NOR  HN ES   1    623 52.66                             117   -0.24 6  238 235 
 NOR  HZ I         623 53.79         7.3 0.30            117            238 235 
 SML  HZ EP   1    623 24.78                             117   -0.83 6  245 334 
 SML  HN ES   1    623 53.44                             117   -0.70 6  245 334 
 SML  HZ I         623 59.71        10.5 0.10            116            245 334 
 HEL  HZ EP   1    623 30.47                             114    0.99 6  276 256 
 HEL  HE ES        624  1.15                             114    0.12 7  276 256 
 HEL  HE I         624  8.60         5.7 0.32            113            276 256 
 GUY2CHZ EP   1    623 33.74                             111    0.90 5  304 235 
 GUY2CHN ES        624  7.18                             111    0.16 7  304 235 
 GUY2CHZ I         624 14.67         4.3 0.48                           304 235 
                                                                                
