 2017 10 1 0447 47.9 L   6.744 -73.077152.2  RSN  5 0.7 1.2LRSN                1
 GAP=156        1.47      12.0    13.1 12.9 -0.1063E+03  0.5310E+02 -0.3528E+02E
 Epicentro: JORDAN - SANTANDER                                                 3
 ACTION:UPD 17-11-07 19:27 OP:rebc STATUS:               ID:20171001044748dL   I
 OLDACT:UP  17-10-04 15:29 OP:rebc STATUS:               ID:20171001044748dL   3
 OLDACT:UP  17-10-04 14:37 OP:nlst STATUS:               ID:20171001044748dL   3
 OLDACT:REG 17-10-01 13:14 OP:osc  STATUS:               ID:20171001044737     3
 2017-10-01-0448-00M.COL___414                                                 6
 STAT SP IPHASW D HRMM SECON CODA AMPLIT PERI AZIMU VELO AIN AR TRES W  DIS CAZ7
 BAR2 EZ EP        448  7.89                             172   -0.3510 20.4 215 
 BAR2 EZ ES        448 23.16                             172   -0.9610 20.4 215 
 PAM  EZ EP        448 11.05                             152    0.2210 77.9  32 
 PAM  EE ES   2    448 30.74                             152    2.02 5 77.9  32 
 PAM  EZ I         448 41.56         3.3 0.36            150           77.9  32 
 RUS  HZ EP        448 11.67                             146   -0.1710 94.2 180 
 RUS  HE ES        448 31.13                             146    0.6010 94.2 180 
 RUS  HZ I         448 31.78         1.1 0.40            161           94.2 180 
 SPBC HZ EP        448 16.65                             130   -0.26 9  163 222 
 SPBC HE ES        448 39.52                             130   -0.03 9  163 222 
 SPBC HZ I         448 43.47         2.4 0.12            139            163 222 
 NOR  HE ES        448 53.30                             119    0.62 8  237 237 
                                                                                
