 2017  9 1 0254 36.2 L   6.778 -73.098147.1  RSN 12 0.4 1.8LRSN                1
 GAP=117        0.78       2.9     3.9  4.2 -0.1647E+01  0.1781E+01  0.3931E+01E
 Epicentro: LOS SANTOS - SANTANDER                                             3
 ACTION:UPD 17-10-05 19:07 OP:rebc STATUS:               ID:20170901025436 L   I
 OLDACT:UP  17-09-01 14:03 OP:dani STATUS:               ID:20170901024742     3
 OLDACT:UP  17-09-01 14:03 OP:dani STATUS:               ID:20170901024742     3
 OLDACT:REG 17-09-01 13:00 OP:dani STATUS:               ID:20170901024742     3
 2017-09-01-0248-00M.COL___411                                                 6
 STAT SP IPHASW D HRMM SECON CODA AMPLIT PERI AZIMU VELO AIN AR TRES W  DIS CAZ7
 BAR2 EZ EP        254 55.81                             171   -0.1210 22.5 204 
 BAR2 EZ ES        255 11.06                             171   -0.2910 22.5 204 
 BAR2 EZ I         255 12.43        39.0 0.20            169           22.5 204 
 PAM  EZ EP     C  254 58.71                             151    0.2710 76.1  35 
 PAM  EN ES        255 15.95                             151    0.1310 76.1  35 
 PAM  EZ I         255 20.64         4.5 0.32            155           76.1  35 
 BRR  HZ EP        254 57.73                             151   -0.0510 77.0 298 
 BRR  HN ES        255 15.00                             151    0.3610 77.0 298 
 BRR  HZ I         255 15.85        11.4 0.44            150           77.0 298 
 RUS  HZ EP        254 59.77                             145   -0.0710 97.9 179 
 RUS  HN ES        255 18.06                             145   -0.2610 97.9 179 
 RUS  HZ I         255 19.70         6.1 0.26            146           97.9 179 
 SPBC HZ EP        255  4.81                             129   -0.08 9  165 221 
 SPBC HE ES        255 27.33                             129    0.02 9  165 221 
 SPBC HZ I         255 31.47        13.8 0.38            129            165 221 
 SPBC HE E         256 30.18                                            165 221 
 YPLC HZ EP        255  6.04                             128    0.45 9  172 152 
 ZAR  HZ EP        255  8.90                             122   -0.38 8  210 292 
 ZAR  HN ES   3    255 34.02                             122   -1.10 2  210 292 
 ZAR  HZ I         255 40.38         4.2 0.19            122            210 292 
 NOR  HZ EP        255 11.90                             118   -0.37 8  238 236 
 NOR  HN ES   3    255 39.42                             118   -1.02 2  238 236 
 NOR  HZ I         255 43.54         3.3 0.22            119            238 236 
 CHI  HZ EP        255 14.01                             117    0.19 8  248 196 
 CHI  HN ES        255 43.51                             117    0.30 8  248 196 
 CHI  HZ I         255 49.46         2.7 0.20            118            248 196 
 GUY2CHZ EP   3    255 22.30                             112    2.15 2  304 236 
 GUY2CHN ES   4    255 58.37                             112    3.90 0  304 236 
 GUY2CHZ I         256  7.85         3.2 0.46                           304 236 
 PTGC HZ EP        255 18.77                             112   -0.83 7  305 159 
 PRA  HZ EP        255 29.98                             107    0.20 6  393 210 
 PRA  HN ES        256 12.45                             107    0.85 6  393 210 
 PRA  HZ I         256 17.72         3.3 0.58            107            393 210 
                                                                                
