 2016  5 1 0744 16.7 L   6.728 -73.151133.4  RSN  8 0.4 1.4LRSN                1
 GAP=139        0.71       3.5     3.4  7.1 -0.2707E+01  0.1065E+02 -0.5498E+01E
 Epicentro: JORDAN - SANTANDER                                                 3
 ACTION:UPD 16-08-18 17:40 OP:cam  STATUS:               ID:20160501074416 L   I
 OLDACT:DUP 16-05-01 16:17 OP:dnl  STATUS:               ID:20160501073748d    3
 2016-05-01-0737-47M.COL___282                                                 6
 STAT SP IPHASW D HRMM SECON CODA AMPLIT PERI AZIMU VELO AIN AR TRES W  DIS CAZ7
 BAR2 EZ EP        744 34.90                             173    0.2410 15.4 193 
 BAR2 EZ ES   2    744 48.99                             173    0.30 5 15.4 193 
 BAR2 EZ I         744 51.12         5.9 0.16            170           15.4 193 
 PAM  EZ EP        744 37.93                             146   -0.0810 84.0  36 
 PAM  EE ES        744 54.65                             146   -0.0110 84.0  36 
 PAM  EZ I         744 55.33         4.2 0.38            152           84.0  36 
 RUS  HZ EP   2    744 39.44                             143    0.82 5 92.7 175 
 RUS  HN ES        744 55.29                             143   -0.4710 92.7 175 
 RUS  HZ I         744 58.17         1.9 0.24            146           92.7 175 
 PTB  HZ EP        744 42.71                             129    0.24 9  146 262 
 PTB  HN ES        745  2.30                             129   -0.30 9  146 262 
 PTB  HZ I         745  4.69         3.4 0.12            130            146 262 
 SPBC HZ EP   2    744 43.81                             127    0.20 5  157 221 
 SPBC HN ES   2    745  4.99                             127    0.37 5  157 221 
 SPBC HZ I         745  9.58         3.7 0.22            129            157 221 
 OCA  HZ EP   2    744 43.94                             125   -0.87 5  168 354 
 OCA  HE ES   4    745  5.01                             125   -1.76 0  168 354 
 OCA  HZ I         745  6.24         7.4 0.34            128            168 354 
 ZAR  HZ EP   2    744 48.04                             119   -0.57 4  207 294 
 ZAR  HN ES        745 13.84                             119    0.31 8  207 294 
 ZAR  HZ I         745 21.52         3.0 0.34            121            207 294 
 GUY2CHZ EP   4    744 58.03                             110   -1.12 0  296 236 
 GUY2CHN ES   2    745 32.40                             110    0.10 4  296 236 
 GUY2CHZ I         745 40.30         1.8 0.26                           296 236 
                                                                                
