 2014  3 1 0208 57.0 L   6.780 -73.156135.7  RSN 10 0.5 1.7LRSN                1
 GAP= 76        1.15       3.6     4.4  6.5 -0.4696E+01  0.8074E+01 -0.8654E+00E
 Epicentro: LOS SANTOS - SANTANDER                                             3
 ACTION:UPD 14-04-09 23:13 OP:nd   STATUS:               ID:20140301020857 L   I
 OLDACT:REG 14-03-01 08:22 OP:stll STATUS:               ID:20140301020815     3
 2014-03-01-0208-15M.COL___225                                                 6
 STAT SP IPHASW D HRMM SECON CODA AMPLIT PERI AZIMU VELO AIN AR TRES W  DIS CAZ7
 BAR2 SZ EP        2 9 15.77                             171    0.3710 21.0 188 
 BAR2 SZ ES        2 9 30.08                             171    0.3510 21.0 188 
 BAR2 SZ I         2 9 32.65        18.5 0.22            170           21.0 188 
 PAM  SZ IP     C  2 9 18.92                             148    0.5810 79.8  39 
 PAM  SZ I         2 9 19.06         8.3 0.26            152           79.8  39 
 PAM  SN ES        2 9 34.41                             148   -0.5510 79.8  39 
 RUS  HZ EP        2 9 19.57                             142   -0.0710 98.4 175 
 RUS  HZ I         2 9 20.71         4.1 0.42            144           98.4 175 
 RUS  HN ES        2 9 37.68                             142    0.4010 98.4 175 
 PTB  HZ EP        2 9 22.45                             130   -0.60 9  146 260 
 PTB  HN ES        2 9 43.27                             130   -0.08 9  146 260 
 PTB  HZ I         2 9 49.64         6.1 0.14            130            146 260 
 TAM  HZ IP     D  2 9 24.02                             128    0.04 9  156 104 
 TAM  HZ I         2 9 24.15        10.0 0.18            133            156 104 
 SPBC HZ EP        2 9 24.36                             127   -0.18 9  161 219 
 SPBC HN ES        2 9 45.66                             127   -0.33 9  161 219 
 SPBC HZ I         2 9 51.81         8.5 0.22            128            161 219 
 NOR  HZ EP        2 9 32.01                             117    0.06 8  232 235 
 NOR  HN ES        2 9 59.43                             117    0.23 8  232 235 
 NOR  HZ I         210  7.36         4.0 0.20            118            232 235 
 SML  HZ EP        2 9 33.14                             115   -0.14 8  245 336 
 SML  HN ES        210  1.32                             115   -0.24 8  245 336 
 SML  HZ I         210  4.64         8.3 0.26            117            245 336 
 CHI  HZ EP        2 9 33.68                             115   -0.24 8  246 195 
 CHI  HZ I         2 9 34.55         2.2 0.36            117            246 195 
 CHI  HE ES        210  1.50                             115   -1.19 8  246 195 
 GUY2CHZ EP        2 9 41.10                             111    1.16 7  299 235 
 GUY2CHN ES        210 13.92                             111    0.51 7  299 235 
 GUY2CHZ I         210 25.53         2.1 0.36                           299 235 
                                                                                
