 2017  2 1 0606 58.3 L   6.726 -73.129144.0  RSN  4 0.0 0.8LRSN                1
 GAP=234        0.29       6.4     4.2  5.3  0.4935E+01 -0.4752E+01 -0.3843E+01E
 Epicentro: JORDAN - SANTANDER                                                 3
 ACTION:UPD 17-05-24 15:31 OP:jn   STATUS:               ID:20170201060658 L   I
 OLDACT:UP  17-02-01 17:15 OP:and  STATUS:               ID:20170201055745d    3
 OLDACT:UP  17-02-01 17:14 OP:and  STATUS:               ID:20170201055745d    3
 OLDACT:DUP 17-02-01 17:11 OP:e    STATUS:               ID:20170201055745d    3
 2017-02-01-0558-00M.COL___319                                                 6
 STAT SP IPHASW D HRMM SECON CODA AMPLIT PERI AZIMU VELO AIN AR TRES W  DIS CAZ7
 BAR2 EZ EP        6 7 17.60                             173   -0.0110 15.9 202 
 BRR  HZ EP   2    6 7 19.66                             150    0.04 5 77.1 303 
 BRR  HN ES   2    6 7 36.22                             150   -0.01 5 77.1 303 
 BRR  HZ I         6 7 37.13         2.6 0.30            151           77.1 303 
 RUS  HZ EP   9    6 7 22.13                             146    0.82 0 92.3 177 
 RUS  HN ES   2    6 7 40.14                             145    0.08 5 92.3 177 
 RUS  HZ I         6 7 45.39         0.5 0.22            137           92.3 177 
 PTB  HZ EP   2    6 7 25.17                             131   -0.02 5  148 262 
 PTB  HN ES   2    6 7 46.16                             131    0.01 5  148 262 
 PTB  HZ I         6 7 51.24         0.7 0.25            129            148 262 
                                                                                
