 2014  4 1 0236  6.4 L   6.812 -73.142144.2  RSN 13 0.5 1.9LRSN                1
 GAP=136        1.15       2.9     4.3  6.2 -0.2517E+01  0.9841E+01  0.1456E+00E
 Epicentro: LOS SANTOS - SANTANDER                                             3
 ACTION:UPD 14-05-13 23:05 OP:nd   STATUS:               ID:20140401023606 L   I
 OLDACT:REG 14-04-01 13:18 OP:carl STATUS:               ID:20140401023042     3
 2014-04-01-0230-42M.COL___246                                                 6
 STAT SP IPHASW D HRMM SECON CODA AMPLIT PERI AZIMU VELO AIN AR TRES W  DIS CAZ7
 BAR2 SZ EP     C  236 26.04                             170    0.2110 24.7 190 
 BAR2 SZ ES        236 40.88                             170   -0.1310 24.7 190 
 BAR2 SZ I         236 43.74        16.9 0.30            169           24.7 190 
 PAM  SZ EP        236 28.72                             151    0.3910 76.1  40 
 PAM  SN ES        236 45.72                             151    0.2510 76.1  40 
 PAM  SZ I         236 48.08        14.3 0.54            156           76.1  40 
 RUS  HZ EP        236 29.93                             143   -0.1210  102 176 
 RUS  HN ES        236 48.57                             143    0.0510  102 176 
 RUS  HZ I         236 49.63         5.7 0.22            147            102 176 
 PTB  HZ EP        236 32.71                             131   -0.54 9  148 258 
 PTB  HN ES        236 54.49                             131    0.26 9  148 258 
 PTB  HZ I         237  1.22        15.0 0.36            132            148 258 
 OCA  HZ EP        236 34.69                             129    0.26 9  159 353 
 OCA  HN ES        236 56.08                             129   -0.24 9  159 353 
 OCA  HZ I         237  6.66         9.0 0.38            132            159 353 
 SPBC HZ EP        236 35.00                             128    0.15 9  164 219 
 SPBC HN ES        236 56.61                             128   -0.47 9  164 219 
 SPBC HZ I         237  1.59        11.6 0.18            130            164 219 
 ZAR  HZ EP        236 38.23                             122   -0.45 9  204 292 
 ZAR  HN ES        237  4.31                             122    0.41 9  204 292 
 ZAR  HZ I         237 10.01        15.2 0.44            123            204 292 
 NOR  HZ EP        236 42.11                             118    0.00 8  236 234 
 NOR  HN ES        237  9.89                             118   -0.10 8  236 234 
 NOR  HZ I         237 15.75         7.4 0.68            120            236 234 
 SML  HZ EP        236 42.40                             117   -0.38 8  243 335 
 SML  HN ES        237 10.35                             117   -0.85 8  243 335 
 SML  HZ I         237 15.81         8.1 0.26            119            243 335 
 CHI  HZ EP        236 44.17                             117    0.05 8  250 195 
 CHI  HN ES        237 13.40                             117   -0.17 8  250 195 
 CHI  HZ I         237 23.31         2.8 0.36            119            250 195 
 HEL  HZ EP        236 48.10                             114    1.54 8  273 256 
 HEL  HN ES        237 17.82                             114   -0.11 8  273 256 
 HEL  HZ I         237 25.02         5.0 0.36            116            273 256 
 RREF HZ EP        236 52.96                             110    0.40 7  323 229 
 RREF HN ES        237 29.60                             110    1.00 7  323 229 
 RREF HZ I         237 37.70         5.1 0.30            112            323 229 
 PRA  HZ EP        236 59.61                             106   -0.37 6  393 210 
 PRA  HN ES        237 40.19                             106   -1.61 6  393 210 
 PRA  HZ I         237 45.53         3.1 0.58            108            393 210 
                                                                                
