 2012  1 1 0210 39.8 L   6.746 -73.208150.3  RSN  4 0.2 1.2LRSN                1
 GAP=226        0.44       4.9     5.2  6.6  0.1469E+02  0.5709E+01 -0.2945E+01E
 Epicentro: VILLANUEVA - SANTANDER                                             3
 ACTION:UP  12-02-03 08:12 OP:REBC STATUS:               ID:20120101021039 L   I
 2012-01-01-0210-00M.COL___187                                                 6
 STAT SP IPHASW D HRMM SECON CODA AMPLIT PERI AZIMU VELO SNR AR TRES W  DIS CAZ7
 BRR  HZ EP   1    211  1.22                             154    -0.1 7   69 306 
 BRR  HZ I         211 11.00         2.9 0.33                            69 306 
 BRR  HN ES   1    211 18.00                             154    -0.1 7   69 306 
 RUS  HN ES   1    211 22.39                             146     0.1 7   95 172 
 PTB  HZ EP   1    211  6.44                             135     0.0 7  140 261 
 PTB  HN ES   1    211 27.08                             135    -0.2 7  140 261 
 ZAR  HE ES   1    211 37.71                             124     0.3 6  200 294 
 ZAR  HZ I         211 44.81         1.3 0.41                           200 294 
                                                                                
