 2014  7 1 0005 25.0 L   6.614 -73.145137.0  RSN  4 0.4 1.1LRSN                1
 GAP=224        1.03       7.7     7.8  9.0  0.3017E+02  0.7356E+01 -0.2029E+00E
 Epicentro: SAN GIL - SANTANDER                                                3
 ACTION:UPD 15-03-16 20:40 OP:nd   STATUS:               ID:20140701000525 L   I
 OLDACT:REG 14-07-01 12:29 OP:spq  STATUS:               ID:20140701000002     3
 2014-07-01-0000-02M.COL___247                                                 6
 STAT SP IPHASW D HRMM SECON CODA AMPLIT PERI AZIMU VELO AIN AR TRES W  DIS CAZ7
 BAR2 SZ EP        0 5 42.81                             178   -0.5210 4.82 240 
 BAR2 SZ ES   1    0 5 57.25                             178   -0.38 7 4.82 240 
 BAR2 SZ I         0 5 59.85         4.6 0.24            175           4.82 240 
 RUS  HZ EP        0 5 47.12                             148    0.6610 80.1 175 
 RUS  HN ES        0 6  3.17                             148   -0.0310 80.1 175 
 RUS  HZ I         0 6  7.35         1.4 0.22            151           80.1 175 
 BRR  HZ IP     D  0 5 45.72                             147   -0.2410 83.1 311 
 BRR  HN ES        0 6  2.88                             147    0.5810 83.1 311 
 BRR  HZ I         0 6  6.86         3.8 0.38            150           83.1 311 
 PTB  HZ EP        0 5 50.95                             130   -0.09 9  145 267 
 PTB  HN ES        0 6 11.17                             130   -0.18 9  145 267 
 PTB  HZ I         0 6 14.26         1.7 0.16            134            145 267 
                                                                                
