 2012 10 1 0424 48.2 L   6.769 -73.230156.0  RSN  5 0.3 1.7LRSN                1
 GAP=158        0.77      10.9     9.3 16.9 -0.1834E+02 -0.9811E+02  0.7792E+02E
 Epicentro: ZAPATOCA - SANTANDER                                               3
 ACTION:UPD 12-11-22 17:01 OP:ep   STATUS:               ID:20121001042448 L   I
 2012-10-01-0419-37M.COL___193                                                 6
 STAT SP IPHASW D HRMM SECON CODA AMPLIT PERI AZIMU VELO AIN AR TRES W  DIS CAZ7
 BAR2 SZ EP        425  8.81                             172   -0.2210 20.2 165 
 BAR2 SZ I         425 27.53         8.9 0.16                          20.2 165 
 GIR2 SZ EP        425  8.81                             167   -0.3910 34.5   7 
 BRR  HZ EP        425 10.55                             156    0.3810 65.1 305 
 BRR  HZ I         425 10.61         8.1 0.14                          65.1 305 
 BRR  HN ES   1    425 27.58                             156    0.28 7 65.1 305 
 RUS  HZ EP   1    425 13.27                             146    0.44 7 98.2 171 
 PTB  HN EP   3    425 15.38                             136    0.18 2  138 259 
 PTB  HE ES   1    425 35.89                             136   -0.36 7  138 259 
 PTB  HN I         425 39.35         7.2 0.26                           138 259 
                                                                                
