 2016  4 1 0522 27.4 L   6.812 -73.203132.0  RSN 12 0.4 1.8LRSN                1
 GAP=129        0.93       2.8     3.9  6.5 -0.3385E+01  0.1545E+02 -0.5022E+01E
 Epicentro: ZAPATOCA - SANTANDER                                               3
 ACTION:UPD 16-05-05 14:17 OP:rebc STATUS:               ID:20160401052227 L   I
 OLDACT:REG 16-04-01 12:49 OP:ak   STATUS:               ID:20160401051745     3
 2016-04-01-0517-45M.COL___310                                                 6
 STAT SP IPHASW D HRMM SECON CODA AMPLIT PERI AZIMU VELO AIN AR TRES W  DIS CAZ7
 BAR2 EZ EP        522 45.34                             169   -0.1010 24.5 175 
 BAR2 EZ ES        522 59.34                             169   -0.1410 24.5 175 
 BAR2 EZ I         523  1.53        10.9 0.16            170           24.5 175 
 PAM  EZ IP     C  522 48.37                             147   -0.0410 80.6  44 
 PAM  EN ES        523  5.17                             147    0.3910 80.6  44 
 PAM  EZ I         523  5.77         9.9 0.34            153           80.6  44 
 RUS  HZ EP   4    522 49.85                             140   -0.16 0  103 173 
 RUS  HN ES        523  7.42                             140   -0.2010  103 173 
 RUS  HZ I         523  8.61         3.5 0.24            145            103 173 
 PTB  HZ EP        522 52.00                             130   -0.75 9  142 258 
 PTB  HN ES        523 12.80                             130    0.30 9  142 258 
 PTB  HZ I         523 15.81        10.1 0.15            131            142 258 
 OCA  HZ EP        522 54.39                             127   -0.13 9  158 355 
 OCA  HE ES        523 15.63                             127   -0.01 9  158 355 
 OCA  HZ I         523 16.70        22.6 0.32            130            158 355 
 SPBC HN ES        523 16.33                             126    0.48 9  160 217 
 SPBC HZ I         523 20.02         9.3 0.16            129            160 217 
 ZAR  HZ EP        522 58.47                             120    0.13 9  198 292 
 ZAR  HE ES   4    523 24.21                             120    1.77 0  198 292 
 ZAR  HZ I         523 30.26         8.0 0.26            122            198 292 
 CHI  HN ES        523 32.88                             114   -0.31 8  248 194 
 URE  HZ EP        523  7.89                             111    0.75 7  277 292 
 URE  HE ES        523 37.18                             111   -0.93 7  277 292 
 URE  HZ I         523 39.45         5.7 0.12            114            277 292 
 GUY2CHZ EP   2    523 10.14                             110    0.20 4  297 234 
 GUY2CHN ES        523 42.93                             110   -0.16 7  297 234 
 GUY2CHZ I         523 50.72         4.6 0.26                           297 234 
 CBOC HZ EP        523 13.77                             108    0.61 7  328 252 
 CBOC HN ES        523 49.29                             108    0.47 7  328 252 
 CBOC HZ I         523 53.14         1.5 0.24            110            328 252 
 MON  HZ EP   4    523 12.76                             106   -2.49 0  348 309 
 MON  HE ES        523 52.43                             106   -0.12 6  348 309 
 MON  HZ I         523 52.63         1.6 0.16            109            348 309 
                                                                                
