 2017 11 1 0058 22.1 L   6.741 -73.135137.1  RSN  5 0.5 1.2LRSN                1
 GAP=234        1.00       5.9     7.3  9.7  0.1013E+02  0.2078E+02  0.5147E+01E
 Epicentro: LOS SANTOS - SANTANDER                                             3
 ACTION:UPD 17-12-12 19:50 OP:rebc STATUS:               ID:20171101005822 L   I
 OLDACT:REG 17-11-01 13:20 OP:dnl  STATUS:               ID:20171101004739     3
 2017-11-01-0048-00M.COL___417                                                 6
 STAT SP IPHASW D HRMM SECON CODA AMPLIT PERI AZIMU VELO AIN AR TRES W  DIS CAZ7
 BAR2 EZ EP   2    058 40.39                             172   -0.17 5 17.3 198 
 BAR2 EZ ES        058 54.37                             172   -0.6010 17.3 198 
 BAR2 EZ I         058 56.04         9.2 0.86            169           17.3 198 
 BRR  HZ EP        058 42.40                             149   -0.1710 75.6 302 
 BRR  HN ES        058 59.27                             149    0.7310 75.6 302 
 BRR  HZ I         059  2.69         4.0 0.46            149           75.6 302 
 RUS  HZ EP   2    058 44.85                             144    0.35 5 94.0 177 
 RUS  HN ES        059  2.21                             144    0.2210 94.0 177 
 RUS  HZ I         059  3.81         1.2 0.18            145           94.0 177 
 PTB  HZ EP   2    058 47.67                             130   -0.69 5  148 261 
 PTB  HE ES        059  8.42                             130   -0.44 9  148 261 
 PTB  HZ I         059 11.39         1.3 0.42            130            148 261 
 SPBC HZ EP   2    058 50.16                             128    0.64 5  159 221 
 SPBC HN ES        059 11.13                             128    0.21 9  159 221 
 SPBC HZ I         059 15.61         2.6 0.42            128            159 221 
                                                                                
