 2015  6 1 0543 32.1 L   6.777 -73.087146.0  RSN  5 0.6 1.5LRSN                1
 GAP=145        1.43       6.0    10.6 11.3  0.1171E+02  0.1205E+02 -0.1728E+02E
 Epicentro: LOS SANTOS - SANTANDER                                             3
 ACTION:UPD 15-09-10 22:08 OP:cam  STATUS:               ID:20150601054332 L   I
 OLDACT:REG 15-06-01 13:16 OP:ak   STATUS:               ID:20150601053739     3
 2015-06-01-0537-39M.COL___303                                                 6
 STAT SP IPHASW D HRMM SECON CODA AMPLIT PERI AZIMU VELO AIN AR TRES W  DIS CAZ7
 PAM  SZ EP        543 54.93                             151    0.6810 75.5  34 
 PAM  SN ES        544 11.61                             151    0.1110 75.5  34 
 PAM  SZ I         544 14.79         2.6 0.25            154           75.5  34 
 BRR  HZ IP     C  543 54.17                             150    0.4710 78.2 298 
 BRR  HN ES        544 11.26                             150    0.7310 78.2 298 
 BRR  HZ I         544 16.72         4.9 0.14            150           78.2 298 
 RUS  HZ EP   1    543 55.71                             145    0.02 7 97.7 180 
 RUS  HN ES        544 13.19                             145   -0.8810 97.7 180 
 OCA  HZ EP        544  0.85                             129    0.08 9  164 351 
 OCA  HN ES        544 22.48                             129   -0.64 9  164 351 
 OCA  HZ I         544 28.89         6.1 0.32            131            164 351 
 SML  HZ EP        544  9.16                             117   -0.15 8  249 334 
 SML  HN ES        544 37.40                             117   -0.92 8  249 334 
 SML  HZ I         544 42.14         4.3 0.10            119            249 334 
                                                                                
