 2013  3 1 0126 31.2 L   6.696 -73.166157.2  RSN  3 0.4 1.4LRSN                1
 GAP=227        1.10       9.6    10.0 11.1  0.5377E+02 -0.8073E+01 -0.8086E+01E
 Epicentro: VILLANUEVA - SANTANDER                                             3
 ACTION:UPD 13-04-09 13:58 OP:ep   STATUS:               ID:20130301012631 L   I
 2013-03-01-0118-45M.COL___196                                                 6
 STAT SP IPHASW D HRMM SECON CODA AMPLIT PERI AZIMU VELO AIN AR TRES W  DIS CAZ7
 BRR  HZ EP        126 54.23                             153    0.3810 75.6 307 
 BRR  HN ES        127 11.29                             153   -0.2110 75.6 307 
 BRR  HN I         127 12.57         8.7 0.26            151           75.6 307 
 RUS  HE EP        126 54.64                             149   -0.7310 89.3 174 
 RUS  HZ ES        127 14.62                             149    0.4110 89.3 174 
 RUS  HZ I         127 16.49         0.9 0.36            147           89.3 174 
 PTB  HZ EP        126 59.20                             135    0.40 9  144 263 
 PTB  HN ES        127 20.08                             135   -0.23 9  144 263 
 PTB  HN I         127 25.82         5.6 0.28            133            144 263 
                                                                                
