 2011 12 1 0404 56.0 L   7.471 -73.192136.3  RSN  4 0.8 1.7LRSN                1
 GAP=130        1.52       9.6    13.4 17.1 -0.4348E+01  0.1888E+02 -0.4269E+02E
 Epicentro: EL PLAYON - SANTANDER                                              3
 ACTION:UPD 12-07-13 16:13 OP:ep   STATUS:               ID:20111201040456 L   I
 2011-12-01-0403-11S.COL___161                                                 6
 STAT SP IPHASW D HRMM SECON CODA AMPLIT PERI AZIMU VELO AIN AR TRES W  DIS CAZ7
 PAM  SZ EP        4 5 16.07                             157    0.0710 56.3 105 
 PAM  SN ES   1    4 5 30.89                             157   -0.74 7 56.3 105 
 BRR  HZ EP        4 5 15.78                             151   -0.2510 70.1 235 
 BRR  HN ES   1    4 5 31.33                             151   -0.35 7 70.1 235 
 BRR  HZ I         4 5 31.84        14.6 0.12                          70.1 235 
 OCA  SZ EP        4 5 18.09                             145    0.8110 86.1 351 
 OCA  SZ ES   1    4 5 34.80                             145    0.90 7 86.1 351 
 OCA  SZ I         4 5 36.65         6.1 0.20                          86.1 351 
 COD  HE ES   1    4 6  4.61                             112   -1.64 6  274 354 
                                                                                
