 2015  2 1 0047 12.1 L   6.619 -73.319122.7  RSN  7 0.3 1.5LRSN                1
 GAP=101        0.79       2.9     4.5  6.4  0.2067E+01  0.8250E+01 -0.8997E+00E
 Epicentro: GALAN - SANTANDER                                                  3
 ACTION:UPD 15-04-30 21:20 OP:nd   STATUS:               ID:20150201004712 L   I
 OLDACT:REG 15-02-01 11:56 OP:spq  STATUS:               ID:20150201003744     3
 2015-02-01-0037-44M.COL___262                                                 6
 STAT SP IPHASW D HRMM SECON CODA AMPLIT PERI AZIMU VELO AIN AR TRES W  DIS CAZ7
 BAR2 EZ EP        047 29.01                             172    0.2410 15.3 101 
 BAR2 EZ ES   1    047 42.05                             172    0.25 7 15.3 101 
 BAR2 EZ I         047 43.19        11.9 0.38            174           15.3 101 
 BRR  HZ EP        047 30.69                             149    0.0410 69.3 321 
 BRR  HN ES        047 45.38                             149    0.2310 69.3 321 
 BRR  HZ I         047 45.69        11.8 0.36            149           69.3 321 
 RUS  HZ EP        047 32.55                             144    0.1710 84.4 162 
 RUS  HN ES   1    047 48.06                             144   -0.17 7 84.4 162 
 RUS  HZ I         047 49.60         2.5 0.20            145           84.4 162 
 SPBC HN ES        047 54.42                             129   -0.56 9  136 218 
 SPBC HZ I         047 56.29         6.5 0.10            130            136 218 
 OCA  HN ES        048  2.25                             121   -0.69 9  179 360 
 OCA  HZ I         048  4.39         4.1 0.32            122            179 360 
 ZAR  HZ EP        047 42.30                             118    0.10 9  196 300 
 ZAR  HE ES        048  5.91                             118    0.20 9  196 300 
 ZAR  HZ I         048  8.17         3.4 0.21            119            196 300 
 NOR  HZ EP   1    047 43.78                             116    0.23 6  208 236 
                                                                                
