 2010 11 1 0910 43.7 L   6.780 -73.120139.7  RSN 12 0.4 2.2LRSN                1
 GAP=162        0.95       4.0     7.1  6.8 -0.8689E+01  0.5415E+01 -0.1912E+01E
 Epicentro: LOS SANTOS - SANTANDER                                             3
 ACTION:UP  10-12-17 16:49 OP:REBC STATUS:               ID:20101101091043 L   I
 2010-11-01-0907-09S.COL___125                                                 6
 STAT SP IPHASW D HRMM SECON CODA AMPLIT PERI AZIMU VELO SNR AR TRES W  DIS CAZ7
 BAR2 SZ IP        911  2.60                             171     0.010   22 199 
 BAR2 SZ ES   1    911 17.03                             171    -0.3 7   22 199 
 BAR2 SZ I         911 18.72        26.9 0.18                            22 199 
 BRR  HZ IP     D  911  4.44                             150     0.010   75 299 
 BRR  HN ES   1    911 21.10                             150     0.5 7   75 299 
 BRR  HZ I         911 23.09        30.0 0.12                            75 299 
 RUS  HZ EP        911  6.67                             143     0.010   98 178 
 RUS  HN ES   1    911 24.55                             143    -0.1 7   98 178 
 RUS  HZ I         911 26.22        16.4 0.31                            98 178 
 GUE  SZ EP        911  7.74                             138    -0.210  118  10 
 GRA  SZ EP        911  9.44                             135     0.910  127  16 
 GRA  SZ I         911 35.59         8.9 0.31                           127  16 
 OCA  SZ EP        911 11.28                             128    -0.5 9  163 352 
 OCA  SZ ES   1    911 33.26                             128    -0.4 7  163 352 
 OCA  SZ I         911 37.66        20.1 0.39                           163 352 
 NOR  SZ EP        911 19.06                             117    -0.2 8  236 235 
 NOR  SE ES   1    911 46.80                             117    -0.1 6  236 235 
 ROSC BZ EP   3    911 22.03                             115     0.6 2  252 212 
 ROSC BN ES   3    911 50.95                             115     0.1 2  252 212 
 HEL  HZ EP   2    911 23.88                             113     0.0 4  274 256 
 HEL  HZ I         912  1.21         9.7 0.43                           274 256 
 GUY  SZ EP   3    911 27.29                             111     0.1 2  302 236 
 GUY  SZ I         912  9.67         9.3 0.43                           302 236 
 RREF HZ EP   2    911 30.27                             110     0.6 3  323 230 
 RREF HZ I         912 12.39         6.3 0.27                           323 230 
 PRA  HZ EP        911 36.71                             106    -0.2 6  392 210 
 PRA  HZ I         912 22.67        16.2 0.25                           392 210 
                                                                                
