 2010 12 1 0552 15.3 L   6.792 -73.085149.4  RSN 10 0.4 2.1LRSN                1
 GAP=165        0.79       3.0     6.2  6.2 -0.6608E+01  0.2098E+01  0.2007E+01E
 Epicentro: LOS SANTOS - SANTANDER                                             3
 ACTION:UP  11-01-14 15:22 OP:pat  STATUS:               ID:20101201055215 L   I
 2010-12-01-0549-22S.COL___132                                                 6
 STAT SP IPHASW D HRMM SECON CODA AMPLIT PERI AZIMU VELO SNR AR TRES W  DIS CAZ7
 BAR2 SZ IP     C  552 35.39                             170     0.010   25 206 
 BAR2 SZ I         552 35.67        24.7 0.22                            25 206 
 BAR2 SZ ES   2    552 50.55                             170    -0.6 5   25 206 
 BRR  HZ EP        552 37.30                             151     0.110   78 297 
 BRR  HE ES   1    552 54.71                             151     0.4 7   78 297 
 BRR  HZ I         552 56.99        29.4 0.15                            78 297 
 RUS  HZ EP        552 39.22                             145    -0.210   99 180 
 RUS  HN ES   1    552 58.20                             145     0.1 7   99 180 
 RUS  HZ I         553  0.98        12.1 0.42                            99 180 
 GUE  SZ EP        552 40.56                             140     0.210  116   9 
 GRA  SZ EP        552 41.17                             138     0.310  125  14 
 GRA  SZ ES   1    553  0.72                             138     0.0 7  125  14 
 GRA  SZ I         553  2.09        24.6 0.30                           125  14 
 OCA  SZ EP        552 43.87                             130    -0.2 9  162 351 
 OCA  SZ ES   1    553  6.09                             130    -0.5 7  162 351 
 OCA  SZ I         553 10.53        20.9 0.83                           162 351 
 NOR  SZ EP        552 51.27                             119    -0.6 8  240 236 
 NOR  SE ES   2    553 19.67                             119    -0.6 4  240 236 
 CHI  HZ EP        552 53.49                             118     0.1 8  250 197 
 CHI  HN ES   1    553 23.28                             118     0.3 6  250 197 
 CHI  HZ I         553 30.78         6.0 0.65                           250 197 
 HEL  HZ EP   3    552 56.98                             115     0.5 2  278 256 
 HEL  HZ I         553 33.41         4.0 0.22                           278 256 
 GUY  SZ EP   2    552 59.88                             113     0.2 4  306 236 
 GUY  SE ES   2    553 35.65                             113     1.4 4  306 236 
 GUY  SZ I         553 41.36        11.5 0.76                           306 236 
                                                                                
