 2016  9 1 0856 45.9 L   6.757 -73.123147.1  RSN  6 0.2 1.3LRSN                1
 GAP=237        0.59       3.2     3.5  4.0  0.4529E+01  0.2287E+01 -0.5244E+00E
 Epicentro: LOS SANTOS - SANTANDER                                             3
 ACTION:UPD 17-08-17 21:05 OP:lp   STATUS:               ID:20160901085645 L   I
 OLDACT:REG 16-09-01 13:03 OP:drio STATUS:               ID:20160901084739     3
 2016-09-01-0848-00M.COL___346                                                 6
 STAT SP IPHASW D HRMM SECON CODA AMPLIT PERI AZIMU VELO AIN AR TRES W  DIS CAZ7
 BAR2 EZ IP        857  5.52                             172   -0.0710 19.3 200 
 BAR2 EZ ES        857 20.70                             172   -0.2810 19.3 200 
 BAR2 EZ I         857 21.28         6.9 0.44            168           19.3 200 
 BRR  HZ EP        857  7.74                             151    0.3110 75.7 301 
 BRR  HN ES        857 24.36                             151    0.1210 75.7 301 
 BRR  HZ I         857 27.36         4.3 0.28            148           75.7 301 
 RUS  HZ EP        857  9.25                             145   -0.1610 95.7 177 
 RUS  HN ES        857 28.02                             145    0.2510 95.7 177 
 RUS  HZ I         857 28.97         1.9 0.30            146           95.7 177 
 PTB  HZ EP        857 12.89                             132   -0.20 9  149 261 
 PTB  HE ES        857 34.58                             132    0.25 9  149 261 
 PTB  HZ I         857 37.40         2.3 0.22            130            149 261 
 SPBC HZ EP        857 14.52                             130    0.24 9  161 221 
 SPBC HN ES        857 36.19                             130   -0.25 9  161 221 
 SPBC HZ I         857 40.84         2.5 0.28            129            161 221 
 ZAR  HZ EP        857 18.75                             122   -0.08 8  208 293 
 ZAR  HN ES        857 44.32                             122   -0.21 8  208 293 
 ZAR  HZ I         857 52.22         2.0 0.52            121            208 293 
                                                                                
