 2014 12 1 0410 37.7 L   6.824 -73.142147.3  RSN  7 0.5 1.8LRSN                1
 GAP=183        1.35       4.9     8.4  9.1  0.2024E+01  0.3966E+01  0.9225E+01E
 Epicentro: LOS SANTOS - SANTANDER                                             3
 ACTION:UPD 15-02-10 16:59 OP:nd   STATUS:               ID:20141201041037 L   I
 OLDACT:DUP 14-12-01 13:55 OP:carl STATUS:               ID:20141201040749d    3
 2014-12-01-0407-48M.COL___303                                                 6
 STAT SP IPHASW D HRMM SECON CODA AMPLIT PERI AZIMU VELO AIN AR TRES W  DIS CAZ7
 BAR2 SZ EP        410 57.87                             170    0.3010 26.0 190 
 BAR2 SZ ES        411 12.51                             170   -0.5610 26.0 190 
 BAR2 SZ I         411 13.90        12.9 0.16            168           26.0 190 
 BRR  HZ EP        410 59.63                             153    0.6710 70.3 296 
 BRR  HN ES        411 16.55                             153    1.0010 70.3 296 
 BRR  HZ I         411 19.81        11.1 0.32            153           70.3 296 
 RUS  HZ EP        411  1.89                             143    0.1010  103 176 
 RUS  HN ES        411 20.45                             143   -0.1410  103 176 
 RUS  HZ I         411 22.30         6.0 0.26            144            103 176 
 PTB  HZ EP        411  4.56                             132   -0.31 9  149 258 
 PTB  HN ES        411 25.23                             132   -0.84 9  149 258 
 PTB  HZ I         411 26.96         9.1 0.12            133            149 258 
 OCA  HN ES        411 27.20                             130   -0.67 9  158 353 
 SPBC HZ EP        411  6.90                             129    0.36 9  166 218 
 SPBC HN ES        411 29.28                             129    0.25 9  166 218 
 SPBC HZ I         411 32.02         9.0 0.40            130            166 218 
 CHI  HZ EP        411 15.24                             117   -0.53 8  251 195 
 CHI  HN ES        411 45.53                             117    0.06 8  251 195 
 CHI  HZ I         411 49.30         3.9 0.80            118            251 195 
                                                                                
