 2010  1 1 0902 16.2 L   7.234 -73.399106.0  RSN  7 0.5 2.0LRSN                1
 GAP=120        1.01       4.4     7.1 15.7 -0.4505E+01  0.3605E+02  0.1589E+02E
 Epicentro: SABANA DE TORRES - SANTANDER                                       3
 ACTION:UP  10-08-24 09:42 OP:vdl  STATUS:               ID:20100101090216 L   I
 2010-01-01-0900-00S.COL___096                                                 6
 STAT SP IPHASW D HRMM SECON CODA AMPLIT PERI AZIMU VELO SNR AR TRES W  DIS CAZ7
 BAR2 SZ IP        9 2 34.23                             142     0.410   75 161 
 OCA  SZ IP        9 2 36.84                             130     0.010  112   4 
 OCA  SZ ES   1    9 2 52.92                             130     0.0 7  112   4 
 RUS  BZ EP   1    9 2 40.86                             121    -0.5 7  152 167 
 RUS  BN ES   1    9 3  0.69                             121    -0.3 7  152 167 
 RUS  BZ I         9 3  2.98        13.2 0.26                           152 167 
 HEL  HZ EP   1    9 2 54.36                             106     0.8 6  262 244 
 HEL  HN ES   1    9 3 21.63                             106    -1.1 6  262 244 
 HEL  HZ I         9 3 27.84         8.7 0.18                           262 244 
 CHI  HZ EP   2    9 2 57.46                             104     0.5 4  290 187 
 CHI  HZ I         9 3 36.01         4.2 0.44                           290 187 
 RREF BE ES   1    9 3 39.33                             101     0.4 5  336 220 
 SDV  BZ EP   1    9 3  3.84                             100    -0.6 5  355  59 
                                                                                
