 2015  1 1 0905  8.8 L   6.798 -73.173149.4  RSN  6 0.3 1.3LRSN                1
 GAP=198        0.84       4.3     5.2  6.2  0.1061E+02 -0.1344E+01 -0.8610E+01E
 Epicentro: LOS SANTOS - SANTANDER                                             3
 ACTION:UPD 15-03-02 15:35 OP:nd   STATUS:               ID:20150101090508 L   I
 OLDACT:DUP 15-01-01 19:17 OP:stll STATUS:               ID:20150101085740d    3
 2015-01-01-0857-39M.COL___277                                                 6
 STAT SP IPHASW D HRMM SECON CODA AMPLIT PERI AZIMU VELO AIN AR TRES W  DIS CAZ7
 BAR2 EZ EP        9 5 28.70                             171   -0.1610 22.7 183 
 BAR2 EZ ES        9 5 44.06                             171   -0.4410 22.7 183 
 BAR2 EZ I         9 5 45.09         4.4 0.22            177           22.7 183 
 BRR  HZ EP        9 5 30.76                             154    0.5510 68.7 300 
 BRR  HN ES        9 5 47.42                             154    0.5110 68.7 300 
 BRR  HZ I         9 5 51.80         3.4 0.30            153           68.7 300 
 RUS  HZ EP        9 5 33.03                             144    0.1210  101 174 
 RUS  HN ES        9 5 51.76                             144    0.0410  101 174 
 RUS  HZ I         9 5 53.10         1.6 0.48            150            101 174 
 PTB  HZ EP        9 5 35.92                             133    0.11 9  145 259 
 PTB  HN ES        9 5 56.51                             133   -0.36 9  145 259 
 PTB  HZ I         9 5 58.68         2.5 0.16            136            145 259 
 ZAR  HN ES        9 6  6.44                             123   -0.06 9  201 293 
 SML  HZ EP        9 5 45.15                             118   -0.38 8  243 336 
 SML  HN ES        9 6 14.00                             118   -0.18 8  243 336 
 SML  HZ I         9 6 23.41         3.3 0.10            119            243 336 
                                                                                
