 2016  3 1 0004 22.7 L   6.755 -73.153132.0  RSN  8 0.5 1.6LRSN                1
 GAP=138        1.18       3.8     5.1  8.3 -0.2429E+01  0.1642E+02  0.3948E+01E
 Epicentro: LOS SANTOS - SANTANDER                                             3
 ACTION:UPD 16-05-13 21:20 OP:cam  STATUS:               ID:20160301000422 L   I
 OLDACT:UP  16-03-01 14:17 OP:mh   STATUS:               ID:20160301000007d    3
 OLDACT:UP  16-03-01 14:17 OP:mh   STATUS:               ID:20160301000007d    3
 OLDACT:UP  16-03-01 14:17 OP:mh   STATUS:               ID:20160301000007d    3
 OLDACT:DUP 16-03-01 14:17 OP:mh   STATUS:               ID:20160301000007d    3
 2016-03-01-0000-06M.COL___322                                                 6
 STAT SP IPHASW D HRMM SECON CODA AMPLIT PERI AZIMU VELO AIN AR TRES W  DIS CAZ7
 BAR2 EZ ES        0 4 53.97                             172   -0.5810 18.2 190 
 BAR2 EZ I         0 4 56.62        10.9 0.16            166           18.2 190 
 PAM  EN EP        0 4 43.96                             147    0.1710 81.8  38 
 PAM  EZ ES        0 5  0.88                             147    0.6610 81.8  38 
 PAM  EN I         0 5  1.73        10.8 0.42            148           81.8  38 
 RUS  HZ EP   1    0 4 44.80                             142    0.02 7 95.6 175 
 RUS  HN ES        0 5  2.32                             142    0.3410 95.6 175 
 RUS  HZ I         0 5  3.82         3.7 0.28            137           95.6 175 
 PTB  HZ EP        0 4 48.41                             129   -0.04 9  146 261 
 PTB  HN ES        0 5  8.05                             129   -0.47 9  146 261 
 PTB  HZ I         0 5 10.91         3.7 0.30            126            146 261 
 OCA  HN ES        0 5 11.36                             125   -0.79 9  165 354 
 OCA  HZ I         0 5 15.09        13.3 0.30            125            165 354 
 ZAR  HN ES        0 5 19.86                             119    0.67 8  205 294 
 ZAR  HZ I         0 5 26.94         4.8 0.22            117            205 294 
 NOR  HZ EP        0 4 57.15                             116   -0.16 8  231 235 
 NOR  HE ES        0 5 25.05                             116    0.77 8  231 235 
 NOR  HZ I         0 5 29.80         1.9 0.54            113            231 235 
 CHI  HZ EP        0 4 58.94                             115   -0.20 8  244 195 
 CHI  HN ES        0 5 27.13                             115   -0.41 8  244 195 
 CHI  HZ I         0 5 51.51         1.6 0.50            112            244 195 
 URE  HZ EP   4    0 5  0.08                             111   -3.22 0  285 293 
 URE  HN ES   4    0 5 32.41                             111   -2.54 0  285 293 
                                                                                
