 2015  5 1 0502  8.6 L   6.740 -73.022129.1  RSN  4 0.1 1.1LRSN                1
 GAP=156        0.34       2.3     4.3  4.3  0.4181E+01 -0.1130E+02 -0.3162E+01E
 Epicentro: ARATOCA - SANTANDER                                                3
 ACTION:UPD 15-09-10 22:00 OP:cam  STATUS:               ID:20150501050208 L   I
 OLDACT:REG 15-05-01 12:45 OP:drio STATUS:               ID:20150501045748     3
 2015-05-01-0457-48M.COL___274                                                 6
 STAT SP IPHASW D HRMM SECON CODA AMPLIT PERI AZIMU VELO AIN AR TRES W  DIS CAZ7
 BAR2 EZ ES        5 2 40.07                             169    0.0710 24.2 227 
 BAR2 EZ I         5 2 42.51         3.5 0.26            171           24.2 227 
 PAM  SZ EP        5 2 28.88                             148   -0.0410 75.2  28 
 PAM  SZ I         5 2 29.12         5.4 0.18            149           75.2  28 
 BRR  HN ES        5 2 44.86                             144   -0.0310 86.4 298 
 RUS  HZ EP        5 2 30.30                             142    0.0710 94.0 184 
 RUS  HZ I         5 2 31.08         1.1 0.20            144           94.0 184 
 RUS  HN ES        5 2 47.03                             142   -0.0810 94.0 184 
                                                                                
