 2016  2 1 0541 35.9 L   6.767 -73.161142.4  RSN  7 0.4 1.3LRSN                1
 GAP=199        0.47       3.5     5.5  6.5  0.5900E+01  0.4229E+01 -0.3474E+01E
 Epicentro: LOS SANTOS - SANTANDER                                             3
 ACTION:UPD 16-03-04 21:22 OP:rebc STATUS:               ID:20160201054135 L   I
 OLDACT:REG 16-02-01 13:29 OP:dnl  STATUS:               ID:20160201052852     3
 2016-02-01-0534-00M.COL___415                                                 6
 STAT SP IPHASW D HRMM SECON CODA AMPLIT PERI AZIMU VELO AIN AR TRES W  DIS CAZ7
 BAR2 EZ EP   3    541 56.10                             172    1.03 2 19.4 187 
 BAR2 EZ ES   2    542 10.07                             172    0.06 5 19.4 187 
 BAR2 EZ I         542 13.84         3.2 0.15            167           19.4 187 
 RUS  HZ EP   2    541 59.26                             144    0.17 5 97.0 175 
 RUS  HN ES   2    542 16.85                             144   -0.31 5 97.0 175 
 RUS  HZ I         542 19.70         2.3 0.29            146           97.0 175 
 PTB  HZ EP   2    542  2.02                             132   -0.38 5  145 260 
 PTB  HN ES   2    542 22.81                             132   -0.25 5  145 260 
 PTB  HZ I         542 29.75         2.7 0.18            130            145 260 
 SPBC HZ EP   2    542  4.37                             129    0.58 5  159 219 
 SPBC HE ES   2    542 26.01                             129    0.49 5  159 219 
 SPBC HZ I         542 29.04         4.1 0.28            129            159 219 
 ZAR  HZ EP   4    542 11.12                             122    2.99 0  204 293 
 ZAR  HE ES   2    542 33.45                             122    0.19 4  204 293 
 ZAR  HZ I         542 40.30         2.2 0.18            122            204 293 
 CHI  HZ EP   2    542 12.80                             117   -0.20 4  245 195 
 CHI  HE ES   2    542 41.37                             117   -0.55 4  245 195 
 CHI  HZ I         542 50.00         0.6 0.31            119            245 195 
 SML  HZ EP   2    542 12.61                             116   -0.04 4  246 336 
 SML  HE ES   2    542 41.03                             116   -0.27 4  246 336 
 SML  HZ I         542 45.49         2.8 0.08            119            246 336 
                                                                                
