 2017  8 1 0023 21.1 L   6.792 -73.124145.5  RSN  8 0.4 1.4LRSN                1
 GAP=140        1.03       4.7     5.2  6.8 -0.5901E+01  0.5233E+01  0.4448E+01E
 Epicentro: LOS SANTOS - SANTANDER                                             3
 ACTION:UPD 17-09-04 20:15 OP:rebc STATUS:               ID:20170801002321 L   I
 OLDACT:DUP 17-08-01 14:54 OP:osc  STATUS:               ID:20170801001745d    3
 2017-08-01-0018-00M.COL___398                                                 6
 STAT SP IPHASW D HRMM SECON CODA AMPLIT PERI AZIMU VELO AIN AR TRES W  DIS CAZ7
 BAR2 EZ EP        023 40.67                             171   -0.0510 23.0 196 
 BAR2 EZ ES        023 56.05                             171    0.0510 23.0 196 
 BAR2 EZ I         023 58.44         8.9 0.30            170           23.0 196 
 BRR  HZ EP        023 42.71                             152    0.3210 73.7 298 
 BRR  HE ES        023 59.70                             152    0.7210 73.7 298 
 PAM  EZ EP        023 43.60                             151    0.3310 76.6  38 
 PAM  EE ES        023 59.87                             151   -0.6710 76.6  38 
 PAM  EZ I         024  2.85         6.2 0.50            155           76.6  38 
 RUS  HZ EP        023 44.94                             144    0.1610 99.6 177 
 RUS  HN ES        024  3.22                             144   -0.0110 99.6 177 
 RUS  HZ I         024  4.28         2.5 0.22            146           99.6 177 
 PTB  HZ EP        023 47.77                             131   -0.50 9  150 259 
 PTB  HE ES        024  8.74                             131   -0.71 9  150 259 
 PTB  HZ I         024 14.83         1.1 0.12            132            150 259 
 SPBC HZ EP        023 49.62                             129   -0.07 9  164 220 
 SPBC HE ES        024 12.31                             129    0.35 9  164 220 
 SPBC HZ I         024 16.45         5.0 0.24            130            164 220 
 NOR  HZ EP   2    023 57.25                             118    0.25 4  236 235 
 CHI  HN ES   2    024 27.74                             117   -0.43 4  248 196 
                                                                                
