 2014 12 1 0858 34.3 L   6.845 -73.134146.9  RSN  7 0.4 1.7LRSN                1
 GAP=149        1.11       5.0     5.2  7.5 -0.9042E+01  0.1020E+02 -0.6147E+01E
 Epicentro: LOS SANTOS - SANTANDER                                             3
 ACTION:UPD 15-02-10 16:59 OP:nd   STATUS:               ID:20141201085834 L   I
 OLDACT:REG 14-12-01 12:25 OP:carl STATUS:               ID:20141201085747     3
 2014-12-01-0857-47M.COL___300                                                 6
 STAT SP IPHASW D HRMM SECON CODA AMPLIT PERI AZIMU VELO AIN AR TRES W  DIS CAZ7
 BAR2 SZ EP        858 54.15                             169   -0.0310 28.5 191 
 BAR2 SZ ES        859  9.38                             169   -0.3110 28.5 191 
 BAR2 SZ I         859 10.05        11.1 0.20            169           28.5 191 
 BRR  HZ EP        858 55.79                             153    0.2810 70.1 294 
 BRR  HN ES        859 12.63                             153    0.5710 70.1 294 
 BRR  HZ I         859 16.01         6.2 0.14            152           70.1 294 
 PAM  SZ EP        858 56.69                             152    0.3210 72.8  41 
 PAM  SN ES        859 13.87                             152    0.2810 72.8  41 
 PAM  SZ I         859 15.46        19.6 0.46            155           72.8  41 
 PTB  HZ EP        859  1.21                             132   -0.36 9  150 257 
 PTB  HN ES        859 22.14                             132   -0.69 9  150 257 
 PTB  HZ I         859 23.63         4.6 0.14            132            150 257 
 OCA  HZ EP        859  1.94                             131   -0.32 9  155 352 
 OCA  HN ES        859 23.26                             131   -0.80 9  155 352 
 OCA  HZ I         859 28.33         4.3 0.32            132            155 352 
 SPBC HN ES        859 26.03                             128    0.05 9  168 218 
 SPBC HZ I         859 33.28         5.4 0.32            130            168 218 
 ZAR  HZ EP        859  7.20                             123    0.45 9  203 291 
 ZAR  HN ES        859 32.59                             123    0.52 9  203 291 
 ZAR  HZ I         859 37.05         5.5 0.22            123            203 291 
                                                                                
