 2015  2 1 0846 27.3 L   6.891 -73.249124.6  RSN  8 0.2 1.6LRSN                1
 GAP=170        0.42       2.1     2.9  4.0  0.2045E+01 -0.6047E+00 -0.3344E+01E
 Epicentro: BETULIA - SANTANDER                                                3
 ACTION:UPD 15-04-30 21:20 OP:nd   STATUS:               ID:20150201084627 L   I
 OLDACT:REG 15-02-01 12:24 OP:spq  STATUS:               ID:20150201083748     3
 2015-02-01-0837-48M.COL___261                                                 6
 STAT SP IPHASW D HRMM SECON CODA AMPLIT PERI AZIMU VELO AIN AR TRES W  DIS CAZ7
 BAR2 EZ EP        846 44.90                             164    0.1810 33.8 167 
 BAR2 EZ ES   1    846 58.29                             164    0.01 7 33.8 167 
 BAR2 EZ I         846 59.32        32.6 0.34            163           33.8 167 
 BRR  HZ EP     D  846 45.34                             154   -0.0210 56.5 295 
 BRR  HN ES        846 59.43                             154    0.0110 56.5 295 
 BRR  HZ I         846 59.81         9.2 0.12            149           56.5 295 
 RUS  HE ES   1    847  7.65                             135   -0.03 7  112 171 
 RUS  HZ I         847  8.65         2.1 0.18            133            112 171 
 OCA  HZ EP   1    846 53.01                             126    0.02 7  149 357 
 OCA  HN ES        847 12.84                             126   -0.16 9  149 357 
 OCA  HZ I         847 14.08         8.4 0.32            124            149 357 
 ZAR  HE ES        847 20.02                             119   -0.04 9  190 291 
 ZAR  HZ I         847 23.33         5.2 0.32            116            190 291 
 SML  HZ EP   1    847  0.99                             114   -0.32 6  230 337 
 SML  HN ES   2    847 28.53                             114    0.71 4  230 337 
 SML  HZ I         847 32.51         8.0 0.10            112            230 337 
 HEL  HZ EP   4    847  7.14                             111    1.54 0  264 253 
 HEL  HN ES   4    847 33.77                             111   -1.69 0  264 253 
 HEL  HZ I         847 39.12         2.1 0.52            108            264 253 
 MON  HN ES   4    847 47.32                             105   -2.73 0  339 308 
 MON  HZ I         847 54.43         1.1 0.60            103            339 308 
                                                                                
