 2017  6 1 0530 10.4 L   6.834 -73.135145.9  RSN 14 0.3 2.1LRSN                1
 GAP=217        0.79       3.6     3.0  5.7  0.3742E+01  0.1045E+01 -0.4685E+01E
 Epicentro: LOS SANTOS - SANTANDER                                             3
 ACTION:UPD 17-09-14 16:48 OP:jn   STATUS:               ID:20170601053010 L   I
 OLDACT:REG 17-06-01 12:46 OP:and  STATUS:               ID:20170601052738     3
 2017-06-01-0528-00M.COL___350                                                 6
 STAT SP IPHASW D HRMM SECON CODA AMPLIT PERI AZIMU VELO AIN AR TRES W  DIS CAZ7
 BRR  HZ IP     D  530 31.79                             153    0.2710 70.6 295 
 BRR  HZ I         530 52.06        24.1 0.24            147           70.6 295 
 RUS  HZ EP        530 34.00                             143   -0.4210  104 177 
 RUS  HN ES        530 53.34                             143    0.1810  104 177 
 RUS  HZ I         530 53.80        12.4 0.24            142            104 177 
 PTB  HZ EP   9    530 36.70                             132   -0.84 0  150 258 
 PTB  HN ES        530 57.72                                   -0.16 9  150 258 
 SPBC HZ EP        530 38.94                             128   -0.31 9  167 219 
 SPBC HE ES        531  1.73                             128   -0.02 9  167 219 
 SPBC HZ I         531  7.93        23.1 0.20            126            167 219 
 YPLC HZ EP        530 40.43                             126   -0.03 9  180 152 
 YPLC HN ES        531  4.24                             126    0.33 9  180 152 
 YPLC HZ I         531  5.38        22.1 0.28            123            180 152 
 ZAR  HZ EP        530 42.64                             122   -0.18 9  204 291 
 ZAR  HE ES        531  7.90                             122   -0.21 9  204 291 
 ZAR  HZ I         531 18.41        10.0 0.24            118            204 291 
 NOR  HZ EP        530 46.53                             118    0.06 8  238 234 
 NOR  HN ES        531 14.38                             118   -0.22 8  238 234 
 NOR  HZ I         531 21.86        10.7 0.14            115            238 234 
 CHI  HZ EP        530 48.05                             117   -0.47 8  253 195 
 CHI  HE ES        531 18.20                             117   -0.06 8  253 195 
 CHI  HZ I         531 27.65         4.1 0.36            114            253 195 
 ROSC BZ EP   4    530 49.76                             116    0.83 0  257 211 
 ROSC BN ES   4    531 21.24                             116    2.25 0  257 211 
 ROSC BZ I         531 26.26         8.5 0.65            113            257 211 
 HEL  HZ EP   4    530 52.15                             114    1.31 0  274 255 
 HEL  HE ES        531 22.66                             114    0.26 8  274 255 
 HEL  HZ I         531 30.25         7.5 0.40            111            274 255 
 PTGC HZ EP   9    530 53.39                             111   -1.21 0  312 159 
 PTGC HZ I         531 26.58         7.2 0.36            108            312 159 
 PTGC HE ES        531 26.77                                   -1.10 7  312 159 
 CBOC HZ EP        530 58.32                             110    0.74 7  336 252 
 CBOC HN ES        531 34.37                             110   -0.01 7  336 252 
 CBOC HZ I         531 51.11         2.4 0.62            107            336 252 
 ORTC HZ EP        531  5.13                             106    0.38 6  399 216 
 ORTC HE ES   2    531 48.03                             106    0.88 3  399 216 
 PAL  HZ EP        531  6.33                             106    0.43 6  409 239 
 PAL  HN ES        531 48.87                             106   -0.33 6  409 239 
 PAL  HZ I         531 51.92         2.2 0.22            103            409 239 
                                                                                
