 2011  8 1 0148 31.9 L   7.376 -73.190136.1  RSN  6 0.4 1.4LRSN                1
 GAP=172        0.62       3.7    11.1  8.1 -0.3583E+01  0.4511E+02  0.6625E+01E
 Epicentro: EL PLAYON - SANTANDER                                              3
 ACTION:UPD 12-07-25 14:05 OP:epov STATUS:               ID:20110801014831 L   I
 2011-08-01-0148-01S.COL___142                                                 6
 STAT SP IPHASW D HRMM SECON CODA AMPLIT PERI AZIMU VELO AIN AR TRES W  DIS CAZ7
 PAM  SZ EP   1    148 51.79                             157   -0.03 7 54.3  94 
 PAM  SN ES   2    149  7.35                             157   -0.01 5 54.3  94 
 BRI  SZ EP   1    148 51.79                             156    0.27 7 57.4  49 
 BRI  SZ ES   2    149  7.62                             156    0.80 5 57.4  49 
 GRA  SZ EP   1    148 52.16                             151   -0.04 7 70.5  37 
 GRA  SZ ES   1    149  7.45                             151   -0.59 7 70.5  37 
 GRA  SZ I         149  8.82        13.4 0.30                          70.5  37 
 BAR2 SZ EP   1    148 53.66                             145    0.30 7 86.7 179 
 BAR2 SZ I         148 53.77         4.8 0.38                          86.7 179 
 BAR2 SZ ES   2    149 10.35                             145    0.26 5 86.7 179 
 OCA  SZ EP   1    148 54.04                             142    0.11 7 96.4 351 
 OCA  SZ ES   2    149 10.84                             142   -0.28 5 96.4 351 
 OCA  SZ I         149 12.71         6.9 0.23                          96.4 351 
 RUS  HZ EP   1    149  0.16                             126   -0.18 7  165 176 
 RUS  HN ES   2    149 21.94                             126   -0.58 5  165 176 
 RUS  HZ I         149 24.03         1.2 0.28                           165 176 
                                                                                
