 2017 10 1 0519 16.1 L   6.777 -73.147146.9  RSN 12 0.4 1.8LRSN                1
 GAP= 71        0.83       2.7     2.9  4.8 -0.3990E+00  0.5017E+01  0.4858E+00E
 Epicentro: LOS SANTOS - SANTANDER                                             3
 ACTION:UPD 17-11-07 19:27 OP:rebc STATUS:               ID:20171001051916 L   I
 OLDACT:REG 17-10-01 13:18 OP:osc  STATUS:               ID:20171001051740     3
 2017-10-01-0518-00M.COL___414                                                 6
 STAT SP IPHASW D HRMM SECON CODA AMPLIT PERI AZIMU VELO AIN AR TRES W  DIS CAZ7
 BAR2 EZ EP        519 35.68                             172   -0.1710 20.8 191 
 BAR2 EZ ES        519 51.26                             172    0.0410 20.8 191 
 BAR2 EZ I         519 51.83        26.4 0.20            171           20.8 191 
 PAM  EZ EP        519 38.78                             150    0.1910 79.5  38 
 PAM  EE ES        519 56.23                             150    0.1210 79.5  38 
 PAM  EZ I         519 58.33        13.6 0.44            151           79.5  38 
 RUS  HZ EP        519 39.40                             145   -0.4110 98.0 176 
 RUS  HE ES        519 58.09                             145   -0.1810 98.0 176 
 RUS  HZ I         519 59.44         7.5 0.32            146           98.0 176 
 TAM  HZ EP        519 43.92                             131    0.07 9  155 104 
 SPBC HZ EP        519 44.46                             130   -0.06 9  161 220 
 SPBC HE ES        520  6.75                             130    0.09 9  161 220 
 SPBC HZ I         520  8.69        10.3 0.10            130            161 220 
 YPLC HZ EP   2    519 45.73                             127   -0.06 4  175 151 
 YPLC HN ES        520  9.16                             127    0.24 9  175 151 
 ZAR  HZ EP        519 49.25                             122    0.51 9  205 293 
 ZAR  HN ES        520 14.22                             122    0.04 9  205 293 
 ZAR  HZ I         520 19.19         7.2 0.22            122            205 293 
 CHI  HZ EP        519 53.59                             118   -0.03 8  246 195 
 CHI  HN ES        520 22.51                             118   -0.35 8  246 195 
 CHI  HZ I         520 30.23         2.4 0.64            118            246 195 
 HEL  HZ EP        519 56.61                             115    0.29 8  271 256 
 HEL  HE ES        520 27.24                             115   -0.43 8  271 256 
 HEL  HZ I         520 34.64         3.1 0.30            115            271 256 
 URE  HE ES   4    520 28.21                             114   -1.30 0  285 292 
 GUY2CHZ EP        520  0.60                             113    0.98 7  300 235 
 GUY2CHE ES        520 33.68                             113    0.15 7  300 235 
 GUY2CHZ I         520 40.87         3.4 0.32                           300 235 
 PRA  HE ES        520 50.73                             107   -0.26 6  390 210 
 SJC  HZ EP        520 10.58                             106   -1.40 6  411 327 
 SJC  HE ES   4    520 52.98                             106   -2.56 0  411 327 
 SJC  HZ I         521  6.41         1.7 0.52            106            411 327 
                                                                                
