 2016  9 1 0253  8.1 L   6.377 -73.605109.1  RSN  9 0.3 1.6LRSN                1
 GAP= 80        0.76       2.6     2.9  5.8 -0.1195E+00  0.9747E+01  0.1629E+01E
 Epicentro: SANTA HELENA DEL OPON - SANTANDER                                  3
 ACTION:UPD 17-08-17 21:05 OP:lp   STATUS:               ID:20160901025308 L   I
 OLDACT:UP  16-09-01 16:01 OP:drio STATUS:               ID:20160901024736     3
 OLDACT:REG 16-09-01 12:46 OP:drio STATUS:               ID:20160901024736     3
 2016-09-01-0248-00M.COL___359                                                 6
 STAT SP IPHASW D HRMM SECON CODA AMPLIT PERI AZIMU VELO AIN AR TRES W  DIS CAZ7
 BAR2 EZ EP        253 24.84                             153    0.3010 52.5  63 
 BAR2 EZ ES        253 37.51                             153    0.1210 52.5  63 
 BAR2 EZ I         253 39.07        40.1 0.42            157           52.5  63 
 RUS  HZ EP        253 26.56                             142   -0.0810 78.8 133 
 RUS  HE ES        253 40.94                             142   -0.1910 78.8 133 
 RUS  HZ I         253 44.39         4.0 0.32            146           78.8 133 
 BRR  HZ EP        253 25.99                             140   -0.1810 81.6 352 
 BRR  HE ES        253 40.50                             140    0.2010 81.6 352 
 SPBC HZ EP        253 26.98                             136   -0.4410 95.3 213 
 SPBC HE ES        253 42.61                             136    0.0910 95.3 213 
 SPBC HZ I         253 45.37        10.9 0.20            138           95.3 213 
 PTB  HZ EP   4    253 26.02                             135   -1.34 0 95.8 281 
 PTB  HE ES   4    253 40.58                             135   -1.83 0 95.8 281 
 PTB  HZ I         253 42.85         6.9 0.16            137           95.8 281 
 NOR  HZ EP        253 34.08                             119   -0.25 9  166 237 
 NOR  HE ES        253 54.85                             119    0.03 9  166 237 
 NOR  HZ I         253 58.11         5.8 0.18            121            166 237 
 ZAR  HE ES        253 58.00                             115   -0.41 9  185 312 
 ZAR  HZ I         254  3.41         6.1 0.28            118            185 312 
 HEL  HZ EP        253 40.06                             112    0.08 8  214 265 
 HEL  HN ES        254  4.98                             112    0.11 8  214 265 
 HEL  HZ I         254  7.21         5.1 0.30            114            214 265 
 GUY2CHZ EP        253 43.10                             110    0.82 8  233 237 
 GUY2CHE ES   4    254 11.80                             110    2.83 0  233 237 
 GUY2CHZ I         254 16.55         2.6 0.32                           233 237 
                                                                                
