 2012  5 1 0010 40.5 L   6.797 -73.104150.5  RSN 13 0.4 2.6LRSN                1
 GAP=129        0.81       2.9     3.7  5.0 -0.1891E+01  0.2890E+01  0.1676E+01E
 Epicentro: LOS SANTOS - SANTANDER                                             3
 ACTION:UP  12-07-05 12:01 OP:pat  STATUS:               ID:20120501001040 L   I
 2012-05-01-0010-00M.COL___189                                                 6
 STAT SP IPHASW D HRMM SECON CODA AMPLIT PERI AZIMU VELO SNR AR TRES W  DIS CAZ7
 BAR2 SZ EP        011  0.65                             170    -0.110   24 201 
 BAR2 SZ ES   1    011 16.10                             170    -0.4 7   24 201 
 BAR2 SZ I         011 17.50        59.8 0.40                            24 201 
 BRR  HZ EP        011  2.66                             152     0.310   75 297 
 BRR  HN ES   1    011 20.08                             152     0.6 7   75 297 
 BRR  HZ I         011 22.32        75.1 0.14                            75 297 
 PAM  SZ EP        011  3.47                             152     0.410   75  37 
 PAM  SN ES   1    011 20.92                             152     0.2 7   75  37 
 RUS  HZ EP        011  4.54                             145    -0.110  100 179 
 RUS  HN ES   1    011 23.52                             145     0.0 7  100 179 
 RUS  HZ I         011 25.93        31.6 0.44                           100 179 
 PTB  HZ EP        011  7.59                             132    -0.7 9  152 259 
 PTB  HE ES   1    011 29.21                             132    -0.7 7  152 259 
 PTB  HZ I         011 34.61        47.0 0.34                           152 259 
 OCA  SZ EP   1    011  9.47                             130     0.2 7  161 352 
 OCA  SZ ES   1    011 31.57                             130    -0.1 7  161 352 
 ZAR  HZ EP   1    011 13.36                             123    -0.3 6  208 292 
 ZAR  HN ES   1    011 39.55                             123    -0.1 6  208 292 
 ZAR  HZ I         011 45.12        65.6 0.53                           208 292 
 CHI  HZ EP        011 18.59                             118     0.0 8  250 196 
 CHI  HN ES   1    011 48.28                             118     0.0 6  250 196 
 CHI  HZ I         011 54.05        22.4 0.45                           250 196 
 HEL  HZ EP   1    011 21.76                             115     0.3 6  276 256 
 HEL  HN ES   1    011 53.71                             115     0.3 6  276 256 
 HEL  HZ I         011 59.33        18.9 0.34                           276 256 
 RREF HZ EP   1    011 27.67                             111     0.4 5  325 230 
 RREF HN ES   1    012  3.83                             111     0.2 5  325 230 
 RREF HZ I         012 12.27        27.6 0.34                           325 230 
 COD  HZ EP   1    011 29.05                             110    -0.1 5  349 354 
 COD  HN ES   2    012  6.74                             110    -0.4 3  349 354 
 SDV  BZ EP   1    011 29.68                             109    -0.7 5  357  50 
 PRA  HZ EP        011 34.78                             107     0.4 6  394 210 
 PRA  HN ES   1    012 17.14                             107     0.7 4  394 210 
                                                                                
