 2011  7 1 0913 40.9 L   7.430 -73.176119.3  RSN  4 0.4 1.2LRSN                1
 GAP=160        0.81       8.4     9.9 10.4 -0.6024E+02 -0.3315E+02  0.3692E+02E
 Epicentro: EL PLAYON - SANTANDER                                              3
 ACTION:UPD 12-07-25 13:57 OP:epov STATUS:               ID:20110701091340 L   I
 2011-07-01-0900-00M.COL___124                                                 6
 STAT SP IPHASW D HRMM SECON CODA AMPLIT PERI AZIMU VELO AIN AR TRES W  DIS CAZ7
 BRI  SZ EP        913 58.96                             155    0.5110 52.5  53 
 GRA  SZ EP        913 58.95                             150   -0.1810 65.0  39 
 GRA  SZ ES        914 13.13                             150   -0.1810 65.0  39 
 GRA  SZ I         914 16.83         6.2 0.35                          65.0  39 
 BRR  HZ EP   1    913 58.55                             148   -0.61 7 69.1 239 
 BRR  HE ES   1    914 13.70                             148    0.33 7 69.1 239 
 BRR  HZ I         914 15.14         4.8 0.05                          69.1 239 
 RUS  HZ EP   2    914  9.09                             121    0.27 4  170 177 
 RUS  HZ I         914 22.22         0.9 0.97                           170 177 
 RUS  HE ES   2    914 30.32                             121   -0.24 4  170 177 
                                                                                
