 2017  2 1 0612 26.3 L   6.240 -73.711109.8  RSN  6 0.3 1.3LRSN                1
 GAP=173        0.52       3.0     2.4  4.6  0.2688E+01  0.2248E+01  0.1141E+01E
 Epicentro: LANDAZURI - SANTANDER                                              3
 ACTION:UPD 17-05-24 15:31 OP:jn   STATUS:               ID:20170201061226 L   I
 OLDACT:UP  17-02-01 17:31 OP:and  STATUS:               ID:20170201060746d    3
 OLDACT:UP  17-02-01 17:30 OP:and  STATUS:               ID:20170201060746d    3
 OLDACT:UP  17-02-01 17:30 OP:and  STATUS:               ID:20170201060746d    3
 OLDACT:UP  17-02-01 17:29 OP:and  STATUS:               ID:20170201060746d    3
 OLDACT:UP  17-02-01 17:28 OP:and  STATUS:               ID:20170201060746d    3
 OLDACT:UP  17-02-01 17:28 OP:and  STATUS:               ID:20170201060746d    3
 OLDACT:UP  17-02-01 17:27 OP:and  STATUS:               ID:20170201060746d    3
 OLDACT:UP  17-02-01 17:26 OP:and  STATUS:               ID:20170201060746d    3
 OLDACT:UP  17-02-01 17:26 OP:and  STATUS:               ID:20170201060746d    3
 OLDACT:UP  17-02-01 17:26 OP:and  STATUS:               ID:20170201060746d    3
 OLDACT:UP  17-02-01 17:26 OP:and  STATUS:               ID:20170201060746d    3
 OLDACT:UP  17-02-01 17:25 OP:and  STATUS:               ID:20170201060746d    3
 OLDACT:UP  17-02-01 17:25 OP:and  STATUS:               ID:20170201060746d    3
 OLDACT:UP  17-02-01 17:24 OP:and  STATUS:               ID:20170201060746d    3
 OLDACT:UP  17-02-01 17:24 OP:and  STATUS:               ID:20170201060746d    3
 OLDACT:DUP 17-02-01 17:21 OP:and  STATUS:               ID:20170201060746d    3
 2017-02-01-0608-00M.COL___313                                                 6
 STAT SP IPHASW D HRMM SECON CODA AMPLIT PERI AZIMU VELO AIN AR TRES W  DIS CAZ7
 BAR2 EZ EP     D  612 43.97                             145    0.0310 70.3  56 
 BAR2 EZ ES        612 57.53                             145   -0.2010 70.3  56 
 RUS  HZ EP     D  612 44.90                             142   -0.0610 79.4 119 
 RUS  HN ES        612 59.76                             142    0.2110 79.4 119 
 RUS  HZ I         613  0.44         1.6 0.14            142           79.4 119 
 PTB  HZ EP        612 45.03                             138   -0.0110 88.8 292 
 PTB  HN ES        612 59.50                             138   -0.1810 88.8 292 
 PTB  HZ I         613  0.48         3.2 0.09            136           88.8 292 
 BRR  HZ EP        612 45.47                             136   -0.1410 95.9 360 
 BRR  HN ES        613  0.93                             136    0.2410 95.9 360 
 PAM  EZ EP   2    612 52.88                             119   -0.14 5  165  43 
 PAM  EN ES   3    613 13.02                             119   -0.87 2  165  43 
 PAM  EZ I         613 16.00         3.6 0.28            118            165  43 
 ZAR  HZ EP   2    612 55.51                             115    0.67 4  188 318 
 ZAR  HE ES   3    613 18.20                             115    1.07 2  188 318 
 ZAR  HZ I         613 21.30         5.2 0.44            114            188 318 
                                                                                
