 2010 11 1 0951 52.0 L   6.792 -73.221143.0  RSN  6 0.4 1.8LRSN                1
 GAP=149        0.92       5.2    10.7  9.9 -0.5284E+01 -0.3383E+02 -0.7030E+01E
 Epicentro: ZAPATOCA - SANTANDER                                               3
 ACTION:UP  10-12-17 16:49 OP:REBC STATUS:               ID:20101101095152 L   I
 2010-11-01-0947-53S.COL___125                                                 6
 STAT SP IPHASW D HRMM SECON CODA AMPLIT PERI AZIMU VELO SNR AR TRES W  DIS CAZ7
 BAR2 SZ EP        952 11.29                             171     0.010   22 169 
 BAR2 SZ ES   2    952 26.49                             171     0.1 5   22 169 
 BAR2 SZ I         952 28.04        22.8 0.37                            22 169 
 BRR  HZ EP        952 12.89                             154     0.410   65 303 
 BRR  HZ I         952 13.15        27.9 0.13                            65 303 
 BRR  HN ES   1    952 28.38                             154    -0.1 7   65 303 
 RUS  HZ EP   1    952 15.70                             143     0.2 7  101 171 
 RUS  HN ES   2    952 33.25                             143    -0.6 5  101 171 
 RUS  HZ I         952 34.93         5.8 0.24                           101 171 
 GUE  SZ EP        952 16.19                             138    -0.510  119  16 
 GRA  SZ EP        952 17.79                             135     0.410  129  21 
 GRA  SZ ES   1    952 37.36                             135     0.3 7  129  21 
 GRA  SZ I         952 42.27         5.0 0.58                           129  21 
 OCA  SZ EP   1    952 19.69                             129    -0.5 7  160 356 
 OCA  SZ ES   2    952 41.82                             129    -0.3 5  160 356 
 OCA  SZ I         952 49.12         8.6 0.21                           160 356 
                                                                                
