 2015  8 1 0642  7.0 L   6.795 -73.113144.3  RSN 10 0.4 1.9LRSN                1
 GAP=186        1.05       3.6     5.2  6.6  0.9754E+00  0.1087E+02 -0.3615E+01E
 Epicentro: LOS SANTOS - SANTANDER                                             3
 ACTION:UPD 15-09-15 22:59 OP:cam  STATUS:               ID:20150801064207 L   I
 OLDACT:REG 15-08-01 12:20 OP:drio STATUS:               ID:20150801063741     3
 2015-08-01-0637-41M.COL___352                                                 6
 STAT SP IPHASW D HRMM SECON CODA AMPLIT PERI AZIMU VELO AIN AR TRES W  DIS CAZ7
 BAR2 EZ EP     C  642 26.48                             170    0.0010 23.7 199 
 BAR2 EZ ES        642 40.90                             170   -0.7610 23.7 199 
 BAR2 EZ I         642 42.23        14.2 0.34            170           23.7 199 
 BRR  HZ EP     C  642 28.49                             151    0.2810 74.6 298 
 BRR  HN ES        642 45.60                             151    0.8710 74.6 298 
 BRR  HZ I         642 50.05        14.7 0.12            147           74.6 298 
 RUS  HZ EP        642 31.00                             144    0.4310 99.9 178 
 RUS  HN ES        642 48.91                             144   -0.0310 99.9 178 
 RUS  HZ I         642 49.41         5.8 0.22            148           99.9 178 
 OCA  HZ EP        642 35.06                             129   -0.25 9  161 352 
 OCA  HN ES        642 57.24                             129   -0.13 9  161 352 
 OCA  HZ I         643  4.08        22.8 0.28            129            161 352 
 ZAR  HN ES        643  5.27                             121    0.01 8  208 292 
 SML  HZ EP        642 43.35                             117   -0.43 8  246 335 
 SML  HN ES        643 12.43                             117   -0.02 8  246 335 
 SML  HZ I         643 18.64        13.2 0.10            117            246 335 
 HEL  HZ EP        642 48.09                             114    0.55 7  275 256 
 HEL  HN ES        643 18.48                             114   -0.65 7  275 256 
 HEL  HZ I         643 24.57         4.9 0.28            115            275 256 
 CBOC HZ EP        642 54.29                             109    0.04 7  337 252 
 CBOC HE ES        643 30.75                             109   -0.34 7  337 252 
 CBOC HZ I         643 34.83         1.3 0.22            110            337 252 
 MON  HZ EP   4    642 54.44                             108   -1.89 0  357 308 
 MON  HN ES   4    643 33.37                             108   -1.42 0  357 308 
 MON  HZ I         643 48.24         1.7 0.36            109            357 308 
 SJC  HN EP   4    643  1.33                             105   -1.49 0  412 327 
 SJC  HE ES   4    643 44.41                             105   -1.93 0  412 327 
 SJC  HN I         643 46.14         4.8 0.52            106            412 327 
                                                                                
