 2014  6 1 0138 25.2 L   6.751 -73.151135.4  RSN  5 0.5 1.4LRSN                1
 GAP=138        1.30       6.5     6.4  9.5 -0.3664E+01  0.8498E+01  0.2337E+01E
 Epicentro: LOS SANTOS - SANTANDER                                             3
 ACTION:UPD 14-07-01 22:49 OP:nd   STATUS:               ID:20140601013825 L   I
 OLDACT:REG 14-06-01 15:18 OP:stll STATUS:               ID:20140601013814     3
 2014-06-01-0138-14M.COL___256                                                 6
 STAT SP IPHASW D HRMM SECON CODA AMPLIT PERI AZIMU VELO AIN AR TRES W  DIS CAZ7
 BAR2 SZ EP        138 42.99                             172   -0.4610 17.9 191 
 BAR2 SZ ES        138 57.09                             172   -0.6210 17.9 191 
 BAR2 SZ I         138 59.53         5.4 0.24            174           17.9 191 
 BRR  HZ EP        138 45.72                             150    0.3710 73.5 302 
 BRR  HZ I         138 46.08         5.4 0.24            150           73.5 302 
 BRR  HE ES        139  1.99                             150    0.9110 73.5 302 
 PAM  SZ EP        138 46.58                             147   -0.0110 82.0  37 
 PAM  SN ES        139  3.05                             147   -0.2410 82.0  37 
 PAM  SZ I         139  6.09         3.6 0.58            148           82.0  37 
 RUS  HZ EP        138 47.98                             143    0.4610 95.2 175 
 RUS  HN ES        139  5.35                             143    0.4010 95.2 175 
 PTB  HZ EP        138 50.74                             130   -0.43 9  146 261 
 PTB  HN ES        139 10.96                             130   -0.49 9  146 261 
 PTB  HZ I         139 13.84         3.4 0.10            131            146 261 
                                                                                
