 2017  2 1 0723 59.5 L   6.776 -73.138148.0  RSN  9 0.3 1.6LRSN                1
 GAP= 98        0.74       3.7     3.0  4.9  0.1494E+01 -0.4881E+00  0.6183E+00E
 Epicentro: LOS SANTOS - SANTANDER                                             3
 ACTION:UPD 17-05-24 15:31 OP:jn   STATUS:               ID:20170201072359 L   I
 OLDACT:UP  17-02-01 17:57 OP:dnl  STATUS:               ID:20170201071744d    3
 OLDACT:UP  17-02-01 17:56 OP:dnl  STATUS:               ID:20170201071744d    3
 OLDACT:DUP 17-02-01 17:53 OP:dnl  STATUS:               ID:20170201071744d    3
 OLDACT:UP  17-02-01 17:52 OP:dnl  STATUS:               ID:20170201071743     3
 OLDACT:REG 17-02-01 15:11 OP:dnl  STATUS:               ID:20170201071743     3
 2017-02-01-0718-00M.COL___313                                                 6
 STAT SP IPHASW D HRMM SECON CODA AMPLIT PERI AZIMU VELO AIN AR TRES W  DIS CAZ7
 BAR2 EZ EP     C  724 19.26                             172   -0.0610 20.9 194 
 BAR2 EZ ES        724 34.32                             172   -0.4810 20.9 194 
 BAR2 EZ I         724 37.68        12.1 0.28            163           20.9 194 
 BRR  HZ IP     D  724 21.12                             152    0.1510 73.3 300 
 BRR  HN ES        724 38.19                             152    0.4410 73.3 300 
 BRR  HZ I         724 42.85         5.7 0.28            151           73.3 300 
 PAM  EZ EP        724 22.08                             151    0.0710 78.9  38 
 PAM  EE ES        724 39.40                             151   -0.1910 78.9  38 
 PAM  EZ I         724 41.38        15.1 0.58            138           78.9  38 
 RUS  HZ EP        724 23.38                             145    0.1410 97.9 176 
 RUS  HE ES        724 41.85                             145    0.0610 97.9 176 
 RUS  HZ I         724 44.72         2.6 0.34            131           97.9 176 
 PTB  HZ EP   2    724 26.40                             132   -0.25 5  148 260 
 PTB  HE ES        724 48.08                             132    0.23 9  148 260 
 PTB  HZ I         724 50.40         4.7 0.28            125            148 260 
 TAM  HZ IP     C  724 27.47                             131    0.29 9  154 104 
 TAM  HZ I         725  2.18         2.6 0.22            117            154 104 
 ZAR  HZ EP   2    724 31.56                             122   -0.69 4  206 293 
 ZAR  HE ES        724 57.50                             122   -0.31 8  206 293 
 CHI  HZ EP   2    724 35.91                             118   -1.12 4  246 196 
 CHI  HN ES   4    725  4.45                             118   -1.89 0  246 196 
 CHI  HZ I         725 16.60         1.6 0.36            108            246 196 
 URE  HZ EP   4    724 43.32                             114    2.47 0  286 292 
 URE  HN ES   4    725 10.61                             114   -2.52 0  286 292 
 URE  HZ I         725 15.74         3.8 0.16            106            286 292 
                                                                                
