 2017  2 1 0525 23.7 L   6.719 -73.161148.0  RSN  5 0.3 1.4LRSN                1
 GAP=229        0.68       8.3     7.1  5.6  0.2399E+02  0.1033E+02 -0.1070E+02E
 Epicentro: VILLANUEVA - SANTANDER                                             3
 ACTION:UPD 17-05-24 15:31 OP:jn   STATUS:               ID:20170201052523 L   I
 OLDACT:UP  17-02-01 16:58 OP:and  STATUS:               ID:20170201051740d    3
 OLDACT:UP  17-02-01 16:56 OP:and  STATUS:               ID:20170201051740d    3
 OLDACT:DUP 17-02-01 16:52 OP:and  STATUS:               ID:20170201051740d    3
 2017-02-01-0518-00M.COL___325                                                 6
 STAT SP IPHASW D HRMM SECON CODA AMPLIT PERI AZIMU VELO AIN AR TRES W  DIS CAZ7
 BAR2 EZ ES        525 58.52                             174   -0.3110 14.2 190 
 BAR2 EZ I         526  0.94         3.6 0.14            171           14.2 190 
 BRR  HZ EP        525 45.44                             152    0.1910 74.5 305 
 BRR  HE ES        526  2.43                             152    0.3410 74.5 305 
 BRR  HZ I         526  6.44         2.9 0.11            151           74.5 305 
 RUS  HZ EP   9    525 48.11                             147    1.07 0 91.8 175 
 RUS  HN ES        526  6.56                             145    0.2310 91.8 175 
 RUS  HZ I         526  8.16         5.0 0.26            149           91.8 175 
 PTB  HZ EP        525 50.53                             133   -0.02 9  145 262 
 PTB  HN ES   2    526 11.81                             133    0.30 5  145 262 
 PTB  HZ I         526 14.11         4.3 0.12            134            145 262 
 ZAR  HN ES        526 21.69                             123   -0.37 8  206 295 
 ZAR  HZ I         526 27.78         2.4 0.08            124            206 295 
                                                                                
