 2017  8 1 0355 45.6 L   6.755 -73.112146.0  RSN 13 0.6 1.7LRSN                1
 GAP=124        1.19       3.8     4.1  6.0  0.4607E+00  0.3994E+01  0.6467E+01E
 Epicentro: LOS SANTOS - SANTANDER                                             3
 ACTION:UPD 17-09-04 20:15 OP:rebc STATUS:               ID:20170801035545 L   I
 OLDACT:DUP 17-08-01 16:42 OP:osc  STATUS:               ID:20170801034737d    3
 2017-08-01-0348-00M.COL___398                                                 6
 STAT SP IPHASW D HRMM SECON CODA AMPLIT PERI AZIMU VELO AIN AR TRES W  DIS CAZ7
 BAR2 EZ EP        356  5.16                             172   -0.0410 19.6 204 
 BAR2 EZ ES        356 20.35                             172   -0.1310 19.6 204 
 BAR2 EZ I         356 21.19        17.7 0.18            169           19.6 204 
 BRR  HZ EP        356  7.27                             151    0.1510 77.0 300 
 BRR  HE ES        356 24.44                             151    0.5410 77.0 300 
 PAM  EZ EP        356  8.15                             151    0.2010 79.1  35 
 PAM  EE ES        356 25.48                             151    0.1010 79.1  35 
 PAM  EZ I         356 27.77        14.2 0.44            154           79.1  35 
 RUS  HZ EP        356  9.03                             145    0.0110 95.4 178 
 RUS  HN ES        356 27.67                             145    0.4010 95.4 178 
 RUS  HZ I         356 28.53         4.9 0.42            146           95.4 178 
 PTB  HZ EP        356 11.95                             132   -0.91 9  151 261 
 PTB  HE ES        356 33.14                             132   -0.97 9  151 261 
 PTB  HZ I         356 37.70         4.2 0.24            130            151 261 
 SPBC HZ EP        356 14.04                             130    0.05 9  162 221 
 SPBC HE ES        356 36.50                             130    0.37 9  162 221 
 SPBC HZ I         356 38.22        11.1 0.21            129            162 221 
 ZAR  HZ EP        356 18.99                             122    0.36 8  209 293 
 ZAR  HE ES        356 44.14                             122   -0.25 8  209 293 
 ZAR  HZ I         356 53.85         3.8 0.12            121            209 293 
 NOR  HZ EP        356 21.49                             119    0.11 8  235 236 
 NOR  HE ES        356 49.07                             119   -0.21 8  235 236 
 NOR  HZ I         356 55.67         4.2 0.06            118            235 236 
 CHI  HZ EP        356 22.39                             118   -0.52 8  245 196 
 CHI  HN ES        356 52.01                             118    0.01 8  245 196 
 CHI  HZ I         357  0.17         2.8 0.25            118            245 196 
 GUY2CHZ EP   9    356 30.83                             112    1.57 0  301 236 
 GUY2CHE ES        357  5.40                                    0.53 7  301 236 
 GUY2CHZ I         357 11.42         2.5 0.50                           301 236 
 PTGC HZ EP        356 28.06                             112   -0.73 7  303 159 
 PTGC HE ES        357  1.91                             112   -0.56 7  303 159 
 CBOC HZ EP        356 33.67                             110    0.89 7  336 253 
 CBOC HE ES   2    357  8.38                             110   -1.18 3  336 253 
 ORTC HZ EP        356 39.78                             107    0.45 6  394 217 
 ORTC HE ES        357 22.97                             107    1.74 6  394 217 
 ORTC HZ I         357 27.68         2.2 0.36            107            394 217 
                                                                                
