 2017  8 1 0242 14.5 L   6.748 -73.107146.8  RSN  9 0.5 1.4LRSN                1
 GAP=144        1.10       5.1     6.0  6.7 -0.8840E+01  0.1960E+01  0.5089E+01E
 Epicentro: LOS SANTOS - SANTANDER                                             3
 ACTION:UPD 17-09-04 20:15 OP:rebc STATUS:               ID:20170801024214 L   I
 OLDACT:REG 17-08-01 13:32 OP:osc  STATUS:               ID:20170801023746     3
 2017-08-01-0238-00M.COL___398                                                 6
 STAT SP IPHASW D HRMM SECON CODA AMPLIT PERI AZIMU VELO AIN AR TRES W  DIS CAZ7
 BAR2 EZ EP        242 33.82                             172   -0.3710 19.1 206 
 BAR2 EZ ES        242 49.47                             172   -0.0610 19.1 206 
 BAR2 EZ I         242 50.57         5.0 0.30            167           19.1 206 
 BRR  HZ EP        242 35.89                             150   -0.2610 77.8 301 
 BRR  HE ES        242 53.56                             150    0.5210 77.8 301 
 PAM  EZ EP        242 37.45                             151    0.5010 79.4  34 
 PAM  EN ES        242 54.10                             151   -0.3610 79.4  34 
 RUS  HZ EP        242 38.21                             146    0.2710 94.6 178 
 RUS  HN ES        242 55.72                             146   -0.5010 94.6 178 
 RUS  HZ I         242 57.74         1.6 0.12            145           94.6 178 
 PTB  HZ EP   9    242 40.76                             131   -1.09 0  151 261 
 PTB  HN ES        243  2.28                                    0.19 9  151 261 
 PTB  HZ I         243  7.75         3.2 0.22            130            151 261 
 SPBC HZ EP        242 42.85                             129   -0.08 9  162 221 
 SPBC HE ES        243  5.93                             129    0.83 9  162 221 
 SPBC HZ I         243 12.00         7.9 0.34            128            162 221 
 ZAR  HE ES   2    243 11.89                             122   -1.63 4  210 293 
 NOR  HE ES   2    243 18.50                             119    0.24 4  235 236 
 GUY2CHZ EP        242 57.98                             112   -0.21 7  301 236 
 GUY2CHE ES   4    243 36.74                             112    4.47 0  301 236 
 GUY2CHZ I         243 41.09         1.9 0.30                           301 236 
                                                                                
