 2013  1 1 0320 14.2 L   6.770 -73.130147.4  RSN  5 0.2 1.1LRSN                1
 GAP=237        0.60       8.1     9.3  5.7  0.5347E+02  0.2212E+02  0.2750E+02E
 Epicentro: LOS SANTOS - SANTANDER                                             3
 ACTION:UPD 13-02-15 09:11 OP:ep   STATUS:               ID:20130101032014 L   I
 2013-01-01-0320-00M.COL___242                                                 6
 STAT SP IPHASW D HRMM SECON CODA AMPLIT PERI AZIMU VELO AIN AR TRES W  DIS CAZ7
 BAR2 SZ EP        320 33.98                             172    0.0110 20.5 196 
 BAR2 SZ ES        320 49.23                             172   -0.1710 20.5 196 
 BRR  HZ EP        320 35.75                             152    0.0510 74.4 300 
 BRR  HN ES        320 52.72                             152    0.2410 74.4 300 
 RUS  HZ EP        320 37.84                             145   -0.0310 97.2 177 
 RUS  HZ I         320 38.74         2.1 0.46            145           97.2 177 
 PTB  HZ EP        320 41.01                             132   -0.39 9  149 260 
 CHI  HZ EP        320 52.08                             118    0.39 8  246 196 
                                                                                
