 2011 10 1 0329  8.7 L   6.988 -73.468101.0  RSN  4 0.2 1.4LRSN                1
 GAP=208        0.52       8.9     7.9  6.3  0.6159E+02  0.1451E+02  0.1914E+02E
 Epicentro: SAN VICENTE DE CHUCURI - SANTANDER                                 3
 ACTION:UPD 12-07-13 16:01 OP:ep   STATUS:               ID:20111001032908 L   I
 2011-10-01-0328-31S.COL___160                                                 6
 STAT SP IPHASW D HRMM SECON CODA AMPLIT PERI AZIMU VELO AIN AR TRES W  DIS CAZ7
 BRR  HZ EP        329 22.53                             162   -0.2810 30.0 296 
 BRR  HE ES   1    329 33.98                             162    0.13 7 30.0 296 
 BRR  HZ I         329 35.05        11.3 0.12                          30.0 296 
 BAR2 SZ EP   1    329 24.66                             150    0.30 7 53.9 144 
 BAR2 SZ I         329 38.59         6.9 0.22                          53.9 144 
 RUS  HZ EP   1    329 31.19                             124    0.16 7  128 161 
 RUS  HN ES   2    329 48.17                             124   -0.30 5  128 161 
 RUS  HZ I         329 51.59         2.6 0.36                           128 161 
 ZAR  HZ EP   1    329 33.92                             117   -0.18 7  163 290 
 ZAR  HN ES   1    329 54.17                             117    0.24 7  163 290 
 ZAR  HZ I         329 56.61         5.3 0.17                           163 290 
                                                                                
