 2017 10 1 0741 26.9 L   6.815 -73.154138.5  RSN 17 0.7 2.1LRSN                1
 GAP= 65        1.41       3.6     4.7  7.2  0.9553E+00  0.1137E+02 -0.5501E+00E
 Epicentro: LOS SANTOS - SANTANDER                                             3
 ACTION:UPD 17-11-07 19:27 OP:rebc STATUS:               ID:20171001074126 L   I
 OLDACT:UP  17-10-01 18:01 OP:dhb  STATUS:               ID:20171001073744d    3
 OLDACT:UP  17-10-01 18:01 OP:dhb  STATUS:               ID:20171001073744d    3
 OLDACT:DUP 17-10-01 17:54 OP:dhb  STATUS:               ID:20171001073744d    3
 OLDACT:REG 17-10-01 13:37 OP:osc  STATUS:               ID:20171001073743     3
 2017-10-01-0738-00M.COL___402                                                 6
 STAT SP IPHASW D HRMM SECON CODA AMPLIT PERI AZIMU VELO AIN AR TRES W  DIS CAZ7
 BAR2 EZ IP     C  741 45.88                             169    0.1810 24.8 187 
 BAR2 EZ ES        741 59.75                             169   -0.6110 24.8 187 
 BAR2 EZ I         742  1.71        42.7 0.20            172           24.8 187 
 PAM  EZ IP     D  741 48.46                             149    0.1510 76.7  41 
 PAM  EN ES        742  5.05                             149    0.0410 76.7  41 
 PAM  EZ I         742  7.26        43.0 0.50            145           76.7  41 
 RUS  HZ EP        741 49.98                             142   -0.1010  102 176 
 RUS  HN ES        742  7.78                             142   -0.3710  102 176 
 RUS  HZ I         742  9.63         9.6 0.32            141            102 176 
 TAM  HZ IP     D  741 53.90                             128   -0.24 9  156 105 
 SPBC HZ EP        741 54.86                             127   -0.06 9  164 218 
 SPBC HE ES        742 17.04                             127    0.26 9  164 218 
 SPBC HZ I         742 22.49        12.3 0.24            124            164 218 
 YPLC HZ IP     D  741 56.06                             124   -0.31 9  179 151 
 YPLC HE ES        742 20.12                             124    0.77 9  179 151 
 YPLC HZ I         742 22.55        14.5 0.28            122            179 151 
 ZAR  HZ EP        742  0.12                             121    1.39 9  203 292 
 ZAR  HE ES        742 24.15                             121    0.59 9  203 292 
 ZAR  HZ I         742 30.60        18.1 0.26            117            203 292 
 CHI  HZ EP        742  4.60                             115    0.24 8  250 195 
 CHI  HE ES        742 33.65                             115    0.08 8  250 195 
 CHI  HZ I         742 37.51         4.6 0.48            113            250 195 
 URE  HZ EP        742  7.65                             112    0.19 7  282 292 
 URE  HE ES        742 37.58                             112   -1.52 7  282 292 
 URE  HZ I         742 39.22        10.8 0.14            109            282 292 
 GUY2CHZ EP   2    742 11.51                             111    1.30 4  301 234 
 GUY2CHE ES   4    742 47.01                             111    3.03 0  301 234 
 GUY2CHZ I         742 53.23         4.3 0.58                           301 234 
 PTGC HZ EP   2    742  8.87                             110   -1.79 3  311 159 
 PTGC HE ES   4    742 42.34                             110   -2.45 0  311 159 
 PTGC HZ I         742 44.73         9.7 0.44            107            311 159 
 LL6C HZ EP        742 10.44                             109   -1.67 7  323 358 
 LL6C HE ES        742 48.73                             109    1.35 7  323 358 
 LL6C HZ I         742 57.86         5.5 0.66            106            323 358 
 DBB  EZ EP        742 13.45                             108   -0.52 7  338 274 
 DBB  EN ES   2    742 49.94                             108   -0.75 3  338 274 
 DBB  EZ I         742 51.68         5.2 0.16            105            338 274 
 ARGC HZ EP   2    742 16.80                             107    0.72 3  357 340 
 ARGC HZ I         742 59.90         1.3 0.18            104            357 340 
 PRA  HZ EP        742 20.28                             105   -0.02 6  393 209 
 PRA  HE ES        743  1.57                             105   -0.37 6  393 209 
 PRA  HZ I         743  9.06         3.8 0.24            103            393 209 
 ORTC HZ EP        742 20.57                             105   -0.10 6  396 216 
 ORTC HN ES        743  3.29                             105    0.67 6  396 216 
 ORTC HZ I         743  8.89         3.4 0.56            103            396 216 
 SJC  HZ EP   2    742 20.28                             104   -1.73 3  407 327 
 SJC  HE ES   4    743  0.33                             104   -4.67 0  407 327 
 SJC  HZ I         743  5.30         3.2 0.50            102            407 327 
                                                                                
