 2013  1 1 0736 39.3 L   6.796 -73.160140.6  RSN  5 0.1 1.4LRSN                1
 GAP=236        0.35       3.2     2.5  3.9  0.3705E+01  0.2072E+01 -0.4711E+01E
 Epicentro: LOS SANTOS - SANTANDER                                             3
 ACTION:UPD 13-02-15 09:11 OP:ep   STATUS:               ID:20130101073639 L   I
 2013-01-01-0730-00M.COL___242                                                 6
 STAT SP IPHASW D HRMM SECON CODA AMPLIT PERI AZIMU VELO AIN AR TRES W  DIS CAZ7
 BAR2 SZ EP        736 58.34                             170    0.0010 22.6 186 
 BAR2 SZ ES        737 13.25                             170    0.0910 22.6 186 
 BRR  HZ EP        736 59.75                             152   -0.1210 70.0 299 
 BRR  HN EP        737 17.70                                           70.0 299 
 BRR  HN I         737 21.51         4.0 0.20            141           70.0 299 
 RUS  HN ES        737 20.63                             143   -0.0510  100 175 
 PTB  HZ EP        737  5.91                             131    0.16 9  146 259 
 PTB  HN ES        737 26.28                             131   -0.06 9  146 259 
 PTB  HN I         737 31.57         4.4 0.44            127            146 259 
 ZAR  HN ES        737 36.28                             121    0.01 9  203 292 
                                                                                
