 2016  7 1 0422 58.3 L   6.789 -73.146145.2  RSN 22 0.5 2.4LRSN                1
 GAP=120        0.96       3.0     2.9  4.3 -0.4592E+00  0.3038E+01  0.2870E+01E
 Epicentro: LOS SANTOS - SANTANDER                                             3
 ACTION:UPD 17-03-29 16:45 OP:lp   STATUS:               ID:20160701042258 L   I
 OLDACT:REG 16-07-01 14:39 OP:ak   STATUS:               ID:20160701041744     3
 2016-07-01-0417-44M.COL___338                                                 6
 STAT SP IPHASW D HRMM SECON CODA AMPLIT PERI AZIMU VELO AIN AR TRES W  DIS CAZ7
 BAR2 EZ IP     C  423 18.02                             171    0.1810 22.1 190 
 BAR2 EZ ES        423 33.05                             171   -0.0310 22.1 190 
 BAR2 EZ I         423 35.09        45.0 0.16            167           22.1 190 
 BRR  HZ IP     C  423 19.91                             152    0.4910 71.7 299 
 BRR  HE ES        423 36.36                             152    0.4710 71.7 299 
 BRR  HZ I         423 39.84        26.7 0.18            151           71.7 299 
 PAM  EZ EP        423 20.47                             150   -0.0410 78.4  39 
 PAM  EN ES        423 38.01                             150    0.1710 78.4  39 
 PAM  EZ I         423 40.54        17.2 0.32            156           78.4  39 
 RUS  HZ EP        423 21.68                             144   -0.2310 99.4 176 
 RUS  HN ES        423 39.94                             144   -0.3810 99.4 176 
 RUS  HZ I         423 43.24        28.8 0.50            143           99.4 176 
 PTB  HZ EP        423 24.47                             132   -0.72 9  147 259 
 PTB  HN ES        423 45.35                             132   -0.82 9  147 259 
 PTB  HZ I         423 49.04        35.0 0.26            131            147 259 
 SPBC HZ EP        423 26.90                             129    0.24 9  162 219 
 SPBC HN ES        423 49.41                             129    0.63 9  162 219 
 SPBC HZ I         423 55.76        37.6 0.27            128            162 219 
 ZAR  HZ EP        423 30.61                             122   -0.14 9  204 292 
 ZAR  HN ES        423 55.72                             122   -0.34 9  204 292 
 ZAR  HZ I         424  2.94        32.1 0.30            123            204 292 
 NOR  HZ EP        423 33.90                             118   -0.01 8  234 235 
 NOR  HE ES        424  1.66                             118   -0.03 8  234 235 
 NOR  HZ I         424  6.32        27.7 0.20            118            234 235 
 CHI  HZ EP        423 36.06                             117    0.23 8  247 195 
 CHI  HN ES        424  5.10                             117   -0.01 8  247 195 
 CHI  HZ I         424 11.25        12.1 0.30            117            247 195 
 ROSC BZ EP   9    423 37.69                             117    1.42 0  252 211 
 ROSC BN ES        424  7.46                                    0.15 8  252 211 
 ROSC BZ I         424 12.59        19.1 0.35            117            252 211 
 HEL  HZ EP        423 39.42                             115    0.98 8  272 256 
 HEL  HN ES        424  8.98                             115   -0.77 8  272 256 
 HEL  HZ I         424 16.31        14.9 0.30            115            272 256 
 URE  HZ EP   9    423 37.61                             113   -1.77 0  284 292 
 URE  HN ES        424  9.23                                   -0.43 7  284 292 
 URE  HZ I         424 22.15        19.3 0.30            114            284 292 
 GUY2CHZ EP   2    423 42.70                             112    0.91 4  300 235 
 GUY2CHE ES        424 15.95                             112    0.23 7  300 235 
 GUY2CHZ I         424 23.50        13.6 0.62                           300 235 
 PTGC HZ EP        423 41.04                             111   -0.96 7  308 159 
 PTGC HN ES   4    424 14.03                             111   -2.06 0  308 159 
 PTGC HZ I         424 23.13        13.5 0.36            113            308 159 
 ELA  HZ EP   9    423 47.24                             110    2.21 0  328 230 
 ELA  HN ES        424 23.99                                    0.30 7  328 230 
 ELA  HZ I         424 30.44        10.2 0.40            111            328 230 
 CBOC HZ EP   2    423 45.94                             110    0.80 3  333 252 
 CBOC HN ES        424 22.12                             110    0.45 7  333 252 
 CBOC HZ I         424 26.16         4.7 0.21            110            333 252 
 DBB  SZ EP        423 45.12                             109   -0.63 7  340 274 
 DBB  SZ ES        424 22.62                             109   -0.15 7  340 274 
 ANIL HZ EP   1    423 48.19                             108    0.22 5  356 225 
 ANIL HN ES   4    424 30.04                             108    3.32 0  356 225 
 ANIL HZ I         424 38.82        23.8 0.50            109            356 225 
 PRA  HZ EP        423 51.83                             106    0.16 6  391 210 
 PRA  HN ES        424 33.19                             106   -0.11 6  391 210 
 PRA  HZ I         424 39.12         9.3 0.22            107            391 210 
 ORTC HZ EP        423 52.36                             106    0.28 6  394 216 
 ORTC HN ES   4    424 28.35                             106   -5.68 0  394 216 
 ORTC HZ I         424 39.71         6.4 0.40            107            394 216 
 PAL  HZ EP        423 53.71                             106    0.35 6  405 239 
 PAL  HE ES        424 36.73                             106    0.42 6  405 239 
 PAL  HZ I         424 42.01         5.3 0.30            106            405 239 
 SJC  HZ EP   9    423 52.02                             106   -1.94 0  410 327 
 SJC  HN ES        424 35.61                                    0.18 6  410 327 
 SJC  HZ I         424 38.70         3.8 0.20            107            410 327 
                                                                                
