 2011 11 1 0243 50.6 L   6.759 -73.133144.0  RSN 12 0.5 2.0LRSN                1
 GAP=140        0.89       4.4     5.3  6.5 -0.4710E+01  0.1007E+02  0.2681E+01E
 Epicentro: LOS SANTOS - SANTANDER                                             3
 ACTION:UPD 12-07-13 16:07 OP:ep   STATUS:               ID:20111101024350 L   I
 2011-11-01-0240-00M.COL___176                                                 6
 STAT SP IPHASW D HRMM SECON CODA AMPLIT PERI AZIMU VELO AIN AR TRES W  DIS CAZ7
 BAR2 SZ IP        244  9.99                             172    0.0610 19.3 197 
 BAR2 SZ ES   1    244 24.95                             172   -0.07 7 19.3 197 
 BAR2 SZ I         244 26.37        25.9 0.20                          19.3 197 
 BTL  SZ EP        244 10.21                             170    0.2010 23.1 320 
 GIR2 SZ EP   2    244 10.03                             165   -0.16 5 36.0 349 
 BRR  HZ EP        244 11.88                             151    0.1310 74.7 301 
 BRR  HZ I         244 15.81        13.4 0.12                          74.7 301 
 BRR  HN ES   1    244 29.10                             151    0.84 7 74.7 301 
 PAM  SZ EP        244 12.90                             150    0.1210 80.0  37 
 PAM  SN ES   1    244 29.82                             150   -0.27 7 80.0  37 
 RUS  HZ EP        244 13.92                             145    0.0810 96.0 177 
 RUS  HE ES   2    244 31.58                             145   -0.39 5 96.0 177 
 RUS  HZ I         244 33.44         6.0 0.38                          96.0 177 
 OCA  SZ EP        244 19.20                             129   -0.01 9  165 353 
 OCA  SZ ES   2    244 40.88                             129   -0.65 5  165 353 
 ZAR  HZ EP        244 22.80                             122   -0.44 8  207 293 
 ZAR  HN ES   2    244 48.23                             122   -0.48 4  207 293 
 ZAR  HZ I         244 54.02        12.1 0.46                           207 293 
 NOR  SZ EP        244 25.15                             119   -0.92 8  233 236 
 NOR  SN ES   1    244 53.50                             119   -0.24 6  233 236 
 HEL  HN ES   2    245  3.26                             115    1.18 4  272 257 
 HEL  HZ I         245 10.16         6.4 0.40                           272 257 
 RREF HZ EP   2    244 38.13                             111    1.68 3  320 230 
 RREF HZ I         245 22.28         5.7 0.30                           320 230 
 PRA  HZ EP        244 44.05                             107    0.37 6  389 210 
                                                                                
