 2016  4 1 0802 52.2 L   6.842 -73.141143.5  RSN 22 0.6 2.2LRSN                1
 GAP= 70        1.22       3.1     3.2  5.6 -0.2569E+01  0.5236E+01 -0.9144E+00E
 Epicentro: LOS SANTOS - SANTANDER                                             3
 ACTION:UPD 16-05-05 14:17 OP:rebc STATUS:               ID:20160401080252 L   I
 OLDACT:REG 16-04-01 12:59 OP:ak   STATUS:               ID:20160401075742     3
 2016-04-01-0757-42M.COL___310                                                 6
 STAT SP IPHASW D HRMM SECON CODA AMPLIT PERI AZIMU VELO AIN AR TRES W  DIS CAZ7
 BAR2 EZ IP     C  8 3 11.80                             169    0.1710 28.0 189 
 BAR2 EZ ES        8 3 26.72                             169   -0.0910 28.0 189 
 BAR2 EZ I         8 3 27.85        33.0 0.14            168           28.0 189 
 PAM  EZ EP        8 3 14.58                             151    0.6610 73.5  42 
 PAM  EN ES        8 3 31.75                             151    0.8710 73.5  42 
 PAM  EZ I         8 3 32.30        25.6 0.18            147           73.5  42 
 RUS  HZ EP        8 3 15.83                             142   -0.2110  105 177 
 RUS  HN ES        8 3 33.87                             142   -0.7910  105 177 
 RUS  HZ I         8 3 36.29        17.8 0.32            138            105 177 
 PTB  HZ EP        8 3 18.33                             131   -0.76 9  149 257 
 PTB  HN ES        8 3 39.08                             131   -1.01 9  149 257 
 PTB  HZ I         8 3 40.95        23.7 0.14            128            149 257 
 OCA  HZ EP        8 3 19.85                             130   -0.03 9  156 353 
 OCA  HN ES        8 3 41.36                             130   -0.13 9  156 353 
 OCA  HZ I         8 3 45.03        39.7 0.23            126            156 353 
 TAM  HZ EP        8 3 20.30                             130    0.56 9  156 107 
 TAM  HZ I         8 3 40.84        10.6 0.30            125            156 107 
 TAM  HN ES        8 3 40.99                             130   -0.25 9  156 107 
 SPBC HZ EP        8 3 20.75                             128   -0.13 9  167 218 
 SPBC HN ES        8 3 43.39                             128    0.12 9  167 218 
 SPBC HZ I         8 3 48.97        23.8 0.10            124            167 218 
 ZAR  HZ EP        8 3 24.90                             122    0.55 9  203 291 
 ZAR  HN ES        8 3 49.63                             122    0.19 9  203 291 
 ZAR  HZ I         8 3 56.01        25.5 0.32            119            203 291 
 NOR  HZ EP        8 3 28.09                             118   -0.02 8  238 234 
 NOR  HE ES        8 3 56.17                             118    0.03 8  238 234 
 NOR  HZ I         8 4  1.85        15.0 0.18            114            238 234 
 CHI  HZ EP        8 3 30.38                             116    0.13 8  253 195 
 CHI  HN ES        8 3 59.60                             116   -0.35 8  253 195 
 CHI  HZ I         8 4  4.64         6.9 0.48            113            253 195 
 ROSC BZ EP   9    8 3 32.54                             116    1.90 0  257 211 
 ROSC BN ES        8 4  2.57                                    0.03 8  257 211 
 ROSC BZ I         8 4  6.43        19.6 0.45            112            257 211 
 HEL  HZ EP   2    8 3 32.59                             114    0.13 4  274 255 
 HEL  HN ES        8 4  4.13                             114    0.25 8  274 255 
 HEL  HZ I         8 4 10.92        11.8 0.52            111            274 255 
 URE  HZ EP        8 3 33.03                             113    0.03 7  283 291 
 URE  HE ES   4    8 4  2.45                             113   -2.39 0  283 291 
 URE  HZ I         8 4  5.12        10.6 0.08            110            283 291 
 SOCV BZ EP   4    8 3 33.07                             112   -1.71 0  298  58 
 SOCV BN ES   4    8 4  5.88                             112   -2.13 0  298  58 
 GUY2CHZ EP        8 3 36.42                             112    0.39 7  304 234 
 GUY2CHN ES        8 4 12.11                             112    1.87 7  304 234 
 GUY2CHZ I         8 4 18.49         6.5 0.46                           304 234 
 PTGC HZ EP   4    8 3 35.22                             111   -1.18 0  313 159 
 PTGC HN ES   4    8 4  9.00                             111   -1.89 0  313 159 
 LL6C HZ EP        8 3 36.53                             110   -0.72 7  320 357 
 CBOC HZ EP        8 3 39.96                             109    0.74 7  336 251 
 CBOC HE ES        8 4 15.26                             109   -0.66 7  336 251 
 CBOC HZ I         8 4 26.79         3.2 0.38            106            336 251 
 MON  HZ EP   9    8 3 38.93                             108   -1.87 0  351 308 
 MON  HE ES        8 4 17.05                                    0.19 6  351 308 
 MON  HZ I         8 4 19.89         4.5 0.64            105            351 308 
 SDV  BZ EP        8 3 41.09                             108   -0.65 6  357  51 
 SDV  BN ES   4    8 4 18.06                             108   -2.33 0  357  51 
 SDV  BZ I         8 4 20.48         3.3 0.40            105            357  51 
 ANIL HZ EP   2    8 3 42.14                             108   -0.18 3  361 224 
 ANIL HE ES        8 4 21.55                             108    0.12 6  361 224 
 ORTC HZ EP        8 3 46.64                             106    0.15 6  400 216 
 ORTC HN ES        8 4 29.12                             106    0.26 6  400 216 
 ORTC HZ I         8 4 36.07         7.0 0.26            103            400 216 
 SJC  HZ EP        8 3 46.21                             105   -1.03 6  406 327 
 SJC  HN ES   4    8 4 27.27                             105   -2.92 0  406 327 
 SJC  HZ I         8 4 30.18         2.0 0.34            103            406 327 
 PAL  HZ EP   4    8 3 44.27                             105   -3.32 0  409 239 
 PAL  HN ES        8 4 30.11                             105   -0.71 6  409 239 
 PAL  HZ I         8 4 32.37         2.4 0.42            103            409 239 
                                                                                
