 2012  2 1 0944  2.9 L   6.573 -73.449112.8  RSN 16 0.6 2.8LRSN                1
 GAP= 66        1.03       2.9     3.8  6.4 -0.1849E+01  0.7306E+01  0.2732E+01E
 ACTION:UP  12-03-07 16:26 OP:epov STATUS:               ID:20120201094402 L   I
 2012-02-01-0940-00M.COL___187                                                 6
 STAT SP IPHASW D HRMM SECON CODA AMPLIT PERI AZIMU VELO SNR AR TRES W  DIS CAZ7
 BAR2 SZ EP   1    944 19.30                             164    0.51 7 29.5  86 
 BAR2 SZ ES   1    944 31.52                             164    0.36 7 29.5  86 
 BAR2 SZ I         944 33.98       335.3 0.27                          29.5  86 
 GIR2 SZ EP   1    944 20.64                             149    0.39 7 62.6  27 
 BRR  HZ EP        944 20.60                             148    0.3410 65.8 334 
 BRR  HZ I         944 20.87       289.5 0.12                          65.8 334 
 BRR  HN ES   1    944 34.68                             148    0.90 7 65.8 334 
 RUS  HZ EP   1    944 22.57                             141    0.21 7 85.5 152 
 RUS  HN ES   1    944 36.81                             141   -0.72 7 85.5 152 
 RUS  HZ I         944 39.74       168.5 0.24                          85.5 152 
 PTB  HZ EP        944 23.11                             132   -0.8010  112 268 
 PTB  HN ES   1    944 39.41                             132   -0.88 7  112 268 
 PAM  SZ EP   1    944 25.25                             130    0.06 7  118  44 
 PAM  SN ES   1    944 42.15                             130   -0.41 7  118  44 
 PAM  SZ I         944 47.16        50.9 0.34                           118  44 
 OCA  SZ EP   1    944 31.24                             117   -0.28 7  185   4 
 OCA  SZ ES   1    944 53.12                             117   -0.70 7  185   4 
 OCA  SZ I         945  0.13        84.9 0.18                           185   4 
 ZAR  HZ EP   1    944 31.86                             117    0.40 7  186 303 
 ZAR  HN ES   1    944 54.60                             117    0.88 7  186 303 
 ZAR  HZ I         944 59.40       135.6 0.29                           186 303 
 NOR  SZ EP   1    944 31.82                             116   -0.46 7  193 235 
 NOR  SN ES   1    944 55.65                             116    0.47 7  193 235 
 CHI  HZ EP   1    944 35.74                             113    0.29 6  217 188 
 CHI  HN ES   1    945  1.25                             113    0.43 6  217 188 
 CHI  HZ I         945  9.99        20.1 0.40                           217 188 
 HEL  HZ EP   1    944 37.44                             111    0.15 6  234 260 
 HEL  HN ES   1    945  3.31                             111   -0.79 6  234 260 
 HEL  HZ I         945  9.21        52.4 0.26                           234 260 
 VIL  SZ EP   1    944 41.61                             107    0.05 6  274 186 
 VIL  SN ES   1    945 11.26                             107   -0.44 6  274 186 
 VIL  SZ I         945 23.27        27.0 0.42                           274 186 
 RREF HZ EP   1    944 43.78                             107    0.83 6  280 229 
 RREF HN ES   1    945 13.70                             107   -0.47 6  280 229 
 RREF HZ I         945 23.60        31.0 0.29                           280 229 
 PRA  HZ EP   1    944 51.12                             102    0.15 5  354 207 
 PRA  HN ES   1    945 28.26                             102   -0.18 5  354 207 
 PRA  HZ I         945 38.23        68.1 0.21                           354 207 
 PAL  HZ EP   1    944 53.04                             101    0.84 5  364 240 
 COD  HZ EP   1    944 53.08                             101    0.06 5  372   0 
 COD  HN ES   1    945 31.23                             101   -0.87 5  372   0 
 COD  HZ I         945 39.23        26.6 0.25                           372   0 
                                                                                
