 2017 10 1 0758 54.3 L   6.802 -73.130137.2  RSN  8 0.4 1.7LRSN                1
 GAP=138        0.84       3.3     4.4  6.0 -0.3461E+01  0.1139E+02  0.3096E+01E
 Epicentro: LOS SANTOS - SANTANDER                                             3
 ACTION:UPD 17-11-07 19:27 OP:rebc STATUS:               ID:20171001075854 L   I
 OLDACT:REG 17-10-01 13:38 OP:osc  STATUS:               ID:20171001075738     3
 2017-10-01-0758-00M.COL___402                                                 6
 STAT SP IPHASW D HRMM SECON CODA AMPLIT PERI AZIMU VELO AIN AR TRES W  DIS CAZ7
 BAR2 EZ IP     C  759 12.67                             170   -0.2410 23.9 194 
 BAR2 EZ ES        759 27.05                             170   -0.3810 23.9 194 
 BAR2 EZ I         759 29.10        14.1 0.18            168           23.9 194 
 PAM  EZ IP     C  759 15.56                             150    0.0310 76.1  39 
 PAM  EN ES        759 32.59                             150    0.5010 76.1  39 
 PAM  EZ I         759 34.60         9.4 0.50            154           76.1  39 
 RUS  HZ IP     C  759 17.01                             142   -0.2110  101 177 
 RUS  HN ES        759 35.17                             142    0.0610  101 177 
 RUS  HZ I         759 37.14         7.3 0.28            144            101 177 
 SPBC HZ EP        759 21.86                             127   -0.41 9  164 219 
 SPBC HE ES        759 44.40                             127    0.30 9  164 219 
 SPBC HZ I         759 49.12         8.4 0.05            128            164 219 
 ZAR  HN ES        759 51.25                             120   -0.11 8  206 292 
 ZAR  HZ I         759 56.66         4.2 0.32            121            206 292 
 CHI  HN ES        8 0  0.76                             115    0.04 8  249 196 
 CHI  HZ I         8 0  4.15         2.6 0.60            117            249 196 
 GUY2CHZ EP        759 38.28                             110    0.58 7  303 235 
 GUY2CHN ES        8 0 11.53                             110   -0.02 7  303 235 
 GUY2CHZ I         8 0 17.22         2.4 0.30                           303 235 
 PRA  HZ EP        759 47.05                             105   -0.61 6  393 210 
 PRA  HE ES        8 0 30.20                             105    0.92 6  393 210 
 PRA  HZ I         8 0 34.83         3.5 0.32            106            393 210 
                                                                                
