 2012 12 1 0606 10.1 L   6.832 -73.150145.6  RSN 11 0.4 2.4LRSN                1
 GAP=134        1.03       2.7     4.1  5.3 -0.6457E+00  0.8520E+01  0.8671E+00E
 Epicentro: LOS SANTOS - SANTANDER                                             3
 ACTION:UPD 13-01-04 14:24 OP:ep   STATUS:               ID:20121201060610 L   I
 2012-12-01-0600-00M.COL___236                                                 6
 STAT SP IPHASW D HRMM SECON CODA AMPLIT PERI AZIMU VELO AIN AR TRES W  DIS CAZ7
 BAR2 SZ EP        6 6 29.66                             169   -0.1210 26.8 188 
 BAR2 SZ ES        6 6 44.90                             169   -0.2310 26.8 188 
 BAR2 SZ I         6 6 47.22        40.4 0.24                          26.8 188 
 GIR2 SZ EP        6 6 29.96                             169    0.3010 27.7 350 
 GIR2 SZ ES        6 6 45.14                             169    0.2310 27.7 350 
 GIR2 SZ I         6 6 46.53        25.0 0.48                          27.7 350 
 PAM  SZ EP        6 6 32.72                             151    0.5710 75.0  42 
 PAM  SN ES        6 6 49.61                             151    0.2510 75.0  42 
 PAM  SN I         6 6 51.02        56.8 0.42                          75.0  42 
 RUS  HZ EP        6 6 34.21                             143    0.1210  104 176 
 RUS  HN ES        6 6 52.48                             143   -0.3310  104 176 
 RUS  HN I         6 6 54.25        33.1 0.44                           104 176 
 PTB  HZ EP        6 6 36.63                             132   -0.44 9  148 257 
 PTB  HN ES        6 6 57.68                             132   -0.43 9  148 257 
 PTB  HN I         6 7  2.89        31.3 0.46                           148 257 
 OCA  HZ EP        6 6 37.71                             130   -0.34 9  157 353 
 OCA  HN ES        6 6 59.83                             130   -0.03 9  157 353 
 OCA  HN I         6 7  2.56        68.6 0.28                           157 353 
 ZAR  HZ EP        6 6 43.15                             123    0.81 9  202 291 
 ZAR  HN ES        6 7  7.76                             123    0.26 9  202 291 
 ZAR  HN I         6 7 13.86        22.6 0.30                           202 291 
 SML  HZ EP        6 6 45.30                             118   -1.04 8  240 335 
 SML  HN ES        6 7 14.03                             118   -0.58 8  240 335 
 SML  HN I         6 7 19.22        29.2 0.32                           240 335 
 CHI  HZ EP        6 6 48.28                             117    0.14 8  252 195 
 CHI  HN ES        6 7 17.45                             117   -0.37 8  252 195 
 CHI  HN I         6 7 21.16        13.9 0.32                           252 195 
 HEL  HZ EP        6 6 50.69                             115    0.35 8  272 255 
 HEL  HN ES        6 7 22.50                             115    0.76 8  272 255 
 HEL  HN I         6 7 29.39         9.9 0.32                           272 255 
 MON  HZ EP   4    6 6 56.99                             109   -1.80 0  351 308 
 MON  HN ES   4    6 7 35.18                             109   -1.59 0  351 308 
 PRA  HZ EP        6 7  4.03                             106    0.09 6  395 209 
 PRA  HN ES        6 7 46.01                             106    0.06 6  395 209 
 PRA  HN I         6 7 52.37         6.7 0.62                           395 209 
                                                                                
