 2011 11 1 0853 46.7 L   6.805 -73.111145.2  RSN 10 0.4 2.3LRSN                1
 GAP=141        0.84       3.8     5.7  6.0 -0.1679E+01  0.1362E+02  0.8000E+00E
 Epicentro: LOS SANTOS - SANTANDER                                             3
 ACTION:UPD 12-07-13 16:07 OP:ep   STATUS:               ID:20111101085346 L   I
 2011-11-01-0852-11S.COL___175                                                 6
 STAT SP IPHASW D HRMM SECON CODA AMPLIT PERI AZIMU VELO AIN AR TRES W  DIS CAZ7
 BTL  SZ EP        854  6.51                             171    0.3110 21.4 306 
 BAR2 SZ IP        854  6.25                             170   -0.0210 24.8 199 
 BAR2 SZ I         854  6.64        50.1 0.36                          24.8 199 
 BAR2 SZ ES   1    854 21.24                             170   -0.31 7 24.8 199 
 BRR  HZ IP     C  854  8.11                             151    0.1710 74.4 297 
 BRR  HN ES   1    854 24.85                             151    0.31 7 74.4 297 
 BRR  HZ I         854 29.16        35.8 0.22                          74.4 297 
 PAM  SZ EP        854  9.13                             152    0.4610 74.6  38 
 PAM  SN ES   1    854 25.96                             152    0.14 7 74.6  38 
 RUS  HZ EP        854 10.12                             144   -0.2710  101 178 
 RUS  HN ES   1    854 28.60                             144   -0.29 7  101 178 
 RUS  HZ I         854 30.47        14.6 0.36                           101 178 
 OCA  SZ EP        854 14.43                             129   -0.51 9  160 352 
 OCA  SZ ES   1    854 36.72                             129   -0.27 7  160 352 
 OCA  SZ I         854 40.75        35.9 0.20                           160 352 
 ZAR  HZ EP        854 18.88                             122   -0.55 8  207 292 
 ZAR  HZ I         854 50.18        21.0 0.36                           207 292 
 HEL  HZ EP        854 27.71                             114    0.43 7  276 256 
 HEL  HN ES   2    854 58.79                             114   -0.17 4  276 256 
 HEL  HZ I         855  4.86         7.2 0.36                           276 256 
 RREF HZ EP   1    854 34.23                             110    1.07 5  325 230 
 RREF HZ I         855 15.77        12.0 0.30                           325 230 
 PRA  HZ EP        854 40.14                             106   -0.31 6  394 210 
                                                                                
