 2011 10 1 0858 29.5 L   6.764 -73.106143.1  RSN  4 0.3 1.7LRSN                1
 GAP=143        0.52       3.8     5.2  5.7 -0.5553E-01  0.1295E+01 -0.2137E+01E
 Epicentro: LOS SANTOS - SANTANDER                                             3
 ACTION:UPD 12-07-13 16:01 OP:ep   STATUS:               ID:20111001085829 L   I
 2011-10-01-0855-24S.COL___168                                                 6
 STAT SP IPHASW D HRMM SECON CODA AMPLIT PERI AZIMU VELO AIN AR TRES W  DIS CAZ7
 BAR2 SZ EP   1    858 48.81                             171    0.08 7 20.8 204 
 BAR2 SZ ES   1    859  3.56                             171   -0.20 7 20.8 204 
 BAR2 SZ I         859  4.92        15.2 0.33                          20.8 204 
 BRR  HZ EP        858 50.62                             150   -0.0510 77.0 300 
 BRR  HN ES   1    859  7.28                             150    0.07 7 77.0 300 
 BRR  HZ I         859  8.43         7.5 0.12                          77.0 300 
 PAM  SZ EP   1    858 51.73                             150    0.30 7 77.8  35 
 PAM  SN ES   1    859  8.40                             150   -0.16 7 77.8  35 
 RUS  HZ EP   2    858 52.01                             144   -0.65 5 96.4 179 
 RUS  HN ES   1    859 11.04                             144    0.29 7 96.4 179 
 RUS  HZ I         859 13.62         6.3 0.27                          96.4 179 
                                                                                
