 2017  6 1 0730 59.2 L   6.020 -73.726108.0  RSN  5 0.4 1.1LRSN                1
 GAP=122        0.62       3.3     3.3  6.4 -0.2804E+01  0.6117E+01 -0.3501E+01E
 Epicentro: VELEZ - SANTANDER                                                  3
 ACTION:UPD 17-09-14 16:48 OP:jn   STATUS:               ID:20170601073059 L   I
 OLDACT:UP  17-06-01 17:50 OP:and  STATUS:               ID:20170601072738     3
 OLDACT:UP  17-06-01 17:50 OP:and  STATUS:               ID:20170601072738     3
 OLDACT:UP  17-06-01 17:50 OP:and  STATUS:               ID:20170601072738     3
 OLDACT:UP  17-06-01 17:49 OP:and  STATUS:               ID:20170601072738     3
 OLDACT:UP  17-06-01 17:49 OP:and  STATUS:               ID:20170601072738     3
 OLDACT:UP  17-06-01 17:49 OP:and  STATUS:               ID:20170601072738     3
 OLDACT:UP  17-06-01 17:49 OP:and  STATUS:               ID:20170601072738     3
 OLDACT:UP  17-06-01 17:48 OP:and  STATUS:               ID:20170601072738     3
 OLDACT:REG 17-06-01 13:03 OP:and  STATUS:               ID:20170601072738     3
 2017-06-01-0728-00M.COL___344                                                 6
 STAT SP IPHASW D HRMM SECON CODA AMPLIT PERI AZIMU VELO AIN AR TRES W  DIS CAZ7
 SPBC HZ EP        731 15.38                             150   -0.1210 56.0 223 
 SPBC HN ES        731 28.16                             150   -0.0910 56.0 223 
 SPBC HZ I         731 30.49         4.1 0.10            149           56.0 223 
 RUS  HZ EP        731 17.54                             143    0.3810 72.5 101 
 RUS  HN ES        731 31.03                             143   -0.1810 72.5 101 
 RUS  HZ I         731 32.51         2.4 0.28            143           72.5 101 
 PTB  HZ EP   4    731 16.21                             133   -2.43 0 99.2 305 
 PTB  HN ES   4    731 30.12                             133   -3.73 0 99.2 305 
 PTB  HZ I         731 30.81         1.4 0.36            136           99.2 305 
 BRR  HZ EP   3    731 18.93                             127   -1.63 2  120   1 
 BRR  HN ES        731 37.28                             127    0.0210  120   1 
 BRR  HZ I         731 37.84         2.8 0.14            130            120   1 
 NOR  HZ EP        731 22.22                             124   -0.01 9  136 248 
 NOR  HE ES   2    731 40.63                             124    0.41 5  136 248 
 NOR  HZ I         731 43.39         4.4 0.16            124            136 248 
                                                                                
