 2011  8 1 0238 59.9 L   6.808 -73.065142.8  RSN 10 0.3 1.5LRSN                1
 GAP=147        0.47       2.7     3.7  3.9 -0.3306E+01  0.1653E+01  0.2713E+01E
 Epicentro: LOS SANTOS - SANTANDER                                             3
 ACTION:UPD 12-07-25 14:05 OP:epov STATUS:               ID:20110801023859 L   I
 2011-08-01-0235-19S.COL___142                                                 6
 STAT SP IPHASW D HRMM SECON CODA AMPLIT PERI AZIMU VELO AIN AR TRES W  DIS CAZ7
 BAR2 SZ EP   1    239 19.09                             169   -0.16 7 27.2 209 
 BAR2 SZ ES   1    239 34.58                             169    0.23 7 27.2 209 
 BAR2 SZ I         239 35.90         6.3 0.36                          27.2 209 
 PAM  SZ EP   1    239 21.80                             152    0.37 7 71.3  34 
 PAM  SN ES   2    239 38.66                             152    0.43 5 71.3  34 
 BRR  HZ EP   1    239 20.76                             150   -0.41 7 78.8 295 
 BRR  HN ES   1    239 37.74                             150   -0.03 7 78.8 295 
 BRR  HZ I         239 41.02         9.7 0.44                          78.8 295 
 RUS  HZ EP   1    239 23.28                             143   -0.12 7  101 181 
 RUS  HN ES   2    239 41.52                             143   -0.22 5  101 181 
 RUS  HZ I         239 43.20         2.7 0.48                           101 181 
 GRA  SZ EP   1    239 24.35                             137   -0.25 7  122  14 
 GRA  SZ ES   2    239 43.61                             137   -0.26 5  122  14 
 GRA  SZ I         239 46.51         3.1 0.32                           122  14 
 NOR  SZ EP   2    239 36.13                             117   -0.17 4  243 236 
 CHI  HZ EP   1    239 37.94                             116    0.15 6  252 197 
 CHI  HN ES   2    240  7.11                             116   -0.24 4  252 197 
 CHI  HZ I         240 15.08         1.7 0.64                           252 197 
 HEL  HZ EP   1    239 41.10                             113    0.15 6  281 256 
 HEL  HE ES   2    240 13.54                             113    0.57 4  281 256 
 RREF HE ES   2    240 23.34                             110    0.03 3  329 230 
 RREF HZ I         240 29.56         2.3 0.32                           329 230 
 PRA  HZ EP   1    239 54.52                             106    0.59 4  397 211 
 PRA  HN ES   2    240 35.81                             106   -0.26 3  397 211 
                                                                                
