 2017  2 1 0127 26.1 L   6.741 -73.182132.2  RSN  4 0.1 1.2LRSN                1
 GAP=229        0.37       2.8     2.8  3.6  0.3652E+01  0.1408E+01 -0.3713E+00E
 Epicentro: VILLANUEVA - SANTANDER                                             3
 ACTION:UPD 17-05-24 15:31 OP:jn   STATUS:               ID:20170201012726 L   I
 OLDACT:REG 17-02-01 14:35 OP:dnl  STATUS:               ID:20170201011743     3
 2017-02-01-0118-00M.COL___325                                                 6
 STAT SP IPHASW D HRMM SECON CODA AMPLIT PERI AZIMU VELO AIN AR TRES W  DIS CAZ7
 BAR2 EZ EP        127 44.02                             172    0.0710 16.4 180 
 BAR2 EZ ES        127 57.83                             172   -0.0610 16.4 180 
 BAR2 EZ I         128  1.40         4.1 0.30            171           16.4 180 
 BRR  HZ EP        127 45.92                             150    0.1410 71.2 305 
 BRR  HE ES        128  1.04                             150   -0.1110 71.2 305 
 BRR  HZ I         128  9.23         5.6 0.28            149           71.2 305 
 RUS  HZ EP   2    127 47.86                             142   -0.20 5 94.4 173 
 RUS  HE ES        128  5.20                             142    0.0010 94.4 173 
 RUS  HZ I         128  7.49         1.2 0.20            149           94.4 173 
 PTB  HZ EP   2    127 51.12                             130   -0.38 5  143 261 
 PTB  HN ES        128 11.43                             130    0.11 9  143 261 
 PTB  HZ I         128 17.57         2.2 0.58            132            143 261 
                                                                                
