 2014  7 1 0514 22.1 L   6.872 -73.199108.2  RSN  5 0.4 1.0LRSN                1
 GAP=239        0.93       5.5     7.1  8.2  0.1205E+02  0.1823E+02  0.1349E+02E
 Epicentro: BETULIA - SANTANDER                                                3
 ACTION:UPD 15-03-16 20:40 OP:nd   STATUS:               ID:20140701051422 L   I
 OLDACT:REG 14-07-01 12:55 OP:spq  STATUS:               ID:20140701050813     3
 2014-07-01-0508-13M.COL___247                                                 6
 STAT SP IPHASW D HRMM SECON CODA AMPLIT PERI AZIMU VELO AIN AR TRES W  DIS CAZ7
 BAR2 SZ ES   1    514 49.93                             163    0.51 7 31.0 177 
 BAR2 SZ I         514 54.19         2.8 0.36            165           31.0 177 
 BRR  HZ EP        514 39.05                             148    0.3710 62.3 295 
 BRR  HN ES        514 51.24                             148   -0.4110 62.3 295 
 BRR  HZ I         514 56.75         3.3 0.62            152           62.3 295 
 RUS  HN ES   1    514 58.96                             131   -0.55 7  109 173 
 RUS  HZ I         515  2.18         1.8 0.46            138            109 173 
 PTB  HZ EP        514 45.34                             122   -0.50 9  144 255 
 PTB  HN ES        515  4.66                             122    0.26 9  144 255 
 PTB  HZ I         515  8.41         2.0 0.10            128            144 255 
 SPBC HZ EP        514 48.52                             118    0.25 9  166 216 
 SPBC HN ES        515  8.81                             118    0.08 9  166 216 
 SPBC HZ I         515 11.09         1.8 0.23            124            166 216 
                                                                                
