 2016  6 1 0036 55.7 L   6.877 -73.362127.2  RSN 10 0.5 1.9LRSN                1
 GAP= 93        1.23       3.9     4.4  7.6 -0.1899E+01  0.1036E+02 -0.6411E+01E
 Epicentro: SAN VICENTE DE CHUCURI - SANTANDER                                 3
 ACTION:UPD 16-07-21 22:14 OP:rebc STATUS:               ID:20160601003655 L   I
 OLDACT:UP  16-06-01 14:14 OP:edw  STATUS:               ID:20160601002748     3
 OLDACT:REG 16-06-01 12:16 OP:edw  STATUS:               ID:20160601002748     3
 2016-06-01-0027-48M.COL___313                                                 6
 STAT SP IPHASW D HRMM SECON CODA AMPLIT PERI AZIMU VELO AIN AR TRES W  DIS CAZ7
 BAR2 EZ EP        037 13.81                             163    0.2410 37.3 148 
 BAR2 EZ ES        037 26.72                             163   -0.7510 37.3 148 
 BRR  HZ EP        037 14.29                             158    0.7110 46.3 303 
 BRR  HE ES        037 28.27                             158    0.7910 46.3 303 
 BRR  HZ I         037 29.82        17.5 0.40                          46.3 303 
 PAM  EZ EP        037 17.23                             143    0.3710 89.3  55 
 PAM  EN ES        037 33.26                             143   -0.0610 89.3  55 
 PAM  EZ I         037 37.47        18.4 0.40                          89.3  55 
 RUS  HZ EP        037 18.54                             136   -0.2210  113 164 
 RUS  HE ES        037 36.24                             136   -0.4610  113 164 
 RUS  HZ I         037 37.14         5.6 0.14                           113 164 
 PTB  HZ EP        037 19.14                             132   -0.1510  127 253 
 PTB  HE ES        037 37.04                             132   -0.6110  127 253 
 PTB  HZ I         037 40.94        11.0 0.14                           127 253 
 OCA  HZ EP        037 22.10                             127    0.37 9  151   2 
 OCA  HN ES        037 41.74                             127   -0.26 9  151   2 
 OCA  HZ I         037 48.72        31.3 0.18                           151   2 
 NOR  HN ES        037 55.41                             116    0.51 8  221 229 
 URE  HN ES        038  2.34                             112    0.13 8  258 292 
 SJC  HZ EP        037 48.35                             103   -0.04 6  389 329 
 SJC  HN ES        038 28.12                             103   -1.33 6  389 329 
 AZU  HZ EP   2    038 34.06                              94   -0.17 0  770 278 
                                                                                
