 2017  3 1 0527  5.5 L   6.716 -73.171150.0  RSN  5 0.2 0.8LRSN                1
 GAP=156        0.54       8.1     3.2  4.9  0.5234E+01 -0.3964E+01 -0.1779E+02E
 Epicentro: VILLANUEVA - SANTANDER                                             3
 ACTION:UPD 17-05-25 18:34 OP:jn   STATUS:               ID:20170301052705 L   I
 OLDACT:UP  17-04-21 15:43 OP:nlst STATUS:               ID:20170301052705 L   3
 OLDACT:UP  17-03-01 15:42 OP:and  STATUS:               ID:20170301051743d    3
 OLDACT:UP  17-03-01 15:41 OP:and  STATUS:               ID:20170301051743d    3
 OLDACT:UP  17-03-01 15:41 OP:and  STATUS:               ID:20170301051743d    3
 OLDACT:UP  17-03-01 15:41 OP:and  STATUS:               ID:20170301051743d    3
 OLDACT:UP  17-03-01 15:41 OP:and  STATUS:               ID:20170301051743d    3
 OLDACT:DUP 17-03-01 15:38 OP:and  STATUS:               ID:20170301051743d    3
 2017-03-01-0518-00M.COL___378                                                 6
 STAT SP IPHASW D HRMM SECON CODA AMPLIT PERI AZIMU VELO AIN AR TRES W  DIS CAZ7
 BAR2 EZ IP     C  527 25.50                             175   -0.0310 13.8 185 
 BAR2 EZ ES   1    527 40.69                             175   -0.43 7 13.8 185 
 BAR2 EZ I         527 41.48         1.6 0.23            169           13.8 185 
 BRR  HZ EP        527 27.43                             152    0.1410 73.8 306 
 BRR  HN ES   2    527 44.70                             152    0.44 5 73.8 306 
 RUS  HZ EP   9    527 29.84                             147    0.75 0 91.6 174 
 RUS  HN ES     D  527 48.52                             146    0.3110 91.6 174 
 RUS  HZ I         527 49.18         0.8 0.30            143           91.6 174 
 PTB  HZ EP        527 32.42                             134   -0.06 9  144 262 
 PTB  HN ES        527 53.48                             134   -0.01 9  144 262 
 PTB  HZ I         527 57.01         1.1 0.16            132            144 262 
 TAM  HZ IP     C  527 33.70                             131    0.10 9  156 101 
                                                                                
