 2016  4 1 0209 22.8 L   6.823 -73.177133.6  RSN  6 0.4 1.2LRSN                1
 GAP=242        0.84       5.1     5.4  7.4  0.1342E+02  0.1246E+02  0.5920E+01E
 Epicentro: ZAPATOCA - SANTANDER                                               3
 ACTION:UPD 16-05-05 14:17 OP:rebc STATUS:               ID:20160401020922 L   I
 OLDACT:DUP 16-04-01 14:44 OP:ak   STATUS:               ID:20160401020743d    3
 2016-04-01-0207-42M.COL___315                                                 6
 STAT SP IPHASW D HRMM SECON CODA AMPLIT PERI AZIMU VELO AIN AR TRES W  DIS CAZ7
 BAR2 EZ EP   2    2 9 41.07                             169    0.04 5 25.5 181 
 BAR2 EZ ES        2 9 55.48                             169    0.2410 25.5 181 
 BAR2 EZ I         2 9 57.10         7.2 0.36            165           25.5 181 
 RUS  HZ EP        2 9 45.41                             140   -0.1910  103 174 
 RUS  HN ES        210  3.24                             140   -0.1410  103 174 
 RUS  HZ I         210  4.52         1.3 0.32            141            103 174 
 PTB  HZ EP   4    2 9 47.32                             130   -1.22 0  145 258 
 PTB  HN ES        210  8.29                             130   -0.32 9  145 258 
 PTB  HZ I         210 14.21         2.0 0.25            129            145 258 
 SPBC HZ EP        2 9 49.90                             126   -0.49 9  163 217 
 SPBC HN ES        210 11.79                             126   -0.11 9  163 217 
 SPBC HZ I         210 16.73         2.4 0.11            127            163 217 
 ZAR  HZ EP   2    2 9 54.63                             120    0.58 4  200 292 
 ZAR  HE ES        210 18.75                             120    0.33 9  200 292 
 CHI  HE ES        210 29.88                             114    0.81 8  250 194 
                                                                                
