 2017  7 1 0918 14.9 L   6.759 -73.146139.6  RSN  9 0.5 1.8LRSN                1
 GAP= 96        1.05       4.7     3.7  6.7 -0.1488E+00 -0.2020E+01  0.4704E+01E
 Epicentro: LOS SANTOS - SANTANDER                                             3
 ACTION:UPD 17-08-30 15:28 OP:rebc STATUS:               ID:20170701091814 L   I
 OLDACT:UP  17-07-01 16:23 OP:and  STATUS:               ID:20170701091739     3
 OLDACT:UP  17-07-01 16:23 OP:and  STATUS:               ID:20170701091739     3
 OLDACT:REG 17-07-01 12:54 OP:and  STATUS:               ID:20170701091739     3
 2017-07-01-0918-00M.COL___371                                                 6
 STAT SP IPHASW D HRMM SECON CODA AMPLIT PERI AZIMU VELO AIN AR TRES W  DIS CAZ7
 BAR2 EZ IP     C  918 33.63                             172   -0.0610 18.9 192 
 BAR2 EZ ES        918 48.11                             172   -0.2410 18.9 192 
 BAR2 EZ I         918 49.30        24.1 0.30            169           18.9 192 
 BRR  HZ IP     C  918 35.63                             151    0.1210 73.5 302 
 BRR  HN ES        918 52.35                             151    0.7610 73.5 302 
 BRR  HZ I         918 55.41        16.0 0.28            153           73.5 302 
 PAM  EZ EP        918 36.48                             148   -0.1910 80.9  37 
 PAM  EN ES   2    918 52.90                             148   -0.76 5 80.9  37 
 PAM  EZ I         918 55.80        14.8 0.20            153           80.9  37 
 PTB  HZ EP        918 40.74                             131   -0.54 9  147 261 
 PTB  HN ES        919  0.99                             131   -0.88 9  147 261 
 PTB  HZ I         919  4.81         6.8 0.26            133            147 261 
 TAM  HZ IP     C  918 42.01                             129    0.03 9  154 103 
 SPBC HZ EP        918 42.93                             128    0.35 9  160 220 
 SPBC HN ES        919  4.57                             128    0.38 9  160 220 
 SPBC HZ I         919  9.06         9.8 0.22            130            160 220 
 YPLC HZ IP     C  918 44.08                             126    0.23 9  173 151 
 YPLC HN ES   2    919  7.08                             126    0.65 4  173 151 
 YPLC HZ I         919 10.12         4.5 0.24            128            173 151 
 ZAR  HZ EP        918 46.95                             121   -0.17 8  206 293 
 ZAR  HN ES        919 12.79                             121    0.53 8  206 293 
 NOR  HZ EP   3    918 51.37                             118    1.39 2  232 235 
 NOR  HN ES        919 17.00                             118   -0.36 8  232 235 
 NOR  HZ I         919 21.98         4.2 0.24            119            232 235 
                                                                                
