 2015  7 1 0410 36.5 L   6.805 -73.109139.8  RSN 18 0.5 2.6LRSN                1
 GAP=187        1.13       2.8     4.7  6.4 -0.9326E+00  0.1348E+02  0.1047E+00E
 Epicentro: LOS SANTOS - SANTANDER                                             3
 ACTION:UPD 15-09-08 21:46 OP:cam  STATUS:               ID:20150701041036 L   I
 OLDACT:UP  15-07-03 20:22 OP:nlst STATUS:               ID:20150701041036 L   3
 OLDACT:REG 15-07-01 14:18 OP:ar   STATUS:               ID:20150701040749     3
 2015-07-01-0407-49M.COL___322                                                 6
 STAT SP IPHASW D HRMM SECON CODA AMPLIT PERI AZIMU VELO AIN AR TRES W  DIS CAZ7
 BAR2 EZ IP     C  410 55.72                             169    0.2410 24.9 199 
 BAR2 EZ ES        411 10.33                             169    0.0710 24.9 199 
 BAR2 EZ I         411 11.75        97.2 0.22            164           24.9 199 
 RUS  HZ EP        410 59.54                             142   -0.1910  101 178 
 RUS  HN ES        411 18.29                             142    0.4710  101 178 
 RUS  HZ I         411 19.04        24.8 0.28            144            101 178 
 OCA  HZ EP        411  4.01                             128   -0.37 9  160 352 
 OCA  HN ES        411 25.48                             128   -0.63 9  160 352 
 OCA  HZ I         411 33.06        87.8 0.36            130            160 352 
 ZAR  HZ EP        411  9.93                             120    0.96 8  208 292 
 ZAR  HN ES        411 34.74                             120    0.48 8  208 292 
 ZAR  HZ I         411 39.50        41.4 0.50            120            208 292 
 NOR  HZ EP        411 12.29                             117   -0.02 8  238 235 
 NOR  HN ES        411 39.40                             117   -0.82 8  238 235 
 NOR  HZ I         411 46.91        24.2 0.18            117            238 235 
 SML  HZ EP        411 12.23                             116   -0.73 8  245 334 
 SML  HE ES        411 42.00                             116    0.62 8  245 334 
 SML  HZ I         411 46.95        43.0 0.10            117            245 334 
 CHI  HZ EP        411 13.88                             116   -0.20 8  250 196 
 CHI  HN ES        411 42.59                             116   -0.78 8  250 196 
 CHI  HZ I         411 49.71        13.7 0.34            117            250 196 
 ROSC BN ES   4    411 48.99                             115    4.67 0  255 212 
 ROSC BZ I         411 52.30        50.1 0.40            116            255 212 
 HEL  HZ EP   1    411 17.23                             113    0.33 6  276 256 
 HEL  HN ES        411 47.67                             113   -0.71 7  276 256 
 HEL  HZ I         411 54.63        16.8 0.30            113            276 256 
 URE  HZ EP        411 17.09                             112   -0.63 7  287 292 
 URE  HN ES   4    411 48.40                             112   -1.44 0  287 292 
 URE  HZ I         411 58.25        20.9 0.22            112            287 292 
 GUY2CHZ EP   4    411 22.26                             111    1.98 0  305 235 
 GUY2CHN ES        411 55.03                             111    0.63 7  305 235 
 GUY2CHZ I         412  0.67        19.1 0.32                           305 235 
 PTGC HZ EP   4    411 19.05                             110   -0.97 0  308 159 
 PTGC HN ES   4    411 52.54                             110   -1.40 0  308 159 
 PTGC HZ I         411 54.35        22.8 0.36            113            308 159 
 CBOC HZ EP        411 24.67                             108    1.00 7  338 252 
 CBOC HN ES        412  0.75                             108    0.32 7  338 252 
 CBOC HZ I         412  3.42         7.5 0.26            109            338 252 
 DBB  SZ EP        411 24.71                             108    0.48 7  343 274 
 DBB  SZ ES        412  0.93                             108   -0.51 7  343 274 
 DBB  SZ I         412 24.37        31.9 0.48            109            343 274 
 TOL  SZ EP        411 25.64                             108    0.71 6  347 225 
 TOL  SN ES        412  2.54                             108   -0.14 6  347 225 
 TOL  SZ I         412  7.74        26.6 0.84            109            347 225 
 PRA  HZ EP        411 30.36                             105    0.22 6  394 210 
 PRA  HN ES        412 11.55                             105   -0.41 6  394 210 
 PRA  HZ I         412 20.06        19.5 0.42            107            394 210 
 ORTC HZ EP        411 30.93                             105    0.34 6  398 217 
 ORTC HN ES        412 13.13                             105    0.38 6  398 217 
 ORTC HZ I         412 18.86        16.5 0.32            106            398 217 
 PAL  HZ EP        411 31.96                             105    0.02 6  409 239 
 PAL  HE ES        412 14.38                             105   -0.78 6  409 239 
 PAL  HZ I         412 28.94         5.7 0.52            105            409 239 
                                                                                
