 2016  1 1 0039 28.6 L   6.815 -73.156145.1  RSN 24 0.5 2.6LRSN                1
 GAP=112        1.10       2.5     3.1  5.0 -0.4012E+00  0.2637E+01  0.1666E+01E
 Epicentro: LOS SANTOS - SANTANDER                                             3
 ACTION:UPD 16-03-09 23:21 OP:cam  STATUS:               ID:20160101003928 L   I
 OLDACT:UP  16-02-01 09:14 OP:mHER STATUS:               ID:20160101003928 L   3
 OLDACT:UP  16-01-01 14:27 OP:drio STATUS:               ID:20160101003748     3
 OLDACT:REG 16-01-01 13:38 OP:drio STATUS:               ID:20160101003748     3
 2016-01-01-0037-48M.COL___320                                                 6
 STAT SP IPHASW D HRMM SECON CODA AMPLIT PERI AZIMU VELO AIN AR TRES W  DIS CAZ7
 BAR2 EZ EP     C  039 48.16                             170   -0.0210 24.8 187 
 BAR2 EZ ES        040  3.21                             170   -0.2510 24.8 187 
 BAR2 EZ I         040  4.35        89.8 0.22            169           24.8 187 
 BRR  HZ IP     C  039 49.94                             153    0.3610 69.4 298 
 BRR  HN ES        040  7.11                             153    1.1710 69.4 298 
 BRR  HZ I         040 10.78        56.2 0.22            150           69.4 298 
 RUS  HZ EP        039 52.15                             143   -0.2610  102 175 
 RUS  HE ES        040 10.78                             143   -0.2110  102 175 
 RUS  HZ I         040 11.69        43.8 0.24            144            102 175 
 PTB  HZ EP        039 54.55                             132   -0.89 9  147 258 
 PTB  HN ES        040 15.84                             132   -0.54 9  147 258 
 PTB  HZ I         040 18.01        52.6 0.56            131            147 258 
 TAM  HZ EP        039 56.58                             130    0.21 9  157 105 
 TAM  HN ES        040 18.21                             130    0.18 9  157 105 
 OCA  HZ EP        039 57.20                             130    0.51 9  158 353 
 OCA  HE ES        040 18.29                             130   -0.31 9  158 353 
 OCA  HZ I         040 26.48        67.5 0.22            130            158 353 
 SPBC HZ EP        039 57.01                             129   -0.09 9  164 218 
 SPBC HN ES        040 19.42                             129    0.08 9  164 218 
 SPBC HZ I         040 24.86        54.9 0.20            129            164 218 
 ZAR  HZ EP        040  1.26                             122    0.43 9  202 292 
 ZAR  HN ES        040 25.80                             122   -0.17 9  202 292 
 ZAR  HZ I         040 31.42        39.8 0.44            122            202 292 
 NOR  HZ EP        040  4.12                             118   -0.18 8  235 234 
 NOR  HN ES        040 31.42                             118   -0.72 8  235 234 
 NOR  HZ I         040 36.64        24.9 0.24            118            235 234 
 SML  HZ EP        040  4.41                             117   -0.56 8  242 335 
 SML  HE ES        040 33.06                             117   -0.28 8  242 335 
 SML  HZ I         040 36.10        52.4 0.26            118            242 335 
 CHI  HZ EP        040  6.43                             117    0.03 8  250 195 
 CHI  HN ES        040 35.75                             117   -0.14 8  250 195 
 CHI  HZ I         040 41.00        21.4 0.32            118            250 195 
 ROSC BZ EP   9    040  8.41                             116    1.64 0  254 211 
 ROSC BE ES        040 38.19                             116    0.00 8  254 211 
 ROSC BZ I         040 42.65        48.3 0.40            117            254 211 
 HEL  HZ EP   4    040 10.18                             115    1.48 0  271 255 
 HEL  HE ES        040 39.36                             115   -0.62 8  271 255 
 HEL  HZ I         040 46.35        17.8 0.32            115            271 255 
 GUY2CHZ EP   4    040 13.35                             112    1.17 0  301 234 
 GUY2CHE ES   4    040 49.24                             112    3.06 0  301 234 
 GUY2CHZ I         040 56.00        13.9 0.24                           301 234 
 VIL  SZ EP        040 11.75                             112   -0.40 7  305 191 
 VIL  SN ES        040 45.68                             112   -0.43 7  305 191 
 PTGC HZ EP   4    040 11.31                             111   -1.34 0  311 159 
 PTGC HE ES   4    040 44.28                             111   -2.73 0  311 159 
 PTGC HZ I         040 46.52        19.9 0.26            113            311 159 
 ELA  HZ EP   4    040 17.43                             110    1.98 0  329 229 
 ELA  HN ES        040 52.91                             110    0.92 7  329 229 
 ELA  HZ I         040 59.76        11.6 0.40            110            329 229 
 CBOC HZ EP        040 15.87                             110    0.45 7  333 252 
 CBOC HN ES   4    040 51.25                             110   -0.69 0  333 252 
 CBOC HZ I         041  1.89         5.7 0.44            110            333 252 
 DBB  SZ EP   4    040 15.17                             109   -0.73 0  338 274 
 DBB  SZ ES   4    040 46.47                             109   -6.33 0  338 274 
 ANIL HZ EP        040 19.17                             108    0.75 6  358 224 
 ANIL HN ES        040 58.26                             108    0.97 6  358 224 
 PRA  HZ EP        040 22.36                             106    0.16 6  393 209 
 PRA  HN ES        041  3.75                             106   -0.26 6  393 209 
 PRA  HZ I         041  8.64        18.7 0.56            107            393 209 
 ORTC HZ EP        040 22.55                             106   -0.02 6  396 216 
 ORTC HE ES        041  5.53                             106    0.85 6  396 216 
 ORTC HZ I         041 11.85        10.6 0.52            107            396 216 
 PAL  HZ EP        040 23.62                             106   -0.10 6  406 239 
 PAL  HE ES        041  7.39                             106    0.67 6  406 239 
 PAL  HZ I         041 11.88         6.0 0.40            106            406 239 
 SJC  HZ EP   4    040 22.18                             106   -1.72 0  407 327 
 SJC  HN ES   4    041  3.23                             106   -3.81 0  407 327 
 SJC  HZ I         041 13.14         4.3 0.26            106            407 327 
 CRJC HZ EP   4    040 28.62                             103   -2.27 0  466   4 
 CRJC HN ES   4    041 15.69                             103   -3.79 0  466   4 
 CRJC HZ I         041 19.42         8.5 0.16            104            466   4 
                                                                                
