 2013  5 1 0859 17.4 L   6.802 -73.148147.6  RSN  9 0.5 2.0LRSN                1
 GAP=136        1.22       5.9     6.1  7.7 -0.4167E+01  0.7766E+01 -0.4727E+01E
 Epicentro: LOS SANTOS - SANTANDER                                             3
 ACTION:UPD 13-06-20 09:47 OP:ep   STATUS:               ID:20130501085917 L   I
 2013-05-01-0857-44M.COL___223                                                 6
 STAT SP IPHASW D HRMM SECON CODA AMPLIT PERI AZIMU VELO AIN AR TRES W  DIS CAZ7
 BAR2 SZ EP     D  859 37.24                             171   -0.0410 23.5 189 
 BAR2 SZ ES        859 52.20                             171   -0.5710 23.5 189 
 BAR2 SZ I         859 53.30        18.3 0.31            156           23.5 189 
 GIR2 SZ EP     C  859 37.35                             168    0.0410 31.0 351 
 BRR  HZ IP     C  859 39.14                             153    0.3910 70.8 298 
 BRR  HZ I         859 39.43        33.3 0.24            141           70.8 298 
 BRR  HN ES        859 56.39                             153    1.0110 70.8 298 
 PAM  SZ EP        859 40.05                             151    0.2210 77.4  40 
 PAM  SZ I         859 40.41        16.8 0.26            152           77.4  40 
 PAM  SN ES        859 57.15                             151   -0.1710 77.4  40 
 RUS  HZ EP        859 41.62                             144    0.2410  101 176 
 PTB  HZ EP        859 43.80                             132   -0.72 9  148 259 
 PTB  HN ES        9 0  5.23                             132   -0.42 9  148 259 
 PTB  HZ I         9 0  9.05        11.3 0.12            118            148 259 
 OCA  HZ EP   1    859 45.83                             130   -0.02 7  160 353 
 SML  HZ EP     C  859 53.81                             118   -0.30 8  243 335 
 SML  HE ES        9 0 22.26                             118   -0.47 8  243 335 
 SML  HZ I         9 0 25.80         8.1 0.30            109            243 335 
 HEL  HZ EP   1    859 58.85                             115    1.15 6  272 256 
 HEL  HZ I         9 0 37.05         5.6 0.26            105            272 256 
                                                                                
