 2016 12 1 0954 56.3 L   6.826 -73.142155.7  RSN 18 0.8 2.3LRSN                1
 GAP=118        1.70       5.4     6.7  7.9 -0.6583E+01  0.4170E+01  0.7221E+01E
 Epicentro: LOS SANTOS - SANTANDER                                             3
 ACTION:UPD 17-01-11 20:11 OP:rebc STATUS:               ID:20161201095456 L   I
 OLDACT:UP  16-12-01 17:15 OP:dani STATUS:               ID:20161201094750     3
 OLDACT:UP  16-12-01 17:14 OP:dani STATUS:               ID:20161201094750     3
 OLDACT:UP  16-12-01 17:14 OP:dani STATUS:               ID:20161201094750     3
 OLDACT:UP  16-12-01 17:13 OP:dani STATUS:               ID:20161201094750     3
 OLDACT:REG 16-12-01 13:30 OP:dani STATUS:               ID:20161201094750     3
 2016-12-01-0948-00M.COL___333                                                 6
 STAT SP IPHASW D HRMM SECON CODA AMPLIT PERI AZIMU VELO AIN AR TRES W  DIS CAZ7
 BAR2 EZ EP        955 17.38                             170    0.2010 26.2 190 
 BAR2 EZ ES        955 31.93                             170   -1.5410 26.2 190 
 BAR2 EZ I         955 33.40        46.8 0.36            167           26.2 190 
 BRR  HZ EP     C  955 19.11                             154    0.6310 70.2 296 
 BRR  HN ES        955 36.58                             154    0.8010 70.2 296 
 BRR  HZ I         955 40.37        32.4 0.20            151           70.2 296 
 PAM  EZ EP        955 20.23                             153    0.7910 74.9  41 
 PAM  EN ES        955 37.34                             153   -0.1610 74.9  41 
 PAM  EZ I         955 39.16        17.6 0.16            157           74.9  41 
 PTB  HZ EP        955 23.82                             134   -0.36 9  149 258 
 PTB  HN ES        955 45.17                             134   -0.75 9  149 258 
 PTB  HZ I         955 47.01        26.9 0.42            131            149 258 
 ZAR  HZ EP        955 29.83                             125    0.49 9  203 291 
 ZAR  HN ES        955 55.31                             125    0.20 9  203 291 
 ZAR  HZ I         956  0.94        24.2 0.36            123            203 291 
 NOR  HZ EP        955 33.44                             120    0.61 8  237 234 
 NOR  HN ES        956  1.34                             120    0.01 8  237 234 
 NOR  HZ I         956 10.66        13.2 0.42            119            237 234 
 CHI  HZ EP        955 35.68                             119    0.81 8  252 195 
 CHI  HN ES        956  4.94                             119   -0.02 8  252 195 
 CHI  HZ I         956  9.95        14.2 0.36            118            252 195 
 ROSC BZ EP   9    955 37.83                             118    2.57 0  255 211 
 ROSC BN ES        956  5.95                             118   -2.27 8  255 211 
 ROSC BZ I         956 12.16        41.5 0.31            117            255 211 
 URE  HZ EP        955 37.28                             115   -0.51 7  283 291 
 URE  HN ES   3    956  7.94                             115   -2.21 2  283 291 
 URE  HZ I         956 16.60        16.4 0.26            115            283 291 
 PTGC HZ EP        955 40.48                             113   -0.42 7  311 159 
 PTGC HN ES   4    956 13.76                             113   -1.93 0  311 159 
 PTGC HZ I         956 19.54         9.0 0.23            113            311 159 
 LL6C HZ EP   9    955 23.25                             112   -18.9 0  322 357 
 LL6C HN ES        955 59.55                                    0.56 7  322 357 
 CBOC HZ EP   3    955 44.84                             112    1.06 2  335 252 
 CBOC HN ES   3    956 19.37                             112   -1.45 2  335 252 
 CBOC HZ I         956 30.44         2.7 0.44            111            335 252 
 PRA  HZ EP        955 50.86                             108    0.37 6  395 209 
 PRA  HN ES        956 33.16                             108    0.40 6  395 209 
 PRA  HZ I         956 37.54        12.5 0.38            107            395 209 
 ORTC HZ EP        955 51.83                             108    0.96 6  398 216 
 SJC  HZ EP        955 51.08                             107   -0.87 6  407 327 
 SJC  HN ES   4    956 32.32                             107   -3.03 0  407 327 
 SJC  HZ I         956 38.43         2.2 0.46            107            407 327 
 CRJC HZ EP        955 57.76                             105   -0.99 5  465   4 
 CRJC HN ES        956 45.87                             105   -1.59 5  465   4 
 CRJC HZ I         956 48.26         7.0 0.41            105            465   4 
 MACC HZ EP        956  4.38                             103   -1.23 4  523 189 
 URI  HZ EP        956  8.31                             102   -0.88 4  554  13 
                                                                                
