 2017 12 1 0111 14.1 L   6.322 -73.613104.9  RSN  6 0.3 1.2LRSN                1
 GAP=105        0.78       3.3     2.8  6.3 -0.4950E-01  0.7333E+01 -0.3955E+01E
 Epicentro: SANTA HELENA DEL OPON - SANTANDER                                  3
 ACTION:UPD 18-01-04 13:15 OP:rebc STATUS:               ID:20171201011114 L   I
 OLDACT:REG 17-12-01 12:18 OP:dhb  STATUS:               ID:20171201010416     3
 2017-12-01-0108-00M.COL___498                                                 6
 STAT SP IPHASW D HRMM SECON CODA AMPLIT PERI AZIMU VELO AIN AR TRES W  DIS CAZ7
 BAR2 EZ EP        111 30.37                             150   -0.0110 56.2  58 
 BAR2 EZ ES        111 43.27                             150    0.2210 56.2  58 
 BAR2 EZ I         111 44.88         6.9 0.38            155           56.2  58 
 RUS  HZ EP        111 31.76                             142   -0.3010 75.4 129 
 RUS  HN ES        111 45.94                             142   -0.1010 75.4 129 
 RUS  HZ I         111 47.75         1.8 0.28            148           75.4 129 
 SPBC HE ES        111 47.45                             136    0.3510 89.8 215 
 SPBC HZ I         111 50.54         5.5 0.24            138           89.8 215 
 PTB  HZ EP        111 33.06                             134   -0.0510 96.4 285 
 PTB  HE ES        111 47.47                             134   -0.4510 96.4 285 
 PTB  HZ I         111 49.78         2.3 0.12            134           96.4 285 
 NOR  HZ EP        111 40.22                             118    0.48 9  162 239 
 NOR  HN ES        111 59.46                             118   -0.25 9  162 239 
 NOR  HZ I         112  5.29         1.4 0.16            120            162 239 
 ZAR  HZ EP        111 42.36                             114   -0.23 9  189 313 
 ZAR  HE ES        112  5.20                             114    0.41 9  189 313 
 ZAR  HZ I         112 14.19         3.4 0.36            115            189 313 
                                                                                
