 2014  8 1 0629 10.7 L   6.684 -73.202138.0  RSN  6 0.4 1.7LRSN                1
 GAP=172        1.07       3.4     8.5  6.9 -0.2276E+01  0.2834E+01  0.1371E+01E
 Epicentro: VILLANUEVA - SANTANDER                                             3
 ACTION:UPD 14-09-15 21:46 OP:nd   STATUS:               ID:20140801062910 L   I
 OLDACT:REG 14-08-01 13:32 OP:y    STATUS:               ID:20140801062819     3
 2014-08-01-0628-19M.COL___260                                                 6
 STAT SP IPHASW D HRMM SECON CODA AMPLIT PERI AZIMU VELO AIN AR TRES W  DIS CAZ7
 BAR2 SZ EP        629 28.80                             175   -0.4110 10.3 168 
 BAR2 SZ ES        629 43.25                             175   -0.3910 10.3 168 
 BAR2 SZ I         629 45.13        17.9 0.26            174           10.3 168 
 BRR  HZ EP        629 31.26                             150    0.1010 73.3 310 
 BRR  HN ES        629 47.60                             150    0.5010 73.3 310 
 BRR  HZ I         629 48.59         7.4 0.20            150           73.3 310 
 RUS  HZ EP        629 32.79                             146   -0.0510 88.5 171 
 RUS  HN ES        629 50.70                             146    0.6010 88.5 171 
 RUS  HZ I         629 51.83         9.1 0.28            146           88.5 171 
 SPBC HZ EP        629 37.01                             130   -0.30 9  149 220 
 SPBC HN ES        629 57.87                             130   -0.17 9  149 220 
 SPBC HZ I         630  1.82         4.5 0.34            129            149 220 
 OCA  HZ EP        629 40.34                             126    0.71 9  172 356 
 OCA  HN ES        630  1.55                             126   -0.63 9  172 356 
 OCA  HZ I         630  4.64         7.0 0.16            127            172 356 
 CHI  HZ EP        629 46.71                             117    0.25 8  235 195 
 CHI  HN ES        630 14.07                             117   -0.27 8  235 195 
 CHI  HZ I         630 19.02         2.6 0.78            117            235 195 
                                                                                
