 2015  1 1 0133  1.9 L   6.826 -73.145142.5  RSN 20 0.6 2.1LRSN                1
 GAP=119        1.51       3.5     5.0  6.9 -0.3600E+01  0.1096E+02  0.3459E+01E
 Epicentro: LOS SANTOS - SANTANDER                                             3
 ACTION:UPD 15-03-02 15:35 OP:nd   STATUS:               ID:20150101013301 L   I
 OLDACT:REG 15-01-01 15:09 OP:stll STATUS:               ID:20150101012743     3
 2015-01-01-0127-43M.COL___277                                                 6
 STAT SP IPHASW D HRMM SECON CODA AMPLIT PERI AZIMU VELO AIN AR TRES W  DIS CAZ7
 BAR2 EZ EP        133 21.27                             169    0.0810 26.2 189 
 BAR2 EZ ES        133 36.12                             169   -0.1210 26.2 189 
 BAR2 EZ I         133 37.47        27.5 0.28            168           26.2 189 
 BRR  HZ IP     D  133 23.13                             152    0.5110 70.0 296 
 BRR  HN ES        133 39.63                             152    0.8510 70.0 296 
 BRR  HZ I         133 43.21        21.8 0.32            150           70.0 296 
 PAM  SZ EP     D  133 24.32                             151    0.7010 75.1  41 
 PAM  SZ I         133 24.46        40.6 0.18            155           75.1  41 
 PAM  SN ES        133 40.94                             151    0.3710 75.1  41 
 RUS  HZ EP     D  133 25.27                             142   -0.2610  103 176 
 RUS  HE ES        133 43.74                             142   -0.2310  103 176 
 RUS  HZ I         133 45.44        11.9 0.44            144            103 176 
 PTB  HZ EP        133 28.02                             131   -0.64 9  148 258 
 PTB  HN ES        133 49.15                             131   -0.38 9  148 258 
 PTB  HZ I         133 51.60        15.9 0.14            130            148 258 
 OCA  HZ EP        133 29.45                             129   -0.23 9  157 353 
 OCA  HE ES        133 51.37                             129    0.01 9  157 353 
 OCA  HZ I         133 59.72        17.6 0.22            131            157 353 
 SPBC HZ EP        133 30.30                             128   -0.06 9  165 218 
 SPBC HN ES        133 52.11                             128   -0.46 9  165 218 
 SPBC HZ I         133 59.31        17.9 0.12            128            165 218 
 ZAR  HZ EP        133 34.20                             122    0.17 9  203 291 
 ZAR  HN ES        133 58.85                             122   -0.24 9  203 291 
 ZAR  HZ I         134  4.31        16.5 0.38            122            203 291 
 NOR  HZ EP        133 37.49                             117   -0.13 8  236 234 
 NOR  HE ES        134  5.55                             117    0.06 8  236 234 
 NOR  HZ I         134 12.51         8.8 0.36            118            236 234 
 SML  HZ EP        133 37.48                             117   -0.58 8  241 335 
 SML  HN ES        134  5.06                             117   -1.21 8  241 335 
 SML  HZ I         134 10.35        19.1 0.10            118            241 335 
 CHI  HZ EP        133 39.42                             116   -0.30 8  251 195 
 CHI  HN ES        134  8.43                             116   -0.79 8  251 195 
 CHI  HZ I         134 14.03        10.0 0.30            117            251 195 
 ROSC BZ EP        133 41.54                             116    1.43 8  255 211 
 ROSC BN ES        134  9.01                             116   -0.91 8  255 211 
 ROSC BZ I         134 15.76        24.3 0.40            117            255 211 
 HEL  HZ EP        133 42.92                             114    0.89 8  273 255 
 HEL  HN ES        134 13.40                             114    0.06 8  273 255 
 HEL  HZ I         134 19.72         7.6 0.38            115            273 255 
 SOCV BZ EP   9    133 44.01                             112   -0.59 0  300  57 
 SOCV BN ES        134 14.74                                   -2.58 7  300  57 
 RREF HZ EP        133 47.39                             110   -0.73 7  324 229 
 RREF HN ES        134 25.36                             110    1.19 7  324 229 
 RREF HZ I         134 32.92         8.6 0.44            111            324 229 
 CBOC HZ EP        133 48.95                             109    0.16 7  335 252 
 CBOC HZ I         133 52.05         3.2 0.18            110            335 252 
 CBOC HE ES        134 25.44                             109    0.08 7  335 252 
 TOL  SZ EP        133 50.63                             108    0.37 6  346 224 
 TOL  SE ES        134 27.55                             108   -0.44 6  346 224 
 MON  HZ EP   9    133 48.49                             108   -2.08 0  352 308 
 MON  HN ES        134 26.11                                   -0.35 6  352 308 
 MON  HZ I         134 28.97         3.5 0.32            109            352 308 
 ANIL HN ES        134 31.41                             108    0.65 6  359 224 
 ANIL HZ I         134 41.29         2.6 0.28            109            359 224 
 ORTC HZ EP        133 55.58                             106   -0.40 6  398 216 
 ORTC HN ES        134 38.83                             106    0.66 6  398 216 
 ORTC HZ I         134 42.68         4.0 0.22            107            398 216 
                                                                                
