 2010 11 1 0901  8.7 L   6.466 -72.826 17.2  RSN  5 0.5 2.1LRSN                1
 GAP=203        0.95       7.0    20.6 25.9  0.1223E+03 -0.5108E+03 -0.1617E+03E
 Epicentro: SAN JOAQUIN - SANTANDER                                            3
 ACTION:UP  10-12-17 16:49 OP:REBC STATUS:               ID:20101101090108 L   I
 2010-11-01-0858-02S.COL___125                                                 6
 STAT SP IPHASW D HRMM SECON CODA AMPLIT PERI AZIMU VELO SNR AR TRES W  DIS CAZ7
 BAR2 SZ IP        9 1 16.20                             110    -0.110   42 289 
 BAR2 SZ ES   1    9 1 21.83                             110    -0.3 7   42 289 
 BAR2 SZ I         9 1 22.90       126.2 0.22                            42 289 
 RUS  HZ IP     D  9 1 20.85                             102     0.310   70 204 
 RUS  HE ES   1    9 1 29.70                             102    -0.1 7   70 204 
 RUS  HZ I         9 1 31.90        73.4 0.10                            70 204 
 BRR  HZ EP   2    9 1 28.75                              96     1.0 5  121 306 
 BRR  HZ I         9 1 30.71        57.9 0.17                           121 306 
 BRR  HN ES   3    9 1 43.52                              96     0.9 2  121 306 
 GUE  SZ EP        9 1 31.65                              56    -0.5 9  151 356 
 GRA  SZ EP   2    9 1 33.45                              56     0.8 5  157   1 
 GRA  SZ ES   2    9 1 51.16                              56    -0.1 5  157   1 
 GRA  SZ I         9 1 55.95        17.8 0.33                           157   1 
                                                                                
