 2010  2 1 0251 32.6 L   6.787 -73.099142.0  RSN  8 0.4 2.3LRSN                1
 GAP=188        0.98       4.7    11.4  9.2 -0.1134E+02  0.4929E+02 -0.5194E+01E
 Epicentro: LOS SANTOS - SANTANDER                                             3
 ACTION:UP  10-08-24 09:47 OP:vdl  STATUS:               ID:20100201025132 L   I
 2010-02-01-0249-55S.COL___094                                                 6
 STAT SP IPHASW D HRMM SECON CODA AMPLIT PERI AZIMU VELO SNR AR TRES W  DIS CAZ7
 BAR2 SZ IP        251 51.72                             170     0.010   24 204 
 BAR2 SZ ES   1    252  6.35                             170    -0.3 7   24 204 
 GIR2 SZ EP        251 52.72                             166     0.910   34 342 
 RUS  BZ IP        251 55.72                             143    -0.110   99 179 
 RUS  BE ES   1    252 13.78                             143    -0.2 7   99 179 
 RUS  BZ I         252 16.58        28.1 0.23                            99 179 
 OCA  SZ EP        252  0.10                             128    -0.7 9  162 351 
 OCA  SZ ES   2    252 23.03                             128     0.2 5  162 351 
 CHI  HZ EP   1    252 10.19                             116     0.1 6  249 196 
 CHI  HE ES   1    252 39.41                             116     0.1 6  249 196 
 CHI  HZ I         252 49.87         7.0 0.54                           249 196 
 HEL  HZ EP   1    252 13.02                             114    -0.1 6  277 256 
 HEL  HN ES   2    252 44.71                             114     0.0 4  277 256 
 HEL  HZ I         252 50.24        14.0 0.44                           277 256 
 RREF BZ EP   1    252 19.28                             110     0.4 5  325 230 
 RREF BZ I         253  3.83        13.9 0.31                           325 230 
 PRA  HZ EP   1    252 25.65                             106    -0.5 4  393 210 
 PRA  HE ES   2    253  7.55                             106    -0.3 3  393 210 
 PRA  HZ I         253 12.28        10.6 0.74                           393 210 
                                                                                
