 2016  3 1 0449 27.7 L   5.963 -73.777110.8  RSN 18 0.5 2.3LRSN                1
 GAP= 82        1.20       2.6     2.8  6.1 -0.1333E+01  0.3146E+01 -0.6941E+00E
 Epicentro: BOLIVAR - SANTANDER                                                3
 ACTION:UPD 16-05-13 21:20 OP:cam  STATUS:               ID:20160301044927 L   I
 OLDACT:UP  16-03-14 14:45 OP:cam  STATUS:               ID:20160301044927 L   3
 OLDACT:UP  16-03-14 10:31 OP:Ak   STATUS:               ID:20160301044927 L   3
 OLDACT:UP  16-03-01 19:01 OP:mh   STATUS:               ID:20160301044751     3
 OLDACT:UP  16-03-01 19:00 OP:mh   STATUS:               ID:20160301044751     3
 OLDACT:UP  16-03-01 18:59 OP:mh   STATUS:               ID:20160301044751     3
 OLDACT:UP  16-03-01 18:58 OP:mh   STATUS:               ID:20160301044751     3
 OLDACT:UP  16-03-01 18:58 OP:mh   STATUS:               ID:20160301044751     3
 OLDACT:UP  16-03-01 18:57 OP:mh   STATUS:               ID:20160301044751     3
 OLDACT:REG 16-03-01 12:59 OP:mh   STATUS:               ID:20160301044751     3
 2016-03-01-0447-51M.COL___321                                                 6
 STAT SP IPHASW D HRMM SECON CODA AMPLIT PERI AZIMU VELO AIN AR TRES W  DIS CAZ7
 SPBC HZ EP        449 43.69                             155   -0.1510 47.5 224 
 SPBC HN ES        449 55.85                             155   -0.6010 47.5 224 
 SPBC HZ I         450  2.38        79.1 0.10            155           47.5 224 
 RUS  HZ EP     D  449 46.28                             143   -0.0110 77.2  96 
 RUS  HN ES        450  0.73                             143   -0.0810 77.2  96 
 BAR2 EZ IP     D  449 47.87                             136    0.4710 95.7  43 
 BAR2 EZ ES        450  3.42                             136    0.6210 95.7  43 
 PTB  HZ EP     C  449 46.27                             135   -1.0710 98.5 310 
 PTB  HN ES        450  2.98                             135    0.3010 98.5 310 
 PTB  HZ I         450  3.73        32.5 0.18            137           98.5 310 
 NOR  HZ EP        449 49.37                             127   -0.8110  129 250 
 NOR  HN ES        450  8.35                             127    0.6010  129 250 
 NOR  HZ I         450  9.11        97.0 0.14            128            129 250 
 ROSC BZ EP        449 51.38                             125   -0.16 9  138 206 
 ROSC BN ES   1    450 10.77                             125    0.60 7  138 206 
 ROSC BZ I         450 17.46        22.2 0.30            127            138 206 
 CHI  HE EP        449 52.04                             123   -0.50 9  148 178 
 CHI  HN ES        450 11.64                             123   -0.30 9  148 178 
 CHI  HE I         450 13.16        39.1 0.22            125            148 178 
 PAM  EZ EP        449 57.76                             115    0.25 9  193  38 
 PAM  EN ES   1    450 20.45                             115   -0.34 7  193  38 
 PAM  EZ I         450 24.49        10.5 0.22            118            193  38 
 GUY2CHZ EP   1    449 57.35                             115   -0.23 6  194 245 
 GUY2CHN ES        450 21.78                             115    0.87 9  194 245 
 GUY2CHZ I         450 25.36        17.6 0.24                           194 245 
 HEL  HZ EP   1    449 57.66                             115    0.05 6  196 277 
 HEL  HN ES        450 20.71                             115   -0.27 9  196 277 
 HEL  HZ I         450 25.16        16.1 0.22            117            196 277 
 VIL  SZ EP        449 57.86                             113   -0.49 9  205 177 
 VIL  SN ES        450 22.84                             113    0.54 9  205 177 
 ZAR  HZ EP        449 58.05                             113   -0.39 8  207 325 
 ZAR  HN ES        450 21.85                             113   -0.59 8  207 325 
 ZAR  HZ I         450 24.57        34.7 0.24            115            207 325 
 ELA  HZ EP        450  0.89                             112    0.63 8  217 236 
 ELA  HN ES   4    450 27.85                             112    2.17 0  217 236 
 ELA  HZ I         450 33.25        11.9 0.38            114            217 236 
 ANIL HZ EP   1    450  2.75                             109   -0.12 6  243 228 
 ANIL HE ES   1    450 30.82                             109    0.48 6  243 228 
 ANIL HZ I         450 34.53        33.5 0.22            111            243 228 
 CBOC HZ EP   1    450  3.82                             109    0.54 6  248 268 
 CBOC HN ES        450 31.42                             109    0.35 8  248 268 
 CBOC HZ I         450 33.72         8.0 0.18            110            248 268 
 OCA  HZ EP   1    450  5.19                             108    0.90 6  257  11 
 OCA  HN ES        450 33.21                             108    0.35 8  257  11 
 OCA  HZ I         450 36.33        21.6 0.24            110            257  11 
 URE  HZ EP   4    450  4.59                             106   -1.91 0  277 316 
 URE  HN ES   4    450 34.29                             106   -2.50 0  277 316 
 MON  HZ EP   4    450 14.84                             100   -3.22 0  375 326 
 MON  HN ES   4    450 55.38                             100   -1.99 0  375 326 
 MON  HZ I         450 58.68         3.8 0.40            102            375 326 
 LL6C HZ EP   9    450 25.05                              98    1.42 0  421   8 
 LL6C HN ES        451  8.83                              98    0.13 5  421   8 
 LL6C HZ I         451 11.34         5.6 0.48            100            421   8 
                                                                                
