 2014  5 1 0021 25.4 L   6.811 -73.167147.3  RSN 13 0.4 2.2LRSN                1
 GAP=133        0.92       3.0     3.5  5.8 -0.1028E+01  0.4131E+01  0.3609E+01E
 Epicentro: LOS SANTOS - SANTANDER                                             3
 OLDACT:REG 14-05-01 12:51 OP:mh   STATUS:               ID:20140501002000     3
 ACTION:UPD 15-03-16 16:54 OP:nd   STATUS:               ID:20140501002125 L   I
 OLDACT:UP  14-05-01 14:12 OP:mh   STATUS:               ID:20140501002000     3
 OLDACT:UP  14-05-01 14:12 OP:mh   STATUS:               ID:20140501002000     3
 OLDACT:UP  14-05-01 14:12 OP:mh   STATUS:               ID:20140501002000     3
 OLDACT:UP  14-05-01 14:11 OP:mh   STATUS:               ID:20140501002000     3
 2014-05-01-0020-00M.COL___273                                                 6
 STAT SP IPHASW D HRMM SECON CODA AMPLIT PERI AZIMU VELO AIN AR TRES W  DIS CAZ7
 BRR  HZ EP     D  021 47.05                             154    0.4410 68.6 299 
 BRR  HN ES        022  3.61                             154    0.4910 68.6 299 
 BRR  HZ I         022  7.95        37.1 0.46            150           68.6 299 
 PAM  SZ EP        021 48.05                             151    0.1910 78.0  41 
 PAM  SN ES        022  5.20                             151   -0.1410 78.0  41 
 PAM  HZ I         022  7.17        45.1 0.56            155           78.0  41 
 RUS  HZ EP        021 49.29                             144   -0.1510  102 175 
 RUS  HN ES        022  8.28                             144    0.1210  102 175 
 PTB  HZ EP        021 51.72                             133   -0.63 9  146 258 
 PTB  HN ES        022 12.40                             133   -0.94 9  146 258 
 PTB  HZ I         022 18.50        13.6 0.24            132            146 258 
 SPBC HZ EP        021 54.29                             130    0.28 9  163 218 
 SPBC HN ES        022 15.98                             130   -0.31 9  163 218 
 SPBC HZ I         022 20.77        14.9 0.22            130            163 218 
 ZAR  HZ EP   1    021 57.68                             123   -0.04 6  201 292 
 ZAR  HN ES        022 23.25                             123    0.36 9  201 292 
 ZAR  HZ I         022 29.77        15.4 0.30            123            201 292 
 NOR  HZ EP        022  1.49                             119    0.36 8  233 234 
 NOR  HN ES        022 29.38                             119    0.41 8  233 234 
 NOR  HZ I         022 37.23        11.3 0.14            120            233 234 
 SML  HZ EP   1    022  1.46                             118   -0.47 6  242 336 
 SML  HN ES   2    022 30.06                             118   -0.33 4  242 336 
 SML  HZ I         022 33.21        22.9 0.08            119            242 336 
 CHI  HZ EP   1    022  2.81                             117   -0.47 6  249 195 
 CHI  HN ES        022 32.54                             117   -0.26 8  249 195 
 CHI  HZ I         022 36.15        10.8 0.40            119            249 195 
 HEL  HN ES        022 36.77                             115    0.00 8  270 255 
 URE  HZ EP   4    022  5.81                             114   -0.48 0  281 292 
 URE  HN ES   4    022 36.22                             114   -1.93 0  281 292 
 URE  HZ I         022 49.03         7.6 0.30            115            281 292 
 GUY2CHZ EP   4    022 11.28                             113    2.30 0  300 234 
 GUY2CHN ES   4    022 45.29                             113    2.35 0  300 234 
 GUY2CHZ I         022 48.74         5.9 0.68                           300 234 
 SDV  BE ES   4    022 51.66                             108   -3.17 0  361  51 
 PRA  HZ EP        022 19.33                             107    0.33 6  392 209 
 PRA  HN ES        023  1.14                             107    0.36 6  392 209 
 PRA  HZ I         023  5.95         8.7 0.32            108            392 209 
 SJC  HZ EP   4    022 19.81                             106   -0.97 0  407 327 
 SJC  HN ES   4    022 59.79                             106   -4.16 0  407 327 
                                                                                
