 2015  9 1 0522 14.0 L   6.870 -73.272127.3  RSN  5 0.4 1.6LRSN                1
 GAP=164        0.95       3.3     8.5  6.6 -0.4658E+01  0.8344E+01 -0.5308E+01E
 Epicentro: BETULIA - SANTANDER                                                3
 ACTION:UPD 15-10-28 16:23 OP:cam  STATUS:               ID:20150901052214 L   I
 OLDACT:REG 15-09-01 13:51 OP:stll STATUS:               ID:20150901051747     3
 2015-09-01-0517-47M.COL___352                                                 6
 STAT SP IPHASW D HRMM SECON CODA AMPLIT PERI AZIMU VELO AIN AR TRES W  DIS CAZ7
 BAR2 EZ EP        522 31.97                             165    0.3210 32.3 162 
 BAR2 EZ ES        522 45.52                             165    0.0910 32.3 162 
 BAR2 EZ I         522 46.35        13.5 0.38            168           32.3 162 
 BRR  HZ EP        522 32.26                             155    0.0010 55.2 298 
 BRR  HN ES        522 46.84                             155    0.3310 55.2 298 
 BRR  HZ I         522 47.56         5.2 0.10            152           55.2 298 
 OCA  HZ EP        522 40.11                             127    0.05 9  151 358 
 OCA  HN ES        522 59.54                             127   -0.86 9  151 358 
 OCA  HZ I         523  4.29         9.9 0.18            126            151 358 
 SPBC HZ EP        522 41.00                             125    0.06 9  161 213 
 SPBC HN ES        523  1.40                             125   -0.56 9  161 213 
 SPBC HZ I         523  4.01         3.0 0.10            126            161 213 
 SML  HZ EP        522 48.43                             115    0.20 8  231 338 
 SML  HN ES        523 15.29                             115    0.34 8  231 338 
 SML  HZ I         523 19.58         3.3 0.30            115            231 338 
                                                                                
