 2016 12 1 0939 51.9 L   6.799 -73.141144.3  RSN 10 0.6 1.9LRSN                1
 GAP=120        1.22       5.3     5.4  7.3 -0.5202E+01  0.1158E+02  0.5354E+01E
 Epicentro: LOS SANTOS - SANTANDER                                             3
 ACTION:UPD 17-01-11 20:11 OP:rebc STATUS:               ID:20161201093951 L   I
 OLDACT:UP  16-12-01 17:07 OP:dani STATUS:               ID:20161201093738     3
 OLDACT:UP  16-12-01 17:06 OP:dani STATUS:               ID:20161201093738     3
 OLDACT:UP  16-12-01 17:05 OP:dani STATUS:               ID:20161201093738     3
 OLDACT:UP  16-12-01 17:05 OP:dani STATUS:               ID:20161201093738     3
 OLDACT:REG 16-12-01 13:30 OP:dani STATUS:               ID:20161201093738     3
 2016-12-01-0938-00M.COL___333                                                 6
 STAT SP IPHASW D HRMM SECON CODA AMPLIT PERI AZIMU VELO AIN AR TRES W  DIS CAZ7
 BAR2 EZ EP     D  940 11.41                             170    0.0510 23.3 191 
 BAR2 EZ ES        940 26.16                             170   -0.3710 23.3 191 
 BAR2 EZ I         940 27.68        15.6 0.18            170           23.3 191 
 BRR  HZ EP        940 13.21                             152    0.2910 71.7 298 
 BRR  HE ES        940 30.06                             152    0.7410 71.7 298 
 BRR  HZ I         940 30.86        13.6 0.11            151           71.7 298 
 PAM  EZ EP        940 14.34                             151    0.3910 77.1  39 
 PAM  EN ES        940 31.01                             151   -0.1310 77.1  39 
 PAM  EZ I         940 33.22        11.6 0.44            153           77.1  39 
 PTB  HZ EP        940 18.24                             132   -0.56 9  148 259 
 PTB  HN ES        940 38.98                             132   -0.79 9  148 259 
 PTB  HZ I         940 42.36         9.1 0.16            132            148 259 
 ZAR  HZ EP        940 23.10                             122   -1.21 9  205 292 
 ZAR  HN ES        940 50.00                             122    0.42 9  205 292 
 ZAR  HZ I         940 55.25        11.2 0.54            123            205 292 
 NOR  HZ EP        940 28.13                             118    0.54 8  235 235 
 NOR  HN ES        940 55.41                             118   -0.01 8  235 235 
 NOR  HZ I         940 58.33         6.3 0.28            119            235 235 
 CHI  HZ EP   3    940 30.47                             117    0.95 2  249 195 
 CHI  HN ES        940 59.14                             117    0.27 8  249 195 
 CHI  HZ I         941  3.31         2.7 0.30            118            249 195 
 URE  HE ES   4    941  2.58                             113   -2.40 0  284 292 
 PTGC HZ EP   3    940 34.67                             111   -0.99 2  308 159 
 PTGC HN ES   3    941  8.11                             111   -1.68 2  308 159 
 PTGC HZ I         941  9.12         6.2 0.40            113            308 159 
 CBOC HZ EP        940 39.56                             110    0.75 7  334 252 
 SJC  HZ EP        940 47.36                             105   -0.10 6  410 327 
                                                                                
