 2016 10 1 0407 53.4 L   6.687 -73.219154.0  RSN  4 0.1 1.5LRSN                1
 GAP=220        0.42       3.4     3.4  3.7  0.7921E+01 -0.3363E+00 -0.2022E+01E
 Epicentro: VILLANUEVA - SANTANDER                                             3
 ACTION:UPD 16-11-09 19:15 OP:rebc STATUS:               ID:20161001040753 L   I
 OLDACT:UP  16-10-01 15:30 OP:dani STATUS:               ID:20161001035742     3
 OLDACT:UP  16-10-01 15:30 OP:dani STATUS:               ID:20161001035742     3
 OLDACT:REG 16-10-01 12:59 OP:dani STATUS:               ID:20161001035742     3
 2016-10-01-0358-00M.COL___372                                                 6
 STAT SP IPHASW D HRMM SECON CODA AMPLIT PERI AZIMU VELO AIN AR TRES W  DIS CAZ7
 BRR  HZ EP        4 8 15.29                             154   -0.1610 71.6 311 
 BRR  HN ES        4 8 32.68                             154    0.0210 71.6 311 
 BRR  HZ I         4 8 33.60         4.5 0.13            152           71.6 311 
 RUS  HZ EP        4 8 17.08                             149   -0.1110 89.1 170 
 RUS  HE ES        4 8 35.88                             149    0.1310 89.1 170 
 RUS  HZ I         4 8 36.96         4.0 0.33            149           89.1 170 
 PTB  HZ EP        4 8 20.13                             136   -0.04 9  138 263 
 PTB  HN ES        4 8 40.98                             136   -0.09 9  138 263 
 PTB  HZ I         4 8 44.07         3.2 0.08            134            138 263 
 SPBC HE ES   4    4 8 45.26                             134    2.39 0  148 220 
 ZAR  HZ EP        4 8 26.46                             124    0.31 9  202 296 
 ZAR  HN ES        4 8 51.72                             124    0.01 9  202 296 
 ZAR  HZ I         4 8 57.26         4.4 0.31            124            202 296 
                                                                                
