 2017 11 1 0416 48.6 L   6.764 -73.112140.0  RSN 10 0.4 1.5LRSN                1
 GAP=116        1.02       4.0     3.9  6.9 -0.1007E+01  0.2627E+01  0.5118E+01E
 Epicentro: LOS SANTOS - SANTANDER                                             3
 ACTION:UPD 17-12-12 19:50 OP:rebc STATUS:               ID:20171101041648 L   I
 OLDACT:UP  17-11-01 16:37 OP:dnl  STATUS:               ID:20171101040738     3
 OLDACT:UP  17-11-01 16:36 OP:dnl  STATUS:               ID:20171101040738     3
 OLDACT:REG 17-11-01 13:34 OP:dnl  STATUS:               ID:20171101040738     3
 2017-11-01-0408-00M.COL___411                                                 6
 STAT SP IPHASW D HRMM SECON CODA AMPLIT PERI AZIMU VELO AIN AR TRES W  DIS CAZ7
 BAR2 EZ EP   2    417  7.39                             171   -0.07 5 20.5 202 
 BAR2 EZ ES        417 21.39                             171   -0.8010 20.5 202 
 BAR2 EZ I         417 23.00         9.1 0.16            169           20.5 202 
 BRR  HZ EP        417  9.44                             149    0.0210 76.4 300 
 BRR  HN ES        417 26.29                             149    0.6210 76.4 300 
 BRR  HZ I         417 30.59         7.6 0.14            151           76.4 300 
 PAM  EZ EP        417 10.36                             149    0.1210 78.3  36 
 PAM  EE ES        417 27.15                             149    0.0110 78.3  36 
 PAM  EZ I         417 28.10         3.9 0.16            153           78.3  36 
 RUS  HZ EP        417 11.34                             144   -0.1210 96.4 178 
 RUS  HN ES        417 29.67                             144    0.3610 96.4 178 
 RUS  HZ I         417 30.65         4.7 0.38            143           96.4 178 
 PTB  HZ EP   2    417 14.59                             130   -0.77 5  151 261 
 PTB  HE ES        417 36.06                             130   -0.18 9  151 261 
 PTB  HZ I         417 37.73         3.5 0.10            130            151 261 
 SPBC HZ EP   2    417 15.90                             127   -0.68 5  162 221 
 SPBC HN ES        417 38.01                             127   -0.40 9  162 221 
 SPBC HZ I         417 43.82         5.2 0.30            128            162 221 
 YPLC HZ EP        417 17.75                             126    0.31 9  172 152 
 YPLC HE ES   4    417 41.74                             126    1.79 0  172 152 
 YPLC HZ I         417 44.07         4.2 0.24            127            172 152 
 ZAR  HZ EP   4    417 22.78                             120    1.60 0  209 293 
 ZAR  HN ES        417 46.38                             120   -0.22 8  209 293 
 NOR  HE ES        417 52.53                             117    0.79 8  235 236 
 NOR  HZ I         417 57.04         2.9 0.18            118            235 236 
 GUY2CHZ EP   4    417 33.22                             111    1.20 0  302 236 
 GUY2CHE ES   4    418  9.13                             111    3.24 0  302 236 
 GUY2CHZ I         418 13.30         1.6 0.40                           302 236 
                                                                                
