 2013  7 1 0528 55.8 L   6.773 -73.174149.2  RSN  4 0.2 1.4LRSN                1
 GAP=232        0.64       5.2     5.1  6.4  0.1340E+02 -0.4469E+01 -0.2602E+01E
 Epicentro: LOS SANTOS - SANTANDER                                             3
 ACTION:UPD 13-08-12 10:34 OP:ep   STATUS:               ID:20130701052855 L   I
 OLDACT:DUP 13-07-01 13:12 OP:stll STATUS:               ID:20130701051841d    3
 2013-07-01-0518-40M.COL___230                                                 6
 STAT SP IPHASW D HRMM SECON CODA AMPLIT PERI AZIMU VELO AIN AR TRES W  DIS CAZ7
 BAR2 SZ EP        529 15.45                             172   -0.3210 20.0 182 
 BRR  HZ EP        529 17.49                             153    0.2510 69.9 302 
 BRR  HN ES        529 33.96                             153   -0.0110 69.9 302 
 BRR  HN I         529 38.12         7.1 0.16            153           69.9 302 
 RUS  HZ EP        529 20.00                             145    0.3110 97.9 174 
 RUS  HN ES        529 38.27                             145   -0.0610 97.9 174 
 RUS  HN I         529 41.14         1.5 0.62            147           97.9 174 
 PTB  HZ EP        529 22.40                             133   -0.31 9  144 260 
 PTB  HN ES        529 43.81                             133    0.10 9  144 260 
 PTB  HN I         529 49.08         7.2 0.42            135            144 260 
                                                                                
