 2010  5 1 0138 18.4 L   7.552 -73.145136.6  RSN  6 0.2 1.9LRSN                1
 GAP=118        0.33       4.5     5.4  5.3 -0.3945E+01  0.7444E+01  0.8201E+01E
 Epicentro: EL PLAYON - SANTANDER                                              3
 ACTION:UP  10-08-24 10:02 OP:vdl  STATUS:               ID:20100501013818 L   I
 2010-05-01-0135-59S.COL___105                                                 6
 STAT SP IPHASW D HRMM SECON CODA AMPLIT PERI AZIMU VELO SNR AR TRES W  DIS CAZ7
 GUE  SZ EP   1    138 37.40                             163    -0.1 7   39  38 
 GUE  SZ ES   2    138 52.40                             163     0.0 5   39  38 
 BRI  SZ IP        138 37.42                             162     0.010   43  65 
 BRI  SZ ES   2    138 52.39                             162     0.2 5   43  65 
 GRA  SZ EP   2    138 37.74                             158    -0.1 5   53  46 
 OCA  SZ EP   2    138 39.13                             149    -0.1 5   78 346 
 OCA  SZ ES   2    138 55.39                             149    -0.1 5   78 346 
 OCA  SZ I         138 57.70        12.7 0.17                            78 346 
 BRR  HZ EP   1    138 39.24                             148     0.2 7   80 232 
 BRR  HZ I         138 56.95        19.0 0.29                            80 232 
 BAR2 SZ ES   3    138 58.65                             140    -0.6 2  106 182 
                                                                                
