 2012  9 1 0942 21.6 L   6.693 -73.193148.0  RSN  4 0.2 1.4LRSN                1
 GAP=223        0.51       5.3     5.9  5.5  0.1782E+02  0.3262E+01  0.9426E+00E
 Epicentro: VILLANUEVA - SANTANDER                                             3
 ACTION:UPD 12-10-22 14:16 OP:ep   STATUS:               ID:20120901094221 L   I
 2012-09-01-0940-00M.COL___218                                                 6
 STAT SP IPHASW D HRMM SECON CODA AMPLIT PERI AZIMU VELO AIN AR TRES W  DIS CAZ7
 BAR2 SZ EP        942 41.16                             175   -0.1310 11.2 174 
 BAR2 SZ ES   2    942 56.09                             175   -0.58 5 11.2 174 
 BAR2 SZ I         942 58.92        12.0 0.34                          11.2 174 
 BRR  HZ EP        942 43.09                             152    0.0110 73.4 309 
 BRR  HZ I         942 43.60         4.6 0.68                          73.4 309 
 BRR  HN ES   1    943  0.25                             152    0.39 7 73.4 309 
 RUS  HZ EP        942 44.87                             148    0.1010 89.3 172 
 RUS  HN ES   1    943  3.07                             148    0.20 7 89.3 172 
 RUS  HZ I         943  4.80         2.3 0.20                          89.3 172 
 PTB  HZ EP        942 47.94                             134   -0.15 9  141 263 
 PTB  HN ES   2    943  8.69                             134   -0.09 5  141 263 
                                                                                
