 2010  8 1 0851 56.4 L   6.749 -73.123139.7  RSN  8 0.4 1.7LRSN                1
 GAP=162        0.80       3.9     7.1  6.6 -0.6680E+01  0.6523E+01  0.1130E+00E
 Epicentro: LOS SANTOS - SANTANDER                                             3
 ACTION:UP  10-09-07 10:51 OP:vdl  STATUS:               ID:20100801085156 L   I
 2010-08-01-0848-43S.COL___123                                                 6
 STAT SP IPHASW D HRMM SECON CODA AMPLIT PERI AZIMU VELO SNR AR TRES W  DIS CAZ7
 BAR2 SZ EP        852 15.04                             172    -0.210   19 201 
 BAR2 SZ ES   1    852 29.47                             172    -0.4 7   19 201 
 BAR2 SZ I         852 32.88        12.9 0.27                            19 201 
 BRR  HZ IP     C  852 16.97                             150    -0.210   76 301 
 BRR  HN ES   1    852 33.64                             150     0.2 7   76 301 
 BRR  HZ I         852 38.41        11.3 0.08                            76 301 
 RUS  HZ EP   1    852 18.99                             144    -0.2 7   95 177 
 RUS  HN ES   1    852 37.53                             144     0.6 7   95 177 
 RUS  HZ I         852 39.16         3.9 0.17                            95 177 
 GRA  SZ EP        852 21.71                                     0.210  130  16 
 GRA  SZ ES   1    852 41.18                             134     0.1 7  130  16 
 GRA  SZ I         852 42.51         6.0 0.34                           130  16 
 CHI  HN ES   2    853  1.61                             116    -0.4 4  244 196 
 CHI  HZ I         853  8.55         1.9 0.28                           244 196 
 HEL  HZ EP   1    852 37.13                             113     0.7 6  273 257 
 HEL  HN ES   3    853  7.35                             113    -0.3 2  273 257 
 HEL  HZ I         853 14.91         2.4 0.30                           273 257 
 RREF HE ES   3    853 16.88                             110    -0.9 2  320 230 
 RREF HZ I         853 24.29         2.7 0.21                           320 230 
 PRA  HZ EP   1    852 48.99                             106    -0.3 4  388 210 
 PRA  HE ES   2    853 31.11                             106     0.5 3  388 210 
 PRA  HZ I         853 37.68         2.5 0.27                           388 210 
                                                                                
