 2016  2 1 0705 37.5 L   6.821 -73.155143.8  RSN 20 0.5 2.1LRSN                1
 GAP=134        0.70       2.4     3.2  4.9 -0.2754E+01  0.4610E+01 -0.1275E-01E
 Epicentro: LOS SANTOS - SANTANDER                                             3
 ACTION:UPD 16-03-04 21:22 OP:rebc STATUS:               ID:20160201070537 L   I
 OLDACT:DUP 16-02-01 17:53 OP:dnl  STATUS:               ID:20160201064753d    3
 OLDACT:REG 16-02-01 13:39 OP:dnl  STATUS:               ID:20160201064752     3
 2016-02-01-0658-00M.COL___415                                                 6
 STAT SP IPHASW D HRMM SECON CODA AMPLIT PERI AZIMU VELO AIN AR TRES W  DIS CAZ7
 BAR2 EZ EP   2    7 5 57.06                             169    0.15 5 25.5 187 
 BAR2 EZ ES   2    7 6 11.62                             169   -0.45 5 25.5 187 
 BAR2 EZ I         7 6 12.88        17.8 0.12            167           25.5 187 
 PAM  EZ EP        7 5 59.93                             151    0.5210 76.2  41 
 PAM  EN ES        7 6 16.67                             151    0.1510 76.2  41 
 PAM  EZ I         7 6 19.18        43.9 0.45            156           76.2  41 
 RUS  HZ EP        7 6  1.10                             143   -0.1110  103 176 
 RUS  HE ES   2    7 6 19.39                             143   -0.33 5  103 176 
 RUS  HZ I         7 6 20.84        14.5 0.25            145            103 176 
 PTB  HZ EP        7 6  3.72                             132   -0.51 9  147 258 
 PTB  HE ES        7 6 25.34                             132    0.23 9  147 258 
 PTB  HZ I         7 6 28.03        15.3 0.11            130            147 258 
 OCA  HZ EP   2    7 6  5.36                             130   -0.04 5  158 353 
 OCA  HN ES   2    7 6 26.97                             130   -0.21 5  158 353 
 OCA  HZ I         7 6 32.14        50.8 0.18            131            158 353 
 SPBC HZ EP   2    7 6  6.31                             128    0.37 5  164 218 
 SPBC BE ES        7 6 27.84                             128   -0.30 9  164 218 
 SPBC HZ I         7 6 31.24        17.6 0.18            128            164 218 
 ZAR  HZ EP   2    7 6 10.14                             122    0.54 4  202 292 
 ZAR  HE ES   2    7 6 35.53                             122    0.86 4  202 292 
 ZAR  HZ I         7 6 40.85        12.7 0.14            121            202 292 
 NOR  HZ EP   2    7 6 13.48                             118    0.33 4  235 234 
 NOR  HE ES   2    7 6 40.74                             118   -0.23 4  235 234 
 NOR  HZ I         7 6 48.39         8.4 0.15            118            235 234 
 SML  HZ EP        7 6 13.26                             117   -0.45 8  241 335 
 SML  HN ES   2    7 6 41.50                             117   -0.48 4  241 335 
 SML  HZ I         7 6 49.10        28.0 0.08            118            241 335 
 CHI  HZ EP        7 6 15.39                             116    0.11 8  251 195 
 CHI  HN ES        7 6 44.48                             116   -0.29 8  251 195 
 CHI  HZ I         7 6 47.74         4.2 0.27            118            251 195 
 ROSC BZ EP   4    7 6 17.42                             116    1.77 0  254 211 
 ROSC BN ES   2    7 6 46.30                             116    0.87 4  254 211 
 ROSC BZ I         7 6 53.27        11.8 0.52            117            254 211 
 HEL  HZ EP   2    7 6 17.60                             114    0.06 4  272 255 
 HEL  HE ES   2    7 6 47.82                             114   -0.98 4  272 255 
 HEL  HZ I         7 6 54.06         5.5 0.33            114            272 255 
 URE  HZ EP   2    7 6 18.37                             113    0.12 4  282 292 
 URE  HE ES   4    7 6 48.43                             113   -1.62 0  282 292 
 URE  HZ I         7 7  1.63        10.1 0.13            113            282 292 
 GUY2CHZ EP   2    7 6 21.97                             112    0.92 4  302 234 
 GUY2CHE ES        7 6 55.58                             112    0.54 7  302 234 
 GUY2CHZ I         7 7  4.91         6.7 0.64                           302 234 
 LL6C HZ EP   2    7 6 22.06                             110   -0.76 3  323 358 
 LL6C HN ES   2    7 6 57.91                             110   -0.28 3  323 358 
 ELA  HZ EP   4    7 6 26.42                             110    2.09 0  330 229 
 ELA  HN ES   2    7 6 59.98                             110   -0.90 3  330 229 
 ELA  HZ I         7 7 17.05         4.8 0.48            111            330 229 
 CBOC HZ EP   2    7 6 25.34                             109    1.06 3  333 252 
 CBOC HN ES   2    7 7  0.13                             109   -0.66 3  333 252 
 CBOC HZ I         7 7  5.66         2.2 0.23            110            333 252 
 MON  HZ EP   4    7 6 24.91                             108   -1.23 0  351 308 
 MON  HE ES   4    7 7  1.83                             108   -2.27 0  351 308 
 MON  HZ I         7 7  4.26         4.9 0.17            109            351 308 
 PRA  HZ EP   2    7 6 30.61                             106   -0.50 3  394 209 
 PRA  BE ES   4    7 7 11.90                             106   -1.04 0  394 209 
 PRA  HZ I         7 7 17.99         3.9 0.23            107            394 209 
 ORTC HZ EP   2    7 6 32.15                             106    0.67 3  397 216 
 ORTC HN ES   2    7 7 13.85                             106    0.25 3  397 216 
 ORTC HZ I         7 7 20.16         3.6 0.24            107            397 216 
                                                                                
