 2011  6 1 0035  7.9 L   6.774 -73.078144.1  RSN 11 0.3 1.8LRSN                1
 GAP=147        0.72       3.1     5.2  4.8 -0.7493E+01  0.5417E+01  0.1274E+01E
 Epicentro: LOS SANTOS - SANTANDER                                             3
 ACTION:UP  11-07-14 19:02 OP:ep   STATUS:               ID:20110601003507 L   I
 2011-06-01-0031-39S.COL___115                                                 6
 STAT SP IPHASW D HRMM SECON CODA AMPLIT PERI AZIMU VELO SNR AR TRES W  DIS CAZ7
 BAR2 SZ EP   1    035 27.17                             170    -0.2 7   23 210 
 BAR2 SZ ES   1    035 42.22                             170    -0.3 7   23 210 
 BAR2 SZ I         035 43.51        16.5 0.15                            23 210 
 GIR2 SZ EP   1    035 27.29                             165    -0.3 7   36 339 
 GIR2 SZ ES   1    035 43.15                             165     0.3 7   36 339 
 PAM  SZ EP   1    035 30.17                             151     0.3 7   75  34 
 PAM  SE ES   1    035 47.23                             151     0.3 7   75  34 
 BRR  HZ EP   1    035 29.02                             150    -0.4 7   79 298 
 BRR  HZ I         035 35.92        24.0 0.09                            79 298 
 BRR  HN ES   1    035 45.90                             150    -0.2 7   79 298 
 RUS  HZ EP   1    035 31.33                             144     0.0 7   97 180 
 RUS  HN ES   1    035 49.49                             144     0.0 7   97 180 
 RUS  HZ I         035 51.99         8.5 0.27                            97 180 
 BRI  SZ EP   1    035 31.79                             141     0.1 7  109  17 
 BRI  SZ ES   1    035 50.67                             141     0.4 7  109  17 
 BRI  SZ I         035 56.65        13.5 0.42                           109  17 
 GRA  SZ EP   1    035 33.05                             136     0.0 7  126  14 
 GRA  SZ ES   1    035 52.29                             136    -0.4 7  126  14 
 GRA  SZ I         035 53.58        12.8 0.30                           126  14 
 OCA  SZ EP   1    035 35.94                             128    -0.5 7  164 351 
 OCA  SZ ES   1    035 58.92                             128     0.2 7  164 351 
 OCA  SZ I         036  2.11        13.4 0.17                           164 351 
 NOR  SZ EP   1    035 43.86                             118    -0.2 6  239 236 
 NOR  SE ES   1    036 12.62                             118     0.4 6  239 236 
 NOR  SZ I         036 17.28         0.9 0.16                           239 236 
 HEL  HZ EP   1    035 49.59                             114     0.8 6  279 257 
 HEL  HZ I         036 25.92         5.3 0.39                           279 257 
 PRA  HZ EP   1    036  1.89                             106     0.3 4  393 211 
 PRA  HN ES   1    036 43.12                             106    -0.2 4  393 211 
                                                                                
