 2016  2 1 0658 40.6 L   5.962 -73.791106.0  RSN  9 0.5 1.3LRSN                1
 GAP= 82        0.76       4.3     3.7  6.8 -0.3060E+01  0.1097E+01 -0.1042E+02E
 Epicentro: BOLIVAR - SANTANDER                                                3
 ACTION:UPD 16-03-04 21:22 OP:rebc STATUS:               ID:20160201065840 L   I
 OLDACT:REG 16-02-01 13:39 OP:dnl  STATUS:               ID:20160201064752     3
 2016-02-01-0658-00M.COL___415                                                 6
 STAT SP IPHASW D HRMM SECON CODA AMPLIT PERI AZIMU VELO AIN AR TRES W  DIS CAZ7
 SPBC HZ EP        658 56.18                             155    0.0310 46.3 222 
 SPBC HN ES        659  8.55                             155    0.2510 46.3 222 
 SPBC HZ I         659 10.26         9.8 0.11            149           46.3 222 
 RUS  HZ EP        658 58.73                             141   -0.1110 78.7  96 
 RUS  HN ES   2    659 12.46                             141   -0.64 5 78.7  96 
 RUS  HZ I         659 14.75         3.3 0.23            137           78.7  96 
 BAR2 EZ EP        659  0.33                             134    0.3410 96.9  44 
 BAR2 EZ ES   2    659 15.82                             134    0.68 5 96.9  44 
 BAR2 EZ I         659 17.31         8.6 0.38            126           96.9  44 
 PTB  HZ EP   2    658 58.87                             134   -0.87 5 97.5 311 
 PTB  HN ES   2    659 13.69                             134   -1.00 5 97.5 311 
 PTB  HZ I         659 18.37         2.8 0.18            123           97.5 311 
 CHI  HZ EP   2    659  4.62                             121   -0.49 5  147 177 
 CHI  HN ES   2    659 23.46                             121   -0.80 5  147 177 
 CHI  HZ I         659 28.45         1.5 0.26            117            147 177 
 GUY2CHZ EP   2    659 10.57                             114    0.50 4  192 245 
 GUY2CHN ES   2    659 33.63                             114    0.54 4  192 245 
 GUY2CHZ I         659 39.07         1.9 0.31                           192 245 
 HEL  HZ EP   2    659 10.86                             114    0.75 4  194 278 
 HEL  HN ES   2    659 32.92                             114   -0.23 4  194 278 
 HEL  HZ I         659 37.37         1.6 0.27            107            194 278 
 ZAR  HZ EP   2    659 11.18                             112    0.15 4  206 325 
 ZAR  HZ I         659 37.44         3.8 0.26            106            206 325 
 SML  HZ EP   2    659 23.40                             102   -0.38 3  316 354 
 SML  HN ES   2    659 57.12                             102   -0.36 3  316 354 
 SML  HZ I         7 0  4.30         3.1 0.08            100            316 354 
                                                                                
