 2014  1 1 0838 47.4 L   6.831 -73.195134.3  RSN 13 0.5 2.0LRSN                1
 GAP= 79        1.08       2.7     3.2  5.7 -0.1991E+01  0.6225E+01  0.1140E+00E
 Epicentro: ZAPATOCA - SANTANDER                                               3
 ACTION:UPD 14-03-13 09:50 OP:ep   STATUS:               ID:20140101083847 L   I
 OLDACT:REG 14-01-01 09:31 OP:stll STATUS:               ID:20140101083817     3
 2014-01-01-0838-17M.COL___228                                                 6
 STAT SP IPHASW D HRMM SECON CODA AMPLIT PERI AZIMU VELO AIN AR TRES W  DIS CAZ7
 BAR2 SZ EP        839  6.04                             168    0.3610 26.5 177 
 BAR2 SZ ES        839 20.02                             168    0.0410 26.5 177 
 BAR2 SZ I         839 22.20        22.8 0.22            169           26.5 177 
 PAM  SZ EP        839  8.96                             148    0.5310 78.4  44 
 PAM  SN ES        839 25.60                             148    0.7310 78.4  44 
 PAM  SZ I         839 27.80        18.9 0.52            153           78.4  44 
 RUS  HZ EP        839 10.47                             140    0.1710  105 173 
 RUS  HN ES        839 28.22                             140    0.0210  105 173 
 RUS  HZ I         839 29.86        10.9 0.26            143            105 173 
 PTB  HZ EP        839 12.82                             130   -0.16 9  143 257 
 PTB  HN ES        839 32.43                             130   -0.54 9  143 257 
 PTB  HZ I         839 37.86        16.4 0.16            131            143 257 
 OCA  HZ EP        839 13.86                             128   -0.55 9  156 355 
 OCA  HN ES        839 35.28                             128   -0.24 9  156 355 
 OCA  HZ I         839 40.89        11.4 0.30            131            156 355 
 TAM  HZ EP        839 14.44                             127   -0.31 9  161 106 
 TAM  HZ I         839 14.57        11.1 0.18            131            161 106 
 TAM  HN ES        839 35.67                             127   -0.45 9  161 106 
 SPBC HZ EP        839 15.18                             126    0.24 9  163 217 
 SPBC HN ES        839 36.26                             126   -0.20 9  163 217 
 SPBC HZ I         839 44.14        13.4 0.32            128            163 217 
 NOR  HZ EP        839 22.20                             116    0.01 8  232 233 
 NOR  HN ES        839 48.49                             116   -0.87 8  232 233 
 NOR  HZ I         839 52.89        10.2 0.26            118            232 233 
 SML  HZ EP        839 22.34                             116   -0.43 8  238 336 
 SML  HN ES        839 50.08                             116   -0.32 8  238 336 
 SML  HZ I         839 53.36        17.4 0.36            118            238 336 
 CHI  HZ EP        839 24.28                             114   -0.39 8  251 194 
 CHI  HN ES        839 53.42                             114   -0.35 8  251 194 
 CHI  HZ I         840  0.92         2.8 0.54            117            251 194 
 HEL  HZ EP        839 27.50                             113    0.98 8  268 255 
 HEL  HN ES        839 57.58                             113    0.52 8  268 255 
 HEL  HZ I         840  4.35         4.5 0.34            115            268 255 
 GUY2CHZ EP        839 31.05                             110    0.86 7  299 234 
 GUY2CHN ES        840  4.12                             110    0.52 7  299 234 
 GUY2CHZ I         840 13.33         4.6 0.58                           299 234 
 ORTC HZ EP        839 41.10                             104    0.23 6  395 215 
 ORTC HZ I         839 43.10         3.5 0.28            106            395 215 
 ORTC HN ES        840 22.33                             104   -0.27 6  395 215 
                                                                                
