 2013  1 1 0313  9.7 L   6.793 -73.120147.7  RSN  6 0.5 1.7LRSN                1
 GAP=240        1.23       6.9     8.2  8.8  0.3084E+02  0.1406E+02  0.1435E+02E
 Epicentro: LOS SANTOS - SANTANDER                                             3
 ACTION:UPD 13-02-15 09:11 OP:ep   STATUS:               ID:20130101031309 L   I
 2013-01-01-0310-00M.COL___242                                                 6
 STAT SP IPHASW D HRMM SECON CODA AMPLIT PERI AZIMU VELO AIN AR TRES W  DIS CAZ7
 BAR2 SZ EP        313 29.36                             171   -0.1810 23.2 197 
 BAR2 SZ ES        313 44.95                             171   -0.0810 23.2 197 
 BAR2 SZ I         313 47.68         8.7 0.18            165           23.2 197 
 BRR  HZ EP        313 31.56                             152    0.3610 74.1 298 
 BRR  HN ES        313 48.75                             152    0.7610 74.1 298 
 BRR  HN I         313 51.36        10.4 0.20            150           74.1 298 
 RUS  HZ EP        313 33.30                             145   -0.2510 99.6 178 
 RUS  HN ES        313 51.76                             145   -0.4110 99.6 178 
 RUS  HN I         313 53.74         6.2 0.38            143           99.6 178 
 PTB  HZ EP        313 36.65                             132   -0.40 9  150 259 
 PTB  HN ES        313 57.62                             132   -0.77 9  150 259 
 ZAR  HN ES        314  8.26                             122    0.06 8  207 292 
 ZAR  HN I         314 13.87         5.2 0.20            122            207 292 
 CHI  HZ EP        313 47.68                             118    0.20 8  249 196 
 CHI  HE ES        314 18.02                             118    1.05 8  249 196 
 CHI  HN I         314 24.67         2.6 0.62            118            249 196 
                                                                                
