 2012  1 1 0808 56.7 L   6.801 -73.163143.7  RSN 10 0.3 2.4LRSN                1
 GAP=134        0.80       4.1     4.3  6.4 -0.3049E+01  0.8858E+01 -0.1332E+01E
 Epicentro: LOS SANTOS - SANTANDER                                             3
 ACTION:UP  12-02-03 08:12 OP:REBC STATUS:               ID:20120101080856 L   I
 2012-01-01-0807-59S.COL___189                                                 6
 STAT SP IPHASW D HRMM SECON CODA AMPLIT PERI AZIMU VELO SNR AR TRES W  DIS CAZ7
 BAR2 SZ IP        8 9 16.12                             170     0.010   23 185 
 BAR2 SZ ES   1    8 9 30.90                             170    -0.3 7   23 185 
 BAR2 SZ I         8 9 32.89        49.6 0.29                            23 185 
 BRR  HZ IP     C  8 9 17.99                             153     0.410   69 299 
 BRR  HZ I         8 9 18.29       149.3 0.15                            69 299 
 PAM  SZ EP        8 9 18.89                             150     0.110   79  41 
 PAM  SZ I         8 9 19.17        42.4 0.23                            79  41 
 PAM  SN ES   1    8 9 36.22                             150     0.2 7   79  41 
 RUS  HZ EP   1    8 9 20.24                             143    -0.1 7  101 175 
 RUS  HE ES   1    8 9 38.79                             143     0.1 7  101 175 
 RUS  HZ I         8 9 40.00        30.2 0.32                           101 175 
 PTB  HZ EP   1    8 9 22.70                             132    -0.7 7  146 259 
 PTB  HE ES   1    8 9 43.83                             132    -0.3 7  146 259 
 OCA  SZ EP   1    8 9 24.22                             129    -0.6 7  160 354 
 ZAR  HZ EP   1    8 9 28.73                             122    -0.1 6  202 292 
 ZAR  HE ES   1    8 9 54.37                             122     0.5 6  202 292 
 ZAR  HZ I         810  1.23        34.8 0.25                           202 292 
 NOR  SZ EP   1    8 9 32.63                             118     0.4 6  233 234 
 NOR  SN ES   1    8 9 59.92                             118     0.1 6  233 234 
 CHI  HZ EP   1    8 9 34.01                             117    -0.3 6  248 195 
 CHI  HZ I         8 9 36.80         9.9 0.41                           248 195 
 PRA  HZ EP   1    8 9 50.51                             106     0.4 4  391 209 
                                                                                
