 2010  9 1 0144 35.5 L   6.791 -73.060145.5  RSN 13 0.4 2.5LRSN                1
 GAP=132        0.79       3.1     6.1  5.1 -0.5784E+01 -0.1585E+01  0.1971E+01E
 Epicentro: LOS SANTOS - SANTANDER                                             3
 ACTION:UP  11-02-18 10:59 OP:tino STATUS:               ID:20100901014435 L   I
 2010-09-01-0141-50S.COL___120                                                 6
 STAT SP IPHASW D HRMM SECON CODA AMPLIT PERI AZIMU VELO SNR AR TRES W  DIS CAZ7
 BAR2 SZ IP        144 55.10                             170    -0.110   26 212 
 BAR2 SZ ES   1    145 10.10                             170    -0.4 7   26 212 
 BAR2 SZ I         145 11.35        81.9 0.46                            26 212 
 BTL  SZ EP   1    144 55.24                             169     0.0 7   27 302 
 BTL  SZ ES   1    145 11.03                             169     0.5 7   27 302 
 BRR  HZ IP     C  144 57.03                             150    -0.110   80 296 
 BRR  HE ES   1    145 14.15                             150     0.1 7   80 296 
 BRR  HZ I         145 16.74        82.9 0.13                            80 296 
 RUS  HZ IP     D  144 58.92                             144    -0.210   99 181 
 RUS  HN ES   1    145 17.61                             144     0.0 7   99 181 
 RUS  HZ I         145 19.41        17.0 0.26                            99 181 
 BRI  SZ EP   1    144 59.77                             142     0.5 7  106  16 
 GRA  SZ IP        145  0.92                             137     0.310  124  13 
 GRA  SZ ES   1    145 20.37                             137     0.2 7  124  13 
 GRA  SZ I         145 22.23        61.7 0.31                           124  13 
 OCA  SZ EP   1    145  3.53                             129    -0.5 7  163 350 
 OCA  SZ ES   1    145 25.69                             129    -0.6 7  163 350 
 OCA  SZ I         145 30.32        47.6 0.35                           163 350 
 CHI  HZ EP   1    145 13.31                             117    -0.1 6  250 197 
 CHI  HN ES   2    145 42.55                             117    -0.4 4  250 197 
 CHI  HZ I         145 46.07        16.8 0.67                           250 197 
 ROSC BZ EP   2    145 14.86                             116     0.8 4  257 213 
 ROSC BE ES   2    145 44.97                             116     0.8 4  257 213 
 ROSC BZ I         145 51.03        26.0 0.75                           257 213 
 HEL  HZ EP   2    145 17.25                             114     0.5 4  281 256 
 HEL  HN ES   2    145 48.79                             114    -0.1 4  281 256 
 HEL  HZ I         145 53.75        17.0 0.39                           281 256 
 TOL  SZ EP   2    145 24.49                             109     0.0 3  350 226 
 SDV  BZ EP   2    145 25.04                             109     0.3 3  354  49 
 SDV  BZ I         146  4.18         4.7 0.46                           354  49 
 PRA  HZ EP   1    145 28.57                             106    -0.9 4  396 211 
 PRA  HN ES   2    146 12.00                             106     0.4 3  396 211 
 PRA  HZ I         146 14.62        18.4 0.28                           396 211 
                                                                                
