 2014 10 1 0726 58.8 L   6.796 -73.154148.6  RSN  7 0.5 1.5LRSN                1
 GAP=200        1.31       5.6     7.6  9.5  0.1500E+02  0.8434E+01 -0.3726E+01E
 Epicentro: LOS SANTOS - SANTANDER                                             3
 ACTION:UPD 14-11-29 23:45 OP:nd   STATUS:               ID:20141001072658 L   I
 OLDACT:DUP 14-10-01 20:18 OP:carl STATUS:               ID:20141001071819d    3
 2014-10-01-0718-18M.COL___289                                                 6
 STAT SP IPHASW D HRMM SECON CODA AMPLIT PERI AZIMU VELO AIN AR TRES W  DIS CAZ7
 BAR2 SZ EP        727 18.85                             171    0.1010 22.7 188 
 BAR2 SZ ES        727 33.61                             171   -0.7110 22.7 188 
 BAR2 SZ I         727 35.00         8.1 0.22            169           22.7 188 
 BRR  HZ EP        727 20.56                             153    0.3410 70.6 299 
 BRR  HN ES        727 37.65                             153    0.7210 70.6 299 
 BRR  HZ I         727 38.08         5.3 0.12            153           70.6 299 
 RUS  HZ EP        727 22.84                             144    0.0510  100 176 
 RUS  HN ES        727 41.89                             144    0.3710  100 176 
 RUS  HZ I         727 43.24         4.8 0.36            144            100 176 
 PTB  HZ EP        727 25.27                             133   -0.64 9  147 259 
 PTB  HN ES        727 46.38                             133   -0.67 9  147 259 
 PTB  HZ I         727 48.93         4.4 0.16            133            147 259 
 SPBC HZ EP        727 27.73                             130    0.31 9  162 219 
 SPBC HN ES        727 49.62                             130   -0.13 9  162 219 
 SPBC HZ I         727 52.39         4.1 0.20            130            162 219 
 ZAR  HN ES        727 57.54                             123    0.78 9  203 292 
 SML  HN ES        728  3.60                             118   -0.68 8  244 336 
                                                                                
