 2015  6 1 0833  1.6 L   7.418 -73.442105.2  RSN  5 0.4 1.6LRSN                1
 GAP=154        1.05       3.6     5.3  8.6  0.2371E+01  0.7645E+01 -0.8736E+01E
 Epicentro: SABANA DE TORRES - SANTANDER                                       3
 ACTION:UPD 15-09-10 22:08 OP:cam  STATUS:               ID:20150601083301 L   I
 OLDACT:REG 15-06-01 13:37 OP:ak   STATUS:               ID:20150601082748     3
 2015-06-01-0827-48M.COL___296                                                 6
 STAT SP IPHASW D HRMM SECON CODA AMPLIT PERI AZIMU VELO AIN AR TRES W  DIS CAZ7
 BRR  HN ES        833 28.92                             155    0.0310 45.5 221 
 OCA  HZ IP     D  833 20.77                             136    0.3410 91.8   8 
 OCA  HN ES        833 35.58                             136    0.4910 91.8   8 
 OCA  HZ I         833 36.60        22.1 0.14            138           91.8   8 
 BAR2 EZ EP        833 20.97                             135    0.1010 95.7 163 
 BAR2 EZ ES        833 35.44                             135   -0.4510 95.7 163 
 BAR2 EZ I         833 37.98         6.0 0.21            137           95.7 163 
 ZAR  HZ EP        833 26.99                             119    0.43 9  157 273 
 ZAR  HN ES        833 46.15                             119    0.14 9  157 273 
 ZAR  HZ I         833 49.77         3.3 0.37            120            157 273 
 SML  HZ IP     D  833 27.38                             117   -0.40 9  168 336 
 SML  HN ES        833 47.37                             117   -0.81 9  168 336 
 SML  HZ I         833 50.00         6.7 0.07            119            168 336 
                                                                                
