 2016 11 1 0243 33.3 L   6.783 -73.138143.7  RSN  7 0.4 1.6LRSN                1
 GAP=138        0.98       4.6     4.7  7.6 -0.7459E+01  0.3844E+01  0.4143E+01E
 Epicentro: LOS SANTOS - SANTANDER                                             3
 ACTION:UPD 17-10-26 21:03 OP:lp   STATUS:               ID:20161101024333 L   I
 OLDACT:UP  16-11-01 13:51 OP:dani STATUS:               ID:20161101023744d    3
 OLDACT:UP  16-11-01 13:50 OP:dani STATUS:               ID:20161101023744d    3
 OLDACT:DUP 16-11-01 13:47 OP:dani STATUS:               ID:20161101023744d    3
 2016-11-01-0238-00M.COL___313                                                 6
 STAT SP IPHASW D HRMM SECON CODA AMPLIT PERI AZIMU VELO AIN AR TRES W  DIS CAZ7
 BAR2 EZ EP        243 52.63                             171   -0.0210 21.6 193 
 BAR2 EZ ES        244  7.86                             171    0.1210 21.6 193 
 BRR  HZ EP        243 54.44                             152    0.1210 72.8 300 
 BRR  HN ES        244 11.29                             152    0.5810 72.8 300 
 BRR  HZ I         244 13.08         8.2 0.24            150           72.8 300 
 PAM  EZ EP        243 55.54                             150    0.1910 78.3  38 
 PAM  EN ES        244 12.25                             150   -0.3010 78.3  38 
 PAM  EZ I         244 14.72         6.2 0.58            151           78.3  38 
 RUS  HZ EP        243 56.57                             144   -0.1410 98.6 176 
 RUS  HN ES        244 14.85                             144   -0.1110 98.6 176 
 PTB  HZ EP   3    243 59.00                             131   -1.14 2  148 260 
 PTB  HN ES        244 20.05                             131   -1.02 9  148 260 
 PTB  HZ I         244 22.99         6.8 0.32            131            148 260 
 SPBC HE ES        244 23.81                             129    0.23 9  162 220 
 NOR  HZ EP   3    244 10.00                             118    1.14 2  234 235 
 NOR  HE ES        244 37.01                             118    0.41 8  234 235 
 NOR  HZ I         244 39.40         3.5 0.27            119            234 235 
                                                                                
