 2013  9 1 0125 47.5 L   6.715 -73.194151.3  RSN  4 0.5 1.6LRSN                1
 GAP=225        0.87      10.9    11.5  9.9  0.8757E+02  0.1704E+02  0.2310E+02E
 Epicentro: VILLANUEVA - SANTANDER                                             3
 ACTION:UPD 13-10-22 09:19 OP:ep   STATUS:               ID:20130901012547 L   I
 OLDACT:UP  13-09-01 09:04 OP:mh   STATUS:               ID:20130901011959     3
 OLDACT:REG 13-09-01 08:31 OP:mh   STATUS:               ID:20130901011959     3
 2013-09-01-0119-59M.COL___269                                                 6
 STAT SP IPHASW D HRMM SECON CODA AMPLIT PERI AZIMU VELO AIN AR TRES W  DIS CAZ7
 BRR  HZ EP   1    126  9.13                             153   -0.13 7 71.8 307 
 BRR  HN ES        126 26.19                             153   -0.0610 71.8 307 
 BRR  HZ I         126 29.90         7.6 0.40            148           71.8 307 
 RUS  HZ EP   1    126 11.47                             147    0.30 7 91.7 172 
 RUS  HN ES   2    126 29.66                             147    0.01 5 91.7 172 
 RUS  HZ I         126 32.51         3.2 0.22            145           91.7 172 
 PTB  HZ EP   1    126 13.33                             135   -0.97 7  141 262 
 PTB  HN ES   2    126 35.73                             135    0.51 5  141 262 
 PTB  HZ I         126 41.02         6.4 0.36            130            141 262 
 ZAR  HZ EP   1    126 20.95                             124    0.77 6  203 295 
 ZAR  HN ES   1    126 45.71                             124    0.03 6  203 295 
 ZAR  HZ I         126 52.72         5.6 0.42            123            203 295 
                                                                                
