 2012 12 1 0803  0.2 L   6.623 -72.600  4.0  RSN  6 0.5 1.9LRSN                1
 GAP=111        1.37       3.3     3.0  8.3 -0.2974E+00  0.1338E+00  0.2254E+01E
 Epicentro: CARCASI - SANTANDER                                                3
 ACTION:UPD 13-01-04 14:24 OP:ep   STATUS:               ID:20121201080300 L   I
 2012-12-01-0800-00M.COL___236                                                 6
 STAT SP IPHASW D HRMM SECON CODA AMPLIT PERI AZIMU VELO AIN AR TRES W  DIS CAZ7
 BAR2 SZ EP        8 3 11.32                              47    0.4810 64.4 267 
 BAR2 SZ ES        8 3 19.07                              47   -0.0410 64.4 267 
 BAR2 SZ I         8 3 22.17        37.8 0.38                          64.4 267 
 PAM  SZ EP        8 3 13.15                              47   -0.3010 80.0 352 
 PAM  SN ES        8 3 23.07                              47   -0.6910 80.0 352 
 PAM  SN I         8 3 23.59        64.6 0.20                          80.0 352 
 GIR2 SZ EP        8 3 14.39                              47    0.8910 82.7 308 
 TAM  HZ EP     D  8 3 15.36                              47    0.5710 91.8 103 
 TAM  HE ES        8 3 25.94                              47   -0.2010 91.8 103 
 TAM  HN I         8 3 30.32        23.6 0.18                          91.8 103 
 RUS  HZ EP        8 3 15.99                              47   -0.0210 96.8 214 
 RUS  HN ES        8 3 27.62                              47   -0.6910 96.8 214 
 RUS  HN I         8 3 29.05        40.4 0.38                          96.8 214 
 OCA  HZ EP   4    8 3 32.61                              37    2.49 0  196 336 
 OCA  HN ES   4    8 3 56.35                              37    2.93 0  196 336 
 CHI  HN I         8 4 18.87        10.0 0.46                           254 210 
                                                                                
