 2016 12 1 0332 42.3 L   6.698 -73.145146.1  RSN  4 0.4 1.5LRSN                1
 GAP=165        0.78       8.7     5.0  6.5 -0.1469E+02 -0.6825E-01  0.1083E+01E
 Epicentro: VILLANUEVA - SANTANDER                                             3
 ACTION:UPD 17-01-11 20:11 OP:rebc STATUS:               ID:20161201033242 L   I
 OLDACT:UP  16-12-01 14:56 OP:dani STATUS:               ID:20161201032747     3
 OLDACT:REG 16-12-01 12:54 OP:dani STATUS:               ID:20161201032747     3
 2016-12-01-0328-00M.COL___336                                                 6
 STAT SP IPHASW D HRMM SECON CODA AMPLIT PERI AZIMU VELO AIN AR TRES W  DIS CAZ7
 BAR2 EZ EP        333  2.00                             175    0.2510 12.4 200 
 BAR2 EZ ES        333 16.92                             175   -0.0410 12.4 200 
 BRR  HZ EP        333  4.01                             151    0.2210 77.3 306 
 BRR  HN ES        333 20.94                             151    0.3510 77.3 306 
 BRR  HZ I         333 24.99        14.1 0.25            146           77.3 306 
 PAM  EZ EP        333  5.00                             148   -0.0510 86.3  35 
 PAM  EN ES   2    333 21.77                             148   -1.07 5 86.3  35 
 PAM  EZ I         333 22.49         2.9 0.32            147           86.3  35 
 PTB  HZ EP        333  8.92                             132   -0.18 9  146 263 
 PTB  HN ES        333 29.69                             132   -0.35 9  146 263 
 PTB  HZ I         333 31.78         2.6 0.23            131            146 263 
                                                                                
