 2012  5 1 0659 51.0 L   6.802 -73.111145.8  RSN 19 0.4 3.1LRSN                1
 GAP=128        0.80       2.4     3.3  4.4 -0.2258E+01  0.2643E+01  0.1157E+01E
 Epicentro: LOS SANTOS - SANTANDER                                             3
 ACTION:UP  12-07-05 12:01 OP:pat  STATUS:               ID:20120501065951 L   I
 2012-05-01-0700-00M.COL___189                                                 6
 STAT SP IPHASW D HRMM SECON CODA AMPLIT PERI AZIMU VELO SNR AR TRES W  DIS CAZ7
 BAR2 SZ IP        7 0 10.73                             170     0.010   24 199 
 BAR2 SZ ES   1    7 0 25.55                             170    -0.5 7   24 199 
 BAR2 SZ I         7 0 26.87       350.0 0.33                            24 199 
 BRR  HZ EP        7 0 12.55                             151     0.210   75 297 
 BRR  HN ES   1    7 0 29.26                             151     0.2 7   75 297 
 BRR  HZ I         7 0 33.70       377.2 0.21                            75 297 
 PAM  SZ EP        7 0 13.49                             152     0.410   75  37 
 PAM  SN ES   1    7 0 30.51                             152     0.2 7   75  37 
 RUS  HZ IP     C  7 0 14.66                             144    -0.110  101 178 
 RUS  HN ES   1    7 0 33.18                             144    -0.1 7  101 178 
 RUS  HZ I         7 0 35.24       151.1 0.30                           101 178 
 PTB  HZ EP   1    7 0 17.57                             131    -0.8 7  152 259 
 PTB  HN ES   1    7 0 39.33                             131    -0.3 7  152 259 
 PTB  HZ I         7 0 40.11        92.4 0.31                           152 259 
 OCA  SZ EP        7 0 19.26                             129    -0.1 9  161 352 
 OCA  SZ ES   1    7 0 41.73                             129     0.3 7  161 352 
 ZAR  HZ EP   1    7 0 23.25                             122    -0.6 6  208 292 
 ZAR  HN ES   1    7 0 49.14                             122    -0.3 6  208 292 
 ZAR  HZ I         7 0 54.96       135.5 0.24                           208 292 
 CHI  HZ EP   1    7 0 28.85                             117     0.0 6  250 196 
 CHI  HN ES   1    7 0 58.58                             117     0.2 6  250 196 
 CHI  HZ I         7 1  2.32        73.1 0.46                           250 196 
 ROSC BZ EP   1    7 0 29.79                             116     0.4 6  255 212 
 ROSC BN ES   1    7 0 58.61                             116    -0.7 6  255 212 
 ROSC BZ I         7 1  4.66       163.3 0.51                           255 212 
 HEL  HZ EP        7 0 32.52                             114     0.9 7  276 256 
 HEL  HN ES   1    7 1  3.68                             114     0.3 6  276 256 
 HEL  HZ I         7 1  9.88       101.1 0.44                           276 256 
 VIL  SZ EP   1    7 0 34.76                             112     0.2 5  304 192 
 VIL  SN ES   1    7 1  8.65                             112     0.1 5  304 192 
 VIL  SZ I         7 1 19.52        66.7 0.44                           304 192 
 GUY  SZ EP   1    7 0 35.50                             112     0.2 5  307 235 
 GUY  SN ES   1    7 1  9.89                             112     0.1 5  307 235 
 GUY  SZ I         7 1 16.39        91.5 0.41                           307 235 
 RREF HZ EP   1    7 0 37.82                             111     0.3 5  325 230 
 RREF HN ES   1    7 1 14.24                             111     0.5 5  325 230 
 RREF HZ I         7 1 22.79        63.3 0.48                           325 230 
 DBB  SZ EP   1    7 0 39.32                             109     0.4 5  343 274 
 TOL  SZ EP   1    7 0 39.37                             109    -0.2 5  346 225 
 TOL  SZ ES   1    7 1 17.09                             109    -0.4 5  346 225 
 COD  HZ EP   1    7 0 38.74                             109    -0.7 5  348 354 
 COD  HN ES   1    7 1 17.10                             109    -0.1 5  348 354 
 COD  HZ I         7 1 24.91        26.9 0.36                           348 354 
 SDV  BZ EP        7 0 40.19                             108    -0.5 6  357  50 
 PRA  HZ EP   1    7 0 44.72                             106    -0.1 4  394 210 
 PRA  HN ES   1    7 1 27.22                             106     0.5 4  394 210 
 YOT  HZ EP   1    7 0 53.67                             103    -0.8 3  475 229 
 YOT  HZ I         7 0 57.76        10.2 0.34                           475 229 
 YOT  HN ES   1    7 1 43.34                             103    -0.5 3  475 229 
                                                                                
