 2012 10 1 0604 22.7 L   5.762 -73.930 96.9  RSN  9 0.3 2.0LRSN                1
 GAP= 89        0.79       2.7     2.5  7.5 -0.1601E+01  0.2751E+01  0.3725E+00E
 Epicentro: ALBANIA - SANTANDER                                                3
 ACTION:UPD 12-11-22 17:01 OP:ep   STATUS:               ID:20121001060422 L   I
 2012-10-01-0559-37M.COL___196                                                 6
 STAT SP IPHASW D HRMM SECON CODA AMPLIT PERI AZIMU VELO AIN AR TRES W  DIS CAZ7
 RUS  HZ EP        6 4 41.29                             133   -0.2410 94.9  81 
 RUS  HN ES   1    6 4 56.44                             133    0.23 7 94.9  81 
 PTB  HN EP        6 4 41.16                             129   -0.5610  104 326 
 PTB  HE ES   1    6 4 56.09                             129   -0.47 7  104 326 
 PTB  HN I         6 4 58.70        12.6 0.26                           104 326 
 NOR  SZ EP        6 4 41.82                             129   -0.1910  106 258 
 NOR  SN ES   1    6 4 57.49                             129    0.42 7  106 258 
 NOR  SN I         6 4 59.74        56.5 0.14                           106 258 
 BAR2 SZ EP        6 4 43.93                             124   -0.0310  124  42 
 BAR2 SZ ES   1    6 5  0.59                             124    0.05 7  124  42 
 BAR2 SZ I         6 5  2.63        51.5 0.30                           124  42 
 CHI  HZ EP   1    6 4 44.83                             124    0.27 7  127 170 
 CHI  HN ES   1    6 5  1.47                             124   -0.13 7  127 170 
 CHI  HZ I         6 5  5.31         5.7 0.32                           127 170 
 BRR  HZ EP        6 4 46.35                             119   -0.16 9  151   9 
 BRR  HN ES   1    6 5  5.76                             119    0.68 7  151   9 
 BRR  HN I         6 5  8.30        63.6 0.18                           151   9 
 GIR2 SZ EP        6 4 48.59                             116    0.12 9  167  29 
 GIR2 SZ ES   1    6 5  8.65                             116    0.09 7  167  29 
 HEL  HZ EP        6 4 51.31                             114    0.71 9  183 285 
 HEL  HN ES   1    6 5 12.30                             114   -0.05 7  183 285 
 HEL  HZ I         6 5 16.99         4.8 0.40                           183 285 
 TOL  SZ EP        6 4 52.58                             111   -0.08 9  202 230 
                                                                                
