 2017 11 1 0646 41.0 L   6.805 -73.127147.9  RSN 11 0.4 1.9LRSN                1
 GAP=113        0.91       3.1     3.2  5.4  0.3545E+00  0.4815E+01  0.4258E+01E
 Epicentro: LOS SANTOS - SANTANDER                                             3
 ACTION:UPD 17-12-12 19:50 OP:rebc STATUS:               ID:20171101064641 L   I
 OLDACT:UP  17-11-01 17:23 OP:dnl  STATUS:               ID:20171101063739     3
 OLDACT:REG 17-11-01 14:08 OP:dnl  STATUS:               ID:20171101063739     3
 2017-11-01-0638-00M.COL___420                                                 6
 STAT SP IPHASW D HRMM SECON CODA AMPLIT PERI AZIMU VELO AIN AR TRES W  DIS CAZ7
 BAR2 EZ EP        647  0.74                             170   -0.1910 24.3 195 
 BAR2 EZ ES        647 16.54                             170    0.0910 24.3 195 
 BAR2 EZ I         647 16.97        20.3 0.10            167           24.3 195 
 BRR  HZ IP     D  647  2.57                             152    0.0810 72.7 297 
 BRR  HN ES        647 19.76                             152    0.5310 72.7 297 
 BRR  HZ I         647 22.53        13.0 0.10            152           72.7 297 
 PAM  EZ EP        647  3.47                             152    0.1110 75.6  39 
 PAM  EN ES        647 20.88                             152    0.0910 75.6  39 
 PAM  EZ I         647 22.49        12.2 0.70            157           75.6  39 
 RUS  HZ EP        647  4.70                             144   -0.3210  101 177 
 RUS  HN ES        647 23.81                             144    0.0810  101 177 
 RUS  HZ I         647 25.25         8.1 0.28            144            101 177 
 PTB  HZ EP        647  7.68                             132   -0.68 9  150 259 
 PTB  HE ES        647 29.03                             132   -0.64 9  150 259 
 PTB  HZ I         647 34.51         9.9 0.54            132            150 259 
 SPBC HZ EP   2    647  9.91                             129    0.06 5  165 219 
 SPBC HE ES        647 32.00                             129   -0.33 9  165 219 
 SPBC HZ I         647 38.04        12.1 0.22            129            165 219 
 YPLC HZ EP   2    647 11.13                             127    0.20 4  176 152 
 YPLC HN ES        647 34.14                             127   -0.11 9  176 152 
 YPLC HZ I         647 35.80         6.1 0.28            129            176 152 
 ZAR  HZ EP   4    647 15.56                             123    1.78 0  206 292 
 ZAR  HE ES        647 39.19                             123   -0.14 8  206 292 
 ZAR  HZ I         647 44.83        12.3 0.16            123            206 292 
 NOR  HZ EP        647 16.96                             119   -0.13 8  237 235 
 NOR  HE ES        647 45.33                             119    0.11 8  237 235 
 NOR  HZ I         647 50.07         6.4 0.12            119            237 235 
 CHI  HZ EP   2    647 18.95                             117   -0.01 4  250 196 
 CHI  HE ES        647 48.79                             117    0.24 8  250 196 
 CHI  HZ I         647 57.99         2.7 0.36            118            250 196 
 GUY2CHZ EP        647 25.72                             113    0.76 7  303 235 
 GUY2CHN ES        648  0.31                             113    1.09 7  303 235 
 GUY2CHZ I         648  7.26         6.0 0.42                           303 235 
                                                                                
