 2010  4 1 0243 23.4 L   6.828 -73.042136.7  RSN 10 0.6 2.9LRSN                1
 GAP=148        1.21       5.2     7.8  8.1 -0.1553E+02 -0.3307E+00  0.1074E+02E
 Epicentro: LOS SANTOS - SANTANDER                                             3
 ACTION:UPD 10-08-24 09:57 OP:vdl  STATUS:               ID:20100401024323 L   I
 2010-04-01-0241-50S.COL___098                                                 6
 STAT SP IPHASW D HRMM SECON CODA AMPLIT PERI AZIMU VELO AIN AR TRES W  DIS CAZ7
 BAR2 SZ IP        243 42.56                             167     0.410   31 211 
 BAR2 SZ ES   1    243 55.81                             167    -0.9 7   31 211 
 BRR  HZ IP        243 44.51                             148     0.410   80 293 
 BRR  HZ I         243 44.80       172.7 0.17                            80 293 
 BRR  HN ES   1    244  1.28                             148     0.9 7   80 293 
 OCA  SZ IP        243 51.00                             128     0.1 9  159 349 
 OCA  SZ ES   1    244 11.33                             128    -1.0 7  159 349 
 OCA  SZ I         244 15.87       201.8 0.30                           159 349 
 CHI  HZ EP        244  1.12                             114    -0.2 8  255 197 
 CHI  HN ES   1    244 30.77                             114    -0.1 6  255 197 
 CHI  HZ I         244 35.61        24.3 0.30                           255 197 
 HEL  HZ EP        244  4.66                             112     0.1 7  284 256 
 HEL  HN ES   1    244 36.42                             112    -0.2 6  284 256 
 HEL  HZ I         244 40.89        32.1 0.52                           284 256 
 RREF BZ EP        244 10.41                             108     0.0 7  333 230 
 RREF BN ES   1    244 47.62                             108     0.5 5  333 230 
 SDV  BZ IP        244 12.17                             107     0.3 6  350  49 
 DBB  SZ EP        244 10.78                             107    -1.1 6  351 274 
 TOL  SZ EP        244 13.20                             107     0.7 6  354 226 
 TOL  SZ ES   1    244 50.70                             107    -0.1 5  354 226 
 PRA  HZ EP        244 17.04                             105    -0.6 6  400 211 
 PRA  HN ES   1    244 59.41                             105    -0.5 4  400 211 
 PRA  HZ I         245  5.09        24.1 0.26                           400 211 
                                                                                
