 2011  1 1 0442 13.5 L   6.296 -73.750 98.0  RSN 10 0.4 2.1LRSN                1
 GAP=106        0.77       3.8     3.7  7.9 -0.2667E+01  0.1200E+02  0.2486E-01E
 Epicentro: LANDAZURI - SANTANDER                                              3
 ACTION:UP  11-02-08 08:37 OP:pat  STATUS:               ID:20110101044213 L   I
 2011-01-01-0440-00M.COL___137                                                 6
 STAT SP IPHASW D HRMM SECON CODA AMPLIT PERI AZIMU VELO SNR AR TRES W  DIS CAZ7
 BAR2 SZ EP   1    442 29.97                             142    -0.1 8   71  62 
 BAR2 SZ ES   1    442 43.15                             142     0.2 8   71  62 
 BAR2 SZ I         442 44.96       117.1 0.31                            71  62 
 RUS  HZ EP   1    442 31.40                             137    -0.3 8   86 121 
 RUS  HN ES   1    442 45.84                             137     0.0 8   86 121 
 RUS  HZ I         442 47.02        21.3 0.26                            86 121 
 NOR  SZ EP        442 37.04                             120    -0.210  148 237 
 NOR  SN ES   1    442 55.90                             120     0.2 7  148 237 
 YOP  SZ EP   1    442 40.33                             115    -0.5 7  180 125 
 YOP  SN ES   1    443  2.83                             115     0.7 7  180 125 
 YOP  SZ I         443  4.65        18.1 0.27                           180 125 
 CHI  HZ EP   1    442 41.37                             114    -0.3 7  184 179 
 CHI  HN ES   1    443  3.46                             114    -0.1 7  184 179 
 CHI  HZ I         443 12.56         5.8 0.36                           184 179 
 HEL  HZ EP   2    442 44.06                             113     1.0 5  197 267 
 HEL  HZ I         443 10.80         8.9 0.29                           197 267 
 GRA  SZ EP   2    442 44.18                             112     0.6 5  204  31 
 GRA  SZ I         443  9.20        17.5 0.46                           204  31 
 OCA  SZ EP   1    442 45.19                             110    -0.2 7  220  12 
 OCA  SZ I         443 17.10         8.9 0.20                           220  12 
 VIL  SZ EP   2    442 48.21                             108     0.2 4  242 176 
 PRA  HZ EP   2    442 56.61                             104     0.4 4  312 204 
                                                                                
