 2014 10 1 0832 23.8 L   6.838 -73.133147.5  RSN 12 0.4 1.8LRSN                1
 GAP=185        1.00       5.2    11.5  8.1 -0.1071E+01  0.5059E+02 -0.3672E+00E
 Epicentro: LOS SANTOS - SANTANDER                                             3
 ACTION:UPD 14-11-29 23:45 OP:nd   STATUS:               ID:20141001083223 L   I
 OLDACT:UP  14-10-01 19:37 OP:carl STATUS:               ID:20141001082817     3
 OLDACT:REG 14-10-01 13:30 OP:stll STATUS:               ID:20141001082817     3
 2014-10-01-0828-17M.COL___289                                                 6
 STAT SP IPHASW D HRMM SECON CODA AMPLIT PERI AZIMU VELO AIN AR TRES W  DIS CAZ7
 BAR2 SZ EP        832 43.88                             169    0.1110 27.8 191 
 BAR2 SZ I         832 44.43         8.4 0.18            165           27.8 191 
 BAR2 SZ ES        832 59.25                             169   -0.0610 27.8 191 
 BRR  HZ EP        832 45.81                             153    0.6810 70.6 295 
 BRR  HZ I         832 46.09        10.8 0.24            146           70.6 295 
 RUS  HZ EP        832 47.86                             143   -0.2010  105 177 
 RUS  HZ I         832 49.43         6.2 0.18            143            105 177 
 PTB  HZ EP        832 50.54                             132   -0.61 9  150 257 
 PTB  HZ I         832 53.18         7.6 0.24            127            150 257 
 OCA  HZ EP        832 51.93                             131    0.03 9  156 352 
 SPBC HZ EP        832 52.78                             129   -0.08 9  167 218 
 SPBC HZ I         832 55.48        11.6 0.10            126            167 218 
 ZAR  HZ EP   1    832 55.54                             123   -0.83 6  204 291 
 ZAR  HZ I         833  6.53         4.7 0.28            119            204 291 
 SML  HZ EP        833  0.07                             118   -0.14 8  240 335 
 SML  HZ I         833  1.41         8.9 0.10            116            240 335 
 CHI  HZ EP        833  1.87                             117   -0.24 8  253 195 
 CHI  HZ I         833  3.69         2.8 0.40            116            253 195 
 GUY2CHZ EP        833  8.98                             112    1.05 7  305 234 
 GUY2CHZ I         833 11.29         4.2 0.54                           305 234 
 TOL  SZ EP        833 12.92                             109    0.30 6  348 224 
 PRA  HZ EP        833 17.83                             107   -0.10 6  396 209 
                                                                                
