 2013  7 1 0516 51.7 L   6.778 -73.119149.7  RSN  7 0.4 1.7LRSN                1
 GAP=141        0.99       4.6     8.5  7.7  0.8909E+01 -0.5406E+01 -0.4853E+01E
 Epicentro: LOS SANTOS - SANTANDER                                             3
 ACTION:UPD 13-08-12 10:34 OP:ep   STATUS:               ID:20130701051651 L   I
 OLDACT:REG 13-07-01 09:01 OP:stll STATUS:               ID:20130701050840     3
 2013-07-01-0508-40M.COL___230                                                 6
 STAT SP IPHASW D HRMM SECON CODA AMPLIT PERI AZIMU VELO AIN AR TRES W  DIS CAZ7
 BAR2 SZ EP        517 11.74                             171   -0.0010 21.7 199 
 BAR2 SZ ES        517 26.89                             171   -0.5110 21.7 199 
 BAR2 SZ I         517 27.94         6.8 0.30            171           21.7 199 
 GIR2 SZ EP        517 11.83                             166   -0.0610 34.2 346 
 BRR  HZ EP        517 13.61                             152    0.1610 74.9 299 
 BRR  HE ES        517 31.09                             152    0.6510 74.9 299 
 BRR  HE I         517 31.45        12.9 0.26            152           74.9 299 
 PAM  SZ EP        517 14.81                             151    0.5010 77.5  37 
 RUS  HZ EP        517 15.62                             145   -0.0110 98.0 178 
 RUS  HN ES        517 34.38                             145    0.0610 98.0 178 
 PTB  HZ EP        517 18.75                             132   -0.42 9  150 260 
 OCA  HN ES        517 42.54                             130   -0.52 9  163 352 
                                                                                
