 2014 10 1 0856 22.3 L   6.247 -73.558126.4  RSN  8 0.5 1.8LRSN                1
 GAP= 94        1.23       4.1     4.8  8.1 -0.2462E+01  0.1427E+02 -0.3599E+01E
 Epicentro: EL GUACAMAYO - SANTANDER                                           3
 ACTION:UPD 14-11-29 23:45 OP:nd   STATUS:               ID:20141001085622 L   I
 OLDACT:DUP 14-10-01 18:57 OP:carl STATUS:               ID:20141001084815d    3
 2014-10-01-0848-11M.COL___289                                                 6
 STAT SP IPHASW D HRMM SECON CODA AMPLIT PERI AZIMU VELO AIN AR TRES W  DIS CAZ7
 BAR2 SZ EP        856 41.10                             154    0.1910 56.5  47 
 BAR2 SZ ES        856 55.30                             154   -0.1010 56.5  47 
 BAR2 SZ I         856 57.18        29.9 0.32            156           56.5  47 
 RUS  HZ EP        856 41.32                             151   -0.4610 65.6 127 
 RUS  HN ES        856 56.75                             151   -0.2110 65.6 127 
 RUS  HZ I         856 59.01         6.2 0.32            156           65.6 127 
 SPBC HZ EP        856 42.60                             143   -0.0210 86.9 221 
 SPBC HN ES        856 58.63                             143    0.1810 86.9 221 
 SPBC HZ I         857  0.59        23.9 0.18            145           86.9 221 
 BRR  HZ EP        856 43.65                             140    0.4210 96.6 350 
 BRR  HN ES        857  0.53                             140    1.0010 96.6 350 
 BRR  HZ I         857  1.34        10.0 0.36            141           96.6 350 
 PTB  HZ EP        856 43.38                             138   -0.5010  104 288 
 PTB  HN ES        856 59.95                             138   -0.7410  104 288 
 PTB  HZ I         857  1.75        13.1 0.10            138            104 288 
 ZAR  HZ EP        856 52.65                             118   -0.40 9  199 314 
 ZAR  HE ES        857 16.57                             118   -0.44 9  199 314 
 ZAR  HZ I         857 25.70         7.3 0.32            120            199 314 
 OCA  HN ES        857 21.77                             116    0.01 8  222   7 
 GUY2CHZ EP        856 57.52                             115    0.51 8  230 241 
 GUY2CHN ES        857 24.81                             115    0.75 8  230 241 
 GUY2CHZ I         857 29.51         4.7 0.24                           230 241 
                                                                                
