 2013  6 1 0326 38.5 L   6.479 -73.826 87.6  RSN  7 0.4 1.6LRSN                1
 GAP=101        0.95       3.2     2.7  6.6  0.2958E-01  0.5484E+01  0.1414E+01E
 Epicentro: SANTA HELENA DEL OPON - SANTANDER                                  3
 ACTION:UP  14-01-08 09:51 OP:ep   STATUS:               ID:20130601032638 L   I
 OLDACT:UPD 13-07-15 17:22 OP:ep   STATUS:               ID:20130601032638 L   3
 2013-06-01-0320-00M.COL___260                                                 6
 STAT SP IPHASW D HRMM SECON CODA AMPLIT PERI AZIMU VELO AIN AR TRES W  DIS CAZ7
 PTB  HZ IP     C  326 53.03                             138   -0.6810 70.0 276 
 PTB  HN ES        327  5.20                             138   -0.3610 70.0 276 
 PTB  HZ I         327  5.99        11.3 0.40            137           70.0 276 
 BRR  HZ IP        326 53.69                             138   -0.0410 70.6  10 
 BRR  HN ES        327  6.15                             138    0.5410 70.6  10 
 BRR  HZ I         327  7.14        10.3 0.16            137           70.6  10 
 BAR2 SZ EP        326 54.17                             137   -0.0310 72.3  80 
 BAR2 SZ ES        327  6.37                             137   -0.0810 72.3  80 
 BAR2 SZ I         327  7.36        17.4 0.22            137           72.3  80 
 RUS  HZ IP     C  326 57.30                             126   -0.2310  105 128 
 RUS  HN ES        327 12.66                             126    0.2810  105 128 
 RUS  HZ I         327 14.94         5.9 0.28            126            105 128 
 NOR  HZ EP        327  2.17                             115   -0.01 9  154 229 
 NOR  HN ES   2    327 20.11                             115   -0.53 5  154 229 
 NOR  HZ I         327 23.58         8.5 0.16            114            154 229 
 HEL  HZ EP        327  7.42                             110    0.56 9  191 261 
 HEL  HN ES        327 29.64                             110    0.66 9  191 261 
 HEL  HZ I         327 33.12         5.7 0.30            109            191 261 
 GUY2CHZ EP   4    327 11.09                             107    0.74 0  220 231 
 GUY2CHN ES   4    327 32.59                             107   -2.60 0  220 231 
 SML  HZ EP        327 14.23                             104   -0.11 8  258 354 
 SML  HN ES        327 42.08                             104   -0.22 8  258 354 
 SML  HZ I         327 47.77         5.8 0.22            103            258 354 
                                                                                
