 2011  1 1 0811 55.3 L   6.771 -73.089146.5  RSN  7 0.4 1.6LRSN                1
 GAP=165        0.80       3.9    10.1  8.7 -0.1562E+02  0.2923E+02 -0.4757E+01E
 Epicentro: LOS SANTOS - SANTANDER                                             3
 ACTION:UP  11-02-08 08:37 OP:pat  STATUS:               ID:20110101081155 L   I
 2011-01-01-0806-29S.COL___135                                                 6
 STAT SP IPHASW D HRMM SECON CODA AMPLIT PERI AZIMU VELO SNR AR TRES W  DIS CAZ7
 BAR2 SZ EP   1    812 14.91                             171    -0.1 8   22 208 
 BAR2 SZ ES   2    812 30.74                             171     0.4 5   22 208 
 BAR2 SZ I         812 32.69         7.0 0.25                            22 208 
 RUS  HZ EP   1    812 19.25                             145     0.4 8   97 180 
 RUS  HN ES   1    812 36.93                             145    -0.3 8   97 180 
 RUS  HZ I         812 38.57         3.2 0.25                            97 180 
 GRA  SZ IP        812 20.71                             137     0.010  127  14 
 GRA  SZ ES   1    812 40.24                             137    -0.3 7  127  14 
 GRA  SZ I         812 43.30         7.5 0.44                           127  14 
 OCA  SZ EP   1    812 23.43                             129    -0.6 7  164 351 
 OCA  SZ ES   1    812 46.94                             129     0.5 7  164 351 
 OCA  SZ I         812 50.28        11.5 0.38                           164 351 
 NOR  SZ EP   2    812 31.02                             118    -0.4 4  238 236 
 NOR  SN ES   2    812 59.00                             118    -0.6 4  238 236 
 CHI  HZ EP   1    812 33.12                             117     0.3 6  247 197 
 CHI  HZ I         813  6.84         1.5 0.38                           247 197 
 HEL  HZ EP   2    812 36.84                             114     0.7 4  277 257 
 HEL  HZ I         813 14.61         3.7 0.34                           277 257 
                                                                                
