 2013  7 1 0151 35.6 L   6.806 -73.140147.3  RSN  8 0.5 1.8LRSN                1
 GAP=137        1.21       4.0     6.3  7.4 -0.3579E+01  0.3840E+01  0.2864E+01E
 Epicentro: LOS SANTOS - SANTANDER                                             3
 ACTION:UPD 13-08-12 10:34 OP:ep   STATUS:               ID:20130701015135 L   I
 OLDACT:UP  13-07-01 10:46 OP:stll STATUS:               ID:20130701014839     3
 OLDACT:REG 13-07-01 08:56 OP:stll STATUS:               ID:20130701014839     3
 2013-07-01-0148-39M.COL___230                                                 6
 STAT SP IPHASW D HRMM SECON CODA AMPLIT PERI AZIMU VELO AIN AR TRES W  DIS CAZ7
 BAR2 SZ EP        151 55.34                             170   -0.0510 24.1 191 
 BAR2 SZ I         151 55.47        10.3 0.42            168           24.1 191 
 BAR2 SZ ES        152 11.17                             170    0.3110 24.1 191 
 GIR2 SZ EP        151 55.44                             168    0.0410 30.7 349 
 BRR  HZ EP        151 57.18                             153    0.2910 71.5 298 
 BRR  HN ES        152 14.54                             153    1.0110 71.5 298 
 BRR  HN I         152 17.92        31.1 0.16            150           71.5 298 
 PAM  SZ EP        151 58.06                             151    0.1810 76.4  39 
 PAM  SN ES        152 15.00                             151   -0.2910 76.4  39 
 RUS  HZ EP        151 59.69                             144    0.1810  101 176 
 RUS  HN ES        152 17.50                             144   -0.6810  101 176 
 RUS  HN I         152 18.35         7.9 0.30            145            101 176 
 PTB  HZ EP        152  2.21                             132   -0.52 9  149 259 
 PTB  HN ES        152 23.25                             132   -0.66 9  149 259 
 PTB  HN I         152 28.60        11.3 0.42            131            149 259 
 OCA  HN EP        152  4.22                             130    0.28 9  160 353 
 OCA  HE ES        152 25.40                             130   -0.67 9  160 353 
 CHI  HZ EP        152 13.63                             117    0.19 8  249 195 
 CHI  HN ES        152 43.36                             117    0.39 8  249 195 
 CHI  HN I         152 46.10         3.3 0.46            118            249 195 
                                                                                
