 2010  7 1 0158 26.1 L   6.740 -73.067146.0  RSN  7 0.3 2.0LRSN                1
 GAP=196        0.72       5.1     8.6  6.7 -0.2185E+02 -0.1007E+02  0.2940E+01E
 Epicentro: JORDAN - SANTANDER                                                 3
 ACTION:UPD 10-12-01 15:14 OP:pat  STATUS:               ID:20100701015826 L   I
 2010-07-01-0156-53S.COL___118                                                 6
 STAT SP IPHASW D HRMM SECON CODA AMPLIT PERI AZIMU VELO AIN AR TRES W  DIS CAZ7
 BAR2 SZ EP        158 45.91                             172     0.210   21 218 
 BAR2 SZ ES   1    159  0.74                             172    -0.3 7   21 218 
 BRR  HZ EP        158 47.79                             150    -0.210   82 300 
 BRR  HZ I         158 48.01        31.4 0.18                            82 300 
 BRR  HN ES   1    159  5.31                             150     0.3 7   82 300 
 BRI  SZ EP   1    158 50.48                             141     0.2 7  112  15 
 GUE  SZ EP   1    158 50.91                             139    -0.4 7  122   7 
 GRA  SZ EP   1    158 51.67                             136    -0.1 7  130  13 
 GRA  SZ ES        159 12.11                             136     0.410  130  13 
 OCA  SZ EP   1    158 54.55                             129    -0.7 7  168 350 
 OCA  SZ ES   2    159 17.72                             129    -0.2 5  168 350 
 OCA  SZ I         159 24.79         7.9 0.29                           168 350 
 PRA  HZ EP   2    159 19.88                             107     0.4 3  391 211 
 PRA  HN ES   2    2 0  1.89                             107     0.8 3  391 211 
 PRA  HZ I         2 0  4.54         2.6 0.59                           391 211 
                                                                                
