 2016 10 1 0811 14.9 L   6.797 -73.103152.9  RSN  5 0.2 1.3LRSN                1
 GAP=242        0.64       3.9     5.0  6.4  0.9065E+01 -0.1992E+01 -0.4534E+00E
 Epicentro: LOS SANTOS - SANTANDER                                             3
 ACTION:UPD 16-11-09 19:15 OP:rebc STATUS:               ID:20161001081114 L   I
 OLDACT:UP  16-10-01 18:14 OP:dani STATUS:               ID:20161001080741     3
 OLDACT:REG 16-10-01 13:21 OP:dani STATUS:               ID:20161001080741     3
 2016-10-01-0808-00M.COL___357                                                 6
 STAT SP IPHASW D HRMM SECON CODA AMPLIT PERI AZIMU VELO AIN AR TRES W  DIS CAZ7
 BAR2 EZ EP        811 35.20                             171   -0.1610 24.3 201 
 BAR2 EZ I         811 51.98         4.1 0.20            173           24.3 201 
 BRR  HZ EP        811 37.13                             152    0.1110 75.5 297 
 BRR  HN ES        811 54.59                             152    0.2910 75.5 297 
 BRR  HZ I         811 57.96         3.7 0.50            155           75.5 297 
 RUS  HZ EP        811 39.17                             145   -0.1010  100 179 
 RUS  HE ES        811 58.16                             145   -0.1610  100 179 
 RUS  HZ I         811 59.35         1.2 0.21            146            100 179 
 SPBC HZ EP        811 44.54                             130    0.38 9  166 220 
 SPBC HN ES        812  7.05                             130    0.03 9  166 220 
 SPBC HZ I         812 12.03         5.2 0.11            132            166 220 
 ZAR  HE ES        812 13.83                             123   -0.43 8  209 292 
                                                                                
