 2011  5 1 0404 45.8 L   6.265 -73.675109.8  RSN  6 0.2 1.7LRSN                1
 GAP=118        0.43       2.5     2.4  6.0 -0.1644E+01  0.5797E+01 -0.1661E+01E
 Epicentro: SANTA HELENA DEL OPON - SANTANDER                                  3
 ACTION:UP  11-06-29 08:49 OP:tino STATUS:               ID:20110501040445 L   I
 2011-05-01-0401-32S.COL___128                                                 6
 STAT SP IPHASW D HRMM SECON CODA AMPLIT PERI AZIMU VELO SNR AR TRES W  DIS CAZ7
 BAR2 SZ EP   1    4 5  3.36                             147     0.2 7   65  56 
 BAR2 SZ ES   1    4 5 16.66                             147     0.0 7   65  56 
 BAR2 SZ I         4 5 18.25        38.3 0.10                            65  56 
 RUS  HZ EP   1    4 5  4.27                             142    -0.1 7   77 122 
 RUS  HE ES   1    4 5 18.93                             142     0.1 7   77 122 
 RUS  HZ I         4 5 20.02         7.0 0.29                            77 122 
 BRR  HZ EP        4 5  4.86                             136    -0.110   93 357 
 BRR  HZ I         4 5  5.19        12.2 0.06                            93 357 
 BRR  HE ES   1    4 5 19.76                             136    -0.1 7   93 357 
 NOR  SE ES   1    4 5 30.05                             121    -0.2 7  153 240 
 PAM  SN ES   1    4 5 32.62                             120     0.1 7  160  42 
 HEL  HN ES   2    4 5 41.56                             113     0.6 4  205 268 
 HEL  HZ I         4 5 43.61         5.0 0.22                           205 268 
                                                                                
