 2016 12 1 0421 34.2 L   6.696 -73.142146.7  RSN  4 0.1 1.2LRSN                1
 GAP=255        0.43       5.0     3.2  3.9  0.6081E+01  0.3156E+01  0.1155E+01E
 Epicentro: VILLANUEVA - SANTANDER                                             3
 ACTION:UPD 17-01-11 20:11 OP:rebc STATUS:               ID:20161201042134 L   I
 OLDACT:UP  16-12-01 15:03 OP:dani STATUS:               ID:20161201041742     3
 OLDACT:REG 16-12-01 13:04 OP:dani STATUS:               ID:20161201041742     3
 2016-12-01-0418-00M.COL___336                                                 6
 STAT SP IPHASW D HRMM SECON CODA AMPLIT PERI AZIMU VELO AIN AR TRES W  DIS CAZ7
 BAR2 EZ EP        421 53.68                             175   -0.0810 12.3 201 
 BAR2 EZ ES        422  9.00                             175   -0.0210 12.3 201 
 BRR  HZ EP        421 55.70                             151   -0.1110 77.7 306 
 BRR  HN ES        422 12.84                             151    0.1610 77.7 306 
 BRR  HZ I         422 16.88         2.1 0.18            146           77.7 306 
 PTB  HZ EP        422  1.36                             132    0.26 9  146 263 
 PTB  HN ES        422 22.00                             132   -0.10 9  146 263 
 PTB  HZ I         422 27.47         1.5 0.25            131            146 263 
 ZAR  HZ EP   4    422 10.30                             122    3.10 0  209 295 
 ZAR  HN ES        422 32.84                             122   -0.12 8  209 295 
 ZAR  HZ I         422 39.35         2.0 0.38            121            209 295 
                                                                                
