 2013  7 1 0429 44.5 L   6.816 -73.163145.5  RSN  8 0.4 1.9LRSN                1
 GAP=134        1.08       4.0     5.3  7.3 -0.5421E+01  0.2716E+01 -0.7826E+00E
 Epicentro: LOS SANTOS - SANTANDER                                             3
 ACTION:UPD 13-08-12 10:34 OP:ep   STATUS:               ID:20130701042944 L   I
 OLDACT:REG 13-07-01 09:00 OP:stll STATUS:               ID:20130701042848     3
 2013-07-01-0428-48M.COL___230                                                 6
 STAT SP IPHASW D HRMM SECON CODA AMPLIT PERI AZIMU VELO AIN AR TRES W  DIS CAZ7
 BAR2 SZ EP        430  4.09                             170    0.0110 24.8 185 
 BAR2 SZ I         430  4.36        14.3 0.32            169           24.8 185 
 BAR2 SZ ES        430 19.19                             170   -0.2010 24.8 185 
 GIR2 SZ EP        430  3.94                             168   -0.1010 29.3 353 
 BRR  HZ EP        430  5.85                             153    0.4210 68.7 298 
 BRR  HN ES        430 22.71                             153    0.9210 68.7 298 
 BRR  HN I         430 23.47        31.9 0.24            152           68.7 298 
 PAM  SZ EP        430  7.00                             151    0.3710 77.3  41 
 PAM  SN ES        430 23.75                             151   -0.1810 77.3  41 
 PAM  SN I         430 24.81        18.5 0.46            153           77.3  41 
 RUS  HZ EP        430  8.16                             143   -0.1510  102 175 
 RUS  HZ I         430  9.26         5.6 0.14            144            102 175 
 RUS  HE ES        430 26.82                             143   -0.1010  102 175 
 GRA  SZ EP        430  9.91                             137    0.3310  125  19 
 GRA  SZ ES        430 29.18                             137   -0.0010  125  19 
 PTB  HZ EP        430 11.06                             132   -0.20 9  146 258 
 PTB  HN ES        430 31.73                             132   -0.43 9  146 258 
 PTB  HN I         430 37.04        16.2 0.40            131            146 258 
 OCA  HN ES        430 33.59                             130   -0.89 9  158 354 
                                                                                
