 2011  1 1 0729 48.0 L   6.803 -73.161140.3  RSN  6 0.4 1.6LRSN                1
 GAP=157        0.93       4.3    13.5  9.5 -0.1668E+02  0.2789E+02 -0.6671E+01E
 Epicentro: LOS SANTOS - SANTANDER                                             3
 ACTION:UP  11-02-08 08:37 OP:pat  STATUS:               ID:20110101072948 L   I
 2011-01-01-0720-00M.COL___137                                                 6
 STAT SP IPHASW D HRMM SECON CODA AMPLIT PERI AZIMU VELO SNR AR TRES W  DIS CAZ7
 BAR2 SZ EP   1    730  7.48                             170     0.5 7   24 186 
 BAR2 SZ ES   1    730 21.48                             170    -0.3 7   24 186 
 BAR2 SZ I         730 23.59        14.5 0.22                            24 186 
 RUS  HZ EP   1    730 11.36                             142     0.1 7  101 175 
 RUS  HN ES   1    730 29.44                             142     0.1 7  101 175 
 RUS  HZ I         730 31.33         5.3 0.24                           101 175 
 GRA  SZ EP   1    730 13.05                             136     0.3 7  126  18 
 GRA  SZ I         730 33.75         4.3 0.62                           126  18 
 OCA  SZ EP   1    730 14.90                             128    -0.9 7  160 354 
 OCA  SZ ES   1    730 37.80                             128     0.3 7  160 354 
 OCA  SZ I         730 39.96         8.8 0.19                           160 354 
 NOR  SN ES   2    730 51.22                             117     0.4 4  234 234 
 CHI  HZ EP   1    730 25.53                             116     0.1 6  249 195 
 CHI  HE ES   1    730 54.11                             116    -0.4 6  249 195 
 CHI  HZ I         731  1.64         2.2 0.41                           249 195 
                                                                                
