 2015 10 1 0215 50.5 L   6.808 -73.157149.7  RSN  8 0.4 1.4LRSN                1
 GAP=135        0.94       4.1     4.3  6.9 -0.6207E+00  0.1791E+01  0.5887E+01E
 Epicentro: LOS SANTOS - SANTANDER                                             3
 ACTION:UPD 15-12-22 20:36 OP:cam  STATUS:               ID:20151001021550 L   I
 OLDACT:DUP 15-10-01 17:14 OP:spq  STATUS:               ID:20151001020740d    3
 2015-10-01-0207-37M.COL___358                                                 6
 STAT SP IPHASW D HRMM SECON CODA AMPLIT PERI AZIMU VELO AIN AR TRES W  DIS CAZ7
 BAR2 EZ EP        216 10.59                             170    0.0110 24.0 187 
 BAR2 EZ ES   1    216 25.88                             170   -0.39 7 24.0 187 
 BAR2 EZ I         216 26.63         5.4 0.24            170           24.0 187 
 BRR  HZ EP        216 12.21                             154    0.2510 69.7 298 
 BRR  HN ES        216 29.37                             154    0.6410 69.7 298 
 BRR  HZ I         216 34.22         3.9 0.16            151           69.7 298 
 PAM  EZ EP        216 13.44                             151    0.3310 77.5  41 
 PAM  EE ES   1    216 30.09                             151   -0.68 7 77.5  41 
 PAM  EZ I         216 33.21         3.0 0.56            155           77.5  41 
 RUS  HZ EP   1    216 14.94                             144    0.27 7  102 175 
 RUS  HN ES   1    216 33.41                             144   -0.14 7  102 175 
 RUS  HZ I         216 34.20         3.4 0.24            147            102 175 
 PTB  HZ EP        216 17.23                             133   -0.44 9  147 258 
 PTB  HN ES        216 38.39                             133   -0.49 9  147 258 
 PTB  HZ I         216 45.22         3.2 0.32            132            147 258 
 SPBC HZ EP        216 19.53                             130    0.27 9  163 218 
 SPBC HN ES        216 42.05                             130    0.33 9  163 218 
 SPBC HZ I         216 45.82         3.0 0.30            131            163 218 
 ZAR  HN ES        216 48.17                             123   -0.25 9  203 292 
 ZAR  HZ I         216 55.79         2.7 0.10            124            203 292 
 CHI  HZ EP   1    216 27.68                             118   -0.76 6  249 195 
 CHI  HE ES   1    216 58.25                             118    0.19 6  249 195 
 CHI  HZ I         217  1.33         1.3 0.28            120            249 195 
                                                                                
