 2011  4 1 0934  1.3 L   6.773 -73.151142.0  RSN 14 0.4 2.6LRSN                1
 GAP=114        0.80       3.3     4.9  6.2 -0.4389E+01  0.7157E+01  0.6504E+01E
 Epicentro: LOS SANTOS - SANTANDER                                             3
 ACTION:UP  11-06-22 15:27 OP:REBC STATUS:               ID:20110401093401 L   I
 2011-04-01-0932-27S.COL___138                                                 6
 STAT SP IPHASW D HRMM SECON CODA AMPLIT PERI AZIMU VELO SNR AR TRES W  DIS CAZ7
 BAR2 SZ IP        934 20.30                             171    -0.110   20 190 
 BAR2 SZ ES   2    934 34.91                             171    -0.4 5   20 190 
 BAR2 SZ I         934 36.75       182.0 0.17                            20 190 
 BTL  SZ EP        934 20.36                             171    -0.110   21 321 
 BTL  SZ ES   2    934 35.51                             171     0.2 5   21 321 
 BRR  HZ EP        934 22.15                             151     0.110   72 301 
 BRR  HN ES   2    934 39.22                             151     0.9 5   72 301 
 BRR  HZ I         934 41.56       105.4 0.13                            72 301 
 PAM  SZ EP   1    934 23.24                             149     0.0 7   80  39 
 PAM  SN ES   2    934 39.45                             149    -1.0 5   80  39 
 GRA  SZ IP        934 27.06                             135     0.610  129  17 
 GRA  SZ ES   1    934 46.06                             135     0.0 7  129  17 
 GRA  SZ I         934 48.13        39.9 0.40                           129  17 
 OCA  SZ EP        934 29.12                             128    -0.5 9  163 353 
 OCA  SZ ES   2    934 51.77                             128     0.1 5  163 353 
 OCA  SZ I         934 54.03        52.3 0.26                           163 353 
 YOP  SZ EP   1    934 30.97                             126     0.1 7  177 153 
 YOP  SN ES   2    934 54.09                             126     0.2 4  177 153 
 YOP  SZ I         934 55.72        37.5 0.45                           177 153 
 NOR  SZ EP        934 36.15                             118    -0.4 8  232 235 
 NOR  SE ES   2    935  3.75                             118    -0.3 4  232 235 
 CHI  HZ IP     D  934 38.53                             117     0.1 8  246 195 
 CHI  HN ES   2    935  7.62                             117     0.2 4  246 195 
 CHI  HZ I         935 14.94        21.6 0.36                           246 195 
 HEL  HZ EP   1    934 41.54                             114     0.4 6  271 256 
 HEL  HN ES   2    935 11.61                             114    -0.7 4  271 256 
 HEL  HZ I         935 21.36        23.6 0.45                           271 256 
 VIL  SZ EP   1    934 44.09                             112    -0.1 5  300 192 
 VIL  SZ I         935 24.12        16.9 0.48                           300 192 
 RREF HZ EP   1    934 47.74                             110     0.8 5  319 230 
 RREF HN ES   2    935 23.49                             110     0.9 3  319 230 
 RREF HZ I         935 29.81        25.9 0.27                           319 230 
 DBB  SZ EP   1    934 48.36                             109    -0.2 5  339 275 
 PRA  HZ EP   1    934 53.83                             106    -0.5 4  389 210 
 PRA  HN ES   2    935 35.26                             106    -0.5 3  389 210 
                                                                                
