 2017  7 1 0930 57.3 L   6.776 -73.125148.0  RSN  4 0.4 1.6LRSN                1
 GAP=258        0.52       7.0     5.2  5.4  0.1816E+02  0.7312E+01 -0.7882E+01E
 Epicentro: LOS SANTOS - SANTANDER                                             3
 ACTION:UPD 17-08-30 15:28 OP:rebc STATUS:               ID:20170701093057 L   I
 OLDACT:UP  17-07-01 16:37 OP:and  STATUS:               ID:20170701092744     3
 OLDACT:REG 17-07-01 12:55 OP:and  STATUS:               ID:20170701092744     3
 2017-07-01-0928-00M.COL___371                                                 6
 STAT SP IPHASW D HRMM SECON CODA AMPLIT PERI AZIMU VELO AIN AR TRES W  DIS CAZ7
 BAR2 EZ EP        931 16.98                             172   -0.1910 21.3 197 
 BAR2 EZ ES        931 32.78                             172    0.1210 21.3 197 
 BAR2 EZ I         931 33.44        10.1 0.26            160           21.3 197 
 BRR  HZ EP        931 18.81                             152   -0.0710 74.5 299 
 BRR  HN ES   2    931 36.17                             152    0.46 5 74.5 299 
 ZAR  HZ EP        931 30.33                             123    0.11 8  207 293 
 ZAR  HN ES        931 55.77                             123   -0.12 8  207 293 
 ZAR  HZ I         931 58.08         3.7 0.30            121            207 293 
 NOR  HZ EP   3    931 34.86                             119    1.65 2  235 235 
 NOR  HN ES   2    932  0.99                             119   -0.22 4  235 235 
 NOR  HZ I         932  7.30         2.4 0.30            116            235 235 
                                                                                
