 2011  2 1 0743 14.9 L   6.769 -73.157142.0  RSN  8 0.3 2.0LRSN                1
 GAP=158        0.53       3.3     6.8  6.2 -0.1297E+02  0.2302E+02 -0.7841E+01E
 Epicentro: LOS SANTOS - SANTANDER                                             3
 ACTION:UP  11-03-28 15:05 OP:jfem STATUS:               ID:20110201074314 L   I
 2011-02-01-0740-07S.COL___138                                                 6
 STAT SP IPHASW D HRMM SECON CODA AMPLIT PERI AZIMU VELO SNR AR TRES W  DIS CAZ7
 BAR2 SZ EP        743 33.79                             172    -0.210   20 188 
 BAR2 SZ ES   1    743 49.03                             172     0.1 7   20 188 
 BAR2 SZ I         743 50.70        20.8 0.22                            20 188 
 BTL  SZ EP        743 34.10                             171     0.110   21 324 
 RUS  HZ EP   2    743 37.90                             144    -0.1 5   97 175 
 RUS  HE ES   1    743 56.15                             144     0.1 7   97 175 
 RUS  HZ I         743 57.82        13.2 0.32                            97 175 
 GRA  SZ EP   1    743 39.91                             136    -0.2 7  129  18 
 GRA  SZ ES   1    743 60.00                             136     0.2 7  129  18 
 GRA  SZ I         744  1.63        12.1 0.36                           129  18 
 OCA  SZ EP   2    743 42.97                             128    -0.2 5  163 354 
 OCA  SZ ES   2    744  5.07                             128    -0.2 5  163 354 
 OCA  SZ I         744 10.00         9.2 0.40                           163 354 
 NOR  SZ EP   2    743 49.74                             118    -0.3 4  232 235 
 NOR  SE ES   2    744 17.47                             118    -0.1 4  232 235 
 HEL  HZ EP   2    743 55.48                             114     0.8 4  270 256 
 HEL  HZ I         744 33.73         5.2 0.49                           270 256 
 RREF HZ EP   2    744  1.19                             111     0.7 3  319 230 
 RREF HN ES   2    744 35.58                             111    -0.5 3  319 230 
 RREF HZ I         744 44.86         5.8 0.47                           319 230 
                                                                                
