 2014  1 1 0642 30.7 L   6.751 -73.158143.9  RSN  5 0.3 1.6LRSN                1
 GAP=137        0.83       4.8     4.4  6.5 -0.3904E+01  0.6126E+01 -0.3757E+01E
 Epicentro: LOS SANTOS - SANTANDER                                             3
 ACTION:UPD 14-03-13 09:50 OP:ep   STATUS:               ID:20140101064230 L   I
 OLDACT:REG 14-01-01 09:30 OP:stll STATUS:               ID:20140101063807     3
 2014-01-01-0638-07M.COL___231                                                 6
 STAT SP IPHASW D HRMM SECON CODA AMPLIT PERI AZIMU VELO AIN AR TRES W  DIS CAZ7
 BAR2 SZ EP        642 50.18                             173    0.1610 17.8 189 
 BAR2 SZ ES        643  5.21                             173    0.1310 17.8 189 
 BAR2 SZ I         643  5.87        15.4 0.30            173           17.8 189 
 BRR  HZ EP        642 52.12                             152    0.3710 72.8 303 
 BRR  HN ES        643  8.38                             152    0.2110 72.8 303 
 BRR  HZ I         643 11.72         4.2 0.38            150           72.8 303 
 PAM  SZ EP        642 53.32                             149    0.2710 82.5  38 
 PAM  SZ I         642 53.43         9.7 0.16            150           82.5  38 
 PAM  SN ES        643  9.96                             149   -0.5110 82.5  38 
 RUS  HN ES        643 11.95                             145   -0.0510 95.3 175 
 PTB  HZ EP        642 56.77                             132   -0.55 9  145 261 
 PTB  HN ES        643 17.95                             132   -0.12 9  145 261 
 PTB  HZ I         643 21.30         4.2 0.14            132            145 261 
                                                                                
