 2015  6 1 0535 22.3 L   6.832 -73.117142.0  RSN  7 0.4 1.4LRSN                1
 GAP=139        0.97       3.3     5.3  6.0 -0.3637E+01  0.1104E+02 -0.1322E+01E
 Epicentro: LOS SANTOS - SANTANDER                                             3
 ACTION:UPD 15-09-10 22:08 OP:cam  STATUS:               ID:20150601053522 L   I
 OLDACT:REG 15-06-01 13:15 OP:ak   STATUS:               ID:20150601052739     3
 2015-06-01-0527-39M.COL___303                                                 6
 STAT SP IPHASW D HRMM SECON CODA AMPLIT PERI AZIMU VELO AIN AR TRES W  DIS CAZ7
 BAR2 EZ EP        535 41.44                             169   -0.1510 27.5 195 
 BAR2 EZ ES        535 56.63                             169    0.0010 27.5 195 
 BAR2 EZ I         535 57.78         6.9 0.20            169           27.5 195 
 BRR  HZ EP        535 43.22                             151    0.0810 72.5 295 
 BRR  HN ES        535 59.35                             151   -0.0310 72.5 295 
 BRR  HZ I         536  4.41         4.2 0.14            149           72.5 295 
 PAM  SZ IP     C  535 44.39                             151    0.5310 72.6  39 
 PAM  SN ES        536  0.97                             151    0.3210 72.6  39 
 PAM  SZ I         536  3.72         3.7 0.43            154           72.6  39 
 RUS  HZ EP        535 45.85                             142   -0.1010  104 178 
 RUS  HN ES        536  4.17                             142   -0.2210  104 178 
 RUS  HZ I         536  6.26         2.9 0.23            146            104 178 
 SPBC HZ EP        535 50.69                             127   -0.30 9  168 219 
 SPBC HN ES        536 12.82                             127   -0.53 9  168 219 
 SPBC HZ I         536 18.30         4.6 0.20            129            168 219 
 SML  HZ EP        535 57.80                             117   -0.74 8  242 334 
 SML  HN ES        536 26.67                             117   -0.12 8  242 334 
 SML  HZ I         536 34.46         2.4 0.07            118            242 334 
 GUY2CHZ EP        536  7.01                             111    0.73 7  306 235 
 GUY2CHN ES        536 41.44                             111    0.86 7  306 235 
                                                                                
