 2014 10 1 0026 50.6 L   6.759 -73.160149.1  RSN  5 0.3 1.6LRSN                1
 GAP=233        0.68       4.1     4.4  5.0  0.3789E+01  0.2650E+01  0.1756E+01E
 Epicentro: LOS SANTOS - SANTANDER                                             3
 ACTION:UPD 14-11-29 23:45 OP:nd   STATUS:               ID:20141001002650 L   I
 OLDACT:DUP 14-10-01 16:34 OP:stll STATUS:               ID:20141001001821d    3
 2014-10-01-0018-19M.COL___289                                                 6
 STAT SP IPHASW D HRMM SECON CODA AMPLIT PERI AZIMU VELO AIN AR TRES W  DIS CAZ7
 BAR2 SZ EP        027 10.51                             173   -0.0610 18.6 188 
 BAR2 SZ ES        027 25.71                             173   -0.4210 18.6 188 
 BAR2 SZ I         027 26.99        16.0 0.12            171           18.6 188 
 BRR  HZ EP        027 12.30                             153    0.1210 72.1 302 
 BRR  HN ES        027 29.37                             153    0.3710 72.1 302 
 BRR  HZ I         027 33.01         7.3 0.68            154           72.1 302 
 RUS  HZ EP        027 14.27                             146   -0.1310 96.2 175 
 RUS  HN ES        027 33.22                             146    0.2810 96.2 175 
 RUS  HZ I         027 35.93         2.7 0.32            147           96.2 175 
 PTB  HZ EP        027 17.36                             133   -0.29 9  145 260 
 PTB  HN ES        027 38.55                             133   -0.19 9  145 260 
 PTB  HZ I         027 40.38         4.2 0.10            134            145 260 
 SPBC HZ EP        027 19.26                             131    0.30 9  159 220 
 SPBC HN ES        027 41.07                             131    0.01 9  159 220 
 SPBC HZ I         027 44.15         7.4 0.26            132            159 220 
                                                                                
