 2015  8 1 0251 26.1 L   6.821 -73.110144.0  RSN 10 0.4 1.7LRSN                1
 GAP=204        0.95       3.6     4.9  5.7  0.1986E+01  0.1054E+02 -0.2717E-01E
 Epicentro: LOS SANTOS - SANTANDER                                             3
 ACTION:UPD 15-09-15 22:59 OP:cam  STATUS:               ID:20150801025126 L   I
 OLDACT:REG 15-08-01 12:10 OP:drio STATUS:               ID:20150801024748     3
 2015-08-01-0247-48M.COL___352                                                 6
 STAT SP IPHASW D HRMM SECON CODA AMPLIT PERI AZIMU VELO AIN AR TRES W  DIS CAZ7
 BAR2 EZ EP        251 45.52                             169   -0.0310 26.5 198 
 BAR2 EZ ES        252  0.59                             169   -0.1610 26.5 198 
 BAR2 EZ I         252  3.79        11.6 0.30            168           26.5 198 
 BRR  HZ EP     D  251 47.40                             151    0.2410 73.7 295 
 BRR  HN ES        252  4.37                             151    0.7510 73.7 295 
 BRR  HZ I         252  9.21         6.2 0.24            150           73.7 295 
 RUS  HZ EP        251 49.31                             143   -0.4810  103 178 
 RUS  HE ES        252  8.40                             143    0.1010  103 178 
 RUS  HZ I         252 10.93         6.5 0.40            146            103 178 
 ZAR  HN ES        252 23.93                             122   -0.21 8  207 291 
 NOR  HZ EP        252  2.06                             118   -0.12 8  239 235 
 NOR  HN ES        252 30.00                             118   -0.36 8  239 235 
 NOR  HZ I         252 35.03         6.1 0.28            120            239 235 
 SML  HZ EP        252  2.70                             117    0.15 8  243 334 
 SML  HN ES        252 30.31                             117   -0.69 8  243 334 
 SML  HZ I         252 37.69         8.7 0.24            119            243 334 
 HEL  HZ EP        252  6.92                             114    0.24 7  277 256 
 HEL  HE ES        252 37.74                             114   -0.62 7  277 256 
 HEL  HZ I         252 44.49         4.5 0.40            116            277 256 
 GUY2CHZ EP        252 10.32                             112    0.21 7  306 235 
 GUY2CHE ES        252 44.75                             112    0.29 7  306 235 
 GUY2CHZ I         252 49.68         3.0 0.28                           306 235 
 CBOC HZ EP        252 14.24                             109    0.82 7  338 252 
 CBOC HN ES   4    252 49.34                             109   -1.02 0  338 252 
 CBOC HZ I         252 57.58         1.2 0.46            111            338 252 
 MON  HE ES   4    252 52.01                             108   -1.51 0  355 308 
 MON  HZ I         252 53.60         1.1 0.30            110            355 308 
                                                                                
