 2016  2 1 0921 27.0 L   6.788 -73.247136.0  RSN  9 0.4 1.6LRSN                1
 GAP=117        0.56       5.3     4.7  8.1 -0.9645E+00  0.1361E+02 -0.9051E+01E
 Epicentro: ZAPATOCA - SANTANDER                                               3
 ACTION:UPD 16-03-04 21:22 OP:rebc STATUS:               ID:20160201092128dL   I
 OLDACT:DUP 16-02-01 19:39 OP:dnl  STATUS:               ID:20160201090203d    3
 2016-02-01-0910-00M.COL___397                                                 6
 STAT SP IPHASW D HRMM SECON CODA AMPLIT PERI AZIMU VELO AIN AR TRES W  DIS CAZ7
 BAR2 EZ EP     C  921 45.78                             170    0.3710 22.8 162 
 BAR2 EZ ES   2    921 59.97                             170    0.18 5 22.8 162 
 BAR2 EZ I         922  2.06         7.6 0.23            144           22.8 162 
 PAM  EZ EP   2    921 48.47                             146   -0.23 5 85.9  45 
 PAM  EE ES   2    922  5.22                             146   -0.44 5 85.9  45 
 PAM  EZ I         922  7.02         6.4 0.18            127           85.9  45 
 RUS  HZ EP   2    921 49.73                             142   -0.04 5  101 170 
 RUS  HE ES   2    922  7.15                             142   -0.41 5  101 170 
 RUS  HZ I         922  9.78         3.7 0.33            109            101 170 
 PTB  HZ EP   2    921 52.29                             132    0.17 5  137 258 
 PTB  HN ES   2    922 11.22                             132   -0.52 5  137 258 
 PTB  HZ I         922 16.22         5.2 0.11            102            137 258 
 ZAR  HZ EP   4    921 58.80                             121    1.03 0  194 294 
 ZAR  HN ES   2    922 22.22                             121    0.43 4  194 294 
 ZAR  HZ I         922 30.26         4.7 0.24             99            194 294 
 SML  HZ EP   2    922  2.38                             116   -0.32 4  240 338 
 SML  HN ES   4    922 28.99                             116   -1.59 0  240 338 
 SML  HZ I         922 33.90         3.8 0.08             97            240 338 
 HEL  HZ EP   2    922  4.84                             114   -0.61 4  261 255 
 HEL  HZ I         922 44.52         2.3 0.33             96            261 255 
 GUY2CHZ EP   4    922 10.84                             111    1.83 0  291 234 
 GUY2CHN ES   4    922 43.66                             111    1.84 0  291 234 
 GUY2CHZ I         922 52.61         1.6 0.24                           291 234 
 CBOC HZ EP   4    922 14.40                             109    2.19 0  323 252 
 CBOC HZ I         922 48.21         2.4 0.21             94            323 252 
                                                                                
