 2011  9 1 0440  0.1 L   6.724 -73.084153.7  RSN  4 0.1 1.5LRSN                1
 GAP=197        0.32       7.4    10.5  5.2  0.6324E+02 -0.2648E+02 -0.2005E+02E
 Epicentro: JORDAN - SANTANDER                                                 3
 ACTION:UPD 12-07-13 15:54 OP:ep   STATUS:               ID:20110901044001dL   I
 2011-09-01-0434-10S.COL___168                                                 6
 STAT SP IPHASW D HRMM SECON CODA AMPLIT PERI AZIMU VELO AIN AR TRES W  DIS CAZ7
 BAR2 SZ EP   1    440 20.69                             173    0.08 7 18.1 217 
 BAR2 SZ ES   1    440 36.65                             173    0.05 7 18.1 217 
 BAR2 SZ I         440 37.67         5.3 0.37                          18.1 217 
 GIR2 SZ EP   2    440 20.84                             164   -0.18 5 41.1 343 
 BRR  HZ EP   1    440 22.74                             151    0.04 7 81.3 301 
 BRR  HZ I         440 23.03        10.6 0.17                          81.3 301 
 BRR  HE ES   1    440 40.28                             151   -0.04 7 81.3 301 
 RUS  HN ES   2    440 42.64                             148   -0.11 5 91.9 180 
 RUS  HZ I         440 54.69         3.3 0.40                          91.9 180 
                                                                                
