 2013  1 1 0927 22.3 L   6.864 -73.125149.1  RSN  6 0.5 1.7LRSN                1
 GAP=186        1.25       5.7     7.3 10.0  0.1318E+02  0.8023E+01 -0.1443E+01E
 Epicentro: LOS SANTOS - SANTANDER                                             3
 ACTION:UPD 13-02-15 09:11 OP:ep   STATUS:               ID:20130101092722 L   I
 2013-01-01-0920-00M.COL___242                                                 6
 STAT SP IPHASW D HRMM SECON CODA AMPLIT PERI AZIMU VELO AIN AR TRES W  DIS CAZ7
 BAR2 SZ EP        927 42.54                             168    0.0910 30.7 192 
 BAR2 SZ ES        927 58.18                             168   -0.0310 30.7 192 
 BRR  HZ EP        927 44.30                             153    0.5910 70.2 293 
 BRR  HN ES        928  1.04                             153    0.6010 70.2 293 
 BRR  HN I         928  1.66        10.3 0.20            152           70.2 293 
 RUS  HZ EP        927 47.35                             143    0.5110  108 178 
 RUS  HN ES        928  5.57                             143   -0.4510  108 178 
 RUS  HN I         928  7.29         1.9 0.34            145            108 178 
 PTB  HZ EP        927 49.14                             132   -0.69 9  151 256 
 PTB  HN ES        928 10.91                             132   -0.43 9  151 256 
 PTB  HN I         928 12.24         8.4 0.20            132            151 256 
 OCA  HN ES        928 11.33                             132   -0.67 9  154 352 
 OCA  HN I         928 16.33         9.5 0.14            131            154 352 
 ZAR  HN ES        928 20.61                             123    0.30 9  204 290 
 ZAR  HN I         928 25.71         5.6 0.40            123            204 290 
                                                                                
