 2014  1 1 0107 44.4 L   6.453 -73.613103.1  RSN  4 0.2 1.5LRSN                1
 GAP=139        0.62       3.5     2.9  6.0  0.4332E+01  0.5213E+01  0.5416E+01E
 Epicentro: SANTA HELENA DEL OPON - SANTANDER                                  3
 ACTION:UPD 14-03-13 09:50 OP:ep   STATUS:               ID:20140101010744 L   I
 OLDACT:REG 14-01-01 09:09 OP:stll STATUS:               ID:20140101005816     3
 2014-01-01-0058-16M.COL___240                                                 6
 STAT SP IPHASW D HRMM SECON CODA AMPLIT PERI AZIMU VELO AIN AR TRES W  DIS CAZ7
 BAR2 SZ EP        1 8  0.10                             152   -0.0110 50.1  72 
 BAR2 SZ ES        1 8 12.40                             152    0.0510 50.1  72 
 BAR2 SZ I         1 8 13.74        32.0 0.44            151           50.1  72 
 BRR  HZ EP        1 8  0.96                             142   -0.3510 73.1 351 
 BRR  HE ES        1 8 14.64                             142    0.1610 73.1 351 
 BRR  HZ I         1 8 21.34         4.5 0.18            139           73.1 351 
 RUS  HZ EP     D  1 8  3.37                             138    0.4010 85.4 137 
 RUS  HE ES        1 8 17.17                             138   -0.2610 85.4 137 
 PTB  HZ EP        1 8  3.00                             134   -0.0310 93.7 276 
 PTB  HZ I         1 8  3.19         5.7 0.28            136           93.7 276 
 PTB  HN ES        1 8 17.56                             134    0.0310 93.7 276 
                                                                                
