 2013  4 1 0044 34.1 L   6.789 -73.191147.8  RSN 12 0.5 2.1LRSN                1
 GAP=131        1.01       3.9     4.5  5.9 -0.4096E+01  0.5464E+01  0.3094E+01E
 Epicentro: ZAPATOCA - SANTANDER                                               3
 ACTION:UPD 13-05-22 14:34 OP:EP   STATUS:               ID:20130401004434 L   I
 2013-04-01-0040-00M.COL___245                                                 6
 STAT SP IPHASW D HRMM SECON CODA AMPLIT PERI AZIMU VELO AIN AR TRES W  DIS CAZ7
 BAR2 SZ EP        044 54.06                             171    0.1310 21.8 178 
 BAR2 SZ ES        045  8.90                             171   -0.5110 21.8 178 
 BAR2 SZ I         045 10.28        68.7 0.24            172           21.8 178 
 BRR  HZ EP        044 55.83                             154    0.5810 67.5 301 
 BRR  HN ES        045 12.43                             154    0.6710 67.5 301 
 BRR  HZ I         045 17.87        24.7 0.20            149           67.5 301 
 PAM  SZ EP        044 57.08                             150    0.3210 81.5  42 
 PAM  SN ES        045 14.05                             150   -0.4110 81.5  42 
 PAM  SZ I         045 15.74         8.4 0.30            152           81.5  42 
 RUS  HZ EP        044 58.06                             144    0.0810 99.9 173 
 PTB  HZ EP        045  0.56                             133   -0.20 9  143 259 
 PTB  HN ES   1    045 21.64                             133    0.07 7  143 259 
 PTB  HZ I         045 23.63        15.6 0.10            132            143 259 
 OCA  HZ EP   1    045  2.98                             130    0.37 7  161 355 
 OCA  HN ES   1    045 24.59                             130   -0.28 7  161 355 
 OCA  HZ I         045 33.15         9.0 0.32            129            161 355 
 ZAR  HN ES   1    045 31.17                             123   -0.15 6  200 293 
 ZAR  HZ I         045 37.63        13.6 0.15            122            200 293 
 NOR  HZ EP        045 10.09                             119    0.67 8  230 234 
 NOR  HN ES   1    045 36.69                             119   -0.30 6  230 234 
 NOR  HZ I         045 40.94        10.7 0.22            120            230 234 
 SML  HZ EP   1    045  9.70                             118   -1.02 6  243 336 
 SML  HN ES   1    045 38.43                             118   -0.87 6  243 336 
 HEL  HZ EP   4    045 15.50                             116    1.67 0  267 256 
 HEL  HN ES   1    045 44.43                             116   -0.41 6  267 256 
 HEL  HZ I         045 53.73         6.8 0.32            115            267 256 
 COD  HZ EP   1    045 22.68                             109    0.06 5  349 355 
 COD  HN ES   4    046  0.13                             109   -0.36 0  349 355 
 PRA  HZ EP        045 27.15                             107   -0.11 6  389 209 
 PRA  HN ES   1    046  7.76                             107   -0.99 4  389 209 
 PRA  HZ I         046 14.26         6.8 0.66            108            389 209 
                                                                                
