 2016  9 1 0125 32.5 L   6.801 -73.142146.4  RSN  6 0.5 1.5LRSN                1
 GAP=238        1.25       7.8     7.3  9.8  0.2362E+02  0.2026E+02  0.9825E+01E
 Epicentro: LOS SANTOS - SANTANDER                                             3
 ACTION:UPD 17-08-17 21:05 OP:lp   STATUS:               ID:20160901012532 L   I
 OLDACT:UP  16-09-01 14:04 OP:drio STATUS:               ID:20160901011736d    3
 OLDACT:DUP 16-09-01 13:56 OP:drio STATUS:               ID:20160901011736d    3
 OLDACT:UP  16-09-01 13:53 OP:drio STATUS:               ID:20160901011735d    3
 OLDACT:DUP 16-09-01 13:27 OP:drio STATUS:               ID:20160901011735d    3
 2016-09-01-0118-00M.COL___359                                                 6
 STAT SP IPHASW D HRMM SECON CODA AMPLIT PERI AZIMU VELO AIN AR TRES W  DIS CAZ7
 BAR2 EZ EP        125 52.57                             171    0.3110 23.5 191 
 BAR2 EZ ES        126  7.06                             171   -0.5710 23.5 191 
 BAR2 EZ I         126  8.33         9.3 0.42            168           23.5 191 
 BRR  HZ EP        125 54.09                             153    0.3110 71.5 298 
 BRR  HN ES        126 10.96                             153    0.6110 71.5 298 
 RUS  HZ EP        125 56.34                             144   -0.0210  101 176 
 RUS  HN ES        126 15.15                             144    0.2110  101 176 
 RUS  HZ I         126 16.75         3.5 0.34            143            101 176 
 PTB  HZ EP        125 58.73                             132   -0.88 9  148 259 
 PTB  HE ES        126 20.14                             132   -0.57 9  148 259 
 PTB  HZ I         126 24.70         3.2 0.16            132            148 259 
 ZAR  HZ EP   4    126  6.56                             122    1.49 0  204 292 
 ZAR  HE ES        126 30.45                             122    0.01 9  204 292 
 GUY2CHZ EP   4    126 18.34                             112    2.11 0  302 235 
 GUY2CHE ES        126 51.11                             112    0.81 7  302 235 
 GUY2CHZ I         126 58.32         1.3 0.60                           302 235 
                                                                                
