 2012  9 1 0138 21.8 L   6.734 -73.120146.7  RSN  6 0.3 1.5LRSN                1
 GAP=143        0.36       5.5     6.0  4.3  0.1813E+02 -0.3010E+00  0.1384E+01E
 Epicentro: JORDAN - SANTANDER                                                 3
 ACTION:UPD 12-10-22 14:16 OP:ep   STATUS:               ID:20120901013821 L   I
 2012-09-01-0130-00M.COL___218                                                 6
 STAT SP IPHASW D HRMM SECON CODA AMPLIT PERI AZIMU VELO AIN AR TRES W  DIS CAZ7
 BAR2 SZ EP        138 41.33                             173   -0.0610 17.1 204 
 BAR2 SZ ES   1    138 56.71                             173    0.00 7 17.1 204 
 BAR2 SZ I         138 57.68        10.7 0.28                          17.1 204 
 GIR2 SZ EP   3    138 41.89                             164    0.12 2 39.0 348 
 GIR2 SZ ES   3    138 57.28                             164   -0.11 2 39.0 348 
 BRR  HZ EP        138 43.46                             151    0.0910 77.3 302 
 BRR  HZ I         138 43.73         8.8 0.14                          77.3 302 
 BRR  HN ES   1    139  0.31                             151    0.09 7 77.3 302 
 PAM  SN ES   3    139  1.21                             150   -0.72 2 81.6  35 
 RUS  HZ EP   2    138 45.18                             146    0.10 5 93.1 177 
 RUS  HN ES   3    139  3.57                             146    0.30 2 93.1 177 
 RUS  HZ I         139  6.54         1.9 0.38                          93.1 177 
 PTB  HZ EP   3    138 48.47                             132   -0.47 2  149 262 
 PTB  HN ES   3    139  9.12                             132   -1.02 2  149 262 
                                                                                
