 2017 12 1 0642 23.6 L   6.804 -73.173136.0  RSN 15 0.7 1.7LRSN                1
 GAP=133        1.49       3.5     5.4  7.9 -0.5122E+01  0.1759E+02 -0.4451E+01E
 Epicentro: LOS SANTOS - SANTANDER                                             3
 ACTION:UPD 18-01-04 13:16 OP:rebc STATUS:               ID:20171201064223 L   I
 OLDACT:REG 17-12-01 12:53 OP:dhb  STATUS:               ID:20171201063738     3
 2017-12-01-0638-00M.COL___489                                                 6
 STAT SP IPHASW D HRMM SECON CODA AMPLIT PERI AZIMU VELO AIN AR TRES W  DIS CAZ7
 BAR2 EZ EP        642 41.66                             170   -0.3710 23.5 183 
 BAR2 EZ ES        642 56.33                             170   -0.1010 23.5 183 
 BAR2 EZ I         642 57.85        16.0 0.28            168           23.5 183 
 PAM  EZ EP        642 44.60                             148   -0.2610 78.9  41 
 PAM  EN ES        643  1.43                             148   -0.0310 78.9  41 
 PAM  EZ I         643  3.74         8.7 0.50            153           78.9  41 
 RUS  HZ EP        642 45.76                             141   -0.6710  101 174 
 RUS  HN ES        643  4.56                             141    0.3010  101 174 
 RUS  HZ I         643  5.97         4.0 0.54            146            101 174 
 PTB  HZ EP        642 48.42                             130   -1.08 9  145 258 
 PTB  HN ES        643  9.11                             130   -0.61 9  145 258 
 PTB  HZ I         643 12.52         4.2 0.30            129            145 258 
 OCA  HZ EP        642 52.03                             127    0.97 9  159 354 
 OCA  HE ES        643 13.00                             127    0.50 9  159 354 
 OCA  HZ I         643 21.08        14.3 0.16            128            159 354 
 SPBC HZ EP        642 50.59                             127   -0.61 9  162 218 
 SPBC HN ES        643 12.52                             127   -0.22 9  162 218 
 SPBC HZ I         643 17.62         8.3 0.22            128            162 218 
 ZAR  HZ EP        642 55.10                             120    0.01 9  201 292 
 ZAR  HN ES        643 19.97                             120    0.30 9  201 292 
 ZAR  HZ I         643 25.51         5.0 0.36            120            201 292 
 NOR  HN ES        643 25.96                             117    0.18 8  233 234 
 NOR  HZ I         643 34.50         3.2 0.34            117            233 234 
 CHI  HZ EP        643  0.41                             115   -0.31 8  248 194 
 CHI  HE ES        643 30.90                             115    1.21 8  248 194 
 CHI  HZ I         643 31.85         1.9 0.30            117            248 194 
 URE  HZ EP        643  3.93                             112    0.08 7  281 292 
 URE  HE ES   3    643 32.93                             112   -2.34 2  281 292 
 URE  HZ I         643 45.48         3.8 0.38            112            281 292 
 DRL03HZ EP        643  4.63                             111   -0.01 7  288 353 
 DRL03HE ES        643 37.56                             111    0.90 7  288 353 
 GUY2CHE ES        643 42.21                             110    2.22 7  299 234 
 GUY2CHZ I         643 49.55         3.0 0.64                           299 234 
 CBOC HZ EP        643  9.98                             108    0.19 7  331 252 
 CBOC HE ES        643 45.31                             108   -0.53 7  331 252 
 CBOC HZ I         644  2.86         0.9 0.42            109            331 252 
 PRA  HZ EP        643 16.04                             105   -0.61 6  391 209 
 PRA  HE ES        643 58.87                             105    0.82 6  391 209 
 PRA  HZ I         644  3.18         1.8 0.28            107            391 209 
 SJC  HZ EP        643 18.08                             104   -0.51 6  407 327 
 SJC  HN ES        644  0.97                             104   -0.53 6  407 327 
 SJC  HZ I         644 10.88         1.4 0.44            105            407 327 
                                                                                
