 2010  3 1 0423 14.4 L   6.798 -73.068144.8  RSN  7 0.3 1.8LRSN                1
 GAP=191        0.66       3.0     6.6  5.4  0.2197E+00 -0.2429E+01  0.4858E+01E
 Epicentro: LOS SANTOS - SANTANDER                                             3
 ACTION:UP  10-08-24 09:51 OP:vdl  STATUS:               ID:20100301042314 L   I
 2010-03-01-0419-30S.COL___093                                                 6
 STAT SP IPHASW D HRMM SECON CODA AMPLIT PERI AZIMU VELO SNR AR TRES W  DIS CAZ7
 BAR2 SZ EP        423 34.10                             169     0.110   26 209 
 BAR2 SZ ES   1    423 48.85                             169    -0.4 7   26 209 
 BRR  HZ EP        423 35.87                             150     0.010   79 296 
 BRR  HN ES        423 52.97                             150     0.310   79 296 
 BRR  HZ I         423 56.99        15.7 0.22                            79 296 
 RUS  BZ EP   1    423 38.21                             144     0.2 7  100 181 
 RUS  BN ES   2    423 56.71                             144     0.3 5  100 181 
 RUS  BZ I         423 58.65         5.0 0.38                           100 181 
 OCA  SZ EP   1    423 42.73                             129     0.0 7  162 350 
 OCA  SZ ES   1    424  4.59                             129    -0.3 7  162 350 
 CHI  HZ EP   1    423 52.57                             117     0.3 6  251 197 
 CHI  HE ES   1    424 21.16                             117    -0.7 6  251 197 
 CHI  HZ I         424 28.98         3.4 0.54                           251 197 
 HEL  HE ES   2    424 26.89                             114    -0.6 4  280 256 
 HEL  HZ I         424 33.17         4.4 0.35                           280 256 
 PRA  HZ EP        424  8.28                             106    -0.1 6  396 211 
 PRA  HN ES   1    424 50.96                             106     0.5 4  396 211 
                                                                                
