 2015  9 1 0839 37.3 L   6.820 -73.082140.2  RSN  7 0.4 1.7LRSN                1
 GAP=190        1.05       3.6     6.5  7.3  0.5069E+01  0.1795E+01 -0.9225E+01E
 Epicentro: LOS SANTOS - SANTANDER                                             3
 ACTION:UPD 15-10-28 16:23 OP:cam  STATUS:               ID:20150901083937 L   I
 OLDACT:REG 15-09-01 13:55 OP:stll STATUS:               ID:20150901083747     3
 2015-09-01-0837-47M.COL___355                                                 6
 STAT SP IPHASW D HRMM SECON CODA AMPLIT PERI AZIMU VELO AIN AR TRES W  DIS CAZ7
 BAR2 EZ EP        839 56.43                             168    0.0310 27.5 204 
 BAR2 EZ ES        840 11.33                             168    0.0710 27.5 204 
 BAR2 EZ I         840 12.49         8.8 0.42            167           27.5 204 
 BRR  HZ EP        839 58.40                             150    0.1910 76.5 295 
 BRR  HN ES        840 15.10                             150    0.6110 76.5 295 
 BRR  HZ I         840 19.81         9.5 0.12            147           76.5 295 
 RUS  HZ EP        840  0.88                             142    0.1810  103 180 
 RUS  HN ES        840 18.51                             142   -0.4010  103 180 
 RUS  HZ I         840 19.80         4.4 0.54            146            103 180 
 OCA  HZ EP        840  5.43                             129    0.31 9  159 351 
 OCA  HN ES        840 26.61                             129   -0.17 9  159 351 
 OCA  HZ I         840 31.14        13.1 0.52            129            159 351 
 SPBC HN ES        840 27.88                             127   -0.51 9  169 220 
 SPBC HZ I         840 31.96         4.4 0.20            128            169 220 
 ZAR  HZ EP        840 10.76                             120    0.72 8  210 291 
 ZAR  HN ES        840 35.39                             120   -0.15 8  210 291 
 ZAR  HZ I         840 41.17         5.4 0.24            121            210 291 
 SML  HZ EP        840 13.46                             116   -0.32 8  245 334 
 SML  HE ES        840 41.26                             116   -0.94 8  245 334 
 SML  HZ I         840 48.11         4.8 0.10            117            245 334 
                                                                                
