 2012  1 1 0945 55.9 L   6.796 -73.173140.2  RSN  6 0.3 1.4LRSN                1
 GAP=142        0.70       5.9     4.2  6.2 -0.1488E+01  0.5848E+01  0.7756E+01E
 Epicentro: LOS SANTOS - SANTANDER                                             3
 ACTION:UP  12-02-03 08:12 OP:REBC STATUS:               ID:20120101094555 L   I
 2012-01-01-0940-00M.COL___186                                                 6
 STAT SP IPHASW D HRMM SECON CODA AMPLIT PERI AZIMU VELO SNR AR TRES W  DIS CAZ7
 BAR2 SZ EP   1    946 14.96                             170     0.1 7   23 183 
 BAR2 SZ I         946 15.42         5.3 0.16                            23 183 
 BAR2 SZ ES   1    946 29.53                             170    -0.1 7   23 183 
 BRR  HZ EP   1    946 16.68                             152     0.3 7   69 300 
 BRR  HZ I         946 17.08         8.4 0.13                            69 300 
 BRR  HN ES   1    946 32.61                             152     0.4 7   69 300 
 PAM  SZ EP   1    946 17.80                             149     0.1 7   80  41 
 PAM  SZ I         946 18.00         3.1 0.14                            80  41 
 PAM  SN ES   1    946 34.41                             149    -0.3 7   80  41 
 PTB  HZ EP   1    946 21.56                             131    -0.6 7  145 259 
 PTB  HN ES   1    946 42.47                             131    -0.2 7  145 259 
 ZAR  HZ EP   1    946 27.53                             121    -0.2 6  201 293 
 ZAR  HN ES   1    946 52.70                             121     0.1 6  201 293 
 ZAR  HZ I         946 58.80         4.4 0.32                           201 293 
 CHI  HZ EP   1    946 33.61                             116     0.4 6  247 195 
 CHI  HZ I         947 10.03         1.1 0.46                           247 195 
                                                                                
