 2013  2 1 0831 28.9 L   6.806 -73.169151.0  RSN  5 0.4 1.5LRSN                1
 GAP=133        0.92       6.3     5.8 10.2  0.4005E+01  0.7910E+01  0.1081E+02E
 Epicentro: LOS SANTOS - SANTANDER                                             3
 ACTION:UPD 13-03-12 09:29 OP:ep   STATUS:               ID:20130201083128 L   I
 2013-02-01-0830-00M.COL___241                                                 6
 STAT SP IPHASW D HRMM SECON CODA AMPLIT PERI AZIMU VELO AIN AR TRES W  DIS CAZ7
 BAR2 SZ EP   1    831 49.06                             171   -0.10 8 23.7 184 
 BAR2 SZ I         832  5.09         6.3 0.26            172           23.7 184 
 BRR  HZ EP   1    831 51.30                             154    0.82 8 68.7 299 
 BRR  HN ES   1    832  7.80                             154    0.49 8 68.7 299 
 BRR  HN I         832 11.21         9.0 0.16            149           68.7 299 
 PAM  SN ES   1    832  9.02                             151   -0.53 8 78.5  41 
 PAM  SN I         832 10.08         4.6 0.46            146           78.5  41 
 RUS  HZ EP        831 53.35                             144    0.1210  101 175 
 RUS  HN ES        832 12.28                             144    0.0810  101 175 
 RUS  HN I         832 12.84         3.0 0.22            142            101 175 
 PTB  HZ EP   1    831 55.62                             134   -0.47 7  145 258 
 PTB  HN ES        832 16.90                             134   -0.40 9  145 258 
 PTB  HN I         832 22.29         5.0 0.24            128            145 258 
                                                                                
