 2010  9 1 1543  3.5 L   7.189 -73.994  0.0  RSN  7 0.4 1.8LRSN                1
 GAP=169        0.85       3.1     4.6  6.7  0.1807E+01 -0.1066E+02 -0.2488E+00E
 Epicentro: BARRANCABERMEJA - SANTANDER                                        3
 ACTION:UP  11-02-18 10:59 OP:tino STATUS:               ID:20100901154303 L   I
 2010-09-01-1538-54S.COL___120                                                 6
 STAT SP IPHASW D HRMM SECON CODA AMPLIT PERI AZIMU VELO SNR AR TRES W  DIS CAZ7
 BRR  HZ IP     D 1543  9.39                              47    -0.210   32 106 
 BRR  HZ I        1543  9.54        94.8 0.12                            32 106 
 BRR  HE ES   1   1543 14.84                              47     0.5 7   32 106 
 BAR2 SZ EP   1   1543 21.89                              47     0.1 7  111 126 
 BAR2 SZ ES   2   1543 36.65                              47     0.6 5  111 126 
 BAR2 SZ I        1543 40.28        10.7 0.39                           111 126 
 OCA  SZ EP   2   1543 25.72                              47     0.0 5  138  33 
 OCA  SZ I        1543 48.11        14.3 0.50                           138  33 
 GUE  SZ EP       1543 25.59                              47    -0.2 9  138  59 
 GUE  SZ ES   2   1543 43.29                              47     0.0 5  138  59 
 GUE  SZ I        1543 45.33        10.7 0.10                           138  59 
 GRA  SZ EP   1   1543 28.35                              47     0.5 7  152  60 
 GRA  SZ ES   1   1543 46.50                              47    -0.4 7  152  60 
 GRA  SZ I        1543 49.33        52.3 0.30                           152  60 
 RUS  HZ EP       1543 31.75                              47     0.1 9  175 145 
 RUS  HE ES   1   1543 53.02                              47    -0.7 7  175 145 
 RUS  HZ I        1543 55.13        15.7 0.22                           175 145 
 MON  HZ EP   2   1543 41.08                              37    -0.1 4  254 314 
 MON  HN ES   2   1544 11.12                              37     0.5 4  254 314 
 MON  HZ I        1544 15.73         2.4 0.58                           254 314 
                                                                                
