 2015  1 1 1733 47.8 L   6.272 -73.506121.1  RSN  5 0.5 1.5LRSN                1
 GAP=241        1.23       8.7     6.6  9.3  0.1804E+01  0.1714E+02 -0.1146E+02E
 Epicentro: EL GUACAMAYO - SANTANDER                                           3
 ACTION:UPD 15-03-02 15:35 OP:nd   STATUS:               ID:20150101173347 L   I
 OLDACT:DUP 15-01-02 00:45 OP:cam  STATUS:               ID:20150101172816d    3
 OLDACT:UP  15-01-02 00:44 OP:cam  STATUS:               ID:20150101172815     3
 OLDACT:UP  15-01-02 00:44 OP:cam  STATUS:               ID:20150101172815     3
 OLDACT:REG 15-01-01 22:24 OP:cam  STATUS:               ID:20150101172815     3
 2015-01-01-1728-15M.COL___280                                                 6
 STAT SP IPHASW D HRMM SECON CODA AMPLIT PERI AZIMU VELO AIN AR TRES W  DIS CAZ7
 BAR2 EZ EP       1734  5.67                             156    0.2010 50.4  45 
 BAR2 EZ ES       1734 19.48                             156    0.2110 50.4  45 
 BAR2 EZ I        1734 20.78         7.3 0.18            160           50.4  45 
 BRR  HZ EP       1734  8.36                             139    0.2810 95.2 346 
 BRR  HN ES       1734 23.36                             139   -0.5510 95.2 346 
 BRR  HZ I        1734 24.74         4.6 0.10            140           95.2 346 
 PTB  HZ EP       1734  9.11                             135   -0.1710  109 286 
 PTB  HN ES       1734 25.75                             135   -0.2910  109 286 
 PTB  HZ I        1734 29.84         4.7 0.10            135            109 286 
 ZAR  HZ EP       1734 19.01                             117    0.54 9  201 312 
 ZAR  HE ES       1734 42.96                             117    0.57 9  201 312 
 ZAR  HZ I        1734 47.41         4.9 0.40            118            201 312 
 SML  HZ EP       1734 26.71                             108   -1.37 7  287 347 
 SML  HE ES       1734 59.95                             108    0.44 7  287 347 
                                                                                
