 2010  1 1 1627 12.9 L   6.830 -72.969145.1  RSN  7 0.4 1.8LRSN                1
 GAP=201        0.70       4.3    16.5  7.4 -0.1585E+02  0.3510E+02  0.4413E+01E
 Epicentro: CEPITA - SANTANDER                                                 3
 ACTION:UP  10-08-24 09:42 OP:vdl  STATUS:               ID:20100101162712 L   I
 2010-01-01-1623-58S.COL___097                                                 6
 STAT SP IPHASW D HRMM SECON CODA AMPLIT PERI AZIMU VELO SNR AR TRES W  DIS CAZ7
 BAR2 SZ EP   1   1627 32.62                             165    -0.2 7   36 222 
 BAR2 SZ ES   2   1627 47.94                             165    -0.4 5   36 222 
 GIR2 SZ EP   1   1627 33.03                             164     0.3 7   37 318 
 GIR2 SZ ES   2   1627 48.24                             164     0.1 5   37 318 
 RUS  BZ EP   1   1627 37.24                             143     0.3 7  104 187 
 RUS  BE ES   2   1627 55.79                             143     0.2 5  104 187 
 RUS  BZ I        1627 57.48         7.2 0.27                           104 187 
 OCA  SZ EP   1   1627 41.10                             129    -0.1 7  161 346 
 OCA  SZ ES   2   1628  2.91                             129    -0.4 5  161 346 
 CHI  HZ EP   1   1627 51.02                             116    -0.6 6  258 199 
 CHI  HE ES   2   1628 21.48                             116    -0.2 4  258 199 
 CHI  HZ I        1628 24.34         3.7 0.44                           258 199 
 RREF BZ EP   1   1628  2.04                             109     1.0 5  339 231 
 PRA  HZ EP   1   1628  7.33                             106    -0.6 4  405 212 
 PRA  HN ES   2   1628 50.42                             106    -0.4 3  405 212 
 PRA  HZ I        1628 57.07         2.4 0.29                           405 212 
                                                                                
