 2017  8 1 1516 44.4 L   6.666 -73.071138.1  RSN  4 0.4 1.3LRSN                1
 GAP=246        0.84      10.1    10.8  7.9  0.8369E+02  0.6454E+01 -0.1899E+02E
 Epicentro: CURITI - SANTANDER                                                 3
 ACTION:UPD 17-09-04 20:15 OP:rebc STATUS:               ID:20170801151644 L   I
 OLDACT:DUP 17-08-01 23:45 OP:dhb  STATUS:               ID:20170801150737d    3
 OLDACT:REG 17-08-01 20:55 OP:dhb  STATUS:               ID:20170801150736     3
 2017-08-01-1508-00M.COL___386                                                 6
 STAT SP IPHASW D HRMM SECON CODA AMPLIT PERI AZIMU VELO AIN AR TRES W  DIS CAZ7
 BAR2 EZ IP     D 1517  2.27                             171   -0.6410 14.7 236 
 BAR2 EZ ES       1517 17.46                             171    0.0710 14.7 236 
 BAR2 EZ I        1517 18.57         5.1 0.32            155           14.7 236 
 RUS  HZ EP       1517  6.66                             145    0.3710 85.5 181 
 RUS  HN ES       1517 23.41                             145    0.0110 85.5 181 
 RUS  HZ I        1517 28.35         1.3 0.38            137           85.5 181 
 PTB  HZ EP   4   1517  9.41                             128   -1.87 0  154 265 
 PTB  HN ES   3   1517 31.25                             128   -1.02 2  154 265 
 PTB  HZ I        1517 37.66         2.7 0.40            123            154 265 
 ZAR  HZ EP       1517 17.77                             118    0.03 8  218 295 
 ZAR  HE ES       1517 44.10                             118    0.32 8  218 295 
 ZAR  HZ I        1517 46.91         2.8 0.23            117            218 295 
                                                                                
