 2013  7 1 1810 22.8 L   6.721 -73.228155.5  RSN  5 0.3 1.2LRSN                1
 GAP=155        0.61       6.6     6.1  8.3  0.1343E+02 -0.5869E+01 -0.1746E+02E
 Epicentro: VILLANUEVA - SANTANDER                                             3
 ACTION:UPD 13-08-12 10:34 OP:ep   STATUS:               ID:20130701181022 L   I
 OLDACT:REG 13-07-01 14:35 OP:jn   STATUS:               ID:20130701180959     3
 2013-07-01-1809-59M.COL___266                                                 6
 STAT SP IPHASW D HRMM SECON CODA AMPLIT PERI AZIMU VELO AIN AR TRES W  DIS CAZ7
 BAR2 SZ EP   1   1810 43.49                             174   -0.01 7 15.2 160 
 BAR2 SZ ES   1   1810 59.27                             174   -0.35 7 15.2 160 
 BAR2 SZ I        1811  1.12         6.1 0.32            173           15.2 160 
 GIR2 SZ EP   1   1810 43.56                             165   -0.33 7 39.7   6 
 BRR  HZ EP   1   1810 45.19                             155    0.31 7 68.4 309 
 BRR  HN ES   1   1811  2.43                             155    0.34 7 68.4 309 
 BRR  HZ I        1811  5.10         3.3 0.26            153           68.4 309 
 RUS  HN ES   1   1811  6.20                             148    0.28 7 93.0 170 
 RUS  HZ I        1811  7.17         1.8 0.34            150           93.0 170 
 PTB  HN ES   1   1811 10.40                             136   -0.26 7  137 262 
 PTB  HZ I        1811 14.51         1.5 0.15            136            137 262 
                                                                                
