 2017 11 1 1025 40.1 L   6.755 -73.176141.4  RSN 10 0.4 1.5LRSN                1
 GAP=110        0.81       3.2     3.1  6.2 -0.1369E+01  0.3231E+01  0.2616E+01E
 Epicentro: LOS SANTOS - SANTANDER                                             3
 ACTION:UPD 17-12-12 19:50 OP:rebc STATUS:               ID:20171101102540 L   I
 OLDACT:UP  17-11-01 21:40 OP:mg   STATUS:               ID:20171101101740     3
 OLDACT:UP  17-11-01 21:40 OP:mg   STATUS:               ID:20171101101740     3
 OLDACT:REG 17-11-01 19:47 OP:mg   STATUS:               ID:20171101101740     3
 2017-11-01-1018-00M.COL___417                                                 6
 STAT SP IPHASW D HRMM SECON CODA AMPLIT PERI AZIMU VELO AIN AR TRES W  DIS CAZ7
 BAR2 EZ IP     D 1025 59.08                             172   -0.0310 18.0 182 
 BAR2 EZ ES   1   1026 13.90                             172   -0.03 7 18.0 182 
 BAR2 EZ I        1026 15.25        10.7 0.22            172           18.0 182 
 PAM  EZ EP       1026  2.31                             148    0.0810 83.4  39 
 PAM  EN ES       1026 19.67                             148    0.1810 83.4  39 
 PAM  EZ I        1026 22.36         4.0 0.33            151           83.4  39 
 RUS  HZ EP       1026  2.91                             144   -0.1810 95.9 174 
 RUS  HN ES       1026 21.16                             144    0.1510 95.9 174 
 RUS  HZ I        1026 22.69         2.5 0.19            145           95.9 174 
 PTB  HZ EP       1026  5.87                             132   -0.46 9  144 261 
 PTB  HN ES       1026 26.30                             132   -0.49 9  144 261 
 PTB  HZ I        1026 27.87         3.1 0.14            131            144 261 
 SPBC HE ES       1026 29.84                             129    0.62 9  157 219 
 SPBC HZ I        1026 32.90         5.4 0.12            129            157 219 
 YPLC HZ EP       1026  9.15                             126   -0.17 9  174 150 
 ZAR  HN ES       1026 37.31                             122    0.17 9  203 294 
 ZAR  HZ I        1026 43.96         4.4 0.24            122            203 294 
 NOR  HN ES       1026 42.21                             118    0.04 8  229 235 
 NOR  HZ I        1026 48.32         3.8 0.36            118            229 235 
 CHI  HN ES       1026 45.53                             117   -0.14 8  243 195 
 CHI  HZ I        1026 51.44         1.2 0.33            117            243 195 
 GUY2CHZ EP   2   1026 24.48                             112    1.61 4  296 235 
 GUY2CHN ES   4   1027  0.56                             112    4.33 0  296 235 
 GUY2CHZ I        1027  4.30         1.7 0.38                           296 235 
 SJC  HZ EP   4   1026 33.97                             105   -1.84 0  412 328 
 SJC  HN ES   4   1027 26.50                             105    7.25 0  412 328 
                                                                                
