 2010  6 1 1259 33.6 L   6.821 -73.097140.0  RSN  5 0.2 2.1LRSN                1
 GAP=185        0.51       9.0    26.1  7.7 -0.1862E+03  0.3674E+02 -0.3459E+02E
 Epicentro: LOS SANTOS - SANTANDER                                             3
 ACTION:UP  10-08-24 10:07 OP:vdl  STATUS:               ID:20100601125933 L   I
 2010-06-01-1253-34S.COL___109                                                 6
 STAT SP IPHASW D HRMM SECON CODA AMPLIT PERI AZIMU VELO SNR AR TRES W  DIS CAZ7
 BAR2 SZ EP       1259 52.36                             169    -0.210   27 201 
 BAR2 SZ ES   1   13 0  7.64                             169     0.2 7   27 201 
 GIR2 SZ EP       1259 52.48                             167    -0.110   30 340 
 GUE  SZ EP       1259 57.72                             139     0.210  113  10 
 GRA  SZ EP       1259 58.09                             136     0.110  122  15 
 GRA  SZ ES   2   13 0 16.64                             136    -0.4 5  122  15 
 OCA  SZ EP   2   13 0  1.21                             129    -0.1 5  159 351 
 OCA  SZ I        13 0 26.84        15.1 1.67                           159 351 
                                                                                
