 2014  3 1 1614 40.4 L   6.803 -73.158145.7  RSN  9 0.3 2.1LRSN                1
 GAP=135        0.72       2.7     3.2  5.1 -0.5616E+00  0.6165E+01 -0.1407E+01E
 Epicentro: LOS SANTOS - SANTANDER                                             3
 ACTION:UPD 14-04-09 23:13 OP:nd   STATUS:               ID:20140301161440 L   I
 OLDACT:UP  14-03-01 17:17 OP:cam  STATUS:               ID:20140301160820d    3
 OLDACT:DUP 14-03-01 17:13 OP:cam  STATUS:               ID:20140301160820d    3
 2014-03-01-1608-19M.COL___231                                                 6
 STAT SP IPHASW D HRMM SECON CODA AMPLIT PERI AZIMU VELO AIN AR TRES W  DIS CAZ7
 BAR2 SZ EP       1614 59.98                             170    0.0010 23.5 187 
 BAR2 SZ ES       1615 14.97                             170   -0.3210 23.5 187 
 BAR2 SZ I        1615 16.31        28.2 0.12            169           23.5 187 
 PAM  SZ EP     C 1615  2.77                             151    0.1710 78.0  40 
 PAM  SN ES       1615 20.16                             151    0.2110 78.0  40 
 PAM  SZ I        1615 22.13        13.5 0.22            155           78.0  40 
 RUS  HZ EP       1615  3.88                             144   -0.2510  101 175 
 RUS  HN ES       1615 22.81                             144    0.1410  101 175 
 RUS  HZ I        1615 24.22         7.9 0.20            148            101 175 
 PTB  HZ EP       1615  6.86                             132   -0.35 9  147 259 
 PTB  HN ES       1615 27.79                             132   -0.36 9  147 259 
 PTB  HZ I        1615 35.39        18.2 0.46            131            147 259 
 SPBC HZ EP       1615  8.96                             129    0.17 9  163 219 
 SPBC HN ES       1615 31.29                             129    0.31 9  163 219 
 SPBC HZ I        1615 36.81        17.6 0.14            130            163 219 
 ZAR  HZ EP   1   1615 12.76                             122    0.10 6  203 292 
 ZAR  HN ES       1615 38.47                             122    0.62 9  203 292 
 ZAR  HZ I        1615 48.90        10.5 0.32            122            203 292 
 NOR  HZ EP   1   1615 15.98                             119   -0.00 6  234 234 
 NOR  HN ES   4   1615 42.19                             119   -1.59 0  234 234 
 NOR  HZ I        1615 47.85        10.4 0.28            120            234 234 
 SML  HZ EP   4   1615 15.48                             117   -1.40 0  243 336 
 SML  HN ES       1615 45.02                             117   -0.36 8  243 336 
 SML  HZ I        1615 51.78        17.8 0.10            119            243 336 
 GUY2CHZ EP   4   1615 25.03                             112    1.17 0  300 235 
 GUY2CHN ES   4   1615 59.80                             112    2.01 0  300 235 
 GUY2CHZ I        1616  6.72         6.4 0.28                           300 235 
                                                                                
