 2014  9 1 1123 22.8 L   6.206 -73.704118.8  RSN  6 0.3 1.4LRSN                1
 GAP=128        0.64       2.9     4.0  6.5  0.4475E+00 -0.1800E+01 -0.1056E+01E
 Epicentro: LANDAZURI - SANTANDER                                              3
 ACTION:UPD 14-10-03 23:01 OP:nd   STATUS:               ID:20140901112322 L   I
 OLDACT:DUP 14-09-01 21:04 OP:fm   STATUS:               ID:20140901111820d    3
 2014-09-01-1118-19M.COL___266                                                 6
 STAT SP IPHASW D HRMM SECON CODA AMPLIT PERI AZIMU VELO AIN AR TRES W  DIS CAZ7
 BAR2 SZ EP   1   1123 41.73                             147    0.29 7 71.8  53 
 BAR2 SZ ES   1   1123 56.08                             147    0.06 7 71.8  53 
 BAR2 SZ I        1123 56.89        15.0 0.16            149           71.8  53 
 SPBC HZ EP   1   1123 41.54                             146    0.19 7 73.6 214 
 SPBC HN ES       1123 55.79                             146   -0.0710 73.6 214 
 SPBC HZ I        1123 57.66         7.8 0.26            149           73.6 214 
 PTB  HZ EP   1   1123 42.10                             140   -0.44 7 91.1 294 
 PTB  HN ES   1   1123 57.89                             140   -0.07 7 91.1 294 
 PTB  HZ I        1124  0.89         2.4 0.22            142           91.1 294 
 BRR  HZ EP   1   1123 42.67                             137   -0.54 7 99.7 359 
 BRR  HN ES   4   1123 57.91                             137   -1.25 0 99.7 359 
 BRR  HZ I        1124  4.72         8.1 0.52            139           99.7 359 
 CHI  HZ EP   1   1123 50.99                             120    0.07 7  174 181 
 CHI  HE ES   1   1124 13.02                             120    0.13 7  174 181 
 CHI  HZ I        1124 16.33         1.7 0.70            124            174 181 
 ZAR  HN ES   1   1124 15.78                             117    0.64 7  191 318 
                                                                                
