 2016  1 1 1956 44.4 L   6.792 -73.152144.7  RSN 13 0.3 2.0LRSN                1
 GAP=136        0.44       2.5     2.6  3.5 -0.1882E+01  0.1526E+01  0.2613E+01E
 Epicentro: LOS SANTOS - SANTANDER                                             3
 ACTION:UPD 16-03-09 23:21 OP:cam  STATUS:               ID:20160101195644 L   I
 OLDACT:UP  16-01-01 23:00 OP:dnl  STATUS:               ID:20160101194748     3
 OLDACT:REG 16-01-01 20:41 OP:dnl  STATUS:               ID:20160101194748     3
 2016-01-01-1947-48M.COL___319                                                 6
 STAT SP IPHASW D HRMM SECON CODA AMPLIT PERI AZIMU VELO AIN AR TRES W  DIS CAZ7
 BAR2 EZ EP   2   1957  3.83                             171   -0.09 5 22.4 189 
 BAR2 EZ ES   2   1957 19.10                             171   -0.02 5 22.4 189 
 BAR2 EZ I        1957 21.76        17.4 0.41            168           22.4 189 
 BRR  HZ EP     D 1957  5.58                             152    0.1210 71.0 299 
 BRR  HN ES       1957 22.00                             152    0.1410 71.0 299 
 BRR  HZ I        1957 25.82        15.9 0.18            150           71.0 299 
 PAM  EZ EP       1957  6.76                             150    0.1510 78.5  40 
 PAM  EN ES       1957 23.87                             150   -0.0310 78.5  40 
 PAM  EZ I        1957 27.23        13.2 0.50            156           78.5  40 
 RUS  HZ EP   2   1957  7.67                             144   -0.36 5 99.8 176 
 RUS  HN ES   2   1957 25.98                             144   -0.45 5 99.8 176 
 RUS  HZ I        1957 27.98         5.8 0.23            146           99.8 176 
 PTB  HZ EP   2   1957 10.31                             132   -0.94 5  147 259 
 PTB  HN ES   2   1957 31.75                             132   -0.40 5  147 259 
 PTB  HZ I        1957 36.63        12.3 0.17            131            147 259 
 SPBC HN E        1947 55.65                                            162 219 
 SPBC HZ EP   2   1957 12.75                             129   -0.00 5  162 219 
 SPBC HN ES   2   1957 34.92                             129    0.08 5  162 219 
 SPBC HZ I        1957 38.95        16.7 0.14            130            162 219 
 ZAR  HZ EP   2   1957 16.50                             122   -0.29 4  204 292 
 ZAR  HE ES   2   1957 41.71                             122   -0.31 4  204 292 
 ZAR  HZ I        1957 46.78        10.0 0.19            123            204 292 
 NOR  HZ EP   2   1957 20.03                             118    0.04 4  234 235 
 NOR  HE ES   2   1957 47.83                             118    0.10 4  234 235 
 NOR  HZ I        1957 53.14         8.1 0.11            119            234 235 
 SML  HZ EP   2   1957 20.69                             117   -0.37 4  244 336 
 SML  HE ES   4   1957 47.72                             117   -1.90 0  244 336 
 SML  HZ I        1957 52.92        16.9 0.12            119            244 336 
 CHI  HZ EP   2   1957 22.18                             117    0.21 4  248 195 
 CHI  HN ES   2   1957 51.39                             117    0.15 4  248 195 
 CHI  HZ I        1957 55.33         4.4 0.40            119            248 195 
 HEL  HZ EP   2   1957 25.06                             115    0.56 4  271 256 
 HEL  HE ES   4   1957 58.43                             115    2.68 0  271 256 
 HEL  HZ I        1958  2.52         6.0 0.47            116            271 256 
 GUY2CHZ EP   2   1957 28.38                             112    0.50 4  300 235 
 GUY2CHE ES   2   1958  2.26                             112    0.49 4  300 235 
 GUY2CHZ I        1958  9.97         5.7 0.45                           300 235 
 PRA  HZ EP   2   1957 37.52                             106   -0.28 3  391 210 
 PRA  HN ES   2   1958 19.75                             106    0.34 3  391 210 
 PRA  HZ I        1958 26.30         5.5 0.17            108            391 210 
                                                                                
