 2015  1 1 1940 43.5 L   6.819 -73.139153.7  RSN 13 0.5 2.1LRSN                1
 GAP=136        1.19       4.0     4.9  6.5 -0.2135E+01  0.9683E+01 -0.5038E+01E
 Epicentro: LOS SANTOS - SANTANDER                                             3
 ACTION:UPD 15-03-02 15:35 OP:nd   STATUS:               ID:20150101194043 L   I
 OLDACT:UP  15-01-02 01:25 OP:cam  STATUS:               ID:20150101193817     3
 OLDACT:UP  15-01-02 01:24 OP:cam  STATUS:               ID:20150101193817     3
 OLDACT:REG 15-01-01 22:33 OP:cam  STATUS:               ID:20150101193817     3
 2015-01-01-1938-17M.COL___280                                                 6
 STAT SP IPHASW D HRMM SECON CODA AMPLIT PERI AZIMU VELO AIN AR TRES W  DIS CAZ7
 BAR2 EZ EP       1941  4.19                             170    0.0210 25.5 191 
 BAR2 EZ ES       1941 19.66                             170   -0.6010 25.5 191 
 BAR2 EZ I        1941 20.32        21.5 0.34            169           25.5 191 
 BRR  HZ IP     C 1941  6.10                             154    0.5710 70.9 297 
 BRR  HN ES       1941 23.48                             154    0.7910 70.9 297 
 BRR  HZ I        1941 29.76        13.7 0.14            152           70.9 297 
 PAM  SZ EP       1941  6.95                             153    0.4610 75.3  40 
 PAM  SE ES       1941 24.40                             153    0.0110 75.3  40 
 PAM  SZ I        1941 25.86        30.4 0.22            157           75.3  40 
 RUS  HZ EP       1941  8.21                             145   -0.0110  103 177 
 RUS  HN ES       1941 27.12                             145   -0.3510  103 177 
 RUS  HZ I        1941 28.77         7.9 0.42            147            103 177 
 PTB  HZ EP       1941 11.06                             134   -0.20 9  149 258 
 PTB  HN ES       1941 32.30                             134   -0.59 9  149 258 
 PTB  HZ I        1941 35.63        19.2 0.22            134            149 258 
 SPBC HZ EP   1   1941 13.55                             130    0.70 7  165 219 
 SPBC HE ES       1941 35.59                             130   -0.12 9  165 219 
 SPBC HZ I        1941 42.67        13.8 0.16            131            165 219 
 ZAR  HZ EP       1941 17.13                             124    0.63 9  204 292 
 ZAR  HN ES       1941 42.70                             124    0.48 9  204 292 
 ZAR  HZ I        1941 45.08        18.2 0.18            125            204 292 
 NOR  HZ EP       1941 20.34                             120    0.41 8  237 234 
 NOR  HN ES       1941 47.96                             120   -0.36 8  237 234 
 NOR  HZ I        1941 51.60         8.0 0.22            121            237 234 
 SML  HZ EP       1941 20.03                             119   -0.42 8  242 335 
 SML  HE ES       1941 48.77                             119   -0.47 8  242 335 
 SML  HZ I        1941 50.97        14.6 0.10            121            242 335 
 HEL  HZ EP   4   1941 22.27                             116   -2.03 0  273 255 
 HEL  HN ES   4   1941 58.57                             116    2.47 0  273 255 
 HEL  HZ I        1942  2.93         5.8 0.26            117            273 255 
 URE  HZ EP   4   1941 28.69                             115    3.70 0  284 291 
 URE  HN ES   4   1941 55.78                             115   -1.55 0  284 291 
 URE  HZ I        1941 58.06        11.7 0.36            116            284 291 
 MON  HZ EP       1941 31.79                             110   -0.98 6  353 308 
 MON  HN ES   4   1942  7.71                             110   -3.47 0  353 308 
 MON  HZ I        1942 12.26         2.8 0.38            111            353 308 
 SJC  HZ EP       1941 38.25                             107   -0.96 6  408 327 
 SJC  HN ES   4   1942 19.57                             107   -3.07 0  408 327 
 SJC  HZ I        1942 23.80         4.5 0.48            109            408 327 
                                                                                
