 2013  9 1 1245 30.6 L   6.770 -73.144149.8  RSN  5 0.5 1.6LRSN                1
 GAP=217        1.09       8.2     8.0 10.0  0.2436E+01  0.1050E+02 -0.4152E+02E
 Epicentro: LOS SANTOS - SANTANDER                                             3
 ACTION:UPD 13-10-22 09:19 OP:ep   STATUS:               ID:20130901124530 L   I
 OLDACT:REG 13-09-01 15:22 OP:nd   STATUS:               ID:20130901124000     3
 2013-09-01-1240-00M.COL___268                                                 6
 STAT SP IPHASW D HRMM SECON CODA AMPLIT PERI AZIMU VELO AIN AR TRES W  DIS CAZ7
 BAR2 SZ EP   2   1245 50.74                             172    0.12 5 20.1 192 
 BAR2 SZ ES       1246  5.81                             172   -0.4510 20.1 192 
 BAR2 SZ I        1246  9.16         4.7 0.42            168           20.1 192 
 BRR  HZ IP     D 1245 52.74                             153    0.4910 73.0 301 
 BRR  HN ES       1246  9.89                             153    0.7210 73.0 301 
 BRR  HZ I        1246 12.42         6.4 0.28            149           73.0 301 
 PTB  HZ EP   2   1245 57.49                             133   -0.33 5  147 260 
 PTB  HN ES       1246 18.58                             133   -0.51 9  147 260 
 PTB  HZ I        1246 26.25         4.6 0.40            131            147 260 
 ZAR  HZ EP   2   1246  3.70                             123    0.28 4  206 293 
 ZAR  HN ES       1246 29.26                             123    0.21 8  206 293 
 ZAR  HZ I        1246 35.69         5.2 0.26            123            206 293 
 SML  HZ EP       1246  7.80                             118    0.05 8  247 336 
 SML  HN ES       1246 35.96                             118   -0.80 8  247 336 
 SML  HZ I        1246 39.51         5.1 0.09            119            247 336 
                                                                                
