 2014  1 1 1701 32.6 L   6.793 -73.132144.0  RSN  7 0.6 1.6LRSN                1
 GAP=139        0.99       5.9     5.2  7.8 -0.1639E+01  0.2101E+01  0.7402E+00E
 Epicentro: LOS SANTOS - SANTANDER                                             3
 ACTION:UPD 14-03-13 09:50 OP:ep   STATUS:               ID:20140101170132 L   I
 OLDACT:DUP 14-01-01 20:02 OP:mh   STATUS:               ID:20140101165849d    3
 2014-01-01-1658-48M.COL___240                                                 6
 STAT SP IPHASW D HRMM SECON CODA AMPLIT PERI AZIMU VELO AIN AR TRES W  DIS CAZ7
 BAR2 SZ ES   2   17 2  6.81                             171   -0.31 5 22.9 194 
 BAR2 SZ I        17 2  9.03         8.2 0.35            174           22.9 194 
 BRR  HZ EP       17 1 53.94                             152    0.3210 72.9 299 
 BRR  HN ES       17 2 10.29                             152    0.2410 72.9 299 
 BRR  HZ I        17 2 15.62         5.4 0.14            149           72.9 299 
 PAM  SZ EP       17 1 54.88                             151    0.3010 77.1  38 
 PAM  SN ES   1   17 2 11.60                             151   -0.14 7 77.1  38 
 PAM  SZ I        17 2 14.07        10.1 0.30            151           77.1  38 
 RUS  HZ EP       17 1 56.10                             144    0.0210 99.7 177 
 RUS  HN ES   2   17 2 14.07                             144   -0.35 5 99.7 177 
 RUS  HZ I        17 2 15.69         3.5 0.25            151           99.7 177 
 PTB  HZ EP       17 1 59.05                             131   -0.46 9  149 259 
 PTB  HN ES       17 2 20.30                             131   -0.23 9  149 259 
 PTB  HZ I        17 2 22.06         5.8 0.14            133            149 259 
 ZAR  HZ EP   1   17 2  6.13                             122    1.06 6  206 292 
 ZAR  HN ES   2   17 2 30.91                             122    0.49 4  206 292 
 ZAR  HZ I        17 2 36.22         5.3 0.13            123            206 292 
 SML  HZ EP   1   17 2  8.41                             117   -0.83 6  245 335 
 SML  HN ES   2   17 2 36.19                             117   -1.65 4  245 335 
 SML  HZ I        17 2 45.70         6.1 0.12            118            245 335 
                                                                                
