 2014 12 1 1318 47.3 L   6.770 -73.140141.7  RSN 17 0.5 2.1LRSN                1
 GAP=139        0.97       3.7     3.8  5.9 -0.2084E+01  0.6481E+01  0.5049E+01E
 Epicentro: LOS SANTOS - SANTANDER                                             3
 ACTION:UPD 15-02-10 16:59 OP:nd   STATUS:               ID:20141201131847 L   I
 OLDACT:REG 14-12-01 20:02 OP:spq  STATUS:               ID:20141201131748     3
 2014-12-01-1317-48M.COL___303                                                 6
 STAT SP IPHASW D HRMM SECON CODA AMPLIT PERI AZIMU VELO AIN AR TRES W  DIS CAZ7
 BAR2 SZ EP       1319  6.31                             171   -0.0410 20.2 193 
 BAR2 SZ ES   1   1319 20.92                             171   -0.31 7 20.2 193 
 BAR2 SZ I        1319 22.06        47.6 0.18            168           20.2 193 
 BRR  HZ EP       1319  8.37                             151    0.2610 73.4 301 
 BRR  HN ES       1319 24.94                             151    0.5810 73.4 301 
 BRR  HZ I        1319 29.00        26.0 0.28            150           73.4 301 
 PAM  SZ EP       1319  9.22                             149    0.0310 79.6  38 
 PAM  SN ES       1319 25.98                             149   -0.3110 79.6  38 
 PAM  SZ I        1319 28.26        21.6 0.50            155           79.6  38 
 RUS  HZ EP   1   1319 10.70                             144    0.32 7 97.2 176 
 RUS  HN ES   1   1319 28.99                             144    0.59 7 97.2 176 
 RUS  HZ I        1319 30.35        20.1 0.42            145           97.2 176 
 PTB  HZ EP       1319 13.17                             131   -0.74 9  148 260 
 PTB  HN ES       1319 33.78                             131   -0.91 9  148 260 
 PTB  HZ I        1319 37.09        18.2 0.16            131            148 260 
 SPBC HZ EP       1319 15.15                             128   -0.10 9  161 220 
 SPBC HN ES       1319 37.09                             128    0.02 9  161 220 
 SPBC HZ I        1319 39.64        20.2 0.26            129            161 220 
 OCA  HN ES   4   1319 36.32                             128   -1.36 0  164 353 
 OCA  HZ I        1319 38.69        10.6 0.52            131            164 353 
 ZAR  HZ EP   1   1319 19.63                             121   -0.02 6  206 293 
 ZAR  HN ES       1319 45.31                             121    0.41 8  206 293 
 ZAR  HZ I        1319 51.24        12.4 0.38            122            206 293 
 NOR  HZ EP       1319 22.39                             118   -0.23 8  233 235 
 NOR  HN ES   1   1319 49.36                             118   -0.82 6  233 235 
 NOR  HZ I        1319 57.51         6.7 0.44            118            233 235 
 CHI  HZ EP   1   1319 24.30                             117   -0.11 6  246 196 
 CHI  HE ES   1   1319 53.80                             117    0.42 6  246 196 
 CHI  HZ I        1319 56.85         4.5 0.36            118            246 196 
 HEL  HZ EP   4   1319 28.67                             114    1.41 0  272 257 
 HEL  HN ES   1   1319 58.95                             114    0.50 6  272 257 
 HEL  HZ I        1320  3.87         6.8 0.32            115            272 257 
 GUY2CHZ EP   1   1319 30.32                             112   -0.22 5  300 235 
 GUY2CHN ES   4   1320  6.46                             112    2.18 0  300 235 
 GUY2CHZ I        1320 11.51         4.4 0.28                           300 235 
 RREF HZ EP   4   1319 34.51                             110    1.46 0  320 230 
 RREF HN ES   4   1320 12.62                             110    3.87 0  320 230 
 RREF HZ I        1320 16.58         3.3 0.42            111            320 230 
 CBOC HZ EP   1   1319 34.46                             109    0.48 5  333 253 
 CBOC HE ES   1   1320 11.17                             109    0.77 5  333 253 
 CBOC HZ I        1320 13.49         2.2 0.48            110            333 253 
 DBB  SZ EP   1   1319 35.18                             109    0.49 5  340 275 
 DBB  SZ ES   4   1320 10.08                             109   -1.59 0  340 275 
 DBB  SZ I        1320 15.11        16.6 0.68            110            340 275 
 TOL  SZ EP   4   1319 36.35                             109    1.20 0  342 225 
 TOL  SE ES   1   1320 13.18                             109    0.70 5  342 225 
 TOL  SZ I        1320 19.95         6.5 0.36            110            342 225 
 MON  HZ EP   4   1319 34.37                             108   -2.05 0  356 309 
 MON  HN ES   4   1320 12.88                             108   -1.87 0  356 309 
 MON  HZ I        1320 14.07         2.8 0.18            109            356 309 
                                                                                
