 2017  2 1 1956 53.0 L   6.779 -73.092145.5  RSN  5 0.3 1.6LRSN                1
 GAP=145        0.82       4.2     5.0  5.9 -0.5796E+01  0.6850E+01  0.3355E+01E
 Epicentro: LOS SANTOS - SANTANDER                                             3
 ACTION:UPD 17-05-24 15:31 OP:jn   STATUS:               ID:20170201195653 L   I
 OLDACT:REG 17-02-01 21:16 OP:ar   STATUS:               ID:20170201194742     3
 2017-02-01-1948-00M.COL___337                                                 6
 STAT SP IPHASW D HRMM SECON CODA AMPLIT PERI AZIMU VELO AIN AR TRES W  DIS CAZ7
 BAR2 EZ ES       1957 28.03                             171    0.1510 22.9 206 
 BAR2 EZ I        1957 29.87        18.2 0.28            168           22.9 206 
 PAM  EZ EP       1957 15.13                             151    0.0310 75.6  35 
 PAM  EE ES       1957 32.43                             151    0.1110 75.6  35 
 PAM  EZ I        1957 34.53         7.8 0.24            155           75.6  35 
 BRR  HZ EP       1957 14.02                             150   -0.4810 77.6 298 
 BRR  HN ES       1957 31.32                             150    0.0610 77.6 298 
 RUS  HZ EP       1957 16.29                             144   -0.2610 98.0 179 
 RUS  HN ES       1957 34.88                             144   -0.0310 98.0 179 
 RUS  HZ I        1957 36.23         2.8 0.24            145           98.0 179 
 NOR  HZ EP       1957 29.94                             118    0.83 8  238 236 
 NOR  HN ES       1957 57.09                             118   -0.17 8  238 236 
 NOR  HZ I        1958  5.48         2.6 0.46            118            238 236 
                                                                                
