 2010 10 1 1334 31.5 L   6.787 -73.092142.7  RSN 10 0.4 2.4LRSN                1
 GAP=140        0.75       3.1     6.5  6.3 -0.5646E+01 -0.2675E+00  0.3102E+01E
 Epicentro: LOS SANTOS - SANTANDER                                             3
 ACTION:UP  11-02-18 11:06 OP:tino STATUS:               ID:20101001133431 L   I
 2010-10-01-1331-25S.COL___125                                                 6
 STAT SP IPHASW D HRMM SECON CODA AMPLIT PERI AZIMU VELO SNR AR TRES W  DIS CAZ7
 BAR2 SZ EP   1   1334 50.55                             170    -0.2 8   24 205 
 BAR2 SZ ES   2   1335  5.33                             170    -0.5 5   24 205 
 BAR2 SZ I        1335  6.99        54.6 0.32                            24 205 
 BRR  HZ EP   1   1334 52.85                             150     0.2 8   77 297 
 BRR  HN ES   1   1335  9.78                             150     0.6 8   77 297 
 BRR  HZ I        1335 13.70        62.1 0.13                            77 297 
 RUS  HZ EP   2   1334 54.87                             144     0.0 5   99 179 
 RUS  HE ES   1   1335 13.20                             144     0.2 8   99 179 
 RUS  HZ I        1335 13.99        17.7 0.23                            99 179 
 GRA  SZ EP       1334 56.77                             136     0.310  125  15 
 GRA  SZ ES   1   1335 15.81                             136    -0.1 7  125  15 
 GRA  SZ I        1335 18.65        34.9 0.36                           125  15 
 OCA  SZ EP   1   1334 59.47                             129    -0.3 7  162 351 
 OCA  SZ ES   1   1335 21.27                             129    -0.6 7  162 351 
 OCA  SZ I        1335 24.64        47.3 0.32                           162 351 
 YOP  SZ EP   2   1335  1.51                             126     0.5 5  175 155 
 NOR  SZ EP   2   1335  7.36                             117    -0.2 4  239 236 
 NOR  SE ES   2   1335 35.01                             117    -0.6 4  239 236 
 CHI  HZ EP   1   1335  9.00                             116    -0.1 6  249 197 
 CHI  HE ES   2   1335 37.87                             116    -0.5 4  249 197 
 CHI  HZ I        1335 41.76         8.7 0.38                           249 197 
 HEL  HZ EP   2   1335 13.02                             114     0.8 4  278 256 
 HEL  HZ I        1335 50.09         8.7 0.34                           278 256 
 PRA  HZ EP   1   1335 25.29                             106     0.1 5  394 210 
 PRA  HE ES   2   1336  6.32                             106    -0.7 3  394 210 
 PRA  HZ I        1336 13.83        21.4 0.31                           394 210 
                                                                                
