 2010  8 1 1409 56.0 L   6.774 -73.064146.6  RSN  3 0.3 1.3LRSN                1
 GAP=244        0.52      17.9    28.7 14.6  0.4589E+03 -0.2586E+03 -0.1205E+03E
 Epicentro: LOS SANTOS - SANTANDER                                             3
 ACTION:UP  10-09-07 10:51 OP:vdl  STATUS:               ID:20100801140955 L   I
 2010-08-01-1406-44S.COL___123                                                 6
 STAT SP IPHASW D HRMM SECON CODA AMPLIT PERI AZIMU VELO SNR AR TRES W  DIS CAZ7
 BAR2 SZ EP   1   1410 15.63                             168    -0.2 7   24 213 
 BAR2 SZ I        1410 16.00         5.6 0.45                            24 213 
 BAR2 SZ ES   3   1410 31.33                             168     0.2 2   24 213 
 BRR  HZ EP   1   1410 17.72                             148    -0.1 7   81 297 
 BRR  HE ES   2   1410 35.00                             148     0.2 5   81 297 
 BRR  HZ I        1410 37.51         5.4 0.48                            81 297 
 RUS  HZ EP   1   1410 19.91                             143     0.3 7   98 181 
 RUS  HN ES   3   1410 37.16                             143    -0.9 2   98 181 
 RUS  HZ I        1410 38.99         1.5 0.30                            98 181 
                                                                                
