 2012  2 1 1726 39.8 L   6.776 -73.125146.0  RSN  4 0.2 1.5LRSN                1
 GAP=190        0.43       6.7    22.8  7.9  0.9755E+02 -0.1566E+02 -0.1977E+02E
 ACTION:UP  12-03-07 16:26 OP:epov STATUS:               ID:20120201172639 L   I
 2012-02-01-1720-00M.COL___188                                                 6
 STAT SP IPHASW D HRMM SECON CODA AMPLIT PERI AZIMU VELO SNR AR TRES W  DIS CAZ7
 BAR2 SZ ES   2   1727 14.93                             171    0.25 5 21.3 197 
 BAR2 SZ I        1727 15.66         6.3 0.24                          21.3 197 
 GIR2 SZ EP   1   1726 59.41                             166   -0.14 7 34.3 347 
 BRR  HZ EP   2   1727  1.10                             151   -0.02 5 74.5 299 
 BRR  HZ I        1727  9.78        16.7 0.52                          74.5 299 
 RUS  HZ EP   1   1727  3.56                             144    0.22 7 97.8 177 
 RUS  HE ES   1   1727 21.54                             144   -0.19 7 97.8 177 
 RUS  HZ I        1727 22.46         2.3 0.45                          97.8 177 
                                                                                
