 2017  3 1 1718  3.8 L   6.776 -73.123142.8  RSN 20 0.5 2.6LRSN                1
 GAP=122        1.05       3.5     3.5  5.2 -0.1543E+00  0.4632E+01  0.6007E+01E
 Epicentro: LOS SANTOS - SANTANDER                                             3
 ACTION:UPD 17-05-25 18:34 OP:jn   STATUS:               ID:20170301171803 L   I
 OLDACT:REG 17-03-01 23:12 OP:lv   STATUS:               ID:20170301171347     3
 2017-03-01-1714-00M.COL___377                                                 6
 STAT SP IPHASW D HRMM SECON CODA AMPLIT PERI AZIMU VELO AIN AR TRES W  DIS CAZ7
 BAR2 EZ EP       1718 23.05                             171    0.0610 21.4 198 
 BAR2 EZ ES       1718 37.63                             171   -0.3610 21.4 198 
 BAR2 EZ I        1718 39.48       161.5 0.16            168           21.4 198 
 BRR  HZ EP       1718 24.94                             151    0.1510 74.7 299 
 BRR  HN ES       1718 41.53                             151    0.3410 74.7 299 
 BRR  HZ I        1718 43.13        51.8 0.12            149           74.7 299 
 PAM  EZ EP       1718 25.88                             150    0.1910 77.9  37 
 PAM  EN ES       1718 43.15                             150    0.3610 77.9  37 
 PAM  EZ I        1718 45.54        62.2 0.34            154           77.9  37 
 RUS  HZ EP       1718 27.09                             144    0.0710 97.8 177 
 RUS  HN ES       1718 44.77                             144   -0.3810 97.8 177 
 RUS  HZ I        1718 46.84        54.2 0.24            143           97.8 177 
 PTB  HZ EP   4   1718 29.59                             131   -1.08 0  150 260 
 PTB  HN ES       1718 51.12                             131   -0.54 9  150 260 
 PTB  HZ I        1718 53.23        66.3 0.22            130            150 260 
 ZAR  HZ EP       1718 35.58                             121   -0.78 8  207 293 
 ZAR  HN ES       1719  1.67                             121   -0.12 8  207 293 
 ZAR  HZ I        1719  7.29        24.4 0.31            121            207 293 
 NOR  HZ EP       1718 39.05                             118   -0.33 8  235 235 
 NOR  HN ES       1719  6.56                             118   -0.59 8  235 235 
 NOR  HZ I        1719 10.56        33.4 0.23            117            235 235 
 CHI  HZ EP       1718 41.06                             117   -0.03 8  247 196 
 CHI  HN ES       1719 10.94                             117    0.74 8  247 196 
 CHI  HZ I        1719 15.64        14.2 0.42            117            247 196 
 ROSC BZ EP   4   1718 42.64                             116    1.03 0  252 212 
 ROSC BN ES   4   1719 14.89                             116    3.75 0  252 212 
 ROSC BZ I        1719 18.41        32.9 0.50            116            252 212 
 HEL  HZ EP   4   1718 45.21                             114    1.19 0  274 256 
 HEL  HN ES       1719 16.31                             114    0.88 8  274 256 
 HEL  HZ I        1719 21.15        20.4 0.30            114            274 256 
 URE  HZ EP   4   1718 42.87                             113   -2.19 0  287 292 
 URE  HN ES   4   1719 13.24                             113   -4.03 0  287 292 
 URE  HZ I        1719 23.29        17.4 0.16            113            287 292 
 VIL  EN EP       1718 47.48                             112    0.67 7  301 192 
 VIL  EE ES   4   1719 23.39                             112    3.01 0  301 192 
 PTGC HZ EP       1718 46.44                             111   -0.66 7  305 159 
 PTGC HN ES   4   1719 19.60                             111   -1.30 0  305 159 
 PTGC HZ I        1719 20.39        13.1 0.30            112            305 159 
 ELA  HZ EP   4   1718 51.92                             110    1.41 0  329 230 
 ELA  HN ES       1719 27.86                             110    0.88 7  329 230 
 ELA  HZ I        1719 34.58        17.3 0.34            110            329 230 
 CBOC HZ EP       1718 51.57                             109    0.83 7  335 253 
 CBOC HN ES       1719 27.08                             109   -0.30 7  335 253 
 CBOC HZ I        1719 28.50         6.5 0.34            109            335 253 
 DBB  EZ EP       1718 51.33                             109   -0.10 7  342 275 
 DBB  EN ES   4   1719 26.37                             109   -2.24 0  342 275 
 DBB  EZ I        1719 29.79        11.4 0.13            109            342 275 
 ANIL HZ EP   9   1718 54.47                             108    1.03 0  357 225 
 ANIL HN ES       1719 33.80                                    0.58 6  357 225 
 ANIL HZ I        1719 39.44        36.2 0.36            108            357 225 
 PRA  HZ EP       1718 56.60                             106   -0.46 6  391 210 
 PRA  HN ES       1719 38.63                             106    0.00 6  391 210 
 PRA  HZ I        1719 45.14        17.7 0.28            106            391 210 
 ORTC HZ EP       1718 57.14                             106   -0.36 6  395 217 
 ORTC HN ES   4   1719 40.90                             106    1.48 0  395 217 
 ORTC HZ I        1719 46.48        11.3 0.46            106            395 217 
 SJC  HZ EP   4   1718 57.23                             105   -2.42 0  413 327 
 SJC  HN ES   4   1719 39.04                             105   -4.20 0  413 327 
 SJC  HZ I        1719 44.14         4.7 0.28            106            413 327 
                                                                                
