 2016  1 1 1127 59.7 L   6.731 -73.215136.0  RSN 10 0.5 1.5LRSN                1
 GAP=220        0.84       5.9     5.8  6.9  0.1228E+02  0.1593E+02  0.9384E+01E
 Epicentro: VILLANUEVA - SANTANDER                                             3
 ACTION:UPD 16-03-09 23:21 OP:cam  STATUS:               ID:20160101112759 L   I
 OLDACT:REG 16-01-01 20:13 OP:dnl  STATUS:               ID:20160101111748     3
 2016-01-01-1117-48M.COL___317                                                 6
 STAT SP IPHASW D HRMM SECON CODA AMPLIT PERI AZIMU VELO AIN AR TRES W  DIS CAZ7
 BAR2 EZ EP   2   1128 17.64                             173   -0.40 5 15.7 167 
 BAR2 EZ ES       1128 31.96                             173   -0.3710 15.7 167 
 BAR2 EZ I        1128 33.84         7.3 0.12            159           15.7 167 
 BRR  HZ EP     C 1128 19.49                             152   -0.2010 68.9 307 
 BRR  HE ES       1128 36.02                             152    0.7610 68.9 307 
 BRR  HZ I        1128 41.97         7.3 0.17            146           68.9 307 
 RUS  HZ EP   2   1128 22.37                             144    0.34 5 93.8 171 
 RUS  HE ES   2   1128 40.14                             144    0.72 5 93.8 171 
 RUS  HZ I        1128 42.01         7.1 0.27            126           93.8 171 
 PTB  HZ EP       1128 24.68                             132   -0.41 9  139 261 
 PTB  HE ES       1128 44.88                             132    0.01 9  139 261 
 PTB  HZ I        1128 47.96         4.5 0.20            119            139 261 
 SPBC HZ EP   2   1128 26.54                             129    0.09 5  152 219 
 SPBC HE ES   2   1128 47.12                             129   -0.18 5  152 219 
 SPBC HZ I        1128 54.56         7.5 0.11            115            152 219 
 OCA  HZ EP   4   1128 26.30                             126   -1.67 0  167 356 
 OCA  HE ES   4   1128 47.41                             126   -2.59 0  167 356 
 OCA  HZ I        1128 51.09         7.0 0.34            116            167 356 
 ZAR  HZ EP   4   1128 32.03                             121    0.90 0  200 295 
 ZAR  HE ES       1128 55.31                             121   -0.32 9  200 295 
 ZAR  HZ I        1129  2.20         5.0 0.27            111            200 295 
 CHI  HZ EP   3   1128 36.85                             116    0.98 2  239 194 
 CHI  HZ I        1129  8.91         0.9 0.13            105            239 194 
 HEL  HZ EP   2   1128 39.40                             114    0.98 4  263 257 
 HEL  HN ES   4   1129  4.61                             114   -3.99 0  263 257 
 HEL  HZ I        1129 16.94         1.8 0.14            105            263 257 
 GUY2CHZ EP   2   1128 42.19                             111    0.51 4  291 235 
 GUY2CHE ES   2   1129 14.41                             111    0.01 4  291 235 
 GUY2CHZ I        1129 24.22         1.6 0.40                           291 235 
                                                                                
