 2012  6 1 1937 21.2 L   6.792 -73.179148.5  RSN  5 0.2 1.8LRSN                1
 GAP=133        0.46       3.3     2.9  5.1 -0.1077E+00  0.4266E+01 -0.1354E+01E
 Epicentro: LOS SANTOS - SANTANDER                                             3
 ACTION:UP  12-08-06 17:46 OP:ep   STATUS:               ID:20120601193721 L   I
 2012-06-01-1930-00M.COL___201                                                 6
 STAT SP IPHASW D HRMM SECON CODA AMPLIT PERI AZIMU VELO AIN AR TRES W  DIS CAZ7
 BAR2 SZ EP   1   1937 41.14                             171    0.05 7 22.1 181 
 BAR2 SZ ES   1   1937 57.00                             171    0.37 7 22.1 181 
 BAR2 SZ I        1937 57.91        14.1 0.28                          22.1 181 
 PAM  SZ EP   1   1937 44.05                             150    0.21 7 80.5  41 
 PAM  SN ES   1   1938  1.22                             150   -0.32 7 80.5  41 
 RUS  HZ EP   1   1937 45.01                             144   -0.12 7  100 174 
 RUS  HN ES   1   1938  3.75                             144   -0.08 7  100 174 
 RUS  HZ I        1938  5.10         4.9 0.21                           100 174 
 PTB  HZ EP   1   1937 48.05                             133    0.05 7  144 259 
 PTB  HN ES   1   1938  8.71                             133   -0.23 7  144 259 
 PTB  HZ I        1938 15.10         6.2 0.32                           144 259 
 ZAR  HN ES   1   1938 18.75                             123    0.09 6  201 293 
 ZAR  HZ I        1938 25.61        11.9 0.36                           201 293 
                                                                                
