 2017 11 1 1349 51.5 L   6.767 -73.128143.6  RSN  7 0.2 1.9LRSN                1
 GAP=140        0.56       2.5     2.5  3.7 -0.1972E+00  0.3044E+01  0.2557E+00E
 Epicentro: LOS SANTOS - SANTANDER                                             3
 ACTION:UPD 17-12-12 19:50 OP:rebc STATUS:               ID:20171101134951 L   I
 OLDACT:UP  17-11-02 00:30 OP:mg   STATUS:               ID:20171101134738     3
 OLDACT:UP  17-11-02 00:29 OP:mg   STATUS:               ID:20171101134738     3
 OLDACT:UP  17-11-02 00:29 OP:mg   STATUS:               ID:20171101134738     3
 OLDACT:REG 17-11-01 20:21 OP:mg   STATUS:               ID:20171101134738     3
 2017-11-01-1348-00M.COL___438                                                 6
 STAT SP IPHASW D HRMM SECON CODA AMPLIT PERI AZIMU VELO AIN AR TRES W  DIS CAZ7
 BAR2 EZ IP     C 1350 10.84                             172    0.0010 20.2 197 
 BAR2 EZ ES       1350 25.78                             172   -0.1210 20.2 197 
 BAR2 EZ I        1350 29.32        11.5 0.33            170           20.2 197 
 BRR  HZ EP       1350 12.83                             151    0.1810 74.7 300 
 BRR  HN ES       1350 29.46                             151    0.3310 74.7 300 
 BRR  HZ I        1350 34.46        18.5 0.22            149           74.7 300 
 PAM  EZ EP     C 1350 13.68                             150    0.0610 79.1  37 
 PAM  EN ES       1350 30.55                             150   -0.3010 79.1  37 
 PAM  EZ I        1350 32.24         9.1 0.18            154           79.1  37 
 RUS  HZ EP       1350 14.74                             144   -0.0510 96.8 177 
 RUS  HN ES       1350 33.16                             144    0.2210 96.8 177 
 RUS  HZ I        1350 34.38        14.5 0.30            148           96.8 177 
 PTB  HZ EP   1   1350 18.30                             131   -0.14 7  149 260 
 PTB  HN ES   1   1350 39.22                             131   -0.21 7  149 260 
 PTB  HZ I        1350 40.84         7.7 0.12            131            149 260 
 ZAR  HZ EP       1350 23.90                             121   -0.27 8  207 293 
 ZAR  HN ES       1350 49.78                             121    0.15 8  207 293 
 ZAR  HZ I        1350 57.88        11.1 0.32            122            207 293 
 NOR  HZ EP   1   1350 27.50                             118    0.42 6  234 235 
 NOR  HE ES       1350 54.47                             118   -0.34 8  234 235 
 NOR  HZ I        1351  1.80         4.7 0.23            120            234 235 
                                                                                
