 2012 11 1 1139 22.7 L   7.337 -73.433100.3  RSN  7 0.5 2.3LRSN                1
 GAP= 91        1.18       4.4     4.5  8.7  0.1976E+01  0.3541E+01  0.7704E+00E
 Epicentro: SABANA DE TORRES - SANTANDER                                       3
 ACTION:UPD 12-12-05 15:30 OP:}ep  STATUS:               ID:20121101113922 L   I
 2012-11-01-1136-48M.COL___192                                                 6
 STAT SP IPHASW D HRMM SECON CODA AMPLIT PERI AZIMU VELO AIN AR TRES W  DIS CAZ7
 GIR2 SZ EP       1139 37.36                             157   -0.0210 38.9 137 
 BRR  HZ EP       1139 36.15                             156   -1.0810 40.0 231 
 BRR  HN ES       1139 48.59                             156    0.0510 40.0 231 
 BRR  HN I        1139 48.87       124.0 0.16                          40.0 231 
 PAM  SZ EP       1139 40.85                             138    0.2010 80.9  90 
 PAM  SN I        1139 41.94        18.3 0.16                          80.9  90 
 PAM  SN ES   1   1139 55.38                             138    0.75 7 80.9  90 
 BAR2 SZ EP       1139 40.64                             136   -0.1610 86.9 161 
 BAR2 SZ ES   1   1139 54.66                             136   -0.24 7 86.9 161 
 BAR2 SZ I        1139 56.16        39.4 0.44                          86.9 161 
 OCA  HZ EP       1139 41.61                             131   -0.2810  100   7 
 OCA  HN ES       1139 56.83                             131   -0.0110  100   7 
 OCA  HN I        1139 57.72       109.8 0.16                           100   7 
 ZAR  HZ EP       1139 47.41                             117   -0.16 9  158 276 
 ZAR  HN ES       1140  7.73                             117    0.78 9  158 276 
 ZAR  HN I        1140  9.41        43.6 0.30                           158 276 
 RUS  HZ EP       1139 49.44                             116    0.59 9  164 166 
 RUS  HN ES   2   1140  9.22                             116   -0.01 5  164 166 
                                                                                
