 2011  3 1 1530 32.5 L   6.697 -74.192 26.0  RSN  4 0.4 1.6LRSN                1
 GAP=207        0.87      11.5     4.1 17.0 -0.2679E+02 -0.2194E+02  0.1049E+03E
 Epicentro: PUERTO PARRA - SANTANDER                                           3
 ACTION:UP  11-06-16 14:31 OP:jfem STATUS:               ID:20110301153032 L   I
 2011-03-01-1528-47S.COL___132                                                 6
 STAT SP IPHASW D HRMM SECON CODA AMPLIT PERI AZIMU VELO SNR AR TRES W  DIS CAZ7
 BAR2 SZ EP       1530 49.88                              56    -0.310  112  96 
 BAR2 SZ ES   1   1531  4.37                              56     0.4 7  112  96 
 BAR2 SZ I        1531  5.61        14.3 0.11                           112  96 
 RUS  HZ EP   1   1530 55.07                              56    -0.4 7  152 126 
 RUS  HN ES   2   1531 13.73                              56     0.4 5  152 126 
 RUS  HZ I        1531 15.64         5.6 0.19                           152 126 
 HEL  HZ EP   1   1530 56.55                              56     0.4 7  158 249 
 HEL  HE ES   2   1531 14.16                              56    -0.4 5  158 249 
 HEL  HZ I        1531 18.85         6.1 0.37                           158 249 
 RREF HZ EP   2   1531  7.09                              56     0.9 4  236 213 
 RREF HE ES   1   1531 32.20                              56    -0.3 6  236 213 
 RREF HZ I        1531 37.97         6.2 0.25                           236 213 
                                                                                
