 2014 11 1 1133 34.9 L   6.787 -73.123146.0  RSN  6 0.3 1.3LRSN                1
 GAP=140        0.79       4.1     4.1  5.9 -0.5329E+01  0.1151E+01  0.5443E+01E
 Epicentro: LOS SANTOS - SANTANDER                                             3
 ACTION:UPD 14-12-19 15:38 OP:nd   STATUS:               ID:20141101113334 L   I
 OLDACT:REG 14-11-01 20:18 OP:spq  STATUS:               ID:20141101112746     3
 2014-11-01-1127-46M.COL___265                                                 6
 STAT SP IPHASW D HRMM SECON CODA AMPLIT PERI AZIMU VELO AIN AR TRES W  DIS CAZ7
 BAR2 SZ EP       1133 54.37                             171   -0.1610 22.5 197 
 BAR2 SZ ES   1   1134  9.43                             171   -0.42 7 22.5 197 
 BAR2 SZ I        1134 14.95         3.7 0.32            171           22.5 197 
 BRR  HZ EP     C 1133 56.31                             152    0.0810 74.1 299 
 BRR  HN ES       1134 13.39                             152    0.5210 74.1 299 
 BRR  HZ I        1134 16.56         6.5 0.31            155           74.1 299 
 PAM  SZ EP       1133 57.40                             151    0.2910 77.0  37 
 PAM  SN ES       1134 14.20                             151   -0.2310 77.0  37 
 PAM  SZ I        1134 17.13         3.5 0.42            155           77.0  37 
 RUS  HZ EP       1133 58.64                             144    0.0910 99.0 177 
 RUS  HN ES   1   1134 17.03                             144    0.02 7 99.0 177 
 RUS  HZ I        1134 18.99         2.1 0.28            148           99.0 177 
 PTB  HZ EP       1134  1.55                             132   -0.53 9  150 260 
 PTB  HE ES       1134 22.94                             132   -0.34 9  150 260 
 PTB  HZ I        1134 25.78         3.4 0.17            136            150 260 
 SPBC HZ EP       1134  3.63                             129    0.18 9  164 220 
 SPBC HN ES       1134 26.02                             129    0.29 9  164 220 
 SPBC HZ I        1134 28.02         3.2 0.26            133            164 220 
                                                                                
