 2015  6 1 1802 16.7 L   6.770 -73.096155.4  RSN 13 0.5 2.6LRSN                1
 GAP=125        1.21       3.3     4.2  5.9  0.1590E+01  0.6983E+01  0.2496E+01E
 Epicentro: LOS SANTOS - SANTANDER                                             3
 ACTION:UPD 15-09-10 22:08 OP:cam  STATUS:               ID:20150601180216 L   I
 OLDACT:REG 15-06-01 21:44 OP:ar   STATUS:               ID:20150601175747     3
 2015-06-01-1757-47M.COL___303                                                 6
 STAT SP IPHASW D HRMM SECON CODA AMPLIT PERI AZIMU VELO AIN AR TRES W  DIS CAZ7
 BAR2 EZ EP     D 18 2 37.57                             172    0.0810 21.8 206 
 BAR2 EZ ES       18 2 53.46                             172   -0.2210 21.8 206 
 BAR2 EZ I        18 2 55.49        56.6 0.24            169           21.8 206 
 PAM  SZ EP       18 2 40.43                             153    0.4910 76.7  35 
 PAM  SN ES       18 2 57.74                             153   -0.3010 76.7  35 
 PAM  SZ I        18 2 59.74        64.8 0.56            155           76.7  35 
 BRR  HZ EP       18 2 39.52                             152    0.2410 77.7 299 
 BRR  HE ES       18 2 57.06                             152    0.1910 77.7 299 
 BRR  HZ I        18 2 59.77        48.1 0.14            150           77.7 299 
 RUS  HZ EP       18 2 41.43                             147    0.2410 97.0 179 
 RUS  HE ES       18 3  0.38                             147    0.1110 97.0 179 
 RUS  HZ I        18 3  1.57        19.9 0.20            147           97.0 179 
 SPBC HZ EP       18 2 46.55                             131    0.48 9  164 221 
 SPBC HN ES       18 3  8.88                             131   -0.08 9  164 221 
 SPBC HZ I        18 3 11.86        76.8 0.12            130            164 221 
 ZAR  HZ EP       18 2 49.90                             123   -0.57 8  210 292 
 ZAR  HN ES       18 3 16.47                             123   -0.31 8  210 292 
 ZAR  HZ I        18 3 21.16        43.7 0.26            123            210 292 
 NOR  HZ EP       18 2 53.47                             120    0.16 8  237 236 
 NOR  HE ES       18 3 21.11                             120   -0.73 8  237 236 
 NOR  HZ I        18 3 29.67        25.8 0.52            120            237 236 
 CHI  HZ EP       18 2 55.77                             119    0.98 8  247 197 
 CHI  HN ES       18 3 24.02                             119   -0.46 8  247 197 
 CHI  HZ I        18 3 32.93        15.7 0.34            120            247 197 
 SML  HZ EP       18 2 54.10                             119   -0.39 8  249 334 
 SML  HE ES       18 3 24.11                             119    0.17 8  249 334 
 SML  HZ I        18 3 34.03        47.8 0.22            119            249 334 
 HEL  HZ EP       18 2 58.55                             116    0.60 7  277 257 
 HEL  HN ES       18 3 30.05                             116   -0.05 7  277 257 
 HEL  HZ I        18 3 37.10        21.2 0.26            116            277 257 
 URE  HZ EP       18 2 57.48                             115   -1.51 7  290 292 
 URE  HN ES       18 3 32.74                             115    0.79 7  290 292 
 URE  HZ I        18 3 41.87        25.4 0.18            115            290 292 
 PTGC HZ EP       18 3  0.46                             114    0.00 7  304 159 
 PTGC HN ES       18 3 33.80                             114   -0.77 7  304 159 
 PTGC HZ I        18 3 39.93        23.2 0.36            115            304 159 
 GUY2CHZ EP       18 3  0.33                             114   -0.76 7  304 236 
 GUY2CHE ES       18 3 36.66                             114    0.97 7  304 236 
 GUY2CHZ I        18 3 42.21        20.7 0.28                           304 236 
                                                                                
