 2017 10 1 1642 50.3 L   6.792 -73.112147.0  RSN  9 0.2 1.9LRSN                1
 GAP=115        0.49       1.9     2.3  3.1 -0.2628E+00  0.2665E+01  0.1357E+01E
 Epicentro: LOS SANTOS - SANTANDER                                             3
 ACTION:UPD 17-11-07 19:27 OP:rebc STATUS:               ID:20171001164250 L   I
 OLDACT:UP  17-10-02 00:11 OP:edw  STATUS:               ID:20171001163739d    3
 OLDACT:DUP 17-10-02 00:06 OP:edw  STATUS:               ID:20171001163739d    3
 2017-10-01-1638-00M.COL___402                                                 6
 STAT SP IPHASW D HRMM SECON CODA AMPLIT PERI AZIMU VELO AIN AR TRES W  DIS CAZ7
 BAR2 EZ EP       1643  9.90                             171   -0.2110 23.4 200 
 BAR2 EZ ES       1643 25.27                             171   -0.2710 23.4 200 
 BAR2 EZ I        1643 25.94        25.2 0.26            169           23.4 200 
 PAM  EZ EP     D 1643 12.79                             151    0.2110 75.8  37 
 PAM  EN ES       1643 30.00                             151    0.0610 75.8  37 
 PAM  EZ I        1643 32.02        13.1 0.48            154           75.8  37 
 RUS  HZ EP       1643 14.04                             144   -0.0810 99.5 178 
 RUS  HN ES       1643 32.80                             144    0.1210 99.5 178 
 RUS  HZ I        1643 33.63         7.8 0.46            144           99.5 178 
 YPLC HZ EP       1643 20.24                             127    0.28 9  174 152 
 ZAR  HZ EP       1643 22.99                             122   -0.26 8  208 292 
 ZAR  HN ES       1643 49.19                             122    0.26 8  208 292 
 NOR  HZ EP       1643 26.16                             118   -0.24 8  237 235 
 NOR  HN ES       1643 54.80                             118    0.26 8  237 235 
 NOR  HZ I        1643 59.76         3.9 0.36            118            237 235 
 CHI  HZ EP       1643 28.25                             117    0.14 8  249 196 
 CHI  HE ES       1643 57.43                             117   -0.15 8  249 196 
 CHI  HZ I        1644  0.80         4.3 0.66            118            249 196 
 GUY2CHZ EP   2   1643 33.76                             112   -0.52 4  304 235 
 GUY2CHN ES   2   1644  8.61                             112    0.04 4  304 235 
 GUY2CHZ I        1644 16.11         3.1 0.40                           304 235 
 PRA  HZ EP       1643 43.92                             107   -0.10 6  393 210 
 PRA  HE ES       1644 26.02                             107    0.13 6  393 210 
 PRA  HZ I        1644 32.10         3.2 0.30            107            393 210 
                                                                                
