 2017  3 1 1848 48.2 L   6.785 -73.154141.6  RSN  7 0.4 1.6LRSN                1
 GAP=136        1.08       4.5     4.7  7.8 -0.2087E+01  0.1067E+02  0.7648E+01E
 Epicentro: LOS SANTOS - SANTANDER                                             3
 ACTION:UPD 17-05-25 18:34 OP:jn   STATUS:               ID:20170301184848 L   I
 OLDACT:DUP 17-03-01 22:16 OP:lv   STATUS:               ID:20170301183747d    3
 2017-03-01-1838-00M.COL___383                                                 6
 STAT SP IPHASW D HRMM SECON CODA AMPLIT PERI AZIMU VELO AIN AR TRES W  DIS CAZ7
 BAR2 EZ EP       1849  7.16                             171   -0.1810 21.5 188 
 BAR2 EZ ES       1849 22.03                             171   -0.1910 21.5 188 
 BAR2 EZ I        1849 24.93        14.4 0.30            169           21.5 188 
 PAM  EZ EP       1849 10.11                             149   -0.0210 79.3  39 
 PAM  EN ES       1849 27.42                             149    0.2110 79.3  39 
 PAM  EZ I        1849 29.56         4.4 0.26            153           79.3  39 
 RUS  HZ EP       1849 10.78                             143   -0.6910 99.0 175 
 RUS  HN ES       1849 29.86                             143    0.2810 99.0 175 
 RUS  HZ I        1849 32.67         4.6 0.38            144           99.0 175 
 PTB  HN ES       1849 35.27                             131   -0.17 9  146 259 
 PTB  HZ I        1849 38.14         6.5 0.14            134            146 259 
 ZAR  HN ES       1849 46.06                             121    0.59 9  204 293 
 NOR  HZ EP       1849 23.65                             118    0.11 8  233 235 
 NOR  HN ES       1849 50.34                             118   -0.73 8  233 235 
 CHI  HZ EP       1849 25.68                             116    0.17 8  247 195 
 CHI  HN ES       1849 55.55                             116    0.98 8  247 195 
 CHI  HZ I        1850  0.39         4.3 0.34            118            247 195 
                                                                                
