 2013 12 1 1710 54.7 L   6.732 -73.108146.0  RSN  4 0.2 1.9LRSN                1
 GAP=174        0.45       7.1     5.2  4.8  0.1624E+02 -0.1005E+02 -0.1523E+02E
 Epicentro: JORDAN - SANTANDER                                                 3
 ACTION:UPD 14-01-13 10:15 OP:ep   STATUS:               ID:20131201171054 L   I
 OLDACT:REG 13-12-01 14:42 OP:cam  STATUS:               ID:20131201171000     3
 2013-12-01-1710-00M.COL___282                                                 6
 STAT SP IPHASW D HRMM SECON CODA AMPLIT PERI AZIMU VELO AIN AR TRES W  DIS CAZ7
 BAR2 SZ EP       1711 14.27                             173    0.0410 17.5 208 
 BAR2 SZ ES       1711 29.50                             173    0.0210 17.5 208 
 BAR2 SZ I        1711 30.59        17.7 0.22            172           17.5 208 
 BRR  HZ EP       1711 16.03                             150   -0.2510 78.6 302 
 BRR  HN ES       1711 33.19                             150    0.0610 78.6 302 
 PAM  SZ EP       1711 17.17                             150    0.0410 81.0  34 
 ZAR  HZ EP   2   1711 28.33                             122    0.50 4  211 294 
                                                                                
