 2013  3 1 1612 31.9 L   6.722 -73.118143.2  RSN  5 0.4 1.3LRSN                1
 GAP=172        0.69       8.4     5.0  7.8 -0.1505E+02  0.5411E+01  0.6558E+01E
 Epicentro: JORDAN - SANTANDER                                                 3
 ACTION:UPD 13-04-09 13:59 OP:ep   STATUS:               ID:20130301161231 L   I
 2013-03-01-1610-00M.COL___228                                                 6
 STAT SP IPHASW D HRMM SECON CODA AMPLIT PERI AZIMU VELO AIN AR TRES W  DIS CAZ7
 BAR2 SZ EP   1   1612 51.19                             173    0.09 7 16.0 206 
 BAR2 SZ ES   1   1613  6.30                             173    0.22 7 16.0 206 
 BAR2 SZ I        1613  8.03         7.8 0.16            171           16.0 206 
 BRR  HN ES   1   1613 10.15                             150    0.34 7 78.2 303 
 PAM  SZ EP   1   1612 54.59                             149    0.42 7 82.5  34 
 PAM  SN ES   1   1613 10.94                             149   -0.59 7 82.5  34 
 PAM  SZ I        1613 13.56         2.8 0.48            153           82.5  34 
 PTB  HZ EP   1   1612 58.51                             131   -0.30 7  149 262 
 PTB  HN ES   1   1613 19.47                             131   -0.33 7  149 262 
 PTB  HZ I        1613 26.44         2.5 0.46            131            149 262 
 ZAR  HN ES   2   1613 30.73                             121    0.22 4  210 294 
                                                                                
