 2013  1 1 1749 45.8 L   6.755 -73.184156.0  RSN  5 0.2 1.2LRSN                1
 GAP=230        0.52       5.7     5.6  6.5  0.1693E+02 -0.4400E+01 -0.5674E+01E
 Epicentro: VILLANUEVA - SANTANDER                                             3
 ACTION:UPD 13-02-15 09:11 OP:ep   STATUS:               ID:20130101174945 L   I
 2013-01-01-1750-00M.COL___242                                                 6
 STAT SP IPHASW D HRMM SECON CODA AMPLIT PERI AZIMU VELO AIN AR TRES W  DIS CAZ7
 BAR2 SZ EP   1   1750  6.07                             173   -0.53 7 18.0 179 
 BRR  HZ EP   1   1750  8.20                             155    0.16 7 70.2 304 
 BRR  HN ES   1   1750 25.50                             155    0.14 7 70.2 304 
 BRR  HZ I        1750 30.35         3.3 0.28             47           70.2 304 
 RUS  HZ EP   1   1750 10.58                             147    0.29 7 96.0 173 
 RUS  HN ES   1   1750 29.42                             147    0.05 7 96.0 173 
 RUS  HZ I        1750 31.68         1.0 0.22             47           96.0 173 
 PTB  HZ EP   1   1750 13.15                             135   -0.06 7  143 260 
 PTB  HN ES   1   1750 34.46                             135   -0.11 7  143 260 
 PTB  HZ I        1750 39.98         2.3 0.58             47            143 260 
 ZAR  HZ EP   2   1750 18.91                             125    0.14 4  202 294 
 ZAR  HZ I        1750 50.88         3.2 0.46             37            202 294 
                                                                                
