 2010 11 1 1047 40.3 L   6.742 -73.147139.0  RSN 11 0.4 2.6LRSN                1
 GAP=159        0.82       4.0     5.9  6.3 -0.9216E+01  0.1093E+02 -0.1437E+01E
 Epicentro: JORDAN - SANTANDER                                                 3
 ACTION:UP  10-12-17 16:49 OP:REBC STATUS:               ID:20101101104740 L   I
 2010-11-01-1044-17S.COL___126                                                 6
 STAT SP IPHASW D HRMM SECON CODA AMPLIT PERI AZIMU VELO SNR AR TRES W  DIS CAZ7
 BAR2 SZ EP       1047 58.88                             173    -0.110   17 194 
 BAR2 SZ ES   1   1048 12.87                             173    -0.7 7   17 194 
 BAR2 SZ I        1048 14.78       133.6 0.30                            17 194 
 BRR  HZ IP     C 1048  0.83                             150    -0.110   74 303 
 BRR  HZ I        1048  1.19       128.9 0.08                            74 303 
 BRR  HE ES   1   1048 17.69                             150     0.7 7   74 303 
 RUS  HZ EP   1   1048  2.88                             144     0.0 7   94 176 
 RUS  HN ES   1   1048 20.96                             144     0.4 7   94 176 
 RUS  HZ I        1048 23.01        33.6 0.46                            94 176 
 GUE  SZ EP   1   1048  4.40                             136    -0.5 7  123  12 
 GRA  SZ IP       1048  5.91                             134     0.410  132  17 
 GRA  SZ ES   1   1048 25.14                             134     0.0 7  132  17 
 GRA  SZ I        1048 26.54        73.8 0.42                           132  17 
 NOR  SZ EP   2   1048 14.85                             117    -0.4 4  231 236 
 HEL  HZ EP   2   1048 20.19                             113     0.2 4  270 257 
 HEL  HE ES   2   1048 50.62                             113    -0.3 4  270 257 
 HEL  HZ I        1048 58.67        19.3 0.49                           270 257 
 GUY  SZ EP   2   1048 23.38                             111     0.2 4  298 236 
 GUY  SE ES   2   1048 56.72                             111     0.1 4  298 236 
 GUY  SZ I        1049  4.36        33.6 0.48                           298 236 
 RREF HZ EP   2   1048 26.16                             110     0.5 3  317 230 
 RREF HE ES   2   1049  0.37                             110    -0.7 3  317 230 
 RREF HZ I        1049  7.93        19.8 0.21                           317 230 
 DBB  SZ EP   1   1048 27.02                             108    -0.5 5  340 275 
 PRA  HZ EP   2   1048 33.24                             106     0.3 3  386 210 
 PRA  HE ES   1   1049 14.42                             106     0.4 4  386 210 
                                                                                
