 2011 10 1 1637 13.1 L   6.822 -72.973142.0  RSN  4 0.2 1.4LRSN                1
 GAP=256        0.42       7.2    11.4  5.5  0.7001E+02 -0.2923E+02 -0.1878E+02E
 Epicentro: CEPITA - SANTANDER                                                 3
 ACTION:UPD 12-07-13 16:01 OP:ep   STATUS:               ID:20111001163713 L   I
 2011-10-01-1634-29S.COL___168                                                 6
 STAT SP IPHASW D HRMM SECON CODA AMPLIT PERI AZIMU VELO AIN AR TRES W  DIS CAZ7
 BAR2 SZ EP       1637 32.51                             166   -0.0110 34.4 222 
 BAR2 SZ ES   1   1637 47.99                             166    0.29 7 34.4 222 
 BAR2 SZ I        1637 49.33         4.0 0.20                          34.4 222 
 BRR  HZ EP   1   1637 34.65                             147   -0.18 7 87.5 291 
 BRR  HZ I        1637 48.27        12.2 0.46                          87.5 291 
 BRR  HE ES   1   1637 51.70                             147   -0.10 7 87.5 291 
 RUS  HZ EP   1   1637 36.61                             143   -0.05 7  104 187 
 RUS  HN ES   1   1637 54.99                             143   -0.08 7  104 187 
 RUS  HZ I        1637 56.22         2.5 0.28                           104 187 
 ZAR  HZ EP   2   1637 47.51                             120    0.46 4  221 290 
 ZAR  HZ I        1638 17.13         2.6 0.10                           221 290 
                                                                                
