 2011 12 1 1650 18.2 L   6.764 -73.129145.3  RSN 11 0.3 2.6LRSN                1
 GAP=140        0.54       2.7     3.8  3.6 -0.3276E+01  0.2864E+01  0.2643E+01E
 Epicentro: LOS SANTOS - SANTANDER                                             3
 ACTION:UPD 12-07-13 16:13 OP:ep   STATUS:               ID:20111201165018 L   I
 2011-12-01-1650-00M.COL___179                                                 6
 STAT SP IPHASW D HRMM SECON CODA AMPLIT PERI AZIMU VELO AIN AR TRES W  DIS CAZ7
 BAR2 SZ IP       1650 37.65                             172   -0.0710 20.0 197 
 BAR2 SZ ES       1650 52.94                             172    0.0010 20.0 197 
 BAR2 SZ I        1650 54.19        51.8 0.18                          20.0 197 
 GIR2 SZ EP       1650 37.74                             166   -0.2110 35.5 348 
 BRR  HZ EP       1650 39.61                             151    0.1010 74.8 300 
 BRR  HN ES   1   1650 56.48                             151    0.35 7 74.8 300 
 BRR  HN I        1650 57.48       202.2 0.21                          74.8 300 
 PAM  SZ EP       1650 40.49                             150    0.0010 79.3  37 
 PAM  SN ES   1   1650 57.77                             150   -0.10 7 79.3  37 
 RUS  HZ IP     C 1650 41.58                             145   -0.0510 96.5 177 
 RUS  HN ES   1   1650 59.79                             145   -0.10 7 96.5 177 
 CTAU SZ EP       1650 51.45                             123    0.55 9  200 210 
 NOR  SZ EP   1   1650 53.57                             118   -0.27 6  234 236 
 NOR  SN ES   1   1651 21.05                             118   -0.58 6  234 236 
 CHI  HZ EP       1650 55.63                             117    0.10 8  245 196 
 CHI  HN ES   1   1651 24.83                             117    0.20 6  245 196 
 CHI  HZ I        1651 28.54        11.4 0.53                           245 196 
 GUY  SZ EP   1   1651  2.15                             112    0.17 5  303 236 
 GUY  SZ I        1651 45.03        22.6 0.33                           303 236 
 RREF HE ES   2   1651 39.89                             111   -0.19 3  321 230 
 RREF HZ I        1651 49.58        16.0 0.61                           321 230 
 PRA  HZ EP   1   1651 10.89                             106   -0.53 4  390 210 
                                                                                
