 2013  1 1 1936 45.2 L   6.758 -73.185149.2  RSN  5 0.3 1.3LRSN                1
 GAP=230        0.59       6.4     6.2  7.0  0.2616E+02  0.5002E+01  0.4664E+00E
 Epicentro: VILLANUEVA - SANTANDER                                             3
 ACTION:UPD 13-02-15 09:11 OP:ep   STATUS:               ID:20130101193645 L   I
 2013-01-01-1930-00M.COL___242                                                 6
 STAT SP IPHASW D HRMM SECON CODA AMPLIT PERI AZIMU VELO AIN AR TRES W  DIS CAZ7
 BAR2 SZ ES   2   1937 20.23                             173   -0.48 5 18.3 179 
 BAR2 SZ I        1937 27.95         9.4 0.74            175           18.3 179 
 BRR  HZ EP   1   1937  6.67                             154    0.04 7 69.9 304 
 BRR  HN ES   1   1937 23.46                             154    0.09 7 69.9 304 
 BRR  HZ I        1937 24.20         3.5 0.30            153           69.9 304 
 RUS  HZ EP   1   1937  9.32                             146    0.34 7 96.4 173 
 RUS  HN ES   1   1937 27.60                             146    0.06 7 96.4 173 
 RUS  HZ I        1937 28.94         2.4 0.26            152           96.4 173 
 PTB  HZ EP   1   1937 11.38                             134   -0.60 7  143 260 
 PTB  HE ES   1   1937 32.94                             134    0.05 7  143 260 
 PTB  HZ I        1937 35.93         3.0 0.14            136            143 260 
 ZAR  HE ES   1   1937 43.19                             123    0.24 6  202 294 
 ZAR  HZ I        1937 53.17         1.5 0.26            126            202 294 
                                                                                
