 2013  3 1 1142 57.5 L   6.827 -73.178150.9  RSN  6 0.4 1.7LRSN                1
 GAP=138        0.72       5.6     4.5  7.6 -0.2246E+01  0.8347E+01 -0.6336E+01E
 Epicentro: ZAPATOCA - SANTANDER                                               3
 ACTION:UPD 13-04-09 13:59 OP:ep   STATUS:               ID:20130301114257 L   I
 2013-03-01-1140-00M.COL___228                                                 6
 STAT SP IPHASW D HRMM SECON CODA AMPLIT PERI AZIMU VELO AIN AR TRES W  DIS CAZ7
 BAR2 SZ EP   1   1143 17.68                             170   -0.15 7 25.9 181 
 BAR2 SZ ES   1   1143 33.49                             170   -0.18 7 25.9 181 
 BAR2 SZ I        1143 33.84        12.9 0.26            171           25.9 181 
 BRR  HZ EP   1   1143 19.58                             155    0.58 7 66.7 298 
 BRR  HE ES   1   1143 36.42                             155    0.68 7 66.7 298 
 BRR  HZ I        1143 41.81        10.4 0.44            153           66.7 298 
 PAM  SZ EP   1   1143 20.39                             152    0.09 7 77.5  43 
 PAM  SE ES   1   1143 37.76                             152   -0.31 7 77.5  43 
 PAM  SZ I        1143 39.85         8.1 0.54            156           77.5  43 
 PTB  HZ EP   1   1143 24.68                             134    0.01 7  145 257 
 PTB  HN ES   1   1143 45.43                             134   -0.41 7  145 257 
 PTB  HZ I        1143 51.37         6.9 0.36            135            145 257 
 ZAR  HE ES   1   1143 54.87                             124   -0.22 6  200 292 
 SML  HE ES   1   1144  2.15                             119   -0.30 6  240 336 
                                                                                
