 2011 10 1 1347  6.4 L   6.825 -73.013139.0  RSN  4 0.3 1.4LRSN                1
 GAP=252        0.59      12.9    19.2  9.2  0.2136E+03 -0.9967E+02 -0.6732E+02E
 Epicentro: CEPITA - SANTANDER                                                 3
 ACTION:UPD 12-07-13 16:01 OP:ep   STATUS:               ID:20111001134706 L   I
 2011-10-01-1345-53S.COL___168                                                 6
 STAT SP IPHASW D HRMM SECON CODA AMPLIT PERI AZIMU VELO AIN AR TRES W  DIS CAZ7
 BTL  SZ EP   2   1347 26.00                             167    0.59 5 30.0 290 
 BAR2 SZ EP   1   1347 25.31                             167   -0.15 7 31.8 216 
 BAR2 SZ ES   1   1347 40.17                             167   -0.13 7 31.8 216 
 BAR2 SZ I        1347 41.82         6.2 0.32                          31.8 216 
 BRR  HZ EP       1347 27.73                             147    0.1210 83.3 292 
 BRR  HZ I        1347 28.59        11.1 0.54                          83.3 292 
 BRR  HN ES   1   1347 43.98                             147   -0.14 7 83.3 292 
 RUS  HZ EP   2   1347 29.10                             141   -0.63 5  103 184 
 RUS  HN ES   2   1347 48.41                             141    0.50 5  103 184 
 RUS  HZ I        1347 49.96         2.2 0.51                           103 184 
                                                                                
