 2010  9 1 1636 18.4 L   6.814 -73.033140.5  RSN  5 0.2 1.8LRSN                1
 GAP=250        0.51       3.7     8.0  4.9  0.1325E+02  0.3220E+01  0.4741E+01E
 Epicentro: CEPITA - SANTANDER                                                 3
 ACTION:UP  11-02-18 10:59 OP:tino STATUS:               ID:20100901163618 L   I
 2010-09-01-1632-54S.COL___120                                                 6
 STAT SP IPHASW D HRMM SECON CODA AMPLIT PERI AZIMU VELO SNR AR TRES W  DIS CAZ7
 BAR2 SZ EP   1   1636 37.72                             167     0.2 7   30 214 
 BAR2 SZ ES   1   1636 52.23                             167    -0.3 7   30 214 
 BAR2 SZ I        1636 53.80        10.3 0.35                            30 214 
 BRR  HZ IP     D 1636 39.43                             148    -0.210   82 293 
 BRR  HZ I        1636 39.60        18.1 0.15                            82 293 
 BRR  HE ES   1   1636 56.44                             148     0.3 7   82 293 
 RUS  HZ EP   1   1636 42.03                             142     0.3 7  102 183 
 RUS  HN ES   1   1636 59.83                             142    -0.1 7  102 183 
 CHI  HZ EP   1   1636 56.38                             115     0.0 6  254 198 
 CHI  HE ES   1   1637 26.13                             115     0.2 6  254 198 
 CHI  HZ I        1637 30.54         2.1 0.64                           254 198 
 PRA  HZ EP   2   1637 12.15                             105    -0.5 3  400 211 
 PRA  HE ES   2   1637 54.68                             105    -0.2 3  400 211 
 PRA  HZ I        1638  0.28         2.2 0.38                           400 211 
                                                                                
