 2015  5 1 1237  7.7 L   6.720 -73.137131.5  RSN  9 0.4 1.8LRSN                1
 GAP=161        0.88       3.6     4.1  5.9 -0.3446E+01  0.8271E+01  0.7022E+01E
 Epicentro: JORDAN - SANTANDER                                                 3
 ACTION:UPD 15-09-10 22:00 OP:cam  STATUS:               ID:20150501123707 L   I
 OLDACT:DUP 15-05-01 22:01 OP:ak   STATUS:               ID:20150501122748d    3
 2015-05-01-1227-47M.COL___273                                                 6
 STAT SP IPHASW D HRMM SECON CODA AMPLIT PERI AZIMU VELO AIN AR TRES W  DIS CAZ7
 BAR2 EZ IP     D 1237 25.64                             173    0.1810 15.0 200 
 BAR2 EZ ES       1237 39.57                             173    0.2510 15.0 200 
 BAR2 EZ I        1237 43.20         9.6 0.21            168           15.0 200 
 BRR  HZ IP     D 1237 27.56                             148   -0.1110 76.6 304 
 BRR  HN ES       1237 42.79                             148   -0.4510 76.6 304 
 PAM  SZ IP     C 1237 28.64                             146   -0.2110 83.9  35 
 PAM  SN ES       1237 45.66                             146    0.3110 83.9  35 
 PAM  SZ I        1237 47.97        13.5 0.63            153           83.9  35 
 ZAR  HZ EP       1237 39.71                             118   -0.02 8  208 294 
 ZAR  HE ES       1238  4.44                             118   -0.27 8  208 294 
 ZAR  HZ I        1238 10.75         8.6 0.37            121            208 294 
 NOR  HZ EP       1237 42.28                             116    0.10 8  230 236 
 NOR  HN ES       1238  9.64                             116    0.57 8  230 236 
 NOR  HZ I        1238 16.40         5.2 0.20            117            230 236 
 CHI  HZ EP   1   1237 43.14                             115   -0.59 6  240 196 
 CHI  HN ES       1238 11.01                             115   -0.82 8  240 196 
 CHI  HZ I        1238 18.90         3.1 0.34            116            240 196 
 GUY2CHZ EP   1   1237 50.83                             110    0.63 5  297 236 
 GUY2CHN ES   1   1238 22.88                             110   -0.47 5  297 236 
 GUY2CHZ I        1238 30.89         3.2 0.46                           297 236 
 RREF HZ EP   1   1237 53.58                             108    0.89 5  317 231 
 RREF HN ES       1238 28.09                             108    0.31 7  317 231 
 RREF HZ I        1238 37.89         1.4 0.40            110            317 231 
 TOL  SE ES   1   1238 31.85                             107    0.37 5  338 226 
 TOL  SN I        1238 38.99         5.7 0.19            108            338 226 
                                                                                
