 2014  9 1 1025 12.1 L   6.530 -73.549108.3  RSN 14 0.6 1.8LRSN                1
 GAP=105        1.32       3.4     5.1  7.7 -0.4436E+01  0.3466E+01  0.1861E+01E
 Epicentro: EL CARMEN - SANTANDER                                              3
 ACTION:UPD 14-10-03 23:01 OP:nd   STATUS:               ID:20140901102512 L   I
 OLDACT:REG 14-09-01 20:10 OP:fm   STATUS:               ID:20140901101817     3
 2014-09-01-1018-17M.COL___263                                                 6
 STAT SP IPHASW D HRMM SECON CODA AMPLIT PERI AZIMU VELO AIN AR TRES W  DIS CAZ7
 BAR2 SZ EP     C 1025 28.17                             158    0.2710 41.1  80 
 BAR2 SZ ES   1   1025 40.53                             158    0.30 7 41.1  80 
 BAR2 SZ I        1025 42.13        56.4 0.48            157           41.1  80 
 BRR  HZ EP       1025 29.01                             146   -0.0010 66.3 344 
 BRR  HN ES       1025 42.86                             146    0.6610 66.3 344 
 PTB  HZ EP     D 1025 30.97                             134   -0.7510  100 271 
 PTB  HE ES       1025 45.94                             134   -1.1010  100 271 
 PTB  HZ I        1025 47.05        10.9 0.30            131            100 271 
 SPBC HZ EP       1025 33.07                             130    0.0910  113 211 
 SPBC HN ES       1025 49.39                             130    0.1310  113 211 
 SPBC HZ I        1025 51.65        15.2 0.28            128            113 211 
 ZAR  HZ EP       1025 40.83                             116    1.13 9  180 306 
 ZAR  HN ES       1026  2.00                             116    0.77 9  180 306 
 ZAR  HZ I        1026  4.80         5.9 0.48            114            180 306 
 NOR  HN ES       1026  1.15                             116   -0.48 9  181 234 
 NOR  HZ I        1026  3.25         5.8 0.16            114            181 234 
 OCA  HZ EP       1025 40.44                             115   -0.67 9  191   8 
 OCA  HN ES       1026  3.28                             115   -0.46 9  191   8 
 OCA  HZ I        1026  9.52         6.6 0.54            113            191   8 
 CHI  HZ EP   1   1025 44.19                             112    0.46 6  211 186 
 CHI  HN ES   1   1026  8.06                             112   -0.34 6  211 186 
 CHI  HZ I        1026 13.19         2.3 0.60            110            211 186 
 HEL  HZ EP   1   1025 44.77                             111   -0.17 6  222 260 
 HEL  HN ES   1   1026 11.46                             111    0.90 6  222 260 
 HEL  HZ I        1026 16.01         3.4 0.52            109            222 260 
 GUY2CHZ EP   4   1025 49.76                             108    1.78 0  248 234 
 GUY2CHN ES   4   1026 17.59                             108    1.61 0  248 234 
 GUY2CHZ I        1026 20.65         4.3 0.36                           248 234 
 SML  HZ EP   1   1025 48.42                             107   -0.14 6  258 347 
 SML  HN ES   1   1026 16.35                             107   -0.64 6  258 347 
 SML  HZ I        1026 19.86        11.1 0.24            105            258 347 
 TOL  SZ EP   1   1025 52.99                             105    0.08 5  291 222 
 TOL  SN ES   4   1026 27.62                             105    2.88 0  291 222 
 TOL  SZ I        1026 29.57         6.7 0.34            103            291 222 
 MON  HZ EP   4   1025 56.62                             101   -1.80 0  341 317 
 MON  HN ES   4   1026 32.46                             101   -2.10 0  341 317 
 MON  HZ I        1026 37.19         1.3 0.18            100            341 317 
 PRA  HZ EP       1025 59.26                             101    0.33 7  345 206 
 PRA  HN ES   1   1026 35.67                             101    0.20 5  345 206 
 PRA  HZ I        1026 40.99         2.6 0.24             99            345 206 
                                                                                
