 2013  8 1 1500 45.2 L   6.754 -73.195154.0  RSN  5 0.3 1.4LRSN                1
 GAP=228        0.58       5.1     5.3  5.1  0.1747E+02  0.2797E+01 -0.2257E+01E
 Epicentro: VILLANUEVA - SANTANDER                                             3
 ACTION:UPD 14-01-14 08:58 OP:ep   STATUS:               ID:20130801150045 L   I
 OLDACT:UP  13-08-05 02:16 OP:Mher STATUS:               ID:20130801150045 L   3
 OLDACT:REG 13-08-01 18:32 OP:cam  STATUS:               ID:20130801145850     3
 2013-08-01-1458-50M.COL___249                                                 6
 STAT SP IPHASW D HRMM SECON CODA AMPLIT PERI AZIMU VELO AIN AR TRES W  DIS CAZ7
 BAR2 SZ EP   1   15 1  5.40                             173   -0.37 7 18.0 175 
 BAR2 SZ ES   1   15 1 21.31                             173   -0.47 7 18.0 175 
 BRR  HZ EP       15 1  7.31                             155    0.1410 69.1 304 
 BRR  HN ES       15 1 24.53                             155    0.2510 69.1 304 
 RUS  HZ EP   1   15 1  9.49                             147   -0.01 7 96.1 173 
 RUS  HZ I        15 1 10.20         2.7 0.30            145           96.1 173 
 RUS  HE ES       15 1 28.65                             147    0.2310 96.1 173 
 PTB  HZ EP   1   15 1 12.17                             135   -0.17 7  141 260 
 PTB  HN ES   1   15 1 33.37                             135   -0.11 7  141 260 
 PTB  HZ I        15 1 37.31         3.9 0.16            131            141 260 
 ZAR  HZ EP   1   15 1 18.19                             125    0.27 6  201 294 
 ZAR  HN ES   1   15 1 43.16                             125   -0.26 6  201 294 
 ZAR  HZ I        15 1 49.75         3.5 0.44            122            201 294 
                                                                                
