 2015  9 1 1328  3.9 L   6.285 -73.687103.8  RSN  9 0.5 1.9LRSN                1
 GAP=147        1.07       3.2     4.4  7.4 -0.5672E+01  0.1404E+02 -0.4124E+01E
 Epicentro: SANTA HELENA DEL OPON - SANTANDER                                  3
 ACTION:UPD 15-10-28 16:23 OP:cam  STATUS:               ID:20150901132803 L   I
 OLDACT:UP  15-09-02 00:12 OP:ak   STATUS:               ID:20150901131748     3
 OLDACT:REG 15-09-01 20:56 OP:ak   STATUS:               ID:20150901131748     3
 2015-09-01-1317-48M.COL___364                                                 6
 STAT SP IPHASW D HRMM SECON CODA AMPLIT PERI AZIMU VELO AIN AR TRES W  DIS CAZ7
 BAR2 EZ EP       1328 21.04                             145    0.4110 65.4  59 
 BAR2 EZ ES       1328 33.88                             145    0.2010 65.4  59 
 BAR2 EZ I        1328 35.78        74.4 0.50            150           65.4  59 
 SPBC HZ EP       1328 21.13                             139   -0.5310 81.9 211 
 SPBC HN ES       1328 35.44                             139   -0.0810 81.9 211 
 SPBC HZ I        1328 40.47        22.4 0.19            140           81.9 211 
 NOR  HZ EP   1   1328 28.03                             119   -0.43 7  153 239 
 NOR  HE ES       1328 46.61                             119   -1.00 9  153 239 
 NOR  HZ I        1328 50.63        14.6 0.18            121            153 239 
 ZAR  HZ EP       1328 32.14                             114    0.17 9  186 316 
 ZAR  HN ES       1328 54.18                             114    0.31 9  186 316 
 ZAR  HZ I        1328 57.10        13.3 0.40            116            186 316 
 HEL  HZ EP       1328 34.99                             112    0.52 9  204 267 
 HEL  HN ES       1328 58.72                             112    0.40 9  204 267 
 HEL  HZ I        1329  1.33         7.0 0.32            114            204 267 
 GUY2CHZ EP       1328 36.80                             110    0.41 8  220 238 
 GUY2CHN ES       1329  2.30                             110    0.56 8  220 238 
 GUY2CHZ I        1329  7.77         5.6 0.34                           220 238 
 TOL  SZ EP       1328 40.89                             106   -0.11 8  261 224 
 TOL  SN ES       1329  9.94                             106   -0.00 8  261 224 
 TOL  SZ I        1329 16.92         4.1 0.32            108            261 224 
 SML  HZ EP       1328 42.39                             104   -0.62 7  282 351 
 SML  HE ES       1329 12.80                             104   -0.72 7  282 351 
 SML  HZ I        1329 17.78         5.2 0.08            106            282 351 
 PRA  HZ EP       1328 47.31                             102    0.40 7  314 205 
 PRA  HN ES       1329 20.40                             102   -0.06 7  314 205 
 PRA  HZ I        1329 26.90         2.3 0.38            104            314 205 
                                                                                
