 2016  4 1 1934 20.5 L   6.799 -73.132135.2  RSN  8 0.4 1.7LRSN                1
 GAP=138        0.92       3.8     4.0  6.3 -0.3750E+01  0.1171E+02 -0.1300E+01E
 Epicentro: LOS SANTOS - SANTANDER                                             3
 ACTION:UPD 16-05-05 14:17 OP:rebc STATUS:               ID:20160401193420 L   I
 OLDACT:UP  16-04-01 22:28 OP:drio STATUS:               ID:20160401192743     3
 OLDACT:UP  16-04-01 22:28 OP:drio STATUS:               ID:20160401192743     3
 OLDACT:REG 16-04-01 19:56 OP:drio STATUS:               ID:20160401192743     3
 2016-04-01-1927-43M.COL___295                                                 6
 STAT SP IPHASW D HRMM SECON CODA AMPLIT PERI AZIMU VELO AIN AR TRES W  DIS CAZ7
 BAR2 EZ ES       1934 53.05                             170   -0.1610 23.5 194 
 BAR2 EZ I        1934 54.90        16.6 0.26            170           23.5 194 
 PAM  EZ EP       1934 41.86                             149    0.2910 76.5  39 
 PAM  EE ES       1934 57.94                             149   -0.0410 76.5  39 
 PAM  EZ I        1935  3.14         4.1 0.60            153           76.5  39 
 RUS  HZ EP       1934 43.50                             141    0.2710  100 177 
 RUS  HN ES       1935  1.04                             141    0.0910  100 177 
 PTB  HZ EP       1934 45.85                             129   -0.94 9  149 259 
 PTB  HE ES       1935  7.17                             129   -0.11 9  149 259 
 PTB  HZ I        1935  9.31         6.2 0.38            131            149 259 
 SPBC HZ EP       1934 48.01                             126   -0.31 9  164 219 
 SPBC HN ES       1935 10.09                             126    0.09 9  164 219 
 SPBC HZ I        1935 18.47         4.5 0.10            129            164 219 
 ZAR  HZ EP       1934 52.91                             120    0.46 8  206 292 
 ZAR  HE ES       1935 17.54                             120    0.18 8  206 292 
 ZAR  HZ I        1935 22.43         5.9 0.38            122            206 292 
 NOR  HZ EP       1934 55.43                             116   -0.36 8  236 235 
 NOR  HE ES       1935 23.34                             116    0.04 8  236 235 
 NOR  HZ I        1935 28.73         6.0 0.20            118            236 235 
 GUY2CHZ EP   4   1935  5.35                             110    1.55 0  302 235 
 GUY2CHN ES       1935 38.29                             110    0.74 7  302 235 
 GUY2CHZ I        1935 45.41         3.1 0.48                           302 235 
                                                                                
