 2010 11 1 1934 30.2 L   6.795 -73.080136.6  RSN  7 0.2 1.7LRSN                1
 GAP=166        0.40       2.4     4.1  4.2 -0.1818E+01 -0.5013E+01 -0.2074E+01E
 Epicentro: LOS SANTOS - SANTANDER                                             3
 ACTION:UP  10-12-17 16:49 OP:REBC STATUS:               ID:20101101193430 L   I
 2010-11-01-1930-49S.COL___126                                                 6
 STAT SP IPHASW D HRMM SECON CODA AMPLIT PERI AZIMU VELO SNR AR TRES W  DIS CAZ7
 BAR2 SZ EP   2   1934 48.41                             169    -0.3 5   25 207 
 BAR2 SZ ES   1   1935  3.18                             169    -0.1 8   25 207 
 BAR2 SZ I        1935  4.86        12.5 0.18                            25 207 
 BRR  HZ EP   1   1934 50.64                             148    -0.1 8   78 296 
 BRR  HE ES   1   1935  6.98                             148     0.2 8   78 296 
 BRR  HZ I        1935 11.69        15.8 0.06                            78 296 
 RUS  HZ EP   1   1934 53.04                             142     0.1 8  100 180 
 RUS  HN ES   2   1935 10.85                             142     0.1 5  100 180 
 RUS  HZ I        1935 11.83         4.0 0.31                           100 180 
 GUE  SZ EP       1934 53.94                             137    -0.110  116   9 
 GRA  SZ IP       1934 54.75                             135     0.210  124  14 
 GRA  SZ ES   2   1935 13.26                             135    -0.2 5  124  14 
 GRA  SZ I        1935 16.66         7.4 0.41                           124  14 
 OCA  SZ EP   2   1934 57.75                             127    -0.2 5  162 351 
 OCA  SZ ES   2   1935 19.53                             127    -0.1 5  162 351 
 OCA  SZ I        1935 21.15        10.6 0.14                           162 351 
 NOR  SE ES   2   1935 33.96                             116     0.0 4  240 236 
                                                                                
