 2017  3 1 1259 40.7 L   6.740 -73.161145.7  RSN  6 0.3 1.7LRSN                1
 GAP=137        0.72       3.6     3.2  5.2  0.9987E+00  0.3179E+01  0.6257E-01E
 Epicentro: LOS SANTOS - SANTANDER                                             3
 ACTION:UPD 17-05-25 18:34 OP:jn   STATUS:               ID:20170301125940 L   I
 OLDACT:REG 17-03-01 19:56 OP:lv   STATUS:               ID:20170301125746     3
 2017-03-01-1258-00M.COL___371                                                 6
 STAT SP IPHASW D HRMM SECON CODA AMPLIT PERI AZIMU VELO AIN AR TRES W  DIS CAZ7
 BAR2 EZ EP       13 0  0.30                             173    0.1310 16.5 188 
 BAR2 EZ ES       13 0 15.17                             173   -0.2110 16.5 188 
 BAR2 EZ I        13 0 17.65        24.8 0.34            173           16.5 188 
 BRR  HZ EP       13 0  1.91                             152   -0.0110 73.2 304 
 BRR  HN ES       13 0 18.88                             152    0.3810 73.2 304 
 PAM  EZ EP       13 0  3.15                             149   -0.1110 83.7  38 
 PAM  EN ES       13 0 20.70                             149   -0.1910 83.7  38 
 PAM  EZ I        13 0 22.58         3.9 0.12            151           83.7  38 
 RUS  HZ EP       13 0  4.25                             146    0.3010 94.1 175 
 RUS  HN ES       13 0 22.26                             146    0.1510 94.1 175 
 RUS  HZ I        13 0 23.85         6.8 0.35            147           94.1 175 
 PTB  HZ EP       13 0  7.00                             133   -0.37 9  145 261 
 PTB  HN ES       13 0 27.78                             133   -0.42 9  145 261 
 PTB  HZ I        13 0 30.11         8.2 0.22            134            145 261 
 ZAR  HE ES       13 0 38.96                             122    0.36 9  205 294 
                                                                                
