 2012  5 1 1656 12.4 L   6.708 -73.191143.0  RSN  5 0.3 1.8LRSN                1
 GAP=225        0.66       6.6     6.1  7.1  0.2491E+02  0.7871E+01  0.1335E+01E
 Epicentro: VILLANUEVA - SANTANDER                                             3
 ACTION:UP  12-07-05 12:01 OP:pat  STATUS:               ID:20120501165612 L   I
 2012-05-01-1650-00M.COL___189                                                 6
 STAT SP IPHASW D HRMM SECON CODA AMPLIT PERI AZIMU VELO SNR AR TRES W  DIS CAZ7
 BAR2 SZ EP   1   1656 31.40                             175    -0.2 7   13 176 
 BAR2 SZ ES   1   1656 46.05                             175    -0.4 7   13 176 
 BAR2 SZ I        1656 47.53        15.0 0.19                            13 176 
 BRR  HZ EP   1   1656 33.33                             152     0.0 7   73 308 
 BRR  HN ES   1   1656 50.13                             152     0.4 7   73 308 
 BRR  HZ I        1656 54.85        20.9 0.11                            73 308 
 RUS  HZ EP   1   1656 35.46                             146     0.2 7   91 172 
 RUS  HN ES   1   1656 53.28                             146     0.3 7   91 172 
 RUS  HZ I        1656 54.55         8.4 0.42                            91 172 
 PTB  HZ EP   1   1656 38.44                             133    -0.2 7  141 262 
 PTB  HN ES   1   1656 58.81                             133    -0.2 7  141 262 
 PTB  HZ I        1657  2.29         5.2 0.15                           141 262 
 ZAR  HN ES   1   1657  9.86                             122     0.1 6  204 295 
 ZAR  HZ I        1657 16.30        11.1 0.46                           204 295 
                                                                                
