 2011 10 1 1836 39.4 L   6.776 -73.139142.0  RSN  6 0.3 1.8LRSN                1
 GAP=138        0.66       3.0     4.2  5.2  0.2508E+01  0.3098E+01  0.3054E+01E
 Epicentro: LOS SANTOS - SANTANDER                                             3
 ACTION:UPD 12-07-13 16:01 OP:ep   STATUS:               ID:20111001183639 L   I
 2011-10-01-1834-23S.COL___168                                                 6
 STAT SP IPHASW D HRMM SECON CODA AMPLIT PERI AZIMU VELO AIN AR TRES W  DIS CAZ7
 BAR2 SZ EP   1   1836 58.39                             171   -0.12 7 20.9 193 
 BAR2 SZ ES   2   1837 12.94                             171   -0.49 5 20.9 193 
 BAR2 SZ I        1837 16.44        20.0 0.18                          20.9 193 
 BRR  HZ EP       1837  0.33                             151    0.1010 73.1 300 
 BRR  HE ES       1837 16.81                             151    0.3110 73.1 300 
 BRR  HZ I        1837 19.95        13.9 0.11                          73.1 300 
 PAM  SZ EP       1837  1.43                             150    0.1310 79.0  38 
 PAM  SE ES   1   1837 18.42                             150    0.03 7 79.0  38 
 RUS  HZ EP       1837  2.59                             144    0.0210 97.9 176 
 RUS  HN ES       1837 20.35                             144   -0.3110 97.9 176 
 RUS  HZ I        1837 22.53         8.2 0.41                          97.9 176 
 ZAR  HZ EP   1   1837 11.21                             121   -0.54 6  206 293 
 ZAR  HE ES   1   1837 36.70                             121   -0.30 6  206 293 
 ZAR  HZ I        1837 41.87         7.3 0.29                           206 293 
 CHI  HZ EP       1837 16.60                             117   -0.02 8  246 195 
 CHI  HN ES   1   1837 46.46                             117    0.80 6  246 195 
 CHI  HZ I        1837 56.36         3.8 0.41                           246 195 
                                                                                
