 2012  6 1 1541 25.5 L   6.806 -73.143140.6  RSN  6 0.4 1.8LRSN                1
 GAP=183        0.74       3.8     4.8 10.4 -0.3916E+00  0.8396E+01 -0.5924E+01E
 Epicentro: LOS SANTOS - SANTANDER                                             3
 ACTION:UP  12-08-06 17:46 OP:ep   STATUS:               ID:20120601154125 L   I
 2012-06-01-1540-00M.COL___201                                                 6
 STAT SP IPHASW D HRMM SECON CODA AMPLIT PERI AZIMU VELO AIN AR TRES W  DIS CAZ7
 BAR2 SZ EP       1541 44.72                             170    0.1610 24.0 190 
 BAR2 SZ I        1541 45.15        16.5 0.10                          24.0 190 
 RUS  HZ EP   1   1541 48.98                             142    0.15 7  101 176 
 RUS  HN ES   1   1542  6.96                             142   -0.03 7  101 176 
 RUS  HZ I        1542  8.48         6.2 0.45                           101 176 
 PTB  HZ EP   1   1541 51.27                             131   -0.86 7  148 259 
 PTB  HE ES   1   1542 12.42                             131   -0.44 7  148 259 
 PTB  HZ I        1542 20.08         7.9 0.26                           148 259 
 OCA  HZ EP   1   1541 53.32                             128   -0.07 7  160 353 
 OCA  HN ES   1   1542 15.07                             128   -0.05 7  160 353 
 ZAR  HE ES   1   1542 23.32                             121    0.62 6  204 292 
 ZAR  HZ I        1542 28.73        13.8 0.35                           204 292 
 NOR  SZ EP   1   1542  1.35                             117    0.31 6  235 234 
 NOR  SN ES   1   1542 29.00                             117    0.27 6  235 234 
                                                                                
