 2015  4 1 1541 42.6 L   6.824 -73.162139.1  RSN 18 0.5 2.5LRSN                1
 GAP= 69        1.10       2.7     2.8  5.1 -0.7420E+00  0.4943E+01  0.1461E+01E
 Epicentro: LOS SANTOS - SANTANDER                                             3
 ACTION:UPD 15-06-03 16:51 OP:cam  STATUS:               ID:20150401154142 L   I
 OLDACT:REG 15-04-01 20:28 OP:fm   STATUS:               ID:20150401153748     3
 2015-04-01-1537-48M.COL___268                                                 6
 STAT SP IPHASW D HRMM SECON CODA AMPLIT PERI AZIMU VELO AIN AR TRES W  DIS CAZ7
 BAR2 EZ IP     C 1542  1.72                             169    0.2610 25.8 185 
 BAR2 EZ ES       1542 16.33                             169    0.1410 25.8 185 
 BAR2 EZ I        1542 17.98        70.5 0.20            169           25.8 185 
 BRR  HZ IP     C 1542  3.59                             152    0.7510 68.3 297 
 BRR  HE ES       1542 19.41                             152    0.7610 68.3 297 
 BRR  HZ I        1542 23.84        42.2 0.30            151           68.3 297 
 PAM  SZ IP     C 1542  4.59                             150    0.5610 76.5  42 
 PAM  SN ES       1542 21.22                             150    0.4510 76.5  42 
 PAM  SZ I        1542 22.25        33.1 0.26            154           76.5  42 
 RUS  HZ EP       1542  5.58                             142   -0.3110  103 175 
 RUS  HN ES       1542 23.28                             142   -0.7910  103 175 
 RUS  HZ I        1542 25.16        23.3 0.20            144            103 175 
 PTB  HZ EP       1542  8.74                             131   -0.15 9  147 258 
 PTB  HE ES       1542 28.97                             131   -0.45 9  147 258 
 PTB  HZ I        1542 31.85        51.2 0.16            131            147 258 
 OCA  HN ES       1542 30.88                             129   -0.69 9  157 354 
 OCA  HZ I        1542 35.97        54.5 0.18            131            157 354 
 TAM  HZ EP       1542 10.02                             129    0.06 9  158 106 
 TAM  HE ES       1542 30.71                             129   -0.62 9  158 106 
 TAM  HZ I        1542 32.27        25.9 0.54            133            158 106 
 SPBC HZ EP       1542 10.59                             127   -0.07 9  164 218 
 SPBC HE ES       1542 32.52                             127   -0.05 9  164 218 
 SPBC HZ I        1542 39.92        32.3 0.58            128            164 218 
 ZAR  HZ EP       1542 14.41                             121    0.10 9  201 292 
 ZAR  HN ES       1542 39.21                             121    0.14 9  201 292 
 ZAR  HZ I        1542 45.74        51.5 0.50            122            201 292 
 NOR  HZ EP       1542 17.64                             117   -0.30 8  235 234 
 NOR  HE ES       1542 45.02                             117   -0.50 8  235 234 
 NOR  HZ I        1542 48.73        21.6 0.20            118            235 234 
 SML  HZ EP       1542 18.25                             116   -0.23 8  241 335 
 SML  HN ES       1542 45.56                             116   -0.93 8  241 335 
 SML  HZ I        1542 49.62        37.5 0.24            118            241 335 
 ROSC BZ EP       1542 21.32                             115    0.83 8  254 210 
 ROSC BE ES       1542 50.58                             115    0.51 8  254 210 
 ROSC BZ I        1542 55.30        20.1 0.40            117            254 210 
 HEL  HZ EP       1542 22.60                             114    0.27 8  271 255 
 HEL  HN ES       1542 53.47                             114    0.12 8  271 255 
 HEL  HZ I        1543  0.25        18.0 0.34            115            271 255 
 URE  HE ES   4   1542 53.98                             112   -0.60 0  281 292 
 URE  HZ I        1542 58.53        12.7 0.18            114            281 292 
 GUY2CHZ EP       1542 26.05                             111    0.16 7  301 234 
 GUY2CHE ES       1542 59.83                             111    0.15 7  301 234 
 GUY2CHZ I        1543  8.31        17.8 0.38                           301 234 
 CBOC HZ EP       1542 28.78                             109   -0.34 7  333 252 
 CBOC HE ES       1543  5.16                             109   -0.26 7  333 252 
 CBOC HZ I        1543 18.45         6.5 0.48            110            333 252 
 DBB  SZ EP       1542 30.08                             108    0.52 7  337 274 
 DBB  SZ ES       1543  5.64                             108   -0.56 7  337 274 
 DBB  SZ I        1543 10.03        31.2 0.28            110            337 274 
 ORTC HZ EP   1   1542 36.39                             105   -0.01 4  397 216 
 ORTC HE ES       1543 18.47                             105    0.08 6  397 216 
 ORTC HZ I        1543 24.13         9.4 0.44            107            397 216 
                                                                                
