 2010  6 1 1223 15.3 L   6.789 -73.031140.5  RSN  5 0.4 1.9LRSN                1
 GAP=206        0.74       9.2    16.1  7.7 -0.1237E+03  0.3445E+02 -0.1095E+02E
 Epicentro: CEPITA - SANTANDER                                                 3
 ACTION:UP  10-08-24 10:07 OP:vdl  STATUS:               ID:20100601122317 L   I
 2010-06-01-1218-03S.COL___109                                                 6
 STAT SP IPHASW D HRMM SECON CODA AMPLIT PERI AZIMU VELO SNR AR TRES W  DIS CAZ7
 BAR2 SZ EP       1223 34.07                             168    -0.310   28 218 
 BAR2 SZ ES   1   1223 49.81                             168     0.5 7   28 218 
 GIR2 SZ EP       1223 34.34                             164    -0.210   37 331 
 GIR2 SZ ES   2   1223 49.14                             164    -0.4 5   37 331 
 GUE  SZ EP       1223 39.56                             138     0.110  116   6 
 GUE  SZ ES   2   1223 58.23                             138    -0.1 5  116   6 
 GRA  SZ ES   2   1223 59.66                             136     0.5 5  124  12 
 RREF BZ EP   1   1224  3.08                             109     0.8 5  331 231 
 RREF BN ES   1   1224 38.63                             109    -0.2 5  331 231 
 RREF BZ I        1224 43.44         3.5 0.88                           331 231 
                                                                                
