 2010 10 1 1353 57.8 L   6.778 -73.090148.8  RSN  4 0.2 1.6LRSN                1
 GAP=242        0.37       4.6     9.9  5.8  0.2175E+02  0.2371E+01  0.7198E+01E
 Epicentro: LOS SANTOS - SANTANDER                                             3
 ACTION:UP  11-02-18 11:06 OP:tino STATUS:               ID:20101001135357 L   I
 2010-10-01-1351-08S.COL___125                                                 6
 STAT SP IPHASW D HRMM SECON CODA AMPLIT PERI AZIMU VELO SNR AR TRES W  DIS CAZ7
 BAR2 SZ EP   2   1354 17.61                             171    -0.2 5   23 207 
 BAR2 SZ ES   2   1354 33.27                             171    -0.2 5   23 207 
 BAR2 SZ I        1354 36.00         8.3 0.51                            23 207 
 BRR  HZ EP   2   1354 19.63                             151    -0.1 5   78 298 
 BRR  HZ I        1354 19.81        11.3 0.37                            78 298 
 BRR  HN ES   2   1354 36.92                             151     0.2 5   78 298 
 RUS  HZ EP   2   1354 22.02                             145     0.3 5   98 180 
 RUS  HE ES   2   1354 40.45                             145     0.1 5   98 180 
 RUS  HZ I        1354 41.34         4.2 0.35                            98 180 
 CHI  HZ EP   2   1354 35.67                             118     0.0 4  248 197 
 CHI  HN ES   2   1355  4.97                             118    -0.2 4  248 197 
 CHI  HZ I        1355 10.81         2.7 0.41                           248 197 
                                                                                
