 2011  1 1 1042 20.5 L   6.773 -73.136142.0  RSN  5 0.4 1.5LRSN                1
 GAP=160        0.80       6.7    25.0  9.1 -0.1083E+03 -0.1578E+02  0.9514E+01E
 Epicentro: LOS SANTOS - SANTANDER                                             3
 ACTION:UP  11-02-08 08:37 OP:pat  STATUS:               ID:20110101104220 L   I
 2011-01-01-1039-05S.COL___134                                                 6
 STAT SP IPHASW D HRMM SECON CODA AMPLIT PERI AZIMU VELO SNR AR TRES W  DIS CAZ7
 BAR2 SZ EP   1   1042 39.23                             171    -0.4 7   21 195 
 BAR2 SZ I        1042 39.61         8.6 0.35                            21 195 
 BAR2 SZ ES   2   1042 54.24                             171    -0.3 5   21 195 
 BTL  SZ IP       1042 39.40                             171    -0.210   22 318 
 BTL  SZ ES   2   1042 54.92                             171     0.4 5   22 318 
 RUS  HZ EP   1   1042 43.27                             144    -0.4 7   98 177 
 RUS  HZ I        1042 44.52         2.9 0.27                            98 177 
 RUS  HN ES   2   1043  2.10                             144     0.4 5   98 177 
 GRA  SZ EP   1   1042 46.02                             135     0.4 7  128  17 
 GRA  SZ ES   2   1043  5.63                             135     0.4 5  128  17 
 GRA  SZ I        1043  8.61         4.6 0.42                           128  17 
 CHI  HZ EP   1   1042 57.97                             117     0.3 6  246 196 
 CHI  HE ES   2   1043 27.69                             117     1.0 4  246 196 
 CHI  HZ I        1043 32.99         2.5 0.75                           246 196 
                                                                                
