 2017  1 1 1652 53.0 L   6.767 -73.148139.9  RSN 10 0.4 2.0LRSN                1
 GAP=138        1.03       4.3     4.1  6.3 -0.1104E+01  0.7291E+01  0.1571E+01E
 Epicentro: LOS SANTOS - SANTANDER                                             3
 ACTION:UPD 17-05-22 15:54 OP:jn   STATUS:               ID:20170101165253 L   I
 OLDACT:DUP 17-01-01 23:20 OP:lv   STATUS:               ID:20170101164744d    3
 2017-01-01-1648-00M.COL___375                                                 6
 STAT SP IPHASW D HRMM SECON CODA AMPLIT PERI AZIMU VELO AIN AR TRES W  DIS CAZ7
 BAR2 EZ IP     C 1653 11.75                             172   -0.1410 19.6 191 
 BAR2 EZ ES       1653 26.46                             172   -0.1310 19.6 191 
 BAR2 EZ I        1653 27.95        29.9 0.23            175           19.6 191 
 BRR  HZ EP       1653 13.72                             151    0.0710 72.8 301 
 BRR  HE ES       1653 30.31                             151    0.5810 72.8 301 
 BRR  HZ I        1653 35.01        29.1 0.14            149           72.8 301 
 PAM  EZ EP       1653 14.80                             149   -0.0210 80.4  38 
 PAM  EN ES       1653 31.72                             149   -0.0910 80.4  38 
 PAM  EZ I        1653 36.02         5.5 0.22            148           80.4  38 
 RUS  HZ EP       1653 16.60                             144    0.6610 96.9 176 
 RUS  HN ES       1653 33.63                             144   -0.1810 96.9 176 
 RUS  HZ I        1653 35.43        10.4 0.32            149           96.9 176 
 PTB  HZ EP       1653 18.64                             131   -0.80 9  147 260 
 PTB  HN ES       1653 39.53                             131   -0.51 9  147 260 
 PTB  HZ I        1653 41.88        13.7 0.20            132            147 260 
 ZAR  HZ EP       1653 24.84                             121   -0.39 8  205 293 
 ZAR  HN ES       1653 50.84                             121    0.50 8  205 293 
 ZAR  HZ I        1653 56.84        15.2 0.21            121            205 293 
 NOR  HZ EP       1653 28.45                             117    0.28 8  232 235 
 NOR  HN ES       1653 55.77                             117    0.18 8  232 235 
 NOR  HZ I        1653 58.53         5.5 0.24            119            232 235 
 GUY2CHZ EP   9   1653 37.84                             111    1.73 0  299 235 
 GUY2CHN ES       1654 11.44                                   -0.00 7  299 235 
 GUY2CHZ  IAML    1654 17.16         2.7 0.24                           299 235 
 LL1C HZ EP   9   1653 38.75                             110    1.97 0  310 352 
 LL1C HN ES       1654 12.16                                   -0.72 7  310 352 
 LL1C HZ I        1654 19.85         9.5 0.29            111            310 352 
 SJC  HZ EP   4   1653 46.68                             105   -2.08 0  412 327 
 SJC  HN ES   4   1654 28.40                             105   -3.82 0  412 327 
 SJC  HZ I        1654 31.58         3.2 0.36            105            412 327 
                                                                                
