 2011  5 1 1537 17.5 L   6.768 -73.077146.0  RSN 10 0.5 2.6LRSN                1
 GAP=147        1.02       4.5     7.8  7.3 -0.1374E+02  0.4395E+01 -0.1136E+01E
 Epicentro: LOS SANTOS - SANTANDER                                             3
 ACTION:UP  11-06-29 08:50 OP:tino STATUS:               ID:20110501153717 L   I
 2011-05-01-1534-34S.COL___128                                                 6
 STAT SP IPHASW D HRMM SECON CODA AMPLIT PERI AZIMU VELO SNR AR TRES W  DIS CAZ7
 BAR2 SZ IP       1537 37.16                             171     0.010   23 211 
 BAR2 SZ ES   1   1537 51.90                             171    -0.6 7   23 211 
 BAR2 SZ I        1537 53.45        85.4 0.38                            23 211 
 PAM  SZ IP       1537 39.96                             151     0.310   76  33 
 PAM  SZ I        1537 40.21        41.3 0.16                            76  33 
 PAM  SN ES   1   1537 57.33                             151     0.4 7   76  33 
 BRR  HZ IP     C 1537 39.06                             150    -0.110   80 298 
 BRR  HZ I        1537 39.34       209.9 0.16                            80 298 
 BRR  HN ES   1   1537 56.73                             150     0.7 7   80 298 
 RUS  HZ EP       1537 41.02                             145     0.010   97 180 
 RUS  HN ES   1   1537 59.23                             145    -0.1 7   97 180 
 RUS  HZ I        1538  1.04        42.4 0.27                            97 180 
 BRI  SZ IP       1537 41.71                             141     0.210  109  16 
 GRA  SZ IP       1537 42.94                             137     0.110  127  14 
 GRA  SZ I        1537 44.12        49.4 0.28                           127  14 
 GRA  SZ ES   1   1538  2.64                             137     0.0 7  127  14 
 OCA  SZ EP       1537 45.44                             129    -0.8 9  165 351 
 OCA  SZ ES   2   1538  8.40                             129    -0.3 5  165 351 
 OCA  SZ I        1538 13.30        48.7 0.47                           165 351 
 NOR  SZ EP   3   1537 53.47                             118    -0.2 2  239 236 
 NOR  SN ES   2   1538 20.95                             118    -1.0 4  239 236 
 RREF HN ES   2   1538 42.03                             111     1.7 3  325 231 
 PRA  HZ EP       1538 11.27                             107     0.1 6  393 211 
                                                                                
