 2016 11 1 1129 20.1 L   6.774 -73.141141.6  RSN  7 0.4 1.8LRSN                1
 GAP=138        0.92       4.2     4.3  6.2 -0.5839E+01  0.5021E+01  0.3372E+01E
 Epicentro: LOS SANTOS - SANTANDER                                             3
 ACTION:UPD 17-10-26 21:03 OP:lp   STATUS:               ID:20161101112920 L   I
 OLDACT:REG 16-11-01 19:56 OP:cog  STATUS:               ID:20161101112744     3
 2016-11-01-1128-00M.COL___328                                                 6
 STAT SP IPHASW D HRMM SECON CODA AMPLIT PERI AZIMU VELO AIN AR TRES W  DIS CAZ7
 BAR2 EZ EP       1129 39.14                             171   -0.0110 20.6 193 
 BAR2 EZ ES       1129 54.32                             171    0.3010 20.6 193 
 BRR  HZ EP       1129 41.06                             151    0.1810 73.0 300 
 BRR  HN ES       1129 57.54                             151    0.4410 73.0 300 
 BRR  HZ I        1129 59.42        16.0 0.18            152           73.0 300 
 PAM  EZ EP       1129 41.82                             150   -0.1410 79.3  38 
 PAM  EE ES       1129 58.77                             150   -0.2610 79.3  38 
 PAM  EZ I        1130  0.90         9.2 0.46            152           79.3  38 
 RUS  HZ EP       1129 42.95                             144   -0.2610 97.7 176 
 RUS  HE ES       1130  1.10                             144   -0.1510 97.7 176 
 RUS  HZ I        1130  3.05         7.7 0.44            145           97.7 176 
 PTB  HZ EP       1129 47.05                             131    0.35 9  148 260 
 PTB  HN ES       1130  6.49                             131   -0.98 9  148 260 
 SPBC HZ EP       1129 48.20                             128    0.13 9  161 220 
 SPBC HE ES       1130 10.34                             128    0.43 9  161 220 
 SPBC HZ I        1130 13.86        11.7 0.26            130            161 220 
 NOR  HZ EP   2   1129 55.65                             118    0.22 4  233 235 
 NOR  HE ES       1130 22.92                             118   -0.09 8  233 235 
 NOR  HZ I        1130 25.79         4.7 0.14            119            233 235 
                                                                                
