 2016 12 1 1340 41.3 L   6.792 -73.198144.0  RSN  6 0.2 1.6LRSN                1
 GAP=133        0.62       3.2     3.3  4.2 -0.2873E+01  0.9418E+00  0.3624E+01E
 Epicentro: ZAPATOCA - SANTANDER                                               3
 ACTION:UPD 17-01-11 20:11 OP:rebc STATUS:               ID:20161201134041 L   I
 OLDACT:REG 16-12-01 20:55 OP:lv   STATUS:               ID:20161201133750     3
 2016-12-01-1338-00M.COL___339                                                 6
 STAT SP IPHASW D HRMM SECON CODA AMPLIT PERI AZIMU VELO AIN AR TRES W  DIS CAZ7
 BAR2 EZ EP       1341  0.75                             171    0.0710 22.1 175 
 BAR2 EZ ES       1341 15.99                             171    0.1810 22.1 175 
 BAR2 EZ I        1341 17.39        10.2 0.22            172           22.1 175 
 BRR  HE ES       1341 18.39                             154    0.2510 66.6 302 
 PAM  EE EP       1341  3.57                             149   -0.0210 81.9  42 
 PAM  EZ ES       1341 20.72                             149   -0.2710 81.9  42 
 PAM  EE I        1341 23.38        11.8 0.40            150           81.9  42 
 PTB  HZ EP       1341  7.34                             133   -0.24 9  142 259 
 PTB  HN ES       1341 27.92                             133   -0.17 9  142 259 
 PTB  HZ I        1341 31.06         3.6 0.14            134            142 259 
 CHI  HZ EP       1341 19.13                             117    0.50 8  246 194 
 CHI  HN ES       1341 47.43                             117   -0.33 8  246 194 
 PTGC HZ EP   4   1341 23.57                             111   -1.64 0  310 158 
 PTGC HN ES   4   1341 54.48                             111   -4.99 0  310 158 
 SJC  HZ EP       1341 36.65                             105    0.13 6  407 328 
 SJC  HN ES   4   1342 17.37                             105   -2.22 0  407 328 
                                                                                
