 2017  1 1 1919 58.7 L   6.692 -73.256149.8  RSN  5 0.1 1.2LRSN                1
 GAP=191        0.45       2.9     2.7  3.8  0.1722E+01  0.3179E+01  0.1888E+01E
 Epicentro: GALAN - SANTANDER                                                  3
 ACTION:UPD 17-05-22 15:54 OP:jn   STATUS:               ID:20170101191958 L   I
 OLDACT:UP  17-01-01 22:18 OP:edw  STATUS:               ID:20170101191745     3
 OLDACT:REG 17-01-01 20:31 OP:lv   STATUS:               ID:20170101191745     3
 2017-01-01-1918-00M.COL___378                                                 6
 STAT SP IPHASW D HRMM SECON CODA AMPLIT PERI AZIMU VELO AIN AR TRES W  DIS CAZ7
 BAR2 EZ ES       1920 34.00                             175   -0.2510 13.8 144 
 BAR2 EZ I        1920 34.70         6.8 0.05            172           13.8 144 
 BRR  HZ EP       1920 20.03                             154   -0.1110 68.1 312 
 BRR  HN ES       1920 37.03                             154    0.1910 68.1 312 
 RUS  HZ EP       1920 22.34                             147    0.1610 90.5 168 
 RUS  HN ES       1920 40.56                             147    0.0810 90.5 168 
 RUS  HZ I        1920 42.12         2.0 0.26            148           90.5 168 
 PTB  HZ EP       1920 24.70                             136   -0.1010  134 263 
 PTB  HE ES       1920 45.22                             136    0.0810  134 263 
 PTB  HZ I        1920 53.14         1.1 0.14            134            134 263 
 NOR  HE ES       1920 59.48                             121   -0.10 8  218 235 
                                                                                
