 2011  8 1 1303  2.1 L   6.773 -73.111146.0  RSN 14 0.4 3.0LRSN                1
 GAP=142        0.77       3.2     4.9  4.8 -0.6380E+01  0.9204E+01  0.1861E+01E
 Epicentro: LOS SANTOS - SANTANDER                                             3
 ACTION:UPD 12-07-25 14:05 OP:epov STATUS:               ID:20110801130302 L   I
 2011-08-01-1301-26S.COL___142                                                 6
 STAT SP IPHASW D HRMM SECON CODA AMPLIT PERI AZIMU VELO AIN AR TRES W  DIS CAZ7
 BAR2 SZ IP       13 3 21.76                             171    0.0810 21.5 202 
 BAR2 SZ ES   1   13 3 36.58                             171   -0.40 7 21.5 202 
 BAR2 SZ I        13 3 38.48       187.7 0.30                          21.5 202 
 BRR  HZ IP     C 13 3 23.66                             151    0.1510 76.0 299 
 BRR  HN ES   1   13 3 40.98                             151    0.74 7 76.0 299 
 BRR  HZ I        13 3 43.91       301.5 0.22                          76.0 299 
 PAM  SZ EP       13 3 24.58                             151    0.2910 77.4  36 
 PAM  SE ES   1   13 3 41.45                             151   -0.19 7 77.4  36 
 RUS  HZ IP       13 3 25.54                             145   -0.0610 97.4 178 
 RUS  HE ES   1   13 3 44.00                             145    0.03 7 97.4 178 
 BRI  SZ EP   1   13 3 26.32                             141    0.24 7  110  18 
 BRI  SZ ES   1   13 3 44.71                             141   -0.11 7  110  18 
 BRI  SZ I        13 3 48.28        82.6 0.33                           110  18 
 OCA  SZ EP       13 3 30.09                             129   -0.62 9  164 352 
 OCA  SZ I        13 3 55.72       110.9 0.27                           164 352 
 NOR  SZ EP       13 3 37.44                             118   -0.51 8  236 236 
 NOR  SN ES   1   13 4  5.06                             118   -0.89 6  236 236 
 CHI  HZ EP       13 3 39.64                             117    0.07 8  247 196 
 CHI  HZ I        13 4 18.55        57.6 0.40                           247 196 
 ROSC BZ EP   1   13 3 40.25                             117    0.12 6  252 212 
 ROSC BN ES   1   13 4 10.12                             117    0.29 6  252 212 
 HEL  HZ EP       13 3 42.90                             115    0.28 8  275 257 
 RREF HZ EP       13 3 48.48                             111    0.16 7  323 230 
 DBB  SZ EP       13 3 49.85                             109   -0.16 7  344 275 
 TOL  SZ EP       13 3 51.07                             109    0.68 7  344 225 
 PRA  HZ EP       13 3 55.12                             107   -0.39 6  391 210 
 PRA  HN ES   2   13 4 37.37                             107    0.17 3  391 210 
                                                                                
