 2017  5 1 1439 23.1 L   6.840 -73.012164.6  RSN  6 0.5 1.8LRSN                1
 GAP=152        1.22       6.7     7.9  9.3 -0.1073E+02  0.2677E+02  0.5418E+01E
 Epicentro: CEPITA - SANTANDER                                                 3
 ACTION:UPD 17-06-16 13:31 OP:jn   STATUS:               ID:20170501143923 L   I
 OLDACT:UP  17-05-01 22:52 OP:edw  STATUS:               ID:20170501143742     3
 OLDACT:UP  17-05-01 22:52 OP:edw  STATUS:               ID:20170501143742     3
 OLDACT:UP  17-05-01 22:51 OP:edw  STATUS:               ID:20170501143742     3
 OLDACT:REG 17-05-01 20:10 OP:edw  STATUS:               ID:20170501143742     3
 2017-05-01-1438-00M.COL___377                                                 6
 STAT SP IPHASW D HRMM SECON CODA AMPLIT PERI AZIMU VELO AIN AR TRES W  DIS CAZ7
 PAM  EZ EP       1439 46.15                             158   -0.5810 65.1  32 
 PAM  EN ES       1440  5.20                             158    0.0410 65.1  32 
 BRR  HZ EP       1439 47.92                             152    0.9910 82.8 291 
 BRR  HN ES       1440  5.57                             152    0.0410 82.8 291 
 RUS  HZ EP       1439 49.50                             146    0.4610  105 184 
 RUS  HN ES       1440  8.94                             146   -0.3410  105 184 
 RUS  HZ I        1440 10.38         3.9 0.38            147            105 184 
 PTB  HZ EP       1439 53.09                             133    0.09 9  163 258 
 PTB  HN ES   4   1440 14.04                             133   -2.28 0  163 258 
 PTB  HZ I        1440 21.51         7.4 0.46            131            163 258 
 YPLC HZ EP   4   1439 51.06                             131   -3.03 0  174 156 
 YPLC HN ES   4   1440 16.26                             131   -2.01 0  174 156 
 ZAR  HZ EP       1439 57.27                             125   -0.78 8  216 290 
 ZAR  HE ES   4   1440 27.39                             125    2.07 0  216 290 
 ZAR  HZ I        1440 31.12         7.4 0.32            124            216 290 
 NOR  HZ EP       1440  1.47                             121   -0.04 8  249 236 
 NOR  HN ES       1440 31.31                             121   -0.17 8  249 236 
 NOR  HZ I        1440 35.98         3.4 0.16            121            249 236 
                                                                                
