 2017 12 1 1038 15.9 L   6.774 -73.155140.0  RSN  5 0.3 1.4LRSN                1
 GAP=137        0.88       4.5     4.1  6.9 -0.3188E+00  0.1079E+02 -0.5094E+01E
 Epicentro: LOS SANTOS - SANTANDER                                             3
 ACTION:UPD 18-01-04 13:16 OP:rebc STATUS:               ID:20171201103815 L   I
 OLDACT:UP  17-12-01 23:00 OP:dani STATUS:               ID:20171201103744d    3
 OLDACT:DUP 17-12-01 22:58 OP:dani STATUS:               ID:20171201103744d    3
 2017-12-01-1038-00M.COL___480                                                 6
 STAT SP IPHASW D HRMM SECON CODA AMPLIT PERI AZIMU VELO AIN AR TRES W  DIS CAZ7
 BAR2 EZ EP       1038 34.60                             171   -0.2010 20.3 189 
 BAR2 EZ ES       1038 49.49                             171   -0.0310 20.3 189 
 BAR2 EZ I        1038 50.48         7.5 0.36            173           20.3 189 
 PAM  EZ EP       1038 37.53                             149   -0.1810 80.3  39 
 PAM  EN ES       1038 54.69                             149   -0.0110 80.3  39 
 PAM  EZ I        1038 56.89         5.4 0.64            150           80.3  39 
 RUS  HZ EP       1038 39.03                             143    0.1210 97.8 175 
 RUS  HN ES       1038 57.20                             143    0.3710 97.8 175 
 RUS  HZ I        1038 58.77         3.0 0.19            147           97.8 175 
 PTB  HZ EP       1038 41.70                             131   -0.59 9  146 260 
 PTB  HN ES       1039  2.52                             131   -0.33 9  146 260 
 PTB  HZ I        1039  4.31         2.7 0.24            132            146 260 
 ZAR  HZ EP       1038 48.74                             121    0.72 9  204 293 
 ZAR  HN ES       1039 13.34                             121    0.29 9  204 293 
 ZAR  HZ I        1039 19.25         3.6 0.31            122            204 293 
                                                                                
