 2017 11 1 1652 39.8 L   6.808 -73.393102.0  RSN  5 0.2 1.1LRSN                1
 GAP= 99        0.57       2.9     2.7  6.3  0.2762E+00  0.2477E+01  0.4907E+01E
 Epicentro: SAN VICENTE DE CHUCURI - SANTANDER                                 3
 ACTION:UPD 17-12-12 19:50 OP:rebc STATUS:               ID:20171101165239 L   I
 OLDACT:UP  17-11-02 01:45 OP:mg   STATUS:               ID:20171101164743     3
 OLDACT:UP  17-11-02 01:43 OP:mg   STATUS:               ID:20171101164743     3
 OLDACT:REG 17-11-01 20:45 OP:mg   STATUS:               ID:20171101164743     3
 2017-11-01-1648-00M.COL___438                                                 6
 STAT SP IPHASW D HRMM SECON CODA AMPLIT PERI AZIMU VELO AIN AR TRES W  DIS CAZ7
 BAR2 EZ EP       1652 54.22                             161   -0.3510 33.3 136 
 BAR2 EZ ES   2   1653  5.50                             161   -0.57 5 33.3 136 
 BAR2 EZ I        1653  9.04         5.6 0.23            162           33.3 136 
 BRR  HZ EP       1652 54.80                             153   -0.1510 48.4 313 
 BRR  HN ES       1653  6.93                             153    0.1810 48.4 313 
 BRR  HZ I        1653  8.90        14.4 0.36            157           48.4 313 
 PAM  EE ES       1653 14.51                             134    0.1710 96.5  52 
 PAM  EZ I        1653 16.03         2.9 0.26            141           96.5  52 
 RUS  HZ EP   2   1653  0.14                             131   -0.02 5  107 161 
 RUS  HN ES       1653 16.28                             131    0.2510  107 161 
 RUS  HZ I        1653 19.56         1.6 0.29            134            107 161 
 PTB  HZ EP   1   1653  0.88                             126   -0.04 7  121 256 
 PTB  HE ES   1   1653 17.50                             126    0.12 7  121 256 
 PTB  HZ I        1653 21.77         1.5 0.10            130            121 256 
                                                                                
