 2016 10 1 1237 57.3 L   6.790 -73.171152.4  RSN  5 0.3 1.4LRSN                1
 GAP=242        0.65       4.9     3.8  5.4  0.7113E+01  0.6407E+01  0.4947E+00E
 Epicentro: LOS SANTOS - SANTANDER                                             3
 ACTION:UPD 16-11-09 19:15 OP:rebc STATUS:               ID:20161001123757 L   I
 OLDACT:DUP 16-10-02 00:08 OP:edw  STATUS:               ID:20161001122747d    3
 2016-10-01-1228-00M.COL___366                                                 6
 STAT SP IPHASW D HRMM SECON CODA AMPLIT PERI AZIMU VELO AIN AR TRES W  DIS CAZ7
 BAR2 EZ EP       1238 17.67                             171   -0.0310 21.9 183 
 BAR2 EZ ES       1238 33.49                             171   -0.1310 21.9 183 
 BAR2 EZ I        1238 35.31         7.0 0.26            167           21.9 183 
 RUS  HZ EP       1238 21.73                             145    0.0810 99.8 174 
 RUS  HN ES       1238 40.78                             145    0.1410 99.8 174 
 RUS  HZ I        1238 41.22         1.5 0.34            144           99.8 174 
 PTB  HZ EP       1238 24.86                             134    0.30 9  145 259 
 PTB  HN ES       1238 45.50                             134   -0.32 9  145 259 
 PTB  HZ I        1238 47.44         2.0 0.08            133            145 259 
 ZAR  HZ EP   4   1238 27.59                             124   -2.37 0  202 293 
 ZAR  HN ES       1238 55.65                             124    0.20 9  202 293 
 NOR  HZ EP       1238 32.57                             120   -0.55 8  232 234 
 NOR  HE ES       1239  1.30                             120    0.24 8  232 234 
 NOR  HZ I        1239  6.80         3.4 0.42            120            232 234 
                                                                                
