 2010  6 1 1152 21.0 L   6.700 -72.837143.7  RSN  4 0.2 2.1LRSN                1
 GAP=233        0.54      11.6    26.5  6.8 -0.2759E+03 -0.5146E+02  0.1695E+02E
 Epicentro: MOLAGAVITA - SANTANDER                                             3
 ACTION:UP  10-08-24 10:07 OP:vdl  STATUS:               ID:20100601115221 L   I
 2010-06-01-1147-08S.COL___109                                                 6
 STAT SP IPHASW D HRMM SECON CODA AMPLIT PERI AZIMU VELO SNR AR TRES W  DIS CAZ7
 BAR2 SZ EP       1152 40.65                             162    -0.210   40 253 
 BAR2 SZ ES   1   1152 56.49                             162     0.1 7   40 253 
 GUE  SZ EP       1152 46.48                             136     0.210  125 356 
 GRA  SZ ES   2   1153  6.04                             135    -0.4 5  131   2 
 RREF BZ EP   1   1153  9.44                             109     0.1 5  342 235 
 RREF BZ I        1153 49.44         4.4 0.41                           342 235 
                                                                                
