 2012  2 1 1045 39.9 L   7.277 -73.239130.0  RSN  5 0.2 1.8LRSN                1
 GAP=250        0.38       4.9     3.1  4.3  0.5011E+01  0.2419E-01 -0.5291E+01E
 ACTION:UP  12-03-07 16:26 OP:epov STATUS:               ID:20120201104539 L   I
 2012-02-01-1040-00M.COL___187                                                 6
 STAT SP IPHASW D HRMM SECON CODA AMPLIT PERI AZIMU VELO SNR AR TRES W  DIS CAZ7
 GIR2 SZ EP   1   1045 57.35                             170   -0.10 7 22.5 167 
 BRR  HZ EP       1045 58.35                             155   -0.1110 55.6 250 
 BRR  HZ I        1045 58.52        23.4 0.12                          55.6 250 
 BRR  HE ES       1046 13.03                             155    0.0810 55.6 250 
 BAR2 SZ EP   2   1046  0.47                             148    0.48 5 76.0 175 
 BAR2 SZ ES   1   1046 15.62                             148   -0.06 7 76.0 175 
 PTB  HZ EP   1   1046  6.63                             126    0.09 7  157 239 
 PTB  HN ES   1   1046 27.22                             126   -0.12 7  157 239 
 ZAR  HN ES   1   1046 31.50                             122    0.05 7  180 278 
 ZAR  HZ I        1046 35.03         3.9 0.24                           180 278 
                                                                                
