 2013 12 1 1042  6.3 L   6.821 -73.132148.9  RSN  9 0.4 1.9LRSN                1
 GAP=153        0.73       3.2     4.4  5.1 -0.3761E+01  0.6238E+01 -0.1363E+01E
 Epicentro: LOS SANTOS - SANTANDER                                             3
 ACTION:UPD 14-01-13 10:15 OP:ep   STATUS:               ID:20131201104206 L   I
 OLDACT:REG 13-12-01 14:30 OP:cam  STATUS:               ID:20131201104000     3
 2013-12-01-1040-00M.COL___282                                                 6
 STAT SP IPHASW D HRMM SECON CODA AMPLIT PERI AZIMU VELO AIN AR TRES W  DIS CAZ7
 BAR2 SZ EP       1042 26.06                             170   -0.3210 26.0 192 
 BAR2 SZ ES       1042 41.81                             170   -0.2110 26.0 192 
 BAR2 SZ I        1042 42.84        17.9 0.40            167           26.0 192 
 BRR  HZ EP       1042 28.02                             153    0.2010 71.5 296 
 BRR  HN ES       1042 44.90                             153    0.3110 71.5 296 
 BRR  HZ I        1042 49.60         7.1 0.12            149           71.5 296 
 PAM  SZ EP       1042 29.07                             152    0.3710 74.6  40 
 PAM  SN ES       1042 46.17                             152    0.0110 74.6  40 
 PAM  SZ I        1042 48.15        10.3 0.62            157           74.6  40 
 PTB  HZ EP   2   1042 33.72                             132    0.00 5  150 258 
 PTB  HN ES   2   1042 54.16                             132   -0.93 5  150 258 
 PTB  HZ I        1042 59.37        17.9 0.94            131            150 258 
 OCA  HN ES   2   1042 56.88                             131    0.09 5  158 352 
 OCA  HZ I        1043  0.11         9.6 0.18            132            158 352 
 SPBC HZ EP   1   1042 35.34                             129    0.02 7  166 219 
 SPBC HN ES   2   1042 57.50                             129   -0.45 5  166 219 
 SPBC HZ I        1043  3.16         7.6 0.30            130            166 219 
 ZAR  HZ EP   4   1042 40.25                             123    1.23 0  205 291 
 NOR  HZ EP   2   1042 42.68                             119    0.17 4  237 234 
 NOR  HN ES   1   1043 11.59                             119    0.85 6  237 234 
 NOR  HZ I        1043 17.76         4.4 0.24            120            237 234 
 SML  HZ EP       1042 42.42                             118   -0.54 8  242 335 
 SML  HN ES       1043 11.47                             118   -0.07 8  242 335 
 SML  HZ I        1043 16.34         8.2 0.10            119            242 335 
 CHI  HN ES   2   1043 13.99                             118   -0.26 4  251 195 
                                                                                
