 2017  8 1 1456 10.0 L   6.914 -72.969139.1  RSN  7 0.5 1.8LRSN                1
 GAP=259        1.02       5.2     7.0  6.3  0.1145E+02  0.1963E+01  0.2815E+01E
 Epicentro: SANTA BARBARA - SANTANDER                                          3
 ACTION:UPD 17-09-04 20:15 OP:rebc STATUS:               ID:20170801145610 L   I
 OLDACT:UP  17-08-01 23:37 OP:dhb  STATUS:               ID:20170801144741     3
 OLDACT:REG 17-08-01 20:53 OP:dhb  STATUS:               ID:20170801144741     3
 2017-08-01-1448-00M.COL___386                                                 6
 STAT SP IPHASW D HRMM SECON CODA AMPLIT PERI AZIMU VELO AIN AR TRES W  DIS CAZ7
 BAR2 EZ EP       1456 29.38                             162    0.0210 42.6 214 
 BAR2 EZ ES       1456 45.04                             162    0.5510 42.6 214 
 BAR2 EZ I        1456 53.06        11.1 0.23            159           42.6 214 
 BRR  HZ EP       1456 31.49                             147    0.2410 84.8 285 
 BRR  HN ES       1456 47.68                             147   -0.1710 84.8 285 
 BRR  HZ I        1456 47.79        16.3 0.36            147           84.8 285 
 RUS  HZ EP       1456 33.67                             139   -0.4010  114 186 
 RUS  HN ES       1456 52.77                             139   -0.1110  114 186 
 RUS  HZ I        1456 54.28         8.8 0.40            139            114 186 
 PTB  HZ EP   9   1456 36.48                             126   -2.00 0  170 256 
 PTB  HN ES       1456 58.47                                   -0.25 9  170 256 
 PTB  HZ I        1457  4.15         6.8 0.20            127            170 256 
 ZAR  HZ EP       1456 43.34                             119   -0.14 8  218 287 
 ZAR  HN ES   2   1457  7.92                             119   -1.70 4  218 287 
 ZAR  HZ I        1457 15.11         7.4 0.32            121            218 287 
 CHI  HZ EP       1456 49.17                             114   -0.09 8  266 199 
 CHI  HN ES       1457 19.29                             114   -0.62 8  266 199 
 CHI  HZ I        1457 26.24         2.5 0.26            116            266 199 
 GUY2CHZ EP       1456 56.81                             109    0.89 7  324 235 
 GUY2CHN ES       1457 32.31                             109    0.54 7  324 235 
 GUY2CHZ I        1457 40.61         4.6 0.52                           324 235 
                                                                                
