 2016  6 1 1623 20.7 L   6.531 -73.850 23.8  RSN  5 0.3 1.4LRSN                1
 GAP=103        0.74       3.1     1.8  5.2 -0.2190E+01 -0.3954E+01  0.1314E+02E
 Epicentro: PUERTO PARRA - SANTANDER                                           3
 ACTION:UPD 16-07-21 22:14 OP:rebc STATUS:               ID:20160601162320 L   I
 OLDACT:REG 16-06-02 01:25 OP:ar   STATUS:               ID:20160601162000     3
 2016-06-01-1619-59S.COL___310                                                 6
 STAT SP IPHASW D HRMM SECON CODA AMPLIT PERI AZIMU VELO AIN AR TRES W  DIS CAZ7
 BRR  HZ EP       1623 31.55                             108   -0.1010 65.5  14 
 BRR  HN ES       1623 40.63                             108    0.4110 65.5  14 
 BRR  HZ I        1623 42.46        19.9 0.16                          65.5  14 
 PTB  HZ EP       1623 31.61                             107   -0.2810 67.0 271 
 PTB  HN ES       1623 40.43                             107   -0.2110 67.0 271 
 PTB  HZ I        1623 41.55        35.4 0.30                          67.0 271 
 BAR2 EZ EP       1623 32.97                             106   -0.2010 74.2  85 
 BAR2 EZ ES       1623 42.96                             106    0.0410 74.2  85 
 BAR2 EZ I        1623 43.81         8.0 0.10                          74.2  85 
 SPBC HZ EP       1623 37.25                              71    0.4210  100 194 
 SPBC HN ES       1623 49.77                              71    0.3310  100 194 
 SPBC HZ I        1623 51.31        12.7 0.20                           100 194 
 RUS  HZ EP       1623 38.50                              56   -0.1210  110 130 
 RUS  HN ES       1623 52.31                              56   -0.3110  110 130 
 RUS  HZ I        1623 52.47         6.2 0.22                           110 130 
                                                                                
