 2013  8 1 1522 29.1 L   6.464 -73.622101.0  RSN  4 0.4 1.2LRSN                1
 GAP=139        0.95       9.9     5.3 10.4  0.2409E+02  0.2422E+02  0.1183E+02E
 Epicentro: SANTA HELENA DEL OPON - SANTANDER                                  3
 ACTION:UPD 14-01-14 08:58 OP:ep   STATUS:               ID:20130801152229 L   I
 OLDACT:REG 13-08-01 18:33 OP:cam  STATUS:               ID:20130801151850     3
 2013-08-01-1518-50M.COL___250                                                 6
 STAT SP IPHASW D HRMM SECON CODA AMPLIT PERI AZIMU VELO AIN AR TRES W  DIS CAZ7
 BAR2 SZ ES       1522 56.57                             152   -0.1410 50.7  74 
 RUS  HZ EP   1   1522 47.76                             137    0.16 7 86.9 137 
 RUS  HN ES   1   1523  2.20                             137    0.19 7 86.9 137 
 RUS  HZ I        1523  2.81         2.8 0.22            136           86.9 137 
 PTB  HZ EP       1522 46.77                             134   -0.6810 92.6 275 
 PTB  HZ I        1522 47.08         5.9 0.22            135           92.6 275 
 PTB  HN ES       1523  2.09                             134    0.3510 92.6 275 
 ZAR  HZ EP   1   1522 56.74                             114    0.60 7  178 310 
                                                                                
