 2014 11 1 1013 23.2 L   6.757 -73.113142.1  RSN  6 0.4 1.2LRSN                1
 GAP=143        0.86       4.3     5.0  7.0 -0.2456E+01  0.3921E+01  0.3943E+01E
 Epicentro: LOS SANTOS - SANTANDER                                             3
 ACTION:UPD 14-12-19 15:38 OP:nd   STATUS:               ID:20141101101323 L   I
 OLDACT:DUP 14-11-01 21:41 OP:spq  STATUS:               ID:20141101100752d    3
 2014-11-01-1007-50M.COL___265                                                 6
 STAT SP IPHASW D HRMM SECON CODA AMPLIT PERI AZIMU VELO AIN AR TRES W  DIS CAZ7
 BAR2 SZ EP   1   1013 42.40                             172    0.04 7 19.7 203 
 BAR2 SZ ES   1   1013 57.48                             172    0.21 7 19.7 203 
 BAR2 SZ I        1013 59.95         3.3 0.34            173           19.7 203 
 BRR  HZ EP       1013 44.28                             150   -0.0410 76.6 300 
 BRR  HN ES       1014  1.17                             150    0.4210 76.6 300 
 BRR  HZ I        1014  4.97         3.4 0.40            149           76.6 300 
 PAM  SZ EP       1013 45.20                             150    0.0310 79.0  35 
 PAM  SN ES       1014  1.80                             150   -0.4610 79.0  35 
 PAM  SZ I        1014  4.24         3.9 0.52            152           79.0  35 
 RUS  HZ EP       1013 46.86                             144    0.5810 95.6 178 
 RUS  HE ES   1   1014  3.93                             144   -0.31 7 95.6 178 
 RUS  HZ I        1014  5.64         1.2 0.38            149           95.6 178 
 PTB  HZ EP       1013 49.70                             131   -0.46 9  150 261 
 PTB  HN ES   1   1014 10.74                             131   -0.41 7  150 261 
 PTB  HZ I        1014 13.92         2.6 0.16            132            150 261 
 OCA  HN ES   1   1014 14.23                             128    0.22 7  165 352 
 OCA  HZ I        1014 19.01         3.1 0.34            130            165 352 
                                                                                
