 2013  2 1 1548 55.7 L   6.786 -73.173141.8  RSN  5 0.2 1.4LRSN                1
 GAP=134        0.60       3.9     4.0  6.7 -0.1061E+01 -0.6373E+01  0.5767E+01E
 Epicentro: LOS SANTOS - SANTANDER                                             3
 ACTION:UPD 13-03-12 09:29 OP:ep   STATUS:               ID:20130201154855 L   I
 2013-02-01-1548-50M.COL___195                                                 6
 STAT SP IPHASW D HRMM SECON CODA AMPLIT PERI AZIMU VELO AIN AR TRES W  DIS CAZ7
 BAR2 SZ EP       1549 14.61                             171   -0.1710 21.5 183 
 BRR  HZ EP       1549 16.56                             152    0.2810 69.4 301 
 BRR  HN ES       1549 32.59                             152    0.2310 69.4 301 
 PAM  SZ EP       1549 17.58                             149   -0.0710 80.4  40 
 PAM  SZ I        1549 17.73         4.9 0.22            151           80.4  40 
 PAM  SN ES   1   1549 34.55                             149   -0.25 7 80.4  40 
 RUS  HZ EP       1549 19.02                             143    0.0810 99.3 174 
 RUS  HE ES   1   1549 37.20                             143    0.11 7 99.3 174 
 RUS  HE I        1549 38.42         3.4 0.24            143           99.3 174 
 PTB  HN ES   1   1549 42.03                             132   -0.54 7  145 259 
 PTB  HN I        1549 45.04         4.1 0.34            131            145 259 
                                                                                
