 2017 11 1 1010 43.2 L   6.799 -73.157142.1  RSN 10 0.3 1.6LRSN                1
 GAP=111        0.60       2.7     2.7  3.9 -0.1438E+01  0.2954E+01  0.2083E+01E
 Epicentro: LOS SANTOS - SANTANDER                                             3
 ACTION:UPD 17-12-12 19:50 OP:rebc STATUS:               ID:20171101101043 L   I
 OLDACT:UP  17-11-01 21:20 OP:mg   STATUS:               ID:20171101100741     3
 OLDACT:REG 17-11-01 19:46 OP:mg   STATUS:               ID:20171101100741     3
 2017-11-01-1008-00M.COL___417                                                 6
 STAT SP IPHASW D HRMM SECON CODA AMPLIT PERI AZIMU VELO AIN AR TRES W  DIS CAZ7
 BAR2 EZ IP     C 1011  2.46                             170    0.0810 23.0 187 
 BAR2 EZ ES   1   1011 17.37                             170    0.03 7 23.0 187 
 BAR2 EZ I        1011 18.46         9.1 0.11            168           23.0 187 
 PAM  EZ IP     D 1011  5.47                             150    0.3910 78.3  40 
 PAM  EN ES       1011 22.12                             150   -0.0210 78.3  40 
 PAM  EZ I        1011 22.95         5.9 0.30            154           78.3  40 
 RUS  HZ EP       1011  6.39                             143   -0.2010  101 175 
 RUS  HN ES       1011 24.67                             143   -0.1610  101 175 
 RUS  HZ I        1011 25.89         9.4 0.22            143            101 175 
 PTB  HZ EP       1011  9.15                             131   -0.60 9  146 259 
 PTB  HN ES       1011 30.35                             131   -0.11 9  146 259 
 PTB  HZ I        1011 32.97         3.8 0.24            130            146 259 
 YPLC HZ EP       1011 12.81                             125    0.03 9  177 151 
 ZAR  HZ EP       1011 15.23                             122   -0.06 9  203 292 
 ZAR  HN ES   3   1011 41.67                             122    1.36 2  203 292 
 ZAR  HZ I        1011 46.64         6.4 0.17            121            203 292 
 NOR  HZ EP       1011 18.59                             118   -0.01 8  234 234 
 NOR  HN ES       1011 46.47                             118    0.27 8  234 234 
 NOR  HZ I        1011 50.87         3.5 0.20            118            234 234 
 CHI  HZ EP       1011 20.86                             116    0.21 8  248 195 
 CHI  HE ES   3   1011 50.90                             116    1.04 2  248 195 
 CHI  HZ I        1011 54.36         1.3 0.26            117            248 195 
 GUY2CHZ EP   4   1011 29.23                             112    2.72 0  300 235 
 GUY2CHN ES   4   1012  3.88                             112    3.59 0  300 235 
 GUY2CHZ I        1012  9.20         2.2 0.41                           300 235 
 PRA  HZ EP       1011 36.69                             106    0.18 6  391 209 
 PRA  HN ES       1012 18.27                             106    0.18 6  391 209 
 PRA  HZ I        1012 26.03         1.2 0.51            106            391 209 
                                                                                
