 2013  7 1 1642 44.4 L   6.788 -73.367120.2  RSN  7 0.4 1.5LRSN                1
 GAP=106        0.97       5.0     5.7  7.5  0.1404E+02  0.7170E+01 -0.9886E+00E
 Epicentro: ZAPATOCA - SANTANDER                                               3
 ACTION:UPD 13-08-12 10:34 OP:ep   STATUS:               ID:20130701164244 L   I
 OLDACT:REG 13-07-01 14:29 OP:jn   STATUS:               ID:20130701163959     3
 2013-07-01-1639-59M.COL___267                                                 6
 STAT SP IPHASW D HRMM SECON CODA AMPLIT PERI AZIMU VELO AIN AR TRES W  DIS CAZ7
 BAR2 SZ EP     D 1643  1.33                             165    0.2310 29.8 137 
 BAR2 SZ ES       1643 14.00                             165   -0.1610 29.8 137 
 GIR2 SZ EP       1643  0.92                             161   -0.3110 37.5  31 
 BRR  HZ EP       1643  1.72                             155    0.0510 51.9 313 
 BRR  HE ES       1643 15.32                             155    0.1510 51.9 313 
 BRR  HZ I        1643 17.45         9.0 0.16            152           51.9 313 
 RUS  HZ EP       1643  6.27                             137    0.3010  104 162 
 RUS  HN ES       1643 22.94                             137    0.1210  104 162 
 RUS  HZ I        1643 25.10         4.6 0.24            138            104 162 
 PTB  HZ EP       1643  6.60                             131   -0.4510  124 257 
 PTB  HN ES   1   1643 24.06                             131   -0.68 7  124 257 
 PTB  HZ I        1643 28.73         5.1 0.18            128            124 257 
 ZAR  HE ES   1   1643 36.40                             119    1.21 7  182 295 
 ZAR  HZ I        1643 40.98         6.3 0.30            119            182 295 
 SML  HE ES   1   1643 45.32                             112   -0.33 6  236 341 
                                                                                
