 2016  1 1 1321 52.4 L   7.286 -73.422102.0  RSN  6 0.6 1.5LRSN                1
 GAP=155        0.92       4.8     8.1 14.7 -0.1061E+02  0.4156E+02 -0.3051E+01E
 Epicentro: SABANA DE TORRES - SANTANDER                                       3
 ACTION:UPD 16-03-09 23:21 OP:cam  STATUS:               ID:20160101132152 L   I
 OLDACT:REG 16-01-01 20:17 OP:dnl  STATUS:               ID:20160101131745     3
 2016-01-01-1317-45M.COL___320                                                 6
 STAT SP IPHASW D HRMM SECON CODA AMPLIT PERI AZIMU VELO AIN AR TRES W  DIS CAZ7
 BRR  HZ EP   2   1322  7.73                             159    0.73 5 37.6 238 
 BAR2 EZ EP   2   1322  9.67                             140   -0.49 5 81.1 161 
 BAR2 EZ ES   2   1322 23.84                             140   -0.16 5 81.1 161 
 BAR2 EZ I        1322 25.72        13.4 0.35            152           81.1 161 
 OCA  HZ EP       1322 11.68                             132   -0.5510  106   6 
 OCA  HN ES       1322 28.14                             132    0.4610  106   6 
 OCA  HZ I        1322 30.76        10.6 0.31            138            106   6 
 PTB  HZ EP   2   1322 15.91                             122    0.39 5  141 234 
 PTB  HE ES   2   1322 33.84                             122    0.30 5  141 234 
 PTB  HZ I        1322 38.65         2.4 0.18            127            141 234 
 ZAR  HZ EP   2   1322 18.49                             119    0.93 5  160 278 
 ZAR  HN ES   2   1322 36.20                             119   -0.97 5  160 278 
 ZAR  HZ I        1322 46.11         3.2 0.08            122            160 278 
 SML  HZ EP   2   1322 20.31                             115    0.34 4  182 337 
 SML  HE ES   2   1322 40.69                             115   -0.77 4  182 337 
 SML  HZ I        1322 48.89         7.5 0.09            120            182 337 
                                                                                
