 2012  7 1 1043 50.2 L   6.925 -73.173126.0  RSN  4 0.2 0.9LRSN                1
 GAP=246        0.37       8.3     9.6 14.8  0.3924E+02 -0.2823E+02 -0.2821E+02E
 Epicentro: BETULIA - SANTANDER                                                3
 ACTION:UPD 12-08-14 11:41 OP:ep   STATUS:               ID:20120701104350 L   I
 2012-07-01-1040-00M.COL___201                                                 6
 STAT SP IPHASW D HRMM SECON CODA AMPLIT PERI AZIMU VELO AIN AR TRES W  DIS CAZ7
 BAR2 SZ EP   2   1044  8.18                             163     0.3 5   37 182 
 BRR  HZ EP       1044  8.69                             152     0.010   63 289 
 BRR  HN ES   3   1044 23.11                             152    -0.1 2   63 289 
 RUS  HZ EP   3   1044 12.67                             136    -0.5 2  115 175 
 RUS  HN ES   3   1044 30.99                             136    -0.2 2  115 175 
 RUS  HZ I        1044 31.83         1.4 0.32            133            115 175 
 PTB  HZ EP   3   1044 15.66                             127     0.0 2  148 253 
 PTB  HN ES   3   1044 35.79                             127     0.3 2  148 253 
 PTB  HZ I        1044 37.57         1.0 0.16            124            148 253 
