 2013  4 1 1344 25.9 L   6.777 -73.150141.9  RSN  6 0.3 1.8LRSN                1
 GAP=235        0.72       5.4     5.0  6.9  0.7708E+01  0.5261E+01  0.5187E+01E
 Epicentro: LOS SANTOS - SANTANDER                                             3
 ACTION:UPD 13-05-22 14:35 OP:EP   STATUS:               ID:20130401134425 L   I
 2013-04-01-1339-50M.COL___209                                                 6
 STAT SP IPHASW D HRMM SECON CODA AMPLIT PERI AZIMU VELO AIN AR TRES W  DIS CAZ7
 BAR2 SZ EP       1344 44.77                             171   -0.2210 20.7 190 
 BAR2 SZ ES   1   1344 59.48                             171   -0.41 7 20.7 190 
 BAR2 SZ I        1345  2.18        20.8 0.40            165           20.7 190 
 BRR  HZ IP     C 1344 46.60                             152   -0.0510 72.1 300 
 BRR  HN ES   1   1345  3.45                             152    0.59 7 72.1 300 
 BRR  HZ I        1345  7.56        14.1 0.40            147           72.1 300 
 RUS  HZ EP       1344 49.33                             144    0.2710 98.0 176 
 RUS  HN ES   1   1345  7.32                             144    0.17 7 98.0 176 
 RUS  HZ I        1345  8.95         9.3 0.28            144           98.0 176 
 PTB  HN ES   1   1345 12.62                             131   -0.54 7  147 260 
 PTB  HZ I        1345 16.23         7.2 0.38            129            147 260 
 ZAR  HN ES   2   1345 23.58                             121    0.30 4  205 293 
 ZAR  HZ I        1345 28.83         8.1 0.40            121            205 293 
 NOR  HZ EP   1   1345  0.88                             118   -0.30 6  233 235 
 NOR  HN ES   1   1345 29.07                             118    0.35 6  233 235 
 NOR  HZ I        1345 37.40         3.0 0.14            118            233 235 
                                                                                
