 2010 11 1 1604 19.5 L   6.744 -73.137146.0  RSN  4 0.4 1.7LRSN                1
 GAP=160        0.98       8.6    15.9 14.0  0.6769E+02 -0.1231E+03 -0.6482E+02E
 Epicentro: JORDAN - SANTANDER                                                 3
 ACTION:UP  10-12-17 16:49 OP:REBC STATUS:               ID:20101101160419 L   I
 2010-11-01-1600-57S.COL___126                                                 6
 STAT SP IPHASW D HRMM SECON CODA AMPLIT PERI AZIMU VELO SNR AR TRES W  DIS CAZ7
 BAR2 SZ EP       16 4 38.70                             174    -0.310   18 197 
 BAR2 SZ ES   2   16 4 53.70                             174    -0.6 5   18 197 
 BAR2 SZ I        16 4 55.40        14.4 0.32                            18 197 
 BRR  HZ EP       16 4 40.52                             152    -0.410   75 302 
 BRR  HZ I        16 4 40.76        17.1 0.15                            75 302 
 BRR  HN ES   1   16 4 58.11                             152     0.5 7   75 302 
 RUS  HZ EP   1   16 4 43.01                             146     0.2 7   94 176 
 RUS  HN ES   1   16 5  1.33                             146     0.3 7   94 176 
 RUS  HZ I        16 5  2.57         6.2 0.35                            94 176 
 GRA  SZ EP       16 4 45.43                             136     0.210  131  16 
 GRA  SZ I        16 4 46.62         3.9 0.34                           131  16 
                                                                                
