 2012  5 1 1345 23.8 L   6.767 -73.147147.2  RSN  5 0.2 2.0LRSN                1
 GAP=138        0.55       3.9     3.8  5.3 -0.1303E+01  0.2062E+01  0.9598E+00E
 Epicentro: LOS SANTOS - SANTANDER                                             3
 ACTION:UP  12-07-05 12:01 OP:pat  STATUS:               ID:20120501134523 L   I
 2012-05-01-1340-00M.COL___189                                                 6
 STAT SP IPHASW D HRMM SECON CODA AMPLIT PERI AZIMU VELO SNR AR TRES W  DIS CAZ7
 BAR2 SZ EP       1345 43.57                             172     0.110   20 191 
 BAR2 SZ ES   1   1345 58.89                             172     0.0 7   20 191 
 BAR2 SZ I        1346  0.23        52.5 0.18                            20 191 
 BRR  HZ EP   1   1345 45.34                             152     0.2 7   73 301 
 BRR  HN ES   1   1346  2.22                             152     0.4 7   73 301 
 BRR  HZ I        1346  5.29        22.6 0.11                            73 301 
 PAM  SZ EP   1   1345 46.33                             150     0.0 7   80  38 
 PAM  SN ES   1   1346  3.54                             150    -0.3 7   80  38 
 RUS  HZ EP   1   1345 47.39                             145     0.0 7   97 176 
 RUS  HN ES   1   1346  5.87                             145     0.0 7   97 176 
 RUS  HZ I        1346  7.34        12.4 0.33                            97 176 
 PTB  HZ EP   1   1345 50.64                             132    -0.1 7  147 260 
 PTB  HN ES   1   1346 11.45                             132    -0.4 7  147 260 
 PTB  HZ I        1346 14.60         7.8 0.20                           147 260 
                                                                                
