 2011 10 1 1552 51.7 L   6.793 -73.127145.7  RSN  5 0.2 1.6LRSN                1
 GAP=139        0.46       3.1     3.5  6.2  0.1005E+01  0.8141E+01  0.3557E+01E
 Epicentro: LOS SANTOS - SANTANDER                                             3
 ACTION:UPD 12-07-13 16:01 OP:ep   STATUS:               ID:20111001155251 L   I
 2011-10-01-1549-47S.COL___167                                                 6
 STAT SP IPHASW D HRMM SECON CODA AMPLIT PERI AZIMU VELO AIN AR TRES W  DIS CAZ7
 BAR2 SZ EP   1   1553 11.47                             170    0.16 7 23.1 195 
 BRR  HZ EP   1   1553 13.20                             152    0.24 7 73.3 298 
 BRR  HZ I        1553 15.92        14.3 0.27                          73.3 298 
 BRR  HN ES   2   1553 29.91                             152    0.37 5 73.3 298 
 PAM  SZ EP   1   1553 13.99                             151    0.13 7 76.7  38 
 PAM  SN ES       1553 30.99                             151   -0.1610 76.7  38 
 RUS  HZ EP   1   1553 15.22                             144   -0.16 7 99.7 177 
 RUS  HE ES   1   1553 33.83                             144   -0.02 7 99.7 177 
 RUS  HZ I        1553 36.67         2.5 0.51                          99.7 177 
 ZAR  HE ES   1   1553 49.51                             122   -0.32 6  206 292 
 ZAR  HZ I        1553 55.79         3.5 0.35                           206 292 
                                                                                
