 2015  4 1 1501 25.2 L   6.850 -73.114149.4  RSN  5 0.5 1.4LRSN                1
 GAP=154        1.12      10.5     6.3 10.1 -0.1364E+02  0.8046E+01 -0.8551E+01E
 Epicentro: LOS SANTOS - SANTANDER                                             3
 ACTION:UPD 15-06-03 16:51 OP:cam  STATUS:               ID:20150401150125 L   I
 OLDACT:REG 15-04-01 20:27 OP:fm   STATUS:               ID:20150401145749     3
 2015-04-01-1457-49M.COL___271                                                 6
 STAT SP IPHASW D HRMM SECON CODA AMPLIT PERI AZIMU VELO AIN AR TRES W  DIS CAZ7
 BAR2 EZ EP       15 1 44.84                             168   -0.5610 29.5 195 
 BAR2 EZ ES       15 2  1.43                             168    0.2710 29.5 195 
 BAR2 EZ I        15 2  2.17         5.5 0.18            172           29.5 195 
 PAM  SZ EP       15 1 47.87                             153    0.4410 70.9  40 
 PAM  SN ES       15 2  4.23                             153   -0.5510 70.9  40 
 PAM  SZ I        15 2  8.42         4.5 0.66            151           70.9  40 
 BRR  HZ EP       15 1 47.25                             153    0.4810 71.9 293 
 BRR  HN ES       15 2  3.96                             153    0.3510 71.9 293 
 BRR  HZ I        15 2  4.33         7.1 0.30            148           71.9 293 
 PTB  HN ES   1   15 2 13.93                             132   -0.53 7  152 257 
 PTB  HZ I        15 2 17.05         2.7 0.40            131            152 257 
 ZAR  HN ES   1   15 2 23.17                             123   -0.42 6  205 290 
 ZAR  HZ I        15 2 31.04         2.6 0.32            121            205 290 
                                                                                
