 2013  1 1 1344 52.2 L   6.793 -73.154141.1  RSN  8 0.4 2.1LRSN                1
 GAP=182        0.90       4.0     5.5  6.9  0.3608E+01  0.8853E+01  0.5305E+00E
 Epicentro: LOS SANTOS - SANTANDER                                             3
 ACTION:UPD 13-02-15 09:11 OP:ep   STATUS:               ID:20130101134452 L   I
 2013-01-01-1340-00M.COL___242                                                 6
 STAT SP IPHASW D HRMM SECON CODA AMPLIT PERI AZIMU VELO AIN AR TRES W  DIS CAZ7
 BAR2 SZ EP   1   1345 11.26                             171    0.01 8 22.4 188 
 BAR2 SZ ES   1   1345 25.52                             171   -0.59 8 22.4 188 
 BAR2 SZ I        1345 27.14        37.4 0.28            168           22.4 188 
 BRR  HZ EP   1   1345 12.96                             152    0.14 8 70.8 299 
 BRR  HN ES   1   1345 29.72                             152    0.81 8 70.8 299 
 BRR  HZ I        1345 30.54        23.7 0.32            151           70.8 299 
 RUS  HZ EP   1   1345 15.45                             143    0.00 8 99.9 175 
 RUS  HN ES   1   1345 33.93                             143    0.35 8 99.9 175 
 RUS  HZ I        1345 35.69        13.9 0.32            142           99.9 175 
 PTB  HZ IPg      1345 17.86                             131   -0.8410  147 259 
 PTB  HN ES   1   1345 38.94                             131   -0.42 7  147 259 
 PTB  HZ I        1345 41.44        24.7 0.12            130            147 259 
 OCA  HZ EP   1   1345 19.96                             129   -0.26 7  161 354 
 OCA  HE ES   1   1345 42.40                             129    0.33 7  161 354 
 OCA  HZ I        1345 45.27        12.8 0.28            130            161 354 
 ZAR  HZ EP       1345 24.24                             122   -0.05 9  203 292 
 ZAR  HN ES   1   1345 49.20                             122   -0.12 7  203 292 
 ZAR  HZ I        1345 51.22        11.9 0.10            121            203 292 
 CHI  HZ EP   1   1345 29.83                             116    0.29 6  248 195 
 CHI  HN ES   1   1345 58.92                             116    0.26 6  248 195 
 CHI  HZ I        1346  6.50         4.8 0.56            116            248 195 
 HEL  HZ EP   1   1345 32.77                             114    0.71 6  271 256 
 HEL  HN ES   1   1346  3.63                             114    0.48 6  271 256 
 HEL  HZ I        1346 10.01         6.9 0.68            113            271 256 
 MON  HZ EP   4   1345 38.34                             108   -2.66 0  353 309 
 MON  HN ES   4   1346 17.15                             108   -1.91 0  353 309 
                                                                                
