 2016 10 1 1532 10.7 L   6.811 -73.160140.8  RSN 16 0.4 2.3LRSN                1
 GAP=103        0.94       3.5     2.8  5.3 -0.8852E+00  0.5422E+01  0.8179E+00E
 Epicentro: LOS SANTOS - SANTANDER                                             3
 ACTION:UPD 16-11-09 19:15 OP:rebc STATUS:               ID:20161001153210 L   I
 OLDACT:UP  16-10-01 22:31 OP:edw  STATUS:               ID:20161001152745     3
 OLDACT:UP  16-10-01 22:30 OP:edw  STATUS:               ID:20161001152745     3
 OLDACT:UP  16-10-01 22:30 OP:edw  STATUS:               ID:20161001152745     3
 OLDACT:REG 16-10-01 21:05 OP:edw  STATUS:               ID:20161001152745     3
 2016-10-01-1528-00M.COL___366                                                 6
 STAT SP IPHASW D HRMM SECON CODA AMPLIT PERI AZIMU VELO AIN AR TRES W  DIS CAZ7
 BAR2 EZ EP       1532 29.67                             170   -0.0810 24.3 186 
 BAR2 EZ ES       1532 44.45                             170   -0.1610 24.3 186 
 BAR2 EZ I        1532 45.79        70.9 0.24            168           24.3 186 
 BRR  HZ EP       1532 31.33                             152    0.1410 69.2 298 
 BRR  HN ES   4   1532 48.65                             152    1.47 0 69.2 298 
 BRR  HZ I        1532 51.72        46.6 0.44            151           69.2 298 
 PAM  EZ EP       1532 32.52                             150    0.1310 77.5  41 
 PAM  EN ES       1532 49.59                             150    0.2810 77.5  41 
 PAM  EZ I        1532 52.43        27.6 0.40            155           77.5  41 
 RUS  HZ EP       1532 33.63                             142   -0.4310  102 175 
 RUS  HE ES       1532 52.49                             142    0.2010  102 175 
 RUS  HZ I        1532 53.29        28.3 0.28            144            102 175 
 PTB  HZ EP       1532 36.28                             131   -0.86 9  146 258 
 PTB  HN ES       1532 57.38                             131   -0.39 9  146 258 
 PTB  HZ I        1532 59.28        29.7 0.42            131            146 258 
 TAM  HZ EP       1532 38.16                             129    0.00 9  157 105 
 TAM  HE ES       1532 59.61                             129    0.03 9  157 105 
 TAM  HZ I        1533  1.21        20.3 0.42            133            157 105 
 SPBC HZ EP       1532 38.64                             128   -0.17 9  163 218 
 SPBC HE ES       1533  1.20                             128    0.46 9  163 218 
 SPBC HZ I        1533  4.93        42.6 0.20            128            163 218 
 ZAR  HZ EP       1532 42.83                             121    0.21 9  202 292 
 ZAR  HN ES       1533  7.43                             121   -0.09 9  202 292 
 ZAR  HZ I        1533 14.83        17.3 0.24            122            202 292 
 NOR  HZ EP       1532 45.72                             117   -0.36 8  234 234 
 NOR  HE ES   4   1533 12.76                             117   -0.91 0  234 234 
 NOR  HZ I        1533 22.91        15.0 0.44            118            234 234 
 CHI  HZ EP   4   1532 47.50                             116   -0.71 0  249 195 
 CHI  HE ES       1533 17.36                             116   -0.11 8  249 195 
 CHI  HZ I        1533 22.20        12.9 0.38            117            249 195 
 ROSC BZ EP   4   1532 50.01                             116    1.44 0  253 211 
 ROSC BN ES   4   1533 20.81                             116    2.69 0  253 211 
 ROSC BZ I        1533 24.28        36.2 0.40            117            253 211 
 HEL  HZ EP       1532 51.50                             114    0.98 8  271 255 
 HEL  HN ES       1533 21.63                             114    0.05 8  271 255 
 HEL  HZ I        1533 27.65        11.0 0.28            115            271 255 
 URE  HZ EP   4   1532 54.16                             113    2.85 0  282 292 
 URE  HN ES   4   1533 20.15                             113   -2.84 0  282 292 
 URE  HZ I        1533 28.70        14.5 0.20            114            282 292 
 GUY2CHZ EP       1532 54.29                             111    0.28 7  301 234 
 GUY2CHE ES   4   1533 31.86                             111    4.07 0  301 234 
 GUY2CHZ I        1533 35.82        11.6 0.34                           301 234 
 ELA  HZ EP   4   1532 58.50                             109    1.21 0  329 229 
 ELA  HE ES   4   1533 36.66                             109    3.02 0  329 229 
 ELA  HZ I        1533 41.41         8.8 0.36            110            329 229 
 PAL  HZ EP       1533  5.15                             105   -0.45 6  405 239 
 PAL  HN ES       1533 49.61                             105    1.17 6  405 239 
 PAL  HZ I        1533 51.03         3.1 0.24            106            405 239 
                                                                                
