 2010  3 1 1739 30.5 L   5.935 -73.694114.3  RSN  5 0.4 1.9LRSN                1
 GAP=121        0.96       6.0     9.6 14.4 -0.1847E+02  0.1047E+03 -0.4521E+01E
 Epicentro: PUENTE NACIONAL - SANTANDER                                        3
 ACTION:UP  10-08-24 09:51 OP:vdl  STATUS:               ID:20100301173929 L   I
 2010-03-01-1735-37S.COL___093                                                 6
 STAT SP IPHASW D HRMM SECON CODA AMPLIT PERI AZIMU VELO SNR AR TRES W  DIS CAZ7
 RUS  BZ EP       1739 48.90                             147     0.110   68  94 
 RUS  BN ES       1740  2.86                             147    -0.210   68  94 
 RUS  BZ I        1740  4.92        11.2 0.20                            68  94 
 BAR2 SZ EP       1739 50.51                             138     0.310   92  38 
 BAR2 SZ ES   1   1740  5.93                             138     0.3 7   92  38 
 BRR  HZ EP   1   1739 52.40                             127    -0.9 7  130 359 
 BRR  HE ES   2   1740 11.04                             127     0.0 5  130 359 
 BRR  HZ I        1740 13.77        24.0 0.11                           130 359 
 RREF BZ EP   1   1740  4.04                             113     0.8 6  216 238 
 RREF BE ES   2   1740 28.60                             113    -0.2 4  216 238 
 RREF BZ I        1740 32.16         6.1 0.37                           216 238 
 PRA  HZ EP   1   1740  9.30                             107    -0.4 6  279 208 
 PRA  HN ES   2   1740 40.07                             107    -0.2 4  279 208 
 PRA  HZ I        1740 45.22         5.4 0.30                           279 208 
                                                                                
