 2017  7 1 1113 20.2 L   6.794 -73.127146.1  RSN  6 0.4 1.6LRSN                1
 GAP=157        0.99       5.9     5.3  8.0 -0.8203E+01  0.1119E+02  0.4818E+00E
 Epicentro: LOS SANTOS - SANTANDER                                             3
 ACTION:UPD 17-08-30 15:28 OP:rebc STATUS:               ID:20170701111318 L   I
 OLDACT:REG 17-07-01 20:46 OP:osc  STATUS:               ID:20170701110745     3
 2017-07-01-1108-00M.COL___371                                                 6
 STAT SP IPHASW D HRMM SECON CODA AMPLIT PERI AZIMU VELO AIN AR TRES W  DIS CAZ7
 BAR2 EZ EP       1113 39.99                             170    0.1310 23.2 195 
 BAR2 EZ ES       1113 54.53                             170   -0.6710 23.2 195 
 BAR2 EZ I        1113 56.76        10.0 0.28            168           23.2 195 
 BRR  HZ EP       1113 41.31                             152   -0.1910 73.3 298 
 BRR  HE ES       1113 58.66                             152    0.5410 73.3 298 
 BRR  HZ I        1114  1.77         8.8 0.26            150           73.3 298 
 PAM  EZ EP       1113 42.66                             151    0.2610 76.6  38 
 PAM  EN ES       1113 59.72                             151    0.0110 76.6  38 
 PAM  EZ I        1114  1.65        13.7 0.52            157           76.6  38 
 PTB  HZ EP       1113 46.89                             132   -0.47 9  150 259 
 PTB  HE ES   3   1114  8.01                             132   -0.55 2  150 259 
 PTB  HZ I        1114 13.24         3.7 0.24            131            150 259 
 SPBC HE ES       1114 11.67                             129    0.57 9  164 220 
 SPBC HZ I        1114 17.60         4.6 0.12            129            164 220 
 ZAR  HZ EP   4   1113 54.30                             122    1.42 0  206 292 
 ZAR  HE ES       1114 18.23                             122   -0.15 8  206 292 
 ZAR  HZ I        1114 23.55         3.5 0.11            123            206 292 
                                                                                
