 2013  4 1 1438  6.0 L   6.881 -73.298128.5  RSN 11 0.4 2.4LRSN                1
 GAP=106        0.83       2.7     3.6  5.7 -0.6656E+00  0.6634E+01 -0.1033E+01E
 Epicentro: BETULIA - SANTANDER                                                3
 ACTION:UPD 13-05-22 14:35 OP:EP   STATUS:               ID:20130401143806 L   I
 2013-04-01-1430-00M.COL___245                                                 6
 STAT SP IPHASW D HRMM SECON CODA AMPLIT PERI AZIMU VELO AIN AR TRES W  DIS CAZ7
 BAR2 SZ EP       1438 23.82                             164   -0.0610 34.3 158 
 BAR2 SZ ES   1   1438 37.42                             164   -0.39 7 34.3 158 
 BRR  HZ IP     C 1438 24.16                             157   -0.1010 52.2 299 
 BRR  HN ES   1   1438 38.40                             157   -0.09 7 52.2 299 
 BRR  HZ I        1438 43.42        52.2 0.42            154           52.2 299 
 PAM  SZ EP       1438 27.35                             145    0.5310 83.3  52 
 PAM  SN ES   1   1438 43.81                             145    0.76 7 83.3  52 
 PAM  SZ I        1438 45.56        56.3 0.24            150           83.3  52 
 RUS  HZ EP       1438 28.77                             137   -0.2510  112 168 
 RUS  HN ES   1   1438 46.77                             137   -0.19 7  112 168 
 PTB  HZ IP   4 C 1438 29.05                             131   -1.23 0  134 254 
 PTB  HN ES   2   1438 49.61                             131    0.40 5  134 254 
 PTB  HZ I        1438 51.09        63.7 0.20            132            134 254 
 OCA  HZ EP       1438 32.00                             127   -0.05 9  150 359 
 OCA  HN ES   1   1438 51.97                             127   -0.39 7  150 359 
 OCA  HZ I        1438 56.95        45.8 0.18            130            150 359 
 ZAR  HZ EP       1438 35.59                             121    0.20 9  185 292 
 ZAR  HN ES   1   1438 58.97                             121    0.67 7  185 292 
 ZAR  HZ I        1439  3.30        44.4 0.52            122            185 292 
 NOR  HZ EP   1   1438 40.14                             115    0.21 6  227 230 
 NOR  HE ES   1   1439  6.11                             115   -0.28 6  227 230 
 NOR  HZ I        1439 11.60        15.3 0.18            118            227 230 
 SML  HZ EP       1438 39.71                             115   -0.37 8  229 338 
 SML  HN ES   1   1439  5.76                             115   -0.90 6  229 338 
 SML  HZ I        1439 13.58        44.5 0.10            117            229 338 
 CHI  HZ EP   2   1438 42.67                             113   -0.69 4  254 191 
 CHI  HN ES   1   1439 12.48                             113   -0.01 6  254 191 
 CHI  HZ I        1439 17.56         5.2 0.34            116            254 191 
 HEL  HZ EP   1   1438 44.70                             112    0.86 6  258 253 
 HEL  HN ES   1   1439 13.14                             112   -0.20 6  258 253 
 HEL  HZ I        1439 17.80        24.4 0.88            114            258 253 
                                                                                
