 2016  9 1 1013  4.5 L   6.800 -73.130138.1  RSN  5 0.4 1.3LRSN                1
 GAP=245        0.92       6.3     5.6  7.7  0.1482E+02  0.9794E+01 -0.4052E+01E
 Epicentro: LOS SANTOS - SANTANDER                                             3
 ACTION:UPD 17-08-17 21:05 OP:lp   STATUS:               ID:20160901101304 L   I
 OLDACT:DUP 16-09-01 23:15 OP:edw  STATUS:               ID:20160901100739d    3
 2016-09-01-1008-00M.COL___358                                                 6
 STAT SP IPHASW D HRMM SECON CODA AMPLIT PERI AZIMU VELO AIN AR TRES W  DIS CAZ7
 BAR2 EZ EP       1013 23.13                             170   -0.0410 23.7 194 
 BAR2 EZ ES       1013 37.95                             170    0.1810 23.7 194 
 RUS  HZ EP       1013 27.79                             142    0.3410  100 177 
 RUS  HN ES       1013 45.00                             142   -0.3910  100 177 
 RUS  HZ I        1013 46.86         2.1 0.32            141            100 177 
 PTB  HZ EP       1013 30.56                             130   -0.41 9  149 259 
 PTB  HE ES       1013 51.15                             130   -0.50 9  149 259 
 PTB  HZ I        1013 53.30         3.2 0.20            128            149 259 
 SPBC HZ EP       1013 32.42                             127   -0.07 9  164 219 
 SPBC HN ES       1013 54.98                             127    0.63 9  164 219 
 SPBC HZ I        1013 59.07         2.2 0.11            126            164 219 
 ZAR  HZ EP   3   1013 38.17                             120    1.59 2  206 292 
 ZAR  HN ES       1014  1.88                             120    0.23 8  206 292 
 ZAR  HZ I        1014  6.38         2.2 0.15            120            206 292 
                                                                                
