 2012  1 1 1802 52.4 L   6.740 -73.150143.7  RSN  5 0.4 1.3LRSN                1
 GAP=139        0.74       6.9     6.7 11.2 -0.4353E+01  0.6046E+01  0.9011E+01E
 Epicentro: JORDAN - SANTANDER                                                 3
 ACTION:UP  12-02-03 08:13 OP:REBC STATUS:               ID:20120101180252 L   I
 2012-01-01-1800-00M.COL___187                                                 6
 STAT SP IPHASW D HRMM SECON CODA AMPLIT PERI AZIMU VELO SNR AR TRES W  DIS CAZ7
 BAR2 SZ EP   1   18 3 11.94                             173     0.3 7   17 192 
 BRR  HZ EP   1   18 3 13.89                             151     0.4 7   74 303 
 BRR  HZ I        18 3 14.25         8.6 0.11                            74 303 
 BRR  HE ES   2   18 3 30.34                             151     0.4 5   74 303 
 PAM  SZ EP   1   18 3 14.46                             149    -0.2 7   83  37 
 PAM  SZ I        18 3 15.13         3.1 0.19                            83  37 
 PAM  SN ES   2   18 3 31.64                             149    -0.5 5   83  37 
 RUS  HZ EP   1   18 3 15.64                             145     0.2 7   94 176 
 RUS  HN ES   2   18 3 33.20                             145    -0.2 5   94 176 
 RUS  HZ I        18 3 35.73         2.0 0.24                            94 176 
 PTB  HZ EP   1   18 3 18.50                             132    -0.5 7  146 261 
 PTB  HN ES   2   18 3 39.42                             132    -0.4 5  146 261 
                                                                                
