 2011  8 1 1807  3.8 L   6.763 -73.110146.6  RSN  5 0.1 2.1LRSN                1
 GAP=143        0.36       2.7     4.6  5.1  0.1874E+01 -0.1269E+02 -0.3077E+01E
 Epicentro: LOS SANTOS - SANTANDER                                             3
 ACTION:UPD 12-07-25 14:05 OP:epov STATUS:               ID:20110801180703 L   I
 2011-08-01-1802-28S.COL___142                                                 6
 STAT SP IPHASW D HRMM SECON CODA AMPLIT PERI AZIMU VELO AIN AR TRES W  DIS CAZ7
 BAR2 SZ EP       18 7 23.36                             172   -0.0910 20.5 203 
 BAR2 SZ ES   2   18 7 38.69                             172   -0.11 5 20.5 203 
 BRR  HZ EP       18 7 25.20                             151   -0.1310 76.6 300 
 BRR  HZ I        18 7 25.49        21.4 0.28                          76.6 300 
 BRR  HE ES   1   18 7 42.30                             151    0.16 7 76.6 300 
 PAM  SZ EP       18 7 26.24                             151    0.1110 78.2  35 
 RUS  HZ EP       18 7 27.43                             145    0.1210 96.3 178 
 RUS  HN ES   2   18 7 45.54                             145   -0.12 5 96.3 178 
 BRI  SZ EP       18 7 27.89                             141   -0.0510  111  18 
                                                                                
