 2013  4 1 1617 21.9 L   6.736 -73.137150.3  RSN  7 0.4 1.7LRSN                1
 GAP=140        0.77       4.6     4.5  6.7  0.1060E+01  0.3635E+01 -0.6455E+01E
 Epicentro: JORDAN - SANTANDER                                                 3
 ACTION:UPD 13-05-22 14:35 OP:EP   STATUS:               ID:20130401161721 L   I
 2013-04-01-1610-00M.COL___245                                                 6
 STAT SP IPHASW D HRMM SECON CODA AMPLIT PERI AZIMU VELO AIN AR TRES W  DIS CAZ7
 BAR2 SZ EP   1   1617 42.00                             173    0.04 7 16.6 197 
 BAR2 SZ ES   1   1617 57.79                             173    0.19 7 16.6 197 
 BAR2 SZ I        1617 59.64        13.0 0.48            171           16.6 197 
 BRR  HZ EP   1   1617 44.17                             152    0.39 7 75.6 303 
 BRR  HN ES   1   1618  1.25                             152    0.40 7 75.6 303 
 BRR  HZ I        1618  2.18         9.9 0.46            149           75.6 303 
 PAM  SZ EP       1617 45.13                             150    0.2410 82.5  36 
 PAM  SN ES   1   1618  2.42                             150   -0.41 7 82.5  36 
 PAM  SZ I        1618  5.19         5.6 0.58            153           82.5  36 
 RUS  HZ EP   1   1617 45.77                             147    0.17 7 93.4 176 
 RUS  HN ES   1   1618  3.70                             147   -0.39 7 93.4 176 
 RUS  HZ I        1618  5.35         5.8 0.30            150           93.4 176 
 PTB  HZ EP   1   1617 49.22                             133    0.01 7  147 262 
 PTB  HN ES   1   1618  9.79                             133   -0.72 7  147 262 
 PTB  HZ I        1618 15.62         4.6 0.40            133            147 262 
 ZAR  HE ES   1   1618 21.36                             123    0.52 6  208 294 
 ZAR  HZ I        1618 28.93         4.9 0.58            123            208 294 
 SML  HZ EP   1   1617 58.94                             117   -0.58 6  251 336 
 SML  HN ES   2   1618 28.10                             117   -0.76 4  251 336 
                                                                                
