 2013  5 1 1424  2.3 L   6.673 -73.520106.1  RSN  5 0.3 1.3LRSN                1
 GAP=111        0.68       4.0     3.8  6.1  0.3766E+01  0.8552E+01  0.6923E+01E
 Epicentro: EL CARMEN DE CHUCURI - SANTANDER                                   3
 ACTION:UPD 13-06-20 09:47 OP:ep   STATUS:               ID:20130501142402 L   I
 2013-05-01-1420-00M.COL___253                                                 6
 STAT SP IPHASW D HRMM SECON CODA AMPLIT PERI AZIMU VELO AIN AR TRES W  DIS CAZ7
 BAR2 SZ ES       1424 29.96                             159    0.2110 38.3 103 
 BRR  HZ EP       1424 18.29                             152    0.1910 52.5 336 
 BRR  HN ES   1   1424 30.76                             152    0.34 7 52.5 336 
 BRR  HZ I        1424 32.62         4.8 0.12            153           52.5 336 
 GIR2 SZ EP       1424 18.27                             149   -0.3410 57.6  39 
 GIR2 SZ ES   1   1424 30.97                             149   -0.36 7 57.6  39 
 GIR2 SZ I        1424 32.58         7.0 0.46            152           57.6  39 
 RUS  HZ EP       1424 22.54                             134    0.3010 98.8 151 
 RUS  HN ES   1   1424 37.46                             134   -0.34 7 98.8 151 
 RUS  HZ I        1424 38.63         4.4 0.66            137           98.8 151 
 PTB  HZ EP       1424 22.11                             132   -0.0010  105 262 
 PTB  HN ES   1   1424 37.27                             132   -0.30 7  105 262 
 PTB  HZ I        1424 38.85         3.4 0.14            134            105 262 
                                                                                
