 2017  2 1 1703 32.2 L   6.758 -73.153152.4  RSN  6 0.3 1.7LRSN                1
 GAP=137        0.84       4.4     3.8  6.1  0.1521E+01  0.4140E+01  0.2486E+00E
 Epicentro: LOS SANTOS - SANTANDER                                             3
 ACTION:UPD 17-05-24 15:31 OP:jn   STATUS:               ID:20170201170332 L   I
 OLDACT:UP  17-02-02 00:01 OP:ar   STATUS:               ID:20170201165749     3
 OLDACT:REG 17-02-01 21:06 OP:ar   STATUS:               ID:20170201165749     3
 2017-02-01-1658-00M.COL___337                                                 6
 STAT SP IPHASW D HRMM SECON CODA AMPLIT PERI AZIMU VELO AIN AR TRES W  DIS CAZ7
 BAR2 EZ EP       17 3 52.45                             173   -0.0610 18.6 190 
 BAR2 EZ ES       17 4  8.35                             173   -0.0210 18.6 190 
 BAR2 EZ I        17 4 10.39         8.4 0.46            172           18.6 190 
 BRR  HZ EP       17 3 54.58                             153    0.4610 72.8 302 
 BRR  HN ES       17 4 11.83                             153    0.5910 72.8 302 
 PAM  EZ EP       17 3 55.36                             151    0.0310 81.5  38 
 PAM  EN ES       17 4 12.92                             151   -0.4710 81.5  38 
 PAM  EZ I        17 4 14.67         8.0 0.56            153           81.5  38 
 RUS  HZ EP       17 3 56.41                             146    0.1510 96.0 175 
 RUS  HN ES       17 4 15.06                             146    0.0110 96.0 175 
 RUS  HZ I        17 4 16.27         3.1 0.28            148           96.0 175 
 PTB  HZ EP       17 3 59.28                             134   -0.25 9  146 261 
 PTB  HN ES       17 4 20.46                             134   -0.41 9  146 261 
 PTB  HZ I        17 4 25.02         6.5 0.32            134            146 261 
 ZAR  HE ES       17 4 30.70                             124   -0.18 9  205 293 
 ZAR  HZ I        17 4 36.47         9.1 0.40            124            205 293 
                                                                                
