 2011  6 1 1724 52.0 L   6.507 -73.523115.0  RSN  9 0.4 2.0LRSN                1
 GAP= 91        0.80       4.2     4.9  7.1 -0.1037E+02  0.1265E+02 -0.8962E+01E
 Epicentro: EL CARMEN DE CHUCURI - SANTANDER                                   3
 ACTION:UP  11-07-14 19:02 OP:ep   STATUS:               ID:20110601172452 L   I
 2011-06-01-1720-01S.COL___115                                                 6
 STAT SP IPHASW D HRMM SECON CODA AMPLIT PERI AZIMU VELO SNR AR TRES W  DIS CAZ7
 BAR2 SZ EP   1   1725  8.87                             160     0.4 7   39  76 
 BAR2 SZ ES   1   1725 21.31                             160     0.0 7   39  76 
 BAR2 SZ I        1725 22.95        51.5 0.41                            39  76 
 BTL  SZ EP   1   1725  9.52                             153     0.3 7   53  32 
 BRR  HZ EP   1   1725  9.71                             146    -0.1 7   70 342 
 BRR  HN ES   1   1725 23.47                             146    -0.2 7   70 342 
 BRR  HZ I        1725 31.36        16.4 0.18                            70 342 
 RUS  HN ES   1   1725 26.68                                    -0.1 7   84 144 
 RUS  HZ I        1725 29.02         8.6 0.18                            84 144 
 BRI  SZ EP   1   1725 17.55                             122    -0.2 7  156  31 
 BRI  SZ ES   1   1725 38.08                             122     0.3 7  156  31 
 BRI  SZ I        1725 41.10        13.0 0.49                           156  31 
 GRA  SZ EP   1   1725 18.43                             119    -0.9 7  172  27 
 GRA  SZ ES   1   1725 40.69                             119     0.0 7  172  27 
 GRA  SZ I        1725 44.34        13.7 0.52                           172  27 
 NOR  SZ EP   1   1725 20.44                             118     0.1 7  182 235 
 NOR  SN ES   1   1725 41.98                             118    -0.4 7  182 235 
 OCA  SZ EP   1   1725 21.88                             116     0.3 7  193   7 
 OCA  SZ I        1725 53.27        20.6 0.23                           193   7 
 HEL  HN ES   2   1725 52.19                             112     0.7 4  225 261 
                                                                                
