 2015  1 1 1333 45.3 L   6.836 -73.147146.5  RSN 12 0.5 2.0LRSN                1
 GAP=201        1.13       3.7     5.3  6.9  0.4193E+01  0.9087E+01 -0.3248E+01E
 Epicentro: LOS SANTOS - SANTANDER                                             3
 ACTION:UPD 15-03-02 15:35 OP:nd   STATUS:               ID:20150101133345 L   I
 OLDACT:UP  15-01-01 23:38 OP:cam  STATUS:               ID:20150101132821     3
 OLDACT:REG 15-01-01 22:11 OP:cam  STATUS:               ID:20150101132821     3
 2015-01-01-1328-21M.COL___280                                                 6
 STAT SP IPHASW D HRMM SECON CODA AMPLIT PERI AZIMU VELO AIN AR TRES W  DIS CAZ7
 BAR2 EZ EP     D 1334  5.32                             169    0.2310 27.3 188 
 BAR2 EZ ES       1334 20.60                             169    0.0610 27.3 188 
 BAR2 EZ I        1334 21.99        15.4 0.26            165           27.3 188 
 RUS  HZ EP       1334  9.32                             143   -0.0810  105 176 
 RUS  HN ES       1334 28.53                             143    0.3110  105 176 
 RUS  HZ I        1334 30.75         9.0 0.36            142            105 176 
 PTB  HZ EP       1334 11.48                             132   -0.90 9  148 257 
 PTB  HN ES       1334 33.66                             132    0.15 9  148 257 
 PTB  HZ I        1334 35.57        11.1 0.36            130            148 257 
 SPBC HZ EP       1334 14.14                             129    0.01 9  166 218 
 SPBC HN ES       1334 36.10                             129   -0.53 9  166 218 
 SPBC HZ I        1334 44.75        14.9 0.42            128            166 218 
 ZAR  HZ EP       1334 17.97                             123    0.35 9  202 291 
 ZAR  HE ES       1334 42.88                             123    0.05 9  202 291 
 ZAR  HZ I        1334 45.87         9.5 0.34            123            202 291 
 NOR  HZ EP       1334 21.14                             118   -0.16 8  237 234 
 NOR  HE ES       1334 49.08                             118   -0.31 8  237 234 
 NOR  HZ I        1334 52.49         6.2 0.38            118            237 234 
 SML  HZ EP       1334 21.08                             118   -0.47 8  240 335 
 SML  HN ES       1334 50.39                             118    0.55 8  240 335 
 SML  HZ I        1334 53.34        24.6 0.10            119            240 335 
 CHI  HZ EP       1334 23.38                             117   -0.06 8  252 195 
 CHI  HN ES       1334 52.80                             117   -0.41 8  252 195 
 CHI  HZ I        1334 59.06         3.4 0.64            117            252 195 
 HEL  HZ EP   4   1334 27.61                             115    1.98 0  273 255 
 HEL  HE ES   4   1334 55.30                             115   -1.81 0  273 255 
 HEL  HZ I        1335  3.70         5.1 0.34            115            273 255 
 CBOC HZ EP       1334 33.43                             110    1.07 7  335 251 
 CBOC HN ES       1335 10.00                             110    0.92 7  335 251 
 CBOC HZ I        1335 15.74         2.2 0.44            110            335 251 
 TOL  SZ EP       1334 34.79                             109    0.90 6  346 224 
 TOL  SE ES   4   1335 14.47                             109    2.67 0  346 224 
 TOL  SZ I        1335 17.37        11.6 0.38            110            346 224 
 MON  HZ EP   4   1334 32.59                             109   -1.43 0  351 308 
 MON  HN ES       1335 10.96                             109   -1.07 6  351 308 
 MON  HN I        1335 12.73         3.2 0.34            110            351 308 
                                                                                
