 2014  9 1 1634 39.3 L   6.774 -73.100142.9  RSN 12 0.4 1.8LRSN                1
 GAP=144        0.73       2.9     3.6  4.9 -0.1612E+01  0.3702E+01 -0.5533E+00E
 Epicentro: LOS SANTOS - SANTANDER                                             3
 ACTION:UPD 14-10-03 23:01 OP:nd   STATUS:               ID:20140901163439 L   I
 OLDACT:REG 14-09-01 20:32 OP:fm   STATUS:               ID:20140901162816     3
 2014-09-01-1628-16M.COL___271                                                 6
 STAT SP IPHASW D HRMM SECON CODA AMPLIT PERI AZIMU VELO AIN AR TRES W  DIS CAZ7
 BAR2 SZ IP     D 1634 58.42                             171   -0.1110 22.1 204 
 BAR2 SZ ES   1   1635 13.36                             171   -0.19 7 22.1 204 
 BAR2 SZ I        1635 14.19        12.6 0.14            168           22.1 204 
 PAM  SZ EP       1635  1.35                             151    0.2210 76.6  35 
 PAM  SE ES   1   1635 18.42                             151    0.24 7 76.6  35 
 PAM  SZ I        1635 19.88        11.0 0.22            154           76.6  35 
 BRR  HZ EP       1635  0.32                             150   -0.1310 77.1 299 
 BRR  HE ES       1635 17.18                             150    0.2010 77.1 299 
 BRR  HZ I        1635 20.42        12.4 0.40            149           77.1 299 
 RUS  HZ EP   1   1635  1.78                             144   -0.73 7 97.5 179 
 RUS  HN ES   1   1635 21.14                             144    0.50 7 97.5 179 
 RUS  HZ I        1635 22.53         8.9 0.30            145           97.5 179 
 PTB  HZ EP       1635  6.36                             131   -0.05 9  152 260 
 PTB  HE ES   1   1635 27.08                             131   -0.51 7  152 260 
 PTB  HZ I        1635 28.45        10.8 0.24            130            152 260 
 SPBC HZ EP       1635  7.33                             128   -0.32 9  164 221 
 SPBC HE ES       1635 29.81                             128    0.03 9  164 221 
 SPBC HZ I        1635 31.78         9.7 0.29            128            164 221 
 ZAR  HZ EP   1   1635 12.75                             121    0.62 6  210 292 
 ZAR  HE ES   1   1635 37.55                             121   -0.22 6  210 292 
 ZAR  HZ I        1635 44.48         7.1 0.26            121            210 292 
 NOR  HE ES   1   1635 43.54                             118    0.49 6  237 236 
 NOR  HZ I        1635 46.77         5.5 0.16            118            237 236 
 SML  HZ EP   1   1635 16.23                             116   -0.02 6  248 335 
 SML  HE ES   1   1635 44.89                             116   -0.22 6  248 335 
 GUY2CHZ EP   1   1635 23.71                             112    0.68 5  304 236 
 GUY2CHE ES   4   1636  0.14                             112    2.98 0  304 236 
 GUY2CHZ I        1636  5.54         2.4 0.52                           304 236 
 TOL  SN ES   4   1636  8.21                             109    2.93 0  345 226 
 TOL  SZ I        1636 13.39         6.2 0.30            109            345 226 
 MON  HN ES   4   1636  4.63                             108   -2.86 0  359 308 
 MON  HZ I        1636  6.49         1.2 0.24            109            359 308 
                                                                                
