 2011 12 1 1440 45.6 L   6.782 -73.105140.1  RSN  9 0.3 2.1LRSN                1
 GAP=143        0.61       2.5     4.1  4.3 -0.3415E+01  0.4935E+01 -0.5408E-01E
 Epicentro: LOS SANTOS - SANTANDER                                             3
 ACTION:UPD 12-07-13 16:13 OP:ep   STATUS:               ID:20111201144045 L   I
 2011-12-01-1440-00M.COL___181                                                 6
 STAT SP IPHASW D HRMM SECON CODA AMPLIT PERI AZIMU VELO AIN AR TRES W  DIS CAZ7
 BAR2 SZ EP       1441  4.59                             170    0.0510 22.6 202 
 BAR2 SZ ES       1441 19.27                             170   -0.0410 22.6 202 
 BAR2 SZ I        1441 20.44        32.3 0.25                          22.6 202 
 GIR2 SZ EP   1   1441  4.68                             166   -0.01 7 34.3 343 
 BRR  HZ IP     C 1441  6.42                             150   -0.0210 76.1 298 
 BRR  HZ I        1441  6.85        44.5 0.35                          76.1 298 
 BRR  HN ES   1   1441 23.32                             150    0.63 7 76.1 298 
 PAM  SZ EP       1441  7.50                             150    0.3510 76.2  36 
 PAM  SE ES       1441 23.88                             150   -0.0810 76.2  36 
 RUS  HZ EP       1441  8.59                             143   -0.0510 98.4 179 
 RUS  HE ES   1   1441 26.31                             143   -0.30 7 98.4 179 
 RUS  HZ I        1441 28.14        11.4 0.36                          98.4 179 
 OCA  SZ EP       1441 13.68                             128   -0.05 9  163 352 
 OCA  SZ ES   1   1441 35.10                             128   -0.57 7  163 352 
 OCA  SZ I        1441 38.74        11.5 0.21                           163 352 
 NOR  SZ EP   1   1441 20.98                             117   -0.31 6  237 235 
 NOR  SE ES   1   1441 48.68                             117   -0.44 6  237 235 
 CHI  HE ES   1   1441 52.29                             116    0.27 6  248 196 
 RREF HZ EP   2   1441 32.41                             110    0.66 3  324 230 
 RREF HN ES   2   1442  8.06                             110    0.31 3  324 230 
 RREF HZ I        1442 16.41         4.5 0.22                           324 230 
                                                                                
