 2013  7 1 1625  1.0 L   6.785 -73.163147.2  RSN 10 0.4 1.7LRSN                1
 GAP=135        0.96       3.8     5.3  6.5  0.4161E+01  0.3282E+01  0.2070E+01E
 Epicentro: LOS SANTOS - SANTANDER                                             3
 ACTION:UPD 13-08-12 10:34 OP:ep   STATUS:               ID:20130701162501 L   I
 OLDACT:REG 13-07-01 14:23 OP:jn   STATUS:               ID:20130701161959     3
 2013-07-01-1619-59M.COL___267                                                 6
 STAT SP IPHASW D HRMM SECON CODA AMPLIT PERI AZIMU VELO AIN AR TRES W  DIS CAZ7
 BAR2 SZ EP       1625 20.84                             171    0.0710 21.4 186 
 BAR2 SZ ES       1625 35.66                             171   -0.5310 21.4 186 
 BAR2 SZ I        1625 37.33        18.6 0.28            169           21.4 186 
 GIR2 SZ EP       1625 20.84                             167   -0.0410 32.6 354 
 BRR  HZ EP       1625 22.56                             153    0.3010 70.3 300 
 BRR  HN ES       1625 39.70                             153    0.8610 70.3 300 
 BRR  HZ I        1625 42.25         8.5 0.44            153           70.3 300 
 PAM  SZ EP   1   1625 23.70                             150    0.18 7 79.9  40 
 RUS  HZ EP       1625 24.68                             145   -0.1010 99.1 175 
 RUS  HN ES       1625 43.31                             145   -0.0310 99.1 175 
 RUS  HZ I        1625 44.86         8.3 0.22            144           99.1 175 
 PTB  HZ EP       1625 27.71                             133   -0.18 9  146 259 
 PTB  HN ES   1   1625 48.40                             133   -0.46 7  146 259 
 PTB  HZ I        1625 50.96         5.1 0.42            133            146 259 
 ZAR  HE ES   1   1625 58.53                             123   -0.18 6  203 293 
 NOR  HN ES   1   1626  4.37                             119    0.10 6  232 235 
 SML  HE ES   1   1626  5.37                             118   -1.10 6  244 336 
 CHI  HZ EP       1625 38.97                             118    0.42 8  247 195 
 CHI  HN ES       1626  7.68                             118   -0.16 8  247 195 
 CHI  HZ I        1626 14.48         2.9 0.32            118            247 195 
                                                                                
