 2010  3 1 1141 26.4 L   6.368 -73.590109.6  RSN  6 0.3 1.8LRSN                1
 GAP= 86        0.44       3.5     6.7  7.9  0.8298E+01  0.4376E+02  0.1430E+02E
 Epicentro: SANTA HELENA DEL OPON - SANTANDER                                  3
 ACTION:UP  10-08-24 09:51 OP:vdl  STATUS:               ID:20100301114126 L   I
 2010-03-01-1136-33S.COL___093                                                 6
 STAT SP IPHASW D HRMM SECON CODA AMPLIT PERI AZIMU VELO SNR AR TRES W  DIS CAZ7
 BAR2 SZ IP       1141 42.92                             153     0.010   51  61 
 BAR2 SZ ES       1141 55.81                             153     0.110   51  61 
 RUS  BZ EP   2   1141 44.82                             142    -0.1 5   77 133 
 RUS  BE ES   2   1141 59.18                             142    -0.2 5   77 133 
 RUS  BZ I        1142  0.45        11.7 0.24                            77 133 
 BRR  HZ EP       1141 44.72                             140     0.010   83 351 
 BRR  HZ I        1141 44.97        17.5 0.12                            83 351 
 CHI  HZ EP       1141 56.07                             115     0.0 9  193 185 
 CHI  HZ I        1141 57.31         5.4 0.47                           193 185 
 HEL  HZ EP   2   1141 58.51                             112    -0.1 4  215 265 
 HEL  HN ES   3   1142 22.81                             112    -0.8 2  215 265 
 HEL  HZ I        1142 32.71         4.4 0.55                           215 265 
 PRA  HE ES   3   1142 47.57                             102     1.5 2  327 206 
 PRA  HZ I        1142 50.22         3.6 0.18                           327 206 
                                                                                
