 2011  2 1 1924 53.2 L   6.848 -73.092138.3  RSN  4 0.5 1.2LRSN                1
 GAP=305        0.75       8.3    12.8 10.9 -0.2210E+02  0.4756E+02 -0.1771E+02E
 Epicentro: LOS SANTOS - SANTANDER                                             3
 ACTION:UP  11-03-28 15:05 OP:jfem STATUS:               ID:20110201192453 L   I
 2011-02-01-1922-37S.COL___135                                                 6
 STAT SP IPHASW D HRMM SECON CODA AMPLIT PERI AZIMU VELO SNR AR TRES W  DIS CAZ7
 BAR2 SZ EP       1925 12.39                             168     0.310   30 200 
 BAR2 SZ ES   2   1925 26.77                             168     0.0 5   30 200 
 RUS  HZ EP   1   1925 16.44                             141    -0.2 7  106 179 
 RUS  HZ I        1925 17.13         2.6 0.28                           106 179 
 RUS  HN ES       1925 34.63                             141    -0.210  106 179 
 NOR  SE ES   2   1925 57.29                             116    -0.3 4  243 234 
 CHI  HZ EP   2   1925 30.44                             115    -0.8 4  255 196 
 CHI  HE ES   2   1926  2.01                             115     1.1 4  255 196 
                                                                                
