 2014 11 1 1139  3.6 L   6.780 -73.143142.8  RSN  6 0.3 1.3LRSN                1
 GAP=138        0.74       3.4     4.2  5.9 -0.1737E+01  0.3110E+01  0.2080E+01E
 Epicentro: LOS SANTOS - SANTANDER                                             3
 ACTION:UPD 14-12-19 15:38 OP:nd   STATUS:               ID:20141101113903 L   I
 OLDACT:REG 14-11-01 20:18 OP:spq  STATUS:               ID:20141101113746     3
 2014-11-01-1137-46M.COL___265                                                 6
 STAT SP IPHASW D HRMM SECON CODA AMPLIT PERI AZIMU VELO AIN AR TRES W  DIS CAZ7
 BAR2 SZ ES   1   1139 37.59                             171   -0.25 7 21.3 192 
 BAR2 SZ I        1139 39.57         5.8 0.36            172           21.3 192 
 BRR  HZ EP       1139 24.48                             151   -0.0310 72.6 300 
 BRR  HN ES       1139 41.39                             151    0.5710 72.6 300 
 BRR  HZ I        1139 45.13         6.5 0.46            152           72.6 300 
 PAM  SZ EP       1139 25.65                             150    0.0610 78.8  38 
 PAM  SN ES       1139 42.48                             150   -0.2610 78.8  38 
 PAM  SZ I        1139 44.58         4.4 0.50            152           78.8  38 
 RUS  HZ EP       1139 27.14                             144    0.2410 98.4 176 
 RUS  HN ES   1   1139 45.10                             144    0.02 7 98.4 176 
 RUS  HZ I        1139 46.48         1.0 0.23            147           98.4 176 
 PTB  HZ EP       1139 30.25                             131   -0.07 9  148 260 
 PTB  HN ES   1   1139 50.52                             131   -0.64 7  148 260 
 PTB  HZ I        1139 52.72         2.2 0.26            133            148 260 
 OCA  HN ES       1139 53.85                             129   -0.10 9  162 353 
 OCA  HZ I        1139 56.29         3.4 0.26            131            162 353 
                                                                                
