 2014  1 1 1033 45.3 L   6.801 -73.157136.8  RSN  6 0.4 1.3LRSN                1
 GAP=182        0.77       4.7     4.8 11.0  0.6971E+01 -0.8749E+01 -0.3333E+02E
 Epicentro: LOS SANTOS - SANTANDER                                             3
 ACTION:UPD 14-03-13 09:50 OP:ep   STATUS:               ID:20140101103345 L   I
 OLDACT:UP  14-01-01 17:13 OP:mh   STATUS:               ID:20140101103001d    3
 OLDACT:DUP 14-01-01 17:13 OP:mh   STATUS:               ID:20140101103001d    3
 2014-01-01-1030-00M.COL___285                                                 6
 STAT SP IPHASW D HRMM SECON CODA AMPLIT PERI AZIMU VELO AIN AR TRES W  DIS CAZ7
 BAR2 SZ EP   1   1034  4.25                             170    0.37 8 23.2 187 
 BAR2 SZ I        1034 20.67         8.6 0.21            175           23.2 187 
 RUS  HZ EP       1034  8.26                             142    0.0410  101 175 
 RUS  HN ES       1034 26.09                             142    0.0110  101 175 
 RUS  HZ I        1034 28.44         0.8 0.14            148            101 175 
 PTB  HZ EP   1   1034 11.33                             130   -0.13 7  147 259 
 PTB  HN ES       1034 31.51                             130   -0.34 9  147 259 
 PTB  HZ I        1034 35.48         2.3 0.17            136            147 259 
 OCA  HZ EP       1034 12.43                             128   -0.50 9  160 354 
 OCA  HN ES   2   1034 35.12                             128    0.65 5  160 354 
 OCA  HZ I        1034 38.98         2.5 0.29            130            160 354 
 ZAR  HZ EP   1   1034 17.57                             120    0.50 6  203 292 
 ZAR  HN ES   1   1034 42.40                             120    0.56 6  203 292 
 ZAR  HZ I        1034 48.06         2.0 0.36            125            203 292 
 SML  HZ EP   1   1034 21.65                             116    0.25 6  243 336 
 SML  HN ES   2   1034 48.67                             116   -0.87 4  243 336 
 SML  HZ I        1034 55.14         2.5 0.07            118            243 336 
                                                                                
