 2017 12 1 1200 36.0 L   6.781 -73.140148.4  RSN  4 0.4 1.5LRSN                1
 GAP=138        0.91       5.0     4.5  9.8 -0.4576E+00  0.1404E+02 -0.8528E+00E
 Epicentro: LOS SANTOS - SANTANDER                                             3
 ACTION:UPD 18-01-04 13:16 OP:rebc STATUS:               ID:20171201120036 L   I
 OLDACT:UP  17-12-01 23:26 OP:dani STATUS:               ID:20171201115736     3
 OLDACT:UP  17-12-01 23:25 OP:dani STATUS:               ID:20171201115736     3
 OLDACT:REG 17-12-01 20:13 OP:dani STATUS:               ID:20171201115736     3
 2017-12-01-1158-00M.COL___480                                                 6
 STAT SP IPHASW D HRMM SECON CODA AMPLIT PERI AZIMU VELO AIN AR TRES W  DIS CAZ7
 PAM  EZ EP       12 0 58.80                             151    0.2210 78.6  38 
 PAM  EE ES       12 1 15.91                             151   -0.2710 78.6  38 
 RUS  HZ EP       12 0 59.91                             145    0.0410 98.5 176 
 RUS  HN ES       12 1 18.77                             145    0.2810 98.5 176 
 RUS  HZ I        12 1 20.14         4.5 0.28            147           98.5 176 
 PTB  HZ EP       12 1  2.76                             133   -0.45 9  148 260 
 PTB  HE ES       12 1 24.04                             133   -0.40 9  148 260 
 PTB  HZ I        12 1 31.20         3.6 0.44            133            148 260 
 ZAR  HN ES       12 1 34.96                             123    0.64 8  205 293 
                                                                                
