 2015  4 1 1046 31.9 L   6.806 -73.157139.0  RSN  9 0.4 1.4LRSN                1
 GAP=135        1.09       3.6     4.4  7.0 -0.2225E+01  0.8725E+01 -0.3367E+01E
 Epicentro: LOS SANTOS - SANTANDER                                             3
 ACTION:UPD 15-06-03 16:51 OP:cam  STATUS:               ID:20150401104631 L   I
 OLDACT:REG 15-04-01 20:13 OP:fm   STATUS:               ID:20150401103750     3
 2015-04-01-1037-50M.COL___271                                                 6
 STAT SP IPHASW D HRMM SECON CODA AMPLIT PERI AZIMU VELO AIN AR TRES W  DIS CAZ7
 BAR2 EZ EP       1046 51.09                             170    0.3510 23.8 187 
 BAR2 EZ ES       1047  5.07                             170   -0.3510 23.8 187 
 BAR2 EZ I        1047  7.68        12.1 0.16            172           23.8 187 
 BRR  HZ EP       1046 52.87                             152    0.6210 69.8 298 
 BRR  HN ES       1047  8.68                             152    0.5710 69.8 298 
 BRR  HZ I        1047 10.78         6.1 0.32            152           69.8 298 
 PAM  SZ EP       1046 53.30                             149   -0.1210 77.6  41 
 PAM  SN ES       1047 10.47                             149    0.2710 77.6  41 
 PAM  SZ I        1047 19.82         1.8 0.26            151           77.6  41 
 RUS  HZ EP   1   1046 55.39                             142    0.33 7  101 175 
 RUS  HE ES       1047 12.21                             142   -0.9010  101 175 
 RUS  HZ I        1047 14.97         3.8 0.22            147            101 175 
 PTB  HZ EP   1   1046 58.52                             131    0.28 7  147 258 
 PTB  HE ES       1047 18.74                             131   -0.03 9  147 258 
 PTB  HZ I        1047 23.92         2.0 0.38            133            147 258 
 SPBC HZ EP       1047  0.06                             127    0.18 9  163 219 
 SPBC HE ES       1047 21.95                             127    0.26 9  163 219 
 SPBC HZ I        1047 26.94         4.0 0.44            131            163 219 
 ZAR  HE ES       1047 28.18                             121   -0.46 9  203 292 
 ZAR  HZ I        1047 31.55         1.4 0.30            123            203 292 
 NOR  HN ES       1047 34.51                             117   -0.20 8  234 234 
 NOR  HZ I        1047 39.65         1.6 0.20            120            234 234 
 SML  HZ EP       1047  7.46                             116   -0.58 8  243 335 
 SML  HN ES       1047 35.80                             116   -0.42 8  243 335 
 SML  HZ I        1047 43.30         3.5 0.24            118            243 335 
                                                                                
