 2017  3 1 1244 51.7 L   6.228 -73.585113.6  RSN  5 0.2 1.4LRSN                1
 GAP=166        0.47       2.9     2.5  4.9  0.3963E+01  0.5667E+01  0.3075E+01E
 Epicentro: LA PAZ - SANTANDER                                                 3
 ACTION:UPD 17-05-25 18:34 OP:jn   STATUS:               ID:20170301124451 L   I
 OLDACT:REG 17-03-01 19:55 OP:lv   STATUS:               ID:20170301123746     3
 2017-03-01-1238-00M.COL___375                                                 6
 STAT SP IPHASW D HRMM SECON CODA AMPLIT PERI AZIMU VELO AIN AR TRES W  DIS CAZ7
 BAR2 EZ EP       1245  9.15                             150    0.0910 60.0  48 
 BAR2 EZ ES       1245 22.62                             150   -0.0110 60.0  48 
 BAR2 EZ I        1245 24.01        16.4 0.43            153           60.0  48 
 RUS  HZ EP       1245 10.05                             148    0.2010 66.8 124 
 RUS  HN ES       1245 23.83                             148   -0.2010 66.8 124 
 RUS  HZ I        1245 26.26         4.0 0.25            149           66.8 124 
 BRR  HN ES       1245 27.06                             136    0.0310 98.2 352 
 PTB  HZ EP       1245 11.73                             135   -0.1810  102 290 
 PTB  HN ES       1245 27.91                             135    0.2010  102 290 
 PTB  HZ I        1245 28.37         3.0 0.15            137            102 290 
 ZAR  HE ES       1245 44.79                             115   -0.18 9  198 315 
                                                                                
