 2015 12 1 1158 13.3 L   5.744 -73.861111.2  RSN 17 0.5 2.4LRSN                1
 GAP= 52        1.25       2.8     3.1  6.3 -0.1397E+01  0.3525E+01  0.5140E+00E
 Epicentro: ALBANIA - SANTANDER                                                3
 ACTION:UPD 16-02-04 15:01 OP:cam  STATUS:               ID:20151201115813 L   I
 OLDACT:REG 15-12-01 20:46 OP:drio STATUS:               ID:20151201115751     3
 2015-12-01-1157-51M.COL___307                                                 6
 STAT SP IPHASW D HRMM SECON CODA AMPLIT PERI AZIMU VELO AIN AR TRES W  DIS CAZ7
 SPBC HZ EP       1158 28.63                             166   -0.0210 25.5 247 
 SPBC HN ES       1158 40.38                             166   -0.2310 25.5 247 
 SPBC HZ I        1158 42.12       151.9 0.36            167           25.5 247 
 RUS  HZ EP       1158 33.39                             139    0.6110 87.7  79 
 RUS  HE ES       1158 47.02                             139   -0.9510 87.7  79 
 PTB  HZ EP       1158 33.10                             132   -0.9310  110 323 
 PTB  HN ES   4   1158 48.76                             132   -1.43 0  110 323 
 PTB  HZ I        1158 52.54        46.2 0.44            131            110 323 
 ROSC BZ EP       1158 35.45                             131    0.7010  112 207 
 ROSC BE ES       1158 51.78                             131    0.3210  112 207 
 ROSC BZ I        1158 54.97        38.0 0.30            132            112 207 
 NOR  HZ EP       1158 34.63                             131    0.2210  113 260 
 NOR  HN ES   4   1158 48.81                             131   -2.05 0  113 260 
 NOR  HZ I        1158 52.03       119.6 0.44            131            113 260 
 BAR2 EZ EP     C 1158 36.15                             129    0.8710  120  39 
 BAR2 EZ ES       1158 52.97                             129    0.5610  120  39 
 BAR2 EZ I        1158 57.81        27.7 0.16            129            120  39 
 BRR  HZ EP     C 1158 38.54                             122    0.45 9  152   6 
 BRR  HE ES   4   1158 58.62                             122    1.20 0  152   6 
 BRR  HZ I        1159  1.38        71.3 0.16            121            152   6 
 GUY2CHZ EP       1158 41.58                             118    0.26 9  176 251 
 GUY2CHN ES       1159  3.57                             118    0.41 9  176 251 
 GUY2CHZ I        1159 10.89        15.3 0.50                           176 251 
 VIL  SZ EP       1158 41.52                             117    0.09 9  181 174 
 VIL  SN ES       1159  3.28                             117   -0.08 9  181 174 
 HEL  HZ EP       1158 42.85                             115    0.05 9  191 285 
 HEL  HN ES       1159  5.29                             115   -0.52 9  191 285 
 HEL  HZ I        1159  7.48        17.1 0.30            115            191 285 
 ANIL HZ EP       1158 46.34                             112    0.40 8  220 231 
 ANIL HE ES       1159 11.74                             112    0.36 8  220 231 
 ANIL HZ I        1159 17.89        28.7 0.30            112            220 231 
 ZAR  HZ EP       1158 45.46                             111   -0.40 8  223 330 
 ZAR  HE ES       1159 10.97                             111   -0.28 8  223 330 
 ZAR  HZ I        1159 14.23        31.3 0.30            111            223 330 
 PRA  HZ EP       1158 48.69                             108   -0.55 8  252 207 
 PRA  HN ES       1159 16.86                             108   -0.40 8  252 207 
 PRA  HZ I        1159 21.14        19.5 0.38            109            252 207 
 ORTC HZ EP       1158 49.74                             108    0.17 8  254 217 
 ORTC HN ES       1159 17.09                             108   -0.75 8  254 217 
 ORTC HZ I        1159 22.31        14.9 0.42            108            254 217 
 PTGC HZ EP       1158 49.58                             108   -0.19 8  257 132 
 PTGC HE ES       1159 17.64                             108   -0.56 8  257 132 
 PTGC HZ I        1159 22.76        23.3 0.26            108            257 132 
 SML  HZ EP       1158 58.78                             102   -0.67 7  339 356 
 SML  HN ES   4   1159 33.70                             102   -1.73 0  339 356 
 SML  HZ I        1159 49.65        19.6 0.22            102            339 356 
 SJC  HZ EP   4   1159 15.64                              96   -1.09 0  482 343 
 SJC  HE ES   4   12 0  1.66                              96   -4.53 0  482 343 
 SJC  HZ I        12 0  8.20         5.2 0.72             96            482 343 
                                                                                
