 2013  1 1 1306 10.1 L   6.540 -73.099144.7  RSN  4 0.2 1.3LRSN                1
 GAP=317        0.40       6.2     4.0  4.3  0.8400E+01  0.4790E+01  0.1587E+01E
 Epicentro: SAN GIL - SANTANDER                                                3
 ACTION:UPD 13-02-15 09:11 OP:ep   STATUS:               ID:20130101130610 L   I
 2013-01-01-1300-00M.COL___242                                                 6
 STAT SP IPHASW D HRMM SECON CODA AMPLIT PERI AZIMU VELO AIN AR TRES W  DIS CAZ7
 BAR2 SZ EP   1   13 6 29.77                             176    0.32 7 10.9 302 
 BAR2 SZ ES   1   13 6 44.38                             176   -0.13 7 10.9 302 
 BRR  HZ EP   1   13 6 32.27                             146   -0.23 7 92.3 313 
 BRR  HN ES   1   13 6 49.99                             146    0.05 7 92.3 313 
 BRR  HZ I        13 6 54.36         2.7 0.16            142           92.3 313 
 PTB  HZ EP   1   13 6 37.21                             131   -0.02 7  150 270 
 PTB  HN ES   1   13 6 58.34                             131   -0.02 7  150 270 
 PTB  HZ I        13 7  5.45         2.8 0.28            129            150 270 
 ZAR  HZ EP   1   13 6 44.16                             120   -0.13 6  221 299 
 ZAR  HN ES   1   13 7 11.08                             120    0.15 6  221 299 
 ZAR  HZ I        13 7 15.38         1.5 0.10            120            221 299 
                                                                                
