 2014  2 1 1029 31.2 L   6.870 -73.102146.9  RSN  5 0.4 1.5LRSN                1
 GAP=222        0.79       3.6     5.9  6.5  0.4137E+01  0.1217E+02 -0.1384E+01E
 Epicentro: LOS SANTOS - SANTANDER                                             3
 ACTION:UPD 14-03-10 08:06 OP:ep   STATUS:               ID:20140201102931 L   I
 OLDACT:REG 14-02-01 15:43 OP:nd   STATUS:               ID:20140201102746     3
 2014-02-01-1027-46M.COL___237                                                 6
 STAT SP IPHASW D HRMM SECON CODA AMPLIT PERI AZIMU VELO AIN AR TRES W  DIS CAZ7
 BAR2 SZ EP       1029 51.60                             167    0.4110 31.9 196 
 BAR2 SZ ES       1030  6.62                             167   -0.1410 31.9 196 
 BAR2 SZ I        1030 12.05         5.8 0.28            165           31.9 196 
 ZAR  HZ EP       1030  4.08                             122    0.16 8  206 290 
 ZAR  HN ES       1030 29.90                             122    0.48 8  206 290 
 ZAR  HZ I        1030 35.71         4.1 0.40            124            206 290 
 SML  HZ EP       1030  7.33                             118   -0.06 8  239 333 
 SML  HN ES       1030 35.00                             118   -0.59 8  239 333 
 SML  HZ I        1030 41.36         4.1 0.10            121            239 333 
 CHI  HZ EP       1030 10.00                             116    0.07 8  257 196 
 CHI  HN ES   2   1030 39.09                             116   -1.03 4  257 196 
 CHI  HZ I        1030 48.90         1.0 0.30            119            257 196 
 GUY2CHZ EP   2   1030 15.47                             112   -0.36 4  310 234 
 GUY2CHN ES       1030 50.30                             112   -0.32 7  310 234 
 GUY2CHZ I        1030 58.24         1.7 0.30                           310 234 
                                                                                
