 2016 11 1 1052 27.4 L   6.781 -73.175142.9  RSN  5 0.3 1.4LRSN                1
 GAP=134        0.85       4.5     4.3  6.2 -0.1754E+01  0.3296E+01  0.1224E+01E
 Epicentro: LOS SANTOS - SANTANDER                                             3
 ACTION:UPD 17-10-26 21:03 OP:lp   STATUS:               ID:20161101105227 L   I
 OLDACT:REG 16-11-01 19:49 OP:cog  STATUS:               ID:20161101104743     3
 2016-11-01-1048-00M.COL___328                                                 6
 STAT SP IPHASW D HRMM SECON CODA AMPLIT PERI AZIMU VELO AIN AR TRES W  DIS CAZ7
 BAR2 EZ EP       1052 46.72                             171    0.0510 20.8 182 
 BAR2 EZ ES       1053  1.83                             171    0.1610 20.8 182 
 BRR  HZ EP       1052 48.40                             153    0.2310 69.4 301 
 BRR  HE ES       1053  4.86                             153    0.5110 69.4 301 
 PAM  EZ EP       1052 49.46                             149   -0.1110 81.1  40 
 PAM  EN ES       1053  6.43                             149   -0.4110 81.1  40 
 PAM  EZ I        1053  8.57         6.9 0.44            151           81.1  40 
 RUS  HZ EP       1052 51.13                             144    0.3710 98.7 174 
 RUS  HE ES       1053  8.79                             144   -0.1810 98.7 174 
 RUS  HZ I        1053 10.00         2.6 0.16            145           98.7 174 
 PTB  HZ EP       1052 53.66                             132   -0.17 9  144 259 
 PTB  HN ES       1053 13.89                             132   -0.54 9  144 259 
 PTB  HZ I        1053 18.23         4.5 0.10            132            144 259 
                                                                                
