 2017  1 1 1752 56.1 L   6.679 -73.149160.8  RSN  4 0.3 1.0LRSN                1
 GAP=254        0.68       8.4     5.2  6.2  0.1657E+02  0.6535E+01  0.3803E+01E
 Epicentro: VILLANUEVA - SANTANDER                                             3
 ACTION:UPD 17-05-22 15:54 OP:jn   STATUS:               ID:20170101175256 L   I
 OLDACT:UP  17-04-19 19:00 OP:nlst STATUS:               ID:20170101175256 L   3
 OLDACT:DUP 17-01-01 22:45 OP:edw  STATUS:               ID:20170101174746d    3
 OLDACT:UP  17-01-01 22:44 OP:edw  STATUS:               ID:20170101174745     3
 OLDACT:REG 17-01-01 20:27 OP:lv   STATUS:               ID:20170101174745     3
 2017-01-01-1748-00M.COL___377                                                 6
 STAT SP IPHASW D HRMM SECON CODA AMPLIT PERI AZIMU VELO AIN AR TRES W  DIS CAZ7
 BAR2 EZ EP       1753 17.75                             176    0.4310 10.3 201 
 BAR2 EZ ES       1753 33.65                             176   -0.2610 10.3 201 
 BAR2 EZ I        1753 33.93         3.3 0.27            166           10.3 201 
 BRR  HZ EP       1753 19.15                             153   -0.0710 78.2 307 
 BRR  HN ES       1753 37.36                             153    0.0710 78.2 307 
 BRR  HZ I        1753 39.24         1.4 0.17            150           78.2 307 
 PTB  HZ EP       1753 23.71                             136   -0.38 9  145 264 
 PTB  HE ES       1753 46.17                             136    0.22 9  145 264 
 PTB  HZ I        1753 53.19         0.9 0.42            132            145 264 
 ZAR  HZ EP   4   1753 30.43                             125    0.40 0  209 296 
 ZAR  HN ES       1753 56.50                             125   -0.03 8  209 296 
 ZAR  HZ I        1753 58.37         0.7 0.09            124            209 296 
                                                                                
