 2014  9 1 1337 25.4 L   6.838 -73.077146.9  RSN  8 0.5 1.9LRSN                1
 GAP=223        1.02       4.8     7.6  7.9  0.5412E+01 -0.8653E+00  0.7901E+01E
 Epicentro: LOS SANTOS - SANTANDER                                             3
 ACTION:UPD 14-10-03 23:01 OP:nd   STATUS:               ID:20140901133725 L   I
 OLDACT:REG 14-09-01 20:23 OP:fm   STATUS:               ID:20140901132815     3
 2014-09-01-1328-15M.COL___269                                                 6
 STAT SP IPHASW D HRMM SECON CODA AMPLIT PERI AZIMU VELO AIN AR TRES W  DIS CAZ7
 BAR2 SZ EP       1337 45.63                             168    0.3310 29.6 203 
 BAR2 SZ ES   1   1338  0.09                             168   -0.73 7 29.6 203 
 BAR2 SZ I        1338  4.24        12.3 0.20            166           29.6 203 
 BRR  HZ EP   1   1337 47.54                             151    0.59 7 76.2 293 
 BRR  HN ES       1338  4.38                             151    0.6210 76.2 293 
 BRR  HZ I        1338  6.95        12.3 0.18            148           76.2 293 
 PTB  HZ EP       1337 52.96                             131   -0.25 9  156 258 
 PTB  HE ES       1338 14.73                             131   -0.17 9  156 258 
 PTB  HZ I        1338 16.39        11.4 0.16            129            156 258 
 ZAR  HN ES   1   1338 23.95                             122   -0.34 6  210 290 
 ZAR  HZ I        1338 29.52         8.6 0.32            120            210 290 
 SML  HZ EP   1   1338  1.81                             118   -0.22 6  243 333 
 SML  HE ES   1   1338 29.82                             118   -0.78 6  243 333 
 SML  HZ I        1338 37.28         9.4 0.26            117            243 333 
 CHI  HZ EP   1   1338  3.68                             117   -0.14 6  255 197 
 CHI  HN ES   1   1338 32.90                             117   -0.89 6  255 197 
 CHI  HZ I        1338 40.33         2.1 0.34            116            255 197 
 URE  HZ EP   4   1338  9.83                             113    2.69 0  289 291 
 URE  HN ES   4   1338 37.15                             113   -2.54 0  289 291 
 URE  HZ I        1338 46.54         6.1 0.16            112            289 291 
 PRA  HZ EP   1   1338 20.48                             106    0.66 4  399 210 
 PRA  HN ES       1339  2.87                             106    0.60 6  399 210 
 PRA  HZ I        1339  8.58         2.6 0.30            106            399 210 
                                                                                
