 2016  4 1 1832 31.0 L   6.776 -73.155141.5  RSN  7 0.4 1.7LRSN                1
 GAP=136        1.10       5.2     4.8  7.9 -0.3673E+01  0.1684E+02 -0.3168E+01E
 Epicentro: LOS SANTOS - SANTANDER                                             3
 ACTION:UPD 16-05-05 14:17 OP:rebc STATUS:               ID:20160401183231 L   I
 OLDACT:UP  16-04-01 22:16 OP:drio STATUS:               ID:20160401182745     3
 OLDACT:REG 16-04-01 19:54 OP:drio STATUS:               ID:20160401182745     3
 2016-04-01-1827-45M.COL___296                                                 6
 STAT SP IPHASW D HRMM SECON CODA AMPLIT PERI AZIMU VELO AIN AR TRES W  DIS CAZ7
 BAR2 EZ EP       1832 50.12                             171    0.0210 20.5 189 
 BAR2 EZ ES       1833  4.59                             171   -0.3710 20.5 189 
 BAR2 EZ I        1833  6.15        11.7 0.18            170           20.5 189 
 PAM  EZ EP       1832 52.90                             149   -0.0710 80.1  39 
 PAM  EE ES       1833 10.13                             149    0.0610 80.1  39 
 PAM  EZ I        1833 12.14         8.4 0.54            153           80.1  39 
 RUS  HZ EP       1832 53.75                             144   -0.4310 98.0 175 
 RUS  HE ES       1833 13.00                             144    0.7710 98.0 175 
 RUS  HZ I        1833 14.11         6.3 0.24            147           98.0 175 
 PTB  HZ EP       1832 56.77                             131   -0.75 9  146 260 
 PTB  HN ES       1833 17.89                             131   -0.29 9  146 260 
 PTB  HZ I        1833 21.03         6.1 0.12            131            146 260 
 ZAR  HZ EP       1833  3.80                             121    0.58 9  204 293 
 ZAR  HE ES       1833 28.80                             121    0.48 9  204 293 
 ZAR  HZ I        1833 36.06         6.6 0.30            122            204 293 
 NOR  HZ EP       1833  6.59                             118    0.32 8  232 235 
 NOR  HN ES       1833 33.65                             118   -0.09 8  232 235 
 NOR  HZ I        1833 41.14         5.4 0.16            119            232 235 
 GUY2CHZ EP   4   1833 16.42                             112    2.24 0  299 235 
 GUY2CHN ES   4   1833 50.16                             112    2.33 0  299 235 
 GUY2CHZ I        1833 57.97         2.2 0.68                           299 235 
                                                                                
