 2016 10 1 1852 16.3 L   6.797 -73.170151.2  RSN  4 0.2 1.5LRSN                1
 GAP=142        0.56       3.2     3.3  5.4 -0.4732E+01  0.4654E+01 -0.6101E+00E
 Epicentro: LOS SANTOS - SANTANDER                                             3
 ACTION:UPD 16-11-09 19:15 OP:rebc STATUS:               ID:20161001185216 L   I
 OLDACT:DUP 16-10-02 00:06 OP:edw  STATUS:               ID:20161001184744d    3
 OLDACT:DUP 16-10-02 00:01 OP:edw  STATUS:               ID:20161001184743d    3
 2016-10-01-1848-00M.COL___369                                                 6
 STAT SP IPHASW D HRMM SECON CODA AMPLIT PERI AZIMU VELO AIN AR TRES W  DIS CAZ7
 PAM  EZ EP       1852 39.41                             151    0.1710 79.4  41 
 PAM  EN ES       1852 57.06                             151   -0.0510 79.4  41 
 RUS  HZ EP       1852 40.51                             145   -0.1010  101 174 
 RUS  HN ES       1852 59.52                             145   -0.0310  101 174 
 RUS  HZ I        1853  0.46         3.0 0.28            141            101 174 
 PTB  HZ EP       1852 43.73                             134    0.23 9  145 259 
 PTB  HZ I        1852 59.68         4.5 0.24            125            145 259 
 PTB  HN ES       1853  4.49                             134   -0.21 9  145 259 
 SPBC HZ EP       1852 44.74                             131   -0.33 9  161 218 
 SPBC HE ES       1853  7.81                             131    0.33 9  161 218 
 SPBC HZ I        1853 12.27         6.7 0.22            123            161 218 
                                                                                
