 2012  8 1 1658 15.7 L   6.790 -73.135144.0  RSN  5 0.3 1.5LRSN                1
 GAP=138        0.55       3.8     4.4  5.8 -0.1120E+01  0.4384E+01  0.3386E+01E
 Epicentro: LOS SANTOS - SANTANDER                                             3
 ACTION:UPD 12-09-10 11:53 OP:ep   STATUS:               ID:20120801165815 L   I
 2012-08-01-1650-00M.COL___215                                                 6
 STAT SP IPHASW D HRMM SECON CODA AMPLIT PERI AZIMU VELO AIN AR TRES W  DIS CAZ7
 BAR2 SZ EP   2   1658 34.78                             171   -0.33 5 22.5 193 
 BAR2 SZ ES   3   1658 49.99                             171   -0.26 2 22.5 193 
 BAR2 SZ I        1658 51.45        10.1 0.16                          22.5 193 
 BRR  HZ EP   1   1658 37.24                             152    0.48 7 72.7 299 
 BRR  HN ES   1   1658 53.41                             152    0.23 7 72.7 299 
 BRR  HZ I        1658 57.52        10.2 0.42                          72.7 299 
 PAM  SZ EP       1658 37.79                             151    0.0410 77.5  38 
 PAM  SN ES   1   1658 54.71                             151   -0.23 7 77.5  38 
 PAM  SZ I        1658 56.99         5.2 0.48                          77.5  38 
 RUS  HZ EP       1658 39.18                             144   -0.0210 99.4 177 
 RUS  HN ES   1   1658 57.74                             144    0.21 7 99.4 177 
 RUS  HZ I        1658 59.15         3.5 0.40                          99.4 177 
 PTB  HZ EP       1658 42.31                             132   -0.31 9  149 259 
 PTB  HN ES   3   1659  2.81                             132   -0.80 2  149 259 
 PTB  HZ I        1659  5.53         2.7 0.14                           149 259 
                                                                                
