 2014  8 1 1403  7.2 L   6.769 -73.172144.8  RSN 10 0.3 2.0LRSN                1
 GAP=135        0.72       3.1     3.2  4.8 -0.6799E+00  0.3360E+01  0.2858E+01E
 Epicentro: LOS SANTOS - SANTANDER                                             3
 ACTION:UPD 14-09-15 21:46 OP:nd   STATUS:               ID:20140801140307 L   I
 OLDACT:UP  14-08-02 01:06 OP:mh   STATUS:               ID:20140801135817d    3
 OLDACT:DUP 14-08-02 01:06 OP:mh   STATUS:               ID:20140801135817d    3
 2014-08-01-1358-16M.COL___260                                                 6
 STAT SP IPHASW D HRMM SECON CODA AMPLIT PERI AZIMU VELO AIN AR TRES W  DIS CAZ7
 BAR2 SZ EP       14 3 26.72                             172    0.0810 19.6 183 
 BAR2 SZ ES   1   14 3 41.56                             172   -0.25 7 19.6 183 
 BRR  HZ EP       14 3 28.56                             153    0.3610 70.4 302 
 BRR  HN ES   1   14 3 45.36                             153    0.79 7 70.4 302 
 BRR  HZ I        14 3 46.92        26.2 0.28            152           70.4 302 
 PAM  SZ EP       14 3 29.70                             149    0.1110 81.9  40 
 PAM  SN ES   1   14 3 46.78                             149   -0.27 7 81.9  40 
 PAM  SZ I        14 3 50.17        13.2 0.45            154           81.9  40 
 RUS  HZ EP       14 3 30.46                             144   -0.1710 97.4 174 
 RUS  HN ES   1   14 3 48.54                             144   -0.36 7 97.4 174 
 RUS  HZ I        14 3 50.97        10.6 0.31            146           97.4 174 
 PTB  HZ EP       14 3 33.64                             133   -0.13 9  144 260 
 PTB  HN ES       14 3 54.14                             133   -0.35 9  144 260 
 PTB  HZ I        14 3 57.21        10.6 0.07            133            144 260 
 SPBC HZ EP       14 3 35.59                             130    0.39 9  159 219 
 SPBC HN ES   1   14 3 57.60                             130    0.57 7  159 219 
 SPBC HZ I        14 3 59.51        14.4 0.08            130            159 219 
 ZAR  HZ EP       14 3 39.22                             122   -0.22 9  203 293 
 ZAR  HN ES       14 4  4.25                             122   -0.33 9  203 293 
 ZAR  HZ I        14 4 10.15        10.7 0.10            124            203 293 
 NOR  HZ EP       14 3 42.27                             119   -0.13 8  230 235 
 NOR  HN ES   1   14 4  9.93                             119    0.07 6  230 235 
 NOR  HZ I        14 4 20.55         6.8 0.13            120            230 235 
 GUY2CHZ EP   4   14 3 51.60                             112    1.33 0  297 235 
 GUY2CHN ES   4   14 4 27.79                             112    3.93 0  297 235 
 GUY2CHZ I        14 4 33.46         5.5 0.27                           297 235 
 RREF HN ES   4   14 4 30.61                             111    2.26 0  317 229 
 PRA  HZ EP       14 4  0.02                             107   -0.15 6  388 209 
 PRA  HN ES       14 4 41.49                             107    0.01 6  388 209 
 PRA  HZ I        14 4 49.31         6.5 0.42            108            388 209 
 SJC  HZ EP   4   14 4  0.37                             105   -2.51 0  411 328 
 SJC  HN ES   4   14 4 41.04                             105   -5.27 0  411 328 
                                                                                
