 2015 11 1 1235 21.1 L   6.832 -73.117147.1  RSN 12 0.5 2.1LRSN                1
 GAP=139        0.70       3.7     4.1  5.3 -0.3415E+01  0.6151E+01 -0.2652E+00E
 Epicentro: LOS SANTOS - SANTANDER                                             3
 ACTION:UPD 15-12-28 16:08 OP:cam  STATUS:               ID:20151101123521 L   I
 OLDACT:REG 15-11-01 20:36 OP:ar   STATUS:               ID:20151101122746     3
 2015-11-01-1227-46M.COL___292                                                 6
 STAT SP IPHASW D HRMM SECON CODA AMPLIT PERI AZIMU VELO AIN AR TRES W  DIS CAZ7
 BAR2 EZ EP       1235 40.74                             169   -0.2710 27.5 195 
 BAR2 EZ ES       1235 56.35                             169   -0.1710 27.5 195 
 BAR2 EZ I        1235 57.55        23.6 0.24            166           27.5 195 
 BRR  HZ EP       1235 42.48                             152   -0.0110 72.4 295 
 BRR  HN ES       1235 59.49                             152    0.3410 72.4 295 
 BRR  HZ I        1236  2.58        17.7 0.20            146           72.4 295 
 PAM  EZ EP     C 1235 43.60                             153    0.3910 72.6  39 
 PAM  EE ES       1236  0.58                             153    0.1510 72.6  39 
 PAM  EZ I        1236  2.35        33.9 0.48            155           72.6  39 
 RUS  HZ EP   2   1235 45.04                             143   -0.22 5  104 178 
 RUS  HN ES   2   1236  3.79                             143   -0.29 5  104 178 
 RUS  HZ I        1236  4.91         7.1 0.60            144            104 178 
 OCA  HN ES   2   1236 10.22                             130   -0.97 5  157 352 
 OCA  HZ I        1236 14.93        35.0 0.20            129            157 352 
 SPBC HZ EP   2   1235 50.04                             128   -0.15 5  168 219 
 SPBC HN ES   2   1236 12.58                             128   -0.27 5  168 219 
 SPBC HZ I        1236 19.86        14.5 0.28            127            168 219 
 ZAR  HZ EP   2   1235 54.54                             122    0.71 4  206 291 
 ZAR  HN ES   2   1236 19.14                             122   -0.20 4  206 291 
 ZAR  HZ I        1236 24.26        14.4 0.22            120            206 291 
 NOR  HN ES   2   1236 25.38                             118   -0.38 4  239 234 
 NOR  HZ I        1236 29.31         8.9 0.32            117            239 234 
 SML  HZ EP   2   1235 56.91                             118   -0.72 4  242 334 
 SML  HE ES   2   1236 25.20                             118   -0.89 4  242 334 
 SML  HZ I        1236 28.59        13.6 0.26            117            242 334 
 HEL  HZ EP   2   1236  2.74                             115    0.89 4  276 255 
 HEL  HN ES   2   1236 33.43                             115   -0.18 4  276 255 
 HEL  HZ I        1236 39.86         7.3 0.36            113            276 255 
 GUY2CHZ EP   4   1236  6.90                             112    1.57 0  306 235 
 GUY2CHN ES   2   1236 40.77                             112    0.97 4  306 235 
 GUY2CHZ I        1236 49.31         6.7 0.78                           306 235 
 MON  HZ EP   4   1236 14.45                             109    4.23 0  354 308 
 MON  HN ES   4   1236 46.33                             109   -2.17 0  354 308 
 MON  HZ I        1237  1.07         3.1 0.54            108            354 308 
                                                                                
