 2016  9 1 1837 11.4 L   6.560 -73.522113.9  RSN 19 0.4 2.3LRSN                1
 GAP= 65        1.04       2.9     2.9  4.8 -0.1564E+01  0.3978E+01 -0.2010E+01E
 Epicentro: EL CARMEN - SANTANDER                                              3
 ACTION:UPD 17-08-17 21:05 OP:lp   STATUS:               ID:20160901183711 L   I
 OLDACT:UP  16-09-01 22:25 OP:dani STATUS:               ID:20160901182744     3
 OLDACT:UP  16-09-01 22:24 OP:dani STATUS:               ID:20160901182744     3
 OLDACT:UP  16-09-01 22:23 OP:dani STATUS:               ID:20160901182744     3
 OLDACT:UP  16-09-01 22:23 OP:dani STATUS:               ID:20160901182744     3
 OLDACT:REG 16-09-01 21:31 OP:edw  STATUS:               ID:20160901182744     3
 2016-09-01-1828-00M.COL___338                                                 6
 STAT SP IPHASW D HRMM SECON CODA AMPLIT PERI AZIMU VELO AIN AR TRES W  DIS CAZ7
 BAR2 HZ IP     D 1837 27.97                             160    0.2310 37.7  85 
 BAR2 HZ ES       1837 40.37                             160   -0.0810 37.7  85 
 BRR  HZ EP       1837 28.86                             148    0.0810 64.0 341 
 BRR  HE ES       1837 42.78                             148    0.4710 64.0 341 
 BRR  HZ I        1837 48.41        32.6 0.12            144           64.0 341 
 RUS  HZ EP       1837 31.05                             140   -0.1710 88.4 147 
 RUS  HE ES       1837 46.57                             140   -0.0810 88.4 147 
 RUS  HZ I        1837 48.15        48.4 0.36            133           88.4 147 
 PTB  HZ IP   9 C 1837 30.83                             134   -0.98 0  103 269 
 PTB  HN ES       1837 45.87                             133   -0.8510  103 269 
 PTB  HZ I        1837 50.46        66.0 0.20            125            103 269 
 SPBC HZ EP       1837 32.93                             131   -0.2510  117 211 
 SPBC HN ES       1837 49.81                             131   -0.3210  117 211 
 SPBC HZ I        1837 56.07        84.1 0.36            121            117 211 
 PAM  EZ EP       1837 34.52                             129    0.0810  125  46 
 PAM  EN ES       1837 52.36                             129   -0.0110  125  46 
 PAM  EZ I        1837 53.42        18.9 0.16            126            125  46 
 ZAR  HZ EP       1837 39.74                             118    0.33 9  180 305 
 ZAR  HE ES   4   1838  2.75                             118    1.53 0  180 305 
 ZAR  HZ I        1838  4.55        64.7 0.38            112            180 305 
 NOR  HZ EP       1837 39.67                             117   -0.39 9  185 234 
 NOR  HN ES   4   1838  3.86                             117    1.49 0  185 234 
 NOR  HZ I        1838  5.56        35.1 0.14            110            185 234 
 OCA  HZ EP       1837 40.17                             117   -0.18 9  187   7 
 OCA  HN ES       1838  3.22                             117    0.33 9  187   7 
 TAM  HZ EP       1837 40.65                             116   -0.09 9  192  94 
 CHI  HN ES   4   1838 10.64                             113    1.69 0  215 186 
 HEL  HZ EP       1837 45.60                             112    0.66 8  226 260 
 HEL  HN ES       1838 11.37                             112    0.31 8  226 260 
 HEL  HZ I        1838 18.33        23.1 0.34            107            226 260 
 GUY2CHZ EP       1837 48.89                             109    0.83 8  252 234 
 GUY2CHN ES   4   1838 19.08                             109    2.46 0  252 234 
 GUY2CHZ I        1838 26.26        17.4 0.40                           252 234 
 URE  HZ EP       1837 47.56                             108   -0.65 8  258 301 
 URE  HN ES       1838 15.69                             108   -1.19 8  258 301 
 URE  HZ I        1838 19.56        20.3 0.36            105            258 301 
 ELA  HZ EP   4   1837 54.14                             107    2.72 0  280 228 
 ELA  HZ I        1838 35.56        10.2 0.50            103            280 228 
 CBOC HZ EP   9   1837 53.16                             106    1.51 0  286 255 
 CBOC HN ES       1838 24.88                             106    0.36 7  286 255 
 CBOC HZ I        1838 27.27         8.9 0.32            103            286 255 
 DBB  EZ EP       1837 53.79                             105    0.46 7  301 280 
 DBB  EZ I        1838 30.53         6.9 0.33            102            301 280 
 SOCV BZ EP       1837 58.82                             102   -0.26 6  351  57 
 SOCV BN ES   4   1838 34.23                             102   -2.00 0  351  57 
 PAL  HZ EP   9   1838  1.31                             102    1.48 0  356 239 
 PAL  HN ES       1838 39.34                             101    0.29 6  356 239 
 PAL  HZ I        1838 43.74        10.4 0.44            100            356 239 
 SJC  HZ EP       1838  5.88                              99   -0.56 6  412 334 
 SJC  HN ES   4   1838 47.74                              99   -1.60 0  412 334 
 SJC  HZ I        1838 49.13         3.0 0.33             99            412 334 
                                                                                
