 2013  3 1 1131  4.4 L   6.617 -73.485108.5  RSN  5 0.4 1.5LRSN                1
 GAP=171        0.95       8.2     4.9 11.0 -0.2934E+01  0.1926E+02  0.9404E+01E
 Epicentro: EL CARMEN DE CHUCURI - SANTANDER                                   3
 ACTION:UPD 13-04-09 13:59 OP:ep   STATUS:               ID:20130301113104 L   I
 2013-03-01-1130-00M.COL___228                                                 6
 STAT SP IPHASW D HRMM SECON CODA AMPLIT PERI AZIMU VELO AIN AR TRES W  DIS CAZ7
 BAR2 SZ EP       1131 20.42                             162    0.4910 33.6  95 
 BAR2 SZ ES   1   1131 32.14                             162    0.12 7 33.6  95 
 BAR2 SZ I        1131 34.80         9.6 0.19            163           33.6  95 
 BRR  HZ EP   1   1131 21.27                             149    0.35 7 59.7 335 
 BRR  HE ES   1   1131 34.02                             149    0.23 7 59.7 335 
 PTB  HZ EP     C 1131 24.31                             132   -0.4110  108 266 
 PTB  HN ES   1   1131 40.07                             132   -0.48 7  108 266 
 PTB  HZ I        1131 40.91         8.9 0.10            134            108 266 
 PAM  SN ES   1   1131 42.64                             129   -0.75 7  118  47 
 PAM  SZ I        1131 45.67         4.4 0.18            130            118  47 
 ZAR  HE ES   1   1131 54.02                             116    0.38 7  180 303 
 ZAR  HZ I        1131 57.95         4.1 0.40            118            180 303 
                                                                                
