 2017 12 1 1447 45.6 L   6.792 -73.185139.8  RSN  4 0.2 1.2LRSN                1
 GAP=143        0.49       2.9     2.8  4.1 -0.2541E+01  0.3260E+01 -0.1203E+01E
 Epicentro: ZAPATOCA - SANTANDER                                               3
 ACTION:UPD 18-01-04 13:16 OP:rebc STATUS:               ID:20171201144745 L   I
 OLDACT:DUP 17-12-02 00:01 OP:dani STATUS:               ID:20171201143737d    3
 2017-12-01-1438-00M.COL___477                                                 6
 STAT SP IPHASW D HRMM SECON CODA AMPLIT PERI AZIMU VELO AIN AR TRES W  DIS CAZ7
 BAR2 EZ EP       1448  4.49                             171   -0.0310 22.1 179 
 BAR2 EZ ES       1448 18.98                             171   -0.2610 22.1 179 
 BAR2 EZ I        1448 20.84         6.6 0.22            170           22.1 179 
 PAM  EZ EP       1448  7.51                             149    0.0810 80.9  42 
 PAM  EN ES       1448 24.52                             149    0.0910 80.9  42 
 PAM  EZ I        1448 24.93         2.2 0.20            150           80.9  42 
 RUS  HZ EP       1448  8.54                             143   -0.2210  100 174 
 RUS  HN ES       1448 27.07                             143    0.2710  100 174 
 RUS  HZ I        1448 28.04         2.6 0.28            143            100 174 
 PTB  HZ EP       1448 11.72                             131    0.01 9  143 259 
 PTB  HN ES       1448 32.12                             131    0.08 9  143 259 
                                                                                
