 2011 12 1 1026 28.7 L   6.811 -73.099137.7  RSN  4 0.1 1.5LRSN                1
 GAP=142        0.37       2.5     3.6  4.6  0.4255E+00  0.1932E+00  0.2627E+01E
 Epicentro: LOS SANTOS - SANTANDER                                             3
 ACTION:UPD 12-07-13 16:13 OP:ep   STATUS:               ID:20111201102628 L   I
 2011-12-01-1022-42S.COL___160                                                 6
 STAT SP IPHASW D HRMM SECON CODA AMPLIT PERI AZIMU VELO AIN AR TRES W  DIS CAZ7
 BAR2 SZ EP       1026 47.21                             169   -0.2310 25.9 201 
 BAR2 SZ I        1026 53.63        10.5 0.51                          25.9 201 
 PAM  SZ EP   1   1026 49.94                             151    0.11 7 73.3  37 
 PAM  SE ES   1   1027  6.29                             151   -0.01 7 73.3  37 
 BRR  HZ EP       1026 49.26                             150    0.0110 75.2 296 
 BRR  HN ES   1   1027  5.31                             150    0.06 7 75.2 296 
 BRR  HZ I        1027  9.77         5.1 0.10                          75.2 296 
 RUS  HZ EP       1026 51.86                             142    0.1010  102 179 
 RUS  HN ES   1   1027  9.77                             142    0.04 7  102 179 
                                                                                
