 2011  4 1 1120 26.0 L   6.723 -73.019141.8  RSN  9 0.4 2.0LRSN                1
 GAP=188        0.86       6.1    14.4  9.2 -0.4792E+02 -0.3762E+02  0.2286E+02E
 Epicentro: ARATOCA - SANTANDER                                                3
 ACTION:UP  11-06-22 15:27 OP:REBC STATUS:               ID:20110401112026 L   I
 2011-04-01-1116-23S.COL___138                                                 6
 STAT SP IPHASW D HRMM SECON CODA AMPLIT PERI AZIMU VELO SNR AR TRES W  DIS CAZ7
 BAR2 SZ EP   2   1120 45.15                             170     0.0 5   23 231 
 BAR2 SZ ES   2   1120 59.25                             170    -0.9 5   23 231 
 BAR2 SZ I        1121  2.31        23.3 0.22                            23 231 
 BTL  SZ EP       1120 46.18                             165     0.710   35 308 
 GIR2 SZ EP   1   1120 45.70                             162     0.0 7   44 334 
 GIR2 SZ ES   2   1121  1.40                             162     0.4 5   44 334 
 BRR  HZ EP   2   1120 47.38                             146    -0.4 5   88 299 
 BRR  HN ES   2   1121  4.78                             146     0.0 5   88 299 
 BRR  HZ I        1121  6.45        22.3 0.14                            88 299 
 GRA  SZ EP       1120 51.23                             135    -0.110  131  10 
 GRA  SZ ES   2   1121 10.55                             135    -0.5 5  131  10 
 GRA  SZ I        1121 13.25        12.2 0.40                           131  10 
 OCA  SZ EP   2   1120 55.36                             127     0.3 4  171 349 
 OCA  SZ ES   2   1121 17.24                             127    -0.5 4  171 349 
 OCA  SZ I        1121 20.68         9.1 0.18                           171 349 
 CHI  HZ EP   1   1121  2.81                             117    -0.3 6  245 199 
 CHI  HZ I        1121  5.84         4.3 0.32                           245 199 
 CHI  HE ES   2   1121 32.22                             117     0.2 4  245 199 
 RREF HZ EP   2   1121 12.70                             110     0.1 3  327 232 
 RREF HZ I        1121 54.83         5.7 0.24                           327 232 
 PRA  HZ EP   1   1121 18.66                             106    -0.8 4  392 212 
                                                                                
