 2017 10 1 1307 28.5 L   6.749 -73.148141.9  RSN  4 0.2 1.1LRSN                1
 GAP=139        0.62       3.3     3.9  5.7  0.6245E+00  0.5734E+01 -0.1855E+01E
 Epicentro: LOS SANTOS - SANTANDER                                             3
 ACTION:UPD 17-11-07 19:27 OP:rebc STATUS:               ID:20171001130728 L   I
 OLDACT:UP  17-10-01 23:12 OP:edw  STATUS:               ID:20171001125503     3
 OLDACT:REG 17-10-01 20:13 OP:edw  STATUS:               ID:20171001125503     3
 2017-10-01-1258-00M.COL___407                                                 6
 STAT SP IPHASW D HRMM SECON CODA AMPLIT PERI AZIMU VELO AIN AR TRES W  DIS CAZ7
 BAR2 EZ EP       13 7 47.14                             173   -0.4710 17.7 192 
 BAR2 EZ ES       13 8  2.63                             173    0.1510 17.7 192 
 BAR2 EZ I        13 8  3.50         4.2 0.20            173           17.7 192 
 PAM  EZ EP       13 7 50.81                             149    0.1710 82.0  37 
 PAM  EE ES       13 8  7.82                             149   -0.0510 82.0  37 
 PAM  EZ I        13 8 10.20         2.9 0.44            149           82.0  37 
 RUS  HZ EP       13 7 51.74                             145    0.2310 95.0 176 
 RUS  HN ES       13 8  9.38                             145   -0.0510 95.0 176 
 RUS  HZ I        13 8 11.04         1.5 0.26            146           95.0 176 
 ZAR  HN ES       13 8 26.26                             121    0.04 8  206 294 
                                                                                
