 2017  1 1 1936 30.0 L   6.620 -73.263124.0  RSN  6 0.2 1.4LRSN                1
 GAP=152        1.13       5.5     6.2  7.5  0.1321E+02  0.1808E+02  0.6246E+01E
 Epicentro: GALAN - SANTANDER                                                  3
 ACTION:UPD 17-05-22 15:54 OP:jn   STATUS:               ID:20170101193630 L   I
 OLDACT:UP  17-01-01 22:13 OP:edw  STATUS:               ID:20170101192743     3
 OLDACT:UP  17-01-01 22:13 OP:edw  STATUS:               ID:20170101192743     3
 OLDACT:UP  17-01-01 22:13 OP:edw  STATUS:               ID:20170101192743     3
 OLDACT:REG 17-01-01 20:31 OP:lv   STATUS:               ID:20170101192743     3
 2017-01-01-1928-00M.COL___378                                                 6
 STAT SP IPHASW D HRMM SECON CODA AMPLIT PERI AZIMU VELO AIN AR TRES W  DIS CAZ7
 BAR2 EZ ES       1936 59.59                             174   -0.3010 9.44 109 
 BRR  HZ IP     C 1936 48.82                             147   -0.1710 73.2 317 
 BRR  HE ES       1937  4.15                             147    0.3710 73.2 317 
 BRR  HZ I        1937  5.98        12.0 0.40            146           73.2 317 
 RUS  HZ EP       1936 50.40                             143    0.0510 82.9 166 
 RUS  HN ES       1937  6.16                             143   -0.0510 82.9 166 
 RUS  HZ I        1937  7.41         2.3 0.16            144           82.9 166 
 PTB  HZ EP   9   1936 51.89                             129   -1.92 0  132 266 
 PTB  HE ES       1937  9.16                             131   -1.2910  132 266 
 PTB  HZ I        1937 13.17         2.9 0.11            128            132 266 
 ZAR  HZ EP       1937  0.81                             117    0.01 9  201 299 
 ZAR  HN ES       1937 24.76                             117   -0.05 9  201 299 
 ZAR  HZ I        1937 27.92         4.4 0.12            117            201 299 
 NOR  HZ EP       1937  2.30                             115    0.15 8  213 237 
 NOR  HN ES       1937 27.22                             115    0.01 8  213 237 
 NOR  HZ I        1937 32.09         2.4 0.34            115            213 237 
                                                                                
