 2017 10 1 1806 40.3 L   6.761 -73.137145.6  RSN 15 0.4 2.1LRSN                1
 GAP=104        0.83       3.0     2.9  4.5  0.2438E+00  0.4098E+01  0.2996E+01E
 Epicentro: LOS SANTOS - SANTANDER                                             3
 ACTION:UPD 17-11-07 19:27 OP:rebc STATUS:               ID:20171001180640 L   I
 OLDACT:UP  17-10-02 00:51 OP:edw  STATUS:               ID:20171001175738d    3
 OLDACT:DUP 17-10-02 00:44 OP:edw  STATUS:               ID:20171001175738d    3
 2017-10-01-1758-00M.COL___402                                                 6
 STAT SP IPHASW D HRMM SECON CODA AMPLIT PERI AZIMU VELO AIN AR TRES W  DIS CAZ7
 BAR2 EZ IP     D 18 6 59.71                             172   -0.1610 19.4 195 
 BAR2 EZ ES       18 7 15.08                             172   -0.0310 19.4 195 
 BAR2 EZ I        18 7 15.85        39.0 0.22            170           19.4 195 
 PAM  EZ EP       18 7  2.93                             150    0.2310 80.1  37 
 PAM  EN ES       18 7 20.24                             150    0.1010 80.1  37 
 PAM  EZ I        18 7 22.34        23.6 0.44            153           80.1  37 
 RUS  HZ EP       18 7  3.52                             145   -0.2410 96.2 176 
 RUS  HN ES       18 7 22.13                             145    0.1010 96.2 176 
 RUS  HZ I        18 7 23.44        21.5 0.32            146           96.2 176 
 TAM  HZ EP       18 7  7.94                             131    0.13 9  153 104 
 YPLC HZ EP       18 7  9.68                             127   -0.03 9  173 151 
 YPLC HN ES       18 7 32.86                             127    0.25 9  173 151 
 YPLC HZ I        18 7 34.21        12.7 0.26            129            173 151 
 ZAR  HZ EP       18 7 13.24                             122    0.20 8  207 293 
 ZAR  HN ES       18 7 37.91                             122   -0.63 8  207 293 
 ZAR  HZ I        18 7 44.44        18.2 0.36            122            207 293 
 NOR  HZ EP     C 18 7 15.98                             119    0.10 8  233 235 
 NOR  HN ES       18 7 43.68                             119    0.08 8  233 235 
 NOR  HZ I        18 7 47.43         9.5 0.14            118            233 235 
 CHI  HZ EP       18 7 17.66                             117    0.05 8  245 196 
 CHI  HN ES       18 7 46.33                             117   -0.35 8  245 196 
 CHI  HZ I        18 7 49.72         5.5 0.60            118            245 196 
 HEL  HZ EP   4   18 7 22.42                             115    1.88 0  272 257 
 HEL  HN ES   4   18 7 53.80                             115    1.91 0  272 257 
 HEL  HZ I        18 7 59.09         8.1 0.28            115            272 257 
 URE  HN ES   4   18 7 51.04                             113   -2.89 0  286 293 
 GUY2CHZ EP       18 7 24.57                             112    0.82 7  300 236 
 GUY2CHN ES       18 7 57.73                             112    0.11 7  300 236 
 GUY2CHZ I        18 8  4.72         4.8 0.26                           300 236 
 PTGC HZ EP       18 7 22.46                             112   -1.23 7  304 159 
 PTGC HN ES   4   18 7 53.89                             112   -3.62 0  304 159 
 PRA  HZ EP       18 7 34.16                             107    0.68 6  389 210 
 PRA  HN ES   4   18 8 13.65                             107   -1.27 0  389 210 
 PRA  HZ I        18 8 23.27         5.2 0.32            107            389 210 
 ORTC HZ EP       18 7 33.94                             106    0.02 6  393 217 
 ORTC HN ES   4   18 8 18.23                             106    2.52 0  393 217 
 ORTC HZ I        18 8 20.06         3.2 0.26            107            393 217 
 PAL  HZ EP       18 7 35.33                             106   -0.01 6  404 240 
 PAL  HE ES   4   18 8 21.39                             106    3.16 0  404 240 
 PAL  HZ I        18 8 21.41         5.3 0.26            106            404 240 
 SJC  HZ EP   4   18 7 34.62                             105   -1.76 0  413 327 
 SJC  HN ES   4   18 8 16.46                             105   -3.63 0  413 327 
 SJC  HZ I        18 8 23.03         2.2 0.40            106            413 327 
                                                                                
