 2017  1 1 1348 27.3 L   6.755 -73.229144.0  RSN  5 0.3 1.2LRSN                1
 GAP=224        0.83       6.0     6.3  6.7  0.2423E+02  0.5080E+01  0.1612E+01E
 Epicentro: ZAPATOCA - SANTANDER                                               3
 ACTION:UPD 17-05-22 15:54 OP:jn   STATUS:               ID:20170101134827 L   I
 OLDACT:DUP 17-01-01 22:37 OP:lv   STATUS:               ID:20170101133747d    3
 2017-01-01-1338-00M.COL___372                                                 6
 STAT SP IPHASW D HRMM SECON CODA AMPLIT PERI AZIMU VELO AIN AR TRES W  DIS CAZ7
 BRR  HZ EP       1348 47.72                             154   -0.2710 66.0 306 
 BRR  HN ES       1349  4.38                             154    0.2710 66.0 306 
 BRR  HZ I        1349  7.95         3.3 0.28            153           66.0 306 
 RUS  HZ EP       1348 50.74                             145    0.1210 96.8 170 
 RUS  HN ES       1349  8.70                             145   -0.1010 96.8 170 
 RUS  HZ I        1349  9.69         2.1 0.32            149           96.8 170 
 PTB  HZ EP       1348 52.68                             134   -0.57 9  138 260 
 PTB  HE ES       1349 13.63                             134    0.16 9  138 260 
 PTB  HZ I        1349 15.63         2.4 0.10            135            138 260 
 ZAR  HZ EP       1348 59.53                             123    0.55 9  198 294 
 ZAR  HN ES       1349 23.32                             123   -0.35 9  198 294 
 ZAR  HZ I        1349 29.42         1.9 0.22            124            198 294 
 NOR  HZ EP       1349  2.12                             119    0.29 8  224 234 
 NOR  HN ES   4   1349 30.96                             119    2.20 0  224 234 
                                                                                
