 2011 10 1 1105 34.9 L   6.782 -72.952  4.1  RSN  5 0.4 1.1LRSN                1
 GAP=164        0.97       3.2     3.2  8.0 -0.2327E+01  0.5269E+01 -0.1264E+02E
 Epicentro: CEPITA - SANTANDER                                                 3
 ACTION:UPD 12-07-13 16:01 OP:ep   STATUS:               ID:20111001110534 L   I
 2011-10-01-1102-33S.COL___168                                                 6
 STAT SP IPHASW D HRMM SECON CODA AMPLIT PERI AZIMU VELO AIN AR TRES W  DIS CAZ7
 BAR2 SZ EP   1   11 5 40.63                              47   -0.16 7 33.0 230 
 BAR2 SZ I        11 5 46.11        18.1 0.15                          33.0 230 
 BTL  SZ EP       11 5 41.69                              47    0.1510 37.9 293 
 BTL  SZ ES       11 5 46.10                              47   -0.5810 37.9 293 
 PAM  SZ EP   1   11 5 46.70                              47    0.40 7 67.7  24 
 PAM  SN ES       11 5 54.78                              47   -0.3710 67.7  24 
 BRR  HZ EP   1   11 5 50.10                              47    0.73 7 91.3 293 
 BRR  HZ I        11 5 55.47         9.8 0.38                          91.3 293 
 BRR  HN ES   1   11 6  0.83                              47    0.20 7 91.3 293 
 RUS  HZ EP       11 5 51.45                              47    0.3310 99.4 188 
 RUS  HZ I        11 5 52.00         4.2 0.05                          99.4 188 
 RUS  HE ES   2   11 6  2.98                              47   -0.75 5 99.4 188 
                                                                                
