 2013  8 1 1918 41.2 L   6.720 -73.173142.2  RSN  6 0.4 1.7LRSN                1
 GAP=177        0.86       7.6     6.7  8.6  0.2854E+02  0.2554E+02  0.2644E+02E
 Epicentro: VILLANUEVA - SANTANDER                                             3
 ACTION:UPD 14-01-14 08:58 OP:ep   STATUS:               ID:20130801191841 L   I
 OLDACT:UP  13-08-01 20:35 OP:cam  STATUS:               ID:20130801190850     3
 OLDACT:UP  13-08-01 20:34 OP:cam  STATUS:               ID:20130801190850     3
 OLDACT:UP  13-08-01 20:34 OP:cam  STATUS:               ID:20130801190850     3
 OLDACT:UP  13-08-01 20:31 OP:cam  STATUS:               ID:20130801190850     3
 OLDACT:UP  13-08-01 20:28 OP:cam  STATUS:               ID:20130801190850     3
 OLDACT:REG 13-08-01 18:46 OP:cam  STATUS:               ID:20130801190850     3
 2013-08-01-1908-50M.COL___243                                                 6
 STAT SP IPHASW D HRMM SECON CODA AMPLIT PERI AZIMU VELO AIN AR TRES W  DIS CAZ7
 BAR2 SZ ES   1   1919 14.54                             174   -0.59 7 14.2 184 
 GIR2 SZ ES   1   1919 15.72                             164   -0.23 7 39.7 357 
 BRR  HN ES   1   1919 18.99                             151    0.59 7 73.3 306 
 RUS  HZ EP       1919  4.14                             145    0.1210 92.1 174 
 RUS  HN ES   1   1919 22.32                             145    0.52 7 92.1 174 
 RUS  HZ I        1919 23.27         6.0 0.26            146           92.1 174 
 PTB  HZ EP       1919  7.19                             132   -0.31 9  143 262 
 PTB  HN ES       1919 27.76                             132   -0.23 9  143 262 
 PTB  HZ I        1919 30.04         7.9 0.14            130            143 262 
 ZAR  HN ES   1   1919 39.18                             121    0.48 6  205 295 
 ZAR  HZ I        1919 43.96         7.3 0.34            120            205 295 
                                                                                
