 2013  7 1 1651 15.8 L   6.760 -73.165143.7  RSN  6 0.3 1.3LRSN                1
 GAP=180        0.55       4.6     4.1  5.9  0.2148E+01  0.4129E+01  0.3382E+01E
 Epicentro: LOS SANTOS - SANTANDER                                             3
 ACTION:UPD 13-08-12 10:34 OP:ep   STATUS:               ID:20130701165115 L   I
 OLDACT:REG 13-07-01 14:30 OP:jn   STATUS:               ID:20130701164959     3
 2013-07-01-1649-59M.COL___267                                                 6
 STAT SP IPHASW D HRMM SECON CODA AMPLIT PERI AZIMU VELO AIN AR TRES W  DIS CAZ7
 BAR2 SZ EP   1   1651 35.30                             172    0.19 7 18.6 186 
 BAR2 SZ ES   1   1651 50.59                             172    0.42 7 18.6 186 
 BAR2 SZ I        1651 51.02         4.6 0.22            169           18.6 186 
 GIR2 SZ EP   1   1651 35.19                             165   -0.17 7 35.4 355 
 BRR  HN ES   1   1651 53.03                             152   -0.08 7 71.6 302 
 RUS  HZ EP   1   1651 39.17                             145    0.11 7 96.3 175 
 RUS  HN ES   1   1651 56.75                             145   -0.44 7 96.3 175 
 RUS  HZ I        1651 58.73         2.3 0.26            144           96.3 175 
 PTB  HZ EP   1   1651 42.30                             132   -0.05 7  145 260 
 PTB  HE ES   1   1652  2.81                             132   -0.23 7  145 260 
 PTB  HZ I        1652  8.06         4.2 0.30            131            145 260 
 NOR  HE ES   1   1652 18.71                             119    0.34 6  230 235 
                                                                                
