 2016  2 1 1301 33.1 L   6.825 -73.120149.5  RSN 10 0.3 1.9LRSN                1
 GAP=139        0.71       2.3     3.9  4.9 -0.6435E+00  0.1024E+02 -0.3859E+00E
 Epicentro: LOS SANTOS - SANTANDER                                             3
 ACTION:UPD 16-03-04 21:22 OP:rebc STATUS:               ID:20160201130133 L   I
 OLDACT:REG 16-02-01 21:45 OP:cara STATUS:               ID:20160201125759     3
 2016-02-01-1257-59S.COL___223                                                 6
 STAT SP IPHASW D HRMM SECON CODA AMPLIT PERI AZIMU VELO AIN AR TRES W  DIS CAZ7
 BAR2 EZ IP     D 13 1 53.03                             169   -0.1710 26.6 195 
 BAR2 EZ ES       13 2  8.69                             169   -0.2310 26.6 195 
 BAR2 EZ I        13 2  9.69        11.3 0.40            168           26.6 195 
 PAM  EN ES       13 2 13.35                             153    0.4410 73.5  39 
 PAM  EZ I        13 2 15.20         8.8 0.24            157           73.5  39 
 RUS  HZ EP       13 1 57.45                             144    0.0910  103 178 
 RUS  HN ES       13 2 16.05                             144   -0.2710  103 178 
 RUS  HZ I        13 2 16.64         5.9 0.42            146            103 178 
 PTB  HZ EP       13 2  0.20                             132   -0.42 9  151 258 
 SPBC HZ EP       13 2  2.06                             129   -0.15 9  167 219 
 SPBC HN ES       13 2 25.03                             129    0.08 9  167 219 
 SPBC HZ I        13 2 31.15        17.9 0.38            130            167 219 
 ZAR  HN ES       13 2 31.83                             123    0.29 8  206 291 
 ZAR  HZ I        13 2 36.56        10.3 0.50            123            206 291 
 NOR  HZ EP       13 2  9.32                             119   -0.09 8  239 234 
 NOR  HE ES       13 2 37.75                             119   -0.03 8  239 234 
 NOR  HZ I        13 2 40.85         6.6 0.68            120            239 234 
 SML  HZ EP       13 2  9.52                             118   -0.23 8  242 334 
 SML  HN ES       13 2 38.31                             118   -0.07 8  242 334 
 SML  HZ I        13 2 41.09        12.5 0.10            120            242 334 
 CHI  HN ES       13 2 41.68                             117    0.50 8  252 196 
 CHI  HZ I        13 2 46.12         3.1 0.44            119            252 196 
 GUY2CHZ EP       13 2 17.88                             113    0.61 7  305 235 
 GUY2CHN ES   4   13 2 52.91                             113    1.15 0  305 235 
 GUY2CHZ I        13 2 59.90         5.8 0.78                           305 235 
                                                                                
