 2016 11 1 1437  2.7 L   6.832 -73.147139.9  RSN  6 0.5 1.6LRSN                1
 GAP=135        1.06       5.0     5.2  8.6 -0.6801E+01  0.4300E+01  0.9551E+01E
 Epicentro: LOS SANTOS - SANTANDER                                             3
 ACTION:UPD 17-10-26 21:03 OP:lp   STATUS:               ID:20161101143702 L   I
 OLDACT:REG 16-11-01 20:45 OP:cog  STATUS:               ID:20161101142733     3
 2016-11-01-1428-00M.COL___337                                                 6
 STAT SP IPHASW D HRMM SECON CODA AMPLIT PERI AZIMU VELO AIN AR TRES W  DIS CAZ7
 BRR  HZ EP       1437 23.41                             152    0.2510 69.5 296 
 BRR  HN ES       1437 39.39                             152    0.3110 69.5 296 
 PAM  EZ EP       1437 24.79                             151    0.6110 74.8  41 
 PAM  EN ES       1437 40.49                             151   -0.4110 74.8  41 
 PAM  EZ I        1437 44.12         5.4 0.44            158           74.8  41 
 RUS  HZ EP       1437 26.05                             142   -0.1410  104 176 
 RUS  HE ES       1437 44.26                             142   -0.2110  104 176 
 RUS  HZ I        1437 47.37         3.8 0.42            144            104 176 
 PTB  HZ EP       1437 28.64                             130   -0.66 9  148 257 
 PTB  HN ES       1437 49.57                             130   -0.43 9  148 257 
 PTB  HZ I        1437 57.29         7.1 0.52            133            148 257 
 SPBC HZ EP       1437 30.89                             127   -0.17 9  166 218 
 SPBC HN ES       1437 53.89                             127    0.75 9  166 218 
 SPBC HZ I        1438  0.93         7.9 0.48            130            166 218 
 GUY2CHZ EP   3   1437 47.57                             111    1.26 2  303 234 
 GUY2CHN ES   3   1438 20.86                             111    0.57 2  303 234 
                                                                                
