 2012 10 1 1123  8.7 L   6.811 -73.108146.1  RSN  7 0.3 1.9LRSN                1
 GAP=196        0.67       4.4     4.9  5.6  0.7293E+01  0.6447E+01  0.5722E+01E
 Epicentro: LOS SANTOS - SANTANDER                                             3
 ACTION:UPD 12-11-22 17:01 OP:ep   STATUS:               ID:20121001112308 L   I
 2012-10-01-1119-48M.COL___189                                                 6
 STAT SP IPHASW D HRMM SECON CODA AMPLIT PERI AZIMU VELO AIN AR TRES W  DIS CAZ7
 BAR2 SZ EP       1123 28.40                             170   -0.0310 25.6 199 
 BAR2 SZ I        1123 28.92        15.0 0.12                          25.6 199 
 BAR2 SZ ES   1   1123 43.27                             170   -0.54 7 25.6 199 
 GIR2 SZ EP   1   1123 28.37                             167   -0.05 7 31.0 342 
 GIR2 SZ ES   1   1123 44.05                             167    0.27 7 31.0 342 
 BRR  HZ EP       1123 30.37                             151    0.3010 74.3 296 
 BRR  HZ I        1123 31.53        10.3 0.28                          74.3 296 
 BRR  HN ES   1   1123 47.06                             151    0.32 7 74.3 296 
 RUS  HZ EP   1   1123 32.46                             144   -0.11 7  102 178 
 RUS  HN ES   1   1123 51.10                             144   -0.08 7  102 178 
 PTB  HN ES   1   1123 57.81                             131    0.35 7  152 259 
 ZAR  HZ EP   2   1123 41.43                             122   -0.10 4  207 291 
 ZAR  HZ I        1123 42.96         3.3 0.28                           207 291 
 ZAR  HN ES   1   1124  6.25                             122   -0.88 6  207 291 
 ZAR  HN I        1124 13.54        15.4 0.34                           207 291 
 PRA  HZ EP   1   1124  2.60                             106   -0.01 4  395 210 
 PRA  HN ES   1   1124 44.86                             106    0.21 4  395 210 
 PRA  HN I        1124 49.09         3.4 0.46                           395 210 
 PRA  HZ I        1124 49.20         3.0 0.34                           395 210 
                                                                                
