 2017  1 1 1122 25.0 L   6.683 -73.177150.8  RSN  4 0.1 1.3LRSN                1
 GAP=235        0.34       4.0     2.7  3.6  0.2304E+01 -0.7488E+00  0.2533E+01E
 Epicentro: VILLANUEVA - SANTANDER                                             3
 ACTION:UPD 17-05-22 15:54 OP:jn   STATUS:               ID:20170101112225 L   I
 OLDACT:DUP 17-01-01 22:10 OP:lv   STATUS:               ID:20170101111750d    3
 2017-01-01-1118-00M.COL___360                                                 6
 STAT SP IPHASW D HRMM SECON CODA AMPLIT PERI AZIMU VELO AIN AR TRES W  DIS CAZ7
 BAR2 EZ EP       1122 45.07                             176    0.0510 10.0 183 
 BRR  HZ EP       1122 46.86                             152   -0.0510 75.5 308 
 BRR  HN ES       1123  4.01                             152   -0.0110 75.5 308 
 BRR  HZ I        1123  7.45         3.2 0.10            149           75.5 308 
 PTB  HZ EP       1122 51.99                             134    0.11 9  142 264 
 PTB  HN ES       1123 12.79                             134   -0.08 9  142 264 
 PTB  HZ I        1123 15.94         2.5 0.15            134            142 264 
 ZAR  HZ EP       1122 57.83                             123   -0.14 8  206 296 
 ZAR  HE ES       1123 23.82                             123    0.12 8  206 296 
 ZAR  HZ I        1123 29.38         2.1 0.24            123            206 296 
 SJC  HZ EP   4   1123 19.65                             106   -2.12 0  418 328 
 SJC  HN ES   4   1124  1.46                             106   -4.61 0  418 328 
                                                                                
