 2013  9 1 1803 10.7 L   6.735 -73.202146.0  RSN  4 0.4 1.3LRSN                1
 GAP=226        1.09       8.6     8.2  9.4  0.3488E+02  0.3025E+01  0.5740E+00E
 Epicentro: VILLANUEVA - SANTANDER                                             3
 ACTION:UPD 13-10-22 09:19 OP:ep   STATUS:               ID:20130901180310 L   I
 OLDACT:REG 13-09-01 16:03 OP:nd   STATUS:               ID:20130901175959     3
 2013-09-01-1759-59M.COL___269                                                 6
 STAT SP IPHASW D HRMM SECON CODA AMPLIT PERI AZIMU VELO AIN AR TRES W  DIS CAZ7
 BAR2 SZ EP       18 3 29.62                             174   -0.6310 15.9 172 
 BAR2 SZ ES   1   18 3 44.79                             174   -0.69 7 15.9 172 
 BAR2 SZ I        18 3 45.93         7.2 0.30            176           15.9 172 
 BRR  HZ EP       18 3 31.87                             153    0.0610 69.8 306 
 BRR  HN ES       18 3 48.86                             153    0.5910 69.8 306 
 BRR  HZ I        18 3 57.29         6.1 0.34            152           69.8 306 
 RUS  HZ EP       18 3 34.49                             146    0.4610 94.0 172 
 RUS  HN ES       18 3 52.46                             146    0.2510 94.0 172 
 RUS  HZ I        18 3 54.63         1.9 0.18            152           94.0 172 
 PTB  HZ EP       18 3 36.88                             134   -0.16 9  140 261 
 PTB  HN ES       18 3 57.35                             134   -0.23 9  140 261 
 PTB  HZ I        18 4  1.31         1.9 0.16            136            140 261 
                                                                                
