 2017  5 1 1141 21.7 L   6.827 -73.136146.3  RSN 18 0.5 2.5LRSN                1
 GAP=112        1.18       3.8     3.8  6.4  0.1695E+01  0.6910E+01  0.3512E+01E
 Epicentro: LOS SANTOS - SANTANDER                                             3
 ACTION:UPD 17-06-16 13:31 OP:jn   STATUS:               ID:20170501114121 L   I
 OLDACT:UP  17-05-01 21:18 OP:edw  STATUS:               ID:20170501113743     3
 OLDACT:REG 17-05-01 19:48 OP:edw  STATUS:               ID:20170501113743     3
 2017-05-01-1138-00M.COL___377                                                 6
 STAT SP IPHASW D HRMM SECON CODA AMPLIT PERI AZIMU VELO AIN AR TRES W  DIS CAZ7
 BRR  HZ IP     D 1141 43.03                             153    0.1110 70.8 296 
 BRR  HE ES       1142  0.18                             153    0.7310 70.8 296 
 BRR  HZ I        1142  1.75        40.6 0.14            150           70.8 296 
 PAM  EZ IP     C 1141 44.14                             152    0.3110 74.4  40 
 PAM  EN ES       1142  0.98                             152   -0.0910 74.4  40 
 PAM  EZ I        1142  3.33        44.5 0.64            160           74.4  40 
 RUS  HZ EP     D 1141 45.02                             143   -0.7310  104 177 
 RUS  HN ES       1142  3.69                             143   -0.7910  104 177 
 RUS  HZ I        1142  4.52        63.3 0.24            142            104 177 
 PTB  HZ EP   9 D 1141 47.65                             132   -1.25 0  149 258 
 PTB  HN ES       1142  9.00                             131    0.16 9  149 258 
 PTB  HZ I        1142 10.85        42.5 0.28            130            149 258 
 SPBC HZ EP     D 1141 50.15                             129   -0.42 9  166 219 
 SPBC HN ES       1142 12.66                             129   -0.39 9  166 219 
 SPBC HZ I        1142 18.80        50.9 0.28            127            166 219 
 YPLC HZ EP       1141 51.89                             126    0.11 9  179 152 
 YPLC HN ES       1142 15.90                             126    0.69 9  179 152 
 YPLC HZ I        1142 16.07        30.4 0.24            128            179 152 
 ZAR  HZ EP       1141 54.03                             122   -0.18 9  204 291 
 ZAR  HN ES       1142 19.66                             122    0.12 9  204 291 
 ZAR  HZ I        1142 25.55        50.1 0.48            123            204 291 
 NOR  HZ EP       1141 57.69                             118   -0.09 8  237 234 
 NOR  HN ES       1142 25.30                             118   -0.60 8  237 234 
 NOR  HZ I        1142 31.43        30.3 0.18            118            237 234 
 CHI  HZ EP   4   1141 58.02                             117   -1.79 0  252 195 
 CHI  HN ES   4   1142 27.80                             117   -1.71 0  252 195 
 CHI  HZ I        1142 35.59         8.0 0.26            117            252 195 
 ROSC BZ EP       1142  1.32                             116    1.09 8  256 211 
 ROSC BN ES   4   1142 34.31                             116    4.06 0  256 211 
 ROSC BZ I        1142 36.98        25.1 0.35            116            256 211 
 HEL  HZ EP   4   1142  3.12                             115    0.94 0  274 255 
 HEL  HN ES       1142 33.60                             115   -0.12 8  274 255 
 HEL  HZ I        1142 40.08        18.1 0.44            115            274 255 
 ELA  HZ EP   4   1142 12.38                             110    3.45 0  332 229 
 ELA  HN ES       1142 46.86                             110    1.12 7  332 229 
 ELA  HZ I        1142 54.44        13.5 0.34            110            332 229 
 CBOC HZ EP       1142  9.16                             110    0.26 7  336 252 
 CBOC HN ES   4   1142 41.11                             110   -4.58 0  336 252 
 CBOC HZ I        1142 57.82         4.8 0.32            110            336 252 
 DBB  EZ EP       1142  9.22                             109   -0.12 7  340 274 
 DBB  EN ES       1142 46.29                             109   -0.18 7  340 274 
 DBB  EZ I        1142 48.24        11.0 0.46            110            340 274 
 ANIL HZ EP       1142 12.39                             108    0.49 6  360 224 
 ANIL HN ES   4   1142 55.33                             108    4.30 0  360 224 
 ANIL HZ I        1142 57.59        28.0 0.30            109            360 224 
 ORTC HZ EP   4   1142 10.82                             106   -5.22 0  399 216 
 ORTC HN ES   4   1142 59.74                             106    1.35 0  399 216 
 ORTC HZ I        1143  3.51         4.9 0.30            107            399 216 
 SJC  HZ EP   4   1142 15.50                             106   -1.60 0  407 327 
 SJC  HN ES       1142 59.40                             106   -0.87 6  407 327 
 PAL  HZ EP   2   1142 16.94                             106   -0.27 3  408 239 
 PAL  HN ES   4   1142 59.11                             106   -1.37 0  408 239 
 PAL  HZ I        1143  5.74         8.2 0.40            106            408 239 
                                                                                
