 2011  8 1 1031 57.3 L   6.705 -73.177154.0  RSN  4 0.2 1.4LRSN                1
 GAP=156        0.45       4.2     6.3  9.0 -0.3944E+01 -0.1875E+02  0.2184E+02E
 Epicentro: VILLANUEVA - SANTANDER                                             3
 ACTION:UPD 12-07-25 14:05 OP:epov STATUS:               ID:20110801103157 L   I
 2011-08-01-1029-06S.COL___142                                                 6
 STAT SP IPHASW D HRMM SECON CODA AMPLIT PERI AZIMU VELO AIN AR TRES W  DIS CAZ7
 BAR2 SZ EP       1032 17.52                             175   -0.2210 12.5 183 
 BAR2 SZ I        1032 17.88         7.0 0.36                          12.5 183 
 BRR  HZ EP       1032 19.41                             153   -0.0710 74.0 307 
 BRR  HN ES   1   1032 36.85                             153    0.06 7 74.0 307 
 BRR  HZ I        1032 38.50         6.9 0.22                          74.0 307 
 RUS  HZ EP       1032 21.40                             148    0.2210 90.5 173 
 RUS  HE ES   3   1032 39.60                             148   -0.21 2 90.5 173 
 RUS  HZ I        1032 41.41         1.8 0.34                          90.5 173 
 GRA  SZ ES   1   1032 45.23                             136    0.08 7  137  18 
                                                                                
