 2010  4 1 1654 28.9 L   6.796 -72.996151.1  RSN  5 0.4 1.9LRSN                1
 GAP=224        0.59       5.2    10.9  7.2 -0.1543E+02  0.8733E+01  0.5718E+01E
 Epicentro: CEPITA - SANTANDER                                                 3
 ACTION:UPD 10-08-24 09:57 OP:vdl  STATUS:               ID:20100401165429 L   I
 2010-04-01-1651-48S.COL___098                                                 6
 STAT SP IPHASW D HRMM SECON CODA AMPLIT PERI AZIMU VELO AIN AR TRES W  DIS CAZ7
 BAR2 SZ EP   1   1654 49.35                             168     0.0 7   31 222 
 BAR2 SZ ES   2   1655  5.29                             168     0.0 5   31 222 
 BRR  HZ EP   1   1654 51.34                             149    -0.2 7   86 294 
 BRR  HZ I        1654 51.81        14.9 0.12                            86 294 
 BRR  HE ES   2   1655  8.93                             149    -0.2 5   86 294 
 OCA  SZ EP   1   1654 57.78                             130    -0.2 7  163 347 
 OCA  SZ ES   2   1655 21.41                             130     0.8 5  163 347 
 HEL  HZ EP   1   1655 11.12                             114    -0.1 5  288 257 
 HEL  HZ I        1655 47.64         2.9 0.18                           288 257 
 PRA  HZ EP   1   1655 23.59                             107     0.0 4  400 212 
 PRA  HE ES   2   1656  7.25                             107     1.1 3  400 212 
 PRA  HZ I        1656  9.43         2.6 0.74                           400 212 
                                                                                
