 2016 11 1 1534  7.6 L   6.828 -73.142143.6  RSN 12 0.5 2.2LRSN                1
 GAP=136        0.99       3.9     4.1  5.5 -0.3699E+01  0.4735E+01  0.6794E+01E
 Epicentro: LOS SANTOS - SANTANDER                                             3
 ACTION:UPD 17-10-26 21:03 OP:lp   STATUS:               ID:20161101153407 L   I
 OLDACT:REG 16-11-01 21:04 OP:cog  STATUS:               ID:20161101152746     3
 2016-11-01-1528-00M.COL___331                                                 6
 STAT SP IPHASW D HRMM SECON CODA AMPLIT PERI AZIMU VELO AIN AR TRES W  DIS CAZ7
 BAR2 EZ EP       1534 26.97                             169   -0.0210 26.4 190 
 BAR2 EZ ES       1534 42.05                             169   -0.1010 26.4 190 
 BRR  HZ EP       1534 28.89                             152    0.4810 70.1 296 
 BRR  HE ES       1534 44.88                             152    0.2010 70.1 296 
 BRR  HZ I        1534 50.53        33.6 0.12            152           70.1 296 
 PAM  EZ EP       1534 29.86                             151    0.4810 74.8  41 
 PAM  EE ES       1534 46.46                             151    0.0410 74.8  41 
 PAM  EZ I        1534 49.13        43.4 0.56            156           74.8  41 
 RUS  HZ EP       1534 30.84                             142   -0.4710  104 176 
 RUS  HE ES       1534 49.19                             142   -0.6610  104 176 
 RUS  HZ I        1534 51.16        13.5 0.42            143            104 176 
 PTB  HZ EP       1534 33.82                             131   -0.61 9  149 258 
 PTB  HN ES       1534 55.07                             131   -0.33 9  149 258 
 PTB  HZ I        1534 57.23        23.1 0.26            131            149 258 
 SPBC HZ EP       1534 36.03                             128   -0.11 9  166 218 
 SPBC HE ES       1534 59.22                             128    0.79 9  166 218 
 SPBC HZ I        1535  2.57        18.3 0.10            128            166 218 
 NOR  HZ EP       1534 43.50                             118    0.12 8  237 234 
 NOR  HN ES       1535 11.43                             118    0.10 8  237 234 
 NOR  HZ I        1535 14.43        10.6 0.16            118            237 234 
 CHI  HZ EP       1534 44.97                             116   -0.49 8  252 195 
 CHI  HE ES       1535 15.72                             116    0.69 8  252 195 
 CHI  HN ES       1535 15.87                             116            252 195 
 CHI  HZ I        1535 24.39         3.9 0.28            117            252 195 
 HEL  HZ EP   3   1534 47.49                             114   -0.29 2  273 255 
 HEL  HN ES       1535 18.56                             114   -0.60 8  273 255 
 HEL  HZ I        1535 27.77        10.3 0.38            115            273 255 
 CBOC HZ EP   2   1534 55.00                             109    0.47 3  335 252 
 CBOC HE ES   3   1535 29.80                             109   -1.37 2  335 252 
 PRA  HZ EP       1535  1.33                             106   -0.00 6  395 209 
 PRA  HE ES       1535 44.03                             106    0.75 6  395 209 
 PRA  HZ I        1535 50.58         6.5 0.28            107            395 209 
 ORTC HZ EP       1535  1.83                             106    0.12 6  398 216 
 ORTC HN ES   2   1535 44.92                             106    0.96 3  398 216 
 ORTC HZ I        1535 51.26         2.6 0.19            107            398 216 
                                                                                
