 2017 10 1 1122 33.7 L   6.857 -73.150137.4  RSN  4 0.3 0.9LRSN                1
 GAP=133        0.87       4.6     5.4  8.5  0.1310E+01  0.1334E+02 -0.2544E+01E
 Epicentro: LOS SANTOS - SANTANDER                                             3
 ACTION:UPD 17-11-07 19:27 OP:rebc STATUS:               ID:20171001112233 L   I
 OLDACT:REG 17-10-01 20:03 OP:edw  STATUS:               ID:20171001111740     3
 2017-10-01-1118-00M.COL___398                                                 6
 STAT SP IPHASW D HRMM SECON CODA AMPLIT PERI AZIMU VELO AIN AR TRES W  DIS CAZ7
 BAR2 EZ ES       1123  7.51                             167    0.3410 29.5 187 
 PAM  EZ EP       1122 54.58                             151   -0.2310 73.0  43 
 PAM  EN ES       1123 11.23                             151   -0.0110 73.0  43 
 PAM  EZ I        1123 13.32         1.6 0.18            151           73.0  43 
 RUS  HZ EP       1122 57.65                             140    0.4810  107 176 
 RUS  HN ES       1123 14.94                             140   -0.5110  107 176 
 RUS  HZ I        1123 17.28         1.3 0.83            141            107 176 
 ZAR  HN ES       1123 29.93                             121   -0.10 9  201 291 
                                                                                
