 2012  4 1 1308 10.4 L   6.766 -73.153153.3  RSN  7 0.4 2.0LRSN                1
 GAP=137        0.89       5.8     5.4  8.0 -0.4555E+01  0.1073E+02  0.2293E+01E
 Epicentro: LOS SANTOS - SANTANDER                                             3
 ACTION:UPD 12-07-05 11:49 OP:tino STATUS:               ID:20120401130810 L   I
 2012-04-01-1300-00M.COL___196                                                 6
 STAT SP IPHASW D HRMM SECON CODA AMPLIT PERI AZIMU VELO AIN AR TRES W  DIS CAZ7
 BAR2 SZ EP   1   13 8 30.94                             172     0.0 7   20 189 
 BAR2 SZ ES   1   13 8 46.50                             172    -0.4 7   20 189 
 BAR2 SZ I        13 8 48.01        20.7 0.38                            20 189 
 BRR  HZ EP   1   13 8 32.77                             153     0.3 7   72 301 
 BRR  HZ I        13 8 33.07        24.1 0.15                            72 301 
 BRR  HN ES   1   13 8 50.54                             153     0.9 7   72 301 
 PAM  SZ EP   1   13 8 33.54                             151    -0.1 7   81  38 
 PAM  SN ES   1   13 8 51.23                             151    -0.5 7   81  38 
 RUS  HZ EP   1   13 8 35.16                             146     0.5 7   97 175 
 RUS  HN ES   1   13 8 53.80                             146     0.2 7   97 175 
 RUS  HZ I        13 8 55.27         8.4 0.37                            97 175 
 PTB  HZ EP   1   13 8 37.63                             134    -0.3 7  146 260 
 PTB  HN ES   1   13 8 58.95                             134    -0.4 7  146 260 
 PTB  HZ I        13 9  0.63         8.4 0.23                           146 260 
 ZAR  HZ EP   2   13 8 43.27                             124    -0.2 4  205 293 
 ZAR  HN ES   2   13 9  9.24                             124     0.0 4  205 293 
 ZAR  HZ I        13 9 16.07        11.1 0.35                           205 293 
 NOR  SZ EP   2   13 8 46.52                             120     0.2 4  232 235 
 NOR  SN ES   1   13 9 13.85                             120    -0.5 6  232 235 
                                                                                
