 2013  6 1 1141 43.7 L   6.790 -73.027146.4  RSN  4 0.3 1.5LRSN                1
 GAP=153        0.85       4.9     7.4  7.5  0.3703E+01  0.4988E+01  0.6518E+01E
 Epicentro: CEPITA - SANTANDER                                                 3
 ACTION:UPD 14-01-08 09:51 OP:ep   STATUS:               ID:20130601114143 L   I
 2013-06-01-1138-51M.COL___217                                                 6
 STAT SP IPHASW D HRMM SECON CODA AMPLIT PERI AZIMU VELO AIN AR TRES W  DIS CAZ7
 BAR2 SZ EP       1142  2.98                             169   -0.5510 27.8 218 
 BAR2 SZ I        1142  3.46         4.3 0.40            168           27.8 218 
 BAR2 SZ ES       1142 18.93                             169   -0.0510 27.8 218 
 PAM  SE ES       1142 22.80                             153    0.0910 70.7  31 
 BRR  HZ EP       1142  6.20                             149    0.5310 83.4 295 
 BRR  HN ES       1142 22.62                             149   -0.1710 83.4 295 
 BRR  HE I        1142 24.01         7.9 0.34            148           83.4 295 
 RUS  HZ EP       1142  7.35                             144   -0.1110 99.4 184 
 RUS  HN ES       1142 26.23                             144    0.2610 99.4 184 
                                                                                
