 2012  2 1 1208  0.9 L   6.778 -73.145149.0  RSN  4 0.2 1.7LRSN                1
 GAP=236        0.41       5.5     5.5  4.2  0.2488E+02 -0.2799E+00 -0.3865E+01E
 ACTION:UP  12-03-07 16:26 OP:epov STATUS:               ID:20120201120800 L   I
 2012-02-01-1200-00M.COL___187                                                 6
 STAT SP IPHASW D HRMM SECON CODA AMPLIT PERI AZIMU VELO SNR AR TRES W  DIS CAZ7
 BAR2 SZ EP       12 8 20.80                             172   -0.0610 20.9 192 
 BAR2 SZ ES   1   12 8 36.15                             172   -0.28 7 20.9 192 
 BAR2 SZ I        12 8 37.49         8.8 0.22                          20.9 192 
 BRR  HZ EP       12 8 22.58                             153    0.1210 72.5 300 
 BRR  HZ I        12 8 22.86        23.8 0.20                          72.5 300 
 BRR  HN ES   1   12 8 39.52                             153    0.24 7 72.5 300 
 RUS  HZ EP   1   12 8 24.85                             145    0.07 7 98.1 176 
 RUS  HN ES   1   12 8 43.50                             145    0.09 7 98.1 176 
 RUS  HZ I        12 8 45.81         5.7 0.25                          98.1 176 
 ZAR  HZ EP   1   12 8 33.48                             123   -0.17 6  205 293 
 ZAR  HE ES       12 8 59.13                             123   -0.08 9  205 293 
 ZAR  HZ I        12 9  2.35         2.8 0.26                           205 293 
                                                                                
