 2017 12 1 1044 59.6 L   6.807 -73.159143.7  RSN  5 0.4 1.4LRSN                1
 GAP=134        1.00       5.2     4.7  7.9 -0.9376E-01  0.1373E+02 -0.6285E+01E
 Epicentro: LOS SANTOS - SANTANDER                                             3
 ACTION:UPD 18-01-04 13:16 OP:rebc STATUS:               ID:20171201104459 L   I
 OLDACT:UP  17-12-01 23:00 OP:dani STATUS:               ID:20171201103744d    3
 OLDACT:DUP 17-12-01 22:58 OP:dani STATUS:               ID:20171201103744d    3
 2017-12-01-1038-00M.COL___480                                                 6
 STAT SP IPHASW D HRMM SECON CODA AMPLIT PERI AZIMU VELO AIN AR TRES W  DIS CAZ7
 BAR2 EZ EP       1045 18.85                             170   -0.1210 23.8 186 
 BAR2 EZ ES       1045 33.62                             170   -0.4710 23.8 186 
 BAR2 EZ I        1045 34.87         8.6 0.44            171           23.8 186 
 PAM  EZ EP       1045 21.74                             150    0.1410 77.8  41 
 PAM  EN ES       1045 38.77                             150    0.0010 77.8  41 
 PAM  EZ I        1045 40.75         6.8 0.46            152           77.8  41 
 RUS  HZ EP       1045 23.34                             143    0.1610  101 175 
 RUS  HN ES       1045 42.11                             143    0.5110  101 175 
 RUS  HZ I        1045 43.32         2.2 0.30            145            101 175 
 PTB  HZ EP       1045 25.39                             132   -0.86 9  146 258 
 PTB  HE ES       1045 47.08                             132    0.02 9  146 258 
 PTB  HZ I        1045 49.73         2.9 0.28            133            146 258 
 ZAR  HZ EP       1045 31.92                             122    0.21 9  202 292 
 ZAR  HN ES       1045 57.26                             122    0.48 9  202 292 
 ZAR  HZ I        1045 59.89         3.0 0.30            123            202 292 
                                                                                
