 2010  2 1 1127 19.2 L   6.842 -73.115149.9  RSN  4 0.2 1.6LRSN                1
 GAP=328        0.34       5.9    15.9  6.8 -0.5008E+02  0.6337E+02 -0.1351E+01E
 Epicentro: CEPITA - SANTANDER                                                 3
 ACTION:UP  10-08-24 09:47 OP:vdl  STATUS:               ID:20100201112719 L   I
 2010-02-01-1119-52S.COL___089                                                 6
 STAT SP IPHASW D HRMM SECON CODA AMPLIT PERI AZIMU VELO SNR AR TRES W  DIS CAZ7
 BAR2 SZ EP   2   1127 39.59                             169     0.2 5   29 195 
 BAR2 SZ ES   2   1127 55.17                             169     0.0 5   29 195 
 RUS  HE ES   2   1128  2.57                             145    -0.2 5  105 178 
 CHI  HZ EP   2   1127 57.73                             118     0.0 4  254 196 
 CHI  HN ES   1   1128 27.87                             118     0.1 6  254 196 
 CHI  HZ I        1128 36.30         2.8 0.84                           254 196 
 PRA  HZ EP   2   1128 13.10                             107    -0.4 3  398 210 
 PRA  HN ES   2   1128 55.85                             107     0.0 3  398 210 
                                                                                
