 2017  3 1 1129  8.7 L   6.797 -73.126143.2  RSN  4 0.2 1.2LRSN                1
 GAP=239        0.52       6.1     6.7  5.0  0.3397E+02  0.5949E+00 -0.2715E+01E
 Epicentro: LOS SANTOS - SANTANDER                                             3
 ACTION:UPD 17-05-25 18:34 OP:jn   STATUS:               ID:20170301112908 L   I
 OLDACT:UP  17-04-21 15:43 OP:nlst STATUS:               ID:20170301112908 L   3
 OLDACT:REG 17-03-01 19:52 OP:lv   STATUS:               ID:20170301111743     3
 2017-03-01-1118-00M.COL___369                                                 6
 STAT SP IPHASW D HRMM SECON CODA AMPLIT PERI AZIMU VELO AIN AR TRES W  DIS CAZ7
 BAR2 EZ EP       1129 27.94                             170   -0.0910 23.5 195 
 BAR2 EZ ES       1129 42.87                             170   -0.2310 23.5 195 
 BAR2 EZ I        1129 44.24         4.6 0.28            170           23.5 195 
 BRR  HZ EP   1   1129 29.74                             151    0.05 7 73.2 298 
 BRR  HN ES   1   1129 46.52                             151    0.46 7 73.2 298 
 RUS  HZ EP       1129 32.28                             143    0.1110  100 177 
 RUS  HN ES       1129 50.53                             143    0.0510  100 177 
 RUS  HZ I        1129 51.19         2.1 0.27            144            100 177 
 ZAR  HN ES       1130  6.37                             121   -0.18 8  206 292 
                                                                                
