 2010  9 1 1130 46.2 L   6.829 -73.154153.1  RSN  4 0.4 1.7LRSN                1
 GAP=227        0.99      13.5    24.3  9.9  0.2533E+03 -0.5372E+02 -0.2594E+02E
 Epicentro: LOS SANTOS - SANTANDER                                             3
 ACTION:UP  11-02-18 10:59 OP:tino STATUS:               ID:20100901113046 L   I
 2010-09-01-1127-45S.COL___120                                                 6
 STAT SP IPHASW D HRMM SECON CODA AMPLIT PERI AZIMU VELO SNR AR TRES W  DIS CAZ7
 BTL  SZ EP       1131  6.66                             174     0.010   16 308 
 BTL  SZ ES   1   1131 22.07                             174    -0.5 7   16 308 
 BAR2 SZ EP   1   1131  6.35                             170    -0.4 7   26 187 
 BAR2 SZ ES   1   1131 23.64                             170     0.8 7   26 187 
 BAR2 SZ I        1131 25.18         7.4 0.52                            26 187 
 BRR  HZ IP     D 1131  8.47                             154     0.410   69 297 
 BRR  HN ES   1   1131 24.69                             154    -0.4 7   69 297 
 BRR  HZ I        1131 25.92        12.1 0.38                            69 297 
 RUS  HZ EP   1   1131 10.65                             144    -0.3 7  104 176 
 RUS  HN ES   1   1131 30.12                             144    -0.1 7  104 176 
                                                                                
