 2017  2 1 1643 15.9 L   6.769 -73.153145.0  RSN  6 0.4 1.7LRSN                1
 GAP=137        1.12       5.6     5.3  7.5 -0.7377E+01  0.9005E+01  0.5408E+01E
 Epicentro: LOS SANTOS - SANTANDER                                             3
 ACTION:UPD 17-05-24 15:31 OP:jn   STATUS:               ID:20170201164315 L   I
 OLDACT:REG 17-02-01 20:49 OP:ar   STATUS:               ID:20170201163745     3
 2017-02-01-1638-00M.COL___337                                                 6
 STAT SP IPHASW D HRMM SECON CODA AMPLIT PERI AZIMU VELO AIN AR TRES W  DIS CAZ7
 BAR2 EZ EP       1643 35.27                             172   -0.1410 19.8 189 
 BAR2 EZ ES       1643 50.58                             172   -0.0110 19.8 189 
 BAR2 EZ I        1643 52.87        13.6 0.32            170           19.8 189 
 BRR  HZ EP       1643 37.08                             152    0.0210 72.2 301 
 BRR  HN ES       1643 54.25                             152    0.7210 72.2 301 
 PAM  EZ EP       1643 38.13                             150   -0.1310 80.6  38 
 PAM  EN ES       1643 55.56                             150   -0.1210 80.6  38 
 PAM  EZ I        1643 57.29         9.6 0.50            153           80.6  38 
 RUS  HZ EP       1643 39.37                             145    0.0010 97.2 175 
 RUS  HN ES       1643 57.65                             145    0.0110 97.2 175 
 RUS  HZ I        1643 58.70         7.9 0.34            146           97.2 175 
 PTB  HZ EP       1643 42.20                             132   -0.51 9  146 260 
 PTB  HN ES       1644  2.81                             132   -0.78 9  146 260 
 PTB  HZ I        1644  8.39         4.3 0.40            132            146 260 
 NOR  HZ EP       1643 52.38                             119    1.04 8  232 235 
 NOR  HN ES       1644 19.07                             119    0.13 8  232 235 
 NOR  HZ I        1644 24.56         2.9 0.16            119            232 235 
                                                                                
