 2014  8 1 1521 28.4 L   6.809 -73.134151.2  RSN  8 0.4 1.9LRSN                1
 GAP=202        0.91       3.7     6.6  7.2  0.7178E+01 -0.1036E+02 -0.1055E+01E
 Epicentro: LOS SANTOS - SANTANDER                                             3
 ACTION:UPD 14-09-15 21:46 OP:nd   STATUS:               ID:20140801152128 L   I
 OLDACT:UP  14-08-02 01:36 OP:mh   STATUS:               ID:20140801151817     3
 OLDACT:UP  14-08-02 01:36 OP:mh   STATUS:               ID:20140801151817     3
 OLDACT:UP  14-08-02 01:34 OP:mh   STATUS:               ID:20140801151817     3
 OLDACT:UP  14-08-02 01:34 OP:mh   STATUS:               ID:20140801151817     3
 OLDACT:UP  14-08-02 01:32 OP:mh   STATUS:               ID:20140801151817     3
 OLDACT:UP  14-08-02 01:31 OP:mh   STATUS:               ID:20140801151817     3
 OLDACT:UP  14-08-02 01:31 OP:mh   STATUS:               ID:20140801151817     3
 OLDACT:REG 14-08-01 23:12 OP:mh   STATUS:               ID:20140801151817     3
 2014-08-01-1518-17M.COL___254                                                 6
 STAT SP IPHASW D HRMM SECON CODA AMPLIT PERI AZIMU VELO AIN AR TRES W  DIS CAZ7
 BRR  HZ EP       1521 50.26                             153    0.1310 71.9 297 
 BRR  HN ES       1522  7.70                             153    0.5810 71.9 297 
 BRR  HZ I        1522 10.48         9.4 0.12            147           71.9 297 
 RUS  HZ EP       1521 52.93                             145    0.2210  101 177 
 RUS  HN ES   1   1522 10.99                             145   -0.71 7  101 177 
 PTB  HZ EP       1521 55.73                             133   -0.17 9  149 259 
 PTB  HN ES       1522 16.77                             133   -0.62 9  149 259 
 PTB  HZ I        1522 22.78                             128            149 259 
 SPBC HZ EP       1521 57.14                             130   -0.28 9  165 219 
 SPBC HN ES   1   1522 19.88                             130   -0.21 7  165 219 
 SPBC HZ I        1522 29.51        14.7 0.14            126            165 219 
 ZAR  HZ EP   4   1521 59.79                             124   -1.46 0  205 292 
 ZAR  HN ES   1   1522 27.53                             124    0.63 6  205 292 
 ZAR  HZ I        1522 33.43         9.2 0.16            122            205 292 
 SML  HZ EP       1522  5.27                             119    0.01 8  243 335 
 SML  HN ES   1   1522 33.51                             119   -0.53 6  243 335 
 CHI  HZ EP   1   1522  6.65                             118    0.15 6  250 195 
 CHI  HN ES       1522 36.69                             118    0.44 8  250 195 
 CHI  HZ I        1522 44.81         3.0 0.79            117            250 195 
 GUY2CHZ EP   1   1522 12.67                             113    0.27 5  303 235 
 GUY2CHN ES   4   1522 48.87                             113    2.11 0  303 235 
 GUY2CHZ I        1522 56.02         5.5 0.20                           303 235 
 RREF HZ EP   4   1522 16.09                             112    1.17 0  323 229 
 RREF HN ES   4   1522 53.82                             112    2.58 0  323 229 
                                                                                
