 2012  4 1 1635  8.0 L   6.756 -73.140139.0  RSN  6 0.4 1.9LRSN                1
 GAP=139        1.01       6.4     5.8  8.9  0.3950E+01  0.1344E+02 -0.3323E+01E
 Epicentro: LOS SANTOS - SANTANDER                                             3
 ACTION:UPD 12-07-05 11:49 OP:tino STATUS:               ID:20120401163508 L   I
 2012-04-01-1630-00M.COL___196                                                 6
 STAT SP IPHASW D HRMM SECON CODA AMPLIT PERI AZIMU VELO AIN AR TRES W  DIS CAZ7
 BAR2 SZ EP       1635 26.87                             172     0.110   19 195 
 BAR2 SZ ES   1   1635 40.75                             172    -0.6 7   19 195 
 BAR2 SZ I        1635 42.57        23.3 0.27                            19 195 
 BRR  HZ EP       1635 28.62                             150     0.010   74 302 
 BRR  HZ I        1635 28.84        25.1 0.18                            74 302 
 BRR  HN ES   1   1635 45.43                             150     0.7 7   74 302 
 PAM  SZ EP   1   1635 29.76                             148     0.0 7   81  37 
 PAM  SE ES   1   1635 46.43                             148    -0.3 7   81  37 
 RUS  HZ EP   1   1635 31.22                             144     0.4 7   96 176 
 RUS  HN ES   1   1635 48.83                             144     0.3 7   96 176 
 RUS  HZ I        1635 51.09         5.5 0.23                            96 176 
 PTB  HZ EP   1   1635 33.84                             130    -0.6 7  148 261 
 PTB  HN ES   1   1635 54.48                             130    -0.6 7  148 261 
 PTB  HZ I        1635 57.08        11.8 0.14                           148 261 
 ZAR  HZ EP   1   1635 40.17                             120    -0.1 6  207 293 
 ZAR  HE ES   1   1636  5.99                             120     0.5 6  207 293 
 ZAR  HZ I        1636 11.58        11.7 0.35                           207 293 
                                                                                
