 2016 10 1 1228  8.0 L   7.362 -73.118 11.6  RSN  5 0.3 1.4LRSN                1
 GAP=179        0.66       2.3     1.5  3.2 -0.2040E+00  0.1618E+01 -0.9024E-01E
 Epicentro: RIONEGRO - SANTANDER                                               3
 ACTION:UPD 16-11-09 19:15 OP:rebc STATUS:               ID:20161001122808 L   I
 OLDACT:DUP 16-10-01 23:44 OP:edw  STATUS:               ID:20161001121745d    3
 OLDACT:DUP 16-10-01 23:41 OP:edw  STATUS:               ID:20161001121744d    3
 OLDACT:UP  16-10-01 23:38 OP:edw  STATUS:               ID:20161001121743     3
 OLDACT:UP  16-10-01 23:37 OP:edw  STATUS:               ID:20161001121743     3
 OLDACT:REG 16-10-01 20:43 OP:edw  STATUS:               ID:20161001121743     3
 2016-10-01-1218-00M.COL___363                                                 6
 STAT SP IPHASW D HRMM SECON CODA AMPLIT PERI AZIMU VELO AIN AR TRES W  DIS CAZ7
 PAM  EZ EP       1228 16.13                             101   -0.0410 46.3  93 
 PAM  EN ES       1228 22.47                             101   -0.1210 46.3  93 
 PAM  EZ I        1228 23.34        28.3 0.16             98           46.3  93 
 BRR  HZ EP       1228 19.46                              96    0.0410 71.4 247 
 BRR  HN ES       1228 28.48                              96    0.1110 71.4 247 
 BRR  HZ I        1228 28.72        11.1 0.12             94           71.4 247 
 BAR2 EZ EP       1228 21.87                              95    0.0910 85.4 185 
 BAR2 EZ ES       1228 32.28                              95   -0.2910 85.4 185 
 RUS  HZ EP       1228 34.00                              56    0.54 9  162 179 
 RUS  HN ES       1228 53.30                              56   -0.05 9  162 179 
 RUS  HZ I        1228 54.61         3.0 0.38             92            162 179 
 ZAR  HZ EP       1228 36.85                              56    0.21 9  193 274 
 ZAR  HN ES       1228 58.56                              56   -0.46 9  193 274 
 ZAR  HZ I        1229  0.87         6.2 0.21             56            193 274 
                                                                                
