 2017  1 1 1718 29.9 L   6.896 -73.196149.8  RSN  4 0.3 1.3LRSN                1
 GAP=241        0.69       5.8     6.2  6.7  0.2112E+02  0.1841E+01 -0.7962E+01E
 Epicentro: BETULIA - SANTANDER                                                3
 ACTION:UPD 17-05-22 15:54 OP:jn   STATUS:               ID:20170101171829 L   I
 OLDACT:DUP 17-01-01 23:20 OP:lv   STATUS:               ID:20170101170746d    3
 2017-01-01-1708-00M.COL___375                                                 6
 STAT SP IPHASW D HRMM SECON CODA AMPLIT PERI AZIMU VELO AIN AR TRES W  DIS CAZ7
 BRR  HZ EP       1718 50.73                             156   -0.3010 61.6 292 
 BRR  HN ES       1719  7.55                             156    0.0710 61.6 292 
 BRR  HZ I        1719  9.84         4.6 0.10            154           61.6 292 
 RUS  HN ES       1719 14.49                             142    0.1210  112 174 
 PTB  HZ EP       1718 56.69                             133   -0.29 9  145 254 
 PTB  HE ES       1719 18.06                             133   -0.01 9  145 254 
 PTB  HZ I        1719 19.79         2.2 0.12            133            145 254 
 ZAR  HZ EP       1719  2.33                             125    0.58 9  195 290 
 ZAR  HN ES       1719 26.49                             125   -0.06 9  195 290 
 ZAR  HZ I        1719 32.34         1.8 0.18            125            195 290 
 SJC  HZ EP   4   1719 21.53                             107   -2.72 0  397 327 
 SJC  HN ES   4   1720  4.21                             107   -2.40 0  397 327 
                                                                                
