 2014  8 1 1954 12.0 L   6.805 -73.130148.5  RSN 13 0.4 2.3LRSN                1
 GAP=138        1.02       3.4     4.4  5.8 -0.2265E+01  0.7016E+01  0.2817E+01E
 Epicentro: LOS SANTOS - SANTANDER                                             3
 ACTION:UPD 14-09-15 21:46 OP:nd   STATUS:               ID:20140801195412 L   I
 OLDACT:UP  14-08-02 02:03 OP:mh   STATUS:               ID:20140801194818     3
 OLDACT:UP  14-08-02 02:03 OP:mh   STATUS:               ID:20140801194818     3
 OLDACT:REG 14-08-02 00:33 OP:mh   STATUS:               ID:20140801194818     3
 2014-08-01-1948-18M.COL___254                                                 6
 STAT SP IPHASW D HRMM SECON CODA AMPLIT PERI AZIMU VELO AIN AR TRES W  DIS CAZ7
 BAR2 SZ EP       1954 32.07                             170    0.1010 24.2 194 
 BAR2 SZ ES       1954 47.32                             170   -0.2310 24.2 194 
 BAR2 SZ I        1954 49.50        70.0 0.28            165           24.2 194 
 BRR  HZ EP       1954 34.00                             153    0.5010 72.4 297 
 BRR  HN ES       1954 51.31                             153    1.0310 72.4 297 
 BRR  HZ I        1955  7.81        15.8 0.55            147           72.4 297 
 PAM  SZ EP     C 1954 34.85                             152    0.4410 75.9  39 
 PAM  SN ES       1954 51.93                             152    0.0410 75.9  39 
 PAM  SZ I        1954 54.26        36.7 0.25            159           75.9  39 
 RUS  HZ EP       1954 35.98                             144   -0.0710  101 177 
 RUS  HN ES       1954 54.44                             144   -0.3710  101 177 
 RUS  HZ I        1954 56.34        12.9 0.54            148            101 177 
 PTB  HZ EP   1   1954 38.70                             132   -0.64 7  150 259 
 PTB  HN ES       1955  0.28                             132   -0.39 9  150 259 
 PTB  HZ I        1955  6.13        28.6 0.26            131            150 259 
 OCA  HZ EP   1   1954 40.38                             130   -0.10 7  160 353 
 OCA  HN ES       1955  1.69                             130   -1.01 9  160 353 
 OCA  HZ I        1955  8.57        21.8 0.25            133            160 353 
 SPBC HZ EP       1954 41.01                             129    0.16 9  165 219 
 SPBC HN ES   4   1955  3.16                             129   -0.19 0  165 219 
 SPBC HZ I        1955  8.99        39.1 0.10            131            165 219 
 ZAR  HZ EP       1954 44.57                             123   -0.19 8  205 292 
 ZAR  HN ES   1   1955 10.39                             123    0.08 6  205 292 
 ZAR  HZ I        1955 16.55        23.4 0.08            123            205 292 
 NOR  HZ EP   1   1954 47.95                             119   -0.12 6  236 235 
 NOR  HN ES       1955 16.07                             119   -0.13 8  236 235 
 NOR  HZ I        1955 19.54        15.5 0.36            120            236 235 
 CHI  HZ EP   1   1954 49.84                             118   -0.11 6  250 196 
 CHI  HN ES   1   1955 19.56                             118    0.00 6  250 196 
 CHI  HZ I        1955 28.18         7.6 0.34            121            250 196 
 GUY2CHZ EP   1   1954 56.71                             113    0.79 5  303 235 
 GUY2CHN ES   4   1955 32.67                             113    2.48 0  303 235 
 GUY2CHZ I        1955 39.05        15.6 0.23                           303 235 
 RREF HZ EP   4   1954 59.96                             111    1.51 0  323 229 
 RREF HN ES   4   1955 37.64                             111    2.96 0  323 229 
 CBOC HZ EP   2   1954 59.05                             110   -0.18 3  335 252 
 CBOC HN ES   4   1955 34.59                             110   -1.48 0  335 252 
 CBOC HZ I        1955 57.27         3.7 0.62            112            335 252 
 TOL  SZ EP   2   1955  1.06                             110    0.52 3  345 225 
 TOL  SN ES   1   1955 38.30                             110   -0.11 5  345 225 
                                                                                
