 2013  4 1 1611 34.5 L   6.746 -73.151142.0  RSN  8 0.4 1.7LRSN                1
 GAP=138        0.80       4.4     4.2  7.3 -0.1540E+01  0.6184E+01 -0.1878E+01E
 Epicentro: JORDAN - SANTANDER                                                 3
 ACTION:UPD 13-05-22 14:35 OP:EP   STATUS:               ID:20130401161134 L   I
 2013-04-01-1610-00M.COL___245                                                 6
 STAT SP IPHASW D HRMM SECON CODA AMPLIT PERI AZIMU VELO AIN AR TRES W  DIS CAZ7
 BAR2 SZ EP       1611 53.62                             173    0.0310 17.3 191 
 BAR2 SZ ES   1   1612  8.40                             173   -0.07 7 17.3 191 
 BAR2 SZ I        1612  9.17        25.6 0.30            171           17.3 191 
 BRR  HZ EP       1611 55.50                             151    0.0910 73.7 303 
 BRR  HN ES   1   1612 12.26                             151    0.55 7 73.7 303 
 BRR  HZ I        1612 16.71        10.3 0.30            148           73.7 303 
 PAM  SZ IP     D 1611 56.64                             148   -0.0210 82.5  37 
 PAM  SN ES   1   1612 13.47                             148   -0.45 7 82.5  37 
 PAM  SZ I        1612 14.96         4.4 0.18            152           82.5  37 
 RUS  HZ EP   1   1611 58.04                             145    0.56 7 94.7 175 
 RUS  HN ES   1   1612 15.42                             145    0.03 7 94.7 175 
 RUS  HZ I        1612 17.26         7.2 0.26            149           94.7 175 
 PTB  HZ EP   1   1612  0.64                             131   -0.39 7  146 261 
 PTB  HN ES   1   1612 20.97                             131   -0.74 7  146 261 
 PTB  HZ I        1612 25.47         5.7 0.14            131            146 261 
 ZAR  HN ES   1   1612 32.89                             121    0.72 6  206 294 
 ZAR  HZ I        1612 40.21         4.4 0.20            122            206 294 
 NOR  HN ES   1   1612 36.74                             118   -0.24 6  231 236 
 SML  HE ES   2   1612 39.77                             116   -0.59 4  249 336 
                                                                                
