 2012  2 1 1150 39.8 L   6.799 -73.101144.1  RSN  4 0.2 1.5LRSN                1
 GAP=242        0.50       4.2     8.8  5.2  0.1800E+02  0.2159E+01  0.6011E+01E
 ACTION:UP  12-03-07 16:26 OP:epov STATUS:               ID:20120201115039 L   I
 2012-02-01-1150-00M.COL___187                                                 6
 STAT SP IPHASW D HRMM SECON CODA AMPLIT PERI AZIMU VELO SNR AR TRES W  DIS CAZ7
 BAR2 SZ EP   1   1150 59.16                             170   -0.13 7 24.5 202 
 BAR2 SZ ES   1   1151 14.21                             170   -0.26 7 24.5 202 
 BAR2 SZ I        1151 15.85         8.6 0.20                          24.5 202 
 BRR  HZ EP   1   1151  1.08                             151    0.01 7 75.6 297 
 BRR  HN ES   1   1151 17.75                             151    0.13 7 75.6 297 
 RUS  HZ EP   1   1151  3.29                             144   -0.11 7  100 179 
 RUS  HE ES   1   1151 22.18                             144    0.40 7  100 179 
 RUS  HZ I        1151 23.57         3.5 0.37                           100 179 
 CHI  HZ EP   1   1151 17.86                             117    0.28 6  250 196 
 CHI  HN ES   1   1151 46.66                             117   -0.35 6  250 196 
 CHI  HZ I        1151 50.48         2.9 0.60                           250 196 
                                                                                
