 2010  7 1 1958 10.8 L   6.772 -73.054142.1  RSN 12 0.3 2.3LRSN                1
 GAP=133        0.58       2.8     5.0  4.6 -0.4915E+01 -0.2872E+01 -0.1190E+01E
 Epicentro: LOS SANTOS - SANTANDER                                             3
 ACTION:UPD 10-12-01 15:14 OP:pat  STATUS:               ID:20100701195810 L   I
 2010-07-01-1957-12S.COL___117                                                 6
 STAT SP IPHASW D HRMM SECON CODA AMPLIT PERI AZIMU VELO AIN AR TRES W  DIS CAZ7
 BAR2 SZ EP   1   1958 29.80                             170    -0.2 7   25 216 
 BAR2 SZ ES   1   1958 44.85                             170    -0.1 7   25 216 
 BRR  HZ IP     D 1958 31.99                             148    -0.210   82 297 
 BRR  HZ I        1958 32.17        76.8 0.18                            82 297 
 BRR  HN ES   1   1958 49.11                             148     0.2 7   82 297 
 RUS  HZ EP   1   1958 34.10                             144     0.1 7   97 182 
 RUS  HN ES   1   1958 52.21                             144     0.2 7   97 182 
 RUS  HZ I        1958 53.65        37.0 0.19                            97 182 
 BRI  SZ EP   2   1958 34.87                             141     0.5 5  108  15 
 GUE  SZ IP       1958 35.18                             138    -0.110  118   7 
 GRA  SZ IP       1958 36.00                             136     0.310  126  13 
 GRA  SZ ES   2   1958 54.98                             136    -0.2 5  126  13 
 OCA  SZ EP   2   1958 38.88                             128    -0.4 5  165 350 
 OCA  SZ I        1959  3.81        33.2 0.19                           165 350 
 CHI  HZ EP   2   1958 48.36                             116     0.1 4  249 198 
 CHI  HE ES   2   1959 17.15                             116    -0.4 4  249 198 
 CHI  HZ I        1959 20.95         8.5 0.38                           249 198 
 HEL  HZ EP   2   1958 52.40                             113     0.6 4  281 257 
 HEL  HZ I        1959 29.72        12.5 0.40                           281 257 
 RREF HZ EP   2   1958 58.18                             110     0.7 3  328 231 
 RREF HN ES   2   1959 33.00                             110    -0.8 3  328 231 
 RREF HZ I        1959 41.51         9.6 0.31                           328 231 
 SDV  BZ EP   1   1958 59.68                             108    -0.4 5  355  49 
 SDV  BZ I        1959  0.56         2.8 0.14                           355  49 
 PRA  HZ EP   2   1959  4.59                             106     0.1 3  394 211 
 PRA  HE ES   2   1959 46.11                             106    -0.2 3  394 211 
 PRA  HZ I        1959 51.25         7.7 0.34                           394 211 
                                                                                
