 2013  9 1 1428 28.6 L   6.168 -73.659111.6  RSN  9 0.4 1.6LRSN                1
 GAP= 67        0.87       2.7     3.3  6.2 -0.1015E+01  0.7184E+01  0.1835E+00E
 Epicentro: LA PAZ - SANTANDER                                                 3
 ACTION:UPD 13-10-22 09:19 OP:ep   STATUS:               ID:20130901142828 L   I
 OLDACT:REG 13-09-01 15:35 OP:nd   STATUS:               ID:20130901141960d    3
 2013-09-01-1419-59M.COL___269                                                 6
 STAT SP IPHASW D HRMM SECON CODA AMPLIT PERI AZIMU VELO AIN AR TRES W  DIS CAZ7
 BAR2 SZ IP     C 1428 46.76                             146    0.2710 70.6  48 
 BAR2 SZ ES       1429  0.54                             146    0.1010 70.6  48 
 BAR2 SZ I        1429  2.03        13.1 0.34            149           70.6  48 
 RUS  HZ IP     D 1428 46.98                             146    0.1210 70.7 116 
 RUS  HN ES       1429  0.42                             146   -0.6710 70.7 116 
 RUS  HZ I        1429  2.61         7.1 0.24            151           70.7 116 
 SPBC HZ EP       1428 46.61                             144    0.1510 73.1 219 
 SPBC HN ES       1429  0.61                             144    0.2210 73.1 219 
 SPBC HZ I        1429  3.10        18.4 0.24            146           73.1 219 
 PTB  HZ EP       1428 47.66                             136   -0.6010 97.3 295 
 PTB  HN ES   2   1429  2.80                             136   -0.78 5 97.3 295 
 PTB  HZ I        1429  5.94         7.9 0.24            137           97.3 295 
 BRR  HZ IP     D 1428 48.81                             134   -0.0010  104 357 
 BRR  HN ES       1429  4.95                             134    0.3810  104 357 
 BRR  HZ I        1429  7.90         7.4 0.16            136            104 357 
 NOR  HZ EP       1428 52.94                             123   -0.36 9  150 244 
 NOR  HN ES       1429 12.82                             123    0.27 9  150 244 
 NOR  HZ I        1429 14.19         8.2 0.14            125            150 244 
 CHI  HZ EP       1428 56.05                             119    0.12 9  170 183 
 CHI  HN ES   1   1429 17.65                             119    0.42 7  170 183 
 CHI  HZ I        1429 19.86         3.4 0.26            123            170 183 
 ZAR  HZ EP   1   1428 58.06                             115   -0.30 6  197 318 
 ZAR  HN ES   1   1429 21.88                             115    0.31 6  197 318 
 ZAR  HZ I        1429 25.87         5.1 0.36            117            197 318 
 GUY2CHZ EP   4   1429  1.72                             113    0.71 0  216 241 
 GUY2CHN ES   4   1429 26.71                             113    0.42 0  216 241 
 GUY2CHZ I        1429 33.36         4.3 0.34                           216 241 
                                                                                
