 2010  9 1 1227 49.6 L   6.739 -73.063144.6  RSN  8 0.4 2.0LRSN                1
 GAP=169        1.03       5.4     9.9  8.1 -0.1548E+02 -0.8567E+01 -0.1777E+01E
 Epicentro: JORDAN - SANTANDER                                                 3
 ACTION:UP  11-02-18 10:59 OP:tino STATUS:               ID:20100901122749 L   I
 2010-09-01-1224-18S.COL___119                                                 6
 STAT SP IPHASW D HRMM SECON CODA AMPLIT PERI AZIMU VELO SNR AR TRES W  DIS CAZ7
 BAR2 SZ EP       1228  8.83                             172    -0.210   21 219 
 BAR2 SZ ES   1   1228 24.14                             172    -0.1 7   21 219 
 BAR2 SZ I        1228 25.17        20.8 0.45                            21 219 
 BTL  SZ EP       1228  9.07                             168    -0.210   30 311 
 BTL  SZ ES   1   1228 24.87                             168     0.3 7   30 311 
 BRR  HZ IP     C 1228 10.83                             149    -0.510   83 300 
 BRR  HZ I        1228 11.10        43.8 0.18                            83 300 
 BRR  HN ES   1   1228 28.33                             149     0.1 7   83 300 
 RUS  HZ EP   1   1228 12.55                             146    -0.2 7   94 181 
 RUS  HE ES   1   1228 31.10                             146     0.3 7   94 181 
 RUS  HZ I        1228 32.77         8.4 0.28                            94 181 
 GUE  SZ EP   1   1228 13.95                             138    -0.7 7  122   7 
 GUE  SZ I        1228 15.36         7.5 0.07                           122   7 
 GRA  SZ IP       1228 15.74                             136     0.710  130  13 
 GRA  SZ I        1228 16.86        14.9 0.23                           130  13 
 GRA  SZ ES   1   1228 35.17                             136     0.2 7  130  13 
 GUY  SN ES   2   1229  9.28                             112     1.4 4  305 237 
 GUY  SZ I        1229 16.77        11.1 0.48                           305 237 
 PRA  HZ EP   2   1228 43.33                             107     0.4 3  391 211 
 PRA  HE ES   2   1229 24.15                             107    -0.4 3  391 211 
 PRA  HZ I        1229 30.59         4.3 0.61                           391 211 
                                                                                
