 2010 10 1 1659 34.4 L   6.748 -73.086141.1  RSN  5 0.4 1.5LRSN                1
 GAP=227        0.81       7.3    16.1 10.1  0.5822E+02  0.2230E+02 -0.6271E+01E
 Epicentro: LOS SANTOS - SANTANDER                                             3
 ACTION:UP  11-02-18 11:06 OP:tino STATUS:               ID:20101001165934 L   I
 2010-10-01-1657-18S.COL___125                                                 6
 STAT SP IPHASW D HRMM SECON CODA AMPLIT PERI AZIMU VELO SNR AR TRES W  DIS CAZ7
 BAR2 SZ EP   2   1659 53.25                             171    -0.2 5   20 212 
 BAR2 SZ ES   2   17 0  7.66                             171    -0.6 5   20 212 
 BAR2 SZ I        17 0  9.86         7.4 0.37                            20 212 
 BTL  SZ EP   1   1659 54.24                             168     0.7 7   28 313 
 BRR  HZ EP   1   1659 55.24                             149    -0.3 7   80 300 
 BRR  HZ I        1659 56.66        10.7 0.06                            80 300 
 BRR  HN ES   2   17 0 12.27                             149     0.2 5   80 300 
 RUS  HZ EP   1   1659 56.74                             145    -0.5 7   95 180 
 RUS  HN ES       17 0 15.27                             145     0.210   95 180 
 RUS  HZ I        17 0 16.95         3.7 0.14                            95 180 
 PRA  HZ EP   2   17 0 27.76                             106     0.2 3  390 211 
 PRA  HE ES   2   17 1  9.10                             106     0.1 3  390 211 
                                                                                
