 2012  2 1 1320 50.7 L   6.802 -73.182147.9  RSN  6 0.3 1.6LRSN                1
 GAP=132        0.66       4.6     4.4  6.0 -0.2018E+01  0.4592E+01  0.4699E-02E
 ACTION:UP  12-03-07 16:26 OP:epov STATUS:               ID:20120201132050 L   I
 2012-02-01-1320-00M.COL___187                                                 6
 STAT SP IPHASW D HRMM SECON CODA AMPLIT PERI AZIMU VELO SNR AR TRES W  DIS CAZ7
 BAR2 SZ EP       1321 10.55                             171   -0.0310 23.2 180 
 BAR2 SZ I        1321 10.94         7.3 0.12                          23.2 180 
 BAR2 SZ ES   1   1321 26.37                             171    0.28 7 23.2 180 
 GIR2 SZ EP   1   1321 10.71                             168    0.10 7 30.6 358 
 BRR  HZ EP       1321 12.38                             154    0.5010 67.6 300 
 BRR  HE ES   1   1321 28.46                             154    0.06 7 67.6 300 
 BRR  HZ I        1321 47.77        25.1 0.26                          67.6 300 
 PAM  SZ EP   1   1321 13.03                             150   -0.26 7 79.8  42 
 PAM  SN ES   1   1321 30.55                             150   -0.36 7 79.8  42 
 RUS  HZ EP   1   1321 14.44                             144   -0.26 7  101 174 
 RUS  HN ES   1   1321 33.49                             144    0.07 7  101 174 
 RUS  HZ I        1321 36.13         2.4 0.35                           101 174 
 PTB  HZ EP       1321 17.52                             133    0.03 9  144 258 
 PTB  HE ES   1   1321 37.81                             133   -0.58 7  144 258 
                                                                                
