 2016  6 1 1919 52.9 L   6.801 -73.175148.0  RSN  8 0.4 1.8LRSN                1
 GAP=133        0.88       3.7     4.4  5.6 -0.4535E+01  0.2502E+01  0.6618E+01E
 Epicentro: LOS SANTOS - SANTANDER                                             3
 ACTION:UPD 16-07-21 22:14 OP:rebc STATUS:               ID:20160601191952 L   I
 OLDACT:REG 16-06-01 22:05 OP:ar   STATUS:               ID:20160601191743     3
 2016-06-01-1917-43M.COL___310                                                 6
 STAT SP IPHASW D HRMM SECON CODA AMPLIT PERI AZIMU VELO AIN AR TRES W  DIS CAZ7
 BAR2 EZ EP       1920 12.75                             171   -0.0710 23.1 182 
 BAR2 EZ ES       1920 28.74                             171    0.4010 23.1 182 
 BAR2 EZ I        1920 29.29        12.7 0.24                          23.1 182 
 BRR  HZ EP   2   1920 13.94                             154   -0.22 5 68.3 300 
 BRR  HN ES       1920 31.02                             154    0.3010 68.3 300 
 BRR  HZ I        1920 32.35        11.7 0.30                          68.3 300 
 PAM  EE EP       1920 15.85                             151    0.3510 79.3  41 
 PAM  EN ES       1920 32.90                             151   -0.2010 79.3  41 
 PAM  EE I        1920 34.77        14.5 0.54                          79.3  41 
 RUS  HZ EP       1920 16.39                             144   -0.5410  101 174 
 RUS  HN ES       1920 35.51                             144   -0.1410  101 174 
 RUS  HZ I        1920 36.74         6.7 0.26                           101 174 
 PTB  HZ EP       1920 19.21                             133   -0.59 9  145 259 
 PTB  HN ES       1920 40.48                             133   -0.28 9  145 259 
 PTB  HZ I        1920 44.66         4.6 0.13                           145 259 
 SPBC HZ EP       1920 21.95                             130    0.53 9  161 218 
 SPBC HN ES       1920 43.66                             130    0.01 9  161 218 
 SPBC HZ I        1920 47.64         6.9 0.09                           161 218 
 CHI  HZ EP   2   1920 30.57                             118   -0.11 4  248 194 
 CHI  HN ES       1920 59.94                             118   -0.18 8  248 194 
 CHI  HZ I        1921  6.54         3.0 0.28                           248 194 
 PRA  HZ EP       1920 46.84                             107    0.48 6  391 209 
 PRA  HN ES       1921 28.77                             107    0.74 6  391 209 
 PRA  HZ I        1921 35.08         3.3 0.40                           391 209 
                                                                                
