 2012 10 1 1004 39.7 L   6.739 -73.187144.0  RSN  6 0.3 1.5LRSN                1
 GAP=228        0.54       4.8     4.0  5.4  0.9879E+01  0.2054E+01  0.2248E+01E
 Epicentro: VILLANUEVA - SANTANDER                                             3
 ACTION:UPD 12-11-22 17:01 OP:ep   STATUS:               ID:20121001100439 L   I
 2012-10-01-0959-46M.COL___180                                                 6
 STAT SP IPHASW D HRMM SECON CODA AMPLIT PERI AZIMU VELO AIN AR TRES W  DIS CAZ7
 BAR2 SZ EP       10 4 58.68                             173   -0.3110 16.2 178 
 BAR2 SZ ES   1   10 5 14.25                             173    0.22 7 16.2 178 
 BAR2 SZ I        10 5 14.93        11.2 0.23                          16.2 178 
 BRR  HZ EP   1   10 5  0.57                             152   -0.06 7 70.9 305 
 BRR  HN ES   1   10 5 17.22                             152    0.26 7 70.9 305 
 BRR  HZ I        10 5 19.98         8.7 0.72                          70.9 305 
 RUS  HZ EP   1   10 5  2.88                             145    0.06 7 94.3 173 
 RUS  HN ES   1   10 5 20.90                             145    0.04 7 94.3 173 
 RUS  HZ I        10 5 24.59         0.7 0.26                          94.3 173 
 PTB  HN ES       10 5 26.31                             133   -0.21 9  142 261 
 PTB  HN I        10 5 31.88         4.2 0.20                           142 261 
 ZAR  HN ES   1   10 5 37.13                             122    0.17 6  203 294 
 PRA  HZ EP   1   10 5 32.88                             107    0.68 4  384 209 
 PRA  HN I        10 6 20.48         2.0 0.30                           384 209 
                                                                                
