 2017  8 1 1757 48.2 L   6.777 -73.144140.1  RSN  6 0.4 1.6LRSN                1
 GAP=138        0.99       4.8     4.3  6.7  0.2035E+01  0.7666E+01 -0.1433E+01E
 Epicentro: LOS SANTOS - SANTANDER                                             3
 ACTION:UPD 17-09-04 20:15 OP:rebc STATUS:               ID:20170801175748 L   I
 OLDACT:REG 17-08-01 21:14 OP:dhb  STATUS:               ID:20170801174746     3
 2017-08-01-1748-00M.COL___386                                                 6
 STAT SP IPHASW D HRMM SECON CODA AMPLIT PERI AZIMU VELO AIN AR TRES W  DIS CAZ7
 BAR2 EZ IP     C 1758  7.10                             171    0.0210 20.8 192 
 BAR2 EZ ES       1758 21.23                             171   -0.6010 20.8 192 
 BAR2 EZ I        1758 23.55         6.5 0.13            172           20.8 192 
 BRR  HZ EP       1758  9.13                             151    0.3210 72.6 300 
 BRR  HN ES       1758 25.54                             151    0.6510 72.6 300 
 BRR  HZ I        1758 27.21        12.0 0.40            149           72.6 300 
 PAM  EZ EP       1758 10.01                             149    0.0910 79.3  38 
 PAM  EN ES       1758 26.57                             149   -0.3010 79.3  38 
 PAM  EZ I        1758 29.61         5.1 0.30            151           79.3  38 
 RUS  HZ EP       1758 11.36                             143    0.1710 98.0 176 
 RUS  HN ES       1758 29.55                             143    0.4110 98.0 176 
 RUS  HZ I        1758 30.87         4.6 0.36            147           98.0 176 
 PTB  HZ EP       1758 14.20                             131   -0.47 9  147 260 
 PTB  HN ES       1758 34.92                             131   -0.40 9  147 260 
 PTB  HZ I        1758 37.27         5.6 0.17            131            147 260 
 ZAR  HZ EP       1758 20.14                             121   -0.24 9  205 293 
 ZAR  HN ES       1758 45.75                             121    0.25 9  205 293 
 ZAR  HZ I        1758 54.09         5.9 0.28            122            205 293 
                                                                                
