 2015  3 1 1923  8.2 L   6.770 -73.181140.8  RSN  8 0.4 1.8LRSN                1
 GAP=133        1.09       4.0     4.8  6.7 -0.1766E+01  0.8151E+01  0.1403E-01E
 Epicentro: LOS SANTOS - SANTANDER                                             3
 ACTION:UPD 15-04-30 16:22 OP:nd   STATUS:               ID:20150301192308 L   I
 OLDACT:REG 15-03-01 21:35 OP:mh   STATUS:               ID:20150301191750     3
 2015-03-01-1917-50M.COL___293                                                 6
 STAT SP IPHASW D HRMM SECON CODA AMPLIT PERI AZIMU VELO AIN AR TRES W  DIS CAZ7
 BAR2 EZ ES       1923 41.33                             172   -0.6210 19.7 180 
 BAR2 EZ I        1923 43.75                             171           19.7 180 
 BRR  HZ EP       1923 29.43                             152    0.7210 69.5 302 
 BRR  HN ES       1923 45.31                             152    0.6010 69.5 302 
 BRR  HZ I        1923 50.54        15.6 0.22            151           69.5 302 
 PAM  SZ EP       1923 30.41                             148    0.2110 82.4  40 
 PAM  SN ES       1923 47.22                             148   -0.1410 82.4  40 
 PAM  SZ I        1923 49.52         7.4 0.58            153           82.4  40 
 RUS  HZ EP       1923 30.84                             144   -0.4110 97.7 174 
 RUS  HZ IPg      1923 31.49                             144    0.2410 97.7 174 
 RUS  HN ES       1923 49.40                             144    0.1810 97.7 174 
 RUS  HZ I        1923 50.61         7.6 0.52            147           97.7 174 
 PTB  HZ EP       1923 34.63                             132    0.28 9  143 260 
 PTB  HN ES       1923 54.70                             132   -0.05 9  143 260 
 PTB  HZ I        1923 58.17         6.2 0.26            132            143 260 
 NOR  HZ EP       1923 42.85                             118   -0.24 8  230 235 
 NOR  HN ES       1924  9.90                             118   -0.40 8  230 235 
 NOR  HZ I        1924 17.66         3.6 0.44            120            230 235 
 SML  HZ EP   1   1923 44.61                             116   -0.09 6  245 336 
 SML  HN ES       1924 12.31                             116   -0.86 8  245 336 
 SML  HZ I        1924 15.47        14.0 0.10            118            245 336 
 GUY2CHZ EP   4   1923 52.86                             112    1.86 0  296 235 
 GUY2CHN ES   4   1924 25.80                             112    1.42 0  296 235 
 GUY2CHZ I        1924 34.73         2.3 0.18                           296 235 
                                                                                
