 2012 12 1 1241 37.4 L   6.046 -73.803110.0  RSN  4 0.1 1.4LRSN                1
 GAP=130        0.41       4.6     3.1  6.2  0.8764E+01  0.5437E+01  0.1169E+02E
 Epicentro: EL PEON - SANTANDER                                                3
 ACTION:UPD 13-01-04 14:24 OP:ep   STATUS:               ID:20121201124137 L   I
 2012-12-01-1240-00M.COL___236                                                 6
 STAT SP IPHASW D HRMM SECON CODA AMPLIT PERI AZIMU VELO AIN AR TRES W  DIS CAZ7
 RUS  HZ EP       1241 56.49                             141    0.1810 81.5 102 
 RUS  HE ES   1   1242 10.87                             141   -0.17 7 81.5 102 
 RUS  HE I        1242 12.29         6.0 0.52                          81.5 102 
 PTB  HZ EP       1241 56.22                             137   -0.1510 90.5 307 
 PTB  HE ES   1   1242 11.29                             137    0.15 7 90.5 307 
 PTB  HZ I        1242 15.94         3.5 0.17                          90.5 307 
 BAR2 SZ EP   1   1241 56.74                             137   -0.01 7 91.4  49 
 BAR2 SZ I        1242 13.31        14.0 0.24                          91.4  49 
 CHI  HZ EP   1   1242  3.22                             121   -0.01 7  157 177 
                                                                                
