 2016  4 1 1713 47.7 L   6.828 -73.165146.9  RSN 22 0.5 2.8LRSN                1
 GAP= 75        1.13       3.5     3.1  5.5 -0.2209E+01  0.3448E+01  0.1773E+01E
 Epicentro: LOS SANTOS - SANTANDER                                             3
 ACTION:UPD 16-05-05 14:17 OP:rebc STATUS:               ID:20160401171347 L   I
 OLDACT:UP  16-04-01 21:46 OP:drio STATUS:               ID:20160401170745     3
 OLDACT:UP  16-04-01 21:28 OP:drio STATUS:               ID:20160401170745     3
 OLDACT:UP  16-04-01 21:27 OP:drio STATUS:               ID:20160401170745     3
 OLDACT:REG 16-04-01 19:48 OP:drio STATUS:               ID:20160401170745     3
 2016-04-01-1707-45M.COL___305                                                 6
 STAT SP IPHASW D HRMM SECON CODA AMPLIT PERI AZIMU VELO AIN AR TRES W  DIS CAZ7
 BAR2 EZ IP     C 1714  7.82                             170    0.2510 26.1 184 
 BAR2 EZ ES       1714 22.13                             170   -0.9010 26.1 184 
 BAR2 EZ I        1714 25.22        85.6 0.26            167           26.1 184 
 PAM  EZ EP     D 1714 10.65                             151    0.6310 76.5  42 
 PAM  EE ES       1714 27.84                             151    0.4410 76.5  42 
 PAM  EZ I        1714 30.00       112.5 0.50            155           76.5  42 
 RUS  HZ EP       1714 11.75                             143   -0.0910  104 175 
 RUS  HE ES       1714 30.68                             143    0.0510  104 175 
 RUS  HZ I        1714 31.54        74.7 0.24            143            104 175 
 PTB  HZ EP       1714 14.29                             132   -0.38 9  146 258 
 PTB  HN ES       1714 35.27                             132   -0.41 9  146 258 
 PTB  HZ I        1714 42.55        70.1 0.42            130            146 258 
 TAM  HZ IP     D 1714 16.23                             130    0.46 9  158 106 
 TAM  HE ES       1714 38.04                             130    0.40 9  158 106 
 SPBC HZ EP       1714 16.51                             129    0.08 9  164 218 
 SPBC HE ES       1714 38.20                             129   -0.60 9  164 218 
 SPBC HZ I        1714 41.35       106.6 0.34            127            164 218 
 ZAR  HZ EP       1714 20.25                             123    0.31 9  201 292 
 ZAR  HE ES       1714 45.57                             123    0.51 9  201 292 
 ZAR  HZ I        1714 56.04        55.2 0.48            122            201 292 
 NOR  HZ EP       1714 23.60                             119    0.05 8  235 234 
 NOR  HE ES       1714 51.44                             119   -0.03 8  235 234 
 NOR  HZ I        1714 59.71        57.6 0.14            118            235 234 
 CHI  HZ EP       1714 25.99                             117    0.23 8  251 195 
 CHI  HE ES       1714 55.64                             117    0.22 8  251 195 
 CHI  HZ I        1714 58.47        30.4 0.40            117            251 195 
 ROSC BZ EP   4   1714 27.97                             117    1.88 0  254 210 
 ROSC BN ES   4   1714 58.91                             117    2.91 0  254 210 
 ROSC BZ I        1715  6.00        50.9 0.30            116            254 210 
 HEL  HZ EP   4   1714 29.79                             115    1.92 0  271 255 
 HEL  HE ES   4   1714 57.23                             115   -1.94 0  271 255 
 HEL  HZ I        1715  7.28        27.9 0.20            114            271 255 
 URE  HZ EP   4   1714 27.18                             114   -1.34 0  281 291 
 URE  HE ES   4   1714 58.35                             114   -1.98 0  281 291 
 URE  HZ I        1715  5.22        24.2 0.30            113            281 291 
 GUY2CHZ EP   4   1714 33.20                             112    1.79 0  301 234 
 GUY2CHE ES       1715  5.87                             112    0.40 7  301 234 
 VIL  SZ EP       1714 31.23                             112   -0.27 7  306 191 
 VIL  SN ES       1715  5.34                             112   -0.29 7  306 191 
 PTGC HZ EP       1714 31.05                             111   -1.01 7  312 158 
 PTGC HE ES   4   1715  4.34                             111   -2.28 0  312 158 
 PTGC HZ I        1715 16.30        65.0 0.30            112            312 158 
 ELA  HZ EP   4   1714 36.69                             110    2.00 0  330 229 
 ELA  HN ES   4   1715 12.84                             110    1.54 0  330 229 
 ELA  HZ I        1715 27.21        19.6 0.48            110            330 229 
 CBOC HZ EP   4   1714 36.54                             110    1.96 0  333 251 
 CBOC HN ES   4   1715 10.36                             110   -0.76 0  333 251 
 CBOC HZ I        1715 15.78         8.6 0.44            109            333 251 
 ANIL HZ EP   4   1714 39.10                             108    1.43 0  358 224 
 ANIL HN ES       1715 17.74                             108    1.12 6  358 224 
 ANIL HZ I        1715 24.69        74.5 0.32            108            358 224 
 SDV  BZ EP       1714 36.85                             108   -0.94 6  360  51 
 SDV  BE ES   4   1715 14.85                             108   -1.98 0  360  51 
 SDV  BZ I        1715 18.05        10.4 0.30            109            360  51 
 ORTC HZ EP       1714 41.91                             106    0.07 6  397 216 
 ORTC HE ES   4   1715 25.50                             106    1.46 0  397 216 
 ORTC HZ I        1715 31.69        13.8 0.28            106            397 216 
 PAL  HZ EP       1714 43.07                             106    0.16 6  405 239 
 PAL  HN ES       1715 25.75                             106   -0.19 6  405 239 
 PAL  HZ I        1715 31.64        11.4 0.38            106            405 239 
 SJC  HZ EP       1714 41.67                             106   -1.24 6  406 327 
 SJC  HN ES   4   1715 23.11                             106   -2.82 0  406 327 
 SJC  HZ I        1715 30.64         9.5 0.38            106            406 327 
                                                                                
