 2010  2 1 1723 31.1 L   6.872 -73.080146.4  RSN  5 0.4 1.9LRSN                1
 GAP=209        0.62       6.6    11.2 10.4  0.2514E+02  0.5716E+02  0.8727E+01E
 Epicentro: LOS SANTOS - SANTANDER                                             3
 ACTION:UP  10-08-24 09:47 OP:vdl  STATUS:               ID:20100201172331 L   I
 2010-02-01-1722-10S.COL___094                                                 6
 STAT SP IPHASW D HRMM SECON CODA AMPLIT PERI AZIMU VELO SNR AR TRES W  DIS CAZ7
 GIR2 SZ ES   2   1724  6.47                             169     0.4 5   26 331 
 BAR2 SZ EP   1   1723 51.36                             167     0.3 7   33 200 
 BAR2 SZ ES   2   1724  6.37                             167    -0.2 5   33 200 
 RUS  BZ EP   2   1723 55.54                             142     0.1 5  108 180 
 RUS  BE ES   1   1724 14.11                             142    -0.4 7  108 180 
 RUS  BZ I        1724 15.02        11.9 0.28                           108 180 
 RREF BE ES   2   1724 55.95                             110     0.5 3  332 229 
 MON  HN ES   2   1724 57.67                             108    -0.8 3  354 307 
                                                                                
