 2017  7 1 1824 50.4 L   6.822 -73.113144.0  RSN 18 0.5 2.3LRSN                1
 GAP= 68        1.26       3.9     3.2  6.1 -0.1829E+00  0.4626E+01  0.6418E+01E
 Epicentro: LOS SANTOS - SANTANDER                                             3
 ACTION:UPD 17-08-30 15:28 OP:rebc STATUS:               ID:20170701182450 L   I
 OLDACT:REG 17-07-01 21:54 OP:osc  STATUS:               ID:20170701181736     3
 2017-07-01-1818-00M.COL___380                                                 6
 STAT SP IPHASW D HRMM SECON CODA AMPLIT PERI AZIMU VELO AIN AR TRES W  DIS CAZ7
 BAR2 EZ IP     C 1825  9.71                             169   -0.1710 26.6 197 
 BAR2 EZ ES       1825 24.43                             169   -0.6510 26.6 197 
 BAR2 EZ I        1825 25.75        82.3 0.16            166           26.6 197 
 PAM  EZ IP     D 1825 12.50                             152    0.3310 73.2  39 
 PAM  EE ES       1825 29.49                             152    0.3310 73.2  39 
 PAM  EZ I        1825 31.77        48.3 0.64            157           73.2  39 
 BRR  HZ EP       1825 11.56                             151    0.0910 73.3 295 
 BRR  HE ES       1825 28.54                             151    0.6310 73.3 295 
 BRR  HZ I        1825 32.59        60.9 0.12            151           73.3 295 
 TAM  HZ IP     D 1825 18.00                             131    0.33 9  152 106 
 TAM  HE ES       1825 38.71                             131   -0.24 9  152 106 
 PTB  HZ EP       1825 16.82                             131   -0.76 9  152 258 
 PTB  HE ES       1825 38.92                             131    0.13 9  152 258 
 PTB  HZ I        1825 40.78        23.5 0.14            131            152 258 
 SPBC HE ES   2   1825 40.77                             128   -0.82 5  167 219 
 YPLC HZ EP       1825 20.09                             126   -0.02 9  177 153 
 YPLC HE ES       1825 43.32                             126    0.04 9  177 153 
 YPLC HZ I        1825 46.55        28.3 0.28            128            177 153 
 ZAR  HZ EP       1825 23.21                             122    0.23 8  206 291 
 ZAR  HE ES       1825 48.64                             122    0.25 8  206 291 
 ZAR  HZ I        1825 53.57        23.1 0.15            123            206 291 
 TABC EZ EP       1825 27.37                             118    0.91 8  234 211 
 TABC EZ ES       1825 55.56                             118    0.97 8  234 211 
 TABC EZ I        1826  1.33        15.3 0.36            119            234 211 
 NOR  HZ EP       1825 26.15                             118   -0.34 8  239 234 
 NOR  HE ES       1825 53.95                             118   -0.70 8  239 234 
 NOR  HZ I        1826  1.06        10.7 0.08            118            239 234 
 CHI  HZ EP       1825 28.14                             116   -0.22 8  252 196 
 CHI  HN ES       1825 57.20                             116   -0.77 8  252 196 
 CHI  HZ I        1826  4.19         5.7 0.15            117            252 196 
 HEL  HZ EP       1825 30.97                             114   -0.00 7  276 255 
 HEL  HE ES       1826  1.75                             114   -0.87 7  276 255 
 HEL  HZ I        1826  8.98        11.8 0.28            115            276 255 
 URE  HZ EP   4   1825 34.66                             113    3.01 0  286 291 
 URE  HE ES   4   1826  2.03                             113   -1.80 0  286 291 
 URE  HZ I        1826  3.06        23.4 0.12            114            286 291 
 GUY2CHZ EP       1825 34.70                             112    0.29 7  306 235 
 GUY2CHE ES       1826  8.97                             112    0.22 7  306 235 
 GUY2CHZ I        1826 16.51         9.9 0.28                           306 235 
 LL6C HZ EP       1825 34.41                             110   -1.35 7  323 357 
 CBOC HZ EP       1825 38.05                             109    0.33 7  338 252 
 CBOC HE ES       1826 15.45                             109    0.82 7  338 252 
 CBOC HZ I        1826 25.86         3.8 0.42            110            338 252 
 ORTC HZ EP       1825 44.75                             106    0.02 6  400 216 
 ORTC HE ES       1826 27.47                             106    0.35 6  400 216 
 ORTC HZ I        1826 32.86         4.8 0.26            107            400 216 
 SJC  HZ EP   9   1825 44.04                             105   -1.85 0  409 326 
 SJC  HE ES       1826 25.67                                   -1.65 6  409 326 
 SJC  HZ I        1826 30.02         3.9 0.44            107            409 326 
                                                                                
