 2013  2 1 1744 36.9 L   6.576 -73.569106.1  RSN  6 0.3 2.0LRSN                1
 GAP= 83        0.81       3.3     5.7  8.8 -0.1200E+01  0.3153E+02  0.4721E+01E
 Epicentro: EL CARMEN DE CHUCURI - SANTANDER                                   3
 ACTION:UPD 13-03-12 09:29 OP:ep   STATUS:               ID:20130201174436 L   I
 2013-02-01-1738-50M.COL___191                                                 6
 STAT SP IPHASW D HRMM SECON CODA AMPLIT PERI AZIMU VELO AIN AR TRES W  DIS CAZ7
 BAR2 SZ EP       1744 52.25                             157   -0.2910 42.8  88 
 BAR2 SZ ES       1745  5.04                             157    0.3010 42.8  88 
 BAR2 SZ I        1745  6.53        88.7 0.40            166           42.8  88 
 BRR  HZ EP       1744 53.69                             148    0.4610 60.8 345 
 BRR  HN I        1745 13.12        21.3 0.18            135           60.8 345 
 RUS  HZ EP       1744 56.34                             136    0.0110 92.7 145 
 RUS  HN ES       1745 11.35                             136   -0.1310 92.7 145 
 PTB  HZ EP       1744 55.73                             134   -0.4210 98.2 268 
 PAM  SN ES       1745 17.07                             126   -0.2010  128  49 
 CHI  HZ EP       1745  9.49                             111    0.50 8  216 185 
 CHI  HZ I        1745 10.57         4.0 0.16            113            216 185 
 CHI  HN ES       1745 33.90                             111   -0.12 8  216 185 
                                                                                
