 2010 10 1 1051 54.0 L   6.817 -73.119140.3  RSN 12 0.4 2.1LRSN                1
 GAP=138        0.77       3.0     6.6  6.1 -0.3658E+01  0.7270E+01  0.2579E+01E
 Epicentro: LOS SANTOS - SANTANDER                                             3
 ACTION:UP  11-02-18 11:06 OP:tino STATUS:               ID:20101001105154 L   I
 2010-10-01-1049-56S.COL___125                                                 6
 STAT SP IPHASW D HRMM SECON CODA AMPLIT PERI AZIMU VELO SNR AR TRES W  DIS CAZ7
 BTL  SZ EP       1052 13.22                             172     0.410   20 304 
 BAR2 SZ EP       1052 12.96                             169     0.010   26 196 
 BAR2 SZ ES   1   1052 27.32                             169    -0.5 7   26 196 
 BAR2 SZ I        1052 28.72        20.0 0.17                            26 196 
 GIR2 SZ EP   2   1052 12.99                             167     0.0 5   30 344 
 BRR  HZ EP       1052 14.74                             151     0.110   73 296 
 BRR  HN ES   2   1052 31.58                             151     0.8 5   73 296 
 BRR  HZ I        1052 35.22        23.1 0.17                            73 296 
 RUS  HZ EP   1   1052 17.06                             142    -0.2 7  102 178 
 RUS  HE ES   1   1052 35.69                             142     0.2 7  102 178 
 RUS  HZ I        1052 37.49        18.5 0.32                           102 178 
 GRA  SZ EP   1   1052 18.77                             136     0.3 7  123  16 
 GRA  SZ ES   1   1052 37.94                             136     0.3 7  123  16 
 GRA  SZ I        1052 39.39        21.6 0.25                           123  16 
 OCA  SZ EP   1   1052 21.28                             129    -0.4 7  159 352 
 OCA  SZ ES   1   1052 42.52                             129    -0.8 7  159 352 
 OCA  SZ I        1052 47.70        17.2 0.36                           159 352 
 YOP  SZ EP   1   1052 23.73                             125     0.1 7  179 154 
 NOR  SZ EP   1   1052 29.57                             117    -0.2 6  238 235 
 NOR  SE ES   2   1052 57.34                             117    -0.4 4  238 235 
 CHI  HZ EP   1   1052 31.56                             116    -0.1 6  251 196 
 CHI  HE ES   2   1053  0.71                             116    -0.3 4  251 196 
 CHI  HZ I        1053  4.02         6.3 0.10                           251 196 
 HEL  HZ EP   2   1052 34.98                             113     0.7 4  275 256 
 HEL  HZ I        1053 11.61         8.0 0.34                           275 256 
 PRA  HZ EP   1   1052 47.87                             105     0.2 4  395 210 
 PRA  HE ES   2   1053 29.41                             105    -0.1 3  395 210 
                                                                                
