 2015  5 1 1335 44.6 L   6.802 -73.155136.9  RSN 17 0.4 2.2LRSN                1
 GAP=135        0.86       2.0     3.2  4.4 -0.1013E+01  0.6100E+01  0.6970E+00E
 Epicentro: LOS SANTOS - SANTANDER                                             3
 ACTION:UPD 15-09-10 22:00 OP:cam  STATUS:               ID:20150501133544 L   I
 OLDACT:REG 15-05-01 20:41 OP:ak   STATUS:               ID:20150501132749     3
 2015-05-01-1327-49M.COL___270                                                 6
 STAT SP IPHASW D HRMM SECON CODA AMPLIT PERI AZIMU VELO AIN AR TRES W  DIS CAZ7
 BAR2 EZ IP     C 1336  3.21                             170    0.0010 23.4 187 
 BAR2 EZ ES       1336 17.63                             170   -0.0610 23.4 187 
 BAR2 EZ I        1336 19.26        62.0 0.19            168           23.4 187 
 BRR  HZ EP       1336  5.07                             151    0.2910 70.2 299 
 BRR  HN ES       1336 20.45                             151   -0.0410 70.2 299 
 BRR  HZ I        1336 24.83        45.1 0.32            150           70.2 299 
 PAM  SZ IP     C 1336  6.25                             149    0.3010 77.8  40 
 PAM  SN ES       1336 22.87                             149    0.3010 77.8  40 
 PAM  SZ I        1336 25.19        45.8 0.46            155           77.8  40 
 RUS  HZ IP     C 1336  7.13                             142   -0.4310  101 175 
 RUS  HN ES       1336 25.48                             142    0.0510  101 175 
 RUS  HZ I        1336 31.62        10.8 0.30            144            101 175 
 OCA  HZ IP     C 1336 11.70                             128   -0.54 9  160 353 
 OCA  HN ES       1336 33.54                             128   -0.23 9  160 353 
 OCA  HZ I        1336 41.19        44.0 0.15            131            160 353 
 ZAR  HZ EP       1336 16.34                             120   -0.08 9  203 292 
 ZAR  HN ES       1336 41.03                             120   -0.17 9  203 292 
 ZAR  HZ I        1336 47.47        30.9 0.27            122            203 292 
 NOR  HZ EP       1336 19.69                             117   -0.11 8  234 234 
 NOR  HN ES       1336 46.80                             117   -0.43 8  234 234 
 NOR  HZ I        1336 49.49        11.3 0.18            118            234 234 
 SML  HZ EP   2   1336 19.90                             116   -0.81 4  243 335 
 SML  HN ES       1336 49.31                             116    0.46 8  243 335 
 SML  HZ I        1336 52.77        24.5 0.10            118            243 335 
 CHI  HZ EP       1336 21.58                             115   -0.29 8  249 195 
 CHI  HN ES       1336 50.59                             115   -0.31 8  249 195 
 CHI  HZ I        1336 54.77         6.3 0.28            118            249 195 
 HEL  HZ EP   2   1336 24.94                             113    0.62 4  271 256 
 HEL  HN ES       1336 56.12                             113    0.86 8  271 256 
 HEL  HZ I        1337  4.08         8.0 0.35            115            271 256 
 GUY2CHZ EP       1336 28.42                             111    0.64 7  301 235 
 GUY2CHN ES       1337  1.80                             111    0.37 7  301 235 
 GUY2CHZ I        1337  8.22         4.8 0.28                           301 235 
 LL2C HN ES       1337  1.47                             110    0.02 7  306 354 
 RREF HZ EP       1336 30.79                             109    0.44 7  321 229 
 RREF HN ES       1337  5.74                             109   -0.26 7  321 229 
 RREF HZ I        1337 13.60         2.6 0.22            111            321 229 
 TOL  SZ EP       1336 33.05                             108    0.55 7  343 224 
 TOL  SN ES       1337  9.71                             108   -0.11 7  343 224 
 TOL  SZ I        1337 18.11         6.6 0.40            110            343 224 
 MON  HZ IP   4 C 1336 31.18                             107   -2.02 0  353 308 
 MON  HN ES       1337 10.11                             107   -0.97 6  353 308 
 MON  HZ I        1337 10.45         3.0 0.21            109            353 308 
 ANIL HZ EP   1   1336 34.91                             107    0.85 5  357 224 
 ANIL HN ES       1337 12.08                             107   -0.53 6  357 224 
 ANIL HZ I        1337 23.41        15.2 0.26            109            357 224 
 SJC  HZ IP   4 C 1336 38.25                             104   -1.59 0  408 327 
 SJC  HN ES   4   1337 19.23                             104   -3.65 0  408 327 
 SJC  HZ I        1337 23.59         6.7 0.56            106            408 327 
                                                                                
