 2011  2 1 1930  7.2 L   6.808 -73.163140.3  RSN  6 0.4 2.2LRSN                1
 GAP=157        0.94       5.3     8.6 10.3 -0.2474E+02  0.2582E+02 -0.6389E+01E
 Epicentro: LOS SANTOS - SANTANDER                                             3
 ACTION:UP  11-03-28 15:05 OP:jfem STATUS:               ID:20110201193006 L   I
 2011-02-01-1928-00S.COL___135                                                 6
 STAT SP IPHASW D HRMM SECON CODA AMPLIT PERI AZIMU VELO SNR AR TRES W  DIS CAZ7
 BAR2 SZ EP   1   1930 26.33                             170     0.1 8   24 185 
 BAR2 SZ ES   2   1930 41.86                             170     0.8 5   24 185 
 BAR2 SZ I        1930 43.22        47.0 0.30                            24 185 
 RUS  HZ EP       1930 30.37                             142    -0.210  102 175 
 RUS  HN ES   1   1930 48.06                             142    -0.6 7  102 175 
 RUS  HZ I        1930 50.25        22.4 0.26                           102 175 
 GRA  SZ IP       1930 32.22                             136     0.210  126  18 
 GRA  SZ I        1930 33.37        28.9 0.26                           126  18 
 GRA  SZ ES   2   1930 50.97                             136    -0.3 5  126  18 
 NOR  SZ EP   2   1930 42.53                             117     0.0 4  234 234 
 NOR  SN ES       1931  9.83                             117    -0.3 8  234 234 
 CHI  HZ EP       1930 44.35                             116    -0.3 8  249 195 
 CHI  HZ I        1930 46.45         7.8 0.89                           249 195 
 CHI  HE ES       1931 14.54                             116     0.7 8  249 195 
 RREF HZ EP   2   1930 53.51                             110     0.5 3  321 229 
 RREF HZ I        1931 38.03        11.0 0.35                           321 229 
                                                                                
