 2017  5 1 1000 39.0 L   6.713 -73.167132.0  RSN  5 0.4 1.3LRSN                1
 GAP=228        1.00       5.5     6.5  9.8  0.1689E+02 -0.6458E+00 -0.1125E+02E
 Epicentro: VILLANUEVA - SANTANDER                                             3
 ACTION:UPD 17-06-16 13:31 OP:jn   STATUS:               ID:20170501100039 L   I
 OLDACT:UP  17-05-01 20:35 OP:edw  STATUS:               ID:20170501095740     3
 OLDACT:REG 17-05-01 19:39 OP:edw  STATUS:               ID:20170501095740     3
 2017-05-01-0958-00M.COL___368                                                 6
 STAT SP IPHASW D HRMM SECON CODA AMPLIT PERI AZIMU VELO AIN AR TRES W  DIS CAZ7
 BRR  HZ EP     D 10 0 58.30                             149   -0.5810 74.3 306 
 BRR  HN ES       10 1 14.58                             149    0.2010 74.3 306 
 RUS  HZ EP       10 1  0.44                             144   -0.2910 91.2 174 
 RUS  HN ES       10 1 18.04                             144    0.3610 91.2 174 
 RUS  HZ I        10 1 19.60         2.5 0.26            145           91.2 174 
 PTB  HN ES       10 1 24.03                             130   -0.39 9  144 262 
 SPBC HN ES       10 1 26.41                             128    0.04 9  154 221 
 ZAR  HZ EP       10 1 11.50                             119    0.73 8  206 295 
 ZAR  HN ES       10 1 35.68                             119    0.13 8  206 295 
 ZAR  HZ I        10 1 43.23         2.6 0.10            119            206 295 
                                                                                
