 2011  9 1 1510  6.3 L   6.778 -73.104146.9  RSN  5 0.2 2.0LRSN                1
 GAP=195        0.49       4.9     8.5  4.5  0.2717E+02  0.1555E+01  0.3306E+00E
 Epicentro: LOS SANTOS - SANTANDER                                             3
 ACTION:UPD 12-07-13 15:54 OP:ep   STATUS:               ID:20110901151006 L   I
 2011-09-01-1508-34S.COL___168                                                 6
 STAT SP IPHASW D HRMM SECON CODA AMPLIT PERI AZIMU VELO AIN AR TRES W  DIS CAZ7
 BAR2 SZ EP       1510 26.11                             171    0.0410 22.3 203 
 BAR2 SZ I        1510 26.43        19.1 0.10                          22.3 203 
 BAR2 SZ ES   1   1510 40.96                             171   -0.51 7 22.3 203 
 GIR2 SZ EP   1   1510 26.21                             166   -0.02 7 34.7 344 
 GIR2 SZ ES   1   1510 41.85                             166    0.10 7 34.7 344 
 BRR  HZ EP       1510 27.91                             151    0.0210 76.4 299 
 BRR  HZ I        1510 28.18        31.4 0.16                          76.4 299 
 BRR  HN ES   1   1510 44.92                             151    0.21 7 76.4 299 
 RUS  HZ EP   1   1510 30.13                             145    0.13 7 97.9 179 
 RUS  HN ES   1   1510 48.59                             145    0.13 7 97.9 179 
 RUS  HZ I        1510 50.30         9.0 0.28                          97.9 179 
 ZAR  HZ EP   2   1510 38.89                             122   -0.48 4  209 292 
 ZAR  HZ I        1511  9.87        14.0 0.45                           209 292 
                                                                                
