 2012  1 1 1513 10.3 L   6.783 -73.168138.4  RSN 14 0.3 2.6LRSN                1
 GAP=135        0.65       2.9     3.7  5.0 -0.1916E+01  0.5116E+01  0.1562E+01E
 Epicentro: LOS SANTOS - SANTANDER                                             3
 ACTION:UP  12-02-03 08:12 OP:REBC STATUS:               ID:20120101151310 L   I
 2012-01-01-1510-00M.COL___187                                                 6
 STAT SP IPHASW D HRMM SECON CODA AMPLIT PERI AZIMU VELO SNR AR TRES W  DIS CAZ7
 BAR2 SZ IP     D 1513 29.19                             171     0.110   21 184 
 BAR2 SZ ES   1   1513 43.50                             171    -0.1 7   21 184 
 BAR2 SZ I        1513 45.28       109.2 0.25                            21 184 
 BRR  HZ EP       1513 30.98                             152     0.410   70 301 
 BRR  HN ES   2   1513 47.42                             152     1.0 5   70 301 
 BRR  HZ I        1513 50.92        61.9 0.14                            70 301 
 PAM  SZ EP       1513 32.05                             148     0.110   80  40 
 PAM  SN ES   2   1513 48.47                             148    -0.4 5   80  40 
 PAM  SZ I        1513 50.86        25.4 0.38                            80  40 
 RUS  HZ EP       1513 33.19                             143    -0.110   99 175 
 RUS  HN ES   2   1513 50.99                             143    -0.1 5   99 175 
 RUS  HZ I        1513 53.66        38.1 0.27                            99 175 
 BRI  SZ EP   1   1513 33.52                             139    -0.2 7  111  22 
 PTB  HZ EP   1   1513 35.91                             131    -0.6 7  145 259 
 PTB  HN ES   2   1513 56.14                             131    -0.7 5  145 259 
 OCA  SZ EP   1   1513 38.07                             128    -0.2 7  162 354 
 OCA  SZ ES   2   1514  0.12                             128     0.1 5  162 354 
 OCA  SZ I        1514  3.16        81.3 0.18                           162 354 
 ZAR  HZ EP   1   1513 42.04                             121    -0.1 6  203 293 
 ZAR  HN ES   2   1514  6.36                             121    -0.6 4  203 293 
 ZAR  HZ I        1514 13.37        61.5 0.32                           203 293 
 NOR  SZ EP   1   1513 45.33                             117     0.0 6  232 234 
 NOR  SN ES   2   1514 12.59                             117     0.0 4  232 234 
 NOR  SZ I        1514 18.23         2.9 0.16                           232 234 
 CHI  HZ EP   1   1513 47.43                             116     0.1 6  246 195 
 CHI  HN ES   2   1514 15.60                             116    -0.7 4  246 195 
 CHI  HZ I        1514 24.03        25.8 0.53                           246 195 
 HEL  HZ EP   1   1513 50.06                             113     0.2 6  269 256 
 HEL  HN ES   2   1514 21.11                             113     0.4 4  269 256 
 HEL  HZ I        1514 27.59        27.3 0.38                           269 256 
 VIL  SN ES   2   1514 26.97                             111     0.4 4  301 191 
 RREF HZ EP   1   1513 55.95                             110     0.1 5  319 229 
 PRA  HZ EP   1   1514  3.34                             105     0.1 4  389 209 
 PRA  HN ES   2   1514 45.21                             105     0.6 3  389 209 
 PRA  HZ I        1514 50.80        81.1 0.26                           389 209 
                                                                                
