 2011  4 1 1055 21.1 L   6.177 -73.792 98.0  RSN  7 0.4 1.7LRSN                1
 GAP=124        0.86       5.4     7.3 14.5 -0.2654E+02  0.3324E+02 -0.1962E+02E
 Epicentro: LANDAZURI - SANTANDER                                              3
 ACTION:UP  11-06-22 15:27 OP:REBC STATUS:               ID:20110401105521 L   I
 2011-04-01-1049-29S.COL___138                                                 6
 STAT SP IPHASW D HRMM SECON CODA AMPLIT PERI AZIMU VELO SNR AR TRES W  DIS CAZ7
 BAR2 SZ EP   1   1055 38.78                             138     0.2 8   82  56 
 BAR2 SZ ES   2   1055 51.70                             138    -0.5 5   82  56 
 BAR2 SZ I        1055 54.18        33.1 0.22                            82  56 
 BTL  SZ IP       1055 40.70                             132     0.510  100  35 
 BRR  HZ EP   2   1055 40.36                             131     0.2 5  103   5 
 BRR  HZ I        1056  2.04        14.2 0.27                           103   5 
 NOR  SZ EP   2   1055 43.79                             122     0.1 5  137 240 
 NOR  SN ES   2   1056  0.99                             122    -0.2 5  137 240 
 CHI  HZ EP   2   1055 47.53                             116    -0.3 4  171 178 
 CHI  HN ES   1   1056  8.58                             116     0.0 7  171 178 
 CHI  HZ I        1056 15.86         3.8 0.37                           171 178 
 GRA  SZ EP       1055 52.14                             110    -0.7 8  218  30 
 GRA  SZ I        1056 24.78         4.7 0.34                           218  30 
 RREF HZ EP   1   1055 54.29                             110     0.3 6  223 231 
 RREF HN ES   2   1056 18.97                             110    -0.6 4  223 231 
 RREF HZ I        1056 25.21         3.8 0.28                           223 231 
                                                                                
