 2017 10 1 1416 27.2 L   6.773 -73.113140.0  RSN  6 0.3 1.5LRSN                1
 GAP=142        0.71       3.4     3.7  5.5 -0.3186E+01  0.1019E+02  0.8080E+00E
 Epicentro: LOS SANTOS - SANTANDER                                             3
 ACTION:UPD 17-11-07 19:27 OP:rebc STATUS:               ID:20171001141627 L   I
 OLDACT:UP  17-10-01 23:32 OP:edw  STATUS:               ID:20171001140736d    3
 OLDACT:DUP 17-10-01 23:28 OP:edw  STATUS:               ID:20171001140736d    3
 2017-10-01-1408-00M.COL___407                                                 6
 STAT SP IPHASW D HRMM SECON CODA AMPLIT PERI AZIMU VELO AIN AR TRES W  DIS CAZ7
 BAR2 EZ EP       1416 45.91                             171   -0.2210 21.3 201 
 BAR2 EZ ES       1417  0.64                             171   -0.2310 21.3 201 
 BAR2 EZ I        1417  1.93         9.7 0.16            171           21.3 201 
 PAM  EZ EP       1416 48.93                             150    0.0810 77.6  36 
 PAM  EN ES       1417  5.90                             150    0.1910 77.6  36 
 PAM  EZ I        1417  8.03         5.8 0.48            151           77.6  36 
 RUS  HZ EP       1416 49.84                             144   -0.3410 97.4 178 
 RUS  HN ES       1417  8.44                             144    0.3610 97.4 178 
 RUS  HZ I        1417  9.16         3.6 0.20            145           97.4 178 
 ZAR  HE ES       1417 25.18                             120    0.02 8  209 293 
 NOR  HZ EP       1417  2.36                             117   -0.40 8  236 236 
 NOR  HN ES       1417 30.56                             117    0.09 8  236 236 
 NOR  HZ I        1417 32.06         1.8 0.28            118            236 236 
 GUY2CHZ EP       1417 11.38                             111    0.67 7  302 236 
 GUY2CHE ES       1417 44.64                             111    0.01 7  302 236 
 GUY2CHZ I        1417 51.18         1.6 0.30                           302 236 
                                                                                
