 2017  1 1 1800 59.7 L   6.660 -73.151153.8  RSN  5 0.4 1.5LRSN                1
 GAP=226        1.10       8.5     7.9  8.0  0.4134E+02  0.9040E+01 -0.5552E+01E
 Epicentro: VILLANUEVA - SANTANDER                                             3
 ACTION:UPD 17-05-22 15:54 OP:jn   STATUS:               ID:20170101180059 L   I
 OLDACT:UP  17-01-01 22:38 OP:edw  STATUS:               ID:20170101175743     3
 OLDACT:UP  17-01-01 22:37 OP:edw  STATUS:               ID:20170101175743     3
 OLDACT:REG 17-01-01 20:28 OP:lv   STATUS:               ID:20170101175743     3
 2017-01-01-1758-00M.COL___376                                                 6
 STAT SP IPHASW D HRMM SECON CODA AMPLIT PERI AZIMU VELO AIN AR TRES W  DIS CAZ7
 BAR2 EZ EP       18 1 20.64                             177    0.5310 8.22 205 
 BAR2 EZ ES       18 1 35.86                             177   -0.1610 8.22 205 
 BAR2 EZ I        18 1 36.35         7.7 0.11            175           8.22 205 
 BRR  HZ IP     C 18 1 22.52                             151    0.3410 79.3 309 
 BRR  HE ES       18 1 39.54                             151   -0.1810 79.3 309 
 BRR  HZ I        18 1 43.48         5.5 0.12            151           79.3 309 
 RUS  HZ EP       18 1 22.30                             150   -0.9510 85.2 175 
 RUS  HN ES       18 1 41.93                             150    0.3210 85.2 175 
 RUS  HZ I        18 1 43.77         2.8 0.32            152           85.2 175 
 PTB  HZ EP       18 1 27.52                             134    0.43 9  145 265 
 PTB  HE ES       18 1 48.47                             134    0.02 9  145 265 
 PTB  HZ I        18 1 50.54         4.1 0.16            135            145 265 
 ZAR  HZ EP       18 1 33.08                             123   -0.19 8  210 296 
 ZAR  HN ES       18 1 59.23                             123   -0.22 8  210 296 
 ZAR  HZ I        18 2  2.82         2.8 0.09            124            210 296 
                                                                                
