 2014  5 1 1508 42.4 L   6.828 -73.350115.4  RSN  7 0.5 1.7LRSN                1
 GAP=112        1.15       4.3     5.0 12.1 -0.1320E+01  0.1485E+02  0.3837E+01E
 Epicentro: ZAPATOCA - SANTANDER                                               3
 OLDACT:UP  14-05-01 23:40 OP:spq  STATUS:               ID:20140501150642     3
 OLDACT:REG 14-05-01 23:14 OP:spq  STATUS:               ID:20140501150642     3
 ACTION:UPD 15-03-16 16:54 OP:nd   STATUS:               ID:20140501150842 L   I
 OLDACT:UP  14-05-01 23:42 OP:spq  STATUS:               ID:20140501150642     3
 2014-05-01-1506-42M.COL___248                                                 6
 STAT SP IPHASW D HRMM SECON CODA AMPLIT PERI AZIMU VELO AIN AR TRES W  DIS CAZ7
 BRR  HZ EP   1   15 8 59.43                             155    0.34 7 50.5 308 
 BRR  HE ES   1   15 9 12.10                             155   -0.02 7 50.5 308 
 BRR  HZ I        15 9 13.75         8.8 0.50            151           50.5 308 
 PAM  SN ES       15 9 18.90                             139    0.6510 91.4  52 
 RUS  HZ EP       15 9  4.34                             134    0.4410  108 164 
 RUS  HE ES   1   15 9 19.78                             134   -0.89 7  108 164 
 RUS  HZ I        15 9 22.05         4.9 1.58            136            108 164 
 PTB  HZ EP       15 9  4.65                             129   -0.3210  126 255 
 PTB  HN ES       15 9 22.51                             129   -0.0710  126 255 
 PTB  HZ I        15 9 28.18         7.1 0.42            128            126 255 
 OCA  HZ EP   4   15 9  6.73                             123   -1.37 0  156   1 
 OCA  HN ES       15 9 27.43                             123   -0.71 9  156   1 
 OCA  HZ I        15 9 30.97         8.0 0.50            123            156   1 
 ZAR  HZ EP   4   15 9  6.65                             118   -4.00 0  182 294 
 ZAR  HE ES   1   15 9 33.35                             118    0.66 7  182 294 
 ZAR  HZ I        15 9 37.63         4.5 0.26            117            182 294 
 SML  HZ EP   4   15 9 14.28                             112   -1.92 0  232 340 
 SML  HN ES   1   15 9 42.33                             112   -0.24 6  232 340 
 SML  HZ I        15 9 46.27        10.9 0.12            112            232 340 
                                                                                
