 2017 12 1 1352 18.2 L   6.820 -73.193139.3  RSN  5 0.4 1.5LRSN                1
 GAP=130        0.90       4.6     4.1  7.1 -0.3012E-01  0.1100E+02 -0.5127E+01E
 Epicentro: ZAPATOCA - SANTANDER                                               3
 ACTION:UPD 18-01-04 13:16 OP:rebc STATUS:               ID:20171201135218 L   I
 OLDACT:REG 17-12-01 21:49 OP:dani STATUS:               ID:20171201134740     3
 2017-12-01-1348-00M.COL___480                                                 6
 STAT SP IPHASW D HRMM SECON CODA AMPLIT PERI AZIMU VELO AIN AR TRES W  DIS CAZ7
 BAR2 EZ EP       1352 36.88                             169   -0.1610 25.2 177 
 BAR2 EZ ES       1352 51.82                             169    0.0510 25.2 177 
 BAR2 EZ I        1352 53.17        10.2 0.28            171           25.2 177 
 PAM  EZ EP       1352 39.97                             149    0.1810 79.2  43 
 PAM  EN ES       1352 56.58                             149   -0.0910 79.2  43 
 PAM  EZ I        1352 59.12         9.0 0.50            153           79.2  43 
 RUS  HZ EP       1352 41.12                             142   -0.3510  103 173 
 RUS  HN ES       1352 59.90                             142    0.2510  103 173 
 RUS  HZ I        1353  0.65         3.4 0.34            147            103 173 
 PTB  HZ EP       1352 43.75                             131   -0.42 9  143 258 
 PTB  HN ES       1353  4.64                             131    0.18 9  143 258 
 PTB  HZ I        1353 11.90         3.5 0.44            132            143 258 
 ZAR  HZ EP       1352 50.45                             122    0.86 9  198 292 
 ZAR  HN ES       1353 13.70                             122   -0.41 9  198 292 
 ZAR  HZ I        1353 20.99         4.8 0.30            123            198 292 
                                                                                
