 2012  2 1 1318 30.1 L   6.702 -73.271148.5  RSN  4 0.3 1.7LRSN                1
 GAP=188        0.63       6.6     6.4  8.3  0.2097E+02 -0.4930E+01 -0.1951E+01E
 ACTION:UP  12-03-07 16:26 OP:epov STATUS:               ID:20120201131830 L   I
 2012-02-01-1310-00M.COL___187                                                 6
 STAT SP IPHASW D HRMM SECON CODA AMPLIT PERI AZIMU VELO SNR AR TRES W  DIS CAZ7
 BAR2 SZ EP   1   1318 49.38                             174   -0.53 7 15.6 141 
 BAR2 SZ I        1319  7.11         4.4 0.51                          15.6 141 
 BRR  HZ EP   1   1318 51.15                             155   -0.10 7 66.2 313 
 BRR  HN ES   1   1319  8.05                             155    0.28 7 66.2 313 
 BRR  HZ I        1319 11.26        23.0 0.27                          66.2 313 
 RUS  HZ EP   1   1318 53.95                             147    0.45 7 91.9 167 
 RUS  HN ES   1   1319 11.70                             147   -0.07 7 91.9 167 
 PTB  HZ EP   1   1318 56.05                             136    0.13 7  132 262 
 PTB  HN ES   1   1319 15.89                             136   -0.18 7  132 262 
                                                                                
