 2015  5 1 1731 36.8 L   6.857 -73.164150.0  RSN  4 0.4 1.3LRSN                1
 GAP=189        0.72       4.6     4.9  8.8 -0.7331E+01  0.2270E+02  0.3317E+01E
 Epicentro: ZAPATOCA - SANTANDER                                               3
 ACTION:UPD 15-09-10 22:00 OP:cam  STATUS:               ID:20150501173136 L   I
 OLDACT:UP  15-05-13 13:17 OP:ak   STATUS:               ID:20150501172750d    3
 OLDACT:DUP 15-05-13 13:12 OP:ak   STATUS:               ID:20150501172750d    3
 2015-05-01-1727-48M.COL___276                                                 6
 STAT SP IPHASW D HRMM SECON CODA AMPLIT PERI AZIMU VELO AIN AR TRES W  DIS CAZ7
 PAM  SZ IP     C 1731 59.24                             153    0.0110 74.0  44 
 PAM  SN ES       1732 16.78                             153    0.0210 74.0  44 
 PAM  SZ I        1732 18.81         2.5 0.44            157           74.0  44 
 ZAR  HZ EP   1   1732  9.15                             124    0.10 6  200 291 
 ZAR  HN ES   1   1732 34.83                             124    0.58 6  200 291 
 ZAR  HZ I        1732 40.13         2.5 0.26            126            200 291 
 NOR  HZ EP       1732 13.39                             119    0.44 8  237 233 
 NOR  HN ES       1732 40.69                             119   -0.50 8  237 233 
 NOR  HZ I        1732 43.62         1.6 0.16            122            237 233 
 SML  HZ EP   1   1732 12.53                             119   -0.39 6  237 335 
 SML  HN ES   1   1732 40.74                             119   -0.39 6  237 335 
                                                                                
