 2011  9 1 1659 20.7 L   6.742 -73.158155.1  RSN  6 0.3 2.0LRSN                1
 GAP=181        0.56       4.5     5.2  5.2  0.1053E+02  0.5928E+01  0.1901E+01E
 Epicentro: VILLANUEVA - SANTANDER                                             3
 ACTION:UPD 12-07-13 15:54 OP:ep   STATUS:               ID:20110901165920 L   I
 2011-09-01-1653-53S.COL___167                                                 6
 STAT SP IPHASW D HRMM SECON CODA AMPLIT PERI AZIMU VELO AIN AR TRES W  DIS CAZ7
 BAR2 SZ EP       1659 41.22                             173   -0.0810 16.8 189 
 BAR2 SZ ES   1   1659 56.97                             173   -0.43 7 16.8 189 
 BAR2 SZ I        1659 57.51        14.0 0.36                          16.8 189 
 GIR2 SZ EP   1   1659 41.37                             166   -0.24 7 37.4 354 
 GIR2 SZ ES   1   1659 58.00                             166    0.05 7 37.4 354 
 BRR  HZ EP       1659 43.11                             153    0.1810 73.3 303 
 BRR  HZ I        1659 43.39        37.3 0.17                          73.3 303 
 BRR  HN ES   1   17 0  0.73                             153    0.42 7 73.3 303 
 RUS  HZ EP   1   1659 45.30                             147    0.39 7 94.3 175 
 RUS  HN ES   1   17 0  3.79                             147   -0.04 7 94.3 175 
 RUS  HZ I        17 0  4.68         6.8 0.53                          94.3 175 
 ZAR  HZ EP   2   1659 53.37                             124   -0.48 4  205 294 
 ZAR  HE ES   1   17 0 19.52                             124   -0.22 6  205 294 
 ZAR  HZ I        17 0 26.31         9.3 0.28                           205 294 
 NOR  SE ES   2   17 0 24.39                             121    0.04 4  230 236 
                                                                                
