 2016  2 1 1003 28.5 L   6.843 -73.186144.0  RSN  9 0.2 1.6LRSN                1
 GAP=129        0.59       2.1     3.0  4.1 -0.2094E+01  0.3464E+01  0.1229E+01E
 Epicentro: ZAPATOCA - SANTANDER                                               3
 ACTION:UPD 16-03-04 21:22 OP:rebc STATUS:               ID:20160201100328 L   I
 OLDACT:REG 16-02-01 21:13 OP:cara STATUS:               ID:20160201095959     3
 2016-02-01-0959-59S.COL___211                                                 6
 STAT SP IPHASW D HRMM SECON CODA AMPLIT PERI AZIMU VELO AIN AR TRES W  DIS CAZ7
 BAR2 EZ IP     C 10 3 47.87                             169   -0.2010 27.7 179 
 BAR2 EZ ES       10 4  3.49                             169    0.2010 27.7 179 
 BAR2 EZ I        10 4  4.00         8.5 0.22            169           27.7 179 
 PAM  EZ IP       10 3 50.86                             151    0.3110 76.8  44 
 PAM  EN ES       10 4  7.86                             151    0.1510 76.8  44 
 PAM  EZ I        10 4 10.01         6.4 0.32            154           76.8  44 
 RUS  HZ EP       10 3 52.62                             142    0.1110  106 174 
 RUS  HN ES       10 4 10.80                             142   -0.4010  106 174 
 RUS  HZ I        10 4 12.64         3.7 0.36            146            106 174 
 PTB  HZ EP       10 3 54.98                             132   -0.09 9  144 257 
 PTB  HN ES       10 4 15.58                             132   -0.18 9  144 257 
 PTB  HZ I        10 4 19.86         4.1 0.16            131            144 257 
 OCA  HN ES       10 4 17.58                             130   -0.26 9  155 355 
 OCA  HZ I        10 4 22.52         9.8 0.20            131            155 355 
 SPBC HZ EP       10 3 56.95                             128   -0.06 9  164 217 
 SPBC HE ES       10 4 19.41                             128    0.20 9  164 217 
 SPBC HZ I        10 4 25.67         5.8 0.32            129            164 217 
 ZAR  HZ EP   4   10 4  2.44                             123    2.17 0  198 291 
 ZAR  HE ES   4   10 4 26.80                             123    1.78 0  198 291 
 ZAR  HZ I        10 4 32.60         4.7 0.32            122            198 291 
 CHI  HZ EP       10 4  6.39                             116   -0.14 8  252 194 
 CHI  HE ES       10 4 36.15                             116   -0.00 8  252 194 
 CHI  HZ I        10 4 38.55         1.1 0.54            118            252 194 
 GUY2CHZ EP   4   10 4 13.87                             112    1.89 0  300 234 
 GUY2CHN ES       10 4 46.33                             112    0.47 7  300 234 
 GUY2CHZ I        10 4 54.29         2.4 0.40                           300 234 
                                                                                
