 2017  2 1 1116 41.4 L   6.809 -73.101152.5  RSN  6 0.4 1.9LRSN                1
 GAP=142        1.09       5.7     5.1  7.3  0.2937E+01  0.8942E+01 -0.1690E+01E
 Epicentro: LOS SANTOS - SANTANDER                                             3
 ACTION:UPD 17-05-24 15:31 OP:jn   STATUS:               ID:20170201111641 L   I
 OLDACT:UP  17-02-01 22:37 OP:ar   STATUS:               ID:20170201110743     3
 OLDACT:REG 17-02-01 20:21 OP:ar   STATUS:               ID:20170201110743     3
 2017-02-01-1108-00M.COL___322                                                 6
 STAT SP IPHASW D HRMM SECON CODA AMPLIT PERI AZIMU VELO AIN AR TRES W  DIS CAZ7
 BAR2 EZ IP     D 1117  1.64                             170   -0.2010 25.6 201 
 BAR2 EZ ES       1117 17.35                             170   -0.4610 25.6 201 
 BAR2 EZ I        1117 18.34        17.6 0.26            169           25.6 201 
 PAM  EZ EP       1117  4.08                             153    0.0110 73.5  37 
 PAM  EN ES       1117 21.83                             153    0.0410 73.5  37 
 PAM  EZ I        1117 23.78        14.2 0.20            155           73.5  37 
 BRR  HZ EP       1117  3.58                             152    0.1310 75.2 296 
 BRR  HN ES       1117 20.95                             152    0.2610 75.2 296 
 RUS  HZ EP       1117  5.56                             145   -0.2610  101 179 
 RUS  HN ES       1117 25.50                             145    0.5910  101 179 
 RUS  HZ I        1117 25.61         4.1 0.50            147            101 179 
 PTB  HZ EP       1117  8.62                             132   -0.71 9  153 259 
 PTB  HN ES       1117 31.23                             132    0.08 9  153 259 
 PTB  HZ I        1117 36.85        15.1 0.42            132            153 259 
 ZAR  HZ EP       1117 15.65                             123    0.97 8  208 291 
 ZAR  HN ES       1117 40.32                             123   -0.36 8  208 291 
 ZAR  HZ I        1117 46.12        11.3 0.48            123            208 291 
                                                                                
