 2016  6 1 1629 56.8 L   6.824 -74.012 88.0  RSN  4 0.3 1.6LRSN                1
 GAP=169        0.89       4.9     4.2  8.2 -0.8485E+01 -0.6564E+01  0.1712E+02E
 Epicentro: PUERTO PARRA - SANTANDER                                           3
 ACTION:UPD 16-07-21 22:14 OP:rebc STATUS:               ID:20160601162956 L   I
 OLDACT:REG 16-06-01 21:56 OP:ar   STATUS:               ID:20160601162744     3
 2016-06-01-1627-44M.COL___313                                                 6
 STAT SP IPHASW D HRMM SECON CODA AMPLIT PERI AZIMU VELO AIN AR TRES W  DIS CAZ7
 BRR  HZ EP       1630 10.27                             150    0.0710 45.6  47 
 BRR  HE ES       1630 21.19                             150    0.5010 45.6  47 
 BRR  HZ I        1630 21.48        27.8 0.20                          45.6  47 
 PTB  HZ EP       1630 10.80                             144   -0.2910 58.3 237 
 PTB  HN ES       1630 21.96                             144   -0.3010 58.3 237 
 PTB  HZ I        1630 22.47        11.9 0.12                          58.3 237 
 BAR2 EZ EP       1630 14.48                             129   -0.0710 95.2 106 
 BAR2 EZ ES       1630 27.94                             129   -0.4910 95.2 106 
 BAR2 EZ I        1630 29.01         7.2 0.52                          95.2 106 
 SPBC HZ EP       1630 18.11                             120    0.2310  130 183 
 SPBC HN ES       1630 34.78                             120    0.4210  130 183 
 SPBC HZ I        1630 41.85         6.7 0.14                           130 183 
                                                                                
