 2016 10 1 1033  3.1 L   6.090 -74.007 87.6  RSN  9 0.2 1.6LRSN                1
 GAP= 86        0.50       2.1     1.7  3.6  0.3424E+00  0.8208E-01 -0.3265E+01E
 Epicentro: EL PENON - SANTANDER                                               3
 ACTION:UPD 16-11-09 19:15 OP:rebc STATUS:               ID:20161001103303 L   I
 OLDACT:UP  16-10-01 22:21 OP:edw  STATUS:               ID:20161001102740     3
 OLDACT:UP  16-10-01 22:20 OP:edw  STATUS:               ID:20161001102740     3
 OLDACT:REG 16-10-01 20:21 OP:edw  STATUS:               ID:20161001102740     3
 2016-10-01-1028-00M.COL___360                                                 6
 STAT SP IPHASW D HRMM SECON CODA AMPLIT PERI AZIMU VELO AIN AR TRES W  DIS CAZ7
 SPBC HZ EP     C 1033 16.71                             149   -0.1210 49.0 188 
 SPBC HN ES       1033 27.58                             149    0.0210 49.0 188 
 SPBC HZ I        1033 29.49        12.4 0.24            150           49.0 188 
 PTB  HZ EP   9   1033 17.37                             138   -0.93 0 70.2 315 
 PTB  HN ES       1033 29.37                             138    0.1310 70.2 315 
 PTB  HZ I        1033 29.74        17.1 0.13            138           70.2 315 
 RUS  HZ EP       1033 22.01                             127   -0.0910  105 102 
 RUS  HN ES       1033 36.93                             127   -0.0110  105 102 
 BAR2 EZ EP       1033 22.00                             125    0.0110  107  59 
 BAR2 EZ ES       1033 36.98                             125    0.2510  107  59 
 BAR2 EZ I        1033 38.13        10.5 0.16            127            107  59 
 NOR  HZ EP   9   1033 21.74                             124   -0.51 0  112 239 
 NOR  HN ES       1033 36.37                             121   -0.3310  112 239 
 NOR  HZ I        1033 38.76        15.4 0.14            125            112 239 
 BRR  HZ IP       1033 22.39                             122   -0.3310  117  16 
 BRR  HN ES   4   1033 38.31                             122    0.26 0  117  16 
 CHI  HN ES   4   1033 51.97                             114    3.76 0  164 169 
 HEL  HZ EP   2   1033 28.98                             113    0.11 5  169 274 
 HEL  HN ES   2   1033 49.29                             113    0.29 5  169 274 
 GUY2CHZ EP   2   1033 30.65                             112    0.55 4  178 238 
 GUY2CHN ES   4   1033 53.57                             112    2.39 0  178 238 
 GUY2CHZ I        1033 55.97         3.1 0.26                           178 238 
 ZAR  HZ EP       1033 29.83                             111   -0.03 9  181 329 
 ZAR  HN ES       1033 50.87                             111    0.12 9  181 329 
 ZAR  HZ I        1033 53.78         3.7 0.16            112            181 329 
                                                                                
