 2012  3 1 1041 11.3 L   7.372 -73.457112.4  RSN  5 0.3 1.4LRSN                1
 GAP=177        0.65       8.9     6.4  9.6  0.2720E+02 -0.2802E+02 -0.3765E+02E
 ACTION:UP  12-03-31 23:16 OP:EP   STATUS:               ID:20120301104111 L   I
 2012-03-01-1040-00M.COL___191                                                 6
 STAT SP IPHASW D HRMM SECON CODA AMPLIT PERI AZIMU VELO SNR AR TRES W  DIS CAZ7
 BRR  HZ EP   1   1041 27.01                             158    -0.2 7   41 224 
 BRR  HN ES   1   1041 39.30                             158    -0.3 7   41 224 
 BRR  HZ I        1041 40.27        14.4 0.17                            41 224 
 PAM  SZ EP   1   1041 30.65                             140     0.0 7   84  92 
 BAR2 SZ EP   1   1041 31.20                             137     0.3 7   91 161 
 BAR2 SZ ES   1   1041 46.31                             137     0.2 7   91 161 
 BAR2 SZ I        1041 47.30         5.1 0.30                            91 161 
 ZAR  HN ES   2   1041 56.64                             121     0.4 5  155 275 
 ZAR  HZ I        1041 59.10         2.9 0.16                           155 275 
 RUS  HZ EP   2   1041 38.12                             119    -0.5 5  169 166 
                                                                                
