 2014 10 1 1836 36.8 L   6.780 -73.151150.1  RSN  7 0.3 1.7LRSN                1
 GAP=137        0.79       3.0     3.9  5.4 -0.1408E+01  0.3686E+01 -0.2803E+01E
 Epicentro: LOS SANTOS - SANTANDER                                             3
 ACTION:UPD 14-11-29 23:45 OP:nd   STATUS:               ID:20141001183636 L   I
 OLDACT:UP  14-10-02 00:34 OP:cam  STATUS:               ID:20141001183000     3
 OLDACT:REG 14-10-01 22:36 OP:cam  STATUS:               ID:20141001183000     3
 2014-10-01-1830-00M.COL___252                                                 6
 STAT SP IPHASW D HRMM SECON CODA AMPLIT PERI AZIMU VELO AIN AR TRES W  DIS CAZ7
 BAR2 SZ EP       1836 56.49                             172   -0.4610 21.1 189 
 BAR2 SZ ES       1837 12.41                             172   -0.2310 21.1 189 
 BAR2 SZ I        1837 14.37        10.4 0.26            172           21.1 189 
 BRR  HZ IP     C 1836 58.90                             153    0.4110 71.8 300 
 BRR  HN ES       1837 15.79                             153    0.4110 71.8 300 
 BRR  HN I        1837 19.12        27.4 0.14            152           71.8 300 
 PAM  SZ EP       1836 59.90                             151    0.2610 79.5  39 
 PAM  SN ES       1837 17.38                             151   -0.0510 79.5  39 
 PAM  SZ I        1837 19.54         8.0 0.64            154           79.5  39 
 RUS  HZ EP       1837  1.19                             145    0.3210 98.4 176 
 RUS  HN ES       1837 19.41                             145   -0.2110 98.4 176 
 RUS  HZ I        1837 20.86         3.5 0.34            148           98.4 176 
 PTB  HZ EP       1837  3.84                             133   -0.24 9  147 260 
 PTB  HN ES       1837 25.08                             133   -0.24 9  147 260 
 PTB  HZ I        1837 30.88         8.6 0.24            134            147 260 
 SPBC HN ES       1837 28.09                             130    0.27 9  161 219 
 SML  HZ EP   1   1837 13.41                             118   -0.49 6  245 336 
 SML  HN ES       1837 42.69                             118   -0.12 8  245 336 
                                                                                
