 2012 11 1 1402 10.1 L   6.142 -73.362132.0  RSN  7 0.5 2.1LRSN                1
 GAP=110        0.83       3.5     8.1  8.3 -0.3019E+01  0.4044E+02  0.3805E+01E
 Epicentro: SUAITA - SANTANDER                                                 3
 ACTION:UPD 12-12-05 15:30 OP:}ep  STATUS:               ID:20121101140210 L   I
 2012-11-01-1400-00M.COL___234                                                 6
 STAT SP IPHASW D HRMM SECON CODA AMPLIT PERI AZIMU VELO AIN AR TRES W  DIS CAZ7
 RUS  HZ EP       14 2 28.99                             162   -0.0510 41.3 132 
 RUS  HN ES   1   14 2 43.87                             162    0.09 7 41.3 132 
 RUS  HN I        14 2 44.94        21.1 0.18                          41.3 132 
 BAR2 SZ IP       14 2 29.25                             157    0.0510 53.6  22 
 BAR2 SZ ES   1   14 2 44.47                             157    0.41 7 53.6  22 
 BAR2 SZ I        14 2 45.63        22.7 0.18                          53.6  22 
 GIR2 SZ EP       14 2 32.58                             139    0.1410  105  10 
 BRR  HZ EP       14 2 32.66                             137   -0.2610  114 340 
 BRR  HN ES   2   14 2 50.56                             137   -0.13 5  114 340 
 BRR  HN I        14 2 51.54        31.4 0.14                           114 340 
 CHI  HZ EP       14 2 38.59                             125   -0.35 9  172 194 
 CHI  HN I        14 2 40.09        13.1 0.12                           172 194 
 CHI  HN ES   2   14 3  0.22                             125   -1.19 4  172 194 
 ZAR  HZ EP   1   14 2 44.17                             117    0.42 6  223 312 
 ZAR  HN ES   2   14 3  9.17                             117   -0.80 4  223 312 
 ZAR  HN I        14 3 15.44        13.5 0.36                           223 312 
 PRA  HZ EP       14 2 54.27                             108   -0.18 7  317 212 
 PRA  HN ES       14 3 29.95                             108    0.93 7  317 212 
 PRA  HN I        14 3 32.94         6.4 0.34                           317 212 
                                                                                
