 2013 10 1 1804 52.9 L   6.754 -73.155149.0  RSN  5 0.3 1.4LRSN                1
 GAP=137        0.88       4.5     4.9  8.5 -0.2772E+01  0.8631E+01  0.7001E+01E
 Epicentro: LOS SANTOS - SANTANDER                                             3
 ACTION:UPD 13-11-25 09:18 OP:ep   STATUS:               ID:20131001180452 L   I
 OLDACT:REG 13-10-01 17:40 OP:stll STATUS:               ID:20131001175848     3
 2013-10-01-1758-48M.COL___243                                                 6
 STAT SP IPHASW D HRMM SECON CODA AMPLIT PERI AZIMU VELO AIN AR TRES W  DIS CAZ7
 BRR  HZ EP       18 5 14.52                             153    0.0110 72.9 302 
 BRR  HN ES       18 5 31.93                             153    0.5710 72.9 302 
 PAM  SN ES       18 5 33.12                             150   -0.4510 82.0  38 
 PAM  SZ I        18 5 35.04         4.6 0.46            153           82.0  38 
 RUS  HZ EP       18 5 17.00                             146    0.3610 95.6 175 
 RUS  HN ES       18 5 35.28                             146    0.1310 95.6 175 
 RUS  HZ I        18 5 38.04         3.8 0.48            147           95.6 175 
 PTB  HZ EP       18 5 19.92                             133   -0.06 9  146 261 
 PTB  HN ES       18 5 40.82                             133   -0.27 9  146 261 
 PTB  HZ I        18 5 45.51         4.3 0.30            135            146 261 
 SPBC HN ES       18 5 42.95                             131   -0.38 9  159 220 
                                                                                
