 2012  2 1 1001 25.1 L   6.760 -73.146147.1  RSN  9 0.4 2.0LRSN                1
 GAP=138        0.79       4.0     4.3  6.8 -0.3111E+00  0.5754E+01  0.5954E+01E
 ACTION:UP  12-03-07 16:26 OP:epov STATUS:               ID:20120201100125 L   I
 2012-02-01-1000-00M.COL___187                                                 6
 STAT SP IPHASW D HRMM SECON CODA AMPLIT PERI AZIMU VELO SNR AR TRES W  DIS CAZ7
 BAR2 SZ IP     C 10 1 44.97                             172    0.2010 19.0 192 
 BAR2 SZ ES   1   10 2  0.14                             172   -0.01 7 19.0 192 
 BAR2 SZ I        10 2  1.62        43.0 0.19                          19.0 192 
 BRR  HZ IP       10 1 46.72                             152    0.2410 73.4 302 
 BRR  HN ES   1   10 2  3.97                             152    0.78 7 73.4 302 
 BRR  HZ I        10 2  6.52        17.1 0.18                          73.4 302 
 PAM  SZ EP   1   10 1 47.60                             150   -0.02 7 80.8  38 
 PAM  SN ES   1   10 2  4.83                             150   -0.40 7 80.8  38 
 RUS  HZ EP   1   10 1 48.52                             145   -0.11 7 96.2 176 
 RUS  HN ES   1   10 2  6.77                             145   -0.25 7 96.2 176 
 RUS  HZ I        10 2  8.78        11.8 0.37                          96.2 176 
 PTB  HZ EP   1   10 1 51.44                             132   -0.62 7  147 261 
 PTB  HN ES   1   10 2 12.60                             132   -0.53 7  147 261 
 ZAR  HN ES   1   10 2 22.87                             122   -0.41 6  206 293 
 NOR  SN ES   1   10 2 28.74                             119    0.43 6  232 235 
 CHI  HZ EP   1   10 2  2.89                             118    0.52 6  244 195 
 CHI  HN ES   1   10 2 31.34                             118   -0.13 6  244 195 
 CHI  HZ I        10 2 35.86         3.2 0.31                           244 195 
 RREF HZ I        10 2 52.62         4.2 0.60                           319 230 
                                                                                
