 2017  1 1 1830 30.9 L   6.781 -73.101143.7  RSN  7 0.2 1.5LRSN                1
 GAP=241        0.75       4.3     4.2  4.9  0.6703E+01  0.1101E+01 -0.1920E+01E
 Epicentro: LOS SANTOS - SANTANDER                                             3
 ACTION:UPD 17-05-22 15:54 OP:jn   STATUS:               ID:20170101183030 L   I
 OLDACT:UP  17-01-01 22:28 OP:edw  STATUS:               ID:20170101182746     3
 OLDACT:UP  17-01-01 22:26 OP:edw  STATUS:               ID:20170101182746     3
 OLDACT:UP  17-01-01 22:25 OP:edw  STATUS:               ID:20170101182746     3
 OLDACT:UP  17-01-01 22:23 OP:edw  STATUS:               ID:20170101182746     3
 OLDACT:REG 17-01-01 20:29 OP:lv   STATUS:               ID:20170101182746     3
 2017-01-01-1828-00M.COL___378                                                 6
 STAT SP IPHASW D HRMM SECON CODA AMPLIT PERI AZIMU VELO AIN AR TRES W  DIS CAZ7
 BAR2 EZ EP       1830 50.15                             171   -0.0710 22.7 203 
 BAR2 EZ ES       1831  5.27                             171   -0.0610 22.7 203 
 BAR2 EZ I        1831  6.27        11.4 0.24            168           22.7 203 
 BRR  HZ EP   2   1830 52.08                             150   -0.02 5 76.5 298 
 BRR  HN ES       1831  8.51                             150   -0.1510 76.5 298 
 RUS  HZ EP       1830 54.51                             143    0.2810 98.2 179 
 RUS  HN ES       1831 12.33                             143   -0.1410 98.2 179 
 RUS  HZ I        1831 14.35         3.0 0.34            143           98.2 179 
 PTB  HZ EP   9   1830 57.11                             130   -0.96 0  152 260 
 PTB  HN ES       1831 17.53                             132   -0.80 9  152 260 
 PTB  HZ I        1831 20.81         4.4 0.16            129            152 260 
 ZAR  HZ EP       1831  3.46                             121   -0.27 8  209 292 
 ZAR  HE ES       1831 29.74                             121    0.38 8  209 292 
 ZAR  HZ I        1831 31.51         2.6 0.11            121            209 292 
 NOR  HZ EP   9   1831  5.80                             117   -0.97 0  237 236 
 NOR  HN ES       1831 33.85                             119    0.04 8  237 236 
 NOR  HZ I        1831 37.28         1.9 0.18            117            237 236 
 CHI  HE ES   4   1831 39.07                             116    1.46 0  248 196 
 GUY2CHZ EP   2   1831 14.29                             111   -0.40 4  304 236 
 GUY2CHE ES       1831 49.11                             111    0.23 7  304 236 
 GUY2CHZ  IAML    1831 55.58         1.5 0.26                           304 236 
 SJC  HZ EP   4   1831 24.59                             105   -2.29 0  414 327 
 SJC  HN ES   4   1832  5.45                             105   -5.13 0  414 327 
                                                                                
