 2015 12 1 1041 37.9 L   6.814 -73.159148.6  RSN 15 0.4 2.2LRSN                1
 GAP=134        1.05       2.8     3.8  5.2 -0.2823E+01  0.5443E+01 -0.1372E+01E
 Epicentro: LOS SANTOS - SANTANDER                                             3
 ACTION:UPD 16-02-04 15:01 OP:cam  STATUS:               ID:20151201104137 L   I
 OLDACT:REG 15-12-01 21:16 OP:drio STATUS:               ID:20151201103749     3
 2015-12-01-1037-49M.COL___307                                                 6
 STAT SP IPHASW D HRMM SECON CODA AMPLIT PERI AZIMU VELO AIN AR TRES W  DIS CAZ7
 BAR2 EZ EP       1041 57.99                             170    0.1110 24.6 186 
 BAR2 EZ ES       1042 12.81                             170   -0.6610 24.6 186 
 BAR2 EZ I        1042 15.84        29.2 0.26            170           24.6 186 
 BRR  HZ EP       1041 59.79                             154    0.5610 69.2 298 
 BRR  HN ES       1042 16.88                             154    1.0010 69.2 298 
 BRR  HZ I        1042 25.64        17.6 0.38            151           69.2 298 
 PAM  EZ EP       1042  0.71                             151    0.3310 77.2  41 
 PAM  EE ES       1042 18.01                             151    0.0710 77.2  41 
 RUS  HZ EP       1042  1.69                             144   -0.3310  102 175 
 RUS  HE ES       1042 20.68                             144   -0.1810  102 175 
 PTB  HZ EP       1042  4.75                             133   -0.23 9  147 258 
 PTB  HN ES       1042 25.41                             133   -0.70 9  147 258 
 OCA  HZ EP       1042  6.14                             130   -0.12 9  159 354 
 OCA  HN ES       1042 28.33                             130   -0.06 9  159 354 
 OCA  HZ I        1042 33.40        28.8 0.46            132            159 354 
 SPBC HZ EP       1042  6.98                             130    0.36 9  163 218 
 SPBC HN ES       1042 28.89                             130   -0.15 9  163 218 
 ZAR  HZ EP       1042 10.63                             123    0.31 9  202 292 
 ZAR  HE ES       1042 35.34                             123   -0.28 9  202 292 
 ZAR  HZ I        1042 43.15        13.7 0.18            124            202 292 
 NOR  HZ EP       1042 14.39                             119    0.65 8  234 234 
 NOR  HE ES       1042 41.63                             119   -0.08 8  234 234 
 NOR  HZ I        1042 45.71        11.4 0.26            121            234 234 
 SML  HZ EP       1042 14.05                             118   -0.40 8  242 335 
 SML  HN ES       1042 42.70                             118   -0.28 8  242 335 
 HEL  HZ EP   4   1042 20.25                             115    2.13 0  271 255 
 HEL  HN ES       1042 49.62                             115    0.11 8  271 255 
 HEL  HZ I        1042 57.01         7.8 0.36            117            271 255 
 GUY2CHZ EP   4   1042 23.95                             113    2.37 0  301 234 
 GUY2CHE ES       1042 56.33                             113    0.66 7  301 234 
 GUY2CHZ I        1043  0.22        12.7 0.30                           301 234 
 LL6C HZ EP       1042 23.41                             111   -0.11 7  323 358 
 LL6C HE ES   4   1042 56.30                             111   -2.83 0  323 358 
 PRA  HZ EP       1042 31.56                             107   -0.01 6  393 209 
 PRA  HE ES       1043 13.15                             107   -0.29 6  393 209 
 PRA  HZ I        1043 18.07         4.8 0.28            109            393 209 
 SJC  HZ EP       1042 32.26                             106   -1.04 6  407 327 
 SJC  HN ES   4   1043 13.13                             106   -3.39 0  407 327 
                                                                                
