 2014 10 1 1615 24.3 L   6.825 -73.143140.9  RSN  4 0.2 1.8LRSN                1
 GAP=215        0.52       2.7     4.2  5.0 -0.1219E+01  0.6534E+01 -0.2717E+01E
 Epicentro: LOS SANTOS - SANTANDER                                             3
 ACTION:UPD 14-11-29 23:45 OP:nd   STATUS:               ID:20141001161524 L   I
 OLDACT:REG 14-10-01 22:33 OP:cam  STATUS:               ID:20141001161000     3
 2014-10-01-1610-00M.COL___252                                                 6
 STAT SP IPHASW D HRMM SECON CODA AMPLIT PERI AZIMU VELO AIN AR TRES W  DIS CAZ7
 BAR2 SZ EP       1615 43.61                             169    0.1910 26.1 190 
 BAR2 SZ ES       1615 58.17                             169   -0.1510 26.1 190 
 BAR2 SZ I        1616  1.29         6.0 0.26            165           26.1 190 
 PTB  HZ EP       1615 50.66                             131   -0.31 9  149 258 
 PTB  HN ES       1616 11.72                             131   -0.03 9  149 258 
 PTB  HN I        1616 17.26        10.9 0.26            131            149 258 
 SPBC HZ EP       1615 52.59                             127   -0.08 9  166 218 
 SPBC HN ES       1616 15.05                             127    0.27 9  166 218 
 SPBC HN I        1616 21.02        16.2 0.48            128            166 218 
 SML  HE ES       1616 28.71                             117    0.14 8  241 335 
                                                                                
