 2010  7 1 1446 23.7 L   6.783 -73.104142.9  RSN 14 0.4 2.8LRSN                1
 GAP=147        0.83       3.9     5.5  5.7 -0.1220E+02 -0.2008E+01  0.6098E+01E
 Epicentro: LOS SANTOS - SANTANDER                                             3
 ACTION:UPD 10-12-01 15:14 OP:pat  STATUS:               ID:20100701144623 L   I
 2010-07-01-1442-12S.COL___118                                                 6
 STAT SP IPHASW D HRMM SECON CODA AMPLIT PERI AZIMU VELO AIN AR TRES W  DIS CAZ7
 BAR2 SZ IP       1446 43.12                             170     0.110   23 203 
 BAR2 SZ ES   1   1446 57.48                             170    -0.6 7   23 203 
 BRR  HZ IP     C 1446 45.05                             150     0.210   76 298 
 BRR  HZ I        1446 45.51       187.5 0.10                            76 298 
 BRR  HE ES   1   1447  1.99                             150     0.6 7   76 298 
 BRI  SZ IP       1446 47.82                             141     0.510  109  18 
 BRI  SZ ES   2   1447  4.94                             141    -0.9 5  109  18 
 GUE  SZ IP       1446 48.29                             138     0.010  117  10 
 GRA  SZ IP       1446 49.05                             136     0.310  126  15 
 GRA  SZ ES   1   1447  8.25                             136     0.0 7  126  15 
 OCA  SZ EP   1   1446 51.60                             128    -0.4 7  163 352 
 OCA  SZ ES   1   1447 13.69                             128    -0.5 7  163 352 
 OCA  SZ I        1447 17.80        77.6 0.27                           163 352 
 CHI  HZ IP     C 1447  1.40                             117     0.2 8  248 196 
 CHI  HE ES   2   1447 30.38                             117    -0.1 4  248 196 
 CHI  HZ I        1447 40.90        23.0 0.37                           248 196 
 HEL  HZ EP   2   1447  4.32                             114     0.1 4  276 256 
 HEL  HE ES   2   1447 35.56                             114    -0.3 4  276 256 
 HEL  HZ I        1447 41.59        31.6 0.40                           276 256 
 GUY  HZ EP   2   1447  8.02                             111     0.5 4  304 236 
 RREF HZ EP   1   1447 10.09                             110     0.1 5  324 230 
 RREF HN ES   1   1447 45.66                             110    -0.5 5  324 230 
 RREF HZ I        1447 51.89        39.8 0.39                           324 230 
 DBB  SZ IP       1447 11.10                             109    -0.5 7  344 275 
 TOL  SZ EP   2   1447 12.86                             109     0.8 3  345 225 
 SDV  BZ IP     C 1447 12.83                             108    -0.6 6  358  49 
 SDV  BZ I        1447 13.54        20.3 0.10                           358  49 
 PRA  HZ EP   1   1447 16.88                             106    -0.3 4  393 210 
 PRA  HN ES   1   1447 58.53                             106    -0.4 4  393 210 
 PRA  HZ I        1448  7.85        34.8 0.37                           393 210 
                                                                                
