 2015  9 1 1052 42.1 L   6.837 -73.071149.0  RSN  6 0.4 1.7LRSN                1
 GAP=231        0.96       4.0     6.8  6.4 -0.3105E+00  0.9923E+01 -0.1981E+01E
 Epicentro: LOS SANTOS - SANTANDER                                             3
 ACTION:UPD 15-10-28 16:23 OP:cam  STATUS:               ID:20150901105242 L   I
 OLDACT:REG 15-09-01 20:22 OP:ak   STATUS:               ID:20150901104748     3
 2015-09-01-1047-48M.COL___355                                                 6
 STAT SP IPHASW D HRMM SECON CODA AMPLIT PERI AZIMU VELO AIN AR TRES W  DIS CAZ7
 BAR2 EZ EP       1053  2.72                             168    0.4310 29.7 204 
 BAR2 EZ ES       1053 17.63                             168   -0.3910 29.7 204 
 BAR2 EZ I        1053 19.49         5.8 0.46            167           29.7 204 
 BRR  HZ EP       1053  4.10                             151    0.1510 76.9 293 
 BRR  HN ES       1053 21.53                             151    0.5610 76.9 293 
 SPBC HZ EP       1053 11.31                             128   -0.37 9  172 220 
 SPBC HE ES       1053 34.40                             128   -0.32 9  172 220 
 SPBC HZ I        1053 36.23         6.1 0.26            129            172 220 
 ZAR  HZ EP       1053 14.87                             122   -0.55 8  210 290 
 ZAR  HE ES       1053 41.43                             122    0.04 8  210 290 
 ZAR  HZ I        1053 47.30         4.6 0.30            122            210 290 
 SML  HZ EP       1053 19.12                             118    0.19 8  244 333 
 SML  HE ES       1053 47.10                             118   -0.53 8  244 333 
 SML  HZ I        1053 50.62         3.2 0.13            118            244 333 
 GUY2CHZ EP       1053 27.56                             112    0.65 7  310 235 
 GUY2CHN ES       1054  1.98                             112    0.13 7  310 235 
 GUY2CHZ I        1054  9.64         3.9 0.74                           310 235 
                                                                                
