 2011  3 1 1928 16.0 L   6.824 -73.332145.6  RSN  4 0.1 1.7LRSN                1
 GAP=196        0.36       3.7    15.0  6.3 -0.4731E+02  0.6786E+02 -0.1330E+02E
 Epicentro: ZAPATOCA - SANTANDER                                               3
 ACTION:UP  11-06-16 14:31 OP:jfem STATUS:               ID:20110301192816 L   I
 2011-03-01-1927-03S.COL___136                                                 6
 STAT SP IPHASW D HRMM SECON CODA AMPLIT PERI AZIMU VELO SNR AR TRES W  DIS CAZ7
 BAR2 SZ EP   1   1928 35.94                             168     0.1 7   31 147 
 BAR2 SZ ES   2   1928 51.10                             168    -0.1 5   31 147 
 BAR2 SZ I        1928 52.72        14.5 0.13                            31 147 
 RUS  HZ EP   1   1928 40.09                             142    -0.1 7  107 165 
 RUS  HE ES   1   1928 59.15                             142     0.1 7  107 165 
 RUS  HZ I        1929  0.37         6.2 0.36                           107 165 
 GRA  SZ EP   1   1928 41.84                             136     0.1 7  131  26 
 GRA  SZ ES   1   1929  1.66                             136    -0.1 7  131  26 
 GRA  SZ I        1929  2.71         5.3 0.30                           131  26 
 CHI  HZ EP   1   1928 53.35                             117    -0.2 6  247 190 
 CHI  HZ I        1928 55.00         2.7 0.15                           247 190 
 CHI  HN ES   1   1929 22.84                             117     0.1 6  247 190 
                                                                                
