 2010  1 1 1348 45.0 L   6.763 -72.897145.1  RSN  7 0.4 1.9LRSN                1
 GAP=235        0.63       6.0    11.2  7.0 -0.1995E+02  0.1932E+02  0.1475E+02E
 Epicentro: CEPITA - SANTANDER                                                 3
 ACTION:UP  10-08-24 09:42 OP:vdl  STATUS:               ID:20100101134845 L   I
 2010-01-01-1340-00S.COL___096                                                 6
 STAT SP IPHASW D HRMM SECON CODA AMPLIT PERI AZIMU VELO SNR AR TRES W  DIS CAZ7
 BAR2 SZ IP       1349  4.88                             165     0.010   37 239 
 BAR2 SZ ES   2   1349 20.09                             165    -0.3 5   37 239 
 GIR2 SZ EP   1   1349  4.98                             160    -0.2 7   48 317 
 GIR2 SZ ES   2   1349 20.90                             160     0.0 5   48 317 
 RUS  BZ EP   1   1349  8.82                             145     0.3 7   98 192 
 RUS  BE ES   2   1349 27.38                             145     0.5 5   98 192 
 RUS  BZ I        1349 29.24         7.6 0.30                            98 192 
 CHI  HZ EP   1   1349 22.88                             117    -0.3 6  253 201 
 CHI  HE ES   2   1349 52.18                             117    -0.8 4  253 201 
 CHI  HZ I        1349 55.67         3.6 0.47                           253 201 
 RREF BZ EP   1   1349 34.12                             109     0.9 5  341 233 
 RREF BN ES   2   1350 10.90                             109     0.0 3  341 233 
 RREF BZ I        1350 16.81         5.8 0.66                           341 233 
 TOL  SZ EP   1   1349 35.14                             108     0.0 5  361 228 
 PRA  HZ EP   1   1349 39.15                             106    -0.6 4  403 213 
 PRA  HE ES   2   1350 22.46                                     0.0 3  403 213 
                                                                                
