 2015  9 1 1523 24.2 L   6.884 -73.118135.0  RSN  4 0.3 1.6LRSN                1
 GAP=219        0.60       3.0     4.7  5.4  0.1695E+00  0.1200E+02 -0.3891E+01E
 Epicentro: PIEDECUESTA - SANTANDER                                            3
 ACTION:UPD 15-10-28 16:23 OP:cam  STATUS:               ID:20150901152324 L   I
 OLDACT:REG 15-09-01 21:13 OP:ak   STATUS:               ID:20150901151748     3
 2015-09-01-1517-48M.COL___349                                                 6
 STAT SP IPHASW D HRMM SECON CODA AMPLIT PERI AZIMU VELO AIN AR TRES W  DIS CAZ7
 BAR2 EZ EP       1523 42.84                             166    0.0210 33.0 192 
 BAR2 EZ ES       1523 57.30                             166   -0.0210 33.0 192 
 BAR2 EZ I        1524  0.47         4.0 0.51            168           33.0 192 
 ZAR  HZ EP       1523 56.04                             120    0.09 9  204 289 
 ZAR  HN ES       1524 20.37                             120   -0.32 9  204 289 
 ZAR  HZ I        1524 26.50         4.1 0.17            122            204 289 
 SML  HZ EP       1523 59.08                             116   -0.41 8  237 334 
 SML  HN ES       1524 27.46                             116    0.46 8  237 334 
 SML  HZ I        1524 31.04         6.1 0.08            118            237 334 
 GUY2CHZ EP       1524  8.32                             110    0.05 7  309 234 
 GUY2CHE ES       1524 42.84                             110    0.22 7  309 234 
 GUY2CHZ I        1524 53.56         1.6 0.71                           309 234 
                                                                                
