 2011  2 1 1025 38.4 L   6.763 -73.106148.8  RSN 11 0.5 3.4LRSN                1
 GAP=129        1.33       5.0     8.7  6.4 -0.2013E+02  0.9164E+01  0.6275E+00E
 Epicentro: LOS SANTOS - SANTANDER                                             3
 ACTION:UP  11-03-28 15:05 OP:jfem STATUS:               ID:20110201102538 L   I
 2011-02-01-1023-13S.COL___138                                                 6
 STAT SP IPHASW D HRMM SECON CODA AMPLIT PERI AZIMU VELO SNR AR TRES W  DIS CAZ7
 BAR2 SZ IP     D 1025 58.29                             172     0.010   21 204 
 BAR2 SZ ES       1026 13.10                             172    -0.810   21 204 
 BTL  SZ IP     C 1025 58.41                             170     0.010   25 314 
 BTL  SZ ES       1026 14.62                             170     0.610   25 314 
 GIR2 SZ IP     D 1025 59.38                             166     0.810   36 345 
 GIR2 SZ ES       1026 14.61                             166     0.310   36 345 
 RUS  HZ IP     C 1026  2.12                             146     0.010   96 178 
 RUS  HE ES       1026 20.50                             146    -0.110   96 178 
 RUS  HZ I        1026 22.28       268.4 0.52                            96 178 
 GRA  SZ IP     C 1026  4.13                             137     0.010  129  15 
 GRA  SZ ES       1026 24.02                             137    -0.210  129  15 
 GRA  SZ I        1026 25.17       595.9 0.43                           129  15 
 OCA  SZ EP       1026  6.94                             129    -0.4 9  165 352 
 OCA  SZ ES   1   1026 29.64                             129    -0.3 7  165 352 
 NOR  SZ EP       1026 14.03                             119    -0.4 8  236 236 
 NOR  SE ES       1026 41.82                             119    -0.7 8  236 236 
 CHI  HZ EP       1026 16.01                             118     0.1 8  246 196 
 CHI  HZ I        1026 54.00       103.6 0.40                           246 196 
 ROSC BZ EP   1   1026 18.02                             117     1.5 6  252 212 
 HEL  HZ EP       1026 19.42                             115     0.3 7  275 257 
 HEL  HZ I        1026 56.64       138.7 0.50                           275 257 
 SDV  BZ EP       1026 27.69                             109    -0.8 6  360  49 
                                                                                
