 2013  4 1 1430 12.5 L   6.818 -73.126142.7  RSN  9 0.5 2.0LRSN                1
 GAP=138        0.97       3.7     5.6  7.4  0.5127E+00  0.1429E+02 -0.2564E+00E
 Epicentro: LOS SANTOS - SANTANDER                                             3
 ACTION:UPD 13-05-22 14:35 OP:EP   STATUS:               ID:20130401143012 L   I
 2013-04-01-1430-00M.COL___245                                                 6
 STAT SP IPHASW D HRMM SECON CODA AMPLIT PERI AZIMU VELO AIN AR TRES W  DIS CAZ7
 BAR2 SZ EP       1430 31.79                             169    0.0210 25.8 194 
 BAR2 SZ ES   1   1430 46.53                             169   -0.31 7 25.8 194 
 BAR2 SZ I        1430 47.78        46.9 0.24            168           25.8 194 
 BRR  HZ IP     C 1430 33.60                             152    0.2710 72.2 296 
 BRR  HN ES   1   1430 50.36                             152    0.74 7 72.2 296 
 BRR  HZ I        1430 54.41        22.4 0.12            148           72.2 296 
 PAM  SZ EP       1430 34.69                             151    0.5210 74.4  39 
 PAM  SN ES   1   1430 51.43                             151    0.33 7 74.4  39 
 PAM  SZ I        1430 53.77         8.8 0.62            154           74.4  39 
 RUS  HZ EP   1   1430 36.22                             142    0.17 7  102 177 
 RUS  HN ES   1   1430 53.61                             142   -0.84 7  102 177 
 RUS  HZ I        1430 55.55         8.7 0.32            145            102 177 
 OCA  HN ES   1   1431  0.95                             129   -1.18 7  159 352 
 ZAR  HZ EP   1   1430 45.19                             121    0.35 6  205 291 
 ZAR  HN ES   1   1431 10.29                             121    0.20 6  205 291 
 ZAR  HZ I        1431 15.62         9.2 0.56            121            205 291 
 NOR  HZ EP   1   1430 48.12                             117   -0.21 6  238 234 
 NOR  HE ES   1   1431 16.28                             117   -0.03 6  238 234 
 NOR  HZ I        1431 18.88         5.2 0.24            118            238 234 
 SML  HZ EP   1   1430 48.73                             117   -0.08 6  243 335 
 SML  HE ES       1431 16.64                             117   -0.53 8  243 335 
 SML  HZ I        1431 24.30         9.9 0.10            118            243 335 
 PRA  HZ EP   1   1431  5.83                             106   -0.38 4  395 210 
 PRA  HN ES   2   1431 48.03                             106   -0.10 3  395 210 
 PRA  HZ I        1431 54.69         3.5 0.32            107            395 210 
                                                                                
