 2016  4 1 1631 16.9 L   6.527 -73.428121.3  RSN  7 0.4 1.8LRSN                1
 GAP=141        0.99       4.5     4.0  7.4 -0.8226E+01  0.9696E+01 -0.3874E+01E
 Epicentro: HATO - SANTANDER                                                   3
 ACTION:UPD 16-05-05 14:17 OP:rebc STATUS:               ID:20160401163116 L   I
 OLDACT:UP  16-04-01 21:16 OP:drio STATUS:               ID:20160401162749     3
 OLDACT:REG 16-04-01 19:45 OP:drio STATUS:               ID:20160401162749     3
 2016-04-01-1627-49M.COL___314                                                 6
 STAT SP IPHASW D HRMM SECON CODA AMPLIT PERI AZIMU VELO AIN AR TRES W  DIS CAZ7
 BAR2 EZ EP       1631 33.50                             166   -0.2710 28.1  75 
 BAR2 EZ ES       1631 47.22                             166    0.3310 28.1  75 
 BAR2 EZ I        1631 48.41        18.9 0.12            170           28.1  75 
 PTB  HZ EP       1631 38.27                             134   -0.5710  114 271 
 PTB  HN ES       1631 55.24                             134   -0.6810  114 271 
 PTB  HZ I        1631 59.74         8.0 0.10            134            114 271 
 SPBC HZ EP       1631 39.49                             132   -0.0210  120 216 
 SPBC HN ES       1631 57.44                             132    0.3210  120 216 
 SPBC HZ I        1631 59.82        13.0 0.10            135            120 216 
 PAM  EZ EP       1631 39.85                             132   -0.2510  121  42 
 PAM  EN ES       1631 58.23                             132    0.0710  121  42 
 PAM  EZ I        1632  0.43         9.2 0.22            136            121  42 
 ZAR  HZ EP       1631 47.19                             118    0.71 9  191 304 
 ZAR  HN ES       1632  9.86                             118    0.35 9  191 304 
 ZAR  HZ I        1632 16.45         7.5 0.52            120            191 304 
 NOR  HZ EP       1631 46.85                             118    0.20 9  192 236 
 NOR  HN ES       1632  9.93                             118    0.10 9  192 236 
 NOR  HZ I        1632 13.55         5.3 0.22            121            192 236 
 GUY2CHZ EP   4   1631 56.49                             111    1.90 0  258 236 
 GUY2CHE ES   4   1632 27.63                             111    3.67 0  258 236 
 GUY2CHZ I        1632 32.44         4.3 0.34                           258 236 
                                                                                
