 2017  3 1 1219 24.6 L   6.764 -73.131141.5  RSN  7 0.5 1.7LRSN                1
 GAP=140        1.23       4.9     5.4  8.1  0.2246E+01  0.1219E+02  0.2791E+01E
 Epicentro: LOS SANTOS - SANTANDER                                             3
 ACTION:UPD 17-05-25 18:34 OP:jn   STATUS:               ID:20170301121924 L   I
 OLDACT:REG 17-03-01 19:54 OP:lv   STATUS:               ID:20170301121742     3
 2017-03-01-1218-00M.COL___375                                                 6
 STAT SP IPHASW D HRMM SECON CODA AMPLIT PERI AZIMU VELO AIN AR TRES W  DIS CAZ7
 BAR2 EZ EP       1219 43.55                             172   -0.0610 19.9 197 
 BAR2 EZ ES       1219 57.72                             172   -0.7510 19.9 197 
 BAR2 EZ I        1219 59.38        17.9 0.28            170           19.9 197 
 BRR  HZ EP       1219 45.64                             151    0.2010 74.6 301 
 BRR  HE ES       1220  2.64                             151    0.9010 74.6 301 
 PAM  EZ EP       1219 46.60                             149    0.1510 79.5  37 
 PAM  EN ES       1220  3.24                             149   -0.2810 79.5  37 
 PAM  EZ I        1220  5.51        14.6 0.44            152           79.5  37 
 RUS  HZ EP       1219 47.85                             144    0.2610 96.5 177 
 RUS  HN ES       1220  5.96                             144    0.3910 96.5 177 
 RUS  HZ I        1220  8.18         5.0 0.39            144           96.5 177 
 PTB  HZ EP       1219 50.41                             131   -0.85 9  149 260 
 PTB  HN ES       1220 11.59                             131   -0.50 9  149 260 
 PTB  HZ I        1220 14.66         4.0 0.24            131            149 260 
 ZAR  HZ EP       1219 57.03                             121   -0.01 8  207 293 
 ZAR  HN ES       1220 22.67                             121    0.29 8  207 293 
 ZAR  HZ I        1220 24.66         4.9 0.37            122            207 293 
 CHI  HN ES       1220 30.84                             117    0.25 8  245 196 
 CHI  HZ I        1220 34.46         2.2 0.35            117            245 196 
                                                                                
