 2012  1 1 1942 57.5 L   6.785 -73.137141.5  RSN  5 0.4 1.2LRSN                1
 GAP=138        0.79       6.0     6.2 11.0  0.3485E+01  0.1183E+02 -0.5632E+01E
 Epicentro: LOS SANTOS - SANTANDER                                             3
 ACTION:UP  12-02-03 08:13 OP:REBC STATUS:               ID:20120101194257 L   I
 2012-01-01-1940-00M.COL___187                                                 6
 STAT SP IPHASW D HRMM SECON CODA AMPLIT PERI AZIMU VELO SNR AR TRES W  DIS CAZ7
 BRR  HZ EP   1   1943 18.83                             151     0.5 7   73 299 
 BRR  HZ I        1943 19.09         4.3 0.26                            73 299 
 BRR  HN ES   2   1943 35.22                             151     0.7 5   73 299 
 PAM  SZ EP   1   1943 19.01                             150    -0.3 7   78  38 
 PAM  SN ES   2   1943 36.02                             150    -0.3 5   78  38 
 RUS  HZ EP   1   1943 21.20                             143     0.5 7   99 177 
 RUS  HN ES   1   1943 38.61                             143    -0.2 7   99 177 
 RUS  HZ I        1943 40.73         1.9 0.20                            99 177 
 PTB  HZ EP   1   1943 23.85                             131    -0.4 7  148 260 
 PTB  HN ES   2   1943 44.68                             131    -0.3 5  148 260 
 ZAR  HN ES   2   1943 54.78                             121    -0.3 4  206 292 
                                                                                
