 2010 11 1 1830 27.3 L   6.836 -73.049139.3  RSN  4 0.2 1.7LRSN                1
 GAP=175        0.43       4.9     8.7  5.8  0.3021E+02 -0.2510E+02 -0.1387E+02E
 Epicentro: LOS SANTOS - SANTANDER                                             3
 ACTION:UP  10-12-17 16:49 OP:REBC STATUS:               ID:20101101183027 L   I
 2010-11-01-1827-24S.COL___126                                                 6
 STAT SP IPHASW D HRMM SECON CODA AMPLIT PERI AZIMU VELO SNR AR TRES W  DIS CAZ7
 BAR2 SZ EP   1   1830 46.38                             167     0.0 7   31 209 
 BAR2 SZ ES   1   1831  0.98                             167    -0.2 7   31 209 
 BAR2 SZ I        1831  2.73        12.5 0.32                            31 209 
 BRR  HZ EP       1830 48.21                             149     0.010   79 292 
 BRR  HE ES   1   1831  4.67                             149     0.1 7   79 292 
 BRR  HZ I        1831  5.89        17.4 0.08                            79 292 
 RUS  HZ EP   1   1830 50.57                             141    -0.2 7  104 182 
 RUS  HN ES   1   1831  9.20                             141     0.2 7  104 182 
 RUS  HZ I        1831 10.73         4.2 0.36                           104 182 
 GUE  SZ EP   2   1830 51.19                             139     0.2 5  111   7 
                                                                                
