 2013  1 1 1112 38.3 L   6.786 -73.162147.0  RSN  8 0.5 2.1LRSN                1
 GAP=181        0.98       4.3     5.8  7.4  0.4302E+01  0.8191E+01  0.2705E+01E
 Epicentro: LOS SANTOS - SANTANDER                                             3
 ACTION:UPD 13-02-15 09:11 OP:ep   STATUS:               ID:20130101111238 L   I
 2013-01-01-1110-00M.COL___242                                                 6
 STAT SP IPHASW D HRMM SECON CODA AMPLIT PERI AZIMU VELO AIN AR TRES W  DIS CAZ7
 BAR2 SZ EP       1112 57.97                             171   -0.1210 21.5 186 
 BAR2 SZ ES   1   1113 12.78                             171   -0.72 7 21.5 186 
 BAR2 SZ I        1113 16.26        33.3 0.42            170           21.5 186 
 BRR  HZ EP       1113  0.09                             153    0.5010 70.4 300 
 BRR  HN ES   1   1113 17.23                             153    1.07 7 70.4 300 
 BRR  HZ I        1113 23.04        14.6 0.22            151           70.4 300 
 RUS  HZ EP   1   1113  2.13                             144    0.01 7 99.1 175 
 RUS  HN ES   1   1113 21.03                             144    0.37 7 99.1 175 
 RUS  HZ I        1113 23.26        13.4 0.48            148           99.1 175 
 PTB  HZ EP       1113  4.76                             133   -0.47 9  146 259 
 PTB  HN ES   1   1113 25.83                             133   -0.37 7  146 259 
 PTB  HZ I        1113 28.14        22.9 0.34            133            146 259 
 OCA  HZ EP   1   1113  7.27                             130    0.39 7  162 354 
 OCA  HN ES   1   1113 28.28                             130   -0.86 7  162 354 
 OCA  HZ I        1113 33.74        15.2 0.38            133            162 354 
 ZAR  HZ EP   1   1113 10.61                             123   -0.16 6  203 293 
 ZAR  HN ES   1   1113 36.18                             123    0.13 6  203 293 
 ZAR  HZ I        1113 44.63        11.7 0.28            124            203 293 
 CHI  HZ EP       1113 16.11                             118    0.21 8  247 195 
 CHI  HN ES   1   1113 44.92                             118   -0.27 6  247 195 
 CHI  HZ I        1113 50.52         4.6 0.64            121            247 195 
 HEL  HZ EP   1   1113 18.57                             115    0.18 6  270 256 
 HEL  HN ES   1   1113 49.45                             115   -0.17 6  270 256 
 HEL  HZ I        1113 56.34         6.9 0.32            117            270 256 
 URE  HZ EP   4   1113 17.89                             114   -1.47 0  283 292 
 URE  HN ES   4   1113 49.28                             114   -2.07 0  283 292 
 MON  HZ EP   4   1113 25.18                             109   -2.17 0  353 309 
 MON  HN ES   4   1114  3.66                             109   -1.91 0  353 309 
                                                                                
