 2011  9 1 1711 19.3 L   6.865 -73.013140.0  RSN  5 0.2 1.3LRSN                1
 GAP=224        0.36       4.7     6.4  6.0  0.2180E+02 -0.1349E+02 -0.1200E+02E
 Epicentro: CEPITA - SANTANDER                                                 3
 ACTION:UPD 12-07-13 15:54 OP:ep   STATUS:               ID:20110901171119 L   I
 2011-09-01-1708-52S.COL___168                                                 6
 STAT SP IPHASW D HRMM SECON CODA AMPLIT PERI AZIMU VELO AIN AR TRES W  DIS CAZ7
 GIR2 SZ EP   1   1711 38.39                             167    0.09 7 31.0 320 
 BAR2 SZ ES   2   1711 53.28                             165   -0.32 5 35.5 212 
 BAR2 SZ I        1711 54.68         4.9 0.25                          35.5 212 
 BRR  HZ EP   1   1711 40.36                             148   -0.15 7 81.8 289 
 BRR  HZ I        1711 42.76         9.6 0.09                          81.8 289 
 BRR  HE ES   1   1711 57.19                             148    0.17 7 81.8 289 
 RUS  HZ EP   2   1711 43.11                             141    0.05 5  108 184 
 RUS  HN ES   1   1712  1.63                             141    0.06 7  108 184 
 RUS  HZ I        1712  3.43         1.7 0.34                           108 184 
 ZAR  HN ES   2   1712 18.40                             120   -0.13 4  215 289 
                                                                                
