 2017  1 1 1049 50.4 L   6.261 -72.862 93.2  RSN  4 0.0 1.5LRSN                1
 GAP=256        0.33       2.7     3.6  3.9  0.2789E+01  0.2658E+01 -0.5682E+01E
 Epicentro: ONZAGA - SANTANDER                                                 3
 ACTION:UPD 17-05-22 15:54 OP:jn   STATUS:               ID:20170101104950 L   I
 OLDACT:REG 17-01-01 19:59 OP:lv   STATUS:               ID:20170101104743     3
 2017-01-01-1048-00M.COL___360                                                 6
 STAT SP IPHASW D HRMM SECON CODA AMPLIT PERI AZIMU VELO AIN AR TRES W  DIS CAZ7
 RUS  HZ EP   4   1050  7.77                             151    2.52 0 47.6 211 
 RUS  HE ES       1050 16.83                             151   -0.0010 47.6 211 
 BRR  HZ EP       1050 12.12                             121    0.0710  133 315 
 BRR  HN ES       1050 28.90                             121   -0.0410  133 315 
 PTB  HZ EP       1050 17.13                             113   -0.07 9  179 280 
 PTB  HN ES       1050 38.14                             113    0.04 9  179 280 
 PTB  HZ I        1050 40.21         2.5 0.19            111            179 280 
 ZAR  HZ EP   4   1050 23.42                             105   -3.14 0  259 302 
 ZAR  HN ES   4   1050 49.14                             105   -5.62 0  259 302 
 ZAR  HZ I        1050 57.05         3.1 0.48            104            259 302 
                                                                                
