 2011  5 1 1745  5.1 L   6.517 -73.524108.6  RSN 10 0.5 2.1LRSN                1
 GAP=108        0.97       4.1     6.0  7.5 -0.8184E+01  0.1378E+02 -0.4022E-01E
 Epicentro: EL CARMEN DE CHUCURI - SANTANDER                                   3
 ACTION:UP  11-06-29 08:50 OP:tino STATUS:               ID:20110501174505 L   I
 2011-05-01-1743-32S.COL___129                                                 6
 STAT SP IPHASW D HRMM SECON CODA AMPLIT PERI AZIMU VELO SNR AR TRES W  DIS CAZ7
 BAR2 SZ IP       1745 21.11                             160     0.310   39  78 
 BAR2 SZ ES   1   1745 33.63                             160     0.5 7   39  78 
 BAR2 SZ I        1745 34.65       132.4 0.35                            39  78 
 BRR  HZ EP       1745 21.91                             146    -0.310   68 342 
 BRR  HN ES   1   1745 35.75                             146     0.2 7   68 342 
 BRR  HZ I        1745 41.69        33.4 0.08                            68 342 
 GIR2 SZ EP       1745 22.54                             145    -0.110   72  30 
 GIR2 SZ ES   1   1745 35.98                             145    -0.4 7   72  30 
 RUS  HZ EP       1745 24.15                             140     0.110   85 145 
 RUS  HN ES   1   1745 38.85                             140     0.0 7   85 145 
 RUS  HZ I        1745 41.15        17.3 0.34                            85 145 
 PAM  SZ EP       1745 27.64                             127    -0.410  129  45 
 PAM  SN ES   2   1745 45.07                             127    -0.9 5  129  45 
 BRI  SZ EP   1   1745 29.97                             121    -0.3 7  155  31 
 BRI  SZ ES   1   1745 50.16                             121     0.2 7  155  31 
 GRA  SZ EP   2   1745 32.78                             118     0.8 4  171  28 
 GRA  SZ ES   1   1745 53.96                             118     1.0 7  171  28 
 GRA  SZ I        1745 56.37        16.6 0.72                           171  28 
 NOR  SZ EP       1745 32.82                             116    -0.3 9  182 235 
 OCA  SZ EP   3   1745 33.58                             115    -0.7 2  192   7 
 OCA  SZ I        1746  2.00        16.0 0.10                           192   7 
 RREF HZ EP   3   1745 44.80                             107     1.0 2  270 229 
 RREF HN ES   2   1746 14.87                             107     0.9 4  270 229 
 RREF HZ I        1746 20.58         5.5 0.15                           270 229 
                                                                                
