 2017  7 1 1942 22.7 L   6.804 -73.102152.1  RSN 17 0.6 2.4LRSN                1
 GAP= 69        1.20       3.7     3.6  6.0  0.3234E+00  0.5155E+01  0.5379E+01E
 Epicentro: LOS SANTOS - SANTANDER                                             3
 ACTION:UPD 17-08-30 15:28 OP:rebc STATUS:               ID:20170701194222 L   I
 OLDACT:UP  17-07-01 23:53 OP:ar   STATUS:               ID:20170701193743     3
 OLDACT:REG 17-07-01 22:03 OP:osc  STATUS:               ID:20170701193743     3
 2017-07-01-1938-00M.COL___380                                                 6
 STAT SP IPHASW D HRMM SECON CODA AMPLIT PERI AZIMU VELO AIN AR TRES W  DIS CAZ7
 BAR2 EZ IP     D 1942 42.82                             170   -0.3410 25.1 201 
 BAR2 EZ ES       1942 58.67                             170   -0.4210 25.1 201 
 BAR2 EZ I        1942 59.55        85.1 0.28            170           25.1 201 
 PAM  EZ EP     D 1942 45.96                             153    0.5310 74.0  37 
 PAM  EN ES       1943  3.25                             153    0.1110 74.0  37 
 PAM  EZ I        1943  5.38        64.5 0.44            153           74.0  37 
 BRR  HZ EP       1942 44.92                             152    0.1210 75.3 296 
 BRR  HE ES       1943  2.42                             152    0.4210 75.3 296 
 BRR  HZ I        1943  2.85        54.7 0.18            151           75.3 296 
 TAM  HZ IP     D 1942 51.07                             133    0.56 9  151 106 
 PTB  HZ EP       1942 49.62                             132   -1.04 9  153 259 
 PTB  HN ES   4   1943 10.16                             132   -2.28 0  153 259 
 PTB  HZ I        1943 11.40        27.1 0.14            132            153 259 
 YPLC HZ EP       1942 52.87                             128    0.06 9  175 153 
 YPLC HN ES       1943 16.59                             128    0.31 9  175 153 
 YPLC HZ I        1943 19.17        19.2 0.28            129            175 153 
 ZAR  HZ EP       1942 56.27                             123    0.23 8  208 292 
 ZAR  HN ES       1943 21.72                             123   -0.30 8  208 292 
 ZAR  HZ I        1943 27.50        41.6 0.34            123            208 292 
 NOR  HZ EP       1942 59.11                             119   -0.18 8  239 235 
 NOR  HN ES       1943 27.57                             119   -0.23 8  239 235 
 NOR  HZ I        1943 31.74        20.0 0.28            119            239 235 
 CHI  HZ EP       1943  0.95                             118   -0.03 8  250 196 
 CHI  HN ES       1943 29.98                             118   -0.83 8  250 196 
 CHI  HZ I        1943 32.85         9.0 0.60            118            250 196 
 HEL  HZ EP       1943  4.67                             116    0.86 7  277 256 
 HEL  HN ES       1943 35.95                             116    0.11 7  277 256 
 HEL  HZ I        1943 41.53        13.4 0.28            115            277 256 
 URE  HZ EP       1943  4.09                             114   -0.51 7  288 291 
 URE  HN ES   4   1943 35.07                             114   -2.18 0  288 291 
 URE  HZ I        1943 36.75        21.3 0.12            114            288 291 
 GUY2CHZ EP       1943  8.11                             113    0.99 7  305 235 
 GUY2CHN ES       1943 42.50                             113    0.77 7  305 235 
 PTGC HZ EP       1943  5.60                             113   -1.13 7  307 160 
 PTGC HN ES   4   1943 38.71                             113   -2.34 0  307 160 
 PTGC HZ I        1943 41.01        14.2 0.40            113            307 160 
 CBOC HN ES       1943 47.77                             111    0.08 7  338 252 
 ORTC HZ EP       1943 18.05                             107    0.79 6  399 217 
 ORTC HN ES       1943 59.75                             107   -0.03 6  399 217 
 ORTC HZ I        1944  6.52         3.7 0.30            107            399 217 
 SJC  HZ EP       1943 17.75                             107   -1.03 6  412 326 
 SJC  HN ES   4   1944  0.75                             107   -1.74 0  412 326 
 SJC  HZ I        1944 13.59         5.2 0.44            106            412 326 
 CRJC HZ EP   4   1943 23.57                             104   -1.76 0  467   3 
 CRJC HN ES       1944 13.96                             104   -0.19 5  467   3 
                                                                                
