 2017  5 1 1502 30.9 L   6.810 -73.163149.0  RSN 17 0.6 2.3LRSN                1
 GAP=110        1.22       3.8     3.7  6.6  0.1756E+01  0.4203E+01  0.5261E+01E
 Epicentro: LOS SANTOS - SANTANDER                                             3
 ACTION:UPD 17-06-16 13:31 OP:jn   STATUS:               ID:20170501150230 L   I
 OLDACT:UP  17-05-01 23:08 OP:edw  STATUS:               ID:20170501145743     3
 OLDACT:REG 17-05-01 20:11 OP:edw  STATUS:               ID:20170501145743     3
 2017-05-01-1458-00M.COL___377                                                 6
 STAT SP IPHASW D HRMM SECON CODA AMPLIT PERI AZIMU VELO AIN AR TRES W  DIS CAZ7
 BRR  HZ EP       15 2 52.68                             154    0.3710 69.0 299 
 BRR  HN ES       15 3  9.73                             154    0.7410 69.0 299 
 BRR  HZ I        15 3 13.75        39.5 0.34            152           69.0 299 
 PAM  EZ EP     D 15 2 53.80                             151    0.2910 77.8  41 
 PAM  EE ES       15 3 11.06                             151   -0.0710 77.8  41 
 PAM  EZ I        15 3 13.06        80.9 0.52            154           77.8  41 
 RUS  HZ EP       15 2 55.19                             144    0.1110  102 175 
 RUS  HN ES       15 3 13.22                             144   -0.7010  102 175 
 RUS  HZ I        15 3 14.65        45.4 0.24            146            102 175 
 PTB  HZ EP       15 2 58.07                             133    0.05 9  146 258 
 PTB  HN ES       15 3 18.53                             133   -0.61 9  146 258 
 PTB  HZ I        15 3 24.93        12.6 0.30            133            146 258 
 SPBC HZ EP       15 2 59.00                             130   -0.64 9  163 218 
 SPBC HN ES       15 3 21.63                             130   -0.41 9  163 218 
 SPBC HZ I        15 3 24.44        35.6 0.36            131            163 218 
 YPLC HZ EP       15 3  1.26                             127    0.12 9  179 151 
 YPLC HN ES       15 3 25.28                             127    0.58 9  179 151 
 YPLC HZ I        15 3 26.21        32.6 0.30            130            179 151 
 ZAR  HZ EP       15 3  3.65                             123    0.28 9  202 292 
 ZAR  HN ES       15 3 28.10                             123   -0.57 9  202 292 
 ZAR  HZ I        15 3 35.64        24.2 0.40            124            202 292 
 NOR  HZ EP       15 3  7.07                             119    0.32 8  234 234 
 NOR  HN ES       15 3 35.16                             119    0.47 8  234 234 
 NOR  HZ I        15 3 36.22        10.9 0.18            120            234 234 
 CHI  HZ EP       15 3  8.70                             118   -0.17 8  249 195 
 CHI  HE ES       15 3 38.44                             118   -0.02 8  249 195 
 CHI  HZ I        15 3 41.87        16.2 0.48            119            249 195 
 ROSC BZ EP   4   15 3 10.82                             117    1.60 0  253 211 
 ROSC BE ES   4   15 3 41.81                             117    2.72 0  253 211 
 ROSC BZ I        15 3 42.97        25.0 0.35            118            253 211 
 HEL  HZ EP       15 3 12.04                             115    0.90 8  271 255 
 HEL  HN ES       15 3 42.06                             115   -0.43 8  271 255 
 HEL  HZ I        15 3 48.41         8.5 0.74            116            271 255 
 VIL  HE ES   2   15 3 49.12                             113    0.51 4  304 191 
 LL1C HE ES   4   15 3 53.87                             112    5.35 0  305 352 
 PTGC HZ EP       15 3 14.07                             112   -1.05 7  310 158 
 PTGC HE ES   4   15 3 46.64                             112   -2.95 0  310 158 
 PTGC HZ I        15 3 52.31        20.9 0.32            114            310 158 
 CBOC HZ EP   4   15 3 19.04                             110    1.23 0  332 252 
 CBOC HE ES       15 3 54.82                             110    0.44 7  332 252 
 CBOC HZ I        15 3 59.00         3.0 0.18            111            332 252 
 DBB  EZ EP   9   15 3 16.24                             110   -2.07 0  338 274 
 DBB  EN ES   2   15 3 54.05                             110    0.85 3  338 274 
 DBB  EZ I        15 3 56.51         4.2 0.14            111            338 274 
 ANIL HE ES   4   15 4  2.16                             109    2.47 0  357 224 
 ORTC HZ EP       15 3 25.82                             107    0.89 6  395 216 
 ORTC HN ES   4   15 4  8.79                             107    1.74 0  395 216 
 ORTC HZ I        15 4 12.08         7.4 0.52            108            395 216 
 SJC  HZ EP       15 3 24.98                             106   -1.39 6  407 327 
 SJC  HN ES   4   15 4  5.46                             106   -4.16 0  407 327 
 SJC  HZ I        15 4 18.35         4.3 0.32            107            407 327 
                                                                                
