 2014 11 1 1204 56.0 L   7.434 -73.428118.2  RSN  6 0.2 1.6LRSN                1
 GAP=139        0.60       2.7     2.9  4.7 -0.2510E+01  0.1345E+01  0.1994E+01E
 Epicentro: SABANA DE TORRES - SANTANDER                                       3
 ACTION:UPD 14-12-19 15:38 OP:nd   STATUS:               ID:20141101120456 L   I
 OLDACT:REG 14-11-01 20:20 OP:spq  STATUS:               ID:20141101115750     3
 2014-11-01-1157-50M.COL___271                                                 6
 STAT SP IPHASW D HRMM SECON CODA AMPLIT PERI AZIMU VELO AIN AR TRES W  DIS CAZ7
 BRR  HZ EP     C 12 5 13.19                             156    0.2810 47.8 221 
 BRR  HN ES       12 5 26.25                             156    0.1810 47.8 221 
 BRR  HZ I        12 5 33.49        10.3 0.52            157           47.8 221 
 PAM  SZ EP       12 5 15.90                             143    0.2510 81.1  97 
 PAM  SN ES       12 5 30.89                             143   -0.0710 81.1  97 
 PAM  SZ I        12 5 32.44         8.2 0.20            150           81.1  97 
 OCA  HZ EP   1   12 5 15.75                             140   -0.09 7 89.8   8 
 OCA  HN ES       12 5 31.08                             140   -0.2210 89.8   8 
 OCA  HZ I        12 5 32.13        12.7 0.12            146           89.8   8 
 BAR2 SZ EP       12 5 16.75                             138    0.2210 96.9 164 
 BAR2 SZ ES   1   12 5 32.17                             138   -0.35 7 96.9 164 
 BAR2 SZ I        12 5 32.69        13.4 0.10            143           96.9 164 
 PTB  HZ EP       12 5 21.17                             124   -0.02 9  151 229 
 PTB  HN ES       12 5 40.64                             124   -0.17 9  151 229 
 PTB  HZ I        12 5 42.56         3.5 0.14            128            151 229 
 RUS  HZ EP   1   12 5 23.77                             120   -0.52 7  175 167 
                                                                                
