 2011  2 1 1000 47.8 L   6.739 -72.962143.4  RSN  5 0.3 1.6LRSN                1
 GAP=180        0.61       4.3     9.8  6.0 -0.2916E+02  0.1015E+01  0.3355E+01E
 Epicentro: CEPITA - SANTANDER                                                 3
 ACTION:UP  11-03-28 15:05 OP:jfem STATUS:               ID:20110201100047 L   I
 2011-02-01-1000-19S.COL___138                                                 6
 STAT SP IPHASW D HRMM SECON CODA AMPLIT PERI AZIMU VELO SNR AR TRES W  DIS CAZ7
 BAR2 SZ EP       10 1  7.16                             168    -0.210   29 236 
 BAR2 SZ I        10 1  7.55        13.5 0.43                            29 236 
 BAR2 SZ ES   1   10 1 22.40                             168    -0.1 7   29 236 
 RUS  HZ EP   1   10 1 10.92                             145     0.0 7   95 188 
 RUS  HN ES   2   10 1 29.13                             145     0.2 5   95 188 
 RUS  HZ I        10 1 30.11         4.2 0.43                            95 188 
 GRA  SZ EP       10 1 13.24                             136     0.210  128   8 
 GRA  SZ ES   1   10 1 32.74                             136     0.0 7  128   8 
 GRA  SZ I        10 1 34.09         5.6 0.52                           128   8 
 CHI  HZ EP       10 1 25.13                             117    -0.2 8  248 200 
 CHI  HN ES   2   10 1 55.64                             117     1.0 4  248 200 
 CHI  HZ I        10 2  0.17         1.5 0.80                           248 200 
 RREF HN ES   1   10 2 12.19                             110     0.0 5  333 233 
 RREF HZ I        10 2 16.44         2.8 0.30                           333 233 
                                                                                
