 2013  2 1 1856 11.1 L   6.675 -73.119151.8  RSN  4 0.5 1.9LRSN                1
 GAP=185        1.02      17.9     9.7 11.4 -0.1358E+03  0.1938E+02 -0.2319E+02E
 Epicentro: JORDAN - SANTANDER                                                 3
 ACTION:UPD 13-03-12 09:29 OP:ep   STATUS:               ID:20130201185611 L   I
 2013-02-01-1848-51M.COL___192                                                 6
 STAT SP IPHASW D HRMM SECON CODA AMPLIT PERI AZIMU VELO AIN AR TRES W  DIS CAZ7
 BAR2 SZ ES   1   1856 47.51                             175    0.49 7 11.4 217 
 BAR2 SZ I        1856 47.91        16.0 0.24            173           11.4 217 
 BRR  HZ EP   1   1856 33.89                             152    0.42 7 81.1 306 
 BRR  HN ES   2   1856 51.99                             152    1.07 5 81.1 306 
 PAM  SZ EP       1856 34.69                             149    0.1510 86.9  32 
 PAM  SN ES       1856 52.41                             149   -0.4110 86.9  32 
 PTB  HZ EP   2   1856 38.76                             133    0.12 5  149 264 
 PTB  HN ES       1856 59.49                             133   -0.63 9  149 264 
                                                                                
