 2015  4 1 1310 42.2 L   6.837 -73.157141.6  RSN 19 0.5 2.6LRSN                1
 GAP= 69        1.20       2.9     3.0  5.3 -0.2087E+01  0.3051E+01  0.4267E+00E
 Epicentro: LOS SANTOS - SANTANDER                                             3
 ACTION:UPD 15-06-03 16:51 OP:cam  STATUS:               ID:20150401131042 L   I
 OLDACT:UP  15-04-01 21:22 OP:fm   STATUS:               ID:20150401130749     3
 OLDACT:REG 15-04-01 20:22 OP:fm   STATUS:               ID:20150401130749     3
 2015-04-01-1307-49M.COL___271                                                 6
 STAT SP IPHASW D HRMM SECON CODA AMPLIT PERI AZIMU VELO AIN AR TRES W  DIS CAZ7
 BAR2 EZ EP       1311  1.65                             169    0.2410 27.2 186 
 BAR2 EZ ES       1311 16.75                             169    0.3510 27.2 186 
 BAR2 EZ I        1311 19.44       114.2 0.30            169           27.2 186 
 BRR  HZ IP     C 1311  3.44                             153    0.7110 68.2 296 
 BRR  HN ES       1311 19.49                             153    0.7510 68.2 296 
 BRR  HZ I        1311 24.59        67.9 0.20            151           68.2 296 
 PAM  SZ IP     C 1311  4.45                             151    0.6110 75.1  42 
 PAM  SN ES       1311 21.18                             151    0.4610 75.1  42 
 PAM  SZ I        1311 23.82        85.3 0.46            154           75.1  42 
 RUS  HZ EP       1311  5.82                             142   -0.0310  105 176 
 RUS  HE ES       1311 23.65                             142   -0.6510  105 176 
 RUS  HZ I        1311 25.51        66.5 0.34            144            105 176 
 PTB  HZ EP       1311  8.51                             131   -0.28 9  147 257 
 PTB  HE ES       1311 28.74                             131   -0.79 9  147 257 
 PTB  HZ I        1311 31.97        33.4 0.16            131            147 257 
 OCA  HZ EP       1311  9.56                             129   -0.23 9  156 353 
 OCA  HE ES       1311 30.87                             129   -0.44 9  156 353 
 OCA  HZ I        1311 35.60        84.1 0.16            131            156 353 
 TAM  HZ IP     C 1311 10.08                             129    0.31 9  157 106 
 TAM  HE ES       1311 30.85                             129   -0.42 9  157 106 
 TAM  HZ I        1311 33.14        25.8 0.28            133            157 106 
 SPBC HZ EP       1311 10.56                             128   -0.05 9  166 218 
 SPBC HE ES       1311 31.83                             128   -0.94 9  166 218 
 SPBC HZ I        1311 34.34        72.8 0.14            129            166 218 
 ZAR  HZ EP       1311 14.22                             122    0.13 9  201 291 
 ZAR  HN ES       1311 38.87                             122   -0.10 9  201 291 
 ZAR  HZ I        1311 44.90        51.6 0.56            122            201 291 
 NOR  HZ EP       1311 17.73                             117   -0.10 8  236 233 
 NOR  HE ES       1311 44.85                             117   -0.78 8  236 233 
 NOR  HZ I        1311 53.43        31.5 0.20            119            236 233 
 SML  HZ EP       1311 17.79                             117   -0.34 8  239 335 
 SML  HN ES       1311 45.45                             117   -0.71 8  239 335 
 SML  HZ I        1311 49.95        70.0 0.10            118            239 335 
 ROSC BZ EP       1311 20.94                             115    0.54 8  256 210 
 ROSC BN ES       1311 50.53                             115    0.32 8  256 210 
 ROSC BZ I        1311 56.19        55.5 0.40            117            256 210 
 HEL  HZ EP       1311 23.13                             114    0.95 8  272 255 
 HEL  HE ES       1311 53.61                             114    0.25 8  272 255 
 HEL  HZ I        1312  1.89        18.2 0.36            115            272 255 
 GUY2CHZ EP       1311 26.61                             111    0.85 7  303 234 
 GUY2CHE ES       1312  0.14                             111    0.39 7  303 234 
 GUY2CHZ I        1312  7.68        22.4 0.36                           303 234 
 CBOC HZ EP       1311 28.76                             109   -0.19 7  334 251 
 CBOC HN ES       1312  5.37                             109   -0.04 7  334 251 
 CBOC HZ I        1312 16.61         6.5 0.44            110            334 251 
 SDV  BZ EP       1311 31.40                             108   -0.49 6  359  51 
 SDV  BE ES       1312  9.84                             108   -0.82 6  359  51 
 SDV  BZ I        1312 10.58         8.7 0.30            109            359  51 
 ORTC HZ EP       1311 36.17                             105   -0.10 6  398 216 
 ORTC HE ES       1312 18.51                             105    0.06 6  398 216 
 ORTC HZ I        1312 25.53        14.1 0.36            107            398 216 
 SJC  HZ EP   4   1311 35.64                             105   -1.50 0  405 327 
 SJC  HN ES   4   1312 15.43                             105   -4.57 0  405 327 
 SJC  HZ I        1312 21.13         8.1 0.50            106            405 327 
 CRJC HZ EP   4   1311 42.11                             103   -2.00 0  464   4 
 CRJC HN ES   4   1312 31.16                             103   -1.24 0  464   4 
 CRJC HZ I        1312 38.38        13.1 0.66            104            464   4 
                                                                                
