 2016  1 1 1612 31.6 L   6.779 -73.165140.7  RSN 10 0.5 1.9LRSN                1
 GAP=181        0.79       3.9     5.1  6.8  0.1569E+01  0.5238E+00  0.2034E+01E
 Epicentro: LOS SANTOS - SANTANDER                                             3
 ACTION:UPD 16-03-09 23:21 OP:cam  STATUS:               ID:20160101161231 L   I
 OLDACT:REG 16-01-01 20:30 OP:dnl  STATUS:               ID:20160101160748     3
 2016-01-01-1607-48M.COL___323                                                 6
 STAT SP IPHASW D HRMM SECON CODA AMPLIT PERI AZIMU VELO AIN AR TRES W  DIS CAZ7
 BAR2 EZ EP   2   1612 50.74                             171    0.17 5 20.7 185 
 BAR2 EZ ES   2   1613  4.41                             171   -0.96 5 20.7 185 
 BAR2 EZ I        1613  6.76        17.7 0.23            170           20.7 185 
 BRR  HZ EP       1612 52.53                             152    0.3610 70.5 301 
 BRR  HN ES       1613  8.75                             152    0.5410 70.5 301 
 BRR  HZ I        1613 12.54        12.5 0.15            149           70.5 301 
 RUS  HZ EP   2   1612 54.52                             144   -0.18 5 98.4 175 
 RUS  HN ES   2   1613 12.64                             144   -0.08 5 98.4 175 
 RUS  HZ I        1613 14.44         7.3 0.29            143           98.4 175 
 PTB  HZ EP   2   1612 57.76                             131   -0.17 5  145 260 
 PTB  HN ES       1613 18.12                             131   -0.34 9  145 260 
 PTB  HZ I        1613 20.98         8.2 0.15            129            145 260 
 OCA  HZ EP   2   1612 58.93                             128   -0.80 5  162 354 
 OCA  HE ES   2   1613 21.18                             128   -0.48 5  162 354 
 OCA  HZ I        1613 26.16        21.7 0.16            127            162 354 
 ZAR  HZ EP   2   1613  3.90                             121    0.29 4  203 293 
 ZAR  HE ES       1613 28.70                             121    0.12 9  203 293 
 ZAR  HZ I        1613 34.48         8.1 0.12            120            203 293 
 NOR  HZ EP   2   1613  7.11                             118    0.40 4  232 235 
 NOR  HN ES   2   1613 32.69                             118   -1.40 4  232 235 
 NOR  HZ I        1613 41.21         7.1 0.20            117            232 235 
 SML  HZ EP   2   1613  7.33                             116   -0.76 4  245 336 
 SML  HE ES   2   1613 35.92                             116   -0.62 4  245 336 
 SML  HZ I        1613 41.70        12.8 0.08            115            245 336 
 CHI  HZ EP   2   1613  9.39                             116    0.67 4  246 195 
 CHI  HN ES   2   1613 37.53                             116   -0.13 4  246 195 
 CHI  HZ I        1613 44.05         4.1 0.19            116            246 195 
 GUY2CHZ EP   2   1613 15.01                             112    0.38 4  298 235 
 GUY2CHE ES   2   1613 48.68                             112    0.49 4  298 235 
 GUY2CHZ I        1613 55.11         2.7 0.50                           298 235 
                                                                                
