 2017  9 1 1353 33.3 L   6.758 -73.133139.2  RSN  6 0.3 1.5LRSN                1
 GAP=236        0.69       3.8     4.5  5.1  0.4530E+01  0.8744E+01 -0.5006E+00E
 Epicentro: LOS SANTOS - SANTANDER                                             3
 ACTION:UPD 17-10-05 19:08 OP:rebc STATUS:               ID:20170901135333 L   I
 OLDACT:REG 17-09-01 20:43 OP:dhb  STATUS:               ID:20170901134723     3
 2017-09-01-1348-00M.COL___405                                                 6
 STAT SP IPHASW D HRMM SECON CODA AMPLIT PERI AZIMU VELO AIN AR TRES W  DIS CAZ7
 BAR2 EZ IP     C 1353 51.94                             172   -0.1010 19.2 197 
 BAR2 EZ ES       1354  6.65                             172   -0.0210 19.2 197 
 BAR2 EZ I        1354  7.60         8.7 0.16            170           19.2 197 
 BRR  HZ IP     D 1353 53.95                             150    0.0210 74.7 301 
 BRR  HN ES       1354 10.00                             150   -0.0410 74.7 301 
 BRR  HZ I        1354 12.16         8.2 0.23            146           74.7 301 
 RUS  HN ES       1354 13.92                             144    0.1110 95.9 177 
 RUS  HZ I        1354 15.16         2.1 0.23            146           95.9 177 
 ZAR  HZ EP       1354  5.14                             120   -0.49 8  207 293 
 ZAR  HN ES       1354 31.24                             120    0.38 8  207 293 
 ZAR  HZ I        1354 41.17         2.6 0.34            120            207 293 
 NOR  HZ EP       1354  9.04                             117    0.56 8  233 236 
 NOR  HN ES       1354 35.54                             117   -0.39 8  233 236 
 NOR  HZ I        1354 37.85         2.9 0.05            117            233 236 
 GUY2CHZ EP   9   1354 19.45                             111    3.02 0  300 236 
 GUY2CHN ES       1354 53.03                                   -0.07 7  300 236 
 GUY2CHZ I        1354 59.46         1.7 0.30                           300 236 
                                                                                
