 2013  1 1 1219 31.3 L   6.832 -73.105144.5  RSN 12 0.5 2.4LRSN                1
 GAP=185        0.90       3.1     5.0  6.0 -0.1327E+01  0.5895E+01  0.3642E+00E
 Epicentro: LOS SANTOS - SANTANDER                                             3
 ACTION:UPD 13-02-15 09:11 OP:ep   STATUS:               ID:20130101121931 L   I
 2013-01-01-1217-45M.COL___183                                                 6
 STAT SP IPHASW D HRMM SECON CODA AMPLIT PERI AZIMU VELO AIN AR TRES W  DIS CAZ7
 BAR2 SZ EP       1219 50.92                             169    0.0610 27.9 198 
 BAR2 SZ ES   1   1220  6.34                             169    0.20 7 27.9 198 
 BAR2 SZ I        1220  7.64        70.4 0.38            164           27.9 198 
 BRR  HZ IP     C 1219 52.81                             152    0.3810 73.6 294 
 BRR  HN ES   1   1220  9.37                             152    0.44 7 73.6 294 
 BRR  HZ I        1220 14.61        25.1 0.14            146           73.6 294 
 RUS  HZ EP   1   1219 54.82                             143   -0.33 7  104 179 
 RUS  HN ES   1   1220 13.15                             143   -0.63 7  104 179 
 RUS  HZ I        1220 14.73        16.7 0.36            144            104 179 
 PTB  HZ EP   1   1219 57.85                             131   -0.76 7  153 258 
 PTB  HN ES   1   1220 19.12                             131   -0.82 7  153 258 
 PTB  HE ES   1   1220 19.83                                            153 258 
 PTB  HZ I        1220 26.22        47.6 0.26            128            153 258 
 OCA  HZ EP   1   1219 59.43                             130    0.21 7  157 351 
 OCA  HE ES   1   1220 21.86                             130    0.85 7  157 351 
 OCA  HZ I        1220 25.83        39.7 0.32            130            157 351 
 ZAR  HZ EP       1220  3.32                             122   -0.62 8  207 291 
 ZAR  HE ES   1   1220 29.17                             122   -0.25 6  207 291 
 ZAR  HZ I        1220 36.18        21.9 0.24            120            207 291 
 CHI  HZ EP   1   1220  8.82                             117   -0.60 6  253 196 
 CHI  HN ES   1   1220 39.81                             117    0.65 6  253 196 
 CHI  HZ I        1220 46.11         6.9 0.64            117            253 196 
 ROSC BZ EP   1   1220 10.41                             116    0.49 6  258 211 
 ROSC BN ES   1   1220 40.20                             116    0.14 6  258 211 
 ROSC BZ I        1220 48.67        24.1 0.40            116            258 211 
 HEL  HZ EP   1   1220 12.23                             114    0.22 6  277 255 
 HEL  HE ES   1   1220 44.13                             114    0.35 6  277 255 
 HEL  HZ I        1220 50.09        15.9 0.28            113            277 255 
 URE  HZ EP   4   1220 11.01                             113   -1.60 0  287 291 
 URE  HN ES   4   1220 42.96                             113   -1.89 0  287 291 
 RREF HZ EP   1   1220 18.77                             110    0.75 5  328 229 
 RREF HN ES   1   1220 54.72                             110    0.24 5  328 229 
 RREF HZ I        1221  1.83        15.5 0.24            110            328 229 
 COD  HZ EP   1   1220 19.09                             109   -0.16 5  345 354 
 COD  HN ES   1   1220 55.95                             109   -0.71 5  345 354 
 COD  HZ I        1221  5.74         3.6 0.46            110            345 354 
 MON  HZ EP   4   1220 18.11                             108   -2.28 0  355 307 
 MON  HN ES   4   1220 56.33                             108   -2.36 0  355 307 
 ANIL HZ EP   1   1220 21.93                             108    0.23 5  363 225 
 ANIL HN ES   1   1221  1.16                             108    0.14 5  363 225 
 ANIL HZ I        1221 10.83         8.9 0.42            108            363 225 
                                                                                
