 2011  9 1 1340 22.6 L   6.786 -73.147142.3  RSN  8 0.3 2.3LRSN                1
 GAP=183        0.53       2.7     3.7  3.9  0.8648E+00  0.4455E+01  0.1250E+01E
 Epicentro: LOS SANTOS - SANTANDER                                             3
 ACTION:UPD 12-07-13 15:54 OP:ep   STATUS:               ID:20110901134022 L   I
 2011-09-01-1337-18S.COL___168                                                 6
 STAT SP IPHASW D HRMM SECON CODA AMPLIT PERI AZIMU VELO AIN AR TRES W  DIS CAZ7
 BAR2 SZ EP       1340 41.72                             171   -0.0510 21.8 190 
 BAR2 SZ ES   1   1340 56.49                             171   -0.23 7 21.8 190 
 BAR2 SZ I        1340 58.96        28.7 0.21                          21.8 190 
 GIR2 SZ EP       1340 41.72                             166   -0.1710 32.8 351 
 GIR2 SZ ES   1   1340 57.29                             166    0.35 7 32.8 351 
 BRR  HZ EP       1340 43.40                             152    0.0010 71.8 300 
 BRR  HN ES   1   1341  0.15                             152    0.52 7 71.8 300 
 BRR  HZ I        1341  3.94        52.0 0.17                          71.8 300 
 RUS  HZ EP   1   1340 46.01                             144    0.13 7 99.0 176 
 RUS  HN ES   1   1341  3.89                             144   -0.16 7 99.0 176 
 RUS  HZ I        1341  5.46        15.8 0.27                          99.0 176 
 OCA  SZ EP   1   1340 50.76                             129   -0.01 7  162 353 
 OCA  SZ I        1341 16.17        32.8 0.19                           162 353 
 ZAR  HZ EP   1   1340 54.74                             122   -0.12 6  205 293 
 ZAR  HN ES   1   1341 19.72                             122   -0.30 6  205 293 
 ZAR  HZ I        1341 25.17        54.7 0.41                           205 293 
 NOR  SZ EP   1   1340 57.98                             118   -0.03 6  234 235 
 NOR  SN ES   1   1341 25.27                             118   -0.36 6  234 235 
 PRA  HZ EP   1   1341 16.47                             106    0.65 4  391 210 
 PRA  HN ES   1   1341 57.67                             106    0.33 4  391 210 
                                                                                
