 2012  7 1 1226  7.5 L   6.855 -73.109151.1  RSN  5 0.5 1.4LRSN                1
 GAP=138        0.76      16.2     7.8 32.6 -0.1446E+02 -0.8248E+02 -0.2746E+03E
 Epicentro: LOS SANTOS - SANTANDER                                             3
 ACTION:UP  12-08-14 11:41 OP:ep   STATUS:               ID:20120701122609 L   I
 2012-07-01-1220-00M.COL___201                                                 6
 STAT SP IPHASW D HRMM SECON CODA AMPLIT PERI AZIMU VELO AIN AR TRES W  DIS CAZ7
 PAM  SZ EP   1   1226 29.61                             153    -0.3 7   70  40 
 PAM  SZ I        1226 44.93         2.7 0.16            160             70  40 
 BRR  HZ EP   2   1226 30.28                             152     1.0 5   72 293 
 BRR  HN ES   3   1226 46.86                             152     0.6 2   72 293 
 RUS  HN ES   3   1226 51.90                             143     0.4 2  106 178 
 PTB  HZ EP   3   1226 35.69                             132     0.3 2  153 257 
 PTB  HN ES   1   1226 56.71                             132    -0.4 7  153 257 
 PTB  HZ I        1226 59.90         4.1 0.38            128            153 257 
 ZAR  HN ES   2   1227  6.51                             123     0.3 4  206 290 
