 2010 10 1 1424 24.5 L   6.805 -73.061147.2  RSN  8 0.4 1.9LRSN                1
 GAP=174        0.61       3.4     7.0  5.7 -0.2937E+00  0.2217E+01  0.1407E+01E
 Epicentro: LOS SANTOS - SANTANDER                                             3
 ACTION:UP  11-02-18 11:06 OP:tino STATUS:               ID:20101001142424 L   I
 2010-10-01-1421-22S.COL___125                                                 6
 STAT SP IPHASW D HRMM SECON CODA AMPLIT PERI AZIMU VELO SNR AR TRES W  DIS CAZ7
 BAR2 SZ EP   1   1424 44.43                             169     0.1 7   27 210 
 BAR2 SZ ES   1   1424 59.39                             169    -0.5 7   27 210 
 BAR2 SZ I        1425  0.71        19.9 0.11                            27 210 
 BRR  HZ EP   2   1424 46.43                             150     0.2 5   79 295 
 BRR  HE ES   1   1425  3.58                             150     0.4 7   79 295 
 BRR  HZ I        1425  7.61        17.2 0.14                            79 295 
 RUS  HZ EP   2   1424 48.63                             144     0.3 5  101 181 
 RUS  HE ES   1   1425  7.22                             144     0.2 7  101 181 
 RUS  HZ I        1425  8.69         9.3 0.40                           101 181 
 GUE  SZ EP   2   1424 48.52                             140    -0.6 5  114   8 
 OCA  SZ EP   2   1424 52.84                             130    -0.1 5  161 350 
 OCA  SZ ES   2   1425 15.44                             130     0.2 5  161 350 
 OCA  SZ I        1425 18.33        14.0 0.21                           161 350 
 NOR  SZ EP   2   1425  0.82                             118    -0.3 4  243 236 
 NOR  SE ES   2   1425 28.86                             118    -0.9 4  243 236 
 CHI  HZ EP   2   1425  2.67                             117     0.1 4  252 197 
 CHI  HZ I        1425  5.42         2.9 0.22                           252 197 
 CHI  HE ES   2   1425 32.45                             117     0.2 4  252 197 
 PRA  HZ EP   2   1425 19.07                             106     0.4 3  397 211 
 PRA  HE ES   2   1426  1.10                             106     0.2 3  397 211 
                                                                                
