 2016  8 1 1755 23.2 L   6.728 -73.331122.7  RSN  4 0.4 1.5LRSN                1
 GAP=178        1.02      10.2    11.7  8.4  0.1020E+03  0.4035E+02  0.2332E+02E
 Epicentro: GALAN - SANTANDER                                                  3
 ACTION:UPD 16-10-29 15:31 OP:rebc STATUS:               ID:20160801175523 L   I
 OLDACT:REG 16-08-02 01:15 OP:dani STATUS:               ID:20160801174759     3
 2016-08-01-1747-59S.COL___340                                                 6
 STAT SP IPHASW D HRMM SECON CODA AMPLIT PERI AZIMU VELO AIN AR TRES W  DIS CAZ7
 BAR2 EZ EP       1755 40.61                             169    0.6110 22.3 132 
 BAR2 EZ ES       1755 53.40                             169    0.2710 22.3 132 
 BAR2 EZ I        1755 54.94        18.4 0.26                          22.3 132 
 BRR  HZ EP       1755 41.02                             152   -0.1310 59.4 315 
 BRR  HN ES       1755 54.65                             152   -0.5310 59.4 315 
 BRR  HZ I        1755 56.26         7.1 0.26                          59.4 315 
 RUS  HZ EP       1755 43.80                             140   -0.5910 96.4 163 
 RUS  HN ES       1756  1.02                             140    0.0810 96.4 163 
 ZAR  HZ EP       1755 52.63                             119    0.07 9  189 297 
 ZAR  HN ES       1756 15.82                             119    0.33 9  189 297 
 ZAR  HZ I        1756 17.62         2.1 0.15                           189 297 
                                                                                
