 2017  4 1 1432 37.7 L   6.797 -73.132146.0  RSN 10 0.3 2.3LRSN                1
 GAP=138        0.60       2.2     2.5  3.7 -0.5625E+00  0.2090E+01  0.1806E+01E
 Epicentro: LOS SANTOS - SANTANDER                                             3
 ACTION:UPD 17-05-30 21:07 OP:jn   STATUS:               ID:20170401143237 L   I
 OLDACT:UP  17-04-01 22:46 OP:dnl  STATUS:               ID:20170401142744     3
 OLDACT:UP  17-04-01 22:46 OP:dnl  STATUS:               ID:20170401142744     3
 OLDACT:REG 17-04-01 21:02 OP:dnl  STATUS:               ID:20170401142744     3
 2017-04-01-1428-00M.COL___365                                                 6
 STAT SP IPHASW D HRMM SECON CODA AMPLIT PERI AZIMU VELO AIN AR TRES W  DIS CAZ7
 BAR2 EZ EP       1432 57.13                             170   -0.2110 23.3 194 
 BAR2 EZ ES       1433 12.66                             170   -0.0110 23.3 194 
 BAR2 EZ I        1433 16.33        31.2 0.44            169           23.3 194 
 BRR  HZ EP       1432 58.89                             152   -0.0410 72.6 298 
 BRR  HE ES       1433 15.92                             152    0.4110 72.6 298 
 BRR  HZ I        1433 18.95        33.0 0.48            152           72.6 298 
 PAM  EZ EP       1432 59.97                             151    0.0910 76.7  39 
 PAM  EE ES       1433 17.15                             151   -0.0410 76.7  39 
 PAM  EZ I        1433 18.90        62.6 0.46            155           76.7  39 
 RUS  HZ EP       1433  1.24                             144   -0.1810  100 177 
 RUS  HN ES       1433 20.20                             144    0.2610  100 177 
 RUS  HZ I        1433 21.47        24.4 0.28            145            100 177 
 PTB  HZ EP       1433  4.46                             132   -0.33 9  149 259 
 PTB  HN ES       1433 25.80                             132   -0.14 9  149 259 
 PTB  HZ I        1433 27.43        22.3 0.18            132            149 259 
 SPBC HZ EP       1433  6.08                             129   -0.18 9  164 219 
 SPBC HN ES       1433 28.78                             129    0.23 9  164 219 
 ZAR  HZ EP   4   1433 11.70                             123    1.41 0  206 292 
 ZAR  HN ES       1433 35.62                             123   -0.11 8  206 292 
 ZAR  HZ I        1433 41.41        29.0 0.30            123            206 292 
 NOR  HZ EP       1433 13.75                             119    0.22 8  236 235 
 NOR  HN ES       1433 41.55                             119    0.06 8  236 235 
 NOR  HZ I        1433 46.69        12.3 0.54            119            236 235 
 CHI  HZ EP   2   1433 16.45                             117    1.05 4  249 196 
 CHI  HN ES       1433 44.47                             117   -0.35 8  249 196 
 CHI  HZ I        1433 48.19         8.5 0.26            119            249 196 
 PRA  HZ EP   2   1433 31.70                             107    0.44 3  392 210 
 PRA  HE ES   4   1434 14.69                             107    1.64 0  392 210 
 PRA  HZ I        1434 21.22         7.9 0.30            108            392 210 
                                                                                
