 2011 10 1 1117 37.6 L   6.740 -73.077143.7  RSN  7 0.2 2.0LRSN                1
 GAP=148        0.57       3.1     4.5  4.4  0.1602E+01  0.9784E+00 -0.1249E+00E
 Epicentro: JORDAN - SANTANDER                                                 3
 ACTION:UPD 12-07-13 16:01 OP:ep   STATUS:               ID:20111001111737 L   I
 2011-10-01-1115-07S.COL___168                                                 6
 STAT SP IPHASW D HRMM SECON CODA AMPLIT PERI AZIMU VELO AIN AR TRES W  DIS CAZ7
 BAR2 SZ EP       1117 56.91                             172   -0.0110 20.0 215 
 BAR2 SZ ES   1   1118 11.74                             172   -0.25 7 20.0 215 
 BAR2 SZ I        1118 13.34        35.5 0.20                          20.0 215 
 BTL  SZ EP       1117 57.44                             168    0.3310 28.9 313 
 PAM  SZ EP       1117 59.77                             150    0.1110 78.4  32 
 PAM  SZ I        1118  0.24        22.4 0.20                          78.4  32 
 PAM  SN ES   1   1118 16.65                             150   -0.21 7 78.4  32 
 BRR  HZ IP     D 1117 58.92                             149   -0.2010 81.0 300 
 BRR  HZ I        1117 59.36        40.9 0.10                          81.0 300 
 BRR  HN ES       1118 16.14                             149    0.2410 81.0 300 
 RUS  HZ EP   1   1118  0.62                             145   -0.04 7 93.7 180 
 RUS  HN ES       1118 18.59                             145   -0.0510 93.7 180 
 RUS  HZ I        1118 20.44        12.6 0.44                          93.7 180 
 ZAR  HZ EP   1   1118 10.35                             121   -0.56 6  214 293 
 CHI  HZ EP   1   1118 14.99                             117    0.27 6  244 197 
 CHI  HZ I        1118 50.45         3.7 0.30                           244 197 
                                                                                
