 2013 10 1 1049 26.1 L   6.779 -73.178130.0  RSN  6 0.5 1.7LRSN                1
 GAP=133        1.16       6.1     6.2  9.3 -0.8603E+01  0.2536E+02 -0.1392E+02E
 Epicentro: LOS SANTOS - SANTANDER                                             3
 ACTION:UPD 13-11-25 09:18 OP:ep   STATUS:               ID:20131001104926 L   I
 OLDACT:DUP 13-10-01 18:11 OP:stll STATUS:               ID:20131001103844d    3
 2013-10-01-1038-43M.COL___237                                                 6
 STAT SP IPHASW D HRMM SECON CODA AMPLIT PERI AZIMU VELO AIN AR TRES W  DIS CAZ7
 BAR2 SZ EP       1049 43.87                             170    0.0810 20.7 181 
 BAR2 SZ ES       1049 57.39                             170   -0.1910 20.7 181 
 BAR2 SZ I        1050  0.22        20.0 0.16            168           20.7 181 
 BRR  HZ EP       1049 45.74                             150    0.2910 69.2 302 
 BRR  HZ I        1049 57.44        26.9 0.50            132           69.2 302 
 PAM  SZ EP       1049 46.69                             146   -0.2510 81.4  40 
 PAM  SN ES       1050  3.17                             146   -0.0210 81.4  40 
 PAM  SZ I        1050  5.71         9.3 0.54            135           81.4  40 
 RUS  HZ EP       1049 47.85                             141   -0.3410 98.6 174 
 RUS  HZ I        1049 48.98         2.9 0.16            140           98.6 174 
 RUS  HN ES       1050  5.98                             141    0.5610 98.6 174 
 PTB  HZ EP       1049 50.69                             129   -0.77 9  144 259 
 PTB  HN ES       1050 11.03                             129   -0.21 9  144 259 
 PTB  HZ I        1050 14.55         5.5 0.14            117            144 259 
 ZAR  HZ EP       1049 58.31                             119    0.99 9  202 293 
 ZAR  HZ I        1050 28.26         5.4 0.36            108            202 293 
                                                                                
