 2017  2 1 1832 19.0 L   6.769 -73.104142.8  RSN  4 0.2 1.5LRSN                1
 GAP=143        0.56       3.0     4.4  4.8 -0.2597E+00 -0.1445E+01  0.2013E+00E
 Epicentro: LOS SANTOS - SANTANDER                                             3
 ACTION:UPD 17-05-24 15:31 OP:jn   STATUS:               ID:20170201183219 L   I
 OLDACT:REG 17-02-01 21:11 OP:ar   STATUS:               ID:20170201182745     3
 2017-02-01-1828-00M.COL___337                                                 6
 STAT SP IPHASW D HRMM SECON CODA AMPLIT PERI AZIMU VELO AIN AR TRES W  DIS CAZ7
 BAR2 HZ ES       1832 53.36                             171    0.1110 21.4 204 
 BAR2 HZ I        1832 54.21        12.3 0.40            172           21.4 204 
 BRR  HZ EP       1832 39.87                             150   -0.3010 76.9 299 
 BRR  HN ES       1832 56.82                             150    0.1310 76.9 299 
 PAM  EZ EP       1832 40.96                             150    0.0610 77.3  35 
 PAM  EN ES       1832 57.92                             150   -0.0610 77.3  35 
 PAM  EZ I        1833  0.25         4.7 0.48            150           77.3  35 
 RUS  HZ EP       1832 42.50                             144    0.2910 97.0 179 
 RUS  HN ES       1833  0.08                             144   -0.2310 97.0 179 
 RUS  HZ I        1833  2.08         4.5 0.24            145           97.0 179 
                                                                                
