 2016  5 1 1624 24.3 L   6.810 -73.136150.0  RSN  5 0.4 1.5LRSN                1
 GAP=141        0.89       5.5     5.1  6.7 -0.1167E+02  0.1325E+02 -0.1026E+01E
 Epicentro: LOS SANTOS - SANTANDER                                             3
 ACTION:UPD 16-08-18 17:41 OP:cam  STATUS:               ID:20160501162424 L   I
 OLDACT:REG 16-05-01 21:54 OP:ak   STATUS:               ID:20160501161747     3
 2016-05-01-1617-47M.COL___301                                                 6
 STAT SP IPHASW D HRMM SECON CODA AMPLIT PERI AZIMU VELO AIN AR TRES W  DIS CAZ7
 BAR2 EZ EP       1624 44.48                             170    0.0310 24.6 192 
 BAR2 EZ ES       1625  0.60                             170    0.4210 24.6 192 
 BAR2 EZ I        1625  2.66         5.6 0.39            171           24.6 192 
 PAM  EZ EP       1624 46.99                             152    0.1210 75.9  39 
 PAM  EN ES       1625  4.52                             152    0.0410 75.9  39 
 PAM  EZ I        1625  6.59         5.3 0.44            155           75.9  39 
 RUS  HZ EP       1624 48.05                             145   -0.4810  102 177 
 RUS  HN ES       1625  7.33                             145   -0.1010  102 177 
 RUS  HZ I        1625  8.69                             148            102 177 
 PTB  HZ EP       1624 51.28                             133   -0.44 9  149 259 
 PTB  HN ES       1625 12.79                             133   -0.32 9  149 259 
 PTB  HZ I        1625 18.32         4.0 0.09            134            149 259 
 GUY2CHZ EP       1625  8.88                             113    0.62 7  303 235 
 GUY2CHE ES       1625 43.17                             113    0.61 7  303 235 
 GUY2CHZ I        1625 51.23         2.8 0.74                           303 235 
                                                                                
