 2012  1 1 1549 12.7 L   6.779 -73.135146.0  RSN  8 0.4 2.1LRSN                1
 GAP=139        0.82       5.6     4.7  6.8 -0.2475E+00  0.4919E+01  0.1058E+02E
 Epicentro: LOS SANTOS - SANTANDER                                             3
 ACTION:UP  12-02-03 08:13 OP:REBC STATUS:               ID:20120101154912 L   I
 2012-01-01-1547-00S.MAN___179                                                 6
 STAT SP IPHASW D HRMM SECON CODA AMPLIT PERI AZIMU VELO SNR AR TRES W  DIS CAZ7
 BAR2 SZ EP       1549 32.36                             171     0.010   21 194 
 BAR2 SZ I        1549 32.71        36.3 0.10                            21 194 
 BAR2 SZ ES   2   1549 47.51                             171    -0.1 5   21 194 
 BRR  HZ EP       1549 34.19                             152     0.210   73 300 
 BRR  HZ I        1549 34.54        56.4 0.11                            73 300 
 BRR  HN ES       1549 51.01                             152     0.410   73 300 
 PAM  SZ EP       1549 35.13                             151     0.110   78  38 
 PAM  SZ I        1549 35.46        20.3 0.20                            78  38 
 PAM  SN ES   2   1549 51.92                             151    -0.5 5   78  38 
 RUS  HZ EP       1549 36.36                             145     0.010   98 177 
 RUS  HN ES   2   1549 54.48                             145    -0.3 5   98 177 
 RUS  HZ I        1549 56.91        16.4 0.28                            98 177 
 PTB  HZ EP   1   1549 39.00                             132    -0.8 7  149 260 
 PTB  HN ES   2   1549 59.93                             132    -1.0 5  149 260 
 ZAR  HZ EP   1   1549 45.21                             122    -0.2 6  206 293 
 ZAR  HN ES   2   1550 10.29                             122    -0.6 4  206 293 
 ZAR  HZ I        1550 16.57        25.6 0.34                           206 293 
 NOR  SZ EP       1549 48.68                             119     0.2 8  234 235 
 NOR  SE ES   2   1550 16.94                             119     0.7 4  234 235 
 NOR  SZ I        1550 19.07         0.9 0.27                           234 235 
 HEL  HZ EP   1   1549 53.24                             115     0.2 6  273 256 
 HEL  HE ES   2   1550 24.83                             115     0.4 4  273 256 
 HEL  HZ I        1550 31.51        10.4 0.26                           273 256 
                                                                                
