 2013  3 1 1443 23.8 L   6.803 -73.149147.2  RSN  9 0.4 2.0LRSN                1
 GAP=136        0.83       3.6     4.9  7.2  0.1186E+01  0.6584E+01  0.4320E+01E
 Epicentro: LOS SANTOS - SANTANDER                                             3
 ACTION:UPD 13-04-09 13:59 OP:ep   STATUS:               ID:20130301144323 L   I
 2013-03-01-1440-00M.COL___228                                                 6
 STAT SP IPHASW D HRMM SECON CODA AMPLIT PERI AZIMU VELO AIN AR TRES W  DIS CAZ7
 BAR2 SZ EP   1   1443 43.69                             170    0.06 7 23.5 189 
 BAR2 SZ ES   1   1443 59.17                             170    0.10 7 23.5 189 
 BAR2 SZ I        1444  0.09        73.1 0.18            171           23.5 189 
 BRR  HZ EP   1   1443 45.47                             153    0.37 7 70.7 298 
 BRR  HN ES   1   1444  2.50                             153    0.81 7 70.7 298 
 BRR  HZ I        1444  5.10        14.7 0.20            150           70.7 298 
 PAM  SZ EP   1   1443 46.55                             151    0.36 7 77.4  40 
 PAM  SN ES   1   1444  3.29                             151   -0.34 7 77.4  40 
 PAM  SZ I        1444  6.03        11.1 0.55            153           77.4  40 
 RUS  HZ EP   1   1443 47.63                             144   -0.11 7  101 176 
 RUS  HN ES   1   1444  5.88                             144   -0.51 7  101 176 
 RUS  HZ I        1444  7.48        14.4 0.30            147            101 176 
 PTB  HZ EP   1   1443 50.28                             132   -0.60 7  147 259 
 PTB  HN ES   1   1444 11.34                             132   -0.64 7  147 259 
 PTB  HZ I        1444 13.23        12.7 0.18            132            147 259 
 OCA  HN ES   1   1444 14.17                             130   -0.19 7  160 353 
 ZAR  HN ES   1   1444 21.82                             123    0.16 6  204 292 
 ZAR  HZ I        1444 30.27         8.5 0.14            123            204 292 
 SML  HE ES   2   1444 28.62                             118   -0.46 4  243 335 
 CHI  HZ EP   1   1444  1.73                             117    0.11 6  249 195 
 CHI  HN ES   1   1444 31.81                             117    0.71 6  249 195 
                                                                                
