 2016  2 1 1133 23.9 L   7.109 -73.246128.0  RSN  9 0.3 2.0LRSN                1
 GAP=105        0.80       2.1     3.5  5.6 -0.4769E+00  0.9465E+01 -0.6641E+00E
 Epicentro: LEBRIJA - SANTANDER                                                3
 ACTION:UPD 16-03-04 21:22 OP:rebc STATUS:               ID:20160201113323 L   I
 OLDACT:REG 16-02-01 21:30 OP:cara STATUS:               ID:20160201112759     3
 2016-02-01-1127-59S.COL___214                                                 6
 STAT SP IPHASW D HRMM SECON CODA AMPLIT PERI AZIMU VELO AIN AR TRES W  DIS CAZ7
 BAR2 EZ IP     C 1133 42.71                             154    0.0210 57.6 173 
 BAR2 EZ ES       1133 57.05                             154   -0.3210 57.6 173 
 PAM  EZ EP       1133 44.08                             152    0.5810 65.5  67 
 PAM  EN ES       1133 59.15                             152    0.3510 65.5  67 
 PAM  EZ I        1134  1.31         9.4 0.20            156           65.5  67 
 OCA  HZ IP     C 1133 47.51                             133   -0.0310  125 356 
 OCA  HN ES       1134  5.57                             133   -0.4310  125 356 
 RUS  HZ EP       1133 48.92                             131   -0.04 9  136 172 
 RUS  HN ES       1134  8.19                             131   -0.33 9  136 172 
 RUS  HZ I        1134  8.87         6.3 0.36            134            136 172 
 ZAR  HZ EP       1133 53.08                             121    0.08 9  183 283 
 ZAR  HN ES       1134 15.60                             121   -0.10 9  183 283 
 ZAR  HZ I        1134 18.08        11.9 0.30            122            183 283 
 SPBC HZ EP       1133 53.00                             121   -0.34 9  185 210 
 SPBC HN ES       1134 16.59                             121    0.27 9  185 210 
 SPBC HZ I        1134 20.83        13.6 0.18            123            185 210 
 SML  HZ EP       1133 55.32                             118   -0.33 8  208 334 
 SML  HN ES       1134 20.76                             118    0.33 8  208 334 
 SML  HZ I        1134 28.05        27.3 0.24            119            208 334 
 NOR  HZ EP       1133 59.97                             113   -0.15 8  248 227 
 NOR  HN ES       1134 28.84                             113    0.46 8  248 227 
 NOR  HZ I        1134 31.77         8.1 0.16            115            248 227 
 GUY2CHZ EP   9   1134  9.31                             108    1.13 0  314 228 
 GUY2CHN ES       1134 44.38                                    0.52 7  314 228 
 GUY2CHZ I        1134 52.61         8.8 0.34                           314 228 
                                                                                
