 2013  3 1 1200 44.6 L   6.733 -73.147143.7  RSN  5 0.4 1.7LRSN                1
 GAP=158        0.87       9.6     5.5  9.2 -0.1202E+02  0.1113E+02  0.2066E+01E
 Epicentro: JORDAN - SANTANDER                                                 3
 ACTION:UPD 13-04-09 13:59 OP:ep   STATUS:               ID:20130301120044 L   I
 2013-03-01-1200-00M.COL___228                                                 6
 STAT SP IPHASW D HRMM SECON CODA AMPLIT PERI AZIMU VELO AIN AR TRES W  DIS CAZ7
 BAR2 SZ EP   1   12 1  4.17                             173    0.31 7 16.1 194 
 BAR2 SZ ES   1   12 1 18.76                             173   -0.12 7 16.1 194 
 BAR2 SZ I        12 1 20.12        14.5 0.17            171           16.1 194 
 BRR  HZ EP   1   12 1  6.11                             151    0.37 7 74.9 304 
 BRR  HN ES   1   12 1 23.00                             151    0.77 7 74.9 304 
 BRR  HZ I        12 1 28.94         9.1 0.24            145           74.9 304 
 PAM  SZ EP   1   12 1  7.18                             149    0.21 7 83.3  36 
 PAM  SN ES   1   12 1 23.74                             149   -0.67 7 83.3  36 
 PAM  SZ I        12 1 26.33         5.0 0.20            147           83.3  36 
 PTB  HZ EP   1   12 1 10.90                             132   -0.37 7  146 262 
 PTB  HN ES   1   12 1 31.72                             132   -0.35 7  146 262 
 PTB  HZ I        12 1 34.73         5.9 0.18            132            146 262 
 ZAR  HN ES   1   12 1 42.29                             121   -0.33 6  207 294 
 ZAR  HZ I        12 1 49.14         5.2 0.32            121            207 294 
                                                                                
