 2013  1 1 1008 19.7 L   7.503 -73.099170.0  RSN  4 0.3 1.2LRSN                1
 GAP=275        0.53       9.8     6.3  7.8  0.3073E+02 -0.8937E+01 -0.3797E+02E
 Epicentro: EL PLAYON - SANTANDER                                              3
 ACTION:UP  13-02-15 09:11 OP:ep   STATUS:               ID:20130101100819 L   I
 2013-01-01-1000-00M.COL___242                                                 6
 STAT SP IPHASW D HRMM SECON CODA AMPLIT PERI AZIMU VELO AIN AR TRES W  DIS CAZ7
 BRR  HZ EP   1   10 8 44.03                             154    0.03 7 80.6 237 
 BRR  HE ES   1   10 9  2.95                             154    0.00 7 80.6 237 
 BRR  HZ I        10 9  6.44         1.7 0.50            146           80.6 237 
 BAR2 SZ EP   2   10 8 45.59                             148    0.02 5  101 185 
 BAR2 SZ ES   1   10 9  5.78                             148    0.02 7  101 185 
 BAR2 SZ I        10 9  9.75         3.7 0.48            141            101 185 
 PTB  HZ EP   1   10 8 51.46                             131   -0.47 7  184 235 
 PTB  HN ES   1   10 9 17.29                             131    0.21 7  184 235 
 PTB  HZ I        10 9 23.11         0.9 0.24            127            184 235 
 ZAR  HZ EP   2   10 8 53.69                             129    0.81 4  194 270 
 ZAR  HN ES   1   10 9 18.59                             129   -0.17 6  194 270 
                                                                                
