 2011  1 1 1209 29.9 L   6.783 -73.158145.8  RSN 12 0.5 2.5LRSN                1
 GAP=135        0.91       4.1     6.8  7.5 -0.5677E+01  0.1412E+02  0.6348E+01E
 Epicentro: LOS SANTOS - SANTANDER                                             3
 ACTION:UP  11-02-08 08:37 OP:pat  STATUS:               ID:20110101120929 L   I
 2011-01-01-1206-32S.COL___136                                                 6
 STAT SP IPHASW D HRMM SECON CODA AMPLIT PERI AZIMU VELO SNR AR TRES W  DIS CAZ7
 BTL  SZ EP   1   12 9 49.44                             172     0.0 7   19 321 
 BTL  SZ ES   2   1210  5.50                             172     0.8 5   19 321 
 BAR2 SZ IP       12 9 49.20                             171    -0.310   21 188 
 BAR2 SZ ES   2   1210  4.19                             171    -0.6 5   21 188 
 BAR2 SZ I        1210  7.75        79.7 0.68                            21 188 
 GIR2 SZ EP   1   12 9 49.35                             167    -0.3 7   33 353 
 GIR2 SZ ES   2   1210  5.65                             167     0.7 5   33 353 
 RUS  HZ EP   1   12 9 53.16                             144    -0.4 7   99 175 
 RUS  HE ES   2   1210 11.57                             144    -0.4 5   99 175 
 RUS  HZ I        1210 13.56        47.9 0.21                            99 175 
 GRA  SZ EP   1   12 9 56.04                             136     0.7 7  128  18 
 GRA  SZ ES   2   1210 15.29                             136     0.1 5  128  18 
 GRA  SZ I        1210 16.76        62.9 0.36                           128  18 
 OCA  SZ EP   1   12 9 57.74                             129    -0.6 7  162 354 
 OCA  SZ ES   2   1210 20.39                             129    -0.2 5  162 354 
 OCA  SZ I        1210 24.23        54.9 0.52                           162 354 
 YOP  SZ EP   1   12 9 59.70                             126    -0.1 7  178 153 
 YOP  SN ES   2   1210 23.89                             126     0.7 4  178 153 
 YOP  SZ I        1210 27.92        24.9 0.71                           178 153 
 NOR  SZ EP   1   1210  4.99                             119    -0.4 6  233 235 
 NOR  SE ES   2   1210 33.20                             119     0.1 4  233 235 
 CHI  HZ EP   1   1210  7.26                             117    -0.1 6  247 195 
 CHI  HE ES   2   1210 36.42                             117    -0.2 4  247 195 
 CHI  HZ I        1210 42.54        19.6 0.86                           247 195 
 ROSC BZ EP   1   1210  8.85                             117     1.1 6  250 211 
 ROSC BN ES   2   1210 37.36                             117     0.1 4  250 211 
 ROSC BZ I        1210 44.04        32.8 0.32                           250 211 
 HEL  HZ EP   1   1210 10.69                             115     0.8 6  270 256 
 HEL  HE ES   2   1210 40.36                             115    -0.8 4  270 256 
 HEL  HZ I        1210 47.65        17.6 0.26                           270 256 
 PRA  HZ EP   1   1210 22.96                             107    -0.2 4  390 210 
 PRA  HE ES   2   1211  5.31                             107     0.6 3  390 210 
                                                                                
