 2011  4 1 1458 11.6 L   5.989 -74.218  7.2  RSN  6 0.3 1.5LRSN                1
 GAP=115        0.66       3.3     3.0  8.1 -0.4940E+01 -0.5883E+00  0.8421E+01E
 Epicentro: LA BELLEZA - SANTANDER                                             3
 ACTION:UP  11-06-22 15:27 OP:REBC STATUS:               ID:20110401145811 L   I
 2011-04-01-1456-33S.COL___138                                                 6
 STAT SP IPHASW D HRMM SECON CODA AMPLIT PERI AZIMU VELO SNR AR TRES W  DIS CAZ7
 NOR  SZ IP       1458 25.20                              90    -0.110   86 237 
 NOR  SN ES   2   1458 35.88                              90    -0.1 5   86 237 
 BRR  HZ EP   1   1458 32.69                              90    -0.1 7  136  24 
 BRR  HN ES   2   1458 49.10                              90    -0.2 5  136  24 
 BRR  HZ I        1458 53.19        11.9 0.16                           136  24 
 HEL  HZ IP     C 1458 34.82                              90     0.0 9  147 279 
 HEL  HN ES   2   1458 52.91                              90     0.0 5  147 279 
 HEL  HZ I        1458 54.40        11.5 0.14                           147 279 
 BTL  SZ EP   1   1458 34.75                              90     0.0 7  147  46 
 CHI  HZ EP   1   1458 36.67                              90    -0.1 7  160 160 
 CHI  HZ I        1459  4.29         3.3 0.58                           160 160 
 RREF HZ EP   1   1458 39.81                              90     0.8 7  174 226 
 RREF HE ES   2   1458 59.76                              90    -0.7 4  174 226 
 RREF HZ I        1459  3.39         4.2 0.22                           174 226 
                                                                                
