 2012  4 1 1524 46.5 L   6.846 -73.349126.0  RSN  9 0.3 2.1LRSN                1
 GAP= 94        0.68       2.7     3.5  5.5 -0.1905E+01  0.5255E+01  0.1663E+01E
 Epicentro: ZAPATOCA - SANTANDER                                               3
 ACTION:UPD 12-07-05 11:49 OP:tino STATUS:               ID:20120401152446 L   I
 2012-04-01-1520-00M.COL___196                                                 6
 STAT SP IPHASW D HRMM SECON CODA AMPLIT PERI AZIMU VELO AIN AR TRES W  DIS CAZ7
 BAR2 SZ EP       1525  4.17                             164     0.110   34 147 
 BAR2 SZ ES   1   1525 17.51                             164    -0.3 7   34 147 
 BAR2 SZ I        1525 18.55       118.0 0.31                            34 147 
 BRR  HZ IP     D 1525  4.55                             157     0.210   49 306 
 BRR  HZ I        1525  4.79        70.4 0.24                            49 306 
 BRR  HE ES   1   1525 18.52                             157     0.2 7   49 306 
 PAM  SZ EP   1   1525  7.59                             142     0.0 7   90  53 
 PAM  SN ES   1   1525 24.32                             142     0.3 7   90  53 
 RUS  HZ EP   1   1525  9.12                             137     0.0 7  110 164 
 RUS  HN ES   1   1525 26.49                             137    -0.3 7  110 164 
 RUS  HZ I        1525 27.95         6.0 0.23                           110 164 
 PTB  HZ EP   1   1525  9.41                             132    -0.6 7  127 255 
 PTB  HE ES   2   1525 27.87                             132    -0.5 5  127 255 
 PTB  HZ I        1525 31.50        20.6 0.39                           127 255 
 OCA  SZ EP   1   1525 12.78                             126     0.0 7  154   1 
 OCA  SZ ES   1   1525 32.92                             126    -0.3 7  154   1 
 NOR  SN ES   1   1525 46.12                             116     0.8 6  220 230 
 CHI  HZ EP   1   1525 23.18                             113    -0.1 6  249 190 
 CHI  HN ES   1   1525 51.90                             113     0.0 6  249 190 
 CHI  HZ I        1525 58.17         4.9 0.34                           249 190 
 HEL  HZ EP   2   1525 23.88                             112     0.4 4  252 253 
 HEL  HN ES   1   1525 52.12                             112    -0.2 6  252 253 
 HEL  HZ I        1525 58.04         7.7 0.44                           252 253 
                                                                                
