 2014 12 1 1123 48.9 L   6.816 -73.150139.7  RSN 23 0.4 2.7LRSN 3.4WRSN        1
 SPEC AVERAGE  MO 14.1 ST0.430 OM  2.0 f0 1.68 R1.8567 AL 0.00 WI 30.0 MW  3.4 3
 SPEC SD       MO  5.3 ST0.415 OM  0.8 f0 1.03 R1.9396 AL      WI      MW  1.3 3
 GAP= 70        0.83       2.3     2.5  4.5 -0.9276E+00  0.3949E+01  0.1523E+01E
 Epicentro: LOS SANTOS - SANTANDER                                             3
 SPEC BAR2SH Z MO 13.9 ST  1.1 OM  2.0 f0 2.90 R0.6634 AL-0.00 WI 30.0 MW  3.2 3
 SPEC BAR2SH Z T112421 K 0.000 GD  141 VS 5.20 DE 3.50 Q0750.0 QA 1.50 VS 5.20 3
 SPEC PAM SH Z MO 13.9 ST0.296 OM  2.0 f0 1.80 R1.0689 AL-0.00 WI 30.0 MW  3.2 3
 SPEC PAM SH Z T112425 K 0.000 GD  159 VS 5.20 DE 3.50 Q0750.0 QA 1.50 VS 5.20 3
 SPEC RUS HH Z MO 13.9 ST0.186 OM  1.9 f0 1.62 R1.1877 AL-0.00 WI 30.0 MW  3.2 3
 SPEC RUS HH Z T112429 K 0.000 GD  172 VS 5.20 DE 3.50 Q0750.0 QA 1.50 VS 5.20 3
 SPEC ZAR HH Z MO 13.9 ST0.985 OM  1.8 f0 2.71 R0.7100 AL-0.00 WI 30.0 MW  3.2 3
 SPEC ZAR HH Z T112444 K 0.000 GD  246 VS 5.20 DE 3.50 Q0750.0 QA 1.50 VS 5.20 3
 SPEC HEL HH Z MO 14.9 ST0.015 OM  2.7 f00.310 R6.2065 AL-0.00 WI 30.0 MW  3.9 3
 SPEC HEL HH Z T112459 K 0.000 GD  305 VS 5.20 DE 3.50 Q0750.0 QA 1.50 VS 5.20 3
 SPECGUY2CHH Z MO 14.1 ST  0.1 OM  1.9 f00.908 R  2.12 AL-0.00 WI 30.0 MW  3.4 3
 SPECGUY2CHH Z T1125 4 K       GD332.7 VS 5.20 DE 3.50 Q0750.0 QA 1.50 VS 5.20 3
 SPEC TOL SH Z MO 14.4 ST0.342 OM  2.1 f0 1.32 R1.4576 AL-0.00 WI 30.0 MW  3.5 3
 SPEC TOL SH Z T112513 K 0.000 GD  371 VS 5.20 DE 3.50 Q0750.0 QA 1.50 VS 5.20 3
 SPEC MON HH Z MO 14.0 ST0.087 OM  1.7 f0 1.13 R1.7027 AL-0.00 WI 30.0 MW  3.3 3
 SPEC MON HH Z T112512 K 0.000 GD  378 VS 5.20 DE 3.50 Q0750.0 QA 1.50 VS 5.20 3
 OLDACT:REG 14-12-01 19:52 OP:spq  STATUS:               ID:20141201111747     3
 ACTION:UPD 15-02-10 16:59 OP:nd   STATUS:               ID:20141201112348 L   I
 OLDACT:UP  14-12-02 00:34 OP:spq  STATUS:               ID:20141201111747     3
 2014-12-01-1117-47M.COL___306                                                 6
 STAT SP IPHASW D HRMM SECON CODA AMPLIT PERI AZIMU VELO AIN AR TRES W  DIS CAZ7
 BAR2 SZ EP       1124  7.84                             169    0.0010 25.0 188 
 BAR2 SZ ES   1   1124 22.90                             169    0.30 7 25.0 188 
 BAR2 SZ I        1124 23.92       210.4 0.20            168           25.0 188 
 BRR  HZ IP     D 1124  9.72                             152    0.4010 70.0 297 
 BRR  HN ES   4   1124 26.83                             152    1.58 0 70.0 297 
 BRR  HZ I        1124 29.92       135.1 0.30            150           70.0 297 
 PAM  SZ EP       1124 10.62                             150    0.2110 76.3  41 
 PAM  SE ES       1124 27.34                             150    0.1610 76.3  41 
 PAM  SZ I        1124 30.08       122.1 0.66            155           76.3  41 
 RUS  HZ EP       1124 11.74                             142   -0.4510  102 176 
 RUS  HN ES       1124 30.67                             142    0.3110  102 176 
 RUS  HZ I        1124 31.46        66.8 0.24            144            102 176 
 PTB  HZ EP       1124 14.46                             131   -0.91 9  148 258 
 PTB  HE ES       1124 35.74                             131   -0.27 9  148 258 
 PTB  HZ I        1124 37.94        74.3 0.44            130            148 258 
 TAM  HZ IP     C 1124 16.17                             129   -0.02 9  156 106 
 TAM  HN ES   1   1124 37.44                             129   -0.04 7  156 106 
 OCA  HZ EP   1   1124 16.34                             128   -0.24 7  158 353 
 OCA  HN ES       1124 37.87                             128   -0.29 9  158 353 
 OCA  HZ I        1124 41.20        73.0 0.24            131            158 353 
 SPBC HZ EP       1124 16.76                             127   -0.29 9  164 218 
 SPBC HN ES       1124 38.67                             127   -0.33 9  164 218 
 SPBC HZ I        1124 43.80       100.4 0.20            128            164 218 
 ZAR  HZ EP       1124 20.82                             121   -0.02 9  203 292 
 ZAR  HN ES       1124 46.11                             121    0.35 9  203 292 
 ZAR  HZ I        1124 52.51        79.1 0.34            122            203 292 
 NOR  HZ EP       1124 24.22                             117   -0.14 8  235 234 
 NOR  HE ES       1124 51.63                             117   -0.38 8  235 234 
 NOR  HZ I        1124 57.02        36.7 0.28            118            235 234 
 CHI  HZ EP       1124 26.16                             116   -0.28 8  250 195 
 CHI  HE ES   1   1124 55.53                             116   -0.20 6  250 195 
 CHI  HZ I        1124 58.77        15.2 0.40            117            250 195 
 HEL  HZ EP       1124 29.63                             113    0.82 8  272 255 
 HEL  HN ES   4   1125  1.25                             113    1.31 0  272 255 
 HEL  HZ I        1125  8.06        23.4 0.34            115            272 255 
 GUY2CHZ EP       1124 32.67                             111    0.36 7  302 234 
 GUY2CHE ES   1   1125  6.17                             111    0.01 5  302 234 
 GUY2CHZ I        1125 12.40        19.8 0.38                           302 234 
 PTGC HZ EP   4   1124 31.02                             110   -1.68 0  310 159 
 PTGC HN ES   4   1125  4.32                             110   -2.54 0  310 159 
 PTGC HZ I        1125  6.72        26.0 0.44            113            310 159 
 RREF HZ EP       1124 35.64                             110    0.76 7  323 229 
 RREF HN ES   4   1125 13.31                             110    2.57 0  323 229 
 RREF HZ I        1125 21.97        23.0 0.36            111            323 229 
 CBOC HZ EP   1   1124 35.87                             109    0.29 5  334 252 
 CBOC HE ES   1   1125 11.66                             109   -0.33 5  334 252 
 CBOC HZ I        1125 23.51        13.9 0.80            110            334 252 
 DBB  SZ EP   1   1124 35.86                             108   -0.21 5  339 274 
 DBB  SZ ES   1   1125 13.00                             108    0.14 5  339 274 
 TOL  SZ EP   1   1124 37.33                             108    0.30 5  344 224 
 TOL  SN ES   1   1125 15.44                             108    0.88 5  344 224 
 TOL  SZ I        1125 23.45        31.8 0.34            109            344 224 
 MON  HZ EP   4   1124 35.37                             108   -2.14 0  352 308 
 MON  HN ES   4   1125 13.99                             108   -1.42 0  352 308 
 MON  HZ I        1125 14.68        14.6 0.18            109            352 308 
 ANIL HN ES   1   1125 17.55                             107    0.21 5  358 224 
 SDV  BZ EP   4   1124 37.02                             107   -1.61 0  360  50 
 SDV  BE ES   4   1125 15.08                             107   -2.34 0  360  50 
 SDV  BZ I        1125 18.98         9.3 0.45            110            360  50 
 ORTC HZ EP       1124 42.63                             105   -0.13 6  397 216 
 ORTC HN ES       1125 25.40                             105    0.64 6  397 216 
 ORTC HZ I        1125 28.74         9.6 0.18            107            397 216 
 SJC  HZ EP   4   1124 42.73                             105   -1.34 0  407 327 
 SJC  HE ES   4   1125 23.68                             105   -3.41 0  407 327 
 SJC  HZ I        1125 27.70        12.4 0.62            106            407 327 
                                                                                
