 2011 11 1 1655  5.6 L   6.753 -73.059140.2  RSN  5 0.2 1.7LRSN                1
 GAP=150        0.49       4.2     5.0  5.4 -0.3076E+01 -0.3697E+01 -0.4139E+00E
 Epicentro: LOS SANTOS - SANTANDER                                             3
 ACTION:UPD 12-07-13 16:07 OP:ep   STATUS:               ID:20111101165505 L   I
 2011-11-01-1652-04S.COL___176                                                 6
 STAT SP IPHASW D HRMM SECON CODA AMPLIT PERI AZIMU VELO AIN AR TRES W  DIS CAZ7
 BAR2 SZ EP   1   1655 24.50                             171   -0.07 7 22.4 218 
 BAR2 SZ ES   1   1655 39.19                             171   -0.16 7 22.4 218 
 BAR2 SZ I        1655 41.09        12.1 0.31                          22.4 218 
 BTL  SZ EP   2   1655 24.76                             168    0.02 5 29.5 308 
 PAM  SZ EP       1655 27.21                             150    0.0410 76.1  31 
 PAM  SZ I        1655 27.76         7.5 0.16                          76.1  31 
 PAM  SE ES   1   1655 44.05                             150    0.07 7 76.1  31 
 BRR  HZ EP   1   1655 26.45                             148   -0.40 7 82.1 299 
 BRR  HZ I        1655 26.90        17.5 0.10                          82.1 299 
 BRR  HN ES   1   1655 43.68                             148    0.28 7 82.1 299 
 RUS  HZ EP   2   1655 29.02                             144    0.58 5 95.1 182 
 RUS  HE ES   2   1655 46.11                             144   -0.12 5 95.1 182 
 RUS  HZ I        1655 47.81         4.8 0.46                          95.1 182 
                                                                                
