 2016  5 1 1858 55.6 L   6.731 -73.125142.0  RSN  5 0.4 1.3LRSN                1
 GAP=142        0.85       5.0     4.8  6.4 -0.9846E+01  0.1190E+02 -0.1013E+01E
 Epicentro: JORDAN - SANTANDER                                                 3
 ACTION:UPD 16-08-18 17:41 OP:cam  STATUS:               ID:20160501185855 L   I
 OLDACT:DUP 16-05-02 00:59 OP:ak   STATUS:               ID:20160501184747d    3
 2016-05-01-1847-46M.COL___298                                                 6
 STAT SP IPHASW D HRMM SECON CODA AMPLIT PERI AZIMU VELO AIN AR TRES W  DIS CAZ7
 BAR2 EZ EP       1859 14.41                             173   -0.2810 16.6 202 
 BAR2 EZ ES       1859 29.79                             173    0.2410 16.6 202 
 BAR2 EZ I        1859 30.40         5.1 0.12            172           16.6 202 
 PAM  EZ EP       1859 17.52                             149   -0.2110 82.0  35 
 PAM  EE ES       1859 35.35                             149    0.3710 82.0  35 
 PAM  EZ I        1859 35.78         2.3 0.20            151           82.0  35 
 RUS  HZ EP       1859 18.17                             145   -0.2910 92.8 177 
 RUS  HE ES       1859 36.26                             145   -0.0010 92.8 177 
 RUS  HZ I        1859 38.02         2.4 0.36            147           92.8 177 
 PTB  HZ EP       1859 22.13                             131   -0.25 9  149 262 
 PTB  HN ES       1859 42.96                             131   -0.29 9  149 262 
 PTB  HZ I        1859 45.67         2.8 0.28            132            149 262 
 GUY2CHZ EP       1859 39.62                             112    0.83 7  299 236 
 GUY2CHN ES       19 0 12.87                             112    0.41 7  299 236 
 GUY2CHZ I        19 0 21.82         1.4 0.32                           299 236 
                                                                                
