 2015  5 1 1453 34.9 L   7.510 -73.155133.0  RSN  8 0.4 1.8LRSN                1
 GAP=123        1.00       3.2     4.6  6.5 -0.1326E-01  0.1304E+02  0.1180E+01E
 Epicentro: EL PLAYON - SANTANDER                                              3
 ACTION:UPD 15-09-10 22:00 OP:cam  STATUS:               ID:20150501145334 L   I
 OLDACT:REG 15-05-01 20:48 OP:ak   STATUS:               ID:20150501144750     3
 2015-05-01-1447-50M.COL___267                                                 6
 STAT SP IPHASW D HRMM SECON CODA AMPLIT PERI AZIMU VELO AIN AR TRES W  DIS CAZ7
 PAM  SZ IP     D 1453 54.58                             157    0.1610 53.8 111 
 PAM  SN ES       1454 10.11                             157    0.4410 53.8 111 
 PAM  SZ I        1454 11.32        11.8 0.24            160           53.8 111 
 BRR  HZ EP       1453 54.75                             148   -0.2110 75.9 234 
 BRR  HN ES       1454 10.78                             148    0.1610 75.9 234 
 BRR  HZ I        1454 12.57        10.9 0.14            147           75.9 234 
 OCA  HZ EP       1453 56.09                             146    0.4710 82.5 347 
 OCA  HN ES       1454 11.85                             146    0.0610 82.5 347 
 BAR2 EZ IP   1   1453 56.54                             140   -0.58 7  102 182 
 BAR2 EZ ES       1454 13.77                             140   -0.7010  102 182 
 BAR2 EZ I        1454 15.04         8.8 0.10            141            102 182 
 SML  HZ EP       1454  3.37                             124   -0.10 9  175 325 
 SML  HN ES       1454 25.15                             124   -0.62 9  175 325 
 ZAR  HZ EP       1454  4.95                             122    0.12 9  188 270 
 ZAR  HN ES       1454 28.34                             122    0.15 9  188 270 
 ZAR  HZ I        1454 32.94         9.0 0.31            122            188 270 
 NOR  HZ EP   1   1454 14.74                             111   -1.01 6  287 221 
 NOR  HN ES       1454 48.08                             111    0.45 7  287 221 
 NOR  HZ I        1454 53.37         3.6 0.39            111            287 221 
 GUY2CHZ EP       1454 24.36                             106    0.58 6  352 224 
 GUY2CHN ES       1455  2.22                             106    0.30 6  352 224 
 GUY2CHZ I        1455 11.64         2.8 0.28                           352 224 
                                                                                
