 2014  4 1 1202 19.8 L   6.646 -73.932 24.9  RSN  5 0.1 1.7LRSN                1
 GAP=195        0.36       3.5     1.1  2.1 -0.6649E+00 -0.1057E+01  0.3613E+01E
 Epicentro: PUERTO PARRA - SANTANDER                                           3
 ACTION:UPD 14-05-13 23:05 OP:nd   STATUS:               ID:20140401120219 L   I
 OLDACT:UP  14-04-01 22:06 OP:cam  STATUS:               ID:20140401115813d    3
 OLDACT:DUP 14-04-01 22:01 OP:cam  STATUS:               ID:20140401115813d    3
 2014-04-01-1158-12M.COL___246                                                 6
 STAT SP IPHASW D HRMM SECON CODA AMPLIT PERI AZIMU VELO AIN AR TRES W  DIS CAZ7
 PTB  HZ IP     D 12 2 30.00                             111    0.0310 59.1 259 
 PTB  HN ES       12 2 37.82                             111   -0.0710 59.1 259 
 PTB  HZ I        12 2 38.11        74.1 0.18            109           59.1 259 
 BAR2 SZ IP     C 12 2 33.81                              71    0.1610 83.1  94 
 BAR2 SZ ES   2   12 2 44.03                              71   -0.41 5 83.1  94 
 BAR2 SZ I        12 2 45.99        14.5 0.60            103           83.1  94 
 SPBC HN ES   2   12 2 50.96                              56    0.09 5  111 188 
 SPBC HZ I        12 2 54.87        10.2 0.32             56            111 188 
 RUS  HN ES   1   12 2 54.98                              56    0.00 7  126 132 
 HEL  HZ EP   1   12 2 46.57                              56   -0.12 7  184 254 
 HEL  HN ES       12 3  7.65                              56    0.01 9  184 254 
 HEL  HZ I        12 3  9.63         6.0 0.22             56            184 254 
                                                                                
