 2013  2 1 1626 39.7 L   6.804 -73.152144.0  RSN  9 0.4 2.6LRSN 3.0WRSN        1
 SPEC AVERAGE  MO 13.5 ST  6.2 OM  1.9 f0 4.66 R0.3248 AL 2.20 WI 16.8 MW  3.0 3
 SPEC SD       MO  0.2 ST  5.1 OM  0.6 f00.782 R0.0575 AL      WI      MW  0.2 3
 GAP=102        0.99       3.7     3.0  5.6  0.4544E+00  0.2983E+01  0.4148E+01E
 Epicentro: LOS SANTOS - SANTANDER                                             3
 SPEC TAM HH Z MO 13.7 ST  3.4 OM  1.2 f0 3.68 R0.3995 AL 1.54 WI  5.2 MW  3.1 3
 SPEC TAM HH Z T1627 7 K 0.000 GD  212 VP 7.60 DE 3.20 Q0300.0 QA 0.60 VS 4.20 3
 SPEC RUS HH Z MO 13.1 ST  1.9 OM  0.7 f0 4.72 R0.3114 AL 1.48 WI 17.9 MW  2.7 3
 SPEC RUS HH Z T1627 3 K 0.000 GD  175 VP 7.60 DE 3.20 Q0300.0 QA 0.60 VS 4.20 3
 SPEC NOR HH E MO 13.8 ST 18.0 OM  2.0 f0 5.75 R0.2557 AL 2.72 WI 24.4 MW  3.2 3
 SPEC NOR HH E T162742 K 0.000 GD  274 VS 4.20 DE 3.20 Q0300.0 QA 0.60 VS 4.20 3
 SPEC PAM SH Z MO 13.6 ST  5.2 OM  1.2 f0 4.61 R0.3189 AL 2.58 WI 16.1 MW  3.0 3
 SPEC PAM SH Z T1627 1 K 0.000 GD  163 VP 7.60 DE 3.20 Q0300.0 QA 0.60 VS 4.20 3
 SPEC CHI HH N MO 13.7 ST  2.7 OM  1.8 f0 3.52 R0.4176 AL 2.11 WI 15.2 MW  3.0 3
 SPEC CHI HH N T162745 K 0.000 GD  287 VS 4.20 DE 3.20 Q0300.0 QA 0.60 VS 4.20 3
 SPEC BRR HH N MO 13.7 ST  7.7 OM  2.1 f0 4.80 R0.3062 AL 2.91 WI 19.6 MW  3.1 3
 SPEC BRR HH N T162717 K 0.000 GD  160 VS 4.20 DE 3.20 Q0300.0 QA 0.60 VS 4.20 3
 SPEC BAR2SH Z MO 13.3 ST  4.3 OM  1.7 f0 5.56 R0.2644 AL 2.06 WI 18.9 MW  2.8 3
 SPEC BAR2SH Z T162713 K 0.000 GD  145 VS 4.20 DE 3.20 Q0300.0 QA 0.60 VS 4.20 3
 ACTION:UPD 13-03-12 09:29 OP:ep   STATUS:               ID:20130201162639 L   I
 2013-02-01-1618-50M.COL___195                                                 6
 STAT SP IPHASW D HRMM SECON CODA AMPLIT PERI AZIMU VELO AIN AR TRES W  DIS CAZ7
 BAR2 SZ IP       1626 59.03                             170   -0.1210 23.6 188 
 BAR2 SZ I        1626 59.53        43.7 0.38            169           23.6 188 
 BAR2 SZ ES       1627 13.73                             170   -0.5710 23.6 188 
 BRR  HZ EP       1627  0.96                             152    0.3210 70.4 298 
 BRR  HN ES       1627 17.82                             152    0.8710 70.4 298 
 BRR  HN I        1627 20.79       121.9 0.24            153           70.4 298 
 PAM  SZ EP       1627  1.66                             150   -0.1010 77.5  40 
 PAM  SE ES       1627 18.70                             150   -0.2510 77.5  40 
 PAM  SN I        1627 19.90       117.0 0.38            153           77.5  40 
 RUS  HZ EP       1627  3.10                             143   -0.2310  101 176 
 RUS  HN ES       1627 21.79                             143    0.0410  101 176 
 RUS  HN I        1627 23.49        56.4 0.36            144            101 176 
 PTB  HZ EP       1627  5.79                             132   -0.71 9  147 259 
 PTB  HN ES       1627 27.64                             132    0.26 9  147 259 
 PTB  HN I        1627 29.40        47.0 0.14            133            147 259 
 TAM  HZ IP     D 1627  7.38                             130    0.05 9  156 105 
 TAM  HN ES       1627 29.15                             130    0.29 9  156 105 
 ZAR  HZ EP       1627 12.26                             122    0.28 9  203 292 
 ZAR  HN ES       1627 36.66                             122   -0.47 9  203 292 
 NOR  HZ EP       1627 15.61                             118    0.29 8  234 234 
 NOR  HE ES       1627 42.70                             118   -0.38 8  234 234 
 CHI  HZ EP       1627 17.59                             117    0.24 8  249 195 
 CHI  HN ES       1627 47.00                             117    0.31 8  249 195 
 CHI  HN I        1627 50.79        28.1 0.30            118            249 195 
                                                                                
