 2014 11 1 1134 28.9 L   6.052 -73.581127.3  RSN  7 0.4 1.4LRSN                1
 GAP= 78        0.89       3.5     3.9  7.2 -0.2050E+01  0.6081E+00 -0.2475E+01E
 Epicentro: GUEPSA - SANTANDER                                                 3
 ACTION:UPD 14-12-19 15:38 OP:nd   STATUS:               ID:20141101113428 L   I
 OLDACT:DUP 14-11-01 22:32 OP:spq  STATUS:               ID:20141101112747d    3
 2014-11-01-1127-46M.COL___265                                                 6
 STAT SP IPHASW D HRMM SECON CODA AMPLIT PERI AZIMU VELO AIN AR TRES W  DIS CAZ7
 RUS  HZ EP       1134 48.44                             154    0.4310 57.8 108 
 RUS  HN ES       1135  2.52                             154   -0.4010 57.8 108 
 RUS  HZ I        1135  5.54         2.8 0.40            156           57.8 108 
 SPBC HZ EP       1134 48.31                             149    0.1710 70.1 231 
 SPBC HN ES   1   1135  3.26                             149    0.11 7 70.1 231 
 SPBC HZ I        1135  8.45         5.6 0.38            152           70.1 231 
 BAR2 SZ EP   1   1134 48.82                             148    0.21 7 74.2  36 
 BAR2 SZ ES   1   1135  3.85                             148   -0.14 7 74.2  36 
 BAR2 SZ I        1135  5.09        14.1 0.28            151           74.2  36 
 PTB  HZ EP       1134 50.23                             136   -0.8310  111 299 
 PTB  HN ES       1135  8.74                             136    0.3910  111 299 
 PTB  HZ I        1135  9.40         2.6 0.09            140            111 299 
 BRR  HE ES       1135  9.26                             134   -0.0710  118 353 
 BRR  HZ I        1135 12.89         9.5 0.05            138            118 353 
 CHI  HN ES   1   1135 17.13                             126    0.04 7  158 186 
 CHI  HZ I        1135 20.31         1.5 0.46            129            158 186 
 PAM  SZ EP       1134 57.46                             123   -0.05 9  173  34 
 PAM  SN ES       1135 20.08                             123    0.25 9  173  34 
 PAM  SZ I        1135 25.49         2.4 0.48            126            173  34 
                                                                                
