 2015  4 1 1058  0.4 L   6.808 -73.124136.1  RSN  6 0.3 1.4LRSN                1
 GAP=139        0.78       3.3     4.8  5.8  0.4431E+01  0.4560E+01 -0.3294E+01E
 Epicentro: LOS SANTOS - SANTANDER                                             3
 ACTION:UPD 15-06-03 16:51 OP:cam  STATUS:               ID:20150401105800 L   I
 OLDACT:DUP 15-04-01 21:03 OP:fm   STATUS:               ID:20150401104750d    3
 2015-04-01-1047-48M.COL___271                                                 6
 STAT SP IPHASW D HRMM SECON CODA AMPLIT PERI AZIMU VELO AIN AR TRES W  DIS CAZ7
 BAR2 EZ EP       1058 19.05                             169    0.1910 24.7 195 
 BAR2 EZ ES       1058 33.41                             169    0.1210 24.7 195 
 BAR2 EZ I        1058 34.77         3.8 0.32            168           24.7 195 
 BRR  HZ EP       1058 20.83                             150    0.2510 72.9 297 
 BRR  HN ES       1058 36.42                             150    0.0810 72.9 297 
 BRR  HZ I        1058 43.10         8.5 0.32            145           72.9 297 
 PAM  SZ EP   1   1058 21.44                             150    0.02 7 75.2  39 
 PAM  SN ES       1058 37.80                             150   -0.0510 75.2  39 
 PAM  SZ I        1058 39.16         4.5 0.18            152           75.2  39 
 RUS  HZ EP       1058 23.61                             141    0.3810  101 177 
 RUS  HE ES       1058 40.49                             141   -0.5810  101 177 
 RUS  HZ I        1058 43.03         2.5 0.26            145            101 177 
 ZAR  HE ES   1   1058 57.30                             120   -0.08 6  206 292 
 ZAR  HZ I        1059  3.79         4.7 0.44            119            206 292 
 SML  HZ EP   1   1058 35.59                             115   -0.90 6  244 335 
 SML  HN ES       1059  4.60                             115   -0.06 8  244 335 
 SML  HZ I        1059 14.71         2.3 0.24            115            244 335 
                                                                                
