 2015  6 1 1128 52.2 L   6.771 -73.095137.0  RSN  7 0.5 1.8LRSN                1
 GAP=241        1.12       5.1     6.3  7.5  0.6316E+01  0.1783E+02  0.4251E+01E
 Epicentro: LOS SANTOS - SANTANDER                                             3
 ACTION:UPD 15-09-10 22:08 OP:cam  STATUS:               ID:20150601112852 L   I
 OLDACT:REG 15-06-01 20:48 OP:ar   STATUS:               ID:20150601111749     3
 2015-06-01-1117-49M.COL___300                                                 6
 STAT SP IPHASW D HRMM SECON CODA AMPLIT PERI AZIMU VELO AIN AR TRES W  DIS CAZ7
 BAR2 EZ EP     C 1129 10.88                             170    0.1310 22.0 206 
 BAR2 EZ ES       1129 24.79                             170   -0.4210 22.0 206 
 BAR2 EZ I        1129 27.20        10.4 0.20            167           22.0 206 
 BRR  HZ IP     C 1129 12.66                             149   -0.1410 77.6 299 
 BRR  HN ES       1129 29.61                             149    0.7410 77.6 299 
 BRR  HZ I        1129 31.09        12.6 0.19            147           77.6 299 
 RUS  HZ EP       1129 14.94                             143    0.1010 97.2 179 
 RUS  HN ES       1129 32.51                             143    0.0110 97.2 179 
 SPBC HZ EP       1129 19.94                             127   -0.21 9  164 221 
 SPBC HN ES       1129 42.09                             127    0.14 9  164 221 
 SPBC HZ I        1129 48.09         9.4 0.24            127            164 221 
 ZAR  HZ EP       1129 24.52                             119   -0.24 8  210 292 
 ZAR  HN ES       1129 49.71                             119   -0.45 8  210 292 
 ZAR  HZ I        1129 54.64         8.9 0.46            120            210 292 
 NOR  HE ES       1129 54.47                             116   -0.98 8  237 236 
 GUY2CHZ EP       1129 36.37                             110    0.64 7  304 236 
 GUY2CHN ES       1130 10.57                             110    0.88 7  304 236 
 GUY2CHZ I        1130 17.55         1.9 0.36                           304 236 
                                                                                
