 2016  4 1 1649 43.2 L   6.774 -73.182132.0  RSN  8 0.4 1.8LRSN                1
 GAP=133        1.04       4.2     4.3  6.8 -0.3921E+01  0.1303E+02 -0.1539E+01E
 Epicentro: LOS SANTOS - SANTANDER                                             3
 ACTION:UPD 16-05-05 14:17 OP:rebc STATUS:               ID:20160401164943 L   I
 OLDACT:UP  16-04-01 21:20 OP:drio STATUS:               ID:20160401164744     3
 OLDACT:REG 16-04-01 19:46 OP:drio STATUS:               ID:20160401164744     3
 2016-04-01-1647-44M.COL___308                                                 6
 STAT SP IPHASW D HRMM SECON CODA AMPLIT PERI AZIMU VELO AIN AR TRES W  DIS CAZ7
 BAR2 EZ EP       1650  1.11                             171   -0.0510 20.1 180 
 BAR2 EZ ES       1650 15.20                             171    0.0710 20.1 180 
 BAR2 EZ I        1650 21.01        10.3 0.22            172           20.1 180 
 PAM  EZ EP       1650  4.07                             147   -0.2610 82.1  40 
 PAM  EE ES       1650 20.80                             147    0.0210 82.1  40 
 PAM  EZ I        1650 23.10        18.7 0.52            152           82.1  40 
 RUS  HZ EP       1650  5.46                             142   -0.0210 98.1 174 
 RUS  HE ES       1650 23.39                             142    0.5610 98.1 174 
 RUS  HZ I        1650 24.57         5.0 0.54            147           98.1 174 
 PTB  HZ EP       1650  8.19                             130   -0.51 9  143 260 
 PTB  HN ES       1650 28.37                             130   -0.19 9  143 260 
 PTB  HZ I        1650 31.78        10.3 0.18            132            143 260 
 SPBC HZ EP       1650 10.31                             127    0.05 9  158 218 
 SPBC HN ES       1650 30.51                             127   -0.82 9  158 218 
 SPBC HZ I        1650 34.21         9.5 0.10            131            158 218 
 ZAR  HZ EP       1650 14.73                             120    0.18 9  201 293 
 ZAR  HE ES       1650 39.44                             120    0.47 9  201 293 
 ZAR  HZ I        1650 45.55         9.3 0.28            123            201 293 
 NOR  HZ EP       1650 17.16                             116   -0.51 8  230 234 
 NOR  HE ES       1650 45.04                             116    0.51 8  230 234 
 NOR  HZ I        1650 50.34         5.6 0.18            120            230 234 
 GUY2CHZ EP       1650 26.59                             110    0.90 7  296 235 
 GUY2CHE ES   4   1651  2.38                             110    3.59 0  296 235 
 GUY2CHZ I        1651  8.60         3.0 0.60                           296 235 
                                                                                
