 2012  1 1 1841 25.0 L   6.948 -73.233131.0  RSN  6 0.4 1.7LRSN                1
 GAP=125        0.78       6.8     5.5  9.5  0.1930E+01  0.1158E+02  0.6426E+01E
 Epicentro: BETULIA - SANTANDER                                                3
 ACTION:UP  12-02-03 08:13 OP:REBC STATUS:               ID:20120101184125 L   I
 2012-01-01-1840-00M.COL___188                                                 6
 STAT SP IPHASW D HRMM SECON CODA AMPLIT PERI AZIMU VELO SNR AR TRES W  DIS CAZ7
 BAR2 SZ EP   1   1841 43.64                             162     0.3 8   40 172 
 BAR2 SZ ES   2   1841 57.70                             162     0.1 5   40 172 
 BAR2 SZ I        1841 59.66        54.5 0.39                            40 172 
 BRR  HZ EP   1   1841 43.93                             156     0.3 8   56 288 
 BRR  HN ES   2   1841 58.81                             156     0.6 5   56 288 
 BRR  HZ I        1842  2.52        13.5 0.14                            56 288 
 PAM  SZ EP   1   1841 45.35                             149     0.0 8   73  54 
 PAM  SN ES   2   1842  0.65                             149    -0.6 5   73  54 
 PAM  SZ I        1842  3.48         3.3 0.46                            73  54 
 RUS  HZ EP   1   1841 49.01                             136     0.3 8  118 172 
 RUS  HN ES   2   1842  6.50                             136    -0.7 5  118 172 
 RUS  HZ I        1842  9.39         2.7 0.19                           118 172 
 PTB  HZ EP       1841 49.94                             130    -0.310  143 252 
 PTB  HN ES   2   1842 10.18                             130     0.2 5  143 252 
 ZAR  HN ES   2   1842 17.74                             121    -0.6 5  189 289 
 ZAR  HZ I        1842 23.65         7.9 0.30                           189 289 
                                                                                
