 2011 12 1 1223  2.5 L   6.737 -73.107145.3  RSN  4 0.2 1.7LRSN                1
 GAP=144        0.43       3.1     4.8  4.5  0.2256E+01 -0.4327E+01 -0.1620E+01E
 Epicentro: JORDAN - SANTANDER                                                 3
 ACTION:UPD 12-07-13 16:13 OP:ep   STATUS:               ID:20111201122302 L   I
 2011-12-01-1219-56S.COL___160                                                 6
 STAT SP IPHASW D HRMM SECON CODA AMPLIT PERI AZIMU VELO AIN AR TRES W  DIS CAZ7
 BAR2 SZ EP   2   1223 21.84                             173   -0.18 5 18.1 208 
 BAR2 SZ I        1223 22.08         9.1 0.12                          18.1 208 
 BAR2 SZ ES   1   1223 37.56                             173    0.34 7 18.1 208 
 BRR  HZ EP       1223 24.04                             150   -0.0210 78.4 301 
 BRR  HZ I        1223 26.08        16.2 0.08                          78.4 301 
 BRR  HN ES   1   1223 40.73                             150   -0.12 7 78.4 301 
 PAM  SZ EP       1223 25.03                             150    0.1410 80.4  34 
 PAM  SE ES   2   1223 41.99                             150   -0.33 5 80.4  34 
 RUS  HZ EP       1223 25.74                             146   -0.0110 93.4 178 
 RUS  HZ I        1223 26.93         5.2 0.26                          93.4 178 
 RUS  HE ES   1   1223 43.66                             146   -0.18 7 93.4 178 
                                                                                
