 2014  1 1 1302  0.9 L   6.777 -73.139148.0  RSN  9 0.4 1.5LRSN                1
 GAP=201        0.75       2.9     5.6  6.0  0.3358E+01 -0.3795E+01 -0.1066E+01E
 Epicentro: LOS SANTOS - SANTANDER                                             3
 ACTION:UPD 14-03-13 09:50 OP:ep   STATUS:               ID:20140101130200 L   I
 OLDACT:UP  14-01-01 18:41 OP:mh   STATUS:               ID:20140101130000     3
 OLDACT:REG 14-01-01 15:38 OP:mh   STATUS:               ID:20140101130000     3
 2014-01-01-1300-00M.COL___285                                                 6
 STAT SP IPHASW D HRMM SECON CODA AMPLIT PERI AZIMU VELO AIN AR TRES W  DIS CAZ7
 BAR2 SZ EP   1   13 2 20.95                             172    0.23 7 21.0 193 
 BAR2 SZ I        13 2 37.72         8.7 0.24            171           21.0 193 
 BRR  HZ EP       13 2 22.89                             152    0.5210 73.1 300 
 BRR  HN ES       13 2 39.43                             152    0.3010 73.1 300 
 BRR  HZ I        13 2 49.10         3.1 0.08            155           73.1 300 
 RUS  HZ EP   1   13 2 24.15                             145   -0.51 7 98.0 176 
 RUS  HN ES   1   13 2 42.84                             145   -0.37 7 98.0 176 
 RUS  HZ I        13 2 44.54         2.9 0.19            147           98.0 176 
 PTB  HZ EP   1   13 2 27.89                             132   -0.15 7  148 260 
 PTB  HN ES   2   13 2 48.89                             132   -0.35 5  148 260 
 PTB  HZ I        13 2 52.15         3.2 0.16            136            148 260 
 SPBC HN ES       13 2 51.51                             130   -0.14 9  162 220 
 SPBC HZ I        13 2 59.42         4.2 0.08            133            162 220 
 ZAR  HN ES   1   13 2 59.06                             123   -0.13 6  206 293 
 ZAR  HZ I        13 3  4.69         3.0 0.17            126            206 293 
 NOR  HZ EP       13 2 37.09                             119    0.45 8  234 235 
 NOR  HN ES   2   13 3  3.84                             119   -0.70 4  234 235 
 NOR  HZ I        13 3 12.71         3.0 0.18            122            234 235 
 SML  HZ EP       13 2 37.62                             118   -0.28 8  246 335 
 SML  HN ES       13 3  6.37                             118   -0.42 8  246 335 
 SML  HZ I        13 3 11.30         4.5 0.08            121            246 335 
 CHI  HZ EP       13 2 38.50                             118    0.05 8  246 195 
 CHI  HN ES   2   13 3  8.30                             118    0.54 4  246 195 
 CHI  HZ I        13 3 18.49         1.2 0.37            120            246 195 
                                                                                
