 2010  9 1 1419 43.7 L   6.881 -72.887139.2  RSN  4 0.4 1.8LRSN                1
 GAP=266        0.68       8.3    19.9  8.7  0.2766E+02  0.2640E-01 -0.5253E+01E
 Epicentro: GUACA - SANTANDER                                                  3
 ACTION:UP  11-02-18 10:59 OP:tino STATUS:               ID:20100901141943 L   I
 2010-09-01-1416-40S.COL___120                                                 6
 STAT SP IPHASW D HRMM SECON CODA AMPLIT PERI AZIMU VELO SNR AR TRES W  DIS CAZ7
 BAR2 SZ EP   1   1420  3.74                             161     0.5 7   46 226 
 BAR2 SZ ES   1   1420 18.17                             161    -0.3 7   46 226 
 BAR2 SZ I        1420 20.47        13.5 0.28                            46 226 
 BRR  HZ EP   2   1420  5.76                             144     0.0 5   95 285 
 BRR  HZ I        1420 14.36        10.1 0.36                            95 285 
 RUS  HZ EP   1   1420  7.51                             139    -0.2 7  111 191 
 RUS  HE ES   1   1420 26.47                             139     0.1 7  111 191 
 PRA  HZ EP   2   1420 38.80                             104    -0.9 3  414 212 
 PRA  HN ES   2   1421 23.88                             104     0.6 3  414 212 
 PRA  HZ I        1421 24.88         2.0 0.25                           414 212 
                                                                                
