 2015  3 1 1225 41.7 L   6.805 -73.144151.0  RSN  8 0.5 2.0LRSN                1
 GAP=183        1.04       4.6     6.7  7.2 -0.1258E+01  0.9526E+01  0.5910E+01E
 Epicentro: LOS SANTOS - SANTANDER                                             3
 ACTION:UPD 15-04-30 16:22 OP:nd   STATUS:               ID:20150301122541 L   I
 OLDACT:REG 15-03-01 21:22 OP:mh   STATUS:               ID:20150301121747     3
 2015-03-01-1217-47M.COL___296                                                 6
 STAT SP IPHASW D HRMM SECON CODA AMPLIT PERI AZIMU VELO AIN AR TRES W  DIS CAZ7
 BAR2 EZ EP       1226  2.53                             171    0.5210 23.9 190 
 BAR2 EZ ES       1226 17.48                             171   -0.3510 23.9 190 
 BAR2 EZ I        1226 20.47        28.7 0.25            165           23.9 190 
 RUS  HZ EP       1226  5.85                             145   -0.2010  101 176 
 RUS  HE ES       1226 25.03                             145    0.0210  101 176 
 RUS  HZ I        1226 26.63         9.1 0.09            144            101 176 
 PTB  HZ EP       1226  8.77                             133   -0.40 9  148 259 
 PTB  HN ES       1226 30.15                             133   -0.41 9  148 259 
 PTB  HZ I        1226 37.73        11.0 0.20            131            148 259 
 OCA  HN ES   1   1226 33.23                             131    0.45 7  160 353 
 SPBC HZ EP       1226 11.28                             130    0.58 9  164 219 
 SPBC HN ES       1226 33.72                             130    0.43 9  164 219 
 SPBC HZ I        1226 39.38        19.4 0.15            129            164 219 
 CHI  HZ EP       1226 19.21                             118   -0.59 8  249 195 
 CHI  HN ES       1226 49.42                             118   -0.06 8  249 195 
 CHI  HZ I        1226 55.87         3.1 0.62            119            249 195 
 GUY2CHZ EP   4   1226 25.82                             113    0.17 0  302 235 
 GUY2CHN ES   4   1226 59.63                             113   -0.27 0  302 235 
 RREF HZ EP   4   1226 29.55                             112    1.38 0  322 229 
 RREF HN ES   4   1227  3.99                             112   -0.40 0  322 229 
 TOL  SZ EP   4   1226 32.17                             110    1.90 0  344 225 
 TOL  SN ES   4   1227  9.57                             110    1.44 0  344 225 
 TOL  SZ I        1227 14.57         3.9 0.26            111            344 225 
 PRA  HZ EP       1226 34.80                             107   -0.71 6  393 210 
 PRA  HN ES       1227 18.34                             107    0.88 6  393 210 
                                                                                
