 2017  8 1 1929 55.9 L   6.856 -73.152142.9  RSN 12 0.5 2.1LRSN                1
 GAP=109        1.03       3.7     3.6  5.8  0.2385E+01  0.7089E+01  0.5011E+01E
 Epicentro: LOS SANTOS - SANTANDER                                             3
 ACTION:UPD 17-09-04 20:15 OP:rebc STATUS:               ID:20170801192955 L   I
 OLDACT:REG 17-08-01 21:21 OP:dhb  STATUS:               ID:20170801192741     3
 2017-08-01-1928-00M.COL___392                                                 6
 STAT SP IPHASW D HRMM SECON CODA AMPLIT PERI AZIMU VELO AIN AR TRES W  DIS CAZ7
 BAR2 EZ EP       1930 15.15                             168   -0.1410 29.3 187 
 BAR2 EZ ES       1930 30.58                             168    0.1310 29.3 187 
 BAR2 EZ I        1930 35.07        17.0 0.12            167           29.3 187 
 BRR  HZ IP     D 1930 16.67                             153    0.1510 67.8 294 
 BRR  HN ES       1930 33.25                             153    0.6210 67.8 294 
 BRR  HZ I        1930 40.26        34.5 0.26            154           67.8 294 
 PAM  EZ IP     C 1930 17.83                             152    0.3010 73.2  43 
 PAM  EN ES       1930 33.89                             152   -0.5410 73.2  43 
 PAM  EZ I        1930 36.58        30.7 0.48            158           73.2  43 
 RUS  HZ EP       1930 19.64                             141   -0.1610  107 176 
 RUS  HN ES       1930 38.78                             141    0.3110  107 176 
 RUS  HZ I        1930 39.78        15.0 0.26            144            107 176 
 PTB  HZ EP       1930 21.97                             131   -0.69 9  148 256 
 PTB  HN ES       1930 42.69                             131   -0.87 9  148 256 
 PTB  HZ I        1930 45.20        15.4 0.12            133            148 256 
 YPLC HZ EP   2   1930 25.61                             125   -0.41 4  183 152 
 YPLC HN ES       1930 49.49                             125   -0.06 9  183 152 
 YPLC HZ I        1930 52.63         9.2 0.19            129            183 152 
 ZAR  HZ EP       1930 28.29                             122    0.46 9  201 291 
 ZAR  HN ES       1930 52.85                             122    0.09 9  201 291 
 ZAR  HZ I        1930 58.36        30.7 0.46            125            201 291 
 NOR  HZ EP       1930 31.75                             118   -0.01 8  238 233 
 NOR  HN ES       1930 59.11                             118   -0.65 8  238 233 
 NOR  HZ I        1931  5.57        11.6 0.22            120            238 233 
 CHI  HZ EP       1930 34.00                             116   -0.04 8  254 195 
 CHI  HN ES       1931  4.28                             116    0.47 8  254 195 
 CHI  HZ I        1931  7.94         5.2 0.58            119            254 195 
 HEL  HZ EP       1930 36.17                             114    0.13 8  273 255 
 HEL  HN ES       1931  8.16                             114    0.79 8  273 255 
 HEL  HZ I        1931 13.25         7.4 0.22            117            273 255 
 GUY2CHZ EP   2   1930 40.78                             112    1.09 4  304 234 
 GUY2CHZ I        1931 22.08         7.5 0.48                           304 234 
 DBB  EZ EP   2   1930 42.73                             109   -0.37 3  338 273 
 DBB  EE ES   3   1931 18.49                             109   -1.46 2  338 273 
 DBB  EZ I        1931 21.08         8.9 0.12            112            338 273 
                                                                                
