 2010 11 1 1404 55.0 L   7.203 -74.069  9.9  RSN 10 0.5 2.3LRSN                1
 GAP=160        1.06       4.1     5.2 11.8  0.5091E+00  0.4647E+02  0.2247E+02E
 Epicentro: PUERTO WILCHES - SANTANDER                                         3
 ACTION:UP  10-12-17 16:49 OP:REBC STATUS:               ID:20101101140455 L   I
 2010-11-01-1403-41S.COL___126                                                 6
 STAT SP IPHASW D HRMM SECON CODA AMPLIT PERI AZIMU VELO SNR AR TRES W  DIS CAZ7
 BRR  HZ IP     D 14 5  1.42                              97    -0.510   41 105 
 BRR  HE ES   1   14 5  6.95                              97    -0.3 7   41 105 
 BRR  HZ I        14 5  7.93       272.5 0.21                            41 105 
 BAR2 SZ EP       14 5 13.75                              92    -0.210  119 125 
 BAR2 SZ I        14 5 30.20        29.6 0.50                           119 125 
 OCA  SZ EP       14 5 17.13                              92    -0.1 9  141  36 
 OCA  SZ ES   1   14 5 34.04                              92    -0.5 7  141  36 
 GUE  SZ EP       14 5 18.15                              92     0.3 9  144  61 
 BRI  SZ EP   2   14 5 19.75                              92     1.0 5  151  68 
 GRA  SZ ES       14 5 39.12                              92     0.0 9  159  62 
 RUS  HZ EP       14 5 23.80                              56     0.7 9  181 143 
 RUS  HE ES   2   14 5 44.87                              56     0.0 4  181 143 
 RUS  HZ I        14 5 47.24        53.1 0.30                           181 143 
 HEL  HZ EP       14 5 25.21                              56     0.4 9  196 235 
 HEL  HN ES   1   14 5 47.14                              56    -0.8 6  196 235 
 HEL  HZ I        14 5 51.52        20.7 0.23                           196 235 
 NOR  SZ EP       14 5 25.38                              56     0.3 9  202 206 
 NOR  SN ES   1   14 5 47.97                              56    -0.5 6  202 206 
 RREF HZ EP   2   14 5 37.74                              55     0.8 4  291 209 
 RREF HE ES   2   14 6  9.54                              55    -0.1 4  291 209 
 RREF HZ I        14 6 19.15        10.8 0.43                           291 209 
                                                                                
