 2017  2 1 1908 12.8 L   6.812 -73.155146.7  RSN 10 0.3 2.5LRSN                1
 GAP=103        0.78       3.1     2.8  4.6 -0.4067E+00  0.1164E+01  0.3787E+01E
 Epicentro: LOS SANTOS - SANTANDER                                             3
 ACTION:UPD 17-05-24 15:31 OP:jn   STATUS:               ID:20170201190812 L   I
 OLDACT:UP  17-02-02 01:07 OP:ar   STATUS:               ID:20170201185752d    3
 OLDACT:UP  17-02-02 01:06 OP:ar   STATUS:               ID:20170201185752d    3
 OLDACT:DUP 17-02-02 00:57 OP:ar   STATUS:               ID:20170201185752d    3
 OLDACT:REG 17-02-01 21:14 OP:ar   STATUS:               ID:20170201185751     3
 2017-02-01-1858-00M.COL___331                                                 6
 STAT SP IPHASW D HRMM SECON CODA AMPLIT PERI AZIMU VELO AIN AR TRES W  DIS CAZ7
 BAR2 EZ EP       19 8 32.38                             170   -0.1910 24.5 187 
 BAR2 EZ ES       19 8 48.11                             170    0.1210 24.5 187 
 BAR2 EZ I        19 8 51.13        80.9 0.84            168           24.5 187 
 BRR  HZ EP       19 8 34.13                             153    0.1610 69.7 298 
 BRR  HN ES       19 8 51.05                             153    0.5710 69.7 298 
 PAM  EZ EP       19 8 35.17                             151    0.0710 77.0  41 
 PAM  EN ES       19 8 52.19                             151   -0.3010 77.0  41 
 PAM  EZ I        19 8 54.12        77.5 0.48            155           77.0  41 
 RUS  HZ EP       19 8 36.48                             144   -0.2710  102 176 
 RUS  HN ES       19 8 55.35                             144   -0.0810  102 176 
 RUS  HZ I        19 8 56.76        44.9 0.34            143            102 176 
 PTB  HZ EP       19 8 39.42                             132   -0.36 9  147 258 
 PTB  HN ES       19 9  0.31                             132   -0.52 9  147 258 
 PTB  HZ I        19 9  2.57        32.2 0.10            132            147 258 
 TAM  HZ IP     C 19 8 40.76                             130    0.08 9  156 105 
 ZAR  HZ EP   4   19 8 47.77                             123    2.61 0  203 292 
 ZAR  HN ES       19 9 10.59                             123    0.19 9  203 292 
 ZAR  HZ I        19 9 17.00        27.4 0.40            123            203 292 
 NOR  HZ EP       19 8 48.79                             119    0.21 8  235 234 
 NOR  HN ES       19 9 16.21                             119   -0.28 8  235 234 
 NOR  HZ I        19 9 21.53        19.6 0.22            119            235 234 
 CHI  HZ EP       19 8 51.08                             117    0.42 8  250 195 
 CHI  HN ES       19 9 20.64                             117    0.44 8  250 195 
 CHI  HZ I        19 9 26.63         9.0 0.40            117            250 195 
 ROSC BZ EP   4   19 8 52.43                             117    1.39 0  253 211 
 ROSC BE ES   4   19 9 23.86                             117    2.99 0  253 211 
 ROSC BZ I        19 9 26.51        22.1 0.35            117            253 211 
                                                                                
