 2014  3 1 1041 59.8 L   6.815 -73.219142.5  RSN  5 0.3 1.4LRSN                1
 GAP=126        0.83       3.7     4.5  7.2 -0.1319E+01  0.8741E+01 -0.5647E+01E
 Epicentro: ZAPATOCA - SANTANDER                                               3
 ACTION:UPD 14-04-09 23:13 OP:nd   STATUS:               ID:20140301104159 L   I
 OLDACT:REG 14-03-01 15:48 OP:cam  STATUS:               ID:20140301103816     3
 2014-03-01-1038-16M.COL___221                                                 6
 STAT SP IPHASW D HRMM SECON CODA AMPLIT PERI AZIMU VELO AIN AR TRES W  DIS CAZ7
 BAR2 SZ EP       1042 19.24                             170    0.1210 25.0 171 
 BAR2 SZ ES       1042 33.53                             170   -0.6310 25.0 171 
 BAR2 SZ I        1042 36.79        12.4 0.28            171           25.0 171 
 PAM  SZ EP       1042 21.96                             149   -0.0110 81.6  45 
 PAM  SN ES       1042 39.45                             149    0.2110 81.6  45 
 PAM  SZ I        1042 41.66         3.1 0.48            152           81.6  45 
 RUS  HZ EP       1042 23.24                             142   -0.2310  103 172 
 RUS  HN ES       1042 42.35                             142    0.4610  103 172 
 RUS  HZ I        1042 43.66         2.8 0.30            145            103 172 
 PTB  HZ EP   1   1042 25.47                             133   -0.39 7  140 257 
 PTB  HN ES       1042 46.39                             133    0.24 9  140 257 
 PTB  HZ I        1042 48.60         2.8 0.18            135            140 257 
 SML  HE ES       1043  3.86                             117    0.08 8  239 337 
                                                                                
