 2017  4 1 1438 14.9 L   6.766 -73.154152.0  RSN  5 0.3 1.8LRSN                1
 GAP=234        0.74       5.5     5.5  7.0  0.8417E+01  0.1750E+02  0.9577E+01E
 Epicentro: LOS SANTOS - SANTANDER                                             3
 ACTION:UPD 17-05-30 21:07 OP:jn   STATUS:               ID:20170401143814 L   I
 OLDACT:DUP 17-04-01 22:48 OP:dnl  STATUS:               ID:20170401142745d    3
 OLDACT:UP  17-04-01 22:46 OP:dnl  STATUS:               ID:20170401142744     3
 OLDACT:UP  17-04-01 22:46 OP:dnl  STATUS:               ID:20170401142744     3
 OLDACT:REG 17-04-01 21:02 OP:dnl  STATUS:               ID:20170401142744     3
 2017-04-01-1428-00M.COL___365                                                 6
 STAT SP IPHASW D HRMM SECON CODA AMPLIT PERI AZIMU VELO AIN AR TRES W  DIS CAZ7
 BAR2 EZ EP   2   1438 35.16                             172   -0.01 5 19.4 189 
 BAR2 EZ ES       1438 50.61                             172   -0.4010 19.4 189 
 BAR2 EZ I        1438 53.59         7.9 0.58            170           19.4 189 
 BRR  HZ EP   2   1438 36.92                             153    0.18 5 72.3 302 
 BRR  HE ES       1438 54.24                             153    0.4210 72.3 302 
 BRR  HZ I        1438 57.89        22.3 0.40            152           72.3 302 
 RUS  HZ EP   2   1438 39.70                             146    0.73 5 96.9 175 
 RUS  HN ES       1438 57.90                             146    0.1210 96.9 175 
 RUS  HZ I        1438 59.32         7.7 0.40            147           96.9 175 
 PTB  HZ EP       1438 41.85                             134   -0.35 9  146 260 
 PTB  HN ES       1439  3.30                             134   -0.23 9  146 260 
 PTB  HZ I        1439  6.36         8.5 0.14            134            146 260 
 NOR  HZ EP   2   1438 50.29                             120   -0.36 4  232 235 
 NOR  HN ES       1439 18.85                             120    0.29 8  232 235 
 NOR  HZ I        1439 24.52         4.5 0.28            121            232 235 
                                                                                
