 2015  2 1 1232 37.9 L   7.005 -73.148135.9  RSN  4 0.3 1.9LRSN                1
 GAP=212        0.60       2.9     5.9  6.5  0.1782E+01  0.1600E+02 -0.6025E+01E
 Epicentro: GIRON - SANTANDER                                                  3
 ACTION:UPD 15-04-30 21:20 OP:nd   STATUS:               ID:20150201123237 L   I
 OLDACT:REG 15-02-01 20:20 OP:cam  STATUS:               ID:20150201122820     3
 2015-02-01-1228-20M.COL___258                                                 6
 STAT SP IPHASW D HRMM SECON CODA AMPLIT PERI AZIMU VELO AIN AR TRES W  DIS CAZ7
 BAR2 EZ ES       1233 12.07                             160    0.0910 45.8 185 
 BAR2 EZ I        1233 13.36        19.0 0.26            161           45.8 185 
 SPBC HZ EP   1   1233  7.76                             124    0.31 7  181 214 
 SPBC HN ES       1233 30.18                             124   -0.33 9  181 214 
 SPBC HZ I        1233 34.41        10.1 0.18            125            181 214 
 ZAR  HZ EP       1233  8.77                             121   -0.13 9  196 286 
 ZAR  HN ES       1233 33.42                             121    0.33 9  196 286 
 ZAR  HZ I        1233 37.73         6.9 0.44            121            196 286 
 SML  HZ EP   1   1233 11.96                             118    0.22 6  223 333 
 SML  HN ES       1233 37.84                             118   -0.29 8  223 333 
 SML  HZ I        1233 42.14         6.4 0.32            119            223 333 
                                                                                
