 2010  2 1 1641 45.6 L   6.857 -73.125144.0  RSN  6 0.5 2.0LRSN                1
 GAP=230        0.72       7.9    15.4  9.6  0.5624E+02  0.8947E+02  0.1454E+02E
 Epicentro: LOS SANTOS - SANTANDER                                             3
 ACTION:UP  10-08-24 09:47 OP:vdl  STATUS:               ID:20100201164145 L   I
 2010-02-01-1639-39S.COL___094                                                 6
 STAT SP IPHASW D HRMM SECON CODA AMPLIT PERI AZIMU VELO SNR AR TRES W  DIS CAZ7
 BAR2 SZ EP   1   1642  5.41                             168     0.2 8   30 192 
 BAR2 SZ ES   1   1642 20.66                             168     0.2 8   30 192 
 RUS  BZ EP   2   1642  9.68                             142     0.0 5  107 178 
 RUS  BE ES       1642 28.20                             142    -0.210  107 178 
 RUS  BZ I        1642 29.76        11.3 1.48                           107 178 
 CHI  HZ EP   2   1642 23.48                             116    -0.5 4  255 195 
 CHI  HZ I        1643  2.21         4.1 0.97                           255 195 
 RREF BZ EP   2   1642 33.80                             110     1.4 3  328 229 
 RREF BZ I        1643 17.83         5.9 0.21                           328 229 
 MON  HE ES   2   1643 11.55                             108    -0.7 3  351 307 
 PRA  HZ EP   2   1642 39.43                             106    -0.4 3  399 209 
 PRA  HE ES   2   1643 22.11                             106    -0.1 3  399 209 
 PRA  HZ I        1643 29.61         5.1 0.45                           399 209 
                                                                                
