 2017  4 1 1102  6.1 L   6.784 -73.144148.2  RSN  7 0.4 1.7LRSN                1
 GAP=236        0.84       4.3     4.8  7.1  0.4212E+01  0.1085E+02  0.1051E+01E
 Epicentro: LOS SANTOS - SANTANDER                                             3
 ACTION:UPD 17-05-30 21:07 OP:jn   STATUS:               ID:20170401110206 L   I
 OLDACT:REG 17-04-01 20:55 OP:dnl  STATUS:               ID:20170401105119     3
 2017-04-01-1058-00M.COL___362                                                 6
 STAT SP IPHASW D HRMM SECON CODA AMPLIT PERI AZIMU VELO AIN AR TRES W  DIS CAZ7
 BAR2 EZ EP       11 2 25.67                             171   -0.2910 21.6 191 
 BAR2 EZ ES       11 2 41.35                             171   -0.1210 21.6 191 
 BAR2 EZ I        11 2 41.73         9.3 0.12            168           21.6 191 
 BRR  HZ EP       11 2 27.63                             153    0.0910 72.2 300 
 BRR  HN ES       11 2 44.63                             153    0.3510 72.2 300 
 BRR  HZ I        11 2 47.83         7.3 0.46            150           72.2 300 
 RUS  HZ EP   2   11 2 30.73                             145    0.80 5 98.8 176 
 RUS  HN ES       11 2 48.34                             145   -0.2110 98.8 176 
 RUS  HZ I        11 2 49.75         4.9 0.44            145           98.8 176 
 PTB  HE ES       11 2 53.79                             133   -0.60 9  148 260 
 PTB  HZ I        11 2 55.95         4.4 0.30            131            148 260 
 SPBC HZ EP   2   11 2 34.50                             130   -0.13 5  162 219 
 SPBC HN ES       11 2 57.61                             130    0.70 9  162 219 
 SPBC HZ I        11 3  3.90        19.1 0.24            129            162 219 
 ZAR  HZ EP   2   11 2 38.40                             123   -0.35 4  205 293 
 ZAR  HN ES       11 3  4.40                             123    0.15 9  205 293 
 ZAR  HZ I        11 3  9.83         3.6 0.24            122            205 293 
 NOR  HZ EP   2   11 2 41.97                             119    0.13 4  234 235 
 NOR  HE ES       11 3  9.56                             119   -0.18 8  234 235 
 NOR  HZ I        11 3 12.69         3.0 0.28            119            234 235 
                                                                                
