 2015  6 1 1922 44.8 L   6.784 -73.130138.5  RSN  5 0.2 1.7LRSN                1
 GAP=139        0.56       2.8     3.8  4.3 -0.4221E+01 -0.5860E+00  0.3089E+01E
 Epicentro: LOS SANTOS - SANTANDER                                             3
 ACTION:UPD 15-09-10 22:08 OP:cam  STATUS:               ID:20150601192244 L   I
 OLDACT:REG 15-06-01 21:55 OP:ar   STATUS:               ID:20150601191750     3
 2015-06-01-1917-50M.COL___303                                                 6
 STAT SP IPHASW D HRMM SECON CODA AMPLIT PERI AZIMU VELO AIN AR TRES W  DIS CAZ7
 BAR2 EZ EP       1923  3.52                             170   -0.0310 22.0 195 
 BAR2 EZ ES       1923 17.80                             170   -0.3610 22.0 195 
 BAR2 EZ I        1923 19.42        10.9 0.28            166           22.0 195 
 BRR  HN ES       1923 21.56                             150    0.2410 73.5 299 
 PAM  SZ EP       1923  6.25                             149   -0.0310 77.6  38 
 PAM  SZ I        1923  6.46        16.1 0.20            154           77.6  38 
 PAM  SN ES       1923 23.02                             149   -0.0010 77.6  38 
 RUS  HZ EP       1923  7.73                             143   -0.0010 98.8 177 
 RUS  HN ES       1923 25.94                             143    0.3510 98.8 177 
 RUS  HZ I        1923 27.37         3.7 0.24            141           98.8 177 
 SPBC HZ EP       1923 12.75                             127   -0.00 9  163 220 
 SPBC HN ES       1923 34.34                             127   -0.19 9  163 220 
 SPBC HZ I        1923 42.84         7.3 0.20            125            163 220 
                                                                                
