 2012  7 1 1049 31.1 L   6.726 -73.192143.8  RSN  4 0.3 1.6LRSN                1
 GAP=226        0.77       8.7     8.6  7.8  0.4135E+02  0.1373E+02  0.1434E+02E
 Epicentro: VILLANUEVA - SANTANDER                                             3
 ACTION:UPD 12-08-14 11:41 OP:ep   STATUS:               ID:20120701104931 L   I
 2012-07-01-1047-43M.COL___199                                                 6
 STAT SP IPHASW D HRMM SECON CODA AMPLIT PERI AZIMU VELO AIN AR TRES W  DIS CAZ7
 BAR2 SZ IP       1049 50.30                             174    -0.110   15 176 
 BAR2 SZ I        1049 50.44        12.0 0.42            169             15 176 
 BAR2 SZ ES   1   1050  4.85                             174    -0.5 7   15 176 
 BRR  HZ IP     C 1049 52.25                             152     0.210   71 306 
 BRR  HZ I        1049 52.67        13.2 0.10            150             71 306 
 BRR  HN ES   1   1050  8.69                             152     0.3 7   71 306 
 RUS  HZ EP       1049 54.34                             146     0.210   93 173 
 RUS  HZ I        1049 55.38         3.3 0.10            143             93 173 
 RUS  HN ES   2   1050 12.51                             146     0.4 5   93 173 
 PTB  HZ EP       1049 57.04                             133    -0.3 9  141 262 
 PTB  HN ES   2   1050 17.88                             133     0.1 5  141 262 
 PTB  HZ I        1050 20.82         4.5 0.14            130            141 262 
