 2013  2 1 1524 37.0 L   6.797 -73.208148.8  RSN  4 0.2 1.4LRSN                1
 GAP=145        0.58       4.3     6.6  6.3 -0.1110E+02  0.6221E+01  0.3945E+01E
 Epicentro: ZAPATOCA - SANTANDER                                               3
 ACTION:UPD 13-03-12 09:29 OP:ep   STATUS:               ID:20130201152437 L   I
 2013-02-01-1518-50M.COL___197                                                 6
 STAT SP IPHASW D HRMM SECON CODA AMPLIT PERI AZIMU VELO AIN AR TRES W  DIS CAZ7
 BAR2 SZ EP       1524 57.15                             171    0.1210 22.8 173 
 BAR2 SZ ES       1525 12.93                             171    0.3210 22.8 173 
 BAR2 SZ I        1525 13.25         7.0 0.48            170           22.8 173 
 PAM  SN ES       1525 17.47                             150   -0.2010 82.1  43 
 RUS  HZ EP       1525  1.20                             144    0.0810  101 172 
 RUS  HN ES       1525 19.63                             144   -0.2710  101 172 
 RUS  HN I        1525 21.11         2.8 0.26            145            101 172 
 PTB  HN ES   2   1525 24.18                             134   -0.24 5  141 258 
 PTB  HN I        1525 25.74         3.9 0.40            134            141 258 
                                                                                
