 2012  7 1 1050 41.4 L   6.559 -73.541112.6  RSN 18 0.4 2.3LRSN                1
 GAP= 43        0.86       2.8     2.8  5.6  0.5774E+00  0.5018E+01  0.2851E+01E
 Epicentro: EL CARMEN DE CHUCURI - SANTANDER                                   3
 SPEC SD       MO  0.3 ST  9.0 OM  0.4 f00.953 R0.1516 AL      WI      MW  0.2 3
 SPEC PRA HH N MO 14.8 ST  8.0 OM  2.9 f0 2.04 R0.7206 AL 1.52 WI 38.0 MW  3.8 3
 SPEC PRA HH N T1052 4 K 0.000 GD  365 VS 4.20 DE 3.00 Q0230.0 QA 0.60 VS 4.20 3
 SPEC OCA HH N MO 14.6 ST 25.6 OM  2.9 f0 3.58 R0.4106 AL 1.97 WI 32.9 MW  3.7 3
 SPEC OCA HH N T105131 K 0.000 GD  218 VS 4.20 DE 3.00 Q0230.0 QA 0.60 VS 4.20 3
 SPEC COD HH N MO 14.0 ST  4.5 OM  2.0 f0 3.29 R0.4468 AL 1.87 WI 23.4 MW  3.3 3
 SPEC COD HH N T105210 K 0.000 GD  390 VS 4.20 DE 3.00 Q0230.0 QA 0.60 VS 4.20 3
 SPEC BRR HH N MO 14.2 ST 22.0 OM  2.7 f0 4.72 R0.3114 AL 2.81 WI 38.6 MW  3.4 3
 SPEC BRR HH N T105112 K 0.000 GD  129 VS 4.20 DE 3.00 Q0230.0 QA 0.60 VS 4.20 3
 ACTION:UPD 12-08-14 11:41 OP:ep   STATUS:               ID:20120701105041 L   I
 2012-07-01-1050-00M.COL___201                                                 6
 STAT SP IPHASW D HRMM SECON CODA AMPLIT PERI AZIMU VELO AIN AR TRES W  DIS CAZ7
 BAR2 SZ IP     C 1050 57.92                             159     0.210   40  85 
 BAR2 SZ ES   1   1051 10.05                             159    -0.3 7   40  85 
 BRR  HZ IP     D 1050 58.78                             148     0.210   63 343 
 BRR  HN ES   1   1051 12.67                             148     0.7 7   63 343 
 BRR  HZ I        1051 18.46        71.7 0.14            145             63 343 
 RUS  HZ IP     D 1051  0.98                             139    -0.210   89 145 
 RUS  HZ I        1051  2.20        22.5 0.08            136             89 145 
 RUS  HN ES   1   1051 16.73                             139     0.2 7   89 145 
 PTB  HZ IP     C 1051  0.78                             135    -0.710  101 269 
 PTB  HZ I        1051 16.90        43.4 0.19            128            101 269 
 PAM  SZ EP   3   1051  5.00                             128     0.5 2  127  47 
 PAM  SN ES   2   1051 22.51                             128     0.0 5  127  47 
 ZAR  HZ EP   2   1051  9.52                             118     0.4 4  178 305 
 ZAR  HN ES   2   1051 31.20                             118     0.4 4  178 305 
 ZAR  HZ I        1051 36.15        43.7 0.34            113            178 305 
 YOP  SZ EP       1051 10.05                             117     0.4 9  182 137 
 YOP  SZ I        1051 10.37        33.8 0.44            114            182 137 
 YOP  SN ES   2   1051 31.82                             117     0.1 4  182 137 
 NOR  SZ EP       1051  9.66                             117    -0.1 9  184 233 
 NOR  SN ES   1   1051 31.28                             117    -0.6 7  184 233 
 OCA  HZ EP       1051 10.08                             116    -0.2 9  187   7 
 OCA  HN ES   1   1051 32.13                             116    -0.7 7  187   7 
 TAM  HZ EP       1051 10.73                             115    -0.2 9  194  94 
 TAM  HN ES   3   1051 33.42                             115    -0.5 2  194  94 
 ROSC BZ EP   3   1051 12.59                             114    -0.4 2  209 204 
 ROSC BE ES   2   1051 37.87                             114     0.3 4  209 204 
 ROSC BZ I        1051 44.79        27.4 0.55            109            209 204 
 CHI  HZ EP   2   1051 13.87                             113     0.2 4  214 186 
 CHI  HZ I        1051 44.41        12.4 0.40            109            214 186 
 HEL  HZ EP       1051 15.07                             112     0.4 8  224 260 
 HEL  HN ES   1   1051 40.59                             112     0.1 6  224 260 
 HEL  HZ I        1051 46.47        17.2 0.22            107            224 260 
 URE  HN ES   1   1051 45.94                             108    -0.5 6  257 301 
 TOL  SZ EP   2   1051 22.85                             105     0.1 4  294 222 
 DBB  SZ EP       1051 23.88                             105     0.8 7  299 280 
 PRA  HZ EP       1051 28.93                             102     0.2 6  348 205 
 PRA  HN ES   2   1052  4.98                             102    -0.7 3  348 205 
 COD  HZ EP   3   1051 31.93                             101     0.2 2  374   2 
 COD  HN ES   3   1052 11.19                             101     0.2 2  374   2 
 COD  HZ I        1052 23.69         8.2 0.24             98            374   2 
