 2012  7 1 1715 14.2 L   6.788 -73.149145.7  RSN 13 0.4 2.5LRSN                1
 GAP= 65        1.10       4.1     3.9  6.6  0.1113E+01  0.4725E+01  0.4581E+01E
 Epicentro: LOS SANTOS - SANTANDER                                             3
 ACTION:UPD 12-08-14 11:41 OP:ep   STATUS:               ID:20120701171514 L   I
 2012-07-01-1710-00M.COL___201                                                 6
 STAT SP IPHASW D HRMM SECON CODA AMPLIT PERI AZIMU VELO AIN AR TRES W  DIS CAZ7
 BAR2 SZ IP       1715 33.91                             171     0.110   22 190 
 BAR2 SZ ES   1   1715 48.91                             171    -0.2 7   22 190 
 BAR2 SZ I        1715 50.56        56.1 0.20            166             22 190 
 BRR  HZ IP     C 1715 35.84                             152     0.510   72 300 
 BRR  HN ES   1   1715 52.84                             152     1.0 7   72 300 
 BRR  HZ I        1715 55.05        78.5 0.14            144             72 300 
 PAM  SZ EP       1715 36.72                             150     0.210   79  39 
 PAM  SN ES   1   1715 53.63                             150    -0.2 7   79  39 
 PAM  SZ I        1715 55.93        30.8 0.44            152             79  39 
 RUS  HZ EP       1715 37.78                             144    -0.110   99 176 
 RUS  HN ES   1   1715 56.14                             144    -0.2 7   99 176 
 RUS  HZ I        1715 57.78        28.5 0.40            141             99 176 
 PTB  HZ EP       1715 40.41                             132    -0.7 9  147 259 
 PTB  HN ES   1   1716  1.74                             132    -0.3 7  147 259 
 PTB  HZ I        1716  9.05        35.3 0.44            126            147 259 
 TAM  HZ EP       1715 42.00                             131     0.1 9  155 104 
 TAM  HN ES   1   1716  3.32                             131    -0.1 7  155 104 
 OCA  HZ EP       1715 41.99                             129    -0.6 9  162 353 
 OCA  HN ES   1   1716  4.40                             129    -0.4 7  162 353 
 OCA  HZ I        1716  9.55        82.4 0.72            126            162 353 
 YOP  SZ EP       1715 44.38                             126     0.2 9  178 153 
 YOP  SZ I        1715 46.46        13.9 0.22            125            178 153 
 ZAR  HZ EP       1715 46.36                             122    -0.3 9  204 293 
 ZAR  HN ES   1   1716 12.09                             122     0.1 6  204 293 
 ZAR  HZ I        1716 18.30        49.2 0.40            117            204 293 
 NOR  SZ EP       1715 49.99                             119     0.2 8  234 235 
 NOR  SN ES   1   1716 16.99                             119    -0.6 6  234 235 
 CHI  HZ EP       1715 51.72                             117     0.0 8  247 195 
 CHI  HN ES   2   1716 20.75                             117    -0.3 4  247 195 
 CHI  HZ I        1716 27.20        14.8 0.56            114            247 195 
 HEL  HZ EP       1715 55.24                             115     0.9 8  271 256 
 HEL  HZ I        1716 32.57        19.1 0.36            111            271 256 
 DBB  SZ EP   1   1716  1.82                             109     0.2 5  339 274 
