 2011  2 1 1128 36.3 L   6.780 -73.112142.9  RSN  7 0.1 2.2LRSN                1
 GAP=163        0.36       1.5     2.8  2.7 -0.2191E+01  0.2379E+01 -0.2332E+00E
 Epicentro: LOS SANTOS - SANTANDER                                             3
 ACTION:UP  11-03-28 15:05 OP:jfem STATUS:               ID:20110201112836 L   I
 2011-02-01-1126-13S.COL___138                                                 6
 STAT SP IPHASW D HRMM SECON CODA AMPLIT PERI AZIMU VELO SNR AR TRES W  DIS CAZ7
 BAR2 SZ IP     D 1128 55.60                             171     0.010   22 201 
 BAR2 SZ ES       1129 10.54                             171    -0.110   22 201 
 BAR2 SZ I        1129 11.75        44.7 0.30                            22 201 
 BTL  SZ IP     C 1128 55.66                             170     0.110   23 312 
 RUS  HZ EP       1128 59.63                             144     0.010   98 178 
 RUS  HN ES       1129 17.80                             144     0.010   98 178 
 RUS  HZ I        1129 19.80        16.1 0.88                            98 178 
 GRA  SZ IP     D 1129  1.38                             136     0.010  127  16 
 GRA  SZ ES       1129 20.95                             136     0.010  127  16 
 GRA  SZ I        1129 22.12        16.3 0.35                           127  16 
 NOR  SZ EP   1   1129 11.66                             118    -0.4 6  237 236 
 NOR  SN ES       1129 40.03                             118     0.0 8  237 236 
 CHI  HZ EP       1129 13.90                             117     0.2 8  248 196 
 CHI  HE ES       1129 42.89                             117     0.0 8  248 196 
 CHI  HZ I        1129 46.63        14.7 0.78                           248 196 
 HEL  HN ES   2   1129 48.50                             114     0.2 4  275 256 
                                                                                
