 2014  6 1 1413 10.3 L   6.377 -73.477116.5  RSN  9 0.4 2.0LRSN                1
 GAP= 87        0.99       3.1     3.9  6.5 -0.1887E+01  0.1416E+02 -0.1934E+01E
 Epicentro: CONTRATACION - SANTANDER                                           3
 ACTION:UPD 14-07-01 22:49 OP:nd   STATUS:               ID:20140601141310 L   I
 OLDACT:UP  14-06-01 21:33 OP:cam  STATUS:               ID:20140601141000     3
 OLDACT:REG 14-06-01 20:43 OP:cam  STATUS:               ID:20140601141000     3
 2014-06-01-1410-00M.COL___276                                                 6
 STAT SP IPHASW D HRMM SECON CODA AMPLIT PERI AZIMU VELO AIN AR TRES W  DIS CAZ7
 BAR2 SZ EP     C 1413 27.45                             159    0.4310 40.4  54 
 BAR2 SZ ES       1413 39.80                             159   -0.2510 40.4  54 
 RUS  HZ EP       1413 29.16                             147    0.2210 69.0 141 
 RUS  HE ES       1413 43.51                             147    0.0310 69.0 141 
 RUS  HZ I        1413 45.64        17.5 0.30            153           69.0 141 
 BRR  HZ EP     D 1413 29.32                             141   -0.0510 84.8 342 
 BRR  HE ES       1413 44.47                             141    0.2410 84.8 342 
 BRR  HZ I        1413 44.98        12.3 0.16            142           84.8 342 
 SPBC HZ EP     C 1413 30.94                             135   -0.0910  104 219 
 SPBC HE ES       1413 47.02                             135   -0.1710  104 219 
 SPBC HZ I        1413 51.84        15.6 0.34            137            104 219 
 NOR  HZ EP       1413 37.66                             119   -0.65 9  178 240 
 NOR  HN ES       1413 59.22                             119   -0.92 9  178 240 
 NOR  HZ I        1414  1.73        13.8 0.18            120            178 240 
 ZAR  HZ EP       1413 40.17                             116   -0.00 9  196 309 
 ZAR  HN ES       1414  3.30                             116   -0.17 9  196 309 
 ZAR  HZ I        1414  9.58        13.1 0.26            117            196 309 
 HEL  HZ EP       1413 44.33                             112    0.17 8  228 265 
 HEL  HN ES       1414 11.41                             112    0.84 8  228 265 
 HEL  HZ I        1414 14.46         5.0 0.22            114            228 265 
 GUY2CHZ EP       1413 46.67                             111    0.46 8  245 239 
 GUY2CHN ES       1414 14.72                             111    0.50 8  245 239 
 GUY2CHZ I        1414 23.13         5.3 0.42                           245 239 
 SML  HZ EP   1   1413 48.69                             108   -0.51 6  276 346 
 SML  HE ES   1   1414 19.14                             108   -0.39 6  276 346 
 SML  HZ I        1414 25.00        14.8 0.10            110            276 346 
                                                                                
