 2013 10 1 1642 46.7 L   6.359 -73.009113.3  RSN  4 0.2 1.4LRSN                1
 GAP=260        0.50       7.6     4.3  9.3 -0.2400E+02 -0.5703E+01  0.3366E+02E
 Epicentro: COROMORO - SANTANDER                                               3
 ACTION:UPD 13-11-25 09:18 OP:ep   STATUS:               ID:20131001164246 L   I
 OLDACT:DUP 13-10-01 20:05 OP:stll STATUS:               ID:20131001163849d    3
 2013-10-01-1638-48M.COL___240                                                 6
 STAT SP IPHASW D HRMM SECON CODA AMPLIT PERI AZIMU VELO AIN AR TRES W  DIS CAZ7
 BAR2 SZ EP       1643  2.72                             163   -0.0410 32.2 323 
 BRR  HZ EP       1643  7.79                             131   -0.1510  114 317 
 PAM  SZ EP       1643  8.90                             132    0.2810  114  17 
 PAM  SZ I        1643  9.00         4.2 0.26            133            114  17 
 PAM  SN ES       1643 25.58                             132   -0.1010  114  17 
 PTB  HZ EP       1643 12.52                             121   -0.17 9  161 277 
 PTB  HN ES       1643 33.10                             121    0.17 9  161 277 
 PTB  HZ I        1643 37.16         4.6 0.44            121            161 277 
                                                                                
