 2011  5 1 1227 32.1 L   6.778 -73.086146.0  RSN  4 0.1 1.6LRSN                1
 GAP=166        0.37       2.8     6.1  4.2  0.5458E+01 -0.1075E+01 -0.1149E+01E
 Epicentro: LOS SANTOS - SANTANDER                                             3
 ACTION:UP  11-06-29 08:50 OP:tino STATUS:               ID:20110501122732 L   I
 2011-05-01-1227-16S.COL___128                                                 6
 STAT SP IPHASW D HRMM SECON CODA AMPLIT PERI AZIMU VELO SNR AR TRES W  DIS CAZ7
 BAR2 SZ EP       1227 51.80                             171     0.010   23 207 
 BAR2 SZ ES   1   1228  7.37                             171     0.3 7   23 207 
 BAR2 SZ I        1228  8.49         6.6 0.12                            23 207 
 BRR  HZ EP       1227 53.71                             150     0.010   78 298 
 BRR  HZ I        1227 57.37        13.3 0.30                            78 298 
 BRR  HN ES   2   1228 10.41                             150    -0.1 5   78 298 
 RUS  HZ EP       1227 55.69                             145     0.010   98 180 
 RUS  HN ES   1   1228 13.98                             145    -0.1 7   98 180 
 RUS  HZ I        1228 15.89         3.9 0.52                            98 180 
 GRA  SZ EP   3   1227 57.75                             137     0.3 2  126  14 
 GRA  SZ ES   2   1228 17.02                             137    -0.2 5  126  14 
                                                                                
