 2016 11 1 1522 38.3 L   6.814 -73.192137.6  RSN  7 0.3 1.8LRSN                1
 GAP=145        0.76       3.5     3.8  5.3 -0.5485E+01  0.4852E+01  0.2461E+01E
 Epicentro: ZAPATOCA - SANTANDER                                               3
 ACTION:UPD 17-10-26 21:03 OP:lp   STATUS:               ID:20161101152238 L   I
 OLDACT:REG 16-11-01 20:51 OP:cog  STATUS:               ID:20161101151747     3
 2016-11-01-1518-00M.COL___331                                                 6
 STAT SP IPHASW D HRMM SECON CODA AMPLIT PERI AZIMU VELO AIN AR TRES W  DIS CAZ7
 BAR2 EZ EP       1522 56.96                             169    0.0210 24.5 178 
 BAR2 EZ ES       1523 10.93                             169   -0.5710 24.5 178 
 PAM  EZ EP       1522 59.88                             148    0.1310 79.6  43 
 PAM  EE ES       1523 16.84                             148    0.3210 79.6  43 
 PAM  EZ I        1523 19.86         7.1 0.39            152           79.6  43 
 RUS  HZ EP       1523  1.06                             141   -0.3110  103 173 
 RUS  HE ES       1523 19.75                             141    0.3610  103 173 
 RUS  HZ I        1523 21.03         7.7 0.40            143            103 173 
 PTB  HZ EP       1523  3.80                             131   -0.34 9  143 258 
 PTB  HN ES       1523 24.33                             131    0.01 9  143 258 
 PTB  HZ I        1523 27.51         8.0 0.12            131            143 258 
 SPBC HZ EP       1523  5.92                             127   -0.04 9  161 217 
 SPBC HN ES       1523 27.62                             127    0.07 9  161 217 
 NOR  HN ES       1523 40.96                             117    0.55 8  231 233 
 NOR  HN I        1523 48.60        16.9 0.22            118            231 233 
 CHI  HZ EP       1523 15.59                             115    0.05 8  249 194 
 CHI  HE ES       1523 44.48                             115   -0.14 8  249 194 
 CHI  HZ I        1523 48.50         4.3 0.37            117            249 194 
                                                                                
