 2010  7 1 1448 25.4 L   6.854 -72.987146.0  RSN  4 0.3 1.9LRSN                1
 GAP=213        0.70       7.9    10.7  9.2 -0.1204E+02 -0.3132E+02  0.1665E+02E
 Epicentro: CEPITA - SANTANDER                                                 3
 ACTION:UPD 10-12-01 15:14 OP:pat  STATUS:               ID:20100701144825 L   I
 2010-07-01-1448-12S.COL___118                                                 6
 STAT SP IPHASW D HRMM SECON CODA AMPLIT PERI AZIMU VELO AIN AR TRES W  DIS CAZ7
 BAR2 SZ IP       1448 45.48                             166     0.110   36 217 
 BAR2 SZ ES   2   1449  1.01                             166     0.0 5   36 217 
 BTN  SZ EP   1   1448 46.65                             152    -0.6 7   75 350 
 BTN  SZ ES   1   1449  4.44                             152     0.1 7   75 350 
 BRR  HZ IP     C 1448 47.41                             148     0.010   85 289 
 BRR  HE ES   1   1449  4.62                             148     0.0 7   85 289 
 BRR  HZ I        1449  7.08        14.9 0.11                            85 289 
 GUE  SZ EP   2   1448 50.31                             142     0.8 5  108   4 
                                                                                
