 2011  7 1 1509 31.6 L   6.775 -73.123142.7  RSN 17 0.3 2.8LRSN                1
 GAP=117        0.63       2.2     3.5  3.7 -0.2302E+01  0.4261E+01  0.1740E+01E
 Epicentro: LOS SANTOS - SANTANDER                                             3
 ACTION:UPD 12-07-25 13:57 OP:epov STATUS:               ID:20110701150931 L   I
 2011-07-01-1507-57S.COL___140                                                 6
 STAT SP IPHASW D HRMM SECON CODA AMPLIT PERI AZIMU VELO AIN AR TRES W  DIS CAZ7
 BAR2 SZ IP       15 9 50.80                             171   -0.0210 21.3 198 
 BAR2 SZ ES   1   1510  5.68                             171   -0.13 7 21.3 198 
 BAR2 SZ I        1510  8.32       147.5 0.30                          21.3 198 
 BRR  HZ EP       15 9 52.69                             151    0.0610 74.7 299 
 BRR  HE ES   1   1510  9.51                             151    0.49 7 74.7 299 
 BRR  HZ I        1510 11.29       118.5 0.13                          74.7 299 
 PAM  SZ IP       15 9 53.81                             150    0.2810 78.0  37 
 PAM  SN ES   1   1510 10.70                             150    0.07 7 78.0  37 
 RUS  HZ EP       15 9 54.67                             144   -0.1810 97.7 177 
 RUS  HZ I        15 9 55.42        38.4 0.25                          97.7 177 
 RUS  HN ES   1   1510 12.85                             144   -0.12 7 97.7 177 
 BRI  SZ IP       15 9 55.45                             140    0.1210  110  19 
 BRI  SZ ES   1   1510 13.44                             140   -0.40 7  110  19 
 GRA  SZ IP       15 9 56.72                             136   -0.0110  128  16 
 GRA  SZ ES   1   1510 16.27                             136   -0.06 7  128  16 
 GRA  SZ I        1510 17.43        59.3 0.33                           128  16 
 OCA  SZ EP       15 9 59.63                             128   -0.33 9  163 352 
 OCA  SZ I        1510 25.42        68.1 0.17                           163 352 
 YOP  SZ EP       1510  1.35                             126    0.28 9  175 154 
 NOR  SZ EP       1510  6.78                             118   -0.43 8  235 235 
 NOR  SN ES   2   1510 34.37                             118   -0.61 4  235 235 
 CHI  HZ EP       1510  8.79                             117   -0.13 8  247 196 
 CHI  HZ I        1510 44.27        27.5 0.15                           247 196 
 ROSC BZ EP   3   1510  9.20                             116   -0.25 2  252 212 
 ROSC BZ I        1510 46.44        55.7 0.46                           252 212 
 HEL  HZ EP       1510 11.65                             114   -0.21 8  274 256 
 HEL  HZ I        1510 52.33        27.0 0.35                           274 256 
 VIL  SZ EP   3   1510 14.28                             112   -0.36 2  301 192 
 VIL  SN ES   1   1510 48.74                             112    0.53 5  301 192 
 RREF HZ EP       1510 17.70                             110    0.07 7  322 230 
 RREF HZ I        1511  3.28        32.3 0.42                           322 230 
 DBB  SZ EP       1510 19.84                             109    0.57 7  342 275 
 TOL  SZ EP       1510 20.34                             109    0.62 7  343 225 
 PRA  HZ EP       1510 24.29                             106   -0.60 6  391 210 
 PRA  HZ I        1511 10.52        43.3 0.16                           391 210 
                                                                                
