 2016  4 1 1512 35.2 L   7.096 -73.851 87.0  RSN  5 0.4 1.4LRSN                1
 GAP=146        0.95       3.8     2.8 10.8 -0.5944E+00 -0.5678E+01  0.4491E+01E
 Epicentro: BARRANCABERMEJA - SANTANDER                                        3
 ACTION:UPD 16-05-05 14:17 OP:rebc STATUS:               ID:20160401151235 L   I
 OLDACT:REG 16-04-01 19:43 OP:drio STATUS:               ID:20160401150750     3
 2016-04-01-1507-50M.COL___311                                                 6
 STAT SP IPHASW D HRMM SECON CODA AMPLIT PERI AZIMU VELO AIN AR TRES W  DIS CAZ7
 PTB  HZ IP     C 1512 51.78                             130   -0.3910 90.9 227 
 PTB  HN ES       1513  4.98                             130   -0.4510 90.9 227 
 PTB  HZ I        1513  6.20         9.6 0.10            135           90.9 227 
 ZAR  HZ EP       1512 55.34                             121    0.3110  120 292 
 ZAR  HE ES       1513 10.87                             121    0.3310  120 292 
 ZAR  HZ I        1513 15.41         8.7 0.26            127            120 292 
 PAM  EZ EP       1512 56.42                             119   -0.3510  130  78 
 PAM  EN ES       1513 13.70                             119    0.0810  130  78 
 PAM  EZ I        1513 17.96         6.5 0.48            124            130  78 
 RUS  HZ EP       1513  0.06                             114    0.22 9  158 147 
 RUS  HN ES       1513 19.44                             114    0.35 9  158 147 
 RUS  HZ I        1513 24.23         1.9 0.28            118            158 147 
 NOR  HZ EP       1513  3.99                             108   -0.56 9  203 214 
 NOR  HN ES       1513 28.02                             108    0.55 9  203 214 
 NOR  HZ I        1513 32.83         3.4 0.16            112            203 214 
                                                                                
