 2017  4 1 1626 39.3 L   6.805 -73.094151.8  RSN  5 0.3 1.9LRSN                1
 GAP=243        0.67       5.5     5.1  5.8  0.1636E+02  0.4111E+01 -0.3707E+01E
 Epicentro: LOS SANTOS - SANTANDER                                             3
 ACTION:UPD 17-05-30 21:07 OP:jn   STATUS:               ID:20170401162639 L   I
 OLDACT:UP  17-04-01 23:45 OP:dnl  STATUS:               ID:20170401161742     3
 OLDACT:REG 17-04-01 21:10 OP:dnl  STATUS:               ID:20170401161742     3
 2017-04-01-1618-00M.COL___359                                                 6
 STAT SP IPHASW D HRMM SECON CODA AMPLIT PERI AZIMU VELO AIN AR TRES W  DIS CAZ7
 BAR2 EZ EP       1626 59.74                             170    0.0810 25.5 203 
 BAR2 EZ ES       1627 15.45                             170   -0.1310 25.5 203 
 BAR2 EZ I        1627 18.25        13.3 0.32            171           25.5 203 
 BRR  HZ EP       1627  1.60                             152    0.2610 76.0 296 
 BRR  HE ES       1627 18.60                             152    0.0410 76.0 296 
 BRR  HZ I        1627 22.13        22.9 0.64            151           76.0 296 
 RUS  HZ EP   2   1627  4.19                             145    0.55 5  101 179 
 RUS  HN ES       1627 22.47                             145   -0.1810  101 179 
 RUS  HZ I        1627 23.51         5.0 0.16            149            101 179 
 PTB  HZ EP       1627  6.83                             132   -0.42 9  154 259 
 PTB  HE ES       1627 29.46                             132    0.39 9  154 259 
 PTB  HZ I        1627 31.07         5.9 0.38            134            154 259 
 ZAR  HZ EP   4   1627 14.03                             123    1.40 0  209 291 
 ZAR  HE ES       1627 38.39                             123   -0.27 8  209 291 
 ZAR  HZ I        1627 43.76        12.4 0.28            124            209 291 
                                                                                
