 2012  4 1 1433 26.3 L   6.789 -73.155144.0  RSN 11 0.4 1.9LRSN                1
 GAP=136        0.74       3.5     3.8  5.7 -0.1263E+01  0.5152E+01  0.5684E+01E
 Epicentro: LOS SANTOS - SANTANDER                                             3
 ACTION:UPD 12-07-05 11:49 OP:tino STATUS:               ID:20120401143326 L   I
 2012-04-01-1430-00M.COL___196                                                 6
 STAT SP IPHASW D HRMM SECON CODA AMPLIT PERI AZIMU VELO AIN AR TRES W  DIS CAZ7
 BAR2 SZ IP     D 1433 45.41                             171    -0.210   22 188 
 BAR2 SZ ES   1   1434  1.01                             171     0.2 7   22 188 
 BAR2 SZ I        1434  1.73        24.7 0.29                            22 188 
 BRR  HZ EP   1   1433 47.35                             152     0.1 7   71 300 
 BRR  HE ES   1   1434  4.21                             152     0.7 7   71 300 
 BRR  HZ I        1434  4.93        19.2 0.14                            71 300 
 PAM  SZ EP   1   1433 48.32                             150    -0.1 7   79  40 
 PAM  SE ES   1   1434  5.57                             150    -0.1 7   79  40 
 RUS  HZ EP   1   1433 49.54                             144    -0.2 7   99 175 
 RUS  HZ I        1433 50.36         8.0 0.18                            99 175 
 RUS  HN ES   2   1434  8.00                             144    -0.1 5   99 175 
 PTB  HZ EP   1   1433 52.25                             132    -0.7 7  146 259 
 PTB  HN ES   1   1434 13.33                             132    -0.5 7  146 259 
 PTB  HZ I        1434 16.76         7.7 0.18                           146 259 
 OCA  SZ EP   2   1433 55.24                             129     0.7 5  161 354 
 OCA  SZ ES   2   1434 16.31                             129    -0.3 5  161 354 
 ZAR  HZ EP   2   1433 58.37                             122    -0.2 4  204 293 
 ZAR  HE ES   1   1434 23.68                             122     0.0 6  204 293 
 ZAR  HZ I        1434 29.20        12.9 0.32                           204 293 
 NOR  SZ EP   1   1434  2.00                             118     0.3 6  233 235 
 NOR  SN ES   1   1434 29.26                             118    -0.1 6  233 235 
 CHI  HZ EP   1   1434  3.93                             117     0.2 6  247 195 
 CHI  HN ES   1   1434 33.29                             117     0.4 6  247 195 
 CHI  HZ I        1434 37.21         4.3 0.32                           247 195 
 HEL  HZ EP   1   1434  6.88                             115     0.6 6  271 256 
 HEL  HE ES   2   1434 37.29                             115    -0.1 4  271 256 
 HEL  HZ I        1434 43.82         5.4 0.36                           271 256 
 PRA  HZ EP   1   1434 19.15                             106    -0.4 4  390 210 
 PRA  HE ES   2   1435  1.81                             106     0.7 3  390 210 
                                                                                
