 2014 12 1 1717 56.3 L   6.797 -73.147142.0  RSN 11 0.5 2.3LRSN                1
 GAP=136        1.00       3.7     4.6  6.0 -0.8813E+00  0.7627E+01  0.4571E+01E
 Epicentro: LOS SANTOS - SANTANDER                                             3
 ACTION:UPD 15-02-10 16:59 OP:nd   STATUS:               ID:20141201171756 L   I
 OLDACT:UP  14-12-02 04:53 OP:mh   STATUS:               ID:20141201170745     3
 OLDACT:UP  14-12-02 04:52 OP:mh   STATUS:               ID:20141201170745     3
 OLDACT:UP  14-12-02 04:49 OP:mh   STATUS:               ID:20141201170745     3
 OLDACT:UP  14-12-02 04:49 OP:mh   STATUS:               ID:20141201170745     3
 OLDACT:UP  14-12-02 04:49 OP:mh   STATUS:               ID:20141201170745     3
 OLDACT:REG 14-12-01 20:58 OP:spq  STATUS:               ID:20141201170745     3
 2014-12-01-1707-45M.COL___303                                                 6
 STAT SP IPHASW D HRMM SECON CODA AMPLIT PERI AZIMU VELO AIN AR TRES W  DIS CAZ7
 BAR2 SZ EP       1718 15.53                             170    0.0410 23.0 190 
 BAR2 SZ ES       1718 30.23                             170   -0.2110 23.0 190 
 BAR2 SZ I        1718 31.89        72.1 0.17            169           23.0 190 
 BRR  HZ EP       1718 17.36                             152    0.3010 71.2 299 
 BRR  HN ES       1718 33.99                             152    0.7510 71.2 299 
 BRR  HZ I        1718 37.75        26.1 0.50            150           71.2 299 
 PAM  SZ EP       1718 18.35                             150    0.2010 77.7  39 
 PAM  SN ES   1   1718 35.00                             150   -0.18 7 77.7  39 
 PAM  SZ I        1718 37.57        36.9 0.45            154           77.7  39 
 RUS  HZ EP       1718 19.41                             143   -0.2710  100 176 
 RUS  HN ES       1718 38.28                             143    0.3810  100 176 
 RUS  HZ I        1718 38.91        26.3 0.24            145            100 176 
 PTB  HZ EP       1718 22.13                             131   -0.83 9  148 259 
 PTB  HN ES   1   1718 43.22                             131   -0.52 7  148 259 
 PTB  HZ I        1718 44.67        18.6 0.24            131            148 259 
 OCA  HN ES   1   1718 45.37                             129   -0.87 7  161 353 
 ZAR  HZ EP   1   1718 29.25                             122    0.74 6  204 292 
 ZAR  HN ES   1   1718 53.78                             122    0.15 6  204 292 
 ZAR  HZ I        1719  0.14        15.5 0.38            122            204 292 
 NOR  HZ EP   1   1718 31.36                             118   -0.44 6  234 234 
 NOR  HN ES       1718 59.20                             118   -0.27 8  234 234 
 NOR  HZ I        1719  6.00        17.3 0.16            118            234 234 
 CHI  HZ EP       1718 33.60                             117   -0.17 8  248 195 
 CHI  HN ES   1   1719  2.85                             117   -0.14 6  248 195 
 CHI  HZ I        1719  6.38         8.0 0.58            118            248 195 
 GUY2CHZ EP   1   1718 40.04                             112    0.32 5  301 235 
 GUY2CHN ES   4   1719 17.11                             112    3.54 0  301 235 
 GUY2CHZ I        1719 21.58        12.6 0.26                           301 235 
 TOL  SZ EP   1   1718 45.08                             109    0.69 5  343 225 
 TOL  SN ES   1   1719 22.50                             109    0.62 5  343 225 
 TOL  SZ I        1719 28.24        22.3 0.46            110            343 225 
                                                                                
