 2017  8 1 1514 20.2 L   6.806 -73.160145.1  RSN  4 0.2 1.5LRSN                1
 GAP=243        0.58       5.7     4.4  5.2  0.1617E+02  0.8135E+00 -0.9456E+01E
 Epicentro: LOS SANTOS - SANTANDER                                             3
 ACTION:UPD 17-09-04 20:15 OP:rebc STATUS:               ID:20170801151420 L   I
 OLDACT:REG 17-08-01 20:55 OP:dhb  STATUS:               ID:20170801150736     3
 2017-08-01-1508-00M.COL___386                                                 6
 STAT SP IPHASW D HRMM SECON CODA AMPLIT PERI AZIMU VELO AIN AR TRES W  DIS CAZ7
 BAR2 EZ EP       1514 39.63                             170   -0.1110 23.8 186 
 BAR2 EZ ES       1514 54.92                             170   -0.0710 23.8 186 
 BAR2 EZ I        1514 56.48         5.0 0.30            167           23.8 186 
 RUS  HZ EP       1514 44.28                             143    0.3610  101 175 
 RUS  HN ES       1515  2.44                             143    0.0010  101 175 
 RUS  HZ I        1515  3.25         4.9 0.32            145            101 175 
 PTB  HZ EP       1514 46.62                             132   -0.35 9  146 258 
 PTB  HN ES       1515  7.82                             132   -0.04 9  146 258 
 PTB  HZ I        1515 13.68         3.8 0.25            131            146 258 
 ZAR  HZ EP       1514 52.32                             122   -0.09 9  202 292 
 ZAR  HN ES       1515 17.85                             122    0.31 9  202 292 
 ZAR  HZ I        1515 23.22         3.6 0.27            122            202 292 
                                                                                
