 2013  8 1 1737 27.9 L   6.768 -73.141145.2  RSN  7 0.4 1.9LRSN                1
 GAP=139        0.80       4.1     3.8  5.8 -0.3588E+00  0.3713E+01  0.1847E+01E
 Epicentro: LOS SANTOS - SANTANDER                                             3
 ACTION:UPD 14-01-14 08:58 OP:ep   STATUS:               ID:20130801173727 L   I
 OLDACT:DUP 13-08-01 20:14 OP:cam  STATUS:               ID:20130801172851d    3
 2013-08-01-1728-50M.COL___250                                                 6
 STAT SP IPHASW D HRMM SECON CODA AMPLIT PERI AZIMU VELO AIN AR TRES W  DIS CAZ7
 BAR2 SZ EP       1737 47.21                             172   -0.2210 20.0 193 
 BAR2 SZ ES   1   1738  2.40                             172   -0.23 7 20.0 193 
 BAR2 SZ I        1738  4.71        13.8 0.13            170           20.0 193 
 GIR2 SZ EP   1   1737 47.32                             166   -0.31 7 34.9 350 
 GIR2 SZ ES       1738  3.13                             166    0.1310 34.9 350 
 GIR2 SZ I        1738  3.82        11.5 0.15            165           34.9 350 
 BRR  HZ EP   1   1737 49.23                             152    0.09 7 73.4 301 
 BRR  HE ES       1738  6.28                             152    0.5910 73.4 301 
 BRR  HZ I        1738  9.05        18.7 0.20            150           73.4 301 
 PAM  SZ EP       1737 50.23                             150    0.0010 79.8  38 
 PAM  SN ES       1738  7.34                             150   -0.2810 79.8  38 
 PAM  SZ I        1738  9.24        19.3 0.52            153           79.8  38 
 RUS  HZ EP   1   1737 51.48                             145    0.11 7 97.0 176 
 RUS  HN ES       1738 10.02                             145    0.3710 97.0 176 
 RUS  HZ I        1738 11.06         9.0 0.34            147           97.0 176 
 PTB  HZ EP   1   1737 54.87                             132    0.03 7  148 260 
 PTB  HN ES       1738 15.25                             132   -0.58 9  148 260 
 PTB  HZ I        1738 20.78         6.3 0.12            132            148 260 
 ZAR  HZ EP   2   1738  1.43                             122    0.90 4  206 293 
 ZAR  HN ES   1   1738 25.80                             122   -0.16 6  206 293 
 ZAR  HZ I        1738 30.83        10.4 0.32            122            206 293 
                                                                                
