 2014 10 1 1511 49.3 L   6.755 -73.211142.6  RSN  4 0.2 1.7LRSN                1
 GAP=193        0.59       3.9     4.5  5.2  0.1394E+01  0.4373E+01 -0.4254E+01E
 Epicentro: ZAPATOCA - SANTANDER                                               3
 ACTION:UPD 14-11-29 23:45 OP:nd   STATUS:               ID:20141001151149 L   I
 OLDACT:REG 14-10-01 22:32 OP:cam  STATUS:               ID:20141001151000     3
 2014-10-01-1510-00M.COL___252                                                 6
 STAT SP IPHASW D HRMM SECON CODA AMPLIT PERI AZIMU VELO AIN AR TRES W  DIS CAZ7
 BAR2 SZ EP       1512  8.19                             172   -0.2210 18.3 170 
 BAR2 SZ ES       1512 23.36                             172    0.0110 18.3 170 
 BAR2 SZ I        1512 24.54         9.0 0.26            170           18.3 170 
 BRR  HZ EP       1512 10.33                             153    0.4710 67.7 305 
 BRR  HE ES       1512 25.90                             153   -0.0410 67.7 305 
 BRR  HE I        1512 28.23        14.2 0.18            151           67.7 305 
 PTB  HZ EP       1512 15.11                             133   -0.13 9  140 260 
 PTB  HN ES       1512 35.49                             133   -0.02 9  140 260 
 PTB  HZ I        1512 40.60         5.1 0.12            132            140 260 
 SML  HN ES       1512 54.32                             117   -0.14 8  245 337 
                                                                                
