 2013  2 1 1109  8.6 L   6.814 -73.144146.0  RSN  9 0.5 1.8LRSN                1
 GAP=136        1.01       4.0     5.1  7.8  0.2075E+00  0.7188E+01  0.8578E+01E
 Epicentro: LOS SANTOS - SANTANDER                                             3
 ACTION:UPD 13-03-12 09:29 OP:ep   STATUS:               ID:20130201110908 L   I
 2013-02-01-1108-49M.COL___173                                                 6
 STAT SP IPHASW D HRMM SECON CODA AMPLIT PERI AZIMU VELO AIN AR TRES W  DIS CAZ7
 BAR2 SZ IP     D 11 9 28.25                             170    0.0010 24.9 190 
 BAR2 SZ ES   2   11 9 43.64                             170    0.03 5 24.9 190 
 BRR  HZ I        11 9 30.01        22.3 0.28            143           70.6 297 
 BRR  HZ EP     C 11 9 30.04                             153    0.3410 70.6 297 
 BRR  HN ES       11 9 46.94                             153    0.7610 70.6 297 
 PAM  SZ EP       11 9 31.00                             151    0.2810 76.1  40 
 PAM  SZ I        11 9 31.37        25.9 0.20            140           76.1  40 
 PAM  SN ES       11 9 48.02                             151    0.0210 76.1  40 
 RUS  HZ EP       11 9 32.35                             144   -0.0910  102 176 
 RUS  HN ES   1   11 9 50.83                             144   -0.25 7  102 176 
 RUS  HZ I        11 9 52.31         6.4 0.32            129            102 176 
 PTB  HZ EP   1   11 9 35.14                             132   -0.44 7  148 258 
 PTB  HN ES   1   11 9 55.92                             132   -0.74 7  148 258 
 PTB  HZ I        11 9 57.93         6.0 0.10            119            148 258 
 OCA  HN ES       11 9 57.85                             130   -0.87 9  159 353 
 ZAR  HZ EP   1   11 9 41.02                             123    0.05 6  204 292 
 ZAR  HN ES   1   1110  6.31                             123    0.06 6  204 292 
 ZAR  HZ I        1110 11.45         8.9 0.26            111            204 292 
 CHI  HZ EP   1   11 9 46.79                             117    0.35 6  250 195 
 CHI  HN ES   1   1110 15.40                             117   -0.59 6  250 195 
 CHI  HZ I        1110 19.08         1.9 0.22            106            250 195 
 HEL  HZ EP   2   11 9 50.03                             115    1.19 4  273 255 
 HEL  HE ES   4   1110 22.71                             115    2.45 0  273 255 
 HEL  HZ I        1110 27.20         3.8 0.60            105            273 255 
                                                                                
