 2017 10 1 1810 20.4 L   6.539 -73.500110.8  RSN  7 0.6 2.0LRSN                1
 GAP=100        1.03       4.1     4.9  7.7  0.6094E+01  0.1238E+02  0.6155E+01E
 Epicentro: EL CARMEN - SANTANDER                                              3
 ACTION:UPD 17-11-07 19:27 OP:rebc STATUS:               ID:20171001181020 L   I
 OLDACT:UP  17-10-02 10:20 OP:dani STATUS:               ID:20171001180740     3
 OLDACT:UP  17-10-02 10:19 OP:dani STATUS:               ID:20171001180740     3
 OLDACT:REG 17-10-01 20:40 OP:edw  STATUS:               ID:20171001180740     3
 2017-10-01-1808-00M.COL___402                                                 6
 STAT SP IPHASW D HRMM SECON CODA AMPLIT PERI AZIMU VELO AIN AR TRES W  DIS CAZ7
 BAR2 EZ IP     C 1810 36.15                             162   -0.0810 35.6  81 
 BAR2 EZ ES       1810 48.61                             162    0.0210 35.6  81 
 BAR2 EZ I        1810 49.69       149.0 0.48            165           35.6  81 
 RUS  HZ EP       1810 39.10                             140   -0.5110 85.1 147 
 RUS  HN ES       1810 54.43                             140   -0.1710 85.1 147 
 RUS  HZ I        1810 58.29         4.5 0.28            141           85.1 147 
 PAM  EZ EP       1810 42.93                             128   -0.2010  125  45 
 PAM  EN ES       1811  0.58                             128   -0.2910  125  45 
 PAM  EZ I        1811  2.16        12.8 0.18            132            125  45 
 YPLC HZ EP       1810 47.97                             117    0.04 9  177 135 
 YPLC HN ES       1811 10.35                             117    0.94 9  177 135 
 YPLC HZ I        1811 12.04        20.1 0.42            119            177 135 
 ZAR  HZ EP   3   1810 46.32                             116   -2.21 2  183 305 
 ZAR  HN ES       1811 11.19                             116    0.71 9  183 305 
 ZAR  HZ I        1811 12.67        13.9 0.34            118            183 305 
 NOR  HZ EP   3   1810 47.59                             116   -1.29 2  186 235 
 NOR  HE ES   3   1811  9.46                             116   -1.65 2  186 235 
 NOR  HZ I        1811 13.38         4.2 0.34            117            186 235 
 PRA  HZ EP       1811  7.85                             102    0.18 6  348 206 
 PRA  HN ES   3   1811 46.14                             102    1.59 2  348 206 
 PRA  HZ I        1811 48.95         5.5 0.26            103            348 206 
                                                                                
