 2017  5 1 1548  5.9 L   6.765 -73.147144.3  RSN  5 0.3 1.2LRSN                1
 GAP=138        0.73       3.7     3.3  6.5  0.8216E+00  0.3814E+01  0.2230E+01E
 Epicentro: LOS SANTOS - SANTANDER                                             3
 ACTION:UPD 17-06-16 13:31 OP:jn   STATUS:               ID:20170501154805 L   I
 OLDACT:REG 17-05-01 20:14 OP:edw  STATUS:               ID:20170501154741     3
 2017-05-01-1548-00M.COL___377                                                 6
 STAT SP IPHASW D HRMM SECON CODA AMPLIT PERI AZIMU VELO AIN AR TRES W  DIS CAZ7
 BRR  HZ EP     C 1548 26.93                             152   -0.0910 73.0 301 
 BRR  HE ES       1548 43.59                             152    0.1210 73.0 301 
 PAM  EZ EP     D 1548 28.07                             149   -0.1010 80.5  38 
 PAM  EN ES       1548 45.44                             149   -0.0910 80.5  38 
 PAM  EZ I        1548 45.57         2.8 0.28            152           80.5  38 
 RUS  HZ EP       1548 29.74                             145    0.4910 96.7 176 
 RUS  HN ES       1548 47.39                             145   -0.0510 96.7 176 
 RUS  HZ I        1548 49.80         2.4 0.14            144           96.7 176 
 PTB  HZ EP     C 1548 32.28                             132   -0.41 9  147 260 
 PTB  HN ES       1548 53.30                             132   -0.27 9  147 260 
 PTB  HZ I        1548 55.46         2.5 0.42            133            147 260 
 ZAR  HN ES       1549  4.20                             122    0.44 8  205 293 
                                                                                
