 2012  9 1 1244 12.3 L   6.731 -73.133147.5  RSN  5 0.4 1.6LRSN                1
 GAP=164        0.77       9.3     5.9  9.1 -0.9449E+01  0.1405E+02  0.1718E+02E
 Epicentro: JORDAN - SANTANDER                                                 3
 ACTION:UPD 12-10-22 14:16 OP:ep   STATUS:               ID:20120901124412 L   I
 2012-09-01-1240-00M.COL___218                                                 6
 STAT SP IPHASW D HRMM SECON CODA AMPLIT PERI AZIMU VELO AIN AR TRES W  DIS CAZ7
 BAR2 SZ EP       1244 32.22                             173    0.2110 16.2 200 
 BAR2 SZ ES   1   1244 47.14                             173   -0.24 7 16.2 200 
 BAR2 SZ I        1244 49.08         9.8 0.35                          16.2 200 
 BRR  HZ EP   1   1244 34.28                             151    0.36 7 76.3 303 
 BRR  HN ES   1   1244 51.41                             151    0.62 7 76.3 303 
 PAM  SN ES   1   1244 52.28                             149   -0.44 7 82.6  35 
 PTB  HZ EP   1   1244 39.13                             132   -0.28 7  148 262 
 PTB  HN ES   1   1245  0.36                             132   -0.20 7  148 262 
 PTB  HZ I        1245  7.98         4.7 0.45                           148 262 
 ZAR  HE ES   2   1245 10.25                             122   -0.78 4  208 294 
                                                                                
