 2013  4 1 1055 33.6 L   6.790 -73.137149.4  RSN  6 0.5 1.7LRSN                1
 GAP=201        0.94       6.7     7.8  9.1  0.1992E+02  0.9722E+01 -0.1879E+02E
 Epicentro: LOS SANTOS - SANTANDER                                             3
 ACTION:UPD 13-05-22 14:35 OP:EP   STATUS:               ID:20130401105533 L   I
 2013-04-01-1049-52M.COL___203                                                 6
 STAT SP IPHASW D HRMM SECON CODA AMPLIT PERI AZIMU VELO AIN AR TRES W  DIS CAZ7
 BAR2 SZ EP       1055 53.74                             171    0.0910 22.4 193 
 BAR2 SZ ES   1   1056  8.81                             171   -0.48 7 22.4 193 
 BAR2 SZ I        1056 10.37        12.8 0.54            170           22.4 193 
 BRR  HZ IP     D 1055 55.61                             153    0.3910 72.6 299 
 BRR  HE ES   1   1056 13.00                             153    0.92 7 72.6 299 
 BRR  HZ I        1056 18.54         5.3 0.34            150           72.6 299 
 RUS  HE ES   1   1056 16.11                             145   -0.26 7 99.4 177 
 PTB  HZ EP       1056  0.88                             133   -0.05 9  148 259 
 PTB  HN ES   1   1056 21.66                             133   -0.59 7  148 259 
 PTB  HZ I        1056 25.68         3.3 0.10            134            148 259 
 ZAR  HZ EP   1   1056  6.84                             123    0.42 6  205 292 
 ZAR  HN ES   1   1056 31.85                             123   -0.16 6  205 292 
 ZAR  HZ I        1056 37.53         6.1 0.34            124            205 292 
 SML  HZ EP   2   1056 10.25                             118   -0.33 4  245 335 
 SML  HN ES   1   1056 38.57                             118   -0.86 6  245 335 
 SML  HZ I        1056 41.43         6.0 0.52            120            245 335 
                                                                                
