 2011  4 1 1950 23.8 L   6.835 -73.305118.5  RSN 10 0.4 2.3LRSN                1
 GAP= 99        0.96       4.9     6.0  8.6 -0.5547E+01  0.5170E+01  0.1475E+02E
 Epicentro: ZAPATOCA - SANTANDER                                               3
 ACTION:UP  11-06-22 15:27 OP:REBC STATUS:               ID:20110401195023 L   I
 2011-04-01-1940-00M.COL___140                                                 6
 STAT SP IPHASW D HRMM SECON CODA AMPLIT PERI AZIMU VELO SNR AR TRES W  DIS CAZ7
 BTL  SZ EP       1950 40.50                             175     0.610   10  24 
 GIR2 SZ EP       1950 40.80                             165     0.610   30  25 
 BAR2 SZ EP       1950 40.19                             165    -0.210   30 153 
 BAR2 SZ ES   2   1950 52.85                             165    -0.4 5   30 153 
 BAR2 SZ I        1950 54.72        69.4 0.19                            30 153 
 BRR  HZ EP       1950 40.57                             154    -0.510   54 304 
 BRR  HE ES   1   1950 54.65                             154     0.2 7   54 304 
 BRR  HZ I        1950 55.89        70.8 0.13                            54 304 
 PAM  SZ EP   1   1950 43.45                             142    -0.5 7   87  50 
 PAM  SN ES   2   1950 59.75                             142     0.1 5   87  50 
 OCA  SZ EP   1   1950 49.74                             124     0.1 7  155 359 
 OCA  SZ ES   1   1951  9.27                             124    -0.5 7  155 359 
 OCA  SZ I        1951 15.35        43.3 0.22                           155 359 
 YOP  SZ EP   1   1950 53.37                             118     0.0 7  191 149 
 YOP  SZ I        1950 53.93        16.8 0.42                           191 149 
 NOR  SZ EP   1   1950 56.64                             113    -0.2 6  223 231 
 NOR  SN ES   2   1951 23.07                             113     0.5 4  223 231 
 CHI  HZ EP   1   1951  0.03                             111    -0.1 6  248 191 
 CHI  HN ES   2   1951 27.78                             111    -0.7 4  248 191 
 CHI  HZ I        1951 33.14         7.2 0.39                           248 191 
 HEL  HZ EP   1   1951  1.47                             110     0.5 6  256 254 
 HEL  HN ES   2   1951 29.22                             110    -0.7 4  256 254 
 HEL  HZ I        1951 34.67        12.5 0.28                           256 254 
                                                                                
