 2014 11 1 1145 58.2 L   6.760 -73.122145.2  RSN 13 0.3 1.9LRSN                1
 GAP=141        0.78       3.3     3.6  5.4 -0.2746E+01  0.2691E+01  0.4419E+01E
 Epicentro: LOS SANTOS - SANTANDER                                             3
 ACTION:UPD 14-12-19 15:38 OP:nd   STATUS:               ID:20141101114558 L   I
 OLDACT:DUP 14-11-01 22:44 OP:spq  STATUS:               ID:20141101113747d    3
 2014-11-01-1137-46M.COL___265                                                 6
 STAT SP IPHASW D HRMM SECON CODA AMPLIT PERI AZIMU VELO AIN AR TRES W  DIS CAZ7
 BAR2 SZ EP     D 1146 17.78                             172    0.1110 19.7 200 
 BAR2 SZ ES   1   1146 32.37                             172   -0.51 7 19.7 200 
 BAR2 SZ I        1146 33.56        19.5 0.33            168           19.7 200 
 BRR  HZ EP     C 1146 19.69                             151    0.1710 75.6 301 
 BRR  HE ES       1146 36.64                             151    0.4810 75.6 301 
 BRR  HZ I        1146 41.04        18.4 0.12            145           75.6 301 
 PAM  SZ EP     C 1146 20.65                             150    0.2110 79.3  36 
 PAM  SN ES       1146 37.45                             150   -0.3610 79.3  36 
 PAM  SZ I        1146 38.62        11.3 0.18            152           79.3  36 
 RUS  HZ EP       1146 21.73                             145    0.1810 96.1 177 
 RUS  HE ES       1146 39.85                             145    0.0710 96.1 177 
 RUS  HZ I        1146 41.04        12.4 0.22            145           96.1 177 
 PTB  HZ EP       1146 24.58                             131   -0.68 9  150 261 
 PTB  HN ES       1146 46.27                             131   -0.11 9  150 261 
 PTB  HZ I        1146 48.10        12.0 0.15            128            150 261 
 SPBC HZ EP       1146 26.83                             129    0.36 9  161 221 
 SPBC HN ES       1146 48.54                             129    0.00 9  161 221 
 SPBC HZ I        1146 53.30        10.7 0.32            127            161 221 
 OCA  HE ES   4   1146 47.95                             129   -1.33 0  165 352 
 OCA  HZ I        1146 50.09        11.6 0.20            127            165 352 
 CHI  HZ EP   1   1146 34.87                             117   -0.59 6  245 196 
 CHI  HN ES   1   1147  4.78                             117    0.24 6  245 196 
 CHI  HZ I        1147  9.18         1.9 0.24            117            245 196 
 HEL  HZ EP   4   1146 39.96                             114    1.44 0  274 257 
 HEL  HN ES   1   1147  9.87                             114   -0.12 6  274 257 
 HEL  HZ I        1147 16.59         6.9 0.44            113            274 257 
 GUY2CHN ES   4   1147 17.99                             112    2.31 0  301 236 
 GUY2CHZ I        1147 23.04         3.6 0.28                           301 236 
 TOL  SN ES   4   1147 25.45                             109    1.68 0  342 225 
 TOL  SZ I        1147 29.75         5.7 0.64            108            342 225 
 MON  HN ES   4   1147 24.37                             108   -1.97 0  358 309 
 MON  HZ I        1147 39.21         2.4 0.56            107            358 309 
 PRA  HN ES   1   1147 32.77                             106   -0.11 4  389 210 
 PRA  HZ I        1147 35.52         2.7 0.32            106            389 210 
 SJC  HZ EP   4   1146 52.61                             105   -1.71 0  414 327 
                                                                                
