 2017  8 1 1844 41.0 L   6.825 -73.155140.6  RSN 24 0.6 2.9LRSN                1
 GAP= 64        1.32       3.3     3.0  5.5  0.6130E+00  0.4683E+01  0.2293E+01E
 Epicentro: LOS SANTOS - SANTANDER                                             3
 ACTION:UPD 17-09-04 20:15 OP:rebc STATUS:               ID:20170801184441 L   I
 OLDACT:UP  17-08-02 01:35 OP:dhb  STATUS:               ID:20170801183738     3
 OLDACT:UP  17-08-02 01:35 OP:dhb  STATUS:               ID:20170801183738     3
 OLDACT:REG 17-08-01 21:18 OP:dhb  STATUS:               ID:20170801183738     3
 2017-08-01-1838-00M.COL___386                                                 6
 STAT SP IPHASW D HRMM SECON CODA AMPLIT PERI AZIMU VELO AIN AR TRES W  DIS CAZ7
 BAR2 EZ IP     C 1845  0.03                             169   -0.0310 25.9 187 
 BAR2 EZ ES       1845 14.28                             169   -0.6510 25.9 187 
 BAR2 EZ I        1845 15.97       310.8 0.22            167           25.9 187 
 BRR  HZ IP     C 1845  1.83                             152    0.3710 69.0 297 
 BRR  HN ES       1845 18.31                             152    0.8910 69.0 297 
 BRR  HZ I        1845 21.92       171.7 0.28            151           69.0 297 
 PAM  EZ IP     C 1845  2.97                             150    0.4010 76.0  41 
 PAM  EN ES       1845 19.82                             150    0.4110 76.0  41 
 PAM  EZ I        1845 22.29       235.4 0.64            155           76.0  41 
 RUS  HZ IP     C 1845  3.98                             142   -0.4710  103 176 
 RUS  HN ES       1845 22.44                             142   -0.3110  103 176 
 RUS  HZ I        1845 23.46        91.7 0.32            142            103 176 
 PTB  HZ EP       1845  6.61                             131   -0.89 9  147 258 
 PTB  HN ES       1845 27.42                             131   -0.75 9  147 258 
 PTB  HZ I        1845 29.81       103.3 0.14            130            147 258 
 TAM  HZ IP     D 1845  8.29                             129   -0.14 9  157 106 
 TAM  HN ES       1845 29.55                             129   -0.28 9  157 106 
 SPBC HZ EP       1845  8.91                             128   -0.33 9  165 218 
 SPBC HE ES       1845 30.92                             128   -0.36 9  165 218 
 SPBC HZ I        1845 34.40       122.2 0.16            127            165 218 
 YPLC HZ IP     D 1845 10.36                             125   -0.35 9  180 151 
 YPLC HE ES       1845 34.55                             125    0.66 9  180 151 
 YPLC HZ I        1845 36.89        51.2 0.22            126            180 151 
 ZAR  HZ EP       1845 13.04                             121    0.15 9  202 292 
 ZAR  HE ES       1845 38.90                             121    1.12 9  202 292 
 ZAR  HZ I        1845 44.79       138.1 0.28            122            202 292 
 TABC EZ EP   2   1845 18.05                             118    1.41 4  232 210 
 TABC EZ ES       1845 44.89                             118    0.45 8  232 210 
 TABC EZ I        1845 51.70        47.5 0.40            118            232 210 
 NOR  HZ IP     C 1845 16.47                             117   -0.04 8  235 234 
 NOR  HE ES       1845 44.18                             117   -0.03 8  235 234 
 NOR  HZ I        1845 47.93        62.7 0.48            118            235 234 
 CHI  HZ EP       1845 18.37                             116   -0.30 8  251 195 
 CHI  HN ES       1845 48.71                             116    0.65 8  251 195 
 CHI  HZ I        1845 53.54        23.5 0.26            116            251 195 
 ROSC BZ EP   9   1845 20.87                             115    1.83 0  255 211 
 ROSC BN ES       1845 50.18                                   -0.37 8  255 211 
 ROSC BZ I        1845 53.84        35.7 0.30            116            255 211 
 HEL  HZ EP       1845 21.79                             114    0.88 8  272 255 
 HEL  HN ES       1845 51.11                             114   -0.93 8  272 255 
 HEL  HZ I        1846  0.68        34.5 0.28            114            272 255 
 URE  HZ EP       1845 21.99                             113    0.40 7  282 291 
 URE  HE ES       1845 52.13                             113   -1.12 7  282 291 
 URE  HZ I        1845 55.44        51.4 0.14            113            282 291 
 GUY2CHZ EP       1845 24.50                             111    0.05 7  302 234 
 GUY2CHN ES       1845 58.59                             111    0.24 7  302 234 
 GUY2CHZ I        1846  6.60        47.5 0.44                           302 234 
 VIL  EZ EP       1845 25.49                             111    1.03 7  306 191 
 VIL  EN ES       1845 58.01                             111   -0.36 7  306 191 
 VIL  EZ I        1846  2.59        39.3 0.24            112            306 191 
 PTGC HZ IP   4 C 1845 23.13                             110   -1.83 0  312 159 
 PTGC HN ES   4   1845 56.46                             110   -2.80 0  312 159 
 PTGC HZ I        1846  1.18        33.7 0.32            112            312 159 
 LL6C HZ EP       1845 24.75                             110   -1.40 7  322 358 
 LL6C HN ES   4   1845 56.14                             110   -5.24 0  322 358 
 LL6C HZ I        1846  1.43        11.3 0.38            111            322 358 
 CBOC HZ EP       1845 28.11                             109    0.43 7  333 252 
 CBOC HN ES       1846  4.36                             109    0.26 7  333 252 
 CBOC HZ I        1846 15.73        10.4 0.23            109            333 252 
 DBB  EZ EP       1845 28.79                             109    0.67 7  338 274 
 DBB  EN ES       1846  4.58                             109   -0.29 7  338 274 
 DBB  EZ I        1846  7.00        35.2 0.44            109            338 274 
 PRA  HZ EP       1845 34.48                             105   -0.08 6  394 209 
 PRA  HN ES       1846 16.48                             105    0.14 6  394 209 
 PRA  HZ I        1846 22.78        35.7 0.24            106            394 209 
 ORTC HZ EP       1845 34.43                             105   -0.50 6  397 216 
 ORTC HN ES   2   1846 18.51                             105    1.51 3  397 216 
 ORTC HZ I        1846 24.71        11.1 0.18            106            397 216 
 SJC  HZ EP   4   1845 34.19                             105   -1.85 0  406 327 
 SJC  HE ES   4   1846 16.88                             105   -2.11 0  406 327 
 SJC  HZ I        1846 20.37        19.8 0.38            106            406 327 
                                                                                
