 2013  3 1 1614 30.3 L   7.392 -73.184126.2  RSN  4 0.2 1.2LRSN                1
 GAP=214        0.51       6.7     4.1  6.7 -0.1290E+02  0.6206E+01 -0.6039E+01E
 Epicentro: EL PLAYON - SANTANDER                                              3
 ACTION:UPD 13-04-09 13:59 OP:ep   STATUS:               ID:20130301161430 L   I
 2013-03-01-1610-00M.COL___228                                                 6
 STAT SP IPHASW D HRMM SECON CODA AMPLIT PERI AZIMU VELO AIN AR TRES W  DIS CAZ7
 PAM  SZ EP   1   1614 48.93                             156   -0.13 7 53.8  96 
 PAM  SN ES   1   1615  3.99                             156    0.27 7 53.8  96 
 PAM  SZ I        1615  5.83         3.3 0.38            165           53.8  96 
 BRR  HZ EP   1   1614 48.79                             150   -0.24 7 66.2 242 
 BRR  HN ES   1   1615  3.54                             150   -0.13 7 66.2 242 
 BRR  HZ I        1615  8.84         4.6 0.18            151           66.2 242 
 BAR2 SZ EP   1   1614 51.06                             143    0.19 7 88.4 180 
 BAR2 SZ ES   1   1615  6.69                             143   -0.24 7 88.4 180 
 BAR2 SZ I        1615  9.28         3.6 0.26            149           88.4 180 
 PTB  HN ES   1   1615 19.73                             123    0.34 7  169 236 
 PTB  HZ I        1615 23.17         2.1 0.16            127            169 236 
                                                                                
