 2010  8 1 1705  2.6 L   6.797 -73.040140.0  RSN  7 0.4 1.7LRSN                1
 GAP=171        0.70       4.8     9.5  7.3 -0.1251E+02 -0.5115E+01  0.7423E+00E
 Epicentro: CEPITA - SANTANDER                                                 3
 ACTION:UP  10-09-07 10:51 OP:vdl  STATUS:               ID:20100801170502 L   I
 2010-08-01-1701-09S.COL___122                                                 6
 STAT SP IPHASW D HRMM SECON CODA AMPLIT PERI AZIMU VELO SNR AR TRES W  DIS CAZ7
 BAR2 SZ EP   1   17 5 21.42                             168    -0.2 7   28 215 
 BAR2 SZ ES   2   17 5 36.41                             168     0.0 5   28 215 
 BAR2 SZ I        17 5 37.33        14.9 0.23                            28 215 
 GIR2 SZ EP   1   17 5 21.56                             165    -0.1 7   36 331 
 GIR2 SZ ES   2   17 5 36.73                             165     0.2 5   36 331 
 BRR  HZ EP   1   17 5 23.26                             148    -0.5 7   82 295 
 BRR  HZ I        17 5 25.14        12.4 0.13                            82 295 
 BRR  HE ES   2   17 5 40.24                             148     0.0 5   82 295 
 RUS  HZ EP   1   17 5 25.42                             143    -0.3 7  100 183 
 RUS  HE ES   2   17 5 44.20                             143     0.4 5  100 183 
 RUS  HZ I        17 5 44.97         2.7 0.25                           100 183 
 GUE  SZ EP   1   17 5 26.68                             138     0.1 7  115   6 
 GRA  SZ EP   1   17 5 27.14                             136     0.1 7  123  12 
 GRA  SZ ES   2   17 5 46.80                             136     0.6 5  123  12 
 RREF HZ EP   1   17 5 50.40                             109     0.9 5  331 231 
 RREF HZ I        17 6 35.47         2.5 0.27                           331 231 
                                                                                
