 2014 10 1 1334  6.9 L   6.786 -73.134145.2  RSN  7 0.5 2.1LRSN                1
 GAP=219        1.26       5.3     8.0  8.2  0.4570E+01  0.3652E+01 -0.5413E+01E
 Epicentro: LOS SANTOS - SANTANDER                                             3
 ACTION:UPD 14-11-29 23:45 OP:nd   STATUS:               ID:20141001133406 L   I
 OLDACT:UP  14-10-01 23:22 OP:cam  STATUS:               ID:20141001133000     3
 OLDACT:REG 14-10-01 22:25 OP:cam  STATUS:               ID:20141001133000     3
 2014-10-01-1330-00M.COL___252                                                 6
 STAT SP IPHASW D HRMM SECON CODA AMPLIT PERI AZIMU VELO AIN AR TRES W  DIS CAZ7
 BAR2 SZ EP       1334 26.64                             171    0.2210 22.1 194 
 BAR2 SZ ES       1334 41.19                             171   -0.4610 22.1 194 
 BAR2 SZ I        1334 42.68        17.7 0.26            169           22.1 194 
 BRR  HZ EP       1334 28.52                             152    0.4410 73.1 299 
 BRR  HN ES       1334 45.39                             152    0.7810 73.1 299 
 BRR  HN I        1334 46.02        67.0 0.26            148           73.1 299 
 PTB  HZ EP       1334 33.28                             132   -0.62 9  149 260 
 PTB  HN ES       1334 54.35                             132   -0.61 9  149 260 
 PTB  HZ I        1334 58.89        13.7 0.44            130            149 260 
 SPBC HZ EP       1334 35.56                             129    0.26 9  163 220 
 SPBC HN ES       1334 57.24                             129   -0.23 9  163 220 
 SPBC HZ I        1335  3.64         9.1 0.18            128            163 220 
 ZAR  HZ EP       1334 40.07                             122    0.59 8  206 292 
 ZAR  HN ES       1335  5.35                             122    0.45 8  206 292 
 ZAR  HZ I        1335  8.57         7.9 0.42            121            206 292 
 SML  HZ EP       1334 42.98                             117   -0.72 8  246 335 
 SML  HN ES       1335 11.77                             117   -0.64 8  246 335 
 SML  HZ I        1335 19.97         8.1 0.28            117            246 335 
 CHI  HZ EP   1   1334 44.91                             117    0.48 6  247 196 
                                                                                
