 2012  1 1 1211 57.7 L   6.811 -73.172128.5  RSN  6 0.4 1.2LRSN                1
 GAP=133        0.70       7.2     6.0 11.5 -0.1035E+02  0.3007E+02 -0.2632E+02E
 Epicentro: LOS SANTOS - SANTANDER                                             3
 ACTION:UP  12-02-03 08:12 OP:REBC STATUS:               ID:20120101121157 L   I
 2012-01-01-1210-00M.COL___186                                                 6
 STAT SP IPHASW D HRMM SECON CODA AMPLIT PERI AZIMU VELO SNR AR TRES W  DIS CAZ7
 BAR2 SZ EP   1   1212 15.45                             169     0.2 7   24 183 
 BAR2 SZ ES   2   1212 29.19                             169     0.2 5   24 183 
 BAR2 SZ I        1212 31.75         2.8 0.19                            24 183 
 BRR  HZ EP   1   1212 17.36                             150     0.5 7   68 299 
 BRR  HZ I        1212 35.26         6.3 0.11                            68 299 
 PAM  SZ EP   1   1212 18.20                             147     0.0 7   78  42 
 PAM  SE ES   2   1212 33.57                             147    -0.6 5   78  42 
 RUS  HE ES   2   1212 36.99                             140    -0.2 5  102 174 
 PTB  HZ EP   1   1212 22.57                             128    -0.5 7  145 258 
 PTB  HN ES   2   1212 43.02                             128     0.2 5  145 258 
 ZAR  HE ES   2   1212 52.62                             119    -0.3 4  201 292 
 ZAR  HZ I        1212 59.53         1.4 0.12                           201 292 
                                                                                
