 2015  1 1 1741 18.5 L   6.781 -73.145148.4  RSN  7 0.5 1.7LRSN                1
 GAP=201        1.28       5.3     6.8  8.1  0.8385E+01  0.1009E+02 -0.7403E+01E
 Epicentro: LOS SANTOS - SANTANDER                                             3
 ACTION:UPD 15-03-02 15:35 OP:nd   STATUS:               ID:20150101174118 L   I
 OLDACT:UP  15-01-02 00:52 OP:cam  STATUS:               ID:20150101173820     3
 OLDACT:REG 15-01-01 22:24 OP:cam  STATUS:               ID:20150101173820     3
 2015-01-01-1738-20M.COL___280                                                 6
 STAT SP IPHASW D HRMM SECON CODA AMPLIT PERI AZIMU VELO AIN AR TRES W  DIS CAZ7
 BAR2 EZ EP       1741 38.61                             171    0.1910 21.3 191 
 BAR2 EZ ES       1741 53.43                             171   -0.5210 21.3 191 
 BAR2 EZ I        1741 56.77         7.9 0.32            170           21.3 191 
 BRR  HZ EP     C 1741 40.45                             153    0.4410 72.3 300 
 BRR  HN ES       1741 57.63                             153    0.8610 72.3 300 
 BRR  HZ I        1742  1.23         6.3 0.12            152           72.3 300 
 RUS  HZ EP       1741 43.07                             145    0.6910 98.5 176 
 RUS  HN ES       1742  0.51                             145   -0.4810 98.5 176 
 RUS  HZ I        1742  2.24         5.1 0.22            147           98.5 176 
 PTB  HZ EP       1741 45.22                             133   -0.45 9  147 260 
 PTB  HN ES       1742  6.37                             133   -0.48 9  147 260 
 PTB  HZ I        1742  9.29         5.3 0.16            133            147 260 
 ZAR  HZ EP       1741 51.68                             123    0.46 9  205 293 
 ZAR  HN ES       1742 16.92                             123    0.19 9  205 293 
 ZAR  HZ I        1742 19.32         5.6 0.18            124            205 293 
 NOR  HZ EP       1741 53.84                             119   -0.44 8  234 235 
 NOR  HN ES       1742 22.42                             119    0.25 8  234 235 
 NOR  HZ I        1742 28.90         3.9 0.18            120            234 235 
 SML  HZ EP       1741 55.14                             118   -0.36 8  246 335 
 SML  HN ES       1742 23.53                             118   -0.81 8  246 335 
 SML  HZ I        1742 27.19         5.9 0.10            120            246 335 
                                                                                
