 2012  4 1 1044 19.3 L   6.763 -73.084153.2  RSN  6 0.3 1.3LRSN                1
 GAP=146        0.57       5.2     5.3  6.8  0.2231E+01  0.4439E+01  0.1513E+01E
 Epicentro: LOS SANTOS - SANTANDER                                             3
 ACTION:UPD 12-07-05 11:49 OP:tino STATUS:               ID:20120401104419 L   I
 2012-04-01-1040-00M.COL___196                                                 6
 STAT SP IPHASW D HRMM SECON CODA AMPLIT PERI AZIMU VELO AIN AR TRES W  DIS CAZ7
 BAR2 SZ EP   1   1044 39.68                             172    -0.1 7   22 210 
 BAR2 SZ ES   1   1044 55.78                             172     0.0 7   22 210 
 BAR2 SZ I        1044 57.64         5.4 0.25                            22 210 
 PAM  SZ EP   2   1044 42.76                             152     0.5 5   77  34 
 PAM  SN ES   2   1044 59.50                             152    -0.7 5   77  34 
 BRR  HZ EP   1   1044 41.83                             151     0.1 7   79 299 
 BRR  HE ES   1   1044 59.42                             151     0.3 7   79 299 
 RUS  HZ EP   2   1044 43.33                             146    -0.1 5   96 180 
 RUS  HN ES   2   1045  2.47                             146     0.1 5   96 180 
 RUS  HZ I        1045  3.92         2.0 0.43                            96 180 
 ZAR  HN ES   2   1045 18.83                             123    -0.5 4  212 292 
 ZAR  HZ I        1045 25.19         2.7 0.40                           212 292 
 NOR  SN ES   2   1045 23.99                             120    -0.3 4  238 236 
                                                                                
