 2011 12 1 1647 54.0 L   5.902 -73.781104.0  RSN  5 0.2 2.0LRSN                1
 GAP=162        0.43       4.8     3.0  6.9 -0.8992E+01  0.4429E+01 -0.3418E+01E
 Epicentro: JESUS MARIA - SANTANDER                                            3
 ACTION:UPD 12-07-13 16:13 OP:ep   STATUS:               ID:20111201164754 L   I
 2011-12-01-1640-00M.COL___179                                                 6
 STAT SP IPHASW D HRMM SECON CODA AMPLIT PERI AZIMU VELO AIN AR TRES W  DIS CAZ7
 RUS  HZ EP       1648 11.93                             141   -0.0510 77.2  91 
 RUS  HN ES   2   1648 26.02                             141    0.01 5 77.2  91 
 BAR2 SZ EP   1   1648 13.45                             132   -0.18 7  101  41 
 BAR2 SZ ES   1   1648 29.08                             132    0.15 7  101  41 
 BAR2 SZ I        1648 30.72        10.8 0.16                           101  41 
 NOR  SZ EP   1   1648 15.99                             125    0.20 7  126 253 
 NOR  SE ES   1   1648 32.72                             125   -0.06 7  126 253 
 BRR  HZ EP   2   1648 16.01                             123   -0.43 5  133   3 
 BRR  HZ I        1648 38.48        30.9 0.35                           133   3 
 PAM  SZ EP   2   1648 24.65                             112    0.50 4  199  37 
                                                                                
