 2017 10 1 1227 45.5 L   6.550 -73.479117.1  RSN 10 0.4 1.7LRSN                1
 GAP=100        1.02       3.3     3.5  6.7 -0.1948E+01  0.1145E+02 -0.8485E+00E
 Epicentro: EL CARMEN - SANTANDER                                              3
 ACTION:UPD 17-11-07 19:27 OP:rebc STATUS:               ID:20171001122745 L   I
 OLDACT:UP  17-10-01 23:00 OP:edw  STATUS:               ID:20171001121737     3
 OLDACT:UP  17-10-01 22:47 OP:edw  STATUS:               ID:20171001121737     3
 OLDACT:UP  17-10-01 22:44 OP:edw  STATUS:               ID:20171001121737     3
 OLDACT:REG 17-10-01 20:10 OP:edw  STATUS:               ID:20171001121737     3
 2017-10-01-1218-00M.COL___401                                                 6
 STAT SP IPHASW D HRMM SECON CODA AMPLIT PERI AZIMU VELO AIN AR TRES W  DIS CAZ7
 BAR2 EZ IP     C 1228  2.00                             163    0.0310 33.1  82 
 BAR2 EZ ES       1228 15.23                             163    0.4010 33.1  82 
 BAR2 EZ I        1228 15.82        82.9 0.42            164           33.1  82 
 RUS  HZ EP       1228  5.21                             142   -0.0810 84.9 149 
 RUS  HN ES       1228 20.80                             142    0.0710 84.9 149 
 RUS  HZ I        1228 22.11         5.4 0.28            143           84.9 149 
 SPBC HZ EP       1228  7.40                             131   -0.2110  119 214 
 SPBC HN ES       1228 24.15                             131   -0.7110  119 214 
 SPBC HZ I        1228 27.57        10.8 0.10            132            119 214 
 PAM  EZ EP       1228  7.75                             131   -0.7310  123  45 
 PAM  EN ES       1228 26.40                             131   -0.0210  123  45 
 PAM  EZ I        1228 30.35         7.2 0.38            132            123  45 
 YPLC HZ EP       1228 14.07                             119    0.76 9  176 136 
 YPLC HE ES   4   1228 37.31                             119    2.29 0  176 136 
 YPLC HZ I        1228 38.05         8.6 0.32            120            176 136 
 ZAR  HZ EP       1228 14.50                             118    0.39 9  185 304 
 ZAR  HN ES       1228 36.51                             118    0.07 9  185 304 
 ZAR  HZ I        1228 38.69        13.8 0.30            119            185 304 
 NOR  HZ EP       1228 14.00                             117   -0.61 9  189 235 
 NOR  HN ES   4   1228 35.40                             117   -1.93 0  189 235 
 NOR  HZ I        1228 38.09         5.6 0.12            118            189 235 
 CHI  HZ EP   4   1228 19.99                             114    2.11 0  214 188 
 CHI  HN ES       1228 43.35                             114    0.20 8  214 188 
 CHI  HZ I        1228 48.38         2.2 0.42            115            214 188 
 HEL  HZ EP       1228 19.98                             112    0.36 8  230 260 
 HEL  HN ES   1   1228 46.43                             112    0.19 6  230 260 
 HEL  HZ I        1228 51.13         2.1 0.16            113            230 260 
 GUY2CHZ EP       1228 22.43                             110   -0.16 8  255 235 
 GUY2CHN ES       1228 52.05                             110    0.52 8  255 235 
 GUY2CHZ I        1229  0.31         2.6 0.36                           255 235 
 URE  HZ EP   4   1228 23.94                             109    1.04 0  263 300 
 URE  HN ES   4   1228 49.85                             109   -2.24 0  263 300 
                                                                                
