 2010  1 1 1322 37.0 L   6.571 -73.362119.9  RSN  4 0.4 1.3LRSN                1
 GAP=131        0.59       4.3    11.0  9.6 -0.2493E+02  0.6625E+02 -0.7934E+01E
 Epicentro: HATO - SANTANDER                                                   3
 ACTION:UP  10-08-24 09:42 OP:vdl  STATUS:               ID:20100101132237 L   I
 2010-01-01-1317-41S.COL___096                                                 6
 STAT SP IPHASW D HRMM SECON CODA AMPLIT PERI AZIMU VELO SNR AR TRES W  DIS CAZ7
 BAR2 SZ IP       1322 53.48                             170     0.010   20  83 
 BAR2 SZ ES   2   1323  5.89                             170    -0.4 5   20  83 
 OCA  SZ EP   1   1323  5.95                             119     0.0 7  185   1 
 OCA  SZ ES   2   1323 29.02                             119     0.5 4  185   1 
 CHI  HZ EP   1   1323  9.90                             115    -0.1 6  219 191 
 CHI  HZ I        1323 11.72         1.5 0.56                           219 191 
 CHI  HE ES   2   1323 36.57                             115     0.8 4  219 191 
 RREF BZ EP   1   1323 17.59                             108    -0.5 5  287 230 
 RREF BN ES   2   1323 50.37                             108     0.2 4  287 230 
 RREF BZ I        1323 51.92         1.5 0.31                           287 230 
                                                                                
