 2011  8 1 1226 53.7 L   6.754 -73.070143.5  RSN  5 0.2 1.9LRSN                1
 GAP=149        0.52       4.0     5.1  5.1 -0.4463E+01 -0.5393E+01  0.2668E+01E
 Epicentro: LOS SANTOS - SANTANDER                                             3
 ACTION:UPD 12-07-25 14:05 OP:epov STATUS:               ID:20110801122653 L   I
 2011-08-01-1224-16S.COL___142                                                 6
 STAT SP IPHASW D HRMM SECON CODA AMPLIT PERI AZIMU VELO AIN AR TRES W  DIS CAZ7
 BAR2 SZ EP       1227 12.98                             171   -0.0710 21.8 215 
 BAR2 SZ I        1227 13.32        10.6 0.36                          21.8 215 
 BAR2 SZ ES   1   1227 28.17                             171    0.04 7 21.8 215 
 PAM  SZ EP       1227 15.86                             151    0.2110 76.6  32 
 PAM  SN ES   1   1227 32.49                             151   -0.26 7 76.6  32 
 BRR  HZ EP       1227 14.89                             149   -0.3310 81.0 299 
 BRR  HZ I        1227 15.19        23.4 0.26                          81.0 299 
 BRR  HN ES   1   1227 32.25                             149    0.27 7 81.0 299 
 RUS  HZ EP       1227 16.96                             145    0.0810 95.3 181 
 BRI  SZ EP       1227 17.65                             140    0.0810  111  16 
                                                                                
