 2010 12 1 1139  8.5 L   6.786 -73.079149.8  RSN 13 0.3 2.7LRSN                1
 GAP=166        0.72       2.7     5.6  5.0 -0.4788E+01  0.6672E+01  0.1377E+01E
 Epicentro: LOS SANTOS - SANTANDER                                             3
 ACTION:UP  11-01-14 15:22 OP:pat  STATUS:               ID:20101201113908 L   I
 2010-12-01-1137-20S.COL___131                                                 6
 STAT SP IPHASW D HRMM SECON CODA AMPLIT PERI AZIMU VELO SNR AR TRES W  DIS CAZ7
 BAR2 SZ IP       1139 28.47                             170    -0.110   24 208 
 BAR2 SZ ES   1   1139 44.25                             170     0.0 7   24 208 
 BAR2 SZ I        1139 45.25       110.1 0.16                            24 208 
 BRR  HZ IP     C 1139 30.38                             151    -0.110   79 297 
 BRR  HN ES   1   1139 47.88                             151     0.3 7   79 297 
 BRR  HZ I        1139 50.04       183.9 0.13                            79 297 
 RUS  HZ EP   1   1139 32.35                             145    -0.1 7   99 180 
 RUS  HE ES   1   1139 51.03                             145    -0.2 7   99 180 
 RUS  HZ I        1139 52.39        58.3 0.44                            99 180 
 GUE  SZ EP   1   1139 33.55                             140     0.0 7  117   8 
 GRA  SZ IP       1139 34.31                             138     0.310  125  14 
 GRA  SZ ES   1   1139 53.97                             138     0.0 7  125  14 
 GRA  SZ I        1139 55.05        75.9 0.17                           125  14 
 OCA  SZ EP   1   1139 36.87                             130    -0.5 7  163 351 
 OCA  SZ ES   1   1139 59.86                             130     0.0 7  163 351 
 OCA  SZ I        1140  4.77        69.5 0.35                           163 351 
 NOR  SZ EP   1   1139 44.31                             119    -0.7 6  240 236 
 CHI  HZ EP   1   1139 46.46                             118     0.0 6  249 197 
 CHI  HZ I        1139 49.19        15.8 0.42                           249 197 
 CHI  HN ES   1   1140 16.59                             118     0.5 6  249 197 
 ROSC BZ EP   1   1139 47.39                             117     0.3 6  255 213 
 ROSC BZ I        1140 26.21        21.2 0.41                           255 213 
 HEL  HZ EP   1   1139 50.32                             115     0.7 6  279 256 
 HEL  HN ES   2   1140 21.20                             115    -0.5 4  279 256 
 HEL  HZ I        1140 26.88        21.3 0.34                           279 256 
 DBB  SZ EP   1   1139 56.77                             110    -0.2 5  347 274 
 DBB  SZ I        1140 36.61         3.8 0.65                           347 274 
 TOL  SZ EP   1   1139 58.10                             110     0.7 5  348 226 
 PRA  HZ EP   1   1140  1.84                             107    -0.6 4  394 211 
 PRA  HZ I        1140  4.07        67.9 0.20                           394 211 
 PRA  HN ES   1   1140 44.32                             107    -0.1 4  394 211 
                                                                                
