 2010 10 1 1739 13.5 L   6.790 -73.092141.0  RSN 16 0.4 2.7LRSN                1
 GAP=140        0.85       3.0     5.2  5.7 -0.1298E+01 -0.1567E+00  0.2700E+01E
 Epicentro: LOS SANTOS - SANTANDER                                             3
 ACTION:UP  11-02-18 11:06 OP:tino STATUS:               ID:20101001173913 L   I
 2010-10-01-1738-05S.COL___126                                                 6
 STAT SP IPHASW D HRMM SECON CODA AMPLIT PERI AZIMU VELO SNR AR TRES W  DIS CAZ7
 BAR2 SZ EP   1   1739 32.61                             170     0.1 7   24 205 
 BAR2 SZ ES   1   1739 47.01                             170    -0.4 7   24 205 
 BAR2 SZ I        1739 48.89       100.0 0.28                            24 205 
 GIR2 SZ EP   1   1739 32.82                             166     0.2 7   34 341 
 BRR  HZ IP     C 1739 34.63                             149     0.210   77 297 
 BRR  HN ES       1739 51.39                             149     0.610   77 297 
 BRR  HZ I        1739 56.27       150.8 0.11                            77 297 
 RUS  HZ EP       1739 36.66                             143     0.010   99 179 
 RUS  HE ES   1   1739 54.66                             143    -0.1 7   99 179 
 RUS  HZ I        1739 56.05        46.5 0.28                            99 179 
 GUE  SZ EP   1   1739 36.86                             138    -0.9 7  117   9 
 GRA  SZ IP       1739 38.71                             136     0.410  125  15 
 GRA  SZ I        1739 40.18        87.9 0.29                           125  15 
 GRA  SZ ES   2   1739 57.07                             136    -0.5 5  125  15 
 OCA  SZ EP   1   1739 41.42                             128    -0.2 7  162 351 
 OCA  SZ ES   1   1740  3.26                             128    -0.3 7  162 351 
 OCA  SZ I        1740  7.30       101.4 0.14                           162 351 
 YOP  SZ EP   1   1739 43.41                             126     0.6 7  175 155 
 YOP  SN ES   2   1740  5.54                             126    -0.2 4  175 155 
 NOR  SZ EP   1   1739 48.79                             117    -0.6 6  239 236 
 CHI  HZ EP   1   1739 51.10                             116     0.1 6  249 197 
 CHI  HN ES   2   1740 19.42                             116    -0.8 4  249 197 
 CHI  HZ I        1740 23.57        20.2 0.39                           249 197 
 ROSC BE ES   2   1740 21.09                             115    -0.2 4  255 212 
 ROSC BZ I        1740 29.38        23.8 0.49                           255 212 
 HEL  HZ EP   2   1739 54.38                             113     0.3 4  278 256 
 HEL  HN ES   2   1740 25.71                             113     0.0 4  278 256 
 HEL  HZ I        1740 31.93        19.1 0.59                           278 256 
 RREF HZ EP   2   1739 59.99                             110     0.1 3  326 230 
 RREF HN ES   2   1740 35.76                             110    -0.3 3  326 230 
 RREF HZ I        1740 41.15        17.1 0.52                           326 230 
 DBB  SZ EP   2   1740  1.12                             108    -0.3 3  345 274 
 DBB  SZ I        1740 39.51         6.3 0.33                           345 274 
 TOL  SZ EP   2   1740  2.67                             108     0.7 3  347 225 
 PRA  HZ EP   1   1740  7.01                             106    -0.1 4  394 210 
 PRA  HZ I        1740  9.77        47.7 0.31                           394 210 
 PRA  HE ES   2   1740 48.31                             106    -0.6 3  394 210 
                                                                                
