 2010  8 1 1416  4.1 L   6.782 -73.092145.1  RSN  5 0.2 1.4LRSN                1
 GAP=165        0.44       4.0     8.3  7.5  0.8397E+01 -0.3144E+02 -0.1372E+02E
 Epicentro: LOS SANTOS - SANTANDER                                             3
 ACTION:UP  10-09-07 10:51 OP:vdl  STATUS:               ID:20100801141604 L   I
 2010-08-01-1412-43S.COL___123                                                 6
 STAT SP IPHASW D HRMM SECON CODA AMPLIT PERI AZIMU VELO SNR AR TRES W  DIS CAZ7
 BAR2 SZ EP   1   1416 23.57                             170    -0.1 7   23 206 
 BAR2 SZ ES   2   1416 38.73                             170    -0.1 5   23 206 
 BRR  HZ EP   1   1416 25.62                             150     0.1 7   77 298 
 BRR  HZ I        1416 38.75        10.0 0.46                            77 298 
 BRR  HN ES   2   1416 42.20                             150     0.0 5   77 298 
 RUS  HZ EP   1   1416 27.46                             144    -0.1 7   98 179 
 RUS  HN ES   2   1416 46.25                             144     0.3 5   98 179 
 RUS  HZ I        1416 46.78         1.6 0.29                            98 179 
 GUE  SZ EP   1   1416 28.58                             139    -0.2 7  117   9 
 GRA  SZ EP   1   1416 29.55                             137     0.3 7  126  15 
 GRA  SZ I        1416 31.02         5.4 0.22                           126  15 
                                                                                
