 2013  7 1 1702  6.5 L   6.722 -73.171152.7  RSN  7 0.5 1.5LRSN                1
 GAP=178        0.99       6.1     7.2  8.1  0.1613E+02  0.9339E+01  0.3959E+01E
 Epicentro: VILLANUEVA - SANTANDER                                             3
 ACTION:UPD 13-08-12 10:34 OP:ep   STATUS:               ID:20130701170206 L   I
 OLDACT:REG 13-07-01 14:30 OP:jn   STATUS:               ID:20130701165959     3
 2013-07-01-1659-59M.COL___267                                                 6
 STAT SP IPHASW D HRMM SECON CODA AMPLIT PERI AZIMU VELO AIN AR TRES W  DIS CAZ7
 BAR2 SZ EP   1   17 2 26.33                             174   -0.53 7 14.4 185 
 BAR2 SZ ES       17 2 42.53                             174   -0.1810 14.4 185 
 BAR2 SZ I        17 2 42.97         5.8 0.18            172           14.4 185 
 GIR2 SZ EP       17 2 27.15                             165   -0.1210 39.5 356 
 BRR  HZ EP       17 2 28.84                             153    0.2810 73.4 305 
 BRR  HN ES       17 2 46.21                             153    0.4810 73.4 305 
 BRR  HZ I        17 2 46.91         8.6 0.12            153           73.4 305 
 RUS  HZ EP   1   17 2 31.04                             148    0.63 7 92.2 174 
 RUS  HN ES   1   17 2 48.85                             148   -0.18 7 92.2 174 
 RUS  HZ I        17 2 50.84         3.1 0.60            147           92.2 174 
 PTB  HZ EP       17 2 33.12                             135   -0.59 9  144 262 
 PTB  HN ES   1   17 2 54.29                             135   -0.61 7  144 262 
 PTB  HZ I        17 2 57.37         5.2 0.12            134            144 262 
 ZAR  HE ES   1   17 3  5.57                             124    0.31 6  205 295 
 CHI  HN ES   1   17 3 13.35                             120    0.73 6  240 195 
                                                                                
