 2010  7 1 1748 38.5 L   6.779 -73.077142.2  RSN  5 0.1 1.9LRSN                1
 GAP=167        0.43       3.1     5.8  5.4  0.5535E+01 -0.1642E+02 -0.9180E+01E
 Epicentro: LOS SANTOS - SANTANDER                                             3
 ACTION:UPD 10-12-01 15:14 OP:pat  STATUS:               ID:20100701174838 L   I
 2010-07-01-1745-28S.COL___118                                                 6
 STAT SP IPHASW D HRMM SECON CODA AMPLIT PERI AZIMU VELO AIN AR TRES W  DIS CAZ7
 BAR2 SZ IP       1748 57.72                             170     0.010   24 210 
 BAR2 SZ ES   1   1749 12.56                             170    -0.2 7   24 210 
 BRR  HZ IP     C 1748 59.68                             149    -0.110   79 297 
 BRR  HZ I        1749  0.13        31.6 0.09                            79 297 
 BRR  HE ES   1   1749 16.50                             149     0.2 7   79 297 
 RUS  HZ EP   1   1749  1.76                             144     0.0 7   98 180 
 RUS  HE ES   1   1749 19.99                             144     0.1 7   98 180 
 RUS  HZ I        1749 21.35         7.8 0.33                            98 180 
 GUE  SZ IP       1749  2.87                             138    -0.110  118   8 
 GRA  SZ IP       1749  3.70                             136     0.210  126  14 
                                                                                
