 2013 10 1 1109  6.2 L   6.813 -73.142141.3  RSN 12 0.5 2.0LRSN 2.6WRSN        1
 SPEC AVERAGE  MO 13.0 ST 59.1 OM  1.3 f0 15.2 R0.2898 AL 0.00 WI 20.0 MW  2.6 3
 SPEC SD       MO  0.1 ST109.2 OM  0.3 f0 12.2 R0.2972 AL      WI      MW  0.1 3
 GAP=136        1.27       3.3     4.9  6.8 -0.2104E+01  0.9239E+01  0.2485E+01E
 Epicentro: LOS SANTOS - SANTANDER                                             3
 SPEC BAR2SH Z MO 13.1 ST 19.6 OM  1.3 f0 13.3 R0.1447 AL-0.00 WI 20.0 MW  2.7 3
 SPEC BAR2SH Z T11 938 K 0.050 GD  143 VS 5.20 DE 3.20 Q0750.0 QA 1.50 VS 5.20 3
 SPEC BRR HH Z MO 12.9 ST 15.5 OM  1.0 f0 15.0 R0.1283 AL-0.00 WI 20.0 MW  2.5 3
 SPEC BRR HH Z T11 941 K 0.050 GD  158 VS 5.20 DE 3.20 Q0750.0 QA 1.50 VS 5.20 3
 SPEC PAM SH Z MO 12.9 ST0.584 OM  1.0 f0 5.00 R0.3848 AL-0.00 WI 20.0 MW  2.5 3
 SPEC PAM SH Z T11 943 K 0.050 GD  160 VS 5.20 DE 3.20 Q0750.0 QA 1.50 VS 5.20 3
 SPEC PTB HH Z MO 12.9 ST302.8 OM  0.9 f0 40.0 R0.0481 AL-0.00 WI 20.0 MW  2.5 3
 SPEC PTB HH Z T11 951 K 0.050 GD  204 VS 5.20 DE 3.20 Q0750.0 QA 1.50 VS 5.20 3
 SPEC NOR HH Z MO 12.8 ST 16.1 OM  0.7 f0 15.9 R0.1210 AL-0.00 WI 20.0 MW  2.5 3
 SPEC NOR HH Z T1110 7 K 0.050 GD  275 VS 5.20 DE 3.20 Q0750.0 QA 1.50 VS 5.20 3
 SPEC CHI HH Z MO 13.1 ST0.079 OM  1.0 f0 2.11 R0.9118 AL-0.00 WI 20.0 MW  2.7 3
 SPEC CHI HH Z T111010 K 0.050 GD  287 VS 5.20 DE 3.20 Q0750.0 QA 1.50 VS 5.20 3
 SPECGUY2CHH Z MO 13.1 ST  0.3 OM  0.9 f0 3.21 R 0.600 AL-0.00 WI 20.0 MW  2.7 3
 SPECGUY2CHH Z T111023 K 0.050 GD333.4 VS 5.20 DE 3.20 Q0750.0 QA 1.50 VS 5.20 3
 OLDACT:REG 13-10-01 17:15 OP:stll STATUS:               ID:20131001110843     3
 ACTION:UPD 13-11-25 09:18 OP:ep   STATUS:               ID:20131001110906 L   I
 OLDACT:UP  13-10-01 18:28 OP:stll STATUS:               ID:20131001110843     3
 2013-10-01-1108-43M.COL___234                                                 6
 STAT SP IPHASW D HRMM SECON CODA AMPLIT PERI AZIMU VELO AIN AR TRES W  DIS CAZ7
 BAR2 SZ EP       11 9 25.32                             170   -0.0010 24.8 190 
 BAR2 SZ ES       11 9 40.31                             170    0.0710 24.8 190 
 BAR2 SZ I        11 9 41.32        35.6 0.26            168           24.8 190 
 BRR  HZ EP       11 9 27.34                             152    0.5010 70.8 297 
 BRR  HN ES       11 9 43.25                             152    0.3010 70.8 297 
 BRR  SZ I        11 9 47.51        13.3 0.40            153           70.8 297 
 PAM  SZ EP       11 9 28.24                             150    0.3810 76.0  40 
 PAM  SN ES       11 9 44.91                             150    0.1610 76.0  40 
 PAM  SZ I        11 9 46.91        18.2 0.52            154           76.0  40 
 RUS  HZ EP       11 9 29.49                             142   -0.1310  102 176 
 RUS  HN ES       11 9 47.86                             142   -0.0310  102 176 
 RUS  SZ I        11 9 48.91        10.0 0.30            143            102 176 
 PTB  HZ EP       11 9 32.22                             131   -0.65 9  148 258 
 PTB  HN ES       11 9 53.19                             131   -0.48 9  148 258 
 PTB  SZ I        11 9 55.22         7.2 0.26            132            148 258 
 OCA  HN ES       11 9 55.16                             129   -0.58 9  159 353 
 SPBC HZ EP       11 9 35.66                             128    1.17 9  165 219 
 SPBC HN ES       11 9 56.50                             128   -0.06 9  165 219 
 SPBC SZ I        1110  2.68        12.9 0.24            129            165 219 
 ZAR  HN ES       1110  3.56                             121    0.16 9  204 292 
 NOR  HZ EP       11 9 41.78                             117   -0.02 8  236 234 
 NOR  HN ES       1110  9.26                             117   -0.31 8  236 234 
 NOR  SZ I        1110 12.74         6.5 0.14            119            236 234 
 SML  HZ EP       11 9 41.77                             117   -0.68 8  243 335 
 SML  HN ES       1110 10.62                             117   -0.10 8  243 335 
 SML  SZ I        1110 12.08        12.9 0.38            119            243 335 
 CHI  HZ EP       11 9 43.60                             116   -0.22 8  250 195 
 CHI  HN ES       1110 11.83                             116   -1.33 8  250 195 
 CHI  HZ I        1110 19.91         4.3 0.52            117            250 195 
 GUY2CHZ EP       11 9 50.30                             111    0.57 7  302 235 
 GUY2CHN ES       1110 24.79                             111    1.10 7  302 235 
 GUY2CSZ I        1110 33.86         5.0 0.42                           302 235 
                                                                                
