 2014 12 1 1449 49.1 L   6.809 -73.169143.5  RSN  6 0.2 1.7LRSN                1
 GAP=236        0.61       3.8     3.8  6.1  0.5271E+01  0.5172E+01  0.1174E+01E
 Epicentro: LOS SANTOS - SANTANDER                                             3
 ACTION:UPD 15-02-10 16:59 OP:nd   STATUS:               ID:20141201144949 L   I
 OLDACT:REG 14-12-01 20:42 OP:spq  STATUS:               ID:20141201144748     3
 2014-12-01-1447-48M.COL___306                                                 6
 STAT SP IPHASW D HRMM SECON CODA AMPLIT PERI AZIMU VELO AIN AR TRES W  DIS CAZ7
 BAR2 SZ EP       1450  8.66                             170    0.1410 24.0 184 
 BAR2 SZ I        1450 26.01         7.7 0.11            170           24.0 184 
 BRR  HZ EP       1450 10.30                             153    0.4010 68.5 299 
 BRR  HN ES   1   1450 26.09                             153    0.01 7 68.5 299 
 RUS  HZ EP   1   1450 12.30                             143   -0.46 7  102 175 
 RUS  HN ES       1450 31.11                             143   -0.0710  102 175 
 RUS  HZ I        1450 32.58         5.8 0.11            142            102 175 
 PTB  HZ EP       1450 15.53                             132   -0.19 9  145 258 
 PTB  HN ES   1   1450 36.36                             132   -0.09 7  145 258 
 PTB  HZ I        1450 41.75         6.3 0.37            133            145 258 
 ZAR  HN ES       1450 45.82                             122   -0.31 9  201 292 
 NOR  HZ EP       1450 24.64                             118    0.06 8  233 234 
 NOR  HN ES       1450 52.51                             118    0.29 8  233 234 
 NOR  HZ I        1450 59.44         5.2 0.30            118            233 234 
                                                                                
