 2012  1 1 1844 49.3 L   6.951 -73.212132.1  RSN  6 0.4 1.4LRSN                1
 GAP=124        0.80       7.0     5.8 10.1  0.2309E+01  0.9028E+01  0.6022E+01E
 Epicentro: BETULIA - SANTANDER                                                3
 ACTION:UP  12-02-03 08:13 OP:REBC STATUS:               ID:20120101184449 L   I
 2012-01-01-1840-00M.COL___188                                                 6
 STAT SP IPHASW D HRMM SECON CODA AMPLIT PERI AZIMU VELO SNR AR TRES W  DIS CAZ7
 BAR2 SZ EP   1   1845  8.06                             162     0.3 7   40 175 
 BAR2 SZ ES   2   1845 22.13                             162    -0.1 5   40 175 
 BAR2 SZ I        1845 23.76        29.3 0.35                            40 175 
 BRR  HZ EP   1   1845  8.39                             155     0.1 7   58 287 
 BRR  HE ES   2   1845 23.45                             155     0.4 5   58 287 
 BRR  HZ I        1845 26.95        11.2 0.12                            58 287 
 PAM  SZ EP   1   1845  9.47                             150    -0.2 7   71  53 
 PAM  SE ES   2   1845 25.24                             150    -0.3 5   71  53 
 PAM  SZ I        1845 26.82         2.9 0.17                            71  53 
 RUS  HZ EP   1   1845 13.60                             136     0.5 7  118 173 
 RUS  HN ES   2   1845 31.62                             136    -0.1 5  118 173 
 RUS  HZ I        1845 36.86         0.9 0.14                           118 173 
 PTB  HZ EP   1   1845 14.36                             129    -0.6 7  145 252 
 PTB  HN ES   2   1845 34.06                             129    -0.8 5  145 252 
 ZAR  HN ES   2   1845 43.87                             121     0.7 4  191 288 
                                                                                
