 2010  8 1 1954 34.4 L   6.780 -73.079144.4  RSN  4 0.1 1.6LRSN                1
 GAP=195        0.40       7.0     8.0  8.4  0.1259E+01 -0.3088E+02 -0.3034E+02E
 Epicentro: LOS SANTOS - SANTANDER                                             3
 ACTION:UP  10-09-07 10:51 OP:vdl  STATUS:               ID:20100801195434 L   I
 2010-08-01-1953-17S.COL___123                                                 6
 STAT SP IPHASW D HRMM SECON CODA AMPLIT PERI AZIMU VELO SNR AR TRES W  DIS CAZ7
 BAR2 SZ EP   1   1954 53.92                             170     0.1 7   24 209 
 BAR2 SZ ES   2   1955  8.89                             170    -0.1 5   24 209 
 BAR2 SZ I        1955 10.30         7.2 0.56                            24 209 
 BRR  HZ EP   1   1954 55.72                             150    -0.1 7   79 297 
 BRR  HE ES   2   1955 12.67                             150     0.1 5   79 297 
 BRR  HZ I        1955 13.68         8.3 0.55                            79 297 
 GUE  SZ EP   1   1954 58.82                             139    -0.2 7  117   8 
 GRA  SZ EP   1   1954 59.68                             137     0.2 7  126  14 
                                                                                
