 2015  5 1 1424 45.3 L   6.820 -73.104138.9  RSN 18 0.5 2.4LRSN                1
 GAP=141        1.11       2.5     4.2  5.2 -0.2678E+01  0.7124E+01  0.2362E+00E
 Epicentro: LOS SANTOS - SANTANDER                                             3
 ACTION:UPD 15-09-10 22:00 OP:cam  STATUS:               ID:20150501142445 L   I
 OLDACT:REG 15-05-01 20:46 OP:ak   STATUS:               ID:20150501141748     3
 2015-05-01-1417-48M.COL___267                                                 6
 STAT SP IPHASW D HRMM SECON CODA AMPLIT PERI AZIMU VELO AIN AR TRES W  DIS CAZ7
 BAR2 EZ EP       1425  4.40                             169    0.1910 26.7 199 
 BAR2 EZ ES       1425 18.18                             169   -0.7610 26.7 199 
 BAR2 EZ I        1425 22.22        65.1 0.24            167           26.7 199 
 PAM  SZ IP     C 1425  7.15                             151    0.6110 72.7  38 
 PAM  SN ES       1425 23.55                             151    0.4710 72.7  38 
 PAM  SZ I        1425 26.79        28.8 0.55            156           72.7  38 
 BRR  HZ IP     C 1425  6.27                             150    0.3510 74.3 295 
 BRR  HN ES       1425 22.54                             150    0.5510 74.3 295 
 BRR  HZ I        1425 27.34        28.1 0.12            148           74.3 295 
 RUS  HZ EP       1425  8.39                             142   -0.1710  103 179 
 RUS  HE ES       1425 26.92                             142    0.2310  103 179 
 RUS  HZ I        1425 28.41        22.3 0.23            145            103 179 
 OCA  HZ EP       1425 12.53                             128   -0.43 9  159 351 
 OCA  HN ES       1425 34.49                             128   -0.02 9  159 351 
 OCA  HZ I        1425 41.07        73.5 0.18            131            159 351 
 SPBC HZ EP       1425 13.32                             127   -0.44 9  168 220 
 SPBC HN ES       1425 35.28                             127   -0.67 9  168 220 
 SPBC HZ I        1425 42.72        49.2 0.14            128            168 220 
 ZAR  HZ EP       1425 18.13                             120    0.43 8  208 291 
 ZAR  HN ES       1425 43.25                             120    0.30 8  208 291 
 ZAR  HZ I        1425 49.63        22.6 0.32            121            208 291 
 NOR  HZ EP       1425 20.96                             116   -0.26 8  240 235 
 NOR  HN ES       1425 48.41                             116   -0.81 8  240 235 
 NOR  HZ I        1425 52.18        23.8 0.20            118            240 235 
 SML  HZ EP       1425 21.63                             116    0.06 8  244 334 
 SML  HN ES       1425 49.11                             116   -0.73 8  244 334 
 CHI  HZ EP       1425 22.71                             115   -0.32 8  252 196 
 CHI  HN ES   1   1425 51.88                             115   -0.56 6  252 196 
 CHI  HZ I        1426  1.54         7.8 0.34            118            252 196 
 ROSC BZ EP       1425 24.12                             115    0.56 8  257 212 
 ROSC BN ES   4   1425 55.03                             115    1.65 0  257 212 
 HEL  HZ EP   2   1425 26.53                             113    0.77 4  277 256 
 HEL  HN ES       1425 57.26                             113   -0.04 7  277 256 
 HEL  HZ I        1426  3.79        15.5 0.26            114            277 256 
 LL2C HZ EP       1425 28.20                             111   -0.21 7  305 353 
 LL2C HE ES       1426  1.15                             111   -0.87 7  305 353 
 GUY2CHZ EP       1425 29.38                             111    0.17 7  306 235 
 GUY2CHN ES       1426  4.12                             111    0.69 7  306 235 
 GUY2CHZ I        1426  9.64        12.8 0.48                           306 235 
 TOL  SZ EP       1425 34.57                             108    0.69 6  348 225 
 TOL  SN ES       1426 12.55                             108    0.80 6  348 225 
 TOL  SZ I        1426 16.41         9.6 0.37            110            348 225 
 MON  HZ EP   4   1425 38.09                             107    3.76 0  356 308 
 MON  HN ES   4   1426  8.53                             107   -4.03 0  356 308 
 MON  HZ I        1426 28.37         6.1 0.56            109            356 308 
 ORTC HZ EP       1425 39.07                             105   -0.49 6  400 217 
 ORTC HN ES       1426 21.93                             105    0.07 6  400 217 
 ORTC HZ I        1426 28.30         7.2 0.48            107            400 217 
 SJC  HZ EP   4   1425 38.67                             104   -2.08 0  410 326 
 SJC  HN ES   4   1426 19.93                             104   -4.05 0  410 326 
 SJC  HZ I        1426 24.12         8.2 0.46            106            410 326 
                                                                                
