 2013  2 1 1145 38.5 L   6.773 -73.139146.6  RSN  4 0.4 1.4LRSN                1
 GAP=139        0.98       7.4     6.2  9.3 -0.8428E+01  0.1285E+02 -0.2292E+02E
 Epicentro: LOS SANTOS - SANTANDER                                             3
 ACTION:UPD 13-03-12 09:29 OP:ep   STATUS:               ID:20130201114538 L   I
 2013-02-01-1138-51M.COL___173                                                 6
 STAT SP IPHASW D HRMM SECON CODA AMPLIT PERI AZIMU VELO AIN AR TRES W  DIS CAZ7
 BAR2 SZ EP   1   1145 57.94                             172   -0.19 7 20.6 194 
 BAR2 SZ ES       1146 12.87                             172   -0.6110 20.6 194 
 BAR2 SZ I        1146 15.75         7.6 0.30            171           20.6 194 
 PAM  SZ EP       1146  1.23                             150    0.3610 79.2  38 
 PAM  SZ I        1146  1.33         5.9 0.22            152           79.2  38 
 PAM  SN ES   2   1146 18.73                             150    0.38 5 79.2  38 
 RUS  HZ EP   1   1146  1.64                             145   -0.43 7 97.5 176 
 RUS  HE ES       1146 20.96                             145    0.4710 97.5 176 
 RUS  HZ I        1146 22.32         2.9 0.41            146           97.5 176 
 PTB  HZ EP       1146  5.20                             132   -0.31 9  148 260 
 PTB  HN ES       1146 26.96                             132    0.35 9  148 260 
                                                                                
