 2017 11 1 1902 39.2 L   6.852 -73.137131.6  RSN 10 0.5 1.8LRSN                1
 GAP=135        1.30       4.7     5.0  7.5  0.2198E+00  0.1264E+02  0.9095E+01E
 Epicentro: LOS SANTOS - SANTANDER                                             3
 ACTION:UPD 17-12-12 19:50 OP:rebc STATUS:               ID:20171101190239 L   I
 OLDACT:UP  17-11-02 01:07 OP:mg   STATUS:               ID:20171101185743     3
 OLDACT:UP  17-11-02 01:07 OP:mg   STATUS:               ID:20171101185743     3
 OLDACT:UP  17-11-02 01:06 OP:mg   STATUS:               ID:20171101185743     3
 OLDACT:UP  17-11-02 01:04 OP:mg   STATUS:               ID:20171101185743     3
 OLDACT:REG 17-11-01 21:01 OP:mg   STATUS:               ID:20171101185743     3
 2017-11-01-1858-00M.COL___438                                                 6
 STAT SP IPHASW D HRMM SECON CODA AMPLIT PERI AZIMU VELO AIN AR TRES W  DIS CAZ7
 BAR2 EZ EP       19 2 57.45                             167    0.1310 29.2 190 
 BAR2 EZ ES       19 3 11.78                             167    0.3610 29.2 190 
 BAR2 EZ I        19 3 13.67        14.8 0.32            168           29.2 190 
 BRR  HZ IP     D 19 2 59.40                             151    0.6310 69.5 294 
 BRR  HN ES       19 3 14.72                             151    0.7110 69.5 294 
 BRR  HZ I        19 3 19.39        17.9 0.32            152           69.5 294 
 PAM  EZ IP     C 19 3  0.38                             150    0.7310 72.3  42 
 PAM  EN ES       19 3 14.74                             150   -0.8310 72.3  42 
 PAM  EZ I        19 3 22.90         7.6 0.18            153           72.3  42 
 RUS  HZ EP       19 3  1.74                             139   -0.3310  106 177 
 RUS  HE ES       19 3 19.65                             139   -0.2410  106 177 
 RUS  HZ I        19 3 24.25         3.6 0.24            143            106 177 
 PTB  HZ EP       19 3  4.27                             128   -1.03 9  150 257 
 PTB  HN ES       19 3 25.06                             128   -0.57 9  150 257 
 PTB  HZ I        19 3 27.76         6.8 0.14            131            150 257 
 ZAR  HZ EP       19 3 10.70                             119    0.02 9  203 291 
 ZAR  HN ES       19 3 35.00                             119   -0.20 9  203 291 
 ZAR  HZ I        19 3 42.27        11.0 0.26            122            203 291 
 NOR  HZ EP       19 3 14.41                             115   -0.24 8  239 233 
 NOR  HE ES       19 3 42.02                             115   -0.25 8  239 233 
 NOR  HZ I        19 3 45.71         5.0 0.28            118            239 233 
 CHI  HZ EP       19 3 16.74                             113   -0.10 8  254 195 
 CHI  HN ES       19 3 46.47                             113    0.30 8  254 195 
 CHI  HZ I        19 3 53.07         1.7 0.26            117            254 195 
 GUY2CHZ EP       19 3 23.18                             109    0.47 7  305 234 
 GUY2CHE ES       19 3 57.22                             109    0.60 7  305 234 
 GUY2CHZ I        19 4  2.76         4.2 0.26                           305 234 
 SJC  HZ EP   9   19 3 31.89                             103   -1.97 0  405 326 
 SJC  HN ES       19 4 13.58                             104   -0.92 6  405 326 
 SJC  HZ I        19 4 17.12         3.1 0.52            106            405 326 
                                                                                
