 2013  1 1 1611 55.7 L   6.148 -73.762100.0  RSN  7 0.4 1.5LRSN                1
 GAP=132        0.86       4.3     3.3  9.1 -0.4514E+00  0.1260E+02  0.2405E+01E
 Epicentro: LANDAZURI - SANTANDER                                              3
 ACTION:UPD 13-02-15 09:11 OP:ep   STATUS:               ID:20130101161155 L   I
 2013-01-01-1610-00M.COL___242                                                 6
 STAT SP IPHASW D HRMM SECON CODA AMPLIT PERI AZIMU VELO AIN AR TRES W  DIS CAZ7
 RUS  HZ EP   1   1612 13.33                             138   -0.20 7 80.3 111 
 RUS  HN ES   1   1612 27.08                             138   -0.37 7 80.3 111 
 RUS  HZ I        1612 29.71         2.2 0.28            147           80.3 111 
 BAR2 SZ EP       1612 13.33                             138    0.1210 80.8  53 
 BAR2 SZ ES   1   1612 27.23        48.5 0.44            138    0.34 7 80.8  53 
 PTB  HZ EP   1   1612 12.79                             135   -0.73 7 88.1 299 
 PTB  HN ES   1   1612 27.03                             135   -0.41 7 88.1 299 
 PTB  HZ I        1612 30.19         5.2 0.12            138           88.1 299 
 BRR  HZ EP   1   1612 15.07                             129   -0.07 7  106   3 
 BRR  HE ES   1   1612 30.86                             129    0.54 7  106   3 
 BRR  HZ I        1612 34.07         3.8 0.30            134            106   3 
 NOR  HZ EP   1   1612 18.21                             121   -0.24 7  139 242 
 NOR  HN ES   1   1612 37.13                             121    0.91 7  139 242 
 NOR  HZ I        1612 39.35         6.6 0.22            126            139 242 
 ZAR  HZ EP   1   1612 24.44                             112    0.22 7  192 321 
 ZAR  HE ES   1   1612 46.16                             112   -0.33 7  192 321 
 ZAR  HZ I        1612 51.36         3.8 0.28            116            192 321 
 HEL  HZ EP   1   1612 25.61                             111    0.50 6  196 271 
 HEL  HN ES   1   1612 47.85                             111   -0.22 6  196 271 
 HEL  HZ I        1612 52.13         2.7 0.38            116            196 271 
                                                                                
