 2013  5 1 1912 41.4 L   6.817 -73.166141.7  RSN 15 0.5 2.7LRSN                1
 GAP= 64        1.26       3.3     3.5  5.6  0.5008E+00  0.5172E+01  0.1792E+01E
 Epicentro: LOS SANTOS - SANTANDER                                             3
 ACTION:UPD 13-06-20 09:47 OP:ep   STATUS:               ID:20130501191241 L   I
 2013-05-01-1910-00M.COL___254                                                 6
 STAT SP IPHASW D HRMM SECON CODA AMPLIT PERI AZIMU VELO AIN AR TRES W  DIS CAZ7
 BAR2 SZ IP     C 1913  0.68                             170    0.0910 24.9 184 
 BAR2 SZ ES       1913 15.47                             170   -0.0810 24.9 184 
 GIR2 SZ EP       1913  0.77                             168    0.2210 29.1 354 
 GIR2 SZ ES       1913 15.49                             168    0.0210 29.1 354 
 GIR2 SZ I        1913 17.31       116.7 0.46            168           29.1 354 
 BRR  HZ EP     C 1913  2.58                             153    0.6210 68.3 298 
 BRR  HN ES       1913 19.19                             153    1.2010 68.3 298 
 BRR  HZ I        1913 23.67        87.3 0.10            152           68.3 298 
 PAM  SZ EP       1913  3.49                             150    0.2910 77.4  42 
 PAM  SN ES       1913 20.24                             150    0.0410 77.4  42 
 PAM  SZ I        1913 22.62       190.2 0.44            154           77.4  42 
 RUS  HZ EP       1913  4.69                             142   -0.2310  103 175 
 RUS  HN ES       1913 22.94                             142   -0.3210  103 175 
 RUS  HZ I        1913 24.69        44.5 0.30            144            103 175 
 PTB  HZ EP       1913  7.52                             131   -0.37 9  146 258 
 PTB  HN ES       1913 27.47                             131   -1.07 9  146 258 
 PTB  HZ I        1913 31.84        47.1 0.22            132            146 258 
 OCA  HZ EP       1913  9.02                             129   -0.19 9  158 354 
 OCA  HN ES       1913 30.65                             129   -0.24 9  158 354 
 OCA  HZ I        1913 34.83        96.7 0.18            131            158 354 
 TAM  HZ EP       1913  9.07                             129    0.05 9  158 105 
 TAM  HN ES       1913 30.01                             129   -0.55 9  158 105 
 TAM  HZ I        1913 31.04        26.5 0.22            133            158 105 
 YOP  SZ EP   1   1913 11.69                             125    0.26 7  182 153 
 YOP  SN ES       1913 34.87                             125    0.02 9  182 153 
 YOP  SZ I        1913 35.88        69.0 0.28            127            182 153 
 NOR  HZ EP       1913 17.46                             118    0.63 8  234 234 
 NOR  HE ES       1913 44.77                             118    0.31 8  234 234 
 NOR  HZ I        1913 52.03        28.0 0.18            119            234 234 
 SML  HZ EP       1913 16.90                             117   -0.63 8  241 336 
 SML  HN ES       1913 45.29                             117   -0.41 8  241 336 
 HEL  HZ EP       1913 22.59                             114    1.36 8  270 255 
 HEL  HE ES       1913 51.30                             114   -0.99 8  270 255 
 HEL  HZ I        1913 57.79        14.8 0.34            115            270 255 
 DBB  SZ EP       1913 28.87                             109    0.42 7  337 274 
 DBB  SZ ES   1   1914  4.84                             109   -0.31 5  337 274 
 PRA  HZ EP       1913 34.69                             106   -0.17 6  393 209 
 PRA  HN ES       1914 16.60                             106    0.05 6  393 209 
 PRA  HZ I        1914 21.77        15.9 0.24            107            393 209 
 SJC  HZ EP   1   1913 35.65                             105   -0.87 4  406 327 
 SJC  HN ES   4   1914 16.24                             105   -3.26 0  406 327 
 SJC  HZ I        1914 20.48        26.6 0.52            107            406 327 
                                                                                
