 2015 10 1 1017 24.6 L   6.801 -73.140146.0  RSN 21 0.5 2.5LRSN                1
 GAP= 71        1.07       2.5     2.8  4.8 -0.7865E+00  0.3922E+01  0.1120E+01E
 Epicentro: LOS SANTOS - SANTANDER                                             3
 ACTION:UPD 15-12-22 20:36 OP:cam  STATUS:               ID:20151001101724 L   I
 OLDACT:REG 15-10-01 20:42 OP:ar   STATUS:               ID:20151001100735     3
 2015-10-01-1007-35M.COL___361                                                 6
 STAT SP IPHASW D HRMM SECON CODA AMPLIT PERI AZIMU VELO AIN AR TRES W  DIS CAZ7
 BAR2 EZ EP       1017 43.89                             170   -0.3410 23.5 191 
 BAR2 EZ ES       1018  0.04                             170    0.4710 23.5 191 
 BAR2 EZ I        1018  0.40        91.4 0.18            168           23.5 191 
 BRR  HZ EP       1017 45.78                             153    0.0110 71.7 298 
 BRR  HN ES       1018  3.20                             153    0.8910 71.7 298 
 BRR  HZ I        1018  7.18        29.6 0.28            153           71.7 298 
 PAM  EZ EP       1017 46.61                             151   -0.1710 77.0  39 
 PAM  EN ES       1018  3.98                             151   -0.1310 77.0  39 
 PAM  EZ I        1018  6.39        37.8 0.60            155           77.0  39 
 RUS  HZ EP       1017 47.90                             144   -0.4410  101 176 
 RUS  HN ES       1018  7.05                             144    0.1610  101 176 
 RUS  HZ I        1018  8.02        39.7 0.24            144            101 176 
 PTB  HZ EP       1017 50.82                             132   -0.79 9  148 259 
 PTB  HN ES       1018 11.94                             132   -0.76 9  148 259 
 PTB  HZ I        1018 19.05        36.6 0.42            132            148 259 
 TAM  HZ EP       1017 52.14                             131   -0.07 9  155 105 
 TAM  HN ES       1018 13.94                             131    0.17 9  155 105 
 TAM  HZ I        1018 19.78        16.5 0.62            133            155 105 
 OCA  HZ EP       1017 52.93                             130    0.03 9  160 353 
 OCA  HE ES       1018 15.11                             130    0.12 9  160 353 
 OCA  HZ I        1018 17.71        65.0 0.22            132            160 353 
 SPBC HZ EP       1017 52.96                             129   -0.16 9  164 219 
 SPBC HN ES       1018 14.88                             129   -0.52 9  164 219 
 SPBC HZ I        1018 22.70        55.8 0.50            129            164 219 
 ZAR  HZ EP       1017 56.53                             123   -0.55 9  205 292 
 ZAR  HN ES       1018 22.46                             123    0.02 9  205 292 
 ZAR  HZ I        1018 28.12        31.6 0.32            124            205 292 
 NOR  HZ EP       1018  0.08                             119   -0.29 8  235 235 
 NOR  HN ES       1018 28.19                             119   -0.10 8  235 235 
 NOR  HZ I        1018 33.23        27.3 0.14            119            235 235 
 SML  HZ EP       1018  0.88                             118   -0.35 8  244 335 
 SML  HN ES       1018 30.02                             118    0.20 8  244 335 
 SML  HZ I        1018 34.42        30.2 0.24            119            244 335 
 CHI  HZ EP       1018  1.93                             117   -0.37 8  249 195 
 CHI  HN ES       1018 31.71                             117   -0.02 8  249 195 
 CHI  HZ I        1018 39.69        11.3 0.56            118            249 195 
 ROSC BZ EP       1018  3.60                             117    0.86 8  253 211 
 ROSC BE ES       1018 32.94                             117    0.43 8  253 211 
 ROSC BZ I        1018 38.57        34.3 0.50            117            253 211 
 HEL  HZ EP       1018  5.58                             115    0.72 8  273 256 
 HEL  HN ES       1018 36.59                             115    0.31 8  273 256 
 HEL  HZ I        1018 44.34        20.1 0.36            116            273 256 
 URE  HZ EP   4   1018  4.36                             114   -1.35 0  284 292 
 URE  HE ES   4   1018 35.24                             114   -2.56 0  284 292 
 URE  HZ I        1018 42.51        11.6 0.20            115            284 292 
 GUY2CHZ EP       1018  9.29                             112    1.04 7  302 235 
 GUY2CHN ES       1018 41.54                             112   -0.77 7  302 235 
 GUY2CHZ I        1018 48.18        17.1 0.24                           302 235 
 PTGC HZ EP   4   1018  4.53                             112   -3.89 0  309 159 
 PTGC HN ES   4   1018 38.77                             112   -3.85 0  309 159 
 PTGC HZ I        1018 55.91        20.4 0.46            113            309 159 
 DBB  SZ EP       1018 12.02                             110   -0.10 7  340 274 
 DBB  SZ ES       1018 49.56                             110    0.35 7  340 274 
 DBB  SZ I        1018 51.57        26.2 0.60            110            340 274 
 ANIL HZ EP       1018 15.46                             109    1.03 6  358 225 
 ANIL HN ES       1018 53.74                             109    0.41 6  358 225 
 ANIL HZ I        1019  3.41        29.5 0.38            109            358 225 
 ORTC HZ EP   2   1018 18.96                             106    0.42 3  396 216 
 ORTC HN ES   2   1019  1.00                             106    0.36 3  396 216 
 ORTC HZ I        1019  6.82        11.5 0.52            107            396 216 
 SJC  HZ EP   2   1018 19.72                             106   -0.45 3  409 327 
 SJC  HN ES   4   1018 58.89                             106   -4.65 0  409 327 
 SJC  HZ I        1019  3.50         4.2 0.50            107            409 327 
                                                                                
