 2012  3 1 1614 54.3 L   6.756 -73.137140.8  RSN  7 0.2 1.6LRSN                1
 GAP=140        0.41       2.6     2.9  4.5  0.1111E+01  0.4797E+01  0.3023E+01E
 ACTION:UP  12-03-31 23:16 OP:EP   STATUS:               ID:20120301161454 L   I
 2012-03-01-1610-00M.COL___191                                                 6
 STAT SP IPHASW D HRMM SECON CODA AMPLIT PERI AZIMU VELO SNR AR TRES W  DIS CAZ7
 BAR2 SZ EP   1   1615 13.21                             172     0.0 7   19 195 
 BAR2 SZ ES   1   1615 28.17                             172     0.1 7   19 195 
 BAR2 SZ I        1615 30.37         8.7 0.25                            19 195 
 BRR  HZ EP   1   1615 15.21                             150     0.1 7   74 302 
 BRR  HE ES   1   1615 31.49                             150     0.2 7   74 302 
 PAM  SN ES   1   1615 33.07                             149    -0.2 7   81  37 
 PAM  SZ I        1615 35.18         7.1 0.43                            81  37 
 RUS  HZ EP   1   1615 17.27                             144     0.1 7   96 176 
 RUS  HN ES   1   1615 34.96                             144    -0.1 7   96 176 
 RUS  HZ I        1615 36.76         4.3 0.39                            96 176 
 ZAR  HN ES   1   1615 51.87                             121    -0.1 6  207 293 
 ZAR  HZ I        1615 57.51         5.4 0.12                           207 293 
 NOR  SN ES   1   1615 56.77                             118    -0.2 6  233 236 
 CHI  HZ EP   2   1615 31.57                             116     0.3 4  244 196 
 CHI  HZ I        1616  6.20         2.4 0.41                           244 196 
                                                                                
