 2014 12 1 1033 29.7 L   6.807 -73.145145.9  RSN 18 0.4 2.1LRSN                1
 GAP=112        0.89       2.8     3.2  5.0 -0.4382E+00  0.1080E+01  0.3391E+01E
 Epicentro: LOS SANTOS - SANTANDER                                             3
 ACTION:UPD 15-02-10 16:59 OP:nd   STATUS:               ID:20141201103329 L   I
 OLDACT:REG 14-12-01 19:48 OP:spq  STATUS:               ID:20141201102747     3
 2014-12-01-1027-47M.COL___303                                                 6
 STAT SP IPHASW D HRMM SECON CODA AMPLIT PERI AZIMU VELO AIN AR TRES W  DIS CAZ7
 BAR2 SZ EP       1033 49.28                             170   -0.1010 24.1 190 
 BAR2 SZ ES   1   1034  4.54                             170   -0.18 7 24.1 190 
 BAR2 SZ I        1034  5.96        33.1 0.20            168           24.1 190 
 BRR  HZ EP       1033 50.98                             153    0.1110 70.9 298 
 BRR  HN ES       1034  8.30                             153    0.9410 70.9 298 
 BRR  HZ I        1034 13.39        17.1 0.18            151           70.9 298 
 RUS  HZ EP       1033 53.49                             144   -0.0510  101 176 
 RUS  HE ES   1   1034 11.77                             144   -0.34 7  101 176 
 RUS  HZ I        1034 13.20        10.7 0.32            145            101 176 
 PTB  HZ EP       1033 56.34                             132   -0.38 9  148 259 
 PTB  HN ES       1034 17.13                             132   -0.64 9  148 259 
 PTB  HZ I        1034 21.81        12.1 0.40            131            148 259 
 TAM  HZ EP       1033 57.53                             131    0.11 9  155 105 
 TAM  HN ES   2   1034 18.89                             131   -0.14 5  155 105 
 TAM  HZ I        1034 22.12        17.6 0.42            134            155 105 
 OCA  HZ EP   1   1033 57.70                             130   -0.27 7  160 353 
 OCA  HN ES       1034 20.07                             130    0.06 9  160 353 
 OCA  HZ I        1034 25.01        23.6 0.38            131            160 353 
 SPBC HZ EP       1033 58.15                             129   -0.13 9  164 219 
 SPBC HE ES       1034 20.34                             129   -0.23 9  164 219 
 SPBC HZ I        1034 21.57        24.4 0.26            129            164 219 
 ZAR  HZ EP       1034  1.67                             122   -0.48 9  204 292 
 ZAR  HN ES       1034 27.39                             122   -0.06 9  204 292 
 ZAR  HZ I        1034 32.85        16.5 0.34            123            204 292 
 NOR  HZ EP       1034  5.61                             118    0.10 8  235 234 
 NOR  HN ES   1   1034 32.90                             118   -0.52 6  235 234 
 NOR  HZ I        1034 38.73        14.6 0.34            119            235 234 
 CHI  HZ EP       1034  7.43                             117   -0.07 8  249 195 
 CHI  HN ES   1   1034 37.29                             117    0.32 6  249 195 
 CHI  HZ I        1034 42.46         3.6 0.26            118            249 195 
 HEL  HZ EP   4   1034 11.05                             115    1.09 0  272 256 
 HEL  HN ES   4   1034 44.67                             115    3.31 0  272 256 
 HEL  HZ I        1034 48.71         9.6 0.28            115            272 256 
 GUY2CHZ EP   4   1034 14.46                             112    1.08 0  302 235 
 GUY2CHN ES   4   1034 50.66                             112    3.21 0  302 235 
 GUY2CHZ I        1034 56.04         8.7 0.46                           302 235 
 PTGC HZ EP   4   1034 12.37                             112   -1.28 0  309 159 
 CBOC HZ EP       1034 17.21                             110    0.54 7  334 252 
 CBOC HE ES   1   1034 53.22                             110   -0.07 5  334 252 
 CBOC HZ I        1035  5.20         2.1 0.42            110            334 252 
 TOL  SZ EP       1034 18.84                             109    0.80 7  344 225 
 TOL  SN ES       1034 56.47                             109    0.73 7  344 225 
 MON  HZ EP   4   1034 16.58                             109   -2.10 0  353 308 
 MON  HN ES   4   1034 55.10                             109   -1.77 0  353 308 
 MON  HZ I        1034 57.56         4.6 0.66            109            353 308 
 ANIL HZ EP   4   1034 21.58                             108    1.99 0  358 224 
 ANIL HE ES   4   1035  0.37                             108    1.88 0  358 224 
 ANIL HZ I        1035 10.66         1.9 0.48            109            358 224 
 ORTC HZ EP       1034 23.50                             106   -0.21 6  396 216 
 ORTC HN ES       1035  6.54                             106    0.71 6  396 216 
 ORTC HZ I        1035 11.80         3.9 0.22            107            396 216 
 SJC  HZ EP   4   1034 23.44                             106   -1.78 0  409 327 
 SJC  HE ES   4   1035  4.60                             106   -3.90 0  409 327 
 SJC  HZ I        1035  8.71         2.7 0.44            107            409 327 
                                                                                
