 2011  2 1 1526 59.1 L   6.813 -73.183139.8  RSN  6 0.4 1.7LRSN                1
 GAP=154        0.81       4.8     8.8  7.4 -0.1716E+02  0.2920E+02 -0.4652E+01E
 Epicentro: ZAPATOCA - SANTANDER                                               3
 ACTION:UP  11-03-28 15:05 OP:jfem STATUS:               ID:20110201152659 L   I
 2011-02-01-1523-26S.COL___138                                                 6
 STAT SP IPHASW D HRMM SECON CODA AMPLIT PERI AZIMU VELO SNR AR TRES W  DIS CAZ7
 BTL  SZ EP       1527 18.21                             173     0.410   15 321 
 BAR2 SZ EP       1527 17.92                             170    -0.110   25 180 
 BAR2 SZ ES       1527 32.72                             170     0.010   25 180 
 RUS  HZ EP   1   1527 21.80                             142    -0.6 7  102 174 
 RUS  HN ES       1527 40.43                             142    -0.110  102 174 
 RUS  HZ I        1527 41.97        13.6 0.34                           102 174 
 GRA  SZ EP   2   1527 23.42                             136    -0.3 5  126  19 
 GRA  SZ ES   2   1527 43.25                             136     0.2 5  126  19 
 NOR  SZ EP   1   1527 34.55                             117     0.4 6  232 234 
 NOR  SN ES   1   1528  1.17                             117    -0.4 6  232 234 
 NOR  SZ I        1528  4.30         1.8 0.48                           232 234 
 CHI  HZ EP   1   1527 36.26                             116    -0.2 6  249 194 
 CHI  HN ES   1   1528  6.50                             116     0.8 6  249 194 
 CHI  HZ I        1528  9.33         3.4 0.45                           249 194 
                                                                                
