 2013 11 1 1544 55.9 L   6.785 -73.123149.8  RSN  8 0.5 1.9LRSN                1
 GAP=140        1.29       5.5     5.4  8.2 -0.4308E+01  0.1083E+02  0.6071E+01E
 Epicentro: LOS SANTOS - SANTANDER                                             3
 ACTION:UPD 14-01-09 16:24 OP:ep   STATUS:               ID:20131101154455 L   I
 OLDACT:DUP 13-11-01 16:46 OP:carl STATUS:               ID:20131101153843d    3
 2013-11-01-1538-42M.COL___219                                                 6
 STAT SP IPHASW D HRMM SECON CODA AMPLIT PERI AZIMU VELO AIN AR TRES W  DIS CAZ7
 BAR2 SZ EP       1545 15.92                             171   -0.1210 22.3 197 
 BAR2 SZ ES       1545 30.89                             171   -0.8210 22.3 197 
 BAR2 SZ I        1545 33.59        22.5 0.28            171           22.3 197 
 BRR  HZ EP       1545 18.04                             152    0.3410 74.2 299 
 BRR  HN ES       1545 35.66                             152    1.0010 74.2 299 
 BRR  HZ I        1545 40.06        13.4 0.14            152           74.2 299 
 PAM  SZ EP       1545 18.84                             152    0.2710 77.1  37 
 PAM  SN ES       1545 36.02                             152   -0.2010 77.1  37 
 PAM  SZ I        1545 38.04        15.5 0.52            155           77.1  37 
 RUS  HZ EP       1545 19.77                             145   -0.2010 98.8 177 
 RUS  HN ES       1545 38.98                             145    0.2810 98.8 177 
 RUS  HZ I        1545 39.87         3.6 0.50            148           98.8 177 
 PTB  HZ EP       1545 22.81                             132   -0.63 9  150 260 
 PTB  HN ES       1545 44.07                             132   -0.81 9  150 260 
 PTB  HZ I        1545 49.66        13.6 0.32            134            150 260 
 SPBC HZ EP       1545 24.97                             130    0.18 9  164 220 
 SPBC HN ES       1545 48.02                             130    0.74 9  164 220 
 SPBC HZ I        1545 49.20        13.3 0.38            132            164 220 
 ZAR  HN ES       1545 54.62                             123   -0.09 8  207 292 
 NOR  HZ EP       1545 32.06                             119    0.03 8  236 235 
 NOR  HE ES       1546  0.12                             119   -0.06 8  236 235 
 NOR  HZ I        1546  3.40         5.5 0.24            121            236 235 
                                                                                
