 2010  9 1 1114 49.7 L   6.828 -73.118117.4  RSN  4 0.4 1.7LRSN                1
 GAP=237        1.14      12.5    20.5 13.4  0.1952E+03 -0.9226E+02 -0.2026E+02E
 Epicentro: LOS SANTOS - SANTANDER                                             3
 ACTION:UP  11-02-18 10:59 OP:tino STATUS:               ID:20100901111449 L   I
 2010-09-01-1111-45S.COL___120                                                 6
 STAT SP IPHASW D HRMM SECON CODA AMPLIT PERI AZIMU VELO SNR AR TRES W  DIS CAZ7
 BTL  SZ IP       1115  6.47                             170     0.610   19 301 
 BTL  SZ ES   1   1115 17.80                             170    -0.7 7   19 301 
 BAR2 SZ EP   1   1115  6.34                             166     0.3 7   27 195 
 BAR2 SZ I        1115 30.63         8.5 0.77                            27 195 
 BRR  HZ IP     D 1115  7.56                             146    -0.410   73 295 
 BRR  HZ I        1115  7.82        24.8 0.13                            73 295 
 BRR  HE ES       1115 22.46                             146     0.210   73 295 
 RUS  HZ EP   1   1115 10.59                             136    -0.5 7  104 178 
 RUS  HE ES   1   1115 27.88                             136     0.2 7  104 178 
                                                                                
