 2013 10 1 1630  2.9 L   6.710 -73.102150.2  RSN  5 0.5 1.6LRSN                1
 GAP=146        1.42       7.7     7.7 10.6 -0.6203E+01  0.1174E+02  0.8316E+00E
 Epicentro: JORDAN - SANTANDER                                                 3
 ACTION:UPD 13-11-25 09:18 OP:ep   STATUS:               ID:20131001163002 L   I
 OLDACT:REG 13-10-01 17:21 OP:stll STATUS:               ID:20131001162847     3
 2013-10-01-1628-47M.COL___240                                                 6
 STAT SP IPHASW D HRMM SECON CODA AMPLIT PERI AZIMU VELO AIN AR TRES W  DIS CAZ7
 BAR2 SZ ES       1630 39.47                             174    0.9410 15.7 214 
 BRR  HZ EP       1630 25.21                             150    0.1810 80.4 303 
 BRR  HN ES       1630 42.69                             150    0.3810 80.4 303 
 PAM  SZ EP       1630 26.05                             150    0.1910 82.6  33 
 PAM  SZ I        1630 26.31        13.0 0.24            153           82.6  33 
 PAM  SN ES       1630 42.97                             150   -0.8410 82.6  33 
 RUS  HZ EP       1630 26.71                             148    0.3510 90.4 179 
 RUS  HN ES       1630 44.10                             148   -0.5910 90.4 179 
 RUS  HZ I        1630 46.66         3.7 0.36            147           90.4 179 
 PTB  HZ EP       1630 30.40                             132   -0.08 9  151 263 
 PTB  HN ES       1630 51.38                             132   -0.64 9  151 263 
 PTB  HZ I        1630 58.93         3.5 0.48            130            151 263 
                                                                                
