 2011  4 1 1904 27.8 L   6.810 -73.121143.9  RSN 14 0.4 2.8LRSN                1
 GAP=116        0.76       3.4     5.1  6.4 -0.1891E+01  0.2247E+01  0.7756E+01E
 Epicentro: LOS SANTOS - SANTANDER                                             3
 ACTION:UP  11-06-22 15:27 OP:REBC STATUS:               ID:20110401190427 L   I
 2011-04-01-1902-19S.COL___138                                                 6
 STAT SP IPHASW D HRMM SECON CODA AMPLIT PERI AZIMU VELO SNR AR TRES W  DIS CAZ7
 BTL  SZ EP       19 4 47.27                             172     0.110   20 306 
 BAR2 SZ EP       19 4 46.81                             169    -0.410   25 196 
 BAR2 SZ ES   2   19 5  1.70                             169    -0.7 5   25 196 
 BAR2 SZ I        19 5  3.54       117.1 0.23                            25 196 
 BRR  HZ IP     C 19 4 48.87                             152     0.010   73 297 
 BRR  HN ES   1   19 5  5.87                             152     0.6 7   73 297 
 BRR  HZ I        19 5  9.25       137.7 0.15                            73 297 
 PAM  SZ EP   1   19 4 49.82                             151     0.2 7   75  38 
 PAM  SN ES   2   19 5  6.49                             151    -0.2 5   75  38 
 GRA  SZ IP       19 4 52.79                             137     0.110  124  16 
 GRA  SZ I        19 4 53.92        97.4 0.27                           124  16 
 GRA  SZ ES   2   19 5 12.30                             137     0.1 5  124  16 
 OCA  SZ EP   1   19 4 55.49                             129    -0.4 7  160 352 
 OCA  SZ ES   2   19 5 17.34                             129    -0.5 5  160 352 
 OCA  SZ I        19 5 20.60       117.5 0.25                           160 352 
 YOP  SZ IP       19 4 58.01                             126     0.3 9  179 154 
 YOP  SN ES   2   19 5 21.79                             126     0.8 4  179 154 
 YOP  SZ I        19 5 25.26        35.1 0.45                           179 154 
 NOR  SZ EP   1   19 5  3.55                             118    -0.2 6  238 235 
 CHI  HZ EP   1   19 5  5.64                             117     0.1 6  250 196 
 CHI  HE ES   2   19 5 34.58                             117    -0.5 4  250 196 
 CHI  HZ I        19 5 41.87        29.1 0.59                           250 196 
 HEL  HZ EP   2   19 5  8.86                             114     0.6 4  275 256 
 HEL  HZ I        19 5 45.15        30.9 0.36                           275 256 
 VIL  SZ EP   2   19 5 11.19                             112    -0.1 4  305 192 
 VIL  SN ES   2   19 5 44.40                             112    -0.9 4  305 192 
 VIL  SZ I        19 5 55.94        34.2 0.43                           305 192 
 RREF HN ES   2   19 5 51.34                             110     1.0 3  325 230 
 RREF HZ I        19 5 59.70        29.7 0.29                           325 230 
 DBB  SZ EP   1   19 5 15.29                             109    -0.2 5  342 274 
 PRA  HZ EP   2   19 5 21.25                             106    -0.3 3  394 210 
 PRA  HN ES   2   19 6  2.90                             106    -0.5 3  394 210 
                                                                                
