 2013  4 1 1052 53.7 L   6.804 -73.147144.0  RSN  6 0.4 1.5LRSN                1
 GAP=201        0.76       5.2     6.2  8.0  0.1382E+02 -0.2600E+01 -0.1909E+02E
 Epicentro: LOS SANTOS - SANTANDER                                             3
 ACTION:UPD 13-05-22 14:35 OP:EP   STATUS:               ID:20130401105253 L   I
 2013-04-01-1049-52M.COL___203                                                 6
 STAT SP IPHASW D HRMM SECON CODA AMPLIT PERI AZIMU VELO AIN AR TRES W  DIS CAZ7
 BAR2 SZ EP   1   1053 13.24                             170    0.14 9 23.8 189 
 BAR2 SZ ES   1   1053 28.24                             170   -0.02 9 23.8 189 
 BAR2 SZ I        1053 29.89        17.4 0.18            172           23.8 189 
 BRR  HN ES   2   1053 31.49                             152    0.54 6 70.9 298 
 RUS  HZ EP   1   1053 17.77                             143    0.48 9  101 176 
 RUS  HN ES   1   1053 35.38                             143   -0.33 9  101 176 
 RUS  HZ I        1053 37.01         1.3 0.16            148            101 176 
 PTB  HZ EP   1   1053 20.63                             131    0.14 9  148 259 
 PTB  HN ES   1   1053 40.79                             131   -0.63 9  148 259 
 PTB  HZ I        1053 46.74         3.2 0.28            131            148 259 
 ZAR  HE ES   1   1053 51.84                             122    0.67 8  204 292 
 ZAR  HZ I        1053 57.06         2.4 0.24            122            204 292 
 SML  HZ EP       1053 29.81                             117   -0.3410  243 335 
 SML  HN ES   1   1053 58.28                             117   -0.32 7  243 335 
 SML  HZ I        1054  7.42         4.8 0.24            117            243 335 
                                                                                
