 2010 12 1 1310 58.5 L   6.771 -73.114145.8  RSN 14 0.4 3.0LRSN                1
 GAP=162        0.88       3.5     6.4  5.9 -0.2285E+01  0.9909E+01  0.3100E+01E
 Epicentro: LOS SANTOS - SANTANDER                                             3
 ACTION:UP  11-01-14 15:22 OP:pat  STATUS:               ID:20101201131058 L   I
 2010-12-01-1308-20S.COL___131                                                 6
 STAT SP IPHASW D HRMM SECON CODA AMPLIT PERI AZIMU VELO SNR AR TRES W  DIS CAZ7
 BAR2 SZ IP       1311 18.03                             171     0.010   21 201 
 BAR2 SZ ES   1   1311 33.00                             171    -0.4 7   21 201 
 BAR2 SZ I        1311 34.97       253.0 0.10                            21 201 
 BRR  HZ IP     C 1311 20.05                             151     0.210   76 299 
 BRR  HZ I        1311 20.51       351.7 0.09                            76 299 
 BRR  HE ES   1   1311 37.29                             151     0.7 7   76 299 
 RUS  HZ IP     C 1311 21.83                             145    -0.210   97 178 
 RUS  HN ES   1   1311 40.17                             145    -0.2 7   97 178 
 RUS  HZ I        1311 41.21       123.5 0.42                            97 178 
 GRA  SZ EP   2   1311 24.68                             137     0.8 5  128  16 
 GRA  SZ I        1311 46.06       131.9 0.09                           128  16 
 OCA  SZ EP       1311 26.79                             129    -0.3 9  164 352 
 OCA  SZ ES   1   1311 49.04                             129    -0.4 7  164 352 
 OCA  SZ I        1311 52.21       106.7 0.35                           164 352 
 NOR  SZ EP       1311 33.88                             118    -0.4 8  236 236 
 NOR  SE ES   1   1312  2.61                             118     0.3 6  236 236 
 CHI  HZ EP       1311 35.91                             117     0.0 8  246 196 
 CHI  HE ES   1   1312  4.87                             117    -0.3 6  246 196 
 CHI  HZ I        1312 11.99        35.3 0.12                           246 196 
 ROSC BZ EP       1311 37.19                             117     0.7 8  252 212 
 HEL  HZ EP   2   1311 38.71                             114    -0.3 4  275 257 
 HEL  HN ES   2   1312  9.94                             114    -0.6 4  275 257 
 HEL  HZ I        1312 17.00        71.6 0.29                           275 257 
 RREF HZ EP   1   1311 44.99                             111     0.3 5  322 230 
 RREF HZ I        1312 27.49        74.1 0.24                           322 230 
 DBB  SZ EP   1   1311 46.03                             109    -0.3 5  343 275 
 TOL  SZ EP   1   1311 47.24                             109     0.5 5  344 225 
 ANIL HZ EP   1   1311 48.90                             108     0.6 5  358 225 
 PRA  HZ EP   2   1311 51.12                             106    -0.7 3  391 210 
                                                                                
