 2011 11 1 1659  7.1 L   6.737 -73.094145.1  RSN  8 0.3 1.9LRSN                1
 GAP=146        0.64       3.2     4.3  4.7 -0.3225E+01  0.2338E+01  0.2477E+01E
 Epicentro: JORDAN - SANTANDER                                                 3
 ACTION:UPD 12-07-13 16:07 OP:ep   STATUS:               ID:20111101165907 L   I
 2011-11-01-1657-58S.COL___176                                                 6
 STAT SP IPHASW D HRMM SECON CODA AMPLIT PERI AZIMU VELO AIN AR TRES W  DIS CAZ7
 BAR2 SZ EP   1   1659 26.54                             172    0.00 7 18.8 211 
 BAR2 SZ ES   1   1659 41.21                             172   -0.51 7 18.8 211 
 BAR2 SZ I        1659 44.80        22.1 0.35                          18.8 211 
 BTL  SZ EP   2   1659 26.79                             169    0.07 5 27.8 316 
 BRR  HZ I        1659 48.41        24.4 0.11                          79.6 301 
 PAM  SZ EP       1659 29.59                             150    0.2410 79.6  33 
 PAM  SN ES   1   1659 46.24                             150   -0.49 7 79.6  33 
 PAM  SZ I        1659 48.91        10.3 0.19                          79.6  33 
 BRR  HZ EP       1659 28.66                             150    0.0110 79.6 301 
 BRR  HN ES       1659 45.81                             150    0.3310 79.6 301 
 RUS  HZ EP       1659 30.66                             146    0.4110 93.4 179 
 RUS  HN ES   1   1659 48.40                             146    0.07 7 93.4 179 
 RUS  HZ I        1659 50.75         8.6 0.19                          93.4 179 
 OCA  SZ EP   1   1659 35.70                             128   -0.36 7  168 351 
 OCA  SZ ES   2   1659 58.75                             128    0.08 5  168 351 
 OCA  SZ I        17 0  2.55        13.5 0.22                           168 351 
 NOR  SZ EP       1659 42.49                             118   -0.36 8  235 237 
 NOR  SN ES   1   17 0 10.69                             118   -0.06 6  235 237 
 PRA  HZ EP   1   17 0  0.04                             106   -0.16 4  389 211 
 PRA  HN ES   2   17 0 41.16                             106   -0.49 3  389 211 
                                                                                
