 2012  1 1 1933 53.3 L   6.763 -73.147138.0  RSN  7 0.3 1.5LRSN                1
 GAP=138        0.64       3.5     4.4  7.2 -0.2757E+01  0.1360E+02 -0.1135E+01E
 Epicentro: LOS SANTOS - SANTANDER                                             3
 ACTION:UP  12-02-03 08:13 OP:REBC STATUS:               ID:20120101193353 L   I
 2012-01-01-1930-00M.COL___187                                                 6
 STAT SP IPHASW D HRMM SECON CODA AMPLIT PERI AZIMU VELO SNR AR TRES W  DIS CAZ7
 BAR2 SZ ES   2   1934 26.82                             172     0.3 5   19 192 
 BRR  HZ EP   1   1934 14.22                             150     0.4 7   73 301 
 BRR  HZ I        1934 17.52         7.8 0.11                            73 301 
 BRR  HN ES   2   1934 29.89                             150     0.2 5   73 301 
 PAM  SZ EP   1   1934 15.20                             148     0.3 7   81  38 
 PAM  SZ I        1934 15.45         7.0 0.15                            81  38 
 PAM  SN ES       1934 31.58                             148    -0.210   81  38 
 RUS  HZ EP   1   1934 16.09                             143     0.0 7   96 176 
 RUS  HN ES       1934 33.70                             143     0.010   96 176 
 RUS  HZ I        1934 36.10         3.2 0.27                            96 176 
 PTB  HZ EP   1   1934 19.05                             130    -0.6 7  147 260 
 PTB  HE ES   2   1934 39.68                             130    -0.4 5  147 260 
 ZAR  HN ES   2   1934 50.61                             120     0.1 4  206 293 
 NOR  SN ES   2   1934 56.05                             117     0.4 4  232 235 
                                                                                
