 2010  4 1 1333 29.3 L   6.804 -73.000150.9  RSN  4 0.5 1.8LRSN                1
 GAP=266        0.87      13.7    14.6 13.4 -0.7515E+01  0.2813E+02  0.8923E+02E
 Epicentro: CEPITA - SANTANDER                                                 3
 ACTION:UPD 10-08-24 09:57 OP:vdl  STATUS:               ID:20100401133329 L   I
 2010-04-01-1331-21S.COL___098                                                 6
 STAT SP IPHASW D HRMM SECON CODA AMPLIT PERI AZIMU VELO AIN AR TRES W  DIS CAZ7
 BAR2 SZ IP       1333 50.02                             169     0.310   31 221 
 BAR2 SZ ES   2   1334  5.13                             169    -0.6 5   31 221 
 BRR  HZ EP   1   1333 52.04                             150     0.1 7   86 293 
 BRR  HZ I        1333 52.38        12.0 0.09                            86 293 
 BRR  HN ES   2   1334  9.47                             150     0.0 5   86 293 
 CHI  HZ EP   2   1334  8.12                             118     0.2 4  254 199 
 RREF BZ EP   1   1334 15.95                             111    -1.2 5  334 231 
 RREF BN ES   2   1334 55.13                             111     0.7 3  334 231 
 RREF BZ I        1334 58.88         2.0 0.15                           334 231 
                                                                                
