 2017  7 1 1211 54.1 L   6.753 -73.326123.8  RSN  7 0.4 2.0LRSN                1
 GAP=186        0.82       5.3     4.3  5.7  0.1519E+02  0.4035E+01  0.6058E+01E
 Epicentro: ZAPATOCA - SANTANDER                                               3
 ACTION:UPD 17-08-30 15:28 OP:rebc STATUS:               ID:20170701121154 L   I
 OLDACT:REG 17-07-01 20:59 OP:osc  STATUS:               ID:20170701120738     3
 2017-07-01-1208-00M.COL___377                                                 6
 STAT SP IPHASW D HRMM SECON CODA AMPLIT PERI AZIMU VELO AIN AR TRES W  DIS CAZ7
 BAR2 EZ EP     C 1212 11.57                             169    0.4610 23.8 138 
 BAR2 EZ ES       1212 24.43                             169    0.0610 23.8 138 
 BAR2 EZ I        1212 25.80        48.1 0.40            167           23.8 138 
 BRR  HZ EP       1212 11.92                             153   -0.2110 57.9 313 
 BRR  HE ES       1212 26.08                             153   -0.1010 57.9 313 
 BRR  HZ I        1212 26.87        22.7 0.12            154           57.9 313 
 PTB  HZ EP       1212 16.78                             131   -0.6410  127 259 
 PTB  HE ES       1212 35.54                             131   -0.0710  127 259 
 PTB  HZ I        1212 38.63         6.5 0.34            130            127 259 
 SPBC HE ES   2   1212 39.82                             127    0.66 5  147 214 
 YPLC HZ EP       1212 23.24                             120    0.19 9  183 145 
 YPLC HE ES       1212 45.31                             120   -0.31 9  183 145 
 YPLC HZ I        1212 50.62        16.6 0.28            120            183 145 
 ZAR  HZ EP       1212 23.80                             119    0.31 9  188 296 
 ZAR  HE ES       1212 46.71                             119    0.30 9  188 296 
 ZAR  HZ I        1212 50.22         9.9 0.09            120            188 296 
 URE  HE ES   3   1213  0.59                             110   -1.56 2  268 295 
                                                                                
