 2010  9 1 1801 15.9 L   6.782 -73.028148.9  RSN  7 0.4 2.2LRSN                1
 GAP=172        1.06       5.3    12.1 10.4 -0.9512E+01 -0.2968E+02 -0.1457E+02E
 Epicentro: CEPITA - SANTANDER                                                 3
 ACTION:UP  11-02-18 10:59 OP:tino STATUS:               ID:20100901180115 L   I
 2010-09-01-1756-32S.COL___120                                                 6
 STAT SP IPHASW D HRMM SECON CODA AMPLIT PERI AZIMU VELO SNR AR TRES W  DIS CAZ7
 BAR2 SZ IP       18 1 36.19                             169     0.210   27 219 
 BAR2 SZ ES   1   18 1 51.49                             169    -0.1 7   27 219 
 BAR2 SZ I        18 1 53.00        45.0 0.34                            27 219 
 BRR  HZ IP     C 18 1 38.09                             149     0.010   84 296 
 BRR  HZ I        18 1 38.36        72.9 0.14                            84 296 
 BRR  HN ES   1   18 1 55.55                             149     0.1 7   84 296 
 RUS  HE ES   1   18 1 58.55                             145     0.1 7   99 184 
 RUS  HZ I        18 2  0.08        18.6 0.25                            99 184 
 GUE  SZ IP       18 1 40.26                             140    -0.610  117   6 
 GUE  SZ I        18 1 41.81        11.9 0.07                           117   6 
 GRA  SZ IP       18 1 41.99                             138     0.710  124  11 
 GRA  SZ I        18 1 43.12        30.9 0.34                           124  11 
 GRA  SZ ES   1   18 2  0.77                             138    -0.4 7  124  11 
 OCA  SZ EP   1   18 1 44.70                             129    -0.1 7  164 349 
 OCA  SZ ES   1   18 2  7.51                             129     0.1 7  164 349 
 OCA  SZ I        18 2 12.72        24.6 0.40                           164 349 
 CHI  HE ES   2   18 2 22.96                             117    -0.7 4  250 198 
 CHI  HZ I        18 2 31.35         7.4 0.33                           250 198 
                                                                                
