 2011  5 1 1749 41.4 L   6.782 -73.121146.1  RSN 20 0.4 3.6LRSN                1
 GAP=104        0.92       3.2     4.5  4.9 -0.5206E+01  0.5254E+01  0.3570E+01E
 Epicentro: LOS SANTOS - SANTANDER                                             3
 ACTION:UP  11-06-29 08:50 OP:tino STATUS:               ID:20110501174941 L   I
 2011-05-01-1748-00S.COL___129                                                 6
 STAT SP IPHASW D HRMM SECON CODA AMPLIT PERI AZIMU VELO SNR AR TRES W  DIS CAZ7
 BAR2 SZ IP       1750  0.97                             171    -0.110   22 198 
 BAR2 SZ ES   1   1750 15.95                             171    -0.4 7   22 198 
 BAR2 SZ I        1750 17.33      1052.7 0.30                            22 198 
 GIR2 SZ EP       1750  1.05                             166    -0.110   34 346 
 GIR2 SZ ES   1   1750 16.62                             166     0.0 7   34 346 
 BRR  HZ IP     C 1750  2.86                             151     0.110   75 299 
 BRR  HZ I        1750  3.22       754.3 0.35                            75 299 
 BRR  HN ES   1   1750 20.30                             151     0.9 7   75 299 
 PAM  SZ IP       1750  3.78                             151     0.110   77  37 
 PAM  SN ES   1   1750 21.05                             151     0.1 7   77  37 
 RUS  HZ IP     D 1750  4.79                             144    -0.210   98 178 
 RUS  HN ES   1   1750 23.26                             144    -0.2 7   98 178 
 RUS  HZ I        1750 24.90       281.7 0.28                            98 178 
 BRI  SZ IP       1750  5.50                             141     0.110  109  19 
 BRI  SZ ES   2   1750 24.53                             141     0.4 5  109  19 
 GUE  SZ EP   2   1750  6.36                             139     0.1 5  118  11 
 GRA  SZ IP       1750  6.78                             137     0.010  127  16 
 GRA  SZ ES   1   1750 26.76                             137     0.2 7  127  16 
 GRA  SZ I        1750 28.14       416.7 0.36                           127  16 
 OCA  SZ IP       1750  9.22                             129    -0.7 9  163 352 
 OCA  SZ ES   1   1750 31.78                             129    -0.4 7  163 352 
 OCA  SZ I        1750 35.96       398.8 0.29                           163 352 
 YOP  SZ IP       1750 11.43                             127     0.3 9  176 154 
 NOR  SZ EP       1750 16.89                             118    -0.4 8  236 235 
 NOR  SE ES       1750 44.57                             118    -0.7 8  236 235 
 ROSC BZ EP       1750 20.45                             117     1.0 8  252 212 
 ROSC BZ I        1750 57.02       494.4 0.65                           252 212 
 HEL  HZ EP       1750 22.12                             114     0.3 8  274 256 
 HEL  HN ES   3   1750 52.90                             114    -0.5 2  274 256 
 HEL  HZ I        1750 59.65       142.6 0.33                           274 256 
 VIL  SZ EP   1   1750 24.14                             112    -0.5 5  302 192 
 VIL  SZ I        1751  2.78       177.8 0.41                           302 192 
 GUY  SZ EP       1750 25.78                             112     0.4 7  305 236 
 GUY  SN ES   3   1751  0.01                             112     0.3 2  305 236 
 RREF HZ EP   1   1750 27.80                             111     0.2 5  323 230 
 RREF HZ I        1751 13.55       359.6 0.24                           323 230 
 DBB  SZ EP       1750 29.25                             109     0.0 7  342 275 
 TOL  SZ EP   1   1750 30.65                             109     0.9 5  344 225 
 SDV  BZ EP   3   1750 30.31                             108    -1.0 2  360  50 
 PRA  HZ EP       1750 34.44                             106    -0.4 6  392 210 
 PRA  HN ES   2   1751 16.74                             106     0.1 3  392 210 
                                                                                
