 2016  5 1 1031 10.6 L   6.802 -73.145136.1  RSN 10 0.5 1.6LRSN                1
 GAP=137        1.18       3.6     5.1  7.8 -0.2876E+01  0.1649E+02  0.1745E+01E
 Epicentro: LOS SANTOS - SANTANDER                                             3
 ACTION:UPD 16-08-18 17:40 OP:cam  STATUS:               ID:20160501103110 L   I
 OLDACT:REG 16-05-02 01:13 OP:ak   STATUS:               ID:20160501102447     3
 2016-05-01-1024-47M.COL___291                                                 6
 STAT SP IPHASW D HRMM SECON CODA AMPLIT PERI AZIMU VELO AIN AR TRES W  DIS CAZ7
 BAR2 EZ EP       1031 29.07                             170    0.0510 23.5 190 
 BAR2 EZ ES       1031 43.53                             170    0.1010 23.5 190 
 BAR2 EZ I        1031 44.88        10.8 0.16            167           23.5 190 
 PAM  EZ EP       1031 31.98                             149    0.2510 77.2  40 
 PAM  EN ES       1031 48.64                             149    0.3910 77.2  40 
 PAM  EZ I        1031 50.96         8.8 0.50            145           77.2  40 
 RUS  HZ EP       1031 32.86                             142   -0.5210  101 176 
 RUS  HN ES       1031 51.52                             142    0.3410  101 176 
 RUS  HZ I        1031 53.17         5.6 0.40            136            101 176 
 PTB  HZ EP   1   1031 36.06                             130   -0.70 7  148 259 
 PTB  HN ES       1031 56.45                             130   -0.76 9  148 259 
 PTB  HZ I        1031 59.90         4.3 0.12            123            148 259 
 OCA  HN ES       1031 58.75                             127   -0.86 9  160 353 
 SPBC HZ EP       1031 38.16                             127   -0.19 9  163 219 
 SPBC HN ES       1031 59.82                             127   -0.21 9  163 219 
 SPBC HZ I        1032  3.26         6.7 0.20            121            163 219 
 ZAR  HZ EP       1031 43.02                             120    0.63 9  204 292 
 ZAR  HN ES       1032  7.99                             120    0.77 9  204 292 
 ZAR  HZ I        1032 12.97         4.1 0.28            114            204 292 
 NOR  HZ EP   2   1031 44.79                             116   -0.97 4  235 234 
 NOR  HZ I        1032 14.55         2.7 0.14            111            235 234 
 CHI  HZ EP   2   1031 47.87                             115    0.11 4  249 195 
 CHI  HN ES       1032 16.58                             115   -0.20 8  249 195 
 GUY2CHZ EP       1031 54.43                             110    0.67 7  301 235 
 GUY2CHN ES       1032 28.15                             110    0.70 7  301 235 
 GUY2CHZ I        1032 34.03         1.6 0.30                           301 235 
                                                                                
