 2013 11 1 1542 37.9 L   6.793 -73.169148.3  RSN  8 0.4 1.7LRSN                1
 GAP=134        1.11       4.3     4.6  7.9 -0.1604E+00  0.9523E+01 -0.1708E+01E
 Epicentro: LOS SANTOS - SANTANDER                                             3
 ACTION:UPD 14-01-09 16:24 OP:ep   STATUS:               ID:20131101154237 L   I
 OLDACT:REG 13-11-01 16:23 OP:carl STATUS:               ID:20131101153842     3
 2013-11-01-1538-42M.COL___219                                                 6
 STAT SP IPHASW D HRMM SECON CODA AMPLIT PERI AZIMU VELO AIN AR TRES W  DIS CAZ7
 BAR2 SZ EP       1542 57.77                             171    0.0110 22.3 184 
 BAR2 SZ ES       1543 13.02                             171   -0.2710 22.3 184 
 BAR2 SZ I        1543 14.38        19.8 0.24            169           22.3 184 
 BRR  HZ EP       1542 59.50                             154    0.3310 69.4 300 
 BRR  HN ES       1543 16.43                             154    0.6310 69.4 300 
 PAM  SZ EP       1543  0.76                             150    0.3010 79.6  41 
 PAM  SN ES       1543 18.06                             150   -0.0410 79.6  41 
 PAM  SZ I        1543 20.84         5.0 0.40            155           79.6  41 
 RUS  HZ EP       1543  2.24                             144    0.4310  100 175 
 RUS  HN ES       1543 20.06                             144   -0.4310  100 175 
 RUS  HZ I        1543 21.82         5.3 0.26            145            100 175 
 PTB  HZ EP       1543  4.21                             133   -0.58 9  145 259 
 PTB  HN ES       1543 25.46                             133   -0.34 9  145 259 
 PTB  HZ I        1543 33.00         5.7 0.36            132            145 259 
 ZAR  HN ES       1543 35.98                             123    0.46 9  202 293 
 NOR  HN ES       1543 41.42                             119    0.19 8  232 234 
 NOR  HZ I        1543 49.66         4.2 0.20            119            232 234 
 SML  HN ES       1543 42.27                             118   -0.96 8  243 336 
                                                                                
