 2010  9 1 1812 55.7 L   6.825 -72.951144.0  RSN  4 0.2 1.8LRSN                1
 GAP=203        0.48       4.6    10.5  7.6  0.2856E+02 -0.4357E+02 -0.1376E+02E
 Epicentro: CEPITA - SANTANDER                                                 3
 ACTION:UP  11-02-18 10:59 OP:tino STATUS:               ID:20100901181255 L   I
 2010-09-01-1808-40S.COL___120                                                 6
 STAT SP IPHASW D HRMM SECON CODA AMPLIT PERI AZIMU VELO SNR AR TRES W  DIS CAZ7
 BAR2 SZ EP   2   1813 15.21                             165    -0.3 5   36 225 
 BAR2 SZ ES   2   1813 31.10                             165     0.2 5   36 225 
 BAR2 SZ I        1813 32.06         9.9 0.51                            36 225 
 BRR  HZ IP     C 1813 17.71                             146    -0.110   90 290 
 BRR  HZ I        1813 17.97        15.6 0.21                            90 290 
 BRR  HN ES   1   1813 35.24                             146     0.1 7   90 290 
 RUS  HZ EP   1   1813 19.84                             143     0.3 7  104 188 
 RUS  HE ES   2   1813 37.85                             143    -0.3 5  104 188 
 OCA  SZ EP   2   1813 24.28                             129     0.2 5  162 345 
 OCA  SZ ES   2   1813 45.98                             129    -0.1 5  162 345 
 OCA  SZ I        1813 52.27         6.2 0.44                           162 345 
                                                                                
