 2016  5 1 1523  5.1 L   6.837 -73.150140.0  RSN  7 0.4 1.5LRSN                1
 GAP=134        0.96       5.0     4.9  6.9 -0.9658E+01  0.1312E+02 -0.3395E+00E
 Epicentro: LOS SANTOS - SANTANDER                                             3
 ACTION:UPD 16-08-18 17:41 OP:cam  STATUS:               ID:20160501152305 L   I
 OLDACT:DUP 16-05-02 00:13 OP:ak   STATUS:               ID:20160501151751d    3
 OLDACT:DUP 16-05-02 00:09 OP:ak   STATUS:               ID:20160501151750d    3
 2016-05-01-1517-49M.COL___298                                                 6
 STAT SP IPHASW D HRMM SECON CODA AMPLIT PERI AZIMU VELO AIN AR TRES W  DIS CAZ7
 BAR2 EZ EP       1523 23.93                             168   -0.2010 27.3 188 
 BAR2 EZ ES       1523 39.12                             168    0.1410 27.3 188 
 BAR2 EZ I        1523 40.59         5.3 0.14            170           27.3 188 
 PAM  EZ EP       1523 26.96                             151    0.4210 74.6  42 
 PAM  EN ES       1523 43.44                             151    0.1810 74.6  42 
 PAM  EZ I        1523 45.93         2.6 0.22            154           74.6  42 
 RUS  HZ EP       1523 28.24                             142   -0.3610  105 176 
 RUS  HN ES       1523 46.74                             142   -0.1910  105 176 
 RUS  HZ I        1523 47.59         4.0 0.26            146            105 176 
 PTB  HZ EP       1523 30.85                             131   -0.79 9  148 257 
 PTB  HN ES       1523 52.15                             131   -0.19 9  148 257 
 PTB  HZ I        1523 59.41         5.1 0.16            132            148 257 
 SPBC HZ EP       1523 33.40                             127   -0.05 9  166 218 
 SPBC HE ES       1523 55.88                             127    0.32 9  166 218 
 SPBC HZ I        1523 56.86         6.3 0.11            130            166 218 
 ZAR  HN ES   2   1524  1.63                             121   -0.21 4  202 291 
 GUY2CHZ EP       1523 49.15                             111    0.47 7  303 234 
 GUY2CHN ES       1524 23.56                             111    0.89 7  303 234 
 GUY2CHZ I        1524 30.48         2.9 0.44                           303 234 
                                                                                
