 2017  5 1 1401 20.7 L   6.808 -73.163142.0  RSN 14 0.4 2.1LRSN                1
 GAP=110        0.97       3.1     3.1  5.2  0.1477E+01  0.4614E+01  0.3567E+01E
 Epicentro: LOS SANTOS - SANTANDER                                             3
 ACTION:UPD 17-06-16 13:31 OP:jn   STATUS:               ID:20170501140120 L   I
 OLDACT:UP  17-05-01 22:30 OP:edw  STATUS:               ID:20170501135743     3
 OLDACT:UP  17-05-01 22:29 OP:edw  STATUS:               ID:20170501135743     3
 OLDACT:REG 17-05-01 20:08 OP:edw  STATUS:               ID:20170501135743     3
 2017-05-01-1358-00M.COL___377                                                 6
 STAT SP IPHASW D HRMM SECON CODA AMPLIT PERI AZIMU VELO AIN AR TRES W  DIS CAZ7
 BRR  HZ IP     D 14 1 41.27                             153   -0.0110 69.1 299 
 BRR  HN ES       14 1 58.20                             153    0.8410 69.1 299 
 BRR  HZ I        14 1 58.81        32.3 0.10            151           69.1 299 
 PAM  EZ EP     D 14 1 42.37                             150   -0.1410 78.0  41 
 PAM  EN ES       14 1 59.34                             150   -0.2110 78.0  41 
 PAM  EZ I        14 2  0.79        18.4 0.42            157           78.0  41 
 RUS  HZ EP       14 1 43.64                             143   -0.4710  102 175 
 RUS  HN ES       14 2  2.39                             143   -0.0110  102 175 
 RUS  HZ I        14 2  4.12        23.7 0.32            142            102 175 
 PTB  HZ EP   9   14 1 46.10                             132   -1.06 0  146 258 
 PTB  HN ES       14 2  6.95                             131    0.18 9  146 258 
 PTB  HZ I        14 2  9.81        12.7 0.42            130            146 258 
 SPBC HZ EP       14 1 48.63                             128   -0.18 9  163 218 
 SPBC HN ES       14 2 10.22                             128   -0.56 9  163 218 
 SPBC HZ I        14 2 13.95        23.6 0.74            127            163 218 
 YPLC HZ EP       14 1 50.05                             126   -0.29 9  178 151 
 YPLC HN ES       14 2 14.12                             126    0.62 9  178 151 
 YPLC HZ I        14 2 16.73        14.6 0.26            127            178 151 
 ZAR  HZ EP       14 1 52.49                             122   -0.15 9  202 292 
 ZAR  HN ES       14 2 17.38                             122   -0.20 9  202 292 
 ZAR  HZ I        14 2 23.30        15.7 0.34            122            202 292 
 TABC EZ EP   4   14 1 57.42                             119    1.27 0  230 210 
 NOR  HZ EP       14 1 56.27                             118    0.22 8  234 234 
 NOR  HN ES       14 2 23.50                             118   -0.16 8  234 234 
 NOR  HZ I        14 2 29.73        10.0 0.22            118            234 234 
 CHI  HZ EP       14 1 57.79                             116   -0.39 8  249 195 
 CHI  HN ES       14 2 27.55                             116    0.10 8  249 195 
 CHI  HZ I        14 2 32.55         5.0 0.50            117            249 195 
 ROSC BZ EP       14 1 59.15                             116    0.61 8  252 211 
 ROSC BN ES   4   14 2 30.57                             116    2.48 0  252 211 
 ROSC BZ I        14 2 36.29        12.1 0.30            116            252 211 
 HEL  HZ EP       14 2  1.06                             114    0.57 8  270 256 
 HEL  HN ES   4   14 2 32.77                             114    1.21 0  270 256 
 HEL  HZ I        14 2 38.87         6.5 0.30            114            270 256 
 ELA  HN ES   4   14 2 42.79                             110   -0.79 0  328 229 
 CBOC HZ EP       14 2  8.15                             109    0.92 7  332 252 
 CBOC HN ES       14 2 43.22                             109   -0.34 7  332 252 
 CBOC HZ I        14 2 55.52         2.3 0.34            110            332 252 
 DBB  EZ EP       14 2  7.28                             109   -0.47 7  337 274 
 DBB  EN ES       14 2 44.07                             109   -0.41 7  337 274 
 DBB  EZ I        14 2 47.76         3.1 0.40            110            337 274 
 ANIL HN ES   4   14 2 52.23                             108    3.34 0  357 224 
 ORTC HZ EP       14 2 14.92                             106    0.53 6  395 216 
 ORTC HN ES   4   14 2 58.32                             106    2.01 0  395 216 
 ORTC HZ I        14 3  2.15         4.4 0.38            106            395 216 
                                                                                
