 2015 10 1 1714  7.7 L   6.830 -73.185146.4  RSN 10 0.4 1.8LRSN                1
 GAP=130        0.89       3.6     4.3  6.4 -0.4967E+01  0.8236E+01  0.6603E-01E
 Epicentro: ZAPATOCA - SANTANDER                                               3
 ACTION:UPD 15-12-22 20:36 OP:cam  STATUS:               ID:20151001171408dL   I
 OLDACT:REG 15-10-01 21:40 OP:ar   STATUS:               ID:20151001170749     3
 2015-10-01-1707-49M.COL___355                                                 6
 STAT SP IPHASW D HRMM SECON CODA AMPLIT PERI AZIMU VELO AIN AR TRES W  DIS CAZ7
 BAR2 EZ EP       1714 27.48                             169   -0.0110 26.3 179 
 BAR2 EZ ES       1714 43.29                             169    0.3910 26.3 179 
 BAR2 EZ I        1714 45.06        15.6 0.22            168           26.3 179 
 PAM  EZ EP       1714 30.44                             151    0.4210 77.8  44 
 PAM  EN ES       1714 47.34                             151   -0.0810 77.8  44 
 PAM  EZ I        1714 49.79         5.1 0.52            151           77.8  44 
 RUS  HZ EP   2   1714 31.52                             143   -0.28 5  104 174 
 RUS  HN ES       1714 50.32                             143   -0.2610  104 174 
 RUS  HZ I        1714 51.16         9.2 0.26            148            104 174 
 PTB  HZ EP       1714 34.38                             133   -0.04 9  144 257 
 PTB  HN ES       1714 54.46                             133   -0.78 9  144 257 
 PTB  HZ I        1715  2.42         6.8 0.52            128            144 257 
 SPBC HZ EP   2   1714 36.35                             129    0.09 5  163 217 
 SPBC HN ES       1714 58.64                             129    0.12 9  163 217 
 SPBC HZ I        1715  5.34         9.3 0.14            129            163 217 
 ZAR  HZ EP   4   1714 41.96                             123    2.29 0  199 292 
 ZAR  HN ES   2   1715  4.92                             123    0.34 4  199 292 
 ZAR  HZ I        1715 15.97         4.7 0.40            119            199 292 
 NOR  HN ES       1715 12.01                             119    0.92 8  233 233 
 NOR  HZ I        1715 18.63         6.4 0.24            118            233 233 
 SML  HZ EP   2   1714 43.24                             118   -0.62 4  239 336 
 SML  HN ES   2   1715 11.79                             118   -0.26 4  239 336 
 SML  HZ I        1715 28.02         6.3 0.30            116            239 336 
 CHI  HZ EP       1714 45.65                             117   -0.03 8  251 194 
 CHI  HN ES       1715 14.79                             117   -0.50 8  251 194 
 CHI  HZ I        1715 18.09         4.2 0.32            119            251 194 
 GUY2CHZ EP   9   1714 52.71                             113    1.53 0  300 234 
 GUY2CHN ES   2   1715 26.71                                    0.10 4  300 234 
 GUY2CHZ I        1715 33.45         3.1 0.36                           300 234 
                                                                                
