 2017  2 1 1314 28.9 L   6.777 -73.131149.3  RSN  4 0.3 1.5LRSN                1
 GAP=237        0.77       7.6     6.0  6.4  0.1867E+02  0.2315E+01  0.7732E+01E
 Epicentro: LOS SANTOS - SANTANDER                                             3
 ACTION:UPD 17-05-24 15:31 OP:jn   STATUS:               ID:20170201131428 L   I
 OLDACT:REG 17-02-01 20:33 OP:ar   STATUS:               ID:20170201130747     3
 2017-02-01-1308-00M.COL___322                                                 6
 STAT SP IPHASW D HRMM SECON CODA AMPLIT PERI AZIMU VELO AIN AR TRES W  DIS CAZ7
 BAR2 EZ EP       1314 48.82                             172   -0.1010 21.2 196 
 BAR2 EZ ES       1315  4.49                             172   -0.0410 21.2 196 
 BAR2 EZ I        1315  6.45         8.6 0.30            170           21.2 196 
 BRR  HZ EP       1314 50.11                             152   -0.4810 73.9 300 
 BRR  HN ES       1315  7.85                             152    0.3510 73.9 300 
 RUS  HZ EP       1314 53.00                             145    0.1810 97.9 177 
 RUS  HN ES   2   1315 11.35                             145   -0.12 5 97.9 177 
 RUS  HZ I        1315 12.42         4.5 0.34            145           97.9 177 
 PTB  HZ EP       1314 56.69                             133    0.43 9  149 260 
 PTB  HN ES       1315 17.31                             133   -0.29 9  149 260 
 PTB  HZ I        1315 18.85         2.9 0.42            133            149 260 
                                                                                
