 2011 11 1 1515 57.0 L   6.781 -73.145142.9  RSN  4 0.2 1.5LRSN                1
 GAP=137        0.44       4.1     4.6  5.3 -0.2042E+01 -0.8568E+00 -0.2294E+01E
 Epicentro: LOS SANTOS - SANTANDER                                             3
 ACTION:UPD 12-07-13 16:07 OP:ep   STATUS:               ID:20111101151557 L   I
 2011-11-01-1511-57S.COL___176                                                 6
 STAT SP IPHASW D HRMM SECON CODA AMPLIT PERI AZIMU VELO AIN AR TRES W  DIS CAZ7
 BAR2 SZ EP   1   1516 16.13                             171   -0.15 7 21.2 191 
 BAR2 SZ ES   1   1516 31.57                             171    0.28 7 21.2 191 
 BAR2 SZ I        1516 34.25         5.7 0.31                          21.2 191 
 BRR  HZ EP   1   1516 18.18                             152    0.24 7 72.3 300 
 BRR  HZ I        1516 26.94        13.2 0.39                          72.3 300 
 BRR  HE ES   1   1516 34.03                             152   -0.21 7 72.3 300 
 PAM  SZ EP   1   1516 19.06                             150    0.01 7 79.0  39 
 PAM  SZ I        1516 19.28         2.5 0.18                          79.0  39 
 PAM  SN ES   1   1516 36.14                             150   -0.08 7 79.0  39 
 RUS  HE ES   2   1516 38.35                             144   -0.19 5 98.4 176 
                                                                                
