 2017 11 1 1207 14.8 L   6.834 -73.153151.2  RSN 24 0.6 2.7LRSN                1
 GAP= 62        1.09       2.9     2.8  4.8 -0.1210E+00  0.2040E+01  0.1827E+01E
 Epicentro: LOS SANTOS - SANTANDER                                             3
 ACTION:UPD 17-12-12 19:50 OP:rebc STATUS:               ID:20171101120714 L   I
 OLDACT:UP  17-11-01 23:14 OP:mg   STATUS:               ID:20171101115747d    3
 OLDACT:UP  17-11-01 23:14 OP:mg   STATUS:               ID:20171101115747d    3
 OLDACT:UP  17-11-01 23:14 OP:mg   STATUS:               ID:20171101115747d    3
 OLDACT:UP  17-11-01 23:12 OP:mg   STATUS:               ID:20171101115747d    3
 OLDACT:DUP 17-11-01 23:00 OP:mg   STATUS:               ID:20171101115747d    3
 2017-11-01-1158-00M.COL___406                                                 6
 STAT SP IPHASW D HRMM SECON CODA AMPLIT PERI AZIMU VELO AIN AR TRES W  DIS CAZ7
 BAR2 EZ IP     C 12 7 35.10                             170   -0.0510 26.9 187 
 BAR2 EZ ES   2   12 7 50.14                             170   -0.89 5 26.9 187 
 BAR2 EZ I        12 7 51.39       150.6 0.28            171           26.9 187 
 BRR  HZ IP     D 12 7 36.99                             154    0.6010 68.7 296 
 BRR  HN ES       12 7 53.89                             154    0.6410 68.7 296 
 BRR  HZ I        12 7 57.99        85.7 0.16            149           68.7 296 
 PAM  EZ EP     D 12 7 37.92                             152    0.4710 75.1  42 
 PAM  EN ES       12 7 55.11                             152   -0.0210 75.1  42 
 PAM  EZ I        12 7 57.29        86.0 0.52            150           75.1  42 
 RUS  HZ IP     C 12 7 39.01                             144   -0.3410  104 176 
 RUS  HN ES       12 7 57.95                             144   -0.5510  104 176 
 RUS  HZ I        12 7 59.09        72.2 0.33            144            104 176 
 PTB  HZ EP     D 12 7 41.75                             133   -0.45 9  148 257 
 PTB  HN ES       12 8  2.76                             133   -0.82 9  148 257 
 PTB  HZ I        12 8  4.97        38.4 0.14            130            148 257 
 TAM  HZ EP     C 12 7 43.57                             131    0.50 9  157 106 
 TAM  HN ES       12 8  5.31                             131    0.18 9  157 106 
 TAM  HZ I        12 8  6.70        28.0 0.46            130            157 106 
 SPBC HZ EP       12 7 44.16                             130    0.23 9  166 218 
 SPBC HN ES       12 8  6.64                             130   -0.03 9  166 218 
 SPBC HZ I        12 8 10.75        80.1 0.19            128            166 218 
 YPLC HZ IP     C 12 7 45.58                             127    0.24 9  181 152 
 YPLC HN ES   2   12 8 10.56                             127    1.39 4  181 152 
 YPLC HZ I        12 8 12.31        30.1 0.30            126            181 152 
 ZAR  HZ EP       12 7 47.49                             124    0.12 9  202 291 
 ZAR  HN ES       12 8 12.96                             124    0.17 9  202 291 
 ZAR  HZ I        12 8 18.30        61.9 0.36            120            202 291 
 TABC EZ EP   4   12 7 53.31                             120    2.15 0  233 210 
 TABC EZ ES   4   12 8 23.00                             120    3.47 0  233 210 
 TABC EZ I        12 8 26.50        59.7 0.38            118            233 210 
 NOR  HZ IP     C 12 7 51.26                             119    0.26 8  236 234 
 NOR  HN ES       12 8 19.49                             119    0.25 8  236 234 
 NOR  HZ I        12 8 24.79        26.4 0.18            117            236 234 
 CHI  HZ EP       12 7 53.28                             118    0.12 8  252 195 
 CHI  HN ES       12 8 22.56                             118   -0.53 8  252 195 
 CHI  HZ I        12 8 28.01        32.6 0.32            116            252 195 
 ROSC BZ EP   2   12 7 55.06                             117    1.55 4  256 210 
 ROSC BN ES   2   12 8 25.26                             117    1.55 4  256 210 
 ROSC BZ I        12 8 29.86        94.1 0.40            116            256 210 
 URE  HZ EP       12 7 55.76                             115   -0.12 7  282 291 
 URE  HN ES   2   12 8 25.86                             115   -2.08 4  282 291 
 URE  HZ I        12 8 34.30        28.0 0.16            112            282 291 
 GUY2CHZ EP       12 7 59.05                             113    0.23 7  303 234 
 GUY2CHZ I        12 8 41.58        30.2 0.56                           303 234 
 VIL  EZ EP       12 7 58.75                             113   -0.10 7  307 191 
 VIL  EN ES       12 8 32.58                             113   -0.64 7  307 191 
 VIL  EZ I        12 8 35.91        54.9 0.40            111            307 191 
 PTGC HZ IP     C 12 7 58.34                             112   -0.98 7  312 159 
 PTGC HN ES   2   12 8 32.17                             112   -1.88 3  312 159 
 PTGC HZ I        12 8 33.59        23.7 0.26            111            312 159 
 DBB  EZ EP       12 8  2.54                             110    0.18 7  338 274 
 DBB  EN ES   3   12 8 37.24                             110   -2.23 2  338 274 
 DBB  EZ I        12 8 41.75        28.2 0.10            108            338 274 
 ARGC HZ EP       12 8  4.00                             109   -0.21 6  355 340 
 ARGC HZ I        12 8 52.82        10.1 0.42            107            355 340 
 SDV  BZ EP       12 8  4.62                             109   -0.22 6  359  51 
 SDV  B1 ES   3   12 8 41.92                             109   -1.96 2  359  51 
 SDV  BZ I        12 8 45.34         7.9 0.35            107            359  51 
 PRA  HZ EP       12 8  8.83                             107    0.00 6  395 209 
 PRA  HN ES       12 8 50.83                             107   -0.15 6  395 209 
 PRA  HZ I        12 8 55.44        30.5 0.53            106            395 209 
 ORTC HZ EP       12 8  9.08                             107   -0.11 6  398 216 
 ORTC HN ES   2   12 8 52.94                             107    1.31 3  398 216 
 ORTC HZ I        12 8 56.58        19.0 0.28            105            398 216 
 SJC  HZ EP       12 8  9.32                             107   -0.79 6  406 327 
 SJC  HN ES   4   12 8 50.13                             107   -3.13 0  406 327 
 SJC  HZ I        12 8 59.08         7.4 0.42            105            406 327 
 PAL  HZ EP       12 8 10.71                             107    0.44 6  407 239 
 PAL  HN ES       12 8 54.13                             107    0.58 6  407 239 
 PAL  HZ I        12 8 56.32         9.0 0.26            105            407 239 
                                                                                
