 2011 10 1 1109 55.7 L   6.715 -73.265134.0  RSN  4 0.3 1.2LRSN                1
 GAP=147        0.52       7.2     9.2  8.9  0.4362E+02  0.1184E+02  0.2060E+01E
 Epicentro: BARICHARA - SANTANDER                                              3
 ACTION:UPD 12-07-13 16:01 OP:ep   STATUS:               ID:20111001110955 L   I
 2011-10-01-1108-16S.COL___168                                                 6
 STAT SP IPHASW D HRMM SECON CODA AMPLIT PERI AZIMU VELO AIN AR TRES W  DIS CAZ7
 BAR2 SZ EP   2   1110 13.92                             173    0.15 5 16.4 146 
 BAR2 SZ ES   2   1110 27.40                             173   -0.48 5 16.4 146 
 BAR2 SZ I        1110 29.33         5.3 0.25                          16.4 146 
 BTL  SZ EP       1110 14.06                             169    0.1810 22.5 359 
 RUS  HZ EP       1110 17.56                             144   -0.1910 93.2 168 
 RUS  HN ES   2   1110 35.38                             144    0.43 5 93.2 168 
 RUS  HZ I        1110 37.83         2.1 0.40                          93.2 168 
 ZAR  HE ES   2   1110 50.50                             121   -0.07 4  196 296 
 ZAR  HZ I        1110 56.86         2.0 0.33                           196 296 
                                                                                
