 2017 11 1 1719 37.8 L   6.647 -74.089 18.4  RSN  5 0.4 0.9LRSN                1
 GAP= 89        0.94       2.9     2.5  3.6 -0.2548E+01 -0.1238E+01  0.3440E+01E
 Epicentro: PUERTO PARRA - SANTANDER                                           3
 ACTION:UPD 17-12-12 19:50 OP:rebc STATUS:               ID:20171101171937 L   I
 OLDACT:REG 17-11-01 20:49 OP:mg   STATUS:               ID:20171101171742     3
 2017-11-01-1718-00M.COL___438                                                 6
 STAT SP IPHASW D HRMM SECON CODA AMPLIT PERI AZIMU VELO AIN AR TRES W  DIS CAZ7
 PTB  HZ IP     D 1719 45.43                             111    0.1710 42.3 254 
 PTB  HN ES       1719 50.93                             111   -0.1210 42.3 254 
 PTB  HZ I        1719 51.44         3.9 0.18             47           42.3 254 
 BRR  HZ IP     C 1719 48.55                             103   -0.1010 65.7  39 
 BRR  HN ES       1719 56.82                             103   -0.2510 65.7  39 
 BRR  HZ I        1719 57.54         6.2 0.11             47           65.7  39 
 ZAR  HN ES       1720 13.21                              56    0.0910  126 318 
 ZAR  HZ I        1720 14.49         1.9 0.10             47            126 318 
 RUS  HZ EP       1720  0.68                              56    0.84 9  139 127 
 RUS  HN ES   1   1720 16.48                              56   -0.52 7  139 127 
 RUS  HZ I        1720 20.65         2.6 0.20             47            139 127 
 NOR  HZ EP       1720  0.54                              56    0.15 9  148 216 
 NOR  HN ES       1720 17.52                              56   -0.46 9  148 216 
 NOR  HZ I        1720 22.33         1.7 0.14             47            148 216 
                                                                                
