 2016  8 1 1515 26.6 L   6.755 -73.182144.7  RSN  5 0.3 1.6LRSN                1
 GAP=230        0.82       6.4     6.0  7.4  0.2064E+02  0.1099E+02 -0.3557E+01E
 Epicentro: LOS SANTOS - SANTANDER                                             3
 ACTION:UPD 16-10-29 15:31 OP:rebc STATUS:               ID:20160801151526 L   I
 OLDACT:UP  16-08-02 01:57 OP:dani STATUS:               ID:20160801150759     3
 OLDACT:REG 16-08-02 01:15 OP:dani STATUS:               ID:20160801150759     3
 2016-08-01-1507-59S.COL___340                                                 6
 STAT SP IPHASW D HRMM SECON CODA AMPLIT PERI AZIMU VELO AIN AR TRES W  DIS CAZ7
 BAR2 EZ EP       1515 45.71                             173   -0.2810 18.0 180 
 BAR2 EZ ES       1516  0.86                             173   -0.2710 18.0 180 
 BAR2 EZ I        1516  1.67        11.0 0.26                          18.0 180 
 BRR  HZ EP       1515 47.48                             153   -0.0910 70.3 304 
 BRR  HE ES       1516  4.43                             153    0.4910 70.3 304 
 BRR  HZ I        1516  5.47        14.9 0.34                          70.3 304 
 RUS  HN ES       1516  8.25                             145    0.1610 96.0 173 
 PTB  HZ EP       1515 53.50                             133    0.47 9  143 260 
 PTB  HE ES       1516 13.41                             133   -0.25 9  143 260 
 PTB  HZ I        1516 16.22         2.5 0.30                           143 260 
 ZAR  HN ES       1516 23.59                             122   -0.30 9  202 294 
                                                                                
