 2010  9 1 1656  0.8 L   6.801 -73.083145.9  RSN 10 0.3 2.3LRSN                1
 GAP=166        0.49       2.5     4.3  3.9  0.4029E+00  0.3107E+01  0.1822E+01E
 Epicentro: LOS SANTOS - SANTANDER                                             3
 ACTION:UP  11-02-18 10:59 OP:tino STATUS:               ID:20100901165600 L   I
 2010-09-01-1652-54S.COL___120                                                 6
 STAT SP IPHASW D HRMM SECON CODA AMPLIT PERI AZIMU VELO SNR AR TRES W  DIS CAZ7
 BAR2 SZ IP       1656 20.42                             169     0.010   26 206 
 BAR2 SZ I        1656 20.95        35.3 0.36                            26 206 
 BAR2 SZ ES   1   1656 35.93                             169     0.1 7   26 206 
 BRR  HZ IP     C 1656 22.10                             150    -0.210   77 296 
 BRR  HN ES   1   1656 39.27                             150     0.2 7   77 296 
 BRR  HZ I        1656 43.48        32.7 0.13                            77 296 
 RUS  HZ IP     C 1656 24.51                             144     0.010  100 180 
 RUS  HZ I        1656 25.20        14.3 0.09                           100 180 
 RUS  HN ES   1   1656 43.12                             144     0.1 7  100 180 
 GRA  SZ EP   2   1656 25.51                             138    -0.3 5  124  14 
 GRA  SZ I        1656 46.64        14.2 0.55                           124  14 
 OCA  SZ EP   2   1656 29.23                             130     0.1 5  161 351 
 OCA  SZ ES   2   1656 51.29                             130     0.0 5  161 351 
 OCA  SZ I        1656 56.04        22.5 0.49                           161 351 
 CHI  HZ EP   1   1656 38.89                             117     0.2 6  251 197 
 CHI  HE ES   1   1657  8.01                             117    -0.3 6  251 197 
 CHI  HZ I        1657 14.43         8.2 0.29                           251 197 
 ROSC BZ EP   2   1656 39.50                             116     0.2 4  256 212 
 ROSC BZ I        1657 18.60        10.5 0.43                           256 212 
 HEL  HZ EP   2   1656 42.32                             114     0.6 4  279 256 
 HEL  HE ES   2   1657 13.12                             114    -0.6 4  279 256 
 HEL  HZ I        1657 20.17        11.7 0.33                           279 256 
 GUY  SZ EP   1   1656 45.52                             112     0.5 5  307 236 
 GUY  SN ES   2   1657 19.87                             112     0.3 4  307 236 
 GUY  SZ I        1657 26.39        28.9 0.36                           307 236 
 PRA  HZ EP   1   1656 54.60                             106    -0.1 4  396 210 
 PRA  HN ES   2   1657 36.16                             106    -0.6 3  396 210 
 PRA  HZ I        1657 41.39        11.3 0.30                           396 210 
                                                                                
