 2013  3 1 1153 21.7 L   6.815 -73.194142.0  RSN  8 0.4 2.1LRSN                1
 GAP=134        0.85       4.0     5.2  8.5 -0.2402E+01  0.1754E+02 -0.3846E+01E
 Epicentro: ZAPATOCA - SANTANDER                                               3
 ACTION:UPD 13-04-09 13:59 OP:ep   STATUS:               ID:20130301115321 L   I
 2013-03-01-1150-00M.COL___228                                                 6
 STAT SP IPHASW D HRMM SECON CODA AMPLIT PERI AZIMU VELO AIN AR TRES W  DIS CAZ7
 BAR2 SZ EP       1153 41.11                             170    0.2110 24.7 177 
 BAR2 SZ ES   1   1153 55.40                             170   -0.49 7 24.7 177 
 BAR2 SZ I        1153 57.02        48.8 0.38            172           24.7 177 
 BRR  HZ EP   1   1153 42.90                             154    0.77 7 65.7 299 
 BRR  HN ES   4   1153 59.89                             154    1.82 0 65.7 299 
 BRR  HZ I        1154  0.65        22.6 0.14            151           65.7 299 
 PAM  SZ EP   1   1153 43.98                             149    0.33 7 79.7  43 
 PAM  SN ES   1   1154  0.89                             149    0.11 7 79.7  43 
 PAM  SZ I        1154  2.74        11.6 0.14            153           79.7  43 
 PTB  HZ EP   1   1153 47.68                             132   -0.23 7  143 258 
 PTB  HN ES   1   1154  8.93                             132    0.57 7  143 258 
 PTB  HZ I        1154 10.55        14.4 0.30            133            143 258 
 OCA  HN ES   1   1154 10.49                             129   -0.70 7  158 355 
 ZAR  HZ EP   1   1153 52.88                             122   -0.44 6  198 292 
 ZAR  HN ES   1   1154 17.74                             122   -0.24 6  198 292 
 ZAR  HZ I        1154 25.01        11.9 0.32            123            198 292 
 SML  HZ EP   1   1153 57.44                             117   -0.26 6  240 336 
 SML  HE ES   1   1154 26.06                             117    0.27 6  240 336 
 CHI  HN ES   1   1154 28.00                             116   -0.49 6  249 194 
                                                                                
