 2012 12 1 1526 58.6 L   6.786 -73.159146.9  RSN  5 0.2 1.9LRSN                1
 GAP=135        0.51       3.3     3.8  4.5 -0.3430E+01  0.3439E+01 -0.3310E+01E
 Epicentro: LOS SANTOS - SANTANDER                                             3
 ACTION:UPD 13-01-04 14:24 OP:ep   STATUS:               ID:20121201152658 L   I
 2012-12-01-1520-00M.COL___236                                                 6
 STAT SP IPHASW D HRMM SECON CODA AMPLIT PERI AZIMU VELO AIN AR TRES W  DIS CAZ7
 BAR2 SZ EP       1527 18.39                             171    0.0310 21.6 187 
 BAR2 SZ ES       1527 34.00                             171    0.2610 21.6 187 
 BAR2 SZ I        1527 36.00        17.7 0.33                          21.6 187 
 GIR2 SZ EP       1527 18.68                             167    0.2110 32.6 353 
 PAM  SZ EP       1527 21.17                             150    0.0810 79.5  40 
 PAM  SE ES   1   1527 38.18                             150   -0.43 7 79.5  40 
 PAM  SZ I        1527 40.95        12.9 0.61                          79.5  40 
 RUS  HZ EP       1527 22.29                             145   -0.1010 99.1 175 
 RUS  HN ES       1527 40.78                             145   -0.1310 99.1 175 
 RUS  HN I        1527 42.75         8.4 0.16                          99.1 175 
 PTB  HZ EP   1   1527 25.40                             133   -0.13 7  146 259 
 PTB  HE ES   1   1527 46.40                             133   -0.11 7  146 259 
 PTB  HZ I        1527 53.69        13.9 0.43                           146 259 
                                                                                
