 2011  9 1 1528 52.8 L   6.796 -73.142150.1  RSN  9 0.3 2.4LRSN                1
 GAP=182        0.65       2.8     4.4  4.5  0.2590E+00  0.4423E+01  0.7501E+00E
 Epicentro: LOS SANTOS - SANTANDER                                             3
 ACTION:UPD 12-07-13 15:54 OP:ep   STATUS:               ID:20110901152852 L   I
 2011-09-01-1527-12S.COL___168                                                 6
 STAT SP IPHASW D HRMM SECON CODA AMPLIT PERI AZIMU VELO AIN AR TRES W  DIS CAZ7
 BAR2 SZ IP       1529 12.98                             171    0.0710 23.0 191 
 BAR2 SZ ES   1   1529 28.01                             171   -0.61 7 23.0 191 
 BAR2 SZ I        1529 29.69        69.4 0.36                          23.0 191 
 GIR2 SZ EP       1529 13.06                             167    0.0910 31.8 350 
 GIR2 SZ ES   1   1529 29.26                             167    0.54 7 31.8 350 
 BRR  HZ EP       1529 14.83                             153    0.4110 71.8 299 
 BRR  HN ES   1   1529 31.44                             153    0.13 7 71.8 299 
 BRR  HZ I        1529 35.69        51.0 0.44                          71.8 299 
 RUS  HZ EP       1529 16.88                             145   -0.0310  100 176 
 RUS  HZ I        1529 17.72        14.1 0.23                           100 176 
 RUS  HN ES   1   1529 35.47                             145   -0.28 7  100 176 
 OCA  SZ EP   1   1529 21.50                             130    0.04 7  161 353 
 OCA  SZ ES   1   1529 43.55                             130   -0.29 7  161 353 
 OCA  SZ I        1530  2.66        41.9 0.46                           161 353 
 ZAR  HZ EP   1   1529 25.66                             123    0.11 6  205 292 
 ZAR  HN ES   1   1529 50.63                             123   -0.50 6  205 292 
 ZAR  HZ I        1529 56.93        32.7 0.58                           205 292 
 NOR  SZ EP   1   1529 28.84                             119    0.08 6  235 235 
 NOR  SN ES   1   1529 56.76                             119   -0.08 6  235 235 
 COD  HZ EP   1   1529 40.59                             110   -0.78 5  349 355 
 PRA  HZ EP   1   1529 46.42                             107    0.00 4  392 210 
 PRA  HN ES   1   1530 28.50                             107    0.23 4  392 210 
                                                                                
