 2016  9 1 1421 53.7 L   6.786 -73.152143.2  RSN  9 0.4 1.8LRSN                1
 GAP=136        0.93       3.9     4.2  5.7 -0.6649E-01  0.2342E+01 -0.1153E+01E
 Epicentro: LOS SANTOS - SANTANDER                                             3
 ACTION:UPD 17-08-17 21:05 OP:lp   STATUS:               ID:20160901142153 L   I
 OLDACT:UP  16-09-02 01:04 OP:edw  STATUS:               ID:20160901141736     3
 OLDACT:UP  16-09-02 01:02 OP:edw  STATUS:               ID:20160901141736     3
 OLDACT:REG 16-09-01 21:00 OP:edw  STATUS:               ID:20160901141736     3
 2016-09-01-1418-00M.COL___358                                                 6
 STAT SP IPHASW D HRMM SECON CODA AMPLIT PERI AZIMU VELO AIN AR TRES W  DIS CAZ7
 BAR2 HZ EP       1422 12.80                             171   -0.2110 21.7 189 
 BAR2 HZ ES       1422 27.70                             171   -0.3510 21.7 189 
 BAR2 HZ I        1422 30.55        16.5 0.34            170           21.7 189 
 BRR  HZ EP       1422 14.90                             152    0.3010 71.3 300 
 BRR  HN ES       1422 31.64                             152    0.7610 71.3 300 
 BRR  HZ I        1422 35.54        13.1 0.34            152           71.3 300 
 PAM  EZ EP       1422 15.75                             150   -0.0210 79.0  39 
 PAM  EN ES   2   1422 32.61                             150   -0.34 5 79.0  39 
 PAM  EZ I        1422 34.92        10.2 0.48            154           79.0  39 
 RUS  HZ EP       1422 17.18                             144    0.0610 99.1 176 
 RUS  HN ES       1422 35.59                             144    0.2310 99.1 176 
 RUS  HZ I        1422 36.64         8.8 0.32            146           99.1 176 
 PTB  HZ EP   9   1422 19.41                             132   -0.98 0  147 259 
 PTB  HN ES       1422 40.62                             130    0.41 9  147 259 
 PTB  HZ I        1422 43.08         5.0 0.08            133            147 259 
 SPBC HZ EP       1422 21.73                             129   -0.14 9  162 219 
 SPBC HN ES       1422 43.32                             129   -0.50 9  162 219 
 SPBC HZ I        1422 48.56        12.1 0.12            130            162 219 
 ZAR  HZ EP       1422 26.08                             122    0.08 9  204 293 
 ZAR  HN ES       1422 50.50                             122   -0.67 9  204 293 
 NOR  HZ EP   2   1422 29.43                             118    0.28 4  233 235 
 NOR  HN ES       1422 57.14                             118    0.36 8  233 235 
 NOR  HZ I        1423  2.29         4.7 0.16            120            233 235 
 GUY2CHZ EP   4   1422 38.54                             112    1.49 0  300 235 
 GUY2CHN ES   4   1423 12.23                             112    1.39 0  300 235 
 GUY2CHZ I        1423 18.75         2.8 0.32                           300 235 
                                                                                
