 2014 10 1 1523 23.6 L   6.794 -73.154149.8  RSN  4 0.5 2.0LRSN                1
 GAP=212        1.24      12.0    12.5 12.2  0.8811E+02 -0.3241E+02 -0.8043E+02E
 Epicentro: LOS SANTOS - SANTANDER                                             3
 ACTION:UPD 14-11-29 23:45 OP:nd   STATUS:               ID:20141001152323 L   I
 OLDACT:UP  14-10-01 23:49 OP:cam  STATUS:               ID:20141001152000     3
 OLDACT:UP  14-10-01 23:49 OP:cam  STATUS:               ID:20141001152000     3
 OLDACT:REG 14-10-01 22:32 OP:cam  STATUS:               ID:20141001152000     3
 2014-10-01-1520-00M.COL___252                                                 6
 STAT SP IPHASW D HRMM SECON CODA AMPLIT PERI AZIMU VELO AIN AR TRES W  DIS CAZ7
 BAR2 SZ EP       1523 43.88                             171    0.2010 22.5 188 
 BAR2 SZ ES       1523 58.66                             171   -0.6910 22.5 188 
 BAR2 SZ I        1524  0.36         9.9 0.24            165           22.5 188 
 BRR  HZ EP     C 1523 45.75                             153    0.6110 70.7 299 
 BRR  HN ES       1524  2.52                             153    0.5710 70.7 299 
 BRR  HN I        1524  3.96        23.1 0.22            148           70.7 299 
 ZAR  HN ES       1524 21.25                             123   -0.44 9  203 292 
 SML  HZ EP       1523 59.86                             118   -0.60 8  244 336 
 SML  HN ES       1524 29.24                             118    0.02 8  244 336 
 SML  HN I        1524 43.52        13.6 0.10            116            244 336 
                                                                                
