 2014  5 1 1523 25.1 L   6.602 -73.018129.5  RSN  7 0.4 1.5LRSN                1
 GAP=162        0.92       4.4     5.0  9.0 -0.6854E+01  0.1178E+02  0.6306E+01E
 Epicentro: CURITI - SANTANDER                                                 3
 OLDACT:UP  14-05-02 00:34 OP:spq  STATUS:               ID:20140501152000     3
 OLDACT:REG 14-05-01 20:01 OP:spq  STATUS:               ID:20140501152000     3
 ACTION:UPD 15-03-16 16:54 OP:nd   STATUS:               ID:20140501152325 L   I
 OLDACT:UP  14-05-02 00:35 OP:spq  STATUS:               ID:20140501152000     3
 2014-05-01-1520-00M.COL___273                                                 6
 STAT SP IPHASW D HRMM SECON CODA AMPLIT PERI AZIMU VELO AIN AR TRES W  DIS CAZ7
 RUS  HZ EP   1   1523 46.28                             147    0.59 7 78.8 185 
 RUS  HE ES   1   1524  0.93                             147   -0.84 7 78.8 185 
 RUS  HZ I        1524  7.34         4.2 0.46            151           78.8 185 
 PAM  SZ EP       1523 46.43                             144    0.0510 88.8  23 
 PAM  SE ES       1524  3.08                             144    0.0910 88.8  23 
 PAM  HZ I        1524  5.56         4.5 0.40            151           88.8  23 
 BRR  HZ EP       1523 45.71                             141   -0.4310 94.9 306 
 BRR  HE ES       1524  2.85                             141    0.2810 94.9 306 
 BRR  HZ I        1524  7.02         7.6 1.22            148           94.9 306 
 SPBC HE ES   1   1524 13.32                             126    0.73 7  157 228 
 ZAR  HE ES   1   1524 24.78                             116   -0.48 6  226 296 
 NOR  HN ES   1   1524 27.18                             115    0.04 6  235 241 
 SML  HE ES   4   1524 28.65                             111   -5.27 0  269 335 
 GUY2CHZ EP   1   1524  8.22                             109    0.23 5  301 240 
 GUY2CHZ I        1524 39.64         4.4 1.28                           301 240 
 GUY2CHN ES   1   1524 41.12                             109   -0.35 5  301 240 
                                                                                
