 2010  8 1 1038 32.1 L   6.812 -73.034144.0  RSN 10 0.3 2.4LRSN                1
 GAP=177        0.64       3.4     7.3  5.9 -0.4975E+01  0.7860E+01  0.2472E+01E
 Epicentro: CEPITA - SANTANDER                                                 3
 ACTION:UP  10-09-07 10:51 OP:vdl  STATUS:               ID:20100801103832 L   I
 2010-08-01-1036-09S.COL___123                                                 6
 STAT SP IPHASW D HRMM SECON CODA AMPLIT PERI AZIMU VELO SNR AR TRES W  DIS CAZ7
 BAR2 SZ EP   1   1038 51.85                             168     0.2 7   30 214 
 BAR2 SZ ES   2   1039  6.41                             168    -0.5 5   30 214 
 BAR2 SZ I        1039  8.10        80.4 0.24                            30 214 
 GIR2 SZ EP   1   1038 52.01                             166     0.4 7   34 329 
 GIR2 SZ ES   2   1039  6.87                             166     0.0 5   34 329 
 BRR  HZ IP     D 1038 53.77                             149     0.110   82 294 
 BRR  HE ES   2   1039 10.72                             149     0.2 5   82 294 
 BRR  HZ I        1039 11.80        44.3 0.15                            82 294 
 RUS  HZ EP   1   1038 55.70                             143    -0.1 7  102 183 
 RUS  HN ES   2   1039 14.05                             143    -0.2 5  102 183 
 RUS  HZ I        1039 15.66        27.3 0.32                           102 183 
 GUE  SZ EP   1   1038 55.92                             140    -0.5 7  113   6 
 OCA  SZ EP   1   1039  0.66                             129     0.3 7  161 349 
 OCA  SZ ES   2   1039 21.87                             129    -0.5 5  161 349 
 OCA  SZ I        1039 26.63        27.3 0.35                           161 349 
 CHI  HZ EP   1   1039 10.02                             116    -0.2 6  253 198 
 CHI  HZ I        1039 12.51         9.3 0.14                           253 198 
 CHI  HE ES   2   1039 40.88                             116     0.9 4  253 198 
 HEL  HZ EP   1   1039 13.60                             113     0.0 6  284 256 
 HEL  HZ I        1039 50.70         8.4 0.28                           284 256 
 RREF HZ EP   1   1039 19.01                             110    -0.3 5  332 231 
 RREF HN ES   2   1039 55.79                             110    -0.4 3  332 231 
 RREF HZ I        1040  3.50         9.7 0.39                           332 231 
 PRA  HN ES   2   1040  8.36                             106    -0.4 3  399 211 
 PRA  HZ I        1040 13.63        11.4 0.21                           399 211 
                                                                                
