 2017  4 1 1230 45.8 L   6.694 -73.155142.5  RSN  5 0.4 1.5LRSN                1
 GAP=228        0.99       7.5     7.1  8.5  0.3311E+02  0.6330E+01 -0.2658E+01E
 Epicentro: VILLANUEVA - SANTANDER                                             3
 ACTION:UPD 17-05-30 21:07 OP:jn   STATUS:               ID:20170401123045 L   I
 OLDACT:REG 17-04-01 20:58 OP:dnl  STATUS:               ID:20170401122741     3
 2017-04-01-1228-00M.COL___368                                                 6
 STAT SP IPHASW D HRMM SECON CODA AMPLIT PERI AZIMU VELO AIN AR TRES W  DIS CAZ7
 BAR2 EZ EP       1231  4.64                             175   -0.2710 11.6 195 
 BAR2 EZ ES       1231 19.48                             175   -0.2910 11.6 195 
 BAR2 EZ I        1231 20.36         7.1 0.26            173           11.6 195 
 BRR  HZ EP       1231  6.71                             150   -0.2610 76.7 307 
 BRR  HN ES       1231 24.15                             150    0.7010 76.7 307 
 BRR  HZ I        1231 27.21         8.3 0.40            150           76.7 307 
 RUS  HZ EP       1231  8.99                             147    0.5310 89.0 175 
 RUS  HN ES       1231 25.93                             147   -0.1810 89.0 175 
 RUS  HZ I        1231 27.93         2.2 0.20            148           89.0 175 
 PTB  HZ EP   2   1231 12.65                             132    0.35 5  145 263 
 PTB  HE ES       1231 32.98                             132    0.05 9  145 263 
 PTB  HZ I        1231 36.09         4.2 0.10            132            145 263 
 ZAR  HN ES       1231 43.44                             121   -0.49 8  208 295 
 ZAR  HZ I        1231 45.95         3.9 0.46            122            208 295 
                                                                                
