 2015 12 1 1432  5.1 L   6.850 -73.202142.7  RSN  6 0.4 2.0LRSN                1
 GAP=130        1.07       6.0     4.8  7.8 -0.3505E+01  0.9589E+01 -0.1342E+02E
 Epicentro: ZAPATOCA - SANTANDER                                               3
 ACTION:UPD 16-02-04 15:01 OP:cam  STATUS:               ID:20151201143205 L   I
 OLDACT:REG 15-12-01 21:05 OP:drio STATUS:               ID:20151201142750     3
 2015-12-01-1427-50M.COL___310                                                 6
 STAT SP IPHASW D HRMM SECON CODA AMPLIT PERI AZIMU VELO AIN AR TRES W  DIS CAZ7
 BAR2 EZ EP       1432 24.20                             168   -0.2510 28.5 176 
 BAR2 EZ ES       1432 39.14                             168   -0.4210 28.5 176 
 BAR2 EZ I        1432 40.80        20.2 0.16            171           28.5 176 
 BRR  HZ EP       1432 25.94                             155    0.5010 63.1 297 
 BRR  HE ES       1432 41.59                             155    0.2610 63.1 297 
 PAM  EZ EP       1432 27.14                             150    0.1710 77.6  46 
 PAM  EE ES       1432 44.27                             150    0.2210 77.6  46 
 PAM  EZ I        1432 46.37        18.9 0.54            153           77.6  46 
 PTB  HZ EP       1432 31.51                             132    0.17 9  143 256 
 PTB  HN ES       1432 51.32                             132   -0.51 9  143 256 
 PTB  HZ I        1432 57.60         7.7 0.40            132            143 256 
 ZAR  HZ EP   4   1432 38.61                             123    2.10 0  196 291 
 ZAR  HE ES       1433  1.73                             123    0.70 9  196 291 
 ZAR  HZ I        1433  8.79         7.7 0.26            123            196 291 
 SML  HZ EP       1432 40.45                             117   -0.25 8  236 336 
 SML  HN ES       1433  7.66                             117   -0.84 8  236 336 
 SML  HZ I        1433 12.13        11.6 0.26            118            236 336 
                                                                                
