 2010  8 1 1110 40.6 L   6.778 -73.134141.7  RSN 14 0.5 2.9LRSN                1
 GAP=157        0.94       4.4     8.3  7.5 -0.1670E+02  0.1527E+02  0.6257E+01E
 Epicentro: LOS SANTOS - SANTANDER                                             3
 ACTION:UP  10-09-07 10:51 OP:vdl  STATUS:               ID:20100801111040 L   I
 2010-08-01-1106-15S.COL___123                                                 6
 STAT SP IPHASW D HRMM SECON CODA AMPLIT PERI AZIMU VELO SNR AR TRES W  DIS CAZ7
 BAR2 SZ IP     C 1110 59.51                             171    -0.210   21 195 
 BAR2 SZ ES   2   1111 14.14                             171    -0.5 5   21 195 
 BAR2 SZ I        1111 17.37       215.5 0.24                            21 195 
 GIR2 SZ EP   1   1110 59.58                             166    -0.3 7   34 349 
 GIR2 SZ ES   2   1111 15.23                             166     0.3 5   34 349 
 BRR  HZ EP   1   1111  1.35                             151    -0.1 7   74 300 
 BRR  HN ES   2   1111 18.13                             151     0.4 5   74 300 
 BRR  HZ I        1111 21.07       140.6 0.35                            74 300 
 RUS  HZ EP   1   1111  3.51                             144    -0.3 7   98 177 
 RUS  HN ES   2   1111 21.67                             144    -0.2 5   98 177 
 RUS  HZ I        1111 23.43       115.5 0.16                            98 177 
 BRI  SZ EP   1   1111  4.08                             140    -0.2 7  110  20 
 BRI  SZ ES   2   1111 22.68                             140     0.0 5  110  20 
 GRA  SZ IP     C 1111  6.29                             135     0.610  128  17 
 GRA  SZ ES   2   1111 25.97                             135     0.8 5  128  17 
 GRA  SZ I        1111 27.22       105.2 0.30                           128  17 
 OCA  SZ EP   1   1111  7.81                             128    -1.0 7  163 353 
 OCA  SZ ES   2   1111 30.59                             128    -0.3 5  163 353 
 OCA  SZ I        1111 34.53        91.7 0.50                           163 353 
 CHI  HZ EP   1   1111 17.59                             116    -0.3 6  247 196 
 CHI  HZ I        1111 20.30        41.7 0.68                           247 196 
 CHI  HN ES   2   1111 46.81                             116    -0.1 4  247 196 
 ROSC BZ EP   1   1111 19.32                             116     1.0 6  251 212 
 ROSC BE ES   3   1111 48.51                             116     0.7 2  251 212 
 ROSC BZ I        1111 57.84        48.4 0.26                           251 212 
 CVER SZ EP   1   1111 20.92                             114     0.4 6  270 203 
 HEL  HZ EP   1   1111 20.12                             114    -0.6 6  273 256 
 HEL  HE ES   3   1111 50.39                             114    -1.6 2  273 256 
 HEL  HZ I        1111 59.73        43.2 0.35                           273 256 
 GUY  SZ EP   1   1111 24.61                             111     0.6 5  301 235 
 GUY  SN ES   3   1111 58.15                             111     0.3 2  301 235 
 RREF HZ EP   1   1111 27.07                             110     0.6 5  321 230 
 RREF HE ES   2   1112  2.67                             110     0.4 3  321 230 
 RREF HZ I        1112 11.14        46.5 0.91                           321 230 
 PRA  HZ EP   1   1111 33.01                             106    -0.8 4  391 210 
 PRA  HE ES   2   1112 14.89                             106    -0.4 3  391 210 
 PRA  HZ I        1112 21.72        44.7 0.41                           391 210 
                                                                                
