 2011  5 1 1157 23.6 L   6.785 -73.086140.0  RSN  5 0.3 1.3LRSN                1
 GAP=145        0.73       5.5     8.3  9.2  0.5508E+01 -0.3278E+01  0.1505E+02E
 Epicentro: LOS SANTOS - SANTANDER                                             3
 ACTION:UP  11-06-29 08:50 OP:tino STATUS:               ID:20110501115723 L   I
 2011-05-01-1140-00M.COL___137                                                 6
 STAT SP IPHASW D HRMM SECON CODA AMPLIT PERI AZIMU VELO SNR AR TRES W  DIS CAZ7
 BAR2 SZ EP       1157 42.59                             170     0.010   24 207 
 BAR2 SZ ES   2   1157 57.42                             170     0.0 5   24 207 
 BAR2 SZ I        1157 58.48         5.3 0.53                            24 207 
 PAM  SZ EP   3   1157 44.83                             151    -0.3 2   75  35 
 PAM  SN ES   2   1158  2.20                             151     0.4 5   75  35 
 PAM  SZ I        1158  3.77         1.8 0.18                            75  35 
 BRR  HZ EP       1157 44.28                             150    -0.310   78 297 
 BRR  HZ I        1157 44.52         7.5 0.13                            78 297 
 BRR  HN ES   1   1158  1.09                             150     0.2 7   78 297 
 RUS  HZ EP       1157 47.03                             143     0.310   99 180 
 RUS  HN ES   2   1158  4.06                             143    -0.6 5   99 180 
 RUS  HZ I        1158  7.74         2.3 0.33                            99 180 
 GRA  SZ ES   2   1158  7.20                             136    -0.4 5  126  14 
 GRA  SZ I        1158  8.69         3.8 0.35                           126  14 
                                                                                
