 2014 10 1 1821 24.3 L   7.362 -73.114 11.7  RSN  7 0.4 1.9LRSN                1
 GAP=127        1.04       2.8     2.4  4.7 -0.2907E+00  0.4272E+01 -0.3508E+01E
 Epicentro: RIONEGRO - SANTANDER                                               3
 ACTION:UPD 14-11-29 23:45 OP:nd   STATUS:               ID:20141001182124 L   I
 OLDACT:UP  14-10-02 00:25 OP:cam  STATUS:               ID:20141001182000     3
 OLDACT:REG 14-10-01 22:36 OP:cam  STATUS:               ID:20141001182000     3
 2014-10-01-1820-00M.COL___252                                                 6
 STAT SP IPHASW D HRMM SECON CODA AMPLIT PERI AZIMU VELO AIN AR TRES W  DIS CAZ7
 PAM  SZ EP     D 1821 32.60                             101    0.1610 45.8  93 
 PAM  SN ES       1821 38.79                             101   -0.0210 45.8  93 
 PAM  SZ I        1821 39.73        95.4 0.16             47           45.8  93 
 BRR  HZ EP       1821 35.88                              97    0.0710 71.8 247 
 BRR  HE ES       1821 44.98                              97    0.1710 71.8 247 
 BRR  HE I        1821 45.16        47.4 0.16             47           71.8 247 
 BAR2 SZ ES       1821 48.21                              96   -0.7210 85.5 185 
 BAR2 SZ I        1821 50.05        17.7 0.12             47           85.5 185 
 RUS  HZ EP       1821 50.71                              56    0.93 9  163 179 
 RUS  HN ES       1822  9.47                              56   -0.21 9  163 179 
 RUS  HZ I        1822 15.84         5.1 0.24             47            163 179 
 PTB  HZ EP       1821 50.69                              56    0.05 9  174 239 
 PTB  HZ I        1822 12.06        16.1 0.28             37            174 239 
 SML  HZ EP       1821 52.51                              56   -0.21 9  191 327 
 SML  HN ES       1822 14.27                              56   -0.64 9  191 327 
 ZAR  HZ EP       1821 53.25                              56    0.24 9  193 274 
 ZAR  HN ES       1822 15.63                              56    0.21 9  193 274 
 ZAR  HZ I        1822 17.01        25.4 0.24             37            193 274 
                                                                                
