 2014  6 1 1338 23.1 L   6.812 -73.126149.1  RSN 14 0.5 2.3LRSN                1
 GAP=138        1.08       3.0     4.4  5.8 -0.1518E+01  0.7058E+01 -0.1322E+00E
 Epicentro: LOS SANTOS - SANTANDER                                             3
 ACTION:UPD 14-07-01 22:49 OP:nd   STATUS:               ID:20140601133823 L   I
 OLDACT:UP  14-06-01 22:18 OP:cam  STATUS:               ID:20140601133649     3
 OLDACT:UP  14-06-01 22:17 OP:cam  STATUS:               ID:20140601133649     3
 OLDACT:REG 14-06-01 22:10 OP:cam  STATUS:               ID:20140601133649     3
 2014-06-01-1336-49M.COL___250                                                 6
 STAT SP IPHASW D HRMM SECON CODA AMPLIT PERI AZIMU VELO AIN AR TRES W  DIS CAZ7
 BAR2 SZ EP     C 1338 43.18                             170   -0.0310 25.1 194 
 BAR2 SZ ES       1338 58.55                             170   -0.3110 25.1 194 
 BAR2 SZ I        1339  0.77        31.0 0.22            167           25.1 194 
 BRR  HZ EP     D 1338 45.11                             153    0.3810 72.5 297 
 BRR  HE ES       1339  2.49                             153    0.9310 72.5 297 
 BRR  HZ I        1339  6.79        26.9 0.28            149           72.5 297 
 PAM  SZ EP       1338 45.93                             152    0.3510 75.0  39 
 PAM  SN ES       1339  3.31                             152    0.2410 75.0  39 
 PAM  SZ I        1339  5.43        28.5 0.48            157           75.0  39 
 RUS  HZ EP   1   1338 47.12                             144   -0.19 7  102 177 
 RUS  HN ES       1339  6.09                             144   -0.0710  102 177 
 RUS  HZ I        1339  8.76        11.8 0.30            147            102 177 
 PTB  HZ EP   1   1338 50.11                             132   -0.49 7  150 258 
 PTB  HN ES       1339 10.95                             132   -1.07 9  150 258 
 PTB  HZ I        1339 18.35        33.9 0.38            131            150 258 
 OCA  HZ EP   1   1338 51.31                             131   -0.31 7  159 352 
 OCA  HE ES       1339 13.58                             131   -0.25 9  159 352 
 OCA  HZ I        1339 17.27        17.0 0.18            132            159 352 
 SPBC HZ EP       1338 52.20                             129    0.07 9  166 219 
 SPBC HN ES       1339 14.64                             129   -0.09 9  166 219 
 SPBC HZ I        1339 18.63        21.7 0.18            130            166 219 
 SPBC HZ E      C 1339 34.68                                            166 219 
 ZAR  HZ EP       1338 56.05                             123    0.08 8  206 292 
 ZAR  HE ES   1   1339 21.72                             123    0.15 6  206 292 
 ZAR  HZ I        1339 27.29        21.7 0.26            123            206 292 
 NOR  HZ EP   1   1338 59.52                             119    0.18 6  237 235 
 NOR  HE ES   4   1339 26.40                             119   -1.18 0  237 235 
 NOR  HZ I        1339 33.16        15.9 0.16            120            237 235 
 SML  HZ EP       1338 59.54                             118   -0.39 8  243 335 
 SML  HE ES       1339 27.95                             118   -0.67 8  243 335 
 SML  HZ I        1339 33.05        23.5 0.10            119            243 335 
 CHI  HZ EP       1339  1.48                             118    0.25 8  251 196 
 CHI  HN ES       1339 30.59                             118   -0.35 8  251 196 
 CHI  HZ I        1339 36.47         6.0 0.26            120            251 196 
 HEL  HZ EP   1   1339  4.59                             115    0.79 6  275 256 
 HEL  HN ES       1339 36.28                             115    0.77 8  275 256 
 HEL  HZ I        1339 43.01         8.9 0.28            116            275 256 
 URE  HZ EP   4   1339  6.06                             114    1.51 0  285 291 
 URE  HE ES   4   1339 34.58                             114   -2.27 0  285 291 
 URE  HZ I        1339 47.16        12.3 0.18            115            285 291 
 GUY2CHZ EP   4   1339  8.81                             113    1.61 0  304 235 
 GUY2CHE ES   4   1339 44.25                             113    2.69 0  304 235 
 GUY2CHZ I        1339 51.83        10.9 0.54                           304 235 
                                                                                
