 2012  4 1 1659 21.2 L   6.799 -73.122152.0  RSN  6 0.4 1.9LRSN                1
 GAP=140        0.86       6.0     5.3  9.0  0.2717E+01  0.7632E+01  0.3556E+01E
 Epicentro: LOS SANTOS - SANTANDER                                             3
 ACTION:UPD 12-07-05 11:49 OP:tino STATUS:               ID:20120401165921 L   I
 2012-04-01-1657-59S.COL___204                                                 6
 STAT SP IPHASW D HRMM SECON CODA AMPLIT PERI AZIMU VELO AIN AR TRES W  DIS CAZ7
 BAR2 SZ EP   1   1659 41.55                             171     0.0 7   24 196 
 BAR2 SZ ES   2   1659 56.93                             171    -0.6 5   24 196 
 BAR2 SZ I        1659 59.18        14.9 0.26                            24 196 
 BRR  HZ EP   1   1659 43.26                             153     0.1 7   74 298 
 BRR  HN ES   1   17 0  0.85                             153     0.6 7   74 298 
 BRR  HZ I        17 0  4.06        20.8 0.13                            74 298 
 PAM  SZ EP   1   1659 44.11                             152     0.1 7   76  38 
 PAM  SN ES   1   17 0  1.48                             152    -0.3 7   76  38 
 RUS  HZ EP   1   1659 46.00                             145     0.5 7  100 178 
 RUS  HN ES   1   17 0  4.60                             145     0.1 7  100 178 
 RUS  HZ I        17 0  6.33         3.9 0.21                           100 178 
 PTB  HZ EP   1   1659 48.13                             133    -0.8 7  150 259 
 PTB  HN ES   1   17 0 10.40                             133    -0.1 7  150 259 
 PTB  HZ I        17 0 17.13         6.6 0.31                           150 259 
 ZAR  HN ES   1   17 0 20.22                             123     0.1 6  207 292 
 ZAR  HZ I        17 0 24.91        13.1 0.31                           207 292 
                                                                                
