 2012  8 1 1813 38.5 L   6.760 -73.145152.4  RSN  5 0.4 1.6LRSN                1
 GAP=138        0.68       5.5     5.2  6.3  0.5849E+01 -0.4628E+00 -0.3120E+01E
 Epicentro: LOS SANTOS - SANTANDER                                             3
 ACTION:UPD 12-09-10 11:53 OP:ep   STATUS:               ID:20120801181338 L   I
 2012-08-01-1810-00M.COL___215                                                 6
 STAT SP IPHASW D HRMM SECON CODA AMPLIT PERI AZIMU VELO AIN AR TRES W  DIS CAZ7
 BAR2 SZ IP       1813 58.87                             173   -0.0110 19.0 193 
 BAR2 SZ I        1813 59.03         8.4 0.40                          19.0 193 
 BAR2 SZ ES   1   1814 14.65                             173   -0.11 7 19.0 193 
 BRR  HZ IP     C 1814  0.82                             153    0.3010 73.5 302 
 BRR  HZ I        1814  2.36        18.3 0.12                          73.5 302 
 BRR  HN ES   1   1814 18.20                             153    0.52 7 73.5 302 
 PAM  SZ EP   1   1814  1.59                             151   -0.06 7 80.8  38 
 PAM  SE ES   3   1814 18.31                             151   -1.38 2 80.8  38 
 RUS  HZ EP       1814  2.74                             147    0.1110 96.2 176 
 RUS  HZ I        1814  3.63         2.3 0.44                          96.2 176 
 RUS  HN ES   1   1814 21.51                             147    0.07 7 96.2 176 
 PTB  HZ EP       1814  5.63                             134   -0.35 9  147 261 
 PTB  HN ES   1   1814 26.92                             134   -0.48 7  147 261 
 PTB  HZ I        1814 32.71         5.0 0.30                           147 261 
                                                                                
