 2012  7 1 1209  2.4 L   6.808 -73.149148.0  RSN 26 0.5 3.4LRSN                1
 GAP= 55        1.01       3.1     3.3  5.4  0.3091E-01  0.2646E+01  0.3409E+01E
 Epicentro: LOS SANTOS - SANTANDER                                             3
 SPEC SD       MO  0.4 ST 45.0 OM  0.7 f00.751 R0.1197 AL      WI      MW  0.2 3
 SPEC MON HH N MO 14.7 ST 10.0 OM  2.8 f0 2.34 R0.6282 AL 1.34 WI 44.8 MW  3.8 3
 SPEC MON HH N T121027 K 0.000 GD  382 VS 4.20 DE 3.00 Q0230.0 QA 0.60 VS 4.20 3
 SPEC ROSCBH Z MO 15.0 ST 21.8 OM  2.4 f0 2.49 R0.5904 AL 3.07 WI 29.0 MW  4.0 3
 SPEC ROSCBH Z T12 941 K 0.000 GD  294 VP 7.60 DE 3.00 Q0230.0 QA 0.60 VS 4.20 3
 SPEC OCA HH N MO 15.4 ST 83.0 OM  3.7 f0 2.87 R0.5122 AL 2.62 WI 55.2 MW  4.2 3
 SPEC OCA HH N T12 950 K 0.000 GD  217 VS 4.20 DE 3.00 Q0230.0 QA 0.60 VS 4.20 3
 SPEC PTB HH Z MO 14.3 ST 10.0 OM  1.8 f0 3.41 R0.4311 AL 1.85 WI 21.2 MW  3.5 3
 SPEC PTB HH Z T12 928 K 0.000 GD  209 VP 7.60 DE 3.00 Q0230.0 QA 0.60 VS 4.20 3
 SPEC RUS HH Z MO 14.3 ST  6.5 OM  1.9 f0 2.88 R0.5104 AL 1.69 WI 18.2 MW  3.5 3
 SPEC RUS HH Z T12 926 K 0.000 GD  179 VP 7.60 DE 3.00 Q0230.0 QA 0.60 VS 4.20 3
 SPEC PAM SH N MO 14.3 ST  5.2 OM  2.7 f0 2.68 R0.5485 AL 2.34 WI 18.7 MW  3.5 3
 SPEC PAM SH N T12 941 K 0.000 GD  166 VS 4.20 DE 3.00 Q0230.0 QA 0.60 VS 4.20 3
 SPEC COD HH N MO 14.9 ST  7.8 OM  3.0 f0 1.86 R0.7903 AL 1.55 WI 51.2 MW  3.9 3
 SPEC COD HH N T121025 K 0.000 GD  377 VS 4.20 DE 3.00 Q0230.0 QA 0.60 VS 4.20 3
 SPEC HEL HH Z MO 14.4 ST  7.2 OM  1.8 f0 2.68 R0.5485 AL 1.94 WI 29.9 MW  3.6 3
 SPEC HEL HH Z T12 942 K 0.000 GD  309 VP 7.60 DE 3.00 Q0230.0 QA 0.60 VS 4.20 3
 SPEC CHI HH N MO 14.7 ST 18.5 OM  2.9 f0 2.92 R0.5034 AL 2.51 WI 39.7 MW  3.8 3
 SPEC CHI HH N T1210 8 K 0.000 GD  290 VS 4.20 DE 3.00 Q0230.0 QA 0.60 VS 4.20 3
 SPEC BRR HH N MO 15.0 ST149.6 OM  3.4 f0 4.83 R0.3043 AL 3.21 WI 27.1 MW  3.9 3
 SPEC BRR HH N T12 941 K 0.000 GD  163 VS 4.20 DE 3.00 Q0230.0 QA 0.60 VS 4.20 3
 ACTION:UPD 12-08-14 11:41 OP:ep   STATUS:               ID:20120701120902 L   I
 2012-07-01-1207-39M.COL___202                                                 6
 STAT SP IPHASW D HRMM SECON CODA AMPLIT PERI AZIMU VELO AIN AR TRES W  DIS CAZ7
 BAR2 SZ IP       12 9 22.54                             170     0.210   24 189 
 BAR2 SZ ES   1   12 9 37.46                             170    -0.4 7   24 189 
 BAR2 SZ I        12 9 38.77       377.6 0.68            171             24 189 
 BRR  HZ IP     C 12 9 24.42                             153     0.610   70 298 
 BRR  HN ES   1   12 9 41.28                             153     0.8 7   70 298 
 BRR  HZ I        12 9 44.27       383.9 0.16            137             70 298 
 PAM  SZ IP       12 9 25.39                             151     0.510   77  40 
 PAM  SN ES   1   12 9 42.07                             151    -0.3 7   77  40 
 PAM  SZ I        12 9 44.67       349.1 0.58            139             77  40 
 RUS  HZ IP     C 12 9 26.39                             144    -0.110  102 176 
 RUS  HE ES   1   12 9 45.36                             144     0.1 7  102 176 
 RUS  HZ I        12 9 47.68       316.0 0.52            140            102 176 
 PTB  HZ EP       12 9 29.03                             132    -0.5 9  148 258 
 PTB  HN ES   1   12 9 50.12                             132    -0.6 7  148 258 
 PTB  HZ I        12 9 57.92       248.0 0.36            120            148 258 
 TAM  HZ IP     C 12 9 30.68                             131     0.3 9  156 105 
 TAM  HN ES   1   12 9 51.75                             131    -0.4 7  156 105 
 OCA  HZ EP       12 9 30.58                             130    -0.3 9  159 353 
 OCA  HN ES   1   12 9 52.14                             130    -0.8 7  159 353 
 OCA  HZ I        12 9 58.16       613.0 0.30            116            159 353 
 YOP  SZ IP       12 9 32.98                             127     0.2 9  180 153 
 YOP  SN ES   1   12 9 56.39                             127     0.0 7  180 153 
 YOP  SZ I        1210  0.08       141.3 0.26            120            180 153 
 ZAR  HZ EP   2   12 9 35.03                             123     0.1 4  203 292 
 ZAR  HN ES   1   1210  0.67                             123     0.3 6  203 292 
 ZAR  HZ I        1210  6.82       242.8 0.52            110            203 292 
 NOR  SZ EP       12 9 38.53                             119     0.2 8  235 234 
 NOR  SN ES   1   1210  6.04                             119    -0.3 6  235 234 
 CHI  HZ EP       12 9 40.39                             117     0.0 8  249 195 
 CHI  HN ES   1   1210  9.83                             117    -0.1 6  249 195 
 CHI  HZ I        1210 18.37       125.3 0.58            109            249 195 
 ROSC BE ES   3   1210 10.65                             117     0.0 2  253 211 
 ROSC BZ I        1210 17.07       211.2 0.40            108            253 211 
 HEL  HZ EP   1   12 9 42.91                             115     0.2 6  272 256 
 HEL  HN ES   2   1210 13.39                             115    -0.8 4  272 256 
 HEL  HZ I        1210 20.66       139.5 0.30            105            272 256 
 URE  HZ EP   2   12 9 42.88                             114    -0.7 4  283 292 
 URE  HZ I        1210 25.09       185.8 0.28            104            283 292 
 VIL  SZ EP       12 9 45.29                             112    -0.8 7  304 191 
 VIL  SN ES   1   1210 19.20                             112    -0.9 5  304 191 
 VIL  SZ I        1210 25.67        82.1 0.52            104            304 191 
 DBB  SZ EP       12 9 50.44                             110     0.5 7  339 274 
 TOL  SZ EP       12 9 51.46                             110     0.6 7  344 224 
 COD  HZ EP   3   12 9 50.04                             109    -0.8 2  347 355 
 COD  HZ I        1210 35.31        77.5 0.34            100            347 355 
 MON  HN ES   3   1210 28.85                             109    -0.8 2  353 308 
 ANIL HZ EP   3   12 9 51.38                             109    -1.0 2  358 224 
 ANIL HN ES   2   1210 31.37                             109     0.0 3  358 224 
 SDV  BZ EP       12 9 51.84                             109    -0.7 6  360  50 
 PRA  HZ EP       12 9 55.89                             107    -0.2 6  393 209 
 PRA  HN ES   2   1210 38.06                             107     0.1 3  393 209 
 SJA  SZ EP       12 9 58.08                             106     0.9 6  401 193 
 SJC  HZ EP   3   12 9 56.73                             106    -1.2 1  408 327 
 SJC  HZ I        1210 42.15        54.1 0.52             97            408 327 
 VALL EZ EP   3   12 9 56.81                             106    -1.2 1  409 358 
 FLO2 HZ EP   3   1210 24.24                              99    -1.4 1  641 206 
 FLO2 HZ I        1210 26.86        14.5 0.32             92            641 206 
