 2011  2 1 1434 57.9 L   6.778 -73.185142.8  RSN  5 0.4 1.8LRSN                1
 GAP=204        0.73       7.6     8.4  8.8 -0.1702E+02  0.1964E+02  0.1909E+02E
 Epicentro: LOS SANTOS - SANTANDER                                             3
 ACTION:UP  11-03-28 15:05 OP:jfem STATUS:               ID:20110201143457 L   I
 2011-02-01-1431-55S.COL___138                                                 6
 STAT SP IPHASW D HRMM SECON CODA AMPLIT PERI AZIMU VELO SNR AR TRES W  DIS CAZ7
 BTL  SZ EP   1   1435 17.43                             172     0.3 7   18 330 
 BTL  SZ ES   2   1435 32.79                             172     0.7 5   18 330 
 BAR2 SZ EP   1   1435 16.60                             172    -0.6 7   21 179 
 BAR2 SZ ES   2   1435 31.79                             172    -0.4 5   21 179 
 BAR2 SZ I        1435 35.03        24.5 0.26                            21 179 
 RUS  HZ EP   1   1435 21.12                             144    -0.1 7   99 173 
 RUS  HN ES   2   1435 39.49                             144     0.0 5   99 173 
 RUS  HZ I        1435 41.09         7.2 0.33                            99 173 
 NOR  SZ EP   1   1435 33.20                             118     0.2 6  230 234 
 NOR  SN ES   1   1435 59.97                             118    -0.3 6  230 234 
 CHI  HZ EP   1   1435 35.33                             117     0.2 6  245 194 
 CHI  HZ I        1435 35.88         4.0 0.35                           245 194 
 CHI  HE ES   2   1436  4.64                             117     0.6 4  245 194 
                                                                                
