 2017  5 1 1116 31.6 L   6.743 -73.117150.0  RSN  9 0.4 1.8LRSN                1
 GAP=143        0.96       3.7     4.1  5.8 -0.1490E+01  0.4334E+01  0.2916E+01E
 Epicentro: LOS SANTOS - SANTANDER                                             3
 ACTION:UPD 17-06-16 13:31 OP:jn   STATUS:               ID:20170501111631 L   I
 OLDACT:UP  17-05-01 21:09 OP:edw  STATUS:               ID:20170501110744     3
 OLDACT:REG 17-05-01 19:46 OP:edw  STATUS:               ID:20170501110744     3
 2017-05-01-1108-00M.COL___368                                                 6
 STAT SP IPHASW D HRMM SECON CODA AMPLIT PERI AZIMU VELO AIN AR TRES W  DIS CAZ7
 BRR  HZ IP     C 1116 53.53                             151    0.0210 77.1 301 
 BRR  HN ES       1117 10.69                             151    0.0710 77.1 301 
 BRR  HZ I        1117 11.65        11.5 0.12            150           77.1 301 
 PAM  EZ EP       1116 54.61                             150    0.2010 80.4  35 
 PAM  EN ES       1117 11.78                             150   -0.4510 80.4  35 
 PAM  EZ I        1117 13.13         9.3 0.20            155           80.4  35 
 RUS  HZ EP       1116 55.61                             146    0.3210 94.1 178 
 RUS  HN ES       1117 13.54                             146   -0.2510 94.1 178 
 RUS  HZ I        1117 14.98        11.5 0.22            146           94.1 178 
 PTB  HZ EP   9   1116 58.33                             132   -0.74 0  150 261 
 PTB  HN ES       1117 19.19                             132   -0.59 9  150 261 
 PTB  HZ I        1117 26.75         6.9 0.20            132            150 261 
 SPBC HZ EP       1117  0.75                             130    0.61 9  160 221 
 SPBC HN ES       1117 22.73                             130    0.31 9  160 221 
 SPBC HZ I        1117 26.12        14.0 0.22            130            160 221 
 ZAR  HZ EP       1117  5.26                             122    0.42 8  209 293 
 ZAR  HN ES       1117 30.88                             122    0.08 8  209 293 
 ZAR  HZ I        1117 36.02         9.7 0.38            123            209 293 
 NOR  HZ EP       1117  6.63                             119   -0.81 8  234 236 
 NOR  HN ES       1117 35.38                             119   -0.05 8  234 236 
 NOR  HZ I        1117 37.66         5.3 0.29            119            234 236 
 CHI  HZ EP       1117  8.47                             118   -0.47 8  243 196 
 CHI  HN ES   4   1117 40.83                             118    2.73 0  243 196 
 CHI  HZ I        1117 46.94         2.4 0.52            119            243 196 
 DBB  EZ EP       1117 19.51                             110   -0.13 7  343 275 
 DBB  EN ES   2   1117 56.06                             110   -1.08 3  343 275 
                                                                                
