 2013  7 1 1738 53.5 L   6.784 -73.144151.1  RSN  7 0.4 1.6LRSN                1
 GAP=201        1.03       5.6     6.3  8.1  0.1286E+02  0.7532E+01 -0.2741E+01E
 Epicentro: LOS SANTOS - SANTANDER                                             3
 ACTION:UPD 13-08-12 10:34 OP:ep   STATUS:               ID:20130701173853 L   I
 OLDACT:REG 13-07-01 17:17 OP:jn   STATUS:               ID:20130701173749     3
 2013-07-01-1737-49M.COL___229                                                 6
 STAT SP IPHASW D HRMM SECON CODA AMPLIT PERI AZIMU VELO AIN AR TRES W  DIS CAZ7
 BAR2 SZ EP       1739 13.80                             172    0.0710 21.6 191 
 BAR2 SZ ES       1739 29.11                             172   -0.4110 21.6 191 
 BAR2 SZ I        1739 31.48        10.2 0.28            168           21.6 191 
 BRR  HZ EP       1739 15.71                             153    0.4310 72.2 300 
 BRR  HN ES       1739 32.89                             153    0.6210 72.2 300 
 BRR  HZ I        1739 34.42         6.2 0.32            150           72.2 300 
 RUS  HZ EP       1739 17.75                             145    0.1010 98.8 176 
 RUS  HN ES       1739 36.55                             145    0.0710 98.8 176 
 RUS  HZ I        1739 37.44         2.9 0.28            146           98.8 176 
 PTB  HZ EP       1739 20.41                             133   -0.48 9  148 260 
 PTB  HN ES       1739 41.58                             133   -0.67 9  148 260 
 PTB  HZ I        1739 49.16         8.6 0.48            131            148 260 
 ZAR  HE ES   1   1739 52.23                             123    0.20 6  205 293 
 ZAR  HZ I        1739 58.22         6.0 0.24            123            205 293 
 NOR  HN ES   1   1739 58.10                             120    0.62 6  234 235 
 SML  HN ES   1   1739 58.99                             118   -0.56 6  245 335 
                                                                                
