 2017  9 1 1929 11.2 L   7.408 -73.261118.1  RSN 22 0.7 2.7LRSN                1
 GAP= 97        1.14       2.9     3.0  5.3  0.3760E+00  0.4324E+01 -0.3052E+00E
 Epicentro: EL PLAYON - SANTANDER                                              3
 ACTION:UPD 17-10-05 19:08 OP:rebc STATUS:               ID:20170901192911 L   I
 OLDACT:REG 17-09-01 21:25 OP:dhb  STATUS:               ID:20170901192745     3
 2017-09-01-1928-00M.COL___408                                                 6
 STAT SP IPHASW D HRMM SECON CODA AMPLIT PERI AZIMU VELO AIN AR TRES W  DIS CAZ7
 BRR  HZ IP     D 1929 28.47                             151   -0.2210 59.9 236 
 BRR  HN ES       1929 42.32                             151   -0.0410 59.9 236 
 BRR  HZ I        1929 42.93       227.4 0.13            135           59.9 236 
 PAM  EZ IP     C 1929 29.93                             151    0.3810 62.4  97 
 PAM  EN ES       1929 44.49                             151    0.6010 62.4  97 
 BAR2 EZ IP     C 1929 30.91                             140   -0.2510 90.6 174 
 BAR2 EZ ES       1929 45.99                             140   -0.7610 90.6 174 
 BAR2 EZ I        1929 47.65       256.1 0.23            125           90.6 174 
 RUS  HZ IP     D 1929 38.52                             121   -0.28 9  169 173 
 RUS  HN ES       1930  0.43                             121    0.07 9  169 173 
 ZAR  HZ IP     C 1929 39.23                             119    0.23 9  177 273 
 ZAR  HN ES       1930  1.20                             119    0.49 9  177 273 
 ZAR  HZ I        1930  4.92        67.2 0.20            109            177 273 
 TAM  HZ IP     C 1929 41.12                             117    0.11 9  195 123 
 TAM  HE ES       1930  3.63                             117   -0.65 9  195 123 
 SPBC HZ EP   2   1929 44.34                             114    1.17 4  214 205 
 SPBC HN ES       1930  7.72                             114   -0.41 8  214 205 
 SPBC HZ I        1930 14.29        52.2 0.20            105            214 205 
 YPLC HZ IP     C 1929 46.29                             111   -0.12 8  243 156 
 YPLC HN ES       1930 14.05                             111    0.16 8  243 156 
 YPLC HZ I        1930 23.27        16.0 0.07            103            243 156 
 URE  HZ EP   4   1929 47.04                             110   -0.52 0  254 279 
 URE  HN ES   4   1930 15.03                             110   -0.91 0  254 279 
 URE  HZ I        1930 22.07        91.8 0.33            103            254 279 
 LL6C HZ EP       1929 48.97                             110    0.99 8  257 360 
 LL6C HE ES       1930 16.73                             110    0.04 8  257 360 
 NOR  HZ EP       1929 48.97                             109   -0.60 8  271 221 
 NOR  HE ES       1930 19.21                             109   -0.31 8  271 221 
 NOR  HZ I        1930 25.12        26.7 0.19            101            271 221 
 HEL  HZ EP       1929 51.84                             108    0.27 7  285 242 
 HEL  HE ES   4   1930 25.55                             108    2.46 0  285 242 
 HEL  HZ I        1930 32.56        14.8 0.39            101            285 242 
 TABC EZ EP   9   1929 53.42                             108    1.69 0  285 202 
 TABC EZ ES       1930 25.01                                   -0.04 7  285 202 
 TABC EZ I        1930 32.15        30.0 0.41            101            285 202 
 ROSC BZ EP       1929 53.47                             106   -0.78 7  307 202 
 ROSC BE ES   4   1930 31.14                             106    3.29 0  307 202 
 ROSC BZ I        1930 38.74        22.8 0.64            100            307 202 
 CHI  HZ EP       1929 54.55                             106   -0.25 7  312 190 
 CHI  HE ES   2   1930 31.05                             106    2.23 3  312 190 
 CHI  HZ I        1930 38.36        16.2 0.19            100            312 190 
 DBB  EZ EP       1929 56.13                             104   -0.25 7  329 263 
 DBB  EE ES       1930 30.97                             104   -0.67 7  329 263 
 DBB  EZ I        1930 31.79        11.3 0.22             99            329 263 
 GUY2CHZ EP       1929 58.57                             104    0.89 7  335 224 
 GUY2CHE ES   2   1930 35.03                             104    1.08 3  335 224 
 GUY2CHZ I        1930 41.91        11.8 0.32                           335 224 
 SJC  HZ IP     C 1929 57.22                             103   -1.31 6  347 323 
 SJC  HN ES   4   1930 32.63                             103   -2.84 0  347 323 
 SJC  HZ I        1930 33.83        12.8 0.28             99            347 323 
 ELA  HZ EP   3   1930  3.91                             102    2.30 2  368 220 
 ELA  HE ES       1930 41.78                             102    0.83 6  368 220 
 ELA  HZ I        1930 50.94        10.2 0.43             98            368 220 
 ANIL HZ EP       1930  6.01                             101    0.83 6  400 216 
 ANIL HE ES   3   1930 49.45                             101    2.14 1  400 216 
 ANIL HZ I        1930 54.96        29.1 0.23             97            400 216 
 ORTC HN ES   2   1930 57.18                              99    0.88 3  445 210 
 ORTC HZ I        1931  5.43        12.2 0.45             97            445 210 
 PRA  HZ EP       1930 10.10                              99   -0.30 5  446 204 
 PRA  HE ES       1930 57.13                              99    0.53 5  446 204 
                                                                                
