 2017  2 1 1306  6.5 L   6.749 -73.137144.0  RSN  6 0.4 1.8LRSN                1
 GAP=140        1.08       5.4     4.8  7.3  0.2511E+01  0.9069E+01 -0.1964E+01E
 Epicentro: LOS SANTOS - SANTANDER                                             3
 ACTION:UPD 17-05-24 15:31 OP:jn   STATUS:               ID:20170201130606 L   I
 OLDACT:UP  17-02-01 23:31 OP:ar   STATUS:               ID:20170201125744     3
 OLDACT:REG 17-02-01 20:33 OP:ar   STATUS:               ID:20170201125744     3
 2017-02-01-1258-00M.COL___322                                                 6
 STAT SP IPHASW D HRMM SECON CODA AMPLIT PERI AZIMU VELO AIN AR TRES W  DIS CAZ7
 BAR2 EZ EP       13 6 25.67                             173   -0.1210 18.1 196 
 BAR2 EZ ES       13 6 41.36                             173    0.5010 18.1 196 
 BAR2 EZ I        13 6 41.72        15.4 0.18            172           18.1 196 
 BRR  HZ EP       13 6 27.63                             151   -0.0010 74.8 302 
 BRR  HN ES       13 6 44.33                             151    0.1910 74.8 302 
 BRR  HZ I        13 6 48.59        17.1 0.12            150           74.8 302 
 PAM  EZ EP       13 6 28.51                             149   -0.2210 81.2  37 
 PAM  EE ES       13 6 45.76                             149   -0.3410 81.2  37 
 PAM  EZ I        13 6 47.00        10.4 0.18            152           81.2  37 
 RUS  HZ EP       13 6 29.69                             145    0.0510 94.9 176 
 RUS  HN ES       13 6 47.82                             145    0.1110 94.9 176 
 RUS  HZ I        13 6 48.92         6.6 0.24            148           94.9 176 
 PTB  HZ EP       13 6 32.83                             132   -0.45 9  148 261 
 PTB  HN ES       13 6 53.48                             132   -0.72 9  148 261 
 PTB  HZ I        13 6 57.07         6.7 0.20            132            148 261 
 ZAR  HZ EP       13 6 40.18                             122    1.07 8  207 293 
 ZAR  HN ES       13 7  4.68                             122    0.11 8  207 293 
 ZAR  HZ I        13 7  9.67         9.5 0.42            122            207 293 
                                                                                
