 2010  2 1 1739 40.7 L   6.805 -72.985149.5  RSN  8 0.5 2.2LRSN                1
 GAP=223        0.75       5.6    12.4  7.3 -0.1486E+02  0.4301E+02  0.6395E+01E
 Epicentro: CEPITA - SANTANDER                                                 3
 ACTION:UP  10-08-24 09:47 OP:vdl  STATUS:               ID:20100201173940 L   I
 2010-02-01-1737-50S.COL___094                                                 6
 STAT SP IPHASW D HRMM SECON CODA AMPLIT PERI AZIMU VELO SNR AR TRES W  DIS CAZ7
 BAR2 SZ EP   1   1740  1.16                             168     0.113   32 223 
 BAR2 SZ ES   1   1740 16.35                             168    -0.513   32 223 
 GIR2 SZ EP   1   1740  1.36                             165     0.313   38 323 
 GIR2 SZ ES   2   1740 16.75                             165    -0.1 9   38 323 
 RUS  BZ EP   2   1740  5.23                             144     0.3 9  101 186 
 RUS  BE ES   1   1740 24.19                             144     0.413  101 186 
 RUS  BZ I        1740 25.53        12.7 0.61                           101 186 
 CHI  HZ EP   1   1740 19.33                             117     0.110  254 199 
 CHI  HE ES   1   1740 48.85                             117    -0.510  254 199 
 CHI  HZ I        1740 53.01         9.4 0.78                           254 199 
 HEL  HZ EP   2   1740 23.40                             114     0.3 6  289 257 
 HEL  HZ I        1740 59.57         9.0 0.60                           289 257 
 RREF BE ES   2   1741  7.17                             110     1.2 6  336 231 
 DBB  SZ EP   2   1740 29.46                             109    -0.9 6  357 274 
 PRA  HZ EP       1740 35.06                             107    -0.410  402 212 
 PRA  HE ES   1   1741 17.91                             107    -0.3 7  402 212 
 PRA  HZ I        1741 21.79        10.6 0.74                           402 212 
                                                                                
