 2016  4 1 1455 23.7 L   6.786 -73.159151.5  RSN  7 0.3 1.7LRSN                1
 GAP=136        0.68       3.1     3.1  4.9 -0.1227E+01  0.5332E+01 -0.1754E+01E
 Epicentro: LOS SANTOS - SANTANDER                                             3
 ACTION:UPD 16-05-05 14:17 OP:rebc STATUS:               ID:20160401145523 L   I
 OLDACT:UP  16-04-01 21:00 OP:drio STATUS:               ID:20160401144743     3
 OLDACT:REG 16-04-01 19:42 OP:drio STATUS:               ID:20160401144743     3
 2016-04-01-1447-43M.COL___311                                                 6
 STAT SP IPHASW D HRMM SECON CODA AMPLIT PERI AZIMU VELO AIN AR TRES W  DIS CAZ7
 BAR2 EZ EP       1455 44.11                             171    0.1410 21.5 187 
 BAR2 EZ ES       1455 59.79                             171   -0.0010 21.5 187 
 BAR2 EZ I        1456  0.96         7.4 0.46            169           21.5 187 
 PAM  EZ EP       1455 46.87                             151    0.2410 79.5  40 
 PAM  EE ES       1456  4.21                             151   -0.3310 79.5  40 
 PAM  EZ I        1456  6.31         7.5 0.56            157           79.5  40 
 RUS  HZ EP       1455 48.02                             145    0.1310 99.1 175 
 RUS  HE ES       1456  6.99                             145    0.2110 99.1 175 
 RUS  HZ I        1456  8.40         3.8 0.38            148           99.1 175 
 PTB  HZ EP       1455 51.02                             134    0.05 9  146 259 
 PTB  HE ES       1456 11.95                             134   -0.31 9  146 259 
 PTB  HZ I        1456 19.55         7.5 0.40            133            146 259 
 SPBC HZ EP       1455 51.85                             131   -0.58 9  161 219 
 SPBC HN ES       1456 14.95                             131    0.10 9  161 219 
 SPBC HZ I        1456 22.10        11.5 0.24            132            161 219 
 ZAR  HZ EP       1455 56.37                             124   -0.06 9  203 293 
 ZAR  HE ES       1456 22.36                             124    0.38 9  203 293 
 ZAR  HZ I        1456 27.66         6.5 0.70            125            203 293 
 GUY2CHZ EP   4   1456  9.34                             113    2.02 0  299 235 
 GUY2CHN ES   4   1456 43.50                             113    2.13 0  299 235 
 GUY2CHZ I        1456 51.09         2.3 0.32                           299 235 
                                                                                
