 2014 11 1 1720  8.5 L   6.776 -73.170155.2  RSN  4 0.3 1.5LRSN                1
 GAP=140        0.75       5.9     5.6  6.6 -0.1003E+02  0.8957E+01 -0.4727E+01E
 Epicentro: LOS SANTOS - SANTANDER                                             3
 ACTION:UPD 14-12-19 15:38 OP:nd   STATUS:               ID:20141101172008 L   I
 OLDACT:REG 14-11-01 21:06 OP:spq  STATUS:               ID:20141101171746     3
 2014-11-01-1717-46M.COL___271                                                 6
 STAT SP IPHASW D HRMM SECON CODA AMPLIT PERI AZIMU VELO AIN AR TRES W  DIS CAZ7
 BAR2 SZ EP   1   1720 29.59                             172    0.39 7 20.4 184 
 BAR2 SZ ES       1720 45.40                             172    0.0410 20.4 184 
 BAR2 SZ I        1720 46.98        10.6 0.20            171           20.4 184 
 PAM  SZ EP       1720 32.35                             151    0.4210 81.1  40 
 PAM  SN ES   1   1720 49.73                             151   -0.48 7 81.1  40 
 PAM  SZ I        1720 51.64         4.8 0.66            155           81.1  40 
 RUS  HZ EP       1720 32.60                             146   -0.4210 98.2 174 
 RUS  HN ES   1   1720 52.32                             146    0.18 7 98.2 174 
 RUS  HZ I        1720 53.60         4.0 0.22            150           98.2 174 
 PTB  HZ EP       1720 35.86                             135   -0.11 9  145 260 
 PTB  HN ES   1   1720 57.41                             135    0.00 7  145 260 
 PTB  HZ I        1721  4.53         4.6 0.30            134            145 260 
                                                                                
