 2010 12 1 1502 29.2 L   6.832 -73.031145.7  RSN  4 0.1 1.7LRSN                1
 GAP=251        0.31       2.6     5.2  3.1  0.7642E+01 -0.2167E+01  0.1115E+01E
 Epicentro: CEPITA - SANTANDER                                                 3
 ACTION:UP  11-01-14 15:22 OP:pat  STATUS:               ID:20101201150229 L   I
 2010-12-01-1500-45S.COL___133                                                 6
 STAT SP IPHASW D HRMM SECON CODA AMPLIT PERI AZIMU VELO SNR AR TRES W  DIS CAZ7
 BAR2 SZ EP   1   15 2 49.03                             167     0.1 7   31 212 
 BAR2 SZ ES   1   15 3  4.52                             167     0.1 7   31 212 
 BAR2 SZ I        15 3  7.59        14.8 0.38                            31 212 
 BRR  HZ EP       15 2 50.81                             149    -0.110   81 292 
 BRR  HZ I        15 2 51.19        21.6 0.21                            81 292 
 BRR  HN ES       15 3  7.85                             149     0.010   81 292 
 RUS  HZ EP   1   15 2 53.18                             143     0.0 7  104 183 
 RUS  HN ES   1   15 3 11.73                             143    -0.1 7  104 183 
 RUS  HZ I        15 3 13.62         4.7 0.21                           104 183 
 CHI  HZ EP   1   15 3  7.66                             116     0.1 6  256 198 
 CHI  HN ES   1   15 3 37.64                             116     0.0 6  256 198 
 CHI  HZ I        15 3 44.27         2.4 0.30                           256 198 
                                                                                
