 2016 11 1 1737 12.0 L   6.802 -73.166143.9  RSN  8 0.4 1.9LRSN                1
 GAP=236        1.03       4.5     6.6  7.2  0.1313E+02  0.9395E+00  0.5036E+01E
 Epicentro: LOS SANTOS - SANTANDER                                             3
 ACTION:UPD 17-10-26 21:03 OP:lp   STATUS:               ID:20161101173712 L   I
 OLDACT:REG 16-11-01 21:18 OP:cog  STATUS:               ID:20161101172745     3
 2016-11-01-1728-00M.COL___333                                                 6
 STAT SP IPHASW D HRMM SECON CODA AMPLIT PERI AZIMU VELO AIN AR TRES W  DIS CAZ7
 BRR  HZ IP     C 1737 32.78                             153   -0.0510 69.1 299 
 BRR  HN ES       1737 49.50                             153    0.4210 69.1 299 
 BRR  HZ I        1737 53.83        13.8 0.11            151           69.1 299 
 RUS  HZ EP       1737 35.33                             143   -0.2710  101 175 
 RUS  HN ES       1737 53.76                             143   -0.2510  101 175 
 RUS  HZ I        1737 55.26         6.9 0.27            143            101 175 
 PTB  HZ EP       1737 37.76                             132   -0.86 9  146 259 
 PTB  HN ES       1737 58.95                             132   -0.44 9  146 259 
 PTB  HZ I        1738  1.58         8.7 0.17            131            146 259 
 SPBC HZ EP       1737 40.70                             129    0.46 9  162 218 
 SPBC HN ES       1738  2.89                             129    0.62 9  162 218 
 SPBC HZ I        1738  4.35         8.4 0.12            128            162 218 
 ZAR  HZ EP       1737 44.37                             122    0.27 9  202 292 
 ZAR  HN ES       1738  9.09                             122   -0.05 9  202 292 
 ZAR  HZ I        1738 14.89        11.1 0.31            123            202 292 
 CHI  HZ EP       1737 49.88                             117    0.32 8  248 195 
 CHI  HE ES       1738 18.77                             117   -0.08 8  248 195 
 CHI  HZ I        1738 26.72         2.6 0.33            117            248 195 
 GUY2CHZ EP   4   1737 57.75                             112    2.42 0  300 234 
 GUY2CHE ES   4   1738 32.71                             112    3.58 0  300 234 
 GUY2CHZ I        1738 39.39         4.1 0.48                           300 234 
 PRA  HZ EP       1738  6.05                             106    0.70 6  391 209 
 PRA  HN ES       1738 46.48                             106   -0.49 6  391 209 
 PRA  HZ I        1738 54.01         3.4 0.34            107            391 209 
                                                                                
