 2015  9 1 1340 32.4 L   6.877 -73.160145.8  RSN  4 0.4 1.7LRSN                1
 GAP=210        0.79       4.2     6.1  7.5  0.8975E-01  0.2059E+02 -0.8216E+01E
 Epicentro: ZAPATOCA - SANTANDER                                               3
 ACTION:UPD 15-10-28 16:23 OP:cam  STATUS:               ID:20150901134032 L   I
 OLDACT:REG 15-09-01 20:57 OP:ak   STATUS:               ID:20150901133748     3
 2015-09-01-1337-48M.COL___331                                                 6
 STAT SP IPHASW D HRMM SECON CODA AMPLIT PERI AZIMU VELO AIN AR TRES W  DIS CAZ7
 BAR2 EZ EP       1340 52.06                             167   -0.2110 31.5 185 
 BAR2 EZ ES       1341  7.88                             167    0.1510 31.5 185 
 BAR2 EZ I        1341 12.82         4.3 0.25            172           31.5 185 
 ZAR  HZ EP       1341  4.85                             123    0.42 9  200 290 
 ZAR  HN ES       1341 29.69                             123    0.32 9  200 290 
 ZAR  HZ I        1341 35.98         7.1 0.20            126            200 290 
 SML  HZ EP       1341  8.23                             118    0.06 8  235 335 
 SML  HN ES       1341 35.56                             118   -0.48 8  235 335 
 SML  HZ I        1341 43.73         4.2 0.09            122            235 335 
 GUY2CHZ EP   1   1341 16.89                             112    0.42 5  305 233 
 GUY2CHN ES       1341 50.17                             112   -0.64 7  305 233 
 GUY2CHZ I        1342  0.59         2.6 0.54                           305 233 
                                                                                
