 2012  3 1 1706 26.4 L   6.758 -73.150145.4  RSN  6 0.4 1.9LRSN                1
 GAP=138        0.93       6.4     6.2  8.3 -0.1890E+01  0.1194E+02 -0.2708E+01E
 ACTION:UP  12-03-31 23:16 OP:EP   STATUS:               ID:20120301170626 L   I
 2012-03-01-1700-00M.COL___192                                                 6
 STAT SP IPHASW D HRMM SECON CODA AMPLIT PERI AZIMU VELO SNR AR TRES W  DIS CAZ7
 BAR2 SZ EP   1   17 6 45.84                             172     0.0 7   19 191 
 BAR2 SZ ES   1   17 7  0.75                             172    -0.3 7   19 191 
 BAR2 SZ I        17 7  2.53        21.8 0.37                            19 191 
 BRR  HZ EP   1   17 6 47.65                             152     0.1 7   73 302 
 BRR  HZ I        17 6 47.94        35.8 0.17                            73 302 
 BRR  HN ES   1   17 7  4.80                             152     0.7 7   73 302 
 PAM  SZ EP   1   17 6 48.69                             149    -0.1 7   81  38 
 PAM  SE ES   1   17 7  5.99                             149    -0.3 7   81  38 
 PAM  SZ I        17 7  8.54         7.8 0.64                            81  38 
 RUS  HZ EP   1   17 6 49.97                             145     0.2 7   96 176 
 RUS  HN ES   1   17 7  8.34                             145     0.3 7   96 176 
 RUS  HZ I        17 7 10.14         7.8 0.37                            96 176 
 PTB  HZ EP   1   17 6 52.58                             132    -0.6 7  146 261 
 PTB  HN ES   1   17 7 13.64                             132    -0.5 7  146 261 
 ZAR  HZ EP   1   17 6 59.52                             122     0.6 6  205 293 
 ZAR  HZ I        17 7 30.93         9.8 0.31                           205 293 
                                                                                
