 2017  2 1 1125 53.0 L   6.788 -73.159150.8  RSN  6 0.3 1.6LRSN                1
 GAP=135        0.91       5.8     5.0  7.1  0.1119E+02 -0.2110E+01 -0.8242E+01E
 Epicentro: LOS SANTOS - SANTANDER                                             3
 ACTION:UPD 17-05-24 15:31 OP:jn   STATUS:               ID:20170201112553 L   I
 OLDACT:UP  17-02-01 22:46 OP:ar   STATUS:               ID:20170201111743     3
 OLDACT:REG 17-02-01 20:21 OP:ar   STATUS:               ID:20170201111743     3
 2017-02-01-1118-00M.COL___322                                                 6
 STAT SP IPHASW D HRMM SECON CODA AMPLIT PERI AZIMU VELO AIN AR TRES W  DIS CAZ7
 BAR2 EZ EP       1126 13.11                             171   -0.0410 21.8 187 
 BAR2 EZ ES       1126 28.29                             171   -0.6210 21.8 187 
 BAR2 EZ I        1126 29.54        14.6 0.26            175           21.8 187 
 BRR  HZ EP       1126 14.26                             154   -0.3510 70.6 300 
 BRR  HN ES       1126 32.03                             154    0.5310 70.6 300 
 PAM  HZ EP       1126 15.93                             151    0.1210 79.3  40 
 PAM  HZ I        1126 35.36         7.9 0.26            139           79.3  40 
 RUS  HZ EP       1126 17.07                             145   -0.0410 99.4 175 
 RUS  HN ES       1126 36.43                             145    0.4810 99.4 175 
 RUS  HZ I        1126 38.36         2.3 0.48            145           99.4 175 
 PTB  HZ EP       1126 20.29                             133    0.11 9  146 259 
 PTB  HN ES       1126 41.11                             133   -0.31 9  146 259 
 PTB  HZ I        1126 48.41         9.1 0.38            131            146 259 
 ZAR  HE ES       1126 51.29                             124    0.15 9  203 293 
 ZAR  HZ I        1126 57.07         4.5 0.26            119            203 293 
                                                                                
