 2010  5 1 1207  8.7 L   6.856 -73.035145.8  RSN  6 0.5 2.0LRSN                1
 GAP=267        0.76       6.6     9.3  7.9  0.2258E+01  0.1650E+02  0.2291E+02E
 Epicentro: LOS SANTOS - SANTANDER                                             3
 ACTION:UP  10-08-24 10:02 OP:vdl  STATUS:               ID:20100501120708 L   I
 2010-05-01-1204-08S.COL___105                                                 6
 STAT SP IPHASW D HRMM SECON CODA AMPLIT PERI AZIMU VELO SNR AR TRES W  DIS CAZ7
 BAR2 SZ EP   1   12 7 28.25                             166    -0.3 7   34 209 
 BAR2 SZ ES   1   12 7 43.86                             166    -0.2 7   34 209 
 BRR  HZ IP     C 12 7 30.48                             150     0.210   80 290 
 BRR  HE ES   1   12 7 47.49                             150     0.3 7   80 290 
 BRR  HZ I        12 7 48.41        24.2 0.07                            80 290 
 CHI  HZ EP   2   12 7 47.33                             116    -0.1 4  258 197 
 CHI  HN ES   2   12 8 17.87                             116     0.3 4  258 197 
 CHI  HZ I        12 8 22.72         3.3 0.35                           258 197 
 HEL  HZ EP   2   12 7 50.04                             114    -0.3 4  285 255 
 HEL  HN ES   2   12 8 21.35                             114    -1.6 4  285 255 
 HEL  HZ I        12 8 27.37         6.8 0.51                           285 255 
 RREF BZ EP   2   12 7 56.82                             110     0.5 3  335 230 
 RREF BN ES   2   12 8 34.52                             110     1.0 3  335 230 
 RREF BZ I        12 8 39.67         5.2 0.35                           335 230 
 PRA  HZ EP   1   12 8  3.47                             106    -0.1 4  404 211 
 PRA  HE ES   1   12 8 46.58                             106     0.2 4  404 211 
 PRA  HZ I        12 8 51.80         3.8 0.33                           404 211 
                                                                                
