 2015  5 1 1410 28.1 L   7.167 -73.332106.4  RSN  5 0.4 1.7LRSN                1
 GAP=165        1.03       4.0     5.7  8.1  0.1432E+00  0.1738E+02 -0.1558E+00E
 Epicentro: LEBRIJA - SANTANDER                                                3
 ACTION:UPD 15-09-10 22:00 OP:cam  STATUS:               ID:20150501141028 L   I
 OLDACT:REG 15-05-01 20:45 OP:ak   STATUS:               ID:20150501140750     3
 2015-05-01-1407-50M.COL___267                                                 6
 STAT SP IPHASW D HRMM SECON CODA AMPLIT PERI AZIMU VELO AIN AR TRES W  DIS CAZ7
 BRR  HZ IP     C 1410 43.66                             156    0.2410 42.5 261 
 BRR  HN ES       1410 55.57                             156    0.2110 42.5 261 
 BRR  HZ I        1410 56.62        13.9 0.14            156           42.5 261 
 BAR2 EZ EP       1410 45.67                             146    0.5410 65.7 165 
 BAR2 EZ ES       1410 58.14                             146   -0.2710 65.7 165 
 BAR2 EZ I        1411  0.90        10.8 0.10            150           65.7 165 
 OCA  HZ EP   2   1410 49.66                             128    0.22 5  118   1 
 OCA  HN ES       1411  5.45                             128   -0.6310  118   1 
 OCA  HZ I        1411  8.89        21.4 0.11            129            118   1 
 ZAR  HZ EP       1410 55.22                             117    0.40 9  172 282 
 ZAR  HN ES       1411 15.86                             117    0.21 9  172 282 
 ZAR  HZ I        1411 20.70         4.3 0.08            118            172 282 
 NOR  HZ EP   1   1411  2.62                             108   -0.56 6  246 224 
 NOR  HN ES       1411 29.80                             108   -0.74 8  246 224 
                                                                                
