 2017 12 1 1525 30.0 L   6.836 -73.123139.4  RSN 22 0.9 2.8LRSN                1
 GAP= 56        1.82       3.8     5.0  8.0 -0.3482E+01  0.9220E+01  0.1496E+01E
 Epicentro: LOS SANTOS - SANTANDER                                             3
 ACTION:UPD 18-01-04 13:16 OP:rebc STATUS:               ID:20171201152529 L   I
 OLDACT:UP  17-12-02 00:30 OP:dani STATUS:               ID:20171201151523d    3
 OLDACT:DUP 17-12-02 00:25 OP:dani STATUS:               ID:20171201151523d    3
 2017-12-01-1518-00M.COL___495                                                 6
 STAT SP IPHASW D HRMM SECON CODA AMPLIT PERI AZIMU VELO AIN AR TRES W  DIS CAZ7
 BAR2 EZ IP     C 1525 49.10                             168    0.1610 27.8 194 
 BAR2 EZ ES       1526  2.93                             168   -0.8110 27.8 194 
 BAR2 EZ I        1526  5.09       138.2 0.26            167           27.8 194 
 PAM  EZ EP       1525 52.09                             151    0.8610 72.7  40 
 PAM  EE ES       1526  8.59                             151    0.7810 72.7  40 
 PAM  EZ I        1526 11.11       114.9 0.46            154           72.7  40 
 RUS  HZ EP       1525 53.15                             141   -0.2510  104 178 
 RUS  HN ES       1526 11.65                             141   -0.0110  104 178 
 RUS  HZ I        1526 13.61        66.1 0.30            142            104 178 
 PTB  HZ EP       1525 55.89                             130   -0.85 9  151 258 
 PTB  HN ES       1526 16.93                             130   -0.69 9  151 258 
 PTB  HZ I        1526 18.51        38.9 0.16            130            151 258 
 TAM  HZ EP     C 1525 57.51                             129    0.48 9  154 107 
 OCA  HZ EP       1525 57.53                             129    0.08 9  157 352 
 OCA  HN ES       1526 19.06                             129    0.18 9  157 352 
 OCA  HZ I        1526 23.67       168.8 0.24            131            157 352 
 SPBC HZ EP       1525 58.14                             127   -0.31 9  168 219 
 SPBC HN ES       1526 20.58                             127   -0.09 9  168 219 
 SPBC HZ I        1526 24.96        79.7 0.46            127            168 219 
 YPLC HZ EP     C 1525 59.62                             125    0.07 9  179 153 
 YPLC HN ES       1526 22.69                             125    0.07 9  179 153 
 YPLC HZ I        1526 26.39        29.3 0.32            126            179 153 
 ZAR  HZ EP       1526  1.80                             121   -0.31 9  205 291 
 ZAR  HE ES       1526 26.94                             121   -0.23 9  205 291 
 ZAR  HZ I        1526 33.30        70.6 0.38            122            205 291 
 NOR  HZ EP       1526  5.32                             117   -0.51 8  239 234 
 NOR  HN ES       1526 33.23                             117   -0.56 8  239 234 
 NOR  HZ I        1526 37.06        44.3 0.34            117            239 234 
 CHI  HZ EP       1526  7.44                             115   -0.39 8  253 195 
 CHI  HN ES       1526 35.48                             115   -1.88 8  253 195 
 CHI  HZ I        1526 43.83        29.5 0.50            116            253 195 
 ROSC BZ EP       1526  9.82                             115    1.54 8  258 211 
 ROSC BN ES       1526 39.97                             115    1.81 8  258 211 
 ROSC BZ I        1526 43.38        67.6 0.75            116            258 211 
 HEL  HZ EP       1526 11.04                             113    0.78 7  276 255 
 HEL  HN ES       1526 40.88                             113   -0.80 7  276 255 
 HEL  HZ I        1526 48.31        41.8 0.54            114            276 255 
 DRL03HZ EP       1526 10.92                             112    0.04 7  285 352 
 DRL03HN ES       1526 43.22                             112    0.44 7  285 352 
 GUY2CHZ EP       1526 13.51                             111   -0.29 7  306 234 
 GUY2CHN ES       1526 49.48                             111    1.50 7  306 234 
 GUY2CHZ I        1526 56.99        29.5 0.60                           306 234 
 VIL  EZ EP       1526 12.57                             110   -1.05 7  308 192 
 VIL  EE ES       1526 47.02                             110   -0.64 7  308 192 
 VIL  EZ I        1526 57.82        44.7 0.38            111            308 192 
 ELA  HZ EP       1526 18.45                             109    1.36 7  334 229 
 ELA  HN ES       1526 56.04                             109    2.20 7  334 229 
 ELA  HZ I        1527  1.02        27.2 0.62            110            334 229 
 SDV  BZ EP       1526 18.53                             107   -0.72 6  356  50 
 SDV  B1 ES   4   1526 55.08                             107   -2.61 0  356  50 
 SDV  BZ I        1526 58.18         8.8 0.65            109            356  50 
 ANIL HZ EP       1526 20.85                             107    0.76 6  362 224 
 ANIL HN ES       1526 59.70                             107    0.53 6  362 224 
 ANIL HZ I        1527  9.36        56.2 0.48            108            362 224 
 PRA  HZ EP       1526 23.04                             105   -0.80 6  397 210 
 PRA  HN ES       1527  5.53                             105   -0.33 6  397 210 
 PRA  HZ I        1527 11.31        39.8 0.26            106            397 210 
 SJC  HZ EP       1526 23.01                             105   -2.10 6  407 326 
 SJC  HN ES   4   1527  4.70                             105   -3.40 0  407 326 
 SJC  HZ I        1527  8.90        11.0 0.34            106            407 326 
 PAL  HZ EP       1526 24.95                             105   -0.49 6  410 239 
                                                                                
