 2012  4 1 1509 22.3 L   6.729 -73.185146.3  RSN  6 0.3 1.8LRSN                1
 GAP=135        0.75       5.2     4.8  7.2 -0.8011E+00  0.1055E+02 -0.5049E+01E
 Epicentro: VILLANUEVA - SANTANDER                                             3
 ACTION:UPD 12-07-05 11:49 OP:tino STATUS:               ID:20120401150922 L   I
 2012-04-01-1507-59S.COL___204                                                 6
 STAT SP IPHASW D HRMM SECON CODA AMPLIT PERI AZIMU VELO AIN AR TRES W  DIS CAZ7
 BAR2 SZ EP   1   15 9 41.71                             174    -0.1 7   15 179 
 BAR2 SZ ES   1   15 9 56.96                             174    -0.1 7   15 179 
 BAR2 SZ I        15 9 57.88        14.6 0.27                            15 179 
 BRR  HZ EP   1   15 9 43.95                             152     0.4 7   72 306 
 BRR  HE ES   2   1510  0.53                             152     0.5 5   72 306 
 BRR  HZ I        1510  3.92        19.2 0.36                            72 306 
 PAM  SZ EP   1   15 9 45.13                             148     0.0 7   86  38 
 PAM  SN ES   1   1510  2.59                             148    -0.3 7   86  38 
 RUS  HZ EP   1   15 9 45.27                             146    -0.3 7   93 173 
 RUS  HE ES   1   1510  4.16                             146     0.5 7   93 173 
 RUS  HZ I        1510  5.67        11.2 0.33                            93 173 
 PTB  HZ EP   1   15 9 48.43                             133    -0.3 7  142 262 
 PTB  HE ES   1   1510  9.01                             133    -0.4 7  142 262 
 PTB  HZ I        1510 10.75         5.4 0.27                           142 262 
 ZAR  HZ EP   1   15 9 55.09                             123     0.4 6  203 295 
 ZAR  HE ES   2   1510 20.00                             123     0.1 4  203 295 
 ZAR  HZ I        1510 27.76         5.9 0.38                           203 295 
                                                                                
