 2015  1 1 1409 17.4 L   6.773 -73.084150.5  RSN  7 0.3 2.3LRSN                1
 GAP=146        0.72       4.0     5.8  5.2  0.3093E+01  0.1101E+02  0.7798E+01E
 Epicentro: LOS SANTOS - SANTANDER                                             3
 ACTION:UPD 15-03-02 15:35 OP:nd   STATUS:               ID:20150101140917 L   I
 OLDACT:UP  15-01-01 23:45 OP:cam  STATUS:               ID:20150101140818     3
 OLDACT:REG 15-01-01 22:13 OP:cam  STATUS:               ID:20150101140818     3
 2015-01-01-1408-18M.COL___280                                                 6
 STAT SP IPHASW D HRMM SECON CODA AMPLIT PERI AZIMU VELO AIN AR TRES W  DIS CAZ7
 BAR2 EZ EP       14 9 37.68                             171    0.1010 22.7 209 
 BAR2 EZ ES       14 9 52.83                             171   -0.4910 22.7 209 
 BAR2 EZ I        14 9 56.91        27.6 0.36            152           22.7 209 
 PAM  SN ES       14 9 57.62                             152   -0.0410 75.7  34 
 PAM  SN I        14 9 59.10        57.9 0.54            146           75.7  34 
 BRR  HZ EP       14 9 39.68                             151    0.2010 78.6 298 
 BRR  HN ES       14 9 57.03                             151    0.3310 78.6 298 
 BRR  HZ I        1410  0.76        29.4 0.16            128           78.6 298 
 RUS  HZ EP       14 9 41.40                             146    0.0210 97.3 180 
 RUS  HN ES       1410  0.35                             146    0.2610 97.3 180 
 RUS  HZ I        1410  1.18        20.0 0.26            132           97.3 180 
 PTB  HZ EP       14 9 44.81                             132   -0.49 9  154 260 
 PTB  HZ I        1410 11.37        27.0 0.14            113            154 260 
 SPBC HZ EP       14 9 46.44                             130   -0.01 9  165 221 
 SPBC HZ I        1410 15.41        42.7 0.38            113            165 221 
 CHI  HZ EP       14 9 55.33                             118    0.08 8  248 197 
                                                                                
