 2016  4 1 1919 14.0 L   6.737 -73.143135.1  RSN  5 0.3 1.5LRSN                1
 GAP=159        0.81       5.0     4.3  7.1 -0.9522E+01  0.1408E+02 -0.9590E+01E
 Epicentro: LOS SANTOS - SANTANDER                                             3
 ACTION:UPD 16-05-05 14:17 OP:rebc STATUS:               ID:20160401191914 L   I
 OLDACT:UP  16-04-01 22:25 OP:drio STATUS:               ID:20160401191745     3
 OLDACT:REG 16-04-01 19:56 OP:drio STATUS:               ID:20160401191745     3
 2016-04-01-1917-45M.COL___296                                                 6
 STAT SP IPHASW D HRMM SECON CODA AMPLIT PERI AZIMU VELO AIN AR TRES W  DIS CAZ7
 BAR2 EZ EP       1919 32.39                             173    0.1910 16.6 195 
 BAR2 EZ ES       1919 46.71                             173    0.3010 16.6 195 
 BAR2 EZ I        1919 50.01         7.4 0.38            172           16.6 195 
 PAM  EZ EP       1919 35.71                             147    0.3010 82.7  36 
 PAM  EE ES       1919 51.69                             147   -0.4410 82.7  36 
 PAM  EZ I        1919 54.58         4.8 0.48            151           82.7  36 
 PTB  HZ EP       1919 39.72                             130   -0.29 9  147 262 
 PTB  HE ES       1919 59.93                             130   -0.38 9  147 262 
 PTB  HZ I        1920  2.81         3.8 0.14            131            147 262 
 SPBC HZ EP   4   1919 38.59                             127   -2.59 0  158 221 
 SPBC HE ES       1920  2.39                             127   -0.00 9  158 221 
 SPBC HZ I        1920  6.93         7.0 0.20            130            158 221 
 ZAR  HZ EP       1919 45.91                             119   -0.15 8  207 294 
 ZAR  HN ES       1920 11.59                             119    0.50 8  207 294 
 ZAR  HZ I        1920 17.51         3.3 0.26            122            207 294 
                                                                                
