 2017  1 1 1821 23.6 L   6.137 -73.320161.3  RSN  4 0.1 1.1LRSN                1
 GAP=154        0.39       4.0     3.0  3.3  0.7162E+01  0.3254E+01  0.2011E-01E
 Epicentro: SUAITA - SANTANDER                                                 3
 ACTION:UPD 17-05-22 15:54 OP:jn   STATUS:               ID:20170101182123 L   I
 OLDACT:UP  17-01-01 22:34 OP:edw  STATUS:               ID:20170101181742     3
 OLDACT:UP  17-01-01 22:33 OP:edw  STATUS:               ID:20170101181742     3
 OLDACT:REG 17-01-01 20:29 OP:lv   STATUS:               ID:20170101181742     3
 2017-01-01-1818-00M.COL___378                                                 6
 STAT SP IPHASW D HRMM SECON CODA AMPLIT PERI AZIMU VELO AIN AR TRES W  DIS CAZ7
 RUS  HZ EP       1821 45.84                             166   -0.0110 37.7 136 
 RUS  HN ES       1822  3.13                             166   -0.0510 37.7 136 
 RUS  HZ I        1822  4.86         1.6 0.20            172           37.7 136 
 BAR2 EZ EP       1821 45.89                             161   -0.0910 52.6  17 
 BAR2 EZ ES       1822  3.51                             161    0.1010 52.6  17 
 BAR2 EZ I        1822  5.61         2.4 0.08            158           52.6  17 
 BRR  HN ES   4   1822 11.21                             143    1.88 0  116 338 
 PTB  HZ EP       1821 50.67                             138   -0.0310  133 290 
 PTB  HN ES       1822 11.90                             138    0.0910  133 290 
 PTB  HZ I        1822 13.63         1.5 0.16            138            133 290 
 ZAR  HZ EP       1821 59.64                             123    0.23 8  227 311 
 ZAR  HN ES       1822 27.08                             123   -0.24 8  227 311 
 ZAR  HZ I        1822 35.28         1.3 0.35            123            227 311 
                                                                                
