 2013  6 1 1742 22.5 L   6.759 -73.141147.0  RSN  6 0.4 2.4LRSN                1
 GAP=139        1.10       5.9     5.7  8.3 -0.4218E+01  0.3273E+01  0.1056E+02E
 Epicentro: LOS SANTOS - SANTANDER                                             3
 ACTION:UPD 14-01-08 09:51 OP:ep   STATUS:               ID:20130601174222 L   I
 2013-06-01-1738-49M.COL___218                                                 6
 STAT SP IPHASW D HRMM SECON CODA AMPLIT PERI AZIMU VELO AIN AR TRES W  DIS CAZ7
 BAR2 SZ IP     C 1742 42.37                             172    0.1610 19.0 194 
 BAR2 SZ I        1742 42.49        34.6 0.40            171           19.0 194 
 GIR2 SZ EP       1742 42.41                             166   -0.0510 35.9 351 
 GIR2 SZ ES       1742 57.41                             166   -0.6110 35.9 351 
 BRR  HZ IP       1742 44.21                             152    0.2610 73.9 301 
 BRR  HN ES       1743  1.60                             152    0.9310 73.9 301 
 BRR  HE I        1743  2.10        59.1 0.34            151           73.9 301 
 PAM  SZ EP       1742 45.17                             150    0.1210 80.6  37 
 PAM  SN ES       1743  2.39                             150   -0.2410 80.6  37 
 PAM  SE I        1743  3.68        46.2 0.70            153           80.6  37 
 RUS  HZ EP       1742 46.25                             145    0.1910 96.0 176 
 RUS  HN ES       1743  4.47                             145    0.0510 96.0 176 
 RUS  HE I        1743  5.79        33.3 0.52            146           96.0 176 
 PTB  HZ EP       1742 48.99                             132   -0.56 9  147 261 
 PTB  HN ES       1743 10.25                             132   -0.39 9  147 261 
 PTB  HE I        1743 16.13        44.2 0.32            132            147 261 
                                                                                
