 2014 11 1 1241 17.6 L   6.763 -73.155149.0  RSN  6 0.3 1.4LRSN                1
 GAP=137        0.73       3.9     4.0  6.0 -0.1487E+01 -0.2564E+00  0.4258E+01E
 Epicentro: LOS SANTOS - SANTANDER                                             3
 ACTION:UPD 14-12-19 15:38 OP:nd   STATUS:               ID:20141101124117 L   I
 OLDACT:REG 14-11-01 20:22 OP:spq  STATUS:               ID:20141101123748     3
 2014-11-01-1237-48M.COL___271                                                 6
 STAT SP IPHASW D HRMM SECON CODA AMPLIT PERI AZIMU VELO AIN AR TRES W  DIS CAZ7
 BAR2 SZ EP       1241 37.60                             172    0.0710 19.1 189 
 BAR2 SZ ES   1   1241 52.74                             172   -0.34 7 19.1 189 
 BAR2 SZ I        1241 54.29         6.0 0.36            170           19.1 189 
 BRR  HZ EP       1241 39.18                             153    0.0310 72.3 302 
 BRR  HN ES       1241 56.51                             153    0.5410 72.3 302 
 BRR  HZ I        1241 58.89         9.7 0.34            153           72.3 302 
 PAM  SZ EP       1241 40.21                             150   -0.1710 81.3  38 
 PAM  SN ES   1   1241 57.84                             150   -0.31 7 81.3  38 
 PAM  SZ I        1242  1.91         2.4 0.46            154           81.3  38 
 RUS  HZ EP       1241 41.78                             146    0.4110 96.5 175 
 RUS  HE ES   1   1241 59.94                             146    0.01 7 96.5 175 
 RUS  HZ I        1242  1.41         3.4 0.26            146           96.5 175 
 PTB  HZ EP       1241 44.42                             133   -0.24 9  146 260 
 PTB  HN ES       1242  5.44                             133   -0.33 9  146 260 
 PTB  HZ I        1242 11.51         4.3 0.42            133            146 260 
 CHI  HE ES   1   1242 24.15                             118   -0.04 6  244 195 
 CHI  HZ I        1242 30.88         1.4 0.51            119            244 195 
                                                                                
