 2014  4 1 1755 48.2 L   6.795 -73.156143.1  RSN  5 0.3 1.4LRSN                1
 GAP=135        0.64       3.5     2.9  6.6 -0.1795E+01  0.6276E+01  0.5057E+01E
 Epicentro: LOS SANTOS - SANTANDER                                             3
 ACTION:UPD 14-05-13 23:05 OP:nd   STATUS:               ID:20140401175548 L   I
 OLDACT:UP  14-04-01 22:26 OP:cam  STATUS:               ID:20140401174817d    3
 OLDACT:DUP 14-04-01 22:23 OP:cam  STATUS:               ID:20140401174817d    3
 2014-04-01-1748-16M.COL___254                                                 6
 STAT SP IPHASW D HRMM SECON CODA AMPLIT PERI AZIMU VELO AIN AR TRES W  DIS CAZ7
 PAM  SZ EP     C 1756 10.24                             150   -0.0010 78.6  40 
 PAM  SN ES       1756 27.51                             150    0.1010 78.6  40 
 PAM  SZ I        1756 29.75         5.3 0.52            156           78.6  40 
 RUS  HZ EP       1756 11.81                             143    0.1210  100 175 
 RUS  HE ES   1   1756 29.80                             143   -0.18 7  100 175 
 RUS  HZ I        1756 31.60         1.7 0.40            147            100 175 
 PTB  HZ EP       1756 14.34                             132   -0.53 9  147 259 
 PTB  HN ES       1756 35.47                             132   -0.18 9  147 259 
 PTB  HZ I        1756 42.45         5.4 0.36            134            147 259 
 ZAR  HN ES       1756 45.71                             122    0.18 9  203 292 
 NOR  HZ EP       1756 23.84                             118    0.17 8  233 234 
 NOR  HN ES       1756 51.72                             118    0.41 8  233 234 
 NOR  HZ I        1756 54.56         2.1 0.44            121            233 234 
                                                                                
