 2017  2 1 1819 22.9 L   6.753 -73.116148.5  RSN  8 0.3 1.9LRSN                1
 GAP=124        0.87       3.9     3.5  5.4  0.1599E+00  0.3151E+01  0.4978E+01E
 Epicentro: LOS SANTOS - SANTANDER                                             3
 ACTION:UPD 17-05-24 15:31 OP:jn   STATUS:               ID:20170201181922 L   I
 OLDACT:REG 17-02-01 21:11 OP:ar   STATUS:               ID:20170201181745     3
 2017-02-01-1818-00M.COL___337                                                 6
 STAT SP IPHASW D HRMM SECON CODA AMPLIT PERI AZIMU VELO AIN AR TRES W  DIS CAZ7
 BAR2 EZ EP       1819 42.86                             172    0.0510 19.3 202 
 BAR2 EZ ES       1819 58.04                             172   -0.2810 19.3 202 
 BAR2 EZ I        1819 59.56        12.5 0.24            171           19.3 202 
 BRR  HZ EP       1819 44.83                             151    0.1510 76.6 301 
 BRR  HN ES       1820  2.25                             151    0.6010 76.6 301 
 PAM  EZ EP       1819 45.66                             151    0.1010 79.5  35 
 PAM  EN ES       1820  2.99                             151   -0.2210 79.5  35 
 PAM  EZ I        1820  4.92        12.5 0.20            152           79.5  35 
 RUS  HZ EP       1819 46.82                             146    0.2510 95.2 178 
 RUS  HN ES       1820  5.16                             146    0.1410 95.2 178 
 PTB  HZ EP       1819 49.93                             132   -0.39 9  150 261 
 PTB  HN ES       1820 10.99                             132   -0.71 9  150 261 
 PTB  HZ I        1820 16.63        10.3 0.20            131            150 261 
 ZAR  HN ES       1820 21.82                             122   -0.09 8  209 293 
 ZAR  HZ I        1820 27.29         9.5 0.16            122            209 293 
 NOR  HZ EP       1819 59.06                             119    0.28 8  234 236 
 NOR  HN ES       1820 27.13                             119    0.37 8  234 236 
 NOR  HZ I        1820 30.50         6.3 0.22            119            234 236 
 PTGC HZ EP       1820  5.80                             112   -0.42 7  303 159 
                                                                                
