 2017 11 1 1722 26.5 L   6.671 -74.087 18.2  RSN  5 0.3 0.8LRSN                1
 GAP= 88        0.74       2.7     2.0  4.4 -0.2462E+01 -0.4723E+01  0.8454E+01E
 Epicentro: PUERTO PARRA - SANTANDER                                           3
 ACTION:UPD 17-12-12 19:50 OP:rebc STATUS:               ID:20171101172226 L   I
 OLDACT:UP  17-11-01 22:42 OP:dhb  STATUS:               ID:20171101171742     3
 OLDACT:REG 17-11-01 20:49 OP:mg   STATUS:               ID:20171101171742     3
 2017-11-01-1718-00M.COL___438                                                 6
 STAT SP IPHASW D HRMM SECON CODA AMPLIT PERI AZIMU VELO AIN AR TRES W  DIS CAZ7
 PTB  HZ IP     D 1722 33.93                             110   -0.1510 43.3 250 
 PTB  HN ES       1722 40.03                             110    0.0710 43.3 250 
 PTB  HZ I        1722 44.86         2.3 0.28            112           43.3 250 
 BRR  HZ IP     C 1722 37.07                             103    0.0510 63.6  41 
 BRR  HE ES       1722 44.82                             103   -0.3810 63.6  41 
 BRR  HZ I        1722 46.48         6.7 0.34            106           63.6  41 
 ZAR  HZ EP       1722 46.61                              97    0.4910  125 317 
 ZAR  HN ES       1723  1.32                              97   -0.0910  125 317 
 ZAR  HZ I        1723  3.01         2.3 0.10             56            125 317 
 RUS  HZ EP       1722 49.08                              56    0.35 9  141 128 
 RUS  HN ES       1723  6.11                              56    0.07 9  141 128 
 RUS  HZ I        1723  9.17         1.8 0.20             56            141 128 
 NOR  HN ES       1723  6.81                              56   -0.38 9  150 215 
 NOR  HZ I        1723  7.87         1.6 0.14             56            150 215 
                                                                                
