 2016  7 1 1316 14.5 L   6.520 -73.500108.9  RSN 13 0.3 2.0LRSN                1
 GAP= 73        0.73       1.8     2.8  3.9 -0.3391E+00  0.4827E+01  0.8815E+00E
 Epicentro: EL CARMEN - SANTANDER                                              3
 ACTION:UPD 17-03-29 16:45 OP:lp   STATUS:               ID:20160701131614 L   I
 OLDACT:DUP 16-07-01 21:34 OP:edw  STATUS:               ID:20160701130745d    3
 2016-07-01-1307-44M.COL___337                                                 6
 STAT SP IPHASW D HRMM SECON CODA AMPLIT PERI AZIMU VELO AIN AR TRES W  DIS CAZ7
 BAR2 EZ IP     C 1316 30.11                             161   -0.0610 36.0  77 
 BAR2 EZ ES       1316 42.49                             161    0.1210 36.0  77 
 BRR  HZ EP       1316 30.95                             145   -0.7310 69.1 340 
 BRR  HE ES       1316 45.43                             145    0.3710 69.1 340 
 BRR  HZ I        1316 54.08        21.4 0.14            139           69.1 340 
 RUS  HZ EP       1316 33.65                             140    0.2210 83.3 146 
 RUS  HN ES       1316 48.32                             140    0.1510 83.3 146 
 RUS  HZ I        1316 50.03        10.6 0.54            142           83.3 146 
 PTB  HZ EP   4 C 1316 33.02                             132   -1.66 0  106 271 
 PTB  HN ES   4   1316 47.87                             132   -2.53 0  106 271 
 PTB  HZ I        1316 49.24        15.0 0.12            128            106 271 
 SPBC HZ EP       1316 35.29                             130   -0.3310  115 213 
 SPBC HN ES       1316 51.70                             130   -0.3810  115 213 
 SPBC HZ I        1316 53.32        20.7 0.44            129            115 213 
 ZAR  HZ EP       1316 42.50                             116   -0.21 9  185 306 
 ZAR  HN ES       1317  4.68                             116   -0.02 9  185 306 
 ZAR  HZ I        1317  6.73        25.9 0.44            113            185 306 
 NOR  HZ EP       1316 42.69                             116   -0.10 9  185 235 
 NOR  HN ES       1317  4.96                             116    0.12 9  185 235 
 NOR  HZ I        1317  8.16        12.0 0.32            114            185 235 
 CHI  HZ EP       1316 46.23                             112    0.11 8  211 187 
 CHI  HZ I        1316 47.92         5.1 0.42            112            211 187 
 CHI  HN ES       1317 10.44                             112   -0.32 8  211 187 
 GUY2CHZ EP       1316 51.01                             108    0.14 8  251 235 
 GUY2CHN ES       1317 19.85                             108    0.63 8  251 235 
 GUY2CHZ I        1317 22.59         6.8 0.82                           251 235 
 URE  HN ES   4   1317 17.84                             107   -2.69 0  263 301 
 PRA  HZ EP       1317  1.57                             101    0.04 6  346 206 
 PRA  HN ES       1317 38.43                             101    0.23 6  346 206 
 PRA  HZ I        1317 47.17         3.8 0.28            102            346 206 
 ORTC HZ EP       1317  1.94                             101    0.25 6  348 214 
 ORTC HN ES       1317 38.61                             101    0.13 6  348 214 
 ORTC HZ I        1317 44.49         3.9 0.24            102            348 214 
 LL6C HZ EP       1317  2.90                             101    0.19 6  356   4 
 LL6C HE ES       1317 40.56                             101    0.27 6  356   4 
 SJC  HZ EP   4   1317  8.31                              98   -1.73 0  417 334 
 SJC  HN ES   4   1317 49.33                              98   -4.02 0  417 334 
 CRJC HZ EP   4   1317 18.03                              95   -2.41 0  502   8 
 CRJC HN ES   4   1318  9.01                              95   -2.85 0  502   8 
 CRJC HZ I        1318 14.28         4.7 0.20             98            502   8 
                                                                                
