 2013  7 1 1756 47.8 L   6.776 -73.143147.1  RSN  9 0.5 1.6LRSN                1
 GAP=185        1.06       5.3     6.6  7.9  0.1223E+02  0.5162E+01 -0.7533E+00E
 Epicentro: LOS SANTOS - SANTANDER                                             3
 ACTION:UPD 13-08-12 10:34 OP:ep   STATUS:               ID:20130701175647 L   I
 OLDACT:REG 13-07-01 14:34 OP:jn   STATUS:               ID:20130701174960d    3
 2013-07-01-1749-59M.COL___266                                                 6
 STAT SP IPHASW D HRMM SECON CODA AMPLIT PERI AZIMU VELO AIN AR TRES W  DIS CAZ7
 BAR2 SZ EP       1757  7.49                             172   -0.0810 20.8 192 
 BAR2 SZ ES       1757 22.14                             172   -0.8410 20.8 192 
 BAR2 SZ I        1757 24.35         9.4 0.42            172           20.8 192 
 GIR2 SZ EP       1757  7.78                             166    0.0410 33.9 351 
 BRR  HZ EP       1757  9.59                             152    0.3810 72.7 300 
 BRR  HN ES       1757 26.62                             152    0.7310 72.7 300 
 BRR  HZ I        1757 29.76         7.4 0.14            153           72.7 300 
 RUS  HZ EP       1757 11.39                             145   -0.1310 97.9 176 
 RUS  HN ES       1757 30.39                             145    0.3810 97.9 176 
 RUS  HZ I        1757 31.84         5.0 0.24            147           97.9 176 
 PTB  HZ EP   1   1757 14.34                             132   -0.54 7  148 260 
 PTB  HN ES   1   1757 35.39                             132   -0.60 7  148 260 
 PTB  HZ I        1757 37.79         7.6 0.16            134            148 260 
 ZAR  HE ES   1   1757 45.92                             122   -0.05 6  205 293 
 NOR  HN ES   1   1757 51.59                             119    0.28 6  233 235 
 CHI  HZ EP   1   1757 25.66                             118    0.33 6  246 195 
 SML  HE ES   1   1757 53.29                             117   -0.35 6  246 335 
                                                                                
