 2013  4 1 1011 27.4 L   6.386 -73.554111.4  RSN  8 0.4 1.8LRSN                1
 GAP= 75        0.82       3.2     4.5  7.1  0.1347E+01  0.1135E+02  0.6073E+00E
 Epicentro: SANTA HELENA DEL OPON - SANTANDER                                  3
 ACTION:UPD 13-05-22 14:35 OP:EP   STATUS:               ID:20130401101127 L   I
 2013-04-01-1009-52M.COL___203                                                 6
 STAT SP IPHASW D HRMM SECON CODA AMPLIT PERI AZIMU VELO AIN AR TRES W  DIS CAZ7
 BAR2 SZ EP       1011 44.01                             155    0.2110 47.0  61 
 BAR2 SZ ES   1   1011 56.98                             155    0.36 7 47.0  61 
 BAR2 SZ I        1011 58.34        78.6 0.38            146           47.0  61 
 RUS  HZ EP   1   1011 45.73                             144   -0.19 7 75.5 136 
 RUS  HE ES   1   1011 59.93                             144   -0.47 7 75.5 136 
 RUS  HZ I        1012  2.39         8.0 0.28            141           75.5 136 
 BRR  HZ EP       1011 45.86                             141    0.1710 81.6 348 
 BRR  HZ I        1012 15.64        10.2 0.34            130           81.6 348 
 PTB  HZ EP   1   1011 46.79                             134   -0.53 7  101 280 
 PTB  HN ES   1   1012  2.42                             134   -0.47 7  101 280 
 PTB  HZ I        1012  3.67         7.5 0.28            127            101 280 
 ZAR  HZ EP   1   1011 56.72                             116    0.55 7  189 310 
 ZAR  HN ES   2   1012 19.26                             116    0.63 4  189 310 
 ZAR  HZ I        1012 26.27        11.1 0.26            110            189 310 
 CHI  HZ EP   1   1011 57.15                             115   -0.22 6  195 186 
 CHI  HN ES   1   1012 21.70                             115    0.92 6  195 186 
 CHI  HZ I        1012 24.34         2.5 0.30            112            195 186 
 OCA  HZ EP   1   1011 57.77                             113   -0.53 6  207   7 
 OCA  HN ES   1   1012 22.45                             113    0.03 6  207   7 
 OCA  HZ I        1012 28.96        10.9 0.44            108            207   7 
 PRA  HZ EP   1   1012 12.15                             103   -0.40 5  330 207 
 PRA  HE ES   2   1012 47.76                             103   -0.03 3  330 207 
 PRA  HZ I        1012 53.53         4.0 0.22            102            330 207 
                                                                                
