 2017 12 1 1006 16.6 L   6.803 -73.164148.2  RSN  5 0.4 0.9LRSN                1
 GAP=134        0.91       5.3     4.8  8.4  0.3876E+01  0.1718E+02  0.4068E+01E
 Epicentro: LOS SANTOS - SANTANDER                                             3
 ACTION:UPD 18-01-04 13:16 OP:rebc STATUS:               ID:20171201100616 L   I
 OLDACT:REG 17-12-01 19:51 OP:dani STATUS:               ID:20171201095738     3
 2017-12-01-0958-00M.COL___486                                                 6
 STAT SP IPHASW D HRMM SECON CODA AMPLIT PERI AZIMU VELO AIN AR TRES W  DIS CAZ7
 BAR2 EZ EP       10 6 36.36                             171   -0.1510 23.4 185 
 BAR2 EZ ES       10 6 52.53                             171    0.4910 23.4 185 
 BAR2 EZ I        10 6 57.10         2.6 0.68            169           23.4 185 
 PAM  EN ES       10 6 56.41                             151   -0.2910 78.5  41 
 RUS  HZ EP       10 6 40.65                             144    0.0410  101 175 
 RUS  HN ES       10 6 59.33                             144   -0.0110  101 175 
 RUS  HZ I        10 7  0.28         0.9 0.42            147            101 175 
 PTB  HZ EP       10 6 43.82                             133    0.24 9  146 259 
 PTB  HN ES       10 7  3.96                             133   -0.67 9  146 259 
 PTB  HZ I        10 7 10.83         0.7 0.18            135            146 259 
 ZAR  HE ES       10 7 14.67                             123    0.41 9  202 292 
                                                                                
