 2016 11 1 1158 40.5 L   6.820 -73.198145.6  RSN  8 0.3 1.9LRSN                1
 GAP=129        0.64       2.7     2.9  3.9 -0.1763E+01  0.2004E+01  0.3127E+01E
 Epicentro: ZAPATOCA - SANTANDER                                               3
 ACTION:UPD 17-10-26 21:03 OP:lp   STATUS:               ID:20161101115840 L   I
 OLDACT:REG 16-11-01 20:14 OP:cog  STATUS:               ID:20161101115744     3
 2016-11-01-1158-00M.COL___328                                                 6
 STAT SP IPHASW D HRMM SECON CODA AMPLIT PERI AZIMU VELO AIN AR TRES W  DIS CAZ7
 BAR2 EZ EP       1159  0.17       155.9 0.28            170    0.0010 25.2 176 
 BAR2 EZ ES       1159 15.74                             170    0.2510 25.2 176 
 BRR  HZ EP       1159  1.69                             155    0.3710 65.1 299 
 BRR  HN ES       1159 17.48                             155   -0.0610 65.1 299 
 BRR  HZ I        1159 21.35        13.1 0.22            155           65.1 299 
 PAM  EZ EP       1159  2.83                             150   -0.0210 79.6  44 
 PAM  EN ES       1159 20.19                             150   -0.0710 79.6  44 
 PAM  EZ I        1159 22.73        10.1 0.50            154           79.6  44 
 RUS  HZ EP       1159  4.08                             143   -0.3710  103 173 
 RUS  HE ES       1159 23.03                             143   -0.0810  103 173 
 RUS  HZ I        1159 23.69         9.7 0.30            145            103 173 
 PTB  HZ EP       1159  6.51                             133   -0.49 9  143 258 
 PTB  HN ES       1159 27.64                             133   -0.02 9  143 258 
 PTB  HZ I        1159 29.32         6.3 0.16            134            143 258 
 SPBC HZ EP       1159  8.90                             129    0.07 9  161 217 
 SPBC HE ES   2   1159 30.11                             129   -0.80 5  161 217 
 SPBC HZ I        1159 36.32        12.8 0.20            131            161 217 
 NOR  HZ EP       1159 16.15                             119    0.27 8  231 233 
 NOR  HN ES       1159 43.50                             119    0.04 8  231 233 
 NOR  HZ I        1159 46.78         4.3 0.26            120            231 233 
 CHI  HN EP       1159 18.48                             117    0.20 8  249 194 
 CHI  HE ES       1159 48.04                             117    0.31 8  249 194 
 CHI  HN I        1159 49.93        11.3 0.40            119            249 194 
                                                                                
