 2010  9 1 1844 36.5 L   6.777 -73.094150.0  RSN  7 0.2 2.0LRSN                1
 GAP=165        0.52       2.5     5.7  4.0 -0.3253E+01 -0.3379E+01  0.1703E+01E
 Epicentro: LOS SANTOS - SANTANDER                                             3
 ACTION:UP  11-02-18 10:59 OP:tino STATUS:               ID:20100901184436 L   I
 2010-09-01-1841-05S.COL___120                                                 6
 STAT SP IPHASW D HRMM SECON CODA AMPLIT PERI AZIMU VELO SNR AR TRES W  DIS CAZ7
 BAR2 SZ EP       1844 56.43                             171    -0.210   23 206 
 BAR2 SZ ES   1   1845 12.03                             171    -0.3 7   23 206 
 BAR2 SZ I        1845 13.29        38.7 0.16                            23 206 
 BTL  SZ EP       1844 56.70                             170     0.010   25 309 
 BTL  SZ ES   1   1845 12.87                             170     0.4 7   25 309 
 BRR  HZ IP     C 1844 58.40                             151    -0.110   77 298 
 BRR  HZ I        1844 58.67        35.5 0.14                            77 298 
 BRR  HE ES   1   1845 15.63                             151     0.0 7   77 298 
 RUS  HZ EP       1845  0.42                             145    -0.110   98 179 
 RUS  HN ES   1   1845 19.47                             145     0.3 7   98 179 
 RUS  HZ I        1845 19.96         5.3 0.53                            98 179 
 GRA  SZ IP       1845  2.34                             138     0.110  127  15 
 GRA  SZ I        1845  3.48         8.0 0.34                           127  15 
 GRA  SZ ES   1   1845 22.25                             138     0.0 7  127  15 
 CHI  HZ EP   1   1845 14.59                             118     0.2 6  248 197 
 CHI  HE ES   2   1845 43.70                             118    -0.2 4  248 197 
 CHI  HZ I        1845 53.42         3.4 0.53                           248 197 
 PRA  HZ EP   2   1845 30.33                             107     0.1 3  393 210 
 PRA  HE ES   2   1846 12.49                             107     0.3 3  393 210 
 PRA  HZ I        1846 19.92         3.9 0.53                           393 210 
                                                                                
