 2015  3 1 1826 59.9 L   6.504 -73.548111.8  RSN  5 0.4 1.8LRSN                1
 GAP= 92        1.12       4.8     4.9  9.2  0.2803E+01  0.1116E+02  0.8680E+01E
 Epicentro: SANTA HELENA DEL OPON - SANTANDER                                  3
 ACTION:UPD 15-04-30 16:22 OP:nd   STATUS:               ID:20150301182659 L   I
 OLDACT:UP  15-03-02 00:04 OP:mher STATUS:               ID:20150301181750     3
 OLDACT:REG 15-03-01 21:34 OP:mh   STATUS:               ID:20150301181750     3
 2015-03-01-1817-50M.COL___290                                                 6
 STAT SP IPHASW D HRMM SECON CODA AMPLIT PERI AZIMU VELO AIN AR TRES W  DIS CAZ7
 BAR2 EZ EP       1827 16.09                             158   -0.0710 41.5  76 
 BAR2 EZ ES       1827 28.67                             158   -0.1410 41.5  76 
 BAR2 EZ I        1827 30.10        28.7 0.56            168           41.5  76 
 BRR  HZ EP       1827 17.65                             146    0.2510 69.1 345 
 BRR  HN ES       1827 31.33                             146    0.3110 69.1 345 
 BRR  HZ I        1827 34.90        13.7 0.50            152           69.1 345 
 RUS  HZ EP       1827 18.90                             140   -0.3510 84.9 143 
 RUS  HN ES       1827 34.33                             140    0.0210 84.9 143 
 RUS  HZ I        1827 36.33        11.5 0.24            145           84.9 143 
 PTB  HZ EP       1827 19.11                             135   -0.7710  101 272 
 PTB  HN ES       1827 35.32                             135   -0.1210  101 272 
 PTB  HZ I        1827 38.94         9.0 0.50            137            101 272 
 SPBC HZ EP       1827 21.81                             132    0.9310  111 212 
 SPBC HN ES       1827 37.18                             132   -0.0310  111 212 
 SPBC HZ I        1827 46.16        15.7 0.15            134            111 212 
                                                                                
