 2016  1 1 1221 41.9 L   7.445 -73.194130.1  RSN 13 0.5 2.2LRSN                1
 GAP= 79        0.86       2.9     3.6  5.9  0.1033E+01  0.2033E+01 -0.6273E+00E
 Epicentro: EL PLAYON - SANTANDER                                              3
 ACTION:UPD 16-03-09 23:21 OP:cam  STATUS:               ID:20160101122141 L   I
 OLDACT:REG 16-01-01 20:15 OP:dnl  STATUS:               ID:20160101121747     3
 2016-01-01-1217-47M.COL___320                                                 6
 STAT SP IPHASW D HRMM SECON CODA AMPLIT PERI AZIMU VELO AIN AR TRES W  DIS CAZ7
 PAM  EZ EP   1   1222  1.68                             156    0.44 7 55.8 102 
 PAM  EE ES   2   1222 16.39                             156    0.08 5 55.8 102 
 PAM  EZ I        1222 20.04        24.1 0.22            159           55.8 102 
 BRR  HZ EP     D 1222  1.57                             151    0.3510 68.3 237 
 BRR  HN ES       1222 16.58                             151    0.3010 68.3 237 
 BRR  HZ I        1222 18.80        48.0 0.19            149           68.3 237 
 OCA  HZ EP   2   1222  3.33                             144    0.52 5 88.9 351 
 OCA  HE ES       1222 19.48                             144    0.3810 88.9 351 
 OCA  HZ I        1222 22.00        74.4 0.18            147           88.9 351 
 BAR2 EZ EP       1222  3.37                             142    0.0410 94.3 179 
 BAR2 EZ ES       1222 19.50                             142   -0.5310 94.3 179 
 BAR2 EZ I        1222 21.10        39.8 0.18            142           94.3 179 
 PTB  HZ EP       1222 10.03                             124    0.01 9  172 234 
 PTB  HN ES       1222 31.55                             124   -0.40 9  172 234 
 PTB  HZ I        1222 35.81        11.3 0.18            124            172 234 
 SML  HZ EP       1222 10.33                             123   -0.35 9  178 327 
 SML  HE ES       1222 32.28                             123   -0.84 9  178 327 
 SML  HZ I        1222 34.49        53.6 0.09            125            178 327 
 ZAR  HZ EP       1222 11.57                             122    0.32 9  184 272 
 ZAR  HN ES   2   1222 34.82                             122    0.69 4  184 272 
 ZAR  HZ I        1222 38.08        24.6 0.06            123            184 272 
 TAM  HZ EP   2   1222 12.21                             121    0.16 4  191 126 
 TAM  HN ES   1   1222 35.52                             121   -0.04 7  191 126 
 TAM  HZ I        1222 37.11        15.8 0.25            123            191 126 
 SPBC HZ EP   4   1222 16.05                             117    0.75 0  221 206 
 SPBC HE ES   2   1222 41.22                             117   -0.13 4  221 206 
 SPBC HZ I        1222 48.84        10.9 0.26            117            221 206 
 URE  HZ EP   4   1222 18.40                             112   -1.20 0  260 278 
 URE  HN ES   4   1222 45.90                             112   -3.09 0  260 278 
 URE  HZ I        1222 50.31         9.6 0.11            113            260 278 
 SOCV BZ EP   2   1222 20.63                             111   -0.53 4  274  70 
 SOCV BN ES   4   1222 48.88                             111   -2.90 0  274  70 
 HEL  HZ EP   3   1222 25.67                             110    1.90 2  293 242 
 HEL  HN ES   4   1222 51.89                             110   -4.52 0  293 242 
 HEL  HZ I        1223  3.46         4.9 0.29            111            293 242 
 GUY2CHZ EP   4   1222 31.74                             106    1.98 0  343 224 
 GUY2CHN ES   2   1223  6.68                             106   -0.41 3  343 224 
 GUY2CHZ I        1223 20.97         3.7 0.61                           343 224 
                                                                                
