 2014  4 1 1014 45.0 L   6.815 -73.152146.5  RSN 17 0.5 2.8LRSN                1
 GAP= 70        1.09       2.7     3.9  5.7 -0.1856E+01  0.4858E+01  0.8109E+00E
 Epicentro: LOS SANTOS - SANTANDER                                             3
 ACTION:UPD 14-05-13 23:05 OP:nd   STATUS:               ID:20140401101445 L   I
 OLDACT:UP  14-04-01 21:38 OP:cam  STATUS:               ID:20140401100805     3
 OLDACT:UP  14-04-01 21:37 OP:cam  STATUS:               ID:20140401100805     3
 OLDACT:REG 14-04-01 20:13 OP:cam  STATUS:               ID:20140401100805     3
 2014-04-01-1008-05M.COL___246                                                 6
 STAT SP IPHASW D HRMM SECON CODA AMPLIT PERI AZIMU VELO AIN AR TRES W  DIS CAZ7
 BAR2 SZ IP     D 1015  4.78                             170    0.0310 24.8 188 
 BAR2 SZ ES       1015 19.48                             170   -0.6810 24.8 188 
 BAR2 SZ I        1015 21.66       142.4 0.22            169           24.8 188 
 PAM  SZ EP     C 1015  7.57                             151    0.3210 76.6  41 
 PAM  SN ES       1015 24.98                             151    0.3810 76.6  41 
 PAM  SZ I        1015 27.04       126.7 0.60            154           76.6  41 
 RUS  HZ EP   1   1015  8.72                             143   -0.23 7  102 176 
 RUS  HN ES       1015 27.91                             143    0.2810  102 176 
 RUS  HZ I        1015 29.69        49.8 0.24            145            102 176 
 PTB  HZ EP       1015 11.34                             132   -0.65 9  147 258 
 PTB  HN ES       1015 32.85                             132   -0.19 9  147 258 
 PTB  HZ I        1015 35.70        87.1 0.34            131            147 258 
 TAM  HZ IP     C 1015 12.91                             130    0.06 9  156 105 
 TAM  HZ I        1015 13.04       145.6 0.20            135            156 105 
 OCA  HZ EP       1015 13.02                             130   -0.19 9  159 353 
 OCA  HN ES       1015 34.95                             130   -0.26 9  159 353 
 OCA  HZ I        1015 40.49        63.9 0.50            131            159 353 
 SPBC HZ EP       1015 13.70                             129    0.07 9  164 218 
 SPBC HN ES       1015 35.85                             129   -0.12 9  164 218 
 SPBC HZ I        1015 40.80       113.2 0.34            129            164 218 
 ZAR  HZ EP   1   1015 17.04                             123   -0.32 6  203 292 
 ZAR  HE ES       1015 43.10                             123    0.50 9  203 292 
 ZAR  HZ I        1015 50.43        63.5 0.26            122            203 292 
 NOR  HZ EP       1015 20.79                             118   -0.02 8  235 234 
 NOR  HN ES       1015 48.74                             118   -0.00 8  235 234 
 NOR  HZ I        1015 51.09        45.2 0.24            118            235 234 
 SML  HZ EP       1015 21.50                             118    0.03 8  242 335 
 SML  HN ES       1015 50.19                             118    0.27 8  242 335 
 SML  HZ I        1015 54.10        74.1 0.10            118            242 335 
 CHI  HZ EP       1015 22.77                             117   -0.12 8  250 195 
 CHI  HN ES       1015 52.03                             117   -0.42 8  250 195 
 CHI  HZ I        1015 57.52        25.4 0.28            118            250 195 
 ROSC BZ EP       1015 24.03                             117    0.76 8  254 211 
 ROSC BN ES   1   1015 55.30                             117    2.17 6  254 211 
 ROSC BZ I        1015 59.91        37.0 0.40            117            254 211 
 HEL  HZ EP   4   1015 26.54                             115    1.32 0  272 255 
 HEL  HE ES   4   1015 55.88                             115   -0.70 0  272 255 
 HEL  HN I        1016  6.72        24.7 0.38            115            272 255 
 URE  HZ EP   4   1015 24.61                             114   -1.35 0  283 292 
 URE  HN ES   4   1015 55.47                             114   -2.44 0  283 292 
 GUY2CHZ EP   4   1015 30.02                             112    1.34 0  302 234 
 GUY2CHE ES   4   1016  2.37                             112   -0.38 0  302 234 
 GUY2CHZ I        1016  9.68        27.9 0.28                           302 234 
 RREF HZ EP   4   1015 31.84                             111    0.61 0  322 229 
 CBOC HZ EP   4   1015 33.19                             110    1.27 0  333 252 
 CBOC HE ES   4   1016  8.69                             110    0.17 0  333 252 
 CBOC HZ I        1016 15.18        14.4 0.48            110            333 252 
 COD  HZ EP   4   1015 32.55                             109   -0.66 0  347 355 
 COD  HE ES   4   1016  8.84                             109   -1.97 0  347 355 
 COD  HZ I        1016 14.99        10.5 0.42            110            347 355 
 ANIL HZ EP   4   1015 36.02                             108    1.11 0  358 224 
 SDV  BZ EP   4   1015 34.19                             108   -0.82 0  360  50 
 SDV  BN ES   4   1016 11.61                             108   -2.41 0  360  50 
 PRA  HZ EP       1015 37.99                             106   -0.68 6  393 209 
 PRA  HN ES       1016 20.08                             106   -0.45 6  393 209 
 PRA  HZ I        1016 26.53        25.7 0.24            107            393 209 
 ORTC HZ EP   4   1015 38.91                             106   -0.14 0  396 216 
 ORTC HN ES   4   1016 22.64                             106    1.43 0  396 216 
 MACC HZ EP   4   1015 51.28                             102   -2.63 0  522 189 
                                                                                
