 2010  7 1 1542  0.5 L   6.840 -72.965152.0  RSN  6 0.4 2.1LRSN                1
 GAP=223        0.71       7.5     8.9  8.8 -0.1934E+02 -0.2739E+02  0.2290E+02E
 Epicentro: CEPITA - SANTANDER                                                 3
 ACTION:UPD 10-12-01 15:14 OP:pat  STATUS:               ID:20100701154200 L   I
 2010-07-01-1538-13S.COL___118                                                 6
 STAT SP IPHASW D HRMM SECON CODA AMPLIT PERI AZIMU VELO AIN AR TRES W  DIS CAZ7
 BAR2 SZ IP       1542 21.62                             166     0.410   37 221 
 BAR2 SZ ES   2   1542 37.29                             166    -0.1 5   37 221 
 BTN  SZ IP       1542 22.81                             152    -0.310   77 349 
 BRR  HZ IP     C 1542 23.49                             148     0.110   88 290 
 BRR  HZ I        1542 23.76        25.4 0.19                            88 290 
 BRR  HE ES       1542 41.04                             148    -0.110   88 290 
 HEL  HZ EP   2   1542 43.72                             114     0.4 4  293 256 
 HEL  HZ I        1543 20.56         4.2 0.41                           293 256 
 RREF HN ES   2   1543 27.05                             111     0.2 3  340 231 
 RREF HZ I        1543 30.95         4.0 0.53                           340 231 
 PRA  HZ EP   2   1542 55.60                             107    -0.3 3  406 212 
 PRA  HE ES   2   1543 38.01                             107    -1.1 3  406 212 
 PRA  HZ I        1543 41.28         3.3 0.50                           406 212 
                                                                                
