 2016  8 1 1902  5.6 L   6.799 -73.102147.8  RSN  9 0.5 2.0LRSN                1
 GAP=122        1.30       5.2     4.8  7.6 -0.5321E+01  0.4979E+01 -0.5683E+01E
 Epicentro: LOS SANTOS - SANTANDER                                             3
 ACTION:UPD 16-10-29 15:31 OP:rebc STATUS:               ID:20160801190205 L   I
 OLDACT:UP  16-08-02 03:20 OP:dani STATUS:               ID:20160801185759     3
 OLDACT:UP  16-08-02 01:40 OP:dani STATUS:               ID:20160801185759     3
 OLDACT:UP  16-08-02 01:40 OP:dani STATUS:               ID:20160801185759     3
 OLDACT:UP  16-08-02 01:40 OP:dani STATUS:               ID:20160801185759     3
 OLDACT:UP  16-08-02 01:38 OP:dani STATUS:               ID:20160801185759     3
 OLDACT:UP  16-08-02 01:37 OP:dani STATUS:               ID:20160801185759     3
 OLDACT:REG 16-08-02 01:15 OP:dani STATUS:               ID:20160801185759     3
 2016-08-01-1857-59S.COL___340                                                 6
 STAT SP IPHASW D HRMM SECON CODA AMPLIT PERI AZIMU VELO AIN AR TRES W  DIS CAZ7
 BAR2 EZ EP       19 2 25.55                             170    0.1010 24.6 201 
 BAR2 EZ ES       19 2 40.38                             170   -0.5910 24.6 201 
 BAR2 EZ I        19 2 41.19        22.8 0.24                          24.6 201 
 PAM  EZ EP       19 2 28.54                             152    0.7310 74.5  37 
 PAM  EE ES       19 2 45.45                             152    0.2710 74.5  37 
 PAM  EZ I        19 2 47.37        14.7 0.64                          74.5  37 
 BRR  HZ EP       19 2 27.44                             151    0.2810 75.5 297 
 BRR  HN ES       19 2 44.31                             151    0.2910 75.5 297 
 BRR  HZ I        19 2 45.01        19.3 0.40                          75.5 297 
 RUS  HZ EP       19 2 30.20                             144    0.7210  100 179 
 RUS  HE ES       19 2 47.81                             144   -0.3410  100 179 
 RUS  HZ I        19 2 49.37         7.4 0.48                           100 179 
 PTB  HZ EP       19 2 32.40                             131   -0.71 9  152 259 
 PTB  HE ES       19 2 54.02                             131   -0.59 9  152 259 
 PTB  HZ I        19 2 55.54        10.0 0.26                           152 259 
 SPBC HZ EP       19 2 35.09                             129    0.60 9  166 220 
 SPBC HN ES       19 2 56.77                             129   -0.29 9  166 220 
 SPBC HZ I        19 2 57.64         8.3 0.26                           166 220 
 ZAR  HZ EP       19 2 38.80                             122    0.21 8  209 292 
 ZAR  HE ES       19 3  4.47                             122    0.11 8  209 292 
 ZAR  HZ I        19 3 12.30        12.0 0.54                           209 292 
 SOCV BE ES       19 3 20.57                             112   -0.98 7  297  56 
 GUY2CHZ EP   4   19 2 53.14                             112    3.45 0  305 235 
 GUY2CHE ES   4   19 3 25.52                             112    1.40 0  305 235 
 SJC  HZ EP       19 3  0.47                             106   -1.03 6  412 326 
 SJC  HN ES   4   19 3 42.98                             106   -2.15 0  412 326 
 SJC  HZ I        19 3 45.48         3.0 0.72                           412 326 
                                                                                
