 2013  2 1 1206 16.2 L   6.814 -73.144144.0  RSN  9 0.5 2.0LRSN                1
 GAP=103        1.06       4.7     4.2  6.9  0.1084E+01  0.2998E+01  0.7246E+01E
 Epicentro: LOS SANTOS - SANTANDER                                             3
 ACTION:UPD 13-03-12 09:29 OP:ep   STATUS:               ID:20130201120616 L   I
 2013-02-01-1158-51M.COL___173                                                 6
 STAT SP IPHASW D HRMM SECON CODA AMPLIT PERI AZIMU VELO AIN AR TRES W  DIS CAZ7
 BAR2 SZ IP     D 12 6 35.51                             170   -0.1210 24.9 190 
 BAR2 SZ I        12 6 35.68        25.2 0.36            168           24.9 190 
 BAR2 SZ ES   1   12 6 49.98                             170   -0.82 7 24.9 190 
 BRR  HZ EP       12 6 37.28                             153    0.1810 70.7 297 
 BRR  HE ES       12 6 54.27                             153    0.8410 70.7 297 
 BRR  HZ I        12 6 59.21        17.1 0.44            150           70.7 297 
 PAM  SZ EP       12 6 38.15                             151    0.0310 76.1  40 
 PAM  SZ I        12 6 38.28        23.6 0.44            155           76.1  40 
 PAM  SN ES   1   12 6 55.22                             151   -0.02 7 76.1  40 
 RUS  HZ EP       12 6 39.57                             143   -0.2910  102 176 
 RUS  HZ I        12 6 40.06         9.4 0.32            144            102 176 
 RUS  HN ES   1   12 6 58.96                             143    0.62 7  102 176 
 PTB  HZ EP       12 6 42.22                             132   -0.83 9  148 258 
 PTB  HN ES   1   12 7  3.37                             132   -0.64 7  148 258 
 PTB  HZ I        12 7  5.65        23.7 0.40            131            148 258 
 TAM  HZ IP     C 12 6 43.82                             130    0.09 9  155 106 
 ZAR  HZ EP       12 6 48.56                             122    0.09 9  204 292 
 ZAR  HN ES   1   12 7 13.37                             122   -0.29 6  204 292 
 ZAR  HZ I        12 7 19.64        15.6 0.34            122            204 292 
 CHI  HZ EP       12 6 53.76                             117   -0.19 8  250 195 
 CHI  HN ES       12 7 23.90                             117    0.50 8  250 195 
 CHI  HZ I        12 7 28.31         3.7 0.32            118            250 195 
 HEL  HZ EP   1   12 6 56.95                             115    0.58 6  273 255 
 HEL  HN ES       12 7 27.92                             115    0.21 8  273 255 
 HEL  HZ I        12 7 35.18         7.7 0.24            115            273 255 
                                                                                
