 2014 10 1 1934 52.1 L   6.733 -73.145153.5  RSN  4 0.5 2.2LRSN                1
 GAP=219        1.21       8.2     9.8  9.8  0.3840E+01  0.5753E+01 -0.2735E+02E
 Epicentro: LOS SANTOS - SANTANDER                                             3
 ACTION:UPD 14-11-29 23:45 OP:nd   STATUS:               ID:20141001193452 L   I
 OLDACT:UP  14-10-02 00:40 OP:cam  STATUS:               ID:20141001193000     3
 OLDACT:REG 14-10-01 22:39 OP:cam  STATUS:               ID:20141001193000     3
 2014-10-01-1930-00M.COL___252                                                 6
 STAT SP IPHASW D HRMM SECON CODA AMPLIT PERI AZIMU VELO AIN AR TRES W  DIS CAZ7
 BAR2 SZ EP       1935 13.08                             174    0.5810 16.1 195 
 BAR2 SZ ES       1935 27.95                             174   -0.4910 16.1 195 
 BAR2 SZ I        1935 29.01        14.8 0.18            173           16.1 195 
 BRR  HZ EP       1935 13.59                             153   -0.6710 75.1 303 
 BRR  HN ES       1935 32.29                             153    0.7110 75.1 303 
 BRR  HN I        1935 32.62        41.2 0.18            150           75.1 303 
 PTB  HZ EP       1935 19.83                             134    0.27 9  147 262 
 PTB  HN ES       1935 40.74                             134   -0.28 9  147 262 
 PTB  HZ I        1935 43.72         8.0 0.26            133            147 262 
 SML  HZ EP       1935 29.86                             118    0.01 8  250 336 
 SML  HE ES       1935 59.10                             118   -0.23 8  250 336 
 SML  HE I        1936  2.23        22.9 0.10            118            250 336 
                                                                                
