 2017  9 1 1926 48.2 L   6.322 -73.498117.1  RSN 28 0.5 2.8LRSN                1
 GAP= 49        1.07       2.1     2.1  4.5 -0.1030E+01  0.2402E+01  0.9106E+00E
 Epicentro: CONTRATACION - SANTANDER                                           3
     138.0      22.0    -162.0 10.0  7.0  6.0  0.1  0.1           RSN FPFIT    F
 ACTION:UPD 17-10-05 19:08 OP:rebc STATUS:               ID:20170901192648 L   I
 OLDACT:UP  17-09-02 00:45 OP:nlst STATUS:               ID:20170901192648 L   3
 OLDACT:UP  17-09-02 00:14 OP:dhb  STATUS:               ID:20170901191737     3
 OLDACT:REG 17-09-01 21:24 OP:y    STATUS:               ID:20170901191737     3
 2017-09-01-1918-00M.COL___408                                                 6
 STAT SP IPHASW D HRMM SECON CODA AMPLIT PERI AZIMU VELO AIN AR TRES W  DIS CAZ7
 BAR2 EZ IP     D 1927  5.56                             157    0.3810 45.9  49 
 BAR2 EZ ES       1927 18.26                             157   -0.1910 45.9  49 
 BAR2 EZ I        1927 20.34       520.1 0.15            151           45.9  49 
 RUS  HZ IP     D 1927  6.29                             149   -0.3710 66.0 136 
 RUS  HN ES       1927 21.15                             149    0.0610 66.0 136 
 RUS  HZ I        1927 21.83       152.2 0.12            144           66.0 136 
 BRR  HZ IP     C 1927  7.57                             140   -0.1010 90.0 345 
 BRR  HN ES       1927 23.08                             140    0.1910 90.0 345 
 BRR  HZ I        1927 27.73        68.8 0.09            134           90.0 345 
 SPBC HZ EP       1927  7.95                             137   -0.4610 97.6 221 
 SPBC HN ES       1927 24.14                             137   -0.0710 97.6 221 
 SPBC HZ I        1927 26.03       207.3 0.08            133           97.6 221 
 PAM  EZ IP     D 1927 13.46                             126    0.36 9  143  38 
 PAM  EE ES       1927 33.31                             126    0.75 9  143  38 
 PAM  EZ I        1927 35.15        80.4 0.20            120            143  38 
 YPLC HZ IP     D 1927 14.36                             122    0.02 9  161 130 
 YPLC HN ES       1927 35.30                             122    0.54 9  161 130 
 YPLC HZ I        1927 36.77        74.4 0.28            117            161 130 
 TABC EZ IP   4 D 1927 16.07                             122    0.80 0  165 208 
 TABC EZ ES       1927 36.06                             122   -0.37 9  165 208 
 TABC EZ I        1927 41.50        77.4 0.22            118            165 208 
 NOR  HZ EP       1927 14.70                             120   -0.96 9  173 241 
 NOR  HN ES       1927 36.74                             120   -0.38 9  173 241 
 NOR  HZ I        1927 40.24       165.7 0.16            116            173 241 
 ROSC BZ EP       1927 18.99                             118    1.39 9  187 209 
 ROSC BE ES       1927 41.14                             118    0.58 9  187 209 
 ROSC BZ I        1927 43.42        78.1 0.07            114            187 209 
 CHI  HZ EP       1927 17.44                             118   -0.34 9  189 188 
 CHI  HE ES       1927 40.71                             118   -0.18 9  189 188 
 CHI  HZ I        1927 45.04        50.8 0.25            114            189 188 
 TAM  HZ IP     D 1927 17.41                             117    0.08 9  189  86 
 TAM  HN ES       1927 39.22                             117   -0.87 9  189  86 
 TAM  HZ I        1927 39.38        65.8 0.07            113            189  86 
 ZAR  HZ IP     C 1927 18.09                             116   -0.20 9  198 311 
 ZAR  HN ES       1927 41.54                             116   -0.25 9  198 311 
 ZAR  HZ I        1927 49.22       114.3 0.31            112            198 311 
 HEL  HZ IP     C 1927 22.19                             113    0.46 8  225 266 
 HEL  HE ES       1927 47.60                             113   -0.32 8  225 266 
 HEL  HZ I        1927 53.81        58.4 0.10            110            225 266 
 GUY2CHZ EP       1927 23.53                             111    0.02 8  240 240 
 GUY2CHE ES   4   1927 53.32                             111    2.23 0  240 240 
 GUY2CHZ I        1927 58.74        64.1 0.29                           240 240 
 VIL  EZ EP       1927 23.21                             111   -0.50 8  245 185 
 VIL  EE ES       1927 51.03                             111   -0.41 8  245 185 
 VIL  EZ I        1928  0.03        93.5 0.25            108            245 185 
 ELA  HZ EP       1927 27.22                             109    0.69 8  266 233 
 ELA  HE ES       1927 56.70                             109    0.23 8  266 233 
 ELA  HZ I        1928  3.26        40.8 0.16            106            266 233 
 URE  HZ EP   9   1927 25.79                             108   -1.17 0  275 305 
 URE  HN ES       1927 55.76                             108   -0.30 8  275 305 
 URE  HZ I        1927 57.15        45.0 0.12            105            275 305 
 ANIL HZ EP       1927 29.85                             107    0.49 7  292 226 
 ANIL HE ES       1928  2.22                             107    0.71 7  292 226 
 ANIL HZ I        1928  6.99       106.1 0.54            105            292 226 
 DBB  EZ IP     D 1927 30.68                             105   -0.42 7  310 285 
 DBB  EE ES       1928  4.48                             105   -0.12 7  310 285 
 DBB  EZ I        1928  7.51        31.9 0.15            104            310 285 
 PRA  HZ EP       1927 32.74                             104   -0.35 7  327 208 
 PRA  HE ES       1928  8.32                             104    0.18 7  327 208 
 PRA  HZ I        1928 12.76        57.1 0.42            103            327 208 
 ORTC HZ EP       1927 32.89                             104   -0.54 7  330 216 
 ORTC HN ES       1928  9.07                             104    0.33 7  330 216 
 ORTC HZ I        1928 14.15        33.0 0.49            103            330 216 
 PAL  HZ IP   3 C 1927 36.45                             103    1.06 2  346 243 
 PAL  HN ES       1928 12.33                             103    0.09 6  346 243 
 PAL  HZ I        1928 15.69        16.2 0.43            102            346 243 
 LL6C HZ IP     D 1927 39.88                             102    0.73 6  378   4 
 LL6C HE ES   4   1928 20.64                             102    1.72 0  378   4 
 LL6C HZ I        1928 33.74        11.6 0.36            101            378   4 
 ARGC HZ EP   4   1927 43.72                             101    2.02 0  400 348 
 ARGC HE ES   4   1928 28.37                             101    4.90 0  400 348 
 ARGC HZ I        1928 44.90        29.6 0.40            100            400 348 
 SDV  BZ EP       1927 44.56                             100   -0.36 5  424  48 
 SDV  BZ ES       1928 28.88                             100   -0.32 5  424  48 
 SDV  BZ I        1928 34.26         8.4 0.44             99            424  48 
 SJC  HZ EP   4   1927 44.39                              99   -1.83 0  437 335 
 SJC  HN ES   4   1928 29.08                              99   -2.43 0  437 335 
 SJC  HZ I        1928 30.01         8.5 0.17             99            437 335 
 MACC HZ EP   4   1927 47.03                              98   -2.36 0  463 185 
 MACC HE ES   4   1928 32.84                              98   -4.32 0  463 185 
 MACC HZ I        1928 37.92         8.6 0.12             99            463 185 
 MARO HZ EP       1927 50.14                              98   -0.55 5  472 215 
 MARO HE ES       1928 39.59                              98    0.12 5  472 215 
 MARO HZ I        1928 43.79         6.3 0.23             99            472 215 
                                                                                
