 2013  2 1 1318 33.5 L   6.781 -73.122145.5  RSN 10 0.6 2.6LRSN                1
 GAP= 98        1.32       5.1     3.8  6.9 -0.2128E+00  0.2555E+01  0.9174E+00E
 Epicentro: LOS SANTOS - SANTANDER                                             3
 ACTION:UPD 13-03-12 09:29 OP:ep   STATUS:               ID:20130201131833 L   I
 2013-02-01-1308-51M.COL___191                                                 6
 STAT SP IPHASW D HRMM SECON CODA AMPLIT PERI AZIMU VELO AIN AR TRES W  DIS CAZ7
 BAR2 SZ EP       1318 53.12                             171    0.0410 22.0 198 
 BAR2 SZ ES       1319  8.08                             171   -0.2610 22.0 198 
 BAR2 SZ I        1319  9.08       178.9 0.20            163           22.0 198 
 BRR  HZ IP     C 1318 55.10                             151    0.2810 74.5 299 
 BRR  HN ES       1319 12.00                             151    0.5610 74.5 299 
 BRR  HZ I        1319 16.47        74.4 0.28            142           74.5 299 
 PAM  SZ IP     D 1318 56.06                             151    0.3710 77.4  37 
 PAM  SZ I        1318 56.09       126.9 0.16            154           77.4  37 
 PAM  SN ES       1319 12.94                             151   -0.0510 77.4  37 
 RUS  HZ EP       1318 56.92                             145   -0.1610 98.4 178 
 RUS  HN ES       1319 15.13                             145   -0.3210 98.4 178 
 RUS  HZ I        1319 16.17        33.9 0.26            142           98.4 178 
 PTB  HZ EP       1318 59.99                             132   -0.67 9  150 260 
 PTB  HN ES   1   1319 20.63                             132   -1.20 7  150 260 
 PTB  HZ I        1319 26.40        39.2 0.42            125            150 260 
 TAM  HZ I        1319  1.33        58.9 0.20            135            152 104 
 TAM  HZ IP     D 1319  1.38                             131    0.50 9  152 104 
 TAM  HN ES       1319 22.84                             131    0.61 9  152 104 
 ZAR  HZ EP       1319  6.22                             122   -0.05 8  207 292 
 ZAR  HN ES       1319 32.54                             122    0.71 8  207 292 
 ZAR  HZ I        1319 39.66        52.2 0.28            117            207 292 
 CHI  HZ EP       1319 11.24                             117    0.18 8  247 196 
 CHI  HE ES   1   1319 40.15                             117   -0.19 6  247 196 
 CHI  HZ I        1319 50.32        12.8 0.38            115            247 196 
 HEL  HZ EP   1   1319 14.91                             115    0.97 6  274 256 
 HEL  HN ES       1319 44.87                             115   -0.60 8  274 256 
 HEL  HZ I        1319 51.62        15.6 0.46            111            274 256 
 SDV  BZ EP       1319 22.94                             108   -0.52 6  360  50 
 SDV  BZ I        1319 23.57        12.5 0.15            108            360  50 
 SDV  BN ES   1   1320  0.01                             108   -2.41 5  360  50 
                                                                                
