 2013  9 1 1230  2.6 L   6.784 -73.094149.3  RSN  8 0.3 1.7LRSN                1
 GAP=144        0.74       2.9     3.6  4.6 -0.3926E+00  0.4143E+01 -0.1147E+01E
 Epicentro: LOS SANTOS - SANTANDER                                             3
 ACTION:UPD 13-10-22 09:19 OP:ep   STATUS:               ID:20130901123002 L   I
 OLDACT:REG 13-09-01 15:22 OP:nd   STATUS:               ID:20130901122959     3
 2013-09-01-1229-59M.COL___269                                                 6
 STAT SP IPHASW D HRMM SECON CODA AMPLIT PERI AZIMU VELO AIN AR TRES W  DIS CAZ7
 BAR2 SZ EP       1230 22.75                             171    0.0510 23.4 205 
 BAR2 SZ ES       1230 38.23                             171   -0.1110 23.4 205 
 BAR2 SZ I        1230 40.48        10.5 0.28            169           23.4 205 
 PAM  SZ EP       1230 25.51                             152    0.3910 75.3  35 
 PAM  SN ES       1230 42.47                             152   -0.1710 75.3  35 
 PAM  SZ I        1230 44.95         6.8 0.18            156           75.3  35 
 BRR  HZ EP       1230 24.81                             151    0.3010 77.0 298 
 BRR  HN ES       1230 42.00                             151    0.4410 77.0 298 
 BRR  HZ I        1230 44.39         5.8 0.54            149           77.0 298 
 RUS  HZ EP       1230 26.72                             145    0.1110 98.6 179 
 RUS  HN ES       1230 44.89                             145   -0.4010 98.6 179 
 RUS  HZ I        1230 46.32         3.3 0.54            148           98.6 179 
 PTB  HZ EP       1230 29.80                             132   -0.58 9  153 260 
 PTB  HN ES   2   1230 51.87                             132   -0.14 5  153 260 
 PTB  HZ I        1230 56.65         8.2 0.24            132            153 260 
 SPBC HZ EP       1230 31.66                             129    0.03 9  165 221 
 SPBC HN ES       1230 54.51                             129    0.27 9  165 221 
 SPBC HZ I        1230 59.59         8.7 0.14            131            165 221 
 ZAR  HZ EP   2   1230 36.20                             122    0.27 4  210 292 
 ZAR  HN ES       1231  1.68                             122   -0.21 8  210 292 
 ZAR  HZ I        1231  7.99         4.7 0.26            123            210 292 
 SML  HZ EP       1230 39.66                             118   -0.24 8  248 334 
 SML  HN ES   2   1231  8.49                             118   -0.47 4  248 334 
 SML  HZ I        1231 11.43        10.9 0.10            119            248 334 
                                                                                
