 2010 11 1 1511 32.5 L   6.743 -73.456112.2  RSN  5 0.3 1.4LRSN                1
 GAP=169        0.87       5.6    10.0  8.3  0.1802E+02 -0.4237E+02 -0.1555E+02E
 Epicentro: EL CARMEN DE CHUCURI - SANTANDER                                   3
 ACTION:UP  10-12-17 16:49 OP:REBC STATUS:               ID:20101101151132 L   I
 2010-11-01-1507-09S.COL___126                                                 6
 STAT SP IPHASW D HRMM SECON CODA AMPLIT PERI AZIMU VELO SNR AR TRES W  DIS CAZ7
 BAR2 SZ ES   1   1512  0.83                             162    -0.1 7   34 119 
 BAR2 SZ I        1512  1.63        19.7 0.15                            34 119 
 BRR  HZ EP   1   1511 48.52                             154    -0.2 7   49 325 
 BRR  HN ES       1512  1.57                             154     0.110   49 325 
 BRR  HZ I        1512  2.87         8.6 0.17                            49 325 
 RUS  HZ EP   1   1511 53.63                             135     0.4 7  103 156 
 RUS  HN ES   2   1512  9.12                             135    -0.4 5  103 156 
 RUS  HZ I        1512 10.90         3.4 0.21                           103 156 
 GUE  SZ EP       1511 55.42                             126    -0.510  134  26 
 GRA  SZ EP       1511 57.30                             124     0.4 9  145  30 
 GRA  SZ ES   2   1512 16.09                             124     0.2 5  145  30 
 GRA  SZ I        1512 20.54         3.1 0.59                           145  30 
                                                                                
