 2012  5 1 1830 21.8 L   6.802 -73.162154.2  RSN  5 0.2 1.7LRSN                1
 GAP=236        0.61       6.1     5.4  6.0  0.1903E+02  0.2119E+01 -0.2755E+01E
 Epicentro: LOS SANTOS - SANTANDER                                             3
 ACTION:UP  12-07-05 12:01 OP:pat  STATUS:               ID:20120501183021 L   I
 2012-05-01-1830-00M.COL___189                                                 6
 STAT SP IPHASW D HRMM SECON CODA AMPLIT PERI AZIMU VELO SNR AR TRES W  DIS CAZ7
 BAR2 SZ EP       1830 42.32                             171    -0.110   23 185 
 BAR2 SZ ES   1   1830 58.22                             171    -0.3 7   23 185 
 BAR2 SZ I        1830 59.17         5.4 0.30                            23 185 
 BRR  HZ EP       1830 43.92                             155     0.210   69 299 
 BRR  HN ES   1   1831  0.88                             155     0.0 7   69 299 
 BRR  HZ I        1831  4.55        15.1 0.12                            69 299 
 RUS  HZ EP   1   1830 46.44                             145     0.1 7  101 175 
 RUS  HN ES   1   1831  5.89                             145     0.3 7  101 175 
 RUS  HZ I        1831  7.09         1.8 0.30                           101 175 
 PTB  HZ EP       1830 48.97                             134    -0.3 9  146 259 
 PTB  HN ES   1   1831 10.63                             134    -0.1 7  146 259 
 PTB  HZ I        1831 12.34         5.1 0.18                           146 259 
 ZAR  HN ES   1   1831 20.49                             124     0.3 6  202 292 
 ZAR  HZ I        1831 25.95        14.0 0.27                           202 292 
                                                                                
