 2012  8 1 1532 34.4 L   6.782 -73.168145.8  RSN  5 0.4 1.7LRSN                1
 GAP=135        0.80       5.9     5.6  7.2 -0.3893E+01  0.4823E+01  0.6763E+01E
 Epicentro: LOS SANTOS - SANTANDER                                             3
 ACTION:UPD 12-09-10 11:53 OP:ep   STATUS:               ID:20120801153234 L   I
 2012-08-01-1530-00M.COL___215                                                 6
 STAT SP IPHASW D HRMM SECON CODA AMPLIT PERI AZIMU VELO AIN AR TRES W  DIS CAZ7
 BAR2 SZ EP       1532 53.94                             171   -0.0210 21.0 184 
 BAR2 SZ ES   1   1533  8.93                             171   -0.31 7 21.0 184 
 BAR2 SZ I        1533 10.13        14.4 0.22                          21.0 184 
 BRR  HZ IP     D 1532 55.78                             153    0.3310 70.0 301 
 BRR  HZ I        1532 55.84        14.4 0.14                          70.0 301 
 BRR  HE ES   1   1533 12.52                             153    0.62 7 70.0 301 
 PAM  SZ EP       1532 56.86                             150    0.0810 80.5  40 
 PAM  SN ES   1   1533 13.72                             150   -0.53 7 80.5  40 
 PAM  SZ I        1533 16.07         4.1 0.42                          80.5  40 
 RUS  HZ EP       1532 58.16                             144    0.1710 98.8 175 
 RUS  HN ES   2   1533 16.77                             144    0.35 5 98.8 175 
 PTB  HZ EP       1533  0.64                             132   -0.44 9  145 259 
 PTB  HN ES   2   1533 21.32                             132   -0.60 5  145 259 
                                                                                
