 2012  8 1 1022 47.1 L   6.756 -73.153148.1  RSN  6 0.4 2.0LRSN                1
 GAP= 96        0.82       7.6     4.1 10.4 -0.2660E+00  0.3087E+01  0.3846E+02E
 Epicentro: LOS SANTOS - SANTANDER                                             3
 ACTION:UPD 12-09-10 11:53 OP:ep   STATUS:               ID:20120801102247 L   I
 2012-08-01-1020-00M.COL___215                                                 6
 STAT SP IPHASW D HRMM SECON CODA AMPLIT PERI AZIMU VELO AIN AR TRES W  DIS CAZ7
 BAR2 SZ EP       1023  6.87                             173   -0.0210 18.4 190 
 BAR2 SZ I        1023 24.90        32.8 0.36                          18.4 190 
 BRR  HZ EP       1023  8.91                             152    0.3410 73.0 302 
 BRR  HZ I        1023 10.30        32.9 0.10                          73.0 302 
 BRR  HN ES   1   1023 26.05                             152    0.71 7 73.0 302 
 PAM  SZ EP       1023  9.78                             150   -0.0110 81.7  38 
 PAM  SN ES   1   1023 26.81                             150   -0.70 7 81.7  38 
 PAM  SZ I        1023 29.05        13.8 0.22                          81.7  38 
 RUS  HZ EP       1023 10.77                             146    0.0610 95.8 175 
 RUS  HZ I        1023 30.70        11.5 0.38                          95.8 175 
 PTB  HZ EP       1023 13.81                             133   -0.27 9  146 261 
 PTB  HN ES   1   1023 34.63                             133   -0.52 7  146 261 
 PTB  HZ I        1023 36.97        13.1 0.38                           146 261 
 TAM  HZ EP   3   1023 15.15                             131    0.26 2  155 103 
 TAM  HN ES   1   1023 36.77                             131    0.18 7  155 103 
                                                                                
