 2010 12 1 1438 41.7 L   6.763 -73.124137.2  RSN 12 0.4 2.3LRSN                1
 GAP=161        0.83       4.1     5.9  7.6 -0.2352E+01  0.9579E+01  0.6111E+01E
 Epicentro: LOS SANTOS - SANTANDER                                             3
 ACTION:UP  11-01-14 15:22 OP:pat  STATUS:               ID:20101201143841 L   I
 2010-12-01-1437-35S.COL___133                                                 6
 STAT SP IPHASW D HRMM SECON CODA AMPLIT PERI AZIMU VELO SNR AR TRES W  DIS CAZ7
 BAR2 SZ IP       1439  0.07                             171    -0.210   20 199 
 BAR2 SZ I        1439  0.43        69.3 0.06                            20 199 
 BRR  HZ IP     C 1439  1.93                             150    -0.310   75 300 
 BRR  HZ I        1439  2.43        74.5 0.08                            75 300 
 BRR  HN ES   1   1439 18.66                             150     0.5 7   75 300 
 RUS  HZ EP   1   1439  4.06                             143    -0.3 7   96 177 
 RUS  HE ES   1   1439 22.29                             143     0.3 7   96 177 
 RUS  HZ I        1439 24.33        32.4 0.38                            96 177 
 GUE  SZ EP   2   1439  5.36                             137    -0.6 5  120  11 
 GRA  SZ EP   1   1439  7.05                             134     0.5 7  129  16 
 GRA  SZ I        1439 27.73        44.6 0.18                           129  16 
 NOR  SZ EP   1   1439 16.75                             117    -0.2 6  234 236 
 NOR  SZ I        1439 50.96         2.8 0.16                           234 236 
 CHI  HZ EP   1   1439 18.84                             116     0.2 6  245 196 
 CHI  HN ES   1   1439 47.04                             116    -0.3 6  245 196 
 CHI  HZ I        1439 50.84        11.8 0.52                           245 196 
 HEL  HZ EP   1   1439 22.28                             113     0.6 6  273 257 
 HEL  HN ES   1   1439 52.15                             113    -0.7 6  273 257 
 HEL  HZ I        1439 59.12        16.6 0.36                           273 257 
 RREF HZ EP   1   1439 28.13                             109     0.7 5  321 230 
 RREF HN ES   2   1440  3.35                             109     0.3 3  321 230 
 RREF HZ I        1440  8.28        15.4 0.52                           321 230 
 TOL  SZ EP   2   1439 29.72                             108     0.2 3  342 225 
 PRA  HZ EP   1   1439 34.66                             105     0.0 4  390 210 
 PRA  HN ES   1   1440 16.30                             105     0.3 4  390 210 
 SJA  SZ EP   3   1439 35.57                             105     0.0 1  397 193 
 SJA  SZ I        1440 19.86        10.5 0.32                           397 193 
                                                                                
