 2017  8 1 1158 58.6 L   6.738 -73.073146.2  RSN  9 0.4 1.8LRSN                1
 GAP=149        1.09       5.1     4.8  6.9 -0.7164E+01  0.1196E+02  0.1699E+01E
 Epicentro: JORDAN - SANTANDER                                                 3
 ACTION:UPD 17-09-04 20:15 OP:rebc STATUS:               ID:20170801115858 L   I
 OLDACT:DUP 17-08-01 22:35 OP:dhb  STATUS:               ID:20170801115739d    3
 2017-08-01-1158-00M.COL___392                                                 6
 STAT SP IPHASW D HRMM SECON CODA AMPLIT PERI AZIMU VELO AIN AR TRES W  DIS CAZ7
 BAR2 EZ IP     C 1159 18.34                             172    0.0710 20.2 217 
 BAR2 EZ ES       1159 32.97                             172   -0.6110 20.2 217 
 BAR2 EZ I        1159 35.27        13.2 0.41            171           20.2 217 
 PAM  EZ IP       1159 21.35                             151    0.3910 78.2  32 
 PAM  EN ES       1159 38.02                             151   -0.3410 78.2  32 
 PAM  EZ I        1159 40.44        12.9 0.27            144           78.2  32 
 BRR  HZ EP       1159 20.43                             149   -0.0310 81.6 300 
 BRR  HN ES       1159 38.47                             149    0.9910 81.6 300 
 BRR  HZ I        1159 41.44        13.1 0.11            141           81.6 300 
 RUS  HZ EP       1159 22.22                             146    0.2810 93.5 181 
 RUS  HN ES       1159 40.23                             146    0.1210 93.5 181 
 RUS  HZ I        1159 42.39        11.6 0.40            145           93.5 181 
 PTB  HZ EP       1159 25.76                             131   -0.51 9  155 262 
 PTB  HN ES       1159 47.49                             131   -0.33 9  155 262 
 PTB  HZ I        1159 49.17         8.8 0.12            125            155 262 
 ZAR  HZ EP       1159 31.67                             121   -0.50 8  214 293 
 ZAR  HZ I        1159 59.34         5.3 0.10            115            214 293 
 NOR  HZ EP       1159 34.90                             118    0.20 8  238 237 
 NOR  HN ES       12 0  2.57                             118   -0.26 8  238 237 
 NOR  HZ I        12 0  9.50         4.7 0.22            114            238 237 
 HEL  HN ES       12 0 11.48                             114   -0.03 7  278 258 
 GUY2CHZ EP   4   1159 45.03                             112    2.44 0  304 237 
 GUY2CHN ES       12 0 17.39                             112    0.52 7  304 237 
 GUY2CHZ I        12 0 24.92         1.9 0.36                           304 237 
                                                                                
