 2011 12 1 1426 14.6 L   6.752 -73.064138.9  RSN  4 0.2 1.9LRSN                1
 GAP=149        0.38       4.2     5.4  6.2 -0.2994E+01 -0.7699E+01 -0.7088E+01E
 Epicentro: LOS SANTOS - SANTANDER                                             3
 ACTION:UPD 12-07-13 16:13 OP:ep   STATUS:               ID:20111201142614 L   I
 2011-12-01-1420-00M.COL___174                                                 6
 STAT SP IPHASW D HRMM SECON CODA AMPLIT PERI AZIMU VELO AIN AR TRES W  DIS CAZ7
 BAR2 SZ EP   2   1426 33.10                             171   -0.25 5 22.0 216 
 BAR2 SZ ES   2   1426 47.92                             171   -0.08 5 22.0 216 
 BAR2 SZ I        1426 49.90         9.8 0.80                          22.0 216 
 PAM  SZ EP       1426 36.14                             150    0.1410 76.4  32 
 PAM  SE ES   2   1426 52.53                             150   -0.19 5 76.4  32 
 BRR  HZ EP   2   1426 35.36                             148   -0.27 5 81.6 299 
 BRR  HN ES   2   1426 52.24                             148    0.18 5 81.6 299 
 BRR  HN I        1426 56.22        30.5 0.16                          81.6 299 
 RUS  HE ES   2   1426 55.00                             144    0.06 5 95.1 181 
                                                                                
