 2010  8 1 1345 50.8 L   6.161 -73.907 97.9  RSN  5 0.2 1.5LRSN                1
 GAP=163        0.51       4.5     4.9 10.3  0.2784E+01  0.3164E+02  0.4911E+01E
 Epicentro: CIMITARRA - SANTANDER                                              3
 ACTION:UP  10-09-07 10:51 OP:vdl  STATUS:               ID:20100801134550 L   I
 2010-08-01-1342-21S.COL___123                                                 6
 STAT SP IPHASW D HRMM SECON CODA AMPLIT PERI AZIMU VELO SNR AR TRES W  DIS CAZ7
 BAR2 SZ EP   1   1346  9.45                             133     0.3 7   93  59 
 BAR2 SZ ES   2   1346 23.64                             133     0.1 5   93  59 
 BAR2 SZ I        1346 25.22        17.1 0.73                            93  59 
 RUS  HZ EP   1   1346  9.92                             133     0.2 7   96 108 
 RUS  HE ES   2   1346 24.15                             133    -0.4 5   96 108 
 RUS  HZ I        1346 26.44         2.3 0.20                            96 108 
 BRR  HZ EP   1   1346  9.87                             129    -0.3 7  107  12 
 BRR  HZ I        1346 10.02        24.3 0.08                           107  12 
 BRR  HE ES   2   1346 25.35                             129     0.1 5  107  12 
 HEL  HZ EP   1   1346 18.30                             114     0.0 7  180 271 
 HEL  HZ I        1346 19.08         2.6 0.40                           180 271 
 GUE  SZ EP   1   1346 22.05                             110    -0.1 6  214  30 
                                                                                
