 2015  1 1 1723 29.8 L   6.068 -73.605129.4  RSN  5 0.4 1.4LRSN                1
 GAP=209        1.10       7.1     5.5 10.1 -0.1337E+02  0.9462E+01  0.2318E+01E
 Epicentro: CHIPATA - SANTANDER                                                3
 ACTION:UPD 15-03-02 15:35 OP:nd   STATUS:               ID:20150101172329 L   I
 OLDACT:REG 15-01-01 22:23 OP:cam  STATUS:               ID:20150101171819     3
 2015-01-01-1718-19M.COL___280                                                 6
 STAT SP IPHASW D HRMM SECON CODA AMPLIT PERI AZIMU VELO AIN AR TRES W  DIS CAZ7
 BAR2 EZ EP       1723 49.10                             148   -0.6210 74.5  39 
 BAR2 EZ ES       1724  5.43                             148    0.1410 74.5  39 
 BAR2 EZ I        1724  6.17         8.6 0.34            148           74.5  39 
 PTB  HZ EP       1723 51.62                             138   -0.2310  108 299 
 PTB  HN ES       1724  8.42                             138   -0.6610  108 299 
 PTB  HZ I        1724 10.61         3.7 0.10            136            108 299 
 BRR  HZ EP       1723 52.90                             135    0.4110  116 354 
 BRR  HN ES       1724 10.68                             135    0.4710  116 354 
 BRR  HZ I        1724 11.22         3.6 0.34            134            116 354 
 NOR  HN ES       1724 16.61                             127    0.53 9  151 248 
 ZAR  HZ EP       1724  2.00                             118    0.18 8  210 319 
 ZAR  HN ES       1724 26.72                             118   -0.09 8  210 319 
 ZAR  HZ I        1724 31.38         2.4 0.30            117            210 319 
                                                                                
