 2013  3 1 1116 16.8 L   6.747 -73.420100.5  RSN  4 0.2 1.3LRSN                1
 GAP=162        0.44       5.2     3.2  7.1  0.5034E+01  0.4996E+01  0.1377E+02E
 Epicentro: EL CARMEN DE CHUCURI - SANTANDER                                   3
 ACTION:UPD 13-04-09 13:59 OP:ep   STATUS:               ID:20130301111616 L   I
 2013-03-01-1110-00M.COL___228                                                 6
 STAT SP IPHASW D HRMM SECON CODA AMPLIT PERI AZIMU VELO AIN AR TRES W  DIS CAZ7
 BAR2 SZ EP       1116 31.38                             161    0.0810 31.3 123 
 BAR2 SZ I        1116 45.96         5.1 0.18            148           31.3 123 
 BRR  HZ EP   1   1116 32.06                             151    0.12 7 51.3 321 
 BRR  HN ES   1   1116 43.57                             151   -0.17 7 51.3 321 
 BRR  HZ I        1116 48.87        11.1 0.39            173           51.3 321 
 PTB  HZ EP   1   1116 37.03                             126   -0.33 7  117 259 
 PTB  HE ES   1   1116 53.53                             126    0.14 7  117 259 
 PTB  HZ I        1116 57.58         2.8 0.12            136            117 259 
 ZAR  HN ES   1   1117  5.21                             114    0.11 7  179 298 
                                                                                
