 2011  5 1 1649 41.2 L   6.786 -73.125140.7  RSN  8 0.2 1.7LRSN                1
 GAP=140        0.50       2.7     5.3  4.5 -0.4190E+01  0.1396E+00 -0.2555E+01E
 Epicentro: LOS SANTOS - SANTANDER                                             3
 ACTION:UP  11-06-29 08:50 OP:tino STATUS:               ID:20110501164941 L   I
 2011-05-01-1648-07S.COL___129                                                 6
 STAT SP IPHASW D HRMM SECON CODA AMPLIT PERI AZIMU VELO SNR AR TRES W  DIS CAZ7
 BAR2 SZ EP       1650  0.20                             171     0.010   22 197 
 BAR2 SZ ES   1   1650 14.79                             171    -0.3 7   22 197 
 BAR2 SZ I        1650 16.50        16.6 0.27                            22 197 
 GIR2 SZ EP   3   1650  0.05                             166    -0.3 2   33 347 
 BRR  HZ EP       1650  2.03                             150     0.010   74 299 
 BRR  HZ I        1650  8.84        13.4 0.17                            74 299 
 BRR  HN ES   2   1650 18.70                             150     0.5 5   74 299 
 PAM  SZ EP       1650  3.05                             150     0.110   77  37 
 PAM  SZ I        1650  3.34         7.3 0.20                            77  37 
 PAM  SN ES   1   1650 19.95                             150     0.2 7   77  37 
 RUS  HZ EP       1650  4.24                             143    -0.110   99 177 
 RUS  HN ES   1   1650 22.48                             143     0.1 7   99 177 
 RUS  HZ I        1650 24.26         7.3 0.50                            99 177 
 BRI  SZ EP       1650  4.87                             140     0.210  109  19 
 GRA  SZ EP       1650  5.94                             136    -0.210  127  16 
 GRA  SZ ES   2   1650 25.17                             136    -0.3 5  127  16 
 GRA  SZ I        1650 26.24         5.6 0.25                           127  16 
 OCA  SZ ES   3   1650 30.39                             128    -0.9 2  162 352 
                                                                                
