 2010  1 1 1639 19.8 L   6.800 -73.102141.7  RSN 13 0.5 3.1LRSN                1
 GAP=187        0.88       4.6     7.8  8.2 -0.6984E+01  0.3128E+02  0.7166E+01E
 Epicentro: LOS SANTOS - SANTANDER                                             3
 ACTION:UP  10-08-24 09:42 OP:vdl  STATUS:               ID:20100101163919 L   I
 2010-01-01-1637-17S.COL___097                                                 6
 STAT SP IPHASW D HRMM SECON CODA AMPLIT PERI AZIMU VELO SNR AR TRES W  DIS CAZ7
 BAR2 SZ IP       1639 39.18                             170     0.210   25 201 
 BAR2 SZ ES   2   1639 53.18                             170    -0.8 5   25 201 
 GIR2 SZ IP       1639 39.27                             166     0.210   32 342 
 GIR2 SZ ES   2   1639 54.08                             166     0.0 5   32 342 
 RUS  BZ IP       1639 43.14                             143     0.010  100 179 
 RUS  BN ES   2   1640  1.77                             143     0.4 5  100 179 
 RUS  BZ I        1640  3.30       101.4 0.39                           100 179 
 OCA  SZ EP   1   1639 48.02                             129     0.1 7  161 351 
 OCA  SZ ES   2   1640  9.20                             129    -0.6 5  161 351 
 CHI  HZ IP       1639 56.45                             116    -1.0 8  250 196 
 CHI  HN ES   2   1640 27.42                             116     0.6 4  250 196 
 CHI  HZ I        1640 33.21        44.5 0.24                           250 196 
 ROSC BZ EP   1   1639 58.63                             116     0.6 6  255 212 
 ROSC BZ I        1640 34.96       100.5 0.44                           255 212 
 HEL  HZ EP   1   1640  0.43                             114     0.1 6  277 256 
 HEL  HE ES   2   1640 31.51                             114    -0.5 4  277 256 
 HEL  HZ I        1640 39.86        80.0 0.21                           277 256 
 GUY  HZ EP   1   1640  4.00                             111     0.3 5  305 235 
 GUY  HN ES   2   1640 38.10                             111     0.2 4  305 235 
 RREF BZ EP   1   1640  7.43                             110     1.2 5  325 230 
 RREF BN ES   2   1640 42.42                             110     0.0 3  325 230 
 DBB  SZ EP   1   1640  7.40                             108    -0.3 5  344 274 
 TOL  SZ EP   1   1640  7.44                             108    -0.9 5  347 225 
 TOL  SZ ES   2   1640 46.43                             108     0.3 3  347 225 
 ANIL BZ EP   1   1640 10.41                             108     0.5 5  361 225 
 ANIL BE ES   2   1640 48.05                             108    -0.9 3  361 225 
 PRA  HZ EP   1   1640 12.93                             106    -0.6 4  394 210 
 PRA  HE ES   2   1640 55.85                             106     0.5 3  394 210 
 PRA  HZ I        1641  1.78        64.7 0.35                           394 210 
                                                                                
