 2013  5 1 1010 48.6 L   6.788 -73.192138.9  RSN  5 0.4 1.2LRSN                1
 GAP=173        0.84       6.1     7.1  9.5  0.8992E+01  0.2141E+02 -0.4144E+01E
 Epicentro: ZAPATOCA - SANTANDER                                               3
 ACTION:UPD 13-06-20 09:47 OP:ep   STATUS:               ID:20130501101048 L   I
 2013-05-01-1010-00M.COL___253                                                 6
 STAT SP IPHASW D HRMM SECON CODA AMPLIT PERI AZIMU VELO AIN AR TRES W  DIS CAZ7
 BAR2 SZ EP       1011  7.39                             171   -0.0210 21.7 177 
 GIR2 SZ EP   1   1011  7.92                             166    0.40 7 32.1 360 
 GIR2 SZ ES   1   1011 21.79                             166   -0.45 7 32.1 360 
 BRR  HZ EP       1011  9.15                             153    0.3210 67.4 302 
 BRR  HZ I        1011 31.68         4.1 0.19            142           67.4 302 
 RUS  HZ EP   1   1011 11.78                             142    0.12 7 99.8 173 
 RUS  HN ES       1011 29.63                             142    0.0210 99.8 173 
 RUS  HZ I        1011 31.83         2.1 0.20            144           99.8 173 
 PTB  HZ EP       1011 13.92                             131   -0.64 9  142 259 
 PTB  HN ES   1   1011 35.21                             131    0.43 7  142 259 
 PTB  HZ I        1011 37.62         2.6 0.30            125            142 259 
                                                                                
