 2016  9 1 1754 59.3 L   6.854 -73.314122.9  RSN  8 0.5 1.8LRSN                1
 GAP=109        1.21       4.6     4.3  8.3 -0.1892E+01  0.8988E+01  0.6034E+01E
 Epicentro: BETULIA - SANTANDER                                                3
 ACTION:UPD 17-08-17 21:05 OP:lp   STATUS:               ID:20160901175459 L   I
 OLDACT:UP  16-09-02 00:48 OP:dani STATUS:               ID:20160901174742     3
 OLDACT:REG 16-09-01 21:27 OP:edw  STATUS:               ID:20160901174742     3
 2016-09-01-1748-00M.COL___338                                                 6
 STAT SP IPHASW D HRMM SECON CODA AMPLIT PERI AZIMU VELO AIN AR TRES W  DIS CAZ7
 BAR2 EZ EP       1755 16.36                             164   -0.0410 32.4 153 
 BAR2 EZ ES       1755 29.51                             164   -0.2610 32.4 153 
 BAR2 EZ I        1755 30.65        42.2 0.36            164           32.4 153 
 BRR  HZ EP       1755 16.75                             155   -0.1310 52.2 303 
 BRR  HN ES       1755 30.89                             155    0.2610 52.2 303 
 BRR  HZ I        1755 31.73        16.9 0.12            155           52.2 303 
 PAM  EZ EP       1755 19.84                             143    0.0910 86.5  52 
 PAM  EN ES       1755 35.75                             143    0.0310 86.5  52 
 PAM  EZ I        1755 38.03        13.5 0.28            145           86.5  52 
 RUS  HZ EP       1755 21.81                             136    0.2510  109 166 
 RUS  HE ES       1755 39.14                             136    0.1810  109 166 
 RUS  HZ I        1755 40.00         6.9 0.28            136            109 166 
 PTB  HZ EP     D 1755 21.71                             130   -1.1510  131 255 
 PTB  HE ES       1755 40.53                             130   -0.7410  131 255 
 PTB  HZ I        1755 43.44         9.6 0.22            130            131 255 
 SPBC HZ EP       1755 25.67                             124    0.17 9  157 212 
 SPBC HN ES       1755 46.20                             124    0.23 9  157 212 
 SPBC HZ I        1755 48.22         8.5 0.44            124            157 212 
 ZAR  HN ES       1755 51.70                             120    0.86 9  185 293 
 NOR  HE ES       1755 59.03                             114    0.54 8  224 230 
 NOR  HZ I        1756  5.64         3.4 0.26            115            224 230 
                                                                                
