 2017  5 1 1904  5.0 L   6.784 -73.142138.8  RSN  4 0.1 1.0LRSN                1
 GAP=138        0.35       1.8     1.7  3.9 -0.9917E-01  0.2427E+01 -0.1366E+00E
 Epicentro: LOS SANTOS - SANTANDER                                             3
 *DBB                                                                          3
 ACTION:UPD 17-06-16 13:31 OP:jn   STATUS:               ID:20170501190405 L   I
 OLDACT:DUP 17-05-02 00:06 OP:dani STATUS:               ID:20170501185738d    3
 2017-05-01-1858-00M.COL___377                                                 6
 STAT SP IPHASW D HRMM SECON CODA AMPLIT PERI AZIMU VELO AIN AR TRES W  DIS CAZ7
 PAM  EZ EP       19 4 26.41                             149   -0.1410 78.5  38 
 PAM  EN ES       19 4 43.41                             149    0.0510 78.5  38 
 PAM  EZ I        19 4 45.59         2.8 0.52            152           78.5  38 
 RUS  HZ EP       19 4 28.02                             143    0.0810 98.7 176 
 RUS  HN ES       19 4 45.83                             143    0.0110 98.7 176 
 RUS  HZ I        19 4 47.20         1.3 0.29            146           98.7 176 
 PTB  HZ EP       19 4 31.44                             130    0.03 9  148 260 
 PTB  HN ES       19 4 51.88                             130   -0.13 9  148 260 
 PTB  HZ I        19 4 54.20         1.4 0.23            133            148 260 
 ZAR  HN ES       19 5  2.28                             121    0.12 9  205 293 
                                                                                
