 2014  8 1 1614 21.5 L   6.777 -73.165149.9  RSN  4 0.3 1.5LRSN                1
 GAP=242        0.71       7.2     5.5  6.4  0.2542E+02  0.1190E+01 -0.1426E+02E
 Epicentro: LOS SANTOS - SANTANDER                                             3
 ACTION:UPD 14-09-15 21:46 OP:nd   STATUS:               ID:20140801161421 L   I
 OLDACT:REG 14-08-01 23:17 OP:mh   STATUS:               ID:20140801160813     3
 2014-08-01-1608-13M.COL___254                                                 6
 STAT SP IPHASW D HRMM SECON CODA AMPLIT PERI AZIMU VELO AIN AR TRES W  DIS CAZ7
 BAR2 SZ EP       1614 41.66                             172    0.0610 20.6 185 
 BAR2 SZ ES       1614 57.09                             172   -0.1710 20.6 185 
 BAR2 SZ I        1614 59.48        16.9 0.11            170           20.6 185 
 RUS  HZ EP       1614 45.51                             145   -0.0110 98.3 175 
 RUS  HN ES       1615  4.43                             145    0.1910 98.3 175 
 RUS  HZ I        1615  7.59         3.1 0.38            146           98.3 175 
 PTB  HZ EP       1614 48.01                             133   -0.59 9  145 260 
 PTB  HN ES       1615  9.84                             133    0.11 9  145 260 
 PTB  HZ I        1615 12.11         4.6 0.19            134            145 260 
 ZAR  HZ EP       1614 54.59                             123    0.45 9  203 293 
 ZAR  HN ES       1615 19.59                             123    0.01 9  203 293 
 ZAR  HZ I        1615 21.60         2.2 0.27            125            203 293 
                                                                                
