 2015 11 1 1329 13.8 L   6.461 -73.521112.2  RSN  4 0.1 1.4LRSN                1
 GAP=165        0.32       5.1     5.9  5.6  0.2367E+02  0.2224E+02  0.1529E+02E
 Epicentro: SANTA HELENA DEL OPON - SANTANDER                                  3
 ACTION:UPD 15-12-28 16:08 OP:cam  STATUS:               ID:20151101132913 L   I
 OLDACT:DUP 15-11-02 00:29 OP:ar   STATUS:               ID:20151101131749d    3
 OLDACT:REG 15-11-01 20:47 OP:ar   STATUS:               ID:20151101131748     3
 2015-11-01-1317-48M.COL___292                                                 6
 STAT SP IPHASW D HRMM SECON CODA AMPLIT PERI AZIMU VELO AIN AR TRES W  DIS CAZ7
 BAR2 EZ EP     C 1329 30.08                             159    0.1210 40.2  69 
 BAR2 EZ ES       1329 42.54                             159   -0.0610 40.2  69 
 BAR2 EZ I        1329 44.18        20.6 0.42            161           40.2  69 
 BRR  HZ EP   2   1329 31.45                             144   -0.18 5 74.5 344 
 BRR  HN ES   2   1329 45.59                             144    0.02 5 74.5 344 
 BRR  HZ I        1329 46.12         7.4 0.46            147           74.5 344 
 RUS  HZ EP   2   1329 32.54                             142   -0.14 5 79.4 142 
 RUS  HN ES   2   1329 47.49                             142    0.05 5 79.4 142 
 RUS  HZ I        1329 48.43         2.2 0.16            144           79.4 142 
 ZAR  HN ES   2   1330  4.68                             116    0.05 4  187 308 
                                                                                
