 2017 11 1 1701 34.5 L   6.856 -73.173145.9  RSN  4 0.2 1.2LRSN                1
 GAP=240        0.49       5.4     4.6  4.6  0.1407E+02  0.2064E+01  0.6207E+01E
 Epicentro: ZAPATOCA - SANTANDER                                               3
 ACTION:UPD 17-12-12 19:50 OP:rebc STATUS:               ID:20171101170134 L   I
 OLDACT:REG 17-11-01 20:47 OP:mg   STATUS:               ID:20171101165736     3
 2017-11-01-1658-00M.COL___438                                                 6
 STAT SP IPHASW D HRMM SECON CODA AMPLIT PERI AZIMU VELO AIN AR TRES W  DIS CAZ7
 BAR2 EZ EP       17 1 54.50                             168    0.2410 29.2 182 
 BAR2 EZ ES   1   17 2  9.61                             168   -0.08 7 29.2 182 
 BAR2 EZ I        17 2 10.98         3.6 0.58            162           29.2 182 
 BRR  HN ES       17 2 11.55                             154   -0.0710 65.7 295 
 BRR  HZ I        17 2 13.86         6.1 0.39            154           65.7 295 
 RUS  HZ EP       17 1 58.77                             142    0.0510  107 175 
 RUS  HN ES   1   17 2 17.51                             142   -0.12 7  107 175 
 RUS  HZ I        17 2 21.44         1.6 0.58            140            107 175 
 PTB  HZ EP       17 2  1.04                             132   -0.28 9  146 256 
 PTB  HN ES   1   17 2 22.51                             132    0.26 7  146 256 
 PTB  HZ I        17 2 25.85         1.0 0.16            132            146 256 
                                                                                
