 2011  9 1 1429 53.0 L   6.803 -73.098146.9  RSN 14 0.5 3.3LRSN                1
 GAP=111        0.81       4.1     5.8  5.7  0.3029E+01  0.8235E+01  0.7394E+00E
 Epicentro: LOS SANTOS - SANTANDER                                             3
 ACTION:UPD 12-07-13 15:54 OP:ep   STATUS:               ID:20110901142952 L   I
 2011-09-01-1428-47S.COL___168                                                 6
 STAT SP IPHASW D HRMM SECON CODA AMPLIT PERI AZIMU VELO AIN AR TRES W  DIS CAZ7
 SAN  SZ EP   1   1430 13.21                             178    0.77 7 5.08 147 
 BAR2 SZ IP       1430 12.70                             170   -0.0610 25.1 202 
 BAR2 SZ ES   1   1430 27.56                             170   -0.64 7 25.1 202 
 BAR2 SZ I        1430 29.57       407.0 0.38                          25.1 202 
 PAM  SZ EP   1   1430 15.51                             152    0.43 7 73.8  37 
 BRR  HZ IP     C 1430 14.58                             151    0.1010 75.7 296 
 BRR  HZ I        1430 14.91       723.0 0.19                          75.7 296 
 BRR  HN ES   1   1430 31.93                             151    0.66 7 75.7 296 
 RUS  HZ EP   1   1430 16.59                             144   -0.24 7  101 179 
 RUS  HN ES   1   1430 35.18                             144   -0.27 7  101 179 
 RUS  HZ I        1430 36.61       206.0 0.27                           101 179 
 OCA  SZ EP   1   1430 21.27                             130   -0.11 7  161 351 
 OCA  SZ ES   2   1430 43.22                             130   -0.34 5  161 351 
 OCA  SZ I        1430 49.22       183.8 0.26                           161 351 
 ZAR  HZ EP   1   1430 25.51                             122   -0.45 6  209 292 
 ZAR  HN ES   1   1430 51.38                             122   -0.32 6  209 292 
 ZAR  HZ I        1430 57.85       229.3 0.28                           209 292 
 NOR  SZ EP   1   1430 28.72                             118   -0.51 6  239 235 
 ROSC BZ EP   1   1430 32.01                             117    0.54 6  256 212 
 ROSC BZ I        1431 10.41       182.9 0.48                           256 212 
 HEL  HZ EP   1   1430 34.16                             114    0.37 6  277 256 
 HEL  HZ I        1431 11.10       110.6 0.33                           277 256 
 RREF HZ EP   1   1430 39.82                             111    0.19 5  326 230 
 RREF HZ I        1431 20.42        80.3 0.31                           326 230 
 COD  HZ EP   1   1430 40.59                             109   -0.80 5  348 354 
 COD  HZ I        1431 26.80       104.1 0.78                           348 354 
 ANIL HZ EP   1   1430 43.75                             108    0.49 5  361 225 
 PRA  HZ EP   1   1430 46.33                             106   -0.52 4  395 210 
                                                                                
