 2011  1 1 1440 45.5 L   6.533 -73.514108.9  RSN  4 0.3 1.5LRSN                1
 GAP=179        0.64       8.4     5.9 11.6 -0.8780E+01  0.4815E+02 -0.1165E+01E
 Epicentro: EL CARMEN DE CHUCURI - SANTANDER                                   3
 ACTION:UP  11-02-08 08:37 OP:pat  STATUS:               ID:20110101144045 L   I
 2011-01-01-1435-19S.COL___135                                                 6
 STAT SP IPHASW D HRMM SECON CODA AMPLIT PERI AZIMU VELO SNR AR TRES W  DIS CAZ7
 BAR2 SZ IP       1441  1.15                             159     0.010   37  80 
 BAR2 SZ ES   2   1441 13.25                             159    -0.2 5   37  80 
 BAR2 SZ I        1441 15.20        29.1 0.41                            37  80 
 RUS  HZ EP   1   1441  4.96                             139     0.4 7   85 146 
 RUS  HE ES   2   1441 19.29                             139    -0.1 5   85 146 
 RUS  HZ I        1441 21.23         3.6 0.26                            85 146 
 NOR  SZ EP   1   1441 13.09                             115    -0.6 7  185 235 
 NOR  SN ES   2   1441 35.70                             115     0.0 4  185 235 
 HEL  HZ EP   1   1441 18.82                             110     0.1 6  226 260 
 HEL  HN ES   2   1441 45.20                             110     0.5 4  226 260 
 HEL  HZ I        1441 51.54         2.5 0.80                           226 260 
                                                                                
