 2014 11 1 1837 58.7 L   6.774 -73.124148.8  RSN 13 0.4 1.8LRSN                1
 GAP=140        0.90       3.3     4.3  5.7 -0.3132E+01  0.2860E+01  0.2560E+01E
 Epicentro: LOS SANTOS - SANTANDER                                             3
 ACTION:UPD 14-12-19 15:38 OP:nd   STATUS:               ID:20141101183758 L   I
 OLDACT:REG 14-11-01 21:14 OP:spq  STATUS:               ID:20141101182744     3
 2014-11-01-1827-44M.COL___274                                                 6
 STAT SP IPHASW D HRMM SECON CODA AMPLIT PERI AZIMU VELO AIN AR TRES W  DIS CAZ7
 BAR2 SZ EP       1838 18.61                             172   -0.0910 21.1 198 
 BAR2 SZ ES   1   1838 33.79                             172   -0.47 7 21.1 198 
 BAR2 SZ I        1838 35.04        12.8 0.14            170           21.1 198 
 BRR  HZ EP     C 1838 20.73                             152    0.3110 74.6 300 
 BRR  HE ES       1838 37.97                             152    0.6510 74.6 300 
 BRR  HZ I        1838 40.76        16.6 0.18            150           74.6 300 
 PAM  SZ EP       1838 21.62                             151    0.2910 78.2  37 
 PAM  SN ES   1   1838 38.88                             151   -0.07 7 78.2  37 
 PAM  SZ I        1838 40.89         5.7 0.59            154           78.2  37 
 RUS  HZ EP       1838 22.54                             145   -0.0510 97.6 177 
 RUS  HN ES       1838 41.21                             145    0.0310 97.6 177 
 RUS  HZ I        1838 42.13         5.9 0.22            146           97.6 177 
 PTB  HZ EP       1838 25.32                             132   -0.80 9  150 260 
 PTB  HE ES       1838 46.95                             132   -0.53 9  150 260 
 PTB  HZ I        1838 50.12        13.0 0.18            132            150 260 
 SPBC HZ EP     D 1838 27.61                             130    0.20 9  162 220 
 SPBC HN ES       1838 49.93                             130    0.16 9  162 220 
 SPBC HZ I        1838 55.92         8.3 0.22            130            162 220 
 OCA  HZ EP   1   1838 27.71                             130    0.12 7  163 352 
 OCA  HN ES   1   1838 49.37                             130   -0.71 7  163 352 
 OCA  HZ I        1838 53.77         8.0 0.34            131            163 352 
 CHI  HZ EP   1   1838 36.77                             118    0.39 6  247 196 
 CHI  HN ES   1   1839  5.74                             118   -0.00 6  247 196 
 CHI  HZ I        1839  9.63         2.2 0.30            119            247 196 
 HEL  HZ EP   4   1838 41.32                             115    2.03 0  274 257 
 HEL  HN ES   1   1839 11.56                             115    0.65 6  274 257 
 HEL  HZ I        1839 17.53         4.7 0.28            115            274 257 
 GUY2CHZ EP       1838 42.57                             113    0.04 7  301 235 
 GUY2CHE ES   4   1839 18.42                             113    1.74 0  301 235 
 GUY2CHZ I        1839 24.97         3.9 0.32                           301 235 
 MON  HZ EP   4   1838 45.77                             109   -2.51 0  357 309 
 MON  HN ES   4   1839 24.74                             109   -2.18 0  357 309 
 MON  HZ I        1839 29.89         1.3 0.43            109            357 309 
 PRA  HN ES   1   1839 33.51                             107   -0.42 4  391 210 
 PRA  HZ I        1839 38.04         3.0 0.44            108            391 210 
 SJC  HZ EP   4 C 1838 53.16                             106   -1.68 0  413 327 
 SJC  HN ES   4   1839 32.73                             106   -5.86 0  413 327 
 SJC  HZ I        1839 38.56         1.4 0.58            107            413 327 
                                                                                
