 2011  8 1 1254 16.8 L   6.761 -73.119145.5  RSN  8 0.4 2.0LRSN                1
 GAP=142        0.67       4.0     5.4  6.1 -0.9355E+01  0.7857E+01 -0.3056E+01E
 Epicentro: LOS SANTOS - SANTANDER                                             3
 ACTION:UPD 12-07-25 14:05 OP:epov STATUS:               ID:20110801125416 L   I
 2011-08-01-1252-34S.COL___142                                                 6
 STAT SP IPHASW D HRMM SECON CODA AMPLIT PERI AZIMU VELO AIN AR TRES W  DIS CAZ7
 BAR2 SZ EP       1254 36.21                             172   -0.1210 19.9 200 
 BRR  HZ EP       1254 38.14                             151   -0.0410 75.8 300 
 BRR  HE ES   1   1254 55.05                             151    0.18 7 75.8 300 
 BRR  HZ I        1254 59.34        19.9 0.16                          75.8 300 
 PAM  SZ EP       1254 39.19                             150    0.1210 79.0  36 
 PAM  SN ES   1   1254 55.86                             150   -0.60 7 79.0  36 
 RUS  HZ EP   3   1254 40.41                             145    0.21 2 96.1 178 
 RUS  HN ES   1   1254 58.62                             145    0.16 7 96.1 178 
 BRI  SZ EP       1254 40.95                             140    0.0610  111  19 
 GRA  SZ ES   2   1255  3.29                             136    1.12 5  129  16 
 OCA  SZ EP       1254 45.33                             129   -0.19 9  165 352 
 OCA  SZ I        1255 10.18        10.7 0.37                           165 352 
 NOR  SZ EP       1254 52.70                             118    0.20 8  235 236 
 NOR  SE ES   2   1255 19.63                             118   -0.72 4  235 236 
                                                                                
