 2016 10 1 1202 40.3 L   6.754 -73.247142.8  RSN  5 0.4 1.1LRSN                1
 GAP=211        0.99       6.4     6.1  8.0  0.4359E+01  0.9786E+01 -0.3776E+01E
 Epicentro: ZAPATOCA - SANTANDER                                               3
 ACTION:UPD 16-11-09 19:15 OP:rebc STATUS:               ID:20161001120240 L   I
 OLDACT:UP  16-10-01 23:14 OP:edw  STATUS:               ID:20161001115748d    3
 OLDACT:UP  16-10-01 23:13 OP:edw  STATUS:               ID:20161001115748d    3
 OLDACT:UP  16-10-01 23:11 OP:edw  STATUS:               ID:20161001115748d    3
 OLDACT:DUP 16-10-01 23:07 OP:edw  STATUS:               ID:20161001115748d    3
 2016-10-01-1158-00M.COL___366                                                 6
 STAT SP IPHASW D HRMM SECON CODA AMPLIT PERI AZIMU VELO AIN AR TRES W  DIS CAZ7
 BAR2 EZ EP       12 2 59.15                             172   -0.3610 19.3 158 
 BAR2 EZ ES       12 3 14.46                             172   -0.0310 19.3 158 
 BAR2 EZ I        12 3 17.17         3.2 0.21            173           19.3 158 
 BRR  HZ EP       12 3  1.25                             154    0.4710 64.6 307 
 BRR  HN ES   2   12 3 16.12                             154   -0.62 5 64.6 307 
 RUS  HZ EP       12 3  3.72                             144    0.2010 97.0 169 
 RUS  HE ES       12 3 21.76                             144    0.1510 97.0 169 
 RUS  HZ I        12 3 23.39         1.8 0.36            147           97.0 169 
 PTB  HZ EP       12 3  6.34                             134    0.37 9  136 260 
 PTB  HN ES       12 3 25.92                             134   -0.06 9  136 260 
 PTB  HZ I        12 3 29.35         2.5 0.14            136            136 260 
 SPBC HZ EP       12 3  6.68                             131   -0.88 9  152 217 
 SPBC HN ES       12 3 29.06                             131    0.25 9  152 217 
                                                                                
