 2013  3 1 1101 35.3 L   6.684 -73.223143.9  RSN  4 0.1 1.5LRSN                1
 GAP=205        0.33       8.1     6.0  4.7  0.3835E+02  0.1546E+02  0.1665E+02E
 Epicentro: BARICHARA - SANTANDER                                              3
 ACTION:UPD 13-04-09 13:59 OP:ep   STATUS:               ID:20130301110135 L   I
 2013-03-01-1100-00M.COL___228                                                 6
 STAT SP IPHASW D HRMM SECON CODA AMPLIT PERI AZIMU VELO AIN AR TRES W  DIS CAZ7
 BAR2 SZ EP   1   11 1 54.55                             175    0.07 7 11.1 156 
 BAR2 SZ ES   1   11 2  9.38                             175   -0.09 7 11.1 156 
 BRR  HZ EP   1   11 1 56.13                             152   -0.09 7 71.5 311 
 BRR  HE ES   1   11 2 12.70                             152    0.13 7 71.5 311 
 BRR  HZ I        11 2 22.26         6.7 0.25            141           71.5 311 
 PTB  HZ EP   1   11 2  1.20                             134    0.06 7  137 263 
 ZAR  HN ES   1   11 2 32.24                             122   -0.09 6  202 296 
 ZAR  HZ I        11 2 39.78         2.6 0.10            121            202 296 
                                                                                
