 2017  6 1 1805  3.8 L   6.786 -73.168143.3  RSN  8 0.5 2.0LRSN                1
 GAP=210        1.05       5.0     5.3  7.5  0.1377E+02  0.3392E+01  0.2414E+01E
 Epicentro: LOS SANTOS - SANTANDER                                             3
 ACTION:UPD 17-09-14 16:48 OP:jn   STATUS:               ID:20170601180503 L   I
 OLDACT:UP  17-06-02 01:11 OP:dani STATUS:               ID:20170601175738     3
 OLDACT:REG 17-06-01 20:52 OP:ar   STATUS:               ID:20170601175738     3
 2017-06-01-1758-00M.COL___362                                                 6
 STAT SP IPHASW D HRMM SECON CODA AMPLIT PERI AZIMU VELO AIN AR TRES W  DIS CAZ7
 BRR  HZ EP       18 5 24.32                             153   -0.3210 69.8 301 
 BRR  HE ES       18 5 41.27                             153    0.4010 69.8 301 
 BRR  HZ I        18 5 42.32        22.3 0.05            151           69.8 301 
 RUS  HZ EP       18 5 26.89                             144   -0.3610 99.3 175 
 RUS  HN ES       18 5 45.42                             144   -0.0910 99.3 175 
 RUS  HZ I        18 5 46.55        11.7 0.40            142           99.3 175 
 PTB  HZ EP       18 5 30.02                             132   -0.34 9  145 259 
 PTB  HN ES   3   18 5 50.34                             132   -0.70 2  145 259 
 PTB  HZ I        18 5 55.82         8.2 0.74            130            145 259 
 SPBC HZ EP       18 5 31.86                             129   -0.03 9  160 219 
 SPBC HN ES       18 5 53.65                             129   -0.11 9  160 219 
 SPBC HZ I        18 5 56.12        18.3 0.21            127            160 219 
 YPLC HZ EP       18 5 33.11                             126   -0.33 9  177 150 
 YPLC HN ES       18 5 56.98                             126    0.45 9  177 150 
 YPLC HZ I        18 6  0.06        10.8 0.38            127            177 150 
 ZAR  HZ EP       18 5 36.42                             122    0.47 9  202 293 
 ZAR  HE ES       18 6  0.94                             122   -0.05 9  202 293 
 ZAR  HZ I        18 6  6.01        12.8 0.30            122            202 293 
 NOR  HZ EP       18 5 38.58                             118   -0.53 8  232 234 
 NOR  HN ES       18 6  6.57                             118   -0.06 8  232 234 
 NOR  HZ I        18 6 12.38         4.4 0.19            118            232 234 
 ROSC BZ EP       18 5 42.88                             116    1.34 8  250 211 
 ROSC BN ES   4   18 6 15.16                             116    4.21 0  250 211 
 ROSC BZ I        18 6 17.47        15.8 0.33            116            250 211 
                                                                                
