 2017  3 1 1320 41.6 L   6.791 -73.155141.7  RSN  6 0.4 1.5LRSN                1
 GAP=136        0.96       4.8     4.2  7.0  0.1761E+01  0.6000E+01  0.5997E+00E
 Epicentro: LOS SANTOS - SANTANDER                                             3
 ACTION:UPD 17-05-25 18:34 OP:jn   STATUS:               ID:20170301132041 L   I
 OLDACT:REG 17-03-01 19:57 OP:lv   STATUS:               ID:20170301131744     3
 2017-03-01-1318-00M.COL___371                                                 6
 STAT SP IPHASW D HRMM SECON CODA AMPLIT PERI AZIMU VELO AIN AR TRES W  DIS CAZ7
 BAR2 EZ EP       1321  0.68                             171   -0.0710 22.2 188 
 BAR2 EZ ES       1321 15.44                             171   -0.2210 22.2 188 
 BRR  HZ EP       1321  1.98                             152   -0.3410 70.8 300 
 BRR  HE ES       1321 18.75                             152    0.3010 70.8 300 
 PAM  EZ EP       1321  3.47                             150   -0.0310 78.8  40 
 PAM  EN ES       1321 20.44                             150   -0.1210 78.8  40 
 PAM  EZ I        1321 22.41         9.0 0.56            151           78.8  40 
 RUS  HZ EP       1321  5.24                             143    0.3210 99.7 175 
 RUS  HN ES       1321 23.45                             143    0.3710 99.7 175 
 RUS  HZ I        1321 25.28         4.2 0.27            144           99.7 175 
 PTB  HZ EP       1321  7.86                             131   -0.30 9  147 259 
 PTB  HN ES       1321 28.22                             131   -0.63 9  147 259 
 PTB  HZ I        1321 30.89         3.8 0.13            133            147 259 
 ZAR  HE ES       1321 39.60                             122    0.79 9  203 293 
                                                                                
