 2011 12 1 1729 49.5 L   6.792 -73.101145.7  RSN  4 0.2 1.8LRSN                1
 GAP=143        0.45       5.0     7.4  7.1  0.1435E+02 -0.1725E+02 -0.1089E+02E
 Epicentro: LOS SANTOS - SANTANDER                                             3
 ACTION:UPD 12-07-13 16:13 OP:ep   STATUS:               ID:20111201172949 L   I
 2011-12-01-1730-00M.COL___178                                                 6
 STAT SP IPHASW D HRMM SECON CODA AMPLIT PERI AZIMU VELO AIN AR TRES W  DIS CAZ7
 BAR2 SZ EP       1730  8.88                             170   -0.2410 23.8 202 
 BAR2 SZ I        1730 19.34         9.1 0.75                          23.8 202 
 BAR2 SZ ES   2   1730 24.19                             170   -0.24 5 23.8 202 
 PAM  SZ EP   1   1730 11.77                             151    0.21 7 75.1  36 
 BRR  HZ EP       1730 10.91                             151    0.0010 76.0 297 
 BRR  HE ES   2   1730 27.84                             151    0.22 5 76.0 297 
 BRR  HE I        1730 32.96        22.0 0.54                          76.0 297 
 RUS  HZ EP   1   1730 13.23                             144    0.08 7 99.4 179 
 RUS  HE ES   2   1730 31.92                             144    0.31 5 99.4 179 
                                                                                
