 2014  1 1 1134 22.0 L   6.808 -73.165139.3  RSN 10 0.4 1.8LRSN                1
 GAP=134        0.71       3.1     3.0  5.5 -0.1316E+01  0.5439E+01  0.3316E+01E
 Epicentro: LOS SANTOS - SANTANDER                                             3
 ACTION:UPD 14-03-13 09:50 OP:ep   STATUS:               ID:20140101113422 L   I
 OLDACT:UP  14-01-01 18:28 OP:mh   STATUS:               ID:20140101113000     3
 OLDACT:REG 14-01-01 15:34 OP:mh   STATUS:               ID:20140101113000     3
 2014-01-01-1130-00M.COL___285                                                 6
 STAT SP IPHASW D HRMM SECON CODA AMPLIT PERI AZIMU VELO AIN AR TRES W  DIS CAZ7
 BAR2 SZ EP       1134 40.39                             170   -0.4910 23.9 184 
 BAR2 SZ ES   1   1134 55.24                             170   -0.36 7 23.9 184 
 BAR2 SZ I        1134 57.37        20.9 0.06            170           23.9 184 
 PAM  SZ EP       1134 43.91                             149    0.3110 78.1  41 
 PAM  SE ES       1135  0.63                             149    0.2010 78.1  41 
 PAM  SZ I        1135  3.23        12.3 0.40            152           78.1  41 
 RUS  HZ EP   1   1134 45.24                             142    0.02 7  102 175 
 RUS  HN ES   1   1135  3.65                             142    0.34 7  102 175 
 RUS  HZ I        1135  4.79         8.2 0.29            145            102 175 
 PTB  HZ EP   1   1134 47.81                             131   -0.47 7  146 258 
 PTB  HN ES       1135  8.49                             131   -0.28 9  146 258 
 PTB  HZ I        1135 11.74         7.6 0.16            130            146 258 
 SPBC HZ EP   1   1134 49.92                             127   -0.04 7  162 218 
 SPBC HN ES   2   1135 12.32                             127    0.56 5  162 218 
 SPBC HZ I        1135 14.61        11.0 0.36            128            162 218 
 ZAR  HN ES       1135 18.77                             121    0.17 9  202 292 
 ZAR  HZ I        1135 23.78         4.1 0.27            121            202 292 
 NOR  HZ EP   1   1134 57.28                             117    0.04 6  233 234 
 NOR  HN ES       1135 24.98                             117    0.26 8  233 234 
 NOR  HZ I        1135 30.69         4.8 0.19            118            233 234 
 SML  HZ EP   4   1134 56.48                             116   -1.62 0  242 336 
 SML  HN ES   2   1135 25.56                             116   -0.69 4  242 336 
 SML  HZ I        1135 33.16        11.1 0.12            116            242 336 
 CHI  HZ EP       1134 59.22                             116   -0.18 8  249 195 
 CHI  HN ES   2   1135 28.25                             116   -0.30 4  249 195 
 CHI  HZ I        1135 32.57         3.4 0.43            117            249 195 
 HEL  HZ EP   1   1135  2.52                             113    0.82 6  270 256 
 HEL  HN ES   2   1135 33.02                             113    0.37 4  270 256 
 HEL  HZ I        1135 39.16         3.3 0.28            114            270 256 
 SJC  HZ EP   4   1135 14.50                             105   -2.65 0  407 327 
 SJC  HN ES   4   1135 55.92                             105   -4.23 0  407 327 
                                                                                
