 2015 11 1 1246  4.9 L   6.839 -73.298121.6  RSN  8 0.4 1.6LRSN                1
 GAP=105        0.75       3.8     4.2  6.8  0.2425E+01  0.1531E+02  0.9957E+00E
 Epicentro: ZAPATOCA - SANTANDER                                               3
 ACTION:UPD 15-12-28 16:08 OP:cam  STATUS:               ID:20151101124604 L   I
 OLDACT:REG 15-11-01 20:36 OP:ar   STATUS:               ID:20151101123746     3
 2015-11-01-1237-46M.COL___292                                                 6
 STAT SP IPHASW D HRMM SECON CODA AMPLIT PERI AZIMU VELO AIN AR TRES W  DIS CAZ7
 BAR2 EZ EP     D 1246 21.70                             165   -0.1510 30.2 155 
 BAR2 EZ ES       1246 34.88                             165   -0.1710 30.2 155 
 BAR2 EZ I        1246 36.13        27.4 0.24            163           30.2 155 
 BRR  HZ EP     C 1246 22.20                             154   -0.3310 54.5 303 
 BRR  HN ES   2   1246 36.53                             154    0.27 5 54.5 303 
 BRR  HZ I        1246 37.97         9.5 0.20            156           54.5 303 
 PAM  EZ EP   2   1246 25.32                             142    0.06 5 86.2  50 
 PAM  EN ES       1246 41.50                             142    0.3810 86.2  50 
 PAM  EZ I        1246 43.48        11.8 0.24            143           86.2  50 
 RUS  HZ EP   2   1246 26.57                             136   -0.38 5  107 167 
 RUS  HN ES   2   1246 44.46                             136    0.33 5  107 167 
 RUS  HZ I        1246 45.17         3.1 0.24            135            107 167 
 OCA  HZ EP   4   1246 18.84                             124   -12.1 0  155 359 
 OCA  HE ES   2   1246 50.01                             124   -1.19 5  155 359 
 OCA  HZ I        1246 51.84        15.9 0.16            125            155 359 
 ZAR  HZ EP       1246 34.64                             119    0.58 9  187 293 
 ZAR  HN ES       1246 56.75                             119   -0.04 9  187 293 
 CHI  HZ EP   2   1246 41.41                             111   -0.04 4  249 191 
 CHI  HN ES   2   1247 10.14                             111    0.20 4  249 191 
 CHI  HZ I        1247 15.56         1.6 0.28            111            249 191 
 GUY2CHZ EP   4   1246 48.87                             108    2.61 0  290 232 
 GUY2CHE ES   4   1247 20.20                             108    1.69 0  290 232 
 GUY2CHZ I        1247 31.18         1.4 0.52                           290 232 
                                                                                
