 2012  2 1 1331 49.7 L   6.800 -73.179142.4  RSN  5 0.1 1.4LRSN                1
 GAP=132        0.33       2.6     2.5  3.6 -0.2087E+01  0.2473E+01 -0.1240E+01E
 ACTION:UP  12-03-07 16:26 OP:epov STATUS:               ID:20120201133149 L   I
 2012-02-01-1330-00M.COL___187                                                 6
 STAT SP IPHASW D HRMM SECON CODA AMPLIT PERI AZIMU VELO SNR AR TRES W  DIS CAZ7
 BAR2 SZ EP       1332  9.08                             170    0.1410 22.9 181 
 BAR2 SZ ES   1   1332 23.94                             170    0.01 7 22.9 181 
 BAR2 SZ I        1332 26.58        10.9 0.22                          22.9 181 
 GIR2 SZ EP   1   1332  9.13                             167    0.14 7 30.9 357 
 PAM  SZ EP   1   1332 11.74                             149    0.01 7 79.8  42 
 PAM  SN ES   1   1332 28.76                             149   -0.14 7 79.8  42 
 RUS  HZ EP   1   1332 13.00                             143   -0.17 7  101 174 
 RUS  HZ I        1332 14.14         2.7 0.14                           101 174 
 RUS  HE ES   1   1332 31.47                             143    0.02 7  101 174 
 PTB  HZ EP   1   1332 15.97                             132   -0.12 7  144 259 
 PTB  HN ES   1   1332 36.64                             132   -0.01 7  144 259 
                                                                                
