 2013  2 1 1143 41.5 L   6.811 -73.203142.8  RSN  4 0.1 1.4LRSN                1
 GAP=146        0.42       2.6     3.0  3.7 -0.2840E+01  0.2894E+01 -0.9860E+00E
 Epicentro: ZAPATOCA - SANTANDER                                               3
 ACTION:UPD 13-03-12 09:29 OP:ep   STATUS:               ID:20130201114341 L   I
 2013-02-01-1138-51M.COL___173                                                 6
 STAT SP IPHASW D HRMM SECON CODA AMPLIT PERI AZIMU VELO AIN AR TRES W  DIS CAZ7
 BAR2 SZ EP       1144  0.74                             170   -0.0810 24.3 174 
 BAR2 SZ I        1144  0.82         8.5 0.28            170           24.3 174 
 BAR2 SZ ES       1144 16.11                             170    0.2510 24.3 174 
 PAM  SZ EP       1144  3.75                             149    0.1210 80.7  44 
 PAM  SZ I        1144  3.86         4.0 0.22            151           80.7  44 
 PAM  SN ES       1144 20.71                             149   -0.1610 80.7  44 
 RUS  HZ EP       1144  5.16                             143    0.0410  102 173 
 RUS  HE ES       1144 23.39                             143   -0.1310  102 173 
 RUS  HZ I        1144 24.55         1.4 0.37            143            102 173 
 PTB  HZ EP   1   1144  7.78                             133    0.07 7  142 258 
 PTB  HN ES   1   1144 27.99                             133   -0.14 7  142 258 
 PTB  HZ I        1144 30.26         5.0 0.86            132            142 258 
                                                                                
