 2010 12 1 1234 51.7 L   5.722 -73.897 97.1  RSN  5 0.5 1.4LRSN                1
 GAP=107        0.83       6.1     5.4 15.8 -0.1427E+02 -0.4470E+01 -0.4814E+01E
 Epicentro: ALBANIA - SANTANDER                                                3
 *RUS-BRR                                                                      3
 ACTION:UP  11-01-14 15:22 OP:pat  STATUS:               ID:20101201123451 L   I
 2010-12-01-1232-04S.COL___138                                                 6
 STAT SP IPHASW D HRMM SECON CODA AMPLIT PERI AZIMU VELO SNR AR TRES W  DIS CAZ7
 RUS  HZ EP   2   1235 10.66                             134     0.3 5   92  78 
 RUS  HN ES   2   1235 24.38                             134    -0.5 5   92  78 
 RUS  HZ I        1235 29.93         1.9 0.51                            92  78 
 NOR  SZ EP   2   1235 10.40                             128    -1.0 5  109 261 
 NOR  SN ES   1   1235 26.87                             128     0.2 7  109 261 
 CHI  HZ EP   2   1235 13.70                             126     0.6 5  122 171 
 CHI  HZ I        1235 37.46         3.2 0.72                           122 171 
 BAR2 SZ ES   2   1235 29.69                             125    -0.1 5  124  39 
 BAR2 SZ I        1235 31.49        12.4 0.13                           124  39 
 BRR  HZ EP   1   1235 15.71                             118    -0.3 7  155   8 
 BRR  HN ES   1   1235 35.22                             118     0.3 7  155   8 
 BRR  HZ I        1235 36.74        12.1 0.11                           155   8 
                                                                                
