 2010  2 1 1027 36.5 L   6.770 -73.246138.0  RSN  5 0.3 1.4LRSN                1
 GAP=151        0.45       5.0    11.6  9.6  0.2334E+02  0.6232E+02  0.9464E+01E
 Epicentro: ZAPATOCA - SANTANDER                                               3
 ACTION:UP  10-08-24 09:47 OP:vdl  STATUS:               ID:20100201102736 L   I
 2010-02-01-1026-44S.COL___094                                                 6
 STAT SP IPHASW D HRMM SECON CODA AMPLIT PERI AZIMU VELO SNR AR TRES W  DIS CAZ7
 BAR2 SZ EP   2   1027 54.67                             171    -0.5 5   21 161 
 BAR2 SZ ES   2   1028  9.86                             171     0.1 5   21 161 
 GIR2 SZ EP   2   1027 55.53                             165     0.1 5   35  10 
 OCA  SZ ES   2   1028 26.43                             127     0.1 5  163 357 
 CHI  HZ EP   2   1028 13.51                             116     0.3 4  243 193 
 CHI  HZ I        1028 49.42         1.8 0.65                           243 193 
 MON  HE ES   2   1029  1.74                             108    -0.1 3  346 310 
                                                                                
