 2011  6 1 1616 52.8 L   6.149 -73.642112.6  RSN  5 0.3 1.8LRSN                1
 GAP=130        0.73       4.6     4.9  9.5 -0.5738E+01  0.2195E+02 -0.1176E+01E
 Epicentro: LA PAZ - SANTANDER                                                 3
 ACTION:UP  11-07-14 19:02 OP:ep   STATUS:               ID:20110601161652 L   I
 2011-06-01-1615-29S.COL___115                                                 6
 STAT SP IPHASW D HRMM SECON CODA AMPLIT PERI AZIMU VELO SNR AR TRES W  DIS CAZ7
 RUS  HZ EP   1   1617 11.13                             147     0.2 7   68 115 
 RUS  HZ I        1617 11.52         7.9 0.20                            68 115 
 RUS  HN ES   1   1617 25.09                             147     0.0 7   68 115 
 BAR2 SZ EP   1   1617 11.02                                     0.3 7   71  46 
 BAR2 SZ ES   1   1617 24.30                             146    -0.5 7   71  46 
 BTL  SZ EP   1   1617 12.82                             137     0.3 7   95  26 
 BRR  HZ EP   1   1617 13.00                             133    -0.2 7  106 356 
 BRR  HZ I        1617 13.49        30.1 0.14                           106 356 
 BRR  HN ES   1   1617 29.39                             133     0.2 7  106 356 
 NOR  SZ EP   1   1617 16.95                             123    -0.6 7  150 245 
 NOR  SN ES   1   1617 37.26                             123     0.3 7  150 245 
                                                                                
