 2017 12 1 1444 19.3 L   6.797 -73.198144.4  RSN  4 0.1 1.5LRSN                1
 GAP=144        0.34       2.1     2.0  2.8 -0.1231E+01  0.1491E+01 -0.5839E+00E
 Epicentro: ZAPATOCA - SANTANDER                                               3
 ACTION:UPD 18-01-04 13:16 OP:rebc STATUS:               ID:20171201144419 L   I
 OLDACT:UP  17-12-02 00:05 OP:dani STATUS:               ID:20171201143737d    3
 OLDACT:DUP 17-12-02 00:01 OP:dani STATUS:               ID:20171201143737d    3
 2017-12-01-1438-00M.COL___477                                                 6
 STAT SP IPHASW D HRMM SECON CODA AMPLIT PERI AZIMU VELO AIN AR TRES W  DIS CAZ7
 BAR2 EZ EP       1444 38.73                             171   -0.0410 22.7 176 
 BAR2 EZ ES       1444 54.06                             171    0.1210 22.7 176 
 BAR2 EZ I        1444 55.29         8.6 0.16            172           22.7 176 
 PAM  EZ EP       1444 41.65                             149    0.0110 81.4  42 
 PAM  EN ES       1444 58.99                             149   -0.0510 81.4  42 
 PAM  EZ I        1445  0.87         5.4 0.50            153           81.4  42 
 RUS  HZ EP       1444 42.89                             143   -0.0610  101 173 
 RUS  HN ES       1445  1.37                             143   -0.0110  101 173 
 RUS  HZ I        1445  2.58         7.6 0.34            147            101 173 
 PTB  HZ EP       1444 45.82                             133    0.16 9  142 259 
 PTB  HE ES       1445  6.09                             133   -0.12 9  142 259 
 PTB  HZ I        1445 12.04         2.7 0.16            133            142 259 
                                                                                
