 2016  2 1 1847 51.6 L   6.819 -73.146147.3  RSN 11 0.3 2.4LRSN                1
 GAP=136        0.64       2.0     2.7  3.8 -0.5713E+00  0.3200E+01  0.4752E-01E
 Epicentro: LOS SANTOS - SANTANDER                                             3
 ACTION:UPD 16-03-04 21:22 OP:rebc STATUS:               ID:20160201184751 L   I
 OLDACT:REG 16-02-01 22:28 OP:cara STATUS:               ID:20160201183759     3
 2016-02-01-1837-59S.COL___220                                                 6
 STAT SP IPHASW D HRMM SECON CODA AMPLIT PERI AZIMU VELO AIN AR TRES W  DIS CAZ7
 BAR2 EZ IP     C 1848 11.51                             170    0.0610 25.3 189 
 BAR2 EZ ES       1848 26.56                             170   -0.3910 25.3 189 
 BAR2 EZ I        1848 28.96        58.3 0.24            170           25.3 189 
 PAM  EZ IP     D 1848 14.23                             152    0.3410 75.8  41 
 PAM  EN ES       1848 31.48                             152    0.2110 75.8  41 
 PAM  EZ I        1848 33.52        47.0 0.50            155           75.8  41 
 RUS  HZ EP       1848 15.50                             144   -0.1510  103 176 
 RUS  HN ES       1848 34.43                             144    0.0210  103 176 
 RUS  HZ I        1848 35.12        30.6 0.22            147            103 176 
 PTB  HZ EP       1848 18.19                             132   -0.53 9  148 258 
 PTB  HE ES       1848 40.07                             132    0.19 9  148 258 
 PTB  HZ I        1848 46.38        26.1 0.56            132            148 258 
 SPBC HZ EP       1848 20.48                             129    0.12 9  165 219 
 SPBC HN ES       1848 42.93                             129    0.13 9  165 219 
 SPBC HZ I        1848 45.08        54.4 0.18            130            165 219 
 ZAR  HN ES       1848 49.74                             123    0.36 9  203 292 
 ZAR  HZ I        1848 55.68        17.1 0.12            123            203 292 
 NOR  HZ EP       1848 27.48                             119   -0.06 8  236 234 
 NOR  HN ES       1848 55.63                             119    0.06 8  236 234 
 NOR  HZ I        1849  0.35        20.2 0.20            120            236 234 
 SML  HZ EP       1848 28.22                             118    0.12 8  242 335 
 SML  HN ES       1848 56.05                             118   -0.53 8  242 335 
 SML  HZ I        1849  3.14        19.5 0.46            119            242 335 
 CHI  HZ EP       1848 29.65                             117    0.06 8  251 195 
 CHI  HN ES       1848 59.15                             117   -0.08 8  251 195 
 CHI  HZ I        1849  2.35        10.0 0.70            119            251 195 
 GUY2CHZ EP   4   1848 37.66                             112    2.26 0  302 234 
 GUY2CHE ES   4   1849 14.48                             112    4.91 0  302 234 
 GUY2CHZ I        1849 22.08         9.6 0.46                           302 234 
 ORTC HZ EP       1848 45.80                             106    0.04 6  397 216 
 ORTC HN ES   4   1849 30.92                             106    2.92 0  397 216 
                                                                                
