 2012  7 1 1216 59.4 L   6.777 -73.103146.2  RSN  4 0.3 1.5LRSN                1
 GAP=143        0.84       8.3     9.8 12.6  0.8534E+01 -0.2318E+02  0.1040E+02E
 Epicentro: LOS SANTOS - SANTANDER                                             3
 ACTION:UPD 12-08-14 11:41 OP:ep   STATUS:               ID:20120701121659 L   I
 2012-07-01-1210-00M.COL___201                                                 6
 STAT SP IPHASW D HRMM SECON CODA AMPLIT PERI AZIMU VELO AIN AR TRES W  DIS CAZ7
 BAR2 SZ EP       1217 18.63                             171    -0.410   22 203 
 BAR2 SZ I        1217 34.75        11.0 0.34            167             22 203 
 PAM  SZ EP   1   1217 22.11                             151     0.5 7   76  36 
 PAM  SN ES   2   1217 38.58                             151    -0.4 5   76  36 
 PAM  SZ I        1217 41.13         4.2 0.48            147             76  36 
 BRR  HZ EP       1217 20.95                             151     0.010   77 298 
 BRR  HN ES   1   1217 37.81                             151     0.1 7   77 298 
 BRR  HZ I        1217 38.55        11.0 0.44            151             77 298 
 RUS  HZ EP   2   1217 23.17                             145     0.2 5   98 179 
 RUS  HN ES   2   1217 41.88                             145     0.5 5   98 179 
 RUS  HZ I        1217 43.42         3.0 0.38            137             98 179 
