 2012  1 1 1033  1.4 L   6.674 -73.203148.1  RSN  5 0.2 1.2LRSN                1
 GAP=216        0.44       6.3     5.4  6.5  0.1547E+02  0.7229E+01 -0.4639E+01E
 Epicentro: VILLANUEVA - SANTANDER                                             3
 ACTION:UP  12-02-03 08:12 OP:REBC STATUS:               ID:20120101103301 L   I
 2012-01-01-1030-00M.COL___186                                                 6
 STAT SP IPHASW D HRMM SECON CODA AMPLIT PERI AZIMU VELO SNR AR TRES W  DIS CAZ7
 BAR2 SZ EP   1   1033 20.89                             176    -0.2 7    9 166 
 BAR2 SZ ES   2   1033 36.39                             176    -0.1 5    9 166 
 BAR2 SZ I        1033 37.93         3.0 0.34                             9 166 
 BRR  HZ EP   1   1033 23.03                             152     0.1 7   74 310 
 BRR  HZ I        1033 23.44         3.4 0.10                            74 310 
 BRR  HN ES   2   1033 40.09                             152     0.3 5   74 310 
 RUS  HN ES   2   1033 42.60                             148     0.1 5   87 171 
 PTB  HZ EP   1   1033 28.04                             134     0.2 7  139 264 
 PTB  HN ES   2   1033 48.23                             134    -0.2 5  139 264 
 ZAR  HN ES   2   1033 59.06                             123    -0.4 4  204 296 
                                                                                
