 2010 11 1 1450 40.8 L   6.411 -73.864 86.0  RSN  6 0.5 1.7LRSN                1
 GAP=142        1.00       5.5     9.0 12.2  0.1352E+02  0.4920E+02  0.1222E+02E
 Epicentro: CIMITARRA - SANTANDER                                              3
 ACTION:UP  10-12-17 16:49 OP:REBC STATUS:               ID:20101101145040 L   I
 2010-11-01-1448-58S.COL___126                                                 6
 STAT SP IPHASW D HRMM SECON CODA AMPLIT PERI AZIMU VELO SNR AR TRES W  DIS CAZ7
 BAR2 SZ EP   1   1450 56.95                             136     0.1 7   78  75 
 BAR2 SZ ES   1   1451  9.25                             136    -0.1 7   78  75 
 BAR2 SZ I        1451 11.09        27.3 0.30                            78  75 
 BRR  HZ EP       1450 56.98                             135     0.310   79  12 
 BRR  HN ES   1   1451  9.14                             135     0.2 7   79  12 
 BRR  HZ I        1451 11.66        11.8 0.13                            79  12 
 RUS  HZ EP   1   1450 59.89                             127     0.2 7  104 124 
 RUS  HE ES   1   1451 14.25                             127    -0.1 7  104 124 
 RUS  HZ I        1451 17.67         4.7 0.30                           104 124 
 NOR  SZ EP   2   1451  2.29                             117    -1.3 5  146 230 
 GRA  SZ EP       1451  9.52                             109    -0.5 9  201  36 
 GRA  SZ ES   2   1451 32.51                             109    -0.2 4  201  36 
 GRA  SZ I        1451 34.63        10.1 0.26                           201  36 
 SJA  SZ EP   2   1451 29.18                                     1.6 3  347 182 
                                                                                
