 2010  8 1 1957 22.5 L   6.757 -73.095154.4  RSN  5 0.1 2.0LRSN                1
 GAP=194        0.30       4.1     5.2  3.8 -0.8600E+01 -0.3670E+01 -0.1240E+01E
 Epicentro: LOS SANTOS - SANTANDER                                             3
 ACTION:UP  10-09-07 10:51 OP:vdl  STATUS:               ID:20100801195722 L   I
 2010-08-01-1953-17S.COL___123                                                 6
 STAT SP IPHASW D HRMM SECON CODA AMPLIT PERI AZIMU VELO SNR AR TRES W  DIS CAZ7
 BAR2 SZ EP   1   1957 43.12                             172     0.0 7   21 208 
 BAR2 SZ ES   2   1957 59.24                             172     0.1 5   21 208 
 BAR2 SZ I        1958  1.12        13.3 0.36                            21 208 
 GIR2 SZ EP   1   1957 43.27                             166    -0.1 7   37 343 
 GIR2 SZ ES   2   1957 59.48                             166    -0.1 5   37 343 
 BRR  HZ IP     C 1957 44.99                             152     0.010   78 300 
 BRR  HZ I        1957 45.30        21.3 0.16                            78 300 
 BRR  HE ES   2   1958  2.52                             152     0.0 5   78 300 
 GUE  SZ EP   1   1957 48.11                             140    -0.2 7  120   9 
 GRA  SZ EP   1   1957 48.87                             138     0.1 7  129  14 
 GRA  SZ ES   2   1958  9.34                             138     0.1 5  129  14 
                                                                                
