 2015  1 1 1539 44.7 L   6.816 -73.143158.0  RSN  6 0.4 1.6LRSN                1
 GAP=245        0.89       6.2     5.2  9.4  0.1078E+02 -0.1706E+01 -0.1529E+02E
 Epicentro: LOS SANTOS - SANTANDER                                             3
 ACTION:UPD 15-03-02 15:35 OP:nd   STATUS:               ID:20150101153944 L   I
 OLDACT:REG 15-01-01 22:15 OP:cam  STATUS:               ID:20150101153816     3
 2015-01-01-1538-16M.COL___280                                                 6
 STAT SP IPHASW D HRMM SECON CODA AMPLIT PERI AZIMU VELO AIN AR TRES W  DIS CAZ7
 BAR2 EZ EP       1540  6.00                             171    0.1510 25.1 190 
 RUS  HZ EP       1540  9.71                             146   -0.0910  102 176 
 RUS  HN ES       1540 29.19                             146   -0.1810  102 176 
 RUS  HZ I        1540 31.74         3.5 0.46            143            102 176 
 PTB  HZ EP       1540 12.54                             134   -0.21 9  148 258 
 PTB  HN ES       1540 34.59                             134   -0.04 9  148 258 
 PTB  HN I        1540 39.34         7.2 0.22            133            148 258 
 SPBC HZ EP       1540 15.16                             131    0.84 9  165 219 
 SPBC HN ES       1540 37.41                             131    0.00 9  165 219 
 SPBC HZ I        1540 45.83         5.9 0.34            130            165 219 
 ZAR  HN ES       1540 43.89                             125    0.03 9  204 292 
 NOR  HZ EP       1540 20.56                             121   -0.75 8  236 234 
 NOR  HE ES       1540 50.01                             121    0.16 8  236 234 
 NOR  HZ I        1540 54.87         2.7 0.20            120            236 234 
                                                                                
