 2013  6 1 1206  5.6 L   6.806 -73.121146.5  RSN 14 0.6 2.6LRSN                1
 GAP= 72        1.47       4.2     3.7  6.3 -0.2344E+01  0.3488E+01  0.1705E+01E
 Epicentro: LOS SANTOS - SANTANDER                                             3
 ACTION:UPD 14-01-08 09:51 OP:ep   STATUS:               ID:20130601120605 L   I
 2013-06-01-1158-49M.COL___217                                                 6
 STAT SP IPHASW D HRMM SECON CODA AMPLIT PERI AZIMU VELO AIN AR TRES W  DIS CAZ7
 BAR2 SZ IP     C 12 6 25.48                             170    0.1710 24.5 196 
 BAR2 SZ ES       12 6 40.67                             170   -0.0410 24.5 196 
 BAR2 SZ I        12 6 42.14        35.0 0.20            170           24.5 196 
 GIR2 SZ EP       12 6 25.58                             167    0.2610 31.2 345 
 GIR2 SZ ES       12 6 40.27                             167   -0.4710 31.2 345 
 BRR  HZ IP     C 12 6 27.38                             152    0.4710 73.3 297 
 BRR  HE ES       12 6 44.17                             152    0.6110 73.3 297 
 BRR  HN I        12 6 46.06        89.2 0.20            151           73.3 297 
 PAM  SZ EP       12 6 28.38                             152    0.6510 75.2  38 
 PAM  SN ES       12 6 45.43                             152    0.4110 75.2  38 
 PAM  SE I        12 6 47.37        35.6 0.66            154           75.2  38 
 RUS  HZ EP       12 6 29.43                             144    0.0110  101 178 
 RUS  HN ES       12 6 47.68                             144   -0.3510  101 178 
 RUS  HE I        12 6 49.10        39.6 0.48            145            101 178 
 PTB  HZ EP       12 6 32.12                             132   -0.72 9  151 259 
 PTB  HN ES       12 6 53.23                             132   -0.89 9  151 259 
 PTB  HE I        12 6 59.24        62.9 0.48            132            151 259 
 TAM  HZ EP       12 6 33.68                             131    0.61 9  153 105 
 TAM  HN ES       12 6 54.81                             131    0.27 9  153 105 
 ZAR  HZ EP       12 6 38.07                             122   -0.21 8  206 292 
 ZAR  HE ES       12 7  3.77                             122   -0.04 8  206 292 
 ZAR  HN I        12 7 10.13        86.4 0.26            123            206 292 
 NOR  HZ EP       12 6 41.34                             118   -0.26 8  237 235 
 NOR  HN ES       12 7  9.21                             118   -0.51 8  237 235 
 NOR  HE I        12 7 14.73        61.8 0.22            119            237 235 
 SML  HZ EP       12 6 42.00                             118   -0.29 8  244 335 
 SML  HN ES       12 7 11.01                             118    0.07 8  244 335 
 SML  HE I        12 7 14.51        86.3 0.10            118            244 335 
 CHI  HZ EP       12 6 43.15                             117   -0.29 8  250 196 
 CHI  HN ES       12 7 13.39                             117    0.40 8  250 196 
 CHI  HE I        12 7 17.52        18.7 0.30            118            250 196 
 HEL  HZ EP       12 6 46.88                             115    0.77 8  275 256 
 HEL  HE ES       12 7 18.74                             115    0.99 8  275 256 
 SOCV BZ EP       12 6 47.75                             112   -0.60 7  299  57 
 SOCV BZ ES       12 7 19.83                             112   -1.90 7  299  57 
 GUY2CHZ EP       12 6 50.65                             112    1.16 7  304 235 
 GUY2CHN ES       12 7 22.48                             112   -1.28 7  304 235 
 GUY2CHE I        12 7 30.78        24.7 0.64                           304 235 
                                                                                
