 2010  1 1 1137 37.6 L   6.849 -73.136141.2  RSN 12 0.5 2.7LRSN                1
 GAP=126        0.82       4.2     6.3  7.1 -0.7712E+01  0.1548E+02  0.1954E+01E
 Epicentro: LOS SANTOS - SANTANDER                                             3
 ACTION:UP  10-08-24 09:42 OP:vdl  STATUS:               ID:20100101113737 L   I
 2010-01-01-1135-31S.COL___096                                                 6
 STAT SP IPHASW D HRMM SECON CODA AMPLIT PERI AZIMU VELO SNR AR TRES W  DIS CAZ7
 GIR2 SZ EP   1   1137 57.05                             169     0.5 7   26 346 
 GIR2 SZ ES   2   1138 12.14                             169     0.7 5   26 346 
 BAR2 SZ IP       1137 57.00                             168     0.210   29 191 
 BAR2 SZ ES   2   1138 11.09                             168    -0.7 5   29 191 
 RUS  BZ EP   1   1138  1.28                             141     0.0 7  106 177 
 RUS  BE ES   2   1138 19.23                             141    -0.6 5  106 177 
 RUS  BZ I        1138 21.40        82.5 0.28                           106 177 
 OCA  SZ EP   1   1138  4.25                             130    -0.8 7  155 353 
 OCA  SZ ES   2   1138 26.52                             130     0.0 5  155 353 
 CHI  HZ EP   1   1138 15.60                             116     0.0 6  254 195 
 CHI  HN ES   2   1138 44.65                             116    -0.7 4  254 195 
 CHI  HZ I        1138 52.42        16.6 0.49                           254 195 
 ROSC BZ EP   1   1138 16.28                             115     0.2 6  258 211 
 ROSC BN ES   2   1138 46.61                             115     0.6 4  258 211 
 ROSC BZ I        1138 55.40        19.6 0.34                           258 211 
 HEL  HZ EP   1   1138 18.75                             114     0.9 6  275 255 
 HEL  HE ES   2   1138 48.57                             114    -0.7 4  275 255 
 HEL  HZ I        1138 55.67        36.4 0.46                           275 255 
 RREF BZ EP   1   1138 23.68                             110    -0.4 5  326 229 
 RREF BN ES   2   1139  0.52                             110     0.2 3  326 229 
 RREF BZ I        1139  9.30        21.9 0.25                           326 229 
 DBB  SZ EP   1   1138 25.31                             109     0.3 5  340 273 
 DBB  SZ ES   2   1139  1.01                             109    -0.9 3  340 273 
 TOL  SZ EP   1   1138 26.55                             108     0.3 5  348 224 
 TOL  SZ ES   2   1139  3.79                             108    -0.3 3  348 224 
 SDV  BZ EP   1   1138 26.71                             108    -0.2 5  356  51 
 PRA  HZ EP   1   1138 30.85                             106    -0.7 4  397 209 
 PRA  HE ES   2   1139 14.17                             106     0.5 3  397 209 
 PRA  HZ I        1139 19.74        21.3 0.26                           397 209 
                                                                                
