 2014  7 1 1400 36.1 L   6.722 -73.111156.9  RSN  6 0.5 1.8LRSN                1
 GAP=144        1.22       6.7     6.8  8.5 -0.6064E+01  0.8672E+01 -0.9934E+01E
 Epicentro: JORDAN - SANTANDER                                                 3
 ACTION:UPD 15-03-16 20:40 OP:nd   STATUS:               ID:20140701140036 L   I
 OLDACT:UP  14-07-02 04:45 OP:CF   STATUS:               ID:20140701140036 L   3
 OLDACT:UP  14-07-01 21:35 OP:cam  STATUS:               ID:20140701140000     3
 OLDACT:UP  14-07-01 21:35 OP:cam  STATUS:               ID:20140701140000     3
 OLDACT:REG 14-07-01 20:18 OP:cam  STATUS:               ID:20140701140000     3
 2014-07-01-1400-00M.COL___279                                                 6
 STAT SP IPHASW D HRMM SECON CODA AMPLIT PERI AZIMU VELO AIN AR TRES W  DIS CAZ7
 BAR2 SZ EP       14 0 57.38                             174    0.3810 16.3 209 
 BAR2 SZ ES       14 1 13.80                             174    0.5310 16.3 209 
 BAR2 SZ I        14 1 16.58         5.1 0.24            173           16.3 209 
 BRR  HN ES       14 1 17.16                             152    0.4610 78.9 303 
 BRR  HN I        14 1 17.58        23.8 0.26            138           78.9 303 
 PAM  SZ EP       14 1  0.33                             151    0.5110 82.1  34 
 PAM  SN ES       14 1 17.55                             151   -0.7410 82.1  34 
 PAM  SN I        14 1 18.00         9.1 0.40            139           82.1  34 
 RUS  HZ EP   1   14 1  0.63                             148    0.22 7 91.7 178 
 RUS  HN ES       14 1 18.78                             148   -0.5710 91.7 178 
 RUS  HN I        14 1 21.70         3.6 0.58            141           91.7 178 
 PTB  HZ EP       14 1  4.21                             134   -0.03 9  150 262 
 PTB  HN ES       14 1 25.71                             134   -0.45 9  150 262 
 PTB  HN I        14 1 30.88        19.5 0.48            121            150 262 
 SML  HZ EP       14 1 13.96                             119   -0.46 8  253 335 
 SML  HZ I        14 1 50.12         7.4 0.10            107            253 335 
                                                                                
