 2016  6 1 1851 40.1 L   6.831 -73.174151.0  RSN 14 0.5 2.1LRSN                1
 GAP=131        1.04       3.4     4.5  5.5 -0.2700E+01  0.6988E+01  0.1754E+01E
 Epicentro: ZAPATOCA - SANTANDER                                               3
 ACTION:UPD 16-07-21 22:14 OP:rebc STATUS:               ID:20160601185140 L   I
 OLDACT:REG 16-06-01 22:03 OP:ar   STATUS:               ID:20160601184749     3
 2016-06-01-1847-49M.COL___310                                                 6
 STAT SP IPHASW D HRMM SECON CODA AMPLIT PERI AZIMU VELO AIN AR TRES W  DIS CAZ7
 BAR2 EZ EP       1852  0.33                             170   -0.0510 26.4 182 
 BAR2 EZ ES       1852 15.92                             170   -0.3110 26.4 182 
 BAR2 EZ I        1852 18.07        27.8 0.26                          26.4 182 
 BRR  HZ EP       1852  2.12                             155    0.5810 66.8 297 
 BRR  HE ES       1852 19.22                             155    0.9310 66.8 297 
 BRR  HZ I        1852 21.20        20.2 0.17                          66.8 297 
 PAM  EZ EP       1852  3.15                             152    0.3510 76.9  43 
 PAM  EN ES       1852 20.60                             152    0.0610 76.9  43 
 PAM  EZ I        1852 23.53        14.2 0.50                          76.9  43 
 RUS  HZ EP       1852  4.41                             144   -0.1810  104 174 
 RUS  HN ES       1852 23.34                             144   -0.3810  104 174 
 RUS  HZ I        1852 24.20         7.0 0.38                           104 174 
 PTB  HZ EP       1852  6.46                             134   -0.79 9  145 257 
 PTB  HN ES       1852 28.03                             134   -0.42 9  145 257 
 PTB  HZ I        1852 32.00        10.3 0.22                           145 257 
 SPBC HZ EP   2   1852  9.29                             130    0.26 5  164 217 
 SPBC HN ES   2   1852 31.86                             130    0.23 5  164 217 
 SPBC HZ I        1852 38.29        19.6 0.09                           164 217 
 NOR  HZ EP       1852 16.47                             120    0.43 8  234 233 
 NOR  HE ES       1852 44.05                             120   -0.05 8  234 233 
 NOR  HZ I        1852 51.82         9.1 0.22                           234 233 
 CHI  HZ EP       1852 17.95                             118   -0.37 8  251 194 
 CHI  HN ES       1852 47.89                             118   -0.28 8  251 194 
 CHI  HZ I        1852 51.37         6.5 0.44                           251 194 
 ROSC BZ EP   9   1852 20.22                             118    1.61 0  254 210 
 ROSC BN ES       1852 50.75                                    0.46 8  254 210 
 ROSC BZ I        1852 54.19        13.4 0.40                           254 210 
 URE  HE ES   2   1852 52.13                             115   -0.66 4  280 291 
 URE  HZ I        1853  2.08         5.8 0.23                           280 291 
 CBOC HZ EP   2   1852 27.81                             111    0.83 3  332 251 
 ANIL HE ES   4   1853 10.95                             109    1.82 0  358 224 
 PRA  HZ EP   2   1852 34.45                             107    0.52 3  393 209 
 PRA  HN ES       1853 16.41                             107    0.46 6  393 209 
 PRA  HZ I        1853 22.55         6.6 0.50                           393 209 
 ORTC HZ EP   2   1852 35.13                             107    0.86 3  396 216 
 ORTC HE ES       1853 17.41                             107    0.86 6  396 216 
 ORTC HZ I        1853 21.69         3.5 0.24                           396 216 
 SJC  HZ EP       1852 34.55                             107   -0.71 6  405 327 
 SJC  HN ES       1853 17.57                             107   -0.75 6  405 327 
 SJC  HZ I        1853 19.56         1.7 0.31                           405 327 
                                                                                
