 2011  2 1 1257  4.6 L   6.328 -73.526113.5  RSN  7 0.3 1.9LRSN                1
 GAP=119        0.60       4.2     3.3  8.0 -0.4467E+01  0.1322E+02 -0.3081E+01E
 Epicentro: CONTRATACION - SANTANDER                                           3
 ACTION:UP  11-03-28 15:05 OP:jfem STATUS:               ID:20110201125705 L   I
 2011-02-01-1240-00M.COL___139                                                 6
 STAT SP IPHASW D HRMM SECON CODA AMPLIT PERI AZIMU VELO SNR AR TRES W  DIS CAZ7
 BAR2 SZ EP       1257 21.46                             156     0.210   48  52 
 BAR2 SZ ES   2   1257 33.81                             156    -0.5 5   48  52 
 RUS  HZ EP       1257 22.95                             147     0.110   69 134 
 RUS  HE ES   2   1257 37.34                             147     0.2 5   69 134 
 RUS  HZ I        1257 39.11         7.0 0.13                            69 134 
 YOP  SZ EP   2   1257 30.78                             120     0.0 5  163 131 
 YOP  SE ES   2   1257 51.31                             120     0.0 5  163 131 
 YOP  SZ I        1257 53.97        23.3 0.26                           163 131 
 NOR  SZ EP       1257 31.10                             119    -0.5 9  171 241 
 NOR  SN ES   1   1257 52.82                             119     0.1 7  171 241 
 GRA  SZ EP   2   1257 33.81                             116     0.1 4  190  25 
 GRA  SZ ES   2   1257 56.24                             116    -0.3 4  190  25 
 GRA  SZ I        1258  1.65         7.7 0.28                           190  25 
 HEL  HZ EP   1   1257 38.07                             112     0.5 6  222 266 
 HEL  HE ES   2   1258  3.52                             112     0.1 4  222 266 
 HEL  HZ I        1258  9.03         7.7 0.55                           222 266 
 RREF HN ES   2   1258 10.80                             109    -0.1 4  256 232 
 RREF HZ I        1258 19.11         5.2 0.34                           256 232 
                                                                                
