 2011 10 1 1222 57.3 L   6.809 -73.065140.9  RSN  6 0.2 1.5LRSN                1
 GAP=147        0.42       3.2     5.3  4.4  0.2275E+01 -0.2477E+01  0.2929E+01E
 Epicentro: LOS SANTOS - SANTANDER                                             3
 ACTION:UPD 12-07-13 16:01 OP:ep   STATUS:               ID:20111001122257 L   I
 2011-10-01-1220-00M.COL___169                                                 6
 STAT SP IPHASW D HRMM SECON CODA AMPLIT PERI AZIMU VELO AIN AR TRES W  DIS CAZ7
 BAR2 SZ EP   1   1223 16.11                             169   -0.33 7 27.2 208 
 BAR2 SZ ES   1   1223 31.52                             169    0.15 7 27.2 208 
 BAR2 SZ I        1223 34.90         5.8 0.65                          27.2 208 
 GIR2 SZ EP   2   1223 16.51                             166    0.05 5 33.1 335 
 PAM  SZ EP   2   1223 18.73                             152    0.09 5 71.2  34 
 PAM  SN ES   2   1223 35.41                             152    0.13 5 71.2  34 
 BRR  HZ EP   2   1223 18.02                             149   -0.37 5 78.8 295 
 BRR  HZ I        1223 22.75         9.2 0.48                          78.8 295 
 BRR  HE ES   1   1223 34.91                             149    0.08 7 78.8 295 
 RUS  HZ EP   1   1223 20.75                             143    0.11 7  101 181 
 RUS  HE ES   1   1223 38.67                             143   -0.17 7  101 181 
 CHI  HZ EP   1   1223 35.46                             116    0.34 6  252 197 
 CHI  HZ I        1224  9.13         2.0 0.65                           252 197 
                                                                                
