 2013  3 1 1607  4.1 L   6.769 -73.163146.6  RSN  8 0.4 1.9LRSN                1
 GAP=136        0.77       3.6     4.6  6.6  0.2202E+01  0.6202E+01  0.3044E+01E
 Epicentro: LOS SANTOS - SANTANDER                                             3
 ACTION:UPD 13-04-09 13:59 OP:ep   STATUS:               ID:20130301160704 L   I
 2013-03-01-1600-00M.COL___228                                                 6
 STAT SP IPHASW D HRMM SECON CODA AMPLIT PERI AZIMU VELO AIN AR TRES W  DIS CAZ7
 BAR2 SZ EP   1   16 7 23.80                             172    0.08 7 19.6 186 
 BAR2 SZ ES   1   16 7 38.65                             172   -0.41 7 19.6 186 
 BAR2 SZ I        16 7 41.57        34.3 0.34            170           19.6 186 
 BRR  HZ EP   1   16 7 25.53                             153    0.23 7 71.3 302 
 BRR  HN ES   1   16 7 42.77                             153    0.90 7 71.3 302 
 BRR  HZ I        16 7 46.64        16.5 0.14            152           71.3 302 
 PAM  SZ EP   1   16 7 26.66                             150    0.06 7 81.3  39 
 PAM  SN ES   1   16 7 43.67                             150   -0.51 7 81.3  39 
 PAM  SZ I        16 7 45.93        19.1 0.46            155           81.3  39 
 RUS  HZ EP   1   16 7 27.52                             145   -0.14 7 97.3 175 
 RUS  HN ES   1   16 7 46.41                             145    0.34 7 97.3 175 
 RUS  HZ I        16 7 47.67        15.1 0.32            146           97.3 175 
 PTB  HZ EP   1   16 7 30.53                             133   -0.34 7  145 260 
 PTB  HN ES   1   16 7 51.46                             133   -0.32 7  145 260 
 PTB  HZ I        16 7 54.55         6.2 0.14            133            145 260 
 ZAR  HN ES   1   16 8  1.30                             123   -0.53 6  204 293 
 ZAR  HZ I        16 8  7.45         5.9 0.29            124            204 293 
 CHI  HZ EP   1   16 7 41.67                             118    0.28 6  245 195 
 CHI  HN ES   1   16 8 10.53                             118    0.02 6  245 195 
 CHI  HZ I        16 8 17.04         6.1 0.36            119            245 195 
 SML  HE ES   1   16 8 10.15                             117    0.36 6  246 336 
                                                                                
