 2014  7 1 1212 30.8 L   6.746 -73.143145.3  RSN  5 0.4 1.6LRSN                1
 GAP=139        1.05       6.2     5.5 11.3 -0.8541E+01  0.2622E+02 -0.2946E+02E
 Epicentro: LOS SANTOS - SANTANDER                                             3
 ACTION:UPD 15-03-16 20:40 OP:nd   STATUS:               ID:20140701121230 L   I
 OLDACT:DUP 14-07-01 21:09 OP:cam  STATUS:               ID:20140701121001d    3
 2014-07-01-1210-00M.COL___279                                                 6
 STAT SP IPHASW D HRMM SECON CODA AMPLIT PERI AZIMU VELO AIN AR TRES W  DIS CAZ7
 PAM  SZ EP       1212 53.59                             149    0.3810 81.9  37 
 PAM  SN ES       1213 10.68                             149   -0.0310 81.9  37 
 PAM  SZ I        1213 12.41         8.0 0.48            150           81.9  37 
 RUS  HE ES       1213 12.02                             145   -0.1810 94.6 176 
 PTB  HZ EP       1212 58.09                             132    0.46 9  147 261 
 PTB  HN ES       1213 18.19                             132   -0.39 9  147 261 
 PTB  HZ I        1213 25.48         2.9 0.36            133            147 261 
 ZAR  HZ EP   4   1213  4.83                             122    1.37 0  207 294 
 ZAR  HN ES       1213 29.40                             122    0.45 8  207 294 
 ZAR  HZ I        1213 31.51         2.8 0.10            122            207 294 
 SML  HZ EP       1213  7.10                             117   -0.88 8  249 336 
 SML  HN ES   4   1213 35.31                             117   -1.69 0  249 336 
 SML  HZ I        1213 45.55         3.8 0.10            118            249 336 
                                                                                
