 2017  1 1 1032 25.2 L   6.811 -73.152145.9  RSN 24 0.5 2.4LRSN                1
 GAP= 65        1.15       3.1     3.5  5.1 -0.4187E+00  0.4885E+01  0.8010E+00E
 Epicentro: LOS SANTOS - SANTANDER                                             3
 ACTION:UPD 17-05-22 15:54 OP:jn   STATUS:               ID:20170101103225 L   I
 OLDACT:DUP 17-01-01 21:16 OP:lv   STATUS:               ID:20170101102742d    3
 2017-01-01-1028-00M.COL___363                                                 6
 STAT SP IPHASW D HRMM SECON CODA AMPLIT PERI AZIMU VELO AIN AR TRES W  DIS CAZ7
 BAR2 EZ EP       1032 44.74                             170   -0.1210 24.4 188 
 BAR2 EZ ES       1032 59.59                             170   -0.6110 24.4 188 
 BAR2 EZ I        1033  1.42        52.1 0.16            169           24.4 188 
 BRR  HZ EP       1032 46.51                             153    0.2310 70.0 298 
 BRR  HN ES       1033  3.60                             153    0.8710 70.0 298 
 BRR  HZ I        1033  7.38        37.2 0.36            149           70.0 298 
 PAM  EZ EP       1032 47.81                             151    0.4210 76.9  41 
 PAM  EN ES       1033  4.72                             151    0.0210 76.9  41 
 PAM  EZ I        1033  6.98        52.0 0.50            153           76.9  41 
 RUS  HZ EP       1032 48.97                             144   -0.0810  102 176 
 RUS  HE ES       1033  7.75                             144    0.1010  102 176 
 RUS  HZ I        1033  8.52        35.3 0.24            145            102 176 
 PTB  HZ EP       1032 51.24                             132   -0.89 9  147 258 
 PTB  HN ES       1033 12.39                             132   -0.74 9  147 258 
 PTB  HZ I        1033 16.10        33.1 0.19            130            147 258 
 TAM  HZ IP     D 1032 53.20                             130    0.23 9  156 105 
 TAM  HN ES   4   1033 13.29                             130   -1.35 0  156 105 
 TAM  HZ I        1033 14.19         9.3 0.45            134            156 105 
 ZAR  HZ EP       1032 57.23                             123   -0.30 9  203 292 
 ZAR  HN ES       1033 22.24                             123   -0.51 9  203 292 
 ZAR  HZ I        1033 32.09        19.6 0.32            121            203 292 
 NOR  HZ EP       1033  0.91                             119   -0.03 8  235 234 
 NOR  HN ES       1033 29.22                             119    0.40 8  235 234 
 NOR  HZ I        1033 33.43        22.3 0.24            118            235 234 
 CHI  HZ EP       1033  2.97                             117   -0.03 8  250 195 
 CHI  HE ES       1033 32.55                             117    0.05 8  250 195 
 CHI  HZ I        1033 35.54        16.5 0.42            117            250 195 
 ROSC BZ EP   9   1033  5.14                             117    1.75 0  253 211 
 ROSC BN ES       1033 35.90                                    0.97 8  253 211 
 ROSC BZ I        1033 39.40        18.2 0.45            117            253 211 
 URE  HZ EP       1033  5.35                             114   -0.79 7  283 292 
 URE  HN ES   4   1033 35.59                             114   -2.49 0  283 292 
 URE  HZ I        1033 49.29        13.7 0.18            113            283 292 
 GUY2CHZ EP   4   1033 10.15                             112    1.33 0  301 235 
 GUY2CHE ES       1033 43.53                             112    0.68 7  301 235 
 GUY2CHZ  IAML    1033 50.87        13.6 0.31                           301 235 
 VIL  EZ EP       1033  8.41                             112   -0.32 7  304 191 
 VIL  EN ES       1033 42.90                             112    0.20 7  304 191 
 VIL  EZ I        1033 45.73        19.6 0.38            112            304 191 
 LL1C HN ES   4   1033 44.88                             112    2.35 0  305 352 
 PTGC HZ EP   9   1033  8.00                             112   -1.21 0  310 159 
 PTGC HE ES       1033 41.60                                   -0.74 7  310 159 
 PTGC HZ I        1033 46.24        18.4 0.26            113            310 159 
 CBOC HZ EP       1033 13.01                             110    0.94 7  333 252 
 CBOC HN ES       1033 49.05                             110    0.41 7  333 252 
 CBOC HZ I        1034  4.41         4.9 0.47            110            333 252 
 DBB  EZ EP       1033 12.16                             110   -0.42 7  339 274 
 DBB  EN ES   4   1033 46.97                             110   -2.57 0  339 274 
 DBB  EZ I        1033 50.69         7.1 0.16            109            339 274 
 ARGC HZ EP       1033 15.03                             108    0.34 6  358 340 
 ARGC HN ES       1033 54.08                             108    0.78 6  358 340 
 ARGC HZ I        1034  5.17         5.0 0.26            108            358 340 
 ANIL HZ EP   9   1033 16.52                             108    1.48 0  358 224 
 ANIL HN ES       1033 55.93                                    0.53 6  358 224 
 ORTC HZ EP       1033 18.72                             106   -0.46 6  396 216 
 ORTC HN ES   4   1034  2.68                             106    1.39 0  396 216 
 ORTC HZ I        1034  6.28         6.4 0.39            106            396 216 
 APAC HZ EP   4   1033 18.25                             106   -1.01 0  397 288 
 APAC HN ES       1034  1.60                             106    0.17 6  397 288 
 APAC HZ I        1034  5.70         6.3 0.38            106            397 288 
 PAL  HZ EP       1033 19.74                             106   -0.62 6  406 239 
 PAL  HE ES       1034  4.35                             106    0.97 6  406 239 
 PAL  HZ I        1034  7.27         4.5 0.35            106            406 239 
 SJC  HZ EP   4   1033 18.95                             106   -1.64 0  408 327 
 SJC  HN ES   4   1034  0.24                             106   -3.56 0  408 327 
 SJC  HZ I        1034  7.64         4.9 0.36            106            408 327 
 CRJC HZ EP   9   1033 25.20                             103   -2.35 0  466   4 
 CRJC HN ES       1034 13.46                                   -0.38 5  466   4 
 CRJC HZ I        1034 17.22         5.5 0.21            104            466   4 
 MACC HZ EP   4   1033 31.65                             102   -2.39 0  522 189 
 MACC HE ES   4   1034 22.86                             102   -4.88 0  522 189 
 MACC HZ I        1034 30.44         3.4 0.41            102            522 189 
                                                                                
