 2013  5 1 1711 21.6 L   6.948 -72.905179.9  RSN 10 0.5 2.1LRSN                1
 GAP=162        1.08       5.0     5.5  6.2 -0.1876E+01  0.9311E+01 -0.2937E+01E
 Epicentro: SANTA BARBARA - SANTANDER                                          3
 ACTION:UPD 13-06-20 09:47 OP:ep   STATUS:               ID:20130501171121 L   I
 2013-05-01-1710-00M.COL___253                                                 6
 STAT SP IPHASW D HRMM SECON CODA AMPLIT PERI AZIMU VELO AIN AR TRES W  DIS CAZ7
 PAM  SZ EP       1711 46.55                             164    0.2410 48.9  28 
 PAM  SN ES       1712  5.37                             164   -0.2410 48.9  28 
 PAM  SZ I        1712  7.51         9.1 0.30            166           48.9  28 
 BAR2 SZ EP       1711 45.48                             164   -0.4910 49.9 218 
 BAR2 SZ ES       1712  4.81                             164   -0.2010 49.9 218 
 BRR  HZ EP       1711 48.05                             152    0.5510 90.9 281 
 BRR  HE ES       1712  8.57                             152    0.8310 90.9 281 
 BRR  HZ I        1712 12.86        25.1 0.16            150           90.9 281 
 RUS  HZ EP       1711 50.22                             145    0.2710  118 190 
 RUS  HN ES       1712 11.95                             145   -0.1510  118 190 
 RUS  HZ I        1712 13.23        10.6 0.42            147            118 190 
 PTB  HZ EP       1711 53.94                             133   -0.06 9  177 255 
 PTB  HN ES       1712 18.71                             133   -0.59 9  177 255 
 PTB  HZ I        1712 20.92        17.3 0.14            133            177 255 
 ZAR  HZ EP   1   1711 58.29                             126   -0.07 6  224 286 
 ZAR  HN ES   1   1712 27.66                             126    0.60 6  224 286 
 SML  HZ EP   1   1712  0.02                             124   -0.11 6  242 328 
 SML  HN ES   1   1712 29.29                             124   -0.93 6  242 328 
 NOR  HZ EP       1712  2.90                             121    0.24 8  266 235 
 NOR  HN ES   1   1712 33.79                             121   -0.93 6  266 235 
 NOR  HZ I        1712 36.57         7.9 0.40            122            266 235 
 HEL  HZ EP       1712  7.55                             118    0.66 7  302 254 
 HEL  HN ES   1   1712 42.20                             118   -0.06 5  302 254 
 HEL  HZ I        1712 49.59         6.4 0.36            119            302 254 
 URE  HZ EP   4   1712  5.58                             118   -1.01 0  303 287 
 URE  HN ES   4   1712 39.46                             118   -2.26 0  303 287 
 SJC  HZ EP       1712 17.76                             111   -0.89 6  411 323 
 SJC  HE ES   4   1713  0.09                             111   -3.09 0  411 323 
                                                                                
