 2016 12 1 1655 35.5 L   6.828 -73.133153.8  RSN 22 0.5 2.8LRSN                1
 GAP= 86        1.06       3.2     3.9  5.0 -0.2489E+01  0.4715E+01  0.1955E+01E
 Epicentro: LOS SANTOS - SANTANDER                                             3
 ACTION:UPD 17-01-11 20:11 OP:rebc STATUS:               ID:20161201165535 L   I
 OLDACT:REG 16-12-01 21:06 OP:lv   STATUS:               ID:20161201164745     3
 2016-12-01-1648-00M.COL___330                                                 6
 STAT SP IPHASW D HRMM SECON CODA AMPLIT PERI AZIMU VELO AIN AR TRES W  DIS CAZ7
 BAR2 EZ IP     C 1655 55.99                             170   -0.1310 26.6 192 
 BAR2 EZ ES       1656 11.50                             170   -0.7410 26.6 192 
 BAR2 EZ I        1656 12.63       149.3 0.23            165           26.6 192 
 BRR  HZ EP       1655 57.87                             154    0.4010 71.0 296 
 BRR  HN ES       1656 15.32                             154    0.6810 71.0 296 
 BRR  HZ I        1656 17.82        76.9 0.24            151           71.0 296 
 PAM  EZ IP     D 1655 58.79                             153    0.4410 74.1  40 
 PAM  EN ES       1656 16.12                             153   -0.0910 74.1  40 
 PAM  EZ I        1656 18.23        75.5 0.22            160           74.1  40 
 PTB  HZ EP       1656  2.85                             133   -0.41 9  150 258 
 PTB  HN ES   4   1656 23.72                             133   -1.23 0  150 258 
 PTB  HZ I        1656 29.95        86.2 0.16            132            150 258 
 TAM  HZ EP       1656  4.12                             132    0.38 9  155 106 
 TAM  HE ES   4   1656 24.30                             132   -1.50 0  155 106 
 TAM  HZ I        1656 25.02        52.4 0.40            138            155 106 
 ZAR  HZ EP       1656  8.57                             124    0.12 9  204 291 
 ZAR  HN ES       1656 34.75                             124    0.56 9  204 291 
 ZAR  HZ I        1656 41.63        77.4 0.32            124            204 291 
 NOR  HZ EP       1656 11.73                             120   -0.24 8  238 234 
 NOR  HN ES       1656 39.91                             120   -0.54 8  238 234 
 NOR  HZ I        1656 43.84        69.3 0.32            120            238 234 
 CHI  HZ EP       1656 13.91                             118   -0.06 8  252 195 
 CHI  HN ES       1656 43.62                             118   -0.39 8  252 195 
 ROSC BZ EP   9   1656 15.51                             118    1.12 0  256 211 
 ROSC BE ES       1656 46.46                                    0.59 8  256 211 
 ROSC BZ I        1656 53.74        85.5 0.35            118            256 211 
 URE  HZ EP       1656 16.20                             115   -0.75 7  284 291 
 URE  HN ES   4   1656 48.21                             115   -1.09 0  284 291 
 URE  HZ I        1656 59.08        30.4 0.18            116            284 291 
 PTGC HZ EP   4   1656 18.76                             113   -1.19 0  311 159 
 PTGC HE ES   4   1656 52.32                             113   -2.34 0  311 159 
 LL6C HZ EP   9   1656  1.19                             112   -20.0 0  322 357 
 LL6C HN ES       1656 36.23                                   -0.61 7  322 357 
 LL6C HZ I        1656 39.10        11.8 0.31            114            322 357 
 ELA  HZ EP   4   1656 25.32                             111    2.32 0  332 229 
 ELA  HE ES   4   1657  1.47                             111    1.38 0  332 229 
 ELA  HZ I        1657  7.34        26.0 0.38            112            332 229 
 CBOC HZ EP       1656 23.97                             111    1.00 7  336 252 
 CBOC HE ES       1656 59.78                             111   -0.25 7  336 252 
 CBOC HZ I        1657  4.23        11.1 0.18            112            336 252 
 ARGC HZ EP       1656 25.28                             110    0.13 6  357 340 
 ARGC HE ES       1657  3.01                             110   -0.90 6  357 340 
 ANIL HZ EP   9   1656 26.98                             110    1.03 0  360 224 
 ANIL HN ES       1657  6.55                                    0.19 6  360 224 
 PRA  HZ EP       1656 29.33                             108   -0.33 6  395 210 
 PRA  HN ES       1657 11.73                             108   -0.20 6  395 210 
 ORTC HZ EP       1656 30.90                             107    0.85 6  399 216 
 ORTC HN ES       1657 13.19                             107    0.57 6  399 216 
 ORTC HZ I        1657 18.91        20.2 0.47            108            399 216 
 SJC  HZ EP       1656 30.25                             107   -0.83 6  407 327 
 SJC  HN ES   4   1657 11.27                             107   -3.20 0  407 327 
 SJC  HZ I        1657 24.71        10.4 0.40            108            407 327 
 PAL  HZ EP       1656 31.68                             107    0.46 6  408 239 
 PAL  HE ES       1657 14.82                             107    0.11 6  408 239 
 PAL  HZ I        1657 26.53        13.3 0.48            108            408 239 
 CRJC HZ EP   9   1656 36.02                             105   -1.80 0  464   3 
 CRJC HN ES       1657 23.60                                   -1.06 5  464   3 
 CRJC HZ I        1657 29.59        15.8 0.26            107            464   3 
 SMAR HZ EP       1656 41.34                             104    0.11 4  494 346 
 SMAR HN ES   4   1657 27.65                             104   -4.88 0  494 346 
 GARC HZ EP       1656 50.48                             101   -0.82 3  576 207 
 GARC HN ES   4   1657 45.83                             101   -4.62 0  576 207 
 GARC HZ I        1657 48.63         9.2 0.24            102            576 207 
                                                                                
