 2015  4 1 1526 56.7 L   6.781 -73.146134.6  RSN 12 0.5 2.1LRSN                1
 GAP= 87        1.19       4.1     3.8  6.7 -0.3748E+01  0.8071E+01  0.3138E+01E
 Epicentro: LOS SANTOS - SANTANDER                                             3
 ACTION:UPD 15-06-03 16:51 OP:cam  STATUS:               ID:20150401152656 L   I
 OLDACT:REG 15-04-01 20:27 OP:fm   STATUS:               ID:20150401151749     3
 2015-04-01-1517-49M.COL___271                                                 6
 STAT SP IPHASW D HRMM SECON CODA AMPLIT PERI AZIMU VELO AIN AR TRES W  DIS CAZ7
 BAR2 EZ IP     C 1527 15.33                             171    0.3710 21.3 191 
 BAR2 EZ ES       1527 29.18                             171   -0.0110 21.3 191 
 BAR2 EZ I        1527 31.26        24.3 0.14            171           21.3 191 
 BRR  HZ IP     C 1527 17.21                             150    0.4910 72.2 300 
 BRR  HE ES       1527 32.81                             150    0.4810 72.2 300 
 BRR  HZ I        1527 39.51        18.4 0.14            147           72.2 300 
 PAM  SZ EP       1527 18.35                             148    0.4910 79.0  39 
 PAM  SN ES       1527 34.67                             148    0.3210 79.0  39 
 PAM  SZ I        1527 36.53        23.8 0.18            150           79.0  39 
 PTB  HZ EP       1527 22.00                             129   -0.75 9  147 260 
 PTB  HE ES       1527 42.52                             129   -0.54 9  147 260 
 PTB  HZ I        1527 45.45        21.5 0.20            130            147 260 
 TAM  HN ES       1527 44.01                             128   -0.35 9  155 104 
 SPBC HZ EP       1527 24.44                             127    0.22 9  162 219 
 SPBC HE ES       1527 44.91                             127   -0.76 9  162 219 
 SPBC HZ I        1527 49.51        15.8 0.10            129            162 219 
 OCA  HE ES       1527 44.83                             127   -1.13 9  162 353 
 OCA  HZ I        1527 49.47        27.0 0.26            127            162 353 
 ZAR  HZ EP       1527 28.67                             120    0.14 9  205 293 
 ZAR  HN ES       1527 53.74                             120    0.39 9  205 293 
 ZAR  HZ I        1528  1.49        14.4 0.42            120            205 293 
 NOR  HZ EP       1527 31.35                             116   -0.33 8  233 235 
 NOR  HE ES       1527 58.85                             116   -0.11 8  233 235 
 NOR  HZ I        1528  5.07        17.5 0.20            118            233 235 
 SML  HZ EP       1527 32.68                             115   -0.26 8  246 336 
 SML  HN ES   4   1527 59.54                             115   -1.66 0  246 336 
 SML  HZ I        1528  9.82        15.0 0.26            116            246 336 
 GUY2CHZ EP       1527 39.96                             110    0.27 7  300 235 
 GUY2CHE ES       1528 13.80                             110    0.59 7  300 235 
 GUY2CHZ I        1528 20.86         5.3 0.32                           300 235 
 CBOC HZ EP   1   1527 43.31                             108    0.20 5  333 252 
 CBOC HE ES       1528 19.84                             108    0.54 7  333 252 
 CBOC HZ I        1528 28.03         2.8 0.30            109            333 252 
                                                                                
