 2013  3 1 1027  6.4 L   6.764 -73.139145.2  RSN  9 0.5 2.2LRSN                1
 GAP=157        0.93       5.0     5.3  7.6 -0.7231E+01  0.1194E+02 -0.5001E+01E
 Epicentro: LOS SANTOS - SANTANDER                                             3
 ACTION:UPD 13-04-09 13:59 OP:ep   STATUS:               ID:20130301102706 L   I
 2013-03-01-1020-00M.COL___228                                                 6
 STAT SP IPHASW D HRMM SECON CODA AMPLIT PERI AZIMU VELO AIN AR TRES W  DIS CAZ7
 BAR2 SZ EP   1   1027 26.11                             172    0.18 7 19.6 194 
 BAR2 SZ ES   1   1027 40.72                             172   -0.41 7 19.6 194 
 BAR2 SZ I        1027 42.44        73.8 0.24            169           19.6 194 
 BRR  HZ EP     C 1027 27.99                             152    0.3210 73.8 301 
 BRR  HN ES   1   1027 44.70                             152    0.46 7 73.8 301 
 BRR  HZ I        1027 48.31        22.2 0.17            148           73.8 301 
 PAM  SZ EP   1   1027 29.08                             150    0.33 7 80.0  37 
 PAM  SN ES   1   1027 45.91                             150   -0.24 7 80.0  37 
 PAM  SZ I        1027 48.08        31.2 0.50            154           80.0  37 
 PTB  HZ EP       1027 32.74                             132   -0.62 9  148 260 
 PTB  HN ES   1   1027 53.63                             132   -0.73 7  148 260 
 PTB  HZ I        1027 59.21        12.6 0.19            131            148 260 
 OCA  HZ EP   1   1027 34.66                             129   -0.42 7  164 353 
 OCA  HN ES   1   1027 58.03                             129    0.61 7  164 353 
 OCA  HZ I        1028  0.84        13.8 0.20            130            164 353 
 ZAR  HZ EP   1   1027 39.53                             122    0.46 6  206 293 
 ZAR  HE ES   1   1028  4.86                             122    0.33 6  206 293 
 ZAR  HZ I        1028  9.89        18.8 0.40            122            206 293 
 CHI  HN ES   2   1028 13.76                             117    0.98 4  245 196 
 SML  HZ EP   1   1027 43.01                             117   -0.44 6  248 336 
 SML  HN ES   1   1028 11.74                             117   -0.59 6  248 336 
 HEL  HN ES   1   1028 18.53                             115    0.61 6  272 257 
 HEL  HZ I        1028 26.97         4.5 0.23            116            272 257 
 URE  HN ES   4   1028 17.24                             113   -2.69 0  286 293 
                                                                                
