 2011  5 1 1645 31.1 L   6.847 -72.993145.0  RSN  4 0.2 1.5LRSN                1
 GAP=226        0.40      12.9    14.5  7.6  0.1600E+03 -0.6739E+02 -0.5280E+02E
 Epicentro: CEPITA - SANTANDER                                                 3
 ACTION:UP  11-06-29 08:50 OP:tino STATUS:               ID:20110501164531 L   I
 2011-05-01-1643-10S.COL___129                                                 6
 STAT SP IPHASW D HRMM SECON CODA AMPLIT PERI AZIMU VELO SNR AR TRES W  DIS CAZ7
 GIR2 SZ EP   3   1645 50.93                             166     0.1 2   34 319 
 GIR2 SZ ES   3   1646  6.44                             166     0.3 2   34 319 
 BAR2 SZ EP       1645 51.05                             166     0.110   35 217 
 BAR2 SZ I        1645 51.61         7.0 0.33                            35 217 
 BAR2 SZ ES   2   1646  6.05                             166    -0.4 5   35 217 
 BRR  HZ EP       1645 52.92                             148    -0.110   85 290 
 BRR  HZ I        1645 53.20         5.4 0.22                            85 290 
 BRR  HN ES   1   1646 10.17                             148     0.1 7   85 290 
 RUS  HN ES   3   1646 14.36                             142     0.4 2  106 185 
                                                                                
