 2013  7 1 1713 51.9 L   6.870 -73.303121.1  RSN 22 0.5 2.9LRSN 3.4WRSN        1
 SPEC AVERAGE  MO 14.1 ST  8.9 OM  2.7 f0 3.54 R0.4507 AL 2.96 WI 21.9 MW  3.4 3
 SPEC SD       MO  0.3 ST  6.4 OM  0.4 f00.593 R0.0743 AL      WI      MW  0.2 3
 GAP= 54        1.01       2.5     2.8  4.8  0.2942E+00  0.3697E+01  0.2834E+01E
 Epicentro: BETULIA - SANTANDER                                                3
 SPEC ZAR HH E MO 14.3 ST 18.1 OM  2.6 f0 4.13 R0.3763 AL 2.72 WI 28.9 MW  3.5 3
 SPEC ZAR HH E T171442 K 0.000 GD  221 VS 4.20 DE 3.20 Q0300.0 QA 0.60 VS 4.20 3
 SPECGUY2CHH N MO 13.9 ST  1.4 OM 2.05 f0 2.38 R0.6532 AL 2.27 WI 32.6 MW  3.2 3
 SPECGUY2CHH N T1715 2 K 0.000 GD  316 VS 4.20 DE 3.20 Q0300.0 QA 0.60 VS 4.20 3
 SPEC VIL SH N MO 14.5 ST  6.4 OM  2.6 f0 2.56 R0.6070 AL 2.61 WI 26.7 MW  3.6 3
 SPEC VIL SH N T1715 5 K 0.000 GD  330 VS 4.20 DE 3.20 Q0300.0 QA 0.60 VS 4.20 3
 SPEC TAM HH N MO 13.9 ST  2.7 OM  2.2 f0 3.02 R0.5146 AL 2.73 WI 16.9 MW  3.2 3
 SPEC TAM HH N T171440 K 0.000 GD  211 VS 4.20 DE 3.20 Q0300.0 QA 0.60 VS 4.20 3
 SPEC YOP SH N MO 14.5 ST  9.9 OM  2.7 f0 3.10 R0.5013 AL 2.85 WI 32.5 MW  3.6 3
 SPEC YOP SH N T171442 K 0.000 GD  228 VS 4.20 DE 3.20 Q0300.0 QA 0.60 VS 4.20 3
 SPEC PTB HH N MO 13.9 ST  4.8 OM  2.3 f0 3.58 R0.4341 AL 2.64 WI 39.0 MW  3.2 3
 SPEC PTB HH N T171424 K 0.000 GD  179 VS 4.20 DE 3.20 Q0300.0 QA 0.60 VS 4.20 3
 SPEC RUS HH N MO 13.7 ST  3.0 OM  2.1 f0 3.66 R0.4246 AL 2.99 WI  7.5 MW  3.1 3
 SPEC RUS HH N T171431 K 0.000 GD  164 VS 4.20 DE 3.20 Q0300.0 QA 0.60 VS 4.20 3
 SPEC HEL HH N MO 13.8 ST  2.6 OM  2.0 f0 3.17 R0.4902 AL 2.64 WI 19.4 MW  3.2 3
 SPEC HEL HH N T171457 K 0.000 GD  284 VS 4.20 DE 3.20 Q0300.0 QA 0.60 VS 4.20 3
 SPEC OCA HH Z MO 14.1 ST 13.8 OM  2.4 f0 4.60 R0.3378 AL 2.67 WI 21.1 MW  3.3 3
 SPEC OCA HH Z T171435 K 0.000 GD  193 VS 4.20 DE 3.20 Q0300.0 QA 0.60 VS 4.20 3
 SPEC PAM SH N MO 14.3 ST 10.2 OM  2.7 f0 3.62 R0.4293 AL 3.52 WI 16.7 MW  3.5 3
 SPEC PAM SH N T171427 K 0.000 GD  147 VS 4.20 DE 3.20 Q0300.0 QA 0.60 VS 4.20 3
 SPEC CHI HH N MO 14.2 ST  6.3 OM  2.4 f0 3.14 R0.4949 AL 3.11 WI 26.1 MW  3.4 3
 SPEC CHI HH N T171453 K 0.000 GD  279 VS 4.20 DE 3.20 Q0300.0 QA 0.60 VS 4.20 3
 SPEC BRR HH N MO 14.3 ST 22.7 OM  2.8 f0 4.54 R0.3423 AL 4.45 WI 16.0 MW  3.5 3
 SPEC BRR HH N T171422 K 0.000 GD  131 VS 4.20 DE 3.20 Q0300.0 QA 0.60 VS 4.20 3
 SPEC BAR2SH Z MO 14.1 ST  5.8 OM  2.6 f0 3.41 R0.4557 AL 2.54 WI 11.7 MW  3.3 3
 SPEC BAR2SH Z T171420 K 0.000 GD  125 VS 4.20 DE 3.20 Q0300.0 QA 0.60 VS 4.20 3
 ACTION:UPD 13-08-12 10:34 OP:ep   STATUS:               ID:20130701171351 L   I
 OLDACT:UP  13-07-01 16:06 OP:jn   STATUS:               ID:20130701170959     3
 OLDACT:REG 13-07-01 14:30 OP:jn   STATUS:               ID:20130701170959     3
 2013-07-01-1709-59M.COL___267                                                 6
 STAT SP IPHASW D HRMM SECON CODA AMPLIT PERI AZIMU VELO AIN AR TRES W  DIS CAZ7
 GIR2 SZ EP       1714  8.52                             167    0.0310 26.1  28 
 BAR2 SZ IP     C 1714  8.92                             164    0.0610 33.4 157 
 BAR2 SZ ES       1714 21.97                             164   -0.1310 33.4 157 
 BAR2 SZ I        1714 23.46       821.5 0.24            162           33.4 157 
 BRR  HZ IP     C 1714  9.32                             155   -0.0010 52.3 300 
 BRR  HN ES       1714 23.48                             155    0.5610 52.3 300 
 BRR  HZ I        1714 26.80       175.4 0.22            152           52.3 300 
 PAM  SZ EP       1714 12.45                             143    0.3910 84.5  52 
 PAM  SN ES       1714 27.73                             143   -0.0610 84.5  52 
 PAM  SZ I        1714 32.49       189.4 0.42            140           84.5  52 
 RUS  HZ EP       1714 13.58                             135   -0.5810  111 167 
 RUS  HE ES   1   1714 31.23                             135   -0.30 7  111 167 
 RUS  HZ I        1714 33.40        54.6 0.30            131            111 167 
 PTB  HZ EP     C 1714 14.25                             129   -1.2510  133 254 
 PTB  HN ES   1   1714 33.97                             129    0.05 7  133 254 
 PTB  HZ I        1714 36.09       116.4 0.40            125            133 254 
 OCA  HZ EP   1   1714 17.04                             125   -0.48 7  151 359 
 OCA  HE ES   1   1714 37.19                             125   -0.32 7  151 359 
 OCA  HZ I        1714 42.73       173.2 0.22            121            151 359 
 TAM  HZ IP     D 1714 19.84                             121    0.17 9  174 106 
 TAM  HN ES   1   1714 40.96                             121   -0.39 7  174 106 
 TAM  HZ I        1714 46.74        42.6 0.36            117            174 106 
 ZAR  HZ EP       1714 20.60                             119   -0.21 9  185 292 
 ZAR  HE ES   1   1714 44.20                             119    0.84 7  185 292 
 ZAR  HZ I        1714 46.66       146.2 0.38            115            185 292 
 YOP  SZ EP       1714 22.20                             118    0.31 9  194 150 
 YOP  SN ES   1   1714 45.96                             118    0.66 6  194 150 
 YOP  SZ I        1714 47.02       163.3 0.52            114            194 150 
 NOR  HN EP   1   1714 25.50                             114    0.20 6  226 230 
 SML  HE ES   1   1714 52.23                             113    0.17 6  230 338 
 ROSC BN ES   1   1714 57.10                             111   -0.14 6  251 207 
 CHI  HZ EP   1   1714 29.00                             111    0.24 6  252 191 
 CHI  HE ES   1   1714 57.74                             111    0.23 6  252 191 
 CHI  HZ I        1715  2.96        31.5 0.52            108            252 191 
 HEL  HZ EP       1714 29.99                             111    0.70 8  257 253 
 HEL  HN ES   1   1714 58.01                             111   -0.45 6  257 253 
 HEL  HZ I        1715  3.27        39.9 0.30            107            257 253 
 GUY2CHZ EP   1   1714 33.64                             108    0.24 5  292 232 
 GUY2CHN ES   1   1715  4.66                             108   -1.12 5  292 232 
 GUY2CHZ I        1715  9.90        25.9 0.58                           292 232 
 VIL  SZ EP   1   1714 35.76                             107    0.92 5  308 188 
 VIL  SN ES   1   1715  7.61                             107   -0.74 5  308 188 
 VIL  SZ I        1715 11.14        54.8 0.50            103            308 188 
 RREF HZ EP   1   1714 35.77                             106   -0.41 5  314 226 
 RREF HN ES   1   1715 11.79                             106    1.06 5  314 226 
 RREF HZ I        1715 18.72        23.8 0.26            103            314 226 
 DBB  SZ EP   1   1714 36.28                             106   -0.10 5  322 273 
 ARGC HZ EP   1   1714 40.13                             104    0.93 5  346 343 
 ARGC HN ES   1   1715 15.47                             104   -0.64 5  346 343 
 ARGC HZ I        1715 26.39        25.0 0.22            101            346 343 
 PRA  HZ EP   1   1714 44.96                             102    0.46 4  391 207 
 PRA  HZ I        1715 32.44        23.3 0.62             99            391 207 
 ORTC HZ EP   1   1714 44.78                             102    0.13 4  392 213 
 ORTC HN ES   1   1715 26.21                             102    0.41 4  392 213 
                                                                                
