 2013  6 1 1919 25.9 L   6.785 -73.155142.2  RSN  6 0.6 1.9LRSN                1
 GAP=136        1.57       8.2     8.3 12.9 -0.9201E+01 -0.6853E+01  0.2478E+02E
 Epicentro: LOS SANTOS - SANTANDER                                             3
 ACTION:UPD 14-01-08 09:51 OP:ep   STATUS:               ID:20130601191925 L   I
 2013-06-01-1918-49M.COL___221                                                 6
 STAT SP IPHASW D HRMM SECON CODA AMPLIT PERI AZIMU VELO AIN AR TRES W  DIS CAZ7
 BAR2 SZ EP       1919 45.08                             171   -0.0210 21.6 188 
 GIR2 SZ EP       1919 44.73                             166   -0.4910 32.7 353 
 GIR2 SZ ES       1919 59.17                             166   -1.1010 32.7 353 
 BRR  HZ EP       1919 46.86                             152    0.1710 71.1 300 
 BRR  HN ES       1920  4.03                             152    1.1510 71.1 300 
 BRR  HE I        1920  4.55        25.6 0.24            153           71.1 300 
 PAM  SZ EP       1919 48.35                             149    0.4610 79.3  39 
 PAM  SN ES       1920  5.11                             149    0.1010 79.3  39 
 PAM  SE I        1920  7.75        10.8 0.36            149           79.3  39 
 RUS  HZ EP       1919 48.98                             143   -0.2410 99.0 175 
 RUS  HN ES       1920  7.82                             143    0.4310 99.0 175 
 PTB  HN ES       1920 12.68                             131   -0.52 9  146 259 
                                                                                
