 2014 10 1 1824 55.3 L   6.828 -73.149146.7  RSN 13 0.5 2.3LRSN                1
 GAP=135        1.19       3.4     4.8  6.0 -0.7143E+00  0.7790E+01  0.1287E+01E
 Epicentro: LOS SANTOS - SANTANDER                                             3
 ACTION:UPD 14-11-29 23:45 OP:nd   STATUS:               ID:20141001182455 L   I
 OLDACT:UP  14-10-02 00:31 OP:cam  STATUS:               ID:20141001182001d    3
 OLDACT:DUP 14-10-02 00:25 OP:cam  STATUS:               ID:20141001182001d    3
 OLDACT:UP  14-10-02 00:25 OP:cam  STATUS:               ID:20141001182000     3
 OLDACT:REG 14-10-01 22:36 OP:cam  STATUS:               ID:20141001182000     3
 2014-10-01-1820-00M.COL___252                                                 6
 STAT SP IPHASW D HRMM SECON CODA AMPLIT PERI AZIMU VELO AIN AR TRES W  DIS CAZ7
 BAR2 SZ EP     D 1825 15.18                             169    0.0210 26.4 188 
 BAR2 SZ ES       1825 29.98                             169   -0.6310 26.4 188 
 BAR2 SZ I        1825 31.48        65.6 0.16            169           26.4 188 
 BRR  HZ EP       1825 16.98                             153    0.4810 69.4 296 
 BRR  HE ES       1825 33.87                             153    0.8710 69.4 296 
 BRR  HZ I        1825 37.53        61.6 0.36            154           69.4 296 
 PAM  SZ EP       1825 17.89                             152    0.3510 75.2  41 
 PAM  SN ES       1825 35.08                             152    0.2310 75.2  41 
 PAM  SZ I        1825 37.78        25.1 0.58            154           75.2  41 
 RUS  HZ EP       1825 19.17                             143   -0.2510  104 176 
 RUS  HN ES       1825 37.93                             143   -0.2710  104 176 
 RUS  HZ I        1825 39.19        21.1 0.26            144            104 176 
 PTB  HZ EP     D 1825 22.06                             132   -0.35 9  148 258 
 PTB  HN ES       1825 42.78                             132   -0.75 9  148 258 
 PTB  HZ I        1825 45.16        28.5 0.16            133            148 258 
 SPBC HZ EP     C 1825 24.18                             129    0.05 9  165 218 
 SPBC HE ES       1825 46.79                             129    0.21 9  165 218 
 SPBC HZ I        1825 52.20        31.1 0.18            130            165 218 
 ZAR  HE ES       1825 53.62                             123    0.69 9  203 291 
 SML  HZ EP       1825 31.69                             118   -0.01 8  241 335 
 SML  HE ES       1825 59.10                             118   -0.95 8  241 335 
 SML  HZ I        1826  3.34        35.3 0.10            120            241 335 
 CHI  HZ EP       1825 33.46                             117    0.05 8  252 195 
 CHI  HN ES       1826  3.36                             117    0.25 8  252 195 
 CHI  HZ I        1826  9.92        10.6 0.44            118            252 195 
 GUY2CHZ EP       1825 39.33                             112    0.16 7  303 234 
 GUY2CHN ES       1826 12.72                             112   -0.63 7  303 234 
 GUY2CHZ I        1826 20.96         9.0 0.24                           303 234 
 CBOC HZ EP       1825 43.24                             110    0.87 7  334 252 
 PRA  HZ EP       1825 49.19                             107   -0.00 6  395 209 
 SJC  HZ EP       1825 49.62                             106   -0.98 6  406 327 
 SJC  HN ES   4   1826 30.72                             106   -2.98 0  406 327 
 SJC  HZ I        1826 32.97         3.4 0.24            107            406 327 
                                                                                
