 2014  1 1 1103 36.2 L   6.811 -73.169143.9  RSN  9 0.4 1.9LRSN                1
 GAP=133        0.77       3.1     4.1  7.0 -0.1763E+01  0.1238E+02 -0.4311E+01E
 Epicentro: LOS SANTOS - SANTANDER                                             3
 ACTION:UPD 14-03-13 09:50 OP:ep   STATUS:               ID:20140101110337dL   I
 OLDACT:REG 14-01-01 15:32 OP:mh   STATUS:               ID:20140101110000     3
 2014-01-01-1100-00M.COL___285                                                 6
 STAT SP IPHASW D HRMM SECON CODA AMPLIT PERI AZIMU VELO AIN AR TRES W  DIS CAZ7
 BAR2 SZ EP       11 3 55.61                             170    0.0310 24.3 183 
 BAR2 SZ ES   1   11 4 11.04                             170    0.31 7 24.3 183 
 BAR2 SZ I        11 4 12.61        16.7 0.15            168           24.3 183 
 PAM  SZ EP       11 3 58.42                             150    0.2010 78.1  42 
 PAM  SE ES       11 4 15.65                             150    0.2310 78.1  42 
 RUS  HZ EP   1   11 3 59.91                             143    0.08 7  102 175 
 RUS  HN ES   1   11 4 17.74                             143   -0.55 7  102 175 
 RUS  HZ I        11 4 19.46         6.9 0.24            146            102 175 
 PTB  HZ EP   1   11 4  2.52                             132   -0.24 7  145 258 
 PTB  HN ES   1   11 4 23.05                             132   -0.46 7  145 258 
 OCA  HN ES   1   11 4 25.42                             129   -0.61 7  159 354 
 OCA  HZ I        11 4 31.52         8.2 0.22            131            159 354 
 ZAR  HZ EP   1   11 4  8.87                             122    0.69 6  201 292 
 ZAR  HN ES   1   11 4 33.69                             122    0.53 6  201 292 
 ZAR  HZ I        11 4 40.69         8.2 0.22            122            201 292 
 NOR  HN ES   1   11 4 39.45                             118    0.16 6  233 234 
 NOR  HZ I        11 4 44.91         5.3 0.38            119            233 234 
 SML  HZ EP   1   11 4 11.87                             117   -0.56 6  241 336 
 SML  HN ES       11 4 40.57                             117   -0.16 8  241 336 
 SML  HZ I        11 4 44.21        16.2 0.09            118            241 336 
 HEL  HZ EP   4   11 4 18.34                             115    2.32 0  270 255 
 HEL  HN ES   4   11 4 48.91                             115    1.79 0  270 255 
 HEL  HZ I        11 4 55.96         2.5 0.29            115            270 255 
                                                                                
