 2015  2 1 1611 50.9 L   6.817 -73.105143.0  RSN  5 0.4 1.6LRSN                1
 GAP=204        0.99       5.4     7.3  8.4  0.1298E+02  0.1424E+02 -0.1338E+02E
 Epicentro: LOS SANTOS - SANTANDER                                             3
 ACTION:UPD 15-04-30 21:20 OP:nd   STATUS:               ID:20150201161150 L   I
 OLDACT:REG 15-02-01 20:31 OP:cam  STATUS:               ID:20150201160820     3
 2015-02-01-1608-20M.COL___262                                                 6
 STAT SP IPHASW D HRMM SECON CODA AMPLIT PERI AZIMU VELO AIN AR TRES W  DIS CAZ7
 BAR2 EZ EP       1612 10.54                             169    0.2310 26.3 199 
 BAR2 EZ ES       1612 25.01                             169   -0.4010 26.3 199 
 BAR2 EZ I        1612 26.71        14.2 0.22            171           26.3 199 
 RUS  HZ EP       1612 14.73                             143    0.1810  102 179 
 RUS  HZ I        1612 15.51         3.8 0.16            144            102 179 
 RUS  HN ES       1612 33.40                             143    0.4410  102 179 
 SPBC HZ EP       1612 19.61                             128   -0.03 9  168 220 
 SPBC HN ES       1612 41.32                             128   -0.71 9  168 220 
 ZAR  HZ EP       1612 23.43                             121   -0.14 8  208 291 
 ZAR  HZ I        1612 25.77         2.9 0.30            121            208 291 
 ZAR  HE ES       1612 49.73                             121    0.71 8  208 291 
 SML  HZ EP   1   1612 26.88                             117   -0.56 6  244 334 
 SML  HN ES   2   1612 55.56                             117   -0.34 4  244 334 
 SML  HZ I        1612 57.66         5.4 0.24            116            244 334 
                                                                                
