 2015  4 1 1049  6.1 L   6.735 -73.121135.7  RSN  5 0.4 1.4LRSN                1
 GAP=169        0.81       6.0     4.9  7.1 -0.6268E+01  0.6492E+01 -0.6838E+01E
 Epicentro: JORDAN - SANTANDER                                                 3
 ACTION:UPD 15-06-03 16:51 OP:cam  STATUS:               ID:20150401104906 L   I
 OLDACT:REG 15-04-01 20:15 OP:fm   STATUS:               ID:20150401104748     3
 2015-04-01-1047-48M.COL___271                                                 6
 STAT SP IPHASW D HRMM SECON CODA AMPLIT PERI AZIMU VELO AIN AR TRES W  DIS CAZ7
 BAR2 EZ EP       1049 24.57                             172    0.1910 17.2 203 
 BAR2 EZ ES       1049 38.43                             172   -0.2210 17.2 203 
 BAR2 EZ I        1049 40.56         5.7 0.20            171           17.2 203 
 BRR  HZ EP       1049 26.30                             148   -0.2110 77.2 302 
 BRR  HN ES       1049 42.79                             148    0.3410 77.2 302 
 BRR  HZ I        1049 49.30         5.0 0.38            144           77.2 302 
 PAM  SZ EP   1   1049 28.22                             147    0.73 7 81.5  35 
 PAM  SN ES   1   1049 43.76                             147   -0.43 7 81.5  35 
 PAM  SZ I        1049 46.10         6.6 0.52            147           81.5  35 
 PTB  HZ EP   1   1049 31.86                             129   -0.52 7  149 262 
 PTB  HN ES       1049 52.98                             129    0.08 9  149 262 
 PTB  HZ I        1049 55.83         2.3 0.40            130            149 262 
 SML  HE ES   1   1050 11.58                             114   -0.23 6  251 335 
 SML  HZ I        1050 17.75         2.6 0.30            115            251 335 
                                                                                
