 2010  5 1 1649 19.3 L   5.828 -73.675116.3  RSN  6 0.5 1.9LRSN                1
 GAP=150        0.87       3.7     8.3 12.5 -0.1323E+02  0.4793E+02 -0.2999E+01E
 Epicentro: PUENTE NACIONAL - SANTANDER                                        3
 ACTION:UP  10-08-24 10:02 OP:vdl  STATUS:               ID:20100501164919 L   I
 2010-05-01-1645-58S.COL___105                                                 6
 STAT SP IPHASW D HRMM SECON CODA AMPLIT PERI AZIMU VELO SNR AR TRES W  DIS CAZ7
 BAR2 SZ EP   1   1649 39.33                             136    -0.6 8  100  33 
 BAR2 SZ ES   1   1649 55.77                             136    -0.2 8  100  33 
 CHI  HZ EP   2   1649 43.08                             128     0.0 5  133 183 
 CHI  HZ I        1649 43.67         8.7 0.21                           133 183 
 CHI  HE ES   1   1650  1.90                             128     0.2 8  133 183 
 BRR  HZ IP     C 1649 43.41                             125     0.010  142 358 
 BRR  HZ I        1650  1.04        13.7 0.48                           142 358 
 BRR  HN ES   1   1650  2.61                             125     0.4 7  142 358 
 HEL  HZ EP   2   1649 50.19                             115    -0.9 4  209 281 
 HEL  HE ES   2   1650 15.84                             115     0.0 4  209 281 
 HEL  HZ I        1650 20.71         6.2 0.36                           209 281 
 OCA  SZ EP   2   1649 58.72                             108     1.1 4  269   8 
 OCA  SZ ES   2   1650 28.48                             108     1.0 4  269   8 
 OCA  SZ I        1650 33.76         7.6 0.20                           269   8 
 PRA  HZ EP   1   1649 57.22                             108    -0.3 6  270 210 
 PRA  HN ES   1   1650 27.67                             108     0.4 6  270 210 
 PRA  HZ I        1650 32.04         5.5 0.25                           270 210 
                                                                                
