 2016 11 1 1639 15.6 L   5.942 -73.644124.0  RSN  9 0.5 1.7LRSN                1
 GAP= 89        1.17       3.5     4.0  7.2 -0.2166E+01  0.3326E+01 -0.2448E+01E
 Epicentro: BARBOSA - SANTANDER                                                3
 ACTION:UPD 17-10-26 21:03 OP:lp   STATUS:               ID:20161101163915 L   I
 OLDACT:REG 16-11-01 21:13 OP:cog  STATUS:               ID:20161101163747     3
 2016-11-01-1638-00M.COL___331                                                 6
 STAT SP IPHASW D HRMM SECON CODA AMPLIT PERI AZIMU VELO AIN AR TRES W  DIS CAZ7
 SPBC HZ EP       1639 33.58                             154   -0.1210 57.2 236 
 SPBC HE ES       1639 48.34                             154    0.4910 57.2 236 
 SPBC HZ I        1639 49.87        23.7 0.18            154           57.2 236 
 RUS  HZ EP       1639 34.48                             152   -0.0910 62.4  95 
 RUS  HE ES       1639 48.85                             152   -0.5510 62.4  95 
 RUS  HZ I        1639 50.06        11.2 0.20            153           62.4  95 
 PTB  HZ EP       1639 36.80                             135   -0.7010  112 306 
 PTB  HE ES       1639 53.75                             135   -0.8610  112 306 
 PTB  HZ I        1639 56.64        11.2 0.14            135            112 306 
 NOR  HZ EP       1639 40.12                             128   -0.22 9  142 253 
 NOR  HE ES       1640  0.32                             128    0.66 9  142 253 
 NOR  HZ I        1640  3.12        11.0 0.11            128            142 253 
 CHI  HZ EP       1639 41.21                             127    0.06 9  145 184 
 CHI  HN ES       1640  1.31                             127    0.20 9  145 184 
 CHI  HZ I        1640  3.23         4.5 0.38            129            145 184 
 PAM  EZ EP       1639 45.68                             120    0.24 9  187  34 
 PAM  EN ES       1640  9.62                             120    0.88 9  187  34 
 PAM  EZ I        1640 14.65         3.6 0.28            121            187  34 
 GUY2CHZ EP   3   1639 47.95                             117    0.39 2  206 247 
 GUY2CHN ES   3   1640 13.78                             117    1.27 2  206 247 
 GUY2CHZ I        1640 16.73         5.5 0.38                           206 247 
 ZAR  HZ EP       1639 47.93                             115   -0.26 8  218 322 
 ZAR  HE ES       1640 14.33                             115    0.70 8  218 322 
 ZAR  HZ I        1640 17.26         4.8 0.17            116            218 322 
 ORTC HZ EP       1639 55.88                             109   -0.13 7  286 218 
 ORTC HE ES       1640 27.54                             109   -0.02 7  286 218 
 ORTC HZ I        1640 30.99         3.8 0.14            110            286 218 
                                                                                
