 2012  5 1 1809 46.5 L   6.704 -73.214151.6  RSN  4 0.2 1.4LRSN                1
 GAP=215        0.51       8.6     5.7 10.2  0.2260E+01 -0.1841E+02  0.4744E+02E
 Epicentro: VILLANUEVA - SANTANDER                                             3
 ACTION:UP  12-07-05 12:01 OP:pat  STATUS:               ID:20120501180946 L   I
 2012-05-01-1810-00M.COL___189                                                 6
 STAT SP IPHASW D HRMM SECON CODA AMPLIT PERI AZIMU VELO SNR AR TRES W  DIS CAZ7
 BAR2 SZ EP   1   1810  6.34                             175    -0.3 7   13 164 
 BAR2 SZ I        1810 22.72         5.5 0.13                            13 164 
 BRR  HZ EP   1   1810  8.38                             154     0.1 7   71 309 
 BRR  HN ES   1   1810 25.32                             154     0.1 7   71 309 
 BRR  HZ I        1810 27.53        22.4 0.44                            71 309 
 RUS  HZ EP   1   1810 10.38                             148     0.2 7   91 171 
 RUS  HZ I        1810 29.48         1.3 0.33                            91 171 
 PTB  HZ EP   1   1810 13.12                             135     0.0 7  139 263 
 PTB  HN ES   1   1810 33.88                             135    -0.1 7  139 263 
 PTB  HZ I        1810 36.82         2.8 0.17                           139 263 
                                                                                
