 2011  7 1 1316 23.2 L   6.772 -73.109143.0  RSN 12 0.3 2.2LRSN                1
 GAP=143        0.56       2.5     3.5  3.2 -0.3605E+01  0.1385E+01  0.1303E+01E
 Epicentro: LOS SANTOS - SANTANDER                                             3
 ACTION:UPD 12-07-25 13:57 OP:epov STATUS:               ID:20110701131623 L   I
 2011-07-01-1315-28S.COL___140                                                 6
 STAT SP IPHASW D HRMM SECON CODA AMPLIT PERI AZIMU VELO AIN AR TRES W  DIS CAZ7
 BAR2 SZ EP       1316 42.35                             171   -0.1110 21.5 202 
 BAR2 SZ ES   1   1316 57.23                             171   -0.26 7 21.5 202 
 BAR2 SZ I        1316 58.65        48.1 0.31                          21.5 202 
 BTL  SZ ES   1   1316 58.21                             170    0.64 7 23.8 313 
 GIR2 SZ EP       1316 42.44                             165   -0.2210 35.1 345 
 GIR2 SZ ES   1   1316 57.54                             165   -0.29 7 35.1 345 
 BRR  HZ EP       1316 44.25                             150   -0.1010 76.2 299 
 BRR  HN ES   1   1317  1.12                             150    0.28 7 76.2 299 
 BRR  HZ I        1317  5.42        37.4 0.13                          76.2 299 
 PAM  SZ EP       1316 45.26                             150    0.1410 77.3  36 
 RUS  HZ EP       1316 46.56                             144    0.1110 97.3 178 
 RUS  HN ES   1   1317  4.62                             144    0.04 7 97.3 178 
 RUS  HZ I        1317  6.07        24.3 0.29                          97.3 178 
 BRI  SZ EP       1316 47.06                             140    0.1110  110  18 
 GRA  SZ EP       1316 48.32                             136   -0.0310  128  15 
 GRA  SZ ES   1   1317  7.74                             136   -0.23 7  128  15 
 GRA  SZ I        1317  9.23        18.8 0.35                           128  15 
 NOR  SZ EP       1316 58.67                             118   -0.27 8  236 236 
 NOR  SN ES   2   1317 25.97                             118   -0.85 4  236 236 
 CHI  HZ EP       1317  0.52                             117   -0.03 8  247 196 
 CHI  HN ES   3   1317 29.80                             117    0.13 2  247 196 
 CHI  HZ I        1317 37.99         5.4 0.52                           247 196 
 HEL  HZ EP       1317  3.98                             114    0.35 8  275 257 
 HEL  HN ES   2   1317 34.80                             114   -0.37 4  275 257 
 HEL  HZ I        1317 42.23        12.2 0.34                           275 257 
 RREF HZ EP       1317  9.64                             110    0.29 7  323 230 
 RREF HN ES   2   1317 45.67                             110    0.32 3  323 230 
 RREF HZ I        1317 53.01         6.8 0.28                           323 230 
                                                                                
