 2011  5 1 1504 38.8 L   6.792 -73.122141.2  RSN 14 0.4 2.3LRSN                1
 GAP=116        0.98       3.8     5.9  6.7 -0.6927E+01  0.1325E+02  0.4517E+01E
 Epicentro: LOS SANTOS - SANTANDER                                             3
 ACTION:UP  11-06-29 08:50 OP:tino STATUS:               ID:20110501150438 L   I
 2011-05-01-1502-30S.COL___128                                                 6
 STAT SP IPHASW D HRMM SECON CODA AMPLIT PERI AZIMU VELO SNR AR TRES W  DIS CAZ7
 BAR2 SZ IP       15 4 57.82                             170     0.010   23 197 
 BAR2 SZ ES   1   15 5 12.69                             170     0.0 7   23 197 
 BAR2 SZ I        15 5 14.13        42.3 0.13                            23 197 
 BRR  HZ IP     C 15 4 59.70                             151     0.110   74 298 
 BRR  HZ I        15 5  0.04        52.1 0.11                            74 298 
 BRR  HN ES   2   15 5 16.38                             151     0.6 5   74 298 
 PAM  SZ IP     C 15 5  0.79                             150     0.310   76  38 
 PAM  SZ I        15 5  0.92        24.9 0.19                            76  38 
 PAM  SN ES   1   15 5 17.75                             150     0.4 7   76  38 
 RUS  HZ EP       15 5  1.89                             143    -0.110  100 178 
 RUS  HN ES   2   15 5 20.09                             143     0.0 5  100 178 
 RUS  HZ I        15 5 22.20        20.7 0.33                           100 178 
 BRI  SZ IP       15 5  2.50                             140     0.310  108  19 
 BRI  SZ ES   1   15 5 19.88                             140    -0.6 7  108  19 
 BRI  SZ I        15 5 23.09        27.9 0.51                           108  19 
 GRA  SZ IP       15 5  3.71                             136     0.110  126  16 
 GRA  SZ ES   1   15 5 22.80                             136    -0.2 7  126  16 
 GRA  SZ I        15 5 24.38        24.8 0.39                           126  16 
 OCA  SZ EP       15 5  6.08                             128    -0.8 9  161 352 
 OCA  SZ I        15 5 31.34        17.9 0.12                           161 352 
 YOP  SZ EP       15 5  8.22                             125    -0.1 9  177 154 
 YOP  SN ES   2   15 5 30.92                             125    -0.4 4  177 154 
 YOP  SZ I        15 5 36.18         9.2 0.53                           177 154 
 NOR  SZ EP       15 5 14.36                             117    -0.1 8  236 235 
 NOR  SN ES   2   15 5 40.59                             117    -1.6 4  236 235 
 HEL  HZ EP       15 5 19.56                             113     0.5 8  274 256 
 HEL  HZ I        15 5 56.87        11.8 0.37                           274 256 
 GUY  SZ EP       15 5 22.72                             111     0.1 7  305 235 
 GUY  SZ I        15 6  3.33        10.9 0.23                           305 235 
 RREF HN ES   2   15 6  1.45                             110     0.6 3  323 230 
 RREF HZ I        15 6  6.05         7.6 0.76                           323 230 
 PRA  HZ EP       15 5 32.26                             106     0.1 6  393 210 
 PRA  HZ I        15 6 18.89        25.0 0.15                           393 210 
 SJA  SZ EP   3   15 5 33.38                             105     0.2 1  400 193 
                                                                                
