 2010 10 1 1328 42.6 L   6.687 -73.229143.7  RSN  4 0.4 1.6LRSN                1
 GAP=164        0.89      17.3    26.6 13.2  0.3819E+03 -0.1358E+03 -0.7953E+02E
 Epicentro: BARICHARA - SANTANDER                                              3
 ACTION:UP  11-02-18 11:06 OP:tino STATUS:               ID:20101001132842 L   I
 2010-10-01-1326-05S.COL___125                                                 6
 STAT SP IPHASW D HRMM SECON CODA AMPLIT PERI AZIMU VELO SNR AR TRES W  DIS CAZ7
 BAR2 SZ EP   1   1329  1.33                             175    -0.5 7   12 155 
 BAR2 SZ ES   2   1329 16.48                             175    -0.3 5   12 155 
 BAR2 SZ I        1329 18.10        10.5 0.28                            12 155 
 BTL  SZ EP       1329  2.52                             169     0.510   26 351 
 BRR  HZ EP       1329  3.19                             152    -0.310   71 311 
 BRR  HZ I        1329  3.45        12.0 0.14                            71 311 
 BRR  HN ES   1   1329 20.04                             152     0.2 7   71 311 
 RUS  HZ EP   2   1329  5.72                             147     0.3 5   89 170 
 RUS  HE ES   2   1329 23.19                             147     0.1 5   89 170 
 RUS  HZ I        1329 24.81         4.2 0.56                            89 170 
                                                                                
