 2012  1 1 1437 13.2 L   7.298 -73.174134.1  RSN  6 0.3 1.5LRSN                1
 GAP= 96        0.62       6.9     4.9  8.7 -0.8990E+01  0.1321E+02 -0.9998E+01E
 Epicentro: RIONEGRO - SANTANDER                                               3
 ACTION:UP  12-02-03 08:12 OP:REBC STATUS:               ID:20120101143713 L   I
 2012-01-01-1430-00M.COL___187                                                 6
 STAT SP IPHASW D HRMM SECON CODA AMPLIT PERI AZIMU VELO SNR AR TRES W  DIS CAZ7
 PAM  SZ EP   1   1437 32.95                             158     0.2 7   53  85 
 PAM  SN ES   2   1437 48.01                             158     0.0 5   53  85 
 PAM  SZ I        1437 50.47         3.7 0.36                            53  85 
 BRR  HZ EP       1437 32.67                             153     0.110   63 251 
 BRR  HN ES   2   1437 47.88                             153     0.1 5   63 251 
 BRR  HZ I        1437 48.80        13.0 0.11                            63 251 
 BAR2 SZ EP   1   1437 33.27                             148    -0.5 7   78 181 
 BAR2 SZ I        1437 52.50         4.8 0.15                            78 181 
 OCA  SZ EP   1   1437 35.65                             139     0.0 7  105 351 
 OCA  SZ I        1437 36.58         8.5 0.50                           105 351 
 PTB  HZ EP   1   1437 41.25                             126     0.4 7  165 239 
 PTB  HN ES   2   1438  2.44                             126     0.0 5  165 239 
 ZAR  HZ EP   1   1437 43.06                             122     0.0 7  187 277 
 ZAR  HN ES   2   1438  6.03                             122    -0.4 4  187 277 
 ZAR  HZ I        1438  7.30         5.1 0.25                           187 277 
                                                                                
