 2016  6 1 1146 39.8 L   6.808 -73.138144.2  RSN  9 0.5 2.2LRSN                1
 GAP= 71        1.24       4.3     3.8  6.9 -0.6019E-01  0.5385E+01 -0.4051E+00E
 Epicentro: LOS SANTOS - SANTANDER                                             3
 ACTION:UPD 16-07-21 22:14 OP:rebc STATUS:               ID:20160601114639 L   I
 OLDACT:REG 16-06-01 20:21 OP:ar   STATUS:               ID:20160601113745     3
 2016-06-01-1137-45M.COL___307                                                 6
 STAT SP IPHASW D HRMM SECON CODA AMPLIT PERI AZIMU VELO AIN AR TRES W  DIS CAZ7
 BAR2 EZ EP       1146 59.40                             170    0.0910 24.4 192 
 BAR2 EZ ES       1147 14.32                             170   -0.1710 24.4 192 
 BAR2 EZ I        1147 15.31        27.8 0.30                          24.4 192 
 BRR  HZ IP       1147  1.34                             152    0.5010 71.5 298 
 BRR  HN ES       1147 17.88                             152    0.6610 71.5 298 
 BRR  HZ I        1147 22.72        22.3 0.14                          71.5 298 
 PAM  EZ EP       1147  2.20                             151    0.3810 76.1  39 
 PAM  EN ES       1147 19.07                             151    0.1110 76.1  39 
 PAM  EZ I        1147 19.98        16.8 0.32                          76.1  39 
 RUS  HZ EP       1147  3.85                             143    0.3510  101 177 
 RUS  HN ES       1147 21.75                             143   -0.2110  101 177 
 RUS  HZ I        1147 22.64        17.2 0.28                           101 177 
 PTB  HZ EP       1147  6.00                             131   -0.78 9  149 259 
 PTB  HN ES       1147 27.43                             131   -0.36 9  149 259 
 PTB  HZ I        1147 29.74        19.1 0.16                           149 259 
 TAM  HZ EP       1147  7.35                             130    0.01 9  154 105 
 TAM  HE ES       1147 27.86                             130   -0.93 9  154 105 
 TAM  HZ I        1147 28.06        17.1 0.34                           154 105 
 OCA  HZ EP       1147  8.64                             129    0.68 9  159 353 
 OCA  HN ES       1147 29.51                             129   -0.37 9  159 353 
 OCA  HZ I        1147 34.09        33.2 0.24                           159 353 
 NOR  HZ EP       1147 15.97                             118    0.35 8  236 234 
 NOR  HN ES       1147 44.02                             118    0.50 8  236 234 
 NOR  HZ I        1147 49.60        16.1 0.20                           236 234 
 URE  HZ EP       1147 20.46                             113   -0.43 7  284 292 
 URE  HN ES       1147 51.95                             113   -0.96 7  284 292 
 URE  HZ I        1148  4.06        13.4 0.22                           284 292 
                                                                                
