 2013  2 1 1811 19.0 L   6.554 -73.437118.7  RSN  5 0.4 1.6LRSN                1
 GAP=117        0.94       4.7     6.1 10.6  0.5392E+01  0.2125E+02  0.9861E+01E
 Epicentro: HATO - SANTANDER                                                   3
 ACTION:UPD 13-03-12 09:29 OP:ep   STATUS:               ID:20130201181119 L   I
 2013-02-01-1808-50M.COL___192                                                 6
 STAT SP IPHASW D HRMM SECON CODA AMPLIT PERI AZIMU VELO AIN AR TRES W  DIS CAZ7
 BAR2 SZ EP       1811 35.73                             166    0.2310 28.5  81 
 BAR2 SZ I        1811 49.98         9.1 0.50            158           28.5  81 
 BRR  HZ EP       1811 37.19                             148    0.1210 68.3 334 
 BRR  HN ES       1811 51.48                             148    0.2810 68.3 334 
 BRR  HN I        1811 52.06        14.6 0.22            146           68.3 334 
 RUS  HZ EP       1811 39.29                             143    0.5010 83.0 152 
 RUS  HN ES       1811 53.96                             143   -0.2910 83.0 152 
 PTB  HZ EP       1811 40.01                             133   -0.5510  113 269 
 PAM  SN ES       1811 59.22                             132   -0.3410  119  43 
                                                                                
