 2016  7 1 1727 48.9 L   6.881 -73.193156.0  RSN  7 0.5 1.9LRSN                1
 GAP=127        1.31      11.1    14.0  9.3 -0.1009E+03  0.1352E+01  0.2233E+02E
 Epicentro: BETULIA - SANTANDER                                                3
 ACTION:UPD 17-03-29 16:45 OP:lp   STATUS:               ID:20160701172748 L   I
 OLDACT:UP  16-07-02 00:01 OP:ar   STATUS:               ID:20160701171745d    3
 OLDACT:UP  16-07-01 23:53 OP:ar   STATUS:               ID:20160701171745d    3
 OLDACT:UP  16-07-01 23:48 OP:ar   STATUS:               ID:20160701171745d    3
 OLDACT:DUP 16-07-01 23:35 OP:ar   STATUS:               ID:20160701171745d    3
 2016-07-01-1717-44M.COL___343                                                 6
 STAT SP IPHASW D HRMM SECON CODA AMPLIT PERI AZIMU VELO AIN AR TRES W  DIS CAZ7
 BAR2 EZ EP       1728 10.61                             168    0.6510 32.0 178 
 BAR2 EZ ES       1728 26.44                             168    0.0610 32.0 178 
 BAR2 EZ I        1728 26.76         9.1 0.34            168           32.0 178 
 BRR  HZ EP   9   1728 12.61                             157    1.88 0 62.6 294 
 BRR  HE ES       1728 30.01                             161    0.3710 62.6 294 
 BRR  HZ I        1728 32.05        12.6 0.36            154           62.6 294 
 PAM  EN ES       1728 29.77                             154   -0.3310 74.4  47 
 PAM  EZ I        1728 32.76        12.3 0.23            159           74.4  47 
 RUS  HZ EP       1728 14.94                             143    0.6010  110 174 
 RUS  HE ES       1728 33.94                             143   -0.2410  110 174 
 RUS  HZ I        1728 34.58         6.3 0.48            147            110 174 
 PTB  HZ EP   4   1728 17.50                             135    1.04 0  145 255 
 PTB  HN ES   4   1728 38.94                             135    0.99 0  145 255 
 PTB  HZ I        1728 44.44         8.1 0.62            135            145 255 
 SPBC HZ EP       1728 17.54                             131   -1.03 9  167 216 
 SPBC HN ES       1728 41.86                             131    0.14 9  167 216 
 SPBC HZ I        1728 46.64        18.5 0.22            132            167 216 
 ZAR  HZ EP   4   1728 14.10                             126   -7.13 0  196 290 
 ZAR  HE ES   4   1728 43.00                             126   -3.44 0  196 290 
 ZAR  HZ I        1728 45.79         8.9 0.62            127            196 290 
                                                                                
