 2012 12 1 1747 16.9 L   6.795 -73.157146.3  RSN  8 0.2 1.9LRSN                1
 GAP=135        0.51       2.3     3.0  5.3  0.6838E+00  0.4706E+01 -0.1455E+01E
 Epicentro: LOS SANTOS - SANTANDER                                             3
 ACTION:UPD 13-01-04 14:25 OP:ep   STATUS:               ID:20121201174716 L   I
 2012-12-01-1740-00M.COL___236                                                 6
 STAT SP IPHASW D HRMM SECON CODA AMPLIT PERI AZIMU VELO AIN AR TRES W  DIS CAZ7
 BAR2 SZ EP       1747 36.70                             171    0.1210 22.6 187 
 BAR2 SZ I        1747 54.81        21.0 0.33                          22.6 187 
 GIR2 SZ EP   1   1747 36.98                             167    0.33 7 31.6 353 
 PAM  SZ EP   1   1747 39.33                             150    0.09 7 78.5  40 
 PAM  SN ES   1   1747 56.81                             150    0.14 7 78.5  40 
 PAM  SZ I        1747 58.93         6.8 0.62                          78.5  40 
 RUS  HZ EP   1   1747 40.56                             144   -0.12 7  100 175 
 RUS  HE ES   1   1747 58.81                             144   -0.41 7  100 175 
 RUS  HE I        1748  0.83        10.3 0.24                           100 175 
 PTB  HZ EP       1747 43.70                             132   -0.10 9  146 259 
 PTB  HN ES   1   1748  4.82                             132    0.04 7  146 259 
 PTB  HZ I        1748  6.76        12.0 0.16                           146 259 
 ZAR  HN ES   1   1748 14.88                             123    0.33 6  203 292 
 ZAR  HZ I        1748 21.83        11.2 0.47                           203 292 
 SML  HZ EP       1747 53.42                             118   -0.14 8  244 336 
 SML  HN ES       1748 21.80                             118   -0.34 8  244 336 
 CHI  HZ EP   1   1747 54.82                             117    0.28 6  248 195 
                                                                                
