 2013  8 1 1935 56.9 L   6.474 -73.367157.1  RSN  4 0.5 1.3LRSN                1
 GAP=182        0.90      11.2    10.6 13.1  0.8586E+02  0.3646E+02  0.2676E+02E
 Epicentro: SIMACOTA - SANTANDER                                               3
 ACTION:UPD 14-01-14 08:58 OP:ep   STATUS:               ID:20130801193556 L   I
 OLDACT:UP  13-08-01 20:44 OP:cam  STATUS:               ID:20130801192848     3
 OLDACT:REG 13-08-01 18:48 OP:cam  STATUS:               ID:20130801192848     3
 2013-08-01-1928-48M.COL___243                                                 6
 STAT SP IPHASW D HRMM SECON CODA AMPLIT PERI AZIMU VELO AIN AR TRES W  DIS CAZ7
 RUS  HZ EP   1   1936 19.99                             155   -0.06 7 71.6 154 
 RUS  HN ES   1   1936 37.67                             155   -0.41 7 71.6 154 
 RUS  HZ I        1936 39.17         2.8 0.24            153           71.6 154 
 BRR  HN ES   1   1936 38.02                             152    0.42 7 79.7 331 
 PTB  HZ EP   1   1936 23.06                             140    0.46 7  121 273 
 PTB  HN ES   1   1936 42.93                             140    0.31 7  121 273 
 PTB  HZ I        1936 46.24         3.5 0.24            139            121 273 
 ZAR  HN ES   1   1936 54.31                             125   -0.92 6  200 304 
                                                                                
