 2017 11 1 1219 42.7 L   6.766 -73.111145.4  RSN 11 0.4 1.9LRSN                1
 GAP=123        0.67       2.7     3.2  4.3 -0.4463E+00  0.3157E+01  0.3603E+01E
 Epicentro: LOS SANTOS - SANTANDER                                             3
 ACTION:UPD 17-12-12 19:50 OP:rebc STATUS:               ID:20171101121942 L   I
 OLDACT:UP  17-11-01 23:23 OP:mg   STATUS:               ID:20171101121742     3
 OLDACT:UP  17-11-01 23:22 OP:mg   STATUS:               ID:20171101121742     3
 OLDACT:UP  17-11-01 23:21 OP:mg   STATUS:               ID:20171101121742     3
 OLDACT:REG 17-11-01 20:07 OP:mg   STATUS:               ID:20171101121742     3
 2017-11-01-1218-00M.COL___417                                                 6
 STAT SP IPHASW D HRMM SECON CODA AMPLIT PERI AZIMU VELO AIN AR TRES W  DIS CAZ7
 BAR2 EZ EP       1220  2.18                             171   -0.0710 20.7 202 
 BAR2 EZ ES   2   1220 16.71                             171   -0.78 5 20.7 202 
 BAR2 EZ I        1220 18.28        20.7 0.34            169           20.7 202 
 BRR  HZ EP       1220  4.09                             151   -0.0310 76.4 300 
 BRR  HN ES       1220 21.14                             151    0.3210 76.4 300 
 BRR  HZ I        1220 21.83        10.3 0.11            152           76.4 300 
 PAM  EZ EP     C 1220  5.03                             151    0.1010 78.1  36 
 PAM  EN ES       1220 22.23                             151   -0.0310 78.1  36 
 PAM  EZ I        1220 24.40        13.4 0.54            153           78.1  36 
 RUS  HZ EP     D 1220  6.07                             145   -0.0710 96.6 178 
 RUS  HN ES       1220 24.65                             145    0.2310 96.6 178 
 RUS  HZ I        1220 25.99         9.3 0.27            144           96.6 178 
 PTB  HZ EP   1   1220  9.39                             131   -0.54 7  151 261 
 PTB  HE ES   1   1220 30.73                             131   -0.43 7  151 261 
 PTB  HZ I        1220 32.88         5.3 0.13            132            151 261 
 ZAR  HZ EP       1220 15.87                             122    0.22 8  209 293 
 ZAR  HN ES   2   1220 40.81                             122   -0.53 4  209 293 
 ZAR  HZ I        1220 42.72         7.8 0.12            123            209 293 
 NOR  HZ EP   1   1220 18.24                             118   -0.29 6  236 236 
 NOR  HN ES   1   1220 46.56                             118    0.10 6  236 236 
 NOR  HZ I        1220 47.48         2.9 0.10            119            236 236 
 CHI  HZ EP   1   1220 20.26                             117    0.15 6  246 196 
 CHI  HN ES   1   1220 49.67                             117    0.40 6  246 196 
 CHI  HZ I        1220 53.76         4.9 0.47            118            246 196 
 GUY2CHZ EP   1   1220 27.25                             112    0.83 5  302 236 
 GUY2CHZ I        1221  8.44         3.6 0.34                           302 236 
 PTGC HZ EP   1   1220 25.23                             112   -0.76 5  304 159 
 PTGC HN ES   3   1220 58.54                             112   -1.21 2  304 159 
 PTGC HZ I        1221  1.56         9.5 0.51            112            304 159 
 PRA  HZ EP   1   1220 36.47                             107    0.41 4  391 210 
 PRA  HN ES       1221 17.60                             107   -0.07 6  391 210 
 PRA  HZ I        1221 24.63         4.7 0.36            107            391 210 
                                                                                
