 2017  5 1 1027  2.7 L   6.690 -73.285162.9  RSN  4 0.2 1.2LRSN                1
 GAP=211        0.51       4.4     4.2  5.0  0.1215E+02 -0.3497E+00 -0.9718E+00E
 Epicentro: GALAN - SANTANDER                                                  3
 ACTION:UPD 17-06-16 13:31 OP:jn   STATUS:               ID:20170501102702 L   I
 OLDACT:UP  17-05-01 21:00 OP:edw  STATUS:               ID:20170501101743d    3
 OLDACT:DUP 17-05-01 20:57 OP:edw  STATUS:               ID:20170501101743d    3
 2017-05-01-1018-00M.COL___368                                                 6
 STAT SP IPHASW D HRMM SECON CODA AMPLIT PERI AZIMU VELO AIN AR TRES W  DIS CAZ7
 BRR  HZ EP       1027 25.79                             157    0.2910 66.0 314 
 BRR  HE ES       1027 43.07                             157   -0.1910 66.0 314 
 BRR  HZ I        1027 51.42         5.8 0.66            157           66.0 314 
 RUS  HZ EP       1027 27.52                             150   -0.0710 90.9 166 
 RUS  HN ES       1027 47.03                             150    0.0610 90.9 166 
 RUS  HZ I        1027 47.70         1.2 0.70            157           90.9 166 
 PTB  HZ EP       1027 29.47                             139   -0.2610  131 263 
 PTB  HN ES       1027 50.90                             139    0.1110  131 263 
 PTB  HZ I        1027 57.31         1.3 0.46            143            131 263 
 ZAR  HN ES       1028  1.08                             127    0.06 9  195 297 
                                                                                
