 2012  8 1 1904 59.6 L   6.812 -73.157143.5  RSN  5 0.4 1.8LRSN                1
 GAP=135        0.53       5.7     5.6  9.0  0.3698E+01 -0.1840E+02 -0.4863E+01E
 Epicentro: LOS SANTOS - SANTANDER                                             3
 ACTION:UPD 12-09-10 11:53 OP:ep   STATUS:               ID:20120801190459 L   I
 2012-08-01-1900-00M.COL___215                                                 6
 STAT SP IPHASW D HRMM SECON CODA AMPLIT PERI AZIMU VELO AIN AR TRES W  DIS CAZ7
 BAR2 SZ EP       19 5 18.95                             170   -0.0510 24.4 187 
 BAR2 SZ I        19 5 35.34       106.1 1.06                          24.4 187 
 BRR  HZ EP       19 5 20.72                             153    0.2910 69.5 298 
 BRR  HN ES   1   19 5 36.76                             153    0.10 7 69.5 298 
 BRR  HZ I        19 5 38.93        12.2 0.44                          69.5 298 
 PAM  SZ EP   1   19 5 21.39                             150   -0.19 7 77.2  41 
 PAM  SN ES   3   19 5 37.81                             150   -0.91 2 77.2  41 
 PAM  SZ I        19 5 40.60        10.8 0.48                          77.2  41 
 RUS  HZ EP   3   19 5 23.12                             143   -0.13 2  102 175 
 RUS  HZ I        19 5 24.25         2.8 0.22                           102 175 
 RUS  HN ES   2   19 5 41.93                             143    0.24 5  102 175 
 PTB  HZ EP   3   19 5 25.70                             132   -0.62 2  147 258 
 PTB  HN ES   2   19 5 46.48                             132   -0.66 5  147 258 
 PTB  HZ I        19 5 52.36         4.5 0.50                           147 258 
                                                                                
