 2014 12 1 1322  2.6 L   6.793 -73.150146.0  RSN 12 0.5 1.8LRSN                1
 GAP=136        1.08       4.5     4.6  7.3 -0.1124E+01  0.3944E+01  0.7198E+01E
 Epicentro: LOS SANTOS - SANTANDER                                             3
 ACTION:UPD 15-02-10 16:59 OP:nd   STATUS:               ID:20141201132202 L   I
 OLDACT:DUP 14-12-02 01:23 OP:spq  STATUS:               ID:20141201131749d    3
 2014-12-01-1317-48M.COL___303                                                 6
 STAT SP IPHASW D HRMM SECON CODA AMPLIT PERI AZIMU VELO AIN AR TRES W  DIS CAZ7
 BAR2 SZ EP       1322 22.05                             171   -0.2010 22.5 189 
 BAR2 SZ ES   1   1322 37.03                             171   -0.54 7 22.5 189 
 BAR2 SZ I        1322 38.32        11.7 0.24            171           22.5 189 
 BRR  HZ EP       1322 23.99                             153    0.2110 71.1 299 
 BRR  HE ES       1322 41.26                             153    0.9710 71.1 299 
 BRR  HZ I        1322 45.13        14.0 0.22            142           71.1 299 
 PAM  SZ EP       1322 25.10                             151    0.2010 78.3  39 
 PAM  SN ES   1   1322 41.77                             151   -0.52 7 78.3  39 
 PAM  SZ I        1322 44.27        17.4 0.50            144           78.3  39 
 RUS  HZ EP       1322 26.25                             144   -0.0810 99.8 176 
 RUS  HN ES   1   1322 45.23                             144    0.40 7 99.8 176 
 RUS  HZ I        1322 46.00         8.1 0.30            142           99.8 176 
 PTB  HZ EP       1322 28.91                             132   -0.63 9  147 259 
 PTB  HN ES       1322 49.96                             132   -0.58 9  147 259 
 PTB  HZ I        1322 55.87         4.9 0.60            124            147 259 
 SPBC HZ EP       1322 31.46                             129    0.42 9  162 219 
 SPBC HN ES   1   1322 52.78                             129   -0.43 7  162 219 
 SPBC HZ I        1322 55.71        14.8 0.38            123            162 219 
 ZAR  HN ES       1322 59.97                             122   -0.39 9  204 292 
 ZAR  HZ I        1323  6.31         5.0 0.28            115            204 292 
 NOR  HE ES       1323  6.69                             119    0.62 8  234 235 
 NOR  HZ I        1323 12.07         5.0 0.22            113            234 235 
 CHI  HZ EP   1   1322 39.89                             117   -0.33 6  248 195 
 CHI  HN ES   1   1323  9.47                             117   -0.09 6  248 195 
 CHI  HZ I        1323 13.16         3.8 0.46            113            248 195 
 GUY2CHE ES   4   1323 23.88                             112    3.80 0  300 235 
 GUY2CHZ I        1323 28.13         3.3 0.26                           300 235 
 TOL  SZ EP   1   1322 51.33                             109    0.56 5  343 225 
 TOL  SE ES   4   1323 30.77                             109    2.44 0  343 225 
 TOL  SZ I        1323 35.73         7.4 0.44            105            343 225 
 MON  HZ EP   1   1322 51.79                             109    0.16 5  354 309 
 MON  HZ I        1323 27.85         1.5 0.38            103            354 309 
 MON  HN ES   4   1323 27.89                             109   -1.97 0  354 309 
                                                                                
