 2014  6 1 1535 33.0 L   6.750 -73.146148.0  RSN  4 0.3 1.6LRSN                1
 GAP=217        0.64       5.7     9.9  5.6  0.3235E+02 -0.7667E-01 -0.9580E+01E
 Epicentro: LOS SANTOS - SANTANDER                                             3
 ACTION:UPD 14-07-01 22:49 OP:nd   STATUS:               ID:20140601153533 L   I
 OLDACT:UP  14-06-01 21:38 OP:cam  STATUS:               ID:20140601153000     3
 OLDACT:REG 14-06-01 20:47 OP:cam  STATUS:               ID:20140601153000     3
 2014-06-01-1530-00M.COL___276                                                 6
 STAT SP IPHASW D HRMM SECON CODA AMPLIT PERI AZIMU VELO AIN AR TRES W  DIS CAZ7
 BAR2 SZ EP       1535 52.71                             173   -0.1010 17.9 193 
 BAR2 SZ ES       1536  8.23                             173   -0.0310 17.9 193 
 BAR2 SZ I        1536  8.70         6.9 0.34            177           17.9 193 
 BRR  HZ EP       1535 54.61                             152    0.0510 74.0 302 
 BRR  HN ES       1536 11.58                             152    0.2110 74.0 302 
 BRR  HZ I        1536 14.07         8.3 0.30            150           74.0 302 
 PTB  HZ EP   1   1535 59.78                             133   -0.29 7  147 261 
 SML  HZ EP   1   1536 11.00                             117    0.69 6  249 336 
 SML  HN ES       1536 39.02                             117   -0.38 8  249 336 
 SML  HZ I        1536 44.85         3.1 0.28            117            249 336 
                                                                                
