 2014  8 1 1016 19.1 L   6.782 -73.137147.8  RSN  7 0.4 1.6LRSN                1
 GAP=201        0.74       3.6     5.9  6.3  0.4633E+01  0.6166E+01 -0.5392E+01E
 Epicentro: LOS SANTOS - SANTANDER                                             3
 ACTION:UPD 14-09-15 21:46 OP:nd   STATUS:               ID:20140801101619 L   I
 OLDACT:UP  14-08-02 00:45 OP:mh   STATUS:               ID:20140801100806     3
 OLDACT:REG 14-08-01 22:42 OP:mh   STATUS:               ID:20140801100806     3
 2014-08-01-1008-06M.COL___254                                                 6
 STAT SP IPHASW D HRMM SECON CODA AMPLIT PERI AZIMU VELO AIN AR TRES W  DIS CAZ7
 BAR2 SZ EP   1   1016 38.51                             171   -0.42 8 21.6 194 
 BAR2 SZ ES   1   1016 54.10                             171   -0.31 8 21.6 194 
 BRR  HZ EP   1   1016 41.22                             152    0.66 8 73.0 300 
 BRR  HN ES   1   1016 57.81                             152    0.50 8 73.0 300 
 BRR  HZ I        1017 18.06         9.8 0.84            151           73.0 300 
 RUS  HN ES   1   1017  1.50                             145    0.03 8 98.6 177 
 RUS  HZ I        1017  3.37         2.6 0.33            156           98.6 177 
 PTB  HZ EP   1   1016 46.06                             132   -0.22 8  148 260 
 PTB  HN ES   1   1017  7.36                             132   -0.13 8  148 260 
 PTB  HZ I        1017 13.06         4.2 0.07            137            148 260 
 SPBC HZ EP       1016 47.91                             130    0.2410  162 220 
 SPBC HN ES   1   1017  9.85                             130   -0.10 7  162 220 
 SPBC HZ I        1017 15.25         6.4 0.09            138            162 220 
 ZAR  HZ EP   1   1016 52.26                             123    0.42 7  206 293 
 ZAR  HN ES   1   1017 16.88                             123   -0.51 7  206 293 
 ZAR  HZ I        1017 23.67         3.6 0.12            128            206 293 
 SML  HZ EP   1   1016 55.46                             118   -0.61 7  246 335 
 SML  HN ES       1017 24.94                             118    0.03 9  246 335 
 SML  HZ I        1017 28.86         4.8 0.24            124            246 335 
                                                                                
