 2012  7 1 1845  8.9 L   6.998 -73.387118.1  RSN  6 0.4 1.6LRSN                1
 GAP= 90        0.91       6.2     6.3  8.8 -0.5172E+01  0.1089E+02 -0.1696E+02E
 Epicentro: SAN VICENTE DE CHUCURI - SANTANDER                                 3
 ACTION:UPD 12-08-14 11:41 OP:ep   STATUS:               ID:20120701184508 L   I
 2012-07-01-1840-00M.COL___201                                                 6
 STAT SP IPHASW D HRMM SECON CODA AMPLIT PERI AZIMU VELO AIN AR TRES W  DIS CAZ7
 BRR  HZ EP       1845 25.80                             161     0.510   38 289 
 BRR  HZ I        1845 26.32        10.4 0.48            152             38 289 
 BRR  HN ES   1   1845 38.35                             161     0.2 7   38 289 
 BAR2 SZ EP       1845 26.56                             156     0.310   50 153 
 BAR2 SZ ES   1   1845 39.42                             156    -0.3 7   50 153 
 BAR2 SZ I        1845 41.56        13.7 0.42            155             50 153 
 PAM  SZ EP   2   1845 28.75                             142     0.0 5   85  64 
 PAM  SN ES   2   1845 44.02                             142    -0.3 5   85  64 
 PAM  SZ I        1845 46.05         3.6 0.22            130             85  64 
 RUS  HE ES   2   1845 50.44                             130    -0.2 5  127 165 
 RUS  HZ I        1845 51.36         2.8 0.20            125            127 165 
 PTB  HZ EP       1845 31.79                             129    -0.110  129 247 
 PTB  HN ES   2   1845 49.07                             129    -0.8 5  129 247 
 PTB  HZ I        1845 53.40         4.7 0.24            122            129 247 
 OCA  HZ EP       1845 32.58                             127    -0.3 9  137   3 
 OCA  HZ I        1845 51.99        24.0 0.14            116            137   3 
