 2017 12 1 1256 48.6 L   6.814 -73.192141.2  RSN  5 0.4 1.5LRSN                1
 GAP=145        0.94       5.6     5.0  7.9 -0.1201E+02  0.1377E+02 -0.3425E+01E
 Epicentro: ZAPATOCA - SANTANDER                                               3
 ACTION:UPD 18-01-04 13:16 OP:rebc STATUS:               ID:20171201125648 L   I
 OLDACT:REG 17-12-01 20:20 OP:dani STATUS:               ID:20171201124744     3
 2017-12-01-1248-00M.COL___489                                                 6
 STAT SP IPHASW D HRMM SECON CODA AMPLIT PERI AZIMU VELO AIN AR TRES W  DIS CAZ7
 BAR2 EZ EP       1257  7.63                             170   -0.0810 24.6 177 
 BAR2 EZ ES       1257 21.93                             170   -0.6810 24.6 177 
 BAR2 EZ I        1257 24.72        13.7 0.80            172           24.6 177 
 PAM  EZ EP       1257 10.64                             149    0.1710 79.6  43 
 PAM  EE ES       1257 27.85                             149    0.3210 79.6  43 
 PAM  EZ I        1257 29.82         7.0 0.44            153           79.6  43 
 RUS  HZ EP       1257 11.85                             142   -0.2110  103 173 
 RUS  HE ES       1257 30.78                             142    0.4310  103 173 
 RUS  HZ I        1257 31.50         5.1 0.32            148            103 173 
 PTB  HZ EP       1257 14.35                             132   -0.42 9  143 258 
 PTB  HE ES       1257 35.47                             132    0.29 9  143 258 
 PTB  HZ I        1257 42.38         3.1 0.42            133            143 258 
 NOR  HE ES       1257 51.37                             118    0.26 8  231 233 
                                                                                
