 2017 11 1 1046 39.7 L   6.779 -73.157147.0  RSN 10 0.4 1.5LRSN                1
 GAP=136        0.96       4.5     4.5  6.0 -0.6779E+01  0.2231E+01  0.9588E+01E
 Epicentro: LOS SANTOS - SANTANDER                                             3
 ACTION:UPD 17-12-12 19:50 OP:rebc STATUS:               ID:20171101104639 L   I
 OLDACT:UP  17-11-01 21:57 OP:mg   STATUS:               ID:20171101103743     3
 OLDACT:UP  17-11-01 21:56 OP:mg   STATUS:               ID:20171101103743     3
 OLDACT:UP  17-11-01 21:56 OP:mg   STATUS:               ID:20171101103743     3
 OLDACT:REG 17-11-01 19:49 OP:mg   STATUS:               ID:20171101103743     3
 2017-11-01-1038-00M.COL___417                                                 6
 STAT SP IPHASW D HRMM SECON CODA AMPLIT PERI AZIMU VELO AIN AR TRES W  DIS CAZ7
 BAR2 EZ EP       1046 59.30                             171   -0.1610 20.9 188 
 BAR2 EZ ES   1   1047 14.43                             171   -0.42 7 20.9 188 
 BAR2 EZ I        1047 17.09         7.6 0.26            168           20.9 188 
 BRR  HN ES       1047 18.27                             153    0.6510 71.2 301 
 BRR  HZ I        1047 21.89         8.5 0.32            151           71.2 301 
 PAM  EZ IP     C 1047  2.21                             150   -0.0210 80.0  39 
 PAM  EN ES       1047 19.61                             150   -0.1710 80.0  39 
 PAM  EZ I        1047 21.40         4.9 0.46            145           80.0  39 
 RUS  HZ EP       1047  3.43                             145   -0.0210 98.4 175 
 RUS  HN ES       1047 22.35                             145    0.4010 98.4 175 
 RUS  HZ I        1047 23.17         7.3 0.32            138           98.4 175 
 PTB  HZ EP       1047  6.34                             133   -0.31 9  146 260 
 PTB  HN ES       1047 26.89                             133   -0.75 9  146 260 
 PTB  HZ I        1047 30.75         2.1 0.16            128            146 260 
 SPBC HZ EP       1047  8.24                             130    0.16 9  161 219 
 SPBC HN ES       1047 30.17                             130   -0.02 9  161 219 
 SPBC HZ I        1047 33.10         5.0 0.13            124            161 219 
 NOR  HZ EP       1047 15.75                             119    0.47 8  232 235 
 NOR  HE ES       1047 43.46                             119    0.45 8  232 235 
 NOR  HZ I        1047 46.22         2.4 0.16            114            232 235 
 CHI  HZ EP       1047 16.85                             118   -0.37 8  246 195 
 CHI  HZ I        1047 53.59         1.5 0.38            112            246 195 
 GUY2CHZ EP   4   1047 19.89                             113   -3.24 0  299 235 
 GUY2CHE ES   4   1048  1.15                             113    4.17 0  299 235 
 GUY2CHZ I        1048  9.71         1.6 0.39                           299 235 
 PRA  HZ EP       1047 33.59                             107    0.60 6  389 210 
 PRA  HN ES       1048 13.95                             107   -0.58 6  389 210 
 PRA  HZ I        1048 18.68         1.7 0.50            102            389 210 
                                                                                
