 2015 10 1 1041 25.1 L   6.811 -73.088152.0  RSN  5 0.6 1.3LRSN                1
 GAP=143        1.00       6.3     7.2 13.2  0.2424E+01  0.2517E+02  0.1404E+02E
 Epicentro: LOS SANTOS - SANTANDER                                             3
 ACTION:UPD 15-12-22 20:36 OP:cam  STATUS:               ID:20151001104125 L   I
 OLDACT:REG 15-10-01 20:44 OP:ar   STATUS:               ID:20151001103743     3
 2015-10-01-1037-43M.COL___361                                                 6
 STAT SP IPHASW D HRMM SECON CODA AMPLIT PERI AZIMU VELO AIN AR TRES W  DIS CAZ7
 PAM  EZ EP   2   1041 47.99                             154    0.25 5 72.5  36 
 PAM  EN ES       1042  4.80                             154   -0.5710 72.5  36 
 PAM  EZ I        1042  8.15         3.7 0.58            158           72.5  36 
 BRR  HZ EP   2   1041 48.01                             152    0.77 5 76.3 295 
 BRR  HE ES       1042  5.03                             152    0.5410 76.3 295 
 RUS  HZ EP   2   1041 50.20                             145    0.63 5  102 180 
 RUS  HN ES       1042  8.72                             145    0.0810  102 180 
 RUS  HZ I        1042 11.02         1.4 0.22            146            102 180 
 PTB  HZ EP   2   1041 52.31                             132   -0.89 5  154 259 
 PTB  HN ES   2   1042 14.24                             132   -0.85 5  154 259 
 PTB  HZ I        1042 21.13         3.7 0.42            132            154 259 
 ZAR  HE ES   2   1042 24.09                             123   -0.52 4  210 291 
                                                                                
