 2010 11 1 1533 54.8 L   6.756 -73.107149.8  RSN  7 0.3 2.0LRSN                1
 GAP=163        0.87       5.0     8.6  8.5 -0.1416E+02 -0.6756E+01 -0.4559E+01E
 Epicentro: LOS SANTOS - SANTANDER                                             3
 ACTION:UP  10-12-17 16:49 OP:REBC STATUS:               ID:20101101153354 L   I
 2010-11-01-1530-18S.COL___126                                                 6
 STAT SP IPHASW D HRMM SECON CODA AMPLIT PERI AZIMU VELO SNR AR TRES W  DIS CAZ7
 BAR2 SZ EP       1534 14.61                             172    -0.210   20 205 
 BAR2 SZ ES   2   1534 30.32                             172    -0.2 5   20 205 
 BAR2 SZ I        1534 31.47        19.2 0.18                            20 205 
 BRR  HZ IP     C 1534 16.49                             151    -0.210   77 300 
 BRR  HZ I        1534 16.78        46.7 0.14                            77 300 
 BRR  HN ES   1   1534 33.97                             151     0.1 7   77 300 
 RUS  HZ EP   2   1534 18.48                             146    -0.1 5   95 178 
 RUS  HN ES   1   1534 37.31                             146     0.2 7   95 178 
 RUS  HZ I        1534 38.48         8.5 0.25                            95 178 
 GUE  SZ EP       1534 19.68                             139    -0.510  121  10 
 GRA  SZ EP       1534 21.30                             137     0.610  129  15 
 GRA  SZ I        1534 22.58        12.5 0.13                           129  15 
 GRA  SZ ES   1   1534 41.11                             137     0.2 7  129  15 
 NOR  SN ES   2   1534 59.36                             119     0.4 4  236 236 
 PRA  HZ EP   1   1534 48.65                             107     0.4 4  390 210 
                                                                                
