 2016  2 1 1240 39.3 L   6.817 -73.134144.1  RSN  9 0.3 1.8LRSN                1
 GAP=202        0.73       2.5     3.7  4.6  0.1692E+01  0.3267E+01 -0.1154E+01E
 Epicentro: LOS SANTOS - SANTANDER                                             3
 ACTION:UPD 16-03-04 21:22 OP:rebc STATUS:               ID:20160201124039 L   I
 OLDACT:REG 16-02-01 21:38 OP:cara STATUS:               ID:20160201123759     3
 2016-02-01-1237-59S.COL___220                                                 6
 STAT SP IPHASW D HRMM SECON CODA AMPLIT PERI AZIMU VELO AIN AR TRES W  DIS CAZ7
 BAR2 EZ EP       1240 58.70                             170   -0.0910 25.4 192 
 BAR2 EZ ES       1241 14.08                             170    0.0910 25.4 192 
 BAR2 EZ I        1241 17.17        12.9 0.26            170           25.4 192 
 RUS  HZ EP       1241  3.29                             143    0.2510  102 177 
 RUS  HN ES       1241 21.64                             143    0.1010  102 177 
 RUS  HZ I        1241 22.33         6.2 0.22            144            102 177 
 PTB  HZ EP       1241  5.69                             131   -0.61 9  149 258 
 PTB  HN ES       1241 26.95                             131   -0.39 9  149 258 
 PTB  HZ I        1241 29.12         5.5 0.22            132            149 258 
 SPBC HZ EP       1241  8.14                             128    0.23 9  165 219 
 SPBC HN ES       1241 29.99                             128   -0.22 9  165 219 
 SPBC HZ I        1241 32.26        10.4 0.46            129            165 219 
 ZAR  HN ES       1241 37.44                             122    0.48 9  205 292 
 ZAR  HZ I        1241 38.96         7.5 0.36            122            205 292 
 NOR  HZ EP       1241 15.14                             118   -0.04 8  237 234 
 NOR  HN ES       1241 43.50                             118    0.34 8  237 234 
 NOR  HZ I        1241 46.47         5.5 0.18            119            237 234 
 SML  HZ EP       1241 15.68                             117   -0.04 8  243 335 
 SML  HN ES       1241 44.03                             117   -0.08 8  243 335 
 SML  HZ I        1241 52.33         6.6 0.32            118            243 335 
 CHI  HZ EP       1241 16.91                             116   -0.25 8  251 195 
 CHI  HN ES       1241 46.51                             116   -0.17 8  251 195 
 CHI  HZ I        1241 56.07         1.9 0.36            117            251 195 
 GUY2CHZ EP       1241 23.67                             112    0.58 7  303 235 
 GUY2CHE ES   4   1242  0.46                             112    3.22 0  303 235 
 GUY2CHZ I        1242  5.34         3.6 0.30                           303 235 
                                                                                
