 2013 11 1 1640 34.5 L   6.812 -73.150147.8  RSN  8 0.4 2.1LRSN                1
 GAP=135        1.04       3.8     4.3  6.2 -0.5409E+00  0.8261E+01 -0.2590E+01E
 Epicentro: LOS SANTOS - SANTANDER                                             3
 ACTION:UPD 14-01-09 16:24 OP:ep   STATUS:               ID:20131101164034 L   I
 OLDACT:REG 13-11-01 16:24 OP:carl STATUS:               ID:20131101163835     3
 2013-11-01-1638-35M.COL___216                                                 6
 STAT SP IPHASW D HRMM SECON CODA AMPLIT PERI AZIMU VELO AIN AR TRES W  DIS CAZ7
 BAR2 SZ IP     D 1640 54.41                             170    0.0310 24.6 188 
 BAR2 SZ ES       1641  9.42                             170   -0.4810 24.6 188 
 BAR2 SZ I        1641 10.80        38.3 0.38            170           24.6 188 
 BRR  HZ IP     C 1640 56.15                             153    0.3710 70.1 298 
 BRR  HN IS       1641 13.11                             153    0.7010 70.1 298 
 BRR  HZ I        1641 16.16        27.0 0.32            149           70.1 298 
 PAM  SZ EP       1640 57.27                             151    0.4010 76.7  40 
 PAM  SN ES       1641 14.22                             151   -0.1110 76.7  40 
 PAM  SZ I        1641 14.84        19.2 0.20            154           76.7  40 
 RUS  HZ EP       1640 58.50                             144   -0.0310  102 176 
 RUS  HN ES       1641 17.34                             144    0.0610  102 176 
 RUS  HZ I        1641 18.39         6.1 0.32            147            102 176 
 PTB  HZ EP       1641  1.24                             133   -0.35 9  148 258 
 PTB  HN ES       1641 22.06                             133   -0.68 9  148 258 
 PTB  HZ I        1641 28.09        10.9 0.14            131            148 258 
 ZAR  HZ EP       1641  7.26                             123    0.31 9  203 292 
 ZAR  HN ES       1641 32.63                             123    0.34 9  203 292 
 ZAR  HZ I        1641 38.09        22.8 0.68            122            203 292 
 NOR  HZ EP       1641  9.92                             119   -0.44 8  235 234 
 NOR  HN ES       1641 38.81                             119    0.46 8  235 234 
 NOR  HZ I        1641 44.51        10.8 0.52            119            235 234 
 SML  HZ EP       1641 10.98                             118   -0.08 8  242 335 
 SML  HN ES       1641 38.83                             118   -0.77 8  242 335 
 SML  HZ I        1641 48.22        15.6 0.22            118            242 335 
 GUY2CHZ EP   4   1641 20.06                             113    1.84 0  302 235 
 GUY2CHN ES   4   1641 53.99                             113    1.65 0  302 235 
                                                                                
