 2011 10 1 2332 58.6 L   6.799 -73.144143.6  RSN  4 0.2 1.5LRSN                1
 GAP=137        0.36       3.7     4.7 10.7  0.7240E+00 -0.3679E+01  0.8625E+01E
 Epicentro: LOS SANTOS - SANTANDER                                             3
 ACTION:UPD 12-07-13 16:01 OP:ep   STATUS:               ID:20111001233258 L   I
 2011-10-01-2331-05S.COL___168                                                 6
 STAT SP IPHASW D HRMM SECON CODA AMPLIT PERI AZIMU VELO AIN AR TRES W  DIS CAZ7
 BRR  HZ EP       2333 19.70                             152    0.1210 71.4 298 
 BRR  HZ I        2333 23.96         6.4 0.46                          71.4 298 
 BRR  HN ES   3   2333 36.18                             152    0.28 2 71.4 298 
 PAM  SZ EP       2333 20.62                             150   -0.0110 77.3  39 
 PAM  SE ES   3   2333 37.56                             150   -0.21 2 77.3  39 
 RUS  HZ EP       2333 22.11                             143   -0.0710  101 176 
 RUS  HE ES   3   2333 40.39                             143   -0.15 2  101 176 
 ZAR  HN ES   3   2333 55.32                             122   -0.87 2  204 292 
 ZAR  HZ I        2334  1.65         2.9 0.26                           204 292 
                                                                                
