 2017 11 1 2228 25.6 L   6.823 -73.194140.6  RSN  8 0.4 1.4LRSN                1
 GAP=130        1.06       4.4     4.6  7.7 -0.6026E+01  0.4220E+01  0.1113E+02E
 Epicentro: ZAPATOCA - SANTANDER                                               3
 ACTION:UPD 17-12-12 19:50 OP:rebc STATUS:               ID:20171101222825 L   I
 OLDACT:REG 17-11-02 05:34 OP:osc  STATUS:               ID:20171101222740     3
 2017-11-01-2228-00M.COL___438                                                 6
 STAT SP IPHASW D HRMM SECON CODA AMPLIT PERI AZIMU VELO AIN AR TRES W  DIS CAZ7
 BRR  HZ EP       2228 46.39                             154    0.5610 65.3 299 
 BRR  HN ES       2229  1.59                             154   -0.0510 65.3 299 
 PAM  EZ EP       2228 47.37                             149    0.0310 79.0  44 
 PAM  EN ES       2229  4.27                             149   -0.0410 79.0  44 
 PAM  EZ I        2229  6.52         5.6 0.52            150           79.0  44 
 RUS  HZ EP       2228 48.83                             142   -0.2110  104 173 
 RUS  HN ES       2229  7.33                             142   -0.0210  104 173 
 RUS  HZ I        2229  8.19         2.3 0.24            142            104 173 
 PTB  HZ EP       2228 51.39                             132   -0.30 9  143 257 
 PTB  HN ES       2229 11.31                             132   -0.76 9  143 257 
 SPBC HE ES       2229 16.31                             128    0.93 9  162 217 
 NOR  HE ES       2229 28.52                             118    0.41 8  232 233 
 CHI  HZ EP       2229  2.70                             116   -0.41 8  250 194 
 CHI  HN ES       2229 32.00                             116   -0.39 8  250 194 
 CHI  HZ I        2229 35.82         2.2 0.46            116            250 194 
 GUY2CHZ EP       2229  9.13                             111    0.51 7  298 234 
 GUY2CHN ES       2229 41.90                             111   -0.30 7  298 234 
 GUY2CHZ I        2229 51.89         1.3 0.34                           298 234 
                                                                                
