 2015  4 1 2109 40.0 L   6.780 -73.185133.9  RSN  4 0.3 1.3LRSN                1
 GAP=133        0.83       4.3     4.0  7.5 -0.1838E+01  0.2738E+01  0.4857E+01E
 Epicentro: LOS SANTOS - SANTANDER                                             3
 ACTION:UPD 15-06-03 16:51 OP:cam  STATUS:               ID:20150401210940 L   I
 OLDACT:DUP 15-04-02 06:13 OP:stll STATUS:               ID:20150401210749d    3
 2015-04-01-2107-48M.COL___283                                                 6
 STAT SP IPHASW D HRMM SECON CODA AMPLIT PERI AZIMU VELO AIN AR TRES W  DIS CAZ7
 BRR  HZ EP       2110  0.14                             151    0.4110 68.6 302 
 BRR  HN ES       2110 14.78                             151   -0.3310 68.6 302 
 PAM  SZ EP       2110  1.12                             147   -0.1510 81.9  41 
 PAM  SZ I        2110  1.30         3.8 0.18            145           81.9  41 
 PAM  SN ES       2110 17.99                             147    0.1410 81.9  41 
 RUS  HZ EP       2110  2.65                             142    0.1810 98.7 173 
 RUS  HZ I        2110 15.18         2.6 0.36            132           98.7 173 
 RUS  HE ES       2110 19.87                             142   -0.1210 98.7 173 
 PTB  HZ EP       2110  5.06                             130   -0.53 9  143 259 
 PTB  HN ES       2110 25.93                             130    0.38 9  143 259 
 PTB  HZ I        2110 28.62         3.5 0.10            125            143 259 
                                                                                
