 2013  4 1 2031 19.4 L   6.791 -73.139152.5  RSN 14 0.4 2.8LRSN 3.3WRSN        1
 SPEC AVERAGE  MO 14.1 ST 23.5 OM  2.1 f0 5.97 R0.3198 AL 2.56 WI 52.3 MW  3.3 3
 SPEC SD       MO  0.4 ST 16.9 OM  0.4 f0 1.19 R0.0755 AL      WI      MW  0.3 3
 GAP=138        0.87       3.1     3.3  4.3 -0.1563E+00  0.4299E+01  0.3645E+00E
 Epicentro: LOS SANTOS - SANTANDER                                             3
 SPEC ZAR HH E MO 14.5 ST 50.6 OM  2.4 f0 6.12 R0.2974 AL 1.52 WI 44.0 MW  3.6 3
 SPEC ZAR HH E T203217 K 0.050 GD  255 VS 5.20 DE 3.20 Q0750.0 QA 1.50 VS 5.20 3
 SPEC OCA HH N MO 14.5 ST 32.2 OM  2.5 f0 5.11 R0.3562 AL 2.00 WI 47.1 MW  3.6 3
 SPEC OCA HH N T2032 9 K 0.050 GD  221 VS 5.20 DE 3.20 Q0750.0 QA 1.50 VS 5.20 3
 SPEC RUS HH N MO 13.6 ST 12.8 OM  1.7 f0 7.42 R0.2453 AL 2.53 WI 43.7 MW  3.0 3
 SPEC RUS HH N T2032 2 K 0.050 GD  182 VS 5.20 DE 3.20 Q0750.0 QA 1.50 VS 5.20 3
 SPEC PAM SH N MO 13.4 ST  6.6 OM  1.5 f0 7.07 R0.2574 AL 3.14 WI 43.1 MW  2.9 3
 SPEC PAM SH N T203159 K 0.050 GD  171 VS 5.20 DE 3.20 Q0750.0 QA 1.50 VS 5.20 3
 SPEC HEL HH E MO 14.0 ST  4.0 OM  1.8 f0 3.88 R0.4691 AL 1.67 WI 73.9 MW  3.3 3
 SPEC HEL HH E T203226 K 0.050 GD  312 VS 5.20 DE 3.20 Q0750.0 QA 1.50 VS 5.20 3
 SPEC BRR HH E MO 14.3 ST 34.7 OM  2.4 f0 6.20 R0.2935 AL 4.51 WI 62.1 MW  3.5 3
 SPEC BRR HH E T203157 K 0.050 GD  168 VS 5.20 DE 3.20 Q0750.0 QA 1.50 VS 5.20 3
 ACTION:UPD 13-05-22 14:35 OP:EP   STATUS:               ID:20130401203119 L   I
 2013-04-01-2030-00M.COL___245                                                 6
 STAT SP IPHASW D HRMM SECON CODA AMPLIT PERI AZIMU VELO AIN AR TRES W  DIS CAZ7
 BAR2 SZ IP       2031 39.88                             171    0.0610 22.5 192 
 BAR2 SZ ES       2031 55.07                             171   -0.6810 22.5 192 
 BAR2 SZ I        2031 56.11       134.7 0.20            168           22.5 192 
 GIR2 SZ IP     C 2031 39.93                             167    0.0310 32.3 349 
 GIR2 SZ ES       2031 56.24                             167    0.3510 32.3 349 
 GIR2 SZ I        2031 56.72        52.8 0.30            164           32.3 349 
 BRR  HZ IP     C 2031 41.72                             153    0.3910 72.3 299 
 BRR  HE ES       2031 59.10                             153    0.6510 72.3 299 
 BRR  HE I        2032  2.66       191.9 0.20            148           72.3 299 
 PAM  SZ IP     C 2031 42.62                             152    0.2710 77.7  39 
 PAM  SN ES       2031 59.96                             152   -0.2910 77.7  39 
 PAM  SN I        2032  2.00        93.1 0.52            155           77.7  39 
 RUS  HZ IP     C 2031 43.71                             145   -0.0310 99.6 176 
 RUS  HN ES       2032  2.56                             145   -0.1810 99.6 176 
 RUS  HN I        2032  3.14        86.7 0.22            146           99.6 176 
 PTB  HZ EP   1   2031 46.76                             133   -0.20 7  148 259 
 PTB  HN ES       2032  7.95                             133   -0.52 9  148 259 
 PTB  HN I        2032 13.10       135.2 0.32            130            148 259 
 OCA  HZ EP   1   2031 48.04                             131   -0.29 7  161 353 
 OCA  HN ES   2   2032 10.78                             131   -0.12 5  161 353 
 ZAR  HZ EP   1   2031 52.43                             124    0.04 6  205 292 
 ZAR  HE ES       2032 18.53                             124    0.41 9  205 292 
 ZAR  HE I        2032 23.69       221.5 0.42            122            205 292 
 NOR  HZ EP   1   2031 55.77                             120    0.25 6  235 235 
 NOR  HN ES   1   2032 24.26                             120    0.56 6  235 235 
 CHI  HZ EP   1   2031 57.50                             118    0.11 6  248 195 
 CHI  HN ES   1   2032 27.30                             118    0.27 6  248 195 
 CHI  HN I        2032 31.68        26.9 0.48            119            248 195 
 HEL  HZ EP   4   2032  1.53                             116    1.53 0  273 256 
 HEL  HE ES   4   2032 29.98                             116   -1.70 0  273 256 
 URE  HZ EP   1   2032  0.67                             115   -0.24 6  285 292 
 URE  HN ES   1   2032 32.25                             115   -1.04 6  285 292 
 URE  HN I        2032 42.58        76.7 0.26            114            285 292 
 DBB  SZ EP       2032  7.45                             111    0.22 7  340 274 
 DBB  SZ ES   1   2032 43.66                             111   -0.89 5  340 274 
 DBB  SZ I        2033  0.57        11.5 0.74            110            340 274 
 COD  HZ EP       2032  7.78                             110   -0.38 6  349 355 
 PRA  HZ EP   1   2032 13.39                             108    0.30 4  392 210 
                                                                                
