 2014  8 1 2110  1.5 L   6.804 -73.143144.2  RSN 13 0.4 2.1LRSN                1
 GAP=137        0.97       2.9     3.9  5.8 -0.1170E+01  0.5886E+01  0.1470E+01E
 Epicentro: LOS SANTOS - SANTANDER                                             3
 ACTION:UPD 14-09-15 21:46 OP:nd   STATUS:               ID:20140801211001 L   I
 OLDACT:REG 14-08-02 03:42 OP:fm   STATUS:               ID:20140801210820     3
 2014-08-01-2108-20M.COL___251                                                 6
 STAT SP IPHASW D HRMM SECON CODA AMPLIT PERI AZIMU VELO AIN AR TRES W  DIS CAZ7
 BAR2 SZ EP   1   2110 20.93                             170   -0.01 7 23.8 191 
 BAR2 SZ ES   1   2110 35.64                             170   -0.47 7 23.8 191 
 BAR2 SZ I        2110 36.99        34.5 0.20            170           23.8 191 
 BRR  HZ EP       2110 22.82                             152    0.3510 71.3 298 
 BRR  HN ES       2110 39.35                             152    0.5210 71.3 298 
 BRR  HZ I        2110 40.63        21.2 0.14            151           71.3 298 
 PAM  SZ EP       2110 23.80                             151    0.3010 76.8  40 
 PAM  SN ES       2110 40.50                             151   -0.1710 76.8  40 
 PAM  SZ I        2110 42.75        23.0 0.52            153           76.8  40 
 RUS  HZ EP       2110 25.25                             143    0.1410  101 176 
 RUS  HN ES       2110 43.47                             143   -0.0710  101 176 
 PTB  HZ EP       2110 28.03                             131   -0.33 9  148 259 
 PTB  HN ES       2110 48.33                             131   -0.99 9  148 259 
 PTB  HZ I        2110 53.89        11.8 0.28            131            148 259 
 OCA  HZ EP   1   2110 29.38                             129   -0.26 7  160 353 
 OCA  HN ES   1   2110 51.46                             129   -0.14 7  160 353 
 OCA  HZ I        2110 56.02        16.8 0.66            130            160 353 
 SPBC HZ EP       2110 30.02                             128    0.10 9  164 219 
 SPBC HN ES       2110 52.66                             128    0.57 9  164 219 
 SPBC HZ I        2110 57.19         9.3 0.28            129            164 219 
 ZAR  HZ EP       2110 34.04                             122    0.19 9  204 292 
 ZAR  HN ES       2110 59.52                             122    0.44 9  204 292 
 ZAR  HZ I        2111  1.98        10.9 0.12            122            204 292 
 SML  HN ES   1   2111  5.80                             117   -0.67 6  243 335 
 SML  HZ I        2111  9.33        16.1 0.10            118            243 335 
 CHI  HZ EP   1   2110 38.99                             117   -0.16 6  249 195 
 CHI  HN ES   1   2111  8.22                             117   -0.31 6  249 195 
 CHI  HZ I        2111 12.69         3.6 0.52            118            249 195 
 GUY2CHZ EP   1   2110 44.61                             112   -0.47 5  302 235 
 GUY2CHN ES   1   2111 19.98                             112    0.89 5  302 235 
 GUY2CHZ I        2111 28.54         4.0 0.52                           302 235 
 TOL  SN ES   1   2111 26.64                             109   -0.74 5  344 225 
 TOL  SZ I        2111 32.02         5.1 0.36            110            344 225 
 SJC  HZ EP   4   2110 55.08                             105   -1.90 0  409 327 
 SJC  HN ES   4   2111 36.65                             105   -3.61 0  409 327 
 SJC  HZ I        2111 40.68         4.7 0.52            106            409 327 
                                                                                
