 2011 10 1 2012 29.4 L   6.794 -73.157143.6  RSN  5 0.3 1.6LRSN                1
 GAP=135        0.57       7.5     9.1  6.7  0.4877E+02  0.4428E+01  0.2291E+01E
 Epicentro: LOS SANTOS - SANTANDER                                             3
 ACTION:UPD 12-07-13 16:01 OP:ep   STATUS:               ID:20111001201229 L   I
 2011-10-01-2009-58S.COL___168                                                 6
 STAT SP IPHASW D HRMM SECON CODA AMPLIT PERI AZIMU VELO AIN AR TRES W  DIS CAZ7
 BAR2 SZ EP       2012 48.51                             171   -0.2110 22.5 187 
 BAR2 SZ ES   1   2013  4.12                             171    0.31 7 22.5 187 
 BAR2 SZ I        2013  5.29         8.1 0.18                          22.5 187 
 BRR  HZ EP       2012 50.53                             152    0.2910 70.4 299 
 BRR  HZ I        2012 50.90         9.0 0.12                          70.4 299 
 BRR  HN ES   2   2013  5.82                             152   -0.70 5 70.4 299 
 PAM  SN ES   3   2013  8.45                             150   -0.19 2 78.6  40 
 RUS  HZ EP       2012 52.81                             144   -0.0610  100 175 
 RUS  HE ES   2   2013 11.19                             144    0.00 5  100 175 
 ZAR  HE ES   2   2013 26.65                             122   -0.05 4  203 292 
 ZAR  HZ I        2013 33.55         2.6 0.20                           203 292 
                                                                                
