 2015 10 1 2334 54.7 L   6.808 -73.170149.3  RSN  8 0.5 1.7LRSN                1
 GAP=133        1.18       4.5     4.9  8.9 -0.7240E+00  0.7971E+01 -0.3647E+01E
 Epicentro: LOS SANTOS - SANTANDER                                             3
 ACTION:UPD 15-12-22 20:36 OP:cam  STATUS:               ID:20151001233454 L   I
 OLDACT:UP  15-10-02 07:06 OP:mh   STATUS:               ID:20151001232749     3
 OLDACT:REG 15-10-02 05:01 OP:mh   STATUS:               ID:20151001232749     3
 2015-10-01-2327-49M.COL___352                                                 6
 STAT SP IPHASW D HRMM SECON CODA AMPLIT PERI AZIMU VELO AIN AR TRES W  DIS CAZ7
 BAR2 EZ EP       2335 14.95                             170    0.1410 23.9 183 
 BAR2 EZ I        2335 32.28        12.0 0.30            170           23.9 183 
 BRR  HZ EP       2335 16.72                             154    0.6010 68.4 299 
 BRR  HN ES       2335 33.64                             154    0.8510 68.4 299 
 BRR  HZ I        2335 34.10         9.0 0.22            155           68.4 299 
 PAM  EZ IP       2335 17.83                             151    0.4410 78.4  41 
 PAM  EN ES       2335 34.49                             151   -0.5710 78.4  41 
 PAM  EZ I        2335 37.68         8.0 0.32            148           78.4  41 
 RUS  HZ EP       2335 19.03                             144    0.1110  102 175 
 RUS  HN ES       2335 37.43                             144   -0.3510  102 175 
 RUS  HZ I        2335 38.21         7.6 0.34            143            102 175 
 PTB  HZ EP       2335 21.57                             133   -0.21 9  145 258 
 PTB  HN ES       2335 42.19                             133   -0.68 9  145 258 
 PTB  HZ I        2335 45.24         4.2 0.22            133            145 258 
 ZAR  HN ES       2335 52.49                             123    0.10 9  201 292 
 NOR  HN ES       2335 58.49                             119    0.09 8  233 234 
 SML  HZ EP       2335 31.01                             118   -0.35 8  242 336 
 SML  HN ES       2335 59.36                             118   -0.56 8  242 336 
 SML  HZ I        2336  5.84         8.0 0.10            117            242 336 
                                                                                
