 2010  5 1 2114 35.8 L   6.787 -72.992148.0  RSN 11 0.5 2.5LRSN                1
 GAP=151        1.13       6.0     9.4  9.4 -0.3859E+02 -0.3337E+02  0.2437E+02E
 Epicentro: CEPITA - SANTANDER                                                 3
 ACTION:UP  10-08-24 10:02 OP:vdl  STATUS:               ID:20100501211435 L   I
 2010-05-01-2109-58S.COL___105                                                 6
 STAT SP IPHASW D HRMM SECON CODA AMPLIT PERI AZIMU VELO SNR AR TRES W  DIS CAZ7
 BAR2 SZ EP       2114 55.69                             168    -0.110   30 224 
 BAR2 SZ ES   2   2115 11.16                             168    -0.3 5   30 224 
 GIR2 SZ EP       2114 55.74                             164    -0.210   39 325 
 GIR2 SZ ES   1   2115 11.83                             164     0.1 7   39 325 
 BRR  HZ IP     C 2114 58.13                             147     0.010   87 294 
 BRR  HN ES       2115 15.19                             147    -0.410   87 294 
 BRR  HZ I        2115 19.20        45.8 0.13                            87 294 
 BRI  SZ EP       2115  0.20                             143     0.610  105  12 
 BRI  SZ ES   2   2115 18.98                             143     0.7 5  105  12 
 GUE  SZ EP       2115  0.66                             140     0.010  116   4 
 OCA  SZ EP   1   2115  4.49                             129    -0.2 7  165 347 
 OCA  SZ ES   2   2115 26.34                             129    -0.9 5  165 347 
 OCA  SZ I        2115 31.56        33.6 0.26                           165 347 
 CHI  HZ I        2115 16.05        11.3 1.14                           252 199 
 CHI  HN ES   1   2115 43.00                             117    -0.8 6  252 199 
 ROSC BN ES       2115 46.32                             116     0.9 8  261 214 
 ROSC BZ I        2115 51.68        21.0 0.29                           261 214 
 RREF BN ES       2116  1.16                             110     0.6 7  334 231 
 RREF BZ I        2116  4.24        18.2 1.54                           334 231 
 SDV  BZ EP   2   2115 25.49                             109     1.0 3  348  48 
 SDV  BN ES   2   2116  1.78                             109    -0.8 3  348  48 
 SDV  BZ I        2116  4.48        13.5 1.77                           348  48 
 PRA  HZ EP   1   2115 29.28                             106    -1.0 4  399 212 
 PRA  HN ES   1   2116 11.87                             106    -0.9 4  399 212 
 PRA  HZ I        2116 15.25         9.9 0.04                           399 212 
                                                                                
