 2012  3 1 2013 33.8 L   6.808 -73.154148.0  RSN  9 0.3 1.9LRSN                1
 GAP=135        0.57       3.2     3.3  6.0 -0.1046E+01  0.1014E+01  0.9844E+01E
 ACTION:UP  12-03-31 23:16 OP:EP   STATUS:               ID:20120301201333 L   I
 2012-03-01-2010-00M.COL___191                                                 6
 STAT SP IPHASW D HRMM SECON CODA AMPLIT PERI AZIMU VELO SNR AR TRES W  DIS CAZ7
 BRR  HZ EP       2013 55.08                             153     0.010   70 298 
 BRR  HN ES   1   2014 12.18                             153     0.5 7   70 298 
 BRR  HZ I        2014 14.45        18.0 0.10                            70 298 
 PAM  SZ EP       2013 56.32                             151     0.110   77  41 
 PAM  SN ES   1   2014 13.58                             151    -0.1 7   77  41 
 RUS  HZ EP       2013 57.70                             144    -0.110  102 176 
 RUS  HN ES   2   2014 16.05                             144    -0.5 5  102 176 
 RUS  HZ I        2014 17.54         7.6 0.25                           102 176 
 PTB  HZ EP   2   2014  0.14                             133    -0.7 5  147 258 
 PTB  HE ES   2   2014 21.71                             133    -0.3 5  147 258 
 ZAR  HN ES   1   2014 31.32                             123    -0.2 6  203 292 
 ZAR  HZ I        2014 36.91        11.4 0.29                           203 292 
 NOR  SN ES   2   2014 38.01                             119     0.5 4  234 234 
 CHI  HZ EP       2014 11.85                             117     0.2 8  249 195 
 CHI  HE ES   1   2014 41.40                             117     0.2 6  249 195 
 CHI  HZ I        2014 48.87         4.2 0.30                           249 195 
 RREF HZ EP   2   2014 20.05                             111     0.1 3  322 229 
 RREF HN ES   2   2014 55.50                             111    -0.5 3  322 229 
 RREF HZ I        2015  5.57         4.8 0.33                           322 229 
 PRA  HZ EP   2   2014 27.54                             107     0.1 3  392 209 
 PRA  HN ES   2   2015  9.55                             107     0.3 3  392 209 
                                                                                
