 2012  4 1 2125 13.3 L   6.774 -73.148149.9  RSN  7 0.4 1.8LRSN                1
 GAP=137        0.86       5.9     5.2  9.1  0.1970E+01  0.9531E+01  0.1087E+02E
 Epicentro: LOS SANTOS - SANTANDER                                             3
 ACTION:UPD 12-07-05 11:49 OP:tino STATUS:               ID:20120401212513 L   I
 2012-04-01-2120-00M.COL___196                                                 6
 STAT SP IPHASW D HRMM SECON CODA AMPLIT PERI AZIMU VELO AIN AR TRES W  DIS CAZ7
 BAR2 SZ EP   1   2125 33.37                             172     0.0 7   21 191 
 BAR2 SZ I        2125 50.14        14.4 0.38                            21 191 
 BRR  HZ EP   1   2125 35.33                             153     0.4 7   72 301 
 BRR  HE ES   1   2125 52.50                             153     0.7 7   72 301 
 BRR  HZ I        2125 54.49        17.1 0.19                            72 301 
 PAM  SZ EP   1   2125 36.14                             151     0.1 7   80  38 
 PAM  SN ES   1   2125 53.36                             151    -0.5 7   80  38 
 RUS  HZ EP   1   2125 37.27                             145     0.0 7   98 176 
 RUS  HN ES   1   2125 56.03                             145     0.1 7   98 176 
 RUS  HZ I        2125 57.29         5.5 0.23                            98 176 
 PTB  HZ EP   1   2125 40.13                             133    -0.4 7  147 260 
 PTB  HN ES   1   2126  1.15                             133    -0.6 7  147 260 
 PTB  HZ I        2126  7.25         8.5 0.41                           147 260 
 ZAR  HE ES   1   2126 11.64                             123     0.0 6  205 293 
 ZAR  HZ I        2126 16.96         9.5 0.29                           205 293 
 NOR  SZ EP   1   2125 49.30                             120     0.2 6  233 235 
                                                                                
