 2013  9 1 2357 28.7 L   6.784 -73.097137.2  RSN  7 0.3 1.7LRSN 2.3WRSN        1
 SPEC AVERAGE  MO 12.5 ST  3.9 OM  1.7 f0 13.5 R0.1640 AL 0.00 WI 20.0 MW  2.3 3
 SPEC SD       MO  0.4 ST0.918 OM  1.2 f0 4.83 R0.0589 AL      WI      MW  0.3 3
 GAP= 98        0.88       4.2     5.1  5.5 -0.3275E+01 -0.4799E+01  0.1154E+01E
 Epicentro: LOS SANTOS - SANTANDER                                             3
 SPEC BRR HH Z MO 12.9 ST  2.9 OM  1.0 f0 8.63 R0.2229 AL-0.00 WI 20.0 MW  2.5 3
 SPEC BRR HH Z T2358 3 K 0.050 GD  157 VS 5.20 DE 3.20 Q0750.0 QA 1.50 VS 5.20 3
 SPEC RUS HH Z MO 12.1 ST  4.8 OM  0.2 f0 18.3 R0.1051 AL-0.00 WI 20.0 MW  2.0 3
 SPEC RUS HH Z T2358 8 K 0.050 GD  168 VS 5.20 DE 3.20 Q0750.0 QA 1.50 VS 5.20 3
 OLDACT:DUP 13-09-02 02:30 OP:stll STATUS:               ID:20130901234850d    3
 ACTION:UPD 13-10-22 09:19 OP:ep   STATUS:               ID:20130901235728 L   I
 OLDACT:UP  13-09-02 03:00 OP:stll STATUS:               ID:20130901234850d    3
 2013-09-01-2348-48M.COL___211                                                 6
 STAT SP IPHASW D HRMM SECON CODA AMPLIT PERI AZIMU VELO AIN AR TRES W  DIS CAZ7
 BAR2 SZ EP       2357 47.08                             170   -0.2610 23.2 204 
 BAR2 SZ ES       2358  1.56                             170   -0.2810 23.2 204 
 BAR2 SZ I        2358  3.11        11.0 0.40            162           23.2 204 
 PAM  SZ IP     C 2357 50.08                             150    0.1510 75.5  36 
 PAM  SN ES       2358  6.89                             150    0.4310 75.5  36 
 PAM  SZ I        2358  9.23         5.8 0.72            136           75.5  36 
 BRR  HZ EP       2357 49.06                             149   -0.2510 76.7 298 
 BRR  HN ES       2358  5.37                             149    0.0310 76.7 298 
 BRR  SZ I        2358  7.02        13.1 0.18            155           76.7 298 
 RUS  HZ EP       2357 51.04                             143   -0.4710 98.6 179 
 RUS  HN ES       2358  9.65                             143    0.3810 98.6 179 
 RUS  SZ I        2358 10.97         4.9 0.32            132           98.6 179 
 CAPV BZ EP       2357 55.01                             130   -0.27 9  147  36 
 TAM  HZ EP       2357 55.36                             130    0.14 9  149 105 
 TAM  SZ I        2358 30.01        10.9 1.86            116            149 105 
 GUY2CHZ EP       2358 13.13                             110    0.78 7  305 236 
 GUY2CSZ I        2358 48.33         3.1 2.32                           305 236 
                                                                                
