 2016  9 1 2339 40.7 L   6.785 -73.150149.4  RSN  8 0.4 1.4LRSN                1
 GAP=137        0.92       3.9     3.8  6.5 -0.2258E+01  0.5628E+01  0.1386E+01E
 Epicentro: LOS SANTOS - SANTANDER                                             3
 ACTION:UPD 17-08-17 21:05 OP:lp   STATUS:               ID:20160901233940 L   I
 OLDACT:REG 16-09-02 03:15 OP:ar   STATUS:               ID:20160901233734     3
 2016-09-01-2338-00M.COL___350                                                 6
 STAT SP IPHASW D HRMM SECON CODA AMPLIT PERI AZIMU VELO AIN AR TRES W  DIS CAZ7
 BAR2 EZ EP       2340  0.75                             171    0.0010 21.6 190 
 BAR2 EZ ES       2340 16.85                             171    0.4810 21.6 190 
 BAR2 EZ I        2340 18.37        10.6 0.38            172           21.6 190 
 BRR  HZ EP       2340  2.52                             153    0.2410 71.6 300 
 BRR  HN ES       2340 19.47                             153    0.3810 71.6 300 
 BRR  HZ I        2340 20.52         4.8 0.57            154           71.6 300 
 PAM  EZ IP     D 2340  3.61                             151    0.2010 79.0  39 
 PAM  EN ES       2340 20.74                             151   -0.3710 79.0  39 
 PAM  EZ I        2340 22.44         4.1 0.40            153           79.0  39 
 RUS  HZ EP       2340  4.69                             145   -0.0210 99.0 176 
 RUS  HN ES       2340 23.10                             145   -0.3310 99.0 176 
 RUS  HZ I        2340 24.53         3.0 0.38            147           99.0 176 
 PTB  HZ EP       2340  7.43                             133   -0.48 9  147 259 
 PTB  HN ES       2340 28.39                             133   -0.73 9  147 259 
 PTB  HZ I        2340 31.01         3.3 0.10            135            147 259 
 SPBC HZ EP   2   2340  9.79                             130    0.45 5  162 219 
 SPBC HN ES       2340 31.74                             130    0.06 9  162 219 
 ZAR  HN ES       2340 38.91                             123   -0.01 9  204 293 
 NOR  HN ES       2340 44.94                             120    0.51 8  233 235 
                                                                                
