 2017 11 1 2123  6.4 L   6.800 -73.150145.7  RSN 12 0.5 1.7LRSN                1
 GAP=111        1.23       3.6     4.2  6.3  0.1790E+01  0.4695E+01  0.1602E+01E
 Epicentro: LOS SANTOS - SANTANDER                                             3
 ACTION:UPD 17-12-12 19:50 OP:rebc STATUS:               ID:20171101212306 L   I
 OLDACT:REG 17-11-02 03:52 OP:osc  STATUS:               ID:20171101211744     3
 2017-11-01-2118-00M.COL___444                                                 6
 STAT SP IPHASW D HRMM SECON CODA AMPLIT PERI AZIMU VELO AIN AR TRES W  DIS CAZ7
 BAR2 EZ EP       2123 26.01                             171   -0.0210 23.2 189 
 BAR2 EZ ES       2123 40.91                             171   -0.4310 23.2 189 
 BAR2 EZ I        2123 41.83        17.1 0.25            171           23.2 189 
 BRR  HZ EP       2123 28.10                             153    0.5710 70.8 299 
 BRR  HE ES       2123 44.74                             153    0.7310 70.8 299 
 BRR  HZ I        2123 50.27         9.4 0.16            151           70.8 299 
 PAM  EZ EP       2123 28.97                             150    0.3410 77.7  40 
 PAM  EN ES       2123 45.64                             150   -0.3310 77.7  40 
 PAM  EZ I        2123 47.97         7.3 0.50            153           77.7  40 
 RUS  HZ EP       2123 30.04                             144   -0.1110  101 176 
 RUS  HN ES       2123 48.26                             144   -0.4210  101 176 
 RUS  HZ I        2123 49.38         5.0 0.38            147            101 176 
 PTB  HZ EP       2123 33.38                             132    0.05 9  147 259 
 PTB  HE ES       2123 53.63                             132   -0.70 9  147 259 
 PTB  HZ I        2123 56.09         5.5 0.22            132            147 259 
 SPBC HZ EP       2123 34.14                             129   -0.73 9  163 219 
 SPBC HN ES       2123 56.53                             129   -0.55 9  163 219 
 SPBC HZ I        2123 57.99        10.7 0.26            131            163 219 
 YPLC HZ EP       2123 36.48                             127    0.26 9  177 151 
 YPLC HE ES       2124  0.25                             127    0.78 9  177 151 
 ZAR  HZ EP       2123 38.81                             122    0.00 9  204 292 
 ZAR  HN ES       2124  4.98                             122    0.90 9  204 292 
 ZAR  HZ I        2124 10.84         7.8 0.26            123            204 292 
 NOR  HZ EP       2123 41.53                             118   -0.56 8  234 234 
 NOR  HE ES       2124 10.67                             118    0.74 8  234 234 
 NOR  HZ I        2124 15.60         3.9 0.42            120            234 234 
 CHI  HZ EP       2123 44.09                             117    0.00 8  249 195 
 CHI  HE ES       2124 13.70                             117    0.22 8  249 195 
 GUY2CHZ EP   9   2123 51.44                             112    1.47 0  301 235 
 GUY2CHN ES       2124 25.27                                   -0.15 7  301 235 
 GUY2CHZ I        2124 33.44         2.7 0.34                           301 235 
 SJC  HZ EP       2124  1.39                             106   -0.55 6  409 327 
 SJC  HE ES       2124 44.39                             106   -0.87 6  409 327 
                                                                                
