 2013 11 1 2321 29.6 L   7.453 -73.165134.7  RSN  7 0.5 1.8LRSN                1
 GAP=137        1.19       5.1     6.1  9.4  0.8357E+01  0.9990E+01 -0.6019E+01E
 Epicentro: EL PLAYON - SANTANDER                                              3
 ACTION:UPD 14-01-09 16:24 OP:ep   STATUS:               ID:20131101232129 L   I
 OLDACT:UP  13-11-02 03:36 OP:cam  STATUS:               ID:20131101231847     3
 OLDACT:REG 13-11-02 03:19 OP:cam  STATUS:               ID:20131101231847     3
 2013-11-01-2318-47M.COL___220                                                 6
 STAT SP IPHASW D HRMM SECON CODA AMPLIT PERI AZIMU VELO AIN AR TRES W  DIS CAZ7
 PAM  SZ EP   2   2321 50.00                             158    0.72 5 52.9 104 
 PAM  SN ES   1   2322  5.19                             158    0.55 7 52.9 104 
 PAM  SZ I        2322  6.92         7.3 0.36            158           52.9 104 
 BRR  HZ EP       2321 49.93                             150    0.3710 71.5 238 
 BRR  HN ES       2322  5.54                             150    0.4010 71.5 238 
 BRR  HZ I        2322  5.74        17.7 0.36            149           71.5 238 
 BAR2 SZ ES       2322  8.09                             143   -0.5110 95.2 181 
 RUS  HZ EP       2321 58.92                             125    0.18 9  173 177 
 RUS  HN ES   1   2322 20.57                             125   -0.92 7  173 177 
 RUS  HZ I        2322 28.13         2.7 0.68            124            173 177 
 PTB  HZ EP       2321 58.42                             124    0.10 9  175 235 
 PTB  HN ES       2322 20.30                             124   -0.43 9  175 235 
 PTB  HZ I        2322 23.33         8.5 0.12            124            175 235 
 SML  HZ EP   1   2321 58.70                             123   -0.05 7  179 326 
 SML  HN ES       2322 20.53                             123   -0.98 9  179 326 
 SML  HZ I        2322 22.27        28.1 0.10            124            179 326 
 ZAR  HZ EP   2   2321 59.98                             122    0.44 4  187 271 
 ZAR  HN ES       2322 23.54                             122    0.64 9  187 271 
 ZAR  HZ I        2322 27.60         9.7 0.40            122            187 271 
                                                                                
