 2010  4 1 2018 17.0 L   6.835 -73.070144.7  RSN  9 0.3 2.8LRSN                1
 GAP=147        0.66       3.2     4.7  4.9 -0.6351E+01 -0.4974E+01  0.3241E+01E
 Epicentro: LOS SANTOS - SANTANDER                                             3
 ACTION:UPD 10-08-24 09:57 OP:vdl  STATUS:               ID:20100401201816 L   I
 2010-04-01-2016-15S.COL___098                                                 6
 STAT SP IPHASW D HRMM SECON CODA AMPLIT PERI AZIMU VELO AIN AR TRES W  DIS CAZ7
 BAR2 SZ IP       2018 36.73                             168     0.110   30 205 
 BAR2 SZ ES   1   2018 51.60                             168    -0.3 7   30 205 
 BRR  HZ IP       2018 38.65                             150     0.310   77 293 
 BRR  HE ES   1   2018 55.37                             150     0.4 7   77 293 
 BRR  HZ I        2018 56.32       104.5 0.12                            77 293 
 OCA  SZ EP       2018 45.00                             130     0.1 9  158 350 
 OCA  SZ ES   1   2019  6.19                             130    -0.6 7  158 350 
 OCA  SZ I        2019 12.97        88.6 0.16                           158 350 
 CHI  HZ EP       2018 55.31                             116     0.1 8  255 197 
 CHI  HE ES   2   2019 24.71                             116    -0.4 4  255 197 
 CHI  HZ I        2019 27.95        22.9 0.42                           255 197 
 HEL  HZ EP   1   2018 58.09                             114     0.0 6  281 255 
 HEL  HN ES   3   2019 29.47                             114    -0.8 2  281 255 
 HEL  HZ I        2019 36.23        23.1 0.45                           281 255 
 DBB  SZ EP   1   2019  4.95                             109    -0.4 5  348 274 
 SDV  BZ IP       2019  6.28                             109     0.4 6  351  50 
 SDV  B1 ES   1   2019 43.66                             109    -0.5 5  351  50 
 ANIL BN ES   2   2019 46.84                             108    -0.5 3  366 225 
 ANIL BZ I        2019 54.49        39.9 0.38                           366 225 
 PRA  HZ EP   1   2019 10.94                             106    -0.4 4  400 210 
 PRA  HE ES   1   2019 53.76                             106     0.0 4  400 210 
 PRA  HZ I        2019 59.01        20.7 0.24                           400 210 
                                                                                
