 2015 12 1 2226 26.9 L   6.384 -73.644 98.7  RSN 21 0.5 2.5LRSN                1
 GAP= 65        1.10       2.0     2.5  5.0 -0.1503E+01  0.3814E+01  0.2075E+00E
 Epicentro: SANTA HELENA DEL OPON - SANTANDER                                  3
 ACTION:UPD 16-02-04 15:01 OP:cam  STATUS:               ID:20151201222626 L   I
 OLDACT:DUP 15-12-02 07:41 OP:ak   STATUS:               ID:20151201221751d    3
 OLDACT:UP  15-12-02 07:40 OP:ak   STATUS:               ID:20151201221750     3
 OLDACT:REG 15-12-02 05:26 OP:ak   STATUS:               ID:20151201221750     3
 2015-12-01-2217-50M.COL___315                                                 6
 STAT SP IPHASW D HRMM SECON CODA AMPLIT PERI AZIMU VELO AIN AR TRES W  DIS CAZ7
 BAR2 EZ EP       2226 42.75                             148    0.3110 56.0  66 
 BAR2 EZ ES       2226 55.28                             148    0.6810 56.0  66 
 BAR2 EZ I        2226 56.50       299.3 0.22            150           56.0  66 
 BRR  HZ EP       2226 43.50                             138   -0.4010 80.3 355 
 BRR  HE ES       2226 57.38                             138    0.1810 80.3 355 
 BRR  HZ I        2226 58.82        32.0 0.07            138           80.3 355 
 RUS  HZ EP       2226 44.75                             138   -0.0210 82.5 131 
 RUS  HE ES       2226 58.27                             138   -0.4710 82.5 131 
 RUS  HZ I        2227  0.66        35.3 0.48            139           82.5 131 
 PTB  HZ EP   2   2226 43.71                             134   -1.17 5 91.4 281 
 PTB  HN ES       2226 57.99                             134   -0.9510 91.4 281 
 PTB  HZ I        2227  0.43        57.6 0.10            133           91.4 281 
 SPBC HZ EP       2226 44.85                             133   -0.3410 93.8 210 
 SPBC HE ES       2226 59.59                             133    0.1010 93.8 210 
 SPBC HZ I        2227  2.67        68.8 0.36            134           93.8 210 
 PAM  EZ EP       2226 50.87                             120   -0.30 9  149  45 
 PAM  EN ES       2227 10.01                             120   -0.13 9  149  45 
 PAM  EZ I        2227 15.35        29.6 0.32            121            149  45 
 NOR  HZ EP       2226 52.01                             117   -0.19 9  163 236 
 NOR  HN ES       2227 11.87                             117   -0.09 9  163 236 
 NOR  HZ I        2227 14.50        59.4 0.16            117            163 236 
 ZAR  HZ EP       2226 53.99                             114   -0.21 9  182 312 
 ZAR  HN ES       2227 15.74                             114    0.21 9  182 312 
 ZAR  HZ I        2227 19.90        53.1 0.48            114            182 312 
 OCA  HZ EP       2226 58.22                             111    0.81 8  208  10 
 OCA  HN ES       2227 21.37                             111    0.13 8  208  10 
 OCA  HZ I        2227 26.60       100.1 0.18            111            208  10 
 HEL  HZ EP       2226 57.54                             111   -0.30 8  210 264 
 HEL  HN ES       2227 22.30                             111    0.29 8  210 264 
 HEL  HZ I        2227 24.69        33.5 0.28            111            210 264 
 GUY2CHZ EP       2227  0.64                             109    0.34 8  230 236 
 GUY2CHE ES       2227 27.21                             109    0.82 8  230 236 
 GUY2CHZ I        2227 30.91        20.8 0.42                           230 236 
 VIL  SZ EP       2227  2.28                             107   -0.12 8  251 181 
 VIL  SN ES       2227 30.67                             107    0.54 8  251 181 
 ELA  HZ EP       2227  3.49                             107   -0.12 8  257 229 
 ELA  HN ES       2227 33.13                             107    0.85 8  257 229 
 ELA  HZ I        2227 37.56        16.0 0.62            107            257 229 
 URE  HZ EP   4   2227  0.57                             107   -2.44 0  258 306 
 URE  HN ES       2227 31.85                             107    0.64 8  258 306 
 URE  HZ I        2227 37.39        26.4 0.26            107            258 306 
 SML  HZ EP       2227  3.71                             106   -0.91 8  271 350 
 SML  HN ES       2227 34.11                             106    0.04 8  271 350 
 SML  HZ I        2227 42.28        26.7 0.13            106            271 350 
 ANIL HZ EP       2227  7.56                             105    0.84 7  286 223 
 ANIL HN ES       2227 37.95                             105    0.13 7  286 223 
 ANIL HZ I        2227 44.34        44.6 0.28            105            286 223 
 ORTC HZ EP       2227 10.88                             103   -0.35 7  326 213 
 ORTC HE ES       2227 46.08                             103    0.24 7  326 213 
 ORTC HZ I        2227 52.38        11.7 0.29            103            326 213 
 PRA  HZ EP       2227 10.34                             103   -0.84 7  326 205 
 PRA  HN ES       2227 45.74                             103   -0.01 7  326 205 
 PRA  HZ I        2227 53.71        17.8 0.18            103            326 205 
 PAL  HZ EP       2227 11.91                             103   -0.40 7  335 241 
 PAL  HN ES       2227 46.99                             103   -0.78 7  335 241 
 PAL  HZ I        2227 51.66         7.2 0.30            103            335 241 
 MON  HZ EP   4   2227 11.78                             102   -1.80 0  346 320 
 MON  HE ES   4   2227 48.65                             102   -1.37 0  346 320 
 MON  HZ I        2227 51.17        10.4 0.18            102            346 320 
 LL6C HZ EP       2227 16.96                             101    0.14 6  373   6 
 LL6C HE ES       2227 56.20                             101    0.41 6  373   6 
                                                                                
