 2012  9 1 2212  9.1 L   7.111 -73.090137.8  RSN  4 0.2 1.9LRSN                1
 GAP=150        0.51       6.2     4.8  5.5 -0.8787E+01  0.1037E+01 -0.3164E+01E
 Epicentro: BUCARAMANGA - SANTANDER                                            3
 ACTION:UPD 12-10-22 14:16 OP:ep   STATUS:               ID:20120901221209 L   I
 2012-09-01-2210-00M.COL___218                                                 6
 STAT SP IPHASW D HRMM SECON CODA AMPLIT PERI AZIMU VELO AIN AR TRES W  DIS CAZ7
 GIR2 SZ EP       2212 27.23                             175   -0.2310 12.0 253 
 PAM  SZ EP       2212 29.09                             159    0.0610 49.9  60 
 PAM  SZ I        2212 29.21        13.1 0.10                          49.9  60 
 PAM  SE ES   1   2212 44.58                             159    0.02 7 49.9  60 
 BAR2 SZ EP       2212 29.34                             156    0.2910 58.3 190 
 BAR2 SZ ES   1   2212 44.40                             156   -0.20 7 58.3 190 
 BAR2 SZ I        2212 46.17        29.0 0.29                          58.3 190 
 BRR  HZ EP       2212 29.14                             152   -0.1310 68.7 270 
 BRR  HE ES   1   2212 45.18                             152    0.20 7 68.7 270 
 BRR  HZ I        2212 46.11        10.9 0.29                          68.7 270 
                                                                                
