 2016 11 1 2239 42.7 L   6.774 -73.098144.1  RSN  6 0.2 1.4LRSN                1
 GAP=144        0.53       2.6     3.5  4.1 -0.2371E+01 -0.1381E+01  0.3616E+01E
 Epicentro: LOS SANTOS - SANTANDER                                             3
 ACTION:UPD 17-10-26 21:03 OP:lp   STATUS:               ID:20161101223942 L   I
 OLDACT:UP  16-11-02 04:59 OP:edw  STATUS:               ID:20161101223746d    3
 OLDACT:UP  16-11-02 04:56 OP:edw  STATUS:               ID:20161101223746d    3
 OLDACT:DUP 16-11-02 04:51 OP:edw  STATUS:               ID:20161101223746d    3
 OLDACT:UP  16-11-02 04:50 OP:edw  STATUS:               ID:20161101223745d    3
 OLDACT:UP  16-11-02 04:49 OP:edw  STATUS:               ID:20161101223745d    3
 OLDACT:DUP 16-11-02 04:43 OP:edw  STATUS:               ID:20161101223745d    3
 OLDACT:REG 16-11-02 04:07 OP:edw  STATUS:               ID:20161101223744     3
 2016-11-01-2238-00M.COL___337                                                 6
 STAT SP IPHASW D HRMM SECON CODA AMPLIT PERI AZIMU VELO AIN AR TRES W  DIS CAZ7
 PAM  EZ EP       2240  4.66                             151    0.0110 76.5  35 
 PAM  EN ES       2240 21.90                             151    0.1010 76.5  35 
 PAM  EZ I        2240 23.88         3.6 0.56            153           76.5  35 
 BRR  HZ EP       2240  3.60                             150   -0.3910 77.1 299 
 BRR  HN ES       2240 20.80                             150    0.1810 77.1 299 
 RUS  HZ EP       2240  6.05                             144    0.0210 97.5 179 
 RUS  HN ES       2240 24.14                             144   -0.1210 97.5 179 
 RUS  HZ I        2240 26.06         3.0 0.40            146           97.5 179 
 PTB  HZ EP   9   2240  8.71                             131   -1.21 0  152 260 
 PTB  HN ES       2240 29.80                             131   -0.17 9  152 260 
 PTB  HZ I        2240 35.36         3.2 0.42            130            152 260 
 ZAR  HZ EP   4   2240 18.64                             121    3.02 0  210 292 
 ZAR  HN ES   4   2240 43.31                             121    1.99 0  210 292 
 ZAR  HZ I        2240 45.96         3.7 0.30            121            210 292 
 PRA  HZ EP       2240 36.48                             106    0.33 6  392 210 
 PRA  HN ES       2241 18.11                             106    0.25 6  392 210 
                                                                                
