 2015  5 1 2251 19.2 L   6.802 -73.125144.0  RSN  5 0.2 1.2LRSN                1
 GAP=139        0.56       3.6     3.4  5.2  0.3540E+01  0.5199E+00  0.4660E+00E
 Epicentro: LOS SANTOS - SANTANDER                                             3
 ACTION:UPD 15-09-10 22:00 OP:cam  STATUS:               ID:20150501225119 L   I
 OLDACT:REG 15-05-02 03:03 OP:spq  STATUS:               ID:20150501224748     3
 2015-05-01-2247-48M.COL___276                                                 6
 STAT SP IPHASW D HRMM SECON CODA AMPLIT PERI AZIMU VELO AIN AR TRES W  DIS CAZ7
 BAR2 EZ ES   1   2251 53.38                             170   -0.44 7 24.1 195 
 BAR2 EZ I        2251 54.34         3.8 0.07            170           24.1 195 
 BRR  HZ EP   1   2251 40.27                             152   -0.02 7 73.1 298 
 BRR  HN ES       2251 57.09                             152    0.3710 73.1 298 
 BRR  HZ I        2252  0.75         3.7 0.20            150           73.1 298 
 PAM  SZ EP       2251 41.16                             151    0.0010 75.8  38 
 PAM  SE ES   1   2251 58.22                             151   -0.04 7 75.8  38 
 PAM  SZ I        2252  0.15         2.4 0.44            153           75.8  38 
 RUS  HZ EP       2251 42.82                             143    0.0110  101 177 
 RUS  HE ES   1   2252  1.36                             143    0.15 7  101 177 
 RUS  HZ I        2252  2.91         1.4 0.34            146            101 177 
 ZAR  HE ES       2252 16.89                             122   -0.25 8  206 292 
 ZAR  HZ I        2252 21.86         1.9 0.34            122            206 292 
                                                                                
