 2016  2 1 2344 31.9 L   6.759 -73.142134.8  RSN  8 0.6 1.7LRSN                1
 GAP=139        1.49       6.5     6.3  9.9 -0.3548E+01  0.2540E+02  0.2824E+01E
 Epicentro: LOS SANTOS - SANTANDER                                             3
 ACTION:UPD 16-03-04 21:22 OP:rebc STATUS:               ID:20160201234431 L   I
 OLDACT:UP  16-02-02 09:38 OP:ar   STATUS:               ID:20160201232611d    3
 OLDACT:REG 16-02-02 04:31 OP:ar   STATUS:               ID:20160201232611d    3
 2016-02-01-233800.mseed                                                       6
 STAT SP IPHASW D HRMM SECON CODA AMPLIT PERI AZIMU VELO AIN AR TRES W  DIS CAZ7
 BAR2 EZ EP       2344 50.09                             172   -0.0310 19.0 194 
 BAR2 EZ ES       2345  3.18                             172   -1.1610 19.0 194 
 BAR2 EZ I        2345  7.53        11.9 0.20            169           19.0 194 
 PAM  EZ EP       2344 53.17                             147    0.0010 80.7  37 
 PAM  EE ES       2345 10.26                             147    0.5010 80.7  37 
 PAM  EZ I        2345 12.49         7.6 0.56            154           80.7  37 
 RUS  HZ EP       2344 54.07                             143   -0.1710 96.0 176 
 RUS  HN ES       2345 12.63                             143    0.9610 96.0 176 
 RUS  HZ I        2345 14.10         4.7 0.26            144           96.0 176 
 PTB  HZ EP       2344 56.94                             129   -1.01 9  147 261 
 PTB  HN ES       2345 18.31                             129    0.03 9  147 261 
 PTB  HZ I        2345 22.54         7.3 0.12            130            147 261 
 ZAR  HZ EP     D 2345  4.45                             119    0.57 8  206 293 
 ZAR  HN ES       2345 29.16                             119    0.34 8  206 293 
 ZAR  HZ I        2345 34.34        10.2 0.50            121            206 293 
 NOR  HZ EP       2345  6.61                             116   -0.15 8  232 235 
 NOR  HN ES       2345 34.52                             116    0.56 8  232 235 
 NOR  HZ I        2345 40.52         7.1 0.20            118            232 235 
 CHI  HZ EP       2345  8.29                             115   -0.25 8  244 196 
 CHI  HN ES   4   2345 35.81                             115   -1.31 0  244 196 
 CHI  HZ I        2345 43.51         2.7 0.26            117            244 196 
 GUY2CHZ EP   4   2345 16.41                             110    1.65 0  299 236 
 GUY2CBE ES   4   2345 52.60                             110    4.40 0  299 236 
 GUY2CHZ I        2345 56.79         4.8 0.42                           299 236 
                                                                                
