 2017 11 1 2303 41.6 L   6.468 -73.457122.0  RSN 10 0.5 1.4LRSN                1
 GAP= 69        1.34       3.8     4.0  7.5  0.9208E+00  0.8442E+01  0.7360E+01E
 Epicentro: SIMACOTA - SANTANDER                                               3
 ACTION:UPD 17-12-12 19:50 OP:rebc STATUS:               ID:20171101230341 L   I
 OLDACT:DUP 17-11-02 08:44 OP:osc  STATUS:               ID:20171101225739d    3
 OLDACT:REG 17-11-02 05:50 OP:osc  STATUS:               ID:20171101225738     3
 2017-11-01-2258-00M.COL___438                                                 6
 STAT SP IPHASW D HRMM SECON CODA AMPLIT PERI AZIMU VELO AIN AR TRES W  DIS CAZ7
 BAR2 EZ EP       23 3 58.26                             163   -0.4110 33.3  66 
 BAR2 EZ ES       23 4 12.49                             163    0.5110 33.3  66 
 BAR2 EZ I        23 4 17.65         9.0 0.16            165           33.3  66 
 RUS  HZ EP       23 4  1.14                             146   -0.1110 75.9 147 
 RUS  HE ES       23 4 16.35                             146   -0.2310 75.9 147 
 RUS  HZ I        23 4 19.14         4.5 0.38            145           75.9 147 
 BRR  HZ EP       23 4  0.09                             145   -0.4710 76.1 338 
 BRR  HN ES       23 4 15.03                             145   -0.3210 76.1 338 
 PTB  HZ EP   9   23 4  1.95                             134   -1.35 0  111 274 
 PTB  HN ES       23 4 18.14                             131   -0.7410  111 274 
 PTB  HZ I        23 4 22.85         2.9 0.10            134            111 274 
 PAM  EZ EP       23 4  5.77                             130    0.3210  128  41 
 PAM  EN ES       23 4 23.99                             130   -0.0510  128  41 
 PAM  EZ I        23 4 24.86         4.7 0.22            132            128  41 
 YPLC HZ EP       23 4  9.03                             122    0.15 9  168 135 
 YPLC HN ES       23 4 30.52                             122    0.37 9  168 135 
 NOR  HZ EP       23 4  9.22                             119   -1.47 9  186 237 
 NOR  HE ES       23 4 33.46                             119    0.08 9  186 237 
 NOR  HZ I        23 4 37.03         2.3 0.16            118            186 237 
 ZAR  HZ EP       23 4 12.10                             118    0.81 9  192 306 
 ZAR  HN ES       23 4 34.69                             118    0.24 9  192 306 
 ZAR  HZ I        23 4 38.27         4.8 0.32            118            192 306 
 CHI  HZ EP       23 4 12.79                             116   -0.52 8  206 189 
 CHI  HZ I        23 4 32.62         1.9 0.15            116            206 189 
 CHI  HN ES       23 4 38.32                             116    0.28 8  206 189 
 GUY2CHZ EP       23 4 19.48                             111    0.90 8  252 237 
 GUY2CHE ES       23 4 47.84                             111    0.42 8  252 237 
 GUY2CHZ I        23 4 56.81         2.0 0.72                           252 237 
                                                                                
