 2012  4 1 2043 13.3 L   6.789 -73.176145.9  RSN  5 0.3 1.5LRSN                1
 GAP=133        0.70       4.8     4.2  8.1  0.1410E+01  0.5514E+01  0.4025E+01E
 Epicentro: LOS SANTOS - SANTANDER                                             3
 ACTION:UPD 12-07-05 11:49 OP:tino STATUS:               ID:20120401204313 L   I
 2012-04-01-2040-00M.COL___196                                                 6
 STAT SP IPHASW D HRMM SECON CODA AMPLIT PERI AZIMU VELO AIN AR TRES W  DIS CAZ7
 BRR  HZ EP   1   2043 34.73                             153     0.4 7   69 301 
 BRR  HE ES   1   2043 51.21                             153     0.5 7   69 301 
 PAM  SZ EP   1   2043 35.74                             150     0.0 7   81  41 
 PAM  SN ES   1   2043 52.83                             150    -0.4 7   81  41 
 RUS  HZ EP   1   2043 36.95                             144    -0.1 7  100 174 
 RUS  HN ES   1   2043 55.61                             144     0.1 7  100 174 
 RUS  HZ I        2043 57.02         3.9 0.41                           100 174 
 PTB  HZ EP   1   2043 39.94                             133     0.0 7  144 259 
 PTB  HN ES   1   2044  0.25                             133    -0.5 7  144 259 
 PTB  HZ I        2044  7.81         3.3 0.32                           144 259 
 ZAR  HN ES   1   2044 10.51                             123    -0.1 6  201 293 
 ZAR  HZ I        2044 17.31         5.3 0.02                           201 293 
                                                                                
