 2015  1 1 2354 27.8 L   6.803 -73.152148.0  RSN 12 0.4 1.8LRSN                1
 GAP=136        0.75       2.7     3.4  4.9 -0.1535E+00  0.1925E+01  0.5238E+00E
 Epicentro: LOS SANTOS - SANTANDER                                             3
 ACTION:UPD 15-03-02 15:36 OP:nd   STATUS:               ID:20150101235427 L   I
 OLDACT:UP  15-01-02 10:48 OP:spq  STATUS:               ID:20150101234747d    3
 OLDACT:DUP 15-01-02 10:43 OP:spq  STATUS:               ID:20150101234747d    3
 2015-01-01-2347-46M.COL___277                                                 6
 STAT SP IPHASW D HRMM SECON CODA AMPLIT PERI AZIMU VELO AIN AR TRES W  DIS CAZ7
 BAR2 EZ EP   1   2354 47.50                             171   -0.18 7 23.5 188 
 BAR2 EZ ES   1   2355  3.22                             171    0.02 7 23.5 188 
 BAR2 EZ I        2355  6.20         9.6 0.16            169           23.5 188 
 BRR  HZ EP     C 2354 49.15                             153    0.0310 70.4 299 
 BRR  HE ES       2355  6.09                             153    0.3210 70.4 299 
 BRR  HZ I        2355  7.20        10.1 0.12            152           70.4 299 
 PAM  SZ EP       2354 50.25                             151    0.0110 77.6  40 
 RUS  HZ EP   1   2354 51.52                             144   -0.25 7  101 176 
 RUS  HE ES   1   2355 10.00                             144   -0.48 7  101 176 
 RUS  HZ I        2355 11.55         4.0 0.24            144            101 176 
 PTB  HZ EP   1   2354 54.33                             133   -0.53 7  147 259 
 PTB  HE ES       2355 15.83                             133   -0.17 9  147 259 
 PTB  HZ I        2355 17.64         7.0 0.18            132            147 259 
 OCA  HN ES   1   2355 18.80                             130    0.38 7  160 353 
 OCA  HZ I        2355 21.05         9.1 0.22            132            160 353 
 ZAR  HZ EP       2355  0.29                             123    0.01 9  203 292 
 ZAR  HN ES       2355 25.84                             123    0.20 9  203 292 
 ZAR  HZ I        2355 31.69        10.3 0.40            123            203 292 
 NOR  HZ EP       2355  3.98                             119    0.39 8  234 234 
 NOR  HE ES       2355 31.26                             119   -0.26 8  234 234 
 NOR  HZ I        2355 37.82         4.6 0.14            119            234 234 
 SML  HZ EP   1   2355  3.71                             118   -0.75 6  243 335 
 SML  HE ES   1   2355 32.82                             118   -0.26 6  243 335 
 SML  HZ I        2355 34.03        12.3 0.10            119            243 335 
 CHI  HZ EP   1   2355  6.19                             118    0.59 6  249 195 
 CHI  HN ES   1   2355 35.89                             118    0.78 6  249 195 
 CHI  HZ I        2355 40.85         1.9 0.30            118            249 195 
 HEL  HZ EP   1   2355  8.63                             115    0.60 6  271 256 
 HEL  HE ES   1   2355 38.89                             115   -0.54 6  271 256 
 HEL  HZ I        2355 44.26         2.2 0.28            116            271 256 
 SJC  HZ EP   4   2355 21.71                             106   -1.62 0  409 327 
 SJC  HN ES   4   2356  2.52                             106   -4.15 0  409 327 
 SJC  HZ I        2356  6.04         1.7 0.42            107            409 327 
                                                                                
