 2011 10 1 2338 38.5 L   6.806 -73.137133.4  RSN  5 0.4 1.7LRSN                1
 GAP=137        0.87       6.5     8.7  9.2  0.4776E+01 -0.1704E+02  0.9529E+00E
 Epicentro: LOS SANTOS - SANTANDER                                             3
 ACTION:UPD 12-07-13 16:01 OP:ep   STATUS:               ID:20111001233838 L   I
 2011-10-01-2336-21S.COL___168                                                 6
 STAT SP IPHASW D HRMM SECON CODA AMPLIT PERI AZIMU VELO AIN AR TRES W  DIS CAZ7
 BTL  SZ EP   3   2338 56.72                             171    0.13 2 19.0 311 
 BAR2 SZ ES   1   2339 10.09                             169   -0.76 7 24.2 192 
 BAR2 SZ I        2339 12.05        10.9 0.66                          24.2 192 
 BRR  HZ EP       2338 58.02                             150   -0.3610 71.7 298 
 BRR  HE ES   1   2339 14.48                             150    0.61 7 71.7 298 
 BRR  HZ I        2339 18.43        10.5 0.14                          71.7 298 
 PAM  SZ EP       2338 59.36                             149    0.0010 76.2  39 
 PAM  SN ES   2   2339 16.06                             149    0.44 5 76.2  39 
 RUS  HZ EP       2339  1.34                             141    0.2110  101 177 
 RUS  HN ES   2   2339 19.27                             141    0.51 5  101 177 
                                                                                
