 2017  7 1 2344 26.6 L   6.723 -73.110 93.6  RSN  7 0.3 1.5LRSN                1
 GAP=163        0.59       2.3     2.8  8.1 -0.1679E+01  0.9898E+01  0.5136E+01E
 Epicentro: JORDAN - SANTANDER                                                 3
 ACTION:UPD 17-08-30 15:28 OP:rebc STATUS:               ID:20170701234426 L   I
 OLDACT:UP  17-07-02 05:42 OP:lv   STATUS:               ID:20170701233642     3
 OLDACT:REG 17-07-02 04:14 OP:lv   STATUS:               ID:20170701233642     3
 2017-07-01-2338-00M.COL___380                                                 6
 STAT SP IPHASW D HRMM SECON CODA AMPLIT PERI AZIMU VELO AIN AR TRES W  DIS CAZ7
 BRR  HZ EP       2344 43.08                             136    0.0410 78.9 303 
 BRR  HN ES   4   2345  0.22                             136    4.34 0 78.9 303 
 BRR  HZ I        2345  1.89         6.7 0.26            146           78.9 303 
 PAM  EZ EP       2344 44.07                             136    0.1110 81.9  34 
 PAM  EN ES       2344 57.39                             136   -0.1410 81.9  34 
 PAM  EZ I        2345  3.49         8.6 0.43            149           81.9  34 
 PTB  HZ EP   4   2344 48.04                             117   -2.12 0  150 262 
 PTB  HN ES       2345  8.95                             117    0.39 9  150 262 
 PTB  HZ I        2345 11.35         2.8 0.14            126            150 262 
 SPBC HE ES       2345 10.15                             116   -0.35 9  159 222 
 SPBC HZ I        2345 15.23         9.3 0.11            125            159 222 
 ZAR  HZ EP       2344 57.23                             109    0.18 8  211 294 
 ZAR  HN ES       2345 20.46                             109   -0.36 8  211 294 
 ZAR  HZ I        2345 26.10         5.9 0.17            117            211 294 
 CHI  HN ES       2345 28.28                             106    0.19 8  242 197 
 CHI  HZ I        2345 34.33         2.5 0.18            114            242 197 
 PTGC HZ EP   4   2345  4.17                             103   -3.35 0  299 159 
 PTGC HN ES   4   2345 37.67                             103   -1.80 0  299 159 
 ORTC HZ EP   3   2345 17.58                              99   -1.09 1  391 217 
 ORTC HN ES       2345 59.23                              99   -0.07 6  391 217 
                                                                                
