 2011  1 1 2130  8.6 L   6.751 -73.184142.0  RSN  7 0.2 1.8LRSN                1
 GAP=160        0.48       2.2     8.1  5.7 -0.3817E+01  0.7679E+01  0.5702E+00E
 Epicentro: VILLANUEVA - SANTANDER                                             3
 ACTION:UP  11-02-08 08:37 OP:pat  STATUS:               ID:20110101213008 L   I
 2011-01-01-2120-00M.COL___135                                                 6
 STAT SP IPHASW D HRMM SECON CODA AMPLIT PERI AZIMU VELO SNR AR TRES W  DIS CAZ7
 BAR2 SZ EP   1   2130 27.47                             173    -0.2 8   18 180 
 BAR2 SZ ES   2   2130 42.65                             173     0.1 5   18 180 
 BAR2 SZ I        2130 44.30        41.3 0.27                            18 180 
 GIR2 SZ EP   1   2130 27.72                             165    -0.2 8   36 358 
 RUS  HZ EP   1   2130 31.42                             144    -0.2 8   96 173 
 RUS  HN ES   2   2130 49.58                             144     0.0 5   96 173 
 RUS  HZ I        2130 51.46        12.7 0.41                            96 173 
 GRA  SZ IP       2130 34.29                             134     0.310  132  19 
 GRA  SZ ES   1   2130 54.00                             134     0.1 7  132  19 
 GRA  SZ I        2131  0.22         7.8 0.29                           132  19 
 OCA  SZ EP   2   2130 36.88                             128    -0.2 5  165 355 
 OCA  SZ ES   2   2130 58.93                             128    -0.4 5  165 355 
 OCA  SZ I        2131  5.22        11.8 0.19                           165 355 
 YOP  SZ EP   2   2130 37.76                             126    -0.3 5  176 151 
 YOP  SZ I        2130 47.25         3.0 0.41                           176 151 
 YOP  SN ES   2   2131  0.97                             126    -0.1 5  176 151 
 CHI  HZ EP   1   2130 45.64                             117     0.3 6  242 195 
 CHI  HE ES   2   2131 14.44                             117     0.4 4  242 195 
 CHI  HZ I        2131 20.84         2.5 0.39                           242 195 
                                                                                
