 2013  2 1 2056 37.9 L   6.553 -73.610 18.2  RSN  5 0.4 1.4LRSN                1
 GAP=128        0.76       4.5     1.9  5.6  0.1052E+01 -0.9778E-01 -0.1687E+02E
 Epicentro: EL CARMEN DE CHUCURI - SANTANDER                                   3
 ACTION:UPD 13-03-12 09:29 OP:ep   STATUS:               ID:20130201205637 L   I
 2013-02-01-2050-00M.COL___241                                                 6
 STAT SP IPHASW D HRMM SECON CODA AMPLIT PERI AZIMU VELO AIN AR TRES W  DIS CAZ7
 BAR2 SZ EP   1   2056 46.52                             109    0.27 7 47.5  85 
 BAR2 SZ ES   1   2056 52.62                             109   -0.17 7 47.5  85 
 BAR2 SZ I        2056 54.19        25.7 0.46            112           47.5  85 
 RUS  HZ EP   1   2056 53.93                              99    0.63 7 93.5 141 
 RUS  HN ES   1   2057  4.90                              99   -0.44 7 93.5 141 
 RUS  HZ I        2057  6.31         3.9 0.16            102           93.5 141 
 PTB  HZ EP       2056 52.80                              99   -0.0210 93.6 269 
 PTB  HN ES   1   2057  4.20                              99   -0.30 7 93.6 269 
 PTB  HZ I        2057  5.78        26.4 0.12            101           93.6 269 
 PAM  SZ EP   1   2056 59.54                              56    0.44 7  133  49 
 PAM  SN ES   1   2057 15.15                              56   -0.52 7  133  49 
 PAM  SZ I        2057 15.83         5.5 0.34             56            133  49 
 ZAR  HE ES   1   2057 23.63                              56    0.16 7  173 307 
                                                                                
