 2012 12 1 2229  6.1 L   6.785 -73.173139.3  RSN  9 0.4 1.8LRSN                1
 GAP=134        0.75       3.3     4.2  6.5 -0.1503E+01  0.8149E+01  0.4332E+01E
 Epicentro: LOS SANTOS - SANTANDER                                             3
 ACTION:UPD 13-01-04 14:25 OP:ep   STATUS:               ID:20121201222906 L   I
 2012-12-01-2227-51M.COL___207                                                 6
 STAT SP IPHASW D HRMM SECON CODA AMPLIT PERI AZIMU VELO AIN AR TRES W  DIS CAZ7
 BAR2 SZ EP   1   2229 25.08                             171    0.20 7 21.4 183 
 BAR2 SZ ES   1   2229 39.63                             171    0.08 7 21.4 183 
 BAR2 SZ I        2229 41.50        28.5 0.20                          21.4 183 
 GIR2 SZ EP   1   2229 25.03                             166    0.03 7 32.5 356 
 GIR2 SZ ES   1   2229 40.08                             166    0.31 7 32.5 356 
 GIR2 SZ I        2229 42.14        13.3 0.36                          32.5 356 
 PAM  SZ EP   1   2229 27.99                             149    0.20 7 80.5  40 
 PAM  SN ES   1   2229 44.90                             149    0.16 7 80.5  40 
 PAM  SZ I        2229 47.05        11.7 0.42                          80.5  40 
 RUS  HZ EP   1   2229 29.12                             143    0.04 7 99.2 174 
 RUS  HE ES   1   2229 46.86                             143   -0.18 7 99.2 174 
 RUS  HZ I        2229 49.36         5.2 0.38                          99.2 174 
 PTB  HZ EP   1   2229 32.03                             131   -0.18 7  145 259 
 PTB  HN ES   1   2229 52.06                             131   -0.54 7  145 259 
 PTB  HZ I        2229 55.22         8.2 0.16                           145 259 
 OCA  HN ES   1   2229 54.90                             128   -0.89 7  162 354 
 ZAR  HN ES   1   2230  3.24                             121    0.56 6  202 293 
 ZAR  HZ I        2230  8.86         8.6 0.32                           202 293 
 NOR  HN ES   1   2230  8.88                             117    0.53 6  231 234 
 CHI  HZ EP   1   2229 43.48                             116    0.32 6  246 195 
 CHI  HN ES   1   2230 11.40                             116   -0.69 6  246 195 
 CHI  HZ I        2230 19.87         3.0 0.36                           246 195 
                                                                                
