 2012  4 1 2159 17.3 L   6.775 -73.111146.5  RSN  5 0.2 1.7LRSN                1
 GAP=142        0.47       3.2     2.9  6.1  0.6925E+00  0.1862E+01  0.1079E+01E
 Epicentro: LOS SANTOS - SANTANDER                                             3
 ACTION:UPD 12-07-05 11:49 OP:tino STATUS:               ID:20120401215917 L   I
 2012-04-01-2155-36M.COL___151                                                 6
 STAT SP IPHASW D HRMM SECON CODA AMPLIT PERI AZIMU VELO AIN AR TRES W  DIS CAZ7
 BRR  HZ EP   1   2159 38.80                             151     0.0 7   76 299 
 BRR  HZ I        2159 49.51        12.0 0.31                            76 299 
 BRR  HE ES   1   2159 55.80                             151     0.2 7   76 299 
 PAM  SZ EP   1   2159 39.87                             151     0.3 7   77  36 
 PAM  SN ES   1   2159 56.75                             151    -0.2 7   77  36 
 RUS  HZ EP   1   2159 40.81                             145    -0.1 7   98 178 
 RUS  HN ES   1   2159 59.34                             145     0.0 7   98 178 
 RUS  HZ I        22 0  0.94         2.8 0.26                            98 178 
 PTB  HN ES   1   22 0  6.00                             131     0.1 7  151 260 
 ZAR  HE ES   1   22 0 15.74                             122    -0.3 6  209 292 
 ZAR  HZ I        22 0 21.65         8.3 0.20                           209 292 
                                                                                
