 2015  9 1 2201  5.3 L   6.846 -73.292126.1  RSN  7 0.3 1.8LRSN                1
 GAP=106        0.65       2.4     3.0  4.7  0.3422E+00  0.3138E+01 -0.3736E+00E
 Epicentro: ZAPATOCA - SANTANDER                                               3
 ACTION:UPD 15-10-28 16:23 OP:cam  STATUS:               ID:20150901220105 L   I
 OLDACT:REG 15-09-02 04:40 OP:spq  STATUS:               ID:20150901215746     3
 2015-09-01-2157-46M.COL___361                                                 6
 STAT SP IPHASW D HRMM SECON CODA AMPLIT PERI AZIMU VELO AIN AR TRES W  DIS CAZ7
 BAR2 EZ EP     C 22 1 22.91                             166    0.1310 30.5 157 
 BAR2 EZ ES   1   22 1 36.38                             166   -0.02 7 30.5 157 
 BAR2 EZ I        22 1 37.22        32.7 0.30            167           30.5 157 
 BRR  HZ EP       22 1 23.44                             155    0.0210 54.7 302 
 BRR  HE ES       22 1 37.40                             155   -0.1510 54.7 302 
 BRR  HZ I        22 1 38.16        12.6 0.30            154           54.7 302 
 PAM  EZ EP   1   22 1 26.36                             144    0.34 7 85.2  50 
 PAM  EE ES       22 1 42.05                             144   -0.1310 85.2  50 
 PAM  EZ I        22 1 44.64         5.8 0.28            144           85.2  50 
 RUS  HZ EP       22 1 28.07                             137    0.2810  108 168 
 RUS  HE ES   1   22 1 45.30                             137   -0.01 7  108 168 
 RUS  HZ I        22 1 47.54         3.5 0.36            138            108 168 
 SPBC HZ EP   1   22 1 31.00                             125   -0.84 7  158 213 
 SPBC HN ES       22 1 52.51                             125   -0.02 9  158 213 
 SPBC HZ I        22 1 53.96        11.0 0.22            126            158 213 
 ZAR  HN ES       22 1 58.13                             120    0.41 9  187 293 
 ZAR  HZ I        22 2  0.26         6.0 0.34            120            187 293 
 SML  HZ EP       22 1 39.52                             114   -0.17 8  233 338 
 SML  HE ES   1   22 2  6.21                             114   -0.29 6  233 338 
 SML  HZ I        22 2 10.92        10.9 0.10            114            233 338 
                                                                                
