 2010 12 1 2122 22.1 L   6.786 -73.065142.9  RSN 17 0.4 3.6LRSN                1
 GAP=132        0.97       3.1     5.2  5.1 -0.6216E+01  0.1227E+01  0.3590E+01E
 Epicentro: LOS SANTOS - SANTANDER                                             3
 ACTION:UP  11-01-14 15:22 OP:pat  STATUS:               ID:20101201212222 L   I
 2010-12-01-2118-18S.COL___133                                                 6
 STAT SP IPHASW D HRMM SECON CODA AMPLIT PERI AZIMU VELO SNR AR TRES W  DIS CAZ7
 BAR2 SZ IP       2122 41.80                             170     0.410   25 211 
 BAR2 SZ ES   1   2122 56.01                             170    -0.5 7   25 211 
 BAR2 SZ I        2122 57.25      1098.0 0.47                            25 211 
 GIR2 SZ IP       2122 41.91                             165     0.310   35 336 
 GIR2 SZ ES   1   2122 56.52                             165    -0.2 7   35 336 
 BRR  HZ IP     D 2122 43.75                             149     0.310   80 296 
 BRR  HZ I        2122 43.97       897.0 0.23                            80 296 
 BRR  HN ES       2123  0.38                             149     0.210   80 296 
 RUS  HZ IP     C 2122 45.77                             144     0.310   99 181 
 RUS  HN ES   1   2123  3.62                             144     0.0 7   99 181 
 RUS  HZ I        2123  5.06       437.1 0.24                            99 181 
 GRA  SZ IP       2122 46.18                             137    -0.810  125  13 
 GRA  SZ I        2122 47.48       983.1 0.27                           125  13 
 GRA  SZ ES   1   2123  6.61                             137     0.2 7  125  13 
 OCA  SZ IP       2122 50.48                             128     0.0 9  163 350 
 OCA  SZ ES   1   2123 12.53                             128    -0.1 7  163 350 
 OCA  SZ I        2123 16.30       832.7 0.24                           163 350 
 NOR  SZ EP   1   2122 57.62                             117    -0.8 6  241 236 
 NOR  SE ES   1   2123 26.51                             117    -0.2 6  241 236 
 CHI  HZ EP       2123  0.01                             116     0.2 8  250 197 
 CHI  HE ES       2123 28.58                             116    -0.6 8  250 197 
 CHI  HZ I        2123 32.47       139.7 0.64                           250 197 
 HEL  HZ EP   1   2123  2.37                             113    -0.7 6  280 257 
 HEL  HZ I        2123 41.42       158.5 0.48                           280 257 
 VIL  SE ES   2   2123 39.34                             112     0.5 4  302 192 
 GUY  SZ EP   1   2123  6.81                             111     0.5 5  308 236 
 GUY  SE ES   1   2123 41.35                             111     0.5 5  308 236 
 GUY  SZ I        2123 47.67       150.2 0.39                           308 236 
 RREF HZ EP   1   2123  9.06                             110     0.3 5  328 231 
 RREF HN ES   1   2123 44.95                             110    -0.3 5  328 231 
 RREF HZ I        2123 50.57       106.0 0.61                           328 231 
 DBB  SZ IP       2123 10.22                             108    -0.3 6  349 274 
 DBB  SZ I        2123 48.81        43.1 0.43                           349 274 
 TOL  SZ EP   1   2123 11.30                             108     0.4 5  349 226 
 SDV  BZ IP     D 2123 11.59                             108     0.2 6  355  49 
 SDV  BZ I        2123 12.43        96.1 0.43                           355  49 
 PRA  HZ EP   1   2123 16.20                             106     0.3 4  395 211 
 PRA  HN ES   1   2123 57.96                             106     0.1 4  395 211 
 PRA  HZ I        2124  5.68       297.0 0.25                           395 211 
 SJA  SZ EP   1   2123 16.00                             106    -0.6 4  401 194 
 SJA  SZ I        2124  4.72       207.8 0.56                           401 194 
                                                                                
