 2010  5 1 2053 46.8 L   6.768 -72.962142.1  RSN 14 0.5 2.8LRSN                1
 GAP=165        0.95       4.9     6.4  5.9 -0.1946E+02 -0.8086E+01  0.1015E+02E
 Epicentro: CEPITA - SANTANDER                                                 3
 ACTION:UP  10-08-24 10:02 OP:vdl  STATUS:               ID:20100501205346 L   I
 2010-05-01-2051-50S.COL___105                                                 6
 STAT SP IPHASW D HRMM SECON CODA AMPLIT PERI AZIMU VELO SNR AR TRES W  DIS CAZ7
 BAR2 SZ EP       2054  6.24                             167     0.110   31 231 
 BAR2 SZ ES   1   2054 21.22                             167    -0.1 7   31 231 
 GIR2 SZ EP       2054  6.28                             162    -0.110   43 323 
 GIR2 SZ ES   1   2054 21.29                             162    -0.4 7   43 323 
 BRR  HZ IP     C 2054  8.68                             146    -0.110   91 294 
 BRR  HZ I        2054  9.02       218.1 0.28                            91 294 
 BRR  HN ES       2054 26.33                             146     0.410   91 294 
 BRI  SZ IP       2054 10.74                             141     0.610  106  10 
 GUE  SZ EP       2054 11.07                             138    -0.210  117   2 
 GRA  SZ EP       2054 11.97                             136     0.410  125   8 
 OCA  SZ EP       2054 14.74                             128    -0.8 9  167 346 
 OCA  SZ ES   1   2054 37.52                             128    -0.4 7  167 346 
 OCA  SZ I        2054 42.52        83.4 0.26                           167 346 
 ROSC BZ EP       2054 25.86                             115     0.3 8  261 215 
 ROSC BN ES   2   2054 55.61                             115    -0.3 4  261 215 
 ROSC BZ I        2055  0.88        75.0 0.10                           261 215 
 HEL  HZ EP       2054 28.59                             112    -0.3 7  291 257 
 HEL  HN ES   1   2055  2.18                             112     0.4 5  291 257 
 HEL  HZ I        2055  5.53        37.1 0.11                           291 257 
 RREF BZ EP   2   2054 34.38                             109     0.1 3  335 232 
 RREF BN ES       2055 11.59                             109     0.2 7  335 232 
 RREF BZ I        2055 16.55        34.1 0.80                           335 232 
 SDV  BZ EP   1   2054 35.50                             108     0.3 5  347  48 
 SDV  BZ I        2055 16.02         4.4 0.96                           347  48 
 TOL  SZ EP       2054 37.02                             108     0.7 6  356 227 
 ANIL BZ EP   1   2054 37.95                             107     0.1 5  369 227 
 ANIL BN ES   2   2055 16.53                             107    -1.2 3  369 227 
 PRA  HZ EP   1   2054 39.84                             106    -1.2 4  399 212 
 PRA  HN ES   2   2055 22.51                             106    -0.9 3  399 212 
 PRA  HZ I        2055 26.96        18.9 0.69                           399 212 
                                                                                
