 2013  7 1 2333 50.4 L   6.810 -73.000145.4  RSN  5 0.3 1.4LRSN                1
 GAP=221        0.72       6.5     7.0  6.1  0.2976E+02 -0.7665E+00 -0.3998E+01E
 Epicentro: CEPITA - SANTANDER                                                 3
 ACTION:UPD 13-08-12 10:34 OP:ep   STATUS:               ID:20130701233350 L   I
 OLDACT:REG 13-07-02 00:40 OP:carl STATUS:               ID:20130701232959     3
 2013-07-01-2329-59M.COL___267                                                 6
 STAT SP IPHASW D HRMM SECON CODA AMPLIT PERI AZIMU VELO AIN AR TRES W  DIS CAZ7
 BAR2 SZ EP       2334 10.36                             167    0.2110 31.4 220 
 BAR2 SZ ES       2334 25.83                             167    0.2510 31.4 220 
 BAR2 SZ I        2334 27.44         6.1 0.20            162           31.4 220 
 GIR2 SZ EP       2334 10.25                             165    0.0910 36.6 324 
 GIR2 SZ ES   1   2334 25.76                             165    0.17 7 36.6 324 
 GIR2 SZ I        2334 26.07         3.3 0.32            164           36.6 324 
 BRR  HZ EP       2334 12.05                             148   -0.2810 85.2 293 
 BRR  HN ES       2334 28.97                             148   -0.4910 85.2 293 
 BRR  HZ I        2334 29.71         6.3 0.12            145           85.2 293 
 RUS  HZ EP   1   2334 14.01                             143   -0.17 7  102 185 
 RUS  HN ES   1   2334 32.63                             143   -0.13 7  102 185 
 RUS  HZ I        2334 34.22         2.2 0.30            141            102 185 
 ZAR  HE ES       2334 51.21                             120    0.42 8  219 290 
 ZAR  HZ I        2334 55.01         5.7 0.46            119            219 290 
                                                                                
