 2016 11 1 2338 32.2 L   6.903 -73.290124.9  RSN 21 0.5 2.5LRSN                1
 GAP= 54        1.17       3.9     3.9  5.8 -0.3481E+01  0.5660E+01  0.4002E+01E
 Epicentro: BETULIA - SANTANDER                                                3
 ACTION:UPD 17-10-26 21:03 OP:lp   STATUS:               ID:20161101233832 L   I
 OLDACT:UP  16-11-02 04:24 OP:edw  STATUS:               ID:20161101233742     3
 OLDACT:UP  16-11-02 04:24 OP:edw  STATUS:               ID:20161101233742     3
 OLDACT:UP  16-11-02 04:23 OP:edw  STATUS:               ID:20161101233742     3
 OLDACT:UP  16-11-02 04:22 OP:edw  STATUS:               ID:20161101233742     3
 OLDACT:REG 16-11-02 04:12 OP:edw  STATUS:               ID:20161101233742     3
 2016-11-01-2338-00M.COL___343                                                 6
 STAT SP IPHASW D HRMM SECON CODA AMPLIT PERI AZIMU VELO AIN AR TRES W  DIS CAZ7
 BAR2 EZ IP     C 2338 49.78                             163    0.0710 36.4 161 
 BAR2 EZ ES       2339  3.29                             163   -0.0910 36.4 161 
 BAR2 EZ I        2339  4.29       108.8 0.14            163           36.4 161 
 BRR  HZ EP       2338 50.18                             156    0.1610 51.8 296 
 BRR  HN ES       2339  4.25                             156    0.3210 51.8 296 
 BRR  HZ I        2339  5.15       119.1 0.12            153           51.8 296 
 PAM  EZ IP     C 2338 52.81                             144    0.3110 81.2  53 
 PAM  EN ES       2339  8.66                             144    0.3310 81.2  53 
 PAM  EZ I        2339 11.76        69.3 0.52            146           81.2  53 
 RUS  HZ EP     C 2338 54.41                             135   -0.6710  114 168 
 RUS  HN ES       2339 12.22                             135   -0.7010  114 168 
 RUS  HZ I        2339 13.44        34.9 0.24            134            114 168 
 PTB  HZ EP   9   2338 55.08                             129   -1.25 0  135 253 
 PTB  HN ES       2339 12.89                             129   -1.0110  135 253 
 PTB  HZ I        2339 17.50        52.0 0.12            127            135 253 
 SPBC HZ EP       2338 58.43                             124   -0.75 9  163 212 
 SPBC HN ES   4   2339 19.11                             124   -1.12 0  163 212 
 SPBC HZ I        2339 23.51        46.8 0.32            122            163 212 
 TAM  HZ IP     C 2339  0.64                             121    0.45 9  174 107 
 TAM  HN ES   4   2339 20.89                             121   -1.14 0  174 107 
 TAM  HZ I        2339 22.01        34.3 0.22            122            174 107 
 ZAR  HZ EP       2339  1.50                             120    0.16 9  185 291 
 ZAR  HN ES   4   2339 25.26                             120    1.19 0  185 291 
 ZAR  HZ I        2339 29.58        62.7 0.50            118            185 291 
 NOR  HZ EP       2339  6.13                             114   -0.05 8  229 230 
 NOR  HN ES       2339 32.51                             114   -0.17 8  229 230 
 NOR  HZ I        2339 39.72        21.4 0.20            113            229 230 
 CHI  HZ EP       2339  9.85                             111    0.18 8  256 191 
 CHI  HN ES       2339 38.78                             111   -0.12 8  256 191 
 CHI  HZ I        2339 43.88        15.9 0.46            111            256 191 
 HEL  HZ EP   4   2339 11.23                             111    1.20 0  260 252 
 HEL  HN ES       2339 39.47                             111   -0.08 8  260 252 
 HEL  HZ I        2339 44.23        25.0 0.24            110            260 252 
 URE  HZ EP   4   2339  9.04                             110   -1.12 0  265 291 
 URE  HN ES   4   2339 37.73                             110   -2.03 0  265 291 
 URE  HZ I        2339 40.33        34.0 0.16            109            265 291 
 GUY2CHZ EP   4   2339 16.40                             108    2.16 0  295 231 
 GUY2CHN ES       2339 47.27                             108    0.23 7  295 231 
 GUY2CHZ I        2339 53.69        12.6 0.40                           295 231 
 LL6C HZ EP   4   2338 58.21                             107   -17.5 0  313   0 
 LL6C HN ES   4   2339 31.08                             107   -18.6 0  313   0 
 CBOC HZ EP   2   2339 18.00                             106    1.00 3  322 249 
 CBOC HN ES   2   2339 52.07                             106    0.12 3  322 249 
 DBB  HZ EP   2   2339 16.79                             106   -0.17 3  323 272 
 DBB  HN ES   4   2339 50.17                             106   -1.71 0  323 272 
 ELA  HZ EP   4   2339 20.68                             106    2.92 0  325 226 
 ELA  HN ES   4   2339 54.88                             106    1.58 0  325 226 
 ELA  HZ I        2340  1.40         9.3 0.28            105            325 226 
 SJC  HZ EP       2339 23.98                             102   -1.00 6  391 328 
 SJC  HN ES   4   2340  3.73                             102   -2.43 0  391 328 
 SJC  HZ I        2340  8.64         8.6 0.24            102            391 328 
 PRA  HZ EP   4   2339 26.92                             102    1.55 0  394 207 
 PRA  HN ES       2340  7.96                             102    1.12 6  394 207 
 PRA  HZ I        2340 13.47        10.2 0.34            102            394 207 
 ORTC HZ EP   4   2339 27.13                             102    1.62 0  396 213 
 ORTC HN ES       2340  7.91                             102    0.82 6  396 213 
 ORTC HZ I        2340 14.99         5.1 0.20            102            396 213 
 CRJC HZ EP   9   2339 33.48                             100    0.50 0  458   6 
 CRJC HN ES       2340 19.22                             103   -1.67 5  458   6 
 CRJC HZ I        2340 27.24        12.7 0.20             99            458   6 
 URI  HZ EP   2   2339 43.01                              97   -0.92 2  550  15 
 URI  HN ES   4   2340 36.84                              97   -3.05 0  550  15 
 URI  HZ I        2340 43.91         2.1 0.44             97            550  15 
                                                                                
