 2011  8 1 2118 24.1 L   6.012 -73.671115.8  RSN  8 0.4 2.2LRSN                1
 GAP=186        0.73       4.8     3.6  8.3 -0.1838E+01  0.1153E+02  0.8724E+01E
 Epicentro: VELEZ - SANTANDER                                                  3
 ACTION:UPD 12-07-25 14:05 OP:epov STATUS:               ID:20110801211824 L   I
 2011-08-01-2117-49S.COL___132                                                 6
 STAT SP IPHASW D HRMM SECON CODA AMPLIT PERI AZIMU VELO AIN AR TRES W  DIS CAZ7
 RUS  HZ EP       2118 42.77                             148    0.2510 66.4 101 
 RUS  HN ES   1   2118 56.43                             148   -0.43 7 66.4 101 
 RUS  HZ I        2118 59.07        20.4 0.22                          66.4 101 
 NOR  SZ EP   1   2118 47.92                             125   -0.36 7  142 250 
 NOR  SN ES   1   2119  6.93                             125   -0.19 7  142 250 
 CHI  HZ EP   1   2118 50.19                             123    0.29 7  153 183 
 CHI  HN ES   1   2119 10.64                             123    0.64 7  153 183 
 CHI  HZ I        2119 14.21         7.0 0.23                           153 183 
 HEL  HZ EP   1   2118 55.70                             115    0.14 6  207 276 
 HEL  HZ I        2119 24.75        16.3 0.24                           207 276 
 GUY  SN ES   1   2119 21.39                             114    0.49 6  210 245 
 GUY  SZ I        2119 24.13        27.4 0.37                           210 245 
 RREF HN ES   1   2119 23.52                             113   -0.37 6  223 237 
 RREF HZ I        2119 28.97         9.8 0.19                           223 237 
 PRA  HZ EP   1   2119  4.45                             107    0.04 5  288 208 
 PRA  HN ES   1   2119 35.90                             107    0.06 5  288 208 
 SJA  SZ EP   1   2119  6.21                             105   -0.26 5  304 186 
 SJA  SZ ES   1   2119 38.59                             105   -0.90 5  304 186 
 SJA  SZ I        2119 42.11        29.5 0.34                           304 186 
                                                                                
