 2017  2 1 2250 19.1 L   6.773 -73.174145.3  RSN 11 0.5 2.3LRSN                1
 GAP= 72        1.06       3.8     3.8  5.7  0.3758E-01  0.3521E+01  0.2522E+01E
 Epicentro: LOS SANTOS - SANTANDER                                             3
 ACTION:UPD 17-05-24 15:31 OP:jn   STATUS:               ID:20170201225019 L   I
 OLDACT:UP  17-02-02 06:00 OP:dani STATUS:               ID:20170201224745     3
 OLDACT:REG 17-02-02 05:08 OP:dani STATUS:               ID:20170201224745     3
 2017-02-01-2248-00M.COL___328                                                 6
 STAT SP IPHASW D HRMM SECON CODA AMPLIT PERI AZIMU VELO AIN AR TRES W  DIS CAZ7
 BAR2 EZ EP       2250 38.57                             172   -0.0710 20.0 183 
 BAR2 EZ ES       2250 53.51                             172   -0.3510 20.0 183 
 BAR2 EZ I        2250 54.99        44.8 0.19            171           20.0 183 
 BRR  HZ EP       2250 40.43                             153    0.2610 70.1 302 
 BRR  HN ES       2250 57.42                             153    0.8410 70.1 302 
 BRR  HZ I        2250 58.11        46.4 0.48            152           70.1 302 
 PAM  EZ EP       2250 41.58                             149    0.0210 81.7  40 
 PAM  EE ES       2250 58.83                             149   -0.2310 81.7  40 
 PAM  EZ I        2251  0.96        50.3 0.51            152           81.7  40 
 RUS  HZ EP       2250 42.43                             144   -0.2110 97.8 174 
 RUS  HN ES       2251  1.03                             144    0.0510 97.8 174 
 RUS  HZ I        2251  2.55        29.1 0.46            145           97.8 174 
 PTB  HZ EP       2250 45.29                             133   -0.45 9  144 260 
 PTB  HN ES       2251  5.66                             133   -0.83 9  144 260 
 PTB  HZ I        2251  8.48        19.9 0.28            133            144 260 
 TAM  HZ EP       2250 47.00                             130    0.02 9  157 104 
 ZAR  HZ EP       2250 52.05                             122    0.67 9  202 293 
 ZAR  HE ES       2251 16.77                             122    0.24 9  202 293 
 ZAR  HZ I        2251 21.66        27.9 0.43            123            202 293 
 NOR  HZ EP       2250 54.70                             119    0.32 8  230 235 
 NOR  HN ES       2251 21.44                             119   -0.43 8  230 235 
 NOR  HZ I        2251 25.89        13.8 0.31            119            230 235 
 CHI  HZ EP       2250 56.55                             117    0.15 8  245 195 
 CHI  HE ES       2251 26.16                             117    0.69 8  245 195 
 CHI  HZ I        2251 27.89         9.0 0.32            118            245 195 
 URE  HE ES   3   2251 30.13                             113   -1.73 2  282 293 
 SJC  HZ EP       2251 14.01                             105   -0.77 6  410 328 
 SJC  HE ES   3   2251 56.49                             105   -1.70 1  410 328 
 SJC  HZ I        2251 58.30         3.2 0.28            106            410 328 
                                                                                
