 2011 12 1 2140 15.0 L   6.827 -73.069140.8  RSN  6 0.4 1.5LRSN                1
 GAP=145        0.72       4.2     7.1  7.2 -0.6893E+01 -0.5561E+01  0.6522E+01E
 Epicentro: LOS SANTOS - SANTANDER                                             3
 ACTION:UPD 12-07-13 16:13 OP:ep   STATUS:               ID:20111201214014 L   I
 2011-12-01-2140-00M.COL___179                                                 6
 STAT SP IPHASW D HRMM SECON CODA AMPLIT PERI AZIMU VELO AIN AR TRES W  DIS CAZ7
 BAR2 SZ ES   1   2140 48.70                             168   -0.44 7 28.8 206 
 BAR2 SZ I        2140 49.95         9.8 0.36                          28.8 206 
 GIR2 SZ ES   2   2140 49.36                             167    0.37 5 31.1 334 
 PAM  SZ EP       2140 36.62                             152    0.3410 69.9  36 
 PAM  SN ES   1   2140 52.84                             152   -0.01 7 69.9  36 
 BRR  HZ EP   1   2140 35.49                             149   -0.54 7 77.5 294 
 BRR  HZ I        2140 45.05        13.0 0.39                          77.5 294 
 BRR  HE ES   1   2140 52.65                             149    0.25 7 77.5 294 
 RUS  HZ EP   1   2140 38.13                             142   -0.37 7  103 181 
 RUS  HZ I        2140 38.42         2.5 0.13                           103 181 
 RUS  HE ES   1   2140 56.83                             142    0.02 7  103 181 
 CHI  HE ES   1   2141 23.17                             115    0.51 6  254 197 
                                                                                
