 2017  1 1 2205 49.3 L   6.675 -73.219151.4  RSN  5 0.2 1.5LRSN                1
 GAP=205        0.59       4.6     4.5  4.4  0.1292E+02  0.4666E+01 -0.3283E-01E
 Epicentro: BARICHARA - SANTANDER                                              3
 ACTION:UPD 17-05-22 15:54 OP:jn   STATUS:               ID:20170101220549 L   I
 OLDACT:REG 17-01-02 02:35 OP:dani STATUS:               ID:20170101215742     3
 2017-01-01-2158-00M.COL___378                                                 6
 STAT SP IPHASW D HRMM SECON CODA AMPLIT PERI AZIMU VELO AIN AR TRES W  DIS CAZ7
 BAR2 EZ ES       22 6 24.76                             176   -0.3310 10.1 156 
 BRR  HZ EP       22 6 11.02                             153   -0.0810 72.4 311 
 BRR  HN ES       22 6 28.32                             153    0.2010 72.4 311 
 BRR  HZ I        22 6 30.69         7.1 0.09            151           72.4 311 
 RUS  HZ EP       22 6 12.84                             149    0.1110 87.9 170 
 RUS  HN ES       22 6 31.27                             149    0.2510 87.9 170 
 RUS  HZ I        22 6 32.45         4.2 0.52            151           87.9 170 
 PTB  HZ EP       22 6 15.47                             135   -0.35 9  138 264 
 PTB  HN ES       22 6 36.45                             135   -0.08 9  138 264 
 PTB  HZ I        22 6 39.15         2.9 0.16            134            138 264 
 ZAR  HZ EP       22 6 22.09                             124    0.17 9  202 297 
 ZAR  HN ES       22 6 47.55                             124    0.17 9  202 297 
 ZAR  HZ I        22 6 55.79         3.8 0.42            123            202 297 
                                                                                
