 2011 10 1 2014 54.6 L   6.777 -73.157139.3  RSN  4 0.1 1.6LRSN                1
 GAP=136        0.34       3.4     4.4  5.3  0.6518E+01  0.1309E+01  0.6893E+01E
 Epicentro: LOS SANTOS - SANTANDER                                             3
 ACTION:UPD 12-07-13 16:01 OP:ep   STATUS:               ID:20111001201454 L   I
 2011-10-01-2011-58S.COL___168                                                 6
 STAT SP IPHASW D HRMM SECON CODA AMPLIT PERI AZIMU VELO AIN AR TRES W  DIS CAZ7
 BRR  HZ EP       2015 15.15                             151    0.1110 71.4 301 
 BRR  HN ES   1   2015 30.91                             151   -0.08 7 71.4 301 
 BRR  HZ I        2015 32.85        11.3 0.44                          71.4 301 
 PAM  SN ES   2   2015 33.22                             148    0.02 5 80.1  39 
 RUS  HZ EP       2015 17.41                             143   -0.1010 98.1 175 
 RUS  HN ES   2   2015 35.53                             143    0.13 5 98.1 175 
 ZAR  HN ES   3   2015 51.45                             121   -0.11 2  204 293 
 ZAR  HZ I        2015 57.53         2.5 0.26                           204 293 
                                                                                
