 2012  6 1 2122  0.2 L   7.492 -73.344118.4  RSN  7 0.4 1.9LRSN                1
 GAP=101        0.73       3.4     3.9  7.8  0.1832E+01  0.1279E+02  0.7444E+01E
 Epicentro: EL PLAYON - SANTANDER                                              3
 ACTION:UPD 12-08-06 17:46 OP:ep   STATUS:               ID:20120601212200 L   I
 2012-06-01-2120-00M.COL___201                                                 6
 STAT SP IPHASW D HRMM SECON CODA AMPLIT PERI AZIMU VELO AIN AR TRES W  DIS CAZ7
 PAM  SZ EP   1   2122 19.54                             146    0.26 8 73.2 103 
 PAM  SZ I        2122 20.38        24.8 0.20            146           73.2 103 
 PAM  SN ES   1   2122 34.79                             146    0.62 8 73.2 103 
 OCA  HZ EP   1   2122 19.21                             143   -0.26 8 82.6   2 
 OCA  HN ES   1   2122 34.08                             143   -0.44 8 82.6   2 
 BAR2 SZ IP       2122 21.15                             137    0.1010  101 170 
 BAR2 SZ ES   1   2122 36.82                             137   -0.51 7  101 170 
 PTB  HZ EP   1   2122 26.01                             122   -0.50 7  162 229 
 PTB  HN ES   1   2122 46.89                             122   -0.15 7  162 229 
 PTB  HZ I        2122 48.63        15.1 0.24            122            162 229 
 ZAR  HZ EP   1   2122 27.13                             121    0.09 7  167 270 
 ZAR  HE ES   1   2122 48.66                             121    0.68 7  167 270 
 RUS  HZ EP   1   2122 28.91                             119   -0.04 7  179 171 
 RUS  HN ES   1   2122 51.35                             119   -0.03 7  179 171 
 RUS  HZ I        2122 54.04         6.8 0.35            119            179 171 
 NOR  SZ EP   1   2122 38.96                             109    0.21 6  272 218 
                                                                                
