 2010 11 1 2335  3.2 L   6.767 -73.128145.6  RSN  5 0.2 1.9LRSN                1
 GAP=237        0.50       5.2     6.1  6.3  0.6135E+01  0.1553E+02  0.4897E+01E
 Epicentro: LOS SANTOS - SANTANDER                                             3
 ACTION:UP  10-12-17 16:49 OP:REBC STATUS:               ID:20101101233503 L   I
 2010-11-01-2320-00M.COL___116                                                 6
 STAT SP IPHASW D HRMM SECON CODA AMPLIT PERI AZIMU VELO SNR AR TRES W  DIS CAZ7
 BAR2 SZ EP       2335 22.76                             172     0.010   20 197 
 BAR2 SZ ES   2   2335 37.45                             172    -0.5 5   20 197 
 BAR2 SZ I        2335 40.00        29.1 0.19                            20 197 
 BRR  HZ IP     D 2335 24.57                             151     0.010   75 300 
 BRR  HZ I        2335 24.76        28.5 0.17                            75 300 
 BRR  HE ES   2   2335 41.47                             151     0.3 5   75 300 
 RUS  HZ EP   1   2335 26.68                             145     0.0 7   97 177 
 RUS  HN ES   2   2335 45.21                             145     0.2 5   97 177 
 RUS  HZ I        2335 47.62        13.3 0.21                            97 177 
 NOR  SZ EP   1   2335 39.03                             118     0.2 6  234 236 
 NOR  SE ES   2   2336  6.71                             118     0.0 4  234 236 
 NOR  SZ I        2336 11.86         1.9 0.53                           234 236 
 HEL  HZ EP   1   2335 43.15                             115    -0.4 6  273 257 
 HEL  HZ I        2336 23.55         6.6 0.27                           273 257 
                                                                                
