 2012 12 1 2019  8.2 L   6.786 -73.160139.5  RSN 10 0.4 2.3LRSN                1
 GAP= 71        0.75       3.3     3.1  5.2  0.3931E+00  0.4232E+01  0.4089E+00E
 Epicentro: LOS SANTOS - SANTANDER                                             3
 ACTION:UPD 13-01-04 14:25 OP:ep   STATUS:               ID:20121201201908 L   I
 2012-12-01-2017-50M.COL___207                                                 6
 STAT SP IPHASW D HRMM SECON CODA AMPLIT PERI AZIMU VELO AIN AR TRES W  DIS CAZ7
 BAR2 SZ EP   1   2019 27.16                             171    0.13 7 21.6 187 
 BAR2 SZ ES   1   2019 41.69                             171   -0.04 7 21.6 187 
 BAR2 SZ I        2019 42.99        66.2 0.14                          21.6 187 
 GIR2 SZ EP       2019 27.30                             166    0.1510 32.6 353 
 GIR2 SZ ES   1   2019 42.19                             166    0.24 7 32.6 353 
 GIR2 SZ I        2019 44.18        42.7 0.40                          32.6 353 
 PAM  SZ EP   1   2019 30.01                             149    0.14 7 79.6  40 
 PAM  SN ES   1   2019 46.87                             149    0.08 7 79.6  40 
 PAM  SZ I        2019 49.35        38.8 0.60                          79.6  40 
 RUS  HZ EP   1   2019 31.55                             143    0.33 7 99.2 175 
 RUS  HN ES   1   2019 48.48                             143   -0.71 7 99.2 175 
 RUS  HZ I        2019 50.83        16.5 0.26                          99.2 175 
 PTB  HZ EP   1   2019 34.06                             131   -0.42 7  146 259 
 PTB  HN ES   1   2019 54.63                             131   -0.36 7  146 259 
 PTB  HZ I        2019 57.56        32.8 0.24                           146 259 
 TAM  HZ EP   1   2019 35.52                             129    0.04 7  156 104 
 TAM  HN ES   1   2019 56.88                             129    0.11 7  156 104 
 TAM  HZ I        2019 57.47        18.0 0.22                           156 104 
 ZAR  HZ EP   1   2019 40.16                             121    0.02 6  203 293 
 ZAR  HE ES   1   2020  6.03                             121    0.96 6  203 293 
 ZAR  HZ I        2020 12.26        21.3 0.21                           203 293 
 NOR  HZ EP   1   2019 43.51                             117    0.19 6  233 235 
 NOR  HN ES   1   2020 10.83                             117    0.10 6  233 235 
 NOR  HZ I        2020 14.30        11.4 0.21                           233 235 
 SML  HZ EP   1   2019 43.91                             116   -0.64 6  244 336 
 SML  HE ES   1   2020 12.11                             116   -0.80 6  244 336 
 CHI  HZ EP   1   2019 45.54                             116    0.20 6  247 195 
                                                                                
