 2014 10 1 2324 54.3 L   6.697 -73.174148.0  RSN  5 0.2 1.3LRSN                1
 GAP=226        0.55       4.7     4.2  5.4  0.1007E+02 -0.1075E+01 -0.1855E+01E
 Epicentro: VILLANUEVA - SANTANDER                                             3
 ACTION:UPD 14-11-29 23:45 OP:nd   STATUS:               ID:20141001232454 L   I
 OLDACT:DUP 14-10-02 08:18 OP:spq  STATUS:               ID:20141001231820d    3
 2014-10-01-2318-18M.COL___292                                                 6
 STAT SP IPHASW D HRMM SECON CODA AMPLIT PERI AZIMU VELO AIN AR TRES W  DIS CAZ7
 BAR2 SZ EP       2325 14.01                             175   -0.0310 11.6 185 
 BRR  HZ EP       2325 15.80                             152   -0.1110 74.8 307 
 BRR  HN ES       2325 32.74                             152   -0.0110 74.8 307 
 BRR  HZ I        2325 33.55         9.9 0.48            150           74.8 307 
 RUS  HZ EP   1   2325 18.00                             147    0.47 7 89.5 174 
 RUS  HE ES   1   2325 35.56                             147   -0.07 7 89.5 174 
 RUS  HZ I        2325 37.91         0.9 0.30            147           89.5 174 
 PTB  HZ EP       2325 20.67                             134   -0.36 9  143 263 
 PTB  HN ES       2325 41.90                             134    0.04 9  143 263 
 PTB  HZ I        2325 44.55         1.8 0.28            132            143 263 
 ZAR  HZ EP   1   2325 27.21                             123    0.13 6  206 295 
 ZAR  HE ES   1   2325 53.03                             123    0.39 6  206 295 
 ZAR  HZ I        2325 58.23         3.5 0.28            122            206 295 
                                                                                
