 2017  1 1 2350 42.6 L   6.687 -73.446126.1  RSN  4 0.5 0.9LRSN                1
 GAP=188        0.65       9.6     7.8  8.9 -0.4216E+02 -0.2089E+02  0.4362E+02E
 Epicentro: EL CARMEN - SANTANDER                                              3
 ACTION:UPD 17-05-22 15:54 OP:jn   STATUS:               ID:20170101235042 L   I
 OLDACT:UP  17-01-02 04:26 OP:dani STATUS:               ID:20170101234746d    3
 OLDACT:DUP 17-01-02 04:22 OP:dani STATUS:               ID:20170101234746d    3
 OLDACT:UP  17-01-02 04:20 OP:dani STATUS:               ID:20170101234745     3
 OLDACT:REG 17-01-02 02:42 OP:dani STATUS:               ID:20170101234745     3
 2017-01-01-2348-00M.COL___378                                                 6
 STAT SP IPHASW D HRMM SECON CODA AMPLIT PERI AZIMU VELO AIN AR TRES W  DIS CAZ7
 BRR  HZ EP       2351  0.56                             155   -0.1810 54.9 328 
 BRR  HN ES       2351 14.92                             155    0.0510 54.9 328 
 BRR  HZ I        2351 18.11         2.2 0.43            156           54.9 328 
 RUS  HN ES   3   2351 22.00                             140    1.00 2 96.6 155 
 PTB  HZ EP       2351  4.95                             135    0.0910  113 262 
 PTB  HN ES       2351 22.08                             135   -0.1210  113 262 
 PTB  HZ I        2351 28.07         1.1 0.13            136            113 262 
 ZAR  HN ES   3   2351 35.63                             121    2.02 2  180 300 
                                                                                
