 2013  9 1 2231  2.1 L   6.829 -73.156136.8  RSN  7 0.6 1.6LRSN                1
 GAP=200        1.41       5.4     8.8 13.3  0.1945E+02 -0.1801E+02 -0.2642E+02E
 Epicentro: LOS SANTOS - SANTANDER                                             3
 ACTION:UPD 13-10-22 09:19 OP:ep   STATUS:               ID:20130901223102 L   I
 OLDACT:REG 13-09-02 00:14 OP:stll STATUS:               ID:20130901222848     3
 2013-09-01-2228-48M.COL___211                                                 6
 STAT SP IPHASW D HRMM SECON CODA AMPLIT PERI AZIMU VELO AIN AR TRES W  DIS CAZ7
 RUS  HZ EP       2231 26.04                             141    0.8210  104 176 
 RUS  HN ES       2231 43.48                             141    0.2210  104 176 
 RUS  HZ I        2231 45.44         3.6 0.28            145            104 176 
 PTB  HZ EP       2231 28.15                             130   -0.14 9  147 258 
 PTB  HN ES       2231 48.46                             130   -0.27 9  147 258 
 PTB  HZ I        2231 51.82         4.1 0.14            134            147 258 
 SPBC HN ES       2231 51.77                             127   -0.16 9  165 218 
 ZAR  HZ EP       2231 33.78                             121    0.06 9  202 291 
 ZAR  HN ES       2231 59.02                             121    0.62 9  202 291 
 SML  HZ EP       2231 37.35                             116   -0.50 8  240 335 
 SML  HZ ES       2232  5.18                             116   -0.57 8  240 335 
 SML  HZ I        2232  9.57         7.4 0.24            119            240 335 
 CHI  HZ EP       2231 39.06                             115   -0.55 8  251 195 
 CHI  HN ES       2232  7.77                             115   -1.11 8  251 195 
 GUY2CHZ EP       2231 46.73                             111    1.33 7  302 234 
                                                                                
