 2013  4 1 2050 22.4 L   6.282 -73.723107.5  RSN  5 0.3 1.7LRSN                1
 GAP=168        0.60       3.4     2.5  5.5  0.1016E+01  0.5030E-01  0.1838E+01E
 Epicentro: LANDAZURI - SANTANDER                                              3
 ACTION:UPD 13-05-22 14:35 OP:EP   STATUS:               ID:20130401205022 L   I
 2013-04-01-2050-00M.COL___245                                                 6
 STAT SP IPHASW D HRMM SECON CODA AMPLIT PERI AZIMU VELO AIN AR TRES W  DIS CAZ7
 BAR2 SZ EP   1   2050 40.03                             145    0.28 7 68.9  60 
 BAR2 SZ ES       2050 53.42                             145    0.1410 68.9  60 
 BAR2 SZ I        2050 53.95        45.3 0.30            149           68.9  60 
 RUS  HZ EP       2050 41.27                             140    0.1210 82.9 121 
 RUS  HE ES   1   2050 55.53                             140   -0.24 7 82.9 121 
 RUS  HE I        2050 59.38         6.8 0.54            143           82.9 121 
 PTB  HZ EP       2050 40.61                             138   -0.1210 85.9 289 
 PTB  HN ES       2050 54.84                             138   -0.1810 85.9 289 
 PTB  HN I        2050 56.98        11.2 0.44            142           85.9 289 
 BRR  HZ EP       2050 41.28                             136    0.1410 91.2   1 
 BRR  HN ES       2050 55.95                             136    0.2010 91.2   1 
 BRR  HN I        2050 57.60        16.3 0.16            142           91.2   1 
 PAM  SZ EP   1   2050 48.72                             119   -0.03 7  163  44 
 PAM  SN ES   1   2051  8.59                             119   -0.70 7  163  44 
 PAM  SN I        2051  9.00         4.2 0.18            124            163  44 
                                                                                
