 2017  8 1 2058 21.7 L   6.798 -73.149148.0  RSN  9 0.4 1.7LRSN                1
 GAP=119        0.69       3.5     3.5  5.3 -0.4949E+01  0.4500E+01  0.8810E+00E
 Epicentro: LOS SANTOS - SANTANDER                                             3
 ACTION:UPD 17-09-04 20:15 OP:rebc STATUS:               ID:20170801205821 L   I
 OLDACT:UP  17-08-02 05:29 OP:and  STATUS:               ID:20170801205741     3
 OLDACT:UP  17-08-02 05:29 OP:and  STATUS:               ID:20170801205741     3
 OLDACT:REG 17-08-02 02:57 OP:and  STATUS:               ID:20170801205741     3
 2017-08-01-2058-00M.COL___386                                                 6
 STAT SP IPHASW D HRMM SECON CODA AMPLIT PERI AZIMU VELO AIN AR TRES W  DIS CAZ7
 BAR2 EZ EP   2   2058 41.44                             171   -0.11 5 23.0 189 
 BAR2 EZ ES       2058 56.76                             171   -0.3010 23.0 189 
 BAR2 EZ I        2058 57.58        11.0 0.26            169           23.0 189 
 BRR  HZ EP   2   2058 43.41                             153    0.38 5 71.0 299 
 BRR  HN ES   2   2059  0.43                             153    0.72 5 71.0 299 
 PAM  EZ EP       2058 44.29                             151    0.1610 77.8  40 
 PAM  EN ES       2059  1.34                             151   -0.3210 77.8  40 
 PAM  EZ I        2059  3.53        13.4 0.54            153           77.8  40 
 RUS  HZ EP       2058 45.70                             144    0.0910  100 176 
 RUS  HN ES     C 2059  4.66                             144    0.3710  100 176 
 RUS  HZ I        2059  5.10         7.6 0.26            144            100 176 
 PTB  HZ EP       2058 48.87                             132    0.10 9  147 259 
 PTB  HN ES       2059  9.66                             132   -0.26 9  147 259 
 PTB  HZ I        2059 13.86         2.6 0.26            131            147 259 
 SPBC HN ES       2059 12.33                             129   -0.29 9  163 219 
 SPBC HZ I        2059 15.58         9.3 0.10            128            163 219 
 NOR  HN ES       2059 25.81                             119    0.41 8  234 234 
 NOR  HZ I        2059 32.73         2.6 0.11            118            234 234 
 CHI  HZ EP   2   2058 59.59                             117    0.15 4  248 195 
 CHI  HN ES   2   2059 28.14                             117   -0.78 4  248 195 
 CHI  HZ I        2059 32.33         3.2 0.50            117            248 195 
 PTGC HZ EP   3   2059  4.54                             112   -1.06 2  309 159 
                                                                                
