 2011 11 1 2243 24.5 L   6.774 -73.126147.6  RSN  6 0.3 1.7LRSN                1
 GAP=140        0.43       3.8     4.1  6.1  0.9540E+00  0.4690E+01  0.2795E+01E
 Epicentro: LOS SANTOS - SANTANDER                                             3
 ACTION:UPD 12-07-13 16:07 OP:ep   STATUS:               ID:20111101224324 L   I
 2011-11-01-2241-02S.COL___176                                                 6
 STAT SP IPHASW D HRMM SECON CODA AMPLIT PERI AZIMU VELO AIN AR TRES W  DIS CAZ7
 BAR2 SZ EP   2   2243 44.86                             171    0.53 5 21.1 197 
 BAR2 SZ ES   2   2243 59.72                             171   -0.06 5 21.1 197 
 BAR2 SZ I        2244  3.07        11.5 0.64                          21.1 197 
 BRR  HZ EP   1   2243 46.01                             152   -0.05 7 74.5 300 
 BRR  HZ I        2243 59.74        18.3 0.32                          74.5 300 
 BRR  HN ES   2   2244  3.02                             152    0.17 5 74.5 300 
 PAM  SZ EP   2   2243 47.14                             151    0.16 5 78.2  37 
 PAM  SE ES   2   2244  4.08                             151   -0.42 5 78.2  37 
 RUS  HZ EP   1   2243 48.12                             145   -0.13 7 97.6 177 
 RUS  HZ I        2243 48.81         2.6 0.35                          97.6 177 
 RUS  HN ES   2   2244  6.97                             145    0.22 5 97.6 177 
 ZAR  HE ES   2   2244 23.17                             122    0.11 4  207 293 
 ZAR  HZ I        2244 28.02         5.4 0.30                           207 293 
 NOR  SE ES   2   2244 27.89                             119   -0.45 4  235 235 
                                                                                
