 2017  5 1 2218 38.1 L   6.793 -73.124146.9  RSN  4 0.3 0.9LRSN                1
 GAP=140        0.74       4.1     5.6  7.1 -0.4548E+00  0.1012E+01  0.4158E+01E
 Epicentro: LOS SANTOS - SANTANDER                                             3
 ACTION:UPD 17-06-16 13:31 OP:jn   STATUS:               ID:20170501221838 L   I
 OLDACT:REG 17-05-02 04:05 OP:dnl  STATUS:               ID:20170501221741     3
 2017-05-01-2218-00M.COL___377                                                 6
 STAT SP IPHASW D HRMM SECON CODA AMPLIT PERI AZIMU VELO AIN AR TRES W  DIS CAZ7
 BRR  HZ EP       2218 59.50                             152   -0.0310 73.6 298 
 BRR  HN ES       2219 16.40                             152    0.1710 73.6 298 
 BRR  HZ I        2219 19.08         2.9 0.48            151           73.6 298 
 PAM  EZ EP       2219  0.77                             151    0.3610 76.5  38 
 PAM  EE ES       2219 17.47                             151   -0.3210 76.5  38 
 PAM  EZ I        2219 21.00         1.1 0.20            156           76.5  38 
 RUS  HZ EP       2219  2.02                             144    0.1010 99.6 177 
 RUS  HN ES       2219 20.40                             144   -0.0710 99.6 177 
 RUS  HZ I        2219 22.63         0.8 0.42            147           99.6 177 
 PTB  HZ EP   2   2219  4.35                             132   -1.03 5  150 259 
 PTB  HN ES   4   2219 24.92                             132   -1.71 0  150 259 
 PTB  HZ I        2219 32.19         1.3 0.36            133            150 259 
                                                                                
