 2013  3 1 2333  7.5 L   6.815 -73.138147.8  RSN  6 0.3 1.7LRSN                1
 GAP=137        0.63       5.3     3.9  6.3 -0.1361E+01  0.6566E+01 -0.1624E-01E
 Epicentro: LOS SANTOS - SANTANDER                                             3
 ACTION:UPD 13-04-09 13:59 OP:ep   STATUS:               ID:20130301233307 L   I
 2013-03-01-2330-00M.COL___228                                                 6
 STAT SP IPHASW D HRMM SECON CODA AMPLIT PERI AZIMU VELO AIN AR TRES W  DIS CAZ7
 BAR2 SZ ES   2   2333 42.50                             170   -0.41 5 25.1 191 
 BAR2 SZ I        2333 51.89        12.6 0.28            164           25.1 191 
 BRR  HZ EP       2333 29.07                             153    0.2410 71.2 297 
 BRR  HN ES   1   2333 46.05                             153    0.55 7 71.2 297 
 BRR  HZ I        2333 49.35         9.7 0.12            158           71.2 297 
 PAM  SZ EP   1   2333 29.41                             152   -0.38 7 75.5  40 
 PAM  SN ES   1   2333 47.11                             152   -0.09 7 75.5  40 
 PAM  SZ I        2333 48.97        10.3 0.44            162           75.5  40 
 RUS  HZ EP   2   2333 32.09                             144    0.56 5  102 177 
 RUS  HN ES   2   2333 50.23                             144   -0.08 5  102 177 
 RUS  HZ I        2333 58.81         1.6 0.74            144            102 177 
 PTB  HZ EP   1   2333 34.62                             132   -0.08 7  149 258 
 PTB  HN ES   1   2333 55.63                             132   -0.32 7  149 258 
 PTB  HZ I        2333 57.63         6.1 0.52            137            149 258 
 ZAR  HZ EP   1   2333 40.17                             123    0.11 6  204 292 
 ZAR  HE ES   1   2334  5.13                             123   -0.36 6  204 292 
 ZAR  HZ I        2334 11.07        13.2 0.28            130            204 292 
                                                                                
