 2013  1 1 2314 56.7 L   6.708 -73.219151.0  RSN  4 0.3 1.0LRSN                1
 GAP=222        0.55       6.1     6.0  7.4  0.2438E+02 -0.9833E-01 -0.2532E+01E
 Epicentro: VILLANUEVA - SANTANDER                                             3
 ACTION:UPD 13-02-15 09:11 OP:ep   STATUS:               ID:20130101231456 L   I
 2013-01-01-2310-00M.COL___242                                                 6
 STAT SP IPHASW D HRMM SECON CODA AMPLIT PERI AZIMU VELO AIN AR TRES W  DIS CAZ7
 BRR  HZ EP   1   2315 18.32                             154   -0.08 7 70.1 309 
 BRR  HE ES   1   2315 35.10                             154   -0.19 7 70.1 309 
 RUS  HZ EP   1   2315 20.37                             147   -0.02 7 91.5 171 
 RUS  HN ES   1   2315 39.08                             147    0.24 7 91.5 171 
 RUS  HZ I        2315 40.73         1.1 0.42            144           91.5 171 
 PTB  HZ EP   1   2315 23.12                             135   -0.17 7  138 262 
 PTB  HN ES   1   2315 43.74                             135   -0.26 7  138 262 
 PTB  HZ I        2315 47.90         1.6 0.32            133            138 262 
 ZAR  HN ES   1   2315 55.10                             124    0.59 6  201 296 
                                                                                
