 2012  5 1 2307 27.2 L   6.771 -73.171138.5  RSN  6 0.2 1.9LRSN                1
 GAP=232        0.57       4.3     4.2  5.4  0.8451E+01  0.6182E+01  0.6106E+01E
 Epicentro: LOS SANTOS - SANTANDER                                             3
 ACTION:UP  12-07-05 12:01 OP:pat  STATUS:               ID:20120501230727 L   I
 2012-05-01-2300-00M.COL___189                                                 6
 STAT SP IPHASW D HRMM SECON CODA AMPLIT PERI AZIMU VELO SNR AR TRES W  DIS CAZ7
 BAR2 SZ EP   1   23 7 45.71                             172    -0.2 8   20 184 
 BAR2 SZ ES   1   23 8  0.54                             172     0.1 8   20 184 
 BAR2 SZ I        23 8  2.59        18.6 0.07                            20 184 
 BRR  HZ EP   1   23 7 47.84                             151     0.3 8   70 302 
 BRR  HN ES   1   23 8  3.58                             151     0.2 8   70 302 
 BRR  HZ I        23 8  6.72        21.5 0.23                            70 302 
 RUS  HZ EP   1   23 7 50.21                             143     0.2 8   98 174 
 RUS  HN ES   1   23 8  7.45                             143    -0.4 8   98 174 
 RUS  HZ I        23 8  9.64         8.8 0.34                            98 174 
 PTB  HZ EP   1   23 7 52.91                             131    -0.4 7  144 260 
 PTB  HN ES       23 8 13.67                             131     0.110  144 260 
 PTB  HZ I        23 8 17.38        12.4 0.21                           144 260 
 ZAR  HE ES   1   23 8 23.59                             121    -0.3 7  203 293 
 PRA  HZ EP   1   23 8 20.11                             105     0.1 5  388 209 
 PRA  HN ES   1   23 9  1.45                             105     0.3 5  388 209 
                                                                                
