 2012  5 1 2046 36.6 L   6.675 -73.182145.3  RSN  8 0.4 2.0LRSN                1
 GAP=137        0.84       5.7     5.3  7.7  0.6894E+01  0.5713E+01 -0.6709E+01E
 Epicentro: VILLANUEVA - SANTANDER                                             3
 ACTION:UP  12-07-05 12:01 OP:pat  STATUS:               ID:20120501204636 L   I
 2012-05-01-2040-00M.COL___189                                                 6
 STAT SP IPHASW D HRMM SECON CODA AMPLIT PERI AZIMU VELO SNR AR TRES W  DIS CAZ7
 BAR2 SZ EP   1   2046 56.12                             176     0.2 7    9 180 
 BAR2 SZ I        2046 56.55        27.7 0.10                             9 180 
 BAR2 SZ ES   1   2047 10.38                             176    -0.6 7    9 180 
 BRR  HZ EP       2046 58.15                             151     0.310   76 309 
 BRR  HZ I        2046 58.51        36.5 0.10                            76 309 
 BRR  HN ES   1   2047 14.98                             151     0.4 7   76 309 
 RUS  HZ EP   1   2046 59.86                             147     0.5 7   87 173 
 RUS  HN ES   1   2047 17.25                             147     0.1 7   87 173 
 PAM  SZ EP   1   2046 59.07                             147    -0.5 7   91  36 
 PAM  SZ I        2046 59.40         8.2 0.21                            91  36 
 PTB  HZ EP   1   2047  2.91                             133     0.0 7  142 264 
 PTB  HN ES   1   2047 23.30                             133    -0.2 7  142 264 
 PTB  HZ I        2047 26.23        12.8 0.16                           142 264 
 ZAR  HZ EP   1   2047  8.67                             122    -0.5 6  206 296 
 ZAR  HN ES   1   2047 34.71                             122     0.1 6  206 296 
 ZAR  HZ I        2047 43.29        11.1 0.28                           206 296 
 ROSC BE ES   2   2047 41.27                             118    -0.4 4  239 212 
 HEL  HN ES   2   2047 46.58                             115    -0.1 4  265 258 
                                                                                
