 2014 10 1 2344 19.2 L   6.720 -73.208148.0  RSN  8 0.4 1.6LRSN                1
 GAP=221        0.75       4.1     5.7  6.1  0.8665E+01  0.7928E+01  0.9337E+01E
 Epicentro: VILLANUEVA - SANTANDER                                             3
 ACTION:UPD 14-11-29 23:45 OP:nd   STATUS:               ID:20141001234419 L   I
 OLDACT:REG 14-10-02 04:04 OP:spq  STATUS:               ID:20141001233817     3
 2014-10-01-2338-17M.COL___292                                                 6
 STAT SP IPHASW D HRMM SECON CODA AMPLIT PERI AZIMU VELO AIN AR TRES W  DIS CAZ7
 BAR2 SZ ES   1   2344 53.77                             174   -0.64 7 14.4 169 
 BAR2 SZ I        2344 55.05        12.7 0.14            167           14.4 169 
 BRR  HZ EP       2344 40.42                             153   -0.1610 70.2 308 
 BRR  HE ES       2344 57.67                             153    0.4510 70.2 308 
 BRR  HZ I        2344 58.79         6.0 0.15            150           70.2 308 
 RUS  HZ EP   1   2344 42.65                             147   -0.01 7 92.5 171 
 RUS  HE ES   1   2345  1.26                             147    0.34 7 92.5 171 
 RUS  HZ I        2345  3.09         5.3 0.40            144           92.5 171 
 PTB  HZ EP   1   2344 45.16                             134   -0.50 7  139 262 
 PTB  HN ES   1   2345  6.45                             134    0.19 7  139 262 
 PTB  HZ I        2345  8.50         6.0 0.16            130            139 262 
 SPBC HZ EP   1   2344 47.15                             132    0.28 7  152 219 
 SPBC HN ES   1   2345  8.50                             132    0.07 7  152 219 
 SPBC HZ I        2345 12.30         5.7 0.30            128            152 219 
 ZAR  HN ES   1   2345 16.38                             123   -0.37 6  201 295 
 ZAR  HZ I        2345 23.48         3.2 0.12            122            201 295 
 CHI  HZ EP   1   2344 56.48                             119    0.52 6  238 194 
 CHI  HN ES   1   2345 24.06                             119   -0.53 6  238 194 
 CHI  HZ I        2345 33.82         1.5 0.60            117            238 194 
 PRA  HZ EP   1   2345 11.98                             107    0.43 4  381 209 
 PRA  HN ES   1   2345 52.05                             107   -0.29 4  381 209 
 PRA  HZ I        2345 58.44         1.3 0.60            107            381 209 
                                                                                
