 2015  1 1 2155  6.0 L   6.801 -73.153152.5  RSN  6 0.4 1.4LRSN                1
 GAP=136        0.75       4.6     5.1  7.1  0.8743E+01 -0.5638E+01 -0.8564E+01E
 Epicentro: LOS SANTOS - SANTANDER                                             3
 ACTION:UPD 15-03-02 15:35 OP:nd   STATUS:               ID:20150101215506 L   I
 OLDACT:REG 15-01-02 06:47 OP:spq  STATUS:               ID:20150101214746     3
 2015-01-01-2147-46M.COL___280                                                 6
 STAT SP IPHASW D HRMM SECON CODA AMPLIT PERI AZIMU VELO AIN AR TRES W  DIS CAZ7
 BRR  HZ EP     D 2155 28.06                             154    0.1710 70.5 299 
 BRR  HN ES       2155 45.10                             154    0.1710 70.5 299 
 BRR  HZ I        2155 45.56         3.5 0.14            149           70.5 299 
 PAM  SZ EP   1   2155 29.23                             152    0.22 7 77.8  40 
 RUS  HZ EP   1   2155 31.05                             145    0.57 7  101 176 
 RUS  HE ES   1   2155 48.97                             145   -0.56 7  101 176 
 RUS  HZ I        2155 50.51         2.3 0.24            143            101 176 
 PTB  HZ EP       2155 33.27                             134   -0.24 9  147 259 
 PTB  HE ES   1   2155 54.69                             134   -0.24 7  147 259 
 PTB  HZ I        2156  1.03         3.3 0.49            130            147 259 
 ZAR  HZ EP   1   2155 38.67                             124   -0.19 6  203 292 
 ZAR  HN ES       2156  4.80                             124    0.34 9  203 292 
 ZAR  HZ I        2156 10.37         2.8 0.36            122            203 292 
 SML  HZ EP   1   2155 42.84                             119   -0.18 6  243 335 
 SML  HN ES   1   2156 11.16                             119   -0.69 6  243 335 
 SML  HZ I        2156 13.05         4.0 0.30            118            243 335 
                                                                                
