 2012  2 1 2344  5.3 L   6.809 -73.118148.0  RSN  5 0.3 1.2LRSN                1
 GAP=140        0.76       5.4     6.7  7.7  0.2237E+01  0.5660E+01  0.5469E+01E
 ACTION:UP  12-03-07 16:26 OP:epov STATUS:               ID:20120201234405 L   I
 2012-02-01-2340-00M.COL___188                                                 6
 STAT SP IPHASW D HRMM SECON CODA AMPLIT PERI AZIMU VELO SNR AR TRES W  DIS CAZ7
 GIR2 SZ ES   2   2344 40.20                             168   -0.55 5 31.0 344 
 BRR  HZ EP       2344 27.30                             152    0.5110 73.4 297 
 BRR  HZ I        2344 29.55         8.5 0.44                          73.4 297 
 BRR  HN ES   1   2344 43.77                             152    0.20 7 73.4 297 
 PAM  SZ EP       2344 27.46                             152   -0.1210 74.7  38 
 PAM  SN ES   2   2344 44.83                             152   -0.14 5 74.7  38 
 RUS  HZ EP       2344 29.37                             144    0.0610  101 178 
 RUS  HE ES   1   2344 48.15                             144    0.10 7  101 178 
 RUS  HZ I        2344 50.65         1.7 0.84                           101 178 
 PTB  HZ EP       2344 32.19                             132   -0.52 9  151 259 
 PTB  HZ I        2344 59.02         1.1 0.28                           151 259 
                                                                                
