 2014 10 1 2254 55.6 L   6.761 -73.175146.8  RSN  4 0.3 1.2LRSN                1
 GAP=231        0.69       6.7     6.3  6.7  0.1911E+02  0.4586E+01 -0.1795E+01E
 Epicentro: LOS SANTOS - SANTANDER                                             3
 ACTION:UPD 14-11-29 23:45 OP:nd   STATUS:               ID:20141001225455 L   I
 OLDACT:DUP 14-10-02 07:03 OP:spq  STATUS:               ID:20141001224820d    3
 2014-10-01-2248-19M.COL___289                                                 6
 STAT SP IPHASW D HRMM SECON CODA AMPLIT PERI AZIMU VELO AIN AR TRES W  DIS CAZ7
 BAR2 SZ EP       2255 15.26                             173   -0.0410 18.7 182 
 BAR2 SZ ES   1   2255 30.59                             173   -0.05 7 18.7 182 
 BAR2 SZ I        2255 33.33         3.9 0.32            163           18.7 182 
 BRR  HZ EP       2255 17.28                             153    0.4310 70.6 303 
 BRR  HN ES   1   2255 33.08                             153   -0.33 7 70.6 303 
 RUS  HZ EP   1   2255 18.65                             145   -0.55 7 96.6 174 
 RUS  HN ES   1   2255 37.93                             145    0.35 7 96.6 174 
 RUS  HZ I        2255 39.74         1.4 0.30            143           96.6 174 
 PTB  HZ EP       2255 22.24                             133   -0.08 9  144 260 
 PTB  HN ES   1   2255 43.14                             133   -0.00 7  144 260 
 PTB  HZ I        2255 50.59         3.4 0.48            130            144 260 
                                                                                
