 2011  4 1 2153 19.4 L   6.799 -73.117137.5  RSN  8 0.5 1.9LRSN                1
 GAP=158        1.13       6.2    11.3 10.6 -0.2181E+02 -0.9412E+01  0.1536E+02E
 Epicentro: LOS SANTOS - SANTANDER                                             3
 ACTION:UP  11-06-22 15:27 OP:REBC STATUS:               ID:20110401215319 L   I
 2011-04-01-2150-02S.COL___138                                                 6
 STAT SP IPHASW D HRMM SECON CODA AMPLIT PERI AZIMU VELO SNR AR TRES W  DIS CAZ7
 BTL  SZ EP   1   2153 38.23                             171     0.2 7   21 308 
 BAR2 SZ ES   1   2153 51.92                             170    -0.7 7   24 197 
 GIR2 SZ EP   1   2153 39.00                             166     0.8 7   32 345 
 BRR  HZ EP   1   2153 39.69                             150    -0.2 7   74 297 
 BRR  HE ES   1   2153 56.15                             150     0.3 7   74 297 
 BRR  HZ I        2154  1.23        31.5 0.18                            74 297 
 PAM  SZ EP   1   2153 40.75                             150     0.1 7   76  38 
 PAM  SZ I        2153 41.60        11.0 0.17                            76  38 
 PAM  SN ES   1   2153 57.38                             150     0.2 7   76  38 
 GRA  SZ EP   1   2153 43.86                             135     0.0 7  125  16 
 GRA  SZ I        2154  4.35        14.7 0.35                           125  16 
 OCA  SZ ES   1   2154  8.23                             127    -0.6 7  161 352 
 OCA  SZ I        2154 12.18        11.9 0.13                           161 352 
 CHI  HZ EP   1   2153 55.87                             115    -0.9 6  249 196 
 CHI  HN ES   1   2154 26.41                             115     0.5 6  249 196 
 CHI  HZ I        2154 35.87         3.0 0.41                           249 196 
                                                                                
