 2017  9 1 2349 45.7 L   6.776 -73.118143.5  RSN 12 0.3 1.8LRSN                1
 GAP=115        0.53       2.0     2.4  3.6  0.1052E+01  0.2659E+01  0.1280E+01E
 Epicentro: LOS SANTOS - SANTANDER                                             3
 ACTION:UPD 17-10-05 19:08 OP:rebc STATUS:               ID:20170901234945 L   I
 OLDACT:UP  17-09-02 08:33 OP:mg   STATUS:               ID:20170901234743     3
 OLDACT:UP  17-09-02 08:24 OP:mg   STATUS:               ID:20170901234743     3
 OLDACT:REG 17-09-02 04:25 OP:mg   STATUS:               ID:20170901234743     3
 2017-09-01-2348-00M.COL___408                                                 6
 STAT SP IPHASW D HRMM SECON CODA AMPLIT PERI AZIMU VELO AIN AR TRES W  DIS CAZ7
 BAR2 EZ EP   2   2350  4.86                             171   -0.14 5 21.5 199 
 BAR2 EZ ES   1   2350 19.81                             171   -0.26 7 21.5 199 
 BAR2 EZ I        2350 20.73        17.1 0.18            167           21.5 199 
 BRR  HZ EP     C 2350  7.10                             151    0.2910 75.2 299 
 BRR  HN ES   1   2350 23.67                             151    0.37 7 75.2 299 
 BRR  HZ I        2350 26.52        11.0 0.14            150           75.2 299 
 PAM  EZ EP     C 2350  7.85                             150    0.1910 77.6  37 
 PAM  EN ES       2350 24.57                             150   -0.2410 77.6  37 
 PAM  EZ I        2350 27.03         8.9 0.50            156           77.6  37 
 RUS  HZ EP       2350  8.93                             144   -0.0710 97.7 178 
 RUS  HN ES       2350 27.20                             144    0.0110 97.7 178 
 RUS  HZ I        2350 28.20        10.2 0.24            143           97.7 178 
 SPBC HZ EP   1   2350 14.36                             128    0.37 7  163 220 
 SPBC HN ES   1   2350 35.61                             128   -0.47 7  163 220 
 SPBC HZ I        2350 42.88         6.7 0.14            128            163 220 
 YPLC HZ EP   1   2350 15.34                             126    0.41 7  173 152 
 YPLC HN ES       2350 37.75                             126    0.00 9  173 152 
 YPLC HZ I        2350 41.71         8.0 0.28            128            173 152 
 ZAR  HZ EP       2350 18.15                             121   -0.23 8  208 293 
 ZAR  HN ES       2350 43.72                             121   -0.16 8  208 293 
 ZAR  HZ I        2350 49.66         9.7 0.26            122            208 293 
 NOR  HZ EP   2   2350 21.75                             118    0.37 4  236 235 
 NOR  HN ES   2   2350 49.58                             118    0.35 4  236 235 
 NOR  HZ I        2350 55.52         2.9 0.17            118            236 235 
 CHI  HZ EP   1   2350 22.76                             117   -0.30 6  247 196 
 CHI  HN ES   2   2350 51.83                             117   -0.39 4  247 196 
 CHI  HZ I        2350 55.76         2.4 0.25            117            247 196 
 URE  HN ES   4   2350 57.41                             113   -1.95 0  288 292 
 GUY2CHZ EP   1   2350 29.31                             112    0.02 5  302 236 
 GUY2CHN ES   3   2351  4.19                             112    0.88 2  302 236 
 GUY2CHZ I        2351 10.29         2.1 0.26                           302 236 
 PTGC HZ EP   3   2350 28.20                             111   -0.82 2  305 159 
 PTGC HE ES   4   2351  1.42                             111   -1.41 0  305 159 
 PTGC HZ I        2351  7.57         7.8 0.52            112            305 159 
 SJC  HZ EP   3   2350 40.61                             105   -1.02 1  413 327 
 SJC  HN ES   4   2351 23.06                             105   -2.21 0  413 327 
 SJC  HZ I        2351 25.00         3.0 0.45            106            413 327 
                                                                                
