 2016 12 1 2006 46.6 L   6.824 -73.212132.9  RSN 12 0.3 2.4LRSN                1
 GAP=128        0.62       2.4     2.5  3.9 -0.1228E+01  0.3805E+01  0.2737E+01E
 Epicentro: ZAPATOCA - SANTANDER                                               3
 ACTION:UPD 17-01-11 20:11 OP:rebc STATUS:               ID:20161201200646 L   I
 OLDACT:REG 16-12-02 02:44 OP:edw  STATUS:               ID:20161201195747     3
 2016-12-01-1958-00M.COL___339                                                 6
 STAT SP IPHASW D HRMM SECON CODA AMPLIT PERI AZIMU VELO AIN AR TRES W  DIS CAZ7
 BAR2 EZ IP     C 20 7  4.70                             168   -0.0210 25.8 173 
 BAR2 EZ ES       20 7 18.82                             168   -0.0510 25.8 173 
 BAR2 EZ I        20 7 21.09       101.0 0.22            165           25.8 173 
 PAM  EZ EP     D 20 7  7.42                             147   -0.2110 80.4  45 
 PAM  EN ES       20 7 24.38                             147    0.3310 80.4  45 
 PAM  EZ I        20 7 25.23        31.7 0.20            155           80.4  45 
 PTB  HZ EP       20 7 11.55                             130   -0.35 9  141 257 
 PTB  HN ES       20 7 31.37                             130   -0.29 9  141 257 
 PTB  HZ I        20 7 34.97        32.7 0.14            129            141 257 
 ZAR  HZ EP       20 7 17.58                             120    0.18 9  196 292 
 ZAR  HE ES       20 7 41.32                             120   -0.11 9  196 292 
 ZAR  HZ I        20 7 48.30        25.1 0.12            121            196 292 
 NOR  HZ IP     C 20 7 21.16                             116    0.04 8  230 233 
 NOR  HN ES       20 7 48.40                             116    0.35 8  230 233 
 NOR  HZ I        20 7 53.81        25.4 0.16            116            230 233 
 CHI  HZ IP     C 20 7 23.20                             114   -0.48 8  249 193 
 CHI  HN ES       20 7 52.39                             114   -0.22 8  249 193 
 CHI  HZ I        20 7 59.36        15.0 0.52            115            249 193 
 ROSC BZ EP       20 7 24.36                             114    0.49 8  251 209 
 ROSC BE ES       20 7 53.09                             114    0.13 8  251 209 
 ROSC BZ I        20 7 58.71        22.9 0.40            115            251 209 
 CBOC HZ EP       20 7 32.70                             108    0.42 7  327 251 
 CBOC HE ES       20 8  8.07                             108    0.15 7  327 251 
 CBOC HZ I        20 8 21.43         5.3 0.50            109            327 251 
 ANIL HN ES       20 8 13.43                             106   -0.30 6  354 223 
 ANIL HZ I        20 8 22.72        27.8 0.26            107            354 223 
 ORTC HZ EP       20 7 39.74                             104   -0.10 6  393 215 
 ORTC HE ES       20 8 21.92                             104    0.55 6  393 215 
 ORTC HZ I        20 8 29.28         9.2 0.20            105            393 215 
 PAL  HZ EP       20 7 40.56                             104   -0.20 6  401 238 
 PAL  HN ES       20 8 23.12                             104    0.10 6  401 238 
 PAL  HZ I        20 8 36.66         4.2 0.62            105            401 238 
 SJC  HZ EP   4   20 7 38.15                             104   -2.87 0  403 328 
 SJC  HE ES   4   20 8 14.67                             104   -8.80 0  403 328 
 SJC  HZ I        20 8 24.51         8.4 0.42            105            403 328 
                                                                                
