 2015  1 1 2233 11.2 L   6.875 -73.596 20.9  RSN  4 0.3 1.1LRSN                1
 GAP=179        0.76       2.8     3.0  3.7  0.5729E+00 -0.2922E+01  0.5425E+01E
 Epicentro: SAN VICENTE DE CHUCURI - SANTANDER                                 3
 ACTION:UPD 15-03-02 15:36 OP:nd   STATUS:               ID:20150101223311 L   I
 OLDACT:REG 15-01-02 06:51 OP:spq  STATUS:               ID:20150101222743     3
 2015-01-01-2227-43M.COL___277                                                 6
 STAT SP IPHASW D HRMM SECON CODA AMPLIT PERI AZIMU VELO AIN AR TRES W  DIS CAZ7
 BRR  HZ EP     C 2233 16.72                             123   -0.2210 28.7 334 
 BRR  HN ES       2233 21.32                             123   -0.0810 28.7 334 
 BRR  HZ I        2233 21.92        43.7 0.10            121           28.7 334 
 PTB  HZ EP       2233 27.71                             100    0.2010  102 249 
 PTB  HN ES       2233 40.06                             100   -0.1510  102 249 
 PTB  HZ I        2233 40.97         4.0 0.18             99            102 249 
 RUS  HZ EP       2233 31.30                              56    0.3610  123 152 
 RUS  HE ES   1   2233 45.75                              56   -0.58 7  123 152 
 RUS  HZ I        2233 47.73         2.5 0.16             97            123 152 
 ZAR  HZ EP       2233 34.87                              56    0.43 9  155 296 
 ZAR  HN ES   1   2233 52.24                              56   -0.30 7  155 296 
 ZAR  HZ I        2233 53.86         2.0 0.20             56            155 296 
                                                                                
