 2013  6 1 2144 35.0 L   6.769 -73.117142.1  RSN  7 0.2 1.2LRSN                1
 GAP=142        0.58       3.0     3.7  5.1 -0.3212E+01  0.4649E+01  0.2383E+01E
 Epicentro: LOS SANTOS - SANTANDER                                             3
 ACTION:UPD 14-01-08 09:51 OP:ep   STATUS:               ID:20130601214435 L   I
 2013-06-01-2140-00M.COL___261                                                 6
 STAT SP IPHASW D HRMM SECON CODA AMPLIT PERI AZIMU VELO AIN AR TRES W  DIS CAZ7
 BAR2 SZ EP       2144 54.18                             171    0.0910 20.8 200 
 BAR2 SZ I        2145 10.30         4.4 0.16            169           20.8 200 
 GIR2 SZ EP   1   2144 54.23                             165   -0.08 7 35.3 346 
 GIR2 SZ ES   1   2145  9.49                             165    0.08 7 35.3 346 
 BRR  HZ EP       2144 55.94                             150   -0.0310 75.6 300 
 BRR  HN ES   1   2145 12.35                             150   -0.01 7 75.6 300 
 PAM  SZ EP       2144 57.10                             150    0.2710 78.2  36 
 PAM  SN ES       2145 13.81                             150   -0.0810 78.2  36 
 PAM  SZ I        2145 15.40         2.9 0.29            146           78.2  36 
 RUS  HZ EP       2144 58.12                             144    0.0410 97.0 178 
 RUS  HN ES       2145 15.97                             144   -0.1610 97.0 178 
 RUS  HZ I        2145 17.30         1.8 0.24            140           97.0 178 
 PTB  HZ EP   1   2145  1.13                             131   -0.72 7  150 260 
 NOR  HE ES       2145 38.64                             118    0.35 8  235 236 
                                                                                
