 2016  1 1 2021 29.1 L   6.718 -73.193155.7  RSN  4 0.1 1.2LRSN                1
 GAP=226        0.38       3.2     3.2  3.8  0.6808E+01 -0.3449E+00 -0.9615E+00E
 Epicentro: VILLANUEVA - SANTANDER                                             3
 ACTION:UPD 16-03-09 23:21 OP:cam  STATUS:               ID:20160101202129 L   I
 OLDACT:DUP 16-01-02 03:54 OP:cara STATUS:               ID:20160101201749d    3
 2016-01-01-2017-48M.COL___323                                                 6
 STAT SP IPHASW D HRMM SECON CODA AMPLIT PERI AZIMU VELO AIN AR TRES W  DIS CAZ7
 BRR  HZ EP       2021 51.22                             154   -0.1510 71.7 307 
 BRR  HN ES       2022  8.76                             154    0.0310 71.7 307 
 BRR  HZ I        2022 13.42         2.3 0.16            154           71.7 307 
 RUS  HZ EP       2021 53.29                             148   -0.0010 92.1 172 
 RUS  HN ES       2022 12.21                             148    0.0610 92.1 172 
 RUS  HZ I        2022 14.71         1.7 0.40            150           92.1 172 
 PTB  HZ EP       2021 56.43                             136    0.10 9  141 262 
 PTB  HN ES       2022 17.41                             136   -0.15 9  141 262 
 PTB  HZ I        2022 24.74         3.5 0.48            136            141 262 
 ZAR  HN ES       2022 28.00                             125    0.16 9  203 295 
                                                                                
