 2016  6 1 2241 53.0 L   6.706 -73.175142.2  RSN  4 0.4 1.5LRSN                1
 GAP=227        0.72       7.6    10.2  8.9  0.5487E+02  0.2806E+02  0.1603E+02E
 Epicentro: VILLANUEVA - SANTANDER                                             3
 ACTION:UPD 16-07-21 22:14 OP:rebc STATUS:               ID:20160601224153 L   I
 OLDACT:UP  16-06-02 03:43 OP:mh   STATUS:               ID:20160601223740     3
 OLDACT:UP  16-06-02 03:43 OP:mh   STATUS:               ID:20160601223740     3
 OLDACT:REG 16-06-02 03:04 OP:mh   STATUS:               ID:20160601223740     3
 2016-06-01-2237-40M.COL___310                                                 6
 STAT SP IPHASW D HRMM SECON CODA AMPLIT PERI AZIMU VELO AIN AR TRES W  DIS CAZ7
 BAR2 EZ EP   2   2242 11.69                             174   -0.32 5 12.6 183 
 BAR2 EZ ES       2242 26.41                             174   -0.4410 12.6 183 
 BAR2 EZ I        2242 27.64         6.1 0.20                          12.6 183 
 BRR  HZ EP   2   2242 13.75                             151   -0.16 5 74.0 307 
 BRR  HE ES       2242 30.59                             151    0.3510 74.0 307 
 BRR  HZ I        2242 35.41        13.7 0.42                          74.0 307 
 RUS  HZ EP   2   2242 16.36                             146    0.69 5 90.5 174 
 RUS  HN ES       2242 33.55                             146    0.1810 90.5 174 
 RUS  HZ I        2242 35.25         3.0 0.34                          90.5 174 
 PTB  HZ EP   2   2242 18.82                             132   -0.39 5  143 263 
 PTB  HN ES   2   2242 39.40                             132   -0.27 5  143 263 
 PTB  HZ I        2242 42.58         5.5 0.32                           143 263 
                                                                                
