 2015  1 1 2024 12.2 L   6.784 -73.116148.2  RSN  6 0.4 1.3LRSN                1
 GAP=203        0.80       5.4     5.8  6.9  0.1010E+02  0.2181E+01 -0.1414E+02E
 Epicentro: LOS SANTOS - SANTANDER                                             3
 ACTION:UPD 15-03-02 15:35 OP:nd   STATUS:               ID:20150101202412 L   I
 OLDACT:REG 15-01-02 06:33 OP:spq  STATUS:               ID:20150101201744     3
 2015-01-01-2017-44M.COL___280                                                 6
 STAT SP IPHASW D HRMM SECON CODA AMPLIT PERI AZIMU VELO AIN AR TRES W  DIS CAZ7
 BAR2 EZ EP   1   2024 32.19                             171    0.14 7 22.5 199 
 BAR2 EZ ES   1   2024 47.31                             171   -0.26 7 22.5 199 
 BAR2 EZ I        2024 50.83         3.7 0.31            177           22.5 199 
 BRR  HZ EP       2024 34.04                             152    0.2710 74.9 299 
 BRR  HN ES       2024 51.09                             152    0.4710 74.9 299 
 BRR  HZ I        2024 54.79         3.9 0.62            151           74.9 299 
 RUS  HE ES   1   2024 54.30                             145   -0.31 7 98.7 178 
 RUS  HZ I        2024 55.86         2.1 0.38            153           98.7 178 
 PTB  HZ EP   1   2024 39.57                             132   -0.00 7  151 260 
 PTB  HE ES       2025  0.50                             132   -0.46 9  151 260 
 PTB  HZ I        2025  2.37         2.3 0.21            136            151 260 
 ZAR  HZ EP       2024 45.58                             122    0.45 8  208 292 
 ZAR  HE ES       2025 10.80                             122   -0.05 8  208 292 
 ZAR  HZ I        2025 17.02         3.2 0.34            125            208 292 
 SML  HZ EP   1   2024 48.71                             118   -0.52 6  247 335 
 SML  HE ES   1   2025 17.54                             118   -0.61 6  247 335 
 SML  HZ I        2025 25.59         2.4 0.10            119            247 335 
                                                                                
