 2011  8 1 2246  4.9 L   6.758 -73.078140.7  RSN  4 0.3 1.7LRSN                1
 GAP=167        0.68       6.2    12.0  8.4  0.3770E+02 -0.5401E+02 -0.2346E+02E
 Epicentro: LOS SANTOS - SANTANDER                                             3
 ACTION:UPD 12-07-25 14:05 OP:epov STATUS:               ID:20110801224605 L   I
 2011-08-01-2240-00M.COL___141                                                 6
 STAT SP IPHASW D HRMM SECON CODA AMPLIT PERI AZIMU VELO AIN AR TRES W  DIS CAZ7
 BAR2 SZ EP   1   2246 23.16                             171   -0.77 7 21.6 212 
 BAR2 SZ ES       2246 38.77                             171    0.0410 21.6 212 
 BAR2 SZ I        2246 40.28        21.3 0.21                          21.6 212 
 BRR  HZ EP   2   2246 26.28                             149    0.20 5 80.0 299 
 BRR  HZ I        2246 42.35        12.2 0.06                          80.0 299 
 BRR  HN ES   1   2246 42.61                             149    0.05 7 80.0 299 
 RUS  HZ EP   1   2246 28.13                             144    0.29 7 95.7 180 
 RUS  HN ES   1   2246 45.79                             144    0.09 7 95.7 180 
 RUS  HZ I        2246 47.98         4.2 0.42                          95.7 180 
 GRA  SZ EP   1   2246 30.15                             135    0.20 7  128  14 
 GRA  SZ I        2246 51.80         6.5 0.53                           128  14 
                                                                                
