 2014  8 1 2052 59.4 L   6.786 -73.130143.7  RSN 13 0.5 1.9LRSN                1
 GAP=139        1.04       3.4     4.2  6.5 -0.1457E+01  0.7176E+01  0.5696E+01E
 Epicentro: LOS SANTOS - SANTANDER                                             3
 ACTION:UPD 14-09-15 21:46 OP:nd   STATUS:               ID:20140801205259 L   I
 OLDACT:REG 14-08-02 03:41 OP:fm   STATUS:               ID:20140801204818     3
 2014-08-01-2048-18M.COL___251                                                 6
 STAT SP IPHASW D HRMM SECON CODA AMPLIT PERI AZIMU VELO AIN AR TRES W  DIS CAZ7
 BAR2 SZ EP       2053 18.78                             171   -0.0010 22.2 195 
 BAR2 SZ ES   1   2053 33.83                             171   -0.05 7 22.2 195 
 BAR2 SZ I        2053 35.41        37.4 0.20            167           22.2 195 
 BRR  HZ EP   1   2053 20.74                             151    0.26 7 73.5 299 
 BRR  HN ES       2053 37.76                             151    0.8610 73.5 299 
 BRR  HZ I        2053 38.89        10.0 0.18            152           73.5 299 
 PAM  SZ EP       2053 21.78                             150    0.3610 77.5  38 
 PAM  SN ES       2053 38.60                             150    0.0210 77.5  38 
 PAM  SZ I        2053 40.74         7.7 0.34            156           77.5  38 
 RUS  HZ EP       2053 22.90                             144    0.0510 99.0 177 
 RUS  HN ES       2053 40.71                             144   -0.4110 99.0 177 
 RUS  HZ I        2053 42.44         4.9 0.32            143           99.0 177 
 PTB  HZ EP       2053 25.80                             131   -0.55 9  149 260 
 PTB  HN ES       2053 46.80                             131   -0.56 9  149 260 
 PTB  HZ I        2053 49.53         8.8 0.42            131            149 260 
 OCA  HE ES   1   2053 49.13                             129   -0.69 7  162 353 
 SPBC HZ EP   1   2053 27.76                             129    0.00 7  163 220 
 SPBC HN ES   1   2053 49.37                             129   -0.49 7  163 220 
 SPBC HZ I        2053 55.36        11.4 0.22            128            163 220 
 ZAR  HZ EP   1   2053 32.34                             122    0.38 6  206 292 
 ZAR  HN ES       2053 56.94                             122   -0.40 8  206 292 
 ZAR  HZ I        2053 59.22         6.2 0.28            123            206 292 
 NOR  HZ EP   1   2053 34.87                             118   -0.22 6  235 235 
 NOR  HN ES       2054  2.83                             118   -0.08 8  235 235 
 NOR  HZ I        2054  9.96         6.2 0.16            118            235 235 
 SML  HE ES   4   2054  2.88                             117   -1.94 0  246 335 
 CHI  HZ EP   1   2053 36.20                             117   -0.70 6  248 196 
 CHI  HN ES       2054  6.68                             117    0.55 8  248 196 
 CHI  HZ I        2054 13.45         4.0 0.46            117            248 196 
 GUY2CHZ EP   1   2053 43.36                             112    0.36 5  302 235 
 GUY2CHE ES   1   2054 18.52                             112    1.53 5  302 235 
 GUY2CHZ I        2054 25.51         5.7 0.52                           302 235 
 TOL  SZ EP   1   2053 48.17                             109    0.55 5  344 225 
 TOL  SE ES   4   2054 27.52                             109    2.32 0  344 225 
 TOL  SZ I        2054 35.25         9.7 0.70            109            344 225 
 PRA  HN ES   1   2054 34.58                             106    0.11 4  392 210 
                                                                                
