 2010  7 1 2008 15.0 L   6.752 -73.033146.6  RSN  8 0.3 2.2LRSN                1
 GAP=172        0.75       3.3     5.8  5.9 -0.4049E+01 -0.2943E+01 -0.2105E+01E
 Epicentro: ARATOCA - SANTANDER                                                3
 ACTION:UPD 10-12-01 15:14 OP:pat  STATUS:               ID:20100701200815 L   I
 2010-07-01-2004-42S.COL___118                                                 6
 STAT SP IPHASW D HRMM SECON CODA AMPLIT PERI AZIMU VELO AIN AR TRES W  DIS CAZ7
 BAR2 SZ EP       20 8 34.65                             170    -0.110   24 223 
 BAR2 SZ ES   1   20 8 49.97                             170    -0.2 7   24 223 
 BRR  HZ IP       20 8 36.68                             148    -0.410   85 298 
 BRR  HZ I        20 8 37.15        56.4 0.45                            85 298 
 BRR  HN ES       20 8 54.23                             148     0.010   85 298 
 RUS  HZ EP       20 8 38.40                             146     0.010   95 183 
 RUS  HN ES       20 8 56.83                             146     0.110   95 183 
 RUS  HZ I        20 8 58.76        13.3 0.49                            95 183 
 GUE  SZ EP       20 8 39.87                             139    -0.210  120   6 
 GRA  SZ EP       20 8 40.80                             137     0.310  128  11 
 GRA  SZ ES   1   20 9  0.69                             137     0.3 7  128  11 
 HEL  HZ EP   2   20 8 56.34                             114    -0.1 4  283 257 
 HEL  HZ I        20 9 33.91         6.6 0.41                           283 257 
 RREF HN ES   1   20 9 39.33                             111     0.9 5  328 232 
 RREF HZ I        20 9 43.97         7.8 0.45                           328 232 
 PRA  HN ES   2   20 9 49.74                             107    -0.9 3  394 212 
 PRA  HZ I        20 9 53.62         5.9 0.03                           394 212 
                                                                                
