 2016  4 1 2341 50.1 L   6.820 -73.144145.4  RSN  9 0.4 2.1LRSN                1
 GAP=136        1.06       3.6     4.4  6.6 -0.3532E+01  0.1206E+02 -0.2601E+01E
 Epicentro: LOS SANTOS - SANTANDER                                             3
 ACTION:UPD 16-05-05 14:17 OP:rebc STATUS:               ID:20160401234150 L   I
 OLDACT:REG 16-04-02 04:12 OP:ar   STATUS:               ID:20160401233746     3
 2016-04-01-2337-46M.COL___324                                                 6
 STAT SP IPHASW D HRMM SECON CODA AMPLIT PERI AZIMU VELO AIN AR TRES W  DIS CAZ7
 BAR2 EZ EP       2342  9.85                             170    0.1610 25.5 190 
 BAR2 EZ ES       2342 25.22                             170    0.2210 25.5 190 
 BAR2 EZ I        2342 26.34        21.8 0.24            171           25.5 190 
 PAM  EZ EP       2342 12.25                             151    0.1210 75.6  40 
 PAM  EN ES       2342 29.90                             151    0.5610 75.6  40 
 PAM  EZ I        2342 31.95        16.7 0.62            154           75.6  40 
 RUS  HZ EP       2342 13.91                             143   -0.0210  103 176 
 RUS  HE ES       2342 32.08                             143   -0.4710  103 176 
 RUS  HZ I        2342 33.72        10.3 0.18            148            103 176 
 PTB  HZ EP       2342 16.32                             132   -0.74 9  148 258 
 PTB  HN ES       2342 37.71                             132   -0.40 9  148 258 
 PTB  HZ I        2342 43.45        17.2 0.20            132            148 258 
 OCA  HZ EP       2342 17.67                             130   -0.47 9  158 353 
 OCA  HN ES       2342 39.89                             130   -0.15 9  158 353 
 OCA  HZ I        2342 45.99        33.3 0.42            131            158 353 
 SPBC HZ EP       2342 18.51                             129   -0.19 9  165 219 
 SPBC HN ES       2342 41.07                             129    0.02 9  165 219 
 SPBC HZ I        2342 43.36        27.0 0.26            131            165 219 
 ZAR  HZ IPg      2342 22.19                             122   -0.23 9  203 292 
 ZAR  HE ES       2342 47.58                             122   -0.07 9  203 292 
 ZAR  HZ I        2342 54.61        17.0 0.30            123            203 292 
 HEL  HZ EP       2342 31.28                             115    0.94 8  273 255 
 HEL  HE ES       2343  2.44                             115    0.69 8  273 255 
 HEL  HZ I        2343  7.88         7.8 0.28            116            273 255 
 GUY2CHZ EP       2342 34.56                             112    0.75 7  303 234 
 GUY2CHN ES   4   2343 11.05                             112    3.11 0  303 234 
 GUY2CHZ I        2343 15.70         4.5 0.40                           303 234 
                                                                                
