 2017  1 1 2005 42.0 L   6.793 -73.145149.4  RSN  5 0.4 1.4LRSN                1
 GAP=237        0.95       8.6     7.6  9.4  0.2420E+02 -0.5262E+01  0.2655E+02E
 Epicentro: LOS SANTOS - SANTANDER                                             3
 ACTION:UPD 17-05-22 15:54 OP:jn   STATUS:               ID:20170101200542 L   I
 OLDACT:UP  17-01-02 03:05 OP:dani STATUS:               ID:20170101195751d    3
 OLDACT:UP  17-01-02 03:04 OP:dani STATUS:               ID:20170101195751d    3
 OLDACT:UP  17-01-02 03:04 OP:dani STATUS:               ID:20170101195751d    3
 OLDACT:UP  17-01-02 03:04 OP:dani STATUS:               ID:20170101195751d    3
 OLDACT:UP  17-01-02 03:03 OP:dani STATUS:               ID:20170101195751d    3
 OLDACT:DUP 17-01-02 02:48 OP:dani STATUS:               ID:20170101195751d    3
 2017-01-01-1958-00M.COL___378                                                 6
 STAT SP IPHASW D HRMM SECON CODA AMPLIT PERI AZIMU VELO AIN AR TRES W  DIS CAZ7
 BRR  HZ EP       20 6  3.74                             153    0.1410 71.6 299 
 BRR  HN ES       20 6 20.57                             153    0.1510 71.6 299 
 BRR  HZ I        20 6 24.27         3.6 0.32            152           71.6 299 
 RUS  HZ EP       20 6  6.18                             145    0.0910 99.8 176 
 RUS  HN ES   4   20 6 22.47                             145   -2.39 0 99.8 176 
 RUS  HZ I        20 6 26.82         4.5 0.27            146           99.8 176 
 PTB  HZ EP       20 6  8.65                             133   -0.65 9  148 259 
 PTB  HN ES       20 6 30.08                             133   -0.48 9  148 259 
 PTB  HZ I        20 6 34.54         2.4 0.08            133            148 259 
 ZAR  HZ EP       20 6 14.53                             123   -0.23 9  204 292 
 ZAR  HE ES       20 6 40.63                             123    0.35 9  204 292 
 ZAR  HZ I        20 6 46.47         2.8 0.16            125            204 292 
 NOR  HZ EP       20 6 18.65                             119    0.71 8  234 235 
 NOR  HN ES   3   20 6 47.12                             119    1.18 2  234 235 
 NOR  HZ I        20 6 49.83         1.8 0.29            121            234 235 
                                                                                
