 2016  7 1 2235 37.9 L   6.772 -73.158141.5  RSN  7 0.4 2.0LRSN                1
 GAP=136        1.09       4.7     4.5  7.6 -0.2514E+01  0.1069E+02  0.6918E+01E
 Epicentro: LOS SANTOS - SANTANDER                                             3
 ACTION:UPD 17-03-29 16:45 OP:lp   STATUS:               ID:20160701223537 L   I
 OLDACT:REG 16-07-02 03:39 OP:lv   STATUS:               ID:20160701222746     3
 2016-07-01-2227-46M.COL___337                                                 6
 STAT SP IPHASW D HRMM SECON CODA AMPLIT PERI AZIMU VELO AIN AR TRES W  DIS CAZ7
 BRR  HZ EP       2235 58.71                             152    0.1010 71.6 301 
 BRR  HE ES       2236 15.51                             152    0.7510 71.6 301 
 BRR  HZ I        2236 19.59        22.7 0.12            151           71.6 301 
 PAM  EZ EP       2235 59.58                             149   -0.2910 80.6  39 
 PAM  EE ES       2236 16.60                             149   -0.3910 80.6  39 
 PAM  EZ I        2236 18.88        26.1 0.52            153           80.6  39 
 RUS  HZ EP       2236  1.23                             144    0.2110 97.6 175 
 RUS  HE ES       2236 19.23                             144    0.1710 97.6 175 
 RUS  HZ I        2236 20.04         5.8 0.29            148           97.6 175 
 PTB  HZ EP       2236  3.83                             131   -0.53 9  146 260 
 PTB  HN ES       2236 24.13                             131   -0.85 9  146 260 
 PTB  HZ I        2236 27.48        14.7 0.18            133            146 260 
 ZAR  HZ EP       2236 10.10                             121    0.03 9  204 293 
 ZAR  HN ES       2236 35.52                             121    0.37 9  204 293 
 ZAR  HZ I        2236 40.72        20.9 0.40            123            204 293 
 NOR  HZ EP       2236 13.38                             118    0.30 8  232 235 
 NOR  HN ES       2236 40.54                             118    0.02 8  232 235 
 NOR  HZ I        2236 46.03         7.5 0.18            120            232 235 
 GUY2CHZ EP       2236 21.71                             112    0.71 7  298 235 
 GUY2CHE ES       2236 54.21                             112   -0.40 7  298 235 
 GUY2CHZ I        2237  4.05         4.4 0.50                           298 235 
                                                                                
