 2013  2 1 2010 14.9 L   6.697 -73.135141.7  RSN  4 0.3 1.3LRSN                1
 GAP=170        0.62       9.4     5.6  6.8 -0.3126E+02  0.5622E+01  0.2635E+00E
 Epicentro: JORDAN - SANTANDER                                                 3
 ACTION:UPD 13-03-12 09:29 OP:ep   STATUS:               ID:20130201201014 L   I
 2013-02-01-2010-00M.COL___241                                                 6
 STAT SP IPHASW D HRMM SECON CODA AMPLIT PERI AZIMU VELO AIN AR TRES W  DIS CAZ7
 BAR2 SZ ES   1   2010 48.81                             175    0.17 7 12.7 204 
 BRR  HZ EP   1   2010 36.30                             149    0.29 7 78.2 305 
 BRR  HE ES   1   2010 52.81                             149    0.32 7 78.2 305 
 PAM  SZ EP   1   2010 37.31                             147    0.12 7 85.8  34 
 PAM  SN ES   1   2010 54.16                             147   -0.44 7 85.8  34 
 PAM  SZ I        2010 55.54         4.0 0.42            150           85.8  34 
 PTB  HZ EP   1   2010 41.36                             131   -0.10 7  147 263 
 PTB  HN ES   1   2011  1.76                             131   -0.43 7  147 263 
 PTB  HZ I        2011  7.31         2.2 0.14            130            147 263 
                                                                                
