 2014  8 1 2150  4.9 L   6.801 -73.150145.2  RSN 10 0.5 1.9LRSN                1
 GAP=136        1.07       4.5     4.8  7.5  0.1458E+01  0.8351E+01  0.5860E+01E
 Epicentro: LOS SANTOS - SANTANDER                                             3
 ACTION:UPD 14-09-15 21:46 OP:nd   STATUS:               ID:20140801215004 L   I
 OLDACT:REG 14-08-02 03:43 OP:fm   STATUS:               ID:20140801214819     3
 2014-08-01-2148-19M.COL___254                                                 6
 STAT SP IPHASW D HRMM SECON CODA AMPLIT PERI AZIMU VELO AIN AR TRES W  DIS CAZ7
 BAR2 SZ EP   1   2150 24.12                             170   -0.31 7 23.4 189 
 BAR2 SZ ES   1   2150 39.43                             170   -0.26 7 23.4 189 
 BAR2 SZ I        2150 40.99        35.4 0.22            169           23.4 189 
 BRR  HZ EP       2150 26.35                             153    0.4210 70.7 299 
 BRR  HN ES       2150 43.08                             153    0.7310 70.7 299 
 BRR  HZ I        2150 43.85        22.8 0.14            151           70.7 299 
 PAM  SZ EP       2150 27.53                             151    0.4910 77.6  40 
 PAM  SN ES       2150 44.06                             151   -0.2710 77.6  40 
 PAM  SZ I        2150 46.43        16.2 0.46            154           77.6  40 
 RUS  HZ EP   1   2150 28.19                             144   -0.39 7  101 176 
 RUS  HN ES   1   2150 46.85                             144   -0.22 7  101 176 
 RUS  HZ I        2150 49.45         3.8 0.28            145            101 176 
 PTB  HZ EP       2150 31.44                             132   -0.30 9  147 259 
 PTB  HN ES       2150 52.24                             132   -0.47 9  147 259 
 PTB  HZ I        2150 57.89        11.4 0.28            131            147 259 
 SPBC HZ EP   1   2150 33.40                             129    0.10 7  163 219 
 ZAR  HZ EP   1   2150 37.55                             122    0.33 6  204 292 
 ZAR  HN ES       2151  2.65                             122    0.20 9  204 292 
 ZAR  HZ I        2151 10.19         9.0 0.14            123            204 292 
 SML  HZ EP   4   2150 37.82                             117   -3.60 0  243 335 
 SML  HN ES   1   2151  8.41                             117   -1.52 6  243 335 
 SML  HZ I        2151 12.08         9.6 0.24            118            243 335 
 CHI  HZ EP   1   2150 42.98                             117    0.45 6  249 195 
 CHI  HN ES   1   2151 11.96                             117    0.04 6  249 195 
 CHI  HZ I        2151 15.39         2.6 0.32            118            249 195 
 GUY2CHZ EP   4   2150 49.46                             112    1.05 0  301 235 
 GUY2CHN ES   4   2151 26.49                             112    4.12 0  301 235 
 GUY2CHZ I        2151 33.14         3.2 0.66                           301 235 
                                                                                
