 2011 10 1 2227 30.8 L   6.782 -73.162138.6  RSN  6 0.4 1.6LRSN                1
 GAP=135        0.47       4.0     5.8  7.1  0.2536E+01 -0.1967E+01 -0.5202E+01E
 Epicentro: LOS SANTOS - SANTANDER                                             3
 ACTION:UPD 12-07-13 16:01 OP:ep   STATUS:               ID:20111001222730 L   I
 2011-10-01-2223-48S.COL___167                                                 6
 STAT SP IPHASW D HRMM SECON CODA AMPLIT PERI AZIMU VELO AIN AR TRES W  DIS CAZ7
 BTL  SZ EP       2227 49.42                             172   -0.0710 19.1 322 
 BAR2 SZ ES   2   2228  3.74                             171   -0.40 5 21.0 186 
 BAR2 SZ I        2228  5.36         7.2 0.26                          21.0 186 
 BRR  HZ EP       2227 51.16                             151    0.0110 70.6 301 
 BRR  HZ I        2227 51.34        11.0 0.18                          70.6 301 
 BRR  HN ES   3   2228  8.45                             151    1.43 2 70.6 301 
 PAM  SZ EP       2227 52.48                             148    0.0510 80.1  40 
 PAM  SN ES   3   2228  9.01                             148   -0.30 2 80.1  40 
 RUS  HZ EP       2227 53.77                             142    0.0510 98.7 175 
 RUS  HE ES   2   2228 11.69                             142    0.10 5 98.7 175 
 ZAR  HE ES   3   2228 26.84                             121   -0.73 2  203 293 
 ZAR  HZ I        2228 34.59         2.9 0.28                           203 293 
                                                                                
