 2011  4 1 2109  4.9 L   6.667 -73.079142.0  RSN  4 0.2 1.6LRSN                1
 GAP=275        0.61      17.7     8.8 11.6 -0.8979E+02 -0.5594E+02  0.1082E+03E
 Epicentro: ARATOCA - SANTANDER                                                3
 ACTION:UP  11-06-22 15:27 OP:REBC STATUS:               ID:20110401210904 L   I
 2011-04-01-2104-55S.COL___138                                                 6
 STAT SP IPHASW D HRMM SECON CODA AMPLIT PERI AZIMU VELO SNR AR TRES W  DIS CAZ7
 BTL  SZ EP   1   21 9 24.54                             166     0.2 7   35 323 
 BRR  HZ EP       21 9 26.16                             147    -0.310   85 305 
 BRR  HN ES   1   21 9 43.54                             147     0.2 7   85 305 
 BRR  HZ I        21 9 45.67         8.6 0.27                            85 305 
 PAM  SZ EP   1   21 9 27.34                             148     0.2 7   85  29 
 PAM  SN ES   2   21 9 44.20                             148    -0.4 5   85  29 
 GRA  SZ EP   1   21 9 30.97                             133     0.1 7  138  13 
 GRA  SZ I        21 9 52.77         4.6 0.31                           138  13 
                                                                                
