 2013  6 1 2151  0.4 L   6.539 -73.597105.7  RSN  6 0.4 1.3LRSN                1
 GAP= 91        0.87       4.4     3.8  8.6 -0.2094E+01  0.1240E+02 -0.3372E+01E
 Epicentro: EL CARMEN DE CHUCURI - SANTANDER                                   3
 ACTION:UPD 14-01-08 09:51 OP:ep   STATUS:               ID:20130601215100 L   I
 2013-06-01-2150-00M.COL___261                                                 6
 STAT SP IPHASW D HRMM SECON CODA AMPLIT PERI AZIMU VELO AIN AR TRES W  DIS CAZ7
 BAR2 SZ EP   1   2151 16.32                             154    0.13 7 46.2  83 
 BAR2 SZ ES       2151 28.24                             154   -0.2510 46.2  83 
 BAR2 SZ I        2151 30.33        15.4 0.48            158           46.2  83 
 GIR2 SZ EP   1   2151 17.91                             142    0.04 7 74.5  37 
 GIR2 SZ ES   1   2151 32.29                             142    0.81 7 74.5  37 
 RUS  HZ EP   1   2151 19.26                             136   -0.44 7 91.3 141 
 RUS  HE ES   1   2151 34.85                             136    0.12 7 91.3 141 
 PTB  HZ EP       2151 19.24                             135   -0.1310 95.1 270 
 PTB  HN ES       2151 33.79                             135   -0.3510 95.1 270 
 PTB  HZ I        2151 35.55         3.7 0.16            135           95.1 270 
 NOR  HN ES   1   2151 49.86                             116    0.87 7  177 233 
 NOR  HZ I        2151 52.21         1.5 0.18            117            177 233 
 SML  HN ES   1   2152  4.65                             106   -0.08 6  256 348 
                                                                                
