 2016  3 1 2142 15.4 L   6.822 -73.216142.6  RSN  4 0.1 1.8LRSN                1
 GAP=148        0.43       2.6     2.4  4.7 -0.2376E+01  0.4067E+01  0.9600E-01E
 Epicentro: ZAPATOCA - SANTANDER                                               3
 ACTION:UPD 16-05-13 21:20 OP:cam  STATUS:               ID:20160301214215 L   I
 OLDACT:REG 16-03-02 02:28 OP:drio STATUS:               ID:20160301213749     3
 2016-03-01-2137-49M.COL___319                                                 6
 STAT SP IPHASW D HRMM SECON CODA AMPLIT PERI AZIMU VELO AIN AR TRES W  DIS CAZ7
 PAM  EZ EP       2142 37.42                             149   -0.0410 80.8  45 
 PAM  EE ES       2142 54.74                             149    0.0610 80.8  45 
 PAM  EZ I        2142 56.65        10.3 0.46            154           80.8  45 
 RUS  HZ EP       2142 39.25                             142    0.2010  104 172 
 RUS  HE ES       2142 57.38                             142   -0.1410  104 172 
 RUS  HZ I        2142 58.78         5.4 0.44            148            104 172 
 PTB  HZ EP       2142 41.21                             133   -0.23 9  141 257 
 PTB  HN ES       2143  1.83                             133    0.06 9  141 257 
 PTB  HZ I        2143  8.62        22.2 0.96            135            141 257 
 GUY2CHZ EP   4   2143  0.31                             112    2.03 0  296 234 
 GUY2CHN ES       2143 31.87                             112    0.12 7  296 234 
 GUY2CHZ I        2143 41.91         2.0 0.48                           296 234 
                                                                                
