 2016  9 1 2044 40.5 L   6.797 -73.167147.2  RSN  8 0.3 1.6LRSN                1
 GAP=134        0.80       3.2     3.5  7.2 -0.1829E+01  0.7553E+01  0.2514E+01E
 Epicentro: LOS SANTOS - SANTANDER                                             3
 ACTION:UPD 17-08-17 21:05 OP:lp   STATUS:               ID:20160901204440 L   I
 OLDACT:REG 16-09-02 03:07 OP:ar   STATUS:               ID:20160901203744     3
 2016-09-01-2038-00M.COL___356                                                 6
 STAT SP IPHASW D HRMM SECON CODA AMPLIT PERI AZIMU VELO AIN AR TRES W  DIS CAZ7
 PAM  EZ EP       2045  3.24                             150    0.2710 79.2  41 
 PAM  EN ES       2045 20.45                             150   -0.0510 79.2  41 
 PAM  EZ I        2045 23.55         4.9 0.46            155           79.2  41 
 RUS  HZ EP       2045  4.45                             144    0.0710  100 175 
 RUS  HE ES       2045 22.82                             144   -0.1910  100 175 
 RUS  HZ I        2045 24.38         5.5 0.26            148            100 175 
 PTB  HZ EP       2045  7.00                             133   -0.36 9  145 259 
 PTB  HN ES       2045 27.73                             133   -0.59 9  145 259 
 PTB  HZ I        2045 34.68         3.9 0.26            134            145 259 
 SPBC HN ES       2045 31.38                             129    0.25 9  161 218 
 ZAR  HE ES       2045 38.52                             123    0.48 9  202 292 
 NOR  HZ EP       2045 15.92                             119   -0.16 8  233 234 
 NOR  HE ES       2045 44.09                             119    0.25 8  233 234 
 NOR  HZ I        2045 49.91         3.0 0.18            122            233 234 
 CHI  HZ EP   2   2045 17.39                             117   -0.78 4  248 195 
 CHI  HN ES       2045 47.94                             117    0.38 8  248 195 
 GUY2CHZ EP   4   2045 26.37                             113    2.44 0  299 235 
 GUY2CHN ES   4   2046  1.20                             113    3.39 0  299 235 
 GUY2CHZ I        2046  7.70         2.5 0.40                           299 235 
                                                                                
