 2012  8 1 2156 55.9 L   7.382 -73.161140.1  RSN  7 0.3 2.3LRSN                1
 GAP=181        0.55       3.9     3.0  4.7  0.7411E+00  0.3505E+01 -0.2161E+00E
 Epicentro: EL PLAYON - SANTANDER                                              3
 ACTION:UPD 12-09-10 11:53 OP:ep   STATUS:               ID:20120801215655 L   I
 2012-08-01-2150-00M.COL___215                                                 6
 STAT SP IPHASW D HRMM SECON CODA AMPLIT PERI AZIMU VELO AIN AR TRES W  DIS CAZ7
 PAM  SZ EP       2157 16.27                             159    0.1210 51.2  95 
 PAM  SN ES   1   2157 31.61                             159   -0.32 7 51.2  95 
 BRR  HZ EP       2157 16.41                             153    0.1410 68.0 244 
 BRR  HN ES   1   2157 32.63                             153    0.48 7 68.0 244 
 BRR  HZ I        2157 34.23        43.6 0.14                          68.0 244 
 BAR2 SZ EP       2157 18.04                             146    0.2210 87.4 182 
 BAR2 SZ ES   1   2157 34.74                             146   -0.16 7 87.4 182 
 BAR2 SZ I        2157 38.16        27.5 0.37                          87.4 182 
 RUS  HZ EP   1   2157 24.94                             128    0.25 7  165 177 
 RUS  HN ES   1   2157 46.78                             128   -0.35 7  165 177 
 PTB  HZ EP       2157 24.32                             126   -0.31 9  171 237 
 PTB  HN ES   1   2157 46.89                             126   -0.13 7  171 237 
 PTB  HZ I        2157 50.24        21.4 0.18                           171 237 
 ZAR  HZ EP   1   2157 26.02                             123   -0.29 7  188 274 
 ZAR  HE ES   1   2157 49.94                             123   -0.09 7  188 274 
 ZAR  HZ I        2157 56.03        18.6 0.24                           188 274 
 PRA  HZ EP   2   2157 56.13                             103    0.22 3  448 205 
 PRA  HN ES   2   2158 43.09                             103    0.39 3  448 205 
                                                                                
