 2014  6 1 2143 27.0 L   6.785 -73.166145.0  RSN 12 0.4 1.8LRSN                1
 GAP=199        0.94       3.0     4.4  5.5  0.9609E+00  0.6753E+01 -0.7044E+00E
 Epicentro: LOS SANTOS - SANTANDER                                             3
 ACTION:UPD 14-07-01 22:49 OP:nd   STATUS:               ID:20140601214327 L   I
 OLDACT:REG 14-06-02 04:43 OP:spq  STATUS:               ID:20140601213818     3
 2014-06-01-2138-18M.COL___259                                                 6
 STAT SP IPHASW D HRMM SECON CODA AMPLIT PERI AZIMU VELO AIN AR TRES W  DIS CAZ7
 BAR2 SZ ES       2144  1.49                             171   -0.1910 21.4 185 
 BAR2 SZ I        2144  3.74        12.1 0.30            168           21.4 185 
 BRR  HZ EP       2143 48.53                             153    0.5610 70.1 301 
 BRR  HN ES       2144  5.07                             153    0.7110 70.1 301 
 BRR  HZ I        2144 12.12         9.1 0.35            149           70.1 301 
 RUS  HZ EP       2143 50.95                             144    0.4110 99.1 175 
 RUS  HN ES       2144  8.47                             144   -0.4510 99.1 175 
 RUS  HZ I        2144 10.55         9.6 0.34            146           99.1 175 
 PTB  HZ EP       2143 53.44                             132   -0.21 9  145 259 
 PTB  HN ES       2144 14.06                             132   -0.39 9  145 259 
 PTB  HZ I        2144 16.25         5.4 0.14            131            145 259 
 SPBC HE ES       2144 16.90                             129   -0.23 9  160 219 
 SPBC HZ I        2144 20.04        12.0 0.10            129            160 219 
 ZAR  HZ EP       2143 58.91                             122   -0.31 9  203 293 
 ZAR  HN ES       2144 23.62                             122   -0.75 9  203 293 
 ZAR  HZ I        2144 35.26         4.9 0.21            122            203 293 
 NOR  HZ EP   1   2144  2.43                             119    0.08 6  232 234 
 NOR  HE ES   1   2144 30.03                             119    0.08 6  232 234 
 NOR  HZ I        2144 38.53         5.8 0.18            119            232 234 
 SML  HZ EP       2144  3.48                             117   -0.14 8  244 336 
 SML  HE ES       2144 32.38                             117    0.18 8  244 336 
 SML  HZ I        2144 36.22         9.5 0.10            119            244 336 
 CHI  HZ EP   1   2144  3.96                             117   -0.43 6  246 195 
 CHI  HN ES   1   2144 34.07                             117    0.50 6  246 195 
 CHI  HZ I        2144 40.63         3.4 0.30            119            246 195 
 HEL  HN ES   1   2144 38.60                             115    0.63 6  269 256 
 HEL  HZ I        2144 44.88         2.8 0.24            115            269 256 
 GUY2CHZ EP   1   2144  9.90                             112   -0.33 5  298 235 
 GUY2CHN ES       2144 44.08                             112    0.12 7  298 235 
 GUY2CHZ I        2144 56.99         3.3 0.31                           298 235 
 RREF HN ES       2144 48.83                             111    0.36 7  319 229 
 RREF HZ I        2144 56.01         3.0 0.25            112            319 229 
                                                                                
