 2017 12 1 2013 34.9 L   6.777 -73.148140.2  RSN  8 0.4 1.9LRSN                1
 GAP=137        0.93       3.5     3.9  6.3 -0.2372E+01  0.9976E+01 -0.5587E-01E
 Epicentro: LOS SANTOS - SANTANDER                                             3
 ACTION:UPD 18-01-04 13:16 OP:rebc STATUS:               ID:20171201201334 L   I
 OLDACT:REG 17-12-02 02:53 OP:osc  STATUS:               ID:20171201200744     3
 2017-12-01-2008-00M.COL___489                                                 6
 STAT SP IPHASW D HRMM SECON CODA AMPLIT PERI AZIMU VELO AIN AR TRES W  DIS CAZ7
 BAR2 EZ EP       2013 53.84                             171    0.0410 20.8 190 
 BAR2 EZ ES       2014  8.46                             171   -0.1010 20.8 190 
 BAR2 EZ I        2014  9.69        27.8 0.16            170           20.8 190 
 PAM  EZ EP       2013 56.73                             149    0.0810 79.5  39 
 PAM  EN ES       2014 13.66                             149    0.0410 79.5  39 
 PAM  EZ I        2014 16.02        13.2 0.56            153           79.5  39 
 RUS  HZ EP       2013 57.91                             143   -0.0110 98.1 176 
 RUS  HN ES       2014 16.15                             143    0.2710 98.1 176 
 RUS  HZ I        2014 17.98         8.8 0.42            146           98.1 176 
 PTB  HZ EP       2014  0.74                             131   -0.60 9  147 260 
 PTB  HN ES       2014 21.30                             131   -0.67 9  147 260 
 PTB  HZ I        2014 24.30         6.9 0.12            132            147 260 
 SPBC HZ EP       2014  2.89                             128    0.13 9  161 219 
 SPBC HE ES       2014 24.50                             128    0.00 9  161 219 
 SPBC HZ I        2014 32.05        10.2 0.18            130            161 219 
 ZAR  HZ EP       2014  7.03                             121   -0.02 9  205 293 
 ZAR  HE ES       2014 32.55                             121    0.41 9  205 293 
 ZAR  HZ I        2014 37.37         8.9 0.30            123            205 293 
 NOR  HZ EP       2014 10.30                             117    0.18 8  233 235 
 NOR  HE ES       2014 38.54                             117    0.94 8  233 235 
 NOR  HZ I        2014 40.07         5.4 0.14            119            233 235 
 CHI  HN ES       2014 40.43                             116   -0.54 8  246 195 
                                                                                
