 2010 12 1 2213 20.6 L   6.560 -73.458116.0  RSN  7 0.3 1.7LRSN                1
 GAP=176        0.55       3.7     4.6  7.3  0.5383E+01  0.1582E+02  0.1459E+02E
 Epicentro: EL CARMEN DE CHUCURI - SANTANDER                                   3
 ACTION:UP  11-01-14 15:22 OP:pat  STATUS:               ID:20101201221320 L   I
 2010-12-01-2210-02S.COL___132                                                 6
 STAT SP IPHASW D HRMM SECON CODA AMPLIT PERI AZIMU VELO SNR AR TRES W  DIS CAZ7
 BRR  HZ EP   1   2213 38.20                             148    -0.1 7   67 335 
 BRR  HZ I        2213 44.60        13.6 0.18                            67 335 
 BRR  HN ES   1   2213 52.25                             148     0.1 7   67 335 
 RUS  HZ EP   1   2213 39.96                             142    -0.3 7   85 151 
 RUS  HE ES   1   2213 55.70                             142     0.1 7   85 151 
 RUS  HZ I        2213 57.04         8.3 0.25                            85 151 
 NOR  SZ EP   2   2213 49.67                             117    -0.3 4  191 235 
 NOR  SN ES   2   2214 12.88                             117     0.1 4  191 235 
 CHI  HZ EP   1   2213 53.31                             114     0.2 6  216 188 
 CHI  HZ I        2213 54.29         3.3 0.15                           216 188 
 CHI  HN ES   2   2214 18.29                             114    -0.1 4  216 188 
 HEL  HE ES   2   2214 21.22                             112    -0.5 4  233 260 
 HEL  HZ I        2214 25.10         2.9 0.23                           233 260 
 RREF HZ EP   2   2214  1.02                             108     0.5 4  278 229 
 RREF HE ES   2   2214 32.21                             108     0.6 4  278 229 
 RREF HZ I        2214 40.93         3.7 0.48                           278 229 
 PRA  HZ EP   2   2214  9.06                             103     0.6 3  352 207 
 PRA  HE ES   2   2214 45.05                             103    -0.8 3  352 207 
 PRA  HZ I        2214 53.23         5.7 0.38                           352 207 
                                                                                
