 2012  4 1 2130 26.3 L   6.776 -73.150150.7  RSN  4 0.4 1.6LRSN                1
 GAP=137        0.98       7.1     6.9 11.1 -0.3242E+01  0.2834E+01  0.1593E+02E
 Epicentro: LOS SANTOS - SANTANDER                                             3
 ACTION:UPD 12-07-05 11:49 OP:tino STATUS:               ID:20120401213026 L   I
 2012-04-01-2130-00M.COL___196                                                 6
 STAT SP IPHASW D HRMM SECON CODA AMPLIT PERI AZIMU VELO AIN AR TRES W  DIS CAZ7
 BRR  HZ EP   1   2130 48.22                             153     0.2 7   72 301 
 BRR  HZ I        2130 48.53        20.3 0.16                            72 301 
 BRR  HE ES   1   2131  5.68                             153     0.7 7   72 301 
 PAM  SZ EP   1   2130 49.20                             151     0.1 7   80  39 
 PAM  SN ES   1   2131  6.42                             151    -0.6 7   80  39 
 RUS  HZ EP       2130 50.53                             145     0.210   98 176 
 RUS  HN ES   1   2131  9.04                             145     0.0 7   98 176 
 RUS  HZ I        2131 10.64         4.0 0.18                            98 176 
 PTB  HZ EP   1   2130 53.20                             133    -0.4 7  147 260 
 PTB  HN ES   1   2131 14.25                             133    -0.6 7  147 260 
 PTB  HZ I        2131 16.45         3.4 0.04                           147 260 
                                                                                
