 2010 12 1 2007 30.4 L   6.865 -72.944146.7  RSN  5 0.4 1.8LRSN                1
 GAP=180        0.92       9.5    17.6 13.3  0.1025E+03 -0.1342E+03 -0.7261E+02E
 Epicentro: GUACA - SANTANDER                                                  3
 ACTION:UP  11-01-14 15:22 OP:pat  STATUS:               ID:20101201200730 L   I
 2010-12-01-2003-32S.COL___133                                                 6
 STAT SP IPHASW D HRMM SECON CODA AMPLIT PERI AZIMU VELO SNR AR TRES W  DIS CAZ7
 BAR2 SZ EP   1   20 7 50.90                             164     0.3 7   40 221 
 BAR2 SZ ES   1   20 8  6.69                             164     0.4 7   40 221 
 BAR2 SZ I        20 8  7.73         9.9 0.58                            40 221 
 BRR  HZ IP     D 20 7 53.06                             147     0.410   89 288 
 BRR  HZ I        20 7 55.03        19.6 0.05                            89 288 
 BRR  HE ES   1   20 8  9.60                             147    -0.5 7   89 288 
 RUS  HZ EP   1   20 7 54.47                             142    -0.3 7  109 188 
 RUS  HN ES   1   20 8 13.56                             142    -0.3 7  109 188 
 RUS  HZ I        20 8 14.64         2.9 0.29                           109 188 
 GRA  SZ EP   2   20 7 54.34                             140    -0.4 5  114   8 
 GRA  SZ I        20 8 18.25         7.1 0.33                           114   8 
 OCA  SZ EP   2   20 7 58.27                             130    -0.2 5  157 345 
 OCA  SZ I        20 8 21.72        16.7 0.43                           157 345 
                                                                                
