 2017  4 1 2058 29.0 L   6.804 -73.172143.9  RSN  5 0.4 1.5LRSN                1
 GAP=133        0.91       5.0     4.8  9.7  0.2839E+01  0.2319E+02  0.1159E+02E
 Epicentro: LOS SANTOS - SANTANDER                                             3
 ACTION:UPD 17-05-30 21:07 OP:jn   STATUS:               ID:20170401205829 L   I
 OLDACT:UP  17-04-02 03:44 OP:dani STATUS:               ID:20170401204625     3
 OLDACT:REG 17-04-02 03:10 OP:dani STATUS:               ID:20170401204625     3
 2017-04-01-2048-00M.COL___374                                                 6
 STAT SP IPHASW D HRMM SECON CODA AMPLIT PERI AZIMU VELO AIN AR TRES W  DIS CAZ7
 PAM  EN ES       2059  8.52                             150    0.1110 79.0  41 
 RUS  HZ EP       2058 52.71                             143    0.0510  101 174 
 RUS  HN ES       2059 11.12                             143    0.0410  101 174 
 RUS  HE I        2059 12.62         8.6 0.40            144            101 174 
 PTB  HZ EP       2058 55.28                             132   -0.32 9  145 258 
 PTB  HN ES       2059 15.68                             132   -0.64 9  145 258 
 PTB  HZ I        2059 23.81         3.3 0.25            132            145 258 
 ZAR  HN ES       2059 26.47                             122    0.42 9  201 292 
 NOR  HZ EP       2059  4.40                             118   -0.03 8  233 234 
 NOR  HN ES   1   2059 32.97                             118    0.94 6  233 234 
 NOR  HZ I        2059 40.66         2.2 0.22            120            233 234 
                                                                                
