 2016  4 1 2016 41.7 L   6.806 -73.150150.1  RSN  4 0.3 1.7LRSN                1
 GAP=136        0.85       4.6     4.1  8.2 -0.3821E-01  0.1265E+02 -0.3514E+01E
 Epicentro: LOS SANTOS - SANTANDER                                             3
 ACTION:UPD 16-05-05 14:17 OP:rebc STATUS:               ID:20160401201641 L   I
 OLDACT:REG 16-04-02 04:05 OP:ar   STATUS:               ID:20160401200744     3
 2016-04-01-2007-44M.COL___319                                                 6
 STAT SP IPHASW D HRMM SECON CODA AMPLIT PERI AZIMU VELO AIN AR TRES W  DIS CAZ7
 PAM  EZ EP       2017  4.44                             152    0.0410 77.2  40 
 PAM  EN ES       2017 21.92                             152   -0.1710 77.2  40 
 PAM  EZ I        2017 24.44         9.7 0.54            153           77.2  40 
 RUS  HZ EP       2017  5.70                             144   -0.2610  101 176 
 RUS  HN ES       2017 25.31                             144    0.4510  101 176 
 RUS  HZ I        2017 25.69         4.0 0.22            149            101 176 
 PTB  HZ EP       2017  8.78                             133   -0.25 9  147 259 
 PTB  HN ES       2017 29.83                             133   -0.49 9  147 259 
 ZAR  HZ EP       2017 14.78                             123    0.39 9  203 292 
 ZAR  HN ES       2017 40.28                             123    0.41 9  203 292 
 ZAR  HZ I        2017 45.22         8.4 0.36            125            203 292 
                                                                                
