 2016 11 1 2243 45.3 L   6.784 -73.142145.8  RSN 11 0.3 1.8LRSN                1
 GAP=138        0.88       3.0     3.7  5.0 -0.1733E+00  0.4847E+01  0.3409E+01E
 Epicentro: LOS SANTOS - SANTANDER                                             3
 ACTION:UPD 17-10-26 21:03 OP:lp   STATUS:               ID:20161101224345 L   I
 OLDACT:UP  16-11-02 04:50 OP:edw  STATUS:               ID:20161101223745d    3
 OLDACT:UP  16-11-02 04:50 OP:edw  STATUS:               ID:20161101223745d    3
 OLDACT:UP  16-11-02 04:49 OP:edw  STATUS:               ID:20161101223745d    3
 OLDACT:DUP 16-11-02 04:43 OP:edw  STATUS:               ID:20161101223745d    3
 OLDACT:REG 16-11-02 04:07 OP:edw  STATUS:               ID:20161101223744     3
 2016-11-01-2238-00M.COL___337                                                 6
 STAT SP IPHASW D HRMM SECON CODA AMPLIT PERI AZIMU VELO AIN AR TRES W  DIS CAZ7
 BAR2 EZ EP       2244  4.55                             171   -0.3910 21.6 192 
 BAR2 EZ ES       2244 19.81                             171   -0.4110 21.6 192 
 BAR2 EZ I        2244 20.91        33.3 0.40            169           21.6 192 
 BRR  HZ IP     C 2244  6.64                             152    0.0810 72.4 300 
 BRR  HE ES       2244 23.87                             152    0.7610 72.4 300 
 PAM  EZ EP     C 2244  7.56                             151   -0.0610 78.5  38 
 PAM  EN ES       2244 25.13                             151    0.1210 78.5  38 
 PAM  EZ I        2244 27.09         8.5 0.34            154           78.5  38 
 RUS  HZ EP       2244  8.79                             144   -0.1710 98.7 176 
 RUS  HN ES       2244 27.48                             144    0.1010 98.7 176 
 RUS  HZ I        2244 28.55         9.0 0.46            145           98.7 176 
 PTB  HZ EP       2244 12.05                             132   -0.26 9  148 260 
 PTB  HN ES       2244 32.65                             132   -0.70 9  148 260 
 PTB  HZ I        2244 34.59         5.7 0.14            131            148 260 
 SPBC HZ EP       2244 14.04                             129    0.31 9  162 220 
 SPBC HN ES       2244 36.05                             129    0.18 9  162 220 
 SPBC HZ I        2244 39.95        10.0 0.24            129            162 220 
 ZAR  HZ EP       2244 17.77                             122   -0.12 9  205 293 
 ZAR  HN ES       2244 43.42                             122    0.14 9  205 293 
 ZAR  HZ I        2244 48.72         6.0 0.12            122            205 293 
 NOR  HZ EP       2244 21.16                             119    0.17 8  234 235 
 NOR  HN ES   4   2244 47.62                             119   -1.18 0  234 235 
 NOR  HZ I        2244 54.63         2.9 0.26            119            234 235 
 CHI  HZ EP       2244 23.04                             117    0.19 8  247 195 
 CHI  HN ES       2244 52.34                             117    0.22 8  247 195 
 CHI  HZ I        2244 55.66         3.2 0.56            118            247 195 
 GUY2CHN ES   4   2245  6.54                             112    3.73 0  300 235 
 PRA  HZ EP   4   2244 39.19                             107    0.50 0  391 210 
 PRA  HN ES       2245 20.34                             107    0.03 6  391 210 
 PRA  HZ I        2245 23.67         3.2 0.33            107            391 210 
 CRJC HZ EP   9   2244 44.35                             103   -3.70 0  469   3 
 CRJC HN ES       2245 32.14                                   -1.13 5  469   3 
                                                                                
