 2012  7 1 2207 55.6 L   6.331 -73.560110.1  RSN 10 0.4 2.1LRSN                1
 GAP= 77        0.76       3.1     3.1  6.9 -0.2631E+00  0.5074E+01 -0.1218E+01E
 Epicentro: SANTA HELENA DEL OPON - SANTANDER                                  3
 ACTION:UPD 12-08-14 11:41 OP:ep   STATUS:               ID:20120701220755 L   I
 2012-07-01-2200-00M.COL___201                                                 6
 STAT SP IPHASW D HRMM SECON CODA AMPLIT PERI AZIMU VELO AIN AR TRES W  DIS CAZ7
 BAR2 SZ IP       22 8 12.27                             153     0.210   51  55 
 BAR2 SZ I        22 8 12.57        97.9 0.22            155             51  55 
 BAR2 SZ ES   2   22 8 24.71                             153    -0.2 5   51  55 
 RUS  HZ IP     D 22 8 13.77                             145     0.010   72 133 
 RUS  HN ES   1   22 8 28.00                             145     0.1 7   72 133 
 RUS  HZ I        22 8 29.99        13.6 0.27            153             72 133 
 BRR  HZ EP       22 8 14.03                             138    -0.210   87 349 
 BRR  HN ES   1   22 8 29.21                             138     0.4 7   87 349 
 BRR  HZ I        22 8 35.73        21.8 0.15            138             87 349 
 PTB  HN ES   1   22 8 30.24                             134    -0.7 7  102 283 
 PTB  HZ I        22 8 31.31        24.2 0.16            136            102 283 
 PAM  SZ EP   1   22 8 20.22                             123    -0.2 7  147  40 
 PAM  SE ES   2   22 8 39.41                             123    -0.3 5  147  40 
 NOR  SZ EP   1   22 8 22.14                             119     0.1 7  168 240 
 NOR  SE ES   1   22 8 42.58                             119    -0.2 7  168 240 
 CHI  HE ES   2   22 8 47.92                             115     0.3 4  189 186 
 ZAR  HZ EP   1   22 8 24.57                             115    -0.1 7  192 312 
 ZAR  HN ES   1   22 8 48.08                             115     0.7 7  192 312 
 ZAR  HZ I        22 8 53.36        22.8 0.28            117            192 312 
 OCA  HZ EP   2   22 8 27.60                             112     0.5 4  213   7 
 OCA  HE ES   2   22 8 51.06                             112    -0.7 4  213   7 
 OCA  HZ I        22 8 56.95        23.2 0.27            115            213   7 
 HEL  HZ EP   2   22 8 27.62                             112    -0.4 4  218 266 
 HEL  HN ES   2   22 8 53.83                             112     0.5 4  218 266 
 HEL  HZ I        22 8 57.97        11.2 0.25            115            218 266 
