 2011  2 1 2110  3.5 L   6.796 -73.117145.5  RSN  5 0.4 1.8LRSN                1
 GAP=162        0.65       6.4     8.1  8.1 -0.2346E+02  0.8705E+01  0.1044E+02E
 Epicentro: LOS SANTOS - SANTANDER                                             3
 ACTION:UP  11-03-28 15:05 OP:jfem STATUS:               ID:20110201211003 L   I
 2011-02-01-2100-00M.COL___135                                                 6
 STAT SP IPHASW D HRMM SECON CODA AMPLIT PERI AZIMU VELO SNR AR TRES W  DIS CAZ7
 BAR2 SZ IP       2110 23.47                             170     0.410   24 198 
 BAR2 SZ ES   1   2110 38.29                             170    -0.1 7   24 198 
 BAR2 SZ I        2110 39.85        22.3 0.17                            24 198 
 RUS  HZ EP       2110 27.13                             144     0.010  100 178 
 RUS  HN ES   2   2110 45.61                             144     0.0 5  100 178 
 RUS  HZ I        2110 46.93         6.4 0.28                           100 178 
 GRA  SZ ES   2   2110 47.70                             137    -0.6 5  125  16 
 GRA  SZ I        2110 49.98         8.5 0.35                           125  16 
 NOR  SZ EP   3   2110 39.77                             118     0.3 2  237 235 
 NOR  SE ES   1   2111  7.41                             118    -0.1 6  237 235 
 CHI  HZ EP   2   2110 40.74                             117    -0.5 4  249 196 
 CHI  HE ES   3   2111  9.38                             117    -1.3 2  249 196 
 CHI  HZ I        2111 15.56         3.6 0.44                           249 196 
                                                                                
