 2017 12 1 2015 21.3 L   6.798 -73.160148.4  RSN  7 0.4 1.6LRSN                1
 GAP=135        0.98       4.3     4.3  7.1 -0.3902E+01  0.1154E+02 -0.3272E+01E
 Epicentro: LOS SANTOS - SANTANDER                                             3
 ACTION:UPD 18-01-04 13:16 OP:rebc STATUS:               ID:20171201201521 L   I
 OLDACT:DUP 17-12-02 05:32 OP:osc  STATUS:               ID:20171201200746d    3
 OLDACT:REG 17-12-02 02:53 OP:osc  STATUS:               ID:20171201200744     3
 2017-12-01-2008-00M.COL___489                                                 6
 STAT SP IPHASW D HRMM SECON CODA AMPLIT PERI AZIMU VELO AIN AR TRES W  DIS CAZ7
 BAR2 EZ EP       2015 41.25                             171    0.0310 22.9 186 
 BAR2 EZ ES       2015 56.88                             171    0.1110 22.9 186 
 BAR2 EZ I        2015 59.08         8.5 0.26            171           22.9 186 
 PAM  EZ EP       2015 44.15                             151    0.3010 78.6  40 
 PAM  EN ES       2016  1.26                             151   -0.1910 78.6  40 
 PAM  EZ I        2016  5.94         4.3 0.58            155           78.6  40 
 RUS  HZ EP       2015 45.22                             144   -0.0610  100 175 
 RUS  HE ES       2016  3.98                             144   -0.0210  100 175 
 RUS  HZ I        2016  4.75         2.9 0.20            148            100 175 
 PTB  HZ EP       2015 48.32                             133    0.00 9  146 259 
 PTB  HE ES       2016  8.77                             133   -0.64 9  146 259 
 SPBC HZ EP       2015 50.20                             130    0.33 9  162 219 
 SPBC HE ES       2016 12.18                             130    0.01 9  162 219 
 SPBC HZ I        2016 19.14         7.8 0.26            132            162 219 
 ZAR  HZ EP       2015 52.89                             123   -0.87 9  203 292 
 ZAR  HE ES       2016 19.94                             123    0.85 9  203 292 
 ZAR  HZ I        2016 26.29         7.2 0.46            124            203 292 
 NOR  HN ES       2016 25.05                             119    0.17 8  233 234 
 NOR  HZ I        2016 31.35         2.9 0.26            121            233 234 
                                                                                
