 2010  3 1 2305 43.6 L   6.853 -72.974141.3  RSN  5 0.4 1.7LRSN                1
 GAP=257        0.92      13.0    23.6 13.2  0.2481E+03 -0.1622E+03 -0.6859E+02E
 Epicentro: CEPITA - SANTANDER                                                 3
 ACTION:UP  10-08-24 09:51 OP:vdl  STATUS:               ID:20100301230544 L   I
 2010-03-01-2302-11S.COL___093                                                 6
 STAT SP IPHASW D HRMM SECON CODA AMPLIT PERI AZIMU VELO SNR AR TRES W  DIS CAZ7
 BAR2 SZ EP   1   23 6  2.49                             163    -0.6 7   37 219 
 BAR2 SZ ES   2   23 6 17.83                             163    -0.4 5   37 219 
 BRR  HZ EP       23 6  5.05                             145    -0.210   86 289 
 BRR  HZ I        23 6  7.05        16.8 0.35                            86 289 
 BRR  HE ES   1   23 6 22.41                             145     0.4 7   86 289 
 RUS  BZ EP       23 6  7.92                             140     0.510  107 186 
 RUS  BN ES   1   23 6 25.76                             140    -0.2 7  107 186 
 RUS  BZ I        23 6 27.23         4.3 0.22                           107 186 
 CHI  HZ EP   2   23 6 21.96                             114    -0.3 4  260 199 
 CHI  HZ I        23 6 54.55         2.5 0.40                           260 199 
 PRA  HN ES   3   23 7 20.99                             105    -0.7 1  407 212 
 PRA  HZ I        23 7 24.86         2.5 0.29                           407 212 
                                                                                
