 2011  5 1 2125 22.2 L   6.333 -73.553116.7  RSN 10 0.4 1.7LRSN                1
 GAP=107        0.80       3.0     3.2  6.4 -0.1794E+01  0.5741E+01 -0.9530E+00E
 Epicentro: CONTRATACION - SANTANDER                                           3
 ACTION:UP  11-06-29 08:50 OP:tino STATUS:               ID:20110501212522 L   I
 2011-05-01-2122-44S.COL___129                                                 6
 STAT SP IPHASW D HRMM SECON CODA AMPLIT PERI AZIMU VELO SNR AR TRES W  DIS CAZ7
 BAR2 SZ EP   1   2125 39.56                             155     0.2 7   50  55 
 BAR2 SZ ES   1   2125 52.77                             155     0.0 7   50  55 
 RUS  HZ EP   1   2125 40.65                             147    -0.4 7   71 133 
 RUS  HN ES   1   2125 55.68                             147     0.0 7   71 133 
 RUS  HZ I        2125 56.77         7.9 0.24                            71 133 
 BRR  HZ I        2125 44.46        28.8 0.11                            87 348 
 BRR  HN ES   1   2125 56.44                             140    -0.1 7   87 348 
 GIR2 SZ EP   1   2125 42.25                             139     0.2 7   92  26 
 PAM  SZ EP   1   2125 47.58                             125     0.2 7  146  40 
 PAM  SN ES   1   2126  7.03                             125    -0.1 7  146  40 
 YOP  SZ EP   1   2125 49.54                             121     0.6 7  166 131 
 YOP  SN ES   1   2126  9.86                             121     0.1 7  166 131 
 YOP  SZ I        2126 13.11        17.2 0.29                           166 131 
 NOR  SZ EP   1   2125 48.27                             120    -0.9 7  169 240 
 NOR  SN ES   1   2126  9.96                             120    -0.3 7  169 240 
 NOR  SZ I        2126 11.48         1.4 0.15                           169 240 
 BRI  SZ EP   1   2125 49.50                             120    -0.4 7  174  29 
 BRI  SZ ES   1   2126 11.73                             120     0.1 7  174  29 
 BRI  SZ I        2126 15.35         6.9 0.45                           174  29 
 OCA  SZ EP   1   2125 53.85                             114    -0.2 6  212   7 
 OCA  SZ ES   1   2126 18.84                             114    -0.1 6  212   7 
 HEL  HZ EP   1   2125 55.46                             113     0.4 6  219 266 
 HEL  HN ES   1   2126 21.56                             113     0.8 6  219 266 
                                                                                
