 2010  4 1 2009  2.7 L   6.817 -73.057143.5  RSN 12 0.4 2.6LRSN                1
 GAP=148        0.73       3.8     4.9  5.3 -0.8827E+01 -0.3857E+01  0.3060E+01E
 Epicentro: LOS SANTOS - SANTANDER                                             3
 ACTION:UPD 10-08-24 09:57 OP:vdl  STATUS:               ID:20100401200902 L   I
 2010-04-01-2005-59S.COL___098                                                 6
 STAT SP IPHASW D HRMM SECON CODA AMPLIT PERI AZIMU VELO AIN AR TRES W  DIS CAZ7
 BAR2 SZ IP       20 9 22.19                             168     0.110   29 209 
 BAR2 SZ ES   1   20 9 37.11                             168    -0.2 7   29 209 
 BRR  HZ IP       20 9 24.25                             149     0.210   79 294 
 BRR  HE ES   1   20 9 40.88                             149     0.2 7   79 294 
 BRR  HZ I        20 9 43.26        60.2 0.13                            79 294 
 OCA  SZ EP       20 9 31.07                             129     0.3 9  160 350 
 OCA  SZ ES   2   20 9 52.32                             129    -0.3 5  160 350 
 OCA  SZ I        20 9 55.97        67.8 0.18                           160 350 
 CHI  HZ EP   1   20 9 40.48                             116    -0.2 6  253 197 
 CHI  HN ES   2   2010  9.96                             116    -0.4 4  253 197 
 CHI  HZ I        2010 17.39        10.7 0.40                           253 197 
 ROSC BN ES   2   2010 12.27                             116     0.7 4  260 213 
 ROSC BZ I        2010 16.16        18.9 0.42                           260 213 
 HEL  HZ EP   2   20 9 43.99                             113     0.1 4  282 256 
 HEL  HN ES   2   2010 15.61                             113    -0.4 4  282 256 
 HEL  HZ I        2010 21.39        16.9 0.28                           282 256 
 RREF BN ES   3   2010 26.19                             110    -0.2 2  330 230 
 RREF BZ I        2010 30.68        16.5 0.27                           330 230 
 DBB  SZ IP       20 9 50.45                             108    -0.7 6  349 274 
 TOL  SZ EP   2   20 9 52.68                             108     0.9 3  352 226 
 TOL  SZ ES   3   2010 29.68                             108    -0.4 2  352 226 
 SDV  BZ IP       20 9 51.97                             108     0.4 6  352  49 
 SDV  B1 ES   1   2010 28.80                             108    -1.0 5  352  49 
 ANIL BN ES   2   2010 32.18                             108    -0.7 3  366 225 
 ANIL BZ I        2010 39.07        25.0 0.30                           366 225 
 PRA  HZ EP       20 9 56.63                             106    -0.2 6  399 211 
 PRA  HN ES   1   2010 39.36                             106     0.2 4  399 211 
 PRA  HZ I        2010 44.23        14.0 0.41                           399 211 
                                                                                
