 2014  6 1 2252 33.4 L   6.674 -73.145135.4  RSN  6 0.5 1.4LRSN                1
 GAP=228        1.13       6.0     6.8  9.2  0.1634E+02  0.9376E+01 -0.7816E+01E
 Epicentro: VILLANUEVA - SANTANDER                                             3
 ACTION:UPD 14-07-01 22:49 OP:nd   STATUS:               ID:20140601225233 L   I
 OLDACT:UP  14-06-02 10:03 OP:spq  STATUS:               ID:20140601224808d    3
 OLDACT:DUP 14-06-02 09:29 OP:sp   STATUS:               ID:20140601224808d    3
 2014-06-01-2248-07M.COL___256                                                 6
 STAT SP IPHASW D HRMM SECON CODA AMPLIT PERI AZIMU VELO AIN AR TRES W  DIS CAZ7
 BAR2 SZ EP   1   2252 51.28                             176   -0.30 7 9.97 205 
 BAR2 SZ ES   1   2253  5.69                             176   -0.07 7 9.97 205 
 BAR2 SZ I        2253  9.35         5.4 0.16            169           9.97 205 
 BRR  HZ EP       2252 53.69                             148   -0.2410 78.9 307 
 BRR  HN ES       2253 10.56                             148    0.6310 78.9 307 
 BRR  HZ I        2253 20.46         5.8 0.38            151           78.9 307 
 RUS  HZ EP       2252 55.72                             146    0.5710 86.7 176 
 RUS  HN ES       2253 11.50                             146   -0.6010 86.7 176 
 RUS  HZ I        2253 23.40         1.1 0.17            149           86.7 176 
 PTB  HZ EP   1   2252 58.74                             130   -0.63 7  146 264 
 PTB  HN ES       2253 19.34                             130   -0.28 9  146 264 
 PTB  HZ I        2253 26.86         3.7 0.38            134            146 264 
 SPBC HN ES       2253 21.50                             129    0.55 9  153 222 
 SPBC HZ I        2253 29.90         4.3 0.14            133            153 222 
 ZAR  HZ EP       2253  6.16                             119    0.35 8  210 296 
 ZAR  HN ES       2253 30.62                             119   -0.46 8  210 296 
 ZAR  HZ I        2253 37.95         3.8 0.28            125            210 296 
                                                                                
