 2017  1 1 2111 51.9 L   6.721 -73.162148.0  RSN  6 0.3 1.4LRSN                1
 GAP=138        0.86       4.0     3.7  6.8 -0.1089E+01  0.6372E+01  0.7622E+00E
 Epicentro: VILLANUEVA - SANTANDER                                             3
 ACTION:UPD 17-05-22 15:54 OP:jn   STATUS:               ID:20170101211151 L   I
 OLDACT:REG 17-01-02 02:32 OP:dani STATUS:               ID:20170101210742     3
 2017-01-01-2108-00M.COL___378                                                 6
 STAT SP IPHASW D HRMM SECON CODA AMPLIT PERI AZIMU VELO AIN AR TRES W  DIS CAZ7
 BRR  HZ EP       2112 13.62                             152    0.1110 74.3 305 
 BRR  HN ES       2112 30.80                             152    0.4710 74.3 305 
 BRR  HZ I        2112 31.99         5.1 0.22            151           74.3 305 
 PAM  EZ EP       2112 14.80                             149   -0.0810 85.3  37 
 PAM  EE ES       2112 32.50                             149   -0.2710 85.3  37 
 PAM  EZ I        2112 34.25         5.2 0.43            151           85.3  37 
 RUS  HZ EP       2112 15.33                             147    0.0110 92.0 175 
 RUS  HN ES       2112 33.77                             147    0.2110 92.0 175 
 RUS  HZ I        2112 34.90         1.9 0.36            150           92.0 175 
 PTB  HZ EP       2112 18.52                             133   -0.29 9  145 262 
 PTB  HN ES       2112 38.97                             133   -0.79 9  145 262 
 PTB  HZ I        2112 44.70         3.5 0.16            134            145 262 
 ZAR  HZ EP       2112 24.98                             123    0.26 8  206 295 
 ZAR  HE ES       2112 50.50                             123    0.22 8  206 295 
 ZAR  HZ I        2112 55.77         5.0 0.24            124            206 295 
 NOR  HN ES       2112 54.77                             120    0.22 8  228 236 
                                                                                
