 2014  6 1 2058 42.6 L   6.703 -73.171157.4  RSN  4 0.3 1.4LRSN                1
 GAP=227        0.80       5.6     6.6  8.3  0.1307E+02 -0.4062E+00 -0.4735E+01E
 Epicentro: VILLANUEVA - SANTANDER                                             3
 ACTION:UPD 14-07-01 22:49 OP:nd   STATUS:               ID:20140601205842 L   I
 OLDACT:REG 14-06-02 04:38 OP:spq  STATUS:               ID:20140601204809     3
 2014-06-01-2048-09M.COL___259                                                 6
 STAT SP IPHASW D HRMM SECON CODA AMPLIT PERI AZIMU VELO AIN AR TRES W  DIS CAZ7
 BRR  HZ EP       2059  5.33                             153    0.1610 74.6 307 
 BRR  HE ES       2059 22.99                             153    0.1910 74.6 307 
 BRR  HZ I        2059 28.71         5.0 0.41            154           74.6 307 
 RUS  HZ EP   1   2059  7.09                             149    0.29 7 90.1 174 
 RUS  HE ES       2059 25.37                             149   -0.3210 90.1 174 
 RUS  HZ I        2059 29.74         1.8 0.28            152           90.1 174 
 PTB  HZ EP       2059  9.84                             135   -0.28 9  143 263 
 PTB  HN ES       2059 31.29                             135   -0.32 9  143 263 
 PTB  HZ I        2059 39.12         2.4 0.34            137            143 263 
 SPBC HN ES   1   2059 34.02                             134    0.70 7  153 221 
 SPBC HZ I        2059 37.54         4.8 0.24            136            153 221 
                                                                                
