 2011  1 1 2018 50.2 L   6.248 -73.647106.6  RSN  4 0.2 1.6LRSN                1
 GAP=172        0.39       4.9     3.2  7.3 -0.5547E+00  0.7391E+01  0.1895E+02E
 Epicentro: SANTA HELENA DEL OPON - SANTANDER                                  3
 ACTION:UP  11-02-08 08:37 OP:pat  STATUS:               ID:20110101201850 L   I
 2011-01-01-2000-00M.COL___137                                                 6
 STAT SP IPHASW D HRMM SECON CODA AMPLIT PERI AZIMU VELO SNR AR TRES W  DIS CAZ7
 BAR2 SZ EP   2   2019  6.83                             147    -0.3 5   64  53 
 BAR2 SZ ES   1   2019 20.39                             147     0.1 7   64  53 
 BAR2 SZ I        2019 21.73        23.1 0.24                            64  53 
 RUS  HZ EP   2   2019  8.16                             143     0.0 5   74 122 
 RUS  HE ES   2   2019 22.35                             143     0.1 5   74 122 
 RUS  HZ I        2019 24.21         5.0 0.35                            74 122 
 NOR  SZ EP   2   2019 15.41                             120     0.2 5  155 241 
 NOR  SN ES   2   2019 34.48                             120    -0.2 5  155 241 
 YOP  SZ EP   2   2019 16.92                             118     0.3 5  168 126 
 YOP  SN ES   2   2019 36.95                             118    -0.3 5  168 126 
 YOP  SZ I        2019 40.57         6.3 0.62                           168 126 
                                                                                
