 2017  2 1 2141 10.5 L   6.790 -73.147147.2  RSN  6 0.4 1.7LRSN                1
 GAP=137        0.91       4.4     4.3  8.1 -0.5397E+00  0.9362E+01  0.5821E+01E
 Epicentro: LOS SANTOS - SANTANDER                                             3
 ACTION:UPD 17-05-24 15:31 OP:jn   STATUS:               ID:20170201214110 L   I
 OLDACT:UP  17-02-02 05:36 OP:dani STATUS:               ID:20170201213746     3
 OLDACT:UP  17-02-02 05:36 OP:dani STATUS:               ID:20170201213746     3
 OLDACT:REG 17-02-02 05:03 OP:dani STATUS:               ID:20170201213746     3
 2017-02-01-2138-00M.COL___328                                                 6
 STAT SP IPHASW D HRMM SECON CODA AMPLIT PERI AZIMU VELO AIN AR TRES W  DIS CAZ7
 BRR  HZ EP       2141 31.95                             153    0.1710 71.6 299 
 BRR  HN ES       2141 48.89                             153    0.4710 71.6 299 
 BRR  HZ I        2141 51.80        11.6 0.32            154           71.6 299 
 PAM  EZ EP       2141 32.95                             151    0.0710 78.3  39 
 PAM  EE ES       2141 50.13                             151   -0.2410 78.3  39 
 PAM  EZ I        2141 51.87         7.9 0.50            154           78.3  39 
 RUS  HZ EP       2141 34.56                             144    0.2910 99.5 176 
 RUS  HN ES       2141 52.63                             144   -0.2210 99.5 176 
 RUS  HZ I        2141 54.76         4.7 0.17            147           99.5 176 
 PTB  HZ EP       2141 37.01                             132   -0.50 9  147 259 
 PTB  HN ES   2   2141 57.43                             132   -1.18 5  147 259 
 PTB  HZ I        2142  0.60         6.7 0.21            135            147 259 
 ZAR  HN ES       2142  8.23                             123   -0.19 9  204 292 
 NOR  HE ES       2142 14.52                             119    0.46 8  234 235 
                                                                                
