 2011  2 1 2311 44.3 L   6.705 -73.242129.7  RSN  4 0.4 1.7LRSN                1
 GAP=149        0.65       6.3    20.7 16.5 -0.1089E+03  0.2418E+03 -0.6215E+02E
 Epicentro: BARICHARA - SANTANDER                                              3
 ACTION:UP  11-03-28 15:05 OP:jfem STATUS:               ID:20110201231144 L   I
 2011-02-01-2309-46S.COL___134                                                 6
 STAT SP IPHASW D HRMM SECON CODA AMPLIT PERI AZIMU VELO SNR AR TRES W  DIS CAZ7
 RUS  HZ EP   2   2312  5.49                             142    -0.3 5   92 169 
 RUS  HN ES   2   2312 23.11                             142     0.5 5   92 169 
 RUS  HZ I        2312 24.57        11.7 0.31                            92 169 
 GRA  SZ EP       2312  9.51                             130     0.210  139  20 
 GRA  SZ ES   2   2312 28.34                             130    -0.6 5  139  20 
 GRA  SZ I        2312 32.78         8.2 0.33                           139  20 
 NOR  SZ EP   2   2312 17.70                             116     0.2 4  220 235 
 CHI  HZ EP   1   2312 19.79                             115     0.1 6  236 193 
 CHI  HN ES   1   2312 46.91                             115    -0.4 6  236 193 
 CHI  HZ I        2312 50.17         2.5 0.34                           236 193 
                                                                                
