 2014 12 1 2156 10.1 L   6.832 -73.132144.4  RSN  4 0.1 1.8LRSN                1
 GAP=246        0.40       3.2     3.1  3.8  0.4530E+01  0.5393E+01  0.1796E+01E
 Epicentro: LOS SANTOS - SANTANDER                                             3
 ACTION:UPD 15-02-10 16:59 OP:nd   STATUS:               ID:20141201215610 L   I
 OLDACT:REG 14-12-02 07:02 OP:mh   STATUS:               ID:20141201214745     3
 2014-12-01-2147-45M.COL___297                                                 6
 STAT SP IPHASW D HRMM SECON CODA AMPLIT PERI AZIMU VELO AIN AR TRES W  DIS CAZ7
 BAR2 SZ EP   1   2156 29.54                             169   -0.11 7 27.0 192 
 BAR2 SZ ES       2156 44.78                             169   -0.1110 27.0 192 
 BAR2 SZ I        2156 47.04        22.7 0.37            163           27.0 192 
 RUS  HZ EP       2156 33.92                             143   -0.0510  104 177 
 RUS  HN ES       2156 52.78                             143    0.2010  104 177 
 RUS  HZ I        2156 53.83         8.0 0.22            144            104 177 
 ZAR  HN ES       2157  7.84                             122    0.13 9  204 291 
 ZAR  HZ I        2157 18.88         3.8 0.20            120            204 291 
 NOR  HZ EP       2156 46.16                             118    0.06 8  238 234 
 NOR  HN ES       2157 14.01                             118   -0.17 8  238 234 
 NOR  HZ I        2157 22.70         4.5 0.16            117            238 234 
                                                                                
