 2012  8 1 2138 56.3 L   6.750 -73.165142.3  RSN  6 0.3 1.7LRSN                1
 GAP=136        0.67       4.3     3.7  6.6  0.2728E-01  0.4232E+01 -0.1334E+00E
 Epicentro: VILLANUEVA - SANTANDER                                             3
 ACTION:UPD 12-09-10 11:53 OP:ep   STATUS:               ID:20120801213856 L   I
 2012-08-01-2137-41M.COL___211                                                 6
 STAT SP IPHASW D HRMM SECON CODA AMPLIT PERI AZIMU VELO AIN AR TRES W  DIS CAZ7
 BAR2 SZ EP   2   2139 15.19                             173   -0.19 5 17.6 186 
 BAR2 SZ ES   2   2139 30.23                             173   -0.06 5 17.6 186 
 BAR2 SZ I        2139 32.43        10.9 0.30                          17.6 186 
 BRR  HZ EP       2139 17.37                             152    0.2710 72.2 303 
 BRR  HZ I        2139 27.22        16.0 0.33                          72.2 303 
 BRR  HN ES   1   2139 33.85                             152    0.49 7 72.2 303 
 PAM  SZ EP       2139 18.40                             148   -0.0710 83.0  38 
 PAM  SN ES   1   2139 35.38                             148   -0.40 7 83.0  38 
 RUS  HZ EP   1   2139 19.37                             145    0.07 7 95.3 175 
 RUS  HN ES   1   2139 37.48                             145    0.22 7 95.3 175 
 RUS  HZ I        2139 39.35         5.3 0.37                          95.3 175 
 PTB  HZ EP       2139 22.62                             132   -0.06 9  145 261 
 PTB  HN ES   1   2139 42.52                             132   -0.76 7  145 261 
 PTB  HZ I        2139 45.99         4.3 0.25                           145 261 
 ZAR  HN ES   1   2139 53.84                             122    0.18 6  204 294 
 ZAR  HZ I        2140  2.15         5.4 0.33                           204 294 
                                                                                
