 2016 12 1 2019 53.8 L   6.770 -73.149133.9  RSN  4 0.2 1.5LRSN                1
 GAP=157        0.55       2.8     3.1  7.4 -0.3957E+00  0.1033E+02  0.8906E+01E
 Epicentro: LOS SANTOS - SANTANDER                                             3
 ACTION:UPD 17-01-11 20:11 OP:rebc STATUS:               ID:20161201201953 L   I
 OLDACT:REG 16-12-02 02:46 OP:edw  STATUS:               ID:20161201201745     3
 2016-12-01-2018-00M.COL___339                                                 6
 STAT SP IPHASW D HRMM SECON CODA AMPLIT PERI AZIMU VELO AIN AR TRES W  DIS CAZ7
 PAM  EZ IP     C 2020 15.12                             148    0.1710 80.2  38 
 PAM  EN ES       2020 31.41                             148   -0.0310 80.2  38 
 PAM  EZ I        2020 34.36         6.2 0.44            154           80.2  38 
 ZAR  HZ EP       2020 25.59                             119   -0.01 9  205 293 
 ZAR  HN ES       2020 50.15                             119   -0.25 9  205 293 
 ZAR  HZ I        2020 58.02         3.3 0.42            123            205 293 
 NOR  HN ES       2020 56.21                             116    0.42 8  232 235 
 CHI  HZ EP       2020 30.41                             115   -0.10 8  245 195 
 CHI  HN ES       2020 58.85                             115   -0.28 8  245 195 
 CHI  HZ I        2021  3.00         2.0 0.40            119            245 195 
                                                                                
