 2017 11 1 2230 31.1 L   6.756 -73.116141.7  RSN  7 0.3 1.2LRSN                1
 GAP=142        0.71       3.0     3.3  6.2 -0.2388E+01  0.4161E+01  0.5307E+01E
 Epicentro: LOS SANTOS - SANTANDER                                             3
 ACTION:UPD 17-12-12 19:50 OP:rebc STATUS:               ID:20171101223031 L   I
 OLDACT:DUP 17-11-02 08:02 OP:osc  STATUS:               ID:20171101222741d    3
 OLDACT:REG 17-11-02 05:34 OP:osc  STATUS:               ID:20171101222740     3
 2017-11-01-2228-00M.COL___438                                                 6
 STAT SP IPHASW D HRMM SECON CODA AMPLIT PERI AZIMU VELO AIN AR TRES W  DIS CAZ7
 BRR  HZ EP       2230 52.21                             150    0.0910 76.4 301 
 BRR  HN ES       2231  8.91                             150    0.4010 76.4 301 
 PAM  EZ EP       2230 53.07                             149    0.0810 79.2  35 
 PAM  EN ES       2231 10.00                             149   -0.0710 79.2  35 
 PAM  EZ I        2231 13.04         3.9 0.48            151           79.2  35 
 RUS  HZ EP       2230 54.23                             144    0.1410 95.6 178 
 RUS  HN ES       2231 11.70                             144   -0.3210 95.6 178 
 RUS  HZ I        2231 13.82         2.4 0.26            146           95.6 178 
 PTB  HZ EP       2230 57.51                             130   -0.44 9  150 261 
 PTB  HN ES       2231 18.65                             130   -0.25 9  150 261 
 PTB  HZ I        2231 20.62         2.4 0.14            133            150 261 
 NOR  HN ES       2231 34.05                             118   -0.21 8  235 236 
 CHI  HN ES       2231 37.41                             117    0.34 8  245 196 
 GUY2CHN ES       2231 48.79                             111    0.41 7  301 236 
                                                                                
