 2016  8 1 2237  8.8 L   6.760 -73.214148.0  RSN  4 0.4 1.5LRSN                1
 GAP=226        0.94       8.2    10.3  8.9  0.6459E+02  0.5418E+01 -0.3773E+01E
 Epicentro: ZAPATOCA - SANTANDER                                               3
 ACTION:UPD 16-10-29 15:31 OP:rebc STATUS:               ID:20160801223708 L   I
 OLDACT:REG 16-08-02 05:37 OP:ar   STATUS:               ID:20160801222737     3
 2016-08-01-2228-00M.COL___362                                                 6
 STAT SP IPHASW D HRMM SECON CODA AMPLIT PERI AZIMU VELO AIN AR TRES W  DIS CAZ7
 BRR  HZ EP       2237 29.54                             154   -0.4110 67.1 305 
 BRR  HE ES       2237 46.77                             154    0.3210 67.1 305 
 BRR  HZ I        2237 49.99         8.0 0.25                          67.1 305 
 RUS  HZ EP       2237 32.37                             145   -0.1310 97.0 171 
 RUS  HN ES       2237 51.00                             145   -0.0010 97.0 171 
 RUS  HZ I        2237 51.49         3.4 0.28                          97.0 171 
 SPBC HZ EP   2   2237 36.73                             131    0.04 5  155 218 
 SPBC HN ES   2   2237 58.64                             131    0.18 5  155 218 
 ZAR  HZ EP       2237 41.63                             124    0.79 9  199 294 
 ZAR  HE ES       2238  5.28                             124   -0.56 9  199 294 
 ZAR  HZ I        2238 14.33         2.7 0.22                           199 294 
                                                                                
