 2014  1 1 2201  0.2 L   6.842 -73.193140.8  RSN  5 0.5 1.3LRSN                1
 GAP=197        1.10       4.4     8.4 10.6  0.1440E+02 -0.1338E+02 -0.1179E+02E
 Epicentro: ZAPATOCA - SANTANDER                                               3
 ACTION:UPD 14-03-13 09:50 OP:ep   STATUS:               ID:20140101220100 L   I
 OLDACT:REG 14-01-01 22:20 OP:nd   STATUS:               ID:20140101220000     3
 2014-01-01-2200-00M.COL___285                                                 6
 STAT SP IPHASW D HRMM SECON CODA AMPLIT PERI AZIMU VELO AIN AR TRES W  DIS CAZ7
 BRR  HZ IP     C 22 1 21.34                             154    0.8710 64.4 297 
 BRR  HN ES   2   22 1 36.99                             154    0.73 5 64.4 297 
 BRR  HZ I        22 1 44.51         3.4 0.40            152           64.4 297 
 RUS  HZ EP       22 1 24.03                             141    0.1510  106 173 
 RUS  HN ES       22 1 41.80                             141   -0.5310  106 173 
 RUS  HZ I        22 1 43.78         2.5 0.26            147            106 173 
 PTB  HZ EP       22 1 26.44                             132    0.01 9  144 257 
 PTB  HN ES       22 1 46.45                             132   -0.40 9  144 257 
 PTB  HZ I        22 1 53.82         2.4 0.32            133            144 257 
 SML  HZ EP       22 1 35.71                             117   -0.19 8  237 336 
 SML  HN ES       22 2  3.25                             117   -0.46 8  237 336 
 SML  HZ I        22 2 10.18         3.3 0.10            121            237 336 
 CHI  HZ EP       22 1 37.69                             115   -0.32 8  252 194 
 CHI  HN ES       22 2  7.93                             115    0.46 8  252 194 
 CHI  HZ I        22 2 14.57         1.0 0.46            120            252 194 
                                                                                
