 2013  6 1 2222 39.5 L   6.813 -73.175141.9  RSN 10 0.5 2.0LRSN                1
 GAP=132        1.23       4.1     5.1  7.3 -0.1217E+01  0.1124E+02  0.4465E+01E
 Epicentro: LOS SANTOS - SANTANDER                                             3
 ACTION:UPD 14-01-08 09:51 OP:ep   STATUS:               ID:20130601222239 L   I
 2013-06-01-2220-00M.COL___261                                                 6
 STAT SP IPHASW D HRMM SECON CODA AMPLIT PERI AZIMU VELO AIN AR TRES W  DIS CAZ7
 BAR2 SZ EP       2222 58.72                             170    0.0610 24.5 182 
 BAR2 SZ ES       2223 13.56                             170   -0.0610 24.5 182 
 BAR2 SZ I        2223 14.63        25.1 0.32            169           24.5 182 
 GIR2 SZ EP       2222 58.71                             168    0.0810 29.4 356 
 GIR2 SZ ES       2223 12.59                             168   -0.9810 29.4 356 
 BRR  HZ EP       2223  0.41                             153    0.4110 67.6 299 
 BRR  HN ES       2223 17.25                             153    1.2410 67.6 299 
 BRR  HZ I        2223 18.55        16.1 0.12            152           67.6 299 
 PAM  SZ EP       2223  1.62                             150    0.2910 78.4  42 
 PAM  SN ES       2223 18.42                             150    0.0310 78.4  42 
 PAM  SZ I        2223 20.68        19.0 0.48            153           78.4  42 
 RUS  HZ EP       2223  2.90                             142   -0.0710  102 174 
 RUS  HN ES       2223 21.28                             142   -0.0210  102 174 
 RUS  HZ I        2223 23.24        11.7 0.40            143            102 174 
 PTB  HZ EP       2223  5.19                             132   -0.67 9  145 258 
 PTB  HN ES       2223 26.06                             132   -0.38 9  145 258 
 PTB  HZ I        2223 29.60        10.5 0.17            131            145 258 
 ZAR  HE ES   1   2223 36.28                             122    0.17 6  200 292 
 ZAR  HZ I        2223 41.68        10.6 0.16            122            200 292 
 NOR  HZ EP       2223 14.96                             118    0.17 8  233 234 
 NOR  HN ES       2223 42.23                             118   -0.10 8  233 234 
 NOR  HZ I        2223 46.43         6.9 0.14            118            233 234 
 SML  HE ES       2223 43.29                             117   -0.47 8  241 336 
 CHI  HE ES       2223 46.51                             116    0.20 8  249 194 
 CHI  HZ I        2223 49.73         5.5 0.36            117            249 194 
                                                                                
