 2012 12 1 2303 39.8 L   6.846 -73.216139.4  RSN  4 0.3 1.2LRSN                1
 GAP=150        0.61       4.9     4.6  7.0 -0.7159E+01  0.9274E+01 -0.3283E+01E
 Epicentro: ZAPATOCA - SANTANDER                                               3
 ACTION:UPD 13-01-04 14:25 OP:ep   STATUS:               ID:20121201230339 L   I
 2012-12-01-2300-00M.COL___236                                                 6
 STAT SP IPHASW D HRMM SECON CODA AMPLIT PERI AZIMU VELO AIN AR TRES W  DIS CAZ7
 BAR2 SZ EP   1   23 3 58.56                             168   -0.17 7 28.4 172 
 BAR2 SZ ES   1   23 4 13.98                             168    0.44 7 28.4 172 
 PAM  SZ EP   1   23 4  1.85                             149    0.46 7 78.9  46 
 PAM  SN ES   1   23 4 17.84                             149   -0.42 7 78.9  46 
 PAM  SZ I        23 4 21.19         2.9 0.60                          78.9  46 
 RUS  HZ EP   1   23 4  3.21                             141   -0.12 7  107 172 
 RUS  HN ES   1   23 4 21.60                             141   -0.12 7  107 172 
 RUS  HZ I        23 4 22.79         1.6 0.38                           107 172 
 PTB  HZ EP   1   23 4  5.63                             132    0.02 7  141 256 
 PTB  HE ES   1   23 4 25.66                             132   -0.12 7  141 256 
 PTB  HZ I        23 4 30.31         2.7 0.48                           141 256 
                                                                                
