 2016  2 1 2225 53.7 L   6.811 -73.134146.8  RSN 11 0.5 1.9LRSN                1
 GAP=138        1.34       4.0     5.7  8.5 -0.5045E+01  0.1708E+02 -0.6916E+01E
 Epicentro: LOS SANTOS - SANTANDER                                             3
 ACTION:UPD 16-03-04 21:22 OP:rebc STATUS:               ID:20160201222553 L   I
 OLDACT:UP  16-02-02 09:04 OP:ar   STATUS:               ID:20160201221404     3
 OLDACT:REG 16-02-02 03:51 OP:ar   STATUS:               ID:20160201221404     3
 2016-02-01-221800.mseed                                                       6
 STAT SP IPHASW D HRMM SECON CODA AMPLIT PERI AZIMU VELO AIN AR TRES W  DIS CAZ7
 BAR2 EZ EP       2226 12.50                             170   -0.9810 24.7 193 
 BAR2 EZ ES       2226 29.16                             170    0.2510 24.7 193 
 BAR2 EZ I        2226 31.82         8.7 0.38            157           24.7 193 
 PAM  EZ EP       2226 16.34                             151    0.4210 75.6  39 
 PAM  EN ES       2226 33.52                             151    0.2610 75.6  39 
 PAM  EZ I        2226 35.56        18.3 0.58            140           75.6  39 
 RUS  HZ EP       2226 17.84                             144    0.2110  102 177 
 RUS  HN ES       2226 35.95                             144   -0.3510  102 177 
 RUS  HZ I        2226 37.32         4.3 0.26            127            102 177 
 PTB  HN ES       2226 41.69                             132   -0.41 9  149 258 
 OCA  HZ EP       2226 22.88                             130    0.88 9  159 353 
 OCA  BN ES       2226 43.54                             130   -0.53 9  159 353 
 OCA  HZ I        2226 48.36        22.5 0.38            120            159 353 
 SPBC HZ EP       2226 22.45                             129    0.01 9  165 219 
 SPBC BE ES       2226 45.28                             129    0.42 9  165 219 
 SPBC HZ I        2226 50.38        13.7 0.42            116            165 219 
 ZAR  BZ EP       2226 27.15                             122    0.86 9  205 292 
 ZAR  BN ES       2226 52.07                             122    0.35 9  205 292 
 ZAR  BZ I        2226 57.60         7.3 0.34            114            205 292 
 NOR  HZ EP       2226 28.81                             118   -0.86 8  236 234 
 NOR  HN ES       2226 58.06                             118    0.32 8  236 234 
 NOR  HZ I        2227  3.75         3.5 0.14            109            236 234 
 SML  BZ EP       2226 29.76                             118   -0.57 8  243 335 
 SML  BN ES       2226 58.46                             118   -0.44 8  243 335 
 SML  BZ I        2227  1.38        15.5 0.10            109            243 335 
 CHI  BZ EP   4   2226 40.92                             117    9.31 0  250 195 
 CHI  BZ I        2227 11.20         9.1 0.22            107            250 195 
 CHI  HN ES   4   2227 12.82                             117   11.63 0  250 195 
 GUY2CHZ EP   4   2226 35.81                             112   -1.74 0  303 235 
 GUY2CHN ES   4   2227 16.01                             112    4.25 0  303 235 
 GUY2CHZ I        2227 24.24         2.6 0.50                           303 235 
                                                                                
