 2010  4 1 2211 28.6 L   6.764 -72.996149.2  RSN  9 0.5 3.2LRSN                1
 GAP=151        0.93       4.6     6.5  7.1 -0.1606E+02 -0.1123E+02  0.9547E+01E
 Epicentro: CEPITA - SANTANDER                                                 3
 ACTION:UPD 10-08-24 09:57 OP:vdl  STATUS:               ID:20100401221128 L   I
 2010-04-01-2209-28S.COL___098                                                 6
 STAT SP IPHASW D HRMM SECON CODA AMPLIT PERI AZIMU VELO AIN AR TRES W  DIS CAZ7
 BAR2 SZ IP       2211 48.85                             169     0.110   28 227 
 BAR2 SZ ES   1   2212  4.76                             169     0.3 7   28 227 
 BRR  HZ IP       2211 50.94                             148    -0.210   88 296 
 BRR  HE ES   1   2212  7.90                             148    -0.8 7   88 296 
 BRR  HZ I        2212 10.67       312.2 0.13                            88 296 
 OCA  SZ EP       2211 57.37                             129    -0.4 9  167 348 
 OCA  SZ ES   1   2212 21.35                             129     0.8 7  167 348 
 OCA  SZ I        2212 24.14       222.5 0.21                           167 348 
 CHI  HZ EP   1   2212  6.44                             118    -0.1 6  250 199 
 CHI  HN ES   1   2212 36.27                             118     0.0 6  250 199 
 CHI  HZ I        2212 44.10        48.9 0.53                           250 199 
 HEL  HZ EP   2   2212  9.90                             114    -0.7 4  287 257 
 HEL  HN ES   2   2212 43.72                             114     0.3 4  287 257 
 HEL  HZ I        2212 46.93        61.6 0.24                           287 257 
 RREF BZ EP   1   2212 15.94                             111    -0.1 5  332 232 
 RREF BN ES   1   2212 53.71                             111     0.7 5  332 232 
 RREF BZ I        2213  1.13        83.1 0.36                           332 232 
 SDV  BZ IP       2212 18.27                             109     0.7 6  350  48 
 SDV  B1 ES   1   2212 55.26                             109    -0.6 5  350  48 
 ANIL BZ EP       2212 19.92                             109     0.4 6  366 227 
 ANIL BE ES   2   2213  0.03                             109     0.7 3  366 227 
 ANIL BZ I        2213  6.32        98.9 0.42                           366 227 
 PRA  HZ EP   1   2212 22.21                             107    -0.6 4  397 212 
 PRA  HN ES   1   2213  4.79                             107    -0.3 4  397 212 
 PRA  HZ I        2213  8.88        57.7 0.44                           397 212 
                                                                                
