 2011  5 1 2057 31.6 L   6.730 -73.008163.3  RSN 11 0.5 2.2LRSN                1
 GAP=158        1.24       7.1    10.5 11.0 -0.3561E+02  0.2818E+02  0.6740E+01E
 Epicentro: ARATOCA - SANTANDER                                                3
 ACTION:UP  11-06-29 08:50 OP:tino STATUS:               ID:20110501205731 L   I
 2011-05-01-2056-41S.COL___130                                                 6
 STAT SP IPHASW D HRMM SECON CODA AMPLIT PERI AZIMU VELO SNR AR TRES W  DIS CAZ7
 BAR2 SZ EP   1   2057 53.30                             171     0.0 7   25 232 
 BAR2 SZ I        2058  9.89        50.2 0.20                            25 232 
 BTL  SZ EP       2057 53.45                             167    -0.110   35 306 
 GIR2 SZ EP   1   2057 53.40                             164    -0.3 7   44 332 
 PAM  SZ EP   1   2057 56.30                             154     0.7 7   75  27 
 PAM  SN ES   1   2058 13.45                             154    -0.8 7   75  27 
 BRR  HZ EP   1   2057 55.18                             150    -0.4 7   88 298 
 BRR  HN ES   1   2058 15.27                             150     0.9 7   88 298 
 BRR  HZ I        2058 16.05        43.1 0.16                            88 298 
 RUS  HZ EP   1   2057 57.26                             149     0.7 7   93 185 
 RUS  HN ES   1   2058 16.13                             149     0.0 7   93 185 
 RUS  HZ I        2058 18.85        15.5 0.22                            93 185 
 BRI  SZ ES   1   2058 17.45                             144    -0.1 7  111  12 
 BRI  SZ I        2058 21.54        14.9 0.41                           111  12 
 GRA  SZ EP   1   2057 58.48                             140    -0.2 7  130  10 
 GRA  SZ ES   1   2058 20.26                             140     0.4 7  130  10 
 GRA  SZ I        2058 23.29        16.5 0.32                           130  10 
 OCA  SZ EP   1   2058  1.81                             132    -0.4 7  170 348 
 OCA  SZ I        2058 28.99        17.1 0.17                           170 348 
 NOR  SZ EP   1   2058  9.18                             121    -0.1 6  243 238 
 NOR  SN ES   1   2058 37.65                             121    -1.0 6  243 238 
 NOR  SZ I        2058 38.76         2.4 0.21                           243 238 
 HEL  HZ EP   1   2058 14.72                             117     0.6 6  285 258 
 HEL  HZ I        2058 53.78        15.5 0.36                           285 258 
                                                                                
