 2015  4 1 2320 38.9 L   6.786 -73.174138.0  RSN  4 0.3 1.1LRSN                1
 GAP=134        0.88       4.6     4.4  7.9 -0.2237E+01  0.3117E+01  0.5445E+01E
 Epicentro: LOS SANTOS - SANTANDER                                             3
 ACTION:UPD 15-06-03 16:51 OP:cam  STATUS:               ID:20150401232038 L   I
 OLDACT:REG 15-04-02 04:56 OP:stll STATUS:               ID:20150401231749     3
 2015-04-01-2317-49M.COL___277                                                 6
 STAT SP IPHASW D HRMM SECON CODA AMPLIT PERI AZIMU VELO AIN AR TRES W  DIS CAZ7
 BRR  HZ EP       2320 59.40                             152    0.2710 69.2 301 
 BRR  HN ES       2321 15.41                             152    0.5310 69.2 301 
 PAM  SZ EP       2321  0.56                             148    0.0410 80.6  41 
 PAM  SZ I        2321  0.74         3.5 0.20            151           80.6  41 
 PAM  SN ES       2321 16.93                             148   -0.4310 80.6  41 
 RUS  HZ EP       2321  2.04                             142    0.2110 99.3 174 
 RUS  HN ES       2321 19.70                             142    0.0110 99.3 174 
 RUS  HZ I        2321 21.37         1.8 0.36            143           99.3 174 
 PTB  HZ EP       2321  4.73                             131   -0.23 9  144 259 
 PTB  HN ES       2321 24.77                             131   -0.49 9  144 259 
 PTB  HZ I        2321 29.58         1.8 0.10            130            144 259 
                                                                                
