 2012  2 1 2048 38.1 L   6.765 -73.120152.0  RSN  9 0.4 2.0LRSN                1
 GAP=141        0.87       5.4     5.7  6.6  0.4146E+01  0.1991E+00  0.7112E+01E
 ACTION:UP  12-03-07 16:26 OP:epov STATUS:               ID:20120201204838 L   I
 2012-02-01-2040-00M.COL___188                                                 6
 STAT SP IPHASW D HRMM SECON CODA AMPLIT PERI AZIMU VELO SNR AR TRES W  DIS CAZ7
 BAR2 SZ EP       2048 58.23                             172   -0.1510 20.3 200 
 BAR2 SZ ES   1   2049 13.67                             172   -0.56 7 20.3 200 
 BAR2 SZ I        2049 15.12        22.6 0.36                          20.3 200 
 GIR2 SZ EP       2048 58.47                             166   -0.1210 35.6 347 
 BRR  HZ EP       2049  0.28                             152    0.1510 75.6 300 
 BRR  HZ I        2049  0.48        41.5 0.16                          75.6 300 
 BRR  HE ES   1   2049 17.72                             152    0.38 7 75.6 300 
 BRR  HN ES       2049 17.86                             152    0.5210 75.6 300 
 PAM  SZ EP       2049  1.17                             152    0.1510 78.7  36 
 PAM  SN ES   1   2049 18.55                             152   -0.37 7 78.7  36 
 RUS  HZ EP       2049  2.52                             146    0.3710 96.5 178 
 RUS  HN ES   1   2049 20.86                             146   -0.08 7 96.5 178 
 RUS  HZ I        2049 22.02         9.5 0.44                          96.5 178 
 PTB  HZ EP       2049  5.21                             133   -0.52 9  150 261 
 PTB  HZ I        2049 31.55         7.7 0.40                           150 261 
 ZAR  HE ES   2   2049 36.03                             123   -1.26 4  208 293 
 ZAR  HZ I        2049 42.07        13.2 0.54                           208 293 
 NOR  SZ EP   3   2049 14.35                             120    0.18 2  235 236 
 CHI  HZ EP   2   2049 16.38                             119    0.59 4  246 196 
                                                                                
