 2014  6 1 2157  2.8 L   7.402 -73.485102.4  RSN  6 0.5 1.3LRSN                1
 GAP=182        1.16       4.3     5.8  8.9  0.9660E+01 -0.6872E+00 -0.1094E+02E
 Epicentro: SABANA DE TORRES - SANTANDER                                       3
 ACTION:UPD 14-07-01 22:49 OP:nd   STATUS:               ID:20140601215702 L   I
 OLDACT:REG 14-06-02 04:44 OP:spq  STATUS:               ID:20140601214818     3
 2014-06-01-2148-18M.COL___256                                                 6
 STAT SP IPHASW D HRMM SECON CODA AMPLIT PERI AZIMU VELO AIN AR TRES W  DIS CAZ7
 BRR  HZ EP       2157 17.68                             156    0.1210 41.1 218 
 BRR  HE ES       2157 29.64                             156    0.5510 41.1 218 
 BRR  HZ I        2157 30.54         9.8 0.12            161           41.1 218 
 BAR2 SZ ES       2157 36.17                             134   -0.4310 95.6 159 
 BAR2 SZ I        2157 37.16         8.5 0.18            135           95.6 159 
 PTB  HZ EP       2157 25.82                             121   -0.35 9  144 228 
 PTB  HN ES       2157 43.65                             121   -0.77 9  144 228 
 PTB  HZ I        2157 47.73         3.2 0.14            122            144 228 
 ZAR  HZ EP       2157 27.82                             119    0.78 9  152 274 
 ZAR  HE ES       2157 46.22                             119    0.25 9  152 274 
 SML  HZ EP       2157 28.54                             116   -0.19 9  168 337 
 SML  HE ES       2157 48.53                             116   -0.46 9  168 337 
 SML  HZ I        2157 59.15         3.6 0.24            115            168 337 
 RUS  HZ EP       2157 30.32                             116    0.40 9  173 165 
 RUS  HE ES   1   2157 51.25                             116    0.15 7  173 165 
 RUS  HZ I        2157 57.58         0.8 0.36            116            173 165 
                                                                                
