 2015  5 1 2330 14.1 L   6.764 -73.108148.0  RSN  4 0.1 1.1LRSN                1
 GAP=143        0.40       3.5     5.5  5.1  0.9019E+01 -0.1647E+02 -0.6425E+01E
 Epicentro: LOS SANTOS - SANTANDER                                             3
 ACTION:UPD 15-09-10 22:00 OP:cam  STATUS:               ID:20150501233014 L   I
 OLDACT:DUP 15-05-02 05:02 OP:spq  STATUS:               ID:20150501232751d    3
 OLDACT:REG 15-05-02 03:05 OP:spq  STATUS:               ID:20150501232750     3
 2015-05-01-2327-50M.COL___276                                                 6
 STAT SP IPHASW D HRMM SECON CODA AMPLIT PERI AZIMU VELO AIN AR TRES W  DIS CAZ7
 BAR2 EZ EP       2330 33.79                             172   -0.1610 20.7 203 
 BAR2 EZ ES   1   2330 49.26                             172   -0.17 7 20.7 203 
 BAR2 EZ I        2330 50.20         2.6 0.28            168           20.7 203 
 BRR  HZ EP   1   2330 35.65                             151   -0.16 7 76.8 300 
 BRR  HN ES       2330 52.86                             151    0.1210 76.8 300 
 BRR  HZ I        2330 57.17         3.0 0.24            148           76.8 300 
 PAM  SZ EP       2330 36.68                             151    0.0910 78.0  35 
 RUS  HZ EP   1   2330 37.88                             145    0.10 7 96.4 178 
 RUS  HE ES   1   2330 56.38                             145    0.13 7 96.4 178 
 RUS  HZ I        2330 57.80         1.7 0.26            146           96.4 178 
                                                                                
