 2015  7 1 2118  9.5 L   6.823 -73.130139.7  RSN 18 0.4 2.8LRSN                1
 GAP=185        0.74       1.7     3.0  4.1 -0.5623E-01  0.5325E+01  0.1668E-01E
 Epicentro: LOS SANTOS - SANTANDER                                             3
 ACTION:UPD 15-09-08 21:46 OP:cam  STATUS:               ID:20150701211809 L   I
 OLDACT:REG 15-07-02 02:44 OP:drio STATUS:               ID:20150701210748     3
 2015-07-01-2107-48M.COL___319                                                 6
 STAT SP IPHASW D HRMM SECON CODA AMPLIT PERI AZIMU VELO AIN AR TRES W  DIS CAZ7
 BAR2 EZ EP     C 2118 28.68                             169    0.1910 26.1 193 
 BAR2 EZ ES       2118 43.17                             169   -0.1110 26.1 193 
 BAR2 EZ I        2118 44.71       191.4 0.18            167           26.1 193 
 RUS  HZ EP       2118 32.63                             142   -0.2410  103 177 
 RUS  HE ES       2118 51.29                             142    0.2210  103 177 
 RUS  HZ I        2118 52.83        46.6 0.38            143            103 177 
 OCA  HZ EP       2118 37.16                             129    0.00 9  158 352 
 OCA  HE ES       2118 58.82                             129    0.11 9  158 352 
 OCA  HZ I        2119  2.28       132.8 0.50            132            158 352 
 ZAR  HZ EP       2118 41.84                             121    0.19 9  205 291 
 ZAR  HN ES       2119  6.95                             121    0.24 9  205 291 
 ZAR  HZ I        2119 13.39        85.3 0.26            122            205 291 
 NOR  HZ EP       2118 44.84                             117   -0.38 8  238 234 
 NOR  HN ES       2119 12.80                             117   -0.26 8  238 234 
 NOR  HZ I        2119 18.22        48.5 0.20            118            238 234 
 SML  HZ EP       2118 45.12                             116   -0.53 8  242 335 
 SML  HE ES       2119 13.77                             116   -0.06 8  242 335 
 SML  HZ I        2119 18.61        63.2 0.10            118            242 335 
 CHI  HZ EP       2118 47.13                             115   -0.08 8  251 195 
 CHI  HN ES       2119 16.08                             115   -0.52 8  251 195 
 CHI  HZ I        2119 23.03        17.6 0.62            117            251 195 
 ROSC BZ EP       2118 47.79                             115    0.13 8  256 211 
 ROSC BE ES       2119 17.59                             115    0.20 8  256 211 
 ROSC BZ I        2119 24.89        70.9 0.40            116            256 211 
 HEL  HZ EP       2118 49.91                             113    0.22 8  274 255 
 HEL  HE ES       2119 21.22                             113    0.20 8  274 255 
 HEL  HZ I        2119 27.68        43.4 0.28            114            274 255 
 URE  HZ EP       2118 50.61                             112    0.22 7  284 291 
 URE  HN ES   4   2119 20.63                             112   -1.62 0  284 291 
 URE  HZ I        2119 22.73        57.7 0.38            114            284 291 
 GUY2CHZ EP       2118 53.67                             111    0.48 7  304 235 
 GUY2CHE ES       2119 27.00                             111   -0.24 7  304 235 
 GUY2CHZ I        2119 34.10        39.1 0.24                           304 235 
 PTGC HZ EP   4   2118 52.25                             110   -1.07 0  310 159 
 PTGC HN ES   4   2119 25.07                             110   -2.40 0  310 159 
 CBOC HZ EP       2118 56.73                             109    0.25 7  336 252 
 CBOC HN ES       2119 33.75                             109    0.66 7  336 252 
 CBOC HZ I        2119 35.89        12.5 0.36            110            336 252 
 DBB  SZ EP       2118 56.69                             108   -0.25 7  341 274 
 DBB  SZ ES       2119 33.52                             108   -0.40 7  341 274 
 TOL  SZ EP       2118 58.57                             108    0.68 6  346 225 
 TOL  SN ES       2119 35.35                             108   -0.26 6  346 225 
 TOL  SZ I        2119 44.71        20.9 0.52            109            346 225 
 MON  HZ EP       2118 58.47                             107    0.19 6  353 308 
 MON  HE ES       2119 35.60                             107   -0.70 6  353 308 
 MON  HZ I        2119 35.77         8.8 0.18            109            353 308 
 PRA  HZ EP       2119  2.66                             105   -0.54 6  395 210 
 PRA  HN ES       2119 45.56                             105    0.50 6  395 210 
 PRA  HZ I        2119 53.25        23.2 0.44            107            395 210 
 ORTC HZ EP       2119  4.29                             105    0.69 6  398 216 
 ORTC HE ES       2119 44.89                             105   -0.89 6  398 216 
 ORTC HZ I        2119 50.61        20.8 0.46            107            398 216 
 SJC  HZ EP   4   2119  3.67                             105   -1.09 0  408 327 
 SJC  HN ES   4   2119 44.83                             105   -3.01 0  408 327 
 SJC  HZ I        2119 48.85        14.7 0.48            106            408 327 
 YOT  HZ EP   4   2119 10.59                             102   -2.17 0  475 229 
                                                                                
