 2011  2 1 2059 28.6 L   6.825 -73.126144.0  RSN  4 0.2 1.6LRSN                1
 GAP=303        0.37       6.2     6.2  5.9 -0.8422E+01  0.1185E+02  0.3207E+01E
 Epicentro: LOS SANTOS - SANTANDER                                             3
 ACTION:UP  11-03-28 15:05 OP:jfem STATUS:               ID:20110201205928 L   I
 2011-02-01-2056-16S.COL___135                                                 6
 STAT SP IPHASW D HRMM SECON CODA AMPLIT PERI AZIMU VELO SNR AR TRES W  DIS CAZ7
 BAR2 SZ EP   2   2059 48.03                             169     0.0 5   27 194 
 BAR2 SZ ES   2   21 0  3.49                             169     0.2 5   27 194 
 BAR2 SZ I        21 0  4.74        14.6 0.22                            27 194 
 RUS  HZ EP   1   2059 52.20                             143    -0.2 7  103 177 
 RUS  HN ES   2   21 0 10.82                             143    -0.1 5  103 177 
 RUS  HZ I        21 0 13.06         4.6 0.34                           103 177 
 NOR  SZ EP   2   21 0  4.76                             118     0.2 4  238 234 
 NOR  SN ES   2   21 0 32.43                             118    -0.2 4  238 234 
 CHI  HZ EP   2   21 0  6.90                             116     0.4 4  252 195 
 CHI  HZ I        21 0 10.32         2.4 0.56                           252 195 
 CHI  HN ES   2   21 0 36.29                             116     0.1 4  252 195 
                                                                                
