 2013 12 1 2232 16.3 L   6.787 -73.168146.0  RSN  6 0.4 1.8LRSN                1
 GAP=144        1.03       7.2     4.8  7.0 -0.6958E+01  0.9913E+01 -0.1199E+02E
 Epicentro: LOS SANTOS - SANTANDER                                             3
 ACTION:UPD 14-01-13 10:15 OP:ep   STATUS:               ID:20131201223216 L   I
 OLDACT:REG 13-12-01 21:17 OP:nd   STATUS:               ID:20131201223000     3
 2013-12-01-2230-00M.COL___282                                                 6
 STAT SP IPHASW D HRMM SECON CODA AMPLIT PERI AZIMU VELO AIN AR TRES W  DIS CAZ7
 BAR2 SZ EP       2232 35.74                             171   -0.1710 21.6 184 
 BAR2 SZ ES       2232 50.87                             171   -0.3410 21.6 184 
 BAR2 SZ I        2232 53.74        13.1 0.14            174           21.6 184 
 BRR  HZ IP     C 2232 37.99                             153    0.6210 69.8 301 
 BRR  HN ES       2232 54.61                             153    0.7810 69.8 301 
 BRR  HZ I        2232 56.91         6.5 0.32            147           69.8 301 
 PAM  SZ EP       2232 38.93                             150    0.2510 80.1  40 
 PAM  SN ES       2232 55.79                             150   -0.3710 80.1  40 
 PAM  SZ I        2232 56.74         7.8 0.20            148           80.1  40 
 PTB  HZ EP       2232 42.83                             133   -0.19 9  145 259 
 PTB  HN ES       2233  3.69                             133   -0.19 9  145 259 
 PTB  HZ I        2233  6.24         6.1 0.12            132            145 259 
 ZAR  HZ EP       2232 48.73                             123    0.17 9  202 293 
 ZAR  HN ES       2233 13.24                             123   -0.50 9  202 293 
 ZAR  HZ I        2233 20.98         8.5 0.28            122            202 293 
 SML  HZ EP       2232 52.89                             117   -0.06 8  244 336 
 SML  HN ES   2   2233 20.60                             117   -0.95 4  244 336 
 SML  HZ I        2233 31.51         7.7 0.10            117            244 336 
                                                                                
