 2017  7 1 2036 43.2 L   6.791 -73.136148.0  RSN  7 0.5 1.8LRSN                1
 GAP=155        1.05       5.9     5.0  7.7 -0.8237E+01  0.6497E+01  0.7044E+01E
 Epicentro: LOS SANTOS - SANTANDER                                             3
 ACTION:UPD 17-08-30 15:28 OP:rebc STATUS:               ID:20170701203643 L   I
 OLDACT:DUP 17-07-02 04:34 OP:lv   STATUS:               ID:20170701202738d    3
 2017-07-01-2028-00M.COL___380                                                 6
 STAT SP IPHASW D HRMM SECON CODA AMPLIT PERI AZIMU VELO AIN AR TRES W  DIS CAZ7
 BAR2 EZ EP       2037  3.07                             171   -0.0110 22.6 193 
 BAR2 EZ ES       2037 18.29                             171   -0.3010 22.6 193 
 BRR  HZ EP       2037  4.88                             152    0.2110 72.6 299 
 BRR  HN ES       2037 22.03                             152    0.6210 72.6 299 
 BRR  HZ I        2037 23.15        13.0 0.17            153           72.6 299 
 PAM  EZ EP       2037  6.00                             151    0.3510 77.4  38 
 PAM  EN ES       2037 22.88                             151   -0.2910 77.4  38 
 PAM  EZ I        2037 25.15         8.4 0.51            156           77.4  38 
 PTB  HZ EP       2037 10.07                             132   -0.36 9  149 259 
 PTB  HN ES       2037 31.11                             132   -0.55 9  149 259 
 PTB  HZ I        2037 37.67         3.7 0.06            133            149 259 
 SPBC HZ EP       2037 11.43                             130   -0.43 9  163 219 
 SPBC HN ES       2037 34.92                             130    0.70 9  163 219 
 SPBC HZ I        2037 38.99        10.7 0.11            130            163 219 
 ZAR  HN ES       2037 41.36                             123   -0.10 8  205 292 
 GUY2CHZ EP   3   2037 28.97                             113    2.02 2  302 235 
 GUY2CHN ES   4   2038  4.00                             113    2.93 0  302 235 
 GUY2CHZ I        2038  9.26         3.0 0.39                           302 235 
                                                                                
