 2011 12 1 2321 46.4 L   6.760 -73.084142.6  RSN  5 0.3 1.5LRSN                1
 GAP=146        0.63       4.4     6.6  6.8 -0.5709E+00 -0.3571E+01  0.1889E+01E
 Epicentro: LOS SANTOS - SANTANDER                                             3
 ACTION:UPD 12-07-13 16:13 OP:ep   STATUS:               ID:20111201232146 L   I
 2011-12-01-2320-00M.COL___180                                                 6
 STAT SP IPHASW D HRMM SECON CODA AMPLIT PERI AZIMU VELO AIN AR TRES W  DIS CAZ7
 BAR2 SZ ES   1   2322 20.26                             171   -0.38 7 21.5 210 
 GIR2 SZ ES   2   2322 21.49                             165    0.38 5 37.3 341 
 PAM  SZ EP   1   2322  8.34                             150    0.05 7 76.9  34 
 PAM  SZ I        2322  8.58         4.2 0.16                          76.9  34 
 PAM  SN ES   1   2322 25.31                             150   -0.02 7 76.9  34 
 BRR  HZ EP   1   2322  7.24                             149   -0.50 7 79.3 299 
 BRR  HN ES   1   2322 24.65                             149    0.31 7 79.3 299 
 BRR  HZ I        2322 28.33        14.9 0.13                          79.3 299 
 RUS  HZ EP   1   2322  9.95                             144    0.40 7 95.9 180 
 RUS  HN ES   1   2322 27.55                             144   -0.02 7 95.9 180 
 RUS  HZ I        2322 29.07         4.1 0.19                          95.9 180 
                                                                                
