 2013  1 1 2254 47.6 L   6.719 -73.229151.9  RSN  4 0.3 1.3LRSN                1
 GAP=221        0.59       6.5     6.4  7.9  0.2801E+02 -0.1848E+00 -0.2621E+01E
 Epicentro: VILLANUEVA - SANTANDER                                             3
 ACTION:UPD 13-02-15 09:11 OP:ep   STATUS:               ID:20130101225447 L   I
 2013-01-01-2250-00M.COL___242                                                 6
 STAT SP IPHASW D HRMM SECON CODA AMPLIT PERI AZIMU VELO AIN AR TRES W  DIS CAZ7
 BRR  HZ EP   1   2255  9.40                             154    0.12 7 68.5 309 
 BRR  HN ES   1   2255 26.33                             154    0.15 7 68.5 309 
 BRR  HZ I        2255 29.65         4.2 0.34            154           68.5 309 
 RUS  HZ EP   1   2255 11.66                             147    0.22 7 92.8 170 
 RUS  HN ES   1   2255 29.65                             147   -0.37 7 92.8 170 
 RUS  HZ I        2255 31.41         1.6 0.44            152           92.8 170 
 PTB  HZ EP   1   2255 14.05                             136   -0.11 7  137 262 
 PTB  HN ES   1   2255 35.23                             136    0.37 7  137 262 
 PTB  HZ I        2255 36.98         4.6 0.60            137            137 262 
 ZAR  HN ES   1   2255 44.72                             124   -0.50 6  199 296 
 ZAR  HZ I        2255 49.93         1.7 0.36            126            199 296 
                                                                                
