 2012  2 1 2133  5.7 L   6.789 -73.139148.0  RSN  8 0.4 2.0LRSN                1
 GAP=138        0.76       4.3     4.9  6.7  0.1780E+00  0.6093E+01  0.5147E+01E
 ACTION:UP  12-03-07 16:26 OP:epov STATUS:               ID:20120201213305 L   I
 2012-02-01-2130-00M.COL___187                                                 6
 STAT SP IPHASW D HRMM SECON CODA AMPLIT PERI AZIMU VELO SNR AR TRES W  DIS CAZ7
 BAR2 SZ EP       2133 25.49                             171   -0.1210 22.3 192 
 BAR2 SZ ES   2   2133 41.23                             171    0.12 5 22.3 192 
 BAR2 SZ I        2133 42.44        19.5 0.24                          22.3 192 
 GIR2 SZ EP       2133 25.69                             167   -0.0110 32.6 349 
 BRR  HZ EP       2133 27.48                             153    0.2910 72.4 299 
 BRR  HZ I        2133 27.70        44.0 0.18                          72.4 299 
 BRR  HE ES   1   2133 44.64                             153    0.71 7 72.4 299 
 PAM  SZ EP       2133 28.40                             151    0.1910 77.8  39 
 PAM  SN ES   1   2133 45.21                             151   -0.53 7 77.8  39 
 RUS  HZ EP       2133 29.46                             145   -0.1510 99.3 176 
 RUS  HN ES   1   2133 48.28                             145    0.04 7 99.3 176 
 RUS  HZ I        2133 49.35         6.4 0.24                          99.3 176 
 PTB  HZ EP       2133 32.64                             132   -0.28 9  148 259 
 PTB  HN ES   2   2133 53.52                             132   -0.62 5  148 259 
 PTB  HZ I        2134  0.93        15.4 0.40                           148 259 
 ZAR  HZ EP   2   2133 39.13                             123    0.69 4  205 292 
 ZAR  HN ES   2   2134  2.76                             123   -1.19 4  205 292 
 ZAR  HZ I        2134  9.24        10.1 0.28                           205 292 
 CHI  HZ EP   1   2133 43.57                             118    0.12 6  248 195 
 CHI  HE ES   2   2134 13.35                             118    0.48 4  248 195 
 CHI  HZ I        2134 20.58         4.2 0.50                           248 195 
                                                                                
