 2017 11 1 2151 31.0 L   6.653 -74.070  9.0  RSN  8 0.6 1.5LRSN                1
 GAP= 89        1.64       3.5     2.7  7.7 -0.2021E+01 -0.2025E+01  0.2148E+01E
 Epicentro: PUERTO PARRA - SANTANDER                                           3
 ACTION:UPD 17-12-12 19:50 OP:rebc STATUS:               ID:20171101215131 L   I
 OLDACT:REG 17-11-02 03:54 OP:osc  STATUS:               ID:20171101214736     3
 2017-11-01-2148-00M.COL___444                                                 6
 STAT SP IPHASW D HRMM SECON CODA AMPLIT PERI AZIMU VELO AIN AR TRES W  DIS CAZ7
 PTB  HZ IP     D 2151 38.31                              97   -0.1410 44.5 254 
 PTB  HN ES       2151 44.18                              97   -0.0310 44.5 254 
 PTB  HZ I        2151 44.35        31.1 0.22             97           44.5 254 
 BRR  HZ EP       2151 41.33                              95   -0.0410 64.0  38 
 BRR  HE ES       2151 49.76                              95    0.3410 64.0  38 
 BRR  HZ I        2151 50.38        20.9 0.10             95           64.0  38 
 BAR2 EZ EP       2151 46.67                              93   -0.1510 98.4  94 
 BAR2 EZ ES       2151 58.60                              93   -0.5210 98.4  94 
 BAR2 EZ I        2152  0.50        17.8 0.70             93           98.4  94 
 ZAR  HZ EP       2151 50.88                              92   -0.0710  127 317 
 ZAR  HE ES       2152  6.21                              92   -0.2610  127 317 
 ZAR  HZ I        2152  7.08         6.7 0.11             92            127 317 
 RUS  HZ EP       2151 53.39                              92    0.34 9  138 128 
 RUS  HN ES       2152 10.36                              92    0.15 9  138 128 
 RUS  HZ I        2152 13.29        11.7 0.20             92            138 128 
 NOR  HZ EP       2151 55.92                              92    1.57 9  149 216 
 NOR  HE ES       2152 11.00                              92   -1.52 9  149 216 
 NOR  HZ I        2152 12.30         4.7 0.18             92            149 216 
 PAM  EZ EP       2151 58.17                              56    0.52 9  169  63 
 PAM  EN ES       2152 17.61                              56   -0.78 9  169  63 
 PAM  EZ I        2152 20.12         5.0 0.20             56            169  63 
 GUY2CHZ EP       2152  3.89                              56    0.78 8  213 222 
 GUY2CHZ ES       2152 28.16                              56    0.04 8  213 222 
 GUY2CHZ I        2152 32.75         3.1 0.38                           213 222 
                                                                                
