 2013  1 1 2317  4.4 L   6.531 -73.581110.6  RSN  6 0.4 1.9LRSN                1
 GAP=129        0.80       4.5     4.8  8.1  0.4749E+01  0.9408E+01 -0.2723E+01E
 Epicentro: EL CARMEN DE CHUCURI - SANTANDER                                   3
 ACTION:UPD 13-02-15 09:11 OP:ep   STATUS:               ID:20130101231704 L   I
 2013-01-01-2310-00M.COL___242                                                 6
 STAT SP IPHASW D HRMM SECON CODA AMPLIT PERI AZIMU VELO AIN AR TRES W  DIS CAZ7
 BAR2 SZ EP   1   2317 20.64                             157    0.05 7 44.6  81 
 BAR2 SZ ES   1   2317 33.29                             157    0.05 7 44.6  81 
 BRR  HZ EP   1   2317 21.62                             147    0.18 7 65.3 347 
 BRR  HN ES   1   2317 35.30                             147    0.55 7 65.3 347 
 RUS  HZ EP   1   2317 23.91                             138   -0.02 7 89.6 142 
 RUS  HN ES   1   2317 39.11                             138   -0.08 7 89.6 142 
 RUS  HZ I        2317 40.97         6.8 0.40            115           89.6 142 
 PTB  HZ EP   1   2317 23.61                             136   -0.26 7 96.8 271 
 PTB  HE ES   1   2317 38.63                             136   -0.46 7 96.8 271 
 PTB  HZ I        2317 43.27        13.1 0.14            107           96.8 271 
 ZAR  HZ EP   1   2317 32.49                             117    0.72 7  177 307 
 ZAR  HZ I        2317 58.00        18.7 0.48             98            177 307 
 OCA  HN ES   1   2317 55.49                             115   -0.79 7  191   9 
 OCA  HZ I        2318  1.73        14.5 0.38             97            191   9 
                                                                                
