 2012  1 1 2059 45.3 L   6.784 -73.152150.2  RSN  9 0.3 2.3LRSN                1
 GAP=136        0.75       3.8     4.0  5.6 -0.4929E+00  0.4221E+01  0.2071E+01E
 Epicentro: LOS SANTOS - SANTANDER                                             3
 ACTION:UP  12-02-03 08:13 OP:REBC STATUS:               ID:20120101205945 L   I
 2012-01-01-2057-00S.MAN___179                                                 6
 STAT SP IPHASW D HRMM SECON CODA AMPLIT PERI AZIMU VELO SNR AR TRES W  DIS CAZ7
 BAR2 SZ EP   1   21 0  5.54                             171     0.1 7   22 189 
 BAR2 SZ ES   1   21 0 20.87                             171    -0.2 7   22 189 
 BAR2 SZ I        21 0 22.26        61.1 0.22                            22 189 
 BRR  HZ IP     C 21 0  7.35                             153     0.410   71 300 
 BRR  HZ I        21 0  7.63       102.5 0.15                            71 300 
 BRR  HE ES   1   21 0 24.45                             153     0.6 7   71 300 
 PAM  SZ EP   1   21 0  8.28                             151     0.2 7   79  39 
 PAM  SN ES   1   21 0 25.54                             151    -0.3 7   79  39 
 RUS  HZ EP       21 0  9.34                             145     0.010   99 176 
 RUS  HN ES   1   21 0 27.91                             145    -0.2 7   99 176 
 RUS  HZ I        21 0 29.37        18.2 0.44                            99 176 
 PTB  HZ EP   1   21 0 12.10                             133    -0.4 7  147 259 
 PTB  HN ES   1   21 0 33.43                             133    -0.4 7  147 259 
 ZAR  HZ EP   2   21 0 18.28                             123     0.3 4  204 293 
 ZAR  HE ES   1   21 0 43.14                             123    -0.4 6  204 293 
 ZAR  HZ I        21 0 50.48        18.2 0.22                           204 293 
 NOR  SZ EP   1   21 0 21.04                             120    -0.1 6  233 235 
 NOR  SN ES   1   21 0 49.19                             120     0.1 6  233 235 
 CHI  HZ EP   1   21 0 23.29                             118     0.3 6  247 195 
 CHI  HN ES   2   21 0 52.70                             118     0.2 4  247 195 
 CHI  HZ I        21 0 58.71         5.1 0.26                           247 195 
 COD  HZ EP   1   21 0 33.43                             109    -0.6 5  350 355 
 COD  HZ I        21 1 18.40         6.0 0.31                           350 355 
                                                                                
