 2013  6 1 2357 10.9 L   6.639 -73.214144.4  RSN  4 0.3 1.0LRSN                1
 GAP=193        0.74       5.9     6.6  6.2  0.2207E+02  0.5482E+01  0.2347E+01E
 Epicentro: BARICHARA - SANTANDER                                              3
 ACTION:UPD 14-01-08 09:51 OP:ep   STATUS:               ID:20130601235710 L   I
 2013-06-01-2350-00M.COL___261                                                 6
 STAT SP IPHASW D HRMM SECON CODA AMPLIT PERI AZIMU VELO AIN AR TRES W  DIS CAZ7
 BAR2 SZ EP       2357 29.95                             177   -0.2310 6.25 146 
 BAR2 SZ ES       2357 44.85                             177   -0.3410 6.25 146 
 BAR2 SZ I        2357 46.60         2.7 0.38            176           6.25 146 
 BRR  HZ EP       2357 32.01                             151   -0.1810 75.6 313 
 BRR  HE ES       2357 49.23                             151    0.4610 75.6 313 
 BRR  HZ I        2357 50.09         2.7 0.46            152           75.6 313 
 RUS  HZ EP       2357 33.68                             148    0.2710 83.8 170 
 RUS  HN ES       2357 51.07                             148    0.1410 83.8 170 
 RUS  HZ I        2357 52.94         1.7 0.64            149           83.8 170 
 PTB  HZ EP   1   2357 37.01                             134    0.11 7  138 265 
 PTB  HN ES   1   2357 56.80                             134   -0.36 7  138 265 
 PTB  HZ I        2357 58.99         1.3 0.24            134            138 265 
                                                                                
