 2012  2 1 2021 54.7 L   6.790 -73.155142.1  RSN 20 0.4 2.9LRSN                1
 GAP=103        0.73       3.1     3.8  4.6  0.6568E-01  0.5810E+01  0.3373E+01E
 ACTION:UP  12-03-07 16:26 OP:epov STATUS:               ID:20120201202154 L   I
 2012-02-01-2020-00M.COL___188                                                 6
 STAT SP IPHASW D HRMM SECON CODA AMPLIT PERI AZIMU VELO SNR AR TRES W  DIS CAZ7
 BAR2 SZ IP       2022 13.91                             171    0.0310 22.1 188 
 BAR2 SZ I        2022 14.09       212.8 0.38                          22.1 188 
 BAR2 SZ ES   1   2022 28.93                             171    0.11 7 22.1 188 
 GIR2 SZ IP       2022 13.91                             166   -0.0710 32.2 352 
 BRR  HZ IP     C 2022 15.66                             152    0.2110 70.9 300 
 BRR  HZ I        2022 15.91       314.1 0.16                          70.9 300 
 BRR  HN ES   1   2022 32.13                             152    0.51 7 70.9 300 
 PAM  SZ IP       2022 16.62                             149   -0.0110 78.8  40 
 PAM  SN ES   1   2022 33.41                             149   -0.31 7 78.8  40 
 RUS  HZ EP       2022 18.00                             143   -0.0310 99.6 175 
 RUS  HN ES   1   2022 36.35                             143    0.13 7 99.6 175 
 RUS  HZ I        2022 38.33       106.3 0.26                          99.6 175 
 PTB  HZ EP       2022 20.44                             131   -0.84 9  147 259 
 PTB  HN ES   1   2022 41.36                             131   -0.63 7  147 259 
 PTB  HZ I        2022 44.92        51.7 0.12                           147 259 
 OCA  SZ EP   2   2022 22.43                             128   -0.40 5  161 354 
 OCA  SZ I        2022 45.78       107.7 0.67                           161 354 
 YOP  SZ EP   2   2022 24.86                             125    0.41 4  178 153 
 YOP  SE ES   3   2022 48.48                             125    0.85 2  178 153 
 ZAR  HZ EP       2022 26.93                             121    0.06 9  204 293 
 ZAR  HZ I        2022 57.44       102.8 0.50                           204 293 
 NOR  SZ EP       2022 30.45                             118    0.37 8  233 235 
 NOR  SN ES   3   2022 57.48                             118   -0.18 2  233 235 
 CHI  HZ EP       2022 32.32                             116    0.25 8  247 195 
 CHI  HN ES   1   2023  0.64                             116   -0.57 6  247 195 
 CHI  HZ I        2023  5.03        30.4 0.42                           247 195 
 HEL  HZ EP   1   2022 34.92                             114    0.31 6  271 256 
 HEL  HZ I        2023 14.05        39.5 0.32                           271 256 
 GUY  SZ EP   3   2022 38.07                             111   -0.19 2  302 235 
 GUY  SZ I        2023 21.02        57.4 0.38                           302 235 
 VIL  SZ EP   1   2022 38.06                             111    0.23 5  302 191 
 VIL  SZ I        2023 21.36        25.1 0.46                           302 191 
 RREF HZ EP   3   2022 40.96                             110    0.42 2  320 229 
 RREF HZ I        2023 24.17        36.2 0.24                           320 229 
 DBB  SZ EP       2022 42.78                             109    0.84 7  339 274 
 ANIL HZ EP   2   2022 43.56                             108   -0.65 3  356 225 
 SDV  BZ EP   3   2022 43.52                             107   -1.27 2  362  50 
 PRA  HZ EP       2022 48.01                             106    0.06 6  391 210 
 SJA  SZ EP   2   2022 48.04                             105   -0.96 3  399 193 
 SJA  SZ I        2023 39.70        40.6 0.40                           399 193 
                                                                                
