 2010 10 1 2330 37.3 L   6.750 -73.078140.7  RSN  5 0.4 1.8LRSN                1
 GAP=167        1.09       7.6    13.0 11.6 -0.2417E+02 -0.5600E+02 -0.3729E+01E
 Epicentro: LOS SANTOS - SANTANDER                                             3
 ACTION:UP  11-02-18 11:07 OP:tino STATUS:               ID:20101001233037 L   I
 2010-10-01-2328-23S.COL___125                                                 6
 STAT SP IPHASW D HRMM SECON CODA AMPLIT PERI AZIMU VELO SNR AR TRES W  DIS CAZ7
 BAR2 SZ EP       2330 56.26                             171     0.010   21 214 
 BAR2 SZ ES   1   2331 11.05                             171     0.0 7   21 214 
 BAR2 SZ I        2331 12.67         8.9 0.23                            21 214 
 BRR  HZ EP       2330 58.12                             149    -0.310   80 299 
 BRR  HZ I        2330 58.56        31.5 0.11                            80 299 
 BRR  HE ES   1   2331 15.22                             149     0.3 7   80 299 
 RUS  HZ EP   1   2331  0.16                             144     0.0 7   95 180 
 RUS  HZ I        2331 19.43         5.0 0.57                            95 180 
 GUE  SZ EP       2331  1.39                             137    -0.510  121   8 
 GRA  SZ EP       2331  3.15                             135     0.810  129  14 
 GRA  SZ ES   1   2331 21.61                             135    -0.3 7  129  14 
                                                                                
