 2012  6 1 2229  6.1 L   6.074 -73.831 91.4  RSN  5 0.4 1.2LRSN                1
 GAP=140        0.87       5.2     3.7 13.7  0.8684E+00  0.2304E+02  0.1361E+02E
 Epicentro: EL PEON - SANTANDER                                                3
 ACTION:UPD 12-08-06 17:46 OP:ep   STATUS:               ID:20120601222904 L   I
 2012-06-01-2227-59S.COL___211                                                 6
 STAT SP IPHASW D HRMM SECON CODA AMPLIT PERI AZIMU VELO AIN AR TRES W  DIS CAZ7
 RUS  HZ EP   1   2229 23.51                             134   -0.07 7 85.2 104 
 RUS  HE ES   1   2229 36.84                             134   -0.38 7 85.2 104 
 RUS  HZ I        2229 38.93         6.9 0.22            141           85.2 104 
 PTB  HZ EP   1   2229 22.50                             133   -0.53 7 86.2 307 
 PTB  HE ES   1   2229 35.69                             133   -0.55 7 86.2 307 
 PTB  HZ I        2229 39.28         3.0 0.10            139           86.2 307 
 BAR2 SZ ES       2229 38.10                             131    0.4210 91.8  51 
 NOR  SZ EP   1   2229 27.16                             121   -0.06 7  128 244 
 NOR  SE ES   1   2229 44.32                             121    0.63 7  128 244 
 ZAR  HE ES   1   2229 56.91                             110    0.33 6  194 324 
                                                                                
