 2013  2 1 2016 38.2 L   6.787 -73.170148.1  RSN  6 0.3 1.4LRSN                1
 GAP=134        0.53       3.6     3.2  6.0 -0.1816E+01  0.7319E+01 -0.1077E+01E
 Epicentro: LOS SANTOS - SANTANDER                                             3
 ACTION:UPD 13-03-12 09:29 OP:ep   STATUS:               ID:20130201201638 L   I
 2013-02-01-2010-00M.COL___241                                                 6
 STAT SP IPHASW D HRMM SECON CODA AMPLIT PERI AZIMU VELO AIN AR TRES W  DIS CAZ7
 BAR2 SZ ES   1   2017 13.65                             171    0.04 7 21.6 184 
 PAM  SZ EP   1   2017  1.17                             150    0.31 7 80.2  40 
 PAM  SN ES   1   2017 18.53                             150    0.02 7 80.2  40 
 PAM  SZ I        2017 20.54         5.1 0.48            153           80.2  40 
 RUS  HZ EP   1   2017  1.70                             145   -0.42 7 99.4 174 
 RUS  HE ES   1   2017 20.66                             145   -0.10 7 99.4 174 
 RUS  HZ I        2017 23.75         2.9 0.30            146           99.4 174 
 PTB  HZ EP   1   2017  5.29                             133    0.16 7  145 259 
 PTB  HN ES   1   2017 26.19                             133    0.08 7  145 259 
 PTB  HZ I        2017 27.91         4.4 0.28            136            145 259 
 ZAR  HE ES   1   2017 35.50                             123   -0.41 6  202 293 
 NOR  HN ES   1   2017 41.87                             119    0.37 6  232 234 
                                                                                
