 2012  4 1 2057 28.0 L   6.785 -73.131142.0  RSN 13 0.4 2.7LRSN                1
 GAP=116        0.97       3.3     3.9  6.0  0.1219E+01  0.2942E+01  0.3576E+01E
 Epicentro: LOS SANTOS - SANTANDER                                             3
 ACTION:UPD 12-07-05 11:49 OP:tino STATUS:               ID:20120401205728 L   I
 2012-04-01-2050-00M.COL___196                                                 6
 STAT SP IPHASW D HRMM SECON CODA AMPLIT PERI AZIMU VELO AIN AR TRES W  DIS CAZ7
 BAR2 SZ EP       2057 47.21                             171     0.110   22 195 
 BAR2 SZ ES   1   2058  1.67                             171    -0.4 7   22 195 
 BAR2 SZ I        2058  2.94       157.0 0.26                            22 195 
 BRR  HZ EP       2057 49.09                             151     0.310   73 299 
 BRR  HE ES       2058  5.81                             151     0.710   73 299 
 BRR  HZ I        2058 10.26       101.2 0.14                            73 299 
 PAM  SZ EP       2057 50.01                             150     0.210   78  38 
 PAM  SN ES   1   2058  6.75                             150    -0.1 7   78  38 
 RUS  HZ EP       2057 51.11                             144    -0.110   99 177 
 RUS  HE ES   1   2058  9.28                             144    -0.1 7   99 177 
 RUS  HZ I        2058 10.39        73.5 0.17                            99 177 
 PTB  HZ EP   1   2057 54.06                             131    -0.7 7  149 260 
 PTB  HN ES   1   2058 14.78                             131    -0.9 7  149 260 
 OCA  SZ EP       2057 56.06                             128    -0.1 9  162 353 
 OCA  SZ ES   1   2058 17.46                             128    -0.7 7  162 353 
 YOP  SZ EP       2057 57.85                             126     0.3 9  177 154 
 YOP  SN ES   1   2058 20.50                             126    -0.1 7  177 154 
 YOP  SZ I        2058 24.54        47.4 0.29                           177 154 
 ZAR  HZ EP   1   2057 59.67                             121    -0.7 6  206 292 
 ZAR  HN ES   1   2058 25.92                             121     0.2 6  206 292 
 ZAR  HZ I        2058 31.93        48.8 0.40                           206 292 
 NOR  SZ EP   1   2058  3.17                             118    -0.3 6  235 235 
 NOR  SN ES   1   2058 31.73                             118     0.5 6  235 235 
 CHI  HZ EP   1   2058  5.34                             116     0.0 6  247 196 
 CHI  HN ES   1   2058 34.13                             116    -0.3 6  247 196 
 CHI  HZ I        2058 37.81        24.1 0.38                           247 196 
 HEL  HN ES   1   2058 39.81                             114     0.4 6  273 256 
 HEL  HZ I        2058 46.15        22.7 0.39                           273 256 
 DBB  SZ EP   1   2058 16.15                             109     0.7 5  341 275 
 PRA  HZ EP   1   2058 21.58                             106     0.3 4  391 210 
                                                                                
