 2016  9 1 2256 45.1 L   6.655 -73.441120.1  RSN  9 0.5 1.7LRSN                1
 GAP= 78        1.32       4.4     4.3  8.4 -0.2187E+01  0.1033E+02  0.4177E+00E
 Epicentro: EL CARMEN - SANTANDER                                              3
 ACTION:UPD 17-08-17 21:05 OP:lp   STATUS:               ID:20160901225645 L   I
 OLDACT:REG 16-09-02 03:13 OP:ar   STATUS:               ID:20160901224735     3
 2016-09-01-2248-00M.COL___350                                                 6
 STAT SP IPHASW D HRMM SECON CODA AMPLIT PERI AZIMU VELO AIN AR TRES W  DIS CAZ7
 BAR2 EZ EP       2257  1.79                             165   -0.0310 29.4 104 
 BAR2 EZ ES       2257 14.76                             165   -0.1110 29.4 104 
 BAR2 EZ I        2257 15.97        30.0 0.24            169           29.4 104 
 BRR  HZ EP       2257  2.73                             152   -0.0210 58.3 329 
 BRR  HN ES       2257 16.73                             152    0.2110 58.3 329 
 BRR  HZ I        2257 19.83        11.6 0.19            153           58.3 329 
 RUS  HZ EP       2257  5.61                             140   -0.2210 93.1 155 
 RUS  HN ES       2257 22.05                             140    0.0610 93.1 155 
 RUS  HZ I        2257 23.64         8.9 0.24            143           93.1 155 
 PAM  EZ EP       2257  7.50                             134    0.1510  112  47 
 PAM  EN ES       2257 24.90                             134    0.1910  112  47 
 PAM  EZ I        2257 27.92         5.9 0.44            139            112  47 
 PTB  HZ EP       2257  5.77                             134   -1.0710  113 264 
 PTB  HE ES       2257 22.70                             134   -1.0910  113 264 
 PTB  HZ I        2257 26.80         8.1 0.09            135            113 264 
 SPBC HZ EP       2257  8.46                             129   -0.1310  131 212 
 SPBC HN ES       2257 27.50                             129    0.6010  131 212 
 SPBC HZ I        2257 31.24        11.9 0.25            131            131 212 
 ZAR  HZ EP       2257 14.06                             119    0.43 9  182 301 
 ZAR  HN ES       2257 36.47                             119    0.59 9  182 301 
 ZAR  HZ I        2257 38.94         9.2 0.23            121            182 301 
 NOR  HZ EP   2   2257 15.27                             117   -0.24 4  199 233 
 NOR  HN ES       2257 40.13                             117    0.90 9  199 233 
 NOR  HZ I        2257 44.09         5.1 0.18            119            199 233 
 GUY2CHZ EP   4   2257 25.92                             110    2.41 0  265 234 
 GUY2CHN ES   4   2257 58.08                             110    4.62 0  265 234 
 GUY2CHZ I        2258  1.53         2.8 0.27                           265 234 
                                                                                
