 2015  2 1 2030 27.8 L   6.806 -73.151148.0  RSN  8 0.2 1.8LRSN                1
 GAP=136        0.65       2.8     2.8  4.4 -0.1668E+01  0.4937E+01 -0.8501E+00E
 Epicentro: LOS SANTOS - SANTANDER                                             3
 ACTION:UPD 15-04-30 21:20 OP:nd   STATUS:               ID:20150201203027 L   I
 OLDACT:REG 15-02-02 09:27 OP:carl STATUS:               ID:20150201202750     3
 2015-02-01-2027-50M.COL___265                                                 6
 STAT SP IPHASW D HRMM SECON CODA AMPLIT PERI AZIMU VELO AIN AR TRES W  DIS CAZ7
 BAR2 EZ EP       2030 47.65                             170   -0.0110 23.9 188 
 BAR2 EZ ES       2031  3.16                             170   -0.0310 23.9 188 
 BAR2 EZ I        2031  5.38        10.7 0.28            169           23.9 188 
 PAM  SZ EP       2030 50.52                             151    0.3310 77.2  40 
 PAM  SN ES       2031  7.71                             151    0.0110 77.2  40 
 PAM  SZ I        2031  9.79         9.8 0.48            157           77.2  40 
 RUS  HZ EP       2030 51.53                             144   -0.2410  101 176 
 RUS  HN ES       2031 10.30                             144   -0.2110  101 176 
 RUS  HZ I        2031 14.86         3.2 0.26            147            101 176 
 PTB  HZ EP       2030 54.62                             133   -0.25 9  147 259 
 PTB  HN ES       2031 15.72                             133   -0.29 9  147 259 
 PTB  HZ I        2031 21.44         9.5 0.30            134            147 259 
 SPBC HZ EP       2030 56.61                             129    0.17 9  163 219 
 SPBC HN ES       2031 19.41                             129    0.59 9  163 219 
 SPBC HZ I        2031 25.83        16.2 0.24            132            163 219 
 ZAR  HZ EP       2031  0.38                             123    0.11 9  203 292 
 ZAR  HN ES       2031 25.62                             123   -0.00 9  203 292 
 ZAR  HZ I        2031 32.03         8.1 0.26            125            203 292 
 NOR  HZ EP       2031  3.30                             119   -0.31 8  235 234 
 NOR  HN ES       2031 31.74                             119    0.17 8  235 234 
 NOR  HZ I        2031 35.31         5.7 0.32            121            235 234 
 GUY2CHZ EP   4   2031 12.89                             113    1.43 0  301 235 
 GUY2CHE ES   4   2031 47.48                             113    1.93 0  301 235 
 GUY2CHZ I        2031 54.49         6.4 0.74                           301 235 
                                                                                
