 2013  3 1 2031 13.2 L   6.788 -73.161148.1  RSN  9 0.5 1.9LRSN                1
 GAP=135        0.94       4.9     5.6  8.4 -0.7642E+00  0.8652E+01 -0.5379E+01E
 Epicentro: LOS SANTOS - SANTANDER                                             3
 ACTION:UPD 13-04-09 13:59 OP:ep   STATUS:               ID:20130301203113 L   I
 2013-03-01-2030-00M.COL___228                                                 6
 STAT SP IPHASW D HRMM SECON CODA AMPLIT PERI AZIMU VELO AIN AR TRES W  DIS CAZ7
 BAR2 SZ ES   2   2031 47.83                             171   -0.71 5 21.8 186 
 BAR2 SZ I        2031 50.51        40.2 0.28            172           21.8 186 
 BRR  HZ EP   1   2031 35.24                             153    0.73 7 70.3 300 
 BRR  HN ES   1   2031 51.95                             153    0.79 7 70.3 300 
 BRR  HZ I        2031 53.05        15.6 0.30            151           70.3 300 
 PAM  SZ EP       2031 36.02                             150    0.2810 79.4  40 
 PAM  SN ES   1   2031 53.02                             150   -0.34 7 79.4  40 
 PAM  SZ I        2031 55.39        12.1 0.68            153           79.4  40 
 RUS  HZ EP   1   2031 37.12                             145    0.07 7 99.4 175 
 RUS  HN ES   1   2031 55.25                             145   -0.45 7 99.4 175 
 RUS  HZ I        2031 56.89        10.0 0.32            148           99.4 175 
 PTB  HZ EP       2031 40.19                             133    0.05 9  146 259 
 PTB  HN ES   1   2032  0.44                             133   -0.75 7  146 259 
 PTB  HZ I        2032  4.07         5.9 0.22            133            146 259 
 ZAR  HN ES   2   2032 11.60                             123    0.62 4  203 293 
 ZAR  HZ I        2032 17.64        10.2 0.46            124            203 293 
 SML  HZ EP   1   2031 49.30                             118   -0.66 6  244 336 
 SML  HE ES   2   2032 18.19                             118   -0.48 4  244 336 
 CHI  HE ES   2   2032 20.44                             118    0.27 4  247 195 
 SJC  HN ES   2   2032 51.31                             106   -0.91 3  409 327 
                                                                                
