 2010  8 1 2036 25.4 L   6.759 -73.043148.9  RSN  5 0.3 2.0LRSN                1
 GAP=208        0.57       6.1     8.0  6.4 -0.6787E+01 -0.1377E+02 -0.6002E+01E
 Epicentro: LOS SANTOS - SANTANDER                                             3
 ACTION:UP  10-09-07 10:51 OP:vdl  STATUS:               ID:20100801203625 L   I
 2010-08-01-2036-13S.COL___123                                                 6
 STAT SP IPHASW D HRMM SECON CODA AMPLIT PERI AZIMU VELO SNR AR TRES W  DIS CAZ7
 BAR2 SZ IP       2036 45.59                             170     0.210   24 220 
 BAR2 SZ ES   1   2037  0.72                             170    -0.3 7   24 220 
 BAR2 SZ I        2037  2.28        18.6 0.45                            24 220 
 GIR2 SZ EP   2   2036 45.70                             165     0.0 5   39 335 
 GIR2 SZ ES   2   2037  2.15                             165     0.7 5   39 335 
 BRR  HZ IP     C 2036 47.44                             150    -0.210   83 298 
 BRR  HZ I        2036 47.71        34.7 0.10                            83 298 
 BRR  HN ES   1   2037  4.96                             150     0.0 7   83 298 
 GUE  SZ EP   1   2036 50.53                             140    -0.1 7  119   6 
 GRA  SZ EP   2   2036 51.30                             138     0.3 5  127  12 
 GRA  SZ ES   2   2037 10.71                             138    -0.3 5  127  12 
 GRA  SZ I        2037 12.64         8.9 0.34                           127  12 
                                                                                
