 2017  6 1 2253 24.8 L   6.735 -73.171144.5  RSN  7 0.3 1.8LRSN                1
 GAP=205        0.85       4.0     3.9  6.1  0.7880E+01 -0.3068E+00 -0.6567E+00E
 Epicentro: VILLANUEVA - SANTANDER                                             3
 ACTION:UPD 17-09-14 16:48 OP:jn   STATUS:               ID:20170601225324 L   I
 OLDACT:UP  17-06-02 08:57 OP:lv   STATUS:               ID:20170601224748d    3
 OLDACT:DUP 17-06-02 08:50 OP:lv   STATUS:               ID:20170601224748d    3
 2017-06-01-2248-00M.COL___356                                                 6
 STAT SP IPHASW D HRMM SECON CODA AMPLIT PERI AZIMU VELO AIN AR TRES W  DIS CAZ7
 BRR  HZ EP       2253 45.76                             152   -0.1610 72.5 305 
 BRR  HE ES       2254  2.94                             152    0.5710 72.5 305 
 BRR  HZ I        2254  7.32        10.9 0.06            152           72.5 305 
 RUS  HZ EP       2253 47.80                             146   -0.1710 93.7 174 
 RUS  HN ES       2254  5.65                             146   -0.3610 93.7 174 
 RUS  HZ I        2254  7.17         9.8 0.33            149           93.7 174 
 PTB  HZ EP       2253 50.91                             133   -0.42 9  144 261 
 PTB  HN ES       2254 11.56                             133   -0.44 9  144 261 
 PTB  HZ I        2254 17.11         4.8 0.21            134            144 261 
 SPBC HZ EP       2253 52.80                             130    0.26 9  156 220 
 SPBC HN ES       2254 14.57                             130    0.42 9  156 220 
 SPBC HZ I        2254 15.68         8.9 0.08            132            156 220 
 YPLC HZ EP       2253 54.00                             127   -0.06 9  172 149 
 YPLC HN ES       2254 16.98                             127    0.12 9  172 149 
 YPLC HZ I        2254 18.57         7.2 0.18            131            172 149 
 ZAR  HZ EP       2253 57.42                             122    0.21 9  204 294 
 ZAR  HE ES       2254 22.18                             122   -0.30 9  204 294 
 ZAR  HZ I        2254 27.97         7.8 0.17            124            204 294 
 NOR  HZ EP       2254  0.33                             119    0.54 8  228 236 
 NOR  HN ES       2254 26.98                             119   -0.08 8  228 236 
 NOR  HZ I        2254 31.95         2.9 0.20            121            228 236 
 SJC  HZ EP   4   2254 18.89                             105   -1.99 0  414 328 
                                                                                
