 2014  7 1 2011 53.3 L   6.435 -72.872 10.6  RSN  7 0.5 2.2LRSN                1
 GAP=195        1.36       5.0     4.7  7.9 -0.2489E+01  0.2120E+01  0.2577E+02E
 Epicentro: SAN JOAQUIN - SANTANDER                                            3
 ACTION:UPD 15-03-16 20:40 OP:nd   STATUS:               ID:20140701201153 L   I
 OLDACT:REG 14-07-02 03:51 OP:carl STATUS:               ID:20140701200816     3
 2014-07-01-2008-16M.COL___250                                                 6
 STAT SP IPHASW D HRMM SECON CODA AMPLIT PERI AZIMU VELO AIN AR TRES W  DIS CAZ7
 BAR2 SZ EP       2011 59.47                             101   -0.5810 38.5 297 
 BAR2 SZ ES       2012  5.02                             101   -0.3210 38.5 297 
 BAR2 SZ I        2012  5.79       252.0 0.20             47           38.5 297 
 RUS  HZ EP   4 C 2012  1.27                              97   -2.94 0 64.4 201 
 RUS  HN ES   4   2012  7.62                              97   -5.11 0 64.4 201 
 RUS  HZ I        2012  9.43        80.9 0.18             47           64.4 201 
 PAM  SZ EP       2012  9.30                              94   -0.5410  102  11 
 PAM  SN ES       2012 22.89                              94    0.1410  102  11 
 PAM  SZ I        2012 26.64        38.6 0.16             47            102  11 
 BRR  HZ EP       2012 12.92                              93    0.9910  119 309 
 BRR  HN ES       2012 27.04                              93    0.5710  119 309 
 BRR  HZ I        2012 29.42        56.7 0.10             47            119 309 
 SPBC HZ EP   4   2012 16.24                              56   -1.67 0  159 237 
 SPBC HE ES   4   2012 34.56                              56   -2.56 0  159 237 
 PTB  HZ EP       2012 19.37                              56   -0.58 9  176 274 
 PTB  HN ES       2012 40.14                              56   -0.60 9  176 274 
 PTB  HZ I        2012 42.72        58.9 0.16             47            176 274 
 CHI  HZ EP       2012 26.59                              56    0.46 8  221 206 
 CHI  HN ES       2012 52.03                              56    0.28 8  221 206 
 CHI  HZ I        2012 55.72        12.4 0.32             37            221 206 
 ZAR  HE ES       2012 57.36                              56    0.39 8  249 298 
                                                                                
