 2017 12 1 2332 36.1 L   6.784 -73.151146.0  RSN  8 0.4 1.8LRSN                1
 GAP=137        0.92       3.6     3.8  6.1 -0.1522E+01  0.9153E+01  0.2368E+01E
 Epicentro: LOS SANTOS - SANTANDER                                             3
 ACTION:UPD 18-01-04 13:16 OP:rebc STATUS:               ID:20171201233236 L   I
 OLDACT:REG 17-12-02 04:47 OP:osc  STATUS:               ID:20171201232745     3
 2017-12-01-2328-00M.COL___474                                                 6
 STAT SP IPHASW D HRMM SECON CODA AMPLIT PERI AZIMU VELO AIN AR TRES W  DIS CAZ7
 BAR2 EZ EP       2332 55.43                             171   -0.2510 21.4 189 
 BAR2 EZ ES       2333 11.42                             171    0.4410 21.4 189 
 BAR2 EZ I        2333 13.63        18.4 0.18            171           21.4 189 
 PAM  EZ EP       2332 58.26                             150   -0.1410 79.2  39 
 PAM  EN ES       2333 15.68                             150   -0.1510 79.2  39 
 PAM  EZ I        2333 20.42        11.7 0.58            155           79.2  39 
 RUS  HZ EP       2332 59.75                             144    0.0410 98.8 176 
 RUS  HN ES       2333 18.27                             144    0.1210 98.8 176 
 RUS  HZ I        2333 19.66         6.9 0.20            148           98.8 176 
 PTB  HZ EP       2333  2.28                             132   -0.68 9  147 259 
 PTB  HN ES       2333 23.82                             132   -0.12 9  147 259 
 PTB  HZ I        2333 29.20        10.0 0.42            133            147 259 
 ZAR  HZ EP       2333  9.59                             122    1.06 9  204 293 
 ZAR  HE ES       2333 33.71                             122   -0.15 9  204 293 
 ZAR  HZ I        2333 40.56        17.2 0.32            124            204 293 
 NOR  HE ES       2333 39.08                             119   -0.31 8  233 235 
 NOR  HZ I        2333 45.74         4.7 0.18            121            233 235 
 CHI  HZ EP       2333 13.62                             117    0.06 8  247 195 
 CHI  HN ES       2333 42.67                             117   -0.15 8  247 195 
 CHI  HZ I        2333 48.43         1.6 0.46            120            247 195 
 URE  HZ EP   4   2333 19.53                             114    2.38 0  284 292 
 URE  HN ES   4   2333 46.96                             114   -2.24 0  284 292 
 GUY2CHZ EP       2333 19.68                             112    0.18 7  300 235 
 GUY2CHE ES       2333 53.69                             112    0.30 7  300 235 
 GUY2CHZ I        2334  2.04         4.1 0.32                           300 235 
                                                                                
