 2017 11 1 2116 59.6 L   5.986 -73.906  0.0  RSN  8 0.6 1.4LRSN                1
 GAP= 76        1.57       2.8     2.9  7.4 -0.1866E+01 -0.7558E+00  0.7043E+00E
 Epicentro: EL PENON - SANTANDER                                               3
 ACTION:UPD 17-12-12 19:50 OP:rebc STATUS:               ID:20171101211659 L   I
 OLDACT:UP  17-11-02 07:26 OP:osc  STATUS:               ID:20171101210737     3
 OLDACT:REG 17-11-02 03:51 OP:osc  STATUS:               ID:20171101210737     3
 2017-11-01-2108-00M.COL___444                                                 6
 STAT SP IPHASW D HRMM SECON CODA AMPLIT PERI AZIMU VELO AIN AR TRES W  DIS CAZ7
 SPBC HZ EP       2117  6.64                              47   -0.4410 41.2 207 
 SPBC HN ES       2117 13.38                              47    0.4510 41.2 207 
 PTB  HZ EP       2117 12.88                              47   -0.9610 86.3 315 
 PTB  HN ES       2117 25.37                              47    0.4010 86.3 315 
 PTB  HZ I        2117 25.74        30.3 0.14             47           86.3 315 
 RUS  HZ EP       2117 15.21                              47    0.0610 91.7  96 
 RUS  HN ES       2117 26.16                              47   -1.1310 91.7  96 
 RUS  HZ I        2117 27.11        10.7 0.26             47           91.7  96 
 NOR  HZ EP       2117 18.48                              47    0.0410  116 246 
 NOR  HE ES       2117 32.71                              47   -0.4410  116 246 
 NOR  HZ I        2117 33.26         8.9 0.03             47            116 246 
 BRR  HZ EP       2117 20.14                              47    0.3310  126  10 
 BRR  HN ES       2117 35.86                              47    0.2710  126  10 
 CHI  HZ EP   4   2117 27.92                              47    3.84 0  151 173 
 CHI  HN ES       2117 44.21                              47    1.02 9  151 173 
 CHI  HZ I        2117 53.50         2.0 0.15             47            151 173 
 GUY2CHZ EP       2117 29.45                              47    0.61 9  182 243 
 GUY2CHE ES       2117 50.93                              47   -0.74 9  182 243 
 GUY2CHZ I        2117 53.34         2.2 0.30                           182 243 
 PAM  EZ EP       2117 31.85                              37    0.69 9  201  42 
 PAM  EN ES       2117 56.02                              37    0.23 9  201  42 
                                                                                
