 2013  2 1 2134 29.0 L   6.798 -73.154143.6  RSN 15 0.5 3.2LRSN 3.5WRSN        1
 SPEC AVERAGE  MO 14.3 ST  8.4 OM  2.8 f0 2.72 R0.5616 AL 1.63 WI 17.2 MW  3.5 3
 SPEC SD       MO  0.3 ST  8.0 OM  0.4 f00.544 R0.1111 AL      WI      MW  0.2 3
 GAP= 71        0.96       3.4     3.4  6.1  0.1358E+00  0.4558E+01  0.3298E+00E
 Epicentro: LOS SANTOS - SANTANDER                                             3
 SPEC TAM HH E MO 14.0 ST  3.5 OM  2.3 f0 2.88 R0.5104 AL 1.80 WI  9.5 MW  3.3 3
 SPEC TAM HH E T213514 K 0.000 GD  212 VS 4.20 DE 3.20 Q0300.0 QA 0.60 VS 4.20 3
 SPEC PTB HH N MO 14.4 ST  9.5 OM  2.7 f0 2.99 R0.4916 AL 1.50 WI 18.4 MW  3.5 3
 SPEC PTB HH N T213514 K 0.000 GD  205 VS 4.20 DE 3.20 Q0300.0 QA 0.60 VS 4.20 3
 SPEC RUS HH N MO 13.9 ST  1.6 OM  2.3 f0 2.35 R0.6255 AL 1.77 WI  7.3 MW  3.2 3
 SPEC RUS HH N T213510 K 0.000 GD  174 VS 4.20 DE 3.20 Q0300.0 QA 0.60 VS 4.20 3
 SPEC HEL HH N MO 14.3 ST  2.1 OM  2.4 f0 1.99 R0.7387 AL 1.32 WI 25.8 MW  3.5 3
 SPEC HEL HH N T213538 K 0.000 GD  306 VS 4.20 DE 3.20 Q0300.0 QA 0.60 VS 4.20 3
 SPEC NOR HH N MO 14.3 ST 16.3 OM  2.5 f0 3.79 R0.3879 AL 1.74 WI 19.0 MW  3.5 3
 SPEC NOR HH N T213530 K 0.000 GD  274 VS 4.20 DE 3.20 Q0300.0 QA 0.60 VS 4.20 3
 SPEC OCA HH N MO 14.9 ST 25.2 OM  3.2 f0 2.78 R0.5288 AL 1.74 WI 19.2 MW  3.9 3
 SPEC OCA HH N T213515 K 0.000 GD  214 VS 4.20 DE 3.20 Q0300.0 QA 0.60 VS 4.20 3
 SPEC CHI HH E MO 13.9 ST0.887 OM  2.0 f0 2.08 R0.7067 AL 1.52 WI 22.3 MW  3.2 3
 SPEC CHI HH E T213534 K 0.000 GD  286 VS 4.20 DE 3.20 Q0300.0 QA 0.60 VS 4.20 3
 SPEC BRR HH N MO 14.4 ST  8.6 OM  2.8 f0 2.92 R0.5034 AL 1.64 WI 16.2 MW  3.5 3
 SPEC BRR HH N T2135 6 K 0.000 GD  159 VS 4.20 DE 3.20 Q0300.0 QA 0.60 VS 4.20 3
 ACTION:UPD 13-03-12 09:29 OP:ep   STATUS:               ID:20130201213429 L   I
 2013-02-01-2130-00M.COL___241                                                 6
 STAT SP IPHASW D HRMM SECON CODA AMPLIT PERI AZIMU VELO AIN AR TRES W  DIS CAZ7
 BAR2 SZ EP       2134 48.45                             170    0.0610 23.0 188 
 BAR2 SZ ES   1   2135  3.20                             170   -0.29 7 23.0 188 
 BAR2 SZ I        2135  4.27       611.3 0.20            162           23.0 188 
 BRR  HZ IP     C 2134 50.38                             152    0.4810 70.4 299 
 BRR  HN ES   1   2135  7.19                             152    1.01 7 70.4 299 
 BRR  HZ I        2135  8.17       258.7 0.28            139           70.4 299 
 PAM  SZ EP       2134 51.34                             150    0.2910 78.1  40 
 PAM  SN ES   1   2135  8.24                             150    0.00 7 78.1  40 
 PAM  SZ I        2135 10.69       415.1 0.58            142           78.1  40 
 RUS  HZ EP   1   2134 52.42                             143   -0.13 7  100 175 
 RUS  HN ES   1   2135 10.56                             143   -0.35 7  100 175 
 RUS  HZ I        2135 12.61       109.0 0.30            130            100 175 
 PTB  HZ EP   1   2134 55.16                             132   -0.57 7  147 259 
 PTB  HN ES   1   2135 15.93                             132   -0.62 7  147 259 
 PTB  HZ I        2135 18.96       292.7 0.12            118            147 259 
 TAM  HZ IP     D 2134 56.79                             130    0.18 9  156 105 
 TAM  HE ES   1   2135 17.78                             130   -0.35 7  156 105 
 TAM  HZ I        2135 18.88        82.8 0.50            119            156 105 
 OCA  HZ EP   1   2134 56.83                             129   -0.34 7  160 353 
 OCA  HN ES   1   2135 18.49                             129   -0.64 7  160 353 
 OCA  HZ I        2135 21.90       339.5 0.30            118            160 353 
 ZAR  HZ EP   1   2135  1.48                             122    0.24 6  203 292 
 ZAR  HN ES   1   2135 27.35                             122    0.98 6  203 292 
 ZAR  HZ I        2135 32.59       170.5 0.44            111            203 292 
 NOR  HZ EP   1   2135  4.82                             118    0.29 6  234 234 
 NOR  HN ES   1   2135 32.07                             118   -0.16 6  234 234 
 NOR  HZ I        2135 35.48        87.0 0.18            108            234 234 
 SML  HZ EP   1   2135  5.27                             117   -0.23 6  243 336 
 SML  HE ES   1   2135 33.40                             117   -0.56 6  243 336 
 CHI  HZ EP   1   2135  6.75                             117    0.19 6  248 195 
 CHI  HE ES   1   2135 36.10                             117    0.27 6  248 195 
 ROSC BZ EP   4   2135  8.48                             116    1.53 0  252 211 
 ROSC BZ I        2135 46.18        61.6 0.37            106            252 211 
 HEL  HZ EP   1   2135  9.66                             114    0.64 6  271 256 
 HEL  HN ES   1   2135 39.21                             114   -1.00 6  271 256 
 HEL  HZ I        2135 47.48        57.5 0.26            105            271 256 
 URE  HZ EP   1   2135  8.83                             113   -1.07 6  283 292 
 URE  HZ I        2135 50.19       122.9 0.20            105            283 292 
 DBB  SZ EP   1   2135 16.75                             109    0.45 5  339 274 
                                                                                
