 2011  3 1 2138  4.1 L   6.800 -73.140140.0  RSN  7 0.3 2.0LRSN                1
 GAP=136        0.62       3.5     7.7  7.5 -0.8539E+01  0.3070E+02 -0.6859E+01E
 Epicentro: LOS SANTOS - SANTANDER                                             3
 ACTION:UP  11-06-16 14:31 OP:jfem STATUS:               ID:20110301213804 L   I
 2011-03-01-2136-15S.COL___136                                                 6
 STAT SP IPHASW D HRMM SECON CODA AMPLIT PERI AZIMU VELO SNR AR TRES W  DIS CAZ7
 BAR2 SZ IP       2138 23.17                             170     0.110   24 192 
 BAR2 SZ I        2138 23.34        34.7 0.19                            24 192 
 BAR2 SZ ES   2   2138 37.94                             170     0.1 5   24 192 
 RUS  HZ EP       2138 26.99                             143    -0.310  101 176 
 RUS  HN ES   1   2138 45.51                             143     0.1 7  101 176 
 RUS  HZ I        2138 46.79         8.9 0.57                           101 176 
 GRA  SZ IP       2138 29.08                             136     0.210  126  17 
 GRA  SZ I        2138 30.21        23.6 0.32                           126  17 
 GRA  SZ ES   1   2138 47.80                             136    -0.3 7  126  17 
 YOP  SZ EP   2   2138 33.87                             125     0.1 4  179 154 
 YOP  SZ I        2139  0.96         8.2 0.32                           179 154 
 CHI  HE ES   3   2139 10.42                             116    -0.3 2  249 195 
 HEL  HZ EP   2   2138 44.80                             113     0.7 4  273 256 
 HEL  HZ I        2139 23.15         7.0 0.47                           273 256 
 DBB  SZ EP       2138 51.20                             108    -0.2 7  340 274 
                                                                                
