 2014  4 1 2137 15.9 L   6.800 -73.160138.0  RSN  7 0.4 1.7LRSN                1
 GAP=135        0.85       3.5     4.2  8.8 -0.1551E+01  0.1918E+02 -0.3022E+01E
 Epicentro: LOS SANTOS - SANTANDER                                             3
 ACTION:UPD 14-05-13 23:05 OP:nd   STATUS:               ID:20140401213715 L   I
 OLDACT:UP  14-04-02 03:32 OP:mh   STATUS:               ID:20140401212819     3
 OLDACT:UP  14-04-02 03:32 OP:mh   STATUS:               ID:20140401212819     3
 OLDACT:REG 14-04-02 02:39 OP:mh   STATUS:               ID:20140401212819     3
 2014-04-01-2128-19M.COL___258                                                 6
 STAT SP IPHASW D HRMM SECON CODA AMPLIT PERI AZIMU VELO AIN AR TRES W  DIS CAZ7
 PAM  SZ EP       2137 37.49                             149    0.1410 78.4  40 
 PAM  SN ES       2137 54.05                             149   -0.0310 78.4  40 
 PAM  SZ I        2137 56.87         9.3 0.35            155           78.4  40 
 RUS  HZ EP       2137 39.04                             142    0.1410  101 175 
 RUS  HN ES       2137 56.89                             142    0.0510  101 175 
 RUS  HZ I        2137 58.67         4.1 0.39            147            101 175 
 PTB  HZ EP       2137 41.51                             131   -0.58 9  146 259 
 PTB  HN ES   1   2138  1.98                             131   -0.55 7  146 259 
 PTB  HZ I        2138  5.14        10.0 0.10            132            146 259 
 ZAR  HZ EP       2137 47.83                             121    0.14 9  203 292 
 ZAR  HN ES       2138 13.24                             121    0.75 9  203 292 
 ZAR  HZ I        2138 18.97         6.1 0.25            123            203 292 
 NOR  HE ES   1   2138 18.57                             117    0.11 6  233 234 
 NOR  HZ I        2138 24.44         7.0 0.09            120            233 234 
 SML  HE ES   1   2138 19.57                             116   -0.63 6  243 336 
 GUY2CHZ EP   4   2137 57.04                             111   -1.97 0  300 235 
 GUY2CHN ES   1   2138 32.71                             111    0.07 5  300 235 
 GUY2CHZ I        2138 42.17         2.8 0.27                           300 235 
                                                                                
