 2010  8 1 2056 13.6 L   7.127 -73.527 38.5  RSN  4 0.1 1.5LRSN                1
 GAP=166        0.32       4.9     4.8  7.1 -0.1261E+02 -0.2404E+02 -0.3646E+01E
 Epicentro: SAN VICENTE DE CHUCURI - SANTANDER                                 3
 ACTION:UP  10-09-07 10:51 OP:vdl  STATUS:               ID:20100801205613 L   I
 2010-08-01-2052-07S.COL___122                                                 6
 STAT SP IPHASW D HRMM SECON CODA AMPLIT PERI AZIMU VELO SNR AR TRES W  DIS CAZ7
 BRR  HZ IP     D 2056 20.13                             147    -0.110   21 264 
 BRR  HZ I        2056 20.28        14.8 0.13                            21 264 
 BRR  HN ES   1   2056 25.38                             147     0.0 7   21 264 
 GIR2 SZ EP   2   2056 21.82                             127     0.0 5   37  98 
 GUE  SZ EP   1   2056 29.82                              97     0.1 7  102  40 
 GUE  SZ ES   2   2056 42.27                              97    -0.1 5  102  40 
 GUE  SZ I        2056 42.78        14.4 0.08                           102  40 
 GRA  SZ ES   1   2056 45.10                              96     0.1 7  116  44 
 GRA  SZ I        2056 47.35        12.3 0.23                           116  44 
                                                                                
