 2014  5 1 2248 57.4 L   6.525 -73.562104.2  RSN 10 0.5 2.0LRSN                1
 GAP=135        1.26       3.1     4.2  8.2 -0.2267E+01  0.7927E+01 -0.3905E+01E
 Epicentro: EL CARMEN DE CHUCURI - SANTANDER                                   3
 ACTION:UPD 15-03-16 16:54 OP:nd   STATUS:               ID:20140501224857 L   I
 OLDACT:REG 14-05-02 01:59 OP:nd   STATUS:               ID:20140501224841     3
 2014-05-01-2248-41M.COL___239                                                 6
 STAT SP IPHASW D HRMM SECON CODA AMPLIT PERI AZIMU VELO AIN AR TRES W  DIS CAZ7
 BRR  HZ EP       2249 13.72                             145   -0.1810 66.4 346 
 BRR  HN ES       2249 27.49                             145    0.7210 66.4 346 
 BRR  HZ I        2249 33.34        19.5 0.16            147           66.4 346 
 RUS  HZ EP       2249 16.04                             137   -0.1910 87.8 143 
 RUS  HN ES       2249 31.18                             137    0.2510 87.8 143 
 PTB  HZ IP     D 2249 15.78                             133   -0.7610 98.9 271 
 PTB  HN ES       2249 30.59                             133   -0.8910 98.9 271 
 PTB  HZ I        2249 34.16        21.8 0.12            136           98.9 271 
 SPBC HZ EP       2249 17.91                             129    0.0710  112 210 
 SPBC HN ES       2249 33.90                             129    0.1110  112 210 
 SPBC HZ I        2249 37.39        26.5 0.10            135            112 210 
 ZAR  HZ EP       2249 24.62                             115   -0.06 9  179 307 
 ZAR  HN ES       2249 46.68                             115    0.71 9  179 307 
 ZAR  HZ I        2249 49.55        26.1 0.56            119            179 307 
 NOR  HZ EP       2249 24.65                             115   -0.19 9  180 234 
 NOR  HN ES       2249 46.09                             115   -0.15 9  180 234 
 NOR  HZ I        2249 50.04        12.1 0.20            120            180 234 
 OCA  HZ EP       2249 26.96                             113    0.69 9  191   8 
 OCA  HN ES       2249 47.80                             113   -1.00 9  191   8 
 OCA  HZ I        2249 55.57        16.4 0.32            118            191   8 
 HEL  HZ EP       2249 30.49                             110    0.61 8  221 260 
 HEL  HN ES       2249 55.41                             110    0.18 8  221 260 
 HEL  HZ I        2250  1.16         6.5 0.20            114            221 260 
 GUY2CHZ EP   2   2249 34.06                             107    1.11 4  246 234 
 GUY2CHN ES       2250  0.86                             107    0.17 8  246 234 
 GUY2CHZ I        2250  6.63         4.5 0.38                           246 234 
 SML  HZ EP   2   2249 32.76                             106   -0.97 4  258 347 
 SML  HN ES       2250  2.37                             106    0.30 8  258 347 
 SML  HZ I        2250  3.89        17.6 0.10            110            258 347 
                                                                                
