 2011 10 1 2224 11.0 L   6.781 -73.146148.0  RSN  8 0.4 1.7LRSN                1
 GAP=137        0.64       4.2     5.4  6.5 -0.1704E+01 -0.8703E+00  0.7637E+01E
 Epicentro: LOS SANTOS - SANTANDER                                             3
 ACTION:UPD 12-07-13 16:01 OP:ep   STATUS:               ID:20111001222411 L   I
 2011-10-01-2223-48S.COL___167                                                 6
 STAT SP IPHASW D HRMM SECON CODA AMPLIT PERI AZIMU VELO AIN AR TRES W  DIS CAZ7
 BTL  SZ EP       2224 31.19                             172    0.3210 20.3 318 
 BAR2 SZ EP       2224 30.76                             171   -0.1310 21.3 191 
 BAR2 SZ ES   1   2224 46.08                             171   -0.30 7 21.3 191 
 BAR2 SZ I        2224 48.54        12.5 0.30                          21.3 191 
 BRR  HZ EP       2224 32.68                             152    0.2110 72.2 300 
 BRR  HE ES   2   2224 49.83                             152    0.63 5 72.2 300 
 BRR  HZ I        2224 53.19         9.9 0.34                          72.2 300 
 PAM  SZ EP       2224 33.49                             150   -0.0910 79.0  39 
 PAM  SE ES   3   2224 50.36                             150   -0.81 2 79.0  39 
 RUS  HZ EP       2224 34.63                             145   -0.2210 98.5 176 
 RUS  HN ES   3   2224 53.77                             145    0.34 2 98.5 176 
 ZAR  HN ES   2   2225  8.17                             122   -1.01 4  205 293 
 ZAR  HZ I        2225 16.04         4.6 0.30                           205 293 
 NOR  SN ES   2   2225 14.27                             119   -0.35 4  233 235 
 CHI  HZ EP       2224 48.87                             118    0.24 8  247 195 
 CHI  HE ES   2   2225 18.23                             118    0.27 4  247 195 
                                                                                
