 2012  1 1 2020 20.7 L   7.168 -73.314124.7  RSN  6 0.3 1.9LRSN                1
 GAP=152        0.71       5.1     4.2  6.8 -0.2326E+01  0.8376E+01 -0.1068E+01E
 Epicentro: LEBRIJA - SANTANDER                                                3
 ACTION:UP  12-02-03 08:13 OP:REBC STATUS:               ID:20120101202020 L   I
 2012-01-01-2020-00M.COL___187                                                 6
 STAT SP IPHASW D HRMM SECON CODA AMPLIT PERI AZIMU VELO SNR AR TRES W  DIS CAZ7
 BRR  HZ EP       2020 38.19                             159     0.110   45 261 
 BRR  HE ES   1   2020 52.06                             159     0.3 7   45 261 
 BRR  HZ I        2020 52.77        23.1 0.14                            45 261 
 BAR2 SZ EP   1   2020 39.66                             151     0.1 7   65 167 
 BAR2 SZ ES   1   2020 54.58                             151     0.3 7   65 167 
 BAR2 SZ I        2020 55.17        18.6 0.17                            65 167 
 PAM  SZ EP   1   2020 39.92                             149    -0.3 7   70  74 
 PAM  SN ES   1   2020 55.26                             149    -0.2 7   70  74 
 RUS  HZ EP   2   2020 46.63                             128     0.4 5  143 170 
 RUS  HN ES   1   2021  5.87                             128    -0.2 7  143 170 
 PTB  HZ EP       2020 45.82                             127     0.2 9  144 241 
 PTB  HN ES   1   2021  4.46                             127    -0.7 7  144 241 
 PTB  HZ I        2021  8.25         0.0 0.14                           144 241 
 ZAR  HZ EP   2   2020 48.79                             122     0.1 4  174 282 
 ZAR  HZ I        2021 16.11         6.8 0.30                           174 282 
                                                                                
