 2012  8 1 2236 50.4 L   6.744 -73.166141.8  RSN  6 0.3 1.5LRSN                1
 GAP=136        0.71       4.5     4.2  6.4 -0.2878E+00  0.1588E+01  0.1117E+01E
 Epicentro: VILLANUEVA - SANTANDER                                             3
 ACTION:UPD 12-09-10 11:53 OP:ep   STATUS:               ID:20120801223650 L   I
 2012-08-01-2230-00M.COL___215                                                 6
 STAT SP IPHASW D HRMM SECON CODA AMPLIT PERI AZIMU VELO AIN AR TRES W  DIS CAZ7
 BAR2 SZ EP       2237  9.44                             173    0.0210 16.9 186 
 BAR2 SZ ES   1   2237 24.10                             173   -0.17 7 16.9 186 
 BAR2 SZ I        2237 25.41         9.5 0.18                          16.9 186 
 BRR  HZ EP   1   2237 11.58                             151    0.40 7 72.4 304 
 BRR  HZ I        2237 13.86         9.6 0.33                          72.4 304 
 BRR  HN ES   1   2237 28.07                             151    0.68 7 72.4 304 
 PAM  SZ EP       2237 12.48                             148   -0.0910 83.6  38 
 PAM  SN ES   1   2237 29.49                             148   -0.38 7 83.6  38 
 RUS  HZ EP       2237 13.45                             145    0.1310 94.6 174 
 RUS  HE ES   1   2237 31.33                             145    0.12 7 94.6 174 
 RUS  HZ I        2237 33.45         4.8 0.34                          94.6 174 
 PTB  HZ EP   1   2237 16.50                             132   -0.22 7  144 261 
 PTB  HN ES   1   2237 36.62                             132   -0.65 7  144 261 
 PTB  HZ I        2237 38.67         2.9 0.44                           144 261 
 ZAR  HN ES   2   2237 47.77                             121    0.03 4  204 294 
                                                                                
