 2016  5 1 2028 25.0 L   6.831 -73.142145.7  RSN 22 0.4 2.6LRSN                1
 GAP=118        0.89       2.1     3.1  4.2 -0.1495E+01  0.4825E+01 -0.4808E+00E
 Epicentro: LOS SANTOS - SANTANDER                                             3
 ACTION:UPD 16-08-18 17:41 OP:cam  STATUS:               ID:20160501202825 L   I
 OLDACT:UP  16-05-15 07:29 OP:ar   STATUS:               ID:20160501202825 L   3
 OLDACT:UP  16-05-02 03:10 OP:drio STATUS:               ID:20160501201746     3
 OLDACT:UP  16-05-02 03:09 OP:drio STATUS:               ID:20160501201746     3
 OLDACT:REG 16-05-02 02:44 OP:drio STATUS:               ID:20160501201746     3
 2016-05-01-2017-46M.COL___298                                                 6
 STAT SP IPHASW D HRMM SECON CODA AMPLIT PERI AZIMU VELO AIN AR TRES W  DIS CAZ7
 BAR2 EZ EP       2028 44.96                             169    0.2210 26.8 190 
 BAR2 EZ ES       2028 59.54                             169   -0.5710 26.8 190 
 BAR2 EZ I        2029  1.66        91.5 0.18            168           26.8 190 
 PAM  EZ EP       2028 47.77                             152    0.6810 74.5  41 
 PAM  EN ES       2029  4.79                             152    0.5210 74.5  41 
 PAM  EZ I        2029  7.12        89.2 0.48            155           74.5  41 
 RUS  HZ EP       2028 48.90                             143   -0.1410  104 176 
 RUS  HE ES       2029  7.92                             143    0.1710  104 176 
 RUS  HZ I        2029  9.17        49.4 0.42            145            104 176 
 PTB  HZ EP       2028 51.52                             132   -0.59 9  149 258 
 PTB  HN ES       2029 12.68                             132   -0.54 9  149 258 
 PTB  HZ I        2029 15.66        46.2 0.12            131            149 258 
 OCA  HZ EP       2028 52.89                             130   -0.15 9  157 353 
 OCA  HE ES       2029 14.93                             130    0.06 9  157 353 
 OCA  HZ I        2029 18.38        82.6 0.24            131            157 353 
 SPBC HZ EP       2028 53.83                             128    0.01 9  166 218 
 SPBC HN ES       2029 16.20                             128   -0.07 9  166 218 
 SPBC HZ I        2029 20.35        73.6 0.18            129            166 218 
 ZAR  HZ EP       2028 57.70                             122    0.30 9  203 291 
 ZAR  HE ES       2029 23.03                             122    0.40 9  203 291 
 ZAR  HZ I        2029 28.33        46.0 0.40            122            203 291 
 NOR  HZ EP       2029  1.02                             118   -0.01 8  237 234 
 NOR  HE ES       2029 29.28                             118    0.19 8  237 234 
 NOR  HZ I        2029 31.48        25.0 0.16            119            237 234 
 CHI  HZ EP       2029  3.13                             117    0.01 8  252 195 
 CHI  HE ES       2029 32.66                             117   -0.15 8  252 195 
 CHI  HZ I        2029 36.24        29.9 0.50            118            252 195 
 ROSC BZ EP   9   2029  5.01                             116    1.50 0  256 211 
 ROSC BE ES       2029 35.05                             116    0.04 8  256 211 
 ROSC BZ I        2029 39.40        59.9 0.45            118            256 211 
 HEL  HZ EP   4   2029  6.90                             115    1.50 0  273 255 
 HEL  HE ES   4   2029 34.18                             115   -2.69 0  273 255 
 HEL  HZ I        2029 43.04        27.8 0.30            115            273 255 
 URE  HZ EP       2029  5.41                             114   -0.61 7  283 291 
 URE  HN ES   4   2029 35.57                             114   -2.40 0  283 291 
 URE  HZ I        2029 47.66        17.1 0.28            114            283 291 
 LL1C HZ EP   4   2029  9.68                             112    1.42 0  303 351 
 LL1C HN ES   4   2029 45.53                             112    3.57 0  303 351 
 GUY2CHZ EP       2029  9.64                             112    0.72 7  304 234 
 GUY2CHE ES       2029 43.29                             112    0.15 7  304 234 
 GUY2CHZ I        2029 53.57        13.9 0.32                           304 234 
 VIL  SZ EP       2029  8.46                             112   -0.39 7  307 192 
 VIL  SE ES       2029 43.02                             112   -0.00 7  307 192 
 PTGC HZ EP   9   2029  8.01                             111   -1.24 0  312 159 
 PTGC HE ES       2029 42.02                             111   -0.47 7  312 159 
 LL6C HZ EP       2029  9.98                             111   -0.37 7  321 357 
 LL6C HZ ES       2029 45.07                             111   -0.62 7  321 357 
 LL6C HZ I        2029 50.95        14.2 0.42            112            321 357 
 CBOC HZ EP       2029 12.95                             110    0.82 7  335 252 
 CBOC HN ES   4   2029 50.10                             110    1.25 0  335 252 
 CBOC HZ I        2029 54.52         6.9 0.46            110            335 252 
 DBB  SZ EP       2029 12.43                             109   -0.11 7  340 274 
 DBB  SZ ES       2029 49.27                             109   -0.32 7  340 274 
 DBB  SZ I        2029 52.69        51.5 0.52            110            340 274 
 ORTC HZ EP       2029 19.27                             106   -0.05 6  398 216 
 ORTC HN ES   4   2030  2.78                             106    1.13 0  398 216 
 ORTC HZ I        2030  6.27        13.6 0.34            107            398 216 
 SJC  HZ EP   4   2029 18.80                             106   -1.50 0  407 327 
 SJC  HN ES   4   2030  0.16                             106   -3.23 0  407 327 
 SJC  HZ I        2030  8.06         7.3 0.42            107            407 327 
 PAL  HZ EP       2029 20.46                             106    0.00 6  408 239 
 PAL  HN ES       2030  4.45                             106    0.78 6  408 239 
 PAL  HZ I        2030 14.49         7.1 0.74            107            408 239 
 YOT  HZ EP       2029 27.58                             103   -0.82 5  474 229 
                                                                                
