 2013 12 1 2030 27.2 L   6.748 -73.161145.3  RSN  9 0.3 2.0LRSN                1
 GAP=150        0.76       4.8     3.4  4.9 -0.6115E+01  0.5022E+01  0.3558E+01E
 Epicentro: LOS SANTOS - SANTANDER                                             3
 ACTION:UPD 14-01-13 10:15 OP:ep   STATUS:               ID:20131201203027 L   I
 OLDACT:UP  13-12-01 21:30 OP:nd   STATUS:               ID:20131201203000     3
 OLDACT:UP  13-12-01 21:27 OP:nd   STATUS:               ID:20131201203000     3
 OLDACT:REG 13-12-01 21:11 OP:nd   STATUS:               ID:20131201203000     3
 2013-12-01-2030-00M.COL___282                                                 6
 STAT SP IPHASW D HRMM SECON CODA AMPLIT PERI AZIMU VELO AIN AR TRES W  DIS CAZ7
 BAR2 SZ EP       2030 46.53                             173   -0.1410 17.4 188 
 BAR2 SZ ES       2031  2.02                             173    0.1610 17.4 188 
 BAR2 SZ I        2031  3.57        52.0 0.24            171           17.4 188 
 BRR  HZ IP     C 2030 48.70                             152    0.3110 72.7 303 
 BRR  HN ES       2031  4.94                             152    0.0310 72.7 303 
 BRR  HZ I        2031  8.44        20.0 0.14            150           72.7 303 
 PAM  SZ EP       2030 49.71                             149   -0.0010 83.0  38 
 PAM  SN ES       2031  7.22                             149   -0.0510 83.0  38 
 PAM  SZ I        2031  9.25         8.6 0.50            154           83.0  38 
 PTB  HZ EP       2030 53.31                             132   -0.58 9  145 261 
 PTB  HN ES       2031 14.43                             132   -0.27 9  145 261 
 PTB  HZ I        2031 15.95        14.8 0.20            132            145 261 
 ZAR  HZ EP       2030 59.30                             122   -0.38 9  205 294 
 ZAR  HN ES       2031 25.19                             122    0.17 9  205 294 
 ZAR  HZ I        2031 32.99        11.6 0.52            123            205 294 
 NOR  HZ EP       2031  2.44                             119    0.04 8  230 235 
 NOR  HN ES       2031 29.85                             119    0.00 8  230 235 
 NOR  HZ I        2031 37.34         9.9 0.24            120            230 235 
 HEL  HZ EP       2031  7.92                             115    0.87 8  269 257 
 HEL  HN ES       2031 38.23                             115    0.09 8  269 257 
 HEL  HZ I        2031 46.16         5.8 0.30            116            269 257 
 GUY2CHZ EP   4   2031 12.04                             113    1.78 0  296 235 
 GUY2CHN ES   4   2031 47.44                             113    3.60 0  296 235 
 GUY2CHZ I        2031 52.95         6.2 0.62                           296 235 
 SJC  HZ EP   4   2031 21.49                             105   -1.72 0  413 328 
 SJC  HN ES   4   2032  1.84                             105   -5.05 0  413 328 
 SJC  HZ I        2032  4.91         1.6 0.52            107            413 328 
                                                                                
