 2010  6 1 2111 15.0 L   6.657 -72.913138.0  RSN  4 0.2 2.2LRSN                1
 GAP=229        0.34       5.4     9.9  5.0 -0.4504E+02 -0.5493E+01  0.6890E+01E
 Epicentro: MOLAGAVITA - SANTANDER                                             3
 ACTION:UP  10-08-24 10:07 OP:vdl  STATUS:               ID:20100601211115 L   I
 2010-06-01-2108-58S.COL___109                                                 6
 STAT SP IPHASW D HRMM SECON CODA AMPLIT PERI AZIMU VELO SNR AR TRES W  DIS CAZ7
 BAR2 SZ EP   1   2111 33.89                             167     0.0 7   31 256 
 BAR2 SZ ES   2   2111 48.60                             167     0.0 5   31 256 
 GIR2 SZ EP   2   2111 34.34                             157    -0.3 5   56 326 
 GIR2 SZ ES   2   2111 50.20                             157     0.1 5   56 326 
 GRA  SZ EP   2   2111 40.58                             133     0.1 5  136   5 
 GRA  SZ ES   1   2112  0.33                             133     0.0 7  136   5 
 RREF BZ EP   2   2112  2.29                             109     0.3 3  332 234 
 RREF BN ES   2   2112 38.54                             109    -0.1 3  332 234 
 RREF BZ I        2112 43.02         6.0 0.49                           332 234 
                                                                                
