 2015 11 1 2342  8.4 L   6.850 -73.147139.4  RSN  6 0.4 1.6LRSN                1
 GAP=134        0.85       3.2     4.1  6.4  0.7656E+00  0.8829E+01  0.8337E+00E
 Epicentro: LOS SANTOS - SANTANDER                                             3
 ACTION:UPD 15-12-28 16:08 OP:cam  STATUS:               ID:20151101234208 L   I
 OLDACT:REG 15-11-02 02:54 OP:drio STATUS:               ID:20151101233749     3
 2015-11-01-2337-49M.COL___310                                                 6
 STAT SP IPHASW D HRMM SECON CODA AMPLIT PERI AZIMU VELO AIN AR TRES W  DIS CAZ7
 BRR  HZ EP       2342 28.82                             152    0.1510 68.6 294 
 BRR  HN ES       2342 44.68                             152    0.1710 68.6 294 
 BRR  HZ I        2342 49.32        15.3 0.12            151           68.6 294 
 PAM  EZ EP       2342 29.85                             151    0.2010 73.2  42 
 PAM  EN ES       2342 46.50                             151    0.2510 73.2  42 
 PAM  EZ I        2342 48.41         7.0 0.32            154           73.2  42 
 RUS  HZ EP       2342 31.82                             141   -0.0910  106 176 
 RUS  HE ES       2342 49.78                             141   -0.4910  106 176 
 RUS  HZ I        2342 53.23         2.1 0.46            146            106 176 
 ZAR  HZ EP   4   2342 41.44                             121    1.27 0  202 291 
 ZAR  HN ES       2343  4.90                             121   -0.08 9  202 291 
 ZAR  HZ I        2343 10.26         5.2 0.44            123            202 291 
 SML  HZ EP       2342 43.43                             117   -0.64 8  239 335 
 SML  HE ES       2343 11.67                             117   -0.26 8  239 335 
 SML  HZ I        2343 20.13         5.6 0.10            119            239 335 
 GUY2CHZ EP       2342 52.88                             111    0.85 7  304 234 
 GUY2CHE ES       2343 26.11                             111    0.01 7  304 234 
                                                                                
