 2016  3 1 2119 53.6 L   6.776 -73.151138.4  RSN  5 0.4 1.5LRSN                1
 GAP=139        0.88       4.2     4.6  7.7 -0.5585E+01  0.1240E+02  0.6065E+01E
 Epicentro: LOS SANTOS - SANTANDER                                             3
 ACTION:UPD 16-05-13 21:20 OP:cam  STATUS:               ID:20160301211953 L   I
 OLDACT:REG 16-03-02 02:27 OP:drio STATUS:               ID:20160301211750     3
 2016-03-01-2117-50M.COL___319                                                 6
 STAT SP IPHASW D HRMM SECON CODA AMPLIT PERI AZIMU VELO AIN AR TRES W  DIS CAZ7
 PAM  EZ EP       2120 15.10                             148   -0.0810 79.8  39 
 PAM  EE ES       2120 32.37                             148    0.3510 79.8  39 
 PAM  EZ I        2120 34.33         5.4 0.56            153           79.8  39 
 RUS  HZ EP       2120 16.47                             143    0.0410 98.0 176 
 RUS  HN ES       2120 34.04                             143   -0.2010 98.0 176 
 RUS  HZ I        2120 36.35         2.8 0.18            147           98.0 176 
 PTB  HZ EP       2120 19.28                             130   -0.59 9  147 260 
 PTB  HN ES       2120 40.17                             130   -0.20 9  147 260 
 PTB  HZ I        2120 45.83         8.0 0.44            133            147 260 
 CHI  HZ EP       2120 30.28                             116   -0.31 8  246 195 
 CHI  HE ES       2120 59.57                             116    0.12 8  246 195 
 GUY2CHZ EP       2120 37.35                             111    0.71 7  299 235 
 GUY2CHN ES       2121 10.85                             111    0.63 7  299 235 
 GUY2CHZ I        2121 17.06         1.6 0.38                           299 235 
                                                                                
