 2012  6 1 2240 47.9 L   6.784 -73.158147.9  RSN  5 0.3 1.5LRSN                1
 GAP=136        0.69       5.0     4.3  7.7 -0.3844E+00  0.9813E+01 -0.3008E+01E
 Epicentro: LOS SANTOS - SANTANDER                                             3
 ACTION:UPD 12-08-06 17:46 OP:ep   STATUS:               ID:20120601224047 L   I
 2012-06-01-2240-00M.COL___201                                                 6
 STAT SP IPHASW D HRMM SECON CODA AMPLIT PERI AZIMU VELO AIN AR TRES W  DIS CAZ7
 BAR2 SZ EP   1   2241  7.84                             171    0.09 7 21.4 187 
 BAR2 SZ ES   1   2241 22.85                             171   -0.38 7 21.4 187 
 PAM  SZ EP   1   2241 10.62                             150    0.15 7 79.6  39 
 PAM  SZ I        2241 10.90         5.1 0.23            152           79.6  39 
 PAM  SN ES   1   2241 28.00                             150   -0.08 7 79.6  39 
 RUS  HZ EP   1   2241 11.79                             145    0.04 7 98.9 175 
 RUS  HN ES   1   2241 30.78                             145    0.44 7 98.9 175 
 RUS  HZ I        2241 32.09         5.2 0.34            144           98.9 175 
 PTB  HZ EP   1   2241 14.25                             133   -0.64 7  146 259 
 PTB  HN ES   1   2241 35.84                             133   -0.11 7  146 259 
 PTB  HZ I        2241 37.48         4.6 0.24            133            146 259 
 ZAR  HN ES   1   2241 46.36                             123    0.56 6  203 293 
                                                                                
