 2011  6 1 2116 26.4 L   6.804 -73.063152.0  RSN  6 0.2 1.8LRSN                1
 GAP=165        0.40       2.9     4.6  6.0 -0.5257E+01 -0.9262E+01  0.4744E+01E
 Epicentro: LOS SANTOS - SANTANDER                                             3
 ACTION:UP  11-07-14 19:02 OP:ep   STATUS:               ID:20110601211626 L   I
 2011-06-01-2112-27S.COL___113                                                 6
 STAT SP IPHASW D HRMM SECON CODA AMPLIT PERI AZIMU VELO SNR AR TRES W  DIS CAZ7
 BAR2 SZ EP   2   2116 46.60                             169    -0.2 5   27 209 
 BAR2 SZ I        2117  4.52        13.5 0.25                            27 209 
 BRR  HZ EP   1   2116 48.84                             151     0.2 7   79 295 
 BRR  HE ES   1   2117  6.08                             151     0.1 7   79 295 
 BRR  HZ I        2117  8.77        19.9 0.39                            79 295 
 RUS  HZ EP   1   2116 50.77                             145     0.0 7  101 181 
 RUS  HZ I        2116 51.39         4.0 0.17                           101 181 
 RUS  HN ES   2   2117  9.83                             145     0.1 5  101 181 
 BRI  SZ EP   2   2116 50.75                             143     0.1 5  105  16 
 GRA  SZ EP   1   2116 51.97                             139     0.0 7  123  13 
 GRA  SZ ES   1   2117 11.70                             139    -0.2 7  123  13 
 GRA  SZ I        2117 13.47         8.2 0.29                           123  13 
 NOR  SN ES   2   2117 31.63                             119    -0.4 4  242 236 
                                                                                
