 2013  4 1 2042 58.2 L   6.783 -73.128150.5  RSN  8 0.3 2.3LRSN                1
 GAP=140        0.69       2.8     3.3  4.7 -0.2301E+00  0.1679E+01 -0.2305E+00E
 Epicentro: LOS SANTOS - SANTANDER                                             3
 ACTION:UPD 13-05-22 14:35 OP:EP   STATUS:               ID:20130401204258 L   I
 2013-04-01-2040-00M.COL___245                                                 6
 STAT SP IPHASW D HRMM SECON CODA AMPLIT PERI AZIMU VELO AIN AR TRES W  DIS CAZ7
 BAR2 SZ EP       2043 18.27                             171   -0.0710 21.9 196 
 BAR2 SZ ES       2043 33.86                             171   -0.2110 21.9 196 
 BAR2 SZ I        2043 34.56        28.5 0.40            170           21.9 196 
 BRR  HZ EP       2043 20.14                             152    0.1610 73.8 299 
 BRR  HE ES       2043 37.59                             152    0.6110 73.8 299 
 BRR  HE I        2043 38.39        35.9 0.22            149           73.8 299 
 PAM  SZ EP       2043 21.05                             151    0.1510 77.6  38 
 PAM  SN ES       2043 38.45                             151   -0.1810 77.6  38 
 PAM  SN I        2043 39.61        34.9 0.44            152           77.6  38 
 RUS  HZ EP       2043 22.14                             145   -0.1110 98.6 177 
 RUS  HE ES       2043 41.08                             145    0.0510 98.6 177 
 RUS  HE I        2043 41.98        22.1 0.22            145           98.6 177 
 PTB  HZ EP   1   2043 25.37                             133   -0.30 7  149 260 
 PTB  HN ES       2043 46.57                             133   -0.54 9  149 260 
 PTB  HN I        2043 51.37        25.4 0.32            130            149 260 
 ZAR  HE ES   1   2043 57.02                             123    0.09 6  207 292 
 ZAR  HE I        2044  2.04        32.0 0.38            121            207 292 
 CHI  HZ EP   2   2043 36.48                             118    0.49 4  247 196 
 CHI  HN ES   1   2044  5.91                             118    0.42 6  247 196 
 CHI  HN I        2044  8.61         9.2 0.46            117            247 196 
 COD  HZ EP   2   2043 46.97                             110    0.00 3  350 354 
 COD  HN ES   1   2044 24.86                             110   -0.18 5  350 354 
 COD  HN I        2044 29.97         4.6 0.44            109            350 354 
                                                                                
