 2017  4 1 2019 19.6 L   6.829 -73.183143.1  RSN  6 0.3 1.7LRSN                1
 GAP=236        0.84       4.7     4.6  6.0  0.8559E+01  0.6256E+01  0.1645E+01E
 Epicentro: ZAPATOCA - SANTANDER                                               3
 ACTION:UPD 17-05-30 21:07 OP:jn   STATUS:               ID:20170401201919 L   I
 OLDACT:REG 17-04-02 03:08 OP:dani STATUS:               ID:20170401201747     3
 2017-04-01-2018-00M.COL___374                                                 6
 STAT SP IPHASW D HRMM SECON CODA AMPLIT PERI AZIMU VELO AIN AR TRES W  DIS CAZ7
 BAR2 HZ EP       2019 39.37                             169    0.4210 26.2 180 
 BAR2 HZ ES   1   2019 54.21                             169    0.15 7 26.2 180 
 BRR  HZ EP       2019 40.70                             154    0.5410 66.1 298 
 BRR  HN ES       2019 56.11                             154   -0.1010 66.1 298 
 RUS  HZ EP       2019 43.01                             142   -0.3310  104 174 
 RUS  HN ES       2020  1.57                             142   -0.2910  104 174 
 RUS  HZ I        2020  2.75         6.2 0.24            142            104 174 
 PTB  HZ EP       2019 45.54                             132   -0.49 9  144 257 
 PTB  HN ES       2020  6.69                             132    0.03 9  144 257 
 PTB  HZ I        2020 11.75         7.2 0.16            129            144 257 
 ZAR  HZ EP       2019 51.25                             122   -0.09 9  199 292 
 ZAR  HN ES       2020 15.77                             122   -0.34 9  199 292 
 ZAR  HZ I        2020 22.58         6.1 0.21            121            199 292 
 NOR  HZ EP       2019 55.13                             118    0.12 8  233 233 
 NOR  HE ES       2020 23.10                             118    0.46 8  233 233 
 NOR  HZ I        2020 27.92         5.2 0.17            117            233 233 
                                                                                
