 2010 11 1 2017 59.6 L   6.732 -73.050146.3  RSN  4 0.3 1.6LRSN                1
 GAP=170        0.67       4.7    10.5  9.4 -0.1091E+02 -0.1758E+02  0.1457E+00E
 Epicentro: ARATOCA - SANTANDER                                                3
 ACTION:UP  10-12-17 16:49 OP:REBC STATUS:               ID:20101101201759 L   I
 2010-11-01-2015-23S.COL___126                                                 6
 STAT SP IPHASW D HRMM SECON CODA AMPLIT PERI AZIMU VELO SNR AR TRES W  DIS CAZ7
 BAR2 SZ EP   1   2018 19.40                             171     0.1 7   21 224 
 BAR2 SZ I        2018 20.05        10.6 0.34                            21 224 
 BAR2 SZ ES   2   2018 35.16                             171     0.5 5   21 224 
 BRR  HZ EP   1   2018 21.38                             148    -0.2 7   84 300 
 BRR  HZ I        2018 21.72        14.9 0.12                            84 300 
 BRR  HE ES   2   2018 38.86                             148     0.1 5   84 300 
 RUS  HZ EP   1   2018 23.23                             146     0.3 7   93 182 
 RUS  HE ES   2   2018 40.35                             146    -0.7 5   93 182 
 RUS  HZ I        2018 43.36         3.5 0.43                            93 182 
 GRA  SZ EP   1   2018 25.35                             136     0.0 7  130  12 
 GRA  SZ ES   1   2018 45.17                             136    -0.2 7  130  12 
 GRA  SZ I        2018 46.39         5.1 0.25                           130  12 
                                                                                
