 2017 12 1 2159 42.8 L   6.782 -73.150142.8  RSN  9 0.5 1.9LRSN                1
 GAP=137        1.06       4.2     4.5  7.1 -0.4309E+01  0.1328E+02 -0.1044E+00E
 Epicentro: LOS SANTOS - SANTANDER                                             3
 ACTION:UPD 18-01-04 13:16 OP:rebc STATUS:               ID:20171201215942 L   I
 OLDACT:REG 17-12-02 03:56 OP:osc  STATUS:               ID:20171201215309     3
 2017-12-01-2158-00M.COL___471                                                 6
 STAT SP IPHASW D HRMM SECON CODA AMPLIT PERI AZIMU VELO AIN AR TRES W  DIS CAZ7
 BAR2 EZ EP       22 0  2.06                             171    0.0010 21.3 190 
 BAR2 EZ ES       22 0 16.75                             171   -0.3110 21.3 190 
 BAR2 EZ I        22 0 18.23        30.1 0.36            170           21.3 190 
 PAM  EZ EP       22 0  4.91                             150    0.0710 79.2  39 
 PAM  EN ES       22 0 22.28                             150    0.2710 79.2  39 
 PAM  EZ I        22 0 24.17        16.4 0.58            154           79.2  39 
 RUS  HZ EP       22 0  6.10                             144   -0.0510 98.6 176 
 RUS  HN ES       22 0 24.44                             144    0.1110 98.6 176 
 RUS  HZ I        22 0 25.56         8.7 0.24            147           98.6 176 
 PTB  HZ EP       22 0  8.77                             131   -0.71 9  147 260 
 PTB  HN ES       22 0 30.06                             131   -0.21 9  147 260 
 PTB  HZ I        22 0 33.16         9.5 0.16            132            147 260 
 SPBC HZ EP       22 0 11.16                             129    0.23 9  161 219 
 SPBC HE ES       22 0 32.82                             129   -0.02 9  161 219 
 SPBC HZ I        22 0 38.56        11.3 0.12            130            161 219 
 ZAR  HZ EP       22 0 15.70                             122    0.58 9  204 293 
 ZAR  HN ES       22 0 40.47                             122    0.16 9  204 293 
 ZAR  HZ I        22 0 46.80        10.4 0.22            122            204 293 
 NOR  HZ EP       22 0 17.33                             118   -0.90 8  233 235 
 NOR  HE ES       22 0 45.89                             118    0.06 8  233 235 
 NOR  HZ I        22 0 52.18         4.9 0.04            119            233 235 
 GUY2CHE ES   2   22 1  2.21                             112    2.30 4  300 235 
 PRA  HE ES       22 1 18.29                             106    0.78 6  390 210 
                                                                                
