 2017  9 1 2129 30.5 L   6.752 -73.102146.0  RSN  6 0.2 1.6LRSN                1
 GAP=238        0.46       3.1     4.3  3.8  0.6656E+01  0.3729E+01  0.1306E+01E
 Epicentro: LOS SANTOS - SANTANDER                                             3
 ACTION:UPD 17-10-05 19:08 OP:rebc STATUS:               ID:20170901212930 L   I
 OLDACT:UP  17-09-02 06:02 OP:mg   STATUS:               ID:20170901212747     3
 OLDACT:REG 17-09-02 03:35 OP:mg   STATUS:               ID:20170901212747     3
 2017-09-01-2128-00M.COL___408                                                 6
 STAT SP IPHASW D HRMM SECON CODA AMPLIT PERI AZIMU VELO AIN AR TRES W  DIS CAZ7
 BAR2 EZ EP   1   2129 49.97                             172   -0.09 7 19.7 207 
 BAR2 EZ ES   2   2130  4.56                             172   -0.78 5 19.7 207 
 BAR2 EZ I        2130  6.88         5.6 0.23            165           19.7 207 
 BRR  HZ EP       2129 52.22                             150    0.1810 78.0 300 
 BRR  HN ES       2130  8.97                             150    0.1010 78.0 300 
 BRR  HZ I        2130 10.03        15.4 0.40            147           78.0 300 
 RUS  HZ EP     D 2129 53.79                             145   -0.0610 95.0 179 
 RUS  HN ES       2130 12.26                             145    0.1810 95.0 179 
 RUS  HZ I        2130 14.07         4.6 0.30            145           95.0 179 
 SPBC HZ EP   2   2129 58.69                             129   -0.20 5  162 222 
 SPBC HN ES   2   2130 20.90                             129   -0.16 5  162 222 
 SPBC HZ I        2130 23.07         6.0 0.09            128            162 222 
 ZAR  HZ EP   1   2130  3.53                             122   -0.07 6  211 293 
 ZAR  HE ES   2   2130 29.15                             122   -0.29 4  211 293 
 ZAR  HZ I        2130 34.91         5.8 0.39            121            211 293 
 NOR  HZ EP       2130  6.23                             118   -0.08 8  236 236 
 NOR  HE ES   2   2130 34.52                             118    0.26 4  236 236 
 NOR  HZ I        2130 38.88         2.3 0.26            118            236 236 
                                                                                
