 2017  3 1 2211 20.6 L   5.875 -73.629125.0  RSN  5 0.3 1.3LRSN                1
 GAP=125        0.72       3.0     3.3  7.0  0.3089E+01  0.8181E+01  0.1941E+01E
 Epicentro: PUENTE NACIONAL - SANTANDER                                        3
 ACTION:UPD 17-05-25 18:34 OP:jn   STATUS:               ID:20170301221120 L   I
 OLDACT:REG 17-03-02 03:17 OP:cog  STATUS:               ID:20170301220747     3
 2017-03-01-2208-00M.COL___390                                                 6
 STAT SP IPHASW D HRMM SECON CODA AMPLIT PERI AZIMU VELO AIN AR TRES W  DIS CAZ7
 RUS  HZ EP       2211 39.84                             153    0.2310 60.5  88 
 RUS  HN ES       2211 54.23                             153   -0.2210 60.5  88 
 PTB  HZ EP       2211 42.86                             134   -0.2710  117 309 
 PTB  HE ES       2212  1.23                             134    0.5310  117 309 
 PTB  HZ I        2212  3.59         2.5 0.12            136            117 309 
 CHI  HZ EP       2211 45.78                             129    0.21 9  138 185 
 CHI  HN ES       2212  4.91                             129   -0.13 9  138 185 
 CHI  HZ I        2212  7.56         2.1 0.28            131            138 185 
 NOR  HZ EP       2211 45.47                             128    0.06 9  142 256 
 NOR  HN ES       2212  4.61                             128   -0.15 9  142 256 
 NOR  HZ I        2212  7.29         6.1 0.12            130            142 256 
 ZAR  HN ES       2212 19.74                             115   -0.37 8  225 323 
                                                                                
