 2012  4 1 2205 54.3 L   6.736 -73.115134.0  RSN  6 0.4 1.7LRSN                1
 GAP=143        0.82       7.7     5.0 13.0 -0.4140E+01  0.1829E+02  0.2601E+02E
 Epicentro: JORDAN - SANTANDER                                                 3
 ACTION:UPD 12-07-05 11:49 OP:tino STATUS:               ID:20120401220554 L   I
 2012-04-01-2200-00M.COL___196                                                 6
 STAT SP IPHASW D HRMM SECON CODA AMPLIT PERI AZIMU VELO AIN AR TRES W  DIS CAZ7
 BAR2 SZ EP   1   22 6 12.36                             172     0.0 7   18 205 
 BAR2 SZ I        22 6 33.93        33.5 0.98                            18 205 
 BRR  HZ EP   2   22 6 13.98                             148    -0.6 5   78 302 
 BRR  HZ I        22 6 14.59        17.2 0.12                            78 302 
 PAM  SZ EP       22 6 15.32                             147    -0.210   81  34 
 PAM  SN ES   1   22 6 32.30                             147     0.3 7   81  34 
 PAM  SZ I        22 6 33.70         3.4 0.20                            81  34 
 RUS  HZ EP   1   22 6 16.42                             143     0.1 7   93 178 
 RUS  HZ I        22 6 34.89        10.7 0.63                            93 178 
 PTB  HZ EP   2   22 6 20.07                             129    -0.5 5  150 262 
 PTB  HZ I        22 6 28.33         4.5 0.69                           150 262 
 PTB  HE ES   1   22 6 41.13                             129     0.1 7  150 262 
 ZAR  HZ EP   1   22 6 27.44                             119     0.8 6  210 294 
 ZAR  HE ES   1   22 6 51.50                             119    -0.3 6  210 294 
                                                                                
