 2011  6 1 2138 52.8 L   6.765 -73.110138.3  RSN 13 0.4 2.7LRSN                1
 GAP=129        0.73       3.7     4.4  5.1 -0.8040E+01  0.2770E+01  0.9452E+00E
 Epicentro: LOS SANTOS - SANTANDER                                             3
 ACTION:UP  11-07-14 19:02 OP:ep   STATUS:               ID:20110601213853 L   I
 2011-06-01-2137-47S.COL___113                                                 6
 STAT SP IPHASW D HRMM SECON CODA AMPLIT PERI AZIMU VELO SNR AR TRES W  DIS CAZ7
 BAR2 SZ IP       2139 11.59                             171     0.210   21 203 
 BAR2 SZ ES   1   2139 25.78                             171    -0.2 7   21 203 
 BAR2 SZ I        2139 28.71       144.1 0.22                            21 203 
 BRR  HZ IP     C 2139 13.47                             149     0.110   76 300 
 BRR  HZ I        2139 13.85       158.6 0.07                            76 300 
 BRR  HE ES   1   2139 29.74                             149     0.2 7   76 300 
 PAM  SZ EP       2139 14.46                             149     0.210   78  36 
 PAM  SN ES   2   2139 30.96                             149     0.0 5   78  36 
 RUS  HZ EP       2139 15.60                             143     0.110   97 178 
 RUS  HN ES   2   2139 32.96                             143    -0.2 5   97 178 
 RUS  HZ I        2139 36.43        65.8 0.29                            97 178 
 BRI  SZ EP   1   2139 16.15                             139     0.0 7  111  18 
 GRA  SZ EP       2139 17.49                             134    -0.110  128  15 
 GRA  SZ ES   1   2139 36.59                             134    -0.3 7  128  15 
 GRA  SZ I        2139 37.89        69.5 0.33                           128  15 
 OCA  SZ EP   2   2139 21.75                             127     0.8 5  165 352 
 OCA  SZ I        2139 47.31        43.0 0.25                           165 352 
 NOR  SZ EP   1   2139 27.72                             116    -0.4 6  236 236 
 NOR  SN ES   1   2139 55.32                             116    -0.5 6  236 236 
 HEL  HZ EP   1   2139 33.47                             113     0.6 6  275 257 
 HEL  HE ES   2   2140  3.69                             113    -0.6 4  275 257 
 HEL  HZ I        2140 10.10        34.0 0.48                           275 257 
 DBB  SZ EP   1   2139 39.98                             108    -0.4 5  344 275 
 TOL  SZ EP   1   2139 41.27                             108     0.5 5  344 226 
 SDV  BZ EP   1   2139 41.42                                    -1.0 5  360  49 
 SDV  BZ I        2140 23.86        15.3 0.63                           360  49 
 PRA  HZ EP   2   2139 45.35                             105    -0.5 3  391 210 
 PRA  HE ES   2   2140 27.82                             105     0.5 3  391 210 
                                                                                
