 2012  2 1 2207 49.1 L   6.758 -73.148143.9  RSN  6 0.3 1.6LRSN                1
 GAP=138        0.59       4.4     4.7  6.0 -0.1642E+01  0.4635E+01  0.6008E+01E
 ACTION:UP  12-03-07 16:26 OP:epov STATUS:               ID:20120201220749 L   I
 2012-02-01-2200-00M.COL___187                                                 6
 STAT SP IPHASW D HRMM SECON CODA AMPLIT PERI AZIMU VELO SNR AR TRES W  DIS CAZ7
 BAR2 SZ EP       22 8  8.45                             172    0.0310 18.7 192 
 BAR2 SZ ES   2   22 8 23.24                             172   -0.25 5 18.7 192 
 BAR2 SZ I        22 8 24.50         9.4 0.30                          18.7 192 
 GIR2 SZ EP       22 8  8.66                             165   -0.0310 35.8 352 
 BRR  HZ EP       22 8 10.24                             151    0.0710 73.3 302 
 BRR  HZ I        22 8 11.96        17.2 0.42                          73.3 302 
 BRR  HN ES   1   22 8 26.90                             151    0.30 7 73.3 302 
 PAM  SZ EP       22 8 11.68                             149    0.3310 81.2  38 
 PAM  SN ES   1   22 8 28.22                             149   -0.49 7 81.2  38 
 RUS  HZ EP       22 8 12.29                             145   -0.0510 96.0 176 
 RUS  HZ I        22 8 13.29         3.4 0.28                          96.0 176 
 RUS  HN ES   2   22 8 30.81                             145    0.35 5 96.0 176 
 PTB  HZ EP       22 8 15.51                             132   -0.31 9  147 261 
 PTB  HZ I        22 8 39.34         4.9 0.12                           147 261 
                                                                                
