 2017  4 1 2131 52.4 L   6.802 -73.137147.3  RSN  7 0.5 1.7LRSN                1
 GAP=138        1.05       4.9     5.0  7.2  0.1235E+00  0.1277E+02  0.3509E+00E
 Epicentro: LOS SANTOS - SANTANDER                                             3
 ACTION:UPD 17-05-30 21:07 OP:jn   STATUS:               ID:20170401213152 L   I
 OLDACT:UP  17-04-02 05:16 OP:dani STATUS:               ID:20170401212742     3
 OLDACT:UP  17-04-02 05:00 OP:dani STATUS:               ID:20170401212742     3
 OLDACT:UP  17-04-02 05:00 OP:dani STATUS:               ID:20170401212742     3
 OLDACT:REG 17-04-02 03:12 OP:dani STATUS:               ID:20170401212742     3
 2017-04-01-2128-00M.COL___374                                                 6
 STAT SP IPHASW D HRMM SECON CODA AMPLIT PERI AZIMU VELO AIN AR TRES W  DIS CAZ7
 BAR2 EZ EP       2132 12.09                             170   -0.1010 23.7 192 
 BAR2 EZ ES       2132 27.76                             170    0.1110 23.7 192 
 BRR  HZ EP       2132 13.74                             152    0.0110 71.9 298 
 BRR  HN ES       2132 30.32                             152   -0.0610 71.9 298 
 BRR  HZ I        2132 30.59        12.5 0.31            150           71.9 298 
 PAM  EZ EP       2132 14.90                             152    0.2010 76.6  39 
 PAM  EN ES       2132 31.83                             152   -0.2910 76.6  39 
 PAM  EZ I        2132 33.93        12.7 0.50            153           76.6  39 
 RUS  HZ EP       2132 15.85                             144   -0.4410  101 177 
 RUS  HN ES       2132 35.33                             144    0.3910  101 177 
 RUS  HZ I        2132 36.36         3.3 0.42            146            101 177 
 PTB  HZ EP       2132 18.77                             132   -0.78 9  149 259 
 PTB  HE ES   3   2132 38.47                             132   -2.28 2  149 259 
 PTB  HZ I        2132 42.93         4.2 0.42            132            149 259 
 YPLC HZ EP   4   2132 22.57                             127    0.32 0  177 152 
 YPLC HE ES   4   2132 47.06                             127    1.50 0  177 152 
 ZAR  HZ EP       2132 25.88                             123    0.88 9  205 292 
 ZAR  HE ES       2132 50.69                             123    0.24 9  205 292 
 ZAR  HZ I        2132 58.62         5.3 0.31            122            205 292 
 NOR  HN ES       2132 56.57                             119    0.27 8  236 235 
                                                                                
