 2014  1 1 2359  6.4 L   6.801 -73.098147.3  RSN  4 0.3 1.4LRSN                1
 GAP=143        0.88       4.5     6.9  7.3  0.1903E+01  0.3952E+01 -0.3030E+01E
 Epicentro: LOS SANTOS - SANTANDER                                             3
 ACTION:UPD 14-03-13 09:50 OP:ep   STATUS:               ID:20140101235906 L   I
 OLDACT:REG 14-01-02 00:39 OP:nd   STATUS:               ID:20140101235736     3
 2014-01-01-2357-36M.COL___243                                                 6
 STAT SP IPHASW D HRMM SECON CODA AMPLIT PERI AZIMU VELO AIN AR TRES W  DIS CAZ7
 PAM  SZ EP       2359 28.89                             152    0.3310 74.0  36 
 PAM  SN ES       2359 45.74                             152   -0.1210 74.0  36 
 PAM  SZ I        2359 48.07         4.7 0.60            156           74.0  36 
 BRR  HZ EP       2359 27.98                             151    0.0210 75.8 297 
 BRR  HN ES       2359 45.02                             151    0.2310 75.8 297 
 BRR  HZ I        2359 50.72         4.5 0.22            150           75.8 297 
 RUS  HZ EP       2359 30.64                             144    0.3710  100 179 
 RUS  HN ES       2359 48.45                             144   -0.4610  100 179 
 RUS  HZ I        2359 51.10         2.8 0.32            148            100 179 
 SML  HZ EP       2359 42.71                             117   -0.61 8  246 334 
 SML  HN ES   4   24 0  9.94                             117   -2.20 0  246 334 
 SML  HZ I        24 0 14.48         3.4 0.26            120            246 334 
                                                                                
