 2015 11 1 2159 52.4 L   6.781 -73.183142.3  RSN  5 0.4 1.5LRSN                1
 GAP=133        0.91       4.0     4.8  7.0  0.5099E+01  0.8010E+01 -0.3957E+01E
 Epicentro: LOS SANTOS - SANTANDER                                             3
 ACTION:UPD 15-12-28 16:08 OP:cam  STATUS:               ID:20151101215952 L   I
 OLDACT:REG 15-11-02 02:50 OP:drio STATUS:               ID:20151101215750     3
 2015-11-01-2157-50M.COL___306                                                 6
 STAT SP IPHASW D HRMM SECON CODA AMPLIT PERI AZIMU VELO AIN AR TRES W  DIS CAZ7
 BRR  HZ EP       22 0 13.20                             153    0.1610 68.7 302 
 BRR  HN ES       22 0 29.30                             153    0.1710 68.7 302 
 PAM  EZ EP       22 0 14.23                             149   -0.2810 81.6  41 
 PAM  EN ES       22 0 31.69                             149   -0.0710 81.6  41 
 PAM  EZ I        22 0 33.46         6.1 0.50            151           81.6  41 
 RUS  HZ EP       22 0 15.46                             144   -0.2310 98.9 174 
 RUS  HN ES       22 0 34.03                             144    0.1710 98.9 174 
 RUS  HZ I        22 0 35.63         1.4 0.48            147           98.9 174 
 ZAR  HZ EP       22 0 25.02                             122    0.70 9  201 293 
 ZAR  HN ES       22 0 48.44                             122   -0.77 9  201 293 
 ZAR  HZ I        22 0 56.04         3.3 0.36            122            201 293 
 SML  HZ EP       22 0 28.70                             117   -0.16 8  244 336 
 SML  HN ES       22 0 57.66                             117    0.36 8  244 336 
 SML  HZ I        22 1  3.99         5.2 0.24            117            244 336 
                                                                                
