 2012 10 1 2128  6.9 L   6.793 -73.159147.5  RSN  7 0.3 2.2LRSN                1
 GAP=135        0.69       4.2     3.9  6.1  0.1102E+01  0.2205E+00  0.2571E-01E
 Epicentro: LOS SANTOS - SANTANDER                                             3
 ACTION:UPD 12-11-22 17:01 OP:ep   STATUS:               ID:20121001212806 L   I
 2012-10-01-2120-00M.COL___193                                                 6
 STAT SP IPHASW D HRMM SECON CODA AMPLIT PERI AZIMU VELO AIN AR TRES W  DIS CAZ7
 BAR2 SZ EP   1   2128 26.21                             171   -0.47 7 22.4 187 
 BAR2 SZ ES   1   2128 42.07                             171   -0.07 7 22.4 187 
 BAR2 SZ I        2128 43.14        17.9 0.24                          22.4 187 
 GIR2 SZ EP       2128 26.77                             167    0.0110 31.8 353 
 GIR2 SZ ES   2   2128 42.22                             167   -0.05 5 31.8 353 
 BRR  HZ EP       2128 28.35                             153    0.2010 70.3 300 
 BRR  HN ES   1   2128 45.22                             153    0.46 7 70.3 300 
 BRR  HN I        2128 45.62        77.4 0.22                          70.3 300 
 PAM  SZ EP       2128 29.50                             151    0.1510 78.9  40 
 PAM  SN ES   1   2128 46.49                             151   -0.41 7 78.9  40 
 PAM  SE I        2128 48.48        26.7 0.54                          78.9  40 
 RUS  HZ EP       2128 30.68                             144   -0.0610 99.9 175 
 RUS  HE ES   1   2128 49.79                             144    0.43 7 99.9 175 
 PTB  HN ES   1   2128 54.22                             133   -0.65 7  146 259 
 PTB  HN I        2128 55.58        18.6 0.30                           146 259 
 ZAR  HN ES   1   2129  4.78                             123    0.15 6  203 292 
 ZAR  HN I        2129 11.91        15.2 0.38                           203 292 
                                                                                
