 2015 12 1 2157 59.5 L   6.808 -73.128149.5  RSN 14 0.4 2.2LRSN                1
 GAP=138        0.93       2.8     3.3  4.7 -0.1460E+01  0.5953E+01  0.4442E+00E
 Epicentro: LOS SANTOS - SANTANDER                                             3
 ACTION:UPD 16-02-04 15:01 OP:cam  STATUS:               ID:20151201215759 L   I
 OLDACT:DUP 15-12-02 07:15 OP:ak   STATUS:               ID:20151201214749d    3
 2015-12-01-2147-47M.COL___315                                                 6
 STAT SP IPHASW D HRMM SECON CODA AMPLIT PERI AZIMU VELO AIN AR TRES W  DIS CAZ7
 BAR2 EZ EP       2158 19.57                             170   -0.0810 24.6 194 
 BAR2 EZ ES       2158 35.15                             170   -0.1810 24.6 194 
 BAR2 EZ I        2158 37.42        16.4 0.31            168           24.6 194 
 BRR  HZ EP       2158 21.81                             153    0.6410 72.6 297 
 BRR  HN ES       2158 38.35                             153    0.3110 72.6 297 
 BRR  HZ I        2158 40.23        16.1 0.14            151           72.6 297 
 PAM  EZ EP       2158 22.39                             152    0.3510 75.4  39 
 PAM  EN ES       2158 39.95                             152    0.3510 75.4  39 
 PAM  EZ I        2158 42.01        18.4 0.42            157           75.4  39 
 RUS  HZ EP       2158 23.48                             144   -0.2410  101 177 
 RUS  HN ES       2158 42.20                             144   -0.3710  101 177 
 RUS  HZ I        2158 43.52         9.9 0.42            146            101 177 
 PTB  HZ EP       2158 26.16                             132   -0.85 9  150 259 
 PTB  HN ES       2158 47.92                             132   -0.51 9  150 259 
 PTB  HZ I        2158 55.23        20.4 0.50            132            150 259 
 SPBC HZ EP       2158 28.19                             129   -0.32 9  165 219 
 SPBC HN ES       2158 51.17                             129    0.06 9  165 219 
 SPBC HZ I        2158 57.84        29.9 0.36            130            165 219 
 ZAR  HZ EP       2158 33.04                             123    0.65 8  206 292 
 ZAR  HN ES       2158 57.65                             123   -0.36 8  206 292 
 ZAR  HZ I        2159  3.31        22.2 0.40            124            206 292 
 NOR  HZ EP       2158 35.82                             119    0.10 8  237 235 
 NOR  HN ES       2159  4.53                             119    0.60 8  237 235 
 NOR  HZ I        2159 10.97        13.0 0.36            120            237 235 
 SML  HZ EP       2158 35.95                             118   -0.43 8  244 335 
 SML  HN ES       2159  4.70                             118   -0.42 8  244 335 
 SML  HZ I        2159  9.46        24.7 0.22            120            244 335 
 HEL  HZ EP   2   2158 39.77                             115   -0.41 4  274 256 
 HEL  HE ES       2159 12.22                             115    0.34 8  274 256 
 URE  HN ES   4   2159 10.31                             114   -2.96 0  285 292 
 GUY2CHZ EP   1   2158 43.90                             113    0.34 5  303 235 
 GUY2CHN ES       2159 18.03                             113    0.13 7  303 235 
 GUY2CHZ I        2159 26.92         6.4 0.56                           303 235 
 ELA  HZ EP   1   2158 46.85                             111    0.06 5  331 230 
 ELA  HN ES       2159 24.16                             111    0.52 7  331 230 
 ELA  HZ I        2159 31.00         4.7 0.30            112            331 230 
 DBB  SZ EP       2158 46.99                             110   -0.40 7  341 274 
 DBB  SZ ES       2159 24.77                             110    0.05 7  341 274 
 DBB  SZ I        2159 26.23        21.1 0.42            111            341 274 
 PRA  HZ EP       2158 53.89                             107    0.50 6  394 210 
 PRA  HN ES       2159 35.16                             107   -0.24 6  394 210 
 PRA  HZ I        2159 41.42         7.5 0.32            108            394 210 
                                                                                
