 2011  1 1 2244 24.2 L   6.820 -73.116136.1  RSN  8 0.3 1.6LRSN                1
 GAP=138        0.57       3.2     7.6  8.6 -0.9231E+01  0.2486E+02 -0.1218E+01E
 Epicentro: LOS SANTOS - SANTANDER                                             3
 ACTION:UP  11-02-08 08:37 OP:pat  STATUS:               ID:20110101224424 L   I
 2011-01-01-2240-00M.COL___137                                                 6
 STAT SP IPHASW D HRMM SECON CODA AMPLIT PERI AZIMU VELO SNR AR TRES W  DIS CAZ7
 BTL  SZ IP       2244 42.86                             171     0.310   20 303 
 RUS  HZ EP   1   2244 46.95                             141    -0.2 7  103 178 
 RUS  HN ES   1   2245  5.01                             141    -0.1 7  103 178 
 RUS  HZ I        2245  7.23         4.1 0.43                           103 178 
 GRA  SZ EP   2   2244 47.98                             136    -0.3 5  123  16 
 GRA  SZ ES   1   2245  7.18                             136     0.0 7  123  16 
 GRA  SZ I        2245  8.43         6.4 0.36                           123  16 
 OCA  SZ EP   2   2244 51.24                             128    -0.4 5  159 352 
 OCA  SZ I        2245 18.26         7.8 0.07                           159 352 
 YOP  SZ EP   2   2244 53.61                             124     0.0 4  180 155 
 YOP  SZ I        2245 14.48         4.5 0.27                           180 155 
 NOR  SE ES   2   2245 27.00                             116    -0.6 4  239 235 
 CHI  HZ EP   2   2245  1.58                             115    -0.1 4  252 196 
 CHI  HE ES   2   2245 31.39                             115     0.4 4  252 196 
 CHI  HZ I        2245 38.40         2.9 0.40                           252 196 
 HEL  HZ EP   2   2245  4.84                             113     0.5 4  276 256 
 HEL  HZ I        2245 40.08         3.5 0.38                           276 256 
                                                                                
