 2017  1 1 2051 21.7 L   6.779 -73.154146.0  RSN  9 0.4 1.6LRSN                1
 GAP=136        0.90       3.9     4.2  6.7 -0.3010E+01  0.3402E+01  0.8680E+01E
 Epicentro: LOS SANTOS - SANTANDER                                             3
 ACTION:UPD 17-05-22 15:54 OP:jn   STATUS:               ID:20170101205121 L   I
 OLDACT:UP  17-01-02 03:39 OP:dani STATUS:               ID:20170101204749     3
 OLDACT:UP  17-01-02 03:39 OP:dani STATUS:               ID:20170101204749     3
 OLDACT:REG 17-01-02 02:31 OP:dani STATUS:               ID:20170101204749     3
 2017-01-01-2048-00M.COL___378                                                 6
 STAT SP IPHASW D HRMM SECON CODA AMPLIT PERI AZIMU VELO AIN AR TRES W  DIS CAZ7
 BAR2 EZ EP       2051 41.28                             171   -0.0410 20.8 189 
 BAR2 EZ I        2051 59.04        17.9 0.30            172           20.8 189 
 BRR  HZ EP       2051 43.00                             153    0.0910 71.6 301 
 BRR  HN ES       2052  0.15                             153    0.7110 71.6 301 
 BRR  HZ I        2052  4.07        10.1 0.28            152           71.6 301 
 PAM  EZ EP       2051 44.12                             150    0.0210 79.8  39 
 PAM  EN ES       2052  1.26                             150   -0.3010 79.8  39 
 PAM  EZ I        2052  4.10         5.1 0.27            150           79.8  39 
 RUS  HZ EP       2051 45.22                             145   -0.1010 98.3 175 
 RUS  HE ES       2052  3.98                             145    0.2410 98.3 175 
 RUS  HZ I        2052  5.11         4.5 0.32            145           98.3 175 
 PTB  HZ EP       2051 47.96                             133   -0.62 9  146 260 
 PTB  HN ES       2052  8.99                             133   -0.54 9  146 260 
 PTB  HZ I        2052 12.09         2.8 0.25            132            146 260 
 ZAR  HZ EP   3   2051 56.33                             123    2.15 2  204 293 
 ZAR  HN ES   3   2052 19.02                             123   -0.48 2  204 293 
 ZAR  HZ I        2052 24.45         4.2 0.30            122            204 293 
 NOR  HZ EP       2051 57.43                             119    0.20 8  233 235 
 NOR  HE ES       2052 25.15                             119    0.22 8  233 235 
 NOR  HZ I        2052 30.74         2.0 0.24            119            233 235 
 CHI  HZ EP       2051 59.39                             118    0.24 8  246 195 
 CHI  HN ES       2052 28.15                             118   -0.20 8  246 195 
 CHI  HZ I        2052 32.77         2.4 0.42            118            246 195 
 GUY2CHE ES   4   2052 43.47                             113    4.54 0  299 235 
 GUY2CHZ  IAML    2052 47.45         2.5 0.28                           299 235 
                                                                                
