 2013  6 1 2130 26.0 L   6.518 -73.607113.7  RSN  5 0.3 1.2LRSN                1
 GAP= 93        0.67       3.9     3.0  6.8  0.1129E+01  0.2044E+01  0.9208E+01E
 Epicentro: SANTA HELENA DEL OPON - SANTANDER                                  3
 ACTION:UPD 14-01-08 09:51 OP:ep   STATUS:               ID:20130601213026 L   I
 2013-06-01-2130-00M.COL___261                                                 6
 STAT SP IPHASW D HRMM SECON CODA AMPLIT PERI AZIMU VELO AIN AR TRES W  DIS CAZ7
 BAR2 SZ EP       2130 42.54                             156   -0.1410 47.7  80 
 BAR2 SZ ES       2130 55.71                             156   -0.0110 47.7  80 
 BAR2 SZ I        2130 56.24         4.7 0.28            160           47.7  80 
 BRR  HZ EP       2130 43.42                             147    0.0110 66.2 350 
 BRR  HN ES       2130 57.36                             147    0.3410 66.2 350 
 BRR  HZ I        2131  0.86         4.9 0.46            149           66.2 350 
 RUS  HZ EP       2130 45.88                             139    0.0210 90.2 140 
 RUS  HN ES   1   2131  1.27                             139   -0.11 7 90.2 140 
 RUS  HZ I        2131  2.19         1.7 0.72            141           90.2 140 
 PTB  HN ES       2131  0.33                             137   -0.4210 94.0 272 
 PTB  HZ I        2131  1.81         4.3 0.16            137           94.0 272 
 NOR  HN ES   1   2131 15.44                             118    0.58 7  175 233 
 NOR  HZ I        2131 20.06         1.6 0.20            119            175 233 
                                                                                
