 2016  8 1 2136 50.5 L   6.853 -73.282118.2  RSN 11 0.4 2.1LRSN                1
 GAP=109        0.86       3.2     2.9  5.1 -0.4874E+00  0.4054E+01  0.2491E+01E
 Epicentro: ZAPATOCA - SANTANDER                                               3
 ACTION:UPD 16-10-29 15:31 OP:rebc STATUS:               ID:20160801213650 L   I
 OLDACT:UP  16-08-02 07:59 OP:ar   STATUS:               ID:20160801213341     3
 OLDACT:REG 16-08-02 07:53 OP:ar   STATUS:               ID:20160801213341     3
 2016-08-01-2134-00M.COL___356                                                 6
 STAT SP IPHASW D HRMM SECON CODA AMPLIT PERI AZIMU VELO AIN AR TRES W  DIS CAZ7
 BAR2 EZ EP       2137  6.85                             164   -0.1510 30.9 159 
 BAR2 EZ ES       2137 19.73                             164   -0.1710 30.9 159 
 BRR  HZ EP       2137  7.26                             153   -0.4610 55.1 301 
 BRR  HN ES       2137 21.32                             153    0.1410 55.1 301 
 BRR  HZ I        2137 21.69        30.8 0.34                          55.1 301 
 PAM  EZ EP       2137 10.09                             143   -0.2010 83.9  50 
 PAM  EE ES       2137 26.36                             143    0.6010 83.9  50 
 PAM  EZ I        2137 28.33        24.8 0.30                          83.9  50 
 RUS  HZ EP       2137 12.24                             135   -0.0410  109 168 
 RUS  HN ES       2137 29.36                             135    0.0510  109 168 
 SPBC HZ EP   2   2137 15.98                             123   -0.59 5  159 213 
 SPBC HN ES   2   2137 36.30                             123   -0.64 5  159 213 
 SPBC HZ I        2137 41.26        14.0 0.64                           159 213 
 TAM  HZ EP       2137 17.70                             121   -0.08 9  171 106 
 ZAR  HZ EP       2137 19.13                             118   -0.37 9  188 292 
 ZAR  HN ES       2137 42.22                             118    0.06 9  188 292 
 ZAR  HZ I        2137 46.73        17.9 0.24                           188 292 
 NOR  HZ EP   4   2137 27.96                             113    4.16 0  226 231 
 NOR  HE ES       2137 49.90                             113    0.10 8  226 231 
 NOR  HZ I        2137 57.90         8.7 0.16                           226 231 
 URE  HZ EP   4   2137 27.70                             109   -0.76 0  268 292 
 URE  HN ES   4   2137 55.38                             109   -2.73 0  268 292 
 URE  HZ I        2138  3.99        11.0 0.22                           268 292 
 GUY2CHZ EP       2137 32.94                             107    1.00 7  293 232 
 GUY2CHE ES       2138  4.68                             107    0.39 7  293 232 
 GUY2CHZ I        2138 10.60         7.8 0.36                           293 232 
 SOCV BZ EP   4   2137 32.97                             106   -0.56 0  311  59 
 SOCV BN ES   4   2138  5.44                             106   -1.69 0  311  59 
 CBOC HZ EP   4   2137 35.95                             105    1.03 0  321 250 
 CBOC HE ES   4   2138  5.39                             105   -4.21 0  321 250 
 CBOC HZ I        2138 11.38         4.9 0.26                           321 250 
                                                                                
