 2014  6 1 2100 55.8 L   6.788 -73.121139.0  RSN 14 0.5 2.1LRSN                1
 GAP=185        1.03       3.0     4.5  5.4 -0.5335E+00  0.6607E+01  0.2798E+01E
 Epicentro: LOS SANTOS - SANTANDER                                             3
 ACTION:UPD 14-07-01 22:49 OP:nd   STATUS:               ID:20140601210055 L   I
 OLDACT:REG 14-06-02 04:38 OP:spq  STATUS:               ID:20140601205819     3
 2014-06-01-2058-19M.COL___259                                                 6
 STAT SP IPHASW D HRMM SECON CODA AMPLIT PERI AZIMU VELO AIN AR TRES W  DIS CAZ7
 BAR2 SZ IP     D 21 1 14.86                             170    0.2110 22.7 197 
 BAR2 SZ ES       21 1 29.26                             170   -0.0510 22.7 197 
 BAR2 SZ I        21 1 31.01        25.0 0.26            166           22.7 197 
 BRR  HZ IP     C 21 1 16.78                             150    0.3410 74.2 298 
 BRR  HN ES       21 1 33.25                             150    0.7410 74.2 298 
 BRR  HZ I        21 1 37.66        30.2 0.12            148           74.2 298 
 RUS  HZ EP       21 1 19.26                             143    0.4410 99.1 178 
 RUS  HE ES       21 1 36.52                             143   -0.2310 99.1 178 
 RUS  HZ I        21 1 38.12        19.7 0.22            143           99.1 178 
 PTB  HZ EP       21 1 21.60                             130   -0.89 9  150 260 
 PTB  HE ES       21 1 43.07                             130   -0.21 9  150 260 
 PTB  HZ I        21 1 46.03        12.0 0.12            129            150 260 
 OCA  HZ EP   1   21 1 24.03                             128    0.24 7  162 352 
 OCA  HN ES       21 1 44.67                             128   -0.92 9  162 352 
 OCA  HZ I        21 1 46.62        11.1 0.19            130            162 352 
 SPBC HN ES       21 1 45.60                             127   -0.19 9  164 220 
 SPBC HZ I        21 1 49.73        19.9 0.14            127            164 220 
 ZAR  HZ EP       21 1 27.93                             120   -0.24 8  207 292 
 ZAR  HN ES       21 1 53.65                             120    0.26 8  207 292 
 ZAR  HZ I        21 1 59.25        19.2 0.15            121            207 292 
 NOR  HZ EP       21 1 30.93                             117   -0.42 8  236 235 
 NOR  HE ES       21 1 59.04                             117   -0.00 8  236 235 
 NOR  HZ I        21 2  1.88         7.7 0.12            117            236 235 
 CHI  HZ EP   1   21 1 33.03                             116   -0.08 6  248 196 
 CHI  HE ES   1   21 2  1.99                             116   -0.20 6  248 196 
 CHI  HZ I        21 2 11.95         4.3 0.42            116            248 196 
 HEL  HZ EP       21 1 36.86                             113    0.88 8  274 256 
 HEL  HE ES   1   21 2  6.99                             113   -0.30 6  274 256 
 HEL  HZ I        21 2 14.32         6.4 0.42            113            274 256 
 GUY2CHZ EP       21 1 39.98                             111    0.67 7  303 235 
 GUY2CHE ES   1   21 2 13.36                             111    0.14 5  303 235 
 GUY2CHZ I        21 2 23.62         4.4 0.56                           303 235 
 RREF HZ EP   4   21 1 42.95                             109    1.11 0  323 230 
 RREF HN ES       21 2 17.99                             109    0.27 7  323 230 
 RREF HZ I        21 2 29.11         5.1 0.19            110            323 230 
 PRA  HZ EP       21 1 48.74                             105   -0.42 6  392 210 
 PRA  HN ES       21 2 30.71                             105   -0.04 6  392 210 
 PRA  HZ I        21 2 32.57         3.6 0.27            106            392 210 
 ORTC HZ EP       21 1 50.00                             105    0.40 6  396 217 
 ORTC HN ES       21 2 30.93                             105   -0.61 6  396 217 
 ORTC HZ I        21 2 39.77         3.2 0.46            106            396 217 
 SJC  HZ EP   4   21 1 49.84                             104   -1.65 0  412 327 
                                                                                
