 2016 12 1 2010 37.2 L   5.757 -73.942104.5  RSN  8 0.3 1.7LRSN                1
 GAP=127        0.69       1.7     2.4  5.4 -0.1251E+01 -0.1729E+01  0.1543E+01E
 Epicentro: ALBANIA - SANTANDER                                                3
 ACTION:UPD 17-01-11 20:11 OP:rebc STATUS:               ID:20161201201037 L   I
 OLDACT:UP  16-12-02 03:20 OP:cara STATUS:               ID:20161201200744     3
 OLDACT:REG 16-12-02 02:45 OP:edw  STATUS:               ID:20161201200744     3
 2016-12-01-2008-00M.COL___339                                                 6
 STAT SP IPHASW D HRMM SECON CODA AMPLIT PERI AZIMU VELO AIN AR TRES W  DIS CAZ7
 PTB  HZ EP     C 2010 56.32                             131   -0.4910  104 327 
 PTB  HN ES       2011 11.89                             131   -0.2110  104 327 
 PTB  HZ I        2011 15.31         7.2 0.16            136            104 327 
 NOR  HZ EP       2010 57.25                             131    0.2610  105 258 
 NOR  HN ES       2011 12.54                             131    0.1310  105 258 
 NOR  HZ I        2011 15.30        23.2 0.28            135            105 258 
 BAR2 EZ IP       2010 59.43                             126    0.2910  125  42 
 BAR2 EZ ES       2011 16.46                             126    0.2210  125  42 
 BAR2 EZ I        2011 18.86        12.3 0.44            130            125  42 
 CHI  HZ EP       2010 59.92                             125    0.3510  127 169 
 CHI  HN ES       2011 16.72                             125   -0.2810  127 169 
 CHI  HZ I        2011 20.85         5.7 0.34            129            127 169 
 ZAR  HZ EP       2011  8.91                             110    0.07 8  217 332 
 ZAR  HE ES       2011 33.66                             110    0.16 8  217 332 
 ZAR  HZ I        2011 35.25         8.5 0.24            114            217 332 
 PAM  EZ EP       2011  9.46                             110   -0.61 8  222  38 
 PAM  HN ES       2011 35.75                             110    0.05 8  222  38 
 PAM  EZ I        2011 40.70         2.0 0.16            113            222  38 
 PRA  HZ EP       2011 12.67                             107    0.08 8  249 205 
 PRA  HE ES       2011 39.98                             107   -0.20 8  249 205 
 PRA  HZ I        2011 43.00         4.0 0.36            110            249 205 
 ORTC HZ EP       2011 12.82                             107    0.08 8  250 215 
 ORTC HN ES       2011 40.45                             107   -0.00 8  250 215 
 ORTC HZ I        2011 46.14         3.8 0.42            110            250 215 
                                                                                
