 2015  4 1 2217 35.8 L   6.775 -73.154138.8  RSN  5 0.5 1.5LRSN                1
 GAP=137        1.28       6.6     6.5  9.5 -0.4197E+01  0.9620E+01  0.1990E+01E
 Epicentro: LOS SANTOS - SANTANDER                                             3
 ACTION:UPD 15-06-03 16:51 OP:cam  STATUS:               ID:20150401221735 L   I
 OLDACT:REG 15-04-02 04:53 OP:stll STATUS:               ID:20150401220749     3
 2015-04-01-2207-49M.COL___283                                                 6
 STAT SP IPHASW D HRMM SECON CODA AMPLIT PERI AZIMU VELO AIN AR TRES W  DIS CAZ7
 BAR2 EZ ES       2218  9.25                             171    0.1010 20.5 189 
 BAR2 EZ I        2218 10.62         7.8 0.24            170           20.5 189 
 BRR  HZ EP       2217 56.46                             151    0.2310 71.7 301 
 BRR  HZ I        2217 56.71         9.2 0.34            151           71.7 301 
 BRR  HN ES       2218 12.97                             151    0.8110 71.7 301 
 PAM  SZ EP       2217 57.72                             149    0.2710 80.1  39 
 PAM  SE ES       2218 13.56                             149   -0.7710 80.1  39 
 PAM  SZ I        2218 16.20         4.5 0.16            152           80.1  39 
 RUS  HZ EP       2217 59.11                             143    0.4410 97.9 175 
 RUS  HN ES       2218 16.37                             143   -0.1510 97.9 175 
 RUS  HZ I        2218 18.83         3.3 0.30            144           97.9 175 
 PTB  HZ EP       2218  1.59                             131   -0.48 9  146 260 
 PTB  HN ES       2218 21.98                             131   -0.59 9  146 260 
 PTB  HZ I        2218 27.34         4.4 0.12            131            146 260 
                                                                                
