 2011  2 1 2254  9.6 L   6.785 -73.168142.6  RSN  5 0.1 1.5LRSN                1
 GAP=156        0.28       2.7     4.4  4.0 -0.5135E+01  0.5504E+01  0.1237E+01E
 Epicentro: LOS SANTOS - SANTANDER                                             3
 ACTION:UP  11-03-28 15:05 OP:jfem STATUS:               ID:20110201225409 L   I
 2011-02-01-2253-12S.COL___135                                                 6
 STAT SP IPHASW D HRMM SECON CODA AMPLIT PERI AZIMU VELO SNR AR TRES W  DIS CAZ7
 BAR2 SZ EP   2   2254 28.86                             171     0.0 5   21 185 
 BAR2 SZ ES   2   2254 43.88                             171     0.1 5   21 185 
 BAR2 SZ I        2254 46.80         9.6 0.19                            21 185 
 RUS  HZ EP   1   2254 32.89                             144     0.0 7   99 175 
 RUS  HN ES   2   2254 51.11                             144     0.0 5   99 175 
 RUS  HZ I        2254 52.68         4.5 0.29                            99 175 
 GRA  SZ EP   3   2254 34.63                             136    -0.1 2  128  18 
 GRA  SZ ES   2   2254 54.34                             136     0.0 5  128  18 
 GRA  SZ I        2255  0.15         5.4 0.32                           128  18 
 NOR  SZ EP   2   2254 45.11                             118     0.3 4  232 235 
 NOR  SE ES   2   2255 12.13                             118    -0.2 4  232 235 
 CHI  HZ EP   1   2254 46.88                             117     0.0 6  246 195 
 CHI  HN ES   3   2255 16.00                             117     0.0 2  246 195 
 CHI  HZ I        2255 23.88         2.4 0.34                           246 195 
                                                                                
