 2016 12 1 2209 22.7 L   7.191 -73.267177.3  RSN  4 0.4 1.5LRSN                1
 GAP=166        0.93      13.0     5.3  8.7 -0.2920E+02  0.3094E+01  0.1393E+02E
 Epicentro: LEBRIJA - SANTANDER                                                3
 ACTION:UPD 17-01-11 20:11 OP:rebc STATUS:               ID:20161201220922 L   I
 OLDACT:UP  16-12-02 03:38 OP:edw  STATUS:               ID:20161201215917     3
 OLDACT:REG 16-12-02 03:01 OP:edw  STATUS:               ID:20161201215917     3
 2016-12-01-2208-00M.COL___346                                                 6
 STAT SP IPHASW D HRMM SECON CODA AMPLIT PERI AZIMU VELO AIN AR TRES W  DIS CAZ7
 BRR  HZ EP       22 9 45.63                             164   -0.8010 50.0 259 
 BRR  HN ES       2210  5.01                             164    0.0510 50.0 259 
 PAM  HZ EP       22 9 48.00                             159    0.2710 64.8  75 
 PAM  EN ES       2210  7.33                             159    0.0510 64.8  75 
 PAM  HZ I        2210  8.79         5.0 0.52            160           64.8  75 
 PTB  HZ EP       22 9 52.93                             138    0.39 9  150 241 
 PTB  HN ES       2210 15.83                             138   -0.02 9  150 241 
 PTB  HZ I        2210 17.72         3.2 0.12            138            150 241 
 ZAR  HN ES       2210 20.38                             133    0.14 9  179 281 
                                                                                
