 2014  2 1 2323 23.9 L   6.772 -73.094147.6  RSN  7 0.3 1.6LRSN                1
 GAP=145        0.58       2.3     4.3  3.9  0.1126E+01  0.2236E+01  0.1618E+00E
 Epicentro: LOS SANTOS - SANTANDER                                             3
 ACTION:UPD 14-03-10 08:06 OP:ep   STATUS:               ID:20140201232323 L   I
 OLDACT:UP  14-02-01 22:32 OP:cam  STATUS:               ID:20140201232000     3
 OLDACT:REG 14-02-01 22:09 OP:cam  STATUS:               ID:20140201232000     3
 2014-02-01-2320-00M.COL___288                                                 6
 STAT SP IPHASW D HRMM SECON CODA AMPLIT PERI AZIMU VELO AIN AR TRES W  DIS CAZ7
 BAR2 SZ ES       2323 59.42                             171    0.2710 22.2 206 
 BAR2 SZ I        2323 59.80        22.6 0.22            165           22.2 206 
 PAM  SZ EP     C 2323 46.41                             151    0.2010 76.4  35 
 PAM  SN ES   1   2324  3.44                             151   -0.21 7 76.4  35 
 BRR  HZ EP       2323 45.36                             151   -0.2210 77.7 299 
 BRR  HN ES       2324  2.36                             151   -0.1710 77.7 299 
 RUS  HZ EP       2323 47.50                             145   -0.0610 97.3 179 
 RUS  HN ES       2324  5.87                             145   -0.1710 97.3 179 
 RUS  HZ I        2324  7.43         2.8 0.38            136           97.3 179 
 SPBC HZ EP       2323 52.51                             129   -0.12 9  165 221 
 SPBC HN ES   2   2324 15.31                             129    0.25 5  165 221 
 SPBC HZ I        2324 21.45         5.1 0.22            117            165 221 
 CHI  HZ EP   1   2324  1.85                             118    0.34 6  247 197 
 CHI  HN ES   2   2324 31.47                             118    0.59 4  247 197 
 CHI  HZ I        2324 38.02         1.7 0.46            108            247 197 
 SML  HZ EP   2   2324  0.38                             117   -0.78 4  249 334 
 SML  HZ I        2324 30.50         4.1 0.26            107            249 334 
 SML  HN ES       2324 30.61                             117    0.36 8  249 334 
                                                                                
