 2010  1 1 2257 40.4 L   6.766 -72.910146.1  RSN  7 0.3 2.1LRSN                1
 GAP=233        0.57       4.4     9.9  5.0 -0.7235E+01  0.9772E+01  0.9187E+01E
 Epicentro: CEPITA - SANTANDER                                                 3
 ACTION:UP  10-08-24 09:42 OP:vdl  STATUS:               ID:20100101225740 L   I
 2010-01-01-2252-38S.COL___097                                                 6
 STAT SP IPHASW D HRMM SECON CODA AMPLIT PERI AZIMU VELO SNR AR TRES W  DIS CAZ7
 BAR2 SZ ES   1   2258 15.77                             166    -0.210   36 238 
 GIR2 SZ EP   1   2258  0.47                             161    -0.210   47 318 
 GIR2 SZ ES   1   2258 16.59                             161     0.210   47 318 
 RUS  BZ EP   1   2258  4.35                             145     0.310   98 191 
 RUS  BN ES   1   2258 22.59                             145     0.110   98 191 
 RUS  BZ I        2258 23.84        10.2 0.31                            98 191 
 CHI  HZ EP       2258 18.36                             117    -0.310  253 201 
 CHI  HN ES   1   2258 48.42                             117     0.0 7  253 201 
 CHI  HZ I        2258 57.24         6.0 0.52                           253 201 
 ROSC BZ EP   1   2258 20.35                             116     0.5 7  264 216 
 ROSC BZ I        2258 56.27         9.9 0.46                           264 216 
 RREF BZ EP   1   2258 28.43                             110    -0.2 6  340 233 
 RREF BN ES   2   2259  6.60                             110     0.4 4  340 233 
 RREF BZ I        2259 12.92         7.8 0.40                           340 233 
 PRA  HN ES   2   2259 17.30                             106    -0.6 4  402 213 
                                                                                
