 2012 11 1 2352 52.5 L   6.776 -73.105144.7  RSN  6 0.2 1.7LRSN                1
 GAP=143        0.50       3.2     4.4  4.6  0.9048E+00 -0.2761E+00  0.5588E+01E
 Epicentro: LOS SANTOS - SANTANDER                                             3
 ACTION:UPD 12-12-05 15:30 OP:}ep  STATUS:               ID:20121101235252 L   I
 2012-11-01-2350-00M.COL___234                                                 6
 STAT SP IPHASW D HRMM SECON CODA AMPLIT PERI AZIMU VELO AIN AR TRES W  DIS CAZ7
 BAR2 SZ EP   1   2353 11.66                             171   -0.32 7 22.1 203 
 BAR2 SZ ES   2   2353 27.75                             171    0.59 5 22.1 203 
 BAR2 SZ I        2353 28.66        12.8 0.24                          22.1 203 
 BRR  HZ EP       2353 13.91                             150    0.0710 76.4 299 
 BRR  HN ES       2353 30.40                             150   -0.0810 76.4 299 
 BRR  HZ I        2353 31.04        13.8 0.45                          76.4 299 
 PAM  SZ EP   1   2353 14.57                             151    0.01 7 76.7  36 
 PAM  SN ES   1   2353 31.74                             151   -0.02 7 76.7  36 
 PAM  SZ I        2353 34.10         4.5 0.53                          76.7  36 
 RUS  HZ EP       2353 16.09                             144    0.1510 97.8 179 
 RUS  HN ES   1   2353 33.90                             144   -0.33 7 97.8 179 
 RUS  HN I        2353 36.42         8.6 0.29                          97.8 179 
 CHI  HZ EP   1   2353 30.34                             117    0.34 6  247 196 
 PRA  HZ EP   1   2353 45.78                             106   -0.21 4  392 210 
 PRA  HZ I        2354 34.08         2.3 0.17                           392 210 
                                                                                
