 2014  2 1 2301 38.8 L   6.810 -73.101150.3  RSN 12 0.5 2.0LRSN                1
 GAP=142        0.99       3.4     4.8  5.8  0.1633E+01  0.8081E+01  0.1892E+01E
 Epicentro: LOS SANTOS - SANTANDER                                             3
 ACTION:UPD 14-03-10 08:06 OP:ep   STATUS:               ID:20140201230138 L   I
 OLDACT:UP  14-02-01 22:26 OP:cam  STATUS:               ID:20140201230000     3
 OLDACT:REG 14-02-01 22:07 OP:cam  STATUS:               ID:20140201230000     3
 2014-02-01-2300-00M.COL___288                                                 6
 STAT SP IPHASW D HRMM SECON CODA AMPLIT PERI AZIMU VELO AIN AR TRES W  DIS CAZ7
 BAR2 SZ EP     C 23 1 58.92                             170   -0.1210 25.7 200 
 BAR2 SZ ES       23 2 14.30                             170   -0.5110 25.7 200 
 BAR2 SZ I        23 2 15.50        32.6 0.30            165           25.7 200 
 PAM  SZ EP       23 2  1.87                             153    0.5810 73.5  37 
 PAM  SN ES       23 2 19.04                             153    0.2210 73.5  37 
 PAM  SZ I        23 2 20.93        11.8 0.56            159           73.5  37 
 BRR  HZ EP       23 2  0.81                             152    0.1410 75.1 296 
 BRR  HE ES       23 2 18.28                             152    0.5610 75.1 296 
 RUS  HZ EP       23 2  2.82                             144   -0.2610  101 179 
 RUS  HN ES       23 2 21.78                             144   -0.2210  101 179 
 RUS  HZ I        23 2 24.69         5.1 0.52            144            101 179 
 PTB  HZ EP   1   23 2  6.02                             132   -0.59 7  153 259 
 PTB  HN ES   4   23 2 27.12                             132   -1.17 0  153 259 
 PTB  HZ I        23 2 34.00        17.0 0.38            131            153 259 
 SPBC HZ EP       23 2  7.86                             129   -0.18 9  167 220 
 SPBC HE ES   2   23 2 30.42                             129   -0.41 5  167 220 
 SPBC HZ I        23 2 36.93        18.8 0.18            129            167 220 
 ZAR  HZ EP   2   23 2 11.86                             123   -0.13 4  208 291 
 ZAR  HN ES       23 2 38.17                             123    0.31 8  208 291 
 ZAR  HZ I        23 2 42.92        11.7 0.56            123            208 291 
 SML  HZ EP   2   23 2 15.35                             118   -0.47 4  245 334 
 SML  HN ES       23 2 43.73                             118   -0.95 8  245 334 
 SML  HZ I        23 2 45.31        19.1 0.22            120            245 334 
 CHI  HZ EP       23 2 16.91                             118   -0.12 8  251 196 
 CHI  HN ES   1   23 2 47.87                             118    1.04 6  251 196 
 CHI  HZ I        23 2 51.59         2.6 0.68            119            251 196 
 HEL  HZ EP   4   23 2 21.35                             115    1.53 0  277 256 
 HEL  HE ES   1   23 2 51.79                             115   -0.01 6  277 256 
 HEL  HZ I        23 2 57.92         7.7 0.36            115            277 256 
 GUY2CHZ EP   1   23 2 24.00                             113    0.84 5  306 235 
 GUY2CHE ES   4   23 2 59.24                             113    1.49 0  306 235 
 GUY2CHZ I        23 3  6.18         6.4 0.32                           306 235 
 COD  HZ EP   1   23 2 27.63                             110    0.32 5  348 354 
 COD  HE ES   4   23 3  2.74                             110   -2.39 0  348 354 
 SJC  HZ EP   4   23 2 33.10                             106   -1.64 0  411 326 
                                                                                
