 2017 11 1 2305  1.4 L   6.869 -73.313128.0  RSN 14 0.7 1.9LRSN                1
 GAP= 95        1.62       4.3     4.6  7.9  0.4261E+01  0.9432E+01  0.6155E+01E
 Epicentro: BETULIA - SANTANDER                                                3
 ACTION:UPD 17-12-12 19:50 OP:rebc STATUS:               ID:20171101230501 L   I
 OLDACT:REG 17-11-02 05:50 OP:osc  STATUS:               ID:20171101225738     3
 2017-11-01-2258-00M.COL___438                                                 6
 STAT SP IPHASW D HRMM SECON CODA AMPLIT PERI AZIMU VELO AIN AR TRES W  DIS CAZ7
 BAR2 EZ EP     C 23 5 19.33                             164    0.1710 33.9 155 
 BAR2 EZ ES       23 5 32.14                             164   -0.9010 33.9 155 
 BRR  HZ EP       23 5 19.63                             157    0.1110 51.3 301 
 BRR  HN ES       23 5 33.87                             157    0.1910 51.3 301 
 PAM  EZ EP       23 5 22.60                             144    0.3310 85.4  52 
 PAM  EN ES       23 5 38.75                             144    0.1610 85.4  52 
 PAM  EZ I        23 5 42.80        11.9 0.36            148           85.4  52 
 RUS  HZ EP       23 5 24.09                             137   -0.1710  111 167 
 RUS  HE ES       23 5 42.16                             137    0.0510  111 167 
 RUS  HZ I        23 5 42.92        15.3 0.24            138            111 167 
 PTB  HZ EP       23 5 24.54                             131   -0.8710  132 254 
 PTB  HN ES       23 5 44.38                             131    0.2010  132 254 
 PTB  HZ I        23 5 46.60         7.8 0.13            132            132 254 
 SPBC HZ EP       23 5 28.43                             125    0.32 9  159 212 
 SPBC HE ES       23 5 48.44                             125   -0.53 9  159 212 
 SPBC HZ I        23 5 53.05        11.0 0.10            126            159 212 
 ZAR  HZ EP       23 5 31.19                             121    0.60 9  184 292 
 ZAR  HN ES       23 5 54.38                             121    0.99 9  184 292 
 ZAR  HZ I        23 5 57.06         9.8 0.13            123            184 292 
 YPLC HZ EP       23 5 32.25                             120    0.64 9  193 148 
 YPLC HN ES       23 5 55.61                             120    0.41 9  193 148 
 YPLC HZ I        23 5 58.34        22.7 0.34            121            193 148 
 NOR  HZ EP       23 5 35.59                             115    0.57 8  225 230 
 NOR  HN ES       23 6  2.04                             115    0.76 8  225 230 
 NOR  HZ I        23 6 10.98         3.8 0.18            117            225 230 
 CHI  HZ EP       23 5 39.09                             113    0.58 8  252 191 
 CHI  HN ES       23 6  7.07                             113   -0.42 8  252 191 
 CHI  HZ I        23 6 10.89         4.1 0.24            114            252 191 
 URE  HN ES       23 6  8.97                             111   -0.00 8  264 292 
 GUY2CHZ EP       23 5 43.71                             109    0.68 7  291 231 
 GUY2CHN ES       23 6 14.02                             109   -1.52 7  291 231 
 GUY2CHZ I        23 6 23.15         3.1 0.50                           291 231 
 PTGC HE ES       23 6 19.97                             107   -1.09 7  323 156 
 SJC  HZ EP       23 5 53.41                             103   -1.04 6  393 329 
 SJC  HE ES       23 6 33.29                             103   -2.57 6  393 329 
                                                                                
