 2012  1 1 2002 14.7 L   6.798 -73.345132.1  RSN  4 0.5 1.3LRSN                1
 GAP=114        1.01       9.5     7.6 13.8 -0.1138E+02 -0.6224E+01  0.2875E+02E
 Epicentro: ZAPATOCA - SANTANDER                                               3
 ACTION:UP  12-02-03 08:13 OP:REBC STATUS:               ID:20120101200214 L   I
 2012-01-01-2000-00M.COL___187                                                 6
 STAT SP IPHASW D HRMM SECON CODA AMPLIT PERI AZIMU VELO SNR AR TRES W  DIS CAZ7
 BRR  HZ EP       20 2 33.84                             156     0.510   53 310 
 BRR  HE ES   1   20 2 48.31                             156     0.4 7   53 310 
 BRR  HZ I        20 2 49.18        10.7 0.11                            53 310 
 PAM  SZ EP   2   20 2 36.21                             142    -0.3 5   93  50 
 PAM  SN ES   2   20 2 52.82                             142    -0.8 5   93  50 
 RUS  HZ EP   2   20 2 37.51                             139     0.1 5  104 164 
 RUS  HN ES   2   20 2 55.34                             139     0.2 5  104 164 
 RUS  HZ I        20 2 57.17         1.6 0.35                           104 164 
 PTB  HZ EP   1   20 2 38.61                             133     0.0 7  126 257 
 PTB  HN ES   1   20 2 56.31                             133    -0.9 7  126 257 
                                                                                
