 2016  4 1 2002 27.8 L   6.786 -73.152136.0  RSN 10 0.4 2.2LRSN                1
 GAP=107        0.89       3.5     2.7  5.2 -0.4448E+00  0.4688E+01 -0.1240E+00E
 Epicentro: LOS SANTOS - SANTANDER                                             3
 ACTION:UPD 16-05-05 14:17 OP:rebc STATUS:               ID:20160401200227 L   I
 OLDACT:UP  16-04-02 04:20 OP:ar   STATUS:               ID:20160401195744     3
 OLDACT:REG 16-04-02 04:05 OP:ar   STATUS:               ID:20160401195744     3
 2016-04-01-1957-44M.COL___316                                                 6
 STAT SP IPHASW D HRMM SECON CODA AMPLIT PERI AZIMU VELO AIN AR TRES W  DIS CAZ7
 BAR2 EZ EP       20 2 46.32                             171    0.0710 21.6 189 
 BAR2 EZ ES       20 3  0.80                             171    0.1810 21.6 189 
 BAR2 EZ I        20 3  2.12        35.8 0.18            169           21.6 189 
 PAM  EZ EP       20 2 49.17                             149    0.0510 79.0  39 
 PAM  EN ES       20 3  5.73                             149    0.0010 79.0  39 
 PAM  EZ I        20 3  8.27        36.5 0.62            148           79.0  39 
 RUS  HZ EP       20 2 50.62                             142    0.1010 99.0 176 
 RUS  HN ES       20 3  8.58                             142    0.3710 99.0 176 
 RUS  HZ I        20 3  9.15        14.6 0.46            141           99.0 176 
 PTB  HZ EP       20 2 53.12                             130   -0.81 9  147 259 
 PTB  HN ES       20 3 14.19                             130   -0.09 9  147 259 
 PTB  HZ I        20 3 17.12        17.2 0.16            131            147 259 
 TAM  HZ EP       20 2 54.56                             128   -0.21 9  155 104 
 TAM  HN ES       20 3 15.53                             128   -0.26 9  155 104 
 TAM  HZ I        20 3 32.06        15.1 0.38            127            155 104 
 SPBC HZ EP       20 2 55.55                             127    0.12 9  162 219 
 SPBC HN ES       20 3 16.46                             127   -0.50 9  162 219 
 SPBC HZ I        20 3 20.79        19.5 0.24            128            162 219 
 ZAR  HZ EP       20 2 59.97                             120    0.32 9  204 293 
 ZAR  HN ES       20 3 24.96                             120    0.48 9  204 293 
 ZAR  HZ I        20 3 30.32        23.0 0.68            121            204 293 
 SOCV BZ EP   4   20 3  8.08                             110   -2.53 0  303  57 
 SOCV BN ES   4   20 3 39.58                             110   -4.40 0  303  57 
 DBB  SZ EP       20 3 15.34                             108    0.48 7  339 275 
 DBB  SZ ES       20 3 50.75                             108   -0.80 7  339 275 
 DBB  SZ I        20 3 54.73        22.2 0.26            108            339 275 
 SDV  BZ EP   4   20 3 15.94                             106   -1.75 0  362  50 
 SDV  BN ES   4   20 3 52.89                             106   -3.70 0  362  50 
 SDV  BZ I        20 3 55.50         2.6 0.40            106            362  50 
 ORTC HZ EP       20 3 21.31                             105    0.08 6  394 216 
 ORTC HN ES       20 4  3.65                             105    0.77 6  394 216 
 ORTC HZ I        20 4  9.32         4.2 0.46            105            394 216 
                                                                                
