 2014  1 1 2223 26.1 L   6.830 -73.181144.6  RSN  9 0.5 1.7LRSN                1
 GAP=131        1.15       4.2     5.0  7.6  0.2881E+01  0.5485E+01  0.6695E+00E
 Epicentro: ZAPATOCA - SANTANDER                                               3
 ACTION:UPD 14-03-13 09:50 OP:ep   STATUS:               ID:20140101222326 L   I
 OLDACT:REG 14-01-01 22:22 OP:nd   STATUS:               ID:20140101222000     3
 2014-01-01-2220-00M.COL___285                                                 6
 STAT SP IPHASW D HRMM SECON CODA AMPLIT PERI AZIMU VELO AIN AR TRES W  DIS CAZ7
 BAR2 SZ EP       2223 45.68                             169    0.0710 26.3 180 
 BAR2 SZ ES   2   2224  0.51                             169   -0.35 5 26.3 180 
 BAR2 SZ I        2224  2.55        15.6 0.28            167           26.3 180 
 BRR  HZ IP     C 2223 47.33                             154    0.5310 66.2 298 
 BRR  HN ES       2224  3.64                             154    0.6510 66.2 298 
 BRR  HZ I        2224  7.77        10.4 0.12            151           66.2 298 
 PAM  SZ EP       2223 48.40                             151    0.2510 77.5  43 
 PAM  SN ES       2224  5.10                             151   -0.2810 77.5  43 
 PAM  SZ I        2224  7.32        17.6 0.50            157           77.5  43 
 RUS  HZ EP       2223 49.86                             143   -0.1010  104 174 
 RUS  HN ES       2224  8.50                             143   -0.1010  104 174 
 RUS  HZ I        2224  9.96         2.1 0.46            144            104 174 
 PTB  HZ EP       2223 52.54                             132   -0.11 9  145 257 
 PTB  HN ES       2224 12.42                             132   -0.96 9  145 257 
 PTB  HZ I        2224 21.11         6.4 0.40            132            145 257 
 ZAR  HZ EP   4   2223 59.71                             123    1.78 0  199 292 
 ZAR  HN ES       2224 23.49                             123    0.70 9  199 292 
 ZAR  HZ I        2224 30.14         5.1 0.26            123            199 292 
 SML  HZ EP       2224  1.56                             118   -0.56 8  239 336 
 SML  HN ES       2224 29.67                             118   -0.58 8  239 336 
 SML  HZ I        2224 33.14         8.8 0.26            120            239 336 
 CHI  HZ EP       2224  4.39                             117    0.46 8  251 194 
 CHI  HN ES   2   2224 33.00                             117   -0.47 4  251 194 
 CHI  HZ I        2224 39.34         1.7 0.28            118            251 194 
 SJC  HZ EP   4   2224 19.52                             106   -1.49 0  404 327 
 SJC  HN ES   4   2224 59.39                             106   -4.48 0  404 327 
 SJC  HZ I        2225  4.83         2.1 0.48            107            404 327 
                                                                                
