 2013  1 1 2152 11.9 L   6.630 -73.263149.0  RSN  5 0.3 1.5LRSN                1
 GAP=158        0.67       7.5     7.1 10.2  0.3227E+02  0.1422E+02 -0.1106E+01E
 Epicentro: GALAN - SANTANDER                                                  3
 *RUS-PTB                                                                      3
 ACTION:UPD 13-02-15 09:11 OP:ep   STATUS:               ID:20130101215211 L   I
 2013-01-01-2150-00M.COL___242                                                 6
 STAT SP IPHASW D HRMM SECON CODA AMPLIT PERI AZIMU VELO AIN AR TRES W  DIS CAZ7
 BAR2 SZ EP   1   2152 31.57                             176   -0.18 7 9.81 115 
 BRR  HN ES   1   2152 50.13                             153   -0.19 7 72.5 317 
 RUS  HN ES   1   2152 53.10                             149    0.32 7 83.9 166 
 RUS  HZ I        2152 54.24         3.4 0.72            150           83.9 166 
 PTB  HZ EP   1   2152 37.69                             136   -0.12 7  132 266 
 PTB  HN ES   1   2152 57.65                             136   -0.36 7  132 266 
 PTB  HZ I        2153  1.80         4.5 0.14            133            132 266 
 ZAR  HN ES   1   2153 10.05                             124    0.66 6  200 299 
 ZAR  HZ I        2153 16.10         4.8 0.50            122            200 299 
                                                                                
