 2015  9 1 2232  0.1 L   6.797 -73.149150.0  RSN 13 0.4 2.0LRSN                1
 GAP=136        0.82       2.6     3.4  4.7 -0.9046E+00  0.3308E+01  0.1037E+01E
 Epicentro: LOS SANTOS - SANTANDER                                             3
 ACTION:UPD 15-10-28 16:23 OP:cam  STATUS:               ID:20150901223200 L   I
 OLDACT:REG 15-09-02 04:41 OP:spq  STATUS:               ID:20150901222750     3
 2015-09-01-2227-50M.COL___358                                                 6
 STAT SP IPHASW D HRMM SECON CODA AMPLIT PERI AZIMU VELO AIN AR TRES W  DIS CAZ7
 BAR2 EZ ES   1   2232 36.19                             171    0.21 7 23.0 189 
 BAR2 EZ I        2232 36.48        22.1 0.14            169           23.0 189 
 BRR  HZ EP       2232 21.96                             153    0.2210 71.1 299 
 BRR  HN ES       2232 39.31                             153    0.7210 71.1 299 
 BRR  HZ I        2232 42.17        12.8 0.32            152           71.1 299 
 PAM  EZ EP       2232 22.85                             151    0.0110 77.8  40 
 PAM  EE ES       2232 40.23                             151   -0.3010 77.8  40 
 PAM  EZ I        2232 42.60        13.5 0.62            154           77.8  40 
 RUS  HZ EP   1   2232 24.27                             145   -0.02 7  100 176 
 RUS  HE ES       2232 43.02                             145   -0.1110  100 176 
 RUS  HZ I        2232 43.96        10.4 0.28            144            100 176 
 PTB  HZ EP       2232 27.03                             133   -0.39 9  147 259 
 PTB  HN ES       2232 48.15                             133   -0.55 9  147 259 
 PTB  HZ I        2232 50.19         8.8 0.18            132            147 259 
 SPBC HZ EP       2232 29.20                             130    0.27 9  163 219 
 SPBC HN ES       2232 51.19                             130   -0.19 9  163 219 
 SPBC HZ I        2232 53.83        19.3 0.20            129            163 219 
 ZAR  HZ EP   1   2232 33.18                             123    0.33 6  204 292 
 ZAR  HE ES       2232 57.96                             123   -0.40 9  204 292 
 ZAR  HZ I        2233  3.47         6.3 0.34            123            204 292 
 NOR  HE ES       2233  4.66                             119    0.56 8  234 234 
 NOR  HZ I        2233  7.59         9.3 0.18            119            234 234 
 SML  HZ EP       2232 36.78                             118   -0.24 8  244 335 
 SML  HN ES   1   2233  5.87                             118    0.08 6  244 335 
 SML  HZ I        2233  9.33        11.4 0.09            118            244 335 
 CHI  HZ EP       2232 38.23                             118    0.19 8  248 195 
 CHI  HN ES   1   2233  7.06                             118   -0.54 6  248 195 
 CHI  HZ I        2233 15.88         3.6 0.58            118            248 195 
 GUY2CHE ES   4   2233 20.11                             113    2.08 0  301 235 
 GUY2CHZ I        2233 25.11         4.0 0.30                           301 235 
 TOL  SZ EP   4   2232 49.75                             110    1.23 0  343 225 
 TOL  SN ES   4   2233 28.67                             110    2.42 0  343 225 
 TOL  SZ I        2233 31.98         2.7 0.26            110            343 225 
 PRA  HZ EP       2232 54.06                             107    0.30 6  392 210 
 PRA  HN ES   1   2233 35.54                             107   -0.05 4  392 210 
 PRA  HZ I        2233 41.22         3.2 0.30            107            392 210 
                                                                                
