 2015  4 1 2113  1.4 L   6.816 -73.156151.3  RSN  7 0.4 1.5LRSN                1
 GAP=134        1.01       3.3     5.1  7.2 -0.2668E+01  0.5539E+01 -0.8971E+00E
 Epicentro: LOS SANTOS - SANTANDER                                             3
 ACTION:UPD 15-06-03 16:51 OP:cam  STATUS:               ID:20150401211301 L   I
 OLDACT:DUP 15-04-02 06:19 OP:stll STATUS:               ID:20150401210750d    3
 2015-04-01-2107-48M.COL___283                                                 6
 STAT SP IPHASW D HRMM SECON CODA AMPLIT PERI AZIMU VELO AIN AR TRES W  DIS CAZ7
 BRR  HZ EP       2113 23.73                             154    0.6910 69.3 298 
 BRR  HN ES       2113 40.73                             154    0.8010 69.3 298 
 PAM  SZ EP       2113 24.34                             152    0.1810 76.7  41 
 PAM  SN ES       2113 41.68                             152   -0.2410 76.7  41 
 PAM  SZ I        2113 43.84         7.8 0.56            156           76.7  41 
 RUS  HZ EP       2113 25.80                             144   -0.0210  102 175 
 RUS  HZ I        2113 26.41         1.8 0.46            146            102 175 
 RUS  HE ES       2113 44.57                             144   -0.3110  102 175 
 PTB  HZ EP       2113 28.53                             133   -0.22 9  147 258 
 PTB  HN ES       2113 49.58                             133   -0.51 9  147 258 
 PTB  HZ I        2113 55.45         4.6 0.26            134            147 258 
 OCA  HN ES       2113 51.85                             131   -0.40 9  158 353 
 SPBC HZ EP       2113 30.43                             130    0.04 9  164 218 
 SPBC HE ES       2113 53.04                             130    0.04 9  164 218 
 SPBC HZ I        2113 57.57         4.7 0.38            131            164 218 
 SML  HZ EP       2113 38.18                             119    0.07 8  242 335 
 SML  HN ES       2114  6.39                             119   -0.36 8  242 335 
                                                                                
