 2012  1 1 2247 23.2 L   6.773 -73.172141.4  RSN  8 0.4 2.0LRSN                1
 GAP=134        1.02       4.5     5.1  8.0 -0.1548E+00  0.1013E+02  0.1442E+01E
 Epicentro: LOS SANTOS - SANTANDER                                             3
 ACTION:UP  12-02-03 08:13 OP:REBC STATUS:               ID:20120101224723 L   I
 2012-01-01-2240-00M.COL___186                                                 6
 STAT SP IPHASW D HRMM SECON CODA AMPLIT PERI AZIMU VELO SNR AR TRES W  DIS CAZ7
 BAR2 SZ EP       2247 42.29                             172     0.110   20 183 
 BAR2 SZ ES   1   2247 57.20                             172     0.2 7   20 183 
 BAR2 SZ I        2247 58.15        39.1 0.34                            20 183 
 BRR  HZ IP       2247 43.88                             152     0.110   70 302 
 BRR  HZ I        2247 44.14        79.7 0.11                            70 302 
 BRR  HE ES   1   2248  0.75                             152     0.9 7   70 302 
 PAM  SZ EP       2247 45.12                             149     0.010   82  40 
 PAM  SN ES   1   2248  2.07                             149    -0.3 7   82  40 
 RUS  HZ EP   1   2247 46.12                             144    -0.2 7   98 174 
 RUS  HN ES       2248  4.00                             144    -0.310   98 174 
 RUS  HZ I        2248  6.49         7.6 0.33                            98 174 
 PTB  HZ EP   1   2247 48.84                             132    -0.6 7  144 260 
 PTB  HN ES   1   2248  9.14                             132    -0.8 7  144 260 
 ZAR  HZ EP   1   2247 55.58                             122     0.4 6  203 293 
 ZAR  HE ES   1   2248 20.00                             122    -0.1 6  203 293 
 ZAR  HZ I        2248 25.34         8.4 0.18                           203 293 
 NOR  SN ES   1   2248 25.49                             118     0.0 6  231 235 
 CHI  HZ EP   1   2248  0.41                             117     0.2 6  245 195 
 CHI  HN ES   1   2248 30.08                             117     0.9 6  245 195 
 CHI  HZ I        2248 34.05         3.8 0.47                           245 195 
                                                                                
