 2015 10 1 2351 47.7 L   6.795 -73.156145.4  RSN 11 0.4 1.9LRSN                1
 GAP=135        1.03       3.5     3.9  6.3 -0.1818E+01  0.7809E+01 -0.8134E+00E
 Epicentro: LOS SANTOS - SANTANDER                                             3
 ACTION:UPD 15-12-22 20:36 OP:cam  STATUS:               ID:20151001235147 L   I
 OLDACT:UP  15-10-02 08:05 OP:mh   STATUS:               ID:20151001234748d    3
 OLDACT:UP  15-10-02 08:04 OP:mh   STATUS:               ID:20151001234748d    3
 OLDACT:DUP 15-10-02 07:58 OP:mh   STATUS:               ID:20151001234748d    3
 2015-10-01-2347-47M.COL___352                                                 6
 STAT SP IPHASW D HRMM SECON CODA AMPLIT PERI AZIMU VELO AIN AR TRES W  DIS CAZ7
 BAR2 EZ EP       2352  6.96                             171   -0.2710 22.6 187 
 BAR2 EZ ES       2352 22.13                             171   -0.3610 22.6 187 
 BAR2 EZ I        2352 24.48        14.5 0.32            170           22.6 187 
 BRR  HZ EP       2352  8.78                             153    0.0510 70.5 299 
 BRR  HN ES       2352 26.19                             153    1.0310 70.5 299 
 BRR  HZ I        2352 26.87        11.4 0.58            151           70.5 299 
 PAM  EZ EP       2352 10.26                             150    0.3610 78.5  40 
 PAM  EN ES       2352 27.19                             150   -0.0610 78.5  40 
 PAM  EZ I        2352 29.39        21.2 0.46            153           78.5  40 
 RUS  HZ EP       2352 11.51                             144    0.1710  100 175 
 RUS  HN ES       2352 29.80                             144   -0.0110  100 175 
 RUS  HZ I        2352 30.63        11.8 0.30            145            100 175 
 PTB  HZ EP       2352 14.24                             132   -0.25 9  147 259 
 PTB  HN ES       2352 34.96                             132   -0.45 9  147 259 
 PTB  HZ I        2352 38.34         6.5 0.14            132            147 259 
 SPBC HZ EP   1   2352 16.19                             129    0.17 7  162 219 
 SPBC HN ES       2352 37.55                             129   -0.59 9  162 219 
 SPBC HZ I        2352 40.71        15.8 0.34            129            162 219 
 ZAR  HN ES       2352 45.12                             122   -0.10 9  203 292 
 NOR  HZ EP       2352 23.52                             119    0.28 8  233 234 
 NOR  HN ES       2352 51.53                             119    0.55 8  233 234 
 NOR  HZ I        2352 58.90         6.5 0.16            119            233 234 
 SML  HZ EP   1   2352 24.30                             117    0.03 6  244 336 
 SML  HN ES       2352 52.12                             117   -0.70 8  244 336 
 SML  HZ I        2352 55.34        13.7 0.26            118            244 336 
 HEL  HN ES       2352 59.09                             115    0.13 8  271 256 
 HEL  HZ I        2353  5.61         3.9 0.38            115            271 256 
 GUY2CHZ EP   4   2352 32.89                             112    1.78 0  300 235 
 GUY2CHN ES   4   2353  9.73                             112    4.73 0  300 235 
 GUY2CHZ I        2353 13.12         4.0 0.32                           300 235 
                                                                                
