 2010  7 2 0615 46.8 L   6.791 -73.070145.7  RSN 15 0.4 2.8LRSN                1
 GAP=132        0.86       3.2     5.5  4.9 -0.9123E+01  0.2842E+01  0.1021E+01E
 Epicentro: LOS SANTOS - SANTANDER                                             3
 ACTION:UPD 10-12-01 15:14 OP:pat  STATUS:               ID:20100702061546 L   I
 2010-07-02-0614-00S.COL___118                                                 6
 STAT SP IPHASW D HRMM SECON CODA AMPLIT PERI AZIMU VELO AIN AR TRES W  DIS CAZ7
 BAR2 SZ EP        616  6.38                             170     0.010   25 210 
 BAR2 SZ ES        616 21.44                             170    -0.310   25 210 
 BRR  HZ EP   1    616  8.28                             150    -0.1 7   79 296 
 BRR  HN ES   1    616 25.48                             150     0.3 7   79 296 
 BRR  HZ I         616 27.81        89.2 0.31                            79 296 
 RUS  HZ EP   1    616 10.21                             144    -0.2 7   99 181 
 RUS  HN ES   1    616 28.66                             144    -0.2 7   99 181 
 RUS  HZ I         616 30.75        77.6 0.31                            99 181 
 BRI  SZ EP        616 10.73                             142     0.210  107  16 
 BRI  SZ ES        616 29.61                             142     0.610  107  16 
 GUE  SZ EP        616 11.68                             139     0.210  116   8 
 GRA  SZ EP        616 12.15                             137     0.310  124  14 
 GRA  SZ ES   1    616 31.25                             137    -0.2 7  124  14 
 OCA  SZ EP   1    616 14.62                             129    -0.7 7  162 350 
 OCA  SZ ES   1    616 36.76                             129    -0.8 7  162 350 
 CHI  HZ EP   2    616 24.75                             117     0.1 4  250 197 
 CHI  HN ES   2    616 53.94                             117    -0.2 4  250 197 
 CHI  HZ I         616 58.15        32.1 0.33                           250 197 
 ROSC BZ EP   1    616 26.31                             116     1.0 6  256 213 
 ROSC BE ES   2    616 55.39                             116     0.1 4  256 213 
 ROSC BZ I         617  2.62        42.5 0.50                           256 213 
 HEL  HZ EP   1    616 28.14                             114     0.3 6  280 256 
 HEL  HN ES   2    616 59.99                             114     0.1 4  280 256 
 HEL  HZ I         617  6.29        51.3 0.44                           280 256 
 RREF HZ EP   1    616 33.50                             110    -0.1 5  328 230 
 RREF HE ES   2    617 10.11                             110     0.0 3  328 230 
 RREF HZ I         617 15.68        35.8 0.32                           328 230 
 DBB  SZ EP   1    616 34.42                             109    -0.8 5  348 274 
 TOL  SZ EP   2    616 36.01                             109     0.4 3  349 226 
 SDV  BZ EP        616 35.58                             108    -0.6 6  355  49 
 SDV  BZ I         617 14.99        17.6 0.36                           355  49 
 PRA  HZ EP   1    616 40.22                             106    -0.5 4  395 211 
 PRA  HN ES   1    617 23.00                             106     0.3 4  395 211 
 PRA  HZ I         617 29.03        34.9 0.39                           395 211 
                                                                                
