 2017 10 2 0457 17.7 L   6.800 -73.343117.5  RSN  6 0.3 1.6LRSN                1
 GAP=115        0.75       3.4     3.3  6.8 -0.5359E+00  0.1232E+02 -0.3397E+01E
 Epicentro: ZAPATOCA - SANTANDER                                               3
 ACTION:UPD 17-11-07 19:27 OP:rebc STATUS:               ID:20171002045717 L   I
 OLDACT:REG 17-10-02 14:05 OP:osc  STATUS:               ID:20171002044742     3
 2017-10-02-0448-00M.COL___405                                                 6
 STAT SP IPHASW D HRMM SECON CODA AMPLIT PERI AZIMU VELO AIN AR TRES W  DIS CAZ7
 BAR2 EZ EP        457 34.16                             165    0.0810 29.0 142 
 BAR2 EZ ES        457 46.80                             165   -0.0710 29.0 142 
 BAR2 EZ I         457 48.33        18.2 0.38            168           29.0 142 
 PAM  EZ EP        457 37.78                             139   -0.3510 92.8  50 
 PAM  EE ES        457 54.51                             139    0.4410 92.8  50 
 PAM  EZ I         457 57.69         4.7 0.28            142           92.8  50 
 RUS  HZ EP        457 39.34                             136    0.2510  104 164 
 RUS  HN ES        457 55.47                             136   -0.3210  104 164 
 RUS  HZ I         457 57.99         4.1 0.34            140            104 164 
 ZAR  HZ EP        457 46.18                             118   -0.09 9  184 295 
 ZAR  HE ES        458  8.32                             118   -0.26 9  184 295 
 ZAR  HN I         458 11.98        14.2 0.30            121            184 295 
 HEL  HN ES        458 22.80                             110    0.12 8  251 255 
 GUY2CHE ES   2    458 30.80                             107    1.17 4  284 232 
                                                                                
