 2014 11 2 0336 46.5 L   6.050 -73.698117.4  RSN  4 0.3 0.9LRSN                1
 GAP=119        0.80       5.4     4.0  8.2  0.2362E+01  0.1078E+01 -0.4612E+01E
 Epicentro: VELEZ - SANTANDER                                                  3
 ACTION:UPD 14-12-19 15:38 OP:nd   STATUS:               ID:20141102033646 L   I
 OLDACT:DUP 14-11-02 17:57 OP:spq  STATUS:               ID:20141102032747d    3
 2014-11-02-0327-45M.COL___271                                                 6
 STAT SP IPHASW D HRMM SECON CODA AMPLIT PERI AZIMU VELO AIN AR TRES W  DIS CAZ7
 SPBC HZ EP     C  337  4.44                             151    0.3710 60.4 223 
 SPBC HN ES        337 17.59                             151   -0.2110 60.4 223 
 SPBC HZ I         337 19.87         1.8 0.26            154           60.4 223 
 RUS  HZ EP        337  5.42                             147    0.1710 70.2 104 
 RUS  HN ES   1    337 19.76                             147   -0.16 7 70.2 104 
 RUS  HZ I         337 21.59         1.0 0.24            150           70.2 104 
 BAR2 SZ ES   1    337 20.84                             142   -0.00 7 82.8  44 
 BAR2 SZ I         337 22.54         5.6 0.22            145           82.8  44 
 PTB  HZ EP        337  6.28                             137   -0.5410 99.9 303 
 PTB  HE ES        337 23.01                             137    0.3010 99.9 303 
 PTB  HZ I         337 23.68         1.2 0.14            140           99.9 303 
                                                                                
