 2011  5 2 0900 56.8 L   6.783 -73.094152.0  RSN  5 0.3 1.6LRSN                1
 GAP=165        0.68       6.0    11.8  8.0 -0.4254E+02 -0.4536E+01  0.6817E+00E
 Epicentro: LOS SANTOS - SANTANDER                                             3
 ACTION:UP  11-06-29 08:50 OP:tino STATUS:               ID:20110502090056 L   I
 2011-05-02-0858-11S.COL___130                                                 6
 STAT SP IPHASW D HRMM SECON CODA AMPLIT PERI AZIMU VELO SNR AR TRES W  DIS CAZ7
 BAR2 SZ EP   1    9 1 16.75                             171    -0.5 7   23 205 
 BAR2 SZ ES   2    9 1 33.58                             171     0.5 5   23 205 
 BAR2 SZ I         9 1 33.97        11.4 0.19                            23 205 
 BTL  SZ EP   1    9 1 17.53                             170     0.3 7   24 308 
 BTL  SZ ES   1    9 1 32.91                             170    -0.2 7   24 308 
 RUS  HZ EP   2    9 1 20.78                             145    -0.3 5   98 179 
 RUS  HE ES   2    9 1 40.09                             145     0.2 5   98 179 
 RUS  HZ I         9 1 41.74         4.4 0.36                            98 179 
 GRA  SZ EP   1    9 1 23.09                             138     0.4 7  126  15 
 GRA  SZ ES   1    9 1 42.56                             138    -0.2 7  126  15 
 GRA  SZ I         9 1 44.17         5.7 0.26                           126  15 
 NOR  SN ES   2    9 2  1.83                             119     0.1 4  238 236 
                                                                                
