 2016  6 2 0206 12.4 L   6.534 -73.593111.3  RSN  5 0.2 1.0LRSN                1
 GAP= 94        0.55       2.4     2.4  4.8  0.7278E+00  0.1861E+01  0.1464E+01E
 Epicentro: EL CARMEN - SANTANDER                                              3
 ACTION:UPD 16-07-21 22:14 OP:rebc STATUS:               ID:20160602020612 L   I
 OLDACT:REG 16-06-02 12:36 OP:edw  STATUS:               ID:20160602015747     3
 2016-06-02-0157-47M.COL___304                                                 6
 STAT SP IPHASW D HRMM SECON CODA AMPLIT PERI AZIMU VELO AIN AR TRES W  DIS CAZ7
 BAR2 EZ EP        2 6 28.74                             156   -0.0310 45.8  82 
 BAR2 EZ ES        2 6 41.16                             156   -0.3710 45.8  82 
 BRR  HZ EP        2 6 29.56                             148    0.0510 64.7 348 
 BRR  HN ES        2 6 43.17                             148    0.3110 64.7 348 
 RUS  HZ EP        2 6 32.10                             138   -0.0110 90.6 141 
 RUS  HE ES        2 6 47.71                             138    0.2210 90.6 141 
 RUS  HZ I         2 6 48.75         1.9 0.40                          90.6 141 
 PTB  HZ EP        2 6 31.75                             136   -0.1110 95.5 270 
 PTB  HE ES        2 6 46.92                             136   -0.1210 95.5 270 
 PTB  HZ I         2 6 47.90         2.3 0.12                          95.5 270 
 SPBC HE ES        2 6 49.72                             132    0.0710  111 209 
                                                                                
