 2017 12 2 0728 17.6 L   6.544 -73.506107.2  RSN 28 0.8 2.3LRSN                1
 GAP= 42        1.71       2.7     3.1  7.0 -0.1538E+01  0.4471E+01 -0.1285E+01E
 Epicentro: EL CARMEN - SANTANDER                                              3
 ACTION:UPD 18-01-04 13:16 OP:rebc STATUS:               ID:20171202072817 L   I
 OLDACT:REG 17-12-02 12:34 OP:dhb  STATUS:               ID:20171202072740     3
 2017-12-02-0728-00M.COL___477                                                 6
 STAT SP IPHASW D HRMM SECON CODA AMPLIT PERI AZIMU VELO AIN AR TRES W  DIS CAZ7
 BAR2 EZ IP     D  728 33.43                             160    0.3810 36.2  82 
 BAR2 EZ ES        728 45.78                             160    0.6710 36.2  82 
 BAR2 EZ I         728 47.24       167.7 0.40            160           36.2  82 
 RUS  HZ EP        728 36.72                             139    0.1710 85.9 147 
 RUS  HN ES        728 51.56                             139    0.2210 85.9 147 
 RUS  HZ I         728 53.35        23.9 0.44            139           85.9 147 
 PTB  HZ IP     D  728 36.22                             132   -1.3210  105 270 
 PTB  HN ES        728 51.62                             132   -1.4810  105 270 
 PTB  HZ I         728 52.80        29.0 0.10            131            105 270 
 SPBC HZ EP        728 38.20                             129   -0.5410  117 212 
 SPBC HN ES        728 54.98                             129   -0.2510  117 212 
 SPBC HZ I         728 57.86        57.0 0.48            128            117 212 
 PAM  EZ EP        728 40.07                             127   -0.0110  125  45 
 PAM  EE ES        728 57.87                             127    0.2510  125  45 
 PAM  EZ I         728 59.46        26.3 0.18            126            125  45 
 YPLC HZ IP     D  728 45.26                             116    0.23 9  178 135 
 YPLC HN ES        729  6.97                             116    0.53 9  178 135 
 YPLC HZ I         729  8.35        44.9 0.30            116            178 135 
 ZAR  HZ EP        728 45.35                             115   -0.10 9  182 305 
 ZAR  HE ES        729  7.31                             115    0.13 9  182 305 
 ZAR  HZ I         729 10.08        19.3 0.34            114            182 305 
 NOR  HZ EP        728 45.01                             115   -0.86 9  186 234 
 NOR  HE ES        729  6.46                             115   -1.48 9  186 234 
 NOR  HZ I         729  8.37        16.9 0.24            114            186 234 
 OCA  HZ EP        728 45.75                             115   -0.56 9  189   6 
 OCA  HE ES        729  9.11                             115    0.40 9  189   6 
 OCA  HZ I         729 14.97        68.7 0.26            114            189   6 
 TAM  HZ EP        728 46.16                             114   -0.17 9  190  94 
 TAM  HN ES        729  8.78                             114    0.02 9  190  94 
 TAM  HZ I         729 15.32        11.4 0.36            114            190  94 
 ROSC BZ EP        728 49.89                             112    1.00 8  209 206 
 ROSC BE ES        729 14.55                             112    1.25 8  209 206 
 ROSC BZ I         729 17.85        10.6 0.40            112            209 206 
 CHI  HZ EP        728 49.15                             111   -0.25 8  213 187 
 CHI  HN ES        729 14.46                             111    0.25 8  213 187 
 GUY2CHZ EP        728 54.10                             107    0.12 8  252 235 
 GUY2CHE ES        729 22.91                             107    0.54 8  252 235 
 GUY2CHZ I         729 26.51        16.0 0.72                           252 235 
 URE  HZ EP   3    728 53.41                             107   -0.97 2  261 301 
 URE  HE ES        729 23.04                             107   -0.03 8  261 301 
 URE  HZ I         729 31.14        15.7 0.26            106            261 301 
 VIL  EZ EP        728 55.22                             106   -0.37 8  270 184 
 VIL  EN ES        729 25.30                             106    0.07 8  270 184 
 VIL  EZ I         729 32.46         9.2 0.58            105            270 184 
 ELA  HZ EP        728 57.54                             105    0.20 7  280 229 
 ELA  HE ES        729 28.66                             105    0.30 7  280 229 
 ELA  HZ I         729 35.95        11.5 0.32            105            280 229 
 CBOC HZ EP        728 58.46                             104    0.75 7  287 255 
 CBOC HN ES        729 28.52                             104   -0.49 7  287 255 
 CBOC HZ I         729 33.53         6.6 0.32            104            287 255 
 PTGC HZ IP     D  728 57.86                             104   -1.21 7  301 150 
 PTGC HE ES        729 29.73                             104   -1.70 7  301 150 
 PTGC HZ I         729 31.40         8.7 0.56            103            301 150 
 ANIL HZ EP        729  2.33                             103    1.86 7  309 223 
 ANIL HN ES        729 35.75                             103    1.83 7  309 223 
 ANIL HZ I         729 40.08        19.5 0.18            103            309 223 
 DRL03HZ EP        729  1.02                             103    0.26 7  315   1 
 DRL03HN ES        729 36.25                             103    1.82 7  315   1 
 PRA  HZ EP        729  3.97                             101   -0.84 6  348 206 
 PRA  HE ES        729 42.38                             101    0.73 6  348 206 
 PRA  HZ I         729 43.89         5.9 0.20            100            348 206 
 ORTC HZ EP        729  5.35                             101    0.41 6  349 214 
 ORTC HN ES   2    729 41.90                             101    0.03 3  349 214 
 ORTC HZ I         729 49.73         5.0 0.64            100            349 214 
 LL6C HZ EP        729  4.96                             100   -0.46 6  354   4 
 LL6C HE ES   3    729 45.41                             100    2.68 2  354   4 
 LL6C HZ I         729 45.51        12.3 0.70            100            354   4 
 PAL  HZ EP        729  5.30                             100   -0.58 6  357 240 
 PAL  HE ES        729 43.93                             100    0.38 6  357 240 
 PAL  HZ I         729 45.42         5.8 0.52            100            357 240 
 ARGC HZ EP        729  9.68                              99    1.66 6  375 348 
 ARGC HE ES        729 47.90                              99    0.55 6  375 348 
 ARGC HZ I         730  3.00         4.2 0.40             99            375 348 
 SDV  BZ EP        729 11.44                              98   -0.89 6  409  51 
 SDV  B2 ES        729 53.46                              98   -1.57 6  409  51 
 SDV  BZ I         729 56.23         6.7 0.35             97            409  51 
 SJC  HZ EP        729 12.62                              98   -0.13 6  414 334 
 SJC  HE ES   3    729 53.48                              98   -2.29 1  414 334 
 SJC  HZ I         730  4.20         3.6 0.36             97            414 334 
 CRJC HZ EP        729 23.40                              95    0.22 4  500   8 
 CRJC HE ES        730 13.14                              95   -1.20 4  500   8 
 CRJC HZ I         730 16.96         8.6 0.56             94            500   8 
                                                                                
