 2017 11 2 0239 56.7 L   6.748 -73.148145.6  RSN  6 0.4 1.3LRSN                1
 GAP=139        0.90       4.8     4.1  7.2  0.5999E+00  0.6163E+01 -0.5501E+01E
 Epicentro: LOS SANTOS - SANTANDER                                             3
 ACTION:UPD 17-12-12 19:50 OP:rebc STATUS:               ID:20171102023956 L   I
 OLDACT:REG 17-11-02 13:25 OP:dnl  STATUS:               ID:20171102023740     3
 2017-11-02-0238-00M.COL___444                                                 6
 STAT SP IPHASW D HRMM SECON CODA AMPLIT PERI AZIMU VELO AIN AR TRES W  DIS CAZ7
 BAR2 EZ EP        240 16.28                             173    0.0210 17.6 192 
 BAR2 EZ ES        240 31.62                             173    0.1410 17.6 192 
 BAR2 EZ I         240 32.29         6.3 0.20            173           17.6 192 
 BRR  HZ EP        240 18.17                             152    0.1410 73.9 303 
 BRR  HZ I         240 34.23         5.0 0.58            147           73.9 303 
 BRR  HE ES        240 35.12                             152    0.4810 73.9 303 
 PAM  EZ EP        240 19.30                             149    0.0710 82.1  37 
 PAM  EE ES        240 36.26                             149   -0.5110 82.1  37 
 PAM  EZ I         240 38.45         3.7 0.34            145           82.1  37 
 RUS  HZ EP   2    240 20.01                             145   -0.06 5 94.8 176 
 RUS  HN ES        240 38.46                             145    0.1910 94.8 176 
 RUS  HZ I         240 40.38         1.6 0.40            143           94.8 176 
 PTB  HZ EP   2    240 23.47                             132   -0.11 5  146 261 
 PTB  HN ES        240 43.66                             132   -0.86 9  146 261 
 PTB  HZ I         240 46.18         2.2 0.26            128            146 261 
 ZAR  HZ EP   2    240 29.61                             122    0.22 4  206 294 
 ZAR  HN ES        240 55.16                             122    0.31 8  206 294 
 ZAR  HZ I         241  0.25         3.2 0.40            117            206 294 
                                                                                
