 2014  8 2 0547 44.3 L   6.516 -73.602108.6  RSN  5 0.5 1.2LRSN                1
 GAP= 90        1.31       5.6     5.9 11.9  0.1925E+01  0.2289E+02  0.1043E+02E
 Epicentro: SANTA HELENA DEL OPON - SANTANDER                                  3
 ACTION:UPD 14-09-15 21:46 OP:nd   STATUS:               ID:20140802054744 L   I
 OLDACT:UP  14-08-02 17:05 OP:carl STATUS:               ID:20140802053818d    3
 OLDACT:DUP 14-08-02 17:02 OP:carl STATUS:               ID:20140802053818d    3
 2014-08-02-0538-17M.COL___248                                                 6
 STAT SP IPHASW D HRMM SECON CODA AMPLIT PERI AZIMU VELO AIN AR TRES W  DIS CAZ7
 BAR2 SZ EP        548  0.61                             155    0.1510 47.2  80 
 BAR2 SZ ES        548 13.18                             155    0.1410 47.2  80 
 BAR2 SZ I         548 14.76        15.2 0.48            163           47.2  80 
 BRR  HZ EP        548  1.44                             146    0.1610 66.5 349 
 BRR  HN ES        548 14.85                             146    0.3510 66.5 349 
 BRR  HZ I         548 19.35         2.4 0.36            150           66.5 349 
 RUS  HE ES        548 18.10                             138   -0.7510 89.7 140 
 RUS  HZ I         548 20.70         2.0 0.30            146           89.7 140 
 PTB  HZ EP        548  2.71                             136   -0.7610 94.5 272 
 PTB  HN ES        548 17.94                             136   -0.4510 94.5 272 
 PTB  HZ I         548 24.04         5.0 0.40            139           94.5 272 
 SPBC HZ EP        548  5.36                             131    0.5310  109 209 
 SPBC HN ES        548 21.48                             131    0.6610  109 209 
 SPBC HZ I         548 23.51         4.5 0.32            137            109 209 
                                                                                
