 2012 11 2 0746 42.8 L   6.239 -73.614114.2  RSN  9 0.4 1.8LRSN                1
 GAP= 84        0.84       2.9     3.8  6.7  0.9445E+00  0.1107E+02 -0.1078E+01E
 Epicentro: LA PAZ - SANTANDER                                                 3
 ACTION:UPD 12-12-05 15:30 OP:}ep  STATUS:               ID:20121102074642 L   I
 2012-11-02-0740-00M.COL___234                                                 6
 STAT SP IPHASW D HRMM SECON CODA AMPLIT PERI AZIMU VELO AIN AR TRES W  DIS CAZ7
 BAR2 SZ EP        747  0.52                             150    0.1310 61.7  51 
 BAR2 SZ ES   1    747 13.67                             150   -0.42 7 61.7  51 
 RUS  HZ EP   1    747  1.17                             147   -0.13 7 70.1 123 
 RUS  HN ES        747 15.55                             147   -0.1510 70.1 123 
 RUS  HN I         747 17.36         9.0 0.30                          70.1 123 
 BRR  HZ EP        747  2.45                             137   -0.1610 96.6 354 
 BRR  HN ES        747 17.97                             137   -0.0810 96.6 354 
 BRR  HN I         747 18.34        49.0 0.18                          96.6 354 
 GIR2 SZ EP        747  3.50                             135    0.0710  104  27 
 PAM  SZ EP   1    747  9.03                             122   -0.09 7  158  40 
 PAM  SN I         747 11.32         5.4 0.18                           158  40 
 PAM  SN ES        747 30.48                             122    0.86 9  158  40 
 CHI  HZ EP   1    747 11.03                             118   -0.13 7  178 184 
 CHI  HN ES   2    747 33.93                             118    0.68 4  178 184 
 CHI  HN I         747 36.25         4.5 0.40                           178 184 
 ZAR  HZ EP   1    747 12.37                             116   -0.09 6  195 315 
 ZAR  HN ES        747 35.80                             116    0.23 9  195 315 
 ZAR  HN I         747 38.65        11.8 0.38                           195 315 
 HEL  HZ EP   1    747 15.23                             114    0.45 6  212 269 
 HEL  HN ES   2    747 39.74                             114    0.04 4  212 269 
 HEL  HN I         747 45.34         3.0 0.34                           212 269 
 OCA  HZ EP   1    747 14.65                             112   -1.15 6  224   8 
 OCA  HN ES        747 41.31                             112   -0.21 8  224   8 
 OCA  HN I         747 43.02        17.8 0.36                           224   8 
                                                                                
