 2012  1 2 0511 54.7 L   6.783 -73.130141.3  RSN 10 0.2 1.7LRSN                1
 GAP=139        0.54       2.7     2.9  4.1 -0.1258E+01  0.2423E+01  0.1928E+00E
 Epicentro: LOS SANTOS - SANTANDER                                             3
 ACTION:UP  12-02-03 08:13 OP:REBC STATUS:               ID:20120102051154 L   I
 2012-01-02-0510-00M.COL___186                                                 6
 STAT SP IPHASW D HRMM SECON CODA AMPLIT PERI AZIMU VELO SNR AR TRES W  DIS CAZ7
 BAR2 SZ EP   1    512 13.75                             171     0.0 7   22 195 
 BAR2 SZ ES   1    512 28.44                             171    -0.2 7   22 195 
 BAR2 SZ I         512 29.82        14.2 0.21                            22 195 
 BRR  HZ EP        512 15.66                             151     0.110   74 299 
 BRR  HE ES   1    512 32.09                             151     0.3 7   74 299 
 BRR  HZ I         512 33.89        13.7 0.24                            74 299 
 PAM  SZ EP        512 16.61                             150     0.110   78  38 
 PAM  SN ES   1    512 33.59                             150     0.1 7   78  38 
 RUS  HZ EP   1    512 17.83                             143    -0.1 7   99 177 
 RUS  HN ES   2    512 35.90                             143    -0.1 5   99 177 
 RUS  HZ I         512 37.88         5.4 0.43                            99 177 
 PTB  HZ EP   1    512 20.89                             131    -0.6 7  149 260 
 PTB  HE ES   2    512 42.28                             131     0.0 5  149 260 
 OCA  SZ EP        512 22.64                             128    -0.3 9  162 353 
 ZAR  HZ EP   1    512 27.47                             121     0.3 6  206 292 
 ZAR  HE ES   1    512 52.25                             121    -0.2 6  206 292 
 ZAR  HZ I         512 57.79         5.4 0.33                           206 292 
 NOR  SE ES   1    512 57.96                             118     0.0 6  235 235 
 CHI  HZ EP   1    512 32.28                             116     0.2 6  247 196 
 CHI  HE ES   2    513  1.40                             116     0.3 4  247 196 
 CHI  HZ I         513  6.65         1.6 0.34                           247 196 
 HEL  HZ EP   2    512 35.14                             114     0.3 4  273 256 
 HEL  HZ I         513 12.98         3.1 0.34                           273 256 
                                                                                
