 2016 11 2 0548 28.2 L   6.715 -73.304152.4  RSN  4 0.5 1.1LRSN                1
 GAP=181        0.99       9.9    13.1  8.3  0.9178E+02  0.3212E+02  0.1738E+02E
 Epicentro: GALAN - SANTANDER                                                  3
 ACTION:UPD 17-10-26 21:03 OP:lp   STATUS:               ID:20161102053745 L   I
 OLDACT:UP  16-11-02 16:38 OP:dani STATUS:               ID:20161102053745 L   3
 OLDACT:UP  16-11-02 16:37 OP:dani STATUS:               ID:20161102053745 L   3
 OLDACT:UP  16-11-02 16:37 OP:dani STATUS:               ID:20161102053745 L   3
 OLDACT:UP  16-11-02 16:37 OP:dani STATUS:               ID:20161102053745 L   3
 OLDACT:UP  16-11-02 16:36 OP:dani STATUS:               ID:20161102053745 L   3
 OLDACT:UP  16-11-02 16:36 OP:dani STATUS:               ID:20161102053745 L   3
 OLDACT:UPD 16-11-02 13:22 OP:dnl  STATUS:               ID:20161102053745 L   3
 2016-11-02-0538-00M.COL___343                                                 6
 STAT SP IPHASW D HRMM SECON CODA AMPLIT PERI AZIMU VELO AIN AR TRES W  DIS CAZ7
 BAR2 EZ EP        548 47.93                             173   -0.6710 19.1 135 
 BAR2 EZ ES        549  4.11                             173   -0.3710 19.1 135 
 BAR2 EZ I         549  4.34         4.0 0.25            174           19.1 135 
 BRR  HZ EP        548 49.95                             156    0.2810 62.5 314 
 BRR  HN ES        549  6.53                             156    0.1510 62.5 314 
 BRR  HZ I         549 12.61         2.5 0.41            153           62.5 314 
 RUS  HZ EP        548 52.37                             146    0.1510 94.2 165 
 RUS  HN ES        549 11.26                             146    0.3410 94.2 165 
 RUS  HZ I         549 11.86         1.5 0.26            150           94.2 165 
 PTB  HZ EP        548 54.42                             136    0.2710  129 261 
 PTB  HN ES   3    549 12.47                             136   -1.89 2  129 261 
 PTB  HZ I         549 17.49         1.1 0.46            136            129 261 
                                                                                
