 2013  3 2 0010  2.7 L   6.340 -73.728 93.2  RSN  5 0.5 1.4LRSN                1
 GAP=161        1.18       6.0     4.8 10.3  0.1453E+02  0.1729E+02  0.7087E+01E
 Epicentro: SANTA HELENA DEL OPON - SANTANDER                                  3
 ACTION:UPD 13-04-09 13:59 OP:ep   STATUS:               ID:20130302001002 L   I
 2013-03-02-0008-49M.COL___202                                                 6
 STAT SP IPHASW D HRMM SECON CODA AMPLIT PERI AZIMU VELO AIN AR TRES W  DIS CAZ7
 BAR2 SZ IP     C  010 18.49                             142    0.0310 66.4  65 
 BAR2 SZ I         010 18.57        12.1 0.12            143           66.4  65 
 BAR2 SZ ES        010 30.83                             142    0.0810 66.4  65 
 PTB  HZ EP        010 19.01                             135   -0.5510 83.6 285 
 PTB  HN ES        010 32.51                             135   -0.2010 83.6 285 
 PTB  HN I         010 33.32         7.1 0.26            138           83.6 285 
 BRR  HZ IP     D  010 19.30                             134   -0.3510 84.9   1 
 BRR  HN ES        010 32.51                             134   -0.3610 84.9   1 
 BRR  HN I         010 37.02         5.1 0.36            136           84.9   1 
 RUS  HZ EP        010 20.46                             134   -0.0310 86.8 125 
 RUS  HN ES        010 34.81                             134    0.4510 86.8 125 
 RUS  HN I         010 36.21         6.5 0.50            137           86.8 125 
 ZAR  HZ EP        010 29.41                             113   -0.01 9  178 316 
 ZAR  HN ES        010 51.45                             113    1.20 9  178 316 
                                                                                
