 2017  8 2 0556 18.8 L   6.026 -73.781 99.1  RSN  6 0.4 1.0LRSN                1
 GAP=117        1.01       4.5     3.7  8.9 -0.6496E+01  0.9028E+01 -0.8656E+01E
 Epicentro: BOLIVAR - SANTANDER                                                3
 ACTION:UPD 17-09-04 20:15 OP:rebc STATUS:               ID:20170802055618 L   I
 OLDACT:DUP 17-08-02 17:22 OP:osc  STATUS:               ID:20170802054745d    3
 2017-08-02-0548-00M.COL___392                                                 6
 STAT SP IPHASW D HRMM SECON CODA AMPLIT PERI AZIMU VELO AIN AR TRES W  DIS CAZ7
 SPBC HE ES        556 45.45                             150   -0.3810 52.5 218 
 RUS  HZ EP        556 36.61                             139    0.1910 78.7 101 
 RUS  HN ES        556 50.30                             139    0.1310 78.7 101 
 BAR2 EZ EP        556 37.66                             134    0.5410 91.1  47 
 BAR2 EZ ES        556 51.19                             134   -0.2310 91.1  47 
 PTB  HZ EP        556 36.75                             133   -0.3110 93.8 307 
 PTB  HE ES   2    556 52.19                             133    0.88 5 93.8 307 
 PTB  HZ I         556 54.75         1.2 0.28            133           93.8 307 
 BRR  HN ES        556 55.51                             126   -0.1510  120   4 
 NOR  HZ EP        556 40.15                             123   -0.5610  131 247 
 NOR  HE ES        556 58.36                             123    0.5510  131 247 
 NOR  HZ I         556 59.27         3.7 0.16            124            131 247 
                                                                                
