 2015  5 2 0757 14.7 L   6.573 -73.491108.5  RSN 10 0.5 1.4LRSN                1
 GAP= 63        1.17       3.4     4.2  7.6 -0.2215E+01  0.1654E+02  0.1855E+01E
 Epicentro: EL CARMEN - SANTANDER                                              3
 ACTION:UPD 15-09-10 22:00 OP:cam  STATUS:               ID:20150502075714 L   I
 OLDACT:REG 15-05-02 13:17 OP:stll STATUS:               ID:20150502074750     3
 2015-05-02-0747-50M.COL___276                                                 6
 STAT SP IPHASW D HRMM SECON CODA AMPLIT PERI AZIMU VELO AIN AR TRES W  DIS CAZ7
 BAR2 EZ EP        757 30.70                             161    0.4710 34.2  86 
 BAR2 EZ ES        757 42.95                             161    0.6110 34.2  86 
 BAR2 EZ I         757 44.37        13.8 0.28            166           34.2  86 
 BRR  HZ EP        757 31.42                             147   -0.0510 64.0 338 
 BRR  HE ES        757 44.02                             147   -0.5310 64.0 338 
 BRR  HZ I         757 53.48         3.1 0.32            141           64.0 338 
 RUS  HZ EP        757 33.78                             138   -0.1510 87.7 149 
 RUS  HE ES        757 48.53                             138   -0.3810 87.7 149 
 RUS  HZ I         757 50.63         2.0 0.38            142           87.7 149 
 SPBC HZ EP        757 36.40                             128    0.1110  120 212 
 PAM  SZ EP        757 37.34                             128    0.3810  122  46 
 PAM  SE ES        757 54.12                             128   -0.2010  122  46 
 PAM  SZ I         757 56.03         3.5 0.42            128            122  46 
 ZAR  HZ EP        757 42.84                             116    0.25 9  182 304 
 ZAR  HN ES        758  4.70                             116    0.36 9  182 304 
 ZAR  HZ I         758  8.73         4.0 0.32            113            182 304 
 OCA  HE ES        758  5.11                             115   -0.18 9  185   6 
 OCA  HZ I         758 12.33         7.9 0.34            113            185   6 
 NOR  HZ EP        757 42.55                             115   -0.86 9  189 234 
 NOR  HN ES        758  5.42                             115   -0.38 9  189 234 
 NOR  HZ I         758  7.59         4.3 0.16            113            189 234 
 HEL  HZ EP        757 47.69                             110   -0.68 8  229 260 
 HEL  HZ I         758 18.20         1.5 0.32            108            229 260 
 GUY2CHZ EP        757 51.83                             108    0.31 8  255 234 
 GUY2CHE ES        758 21.30                             108    1.07 8  255 234 
 GUY2CHZ I         758 22.41         2.6 0.40                           255 234 
                                                                                
