 2017  3 2 0305 34.0 L   6.792 -73.150147.5  RSN 33 0.5 3.0LRSN                1
 GAP= 65        0.79       2.3     2.1  3.4  0.1740E+00  0.1362E+01  0.1854E+01E
 Epicentro: LOS SANTOS - SANTANDER                                             3
 ACTION:UPD 17-05-25 18:34 OP:jn   STATUS:               ID:20170302030534 L   I
 OLDACT:UP  17-03-02 15:01 OP:and  STATUS:               ID:20170302025115     3
 OLDACT:UP  17-03-02 15:01 OP:and  STATUS:               ID:20170302025115     3
 OLDACT:UP  17-03-02 14:58 OP:and  STATUS:               ID:20170302025115     3
 OLDACT:UP  17-03-02 14:57 OP:and  STATUS:               ID:20170302025115     3
 OLDACT:UP  17-03-02 14:55 OP:and  STATUS:               ID:20170302025115     3
 OLDACT:UP  17-03-02 14:49 OP:and  STATUS:               ID:20170302025115     3
 OLDACT:UP  17-03-02 14:49 OP:and  STATUS:               ID:20170302025115     3
 OLDACT:UP  17-03-02 14:49 OP:and  STATUS:               ID:20170302025115     3
 OLDACT:UP  17-03-02 14:48 OP:and  STATUS:               ID:20170302025115     3
 OLDACT:UP  17-03-02 14:42 OP:and  STATUS:               ID:20170302025115     3
 OLDACT:UP  17-03-02 14:42 OP:and  STATUS:               ID:20170302025115     3
 OLDACT:UP  17-03-02 14:38 OP:and  STATUS:               ID:20170302025115     3
 OLDACT:REG 17-03-02 12:38 OP:and  STATUS:               ID:20170302025115     3
 2017-03-02-0258-00M.COL___390                                                 6
 STAT SP IPHASW D HRMM SECON CODA AMPLIT PERI AZIMU VELO AIN AR TRES W  DIS CAZ7
 BAR2 EZ IP     D  3 5 53.77                             171   -0.0310 22.3 189 
 BAR2 EZ ES        3 6  8.86                             171   -0.4010 22.3 189 
 BAR2 EZ I         3 6 11.72       381.8 0.28            167           22.3 189 
 BRR  HZ IP     C  3 5 55.56                             153    0.2410 71.2 299 
 BRR  HN ES        3 6 12.75                             153    0.7910 71.2 299 
 BRR  HZ I         3 6 16.68       125.0 0.24            153           71.2 299 
 PAM  EZ IP     C  3 5 56.62                             151    0.1810 78.4  39 
 PAM  EN ES        3 6 13.69                             151   -0.2710 78.4  39 
 PAM  EZ I         3 6 16.15       133.3 0.49            153           78.4  39 
 RUS  HZ IP     D  3 5 57.65                             144   -0.1910 99.7 176 
 RUS  HN ES     D  3 6 16.42                             144   -0.0310 99.7 176 
 RUS  HZ I         3 6 17.73       217.6 0.42            142           99.7 176 
 PTB  HZ EP        3 6  0.33                             133   -0.70 9  147 259 
 PTB  HN ES        3 6 21.72                             133   -0.41 9  147 259 
 PTB  HZ I         3 6 24.24        83.5 0.14            131            147 259 
 TAM  HZ IP     C  3 6  2.20                             131    0.38 9  155 105 
 TAM  HZ I         3 6 23.17        81.1 0.40            131            155 105 
 TAM  HN ES        3 6 23.91                             131    0.38 9  155 105 
 ZAR  HZ EP        3 6  6.36                             123   -0.17 9  204 292 
 ZAR  HN ES        3 6 32.09                             123    0.18 9  204 292 
 ZAR  HZ I         3 6 37.25       152.3 0.50            123            204 292 
 NOR  HZ EP        3 6  9.82                             119    0.11 8  234 235 
 NOR  HN ES        3 6 38.12                             119    0.54 8  234 235 
 NOR  HZ I         3 6 43.15        57.9 0.32            118            234 235 
 CHI  HZ EP        3 6 11.52                             118   -0.15 8  248 195 
 CHI  HN ES        3 6 41.36                             118    0.30 8  248 195 
 CHI  HZ I         3 6 45.16       107.3 0.58            116            248 195 
 ROSC BZ EP   9    3 6 13.13                             117    1.05 0  252 211 
 ROSC BN ES        3 6 43.14                             117    0.29 8  252 211 
 HEL  HZ EP   3    3 6 15.45                             115    1.25 2  271 256 
 HEL  HN ES        3 6 45.59                             115    0.02 8  271 256 
 URE  HZ EP   9    3 6 13.66                             114   -1.46 0  284 292 
 URE  HN ES        3 6 45.30                             113   -0.45 7  284 292 
 URE  HZ I         3 6 56.70        56.3 0.20            114            284 292 
 VIL  EZ EP        3 6 16.95                             112   -0.41 7  302 192 
 VIL  EN ES        3 6 51.45                             112    0.25 7  302 192 
 VIL  EZ I         3 7  1.79       161.1 0.42            111            302 192 
 LL1C HZ EP   3    3 6 19.09                             112    1.34 2  307 352 
 LL1C HN ES   4    3 6 54.64                             112    2.75 0  307 352 
 PTGC HZ IP     D  3 6 16.95                             112   -0.89 7  308 158 
 PTGC HN ES   3    3 6 50.39                             112   -1.66 2  308 158 
 PTGC HZ I         3 6 53.15        34.8 0.38            111            308 158 
 LL6C HN EP   9    3 5 59.80                             111   -20.1 0  326 358 
 LL6C HE ES        3 6 35.22                                   -0.36 7  326 358 
 LL6C HN I         3 6 37.15        48.5 0.44            111            326 358 
 ELA  HZ EP   9    3 6 22.93                             111    2.14 0  328 230 
 ELA  HN ES        3 6 59.34                             110   -0.10 7  328 230 
 ELA  HZ I         3 7 10.49        69.1 0.50            110            328 230 
 CBOC HZ EP        3 6 21.36                             110    0.48 7  333 252 
 CBOC HN ES   3    3 6 58.87                             110    1.41 2  333 252 
 CBOC HZ I         3 7  3.71        16.2 0.46            110            333 252 
 DBB  EZ EP        3 6 21.13                             110   -0.35 7  339 274 
 DBB  EN ES        3 6 57.77                             110   -0.75 7  339 274 
 DBB  EZ I         3 7  0.67        28.2 0.37            109            339 274 
 ANIL HZ EP   3    3 6 25.46                             109    1.72 2  356 225 
 ANIL HN ES   4    3 7  6.00                             109    3.46 0  356 225 
 ARGC HZ EP   3    3 6 25.10                             109    1.32 2  360 340 
 ARGC HN ES   2    3 7  3.31                             109    0.68 3  360 340 
 ARGC HZ I         3 7  5.17        22.4 0.36            109            360 340 
 PRA  HZ EP        3 6 27.27                             107   -0.17 6  391 210 
 PRA  HN ES        3 7  9.33                             107    0.20 6  391 210 
 PRA  HZ I         3 7 16.00        89.0 0.60            106            391 210 
 ORTC HZ EP        3 6 28.19                             107    0.35 6  394 216 
 ORTC HN ES   3    3 7 11.65                             107    1.80 1  394 216 
 ORTC HZ I         3 7 15.24        42.3 0.30            106            394 216 
 SJC  HZ EP   3    3 6 28.00                             106   -1.66 1  410 327 
 SJC  HN ES   4    3 7  8.92                             106   -4.17 0  410 327 
 SJC  HZ I         3 7 17.90        25.6 0.38            106            410 327 
 CRJC HZ EP   9    3 6 34.10                             104   -2.54 0  469   4 
 CRJC HN ES        3 7 22.49                             104   -0.49 5  469   4 
 CRJC HZ I         3 7 29.23        32.9 0.32            104            469   4 
 YOT  HZ EP        3 6 36.95                             104   -0.01 5  471 229 
 YOT  HN ES   4    3 7 28.33                             104    2.26 0  471 229 
 SMAR HZ EP        3 6 39.23                             103   -0.76 4  498 346 
 SMAR HN ES   4    3 7 27.85                             103   -3.63 0  498 346 
 SMAR HZ I         3 7 31.34        14.2 0.32            103            498 346 
 MACC HZ EP   3    3 6 40.64                             102   -1.98 1  520 189 
 MACC HN ES   4    3 7 31.89                             102   -4.26 0  520 189 
 MACC HZ I         3 7 38.19        17.6 0.68            101            520 189 
 GARC HZ EP   3    3 6 47.97                             101   -1.18 1  572 207 
 GARC HN ES   4    3 7 44.94                             101   -2.83 0  572 207 
 GARC HZ I         3 7 50.50        17.4 0.34            100            572 207 
 POP2 HZ EP        3 6 54.11                             100    0.21 3  611 220 
 POP2 HN ES   4    3 7 53.50                             100   -2.74 0  611 220 
 POP2 HZ I         3 8  3.72         2.5 0.38             99            611 220 
 CONO HZ EP        3 6 54.95                             100    0.69 3  611 216 
 CONO HN ES   4    3 7 59.95                             100    3.07 0  611 216 
 CONO HZ I         3 8  1.34         5.2 0.40             99            611 216 
 FLO2 HZ EP        3 6 57.01                              99    0.00 2  639 206 
 FLO2 HN ES   3    3 8  3.02                              99    1.25 1  639 206 
 FLO2 HZ I         3 8  6.87         4.1 0.50             99            639 206 
 BBAC HZ EP        3 7  5.00                              98    0.90 1  696 221 
 BBAC HN ES   4    3 8 11.34                              98   -3.05 0  696 221 
 BBAC HZ I         3 8 18.53         1.6 0.30             98            696 221 
                                                                                
