 2010  4 2 0806 32.2 L   6.810 -73.005143.2  RSN  4 0.1 1.7LRSN                1
 GAP=232        0.29       4.4     5.9  3.8  0.7830E+01 -0.6735E+00 -0.6098E+01E
 Epicentro: CEPITA - SANTANDER                                                 3
 ACTION:UPD 10-08-24 09:57 OP:vdl  STATUS:               ID:20100402080632 L   I
 2010-04-02-0803-49S.COL___098                                                 6
 STAT SP IPHASW D HRMM SECON CODA AMPLIT PERI AZIMU VELO AIN AR TRES W  DIS CAZ7
 BAR2 SZ EP        8 6 51.69                             168     0.010   31 219 
 BAR2 SZ ES   1    8 7  6.93                             168     0.0 7   31 219 
 BRR  HZ IP        8 6 53.83                             147    -0.110   85 293 
 BRR  HZ I         8 6 54.18         8.3 0.10                            85 293 
 BRR  HN ES   2    8 7 10.77                             147     0.0 5   85 293 
 OCA  SZ EP   2    8 7  0.47                             128     0.0 5  162 348 
 OCA  SZ ES   3    8 7 22.71                             128     0.2 2  162 348 
 HEL  HZ EP   2    8 7 14.18                             113     0.2 4  287 256 
                                                                                
