 2017 11 2 0451 41.7 L   6.804 -73.128144.9  RSN  5 0.4 1.1LRSN                1
 GAP=240        0.99       6.1     9.6  9.5  0.1199E+02  0.8446E+01  0.2026E+01E
 Epicentro: LOS SANTOS - SANTANDER                                             3
 ACTION:UPD 17-12-12 19:50 OP:rebc STATUS:               ID:20171102045141 L   I
 OLDACT:REG 17-11-02 13:30 OP:dnl  STATUS:               ID:20171102044744     3
 2017-11-02-0448-00M.COL___441                                                 6
 STAT SP IPHASW D HRMM SECON CODA AMPLIT PERI AZIMU VELO AIN AR TRES W  DIS CAZ7
 BAR2 EZ EP        452  0.98                             170   -0.2210 24.2 194 
 BAR2 EZ ES        452 15.83                             170   -0.6110 24.2 194 
 BAR2 EZ I         452 18.80         7.2 0.86            163           24.2 194 
 BRR  HZ EP        452  2.77                             152   -0.0310 72.7 297 
 BRR  HE ES        452 19.74                             152    0.4510 72.7 297 
 BRR  HZ I         452 20.33         3.5 0.48            153           72.7 297 
 RUS  HZ EP   2    452  5.44                             144    0.10 5  101 177 
 RUS  HN ES        452 24.44                             144    0.6210  101 177 
 RUS  HZ I         452 29.21         0.6 0.46            141            101 177 
 PTB  HZ EP   4    452  7.18                             131   -1.56 0  150 259 
 PTB  HE ES   4    452 28.52                             131   -1.34 0  150 259 
 PTB  HZ I         452 31.24         0.8 0.46            131            150 259 
 SPBC HZ EP   2    452 10.34                             129    0.10 5  165 219 
 SPBC HN ES        452 32.20                             129   -0.33 9  165 219 
 SPBC HZ I         452 38.97         1.5 0.22            127            165 219 
                                                                                
