 2015  3 2 0724 50.8 L   6.795 -73.137150.2  RSN 23 0.4 2.3LRSN                1
 GAP= 72        0.92       2.3     2.8  4.4 -0.1125E+01  0.3311E+01  0.1449E+01E
 Epicentro: LOS SANTOS - SANTANDER                                             3
 ACTION:UPD 15-04-30 16:22 OP:nd   STATUS:               ID:20150302072450 L   I
 OLDACT:UP  15-03-02 18:42 OP:spq  STATUS:               ID:20150302071748     3
 OLDACT:UP  15-03-02 18:36 OP:spq  STATUS:               ID:20150302071748     3
 OLDACT:REG 15-03-02 12:53 OP:spq  STATUS:               ID:20150302071748     3
 2015-03-02-0717-48M.COL___290                                                 6
 STAT SP IPHASW D HRMM SECON CODA AMPLIT PERI AZIMU VELO AIN AR TRES W  DIS CAZ7
 BAR2 EZ EP     D  725 10.73                             171   -0.1810 23.0 193 
 BAR2 EZ ES   1    725 26.10                             171   -0.53 7 23.0 193 
 BAR2 EZ I         725 27.58        36.2 0.46            169           23.0 193 
 BRR  HZ IP     C  725 12.65                             153    0.2010 72.3 299 
 BRR  HN ES        725 30.19                             153    0.8310 72.3 299 
 BRR  HZ I         725 32.36        24.3 0.18            153           72.3 299 
 PAM  SZ EP        725 13.52                             152    0.0910 77.2  39 
 PAM  SN ES        725 30.99                             152   -0.1310 77.2  39 
 PAM  SZ I         725 32.96        27.7 0.56            150           77.2  39 
 RUS  HZ EP     D  725 14.61                             145   -0.2910 99.9 177 
 RUS  HE ES        725 33.29                             145   -0.4410 99.9 177 
 RUS  HZ I         725 34.99        16.9 0.40            142           99.9 177 
 PTB  HZ EP        725 17.29                             133   -0.87 9  149 259 
 PTB  HN ES        725 38.94                             133   -0.60 9  149 259 
 PTB  HZ I         725 42.18        31.6 0.12            131            149 259 
 TAM  HZ IP     D  725 18.85                             132    0.16 9  154 105 
 TAM  HZ I         725 39.51         9.1 0.42            129            154 105 
 TAM  HN ES        725 40.80                             132    0.33 9  154 105 
 OCA  HZ EP        725 19.57                             130    0.09 9  161 353 
 OCA  HN ES        725 41.89                             130    0.01 9  161 353 
 OCA  HZ I         725 46.78        29.2 0.28            129            161 353 
 SPBC HZ EP        725 19.66                             130    0.05 9  163 219 
 SPBC HE ES        725 42.30                             130    0.18 9  163 219 
 SPBC HZ I         725 48.86        43.2 0.22            128            163 219 
 NOR  HZ EP        725 26.83                             119    0.04 8  235 235 
 NOR  HN ES        725 55.09                             119    0.19 8  235 235 
 NOR  HZ I         725 58.04        15.3 0.16            118            235 235 
 SML  HZ EP        725 27.39                             118   -0.34 8  245 335 
 SML  HN ES        725 57.05                             118    0.48 8  245 335 
 SML  HZ I         726  0.49        42.1 0.10            117            245 335 
 CHI  HZ EP        725 28.60                             118   -0.07 8  248 195 
 CHI  HN ES        725 58.32                             118    0.08 8  248 195 
 CHI  HZ I         726  2.13         8.0 0.36            116            248 195 
 ROSC BZ EP   4    725 30.31                             118    1.19 0  253 211 
 ROSC BE ES   4    726  0.90                             118    1.85 0  253 211 
 ROSC BZ I         726  4.04        18.7 0.40            116            253 211 
 GUY2CHZ EP        725 34.65                             113    0.03 7  302 235 
 GUY2CHN ES   4    726 10.29                             113    1.45 0  302 235 
 GUY2CHZ I         726 17.75        10.5 0.42                           302 235 
 PTGC HZ EP   4    725 33.63                             112   -1.08 0  308 159 
 PTGC HE ES   4    726  7.62                             112   -1.38 0  308 159 
 PTGC HZ I         726 10.57         5.0 0.43            110            308 159 
 RREF HZ EP   4    725 38.19                             112    1.05 0  322 230 
 RREF HN ES   4    726 16.25                             112    2.94 0  322 230 
 RREF HZ I         726 19.32        12.3 0.24            110            322 230 
 CBOC HZ EP        725 38.33                             111    0.39 7  334 252 
 DBB  SZ EP   1    725 38.09                             110   -0.44 5  340 274 
 DBB  SZ ES   1    726 15.01                             110   -0.79 5  340 274 
 TOL  SZ EP   4    725 40.35                             110    1.12 0  344 225 
 TOL  SN ES        726 17.98                             110    0.95 7  344 225 
 TOL  SZ I         726 24.18        10.7 0.38            109            344 225 
 MON  HZ EP   4    725 37.96                             109   -2.10 0  355 308 
 MON  HE ES   4    726 16.49                             109   -2.03 0  355 308 
 MON  HZ I         726 19.13         5.5 0.30            108            355 308 
 ANIL HN ES   4    726 21.77                             109    2.00 0  358 225 
 ANIL HZ I         726 27.50         3.5 0.32            108            358 225 
 PRA  HZ EP   1    725 44.04                             107   -0.39 4  392 210 
 PRA  HE ES        726 26.91                             107    0.61 6  392 210 
 PRA  HZ I         726 29.98         8.5 0.28            106            392 210 
 ORTC HZ EP        725 44.95                             107    0.11 6  396 216 
 ORTC HN ES        726 27.84                             107    0.81 6  396 216 
 ORTC HZ I         726 32.08         4.8 0.20            106            396 216 
 PAL  HZ EP        725 45.82                             106   -0.31 6  406 239 
 PAL  HE ES   1    726 29.01                             106   -0.31 4  406 239 
 PAL  HZ I         726 37.71         3.4 0.38            105            406 239 
                                                                                
