 2011  8 2 0419 58.5 L   6.780 -73.103150.9  RSN  6 0.2 1.5LRSN                1
 GAP=143        0.46       3.0     4.4  5.4 -0.3699E+01 -0.4552E+01  0.1142E+01E
 Epicentro: LOS SANTOS - SANTANDER                                             3
 ACTION:UPD 12-07-25 14:05 OP:epov STATUS:               ID:20110802041958 L   I
 2011-08-02-0420-00M.COL___140                                                 6
 STAT SP IPHASW D HRMM SECON CODA AMPLIT PERI AZIMU VELO AIN AR TRES W  DIS CAZ7
 PAM  SZ EP   1    420 21.47                             152    0.25 8 76.3  36 
 PAM  SN ES   2    420 38.82                             152   -0.10 5 76.3  36 
 BRR  HZ EP   1    420 20.36                             152   -0.16 8 76.4 298 
 BRR  HE ES   1    420 37.88                             152    0.20 8 76.4 298 
 BRR  HZ I         420 40.12         8.2 0.14                          76.4 298 
 RUS  HZ EP   1    420 22.47                             146   -0.13 8 98.1 179 
 RUS  HE ES   2    420 41.57                             146    0.18 5 98.1 179 
 RUS  HZ I         420 42.17         3.0 0.24                          98.1 179 
 BRI  SZ EP        420 22.84                             142   -0.1010  109  18 
 BRI  SZ ES   2    420 41.74                             142   -0.25 5  109  18 
 OCA  SZ EP   1    420 27.90                             130    0.40 7  163 352 
 OCA  SZ ES   2    420 49.65                             130   -0.45 5  163 352 
 OCA  SZ I         420 53.64         5.4 0.53                           163 352 
 NOR  SE ES   2    421  2.83                             119   -0.31 4  237 236 
                                                                                
