 2011  1 2 0033 40.4 L   6.798 -73.145147.6  RSN 17 0.4 3.5LRSN                1
 GAP=103        0.82       2.7     4.1  5.3 -0.4253E+01  0.4730E+01  0.1027E+01E
 Epicentro: LOS SANTOS - SANTANDER                                             3
 ACTION:UP  11-02-08 08:37 OP:pat  STATUS:               ID:20110102003340 L   I
 2011-01-02-0030-38S.COL___134                                                 6
 STAT SP IPHASW D HRMM SECON CODA AMPLIT PERI AZIMU VELO SNR AR TRES W  DIS CAZ7
 BAR2 SZ IP        034  0.56                             171     0.310   23 191 
 BAR2 SZ ES   1    034 15.44                             171    -0.3 7   23 191 
 BAR2 SZ I         034 18.18       856.1 0.39                            23 191 
 GIR2 SZ IP        034  0.61                             167     0.310   32 350 
 RUS  HZ IP     D  034  4.35                             144     0.010  100 176 
 RUS  HN ES   1    034 22.89                             144    -0.1 7  100 176 
 RUS  HZ I         034 24.94       371.5 0.46                           100 176 
 GRA  SZ IP        034  6.27                             137     0.410  126  17 
 GRA  SZ ES   1    034 25.20                             137    -0.5 7  126  17 
 GRA  SZ I         034 27.08       699.6 0.32                           126  17 
 OCA  SZ IP        034  8.83                             130    -0.1 9  161 353 
 OCA  SZ ES   1    034 31.23                             130     0.1 7  161 353 
 OCA  SZ I         034 35.82       465.1 0.34                           161 353 
 YOP  SZ IP        034 11.02                             127     0.4 9  179 153 
 YOP  SZ I         034 38.72       183.3 0.21                           179 153 
 NOR  SZ EP        034 16.29                             119     0.0 8  235 235 
 NOR  SN ES   1    034 43.77                             119    -0.5 6  235 235 
 CHI  HZ EP   1    034 18.21                             117     0.0 6  248 195 
 CHI  HE ES   1    034 47.45                             117    -0.2 6  248 195 
 CHI  HZ I         034 51.70       179.3 0.42                           248 195 
 ROSC BE ES   1    034 48.53                             117     0.1 6  253 211 
 ROSC BZ I         034 58.50       480.7 0.38                           253 211 
 HEL  HZ EP   1    034 20.44                             115    -0.3 6  272 256 
 HEL  HE ES   1    034 51.74                             115    -0.4 6  272 256 
 HEL  HZ I         034 59.85       333.8 0.20                           272 256 
 VIL  SZ EP   1    034 23.58                             112    -0.1 5  301 190 
 GUY  SN ES   1    034 58.90                             113     0.7 5  301 235 
 VIL  SZ I         035  2.45       145.4 0.23                           301 190 
 GUY  SZ EP   1    034 24.96                             113     0.8 5  301 235 
 DBB  SZ EP        034 28.03                             110     0.0 7  340 274 
 TOL  SZ EP   1    034 28.62                             110    -0.1 5  343 225 
 SDV  BZ EP        034 29.70                             108    -0.9 6  360  50 
 SDV  BZ I         035  9.08        81.0 0.34                           360  50 
 PRA  HZ EP        034 33.41                             107    -0.6 6  392 210 
 PRA  HE ES   1    035 15.50                             107    -0.3 4  392 210 
 GUA  SZ EP   1    034 43.13                             103    -0.5 4  474 173 
                                                                                
