 2014 11 2 0318  6.3 L   6.799 -73.093148.9  RSN  5 0.3 1.2LRSN                1
 GAP=243        0.72       4.7     5.2  6.2  0.4422E+01 -0.7054E+00  0.2843E+01E
 Epicentro: LOS SANTOS - SANTANDER                                             3
 ACTION:UPD 14-12-19 15:38 OP:nd   STATUS:               ID:20141102031806 L   I
 OLDACT:DUP 14-11-02 17:50 OP:spq  STATUS:               ID:20141102030744d    3
 2014-11-02-0307-43M.COL___274                                                 6
 STAT SP IPHASW D HRMM SECON CODA AMPLIT PERI AZIMU VELO AIN AR TRES W  DIS CAZ7
 BAR2 SZ EP   1    318 26.15                             170   -0.15 7 24.9 203 
 BAR2 SZ ES   1    318 41.80                             170   -0.12 7 24.9 203 
 BAR2 SZ I         318 43.88         2.9 0.15            165           24.9 203 
 BRR  HZ EP        318 28.17                             151    0.1310 76.4 297 
 BRR  HE ES        318 45.29                             151    0.2610 76.4 297 
 BRR  HZ I         318 48.99         3.0 0.16            150           76.4 297 
 RUS  HZ EP        318 30.56                             145    0.2710  100 179 
 RUS  HE ES   1    318 48.62                             145   -0.41 7  100 179 
 RUS  HZ I         318 50.84         1.4 0.38            145            100 179 
 PTB  HZ EP        318 33.47                             132   -0.53 9  153 259 
 PTB  HE ES        318 55.39                             132   -0.24 9  153 259 
 PTB  HZ I         318 59.63         2.7 0.10            131            153 259 
 SPBC HZ EP   1    318 35.50                             129    0.16 7  167 221 
 SPBC HN ES        318 58.40                             129    0.38 9  167 221 
 SPBC HZ I         319  4.67         3.0 0.20            129            167 221 
                                                                                
