 2010 10 2 0306 22.9 L   6.783 -73.093150.0  RSN 12 0.2 2.1LRSN                1
 GAP=140        0.46       2.2     3.7  3.7 -0.2892E+01 -0.2442E+00  0.9965E+00E
 Epicentro: LOS SANTOS - SANTANDER                                             3
 ACTION:UP  11-02-18 11:07 OP:tino STATUS:               ID:20101002030622 L   I
 2010-10-02-0303-16S.COL___125                                                 6
 STAT SP IPHASW D HRMM SECON CODA AMPLIT PERI AZIMU VELO SNR AR TRES W  DIS CAZ7
 BAR2 SZ EP        3 6 42.86                             171    -0.210   23 205 
 BAR2 SZ ES   1    3 6 58.83                             171     0.1 7   23 205 
 BAR2 SZ I         3 7  0.89        29.8 0.14                            23 205 
 BRR  HZ IP     C  3 6 44.87                             151     0.010   77 298 
 BRR  HZ I         3 6 46.41        41.0 0.15                            77 298 
 BRR  HN ES   1    3 7  2.27                             151     0.3 7   77 298 
 RUS  HZ EP   2    3 6 46.82                             145    -0.1 5   98 179 
 RUS  HN ES   2    3 7  5.76                             145     0.1 5   98 179 
 RUS  HZ I         3 7  6.57         9.4 0.19                            98 179 
 GUE  SZ EP        3 6 47.98                             140    -0.110  117   9 
 GRA  SZ EP   1    3 6 48.74                             138     0.2 7  126  15 
 GRA  SZ ES   1    3 7  8.33                             138    -0.2 7  126  15 
 GRA  SZ I         3 7 10.65        15.4 0.30                           126  15 
 OCA  SZ EP   1    3 6 51.92                             130     0.1 7  163 351 
 OCA  SZ ES   2    3 7 14.52                             130     0.2 5  163 351 
 OCA  SZ I         3 7 18.24        21.4 0.30                           163 351 
 YOP  SZ EP   2    3 6 53.41                             128     0.5 4  175 155 
 NOR  SN ES   2    3 7 27.22                             119    -0.5 4  239 236 
 CHI  HZ EP   2    3 7  0.84                             118     0.0 4  248 197 
 CHI  HE ES   2    3 7 30.26                             118    -0.1 4  248 197 
 CHI  HZ I         3 7 38.06         6.7 0.21                           248 197 
 ROSC BZ EP   2    3 7  2.06                             117     0.6 4  254 212 
 ROSC BZ I         3 7 39.06         9.9 0.73                           254 212 
 HEL  HZ EP   2    3 7  4.20                             115     0.3 4  277 256 
 HEL  HN ES   2    3 7 35.53                             115    -0.4 4  277 256 
 HEL  HZ I         3 7 41.00         9.5 0.26                           277 256 
 PRA  HZ EP   1    3 7 16.55                             107    -0.2 4  393 210 
 PRA  HN ES   2    3 7 58.84                             107     0.1 3  393 210 
                                                                                
