 2017  2 2 0035 43.0 L   6.764 -73.126150.0  RSN  7 0.5 1.7LRSN                1
 GAP=141        1.25       5.2     5.7  8.3  0.2451E+01  0.1220E+02  0.2677E+01E
 Epicentro: LOS SANTOS - SANTANDER                                             3
 ACTION:UPD 17-05-24 15:31 OP:jn   STATUS:               ID:20170202003543 L   I
 OLDACT:UP  17-02-02 13:56 OP:ar   STATUS:               ID:20170202002744     3
 OLDACT:UP  17-02-02 13:45 OP:ar   STATUS:               ID:20170202002744     3
 OLDACT:REG 17-02-02 12:50 OP:ar   STATUS:               ID:20170202002744     3
 2017-02-02-0028-00M.COL___328                                                 6
 STAT SP IPHASW D HRMM SECON CODA AMPLIT PERI AZIMU VELO AIN AR TRES W  DIS CAZ7
 BAR2 EZ EP        036  2.90                             172   -0.1510 20.0 198 
 BAR2 EZ ES        036 18.99                             172    0.2810 20.0 198 
 BAR2 EZ I         036 19.72        15.1 0.24            170           20.0 198 
 BRR  HZ IP     C  036  4.86                             152    0.0610 75.0 300 
 BRR  HN ES        036 22.47                             152    0.6510 75.0 300 
 PAM  EZ EP        036  5.81                             151    0.0610 79.2  37 
 PAM  EN ES        036 23.06                             151   -0.4510 79.2  37 
 PAM  EZ I         036 24.90         9.0 0.52            153           79.2  37 
 RUS  HZ EP        036  7.04                             146    0.1810 96.5 177 
 RUS  HN ES        036 25.39                             146   -0.1010 96.5 177 
 RUS  HZ I         036 26.61         6.0 0.38            145           96.5 177 
 PTB  HZ EP        036  9.40                             133   -1.02 9  149 260 
 PTB  HN ES        036 31.09                             133   -0.73 9  149 260 
 PTB  HZ I         036 32.98         5.5 0.36            132            149 260 
 ZAR  HZ EP        036 16.92                             123    0.86 8  208 293 
 ZAR  HN ES        036 41.96                             123    0.10 8  208 293 
 ZAR  HZ I         036 48.02        11.1 0.32            122            208 293 
 CHI  HZ EP   4    036 22.87                             118    2.31 0  245 196 
 CHI  HN ES        036 50.33                             118    0.45 8  245 196 
 CHI  HZ I         036 56.17         2.6 0.22            118            245 196 
                                                                                
