 2012  4 2 0028 48.1 L   6.773 -73.177145.2  RSN  6 0.4 1.5LRSN                1
 GAP=134        0.91       6.2     5.3 10.5  0.2789E+01  0.8009E+01  0.7048E+01E
 Epicentro: LOS SANTOS - SANTANDER                                             3
 ACTION:UPD 12-07-05 11:49 OP:tino STATUS:               ID:20120402002848 L   I
 2012-04-02-0027-59S.COL___204                                                 6
 STAT SP IPHASW D HRMM SECON CODA AMPLIT PERI AZIMU VELO AIN AR TRES W  DIS CAZ7
 BAR2 SZ EP   1    029  7.60                             172     0.0 7   20 182 
 BAR2 SZ I         029 24.32         6.6 0.28                            20 182 
 BRR  HZ EP   1    029  9.44                             153     0.3 7   70 302 
 BRR  HZ I         029  9.72        12.1 0.10                            70 302 
 BRR  HE ES   1    029 25.64                             153     0.2 7   70 302 
 PAM  SZ EP   1    029 10.45                             149    -0.1 7   82  40 
 PAM  SN ES   1    029 27.69                             149    -0.3 7   82  40 
 PAM  SZ I         029 29.67         3.5 0.46                            82  40 
 RUS  HZ EP   1    029 11.61                             144     0.0 7   98 174 
 RUS  HZ I         029 12.62         2.1 0.23                            98 174 
 RUS  HN ES   1    029 30.30                             144     0.4 7   98 174 
 PTB  HZ EP   1    029 14.34                             133    -0.3 7  144 260 
 PTB  HN ES   1    029 34.65                             133    -0.7 7  144 260 
 PTB  HZ I         029 41.47         4.4 0.30                           144 260 
 ZAR  HN ES   1    029 46.05                             122     0.6 6  202 293 
 ZAR  HZ I         029 52.00         6.8 0.36                           202 293 
                                                                                
