 2013  9 2 0703 42.6 L   6.784 -73.073151.7  RSN  5 0.2 2.3LRSN                1
 GAP=244        0.51       2.7     4.7  3.7  0.1581E+01  0.3563E+00  0.2572E+01E
 Epicentro: LOS SANTOS - SANTANDER                                             3
 ACTION:UPD 13-10-22 09:19 OP:ep   STATUS:               ID:20130902070342 L   I
 OLDACT:UP  13-09-02 10:53 OP:cam  STATUS:               ID:20130902065960d    3
 OLDACT:DUP 13-09-02 10:51 OP:cam  STATUS:               ID:20130902065960d    3
 OLDACT:REG 13-09-02 08:11 OP:cam  STATUS:               ID:20130902065959     3
 2013-09-02-0659-59M.COL___269                                                 6
 STAT SP IPHASW D HRMM SECON CODA AMPLIT PERI AZIMU VELO AIN AR TRES W  DIS CAZ7
 BAR2 SZ EP     C  7 4  2.90                             170   -0.0610 24.4 210 
 BAR2 SZ ES        7 4 18.74                             170   -0.1010 24.4 210 
 BAR2 SZ I         7 4 21.37        36.9 0.41            162           24.4 210 
 BRR  HZ EP        7 4  4.81                             151   -0.0310 79.2 297 
 BRR  HN ES        7 4 22.24                             151    0.0510 79.2 297 
 BRR  HZ I         7 4 26.62        26.7 0.14            146           79.2 297 
 RUS  HZ EP        7 4  6.71                             146   -0.0810 98.5 181 
 RUS  HN ES        7 4 25.85                             146    0.1910 98.5 181 
 SPBC HZ EP        7 4 11.78                             130   -0.13 9  167 222 
 SPBC HN ES        7 4 34.89                             130    0.11 9  167 222 
 SPBC HZ I         7 4 40.93        45.7 0.28            127            167 222 
 CHI  HZ EP        7 4 21.13                             118    0.45 8  249 197 
 CHI  HN ES        7 4 50.01                             118   -0.38 8  249 197 
 CHI  HZ I         7 4 58.04         9.1 0.56            118            249 197 
                                                                                
