 2017  7 2 0416 29.3 L   6.776 -73.134143.5  RSN 10 0.3 1.8LRSN                1
 GAP=164        0.62       3.2     2.7  3.9  0.1159E+01 -0.6681E+00  0.2600E+00E
 Epicentro: LOS SANTOS - SANTANDER                                             3
 ACTION:UPD 17-08-30 15:29 OP:rebc STATUS:               ID:20170702041629 L   I
 OLDACT:UP  17-07-02 13:41 OP:and  STATUS:               ID:20170702040739     3
 OLDACT:UP  17-07-02 13:41 OP:and  STATUS:               ID:20170702040739     3
 OLDACT:UP  17-07-02 13:41 OP:and  STATUS:               ID:20170702040739     3
 OLDACT:UP  17-07-02 13:36 OP:and  STATUS:               ID:20170702040739     3
 OLDACT:REG 17-07-02 11:46 OP:and  STATUS:               ID:20170702040739     3
 2017-07-02-0408-00M.COL___380                                                 6
 STAT SP IPHASW D HRMM SECON CODA AMPLIT PERI AZIMU VELO AIN AR TRES W  DIS CAZ7
 BAR2 EZ EP     C  416 48.40                             171   -0.2410 21.0 195 
 BAR2 EZ ES        417  3.60                             171   -0.1010 21.0 195 
 BAR2 EZ I         417  6.24        21.7 0.30            166           21.0 195 
 BRR  HZ EP        416 50.19                             151   -0.1910 73.6 300 
 BRR  HN ES        417  7.26                             151    0.4710 73.6 300 
 BRR  HZ I         417 11.20        12.7 0.32            149           73.6 300 
 PTB  HZ EP   9    416 55.21                             131   -0.98 0  149 260 
 PTB  HN ES        417 16.14                             132   -0.02 9  149 260 
 PTB  HZ I         417 23.20         4.5 0.42            129            149 260 
 TAM  HZ IP     D  416 56.85                             130    0.20 9  153 104 
 SPBC HZ IP     D  416 57.69                             129    0.15 9  162 220 
 SPBC HN ES        417 19.30                             129   -0.25 9  162 220 
 SPBC HZ I         417 25.66        10.7 0.20            127            162 220 
 ZAR  HZ EP        417  1.99                             121    0.13 8  206 293 
 ZAR  HN ES        417 26.74                             121   -0.49 8  206 293 
 ZAR  HZ I         417 31.65         4.7 0.22            121            206 293 
 CHI  HZ EP   2    417  6.61                             117   -0.06 4  246 196 
 CHI  HN ES   2    417 35.99                             117    0.20 4  246 196 
 CHI  HZ I         417 40.10         2.4 0.14            117            246 196 
 HEL  HZ EP   4    417 11.43                             114    1.93 0  273 256 
 HEL  HN ES        417 41.16                             114    0.33 8  273 256 
 HEL  HZ I         417 48.73         3.1 0.38            114            273 256 
 GUY2CHZ EP   3    417 13.50                             112    0.71 2  301 235 
 GUY2CHN ES   4    417 49.03                             112    2.35 0  301 235 
 GUY2CHZ I         417 58.73         3.1 0.42                           301 235 
 PTGC HZ EP   9    417 11.64                             111   -1.12 0  306 159 
 PTGC HN ES        417 45.31                             112   -0.20 7  306 159 
                                                                                
