 2016  9 2 0930 57.6 L   6.743 -73.528111.1  RSN  5 0.3 1.1LRSN                1
 GAP=140        0.80       5.2     4.2  6.9  0.9762E+01  0.7210E+01  0.1113E+02E
 Epicentro: EL CARMEN - SANTANDER                                              3
 ACTION:UPD 17-08-17 21:05 OP:lp   STATUS:               ID:20160902093057 L   I
 OLDACT:UP  16-09-02 18:26 OP:drio STATUS:               ID:20160902092732     3
 OLDACT:REG 16-09-02 13:28 OP:drio STATUS:               ID:20160902092732     3
 2016-09-02-0928-00M.COL___346                                                 6
 STAT SP IPHASW D HRMM SECON CODA AMPLIT PERI AZIMU VELO AIN AR TRES W  DIS CAZ7
 BAR2 EZ EP        931 13.64                             158   -0.0810 41.7 114 
 BAR2 EZ ES        931 25.79                             158   -0.5210 41.7 114 
 BAR2 EZ I         931 26.74        12.4 0.22            160           41.7 114 
 BRR  HZ EP        931 13.38                             156   -0.1410 45.1 333 
 BRR  HN ES        931 26.46                             156    0.4910 45.1 333 
 PTB  HZ EP        931 17.73                             133   -0.1110  105 258 
 PTB  HE ES        931 33.53                             133   -0.1210  105 258 
 PTB  HZ I         931 34.64         2.6 0.28            130            105 258 
 RUS  HZ EP        931 18.78                             133    0.1910  106 152 
 RUS  HE ES        931 35.28                             133    0.3010  106 152 
 RUS  HZ I         931 36.66         1.2 0.28            133            106 152 
 ZAR  HN ES   4    931 46.73                             119    1.86 0  169 300 
 ZAR  HZ I         931 52.84         1.2 0.28            115            169 300 
                                                                                
