 2013  3 2 0755 27.2 L   6.799 -73.166146.3  RSN  6 0.4 1.9LRSN                1
 GAP=181        1.04       4.8     6.8 10.5  0.7250E+01 -0.5384E+01  0.5236E+00E
 Epicentro: LOS SANTOS - SANTANDER                                             3
 ACTION:UPD 13-04-09 13:59 OP:ep   STATUS:               ID:20130302075527 L   I
 2013-03-02-0748-43M.COL___193                                                 6
 STAT SP IPHASW D HRMM SECON CODA AMPLIT PERI AZIMU VELO AIN AR TRES W  DIS CAZ7
 BAR2 SZ EP        755 47.24                             171    0.3010 22.9 184 
 BAR2 SZ I         756  2.87        15.9 0.34            169           22.9 184 
 BRR  HZ EP        755 48.78                             153    0.4310 69.3 299 
 BRR  HN ES        756  5.40                             153    0.5910 69.3 299 
 BRR  HN I         756  6.37        26.3 0.40            155           69.3 299 
 RUS  HZ EP        755 51.23                             144    0.1710  101 175 
 RUS  HN ES        756  9.20                             144   -0.4310  101 175 
 RUS  HN I         756 10.43        10.3 0.26            141            101 175 
 PTB  HZ EP        755 53.80                             133   -0.26 9  146 259 
 PTB  HN ES        756 14.61                             133   -0.36 9  146 259 
 PTB  HN I         756 17.76        10.9 0.20            133            146 259 
 OCA  HN ES        756 17.04                             130   -0.65 9  160 354 
 ZAR  HE ES   2    756 24.80                             123    0.11 4  202 292 
                                                                                
