 2013 11 2 0610 30.1 L   6.796 -73.201137.2  RSN  7 0.3 1.5LRSN                1
 GAP=177        0.81       3.0     5.1  6.8  0.2677E+01  0.5451E+01 -0.3921E+01E
 Epicentro: ZAPATOCA - SANTANDER                                               3
 ACTION:UPD 14-01-09 16:24 OP:ep   STATUS:               ID:20131102061030 L   I
 OLDACT:REG 13-11-02 07:18 OP:jn   STATUS:               ID:20131102061000     3
 2013-11-02-0610-00M.COL___273                                                 6
 STAT SP IPHASW D HRMM SECON CODA AMPLIT PERI AZIMU VELO AIN AR TRES W  DIS CAZ7
 BAR2 SZ EP        610 48.72                             170    0.0410 22.6 175 
 BAR2 SZ ES        611  3.02                             170   -0.1610 22.6 175 
 BAR2 SZ I         611  4.66        15.9 0.10            171           22.6 175 
 BRR  HZ EP        610 50.79                             153    0.7610 66.1 301 
 BRR  HN ES   1    611  5.82                             153    0.24 7 66.1 301 
 BRR  HZ I         611 12.65         6.8 0.18            152           66.1 301 
 RUS  HZ EP        610 52.77                             142   -0.2610  101 173 
 RUS  HN ES        611 11.08                             142    0.1710  101 173 
 RUS  HZ I         611 12.17         3.4 0.32            147            101 173 
 PTB  HZ EP        610 55.61                             131   -0.20 9  142 259 
 PTB  HN ES        611 15.72                             131   -0.15 9  142 259 
 PTB  HZ I         611 20.03         4.6 0.28            133            142 259 
 SPBC HE ES   2    611 18.60                             128   -0.36 5  159 217 
 OCA  HN ES        611 18.88                             128   -0.42 9  160 355 
 SML  HE ES        611 34.14                             116    0.09 8  242 337 
                                                                                
