 2017  1 2 0728 35.7 L   6.783 -73.137146.3  RSN  8 0.4 1.7LRSN                1
 GAP=138        1.02       4.0     4.2  6.0  0.1336E+01  0.8434E+01  0.4572E+01E
 Epicentro: LOS SANTOS - SANTANDER                                             3
 ACTION:UPD 17-05-22 15:54 OP:jn   STATUS:               ID:20170102072835 L   I
 OLDACT:REG 17-01-02 12:39 OP:lv   STATUS:               ID:20170102071746     3
 2017-01-02-0718-00M.COL___366                                                 6
 STAT SP IPHASW D HRMM SECON CODA AMPLIT PERI AZIMU VELO AIN AR TRES W  DIS CAZ7
 BAR2 EZ EP        728 55.34                             171   -0.0410 21.7 194 
 BAR2 EZ ES        729 10.28                             171   -0.4410 21.7 194 
 BAR2 EZ I         729 13.14        21.1 0.33            170           21.7 194 
 BRR  HZ EP        728 57.22                             152    0.1910 73.0 299 
 BRR  HN ES        729 14.23                             152    0.5810 73.0 299 
 BRR  HZ I         729 18.33        10.4 0.30            151           73.0 299 
 PAM  EZ EP        728 58.33                             151    0.2910 78.2  38 
 PAM  EN ES        729 15.35                             151   -0.1010 78.2  38 
 PAM  EZ I         729 17.54         8.6 0.48            155           78.2  38 
 RUS  HZ EP        728 59.54                             144    0.1610 98.6 177 
 RUS  HE ES        729 18.11                             144    0.2710 98.6 177 
 RUS  HZ I         729 19.73         5.4 0.30            146           98.6 177 
 PTB  HZ EP        729  2.10                             132   -0.69 9  148 260 
 PTB  HE ES        729 23.87                             132   -0.03 9  148 260 
 PTB  HZ I         729 25.16         6.0 0.18            132            148 260 
 ZAR  HZ EP        729  8.10                             122   -0.27 8  206 293 
 ZAR  HN ES        729 33.20                             122   -0.64 8  206 293 
 ZAR  HZ I         729 38.53         8.5 0.32            123            206 293 
 CHI  HZ EP        729 13.49                             117    0.22 8  247 196 
 CHI  HE ES        729 41.98                             117   -0.59 8  247 196 
 CHI  HZ I         729 46.64         4.2 0.40            119            247 196 
 CBOC HZ EP        729 23.14                             110    0.44 7  334 252 
 CBOC HN ES        730  0.25                             110    0.91 7  334 252 
 CBOC HZ I         730  8.22         0.8 0.20            111            334 252 
                                                                                
