 2013  7 2 0135 19.6 L   6.784 -73.168142.4  RSN  5 0.2 1.6LRSN                1
 GAP=134        0.65       3.6     3.6  5.9  0.4222E+00  0.2681E+01  0.3936E+01E
 Epicentro: LOS SANTOS - SANTANDER                                             3
 ACTION:UPD 13-08-12 10:34 OP:ep   STATUS:               ID:20130702013519 L   I
 OLDACT:REG 13-07-02 08:10 OP:stll STATUS:               ID:20130702012845     3
 2013-07-02-0128-45M.COL___227                                                 6
 STAT SP IPHASW D HRMM SECON CODA AMPLIT PERI AZIMU VELO AIN AR TRES W  DIS CAZ7
 BAR2 SZ EP        135 38.79                             171   -0.0110 21.3 184 
 BAR2 SZ ES        135 53.62                             171   -0.1410 21.3 184 
 BAR2 SZ I         135 54.99         4.7 0.42            172           21.3 184 
 BRR  HZ EP        135 40.38                             152    0.0510 69.9 301 
 BRR  HN ES        135 56.94                             152    0.4610 69.9 301 
 BRR  HN I         135 58.26        12.5 0.20            153           69.9 301 
 PAM  SN ES        135 58.62                             149   -0.2210 80.3  40 
 RUS  HZ EP        135 43.03                             143    0.1010 99.1 175 
 RUS  HN ES        136  1.22                             143    0.1110 99.1 175 
 PTB  HN ES        136  6.30                             132   -0.39 9  145 259 
                                                                                
