 2011 10 2 0146 19.6 L   6.788 -73.140137.5  RSN 14 0.4 2.7LRSN                1
 GAP=115        0.80       2.9     4.1  5.3 -0.2431E+01  0.5926E+01  0.3569E+01E
 Epicentro: LOS SANTOS - SANTANDER                                             3
 ACTION:UPD 12-07-13 16:01 OP:ep   STATUS:               ID:20111002014619 L   I
 2011-10-02-0144-28S.COL___168                                                 6
 STAT SP IPHASW D HRMM SECON CODA AMPLIT PERI AZIMU VELO AIN AR TRES W  DIS CAZ7
 BAR2 SZ IP        146 38.44                             170    0.1910 22.1 192 
 BAR2 SZ ES   1    146 52.15                             170   -0.61 7 22.1 192 
 BAR2 SZ I         146 54.36       120.6 0.26                          22.1 192 
 BRR  HZ IP     C  146 40.27                             151    0.3010 72.4 299 
 BRR  HN ES   1    146 56.77                             151    0.95 7 72.4 299 
 BRR  HZ I         147  0.34        84.6 0.11                          72.4 299 
 PAM  SZ EP   1    146 41.22                             149    0.20 7 78.0  39 
 PAM  SN ES   1    146 57.36                             149   -0.33 7 78.0  39 
 RUS  HZ EP        146 42.47                             142   -0.0110 99.2 176 
 RUS  HN ES   1    147  0.48                             142    0.18 7 99.2 176 
 RUS  HZ I         147  2.86        75.0 0.27                          99.2 176 
 OCA  SZ EP        146 47.09                             127   -0.36 9  162 353 
 OCA  SZ ES   1    147  8.65                             127   -0.50 7  162 353 
 OCA  SZ I         147 13.48        53.6 0.32                           162 353 
 YOP  SZ EP        146 49.30                             125    0.35 9  177 153 
 YOP  SZ I         147 16.56        30.8 0.33                           177 153 
 ZAR  HZ EP   2    146 51.17                             120   -0.50 4  205 292 
 ZAR  HZ I         147 22.55        47.2 0.21                           205 292 
 NOR  SZ EP   1    146 54.53                             117   -0.34 6  234 235 
 NOR  SN ES   2    147 21.76                             117   -0.60 4  234 235 
 CHI  HZ EP   1    146 56.83                             115    0.06 6  248 195 
 CHI  HE ES   1    147 25.50                             115   -0.23 6  248 195 
 CHI  HZ I         147 29.43        20.6 0.57                           248 195 
 ROSC BE ES   2    147 25.91                             115   -0.64 4  252 211 
 ROSC BZ I         147 32.39        40.6 0.41                           252 211 
 HEL  HZ EP   1    146 59.54                             113    0.07 6  272 256 
 HEL  HN ES   2    147 31.03                             113    0.48 4  272 256 
 HEL  HZ I         147 36.26        21.9 0.49                           272 256 
 GUY  SZ EP   1    147  3.18                             110    0.06 5  303 235 
 GUY  SN ES        147 36.40                             110   -0.63 7  303 235 
 GUY  SZ I         147 45.35        43.1 0.33                           303 235 
 RREF HZ EP   1    147  5.48                             109    0.09 5  321 230 
 RREF HN ES   1    147 41.93                             109    0.85 5  321 230 
 RREF HZ I         147 46.77        24.6 0.50                           321 230 
 PRA  HZ EP        147 13.18                             105    0.39 6  391 210 
 PRA  HN ES   1    147 53.46                             105   -0.78 4  391 210 
                                                                                
