 2017  1 2 0821 15.7 L   6.774 -73.141143.9  RSN 18 0.4 2.3LRSN                1
 GAP= 66        1.06       3.6     3.3  5.4  0.8158E+00  0.7304E+01  0.3812E+01E
 Epicentro: LOS SANTOS - SANTANDER                                             3
 ACTION:UPD 17-05-22 15:54 OP:jn   STATUS:               ID:20170102082115 L   I
 OLDACT:REG 17-01-02 12:43 OP:lv   STATUS:               ID:20170102081740     3
 2017-01-02-0818-00M.COL___366                                                 6
 STAT SP IPHASW D HRMM SECON CODA AMPLIT PERI AZIMU VELO AIN AR TRES W  DIS CAZ7
 BAR2 EZ IP     C  821 34.99                             171   -0.1010 20.6 193 
 BAR2 EZ ES        821 49.65                             171   -0.5310 20.6 193 
 BAR2 EZ I         821 51.33        70.1 0.27            170           20.6 193 
 BRR  HZ IP     C  821 36.88                             151    0.0910 73.0 300 
 BRR  HN ES        821 53.82                             151    0.6110 73.0 300 
 BRR  HZ I         821 58.51        30.1 0.14            148           73.0 300 
 PAM  EZ EP        821 38.01                             150    0.1410 79.3  38 
 PAM  EN ES        821 54.72                             150   -0.4110 79.3  38 
 PAM  EZ I         821 57.30        48.1 0.42            151           79.3  38 
 RUS  HZ EP        821 39.00                             144   -0.0910 97.7 176 
 RUS  HE ES        821 57.44                             144    0.1310 97.7 176 
 RUS  HZ I         821 58.38        21.3 0.24            145           97.7 176 
 PTB  HZ EP        821 41.62                             131   -0.93 9  148 260 
 PTB  HN ES   4    822  2.16                             131   -1.30 0  148 260 
 PTB  HZ I         822  6.38        25.9 0.22            130            148 260 
 TAM  HZ EP        821 43.37                             130    0.21 9  154 104 
 TAM  HE ES        822  4.72                             130    0.18 9  154 104 
 TAM  HZ I         822  5.46        21.7 0.26            133            154 104 
 ZAR  HZ EP        821 48.11                             122   -0.11 8  206 293 
 ZAR  HE ES        822 14.21                             122    0.65 8  206 293 
 ZAR  HZ I         822 19.35        31.7 0.30            120            206 293 
 CHI  HZ EP        821 53.48                             117    0.44 8  246 195 
 CHI  HN ES        822 22.48                             117    0.34 8  246 195 
 CHI  HZ I         822 30.36         6.3 0.40            117            246 195 
 URE  HZ EP        821 56.07                             113   -0.82 7  285 292 
 URE  HN ES   4    822 26.74                             113   -2.24 0  285 292 
 URE  HZ I         822 38.41        15.5 0.26            112            285 292 
 GUY2CHZ EP        821 59.51                             112    0.39 7  300 235 
 GUY2CHE ES        822 33.32                             112    0.37 7  300 235 
 GUY2CHZ I         822 41.62        10.8 0.40                           300 235 
 PTGC HZ EP   9    821 58.14                             111   -1.05 0  306 159 
 PTGC HN ES        822 31.08                                   -0.95 7  306 159 
 LL1C HZ EP   9    822  0.46                             111    0.88 0  309 352 
 LL1C HN ES        822 35.11                                    0.45 7  309 352 
 LL1C HZ I         822 38.25        21.9 0.49            111            309 352 
 CBOC HZ EP        822  3.07                             109    0.54 7  333 253 
 CBOC HN ES        822 38.39                             109   -0.63 7  333 253 
 CBOC HZ I         822 51.78         4.3 0.38            109            333 253 
 DBB  EZ EP        822  2.94                             109   -0.28 7  340 275 
 DBB  EN ES   4    822 38.31                             109   -1.94 0  340 275 
 DBB  EZ I         822 45.71         4.0 0.27            109            340 275 
 ORTC HZ EP   4    822 11.07                             106    1.71 0  393 216 
 ORTC HN ES        822 50.77                             106   -0.41 6  393 216 
 ORTC HZ I         822 58.47         4.6 0.42            106            393 216 
 PAL  HZ EP        822 11.05                             105    0.34 6  405 239 
 PAL  HE ES   4    822 50.78                             105   -2.81 0  405 239 
 PAL  HZ I         822 58.00         3.8 0.24            105            405 239 
 SJC  HZ EP   4    822 20.11                             105    8.56 0  412 327 
 SJC  HN ES   4    822 49.98                             105   -5.11 0  412 327 
 SJC  HZ I         822 55.10         4.8 0.46            105            412 327 
 CRJC HZ EP   4    822 15.70                             103   -2.82 0  470   3 
 CRJC HN ES   4    823  0.64                             103   -6.85 0  470   3 
 CRJC HZ I         823 19.15         2.9 0.14            103            470   3 
                                                                                
