 2014  5 2 0000 17.5 L   6.779 -73.153140.9  RSN  6 0.4 1.5LRSN                1
 GAP=139        0.71       4.2     4.9  8.2 -0.1006E+02  0.1394E+02  0.3060E+01E
 Epicentro: LOS SANTOS - SANTANDER                                             3
 OLDACT:REG 14-05-02 12:38 OP:fm   STATUS:               ID:20140501235944     3
 OLDACT:UP  14-05-02 13:57 OP:fm   STATUS:               ID:20140501235944     3
 OLDACT:UP  14-05-02 13:56 OP:fm   STATUS:               ID:20140501235944     3
 ACTION:UPD 15-03-16 16:54 OP:nd   STATUS:               ID:20140502000017 L   I
 OLDACT:UP  14-05-02 14:10 OP:fm   STATUS:               ID:20140501235944     3
 2014-05-01-2359-44M.COL___239                                                 6
 STAT SP IPHASW D HRMM SECON CODA AMPLIT PERI AZIMU VELO AIN AR TRES W  DIS CAZ7
 PAM  SZ EP        0 0 39.55                             149    0.1610 79.7  39 
 PAM  SN ES        0 0 56.34                             149   -0.0910 79.7  39 
 PAM  SZ I         0 0 58.39         4.6 0.50            156           79.7  39 
 RUS  HZ EP   1    0 0 40.79                             143    0.13 7 98.3 175 
 RUS  HN ES   1    0 0 58.89                             143    0.20 7 98.3 175 
 RUS  SZ I         0 1  0.25         3.2 0.30            148           98.3 175 
 PTB  HZ EP   1    0 0 43.54                             131   -0.47 7  147 260 
 PTB  HN ES   1    0 1  4.49                             131   -0.16 7  147 260 
 PTB  SZ I         0 1 12.15         4.5 1.22            130            147 260 
 SPBC HN ES   2    0 1  6.81                             128   -0.42 5  161 219 
 NOR  HZ EP   1    0 0 52.88                             118    0.10 6  233 235 
 NOR  HN ES   1    0 1 21.15                             118    0.88 6  233 235 
 NOR  SZ I         0 1 32.62         3.8 2.10            119            233 235 
 CHI  HN ES   1    0 1 23.09                             116   -0.62 6  246 195 
                                                                                
