 2013  9 2 0714 30.5 L   6.807 -73.154151.4  RSN 16 0.5 2.6LRSN                1
 GAP= 70        1.11       3.1     3.4  5.4  0.3264E+00  0.3685E+01  0.1543E-02E
 Epicentro: LOS SANTOS - SANTANDER                                             3
 ACTION:UPD 13-10-22 09:19 OP:ep   STATUS:               ID:20130902071430 L   I
 OLDACT:UP  13-09-02 11:05 OP:cam  STATUS:               ID:20130902070959     3
 OLDACT:REG 13-09-02 08:12 OP:cam  STATUS:               ID:20130902070959     3
 2013-09-02-0709-59M.COL___269                                                 6
 STAT SP IPHASW D HRMM SECON CODA AMPLIT PERI AZIMU VELO AIN AR TRES W  DIS CAZ7
 BAR2 SZ EP     C  714 50.67                             171   -0.1610 24.0 187 
 BAR2 SZ ES        715  5.95                             171   -0.7310 24.0 187 
 BRR  HZ EP        714 52.53                             154    0.3210 70.0 298 
 BRR  HN ES        715 10.14                             154    1.0110 70.0 298 
 BRR  HZ I         715 12.92        35.1 0.36            152           70.0 298 
 PAM  SZ EP        714 53.45                             152    0.1210 77.4  40 
 PAM  SN ES        715 10.89                             152   -0.2410 77.4  40 
 PAM  SZ I         715 12.73        66.3 0.54            155           77.4  40 
 RUS  HZ EP        714 54.62                             145   -0.2610  101 176 
 RUS  HN ES        715 13.78                             145   -0.1110  101 176 
 RUS  HZ I         715 15.79        38.6 0.46            145            101 176 
 PTB  HZ EP        714 57.24                             133   -0.64 9  147 258 
 PTB  HN ES        715 18.88                             133   -0.34 9  147 258 
 PTB  HZ I         715 20.83        44.4 0.12            133            147 258 
 TAM  HZ EP     D  714 58.82                             132    0.08 9  156 105 
 TAM  HZ I         714 58.89        72.2 0.20            135            156 105 
 TAM  HE ES        715 21.01                             132    0.25 9  156 105 
 OCA  HZ EP        714 59.87                             131    0.69 9  159 353 
 SPBC HZ EP        714 59.59                             130    0.14 9  163 219 
 SPBC HN ES        715 22.01                             130   -0.01 9  163 219 
 SPBC HZ I         715 26.37        69.5 0.26            130            163 219 
 ZAR  HZ EP        715  3.46                             124    0.25 9  203 292 
 ZAR  HN ES        715 29.04                             124    0.32 9  203 292 
 ZAR  HZ I         715 35.92        37.0 0.60            124            203 292 
 NOR  HZ EP        715  6.72                             120    0.18 8  234 234 
 SML  HZ EP        715  7.03                             119   -0.31 8  243 335 
 SML  HE ES        715 35.90                             119   -0.17 8  243 335 
 SML  HZ I         715 39.86        34.0 0.10            120            243 335 
 CHI  HZ EP        715  8.71                             118    0.13 8  249 195 
 CHI  HN ES        715 38.20                             118   -0.08 8  249 195 
 CHI  HZ I         715 43.35        15.6 0.30            119            249 195 
 HEL  HZ EP   4    715 12.13                             116    1.19 0  271 256 
 HEL  HN ES   4    715 43.55                             116    1.08 0  271 256 
 HEL  HZ I         715 48.72        22.2 0.30            116            271 256 
 URE  HZ EP        715 10.52                             115   -1.21 7  283 292 
 URE  HE ES   4    715 41.60                             115   -2.28 0  283 292 
 ORTC HZ EP        715 24.99                             107    0.35 6  396 216 
 ORTC HN ES   1    716  8.03                             107    1.18 4  396 216 
 ORTC HZ I         716 14.25        11.8 0.44            108            396 216 
 SJC  HZ EP   4    715 24.67                             107   -1.46 0  408 327 
 SJC  HN ES   4    716  6.21                             107   -3.30 0  408 327 
 SJC  HZ I         716 10.21         6.9 0.58            107            408 327 
                                                                                
