 2017  1 2 0239  7.5 L   6.600 -73.441115.4  RSN  6 0.3 1.3LRSN                1
 GAP=120        0.87       4.3     5.3  7.4  0.1178E+02  0.2600E+02  0.1301E+02E
 Epicentro: EL CARMEN - SANTANDER                                              3
 ACTION:UPD 17-05-22 15:54 OP:jn   STATUS:               ID:20170102023907 L   I
 OLDACT:REG 17-01-02 12:24 OP:lv   STATUS:               ID:20170102023743     3
 2017-01-02-0238-00M.COL___378                                                 6
 STAT SP IPHASW D HRMM SECON CODA AMPLIT PERI AZIMU VELO AIN AR TRES W  DIS CAZ7
 BAR2 EZ EP        239 24.03                             165    0.3610 28.6  92 
 BAR2 EZ ES        239 35.80                             165   -0.4710 28.6  92 
 BAR2 EZ I         239 37.72        14.9 0.28            163           28.6  92 
 BRR  HZ EP        239 24.60                             149   -0.3910 63.6 332 
 BRR  HN ES        239 39.22                             149    0.6110 63.6 332 
 RUS  HZ EP        239 27.52                             140    0.1310 87.7 153 
 RUS  HN ES        239 42.84                             140   -0.0410 87.7 153 
 RUS  HZ I         239 44.43         1.1 0.24            140           87.7 153 
 PTB  HZ EP   4    239 26.88                             132   -1.94 0  112 267 
 PTB  HN ES   4    239 41.39                             132   -4.04 0  112 267 
 PTB  HZ I         239 43.31         5.2 0.21            133            112 267 
 ZAR  HZ EP        239 36.19                             117    0.08 9  185 302 
 ZAR  HN ES        239 58.02                             117   -0.39 9  185 302 
 ZAR  HZ I         240  2.41         2.6 0.34            117            185 302 
 GUY2CHZ EP        239 45.25                             109   -0.08 8  262 235 
 GUY2CHN ES        240 14.95                             109    0.14 8  262 235 
 GUY2CHZ I         240 17.62         1.0 0.24                           262 235 
                                                                                
