 2017  4 2 0205  9.1 L   6.792 -73.099142.1  RSN 11 0.3 1.8LRSN                1
 GAP=123        0.70       2.4     3.2  4.1 -0.1071E+01  0.4960E+01  0.1356E+01E
 Epicentro: LOS SANTOS - SANTANDER                                             3
 ACTION:UPD 17-05-30 21:07 OP:jn   STATUS:               ID:20170402020509 L   I
 OLDACT:DUP 17-04-02 14:06 OP:lv   STATUS:               ID:20170402015741d    3
 2017-04-02-0158-00M.COL___362                                                 6
 STAT SP IPHASW D HRMM SECON CODA AMPLIT PERI AZIMU VELO AIN AR TRES W  DIS CAZ7
 BAR2 EZ EP        2 5 28.12                             170   -0.1810 23.9 203 
 BAR2 EZ ES        2 5 43.20                             170   -0.0710 23.9 203 
 BAR2 EZ I         2 5 44.32        15.5 0.16            168           23.9 203 
 PAM  EZ EP        2 5 31.21                             151    0.4310 74.9  36 
 PAM  EN ES        2 5 47.40                             151   -0.2810 74.9  36 
 PAM  EZ I         2 5 49.58         4.4 0.09            154           74.9  36 
 BRR  HZ EP        2 5 30.00                             150   -0.1510 76.2 297 
 BRR  HN ES        2 5 46.92                             150    0.3610 76.2 297 
 BRR  HZ I         2 5 50.27         7.3 0.18            149           76.2 297 
 RUS  HZ EP        2 5 32.24                             143   -0.1710 99.4 179 
 RUS  HN ES        2 5 50.85                             143    0.2710 99.4 179 
 RUS  HZ I         2 5 52.01         4.3 0.30            145           99.4 179 
 PTB  HZ EP        2 5 35.95                             130   -0.28 9  153 260 
 PTB  HN ES   4    2 5 55.85                             130   -1.53 0  153 260 
 SPBC HN EP        2 5 37.19                             128   -0.38 9  166 221 
 SPBC HE ES        2 5 59.59                             128   -0.18 9  166 221 
 ZAR  HN EP        2 5 42.40                             121    0.55 8  209 292 
 ZAR  HE ES        2 6  7.24                             121   -0.15 8  209 292 
 ZAR  HN I         2 6 12.94        12.7 0.19            121            209 292 
 NOR  HZ EP        2 5 44.88                             117   -0.14 8  238 235 
 NOR  HN ES        2 6 12.85                             117   -0.18 8  238 235 
 NOR  HZ I         2 6 16.37         4.6 0.25            118            238 235 
 ROSC BZ EP   4    2 5 48.98                             116    1.75 0  255 212 
 ROSC BN ES        2 6 17.46                             116    0.49 8  255 212 
 ROSC BZ I         2 6 22.62         5.4 0.30            117            255 212 
 PTGC HZ EP   9    2 5 51.37                             111   -1.12 0  306 159 
 PTGC HN ES        2 6 25.11                                   -0.10 7  306 159 
 PRA  HZ EP        2 6  2.79                             106    0.08 6  394 210 
 PRA  HN ES        2 6 44.77                             106    0.25 6  394 210 
 PRA  HZ I         2 6 50.25         3.1 0.38            107            394 210 
                                                                                
