 2010 10 2 0432 50.8 L   6.811 -73.118143.3  RSN  4 0.1 1.3LRSN                1
 GAP=162        0.32       4.0     7.9  8.8  0.1533E+02 -0.4365E+02 -0.1972E+02E
 Epicentro: LOS SANTOS - SANTANDER                                             3
 ACTION:UP  11-02-18 11:07 OP:tino STATUS:               ID:20101002043250 L   I
 2010-10-02-0429-30S.COL___125                                                 6
 STAT SP IPHASW D HRMM SECON CODA AMPLIT PERI AZIMU VELO SNR AR TRES W  DIS CAZ7
 BRR  HZ EP   1    433 11.75                             151    -0.1 7   73 297 
 BRR  HZ I         433 11.99         5.7 0.17                            73 297 
 BRR  HE ES   2    433 28.28                             151     0.1 5   73 297 
 RUS  HZ EP   2    433 14.53                             143     0.1 5  102 178 
 RUS  HE ES   2    433 32.71                             143    -0.1 5  102 178 
 RUS  HZ I         433 33.90         3.1 0.38                           102 178 
 GUE  SZ EP   2    433 15.21                             139     0.1 5  115  11 
 GRA  SZ EP   2    433 15.61                             137    -0.1 5  124  16 
 GRA  SZ I         433 20.75         2.7 0.41                           124  16 
                                                                                
