 2012  3 2 0207 31.0 L   6.718 -73.212148.4  RSN  4 0.2 1.5LRSN                1
 GAP=219        0.61       6.0     6.0  7.8  0.1824E+02 -0.8878E+01 -0.4624E+01E
 ACTION:UP  12-03-31 23:16 OP:EP   STATUS:               ID:20120302020731 L   I
 2012-03-02-0200-00M.COL___191                                                 6
 STAT SP IPHASW D HRMM SECON CODA AMPLIT PERI AZIMU VELO SNR AR TRES W  DIS CAZ7
 BAR2 SZ EP        2 7 50.44                             174    -0.410   14 167 
 BAR2 SZ I         2 7 50.72         4.9 0.21                            14 167 
 BRR  HZ EP        2 7 52.55                             153     0.110   70 308 
 BRR  HZ I         2 7 55.86         6.8 0.14                            70 308 
 BRR  HN ES   1    2 8  9.21                             153     0.1 7   70 308 
 RUS  HZ EP        2 7 54.72                             147     0.210   92 171 
 RUS  HE ES   1    2 8 12.75                             147     0.0 7   92 171 
 PTB  HZ EP   1    2 7 57.40                             134     0.0 7  139 262 
 PTB  HE ES   1    2 8 17.93                             134    -0.1 7  139 262 
                                                                                
