 2012  1 2 0927 39.0 L   5.971 -73.939  6.0  RSN  8 0.4 2.1LRSN                1
 GAP= 76        0.74       2.2     2.3  6.9 -0.1288E+01  0.9721E+00  0.1156E+01E
 Epicentro: SUCRE - SANTANDER                                                  3
 ACTION:UP  12-02-03 08:13 OP:REBC STATUS:               ID:20120102092739 L   I
 2012-01-02-0920-00M.COL___186                                                 6
 STAT SP IPHASW D HRMM SECON CODA AMPLIT PERI AZIMU VELO SNR AR TRES W  DIS CAZ7
 PTB  HZ EP   1    927 52.47                              91     0.0 8   85 318 
 PTB  HN ES   2    928  3.35                              91     0.4 5   85 318 
 RUS  HZ EP   1    927 54.08                              91    -0.4 8   95  95 
 RUS  HE ES   2    928  6.32                              91    -0.3 5   95  95 
 RUS  HZ I         928  7.34        44.7 0.27                            95  95 
 BAR2 SZ EP        927 56.42                              91     0.210  108  51 
 BAR2 SZ ES   1    928  9.29                              91    -0.4 7  108  51 
 BAR2 SZ I         928 13.51        84.2 0.23                           108  51 
 NOR  SZ EP   1    927 56.23                              91    -0.4 7  112 246 
 NOR  SN ES   2    928 10.32                              91    -0.1 5  112 246 
 BRR  HZ EP        927 58.80                              91    -0.210  128  11 
 BRR  HE ES   1    928 14.86                              91     0.3 7  128  11 
 BRR  HZ I         928 16.75        68.8 0.14                           128  11 
 CHI  HZ EP   1    928  3.27                              91     0.5 7  150 171 
 CHI  HZ I         928  5.35        14.2 0.41                           150 171 
 CHI  HN ES   2    928 21.92                              91     0.6 5  150 171 
 RREF HZ EP   2    928  9.23                              56    -0.1 4  196 233 
 RREF HN ES   2    928 32.51                              56    -0.5 4  196 233 
 RREF HZ I         928 39.29        16.1 0.30                           196 233 
 PAM  SZ EP   1    928 10.80                              56     0.6 6  204  42 
 PAM  SN ES   2    928 34.47                              56     0.0 4  204  42 
                                                                                
