 2017  5 2 0018  7.8 L   6.794 -73.185152.3  RSN  6 0.4 1.4LRSN                1
 GAP=132        1.00       4.4     4.4  7.8 -0.8996E+00  0.6510E+01 -0.1150E+01E
 Epicentro: ZAPATOCA - SANTANDER                                               3
 ACTION:UPD 17-06-16 13:31 OP:jn   STATUS:               ID:20170502001807 L   I
 OLDACT:REG 17-05-02 11:51 OP:edw  STATUS:               ID:20170502000901     3
 2017-05-02-0018-00M.COL___371                                                 6
 STAT SP IPHASW D HRMM SECON CODA AMPLIT PERI AZIMU VELO AIN AR TRES W  DIS CAZ7
 BRR  HZ EP        018 30.10                             155    0.5910 67.8 301 
 BRR  HN ES        018 46.93                             155    0.5110 67.8 301 
 BRR  HZ I         018 50.21         7.0 0.38            153           67.8 301 
 PAM  EZ EP     C  018 31.16                             151    0.2110 80.7  42 
 PAM  EN ES        018 48.54                             151   -0.4310 80.7  42 
 PAM  EZ I         018 51.43         1.7 0.36            154           80.7  42 
 RUS  HZ EP        018 32.22                             145    0.0110  100 174 
 RUS  HN ES        018 50.90                             145   -0.3210  100 174 
 RUS  HZ I         018 52.33         2.1 0.22            150            100 174 
 PTB  HZ EP        018 35.03                             134    0.07 9  143 259 
 PTB  HN ES        018 56.36                             134    0.25 9  143 259 
 PTB  HZ I         019  1.71         3.5 0.72            135            143 259 
 SPBC HN ES        018 58.92                             131   -0.01 9  160 218 
 ZAR  HZ EP        018 39.92                             124   -0.42 9  200 293 
 ZAR  HN ES        019  4.98                             124   -0.71 9  200 293 
 ZAR  HZ I         019 12.61         5.5 0.30            126            200 293 
                                                                                
