 2017  7 2 0847 28.3 L   6.646 -73.184142.0  RSN  4 0.2 1.4LRSN                1
 GAP=227        0.60       6.5     4.2  4.8  0.9623E+01  0.5676E+01 -0.9976E-01E
 Epicentro: VILLANUEVA - SANTANDER                                             3
 ACTION:UPD 17-08-30 15:29 OP:rebc STATUS:               ID:20170702084728 L   I
 OLDACT:UP  17-07-02 16:58 OP:and  STATUS:               ID:20170702083717     3
 OLDACT:REG 17-07-02 12:02 OP:and  STATUS:               ID:20170702083717     3
 2017-07-02-0838-00M.COL___380                                                 6
 STAT SP IPHASW D HRMM SECON CODA AMPLIT PERI AZIMU VELO AIN AR TRES W  DIS CAZ7
 BAR2 EZ EP        847 47.63                             177    0.4210 5.98 178 
 BAR2 EZ ES        848  1.83                             177   -0.1610 5.98 178 
 BAR2 EZ I         848  3.17         7.6 0.12            169           5.98 178 
 BRR  HZ IP     C  847 49.33                             150   -0.0510 77.4 311 
 BRR  HN ES        848  5.77                             150   -0.0810 77.4 311 
 BRR  HZ I         848  6.48         5.2 0.16            141           77.4 311 
 PTB  HZ EP        847 54.05                             132   -0.28 9  141 265 
 PTB  HN ES        848 14.76                             132    0.10 9  141 265 
 PTB  HZ I         848 17.82         2.3 0.12            129            141 265 
 ZAR  HZ EP        848  0.61                             121   -0.19 8  207 297 
 ZAR  HN ES        848 26.40                             121    0.23 8  207 297 
 ZAR  HZ I         848 41.63         2.6 0.36            118            207 297 
                                                                                
