 2014 10 2 0744 12.3 L   6.798 -73.170139.8  RSN 10 0.4 1.8LRSN                1
 GAP=180        0.95       2.7     4.6  6.3  0.9816E+00  0.6642E+01 -0.3640E+01E
 Epicentro: LOS SANTOS - SANTANDER                                             3
 ACTION:UPD 14-11-29 23:45 OP:nd   STATUS:               ID:20141002074412 L   I
 OLDACT:UP  14-10-02 16:07 OP:cam  STATUS:               ID:20141002073805     3
 OLDACT:REG 14-10-02 12:39 OP:cam  STATUS:               ID:20141002073805     3
 2014-10-02-0738-05M.COL___289                                                 6
 STAT SP IPHASW D HRMM SECON CODA AMPLIT PERI AZIMU VELO AIN AR TRES W  DIS CAZ7
 BAR2 SZ EP     D  744 31.36                             170    0.1510 22.8 184 
 BAR2 SZ ES        744 45.51                             170   -0.4510 22.8 184 
 BAR2 SZ I         744 48.09        19.2 0.20            172           22.8 184 
 BRR  HZ EP        744 33.28                             152    0.5910 69.0 300 
 BRR  HZ I         744 54.45         8.7 0.14            150           69.0 300 
 RUS  HN ES        744 53.53                             142   -0.0310  101 175 
 RUS  HN I         744 54.32         9.1 0.22            144            101 175 
 PTB  HZ EP        744 38.16                             131   -0.40 9  145 259 
 PTB  HN ES        744 59.11                             131    0.08 9  145 259 
 PTB  HZ I         745  1.43         8.8 0.14            131            145 259 
 OCA  HZ EP        744 39.59                             128   -0.56 9  160 354 
 OCA  HN ES        745  2.38                             128    0.51 9  160 354 
 OCA  HZ I         745  8.91         8.6 0.40            127            160 354 
 SPBC HZ EP        744 40.24                             128    0.05 9  161 218 
 SPBC HN ES        745  1.77                             128   -0.16 9  161 218 
 SPBC HZ I         745  8.82         4.9 0.20            128            161 218 
 ZAR  HZ EP        744 44.66                             121    0.53 9  202 292 
 ZAR  HN ES        745  9.32                             121    0.38 9  202 292 
 ZAR  HZ I         745 18.04         8.8 0.50            121            202 292 
 SML  HZ EP        744 47.96                             116   -0.55 8  243 336 
 SML  HN ES        745 16.72                             116   -0.02 8  243 336 
 SML  HZ I         745 21.65         7.2 0.24            116            243 336 
 CHI  HZ EP        744 49.80                             116    0.21 8  248 195 
 CHI  HN ES        745 18.84                             116    0.17 8  248 195 
 CHI  HZ I         745 25.36         1.3 0.30            116            248 195 
 URE  HN ES        745 23.71                             112   -0.72 7  281 292 
                                                                                
