 2011  5 2 0003 18.3 L   6.785 -73.107143.7  RSN  6 0.3 1.6LRSN                1
 GAP=142        0.68       4.0     6.7  6.8 -0.5108E+01 -0.2672E+01  0.5226E+00E
 Epicentro: LOS SANTOS - SANTANDER                                             3
 ACTION:UP  11-06-29 08:50 OP:tino STATUS:               ID:20110502000318 L   I
 2011-05-02-0000-00M.COL___140                                                 6
 STAT SP IPHASW D HRMM SECON CODA AMPLIT PERI AZIMU VELO SNR AR TRES W  DIS CAZ7
 BAR2 SZ EP   1    0 3 37.47                             170    -0.2 7   23 201 
 BAR2 SZ I         0 3 37.82        12.0 0.10                            23 201 
 BAR2 SZ ES   2    0 3 52.25                             170    -0.5 5   23 201 
 PAM  SN ES   1    0 3 57.21                             151    -0.1 7   76  36 
 BRR  HN ES   1    0 3 56.27                             151     0.3 7   76 298 
 PAM  SZ EP   1    0 3 40.69                             151     0.5 7   76  36 
 BRR  HZ EP   1    0 3 39.22                             151    -0.2 7   76 298 
 BRR  HZ I         0 3 39.54        15.8 0.18                            76 298 
 RUS  HZ EP   1    0 3 41.43                             144    -0.2 7   99 178 
 RUS  HZ I         0 3 42.72         4.0 0.11                            99 178 
 RUS  HE ES   2    0 4  0.49                             144     0.6 5   99 178 
 GRA  SZ EP   1    0 3 43.21                             137    -0.1 7  126  15 
 GRA  SZ ES   1    0 4  2.86                             137    -0.1 7  126  15 
 GRA  SZ I         0 4  3.85         4.1 0.31                           126  15 
 OCA  SZ EP   1    0 3 46.90                             129     0.3 7  162 352 
 OCA  SZ ES   2    0 4  8.32                             129    -0.4 5  162 352 
 OCA  SZ I         0 4 12.44         6.0 0.39                           162 352 
                                                                                
