 2011  6 2 0946 17.1 L   6.915 -73.145140.8  RSN  6 0.3 1.7LRSN                1
 GAP=242        0.80      10.8     7.3  8.3 -0.3671E+02 -0.5354E+01  0.1389E+02E
 Epicentro: PIEDECUESTA - SANTANDER                                            3
 ACTION:UP  11-07-14 19:02 OP:ep   STATUS:               ID:20110602094617 L   I
 2011-06-02-0940-00M.COL___113                                                 6
 STAT SP IPHASW D HRMM SECON CODA AMPLIT PERI AZIMU VELO SNR AR TRES W  DIS CAZ7
 BRR  HZ EP   1    946 36.96                             151    -0.5 7   66 289 
 BRR  HZ I         946 39.07        20.3 0.10                            66 289 
 BRR  HE ES   1    946 53.65                             151     0.4 7   66 289 
 PAM  SZ EP   1    946 38.11                             152    -0.2 7   68  46 
 PAM  SE ES   2    946 54.32                             152    -0.4 5   68  46 
 BRI  SZ EP        946 39.91                             142     0.310   97  23 
 BRI  SZ ES   1    946 56.68                             142    -0.5 7   97  23 
 GRA  SZ EP        946 41.14                             137     0.210  114  19 
 GRA  SZ ES   1    946 59.72                             137     0.2 7  114  19 
 GRA  SZ I         947  1.94         7.5 0.42                           114  19 
 OCA  SZ EP   1    946 43.94                             129     0.1 7  148 353 
 OCA  SZ I         947 10.55         4.8 0.22                           148 353 
 MON  HN ES   2    947 41.79                                    -0.6 3  346 307 
 MON  HZ I         947 57.09         1.2 0.45                           346 307 
                                                                                
