 2012 12 2 0559 38.5 L   6.781 -73.177139.7  RSN  4 0.2 1.3LRSN                1
 GAP=141        0.51       4.3     4.1  8.1 -0.2554E+01  0.1292E+02  0.3931E+01E
 Epicentro: LOS SANTOS - SANTANDER                                             3
 ACTION:UPD 13-01-04 14:25 OP:ep   STATUS:               ID:20121202055938 L   I
 2012-12-02-0554-49M.COL___192                                                 6
 STAT SP IPHASW D HRMM SECON CODA AMPLIT PERI AZIMU VELO AIN AR TRES W  DIS CAZ7
 BAR2 SZ EP        559 57.67                             171    0.2810 20.9 182 
 PAM  SE ES   1    6 0 17.22                             148   -0.14 7 81.2  40 
 RUS  HZ EP   1    6 0  1.57                             143    0.00 7 98.8 174 
 RUS  HN ES   1    6 0 19.38                             143   -0.15 7 98.8 174 
 RUS  HN I         6 0 21.15         3.6 0.25                          98.8 174 
 PTB  HZ EP   1    6 0  4.33                             131   -0.34 7  144 259 
 PTB  HN ES   1    6 0 25.16                             131    0.11 7  144 259 
 PTB  HZ I         6 0 33.08         3.0 0.55                           144 259 
                                                                                
