 2017  9 2 0513 56.3 L   6.803 -73.139144.6  RSN  5 0.4 1.3LRSN                1
 GAP=239        0.92       5.2     6.7  6.7  0.1735E+02  0.9136E+01  0.5272E+00E
 Epicentro: LOS SANTOS - SANTANDER                                             3
 ACTION:UPD 17-10-05 19:08 OP:rebc STATUS:               ID:20170902051356 L   I
 OLDACT:REG 17-09-02 13:21 OP:dani STATUS:               ID:20170902050738     3
 2017-09-02-0508-00M.COL___399                                                 6
 STAT SP IPHASW D HRMM SECON CODA AMPLIT PERI AZIMU VELO AIN AR TRES W  DIS CAZ7
 BAR2 EZ EP        514 15.66                             170   -0.1810 23.8 192 
 BAR2 EZ ES        514 30.47                             170   -0.5910 23.8 192 
 BAR2 EZ I         514 33.51         5.3 0.52            164           23.8 192 
 BRR  HZ EP        514 17.78                             152    0.3910 71.7 298 
 BRR  HN ES        514 34.23                             152    0.4110 71.7 298 
 BRR  HZ I         514 40.57         4.1 0.31            148           71.7 298 
 RUS  HZ EP        514 19.72                             143   -0.2810  101 176 
 RUS  HE ES        514 38.98                             143    0.5210  101 176 
 RUS  HZ I         514 39.75         2.1 0.32            145            101 176 
 SPBC HZ EP        514 24.95                             129    0.13 9  164 219 
 SPBC HN ES        514 46.89                             129   -0.15 9  164 219 
 SPBC HZ I         514 53.76         3.1 0.24            129            164 219 
 ZAR  HZ EP        514 28.75                             122   -0.02 9  205 292 
 ZAR  HE ES        514 53.74                             122   -0.32 9  205 292 
 ZAR  HZ I         515  0.90         1.6 0.20            122            205 292 
                                                                                
