 2014  6 2 0122 50.8 L   6.761 -73.212148.8  RSN  4 0.4 1.3LRSN                1
 GAP=225        1.08       8.6     8.0  8.7  0.3359E+02  0.6928E+01  0.2680E+01E
 Epicentro: VILLANUEVA - SANTANDER                                             3
 ACTION:UPD 14-07-01 22:49 OP:nd   STATUS:               ID:20140602012250 L   I
 OLDACT:DUP 14-06-02 16:04 OP:stll STATUS:               ID:20140602011810d    3
 2014-06-02-0118-09M.COL___256                                                 6
 STAT SP IPHASW D HRMM SECON CODA AMPLIT PERI AZIMU VELO AIN AR TRES W  DIS CAZ7
 BAR2 SZ EP        123 10.59                             172   -0.1710 18.9 170 
 BAR2 SZ I         123 10.99         4.6 0.38            168           18.9 170 
 BAR2 SZ ES        123 25.57                             172   -0.7310 18.9 170 
 BRR  HZ EP        123 12.19                             154    0.0810 67.2 305 
 BRR  HN ES        123 29.29                             154    0.5910 67.2 305 
 RUS  HZ EP        123 14.59                             145   -0.0610 97.0 172 
 RUS  HN ES        123 33.78                             145    0.5710 97.0 172 
 RUS  HZ I         123 35.39         3.2 0.70            143           97.0 172 
 PTB  HZ EP        123 17.36                             134    0.01 9  140 260 
 PTB  HN ES        123 37.71                             134   -0.32 9  140 260 
 PTB  HZ I         123 41.14         2.1 0.16            133            140 260 
                                                                                
