 2015 10 2 0109 48.2 L   6.838 -73.116153.5  RSN 11 0.5 1.7LRSN                1
 GAP=138        1.06       3.7     5.0  6.5 -0.1447E+01  0.7292E+01  0.3083E+01E
 Epicentro: LOS SANTOS - SANTANDER                                             3
 ACTION:UPD 15-12-22 20:36 OP:cam  STATUS:               ID:20151002010948 L   I
 OLDACT:REG 15-10-02 12:22 OP:ar   STATUS:               ID:20151002010748     3
 2015-10-02-0107-48M.COL___355                                                 6
 STAT SP IPHASW D HRMM SECON CODA AMPLIT PERI AZIMU VELO AIN AR TRES W  DIS CAZ7
 BAR2 EZ EP   2    110  8.80                             169   -0.10 5 28.1 195 
 BAR2 EZ ES        110 25.52                             169    0.5110 28.1 195 
 BAR2 EZ I         110 29.43         7.1 0.22            168           28.1 195 
 PAM  EZ EP        110 11.55                             154    0.5610 72.1  40 
 PAM  EN ES        110 28.20                             154   -0.5310 72.1  40 
 PAM  EZ I         110 30.37        12.9 0.46            157           72.1  40 
 BRR  HZ EP        110 10.40                             154    0.1110 72.2 294 
 BRR  HN ES        110 27.59                             154    0.1110 72.2 294 
 BRR  HZ I         110 29.93         9.3 0.16            152           72.2 294 
 RUS  HZ EP        110 12.78                             144   -0.2610  105 178 
 RUS  HN ES        110 32.44                             144    0.0610  105 178 
 RUS  HZ I         110 35.75         2.3 0.68            146            105 178 
 PTB  HZ EP        110 15.26                             133   -0.95 9  152 258 
 PTB  HN ES   2    110 37.07                             133   -0.95 5  152 258 
 PTB  HZ I         110 39.83         6.1 0.28            133            152 258 
 OCA  HZ EP        110 16.74                             132   -0.08 9  157 352 
 OCA  HN ES   2    110 38.42                             132   -0.70 5  157 352 
 OCA  HZ I         110 42.35        15.9 0.16            134            157 352 
 SPBC HZ EP   2    110 18.24                             130    0.40 5  168 219 
 SPBC HN ES   2    110 40.86                             130   -0.06 5  168 219 
 SPBC HZ I         110 42.75         5.7 0.24            131            168 219 
 ZAR  HN ES        110 47.85                             124    0.67 8  206 291 
 ZAR  HZ I         110 53.08        11.1 0.50            125            206 291 
 CHI  HZ EP        110 27.54                             118    0.63 8  254 196 
 CHI  HN ES        110 56.82                             118   -0.24 8  254 196 
 CHI  HZ I         111  2.38         2.3 0.36            120            254 196 
 URE  HZ EP   4    110 22.03                             115   -7.83 0  285 291 
 URE  HN ES   4    111  5.49                             115    3.16 0  285 291 
 URE  HZ I         111  8.47         5.0 0.30            116            285 291 
 GUY2CHZ EP   4    110 33.87                             113    1.08 0  306 234 
 GUY2CHN ES        111  7.36                             113   -0.17 7  306 234 
 GUY2CHZ I         111 17.07         2.0 0.44                           306 234 
                                                                                
