 2012  3 2 0027  2.4 L   6.763 -73.169145.2  RSN  8 0.4 1.7LRSN                1
 GAP=180        0.80       5.1     5.9  6.5  0.9125E+01  0.4494E+01 -0.5674E+00E
 ACTION:UP  12-03-31 23:16 OP:EP   STATUS:               ID:20120302002702 L   I
 2012-03-02-0020-00M.COL___191                                                 6
 STAT SP IPHASW D HRMM SECON CODA AMPLIT PERI AZIMU VELO SNR AR TRES W  DIS CAZ7
 BAR2 SZ ES   1    027 36.93                             172    -0.1 7   19 184 
 BAR2 SZ I         027 37.72        10.7 0.18                            19 184 
 BRR  HZ EP        027 23.14                             152    -0.310   71 302 
 BRR  HZ I         027 24.60        12.0 0.08                            71 302 
 BRR  HE ES   1    027 40.47                             152     0.6 7   71 302 
 RUS  HZ EP   1    027 25.83                             145     0.0 7   97 174 
 RUS  HE ES   1    027 44.02                             145    -0.1 7   97 174 
 RUS  HZ I         027 45.07         4.8 0.30                            97 174 
 PTB  HZ EP   1    027 28.47                             133    -0.6 7  144 260 
 PTB  HN ES   1    027 49.84                             133     0.0 7  144 260 
 OCA  SZ EP   1    027 31.59                             129     0.6 7  164 354 
 ZAR  HZ EP   2    027 34.22                             122    -0.5 4  203 293 
 ZAR  HN ES   1    027 59.73                             122    -0.2 6  203 293 
 ZAR  HZ I         028  5.24         7.4 0.42                           203 293 
 NOR  SZ EP   1    027 38.04                             119     0.4 6  230 235 
 NOR  SN ES   2    028  5.66                             119     0.6 4  230 235 
 CHI  HZ EP   1    027 39.76                             118     0.2 6  244 195 
 CHI  HZ I         027 44.01         2.0 0.94                           244 195 
                                                                                
