 2017  6 2 0759  4.2 L   6.833 -73.131153.2  RSN 23 0.4 2.6LRSN                1
 GAP=149        1.07       3.7     4.0  5.7  0.3240E+01 -0.2748E+00 -0.1399E+01E
 Epicentro: LOS SANTOS - SANTANDER                                             3
 ACTION:UPD 17-09-14 16:49 OP:jn   STATUS:               ID:20170602075904 L   I
 OLDACT:UP  17-06-02 16:11 OP:and  STATUS:               ID:20170602075738     3
 OLDACT:UP  17-06-02 16:06 OP:and  STATUS:               ID:20170602075738     3
 OLDACT:UP  17-06-02 15:48 OP:and  STATUS:               ID:20170602075738     3
 OLDACT:UP  17-06-02 15:48 OP:and  STATUS:               ID:20170602075738     3
 OLDACT:REG 17-06-02 13:02 OP:and  STATUS:               ID:20170602075738     3
 2017-06-02-0758-00M.COL___341                                                 6
 STAT SP IPHASW D HRMM SECON CODA AMPLIT PERI AZIMU VELO AIN AR TRES W  DIS CAZ7
 BRR  HZ IP     C  759 26.57                             154    0.3810 71.0 295 
 BRR  HN ES        759 43.87                             154    0.5610 71.0 295 
 BRR  HZ I         759 48.17        38.1 0.14            150           71.0 295 
 RUS  HZ EP        759 28.73                             144   -0.2510  104 177 
 RUS  HN ES        759 47.73                             144   -0.5510  104 177 
 RUS  HZ I         759 49.09        69.5 0.26            144            104 177 
 PTB  HZ EP   9    759 31.54                             133   -0.49 0  150 258 
 PTB  HN ES        759 52.43                                   -0.79 9  150 258 
 PTB  HZ I         759 59.93        50.8 0.36            131            150 258 
 SPBC HZ EP        759 33.55                             130   -0.13 9  167 219 
 SPBC HN ES        759 55.95                             130   -0.69 9  167 219 
 SPBC HZ I         8 0  0.58        81.6 0.24            129            167 219 
 YPLC HZ IP     D  759 35.16                             128    0.34 9  179 152 
 YPLC HN ES        759 59.25                             128    0.57 9  179 152 
 YPLC HZ I         8 0  0.05        56.8 0.26            129            179 152 
 TABC EZ EP   4    759 42.27                             120    1.41 0  234 211 
 TABC EZ ES        8 0  9.47                             120    0.05 8  234 211 
 TABC EZ I         8 0 13.07        40.8 0.40            120            234 211 
 NOR  HZ EP        759 40.66                             119   -0.12 8  238 234 
 NOR  HN ES        8 0  9.31                             119    0.03 8  238 234 
 NOR  HZ I         8 0 10.24        31.6 0.30            119            238 234 
 CHI  HZ EP        759 42.92                             118    0.13 8  253 195 
 CHI  HN ES        8 0 12.68                             118   -0.17 8  253 195 
 CHI  HZ I         8 0 15.51        25.6 0.36            118            253 195 
 ROSC BZ EP   4    759 44.33                             118    1.13 0  257 211 
 ROSC BE ES   4    8 0 14.05                             118    0.45 0  257 211 
 ROSC BZ I         8 0 19.21        34.7 0.40            117            257 211 
 HEL  HZ EP   4    759 46.41                             116    1.30 0  275 255 
 HEL  HE ES   4    8 0 15.62                             116   -1.37 0  275 255 
 HEL  HZ I         8 0 22.89        26.3 0.26            115            275 255 
 VIL  EZ EP        759 48.44                             113   -0.00 7  307 192 
 VIL  EN ES        8 0 22.97                             113    0.05 7  307 192 
 VIL  EZ I         8 0 25.36        28.8 0.48            113            307 192 
 PTGC HZ EP        759 47.82                             112   -0.94 7  312 159 
 PTGC HE ES   4    8 0 21.22                             112   -2.26 0  312 159 
 PTGC HZ I         8 0 23.16        20.6 0.44            114            312 159 
 ELA  HZ EP   4    759 54.20                             111    2.38 0  333 229 
 ELA  HN ES        8 0 29.16                             111    0.22 7  333 229 
 ELA  HZ I         8 0 38.31         9.8 0.29            111            333 229 
 CBOC HZ EP   4    759 53.13                             111    1.35 0  336 252 
 CBOC HN ES        8 0 29.25                             111    0.40 7  336 252 
 CBOC HZ I         8 0 33.01         5.8 0.21            111            336 252 
 DBB  EZ EP        759 52.42                             110    0.24 7  341 274 
 DBB  EN ES   4    8 0 28.19                             110   -1.39 0  341 274 
 DBB  EZ I         8 0 31.37         8.7 0.15            110            341 274 
 ARGC HZ EP        759 53.28                             109   -0.58 6  356 340 
 ARGC HE ES   4    8 0 34.86                             109    2.30 0  356 340 
 ANIL HZ EP   9    759 56.06                             109    1.29 0  361 224 
 ANIL HN ES        8 0 35.08                             109   -0.39 6  361 224 
 ANIL HZ I         8 0 39.14        46.2 0.38            109            361 224 
 APAC HZ EP        759 58.67                             107   -0.07 6  399 287 
 APAC HN ES        8 0 41.17                             107   -0.08 6  399 287 
 APAC HZ I         8 0 45.58         8.5 0.40            107            399 287 
 ORTC HZ EP        759 59.14                             107    0.26 6  399 216 
 ORTC HN ES   4    8 0 42.77                             107    1.28 0  399 216 
 ORTC HZ I         8 0 48.85        10.9 0.25            107            399 216 
 SJC  HZ EP   9    759 58.49                             107   -1.31 0  407 326 
 SJC  HN ES        8 0 40.07                             107   -1.76 6  407 326 
 SJC  HZ I         8 0 46.86         7.1 0.56            107            407 326 
 PAL  HZ EP        8 0  0.36                             107    0.32 6  409 239 
 PAL  HN ES   4    8 0 40.23                             107   -3.33 0  409 239 
 PAL  HZ I         8 0 54.16         8.4 0.34            107            409 239 
 CRJC HZ EP   9    8 0  5.15                             104   -1.36 0  464   3 
 CRJC HE ES        8 0 52.72                             104   -1.00 5  464   3 
 CRJC HZ I         8 0 57.12        13.1 0.18            105            464   3 
 CAP2 HZ EP   4    8 0 15.54                             103    3.94 0  508 294 
 CAP2 HE ES   4    8 1  1.50                             103   -2.64 0  508 294 
 GARC HZ EP   9    8 0 18.77                             101   -1.37 0  577 207 
 GARC HN ES        8 1 16.51                             101   -1.46 3  577 207 
                                                                                
