 2011  7 2 0917 31.0 L   6.805 -73.099149.9  RSN  6 0.2 1.3LRSN                1
 GAP=142        0.46       3.4     5.0  6.0 -0.4560E+01 -0.6081E+01  0.4813E+01E
 Epicentro: LOS SANTOS - SANTANDER                                             3
 ACTION:UPD 12-07-25 13:57 OP:epov STATUS:               ID:20110702091731 L   I
 2011-07-02-0916-24S.COL___140                                                 6
 STAT SP IPHASW D HRMM SECON CODA AMPLIT PERI AZIMU VELO AIN AR TRES W  DIS CAZ7
 BTL  SZ EP   1    917 51.18                             171    0.09 7 22.4 304 
 GIR2 SZ EP   2    917 51.07                             168   -0.09 5 32.0 341 
 PAM  SZ EP   1    917 53.61                             153    0.18 7 73.7  37 
 PAM  SN ES   2    918 11.18                             153    0.24 5 73.7  37 
 BRR  HZ EP        917 52.60                             152   -0.2210 75.5 296 
 BRR  HZ I         917 52.94         8.9 0.18                          75.5 296 
 BRR  HE ES   1    918 10.05                             152    0.19 7 75.5 296 
 RUS  HZ EP   1    917 55.47                             144    0.30 7  101 179 
 RUS  HE ES   2    918 13.58                             144   -0.45 5  101 179 
 RUS  HZ I         918 14.63         1.5 0.28                           101 179 
 GRA  SZ EP   1    917 56.38                             138   -0.05 7  124  15 
 GRA  SZ I         917 58.02         2.2 0.35                           124  15 
 GRA  SZ ES   1    918 16.08                             138   -0.20 7  124  15 
                                                                                
