 2015  5 2 0138 60.0 L   6.174 -73.644111.1  RSN 10 0.4 1.7LRSN                1
 GAP= 69        0.89       2.4     2.9  5.7 -0.1124E+01  0.8199E+01  0.3587E+00E
 Epicentro: LA PAZ - SANTANDER                                                 3
 ACTION:UPD 15-09-10 22:00 OP:cam  STATUS:               ID:20150502013860 L   I
 OLDACT:REG 15-05-02 12:58 OP:stll STATUS:               ID:20150502013750     3
 2015-05-02-0137-50M.COL___276                                                 6
 STAT SP IPHASW D HRMM SECON CODA AMPLIT PERI AZIMU VELO AIN AR TRES W  DIS CAZ7
 BAR2 EZ EP        139 17.92                             146    0.2310 68.9  48 
 BAR2 EZ ES        139 31.65                             146    0.1510 68.9  48 
 RUS  HZ EP        139 18.09                             146    0.0010 69.4 117 
 RUS  HZ I         139 18.38         7.4 0.20            149           69.4 117 
 RUS  HN ES        139 32.02                             146   -0.1910 69.4 117 
 SPBC HZ EP        139 17.93                             144    0.0510 74.6 219 
 SPBC HN ES        139 32.02                             144    0.1710 74.6 219 
 SPBC HZ I         139 34.74        17.9 0.22            143           74.6 219 
 BRR  HZ EP        139 19.97                             134   -0.1210  104 356 
 BRR  HZ I         139 20.35        12.9 0.14            138            104 356 
 BRR  HN ES        139 36.02                             134    0.2410  104 356 
 NOR  HZ EP        139 24.99                             122    0.18 9  152 244 
 NOR  HN ES        139 43.66                             122   -0.52 9  152 244 
 NOR  HZ I         139 48.38        10.2 0.14            123            152 244 
 CHI  HZ EP        139 27.36                             119    0.03 9  171 183 
 CHI  HN ES        139 48.31                             119   -0.36 9  171 183 
 CHI  HZ I         139 55.72         3.5 0.30            120            171 183 
 ZAR  HZ EP        139 29.15                             114   -0.63 9  198 317 
 ZAR  HN ES        139 52.45                             114   -0.57 9  198 317 
 ZAR  HZ I         139 54.57        10.6 0.38            117            198 317 
 HEL  HZ EP        139 32.26                             113    0.86 8  209 271 
 HEL  HN ES        139 56.28                             113    0.37 8  209 271 
 HEL  HZ I         139 59.78         5.2 0.30            115            209 271 
 GUY2CHZ EP        139 32.24                             112   -0.31 8  218 241 
 GUY2CHN ES        139 57.66                             112   -0.30 8  218 241 
 GUY2CHZ I         140  5.36         6.4 0.32                           218 241 
 RREF HZ EP        139 34.93                             110    0.15 8  235 233 
 RREF HN ES        140  2.47                             110    0.55 8  235 233 
 RREF HZ I         140  7.22         1.6 0.40            111            235 233 
                                                                                
