 2011  5 2 0839 58.5 L   6.806 -73.171129.4  RSN  6 0.3 1.4LRSN                1
 GAP=152        0.72       6.8    10.3  7.7 -0.5694E+02  0.3842E+02 -0.2423E+02E
 Epicentro: LOS SANTOS - SANTANDER                                             3
 ACTION:UP  11-06-29 08:50 OP:tino STATUS:               ID:20110502083958 L   I
 2011-05-02-0838-16S.COL___130                                                 6
 STAT SP IPHASW D HRMM SECON CODA AMPLIT PERI AZIMU VELO SNR AR TRES W  DIS CAZ7
 BTL  SZ IP        840 16.21                             172     0.210   16 319 
 BTL  SZ ES   2    840 29.54                             172    -0.2 5   16 319 
 BAR2 SZ ES   1    840 30.17                             169     0.2 7   24 183 
 RUS  HN ES   2    840 37.78                             140    -0.3 5  102 174 
 RUS  HZ I         840 39.26         3.5 0.20                           102 174 
 BRI  SZ EP   1    840 20.70                             137    -0.2 7  109  22 
 BRI  SZ I         840 41.23         4.9 0.40                           109  22 
 GRA  SZ IP        840 22.18                             133    -0.210  126  19 
 GRA  SZ ES   1    840 41.06                             133     0.1 7  126  19 
 GRA  SZ I         840 44.02         4.6 0.30                           126  19 
 NOR  SZ EP   1    840 33.88                             115     0.7 6  233 234 
 NOR  SN ES   1    840 59.59                             115    -0.6 6  233 234 
                                                                                
