 2014  1 2 0624  6.2 L   6.858 -73.171135.1  RSN 17 0.7 2.3LRSN                1
 GAP=117        1.51       3.4     4.7  7.4 -0.3240E+01  0.1151E+02  0.1161E+00E
 Epicentro: ZAPATOCA - SANTANDER                                               3
 ACTION:UPD 14-03-13 09:50 OP:ep   STATUS:               ID:20140102062406 L   I
 OLDACT:REG 14-01-02 08:30 OP:stll STATUS:               ID:20140102061816     3
 2014-01-02-0618-16M.COL___237                                                 6
 STAT SP IPHASW D HRMM SECON CODA AMPLIT PERI AZIMU VELO AIN AR TRES W  DIS CAZ7
 BAR2 SZ IP     D  624 24.96                             167    0.2310 29.4 182 
 BAR2 SZ I         624 25.42        95.1 0.14            166           29.4 182 
 BAR2 SZ ES        624 39.24                             167    0.0810 29.4 182 
 PAM  SZ EP        624 27.76                             150    0.6110 74.5  44 
 PAM  SN ES        624 44.58                             150    1.1210 74.5  44 
 PAM  SZ I         624 47.00        42.5 0.30            155           74.5  44 
 RUS  HZ EP        624 29.09                             140   -0.3710  107 175 
 RUS  HN ES        624 46.69                             140   -0.8910  107 175 
 PTB  HZ EP        624 31.88                             130   -0.35 9  146 256 
 PTB  HN ES        624 52.15                             130   -0.35 9  146 256 
 PTB  HZ I         624 58.74        25.6 0.20            131            146 256 
 OCA  HZ EP        624 32.99                             128   -0.11 9  154 354 
 OCA  HN ES        624 53.95                             128   -0.10 9  154 354 
 OCA  HZ I         624 55.83        22.1 0.38            132            154 354 
 SPBC HZ EP        624 34.04                             126   -0.22 9  166 217 
 SPBC HN ES        624 55.82                             126   -0.30 9  166 217 
 ZAR  HZ EP        624 37.97                             121    0.48 9  199 291 
 ZAR  HE ES        625  2.88                             121    1.01 9  199 291 
 NOR  HZ EP        624 41.75                             116    0.22 8  236 233 
 NOR  HN ES        625  8.42                             116   -0.65 8  236 233 
 NOR  HZ I         625 17.63        18.0 0.18            118            236 233 
 SML  HZ EP        624 41.36                             116   -0.16 8  237 335 
 SML  HN ES        625  7.90                             116   -1.14 8  237 335 
 CHI  HZ EP        624 43.37                             114   -0.60 8  254 194 
 CHI  HN ES        625 12.73                             114   -0.67 8  254 194 
 CHI  HZ I         625 20.25         6.0 0.26            116            254 194 
 ROSC BZ EP        624 46.15                             114    1.90 8  257 210 
 ROSC BN ES        625 14.61                             114    0.71 8  257 210 
 HEL  HZ EP        624 46.49                             113    0.69 8  271 254 
 HEL  HE ES        625 16.81                             113    0.14 8  271 254 
 HEL  HZ I         625 23.41        12.9 0.48            114            271 254 
 URE  HZ EP        624 45.93                             112   -0.32 7  279 291 
 URE  HE ES        625 16.41                             112   -1.05 7  279 291 
 SOCV BZ EP        624 47.50                             110   -1.19 7  300  58 
 GUY2CHZ EP        624 49.58                             110    0.04 7  303 233 
 GUY2CHN ES        625 23.18                             110   -0.14 7  303 233 
 GUY2CHZ I         625 31.36        10.3 0.56                           303 233 
 RREF HZ EP        624 52.78                             109    0.60 7  324 228 
 RREF HE ES        625 28.18                             109    0.17 7  324 228 
 RREF HZ I         625 34.20        12.9 0.26            110            324 228 
 ORTC HZ EP        625  0.32                             104    0.10 6  399 215 
 ORTC HN ES        625 42.87                             104    0.53 6  399 215 
 ORTC HZ I         625 47.78         4.2 0.50            106            399 215 
                                                                                
