 2013  3 2 0744  6.3 L   6.748 -73.165144.1  RSN  5 0.6 1.5LRSN                1
 GAP=136        1.42       9.7     8.5 11.7  0.1274E+02 -0.2513E+01 -0.2497E+02E
 Epicentro: VILLANUEVA - SANTANDER                                             3
 ACTION:UPD 13-04-09 13:59 OP:ep   STATUS:               ID:20130302074406 L   I
 2013-03-02-0738-36M.COL___193                                                 6
 STAT SP IPHASW D HRMM SECON CODA AMPLIT PERI AZIMU VELO AIN AR TRES W  DIS CAZ7
 BAR2 SZ EP        744 25.53                             172   -0.0510 17.3 186 
 BAR2 SZ I         744 25.87         8.4 0.32            175           17.3 186 
 BAR2 SZ ES        744 39.78                             172   -0.8710 17.3 186 
 BRR  HZ EP   1    744 27.48                             152    0.19 7 72.3 303 
 BRR  HN ES   1    744 45.03                             152    1.34 7 72.3 303 
 BRR  HN I         744 46.10         6.2 0.18            152           72.3 303 
 PAM  SZ EP        744 28.41                             149   -0.2510 83.3  38 
 RUS  HZ EP        744 29.92                             145    0.4710 95.0 174 
 RUS  HN ES        744 48.05                             145    0.5210 95.0 174 
 PTB  HZ EP        744 32.50                             132   -0.30 9  145 261 
 PTB  HN ES        744 53.04                             132   -0.47 9  145 261 
                                                                                
