 2016  1 2 0556 32.9 L   6.524 -73.565114.2  RSN 10 0.4 1.9LRSN                1
 GAP= 91        1.10       3.3     3.7  6.6 -0.3347E+01  0.9485E+01 -0.3641E+01E
 Epicentro: EL CARMEN - SANTANDER                                              3
 ACTION:UPD 16-03-09 23:22 OP:cam  STATUS:               ID:20160102055632 L   I
 OLDACT:REG 16-01-02 12:37 OP:drio STATUS:               ID:20160102054749     3
 2016-01-02-0547-49M.COL___320                                                 6
 STAT SP IPHASW D HRMM SECON CODA AMPLIT PERI AZIMU VELO AIN AR TRES W  DIS CAZ7
 BAR2 EZ IP     D  556 49.86                             158    0.4010 43.0  80 
 BAR2 EZ ES        557  2.29                             158   -0.0810 43.0  80 
 BAR2 EZ I         557  4.05        42.4 0.28            163           43.0  80 
 BRR  HZ EP        556 50.67                             148    0.2410 66.5 346 
 BRR  HE ES        557  4.58                             148    0.4810 66.5 346 
 BRR  HZ I         557 12.93        13.4 0.28            147           66.5 346 
 RUS  HZ EP        556 52.14                             140   -0.5210 87.8 143 
 RUS  HE ES        557  8.34                             140    0.2710 87.8 143 
 RUS  HZ I         557  9.76         6.0 0.46            148           87.8 143 
 PTB  HZ EP        556 52.59                             136   -0.2910 98.6 271 
 PTB  HN ES        557  7.69                             136   -0.7710 98.6 271 
 PTB  HZ I         557  8.97        14.7 0.26            137           98.6 271 
 ZAR  HZ EP   4    557  2.17                             118    1.45 0  179 307 
 ZAR  HN ES   4    557 24.24                             118    1.83 0  179 307 
 ZAR  HZ I         557 27.03        11.2 0.20            120            179 307 
 NOR  HZ EP        557  0.48                             118   -0.36 9  179 234 
 NOR  HE ES        557 22.72                             118    0.08 9  179 234 
 NOR  HZ I         557 27.08         9.7 0.16            122            179 234 
 OCA  HZ EP        557  1.90                             116   -0.42 9  192   8 
 OCA  HN ES        557 24.85                             116   -0.42 9  192   8 
 OCA  HZ I         557 29.89        14.3 0.20            119            192   8 
 HEL  HZ EP        557  6.61                             113    0.82 8  220 260 
 HEL  HN ES        557 31.28                             113   -0.16 8  220 260 
 HEL  HZ I         557 38.69         4.9 0.22            116            220 260 
 GUY2CHZ EP   4    557 11.45                             110    2.65 0  246 234 
 GUY2CHN ES        557 37.39                             110    0.58 8  246 234 
 GUY2CHZ I         557 43.56         3.4 0.40                           246 234 
 SML  HZ EP        557  9.54                             109   -0.07 8  258 348 
 SML  HE ES        557 38.82                             109    0.57 8  258 348 
 SML  HZ I         557 43.81        11.2 0.26            111            258 348 
                                                                                
