 2010  8 2 0406 49.1 L   6.791 -73.086140.4  RSN  5 0.2 1.5LRSN                1
 GAP=165        0.54       2.9     6.2  6.9 -0.1509E+01 -0.1646E+02 -0.2147E+01E
 Epicentro: LOS SANTOS - SANTANDER                                             3
 ACTION:UP  10-09-07 10:51 OP:vdl  STATUS:               ID:20100802040649 L   I
 2010-08-02-0405-16S.COL___123                                                 6
 STAT SP IPHASW D HRMM SECON CODA AMPLIT PERI AZIMU VELO SNR AR TRES W  DIS CAZ7
 GIR2 SZ EP   2    4 7  8.28                             166     0.0 5   34 340 
 BRR  HZ EP        4 7  9.99                             149    -0.110   78 297 
 BRR  HZ I         4 7 10.16        17.4 0.14                            78 297 
 BRR  HE ES   1    4 7 26.53                             149     0.1 7   78 297 
 RUS  HZ EP        4 7 12.45                             143     0.210   99 180 
 RUS  HZ I         4 7 13.03         2.8 0.24                            99 180 
 RUS  HE ES   1    4 7 30.11                             143    -0.2 7   99 180 
 GUE  SZ EP        4 7 13.04                             138    -0.310  116   9 
 GUE  SZ I         4 7 33.11         2.2 0.14                           116   9 
 GRA  SZ EP        4 7 13.99                             136     0.210  125  14 
 GRA  SZ ES   1    4 7 33.19                             136     0.1 7  125  14 
 GRA  SZ I         4 7 36.01         5.8 0.38                           125  14 
                                                                                
