 2015  3 2 0321 44.4 L   6.811 -73.134150.0  RSN 13 0.4 1.7LRSN                1
 GAP= 71        0.98       3.1     3.7  6.1 -0.1135E+01 -0.1068E+00  0.3736E+01E
 Epicentro: LOS SANTOS - SANTANDER                                             3
 ACTION:UPD 15-04-30 16:22 OP:nd   STATUS:               ID:20150302032144 L   I
 OLDACT:REG 15-03-02 12:28 OP:spq  STATUS:               ID:20150302031750     3
 2015-03-02-0317-50M.COL___293                                                 6
 STAT SP IPHASW D HRMM SECON CODA AMPLIT PERI AZIMU VELO AIN AR TRES W  DIS CAZ7
 BAR2 EZ EP        322  4.39                             170   -0.1910 24.7 192 
 BAR2 EZ ES   1    322 20.31                             170    0.00 7 24.7 192 
 BAR2 EZ I         322 22.07         9.5 0.28            170           24.7 192 
 BRR  HZ EP        322  6.37                             153    0.3210 71.8 297 
 BRR  HE ES        322 23.81                             153    0.8810 71.8 297 
 BRR  HZ I         322 27.35        10.5 0.38            151           71.8 297 
 PAM  SZ EP        322  7.40                             152    0.4210 75.7  39 
 PAM  SE ES        322 24.41                             152   -0.1810 75.7  39 
 PAM  SZ I         322 26.55         4.5 0.58            154           75.7  39 
 RUS  HZ EP        322  8.40                             144   -0.2610  102 177 
 RUS  HN ES   1    322 27.32                             144   -0.25 7  102 177 
 RUS  HZ I         322 28.23         4.4 0.28            147            102 177 
 PTB  HZ EP        322 11.55                             133   -0.31 9  149 258 
 PTB  HE ES        322 32.87                             133   -0.40 9  149 258 
 PTB  HZ I         322 36.78         6.2 0.28            133            149 258 
 TAM  HZ EP        322 12.71                             132    0.36 9  154 106 
 OCA  HN ES        322 34.34                             131   -0.89 9  159 353 
 OCA  HZ I         322 40.32         8.8 0.36            132            159 353 
 SPBC HZ EP        322 13.42                             130    0.02 9  165 219 
 SPBC HE ES        322 35.90                             130   -0.11 9  165 219 
 SPBC HZ I         322 37.68        10.3 0.12            131            165 219 
 ZAR  HN ES        322 43.24                             123    0.44 9  205 292 
 ZAR  HZ I         322 47.67         5.6 0.22            124            205 292 
 NOR  HE ES   1    322 48.59                             119   -0.19 6  236 234 
 NOR  HZ I         322 53.72         6.2 0.24            120            236 234 
 SML  HZ EP   1    322 21.66                             118    0.44 6  243 335 
 SML  HE ES   1    322 49.45                             118   -0.48 6  243 335 
 SML  HZ I         322 53.81         7.1 0.28            119            243 335 
 CHI  HZ EP        322 22.61                             118    0.10 8  250 195 
 CHI  HN ES   1    322 52.16                             118   -0.06 6  250 195 
 CHI  HZ I         322 55.92         1.6 0.34            119            250 195 
 MON  HZ EP   4    322 32.21                             109   -1.40 0  354 308 
 MON  HN ES   4    323 10.46                             109   -1.53 0  354 308 
 MON  HZ I         323 12.61         1.2 0.30            110            354 308 
                                                                                
