 2015  7 2 0315 37.3 L   6.788 -73.194145.7  RSN  8 0.5 2.0LRSN                1
 GAP=178        1.05       3.6     5.2  7.9 -0.2050E+01  0.1937E+02 -0.2749E+01E
 Epicentro: ZAPATOCA - SANTANDER                                               3
 ACTION:UPD 15-09-08 21:46 OP:cam  STATUS:               ID:20150702031537 L   I
 OLDACT:UP  15-07-07 10:23 OP:Mher STATUS:               ID:20150702031537 L   3
 OLDACT:REG 15-07-02 13:26 OP:ar   STATUS:               ID:20150702030748     3
 2015-07-02-0307-48M.COL___307                                                 6
 STAT SP IPHASW D HRMM SECON CODA AMPLIT PERI AZIMU VELO AIN AR TRES W  DIS CAZ7
 BAR2 EZ EP        315 56.39                             171   -0.5010 21.6 177 
 BAR2 EZ ES        316 12.15                             171   -0.0210 21.6 177 
 BAR2 EZ I         316 13.14        16.8 0.36            170           21.6 177 
 RUS  HZ EP        316  0.51                             144   -0.4710 99.7 173 
 RUS  HE ES        316 19.69                             144    0.2410 99.7 173 
 RUS  HZ I         316 21.50        12.8 0.50            145           99.7 173 
 OCA  HZ EP        316  5.43                             129   -0.25 9  161 355 
 OCA  HE ES        316 28.67                             129    0.85 9  161 355 
 OCA  HZ I         316 30.26        26.4 0.38            131            161 355 
 ZAR  HZ EP        316  8.71                             123   -0.58 9  200 293 
 ZAR  HN ES        316 34.04                             123   -0.20 9  200 293 
 ZAR  HZ I         316 36.42        12.1 0.30            123            200 293 
 NOR  HZ EP        316 12.93                             119    0.46 8  230 234 
 NOR  HN ES        316 40.26                             119    0.35 8  230 234 
 NOR  HZ I         316 42.37         7.6 0.28            119            230 234 
 CHI  HZ EP   4    316 13.19                             117   -1.51 0  246 194 
 CHI  HN ES   1    316 44.01                             117    0.13 6  246 194 
 CHI  HZ I         316 49.52         5.0 0.32            118            246 194 
 HEL  HZ EP   2    316 17.68                             115    0.78 4  267 256 
 HEL  HE ES        316 47.29                             115   -0.49 8  267 256 
 HEL  HZ I         316 54.58         6.0 0.28            116            267 256 
 GUY2CHZ EP        316 21.11                             113    0.79 7  296 234 
 GUY2CHE ES        316 53.89                             113    0.01 7  296 234 
 GUY2CHZ I         317  2.81         4.8 0.26                           296 234 
                                                                                
