 2014  2 2 0300 19.4 L   6.816 -73.145141.3  RSN  9 0.5 1.5LRSN                1
 GAP=136        1.29       3.6     5.8  7.1 -0.3070E+01  0.9326E+01  0.1586E+00E
 Epicentro: LOS SANTOS - SANTANDER                                             3
 ACTION:UPD 14-03-10 08:06 OP:ep   STATUS:               ID:20140202030019 L   I
 OLDACT:REG 14-02-02 07:10 OP:nd   STATUS:               ID:20140202030000     3
 2014-02-02-0300-00M.COL___288                                                 6
 STAT SP IPHASW D HRMM SECON CODA AMPLIT PERI AZIMU VELO AIN AR TRES W  DIS CAZ7
 BAR2 SZ EP        3 0 38.55                             169    0.0210 25.1 189 
 BAR2 SZ ES        3 0 53.25                             169   -0.2110 25.1 189 
 BAR2 SZ I         3 0 54.74        10.7 0.16            169           25.1 189 
 BRR  HZ EP        3 0 40.58                             152    0.5610 70.4 297 
 BRR  HN ES        3 0 57.08                             152    0.9710 70.4 297 
 BRR  HZ I         3 1  1.88         6.6 0.12            150           70.4 297 
 PAM  SZ EP        3 0 41.70                             150    0.6410 76.0  40 
 PAM  SN ES        3 0 58.19                             150    0.2410 76.0  40 
 PAM  SZ I         3 1  0.86         7.5 0.58            154           76.0  40 
 RUS  HZ EP        3 0 42.74                             142   -0.1110  102 176 
 RUS  HN ES        3 1  0.58                             142   -0.5510  102 176 
 RUS  HZ I         3 1  1.92         2.9 0.52            144            102 176 
 PTB  HZ EP        3 0 45.90                             131   -0.15 9  148 258 
 PTB  HN ES        3 1  6.37                             131   -0.46 9  148 258 
 PTB  HZ I         3 1  9.53         5.1 0.16            131            148 258 
 OCA  HZ EP        3 0 46.98                             129   -0.22 9  159 353 
 OCA  HN ES        3 1  8.04                             129   -0.85 9  159 353 
 OCA  HZ I         3 1 12.05         6.8 0.26            130            159 353 
 NOR  HZ EP        3 0 56.04                             117    1.05 8  236 234 
 NOR  HN ES        3 1 22.80                             117    0.05 8  236 234 
 NOR  HZ I         3 1 28.07         2.4 0.18            118            236 234 
 SML  HZ EP        3 0 55.51                             117   -0.10 8  242 335 
 SML  HN ES        3 1 23.19                             117   -0.66 8  242 335 
 SML  HZ I         3 1 29.01         5.8 0.08            118            242 335 
 CHI  HZ EP        3 0 56.73                             116   -0.32 8  250 195 
 CHI  HN ES        3 1 26.13                             116   -0.28 8  250 195 
 CHI  HZ I         3 1 33.94         0.9 0.36            117            250 195 
                                                                                
