 2012 12 2 0815 30.4 L   6.775 -73.175142.6  RSN  6 0.3 1.3LRSN                1
 GAP=134        0.68       4.4     3.5  7.1 -0.2028E+01  0.3559E+01  0.1805E+01E
 Epicentro: LOS SANTOS - SANTANDER                                             3
 ACTION:UPD 13-01-04 14:25 OP:ep   STATUS:               ID:20121202081530 L   I
 2012-12-02-0810-00M.COL___236                                                 6
 STAT SP IPHASW D HRMM SECON CODA AMPLIT PERI AZIMU VELO AIN AR TRES W  DIS CAZ7
 BAR2 SZ EP        815 49.68                             171    0.1010 20.3 182 
 GIR2 SZ EP        815 49.80                             166    0.0510 33.6 357 
 GIR2 SZ ES   1    816  5.13                             166    0.27 7 33.6 357 
 PAM  SZ EP        815 52.62                             149    0.0910 81.5  40 
 PAM  SZ I         815 52.95         7.0 0.20                          81.5  40 
 PAM  SN ES   1    816  9.32                             149   -0.47 7 81.5  40 
 RUS  HZ EP   1    815 53.61                             144   -0.05 7 98.2 174 
 RUS  HE ES   1    816 12.11                             144    0.31 7 98.2 174 
 RUS  HE I         816 13.28         3.6 0.27                          98.2 174 
 PTB  HZ EP   1    815 56.54                             132   -0.23 7  144 260 
 PTB  HN ES        816 16.88                             132   -0.46 9  144 260 
 PTB  HZ I         816 19.84         2.4 0.13                           144 260 
 ZAR  HN ES   1    816 28.01                             122    0.59 6  202 293 
 ZAR  HZ I         816 36.45         1.4 0.27                           202 293 
                                                                                
