 2010  8 2 0723 20.7 L   6.791 -73.048145.9  RSN  9 0.5 2.1LRSN                1
 GAP=170        0.83       4.5     9.4  8.2 -0.2146E+02  0.7726E+01  0.2624E+01E
 Epicentro: LOS SANTOS - SANTANDER                                             3
 ACTION:UP  10-09-07 10:51 OP:vdl  STATUS:               ID:20100802072320 L   I
 2010-08-02-0719-52S.COL___123                                                 6
 STAT SP IPHASW D HRMM SECON CODA AMPLIT PERI AZIMU VELO SNR AR TRES W  DIS CAZ7
 BAR2 SZ IP     D  723 40.45                             169     0.010   27 214 
 BAR2 SZ ES   2    723 54.72                             169    -1.1 5   27 214 
 BRR  HZ EP   1    723 42.37                             149    -0.1 7   81 296 
 BRR  HE ES   2    723 59.84                             149     0.4 5   81 296 
 BRR  HZ I         724  4.14        19.8 0.24                            81 296 
 RUS  HZ EP   1    723 44.34                             144    -0.1 7   99 182 
 RUS  HN ES   2    724  3.20                             144     0.3 5   99 182 
 RUS  HZ I         724  4.51         8.8 0.36                            99 182 
 GUE  SZ EP   1    723 45.49                             139     0.1 7  116   7 
 GRA  SZ IP     D  723 46.23                             137     0.410  124  13 
 GRA  SZ ES   2    724  5.65                             137     0.2 5  124  13 
 OCA  SZ EP   1    723 48.65                             129    -0.7 7  163 349 
 OCA  SZ ES   2    724 11.70                             129     0.1 5  163 349 
 OCA  SZ I         724 17.07        13.4 0.29                           163 349 
 ROSC BZ EP   1    723 59.78                             116     0.4 6  258 213 
 ROSC BE ES   2    724 30.68                             116     1.1 4  258 213 
 ROSC BZ I         724 35.26         8.2 0.59                           258 213 
 RREF HZ EP   1    724  7.27                             110    -0.5 5  329 231 
 RREF HE ES   2    724 44.89                             110     0.5 3  329 231 
 RREF HZ I         724 51.28         6.5 0.26                           329 231 
 PRA  HZ EP   1    724 14.23                             106    -0.6 4  397 211 
 PRA  HN ES   2    724 56.40                             106    -0.6 3  397 211 
 PRA  HZ I         725  2.10         7.7 0.42                           397 211 
                                                                                
