 2012  7 2 0230  6.8 L   6.691 -73.152144.0  RSN  5 0.4 1.2LRSN                1
 GAP=228        1.05      10.6     9.9 11.2  0.6437E+02  0.1902E+02  0.9872E+00E
 Epicentro: VILLANUEVA - SANTANDER                                             3
 ACTION:UPD 12-08-14 11:41 OP:ep   STATUS:               ID:20120702023006 L   I
 2012-07-02-0230-00M.COL___201                                                 6
 STAT SP IPHASW D HRMM SECON CODA AMPLIT PERI AZIMU VELO AIN AR TRES W  DIS CAZ7
 BAR2 SZ EP   1    230 26.21                             175     0.2 7   11 197 
 BAR2 SZ I         230 26.34         3.1 0.21            168             11 197 
 BAR2 SZ ES   1    230 40.11                             175    -0.9 7   11 197 
 BRR  HZ EP   1    230 28.21                             150     0.2 7   77 307 
 BRR  HZ I         230 28.51         5.6 0.27            149             77 307 
 BRR  HN ES   1    230 45.28                             150     0.6 7   77 307 
 RUS  HZ EP   1    230 29.21                             147    -0.3 7   89 175 
 RUS  HN ES   1    230 47.83                             147     0.6 7   89 175 
 RUS  HZ I         230 49.82         2.3 0.28            143             89 175 
 PTB  HZ EP   1    230 33.18                             132    -0.2 7  145 263 
 PTB  HN ES   1    230 53.98                             132    -0.1 7  145 263 
 PTB  HZ I         230 58.01         1.4 0.12            130            145 263 
 ZAR  HN ES   1    231  4.88                             121    -0.2 6  208 295 
