 2016  2 2 0539 48.1 L   6.861 -73.135131.1  RSN  5 0.5 1.2LRSN                1
 GAP=203        0.65       5.4     7.3  9.7  0.9743E+01  0.1432E+01 -0.1541E+02E
 Epicentro: LOS SANTOS - SANTANDER                                             3
 ACTION:UPD 16-03-04 21:22 OP:rebc STATUS:               ID:20160202053948 L   I
 OLDACT:REG 16-02-02 14:00 OP:dnl  STATUS:               ID:20160202052640     3
 2016-02-02-0534-00M.COL___409                                                 6
 STAT SP IPHASW D HRMM SECON CODA AMPLIT PERI AZIMU VELO AIN AR TRES W  DIS CAZ7
 BAR2 EZ EP   2    540  7.01                             166    0.85 5 30.1 190 
 BAR2 EZ ES   2    540 20.29                             166    0.06 5 30.1 190 
 BAR2 EZ I         540 25.24         2.1 0.16            165           30.1 190 
 RUS  BZ EP        540 10.83                             139   -0.1510  107 177 
 RUS  HE ES   2    540 28.58                             139   -0.23 5  107 177 
 RUS  BZ I         540 33.62         0.9 0.21            145            107 177 
 PTB  HZ EP   2    540 14.29                             128    0.11 5  150 256 
 PTB  HN ES   2    540 34.68                             128    0.18 5  150 256 
 PTB  HZ I         540 40.98         1.9 0.13            131            150 256 
 SPBC HZ EP   2    540 15.81                             124   -0.32 5  169 218 
 SPBC HE ES   2    540 37.97                             124   -0.01 5  169 218 
 SPBC HZ I         540 45.09         3.5 0.14            129            169 218 
 SML  HZ EP   2    540 24.24                             115    0.89 4  238 334 
 SML  HN ES   2    540 49.84                             115   -0.98 4  238 334 
 SML  HZ I         540 56.82         2.6 0.10            120            238 334 
                                                                                
