 2010  7 2 0357 29.9 L   6.796 -73.095136.0  RSN  9 0.3 1.8LRSN                1
 GAP=161        0.56       2.8     6.2  6.2 -0.6457E+01  0.1151E+02 -0.9832E+00E
 Epicentro: LOS SANTOS - SANTANDER                                             3
 ACTION:UPD 10-12-01 15:14 OP:pat  STATUS:               ID:20100702035729 L   I
 2010-07-02-0355-44S.COL___118                                                 6
 STAT SP IPHASW D HRMM SECON CODA AMPLIT PERI AZIMU VELO AIN AR TRES W  DIS CAZ7
 BAR2 SZ EP        357 48.21                             169    -0.110   25 203 
 BAR2 SZ ES   2    358  2.29                             169    -0.5 5   25 203 
 BRR  HZ EP        357 50.04                             149    -0.210   76 297 
 BRR  HZ I         357 51.58         8.8 0.08                            76 297 
 BRR  HN ES   2    358  6.78                             149     0.6 5   76 297 
 RUS  HZ EP   2    357 52.41                             142    -0.2 5  100 179 
 RUS  HE ES   1    358 10.51                             142     0.2 7  100 179 
 RUS  HZ I         358 12.67         9.1 0.30                           100 179 
 BRI  SZ EP   2    357 52.69                             140     0.0 5  107  18 
 BRI  SZ ES   2    358 11.20                             140     0.6 5  107  18 
 GUE  SZ EP   3    357 53.82                             137     0.2 2  116   9 
 GRA  SZ EP   2    357 54.61                             135     0.5 5  125  15 
 GRA  SZ ES   1    358 13.17                             135     0.1 7  125  15 
 OCA  SZ EP   2    357 57.11                             127    -0.4 5  162 351 
 OCA  SZ ES   2    358 18.87                             127    -0.3 5  162 351 
 OCA  SZ I         358 22.83         6.6 0.18                           162 351 
 RREF HZ EP   2    358 16.62                             109     0.6 3  326 230 
 RREF HE ES   2    358 52.39                             109     0.3 3  326 230 
 RREF HZ I         359  1.01         2.7 0.40                           326 230 
 PRA  HZ EP   2    358 23.46                             105     0.1 3  394 210 
 PRA  HE ES   2    359  5.41                             105     0.4 3  394 210 
 PRA  HZ I         359 10.64         2.8 0.40                           394 210 
                                                                                
