 2013  6 2 0133  0.5 L   6.806 -73.155139.9  RSN 12 0.4 1.9LRSN                1
 GAP=135        1.00       3.1     4.4  5.5 -0.1237E+01  0.9844E+01 -0.1811E+01E
 Epicentro: LOS SANTOS - SANTANDER                                             3
 ACTION:UPD 14-01-08 09:51 OP:ep   STATUS:               ID:20130602013300 L   I
 2013-06-02-0130-00M.COL___261                                                 6
 STAT SP IPHASW D HRMM SECON CODA AMPLIT PERI AZIMU VELO AIN AR TRES W  DIS CAZ7
 BAR2 SZ IP     C  133 19.47                             170    0.0910 23.8 187 
 BAR2 SZ ES        133 33.98                             170   -0.1710 23.8 187 
 BAR2 SZ I         133 35.28        17.7 0.32            170           23.8 187 
 GIR2 SZ EP        133 19.34                             167   -0.0610 30.5 352 
 GIR2 SZ ES        133 33.87                             167   -0.3110 30.5 352 
 GIR2 SZ I         133 36.13        16.7 0.38            164           30.5 352 
 BRR  HZ IP     D  133 21.20                             152    0.3110 70.0 298 
 BRR  HN ES   1    133 36.94                             152    0.10 7 70.0 298 
 BRR  HZ I         133 38.60        21.6 0.12            149           70.0 298 
 PAM  SZ IP     D  133 22.32                             150    0.2710 77.6  40 
 PAM  SN ES        133 39.04                             150    0.1410 77.6  40 
 PAM  SZ I         133 41.23        18.2 0.50            152           77.6  40 
 RUS  HZ EP        133 23.50                             142   -0.1810  101 175 
 RUS  HN ES        133 42.19                             142    0.4010  101 175 
 RUS  HZ I         133 44.00         8.8 0.32            145            101 175 
 PTB  HZ EP        133 26.25                             131   -0.61 9  147 259 
 PTB  HN ES   2    133 46.86                             131   -0.60 5  147 259 
 PTB  HZ I         133 48.51        10.0 0.22            130            147 259 
 OCA  HZ EP        133 28.43                             128    0.19 9  160 353 
 OCA  HN ES        133 49.28                             128   -0.63 9  160 353 
 OCA  HZ I         133 54.09        10.5 0.30            129            160 353 
 ZAR  HZ EP        133 32.86                             121    0.47 9  203 292 
 ZAR  HN ES        133 57.72                             121    0.41 9  203 292 
 ZAR  HZ I         134  2.90        13.1 0.38            121            203 292 
 NOR  HZ EP        133 35.83                             117    0.04 8  234 234 
 NOR  HN ES        134  3.23                             117   -0.13 8  234 234 
 NOR  HZ I         134  7.03         4.8 0.40            118            234 234 
 SML  HZ EP        133 35.64                             116   -1.00 8  243 335 
 SML  HN ES        134  5.73                             116    0.86 8  243 335 
 SML  HZ I         134 11.99        11.5 0.10            117            243 335 
 HEL  HZ EP   4    133 41.08                             114    0.81 0  271 256 
 HEL  HN ES   4    134 12.81                             114    1.48 0  271 256 
 HEL  HZ I         134 19.34         3.5 0.46            114            271 256 
 GUY2CHZ EP   4    133 44.94                             111    1.20 0  301 235 
 GUY2CHN ES   4    134 13.50                             111   -4.00 0  301 235 
 GUY2CHZ I         134 25.73         2.5 0.36                           301 235 
                                                                                
