 2015  3 2 0539 35.5 L   6.790 -73.132151.2  RSN 23 0.4 2.4LRSN                1
 GAP= 67        0.84       2.2     2.4  3.8 -0.2984E+00  0.1887E+01  0.1810E+01E
 Epicentro: LOS SANTOS - SANTANDER                                             3
 ACTION:UPD 15-04-30 16:22 OP:nd   STATUS:               ID:20150302053935 L   I
 OLDACT:UP  15-03-02 16:50 OP:spq  STATUS:               ID:20150302053740     3
 OLDACT:REG 15-03-02 12:40 OP:spq  STATUS:               ID:20150302053740     3
 2015-03-02-0537-40M.COL___290                                                 6
 STAT SP IPHASW D HRMM SECON CODA AMPLIT PERI AZIMU VELO AIN AR TRES W  DIS CAZ7
 BAR2 EZ EP     D  539 55.64                             171   -0.1010 22.6 194 
 BAR2 EZ ES   1    540 11.50                             171   -0.04 7 22.6 194 
 BAR2 EZ I         540 11.92        34.0 0.44            169           22.6 194 
 BRR  HZ EP     D  539 57.59                             153    0.2810 73.1 299 
 BRR  HN ES        540 15.06                             153    0.7210 73.1 299 
 BRR  HZ I         540 17.19        33.0 0.16            152           73.1 299 
 PAM  SZ EP     C  539 58.48                             152    0.2310 77.2  38 
 PAM  SE ES        540 15.81                             152   -0.2110 77.2  38 
 PAM  SZ I         540 17.74        29.2 0.36            152           77.2  38 
 RUS  HZ EP     D  539 59.46                             145   -0.2210 99.4 177 
 RUS  HE ES        540 18.39                             145   -0.1710 99.4 177 
 RUS  HZ I         540 19.60        20.6 0.48            142           99.4 177 
 PTB  HZ EP        540  2.31                             133   -0.69 9  149 259 
 PTB  HN ES        540 24.06                             133   -0.42 9  149 259 
 PTB  HZ I         540 29.10        33.8 0.24            131            149 259 
 TAM  HZ EP     D  540  3.78                             132    0.36 9  153 105 
 TAM  HZ I         540 24.56        18.1 0.38            130            153 105 
 TAM  HE ES        540 25.57                             132    0.35 9  153 105 
 OCA  HZ EP        540  4.24                             131   -0.08 9  162 353 
 OCA  HN ES        540 26.34                             131   -0.48 9  162 353 
 OCA  HZ I         540 31.00        19.7 0.28            129            162 353 
 SPBC HZ EP        540  4.39                             130   -0.02 9  163 220 
 SPBC HN ES        540 26.78                             130   -0.19 9  163 220 
 SPBC HZ I         540 31.27        54.1 0.04            128            163 220 
 ZAR  HZ EP        540  8.20                             123   -0.26 8  206 292 
 ZAR  HE ES        540 34.32                             123    0.13 8  206 292 
 ZAR  HZ I         540 39.33        27.7 0.36            122            206 292 
 NOR  HZ EP        540 11.38                             119   -0.21 8  235 235 
 NOR  HN ES        540 40.02                             119    0.26 8  235 235 
 NOR  HZ I         540 44.52        24.5 0.20            117            235 235 
 SML  HZ EP   1    540 12.85                             118    0.27 6  245 335 
 SML  HE ES   1    540 41.50                             118   -0.02 6  245 335 
 SML  HZ I         540 44.58        27.9 0.24            117            245 335 
 CHI  HZ EP        540 13.43                             118    0.02 8  248 196 
 CHI  HE ES        540 43.03                             118    0.03 8  248 196 
 CHI  HZ I         540 46.90        12.8 0.44            116            248 196 
 ROSC BZ EP   4    540 15.16                             118    1.28 0  253 211 
 ROSC BN ES   4    540 47.16                             118    3.32 0  253 211 
 ROSC BZ I         540 51.63        23.5 0.35            116            253 211 
 GUY2CHZ EP        540 19.68                             113    0.27 7  302 235 
 GUY2CHN ES   4    540 55.56                             113    1.88 0  302 235 
 GUY2CHZ I         541  2.02        15.3 0.30                           302 235 
 PTGC HZ EP        540 18.39                             113   -1.01 7  307 159 
 PTGC HE ES   4    540 51.91                             113   -1.75 0  307 159 
 PTGC HZ I         540 55.84        10.2 0.32            111            307 159 
 RREF HZ EP        540 22.67                             112    0.76 7  322 230 
 RREF HE ES   4    541  1.18                             112    3.05 0  322 230 
 RREF HZ I         541  4.95        19.2 0.18            110            322 230 
 CBOC HZ EP        540 23.31                             111    0.56 7  335 252 
 CBOC HN ES   1    540 59.47                             111   -0.15 5  335 252 
 CBOC HZ I         541  7.25         3.9 0.42            109            335 252 
 TOL  SZ EP   1    540 24.48                             110    0.49 5  344 225 
 TOL  SN ES   4    541  4.24                             110    2.41 0  344 225 
 TOL  SZ I         541  8.82        10.3 0.28            109            344 225 
 MON  HZ EP   4    540 23.07                             109   -1.83 0  356 308 
 MON  HN ES   4    541  1.56                             109   -1.90 0  356 308 
 MON  HZ I         541  4.10         4.4 0.52            108            356 308 
 ANIL HZ EP   4    540 27.25                             109    1.72 0  358 225 
 ANIL HE ES   4    541  6.57                             109    2.00 0  358 225 
 ANIL HZ I         541  9.54         3.7 0.32            108            358 225 
 PRA  HZ EP        540 28.86                             107   -0.31 6  392 210 
 PRA  HE ES        541 11.47                             107    0.42 6  392 210 
 PRA  HZ I         541 17.20        14.6 0.30            106            392 210 
 ORTC HZ EP        540 29.58                             107   -0.01 6  396 216 
 ORTC HE ES   4    541 13.33                             107    1.53 0  396 216 
 ORTC HZ I         541 19.11         8.9 0.32            106            396 216 
 PAL  HZ EP        540 31.15                             107    0.24 6  406 239 
 PAL  HE ES   4    541 12.79                             107   -1.36 0  406 239 
 PAL  HZ I         541 24.27         3.8 0.30            105            406 239 
                                                                                
