 2011  7 2 0853 32.7 L   6.783 -73.107143.5  RSN  6 0.2 1.2LRSN                1
 GAP=142        0.42       3.3     4.9  4.9  0.8209E+00 -0.8051E+01 -0.4157E+01E
 Epicentro: LOS SANTOS - SANTANDER                                             3
 ACTION:UPD 12-07-25 13:57 OP:epov STATUS:               ID:20110702085332 L   I
 2011-07-02-0840-00M.COL___124                                                 6
 STAT SP IPHASW D HRMM SECON CODA AMPLIT PERI AZIMU VELO AIN AR TRES W  DIS CAZ7
 BAR2 SZ EP        853 51.95                             171   -0.1210 22.6 201 
 BAR2 SZ ES   1    854  6.87                             171   -0.29 7 22.6 201 
 BAR2 SZ I         854  8.03         5.8 0.29                          22.6 201 
 GIR2 SZ EP   2    853 52.27                             166    0.06 5 34.1 344 
 BRR  HZ EP        853 53.85                             150   -0.0510 75.8 298 
 BRR  HE ES   1    854 10.61                             150    0.19 7 75.8 298 
 BRR  HZ I         854 12.09         4.7 0.14                          75.8 298 
 PAM  SZ EP   1    853 54.87                             151    0.23 7 76.3  36 
 PAM  SZ I         853 55.33         2.4 0.27                          76.3  36 
 RUS  HZ EP   2    853 56.11                             144    0.01 5 98.5 178 
 RUS  HN ES   2    854 14.80                             144    0.46 5 98.5 178 
 RUS  HZ I         854 15.78         2.1 0.37                          98.5 178 
 GRA  SZ EP   1    853 57.77                             136   -0.05 7  126  15 
 GRA  SZ ES   2    854 17.39                             136   -0.01 5  126  15 
 GRA  SZ I         854 19.02         1.9 0.52                           126  15 
                                                                                
