 2017  5 2 0246 42.3 L   6.765 -73.155142.5  RSN  5 0.3 0.9LRSN                1
 GAP=137        0.82       4.5     3.9  7.8 -0.1084E+01  0.8213E+01 -0.2593E+01E
 Epicentro: LOS SANTOS - SANTANDER                                             3
 ACTION:UPD 17-06-16 13:31 OP:jn   STATUS:               ID:20170502024642 L   I
 OLDACT:UP  17-05-02 15:35 OP:edw  STATUS:               ID:20170502023743     3
 OLDACT:REG 17-05-02 12:04 OP:edw  STATUS:               ID:20170502023743     3
 2017-05-02-0238-00M.COL___371                                                 6
 STAT SP IPHASW D HRMM SECON CODA AMPLIT PERI AZIMU VELO AIN AR TRES W  DIS CAZ7
 BRR  HZ EP     C  247  3.32                             152    0.1810 72.2 302 
 BRR  HN ES        247 19.88                             152    0.4710 72.2 302 
 PAM  EZ EP        247  4.29                             149   -0.0910 81.0  38 
 PAM  EN ES        247 21.32                             149   -0.3010 81.0  38 
 PAM  EZ I         247 23.51         2.8 0.48            153           81.0  38 
 RUS  HZ EP   4    247  7.61                             144    2.16 0 96.8 175 
 RUS  HN ES        247 23.63                             144    0.1210 96.8 175 
 RUS  HZ I         247 24.04         0.4 0.18            146           96.8 175 
 PTB  HZ EP        247  9.01                             132    0.18 9  146 260 
 PTB  HN ES        247 28.91                             132   -0.62 9  146 260 
 PTB  HZ I         247 36.46         1.6 0.32            132            146 260 
 ZAR  HE ES        247 39.77                             122    0.02 9  205 293 
                                                                                
