 2012  2 2 0417  1.5 L   6.770 -73.090150.0  RSN 11 0.5 2.1LRSN                1
 GAP=145        0.99       3.8     5.5  7.3  0.4857E-01  0.1035E+02  0.7203E+01E
 ACTION:UP  12-03-07 16:26 OP:epov STATUS:               ID:20120202041701 L   I
 2012-02-02-0410-00M.COL___187                                                 6
 STAT SP IPHASW D HRMM SECON CODA AMPLIT PERI AZIMU VELO SNR AR TRES W  DIS CAZ7
 BAR2 SZ IP        417 21.62                             171    0.0510 22.2 207 
 BAR2 SZ ES   1    417 37.50                             171    0.24 7 22.2 207 
 BAR2 SZ I         417 39.49        28.6 0.26                          22.2 207 
 GIR2 SZ EP   1    417 21.67                             166   -0.09 7 36.0 342 
 PAM  SZ EP   1    417 24.52                             152    0.46 7 76.3  34 
 PAM  SN ES   1    417 41.47                             152   -0.22 7 76.3  34 
 BRR  HZ IP     C  417 23.50                             151    0.0410 78.2 299 
 BRR  HE ES   1    417 41.01                             151    0.39 7 78.2 299 
 BRR  HZ I         417 43.16        36.9 0.16                          78.2 299 
 RUS  HZ EP        417 25.48                             146    0.1010 97.1 180 
 RUS  HE ES   1    417 43.84                             146   -0.20 7 97.1 180 
 RUS  HZ I         417 45.20         8.7 0.24                          97.1 180 
 PTB  HZ EP        417 28.19                             132   -1.07 9  153 260 
 OCA  SZ EP   1    417 30.54                             130    0.06 7  164 351 
 OCA  SZ ES   1    417 52.47                             130   -0.65 7  164 351 
 OCA  SZ I         417 56.84        21.7 0.20                           164 351 
 ZAR  HE ES        418  1.73                             122    0.76 8  211 292 
 ZAR  HZ I         418  6.70        15.8 0.13                           211 292 
 NOR  SZ EP   1    417 37.59                             119   -0.18 6  238 236 
 NOR  SE ES   1    418  5.29                             119   -0.80 6  238 236 
 CHI  HZ EP        417 39.77                             118    0.54 8  247 197 
 CHI  HN ES   1    418  8.49                             118   -0.21 6  247 197 
 CHI  HZ I         418 12.25         6.7 0.69                           247 197 
 PRA  HZ EP   1    417 55.57                             107    0.42 4  392 211 
 PRA  HN ES   1    418 37.75                             107    0.72 4  392 211 
                                                                                
