 2016  5 2 0706 41.9 L   6.371 -73.696 99.3  RSN  5 0.4 1.2LRSN                1
 GAP=144        0.98       5.1     3.5  8.2 -0.2075E+01  0.9469E+01  0.6058E+01E
 Epicentro: SANTA HELENA DEL OPON - SANTANDER                                  3
 ACTION:UPD 16-08-18 17:41 OP:cam  STATUS:               ID:20160502070641 L   I
 OLDACT:REG 16-05-02 18:00 OP:ak   STATUS:               ID:20160502065747     3
 2016-05-02-0657-47M.COL___282                                                 6
 STAT SP IPHASW D HRMM SECON CODA AMPLIT PERI AZIMU VELO AIN AR TRES W  DIS CAZ7
 BAR2 EZ IP        7 6 57.78                             146   -0.1710 61.9  67 
 BAR2 EZ ES        7 7 11.12                             146    0.6710 61.9  67 
 BAR2 EZ I         7 7 12.55         6.9 0.30            148           61.9  67 
 RUS  HZ EP        7 6 59.88                             137   -0.2910 86.0 128 
 RUS  HN ES        7 7 14.25                             137   -0.1610 86.0 128 
 PTB  HZ EP        7 6 59.39                             136   -0.1410 86.1 283 
 PTB  HN ES        7 7 12.93                             136   -0.3310 86.1 283 
 SPBC HZ EP        7 6 59.53                             135   -0.4110 89.7 208 
 SPBC HN ES        7 7 14.04                             135    0.0510 89.7 208 
 SPBC HZ I         7 7 15.60         5.8 0.05            137           89.7 208 
 GUY2CHZ EP        7 7 15.41                             110    0.68 8  224 236 
 GUY2CHE ES        7 7 40.80                             110    0.47 8  224 236 
 GUY2CHZ I         7 7 47.15         1.0 0.50                           224 236 
                                                                                
