 2015 12 2 0645 14.7 L   6.826 -73.093154.0  RSN 14 0.5 2.0LRSN                1
 GAP=188        0.99       3.3     4.4  5.2 -0.5249E+00  0.6035E+01 -0.3115E+00E
 Epicentro: LOS SANTOS - SANTANDER                                             3
 ACTION:UPD 16-02-04 15:01 OP:cam  STATUS:               ID:20151202064514 L   I
 OLDACT:UP  15-12-02 16:51 OP:mh   STATUS:               ID:20151202063747     3
 OLDACT:UP  15-12-02 16:50 OP:mh   STATUS:               ID:20151202063747     3
 OLDACT:UP  15-12-02 16:03 OP:mh   STATUS:               ID:20151202063747     3
 OLDACT:UP  15-12-02 16:02 OP:mh   STATUS:               ID:20151202063747     3
 OLDACT:REG 15-12-02 12:23 OP:mh   STATUS:               ID:20151202063747     3
 2015-12-02-0637-47M.COL___315                                                 6
 STAT SP IPHASW D HRMM SECON CODA AMPLIT PERI AZIMU VELO AIN AR TRES W  DIS CAZ7
 BAR2 EZ EP        645 35.87                             169    0.4710 27.7 201 
 BAR2 EZ ES        645 50.99                             169   -0.5610 27.7 201 
 BAR2 EZ I         645 53.50        13.2 0.34            167           27.7 201 
 BRR  HZ EP   1    645 37.65                             153    0.71 7 75.1 294 
 BRR  HN ES        645 54.92                             153    0.6210 75.1 294 
 BRR  HZ I         645 57.88        11.2 0.46            147           75.1 294 
 RUS  HZ EP        645 39.61                             145    0.1710  103 179 
 RUS  HN ES        645 58.39                             145   -0.3610  103 179 
 RUS  HZ I         645 59.38         5.2 0.26            149            103 179 
 PTB  HZ EP   1    645 42.39                             132   -0.50 7  154 258 
 PTB  HN ES        646  4.32                             132   -0.57 9  154 258 
 PTB  HZ I         646 10.91        15.3 0.32            130            154 258 
 OCA  HZ EP   1    645 43.93                             132    0.47 7  158 351 
 OCA  HN ES   1    646  5.87                             132   -0.03 7  158 351 
 OCA  HZ I         646 15.42        15.7 0.36            131            158 351 
 ZAR  HZ EP   1    645 48.63                             123    0.51 6  208 291 
 ZAR  HN ES        646 14.02                             123   -0.17 8  208 291 
 ZAR  HZ I         646 19.66        15.8 0.36            122            208 291 
 NOR  HZ EP   1    645 51.33                             119   -0.25 6  241 235 
 NOR  HE ES   1    646 20.29                             119   -0.07 6  241 235 
 NOR  HZ I         646 25.44         6.4 0.18            120            241 235 
 SML  HZ EP        645 51.90                             119    0.13 8  244 334 
 SML  HN ES   1    646 19.85                             119   -0.85 6  244 334 
 SML  HZ I         646 28.12        11.4 0.22            119            244 334 
 HEL  HZ EP        645 56.06                             116    0.04 7  278 256 
 HEL  HN ES        646 28.58                             116    0.32 7  278 256 
 HEL  HZ I         646 36.20         3.4 0.24            116            278 256 
 URE  HZ EP   4    645 55.87                             115   -0.77 0  288 291 
 URE  HE ES   4    646 27.92                             115   -1.45 0  288 291 
 URE  HZ I         646 39.50         6.6 0.16            114            288 291 
 GUY2CHZ EP        645 59.65                             113    0.25 7  308 235 
 GUY2CHN ES        646 34.97                             113    0.69 7  308 235 
 GUY2CHZ I         646 44.38         4.7 0.52                           308 235 
 CBOC HZ EP        646  2.08                             111   -0.60 7  340 252 
 CBOC HN ES   1    646 40.28                             111    0.17 5  340 252 
 CBOC HZ I         646 53.78         1.5 0.54            111            340 252 
 PRA  HZ EP        646  8.92                             107   -0.21 6  397 210 
 PRA  HN ES        646 51.63                             107    0.04 6  397 210 
 PRA  HZ I         646 54.24         4.5 0.56            109            397 210 
 SJC  HZ EP        646  9.45                             107   -1.17 6  410 326 
 SJC  HE ES   4    646 50.61                             107   -3.64 0  410 326 
                                                                                
