 2016 10 2 0818  1.7 L   6.804 -73.159146.9  RSN 10 0.4 2.1LRSN                1
 GAP=135        1.04       3.1     4.1  6.0 -0.1431E+01  0.5554E+01  0.2636E+01E
 Epicentro: LOS SANTOS - SANTANDER                                             3
 ACTION:UPD 16-11-09 19:15 OP:rebc STATUS:               ID:20161002081801 L   I
 OLDACT:DUP 16-10-02 16:19 OP:dnl  STATUS:               ID:20161002080746d    3
 OLDACT:REG 16-10-02 13:06 OP:dnl  STATUS:               ID:20161002080745     3
 2016-10-02-0808-00M.COL___369                                                 6
 STAT SP IPHASW D HRMM SECON CODA AMPLIT PERI AZIMU VELO AIN AR TRES W  DIS CAZ7
 BAR2 EZ EP        818 21.42                             170   -0.0410 23.5 186 
 BAR2 EZ ES        818 36.92                             170    0.0410 23.5 186 
 BAR2 EZ I         818 39.26        28.9 0.32            170           23.5 186 
 BRR  HZ EP        818 23.20                             153    0.3210 69.7 299 
 BRR  HN ES        818 40.51                             153    1.1010 69.7 299 
 BRR  HZ I         818 44.42        24.9 0.18            152           69.7 299 
 PAM  EZ EP        818 24.20                             151    0.1410 78.0  41 
 PAM  EE ES        818 41.39                             151   -0.1310 78.0  41 
 PAM  EZ I         818 43.63        25.7 0.48            155           78.0  41 
 RUS  HZ EP        818 25.53                             144   -0.0610  101 175 
 RUS  HE ES        818 44.10                             144   -0.1310  101 175 
 RUS  HZ I         818 45.35        20.2 0.32            146            101 175 
 PTB  HZ EP        818 28.48                             133   -0.14 9  146 259 
 PTB  HN ES        818 48.96                             133   -0.68 9  146 259 
 PTB  HZ I         818 55.06         9.6 0.20            133            146 259 
 OCA  HZ EP   2    818 30.16                             130    0.13 5  160 354 
 OCA  HN ES        818 51.29                             130   -0.85 9  160 354 
 OCA  HZ I         818 55.04        29.8 0.18            132            160 354 
 SPBC HZ EP        818 30.71                             129    0.49 9  163 218 
 SPBC HN ES        818 52.14                             129   -0.33 9  163 218 
 SPBC HZ I         818 55.06        24.1 0.28            131            163 218 
 ZAR  HZ EP        818 34.02                             123   -0.03 9  203 292 
 ZAR  HN ES        818 59.28                             123   -0.01 9  203 292 
 ZAR  HZ I         819  5.15        14.6 0.22            124            203 292 
 NOR  HZ EP   2    818 37.62                             119    0.24 4  234 234 
 NOR  HE ES        819  5.31                             119    0.09 8  234 234 
 NOR  HZ I         819 11.09         6.7 0.20            120            234 234 
 CHI  HZ EP        818 39.75                             117    0.30 8  249 195 
 CHI  HN ES        819  8.53                             117   -0.37 8  249 195 
 CHI  HZ I         819 14.26         4.5 0.28            119            249 195 
                                                                                
