 2011 12 2 0927 56.3 L   7.221 -73.178136.6  RSN  4 0.4 1.7LRSN                1
 GAP=178        0.84       9.9     8.3  9.6 -0.1910E+02 -0.3421E+01  0.1185E+02E
 Epicentro: RIONEGRO - SANTANDER                                               3
 ACTION:UPD 12-07-13 16:13 OP:ep   STATUS:               ID:20111202092757dL   I
 2011-12-02-0920-00M.COL___170                                                 6
 STAT SP IPHASW D HRMM SECON CODA AMPLIT PERI AZIMU VELO AIN AR TRES W  DIS CAZ7
 PAM  SZ EP   1    928 16.57                             157    0.28 7 54.4  76 
 PAM  SN ES   1    928 31.59                             157   -0.28 7 54.4  76 
 PAM  SZ I         928 34.13         5.5 0.17                          54.4  76 
 BRR  HZ EP   1    928 16.30                             155    0.43 7 60.3 258 
 BRR  HZ I         928 16.46        51.7 0.12                          60.3 258 
 BRR  HN ES   1    928 30.72                             155   -0.40 7 60.3 258 
 BAR2 SZ I         928 18.88         5.3 0.14                          69.6 180 
 BAR2 SZ ES   1    928 33.13                             151    0.49 7 69.6 180 
 RUS  HZ EP   1    928 22.54                             130   -0.60 7  147 176 
                                                                                
