 2017  4 2 0819 31.4 L   6.780 -73.175139.7  RSN  6 0.4 1.2LRSN                1
 GAP=233        1.05       5.5     6.5  7.6  0.1278E+02  0.1473E+02 -0.1510E+01E
 Epicentro: LOS SANTOS - SANTANDER                                             3
 ACTION:UPD 17-05-30 21:07 OP:jn   STATUS:               ID:20170402081931 L   I
 OLDACT:UP  17-04-02 16:41 OP:lv   STATUS:               ID:20170402081638     3
 OLDACT:REG 17-04-02 12:55 OP:lv   STATUS:               ID:20170402081638     3
 2017-04-02-0818-00M.COL___356                                                 6
 STAT SP IPHASW D HRMM SECON CODA AMPLIT PERI AZIMU VELO AIN AR TRES W  DIS CAZ7
 BAR2 EZ EP        819 49.90                             171   -0.3010 20.8 182 
 BAR2 EZ ES        820  4.93                             171    0.0410 20.8 182 
 BAR2 EZ I         820  5.75         6.0 0.07            171           20.8 182 
 BRR  HZ EP        819 51.75                             152    0.0010 69.5 301 
 BRR  HE ES        820  7.97                             152    0.3210 69.5 301 
 BRR  HZ I         820 12.65         1.9 0.07            150           69.5 301 
 RUS  HN ES        820 12.21                             143   -0.1010 98.7 174 
 RUS  HZ I         820 13.25         0.9 0.06            147           98.7 174 
 PTB  HZ EP        819 56.92                             131   -0.58 9  144 259 
 PTB  HN ES        820 17.24                             131   -0.65 9  144 259 
 PTB  HZ I         820 19.87         1.6 0.09            132            144 259 
 SPBC HZ EP        819 59.88                             128    0.85 9  159 219 
 SPBC HN ES        820 20.84                             128    0.22 9  159 219 
 SPBC HZ I         820 23.50         2.1 0.09            130            159 219 
 ZAR  HZ EP        820  3.04                             121   -0.14 9  202 293 
 ZAR  HN ES        820 28.46                             121    0.45 9  202 293 
 ZAR  HZ I         820 33.93         3.2 0.25            122            202 293 
 SJC  HN ES   4    821  5.14                             105   -4.79 0  409 327 
                                                                                
