 2014 12 2 0548 40.3 L   6.745 -73.238143.6  RSN  8 0.5 1.5LRSN                1
 GAP=210        1.07       4.9     5.2  6.6  0.8827E+01  0.1025E+02 -0.2253E+01E
 Epicentro: ZAPATOCA - SANTANDER                                               3
 ACTION:UPD 15-02-10 16:59 OP:nd   STATUS:               ID:20141202054840 L   I
 OLDACT:REG 14-12-02 12:57 OP:fm   STATUS:               ID:20141202054745     3
 2014-12-02-0547-45M.COL___300                                                 6
 STAT SP IPHASW D HRMM SECON CODA AMPLIT PERI AZIMU VELO AIN AR TRES W  DIS CAZ7
 BAR2 SZ EP        548 59.69                             173    0.0910 18.0 160 
 BAR2 SZ ES        549 14.02                             173   -0.6110 18.0 160 
 BAR2 SZ I         549 15.50         6.8 0.18            169           18.0 160 
 BRR  HZ EP        549  1.36                             154    0.4210 65.9 307 
 BRR  HN ES        549 17.51                             154    0.4810 65.9 307 
 BRR  HZ I         549 22.69         4.6 0.14            152           65.9 307 
 RUS  HZ EP        549  3.65                             145    0.1310 95.8 170 
 RUS  HE ES        549 21.37                             145   -0.2510 95.8 170 
 RUS  HZ I         549 23.25         4.0 0.36            145           95.8 170 
 PTB  HZ EP        549  6.15                             134    0.04 9  137 260 
 PTB  HN ES        549 26.62                             134    0.39 9  137 260 
 PTB  HZ I         549 29.74         3.3 0.16            132            137 260 
 SPBC HZ EP        549  8.14                             131    0.53 9  152 217 
 SPBC HN ES        549 28.51                             131   -0.39 9  152 217 
 SPBC HZ I         549 36.04         3.7 0.32            130            152 217 
 ZAR  HZ EP   1    549 12.19                             123    0.28 6  197 295 
 ZAR  HN ES        549 36.28                             123   -0.27 9  197 295 
 ZAR  HZ I         549 40.33         2.6 0.60            124            197 295 
 HEL  HZ EP        549 19.31                             115    0.15 8  261 257 
 HEL  HN ES        549 49.36                             115   -0.10 8  261 257 
 HEL  HZ I         549 59.45         3.8 0.92            116            261 257 
 MON  HZ EP        549 27.23                             108   -1.53 6  350 310 
 MON  HN ES        550  6.38                             108   -0.17 6  350 310 
 MON  HZ I         550  7.10         1.2 0.54            110            350 310 
                                                                                
