 2013  1 2 0836 59.0 L   6.830 -73.151146.5  RSN  6 0.5 2.2LRSN                1
 GAP=183        1.21       4.8     7.9  8.1  0.5205E+01 -0.2701E+01 -0.1476E+01E
 Epicentro: LOS SANTOS - SANTANDER                                             3
 ACTION:UPD 13-02-15 09:11 OP:ep   STATUS:               ID:20130102083659 L   I
 2013-01-02-0830-00M.COL___242                                                 6
 STAT SP IPHASW D HRMM SECON CODA AMPLIT PERI AZIMU VELO AIN AR TRES W  DIS CAZ7
 BAR2 SZ EP        837 18.87                             169    0.0810 26.5 187 
 BAR2 SZ I         837 19.04        12.7 0.40            169           26.5 187 
 BAR2 SZ ES        837 33.68                             169   -0.5510 26.5 187 
 BRR  HZ EP        837 20.72                             153    0.6010 69.1 296 
 BRR  HN ES        837 37.56                             153    0.9710 69.1 296 
 BRR  HN I         837 40.27        30.3 0.16            150           69.1 296 
 RUS  HZ EP        837 23.15                             143    0.0810  104 176 
 RUS  HN ES        837 41.87                             143    0.0210  104 176 
 RUS  HN I         837 43.15        24.8 0.36            145            104 176 
 PTB  HZ EP        837 25.84                             132   -0.20 9  148 258 
 PTB  HN ES        837 46.48                             132   -0.65 9  148 258 
 PTB  HN I         837 53.81        14.6 0.26            131            148 258 
 OCA  HZ EP        837 26.75                             130   -0.31 9  157 353 
 OCA  HN ES        837 48.56                             130   -0.38 9  157 353 
 OCA  HN I         837 52.97        48.5 0.36            131            157 353 
 CHI  HZ EP        837 37.29                             117    0.21 8  252 195 
                                                                                
