 2010 11 2 0011 47.7 L   6.802 -73.157146.0  RSN 11 0.4 2.4LRSN                1
 GAP=214        0.76       4.4     4.7  6.2  0.4931E+01  0.6061E+01  0.1029E+02E
 Epicentro: LOS SANTOS - SANTANDER                                             3
 ACTION:UP  10-12-17 16:49 OP:REBC STATUS:               ID:20101102001147 L   I
 2010-11-02-0000-00M.COL___116                                                 6
 STAT SP IPHASW D HRMM SECON CODA AMPLIT PERI AZIMU VELO SNR AR TRES W  DIS CAZ7
 BAR2 SZ IP        012  7.16                             170    -0.210   23 187 
 BAR2 SZ ES   2    012 22.19                             170    -0.5 5   23 187 
 BAR2 SZ I         012 24.99        57.9 0.19                            23 187 
 BRR  HZ IP     D  012  8.92                             153     0.110   70 299 
 BRR  HN ES   1    012 25.85                             153     0.6 7   70 299 
 BRR  HZ I         012 29.59        49.0 0.26                            70 299 
 RUS  HZ EP        012 11.12                             144    -0.410  101 175 
 RUS  HN ES   1    012 30.18                             144     0.1 7  101 175 
 RUS  HZ I         012 31.14        31.6 0.35                           101 175 
 YOP  SZ EP        012 17.97                             126     0.1 9  180 153 
 YOP  SE ES   1    012 41.79                             126     0.4 7  180 153 
 NOR  SZ EP        012 23.45                             119     0.1 8  234 234 
 NOR  SN ES   1    012 50.52                             119    -0.7 6  234 234 
 ROSC BZ EP   2    012 26.47                             117     0.7 4  252 211 
 ROSC BN ES   2    012 55.85                             117     0.3 4  252 211 
 ROSC BZ I         013  5.58        16.7 0.52                           252 211 
 HEL  HZ EP   2    012 28.34                             115     0.5 4  271 256 
 HEL  HN ES   3    012 57.25                             115    -1.8 2  271 256 
 HEL  HZ I         013  6.06        11.8 0.35                           271 256 
 GUY  SZ EP   3    012 31.89                             112     0.6 2  300 235 
 GUY  SZ I         013 13.43        27.5 0.35                           300 235 
 VIL  SZ EP        012 30.75                             112    -0.2 7  302 190 
 VIL  SE ES   1    013  5.14                             112     0.4 5  302 190 
 RREF HN ES   2    013 10.31                             111     0.6 3  321 229 
 RREF HZ I         013 19.42        11.2 0.40                           321 229 
 PRA  HZ EP        012 41.25                             107     0.0 6  392 209 
 PRA  HE ES   1    013 22.88                             107     0.0 4  392 209 
                                                                                
