 2012  2 2 0514 57.0 L   6.804 -73.094149.3  RSN  9 0.5 2.1LRSN                1
 GAP=243        0.91       5.4     6.5  7.4  0.1070E+02  0.1416E+02  0.9070E+01E
 ACTION:UP  12-03-07 16:26 OP:epov STATUS:               ID:20120202051457 L   I
 2012-02-02-0510-00M.COL___187                                                 6
 STAT SP IPHASW D HRMM SECON CODA AMPLIT PERI AZIMU VELO SNR AR TRES W  DIS CAZ7
 BAR2 SZ IP        515 17.26                             170    0.1210 25.4 203 
 BAR2 SZ ES   1    515 32.46                             170   -0.36 7 25.4 203 
 BAR2 SZ I         515 34.00        29.6 0.43                          25.4 203 
 BRR  HZ EP        515 19.29                             151    0.4310 76.1 296 
 BRR  HN ES   1    515 36.24                             151    0.37 7 76.1 296 
 BRR  HZ I         515 40.20        23.1 0.10                          76.1 296 
 RUS  HZ EP        515 21.12                             144   -0.0410  101 179 
 RUS  HE ES   1    515 39.92                             144   -0.05 7  101 179 
 RUS  HZ I         515 44.63         8.3 0.49                           101 179 
 PTB  HZ EP   1    515 23.79                             132   -1.03 7  153 259 
 ZAR  HZ EP   2    515 29.58                             122   -0.68 4  209 291 
 ZAR  HN ES   1    515 55.42                             122   -0.74 6  209 291 
 ZAR  HZ I         516  1.69        18.1 0.37                           209 291 
 NOR  SZ EP   1    515 33.44                             119   -0.07 6  240 235 
 NOR  SN ES        516  2.35                             119    0.39 8  240 235 
 CHI  HZ EP   1    515 35.27                             118    0.11 6  251 196 
 CHI  HN ES   1    516  4.61                             118   -0.28 6  251 196 
 CHI  HZ I         516 13.63         4.9 0.66                           251 196 
 HEL  HZ EP   1    515 39.12                             115    1.05 6  278 256 
 HEL  HZ I         516 16.56        10.7 0.27                           278 256 
 PRA  HZ EP   1    515 50.71                             107   -0.36 4  395 210 
                                                                                
