 2016  5 2 0643  2.0 L   6.851 -73.242125.2  RSN 11 0.6 1.6LRSN                1
 GAP=108        1.23       3.5     3.7  7.0 -0.4232E+01  0.6424E+01 -0.3007E+01E
 Epicentro: ZAPATOCA - SANTANDER                                               3
 ACTION:UPD 16-08-18 17:41 OP:cam  STATUS:               ID:20160502064302 L   I
 OLDACT:REG 16-05-02 17:51 OP:ak   STATUS:               ID:20160502063743     3
 2016-05-02-0637-43M.COL___282                                                 6
 STAT SP IPHASW D HRMM SECON CODA AMPLIT PERI AZIMU VELO AIN AR TRES W  DIS CAZ7
 BAR2 EZ EP        643 19.34                             166    0.0110 29.4 167 
 BAR2 EZ ES        643 32.78                             166   -0.0710 29.4 167 
 BAR2 EZ I         643 34.03        12.3 0.20            168           29.4 167 
 PAM  EZ EP        643 22.79                             145    0.4910 80.6  48 
 PAM  EN ES        643 38.78                             145    0.6510 80.6  48 
 PAM  EZ I         643 41.60         7.8 0.28            148           80.6  48 
 RUS  HZ EP        643 24.72                             137    0.3610  107 171 
 RUS  HN ES        643 41.96                             137    0.1610  107 171 
 RUS  HZ I         643 44.01         3.1 0.18            140            107 171 
 PTB  HZ EP        643 25.74                             129   -0.77 9  139 256 
 PTB  HN ES        643 45.49                             129   -0.12 9  139 256 
 PTB  HZ I         643 46.92        11.7 0.24            130            139 256 
 OCA  HZ EP        643 27.61                             126   -0.54 9  154 357 
 OCA  HN ES        643 47.98                             126   -0.56 9  154 357 
 SPBC HZ EP   2    643 28.31                             124   -0.52 5  161 215 
 SPBC HN ES        643 48.87                             124   -0.88 9  161 215 
 SPBC HZ I         643 53.83         6.9 0.18            126            161 215 
 ZAR  HZ EP        643 31.74                             119   -0.18 9  192 292 
 ZAR  HE ES        643 55.89                             119    0.64 9  192 292 
 ZAR  HZ I         643 59.99         4.5 0.30            121            192 292 
 CHI  HZ EP   2    643 38.17                             112   -0.82 4  252 192 
 CHI  HN ES        644  7.80                             112   -0.04 8  252 192 
 HEL  HZ EP   2    643 40.98                             111    0.72 4  263 254 
 HEL  HN ES        644 10.43                             111    0.34 8  263 254 
 HEL  HZ I         644 13.69         3.0 0.34            113            263 254 
 GUY2CHZ EP        643 45.09                             108    0.94 7  296 233 
 GUY2CHN ES        644 17.06                             108    0.04 7  296 233 
 GUY2CHZ I         644 20.77         2.1 0.36                           296 233 
 SOCV BZ EP        643 45.78                             107    0.89 7  307  59 
 SOCV BN ES        644 17.40                             107   -0.94 7  307  59 
                                                                                
