 2017  8 2 0928 27.5 L   6.241 -73.197157.2  RSN  5 0.3 1.2LRSN                1
 GAP=159        0.77       5.1     4.6  6.3  0.4953E+01  0.7729E+01 -0.2365E+01E
 Epicentro: CHARALA - SANTANDER                                                3
 ACTION:UPD 17-09-04 20:15 OP:rebc STATUS:               ID:20170802092827 L   I
 OLDACT:DUP 17-08-02 19:37 OP:osc  STATUS:               ID:20170802092739d    3
 2017-08-02-0928-00M.COL___383                                                 6
 STAT SP IPHASW D HRMM SECON CODA AMPLIT PERI AZIMU VELO AIN AR TRES W  DIS CAZ7
 BAR2 EZ EP        928 49.31                             165    0.3910 38.9   2 
 BAR2 EZ ES        929  5.31                             165   -0.3010 38.9   2 
 BAR2 EZ I         929  7.28         3.6 0.26            167           38.9   2 
 RUS  HZ EP        928 49.01                             165   -0.3410 40.5 162 
 RUS  HN ES        929  6.66                             165    0.2910 40.5 162 
 RUS  HZ I         929  7.75         2.3 0.22            165           40.5 162 
 SPBC HZ EP        928 52.65                             142   -0.3810  117 236 
 SPBC HE ES        929 13.06                             142    0.1510  117 236 
 SPBC HZ I         929 15.93         4.0 0.26            142            117 236 
 PTB  HZ EP        928 55.38                             135    0.32 9  143 283 
 PTB  HE ES        929 16.35                             135   -0.18 9  143 283 
 PTB  HZ I         929 18.63         1.0 0.16            136            143 283 
 ZAR  HN ES        929 31.44                             121    0.08 8  230 307 
                                                                                
