 2017  3 2 0535 37.0 L   6.784 -73.117150.0  RSN 10 0.5 1.6LRSN                1
 GAP=122        0.79       4.1     4.8  5.6  0.3028E+01  0.8492E+01  0.5993E+01E
 Epicentro: LOS SANTOS - SANTANDER                                             3
 ACTION:UPD 17-05-25 18:34 OP:jn   STATUS:               ID:20170302053537 L   I
 OLDACT:UP  17-03-02 16:24 OP:and  STATUS:               ID:20170302052746d    3
 OLDACT:UP  17-03-02 16:23 OP:and  STATUS:               ID:20170302052746d    3
 OLDACT:UP  17-03-02 16:21 OP:and  STATUS:               ID:20170302052746d    3
 OLDACT:UP  17-03-02 16:21 OP:and  STATUS:               ID:20170302052746d    3
 OLDACT:DUP 17-03-02 16:18 OP:and  STATUS:               ID:20170302052746d    3
 2017-03-02-0528-00M.COL___387                                                 6
 STAT SP IPHASW D HRMM SECON CODA AMPLIT PERI AZIMU VELO AIN AR TRES W  DIS CAZ7
 BAR2 EZ IP     D  535 57.09                             171   -0.0510 22.4 199 
 BAR2 EZ ES        536 12.52                             171   -0.3210 22.4 199 
 BAR2 EZ I         536 13.64        11.9 0.16            169           22.4 199 
 BRR  HZ EP        535 58.95                             152    0.1110 74.9 299 
 BRR  HN ES        536 16.29                             152    0.4410 74.9 299 
 BRR  HZ I         536 19.45         7.5 0.30            152           74.9 299 
 PAM  EN ES        536 17.38                             152    0.0710 76.8  37 
 PAM  EZ I         536 19.40         8.8 0.54            155           76.8  37 
 RUS  HZ EP        536  0.90                             146   -0.1510 98.6 178 
 RUS  HN ES        536 20.24                             146    0.4410 98.6 178 
 RUS  HZ I         536 20.87         7.0 0.26            145           98.6 178 
 PTB  HZ EP        536  4.04                             133   -0.55 9  151 260 
 PTB  HN ES   2    536 25.33                             133   -0.76 5  151 260 
 PTB  HZ I         536 26.58         4.6 0.16            132            151 260 
 ZAR  HZ EP   3    536 11.77                             123    1.65 2  208 292 
 ZAR  HN ES   2    536 35.58                             123   -0.35 4  208 292 
 ZAR  HZ I         536 37.70         3.1 0.20            123            208 292 
 CHI  HZ EP   2    536 15.25                             118    0.39 4  248 196 
 CHI  HN ES   2    536 44.58                             118    0.20 4  248 196 
 CHI  HZ I         536 47.80         1.7 0.27            119            248 196 
 ROSC BZ EP   9    536 16.52                             118    1.13 0  253 212 
 ROSC BN ES   2    536 47.32                                    0.87 4  253 212 
 ROSC BZ I         536 51.08         2.9 0.40            118            253 212 
 PTGC HZ EP   2    536 20.03                             113   -0.72 4  306 159 
 PTGC HN ES   3    536 53.16                             113   -1.70 2  306 159 
 CBOC HZ EP   2    536 25.16                             111    0.76 3  336 253 
 CBOC HN ES   2    537  1.85                             111    0.49 3  336 253 
 CBOC HZ I         537  4.61         0.7 0.21            111            336 253 
                                                                                
