 2012  8 2 0544 48.8 L   6.788 -73.123148.5  RSN 10 0.4 2.1LRSN                1
 GAP=140        0.80       3.7     4.1  6.0 -0.2254E+01  0.6490E+01  0.2356E+01E
 Epicentro: LOS SANTOS - SANTANDER                                             3
 ACTION:UPD 12-09-10 11:53 OP:ep   STATUS:               ID:20120802054448 L   I
 2012-08-02-0540-00M.COL___215                                                 6
 STAT SP IPHASW D HRMM SECON CODA AMPLIT PERI AZIMU VELO AIN AR TRES W  DIS CAZ7
 BAR2 SZ EP   1    545  8.83                             171    0.05 7 22.6 197 
 BAR2 SZ ES   1    545 24.54                             171    0.20 7 22.6 197 
 BAR2 SZ I         545 25.15        26.6 0.24                          22.6 197 
 BRR  HZ EP   1    545 10.80                             152    0.35 7 74.1 299 
 BRR  HE ES   1    545 27.86                             152    0.56 7 74.1 299 
 BRR  HZ I         545 32.57        33.0 0.16                          74.1 299 
 PAM  SZ EP   1    545 11.75                             151    0.43 7 76.9  37 
 PAM  SN ES   1    545 29.01                             151    0.16 7 76.9  37 
 RUS  HZ EP   1    545 12.79                             145    0.04 7 99.1 177 
 RUS  HN ES   1    545 30.81                             145   -0.60 7 99.1 177 
 PTB  HZ EP   1    545 15.63                             132   -0.60 7  150 260 
 PTB  HN ES   1    545 37.03                             132   -0.57 7  150 260 
 PTB  HZ I         545 39.57         9.5 0.12                           150 260 
 OCA  HZ EP   1    545 17.02                             130   -0.50 7  162 352 
 OCA  HN ES   1    545 39.29                             130   -0.60 7  162 352 
 ZAR  HN ES   1    545 47.53                             123    0.09 6  207 292 
 NOR  SZ EP   1    545 25.33                             119    0.46 6  236 235 
 NOR  SN ES   1    545 53.40                             119    0.43 6  236 235 
 CHI  HZ EP   1    545 26.45                             118   -0.17 6  248 196 
 CHI  HZ I         546  2.17         7.3 0.37                           248 196 
 HEL  HZ EP   1    545 30.05                             115    0.62 6  274 256 
 HEL  HN ES   1    546  0.84                             115   -0.25 6  274 256 
 HEL  HZ I         546  8.19         6.6 0.23                           274 256 
                                                                                
