 2012  4 2 0226 53.2 L   6.783 -73.137149.7  RSN  7 0.3 1.8LRSN                1
 GAP=138        0.70       4.3     4.4  5.9  0.8695E+00  0.5129E+01 -0.5841E+01E
 Epicentro: LOS SANTOS - SANTANDER                                             3
 ACTION:UPD 12-07-05 11:49 OP:tino STATUS:               ID:20120402022653 L   I
 2012-04-02-0220-00M.COL___196                                                 6
 STAT SP IPHASW D HRMM SECON CODA AMPLIT PERI AZIMU VELO AIN AR TRES W  DIS CAZ7
 BAR2 SZ EP   1    227 13.52                             171     0.3 8   22 193 
 BAR2 SZ ES   1    227 28.46                             171    -0.5 8   22 193 
 BAR2 SZ I         227 30.20         7.5 0.19                            22 193 
 BRR  HZ EP   1    227 15.02                             153     0.2 8   73 299 
 BRR  HN ES   1    227 32.34                             153     0.6 8   73 299 
 BRR  HZ I         227 36.05        15.3 0.15                            73 299 
 PAM  SZ EP   1    227 16.12                             151     0.2 8   78  38 
 PAM  SZ I         227 16.32         8.4 0.17                            78  38 
 PAM  SN ES   1    227 33.24                             151    -0.3 8   78  38 
 RUS  HZ EP   1    227 17.14                             145    -0.1 8   99 177 
 RUS  HN ES   1    227 36.18                             145     0.3 8   99 177 
 PTB  HZ EP   1    227 20.18                             133    -0.4 8  148 260 
 PTB  HN ES   2    227 41.28                             133    -0.6 5  148 260 
 OCA  SZ EP        227 21.94                             130    -0.110  162 353 
 ZAR  HZ EP   1    227 25.96                             123    -0.1 7  206 293 
 ZAR  HN ES   1    227 51.73                             123     0.0 7  206 293 
 ZAR  HZ I         227 56.84         9.2 0.46                           206 293 
                                                                                
