 2016  8 2 0024 27.4 L   6.815 -73.101147.0  RSN 13 0.3 2.2LRSN                1
 GAP=102        0.80       2.7     2.2  3.8 -0.1882E+01  0.1269E+01  0.1069E+01E
 Epicentro: LOS SANTOS - SANTANDER                                             3
 ACTION:UPD 16-10-29 15:31 OP:rebc STATUS:               ID:20160802002427 L   I
 OLDACT:UP  16-08-02 13:30 OP:edw  STATUS:               ID:20160802001740d    3
 OLDACT:UP  16-08-02 13:27 OP:edw  STATUS:               ID:20160802001740d    3
 OLDACT:DUP 16-08-02 13:19 OP:edw  STATUS:               ID:20160802001740d    3
 OLDACT:UP  16-08-02 13:16 OP:edw  STATUS:               ID:20160802001739d    3
 OLDACT:UP  16-08-02 13:11 OP:edw  STATUS:               ID:20160802001739d    3
 OLDACT:DUP 16-08-02 13:06 OP:edw  STATUS:               ID:20160802001739d    3
 2016-08-02-0018-00M.COL___356                                                 6
 STAT SP IPHASW D HRMM SECON CODA AMPLIT PERI AZIMU VELO AIN AR TRES W  DIS CAZ7
 BAR2 EZ EP        024 46.99                             169   -0.2910 26.3 200 
 BAR2 EZ ES        025  2.67                             169   -0.0810 26.3 200 
 BAR2 EZ I         025  3.09        23.7 0.38                          26.3 200 
 PAM  EZ EP        024 49.84                             152    0.3110 73.0  37 
 PAM  EN ES        025  7.08                             152    0.3210 73.0  37 
 PAM  EZ I         025  9.04        30.4 0.58                          73.0  37 
 BRR  HZ EP        024 48.93                             151   -0.0010 74.8 296 
 BRR  HN ES        025  5.95                             151    0.2610 74.8 296 
 BRR  HZ I         025  7.73        15.7 0.22                          74.8 296 
 RUS  HZ EP        024 51.22                             144   -0.2010  102 179 
 RUS  HN ES        025  9.64                             144   -0.4810  102 179 
 RUS  HZ I         025 10.63        14.5 0.26                           102 179 
 TAM  HZ EP        024 55.33                             132    0.51 9  151 106 
 TAM  HN ES        025 16.58                             132    0.40 9  151 106 
 SPBC HZ EP        024 56.08                             129   -0.38 9  168 220 
 SPBC HN ES        025 19.02                             129   -0.07 9  168 220 
 SPBC HZ I         025 20.36        20.5 0.28                           168 220 
 ZAR  HZ EP        025  0.50                             122    0.12 8  208 291 
 ZAR  HN ES        025 25.85                             122   -0.21 8  208 291 
 ZAR  HZ I         025 31.22        17.2 0.26                           208 291 
 NOR  HZ EP        025  3.66                             118   -0.12 8  240 235 
 NOR  HN ES        025 31.96                             118   -0.16 8  240 235 
 NOR  HZ I         025 37.68        13.6 0.14                           240 235 
 ROSC BZ EP        025  6.42                             116    0.35 8  257 212 
 ROSC BN ES        025 36.69                             116    0.50 8  257 212 
 ROSC BZ I         025 44.77        11.2 0.35                           257 212 
 HEL  HZ EP        025  8.49                             115    0.20 7  277 256 
 HEL  HN ES        025 40.24                             115    0.08 7  277 256 
 HEL  HZ I         025 47.33         6.0 0.32                           277 256 
 SOCV BZ EP        025  9.95                             113   -0.03 7  296  57 
 SOCV BN ES        025 42.04                             113   -1.11 7  296  57 
 GUY2CHZ EP        025 11.99                             112    0.32 7  306 235 
 GUY2CHN ES        025 45.87                             112   -0.30 7  306 235 
 GUY2CHZ I         025 52.04         7.9 0.38                           306 235 
 PTGC HZ EP   4    025 10.09                             112   -1.25 0  309 160 
 PTGC HN ES   4    025 43.29                             112   -2.28 0  309 160 
 PRA  HZ EP        025 21.40                             106   -0.07 6  396 210 
 PRA  HN ES        026  3.43                             106   -0.17 6  396 210 
 PRA  HZ I         026  9.56         4.5 0.34                           396 210 
 CRJC HZ EP   4    025 27.68                             104   -2.06 0  466   3 
 CRJC HN ES   4    026 13.96                             104   -4.37 0  466   3 
                                                                                
