 2016 12 2 0931 29.2 L   6.702 -73.128139.2  RSN  4 0.2 1.6LRSN                1
 GAP=173        0.66       7.5     3.7  5.4 -0.2755E+01  0.6699E+01 -0.9596E+01E
 Epicentro: JORDAN - SANTANDER                                                 3
 ACTION:UPD 17-01-11 20:11 OP:rebc STATUS:               ID:20161202093129 L   I
 OLDACT:REG 16-12-02 12:55 OP:dnl  STATUS:               ID:20161202092738     3
 2016-12-02-0928-00M.COL___328                                                 6
 STAT SP IPHASW D HRMM SECON CODA AMPLIT PERI AZIMU VELO AIN AR TRES W  DIS CAZ7
 BAR2 EZ ES        932  2.23                             174   -0.1910 13.5 206 
 BAR2 EZ I         932  3.46        27.2 0.94            174           13.5 206 
 BRR  HZ EP        931 50.39                             149    0.3210 78.6 305 
 BRR  HN ES        932  6.68                             149    0.3210 78.6 305 
 PAM  EZ EP        931 51.29                             147    0.1110 84.9  34 
 PAM  EN ES        932  8.15                             147   -0.1910 84.9  34 
 PAM  EZ I         932 10.33         4.9 0.70            146           84.9  34 
 ZAR  HZ EP        932  1.58                             120   -0.26 8  210 295 
 ZAR  HN ES        932 27.07                             120   -0.25 8  210 295 
 ZAR  HZ I         932 32.91         2.3 0.76            120            210 295 
                                                                                
