 2010  7 2 0605 55.5 L   6.783 -73.144153.6  RSN  5 0.3 1.6LRSN                1
 GAP=156        0.59       4.5     7.2  8.0 -0.4786E+01 -0.2665E+02  0.6914E+01E
 Epicentro: LOS SANTOS - SANTANDER                                             3
 ACTION:UPD 10-12-01 15:14 OP:pat  STATUS:               ID:20100702060555 L   I
 2010-07-02-0602-49S.COL___118                                                 6
 STAT SP IPHASW D HRMM SECON CODA AMPLIT PERI AZIMU VELO AIN AR TRES W  DIS CAZ7
 BRR  HZ EP        6 6 17.59                             153     0.010   72 300 
 BRR  HE ES        6 6 34.76                             153     0.010   72 300 
 BRR  HZ I         6 6 38.31         7.9 0.29                            72 300 
 RUS  HZ EP   1    6 6 19.67                             146    -0.2 7   99 176 
 RUS  HN ES   2    6 6 39.05                             146     0.1 5   99 176 
 RUS  HZ I         6 6 40.31         5.1 0.44                            99 176 
 BRI  SZ EP   2    6 6 21.15                             142     0.9 5  110  20 
 BRI  SZ ES   2    6 6 39.62                             142     0.0 5  110  20 
 GUE  SZ EP   2    6 6 20.56                             141    -0.5 5  118  12 
 GRA  SZ EP   2    6 6 21.57                             138     0.0 5  128  17 
 GRA  SZ ES   2    6 6 41.60                             138    -0.3 5  128  17 
                                                                                
