 2011  7 2 0020 20.1 L   6.788 -73.098139.1  RSN  6 0.2 1.6LRSN                1
 GAP=164        0.49       2.5     4.6  4.8 -0.1285E+01 -0.6755E+01 -0.6901E+00E
 Epicentro: LOS SANTOS - SANTANDER                                             3
 ACTION:UPD 12-07-25 13:57 OP:epov STATUS:               ID:20110702002020 L   I
 2011-07-02-0019-19S.COL___140                                                 6
 STAT SP IPHASW D HRMM SECON CODA AMPLIT PERI AZIMU VELO AIN AR TRES W  DIS CAZ7
 BTL  SZ EP        020 39.40                             170    0.4610 23.6 307 
 BAR2 SZ EP        020 38.78                             170   -0.1610 23.6 203 
 BAR2 SZ ES   1    020 53.73                             170    0.10 7 23.6 203 
 BAR2 SZ I         020 55.10        13.8 0.18                          23.6 203 
 GIR2 SZ EP   1    020 38.98                             166   -0.08 7 33.8 342 
 BRR  HZ EP        020 40.76                             149   -0.0910 76.5 297 
 BRR  HZ I         020 40.98        18.3 0.12                          76.5 297 
 BRR  HN ES        020 56.98                             149   -0.0510 76.5 297 
 RUS  HZ EP   1    020 43.13                             143    0.03 7 99.1 179 
 RUS  HE ES   1    021  0.88                             143   -0.15 7 99.1 179 
 RUS  HZ I         021  3.96         4.1 0.36                          99.1 179 
 GRA  SZ EP        020 44.68                             135   -0.0610  126  15 
 GRA  SZ ES        021  3.91                             135   -0.0410  126  15 
 GRA  SZ I         021  6.20         4.4 0.49                           126  15 
                                                                                
