 2015 10 2 0936 27.2 L   6.782 -73.187142.0  RSN  4 0.3 1.3LRSN                1
 GAP=197        0.51       6.2     6.0  9.8  0.2922E+02 -0.2323E+02 -0.4015E+02E
 Epicentro: ZAPATOCA - SANTANDER                                               3
 ACTION:UPD 15-12-22 20:36 OP:cam  STATUS:               ID:20151002093627 L   I
 OLDACT:REG 15-10-02 13:31 OP:ar   STATUS:               ID:20151002092735     3
 2015-10-02-0927-35M.COL___351                                                 6
 STAT SP IPHASW D HRMM SECON CODA AMPLIT PERI AZIMU VELO AIN AR TRES W  DIS CAZ7
 RUS  HZ EP        936 50.44                             144   -0.0610 99.0 173 
 RUS  HN ES        937  8.72                             144    0.0810 99.0 173 
 RUS  HZ I         937  9.76         2.0 0.22            158           99.0 173 
 PTB  HZ EP   2    936 53.29                             132   -0.16 5  143 259 
 PTB  HN ES   2    937 13.44                             132   -0.45 5  143 259 
 PTB  HZ I         937 16.59         2.7 0.14            141            143 259 
 ZAR  HZ EP   2    936 59.88                             122    0.81 4  201 293 
 ZAR  HN ES        937 23.98                             122    0.07 9  201 293 
 ZAR  HZ I         937 30.43         1.9 0.44            128            201 293 
 SML  HZ EP   2    937  3.05                             117   -0.59 4  244 336 
 SML  HN ES   2    937 32.11                             117    0.06 4  244 336 
 SML  HZ I         937 41.01         2.2 0.24            120            244 336 
                                                                                
