 2016  6 2 0812 43.0 L   7.389 -73.118  8.6  RSN  7 0.4 1.5LRSN                1
 GAP=110        0.95       2.1     2.2  4.9  0.1062E+00  0.2734E+01  0.3432E+01E
 Epicentro: EL PLAYON - SANTANDER                                              3
 ACTION:UPD 16-07-21 22:14 OP:rebc STATUS:               ID:20160602081243 L   I
 OLDACT:UP  16-06-03 20:47 OP:nlst STATUS:               ID:20160602081243 L   3
 OLDACT:UP  16-06-02 17:51 OP:cara STATUS:               ID:20160602080743     3
 OLDACT:UP  16-06-02 17:50 OP:cara STATUS:               ID:20160602080743     3
 OLDACT:REG 16-06-02 15:01 OP:edw  STATUS:               ID:20160602080743     3
 2016-06-02-0807-43M.COL___301                                                 6
 STAT SP IPHASW D HRMM SECON CODA AMPLIT PERI AZIMU VELO AIN AR TRES W  DIS CAZ7
 PAM  EZ IP        812 51.44                              97    0.2210 46.5  97 
 PAM  EN ES        812 57.71                              97    0.1110 46.5  97 
 PAM  EZ I         812 57.99        44.1 0.30                          46.5  97 
 BRR  HZ EP        812 55.18                              94    0.5210 72.7 245 
 BRR  HE ES        813  3.91                              94    0.1810 72.7 245 
 BRR  HZ I         813  4.22         8.7 0.12                          72.7 245 
 BAR2 EZ EP        812 57.23                              93   -0.0610 88.4 185 
 BAR2 EZ ES        813  7.70                              93   -0.7010 88.4 185 
 OCA  HZ EP        812 58.65                              93    0.2110 96.6 347 
 OCA  HN ES        813  9.83                              93   -0.6310 96.6 347 
 OCA  HZ I         813 13.34        21.1 0.46                          96.6 347 
 RUS  HZ EP        813  9.54                              56    0.36 9  166 179 
 RUS  HE ES        813 29.37                              56   -0.20 9  166 179 
 RUS  HZ I         813 32.31         4.6 0.20                           166 179 
 PTB  HZ EP        813  9.91                              56    0.09 9  175 238 
 PTB  HN ES        813 30.64                              56   -0.07 9  175 238 
 PTB  HZ I         813 31.80         7.9 0.28                           175 238 
 SPBC HN ES   4    813 44.11                              56    3.47 0  219 209 
 SPBC HZ I         813 49.21         5.4 0.10                           219 209 
                                                                                
