 2011 11 2 0302 56.0 L   6.515 -73.534109.5  RSN 11 0.4 2.1LRSN                1
 GAP= 84        0.81       2.8     3.3  5.7 -0.1117E+01  0.9132E+01 -0.2761E+00E
 Epicentro: EL CARMEN DE CHUCURI - SANTANDER                                   3
 ACTION:UPD 12-07-13 16:07 OP:ep   STATUS:               ID:20111102030256 L   I
 2011-11-02-0300-00M.COL___178                                                 6
 STAT SP IPHASW D HRMM SECON CODA AMPLIT PERI AZIMU VELO AIN AR TRES W  DIS CAZ7
 BAR2 SZ EP        3 3 12.09                             159    0.1810 39.8  78 
 BAR2 SZ ES        3 3 24.19                             159   -0.1010 39.8  78 
 BAR2 SZ I         3 3 25.87       200.9 0.39                          39.8  78 
 BTL  SZ EP   1    3 3 12.86                             152    0.26 7 53.4  33 
 BRR  HZ EP        3 3 12.97                             146   -0.2310 68.4 343 
 BRR  HN ES        3 3 26.90                             146    0.3110 68.4 343 
 BRR  HZ I         3 3 32.77        29.8 0.14                          68.4 343 
 GIR2 SZ EP   1    3 3 13.64                             144   -0.07 7 72.8  31 
 GIR2 SZ ES   2    3 3 27.53                             144    0.02 5 72.8  31 
 RUS  HZ EP   1    3 3 15.23                             140    0.11 7 85.0 144 
 RUS  HE ES        3 3 30.27                             140    0.2510 85.0 144 
 RUS  HZ I         3 3 32.84        13.7 0.30                          85.0 144 
 PAM  SZ EP   1    3 3 18.70                             127   -0.41 7  130  45 
 PAM  SE ES   1    3 3 36.25                             127   -0.87 7  130  45 
 NOR  SZ EP   1    3 3 24.24                             116    0.29 7  181 235 
 NOR  SN ES   1    3 3 44.98                             116   -0.76 7  181 235 
 ZAR  HZ EP   1    3 3 24.76                             116    0.82 7  182 307 
 ZAR  HN ES   1    3 3 46.02                             116    0.30 7  182 307 
 ZAR  HZ I         3 3 49.12        22.1 0.51                           182 307 
 OCA  SZ EP   1    3 3 25.73                             115    0.48 7  192   7 
 OCA  SZ ES   1    3 3 47.69                             115   -0.36 7  192   7 
 OCA  SZ I         3 3 52.35        11.1 0.16                           192   7 
 HEL  HZ EP   2    3 3 28.88                             111   -0.19 4  224 261 
 HEL  HN ES   1    3 3 54.18                             111   -0.66 6  224 261 
 HEL  HZ I         3 3 59.61         5.9 0.44                           224 261 
 RREF HZ EP   1    3 3 34.97                             107    0.36 6  269 228 
 RREF HE ES   2    3 4  4.13                             107   -0.58 4  269 228 
 RREF HZ I         3 4 11.80         3.6 0.21                           269 228 
                                                                                
