 2017  2 2 0142 52.7 L   6.811 -73.157147.6  RSN  6 0.2 1.6LRSN                1
 GAP=109        0.66       3.6     2.7  4.9  0.1934E+00  0.1145E+01 -0.7753E+00E
 Epicentro: LOS SANTOS - SANTANDER                                             3
 ACTION:UPD 17-05-24 15:31 OP:jn   STATUS:               ID:20170202014252 L   I
 OLDACT:UP  17-02-02 15:02 OP:ar   STATUS:               ID:20170202013742     3
 OLDACT:REG 17-02-02 12:55 OP:ar   STATUS:               ID:20170202013742     3
 2017-02-02-0138-00M.COL___328                                                 6
 STAT SP IPHASW D HRMM SECON CODA AMPLIT PERI AZIMU VELO AIN AR TRES W  DIS CAZ7
 BAR2 EZ EP        143 12.68                             170    0.0710 24.3 187 
 BAR2 EZ ES        143 28.08                             170   -0.0210 24.3 187 
 BAR2 EZ I         143 30.10         6.2 0.42            170           24.3 187 
 PAM  EZ EP        143 15.30                             151    0.1610 77.2  41 
 PAM  EN ES        143 32.45                             151   -0.1610 77.2  41 
 PAM  EZ I         143 34.35         8.4 0.48            152           77.2  41 
 RUS  HZ EP        143 16.96                             144    0.2010  102 175 
 RUS  HN ES        143 35.41                             144   -0.0910  102 175 
 RUS  HZ I         143 36.89         5.1 0.30            144            102 175 
 PTB  HZ EP        143 19.11                             133   -0.66 9  147 258 
 PTB  HN ES        143 41.10                             133    0.25 9  147 258 
 PTB  HZ I         143 42.81         4.3 0.22            135            147 258 
 TAM  HZ EP        143 20.80                             131    0.10 9  157 105 
 TAM  HN ES   4    143 46.72                             131    4.22 0  157 105 
 TAM  HZ I         143 48.04         8.6 0.12            131            157 105 
 ZAR  HE ES        143 50.56                             123    0.15 9  202 292 
                                                                                
