 2011  8 2 0304 11.7 L   6.796 -73.128141.1  RSN  5 0.3 1.3LRSN                1
 GAP=139        0.47       4.1     5.1  5.5 -0.4845E+01  0.1629E+01  0.3115E+00E
 Epicentro: LOS SANTOS - SANTANDER                                             3
 ACTION:UPD 12-07-25 14:05 OP:epov STATUS:               ID:20110802030411 L   I
 2011-08-02-0300-00M.COL___140                                                 6
 STAT SP IPHASW D HRMM SECON CODA AMPLIT PERI AZIMU VELO AIN AR TRES W  DIS CAZ7
 BAR2 SZ EP   1    3 4 30.74                             170   -0.01 7 23.4 195 
 BAR2 SZ ES   1    3 4 45.47                             170   -0.16 7 23.4 195 
 BAR2 SZ I         3 4 47.04         5.2 0.16                          23.4 195 
 BRR  HZ EP   1    3 4 32.30                             151   -0.14 7 73.1 298 
 BRR  HZ I         3 4 34.10         5.3 0.30                          73.1 298 
 BRR  HN ES   2    3 4 49.09                             151    0.46 5 73.1 298 
 PAM  SZ EP   1    3 4 33.64                             150    0.29 7 76.5  38 
 PAM  SN ES   2    3 4 49.81                             150   -0.43 5 76.5  38 
 RUS  HZ EP   1    3 4 34.88                             143   -0.06 7  100 177 
 RUS  HN ES   2    3 4 53.41                             143    0.33 5  100 177 
 RUS  HZ I         3 4 54.48         2.7 0.26                           100 177 
 NOR  SN ES   2    3 5 14.77                             117   -0.30 4  236 235 
                                                                                
