 2017  4 2 0022 33.3 L   6.754 -73.169144.7  RSN  8 0.4 1.8LRSN                1
 GAP=207        0.97       4.4     4.1  5.8  0.8216E+01  0.3247E+01  0.2036E+01E
 Epicentro: LOS SANTOS - SANTANDER                                             3
 ACTION:UPD 17-05-30 21:07 OP:jn   STATUS:               ID:20170402002233 L   I
 OLDACT:UP  17-04-02 13:57 OP:lv   STATUS:               ID:20170402001739     3
 OLDACT:REG 17-04-02 12:19 OP:lv   STATUS:               ID:20170402001739     3
 2017-04-02-0018-00M.COL___368                                                 6
 STAT SP IPHASW D HRMM SECON CODA AMPLIT PERI AZIMU VELO AIN AR TRES W  DIS CAZ7
 BAR2 EZ EP        022 52.37                             173   -0.3910 18.0 185 
 BAR2 EZ ES        023  7.40                             173   -0.5010 18.0 185 
 BRR  HZ EP        022 54.51                             152    0.1010 71.6 303 
 BRR  HN ES        023 11.46                             152    0.6310 71.6 303 
 BRR  HZ I         023 14.76         8.3 0.26            153           71.6 303 
 RUS  HZ EP        022 56.31                             145   -0.3410 95.8 174 
 RUS  HN ES        023 14.70                             145   -0.1310 95.8 174 
 PTB  HZ EP        022 59.84                             132   -0.08 9  144 261 
 PTB  HN ES        023 20.11                             132   -0.53 9  144 261 
 SPBC HZ EP        023  1.34                             130    0.10 9  158 219 
 SPBC HN ES        023 23.26                             130    0.26 9  158 219 
 SPBC HZ I         023 27.53         8.9 0.17            131            158 219 
 YPLC HZ EP        023  2.58                             127   -0.18 9  174 150 
 YPLC HN ES        023 26.59                             127    0.89 9  174 150 
 ZAR  HZ EP        023  5.77                             122    0.09 9  204 294 
 ZAR  HE ES        023 31.23                             122    0.33 9  204 294 
 NOR  HZ EP        023  8.41                             119   -0.07 8  230 235 
 NOR  HN ES        023 35.92                             119    0.04 8  230 235 
                                                                                
