 2014  9 2 0454 13.8 L   6.426 -73.657119.4  RSN  4 0.3 1.2LRSN                1
 GAP=153        0.65       5.7     3.7  7.1 -0.3229E+01  0.3347E+01  0.9393E+01E
 Epicentro: SANTA HELENA DEL OPON - SANTANDER                                  3
 ACTION:UPD 14-10-03 23:01 OP:nd   STATUS:               ID:20140902045413 L   I
 OLDACT:DUP 14-09-02 16:33 OP:mh   STATUS:               ID:20140902044811d    3
 2014-09-02-0448-10M.COL___260                                                 6
 STAT SP IPHASW D HRMM SECON CODA AMPLIT PERI AZIMU VELO AIN AR TRES W  DIS CAZ7
 BAR2 SZ EP   1    454 32.06                             153    0.49 7 55.6  71 
 BAR2 SZ ES        454 45.43                             153    0.0110 55.6  71 
 BAR2 SZ I         454 46.56        12.8 0.35            143           55.6  71 
 RUS  HZ EP        454 33.57                             142   -0.3910 86.7 133 
 RUS  HZ I         454 50.77         1.0 0.13            126           86.7 133 
 PTB  HZ EP        454 33.48                             141   -0.0110 89.3 278 
 PTB  HN ES   1    454 48.62                             141   -0.23 7 89.3 278 
 PTB  HZ I         454 51.40         4.2 0.12            135           89.3 278 
 SPBC HZ EP   1    454 34.50                             138    0.28 7 97.1 208 
 SPBC HN ES   1    454 50.30                             138    0.16 7 97.1 208 
 SPBC HZ I         454 55.10         3.1 0.10            125           97.1 208 
                                                                                
