 2012  7 2 0147  9.2 L   6.778 -73.151149.7  RSN 10 0.4 2.2LRSN                1
 GAP=137        0.96       4.8     5.4  7.4  0.3717E+00  0.7588E+01  0.6532E+01E
 Epicentro: LOS SANTOS - SANTANDER                                             3
 ACTION:UPD 12-08-14 11:41 OP:ep   STATUS:               ID:20120702014709 L   I
 2012-07-02-0140-00M.COL___201                                                 6
 STAT SP IPHASW D HRMM SECON CODA AMPLIT PERI AZIMU VELO AIN AR TRES W  DIS CAZ7
 BAR2 SZ EP        147 29.40                             172     0.110   21 190 
 BAR2 SZ ES   1    147 44.71                             172    -0.2 7   21 190 
 BAR2 SZ I         147 45.65        27.9 0.26            159             21 190 
 BRR  HZ EP        147 31.29                             153     0.410   72 300 
 BRR  HZ I         147 31.59        69.4 0.16            138             72 300 
 BRR  HN ES   1    147 48.46                             153     0.7 7   72 300 
 PAM  SZ EP        147 32.19                             151     0.210   80  39 
 PAM  SN ES   1    147 49.60                             151    -0.2 7   80  39 
 RUS  HZ EP   1    147 33.41                             145     0.2 7   98 176 
 RUS  HN ES   1    147 51.61                             145    -0.3 7   98 176 
 RUS  HZ I         147 53.28        15.4 0.23            133             98 176 
 PTB  HZ EP   1    147 36.11                             133    -0.3 7  147 260 
 PTB  HN ES   1    147 57.41                             133    -0.2 7  147 260 
 PTB  HZ I         148  3.42        18.7 0.56            118            147 260 
 OCA  HN ES   1    147 59.80                             130    -0.8 7  163 353 
 ZAR  HN ES   1    148  7.44                             123    -0.1 6  204 293 
 CHI  HZ EP   1    147 46.32                             118    -0.6 6  246 195 
 CHI  HZ I         147 49.48         6.3 0.15            108            246 195 
 HEL  HZ EP   1    147 49.08                             116    -0.4 6  271 256 
 HEL  HZ I         148 28.09        10.8 0.37            105            271 256 
 PRA  HZ EP   1    148  3.39                             107     0.8 4  390 210 
