 2015  9 2 0649 32.2 L   6.791 -73.161145.9  RSN  6 0.4 1.5LRSN                1
 GAP=235        1.12       6.1     6.6  7.6  0.1657E+02  0.8399E+01 -0.1270E+01E
 Epicentro: LOS SANTOS - SANTANDER                                             3
 ACTION:UPD 15-10-28 16:23 OP:cam  STATUS:               ID:20150902064932 L   I
 OLDACT:REG 15-09-02 14:09 OP:stll STATUS:               ID:20150902064748     3
 2015-09-02-0647-48M.COL___355                                                 6
 STAT SP IPHASW D HRMM SECON CODA AMPLIT PERI AZIMU VELO AIN AR TRES W  DIS CAZ7
 BAR2 EZ EP        649 51.94                             171    0.1010 22.1 186 
 BAR2 EZ ES        650  6.86                             171   -0.2910 22.1 186 
 BAR2 EZ I         650  8.50         6.3 0.42            166           22.1 186 
 BRR  HZ EP        649 53.72                             153    0.4010 70.2 300 
 BRR  HZ I         649 53.83         7.1 0.14            150           70.2 300 
 BRR  HN ES        650 10.14                             153    0.3510 70.2 300 
 RUS  HZ EP        649 55.75                             144   -0.1710 99.8 175 
 RUS  HZ I         649 57.00         2.3 0.10            142           99.8 175 
 RUS  HN ES        650 14.27                             144   -0.1410 99.8 175 
 PTB  HZ EP        649 57.93                             132   -1.10 9  146 259 
 PTB  HN ES        650 19.69                             132   -0.25 9  146 259 
 PTB  HZ I         650 22.12         3.9 0.20            130            146 259 
 SPBC HZ EP        650  0.94                             129    0.39 9  161 219 
 SPBC HN ES        650 23.21                             129    0.55 9  161 219 
 SPBC HZ I         650 29.86         6.6 0.32            127            161 219 
 ZAR  HZ EP        650  4.96                             123    0.42 9  203 293 
 ZAR  HE ES        650 29.54                             123   -0.22 9  203 293 
 ZAR  HZ I         650 35.50         2.9 0.24            122            203 293 
                                                                                
