 2015  4 2 0814  3.6 L   6.766 -73.130146.5  RSN  8 0.4 1.6LRSN                1
 GAP=256        0.93       5.1     5.1  6.0 -0.1094E+01  0.7968E+01  0.6600E+01E
 Epicentro: LOS SANTOS - SANTANDER                                             3
 ACTION:UPD 15-06-03 16:51 OP:cam  STATUS:               ID:20150402081403 L   I
 OLDACT:UP  15-04-02 14:32 OP:mh   STATUS:               ID:20150402080748     3
 OLDACT:REG 15-04-02 12:41 OP:mh   STATUS:               ID:20150402080748     3
 2015-04-02-0807-48M.COL___280                                                 6
 STAT SP IPHASW D HRMM SECON CODA AMPLIT PERI AZIMU VELO AIN AR TRES W  DIS CAZ7
 BAR2 EZ EP        814 22.96                             172   -0.3210 20.1 197 
 BAR2 EZ ES        814 38.42                             172   -0.1910 20.1 197 
 BAR2 EZ I         814 40.02         4.9 0.40            166           20.1 197 
 BRR  HZ EP        814 25.40                             151    0.3610 74.5 300 
 BRR  HN ES        814 42.40                             151    0.6610 74.5 300 
 BRR  HZ I         814 47.24         4.0 0.19            149           74.5 300 
 PTB  HZ EP        814 30.16                             132   -0.58 9  149 260 
 PTB  HN ES        814 51.53                             132   -0.36 9  149 260 
 PTB  HZ I         814 58.49         5.0 0.48            131            149 260 
 SPBC HZ EP        814 32.47                             130    0.47 9  161 220 
 SPBC HN ES   1    814 53.58                             130   -0.56 7  161 220 
 SPBC HZ I         815  1.11         5.8 0.10            130            161 220 
 ZAR  HZ EP        814 36.19                             122   -0.23 8  207 293 
 ZAR  HN ES        815  1.79                             122   -0.21 8  207 293 
 ZAR  HZ I         815  8.31         4.0 0.45            123            207 293 
 NOR  HZ EP        814 39.76                             119    0.45 8  234 235 
 NOR  HN ES        815  7.22                             119    0.07 8  234 235 
 NOR  HZ I         815 13.32         3.1 0.50            120            234 235 
 HEL  HZ EP   1    814 43.81                             115   -0.14 6  273 257 
 HEL  HN ES        815 15.35                             115   -0.06 8  273 257 
 HEL  HZ I         815 21.91         2.3 0.28            116            273 257 
 GUY2CHZ EP        814 47.16                             112   -0.02 7  300 236 
 GUY2CHN ES   1    815 21.94                             112    0.79 5  300 236 
 GUY2CHZ I         815 29.91         2.7 0.70                           300 236 
                                                                                
