 2016 10 2 0755 46.5 L   6.817 -73.153145.4  RSN 20 0.5 3.1LRSN 3.6WRSN        1
 SPEC AVERAGE  MO 14.5 ST  1.8 OM  2.6 f0 1.81 R1.4955 AL 0.00 WI 40.0 MW  3.6 3
 SPEC SD       MO  0.3 ST  2.7 OM  0.4 f0 1.18 R0.7459 AL      WI      MW  0.2 3
 GAP= 70        1.04       2.7     2.9  5.3 -0.1465E+01  0.4952E+01 -0.9008E+00E
 Epicentro: LOS SANTOS - SANTANDER                                             3
 SPEC RUS HH Z MO 14.7 ST0.209 OM  2.7 f00.902 R2.1330 AL-0.00 WI 40.0 MW  3.7 3
 SPEC RUS HH Z T 75627 K 0.000 GD  178 VS 5.20 DE 3.50 Q0750.0 QA 1.50 VS 3.50 3
 SPEC OCA HH Z MO 14.8 ST  1.8 OM  2.8 f0 1.60 R1.2025 AL-0.00 WI 40.0 MW  3.8 3
 SPEC OCA HH Z T 75634 K 0.000 GD  214 VS 5.20 DE 3.50 Q0750.0 QA 1.50 VS 3.50 3
 SPEC SPBCHH Z MO 14.2 ST 10.0 OM  2.1 f0 4.85 R0.3967 AL-0.00 WI 40.0 MW  3.4 3
 SPEC SPBCHH Z T 75635 K 0.000 GD  219 VS 5.20 DE 3.50 Q0750.0 QA 1.50 VS 3.50 3
 SPEC ZAR HH Z MO 14.5 ST  2.9 OM  2.4 f0 2.43 R0.7918 AL-0.00 WI 40.0 MW  3.6 3
 SPEC ZAR HH Z T 75642 K 0.000 GD  249 VS 5.20 DE 3.50 Q0750.0 QA 1.50 VS 3.50 3
 SPEC NOR HH Z MO 14.2 ST  1.7 OM  2.0 f0 2.66 R0.7233 AL-0.00 WI 40.0 MW  3.4 3
 SPEC NOR HH Z T 75647 K 0.000 GD  276 VS 5.20 DE 3.50 Q0750.0 QA 1.50 VS 3.50 3
 SPEC CHI HH Z MO 14.7 ST0.108 OM  2.5 f00.718 R2.6797 AL-0.00 WI 40.0 MW  3.7 3
 SPEC CHI HH Z T 75652 K 0.000 GD  289 VS 5.20 DE 3.50 Q0750.0 QA 1.50 VS 3.50 3
 SPEC HEL HH Z MO 14.5 ST0.139 OM  2.3 f00.891 R2.1594 AL-0.00 WI 40.0 MW  3.6 3
 SPEC HEL HH Z T 75657 K 0.000 GD  308 VS 5.20 DE 3.50 Q0750.0 QA 1.50 VS 3.50 3
 SPEC URE HH Z MO 14.2 ST  1.7 OM  2.0 f0 2.58 R0.7457 AL-0.00 WI 40.0 MW  3.4 3
 SPEC URE HH Z T 75655 K 0.000 GD  317 VS 5.20 DE 3.50 Q0750.0 QA 1.50 VS 3.50 3
 SPECGUY2CHH Z MO 14.7 ST0.171 OM  2.5 f00.797 R2.4141 AL-0.00 WI 40.0 MW  3.8 3
 SPECGUY2CHH Z T 757 3 K 0.000 GD  335 VS 5.20 DE 3.50 Q0750.0 QA 1.50 Q1 0.00 3
 SPEC ELA HH Z MO 14.8 ST0.184 OM  2.5 f00.797 R2.4141 AL-0.00 WI 40.0 MW  3.8 3
 SPEC ELA HH Z T 75710 K 0.000 GD  360 VS 5.20 DE 3.50 Q0750.0 QA 1.50 VS 3.50 3
 SPEC ANILHH Z MO 14.4 ST0.588 OM  2.1 f0 1.56 R1.2333 AL-0.00 WI 40.0 MW  3.5 3
 SPEC ANILHH Z T 75715 K 0.000 GD  386 VS 5.20 DE 3.50 Q0750.0 QA 1.50 VS 3.50 3
 SPEC PAL HH Z MO 14.3 ST0.128 OM  2.0 f00.976 R1.9713 AL-0.00 WI 40.0 MW  3.5 3
 SPEC PAL HH Z T 75721 K 0.000 GD  431 VS 5.20 DE 3.50 Q0750.0 QA 1.50 VS 3.50 3
 OLDACT:UP  16-10-02 16:13 OP:dnl  STATUS:               ID:20161002074743     3
 OLDACT:REG 16-10-02 13:06 OP:dnl  STATUS:               ID:20161002074743     3
 ACTION:UPD 16-11-09 19:15 OP:rebc STATUS:               ID:20161002075546 L   I
 OLDACT:UP  16-10-02 16:14 OP:dnl  STATUS:               ID:20161002074743     3
 2016-10-02-0748-00M.COL___369                                                 6
 STAT SP IPHASW D HRMM SECON CODA AMPLIT PERI AZIMU VELO AIN AR TRES W  DIS CAZ7
 BAR2 EZ IP     C  756  6.16                             170    0.0710 25.1 187 
 BAR2 EZ ES        756 21.31                             170   -0.0910 25.1 187 
 BAR2 EZ I         756 23.13       340.8 0.32            169           25.1 187 
 BRR  HZ IP     C  756  8.06                             153    0.5710 69.6 297 
 BRR  HE ES   4    756 25.64                             153    1.76 0 69.6 297 
 BRR  HZ I         756 29.55       167.4 0.14            150           69.6 297 
 PAM  EZ EP        756  8.95                             151    0.3610 76.4  41 
 PAM  EN ES        756 26.32                             151    0.4710 76.4  41 
 PAM  EZ I         756 30.31       109.1 0.48            154           76.4  41 
 RUS  HZ EP        756 10.20                             143   -0.1310  103 176 
 RUS  HE ES        756 28.70                             143   -0.2410  103 176 
 RUS  HZ I         756 30.06       142.7 0.32            146            103 176 
 PTB  HZ EP        756 12.63                             132   -0.74 9  147 258 
 PTB  HN ES        756 34.09                             132   -0.26 9  147 258 
 PTB  HZ I         756 39.43       153.9 0.42            131            147 258 
 TAM  HZ EP        756 14.31                             130    0.07 9  156 106 
 TAM  HN ES        756 35.73                             130   -0.17 9  156 106 
 TAM  HZ I         756 39.37        56.6 0.26            135            156 106 
 OCA  HZ EP        756 14.32                             130   -0.24 9  158 353 
 OCA  HN ES        756 36.25                             130   -0.23 9  158 353 
 OCA  HZ I         756 42.18       497.3 0.24            131            158 353 
 SPBC HZ EP        756 14.93                             129   -0.11 9  164 218 
 SPBC HN ES        756 37.32                             129    0.01 9  164 218 
 SPBC HZ I         756 40.07       291.7 0.28            129            164 218 
 ZAR  HZ EP        756 18.82                             122    0.08 9  203 292 
 ZAR  HE ES        756 44.05                             122    0.14 9  203 292 
 ZAR  HZ I         756 51.34       272.6 0.30            122            203 292 
 NOR  HZ EP        756 21.91                             118   -0.32 8  235 234 
 NOR  HN ES        756 49.40                             118   -0.72 8  235 234 
 NOR  HZ I         756 58.09       118.3 0.32            119            235 234 
 CHI  HZ EP        756 24.13                             117   -0.20 8  250 195 
 CHI  HE ES        756 53.82                             117   -0.03 8  250 195 
 CHI  HZ I         757  3.32        56.0 0.42            118            250 195 
 ROSC BZ EP   9    756 25.77                             116    1.07 0  254 211 
 ROSC BN ES        756 54.83                                   -0.76 8  254 211 
 ROSC BZ I         756 59.83       150.5 0.45            118            254 211 
 HEL  HZ EP   4    756 27.83                             115    1.20 0  272 255 
 HEL  HE ES        756 58.56                             115    0.61 8  272 255 
 HEL  HZ I         757  5.51        64.1 0.26            115            272 255 
 URE  HZ EP   4    756 26.10                             113   -1.26 0  282 292 
 URE  HN ES   4    756 56.90                             113   -2.35 0  282 292 
 URE  HZ I         757 10.37       121.9 0.24            114            282 292 
 GUY2CHZ EP        756 31.13                             112    1.02 7  302 234 
 GUY2CHE ES        757  5.35                             112    1.20 7  302 234 
 GUY2CHZ I         757 14.96        58.9 0.30                           302 234 
 PTGC HZ IP   4 D  756 28.99                             111   -1.56 0  311 159 
 PTGC HN ES   4    757  2.33                             111   -2.60 0  311 159 
 PTGC HZ I         757  5.01        50.7 0.42            113            311 159 
 ELA  HZ EP   4    756 34.59                             110    1.21 0  330 229 
 ELA  HN ES   4    757 11.94                             110    1.98 0  330 229 
 ELA  HZ I         757 18.39        67.9 0.62            111            330 229 
 CBOC HZ EP        756 33.69                             110    0.34 7  333 252 
 CBOC HN ES        757  9.31                             110   -0.60 7  333 252 
 CBOC HZ I         757 22.76        27.1 0.50            110            333 252 
 ARGC HZ EP        756 36.16                             108    0.29 6  357 340 
 ARGC HE ES        757 13.46                             108   -0.94 6  357 340 
 ARGC HZ I         757 27.13        21.8 0.24            109            357 340 
 ANIL HZ EP   4    756 37.28                             108    0.93 0  358 224 
 ANIL HE ES   4    757 17.01                             108    1.75 0  358 224 
 PAL  HZ EP        756 41.60                             106   -0.05 6  406 239 
 PAL  HN ES   4    757 22.55                             106   -2.14 0  406 239 
 PAL  HZ I         757 31.40        25.4 0.24            107            406 239 
                                                                                
