 2014  3 2 0752 23.4 L   6.803 -73.148141.4  RSN 14 0.6 1.8LRSN                1
 GAP= 71        1.40       3.6     3.8  7.2 -0.2224E+01  0.6576E+01  0.3228E+00E
 Epicentro: LOS SANTOS - SANTANDER                                             3
 OLDACT:REG 14-03-02 08:26 OP:stll STATUS:               ID:20140302074805     3
 ACTION:UPD 14-04-09 23:13 OP:nd   STATUS:               ID:20140302075223 L   I
 OLDACT:UP  14-03-02 12:58 OP:stll STATUS:               ID:20140302074805     3
 2014-03-02-0748-05M.COL___229                                                 6
 STAT SP IPHASW D HRMM SECON CODA AMPLIT PERI AZIMU VELO AIN AR TRES W  DIS CAZ7
 BAR2 SZ EP        752 42.92                             170    0.4310 23.6 189 
 BAR2 SZ ES        752 57.43                             170    0.0410 23.6 189 
 BAR2 SZ I         753  0.58        20.3 1.06            169           23.6 189 
 PAM  SZ EP        752 45.73                             150    0.6110 77.2  40 
 PAM  SN ES        753  2.78                             150    0.7010 77.2  40 
 PAM  SZ I         753  4.87         8.2 0.32            154           77.2  40 
 RUS  HZ EP        752 46.78                             143    0.0510  101 176 
 RUS  HN ES        753  4.54                             143   -0.4010  101 176 
 RUS  SZ I         753  6.91         3.9 1.58            144            101 176 
 PTB  HZ EP        752 49.82                             131   -0.16 9  148 259 
 PTB  HN ES        753 10.15                             131   -0.58 9  148 259 
 PTB  SZ I         753 16.45         7.7 0.56            133            148 259 
 TAM  HZ EP        752 50.75                             129    0.01 9  155 105 
 TAM  HN ES        753 11.79                             129   -0.29 9  155 105 
 TAM  SZ I         753 17.37        10.4 2.24            133            155 105 
 OCA  HN ES        753 12.75                             129   -0.36 9  160 353 
 SPBC HZ EP        752 52.03                             128    0.48 9  163 219 
 SPBC HN ES        753 13.71                             128    0.17 9  163 219 
 SPBC SZ I         753 18.93         9.2 0.42            130            163 219 
 ZAR  HN ES        753 21.42                             121    0.85 9  204 292 
 NOR  HZ EP        752 58.72                             118   -0.14 8  235 234 
 NOR  HE ES        753 26.17                             118   -0.36 8  235 234 
 NOR  SZ I         753 32.57         4.4 0.20            120            235 234 
 SML  HZ EP        752 59.10                             117   -0.61 8  243 335 
 SML  HN ES        753 27.49                             117   -0.57 8  243 335 
 SML  SZ I         753 32.58         9.7 0.10            119            243 335 
 CHI  HZ EP        753  1.16                             116    0.29 8  249 195 
 CHI  HN ES        753 29.46                             116   -0.65 8  249 195 
 CHI  SZ I         753 35.40         7.1 2.74            118            249 195 
 HEL  HZ EP        753  4.48                             114    1.13 8  272 256 
 HEL  HE ES        753 33.06                             114   -1.48 8  272 256 
 HEL  SZ I         753 39.05         3.7 2.14            116            272 256 
 SOCV BZ EP        753  5.01                             111   -1.21 7  301  57 
 GUY2CHZ EP        753  7.54                             111    0.75 7  301 235 
 GUY2CHN ES        753 41.25                             111    0.60 7  301 235 
 GUY2CSZ I         753 51.43         4.8 2.90                           301 235 
                                                                                
