 2014  4 2 0752 24.6 L   6.809 -73.160146.1  RSN  8 0.3 1.5LRSN                1
 GAP=134        0.63       3.1     3.2  5.7 -0.2002E+01  0.3839E+01  0.5306E+01E
 Epicentro: LOS SANTOS - SANTANDER                                             3
 ACTION:UPD 14-05-13 23:05 OP:nd   STATUS:               ID:20140402075224 L   I
 OLDACT:UP  14-04-02 15:18 OP:cam  STATUS:               ID:20140402074814     3
 OLDACT:REG 14-04-02 14:33 OP:cam  STATUS:               ID:20140402074814     3
 2014-04-02-0748-14M.COL___246                                                 6
 STAT SP IPHASW D HRMM SECON CODA AMPLIT PERI AZIMU VELO AIN AR TRES W  DIS CAZ7
 PAM  SZ EP        752 46.93                             151    0.1110 77.6  41 
 PAM  SN ES        753  4.28                             151    0.1010 77.6  41 
 PAM  SZ I         753  5.21         4.9 0.16            159           77.6  41 
 RUS  HZ EP   1    752 48.47                             144    0.06 7  102 175 
 RUS  HN ES   1    753  6.44                             144   -0.58 7  102 175 
 RUS  HZ I         753  9.52         2.4 0.36            145            102 175 
 PTB  HZ EP        752 51.14                             132   -0.28 9  146 258 
 PTB  HN ES        753 12.28                             132   -0.10 9  146 258 
 PTB  HZ I         753 19.46         6.4 0.50            134            146 258 
 SPBC HZ EP        752 53.12                             129    0.07 9  163 218 
 SPBC HE ES   1    753 16.09                             129    0.81 7  163 218 
 SPBC HZ I         753 20.89         7.7 0.12            131            163 218 
 ZAR  HN ES   1    753 21.95                             123   -0.06 6  202 292 
 CHI  HZ EP        753  2.22                             117   -0.10 8  249 195 
 CHI  HN ES   1    753 31.93                             117    0.15 6  249 195 
 CHI  HZ I         753 39.28         1.5 0.38            120            249 195 
 HEL  HE ES   4    753 36.45                             115    0.54 0  271 256 
 GUY2CHZ EP   1    753  8.30                             112    0.21 5  300 234 
 GUY2CHN ES   4    753 43.98                             112    1.92 0  300 234 
 GUY2CHZ I         753 50.77         2.3 0.28                           300 234 
 PRA  HN ES   2    753 59.41                             106   -0.44 3  392 209 
                                                                                
