 2010  8 2 0024 39.7 L   6.417 -73.659109.8  RSN 15 0.5 2.7LRSN                1
 GAP=113        1.13       3.9     6.1  8.9 -0.1065E+02  0.2248E+02  0.2040E+01E
 Epicentro: SANTA HELENA DEL OPON - SANTANDER                                  3
 ACTION:UP  10-09-07 10:51 OP:vdl  STATUS:               ID:20100802002439 L   I
 2010-08-02-0021-52S.COL___123                                                 6
 STAT SP IPHASW D HRMM SECON CODA AMPLIT PERI AZIMU VELO SNR AR TRES W  DIS CAZ7
 BAR2 SZ IP        024 56.47                             151     0.010   56  70 
 BAR2 SZ ES   1    025  8.96                             151    -0.6 7   56  70 
 BAR2 SZ I         025 10.39       230.5 0.16                            56  70 
 BRR  HZ EP        024 57.48                             142    -0.110   77 356 
 BRR  HZ I         025  5.81        81.6 0.11                            77 356 
 BRR  HN ES   1    025 11.85                             142     0.4 7   77 356 
 GIR2 SZ EP   1    024 58.89                             138     0.2 7   89  35 
 GUE  SZ EP        025  8.46                             117     1.0 9  176  27 
 GRA  SZ IP        025  7.74                             115    -0.8 9  188  30 
 GRA  SZ ES   1    025 30.54                             115    -0.4 7  188  30 
 GRA  SZ I         025 34.08        49.1 0.36                           188  30 
 ROSC BZ EP        025  9.77                             115     0.8 9  189 203 
 ROSC BN ES   2    025 31.64                             115    -0.1 4  189 203 
 CHI  HZ EP   2    025  9.43                             114    -0.5 4  198 182 
 CHI  HE ES   1    025 33.22                             114    -0.3 6  198 182 
 OCA  SZ EP        025 10.50                             113     0.1 9  205  11 
 OCA  SZ I         025 41.49       114.2 0.34                           205  11 
 HEL  HZ EP        025 11.38                             113     0.3 8  208 263 
 HEL  HE ES   2    025 35.06                             113    -0.5 4  208 263 
 HEL  HZ I         025 38.87        53.7 0.23                           208 263 
 CVER SZ EP   2    025 12.37                             112     0.5 4  215 192 
 CVER SZ I         025 40.12        47.0 0.39                           215 192 
 RREF HZ EP        025 16.25                             108    -0.1 8  251 228 
 RREF HE ES   2    025 45.09                             108     0.3 4  251 228 
 RREF HZ I         025 51.02        27.0 0.31                           251 228 
 ANIL HZ EP        025 20.17                             105     0.0 7  288 222 
 ANIL HZ I         026  1.00        40.6 0.21                           288 222 
 DBB  SZ EP   1    025 19.97                             105    -0.1 5  290 283 
 PRA  HZ EP        025 23.99                             102    -0.7 7  328 205 
 PRA  HE ES   2    025 59.50                             102    -0.2 3  328 205 
 PRA  HZ I         026  3.29        24.2 0.58                           328 205 
 MON  HZ EP   1    025 25.37                             102    -0.8 5  341 320 
 MON  HZ I         025 25.71        10.5 0.15                           341 320 
 MON  HE ES   2    026  1.88                             102    -0.6 3  341 320 
                                                                                
