 2012  7 2 0329  8.9 L   5.956 -73.804107.4  RSN 13 0.4 2.3LRSN                1
 GAP= 63        0.89       2.9     2.9  7.1 -0.3416E+00  0.4001E+01  0.2241E+01E
 Epicentro: GUAVATA - SANTANDER                                                3
 ACTION:UPD 12-08-14 11:41 OP:ep   STATUS:               ID:20120702032908 L   I
 2012-07-02-0327-59S.COL___215                                                 6
 STAT SP IPHASW D HRMM SECON CODA AMPLIT PERI AZIMU VELO AIN AR TRES W  DIS CAZ7
 RUS  HZ IP     D  329 27.32                             141    -0.110   80  95 
 RUS  HZ I         329 27.82        69.6 0.30            139             80  95 
 RUS  HN ES   1    329 41.51                             141    -0.4 7   80  95 
 PTB  HZ EP   1    329 27.36                             135    -0.8 7   97 312 
 PTB  HN ES   1    329 42.95                             135    -0.2 7   97 312 
 PTB  HZ I         329 44.95        21.7 0.15            135             97 312 
 BAR2 SZ IP        329 28.86                             134     0.310   98  44 
 BAR2 SZ ES   1    329 44.20                             134     0.2 7   98  44 
 NOR  SZ EP   1    329 30.48                             126    -0.4 7  126 250 
 NOR  SN ES   1    329 48.58                             126     0.6 7  126 250 
 BRR  HZ EP        329 31.03                             126     0.010  128   5 
 BRR  HE ES   1    329 48.79                             126     0.5 7  128   5 
 BRR  HZ I         329 52.45        59.2 0.12            128            128   5 
 CHI  HZ EP   1    329 33.19                             122    -0.3 7  147 177 
 CHI  HZ I         329 57.26        23.5 0.36            117            147 177 
 YOP  SZ EP   1    329 35.50                             118     0.3 7  167 113 
 YOP  SN ES   1    329 56.42                             118     0.6 7  167 113 
 YOP  SZ I         329 57.99        31.7 0.34            115            167 113 
 HEL  HZ EP   1    329 38.84                             114     0.5 7  193 278 
 PAM  SZ EP   1    329 38.88                             114     0.0 6  196  39 
 PAM  SN ES   1    330  1.32                             114    -0.9 6  196  39 
 ZAR  HZ EP   1    329 39.15                             112    -0.3 6  206 326 
 ZAR  HN ES   1    330  3.16                             112     0.0 6  206 326 
 OCA  HZ EP   1    329 45.73                             107     0.1 6  258  12 
 OCA  HN ES   1    330 14.45                             107     0.2 6  258  12 
 PRA  HZ EP   1    329 47.08                             105    -0.4 6  275 206 
 PRA  HN ES   1    330 17.54                             105     0.0 6  275 206 
 DBB  SZ EP   1    329 50.09                             104     0.7 5  291 294 
