 2017  3 2 0330 56.2 L   6.788 -73.097151.0  RSN  4 0.1 0.9LRSN                1
 GAP=143        0.31       3.7     4.5  6.5  0.5167E-01 -0.8048E+01 -0.5694E+01E
 Epicentro: LOS SANTOS - SANTANDER                                             3
 ACTION:UPD 17-05-25 18:34 OP:jn   STATUS:               ID:20170302033056 L   I
 OLDACT:UP  17-03-02 15:23 OP:and  STATUS:               ID:20170302031902     3
 OLDACT:UP  17-03-02 15:23 OP:and  STATUS:               ID:20170302031902     3
 OLDACT:UP  17-03-02 15:22 OP:and  STATUS:               ID:20170302031902     3
 OLDACT:UP  17-03-02 15:22 OP:and  STATUS:               ID:20170302031902     3
 OLDACT:REG 17-03-02 12:40 OP:and  STATUS:               ID:20170302031902     3
 2017-03-02-0328-00M.COL___390                                                 6
 STAT SP IPHASW D HRMM SECON CODA AMPLIT PERI AZIMU VELO AIN AR TRES W  DIS CAZ7
 PAM  EZ EP        331 18.86                             152   -0.0010 75.1  36 
 PAM  EZ I         331 51.45         3.1 0.26             47           75.1  36 
 BRR  HE EP   2    331 18.41                             152    0.17 5 76.6 297 
 BRR  HZ ES   2    331 35.33                             152   -0.08 5 76.6 297 
 RUS  HZ EP   2    331 20.25                             145   -0.13 5 99.1 179 
 RUS  HN ES   2    331 39.31                             145    0.08 5 99.1 179 
 RUS  HZ I         331 39.50         0.6 0.20             47           99.1 179 
 PTB  HZ EP   2    331 24.05                             132   -0.02 5  153 260 
 PTB  HN ES   4    331 43.72                             132   -2.08 0  153 260 
 PTB  HZ I         331 44.94         0.8 0.22             47            153 260 
                                                                                
