 2012  9 2 0403 33.1 L   6.754 -73.139142.0  RSN  6 0.4 1.4LRSN                1
 GAP=139        0.65       4.9     5.1  7.1 -0.3503E+01  0.1962E+01 -0.8711E+01E
 Epicentro: LOS SANTOS - SANTANDER                                             3
 ACTION:UPD 12-10-22 14:16 OP:ep   STATUS:               ID:20120902040333 L   I
 2012-09-02-0400-00M.COL___218                                                 6
 STAT SP IPHASW D HRMM SECON CODA AMPLIT PERI AZIMU VELO AIN AR TRES W  DIS CAZ7
 BAR2 SZ ES   1    4 4  6.73                             172   -0.33 7 18.5 195 
 BAR2 SZ I         4 4  9.10         9.7 0.28                          18.5 195 
 GIR2 SZ EP   3    4 3 52.20                             165   -0.26 2 36.4 351 
 BRR  HZ EP        4 3 54.17                             150    0.1610 74.4 302 
 BRR  HZ I         4 3 55.98         9.7 0.54                          74.4 302 
 BRR  HN ES   1    4 4 10.70                             150    0.37 7 74.4 302 
 PAM  SZ EP        4 3 55.31                             149    0.1910 80.9  37 
 PAM  SN ES   1    4 4 11.87                             149   -0.44 7 80.9  37 
 PAM  SZ I         4 4 14.33         5.2 0.66                          80.9  37 
 RUS  HZ EP   3    4 3 56.21                             144    0.12 2 95.5 176 
 RUS  HN ES   1    4 4 14.24                             144    0.20 7 95.5 176 
 RUS  HZ I         4 4 15.58         1.5 0.36                          95.5 176 
 PTB  HZ EP   3    4 3 58.71                             131   -1.01 2  148 261 
 PTB  HN ES   2    4 4 19.69                             131   -0.82 5  148 261 
                                                                                
