 2013  1 2 0734 36.5 L   6.808 -73.155147.0  RSN  6 0.4 1.9LRSN                1
 GAP=237        0.92       5.2     6.0  6.6  0.1691E+02  0.7906E+01  0.8409E+01E
 Epicentro: LOS SANTOS - SANTANDER                                             3
 ACTION:UPD 13-02-15 09:11 OP:ep   STATUS:               ID:20130102073436 L   I
 2013-01-02-0730-00M.COL___242                                                 6
 STAT SP IPHASW D HRMM SECON CODA AMPLIT PERI AZIMU VELO AIN AR TRES W  DIS CAZ7
 BAR2 SZ EP        734 56.12                             170   -0.2110 24.1 187 
 BAR2 SZ ES        735 11.56                             170   -0.2110 24.1 187 
 BAR2 SZ I         735 12.68        10.9 0.40            166           24.1 187 
 BRR  HZ EP        734 58.00                             153    0.2510 69.8 298 
 BRR  HN ES        735 14.93                             153    0.6510 69.8 298 
 BRR  HN I         735 15.36        20.9 0.28            153           69.8 298 
 RUS  HZ EP        735  0.59                             144    0.1110  102 175 
 RUS  HN ES        735 18.85                             144   -0.3110  102 175 
 RUS  HN I         735 20.90        11.4 0.42            142            102 175 
 PTB  HZ EP        735  3.00                             132   -0.53 9  147 258 
 PTB  HN ES        735 24.27                             132   -0.31 9  147 258 
 PTB  HN I         735 26.44         9.9 0.26            132            147 258 
 ZAR  HN ES        735 34.12                             123   -0.07 9  203 292 
 CHI  HZ EP        735 14.60                             117    0.23 8  249 195 
 CHI  HN ES        735 44.47                             117    0.59 8  249 195 
 CHI  HN I         735 48.99         5.2 0.22            117            249 195 
                                                                                
