 2011  2 2 0910 48.8 L   6.812 -73.388130.0  RSN  4 0.4 1.4LRSN                1
 GAP=174        0.68       6.3    21.7 12.1 -0.7814E+02  0.1332E+03 -0.2198E+02E
 Epicentro: SAN VICENTE DE CHUCURI - SANTANDER                                 3
 ACTION:UP  11-03-28 15:05 OP:jfem STATUS:               ID:20110202091048 L   I
 2011-02-02-0907-41S.COL___135                                                 6
 STAT SP IPHASW D HRMM SECON CODA AMPLIT PERI AZIMU VELO SNR AR TRES W  DIS CAZ7
 BAR2 SZ EP   1    911  6.33                             165    -0.5 7   33 137 
 BAR2 SZ I         911  6.87         7.2 0.10                            33 137 
 BAR2 SZ ES   2    911 21.18                             165     0.3 5   33 137 
 GRA  SZ EP   1    911 13.56                             131     0.0 7  135  29 
 GRA  SZ ES   1    911 32.93                             131     0.1 7  135  29 
 GRA  SZ I         911 36.22         3.9 0.20                           135  29 
 OCA  SZ EP   2    911 15.63                             126    -0.1 5  158   3 
 OCA  SZ ES   2    911 36.80                             126     0.1 5  158   3 
 OCA  SZ I         911 41.64         5.5 0.60                           158   3 
 CHI  HZ EP   2    911 26.01                             114     0.8 4  244 189 
 CHI  HZ I         911 56.05         0.9 0.34                           244 189 
                                                                                
