 2012  1 2 0439 21.1 L   6.799 -73.145147.3  RSN  7 0.3 1.6LRSN                1
 GAP=137        0.56       3.2     3.4  4.7  0.1045E+01  0.3673E+01  0.5352E+00E
 Epicentro: LOS SANTOS - SANTANDER                                             3
 ACTION:UP  12-02-03 08:13 OP:REBC STATUS:               ID:20120102043921 L   I
 2012-01-02-0439-00S.MAN___179                                                 6
 STAT SP IPHASW D HRMM SECON CODA AMPLIT PERI AZIMU VELO SNR AR TRES W  DIS CAZ7
 BAR2 SZ EP        439 40.79                             171    -0.110   23 190 
 BAR2 SZ ES   1    439 56.46                             171     0.1 7   23 190 
 BAR2 SZ I         440  0.07         6.4 0.46                            23 190 
 BRR  HZ EP        439 42.56                             153     0.210   71 299 
 BRR  HZ I         439 44.82        13.7 0.11                            71 299 
 BRR  HE ES   1    439 59.44                             153     0.4 7   71 299 
 PAM  SZ EP        439 43.60                             151     0.110   77  39 
 PAM  SN ES   1    440  0.63                             151    -0.3 7   77  39 
 RUS  HZ EP   1    439 44.94                             144     0.0 7  100 176 
 RUS  HE ES   1    440  3.45                             144    -0.2 7  100 176 
 RUS  HZ I         440  5.01         4.3 0.35                           100 176 
 PTB  HZ EP   1    439 47.94                             132    -0.2 7  148 259 
 PTB  HN ES   2    440  8.73                             132    -0.6 5  148 259 
 ZAR  HZ EP   1    439 53.51                             123    -0.1 6  204 292 
 ZAR  HN ES   1    440 18.97                             123    -0.1 6  204 292 
 ZAR  HZ I         440 24.96         6.3 0.35                           204 292 
 CHI  HZ EP   2    439 59.30                             117     0.4 4  249 195 
 CHI  HE ES   2    440 28.84                             117     0.5 4  249 195 
 CHI  HZ I         440 35.70         1.5 0.37                           249 195 
                                                                                
