 2017 12 2 0625 34.7 L   6.818 -73.167146.6  RSN 19 0.7 2.0LRSN                1
 GAP= 64        1.37       3.0     3.5  6.4  0.3563E+00  0.5926E+01  0.1186E+00E
 Epicentro: LOS SANTOS - SANTANDER                                             3
 ACTION:UPD 18-01-04 13:16 OP:rebc STATUS:               ID:20171202062534 L   I
 OLDACT:REG 17-12-02 12:29 OP:dhb  STATUS:               ID:20171202061741     3
 2017-12-02-0618-00M.COL___477                                                 6
 STAT SP IPHASW D HRMM SECON CODA AMPLIT PERI AZIMU VELO AIN AR TRES W  DIS CAZ7
 BAR2 EZ EP        625 54.31                             170   -0.1610 25.0 184 
 BAR2 EZ ES        626  9.53                             170   -0.3610 25.0 184 
 BAR2 EZ I         626 12.09        36.1 0.30            168           25.0 184 
 PAM  EZ IP     C  625 57.28                             151    0.2710 77.4  42 
 PAM  EN ES        626 14.36                             151   -0.0610 77.4  42 
 PAM  EZ I         626 17.37        14.3 0.30            142           77.4  42 
 RUS  HZ IP     C  625 58.29                             143   -0.4010  103 175 
 RUS  HN ES        626 17.19                             143   -0.2110  103 175 
 RUS  HZ I         626 18.22        19.2 0.36            136            103 175 
 PTB  HZ EP        626  0.82                             133   -0.75 9  146 258 
 PTB  HE ES        626 22.87                             133    0.35 9  146 258 
 PTB  HZ I         626 27.23         7.5 0.44            125            146 258 
 OCA  HZ EP        626  2.83                             130   -0.05 9  158 354 
 OCA  HN ES        626 25.03                             130    0.18 9  158 354 
 OCA  HZ I         626 28.08        28.2 0.20            121            158 354 
 TAM  HZ IP     D  626  2.75                             130    0.04 9  158 105 
 TAM  HE ES        626 24.51                             130   -0.04 9  158 105 
 TAM  HZ I         626 30.16         7.3 0.48            121            158 105 
 SPBC HZ EP        626  3.24                             129   -0.03 9  163 218 
 SPBC HN ES        626 25.15                             129   -0.41 9  163 218 
 SPBC HZ I         626 31.50        20.9 0.18            121            163 218 
 YPLC HZ EP        626  4.55                             126   -0.29 9  180 151 
 YPLC HE ES        626 29.41                             126    1.07 9  180 151 
 YPLC HZ I         626 29.73        16.4 0.21            118            180 151 
 ZAR  HZ EP        626  7.39                             123    0.48 9  201 292 
 ZAR  HN ES        626 32.57                             123    0.55 9  201 292 
 ZAR  HZ I         626 37.49         9.3 0.26            115            201 292 
 NOR  HZ EP        626 10.41                             119    0.01 8  234 234 
 NOR  HN ES        626 38.26                             119    0.02 8  234 234 
 NOR  HZ I         626 43.50         7.5 0.34            111            234 234 
 CHI  HZ EP        626 12.60                             117    0.01 8  250 195 
 CHI  HE ES        626 42.22                             117    0.08 8  250 195 
 CHI  HZ I         626 48.08         5.3 0.32            110            250 195 
 URE  HE ES        626 45.69                             114   -1.61 7  281 292 
 URE  HZ I         626 57.99         5.6 0.14            107            281 292 
 DRL03HZ EP        626 16.69                             113    0.58 7  287 353 
 DRL03HE ES        626 49.34                             113    0.94 7  287 353 
 GUY2CHZ EP        626 19.68                             112    1.42 7  300 234 
 GUY2CHE ES   4    626 56.55                             112    4.31 0  300 234 
 GUY2CHZ I         627  1.02         6.4 0.26                           300 234 
 PTGC HZ EP        626 17.52                             111   -1.38 7  311 158 
 PTGC HE ES   3    626 51.12                             111   -2.26 2  311 158 
 PTGC HZ I         626 58.40         5.0 0.40            104            311 158 
 CBOC HZ EP        626 22.45                             110    0.98 7  332 252 
 CBOC HN ES        626 57.95                             110    0.01 7  332 252 
 CBOC HZ I         627 11.88         1.9 0.24            103            332 252 
 PRA  HZ EP        626 28.35                             107    0.03 6  393 209 
 PRA  HE ES        627 11.39                             107    1.25 6  393 209 
 PRA  HZ I         627 17.54         3.8 0.22            100            393 209 
 ORTC HZ EP   2    626 27.97                             106   -0.71 3  396 216 
 ORTC HZ I         627 18.22         3.5 0.36            100            396 216 
 SJC  HZ EP        626 28.41                             106   -1.54 6  406 327 
 SJC  HE ES     C  627 12.55                             106   -0.49 6  406 327 
 SJC  HZ I         627 15.19         1.6 0.56            100            406 327 
                                                                                
