 2013  9 2 0741 29.7 L   6.808 -73.137147.1  RSN 15 0.4 2.8LRSN                1
 GAP= 71        1.05       2.6     3.0  5.0 -0.4068E+00  0.3092E+01  0.5945E-01E
 Epicentro: LOS SANTOS - SANTANDER                                             3
 ACTION:UPD 13-10-22 09:19 OP:ep   STATUS:               ID:20130902074129 L   I
 OLDACT:UP  13-09-02 11:10 OP:cam  STATUS:               ID:20130902073959     3
 OLDACT:REG 13-09-02 08:16 OP:cam  STATUS:               ID:20130902073959     3
 2013-09-02-0739-59M.COL___269                                                 6
 STAT SP IPHASW D HRMM SECON CODA AMPLIT PERI AZIMU VELO AIN AR TRES W  DIS CAZ7
 BAR2 SZ EP     C  741 49.51                             170   -0.0110 24.4 192 
 BAR2 SZ ES        742  4.85                             170   -0.1210 24.4 192 
 BAR2 SZ I         742  6.60        84.0 0.19            171           24.4 192 
 BRR  HZ EP     C  741 51.42                             153    0.4010 71.6 298 
 BRR  HN ES        742  8.12                             153    0.4710 71.6 298 
 BRR  HZ I         742 12.31       104.3 0.10            148           71.6 298 
 PAM  SZ EP        741 52.40                             151    0.4110 76.1  39 
 PAM  SN ES        742  9.31                             151   -0.0510 76.1  39 
 PAM  SZ I         742 11.18       196.5 0.52            150           76.1  39 
 RUS  HZ EP        741 52.86                             144   -0.7910  101 177 
 RUS  HN ES        742 11.84                             144   -0.4810  101 177 
 RUS  HZ I         742 13.53        63.8 0.38            144            101 177 
 PTB  HZ EP        741 56.43                             132   -0.45 9  149 259 
 PTB  HE ES        742 18.18                             132    0.10 9  149 259 
 PTB  HZ I         742 20.52        73.0 0.20            129            149 259 
 TAM  HZ IP     D  741 57.86                             131    0.44 9  154 105 
 TAM  HZ I         741 57.86       165.8 0.20            131            154 105 
 TAM  HE ES        742 19.63                             131    0.58 9  154 105 
 OCA  HZ EP        741 57.82                             130   -0.23 9  159 353 
 OCA  HN ES        742 19.38                             130   -0.77 9  159 353 
 OCA  HZ I         742 23.48       100.3 0.20            127            159 353 
 SPBC HZ EP        741 58.46                             129    0.03 9  164 219 
 SPBC HE ES        742 20.68                             129   -0.15 9  164 219 
 SPBC HZ I         742 25.98        76.9 0.24            127            164 219 
 ZAR  HZ EP        742  2.45                             123    0.16 9  205 292 
 ZAR  HN ES        742 28.38                             123    0.67 9  205 292 
 ZAR  HZ I         742 33.64        70.2 0.28            119            205 292 
 NOR  HZ EP        742  6.11                             119    0.46 8  236 234 
 NOR  HN ES        742 33.31                             119   -0.38 8  236 234 
 NOR  HZ I         742 35.28        28.4 0.14            117            236 234 
 SML  HZ EP        742  5.84                             118   -0.52 8  243 335 
 SML  HE ES        742 35.14                             118    0.19 8  243 335 
 SML  HZ I         742 37.56        70.9 0.10            115            243 335 
 CHI  HZ EP        742  7.83                             117    0.23 8  250 195 
 CHI  HZ I         742 10.71        15.9 0.36            116            250 195 
 CHI  HN ES        742 36.96                             117   -0.19 8  250 195 
 HEL  HZ EP   1    742 10.75                             115    0.64 6  273 256 
 HEL  HE ES        742 41.66                             115    0.03 8  273 256 
 HEL  HZ I         742 49.77        22.0 0.42            113            273 256 
 ORTC HZ EP   1    742 24.64                             106    0.82 4  397 216 
 SJC  HZ EP        742 24.24                             106   -1.04 6  409 327 
 SJC  HZ I         743  9.20        23.9 0.52            104            409 327 
                                                                                
