 2012 12 2 0008 39.4 L   6.783 -73.173138.8  RSN  8 0.2 2.3LRSN                1
 GAP= 70        0.48       2.4     2.2  3.4 -0.1417E+00  0.9577E+00  0.2469E+00E
 Epicentro: LOS SANTOS - SANTANDER                                             3
 ACTION:UPD 13-01-04 14:25 OP:ep   STATUS:               ID:20121202000839 L   I
 2012-12-02-0000-00M.COL___236                                                 6
 STAT SP IPHASW D HRMM SECON CODA AMPLIT PERI AZIMU VELO AIN AR TRES W  DIS CAZ7
 BAR2 SZ EP        0 8 58.23                             171    0.0410 21.1 183 
 BAR2 SZ ES        0 9 12.90                             171    0.0810 21.1 183 
 BAR2 SZ I         0 9 14.53       105.6 0.38                          21.1 183 
 GIR2 SZ EP        0 8 58.29                             166   -0.0510 32.8 356 
 PAM  SZ EP        0 9  1.36                             148    0.2210 80.7  40 
 PAM  SE ES   1    0 9 17.92                             148   -0.14 7 80.7  40 
 PAM  SZ I         0 9 20.37        31.2 0.58                          80.7  40 
 RUS  HZ EP        0 9  2.36                             143   -0.0410 98.9 174 
 RUS  HN ES   1    0 9 20.18                             143   -0.12 7 98.9 174 
 RUS  HN I         0 9 22.95        36.7 0.31                          98.9 174 
 PTB  HZ EP        0 9  5.05                             131   -0.50 9  144 259 
 PTB  HE ES   1    0 9 25.88                             131   -0.03 7  144 259 
 PTB  HZ I         0 9 28.46        17.6 0.22                           144 259 
 TAM  HZ EP        0 9  6.82                             128    0.01 9  157 104 
 ZAR  HZ EP   1    0 9 11.42                             121    0.18 6  202 293 
 ZAR  HN ES   1    0 9 36.29                             121    0.26 6  202 293 
 ZAR  HZ I         0 9 44.26        19.2 0.30                           202 293 
 CHI  HZ EP   1    0 9 16.66                             116    0.18 6  246 195 
 CHI  HN ES   1    0 9 45.60                             116    0.23 6  246 195 
                                                                                
