 2012  4 2 0034 33.3 L   6.794 -73.168142.5  RSN 15 0.4 2.7LRSN                1
 GAP=112        0.90       3.0     4.1  6.4  0.9791E+00  0.9195E+01  0.2828E+01E
 Epicentro: LOS SANTOS - SANTANDER                                             3
 ACTION:UPD 12-07-05 11:49 OP:tino STATUS:               ID:20120402003433 L   I
 2012-04-02-0030-00M.COL___196                                                 6
 STAT SP IPHASW D HRMM SECON CODA AMPLIT PERI AZIMU VELO AIN AR TRES W  DIS CAZ7
 BAR2 SZ EP        034 52.51                             171     0.010   22 184 
 BAR2 SZ ES   1    035  7.47                             171     0.0 7   22 184 
 BAR2 SZ I         035  9.30       141.6 0.22                            22 184 
 BRR  HZ EP        034 54.40                             153     0.410   69 300 
 BRR  HZ I         034 54.67       135.5 0.14                            69 300 
 PAM  SZ EP        034 55.37                             150     0.110   79  41 
 PAM  SN ES   1    035 12.37                             150    -0.1 7   79  41 
 PAM  SZ I         035 14.71        48.8 0.58                            79  41 
 RUS  HZ EP        034 56.30                             143    -0.410  100 175 
 RUS  HZ I         034 57.22        26.5 0.23                           100 175 
 RUS  HN ES   1    035 14.64                             143    -0.3 7  100 175 
 PTB  HZ EP   1    034 59.04                             132    -0.7 7  145 259 
 PTB  HN ES   1    035 20.28                             132    -0.1 7  145 259 
 PTB  HZ I         035 27.79        65.3 0.33                           145 259 
 OCA  SZ EP   1    035  1.20                             129    -0.2 7  161 354 
 OCA  SZ ES   1    035 23.62                             129     0.3 7  161 354 
 YOP  SZ EP   1    035  2.77                             125    -0.4 7  179 153 
 YOP  SZ I         035  3.69        17.0 0.41                           179 153 
 YOP  SN ES   1    035 27.29                             125     0.8 7  179 153 
 ZAR  HZ EP        035  4.97                             122    -0.4 9  202 293 
 ZAR  HE ES   1    035 30.62                             122     0.3 6  202 293 
 ZAR  HZ I         035 41.32        56.2 0.36                           202 293 
 NOR  SZ EP   1    035  8.74                             118     0.2 6  232 234 
 NOR  SN ES   1    035 36.37                             118     0.3 6  232 234 
 CHI  HZ EP   1    035 10.50                             117    -0.2 6  247 195 
 CHI  HN ES   1    035 39.49                             117    -0.3 6  247 195 
 CHI  HZ I         035 49.45        21.3 0.52                           247 195 
 ROSC BZ EP   1    035 11.87                             116     0.8 6  251 211 
 ROSC BZ I         035 48.47        39.1 0.62                           251 211 
 HEL  HZ EP   1    035 13.51                             114     0.4 6  270 256 
 HEL  HZ I         035 52.09        29.9 0.36                           270 256 
 VIL  SE ES   1    035 50.53                             111     0.4 5  302 191 
 VIL  SZ I         035 54.24        16.4 0.38                           302 191 
 DBB  SZ EP   1    035 20.13                             109    -0.2 5  337 274 
 PRA  HZ EP   1    035 26.65                             106     0.1 4  390 209 
 PRA  HZ I         036 12.73        91.1 0.42                           390 209 
                                                                                
