 2014  7 2 0112 35.6 L   6.816 -73.145145.0  RSN 22 0.5 2.8LRSN                1
 GAP= 71        1.17       3.4     3.2  5.2 -0.1314E+00  0.4998E+01  0.2125E+01E
 Epicentro: LOS SANTOS - SANTANDER                                             3
 ACTION:UPD 15-03-16 20:40 OP:nd   STATUS:               ID:20140702011235 L   I
 OLDACT:UP  14-07-02 13:54 OP:cam  STATUS:               ID:20140702011000     3
 OLDACT:UP  14-07-02 13:53 OP:cam  STATUS:               ID:20140702011000     3
 OLDACT:REG 14-07-02 13:03 OP:cam  STATUS:               ID:20140702011000     3
 2014-07-02-0110-00M.COL___279                                                 6
 STAT SP IPHASW D HRMM SECON CODA AMPLIT PERI AZIMU VELO AIN AR TRES W  DIS CAZ7
 BAR2 SZ EP        112 55.17                             170   -0.0410 25.0 189 
 BAR2 SZ ES        113  9.87                             170   -0.6110 25.0 189 
 BAR2 SZ I         113 11.11       137.3 0.14            169           25.0 189 
 BRR  HZ IP     C  112 57.03                             153    0.3710 70.5 297 
 BRR  HN ES        113 14.00                             153    0.9410 70.5 297 
 BRR  HZ I         113 17.16       124.8 0.16            151           70.5 297 
 PAM  SZ EP        112 58.00                             151    0.3110 76.0  40 
 PAM  SN ES        113 15.05                             151    0.1610 76.0  40 
 PAM  SZ I         113 17.41       108.1 0.54            154           76.0  40 
 RUS  HZ EP        112 59.20                             143   -0.2410  102 176 
 RUS  HN ES        113 17.93                             143   -0.0710  102 176 
 PTB  HZ EP        113  1.72                             132   -0.86 9  148 258 
 PTB  HN ES        113 23.03                             132   -0.56 9  148 258 
 PTB  HZ I         113 26.39        75.7 0.44            132            148 258 
 TAM  HZ IP     D  113  3.42                             130    0.13 9  155 106 
 TAM  HN ES        113 24.98                             130    0.12 9  155 106 
 SPBC HZ EP        113  4.11                             129   -0.10 9  165 219 
 SPBC HE ES        113 26.25                             129   -0.24 9  165 219 
 SPBC HZ I         113 29.44        75.1 0.14            129            165 219 
 ZAR  HZ EP        113  7.97                             122   -0.00 9  203 292 
 ZAR  HE ES        113 34.19                             122    1.00 9  203 292 
 ZAR  HZ I         113 39.75        83.2 0.28            123            203 292 
 SML  HZ EP        113 11.98                             117   -0.07 8  242 335 
 SML  HN ES        113 39.02                             117   -1.44 8  242 335 
 SML  HZ I         113 44.01        48.9 0.10            118            242 335 
 ROSC BZ EP   4    113 15.11                             116    1.23 0  254 211 
 HEL  HZ EP   4    113 17.23                             115    1.36 0  273 255 
 HEL  HN ES        113 47.18                             115   -0.06 8  273 255 
 HEL  HZ I         113 54.47        29.7 0.50            115            273 255 
 URE  HZ EP        113 16.32                             113   -0.29 7  283 292 
 GUY2CHZ EP        113 20.14                             112    0.81 7  302 235 
 GUY2CHN ES        113 53.39                             112   -0.02 7  302 235 
 GUY2CHZ I         114  1.61        36.8 0.50                           302 235 
 VIL  SZ EP        113 19.15                             112   -0.06 7  305 192 
 PTGC HZ EP   4 D  113 18.32                             111   -1.32 0  310 159 
 PTGC HE ES   4    113 51.25                             111   -2.71 0  310 159 
 PTGC HE I         113 56.12        30.2 0.38            113            310 159 
 RREF HZ EP   4    113 23.89                             111    2.01 0  323 229 
 CBOC HZ EP   4    113 23.83                             110    1.24 0  334 252 
 CBOC HN ES        113 59.25                             110    0.04 7  334 252 
 CBOC HZ I         114  1.03        11.5 0.42            110            334 252 
 DBB  SZ EP        113 23.92                             109    0.84 7  339 274 
 DBB  SZ ES   4    113 57.91                             109   -2.17 0  339 274 
 TOL  SZ EP        113 23.56                             109   -0.45 7  345 224 
 PRA  HZ EP        113 29.47                             106    0.16 6  394 209 
 PRA  HN ES        114 11.85                             106    0.68 6  394 209 
 PRA  HZ I         114 18.07        18.1 0.22            107            394 209 
 ORTC HZ EP        113 29.80                             106    0.10 6  397 216 
 ORTC HE ES   4    114 13.41                             106    1.55 0  397 216 
 ORTC HZ I         114 19.26        14.1 0.38            107            397 216 
 PAL  HZ EP   1    113 31.13                             106    0.25 4  407 239 
 SJC  HZ EP   4    113 29.27                             106   -1.74 0  408 327 
 SJC  HN ES   4    114 11.11                             106   -3.09 0  408 327 
 SJC  HZ I         114 14.23         9.6 0.68            106            408 327 
 YOT  HZ EP        113 38.67                             103   -0.13 5  473 229 
 MACC HZ EP   4    113 49.88                             101    5.35 0  522 189 
                                                                                
