 2014 11 2 0704 48.7 L   6.816 -72.968145.7  RSN  4 0.1 0.9LRSN                1
 GAP=256        0.39       3.9     3.8  4.4  0.5890E+01  0.1804E+01 -0.1050E+01E
 Epicentro: CEPITA - SANTANDER                                                 3
 ACTION:UPD 14-12-19 15:38 OP:nd   STATUS:               ID:20141102070448 L   I
 OLDACT:REG 14-11-02 13:44 OP:spq  STATUS:               ID:20141102065741     3
 2014-11-02-0657-41M.COL___271                                                 6
 STAT SP IPHASW D HRMM SECON CODA AMPLIT PERI AZIMU VELO AIN AR TRES W  DIS CAZ7
 BAR2 SZ EP   1    7 5  8.77                             166    0.23 7 34.3 224 
 BAR2 SZ ES   1    7 5 24.19                             166    0.13 7 34.3 224 
 BAR2 SZ I         7 5 26.49         2.6 0.22            170           34.3 224 
 BRR  HZ EP   1    7 5 10.65                             147   -0.19 7 88.3 291 
 BRR  HE ES        7 5 28.09                             147   -0.0610 88.3 291 
 BRR  HZ I         7 5 36.83         1.6 0.50            148           88.3 291 
 RUS  HN ES   1    7 5 31.04                             143   -0.18 7  103 187 
 RUS  HZ I         7 5 32.32         0.7 0.24            153            103 187 
 PTB  HZ EP   1    7 5 17.49                             128    0.04 7  167 260 
 PTB  HN ES        7 5 39.97                             128    0.06 9  167 260 
 PTB  HZ I         7 5 41.84         0.8 0.30            133            167 260 
                                                                                
