 2016 12 2 0258 11.6 L   6.770 -73.155147.9  RSN  7 0.5 1.8LRSN                1
 GAP=120        1.08       7.2     5.7  8.0 -0.1360E+02 -0.4854E+01  0.3071E+02E
 Epicentro: LOS SANTOS - SANTANDER                                             3
 ACTION:UPD 17-01-11 20:11 OP:rebc STATUS:               ID:20161202025811 L   I
 OLDACT:UP  16-12-02 13:56 OP:dnl  STATUS:               ID:20161202024743     3
 OLDACT:REG 16-12-02 12:24 OP:dnl  STATUS:               ID:20161202024743     3
 2016-12-02-0248-00M.COL___337                                                 6
 STAT SP IPHASW D HRMM SECON CODA AMPLIT PERI AZIMU VELO AIN AR TRES W  DIS CAZ7
 BAR2 EZ EP        258 31.50                             172    0.0610 19.9 189 
 BAR2 EZ ES        258 46.76                             172   -0.1410 19.9 189 
 BAR2 EZ I         258 49.26        16.1 0.34            171           19.9 189 
 BRR  HZ EP        258 33.33                             153    0.2910 71.9 301 
 BRR  HN ES        258 50.39                             153    0.6410 71.9 301 
 BRR  HZ I         258 54.53         9.5 0.24            150           71.9 301 
 PAM  EZ EP        258 34.40                             150    0.1510 80.6  39 
 PAM  EN ES        258 51.72                             150   -0.1810 80.6  39 
 PAM  EZ I         258 53.64        10.7 0.50            151           80.6  39 
 PTB  HZ EP        258 38.18                             133   -0.43 9  146 260 
 PTB  HN ES        258 58.93                             133   -0.74 9  146 260 
 PTB  HZ I         259  4.42         5.7 0.44            131            146 260 
 PTGC HZ EP        258 54.69                             112   -0.58 7  306 158 
 PTGC HN ES   4    259 27.11                             112   -2.20 0  306 158 
 PTGC HZ I         259 36.81         4.6 0.50            111            306 158 
 PRA  HZ EP        259  5.38                             107    0.56 6  389 210 
 PRA  HN ES        259 47.19                             107    0.87 6  389 210 
 PRA  HZ I         259 51.70         2.9 0.36            106            389 210 
 SJC  HZ EP   4    259  5.04                             106   -2.46 0  411 327 
 SJC  HN ES   4    259 40.63                             106   -10.5 0  411 327 
 SJC  HZ I         259 59.62         1.4 0.46            105            411 327 
                                                                                
