 2013  9 2 0611 23.1 L   6.765 -73.147147.6  RSN  6 0.3 1.6LRSN                1
 GAP=235        0.82       4.7     5.0  6.0  0.7765E+01  0.4504E+01  0.2038E+01E
 Epicentro: LOS SANTOS - SANTANDER                                             3
 ACTION:UPD 13-10-22 09:19 OP:ep   STATUS:               ID:20130902061123 L   I
 OLDACT:UP  13-09-02 09:48 OP:cam  STATUS:               ID:20130902060959     3
 OLDACT:REG 13-09-02 08:04 OP:cam  STATUS:               ID:20130902060959     3
 2013-09-02-0609-59M.COL___269                                                 6
 STAT SP IPHASW D HRMM SECON CODA AMPLIT PERI AZIMU VELO AIN AR TRES W  DIS CAZ7
 BAR2 SZ EP        611 42.73                             172   -0.1210 19.5 191 
 BAR2 SZ ES        611 58.33                             172    0.0510 19.5 191 
 BAR2 SZ I         611 59.84         7.0 0.20            167           19.5 191 
 BRR  HZ EP        611 44.53                             152    0.0210 72.9 301 
 BRR  HN ES        612  1.32                             152    0.0810 72.9 301 
 BRR  HZ I         612  1.65         7.5 0.10            149           72.9 301 
 RUS  HZ EP        611 46.87                             145    0.1410 96.8 176 
 RUS  HN ES        612  5.12                             145   -0.0710 96.8 176 
 RUS  HZ I         612  6.59         3.4 0.30            143           96.8 176 
 PTB  HZ EP        611 49.62                             133   -0.48 9  147 260 
 PTB  HZ I         611 51.87         3.7 0.20            130            147 260 
 PTB  HN ES        612 10.59                             133   -0.61 9  147 260 
 SPBC HZ EP        611 51.78                             130    0.36 9  160 220 
 SPBC HN ES        612 13.83                             130    0.30 9  160 220 
 SPBC HZ I         612 20.12         4.7 0.14            128            160 220 
 OCA  HN ES   4    612 12.45                             129   -1.90 0  164 353 
 ZAR  HZ EP   4    611 57.28                             123    1.51 0  205 293 
 ZAR  HN ES   1    612 22.01                             123    0.74 6  205 293 
 ZAR  HZ I         612 26.39         5.9 0.44            122            205 293 
                                                                                
