 2010  5 2 0930 12.8 L   6.811 -73.015142.0  RSN 13 0.4 1.8LRSN                1
 GAP=149        0.87       4.7     7.5  5.8 -0.2058E+02 -0.8266E+01  0.6254E+01E
 Epicentro: CEPITA - SANTANDER                                                 3
 ACTION:UP  10-08-24 10:02 OP:vdl  STATUS:               ID:20100502093012 L   I
 2010-05-02-0927-51S.COL___105                                                 6
 STAT SP IPHASW D HRMM SECON CODA AMPLIT PERI AZIMU VELO SNR AR TRES W  DIS CAZ7
 BAR2 SZ EP   1    930 32.03                             167    -0.2 7   31 218 
 BAR2 SZ ES   1    930 46.69                             167    -0.6 7   31 218 
 GIR2 SZ EP   1    930 32.09                             165    -0.1 7   36 326 
 GIR2 SZ ES   1    930 47.39                             165     0.1 7   36 326 
 BRR  HZ IP        930 34.47                             147     0.110   84 293 
 BRR  HE ES   1    930 51.14                             147     0.0 7   84 293 
 BRR  HZ I         930 53.07        10.8 0.15                            84 293 
 BRI  SZ IP        930 36.42                             142     0.510  103  13 
 BRI  SZ ES   1    930 54.59                             142     0.6 7  103  13 
 GUE  SZ IP        930 36.89                             139    -0.110  113   5 
 GRA  SZ IP        930 37.65                             137     0.310  121  11 
 GRA  SZ ES   1    930 56.32                             137    -0.2 7  121  11 
 OCA  SZ EP        930 40.41                             128    -0.6 9  161 348 
 OCA  SZ ES   1    931  2.44                             128    -0.5 7  161 348 
 OCA  SZ I         931  7.35        12.2 0.31                           161 348 
 CHI  HZ EP   2    930 50.50                             116    -0.4 4  254 198 
 CHI  HN ES   2    931 21.47                             116     0.8 4  254 198 
 CHI  HZ I         931 25.00         2.3 0.15                           254 198 
 HEL  HZ EP   2    930 55.34                             113     0.9 4  286 256 
 HEL  HZ I         931 32.87         3.6 0.59                           286 256 
 RREF BZ EP   1    931  0.64                             109     0.4 5  334 231 
 RREF BN ES   2    931 37.74                             109     0.6 3  334 231 
 RREF BZ I         931 46.76         4.3 0.50                           334 231 
 SDV  BZ EP   1    931  0.96                             108    -0.4 5  349  49 
 SDV  BZ I         931 40.30         1.4 0.53                           349  49 
 TOL  SZ EP   3    931  2.48                             108     0.2 2  355 226 
 PRA  HZ EP   2    931  6.28                             105    -0.9 3  400 211 
 PRA  HN ES   2    931 48.67                             105    -1.0 3  400 211 
 PRA  HZ I         931 53.89         3.1 0.31                           400 211 
                                                                                
