 2017 10 2 0350 59.0 L   6.817 -73.116153.2  RSN  6 0.3 1.4LRSN                1
 GAP=247        0.71       3.8     4.5  5.3  0.4992E+01  0.6669E+01  0.5924E-03E
 Epicentro: LOS SANTOS - SANTANDER                                             3
 ACTION:UPD 17-11-07 19:27 OP:rebc STATUS:               ID:20171002035059 L   I
 OLDACT:UP  17-10-02 16:49 OP:osc  STATUS:               ID:20171002034738     3
 OLDACT:REG 17-10-02 13:48 OP:osc  STATUS:               ID:20171002034738     3
 2017-10-02-0348-00M.COL___405                                                 6
 STAT SP IPHASW D HRMM SECON CODA AMPLIT PERI AZIMU VELO AIN AR TRES W  DIS CAZ7
 BAR2 EZ EP        351 19.83                             170    0.2610 25.9 197 
 BAR2 EZ ES        351 35.72                             170    0.1010 25.9 197 
 BAR2 EZ I         351 36.40         5.7 0.36            167           25.9 197 
 RUS  HZ EP        351 23.72                             145    0.1210  102 178 
 RUS  HN ES        351 42.50                             145   -0.2910  102 178 
 RUS  HZ I         351 43.34         1.9 0.40            146            102 178 
 ZAR  HZ EP        351 32.07                             124   -0.11 8  206 291 
 ZAR  HE ES        351 57.77                             124   -0.29 8  206 291 
 ZAR  HZ I         352  4.26         3.0 0.34            123            206 291 
 NOR  HZ EP        351 35.89                             120    0.32 8  238 235 
 NOR  HE ES        352  4.46                             120    0.37 8  238 235 
 NOR  HZ I         352 10.02         2.0 0.14            119            238 235 
 CHI  HZ EP        351 37.23                             118   -0.17 8  251 196 
 CHI  HN ES        352  6.98                             118   -0.38 8  251 196 
 GUY2CHZ EP   9    351 45.17                             113    1.79 0  305 235 
 GUY2CHE ES        352 20.45                             113    0.66 7  305 235 
 GUY2CHZ I         352 27.05         1.3 0.34                           305 235 
                                                                                
