 2016 10 2 0553 46.5 L   5.720 -73.854101.4  RSN  4 0.2 1.4LRSN                1
 GAP=246        0.47       4.3     2.8  7.9  0.5299E+01  0.4624E+01 -0.4611E+01E
 Epicentro: ALBANIA - SANTANDER                                                3
 ACTION:UPD 16-11-09 19:15 OP:rebc STATUS:               ID:20161002055346 L   I
 OLDACT:REG 16-10-02 13:04 OP:dnl  STATUS:               ID:20161002054743     3
 2016-10-02-0548-00M.COL___375                                                 6
 STAT SP IPHASW D HRMM SECON CODA AMPLIT PERI AZIMU VELO AIN AR TRES W  DIS CAZ7
 RUS  HZ EP   2    554  5.54                             136    0.44 5 87.5  77 
 RUS  HE ES        554 19.55                             136   -0.0410 87.5  77 
 PTB  HZ EP   2    554  6.48                             128   -0.25 5  112 324 
 PTB  HN ES        554 22.53                             128    0.0510  112 324 
 PTB  HZ I         554 25.62         2.8 0.42            129            112 324 
 BAR2 EZ EP   2    554  8.25                             125    0.32 5  122  38 
 BAR2 EZ ES        554 24.44                             125   -0.1810  122  38 
 BAR2 EZ I         554 25.62         8.4 0.22            129            122  38 
 BRR  HZ EP   2    554 10.53                             118   -0.45 5  154   6 
 BRR  HN ES        554 30.20                             118    0.15 9  154   6 
 BRR  HZ I         554 31.73         3.4 0.16            121            154   6 
                                                                                
