 2016  1 2 0954 12.7 L   6.852 -73.155145.9  RSN 10 0.5 1.9LRSN                1
 GAP=193        1.25       4.1     6.3  7.3 -0.8892E+01  0.8103E+01 -0.1026E+01E
 Epicentro: LOS SANTOS - SANTANDER                                             3
 ACTION:UPD 16-03-09 23:22 OP:cam  STATUS:               ID:20160102095412 L   I
 OLDACT:REG 16-01-02 12:44 OP:drio STATUS:               ID:20160102094749     3
 2016-01-02-0947-49M.COL___318                                                 6
 STAT SP IPHASW D HRMM SECON CODA AMPLIT PERI AZIMU VELO AIN AR TRES W  DIS CAZ7
 BAR2 EZ EP        954 32.24                             168   -0.1810 28.8 186 
 BAR2 EZ ES        954 47.50                             168   -0.3410 28.8 186 
 BAR2 EZ I         954 49.34         8.9 0.16            167           28.8 186 
 BRR  HZ EP        954 34.05                             154    0.4310 67.7 295 
 BRR  HN ES        954 50.80                             154    0.8310 67.7 295 
 BRR  HZ I         954 51.59        13.0 0.14            150           67.7 295 
 PTB  HZ EP        954 39.07                             132   -0.57 9  148 257 
 PTB  HN ES        954 59.97                             132   -0.73 9  148 257 
 PTB  HZ I         955  4.86        11.3 0.12            131            148 257 
 OCA  HZ EP        954 40.43                             131   -0.00 9  154 353 
 OCA  HE ES        955  2.45                             131    0.35 9  154 353 
 OCA  HZ I         955  6.62        11.5 0.54            131            154 353 
 SPBC HZ EP        954 41.14                             128   -0.38 9  167 217 
 SPBC HN ES        955  4.26                             128    0.22 9  167 217 
 SPBC HZ I         955 10.37         8.9 0.28            129            167 217 
 ZAR  HZ EP        954 45.50                             123    0.71 9  201 291 
 ZAR  HN ES        955  9.42                             123   -0.43 9  201 291 
 ZAR  HZ I         955 16.37         7.3 0.30            122            201 291 
 NOR  HZ EP        954 49.03                             118    0.37 8  237 233 
 NOR  HE ES        955 16.09                             118   -0.65 8  237 233 
 NOR  HZ I         955 24.27         4.0 0.18            119            237 233 
 SML  HZ EP        954 48.06                             118   -0.62 8  238 335 
 SML  HN ES        955 16.20                             118   -0.58 8  238 335 
 SML  HZ I         955 21.96         7.7 0.24            119            238 335 
 HEL  HN ES        955 24.98                             115    0.66 8  272 255 
 HEL  HZ I         955 30.54         4.1 0.58            115            272 255 
 GUY2CHZ EP        954 57.34                             112    0.79 7  304 234 
 GUY2CHN ES        955 31.18                             112    0.40 7  304 234 
 GUY2CHZ I         955 40.31         3.0 0.36                           304 234 
                                                                                
