 2011  9 2 0831 40.6 L   6.845 -72.974145.4  RSN  7 0.3 1.7LRSN                1
 GAP=200        0.48       4.1     6.8  5.9  0.1218E+02 -0.8686E+01  0.5118E+00E
 Epicentro: CEPITA - SANTANDER                                                 3
 ACTION:UPD 12-07-13 15:55 OP:ep   STATUS:               ID:20110902083140 L   I
 2011-09-02-0827-07S.COL___168                                                 6
 STAT SP IPHASW D HRMM SECON CODA AMPLIT PERI AZIMU VELO AIN AR TRES W  DIS CAZ7
 GIR2 SZ EP   2    832  0.84                             166    0.53 5 35.5 317 
 BAR2 SZ EP   1    832  0.76                             166    0.28 7 36.2 220 
 BAR2 SZ I         832  1.39        10.5 0.37                          36.2 220 
 BAR2 SZ ES   2    832 15.81                             166   -0.20 5 36.2 220 
 BRR  HZ EP   1    832  2.45                             148   -0.16 7 86.5 290 
 BRR  HZ I         832  2.85        13.9 0.15                          86.5 290 
 BRR  HE ES   1    832 19.52                             148   -0.29 7 86.5 290 
 RUS  HZ EP   2    832  4.62                             142   -0.06 5  106 187 
 RUS  HZ I         832  5.54         4.1 0.35                           106 187 
 RUS  HN ES   2    832 23.74                             142    0.26 5  106 187 
 OCA  SZ EP   2    832  8.67                             130   -0.04 5  159 346 
 OCA  SZ I         832 36.13         4.7 0.33                           159 346 
 ZAR  HN ES   2    832 41.68                             120    0.43 4  220 289 
 ZAR  HZ I         832 44.10         5.4 0.27                           220 289 
 CHI  HZ EP   1    832 18.97                             116   -0.40 6  259 199 
 CHI  HN ES   2    832 49.82                             116    0.19 4  259 199 
 CHI  HZ I         832 51.70         2.5 0.26                           259 199 
                                                                                
