 2010  9 2 0414 57.9 L   7.403 -73.115126.0  RSN  8 0.2 2.0LRSN                1
 GAP=146        0.48       2.2     4.4  4.3 -0.2570E+01 -0.4993E+00  0.2301E+01E
 Epicentro: MATANZA - SANTANDER                                                3
 ACTION:UP  11-02-18 10:59 OP:tino STATUS:               ID:20100902041458 L   I
 2010-09-02-0412-43S.COL___120                                                 6
 STAT SP IPHASW D HRMM SECON CODA AMPLIT PERI AZIMU VELO SNR AR TRES W  DIS CAZ7
 GRA  SZ IP        415 16.48                             151    -0.210   63  33 
 GRA  SZ ES   1    415 31.46                             151     0.1 7   63  33 
 GRA  SZ I         415 33.47        63.6 0.36                            63  33 
 BRR  HZ IP     D  415 16.84                             148    -0.310   74 244 
 BRR  HN ES   1    415 31.97                             148    -0.1 7   74 244 
 BRR  HZ I         415 33.55        67.1 0.07                            74 244 
 BAR2 SZ IP        415 18.70                             142     0.110   90 185 
 BAR2 SZ ES   1    415 34.88                             142     0.2 7   90 185 
 OCA  SZ EP        415 18.83                             140     0.010   95 346 
 OCA  SZ ES   1    415 35.51                             140     0.3 7   95 346 
 OCA  SZ I         415 37.64        17.6 0.16                            95 346 
 RUS  HZ EP   1    415 25.76                             123    -0.1 7  167 179 
 RUS  HN ES   2    415 47.73                             123     0.0 5  167 179 
 RUS  HZ I         415 48.94         6.4 0.30                           167 179 
 HEL  HZ EP   2    415 40.80                             108     0.6 4  299 243 
 HEL  HZ I         416 21.53         3.7 0.22                           299 243 
 CHI  HZ EP   2    415 42.30                             107     0.2 3  314 193 
 CHI  HZ I         416 23.30         2.5 0.34                           314 193 
 PRA  HZ EP   2    415 58.21                             100     0.2 2  453 206 
 PRA  HN ES   2    416 45.33                             100     0.4 2  453 206 
                                                                                
