 2012  6 2 0510 21.3 L   6.551 -73.570104.0  RSN  8 0.5 2.3LRSN                1
 GAP= 89        1.01       5.0     4.2 10.2 -0.4425E+01  0.1846E+02 -0.1781E+02E
 Epicentro: EL CARMEN DE CHUCURI - SANTANDER                                   3
 ACTION:UPD 12-08-06 17:46 OP:ep   STATUS:               ID:20120602051020 L   I
 2012-06-02-0510-00M.COL___201                                                 6
 STAT SP IPHASW D HRMM SECON CODA AMPLIT PERI AZIMU VELO AIN AR TRES W  DIS CAZ7
 BAR2 SZ IP        510 37.04                             156    0.3310 43.1  84 
 BAR2 SZ ES   1    510 48.91                             156    0.18 7 43.1  84 
 BAR2 SZ I         510 50.91       146.3 0.44            155           43.1  84 
 RUS  HZ EP   1    510 40.57                             136    0.23 7 90.5 143 
 RUS  HN ES   1    510 55.51                             136    0.30 7 90.5 143 
 PTB  HZ EP        510 39.86                             133   -0.4910 98.1 269 
 PTB  HN ES   1    510 54.72                             133   -0.50 7 98.1 269 
 PTB  HZ I         510 56.11        14.6 0.20            135           98.1 269 
 PAM  SZ EP   2    510 43.08                             125   -0.92 5  130  48 
 ZAR  HZ EP   1    510 49.06                             115    0.75 7  176 306 
 ZAR  HN ES   2    511 10.06                             115    0.67 4  176 306 
 ZAR  HZ I         511 13.50        20.0 0.24            116            176 306 
 NOR  SE ES   1    511  9.53                             115   -0.79 7  181 233 
 OCA  HZ EP   1    510 49.14                             113   -0.73 7  189   8 
 OCA  HN ES   1    511 12.10                             113   -0.06 7  189   8 
 OCA  HZ I         511 20.00        28.9 0.16            114            189   8 
 HEL  HZ EP   1    510 54.25                             110    0.52 6  220 260 
 HEL  HN ES   1    511 19.73                             110    0.69 6  220 260 
                                                                                
