 2016 11 2 0526 43.9 L   6.852 -73.103135.6  RSN  7 0.5 1.8LRSN                1
 GAP=280        0.95       6.0    14.6 16.6  0.3700E+02 -0.1771E+03 -0.2117E+02E
 Epicentro: LOS SANTOS - SANTANDER                                             3
 ACTION:UPD 17-10-26 21:03 OP:lp   STATUS:               ID:20161102051740 L   I
 OLDACT:UP  16-11-02 16:21 OP:dani STATUS:               ID:20161102051740 L   3
 OLDACT:UP  16-11-02 16:21 OP:dani STATUS:               ID:20161102051740 L   3
 OLDACT:UP  16-11-02 16:20 OP:dani STATUS:               ID:20161102051740 L   3
 OLDACT:UPD 16-11-02 13:22 OP:dnl  STATUS:               ID:20161102051740 L   3
 2016-11-02-0518-00M.COL___343                                                 6
 STAT SP IPHASW D HRMM SECON CODA AMPLIT PERI AZIMU VELO AIN AR TRES W  DIS CAZ7
 PTB  HZ EP        527 10.07                             128   -0.5610  154 257 
 PTB  HN ES        527 31.09                             128   -0.3710  154 257 
 PTB  HZ I         527 38.21         6.7 0.48            132            154 257 
 SPBC HZ EP        527 12.39                             125   -0.0010  171 219 
 SPBC HE ES        527 35.14                             125    0.5410  171 219 
 SPBC HZ I         527 41.34        10.9 0.26            128            171 219 
 ZAR  HE ES        527 41.42                             120    0.46 9  206 290 
 NOR  HZ EP        527 19.82                             115   -0.05 9  242 234 
 NOR  HE ES        527 47.50                             115   -0.41 9  242 234 
 NOR  HZ I         527 52.16         4.3 0.23            120            242 234 
 ROSC BZ EP   3    527 23.63                             114    1.31 2  260 211 
 ROSC BN ES        527 52.24                             114   -0.04 8  260 211 
 ROSC BZ I         528  1.61         4.7 0.35            118            260 211 
 GUY2CHZ EP        527 28.82                             110    0.92 8  308 234 
 GUY2CHE ES   4    528  6.52                             110    4.31 0  308 234 
 GUY2CHZ I         528  9.46         3.1 0.28                           308 234 
 PRA  HZ EP        527 37.41                             104   -0.56 6  399 210 
 PRA  HN ES     D  528 20.19                             104    0.05 6  399 210 
 PRA  HZ I         528 25.97         1.8 0.48            108            399 210 
                                                                                
