 2016 10 2 0510 53.5 L   6.748 -73.099141.4  RSN  6 0.4 1.5LRSN                1
 GAP=239        0.90       4.9     5.4  6.5  0.1083E+02  0.6397E+01  0.1036E+01E
 Epicentro: LOS SANTOS - SANTANDER                                             3
 ACTION:UPD 16-11-09 19:15 OP:rebc STATUS:               ID:20161002051053 L   I
 OLDACT:REG 16-10-02 13:02 OP:dnl  STATUS:               ID:20161002050747     3
 2016-10-02-0508-00M.COL___375                                                 6
 STAT SP IPHASW D HRMM SECON CODA AMPLIT PERI AZIMU VELO AIN AR TRES W  DIS CAZ7
 BAR2 EZ IP     C  511 12.71                             172    0.2310 19.6 208 
 BAR2 EZ ES        511 27.05                             172   -0.2710 19.6 208 
 BAR2 EZ I         511 28.47         9.2 0.18            170           19.6 208 
 BRR  HZ EP        511 14.61                             149    0.0410 78.5 300 
 BRR  HN ES        511 31.40                             149    0.3610 78.5 300 
 BRR  HZ I         511 35.49         5.6 0.12            150           78.5 300 
 RUS  HZ EP        511 16.74                             145    0.4010 94.6 179 
 RUS  HN ES        511 33.80                             145   -0.4010 94.6 179 
 RUS  HZ I         511 35.94         2.8 0.22            146           94.6 179 
 PTB  HZ EP        511 19.61                             130   -0.84 9  152 261 
 PTB  HE ES        511 41.57                             130    0.07 9  152 261 
 PTB  HZ I         511 42.69         5.3 0.16            131            152 261 
 SPBC HZ EP        511 21.69                             128    0.17 9  162 222 
 SPBC HN ES        511 43.75                             128    0.34 9  162 222 
 SPBC HZ I         511 47.16         3.1 0.10            130            162 222 
 ZAR  HZ EP   2    511 26.28                             120   -0.06 4  211 293 
 ZAR  HN ES        511 51.83                             120   -0.17 8  211 293 
 ZAR  HZ I         511 53.21         2.6 0.28            122            211 293 
                                                                                
