 2013  6 2 0706 13.1 L   6.793 -73.148143.7  RSN 13 0.4 2.2LRSN                1
 GAP=137        1.02       3.3     4.5  5.2 -0.3832E+01  0.7355E+01  0.1559E+01E
 Epicentro: LOS SANTOS - SANTANDER                                             3
 ACTION:UPD 14-01-08 09:51 OP:ep   STATUS:               ID:20130602070613 L   I
 2013-06-02-0704-50M.COL___219                                                 6
 STAT SP IPHASW D HRMM SECON CODA AMPLIT PERI AZIMU VELO AIN AR TRES W  DIS CAZ7
 BAR2 SZ IP     C  7 6 32.55                             171    0.0510 22.6 190 
 BAR2 SZ ES        7 6 47.30                             171   -0.3010 22.6 190 
 BAR2 SZ I         7 6 50.35        40.5 0.26            169           22.6 190 
 GIR2 SZ EP        7 6 32.65                             167    0.0710 31.9 351 
 GIR2 SZ ES        7 6 47.36                             167   -0.3810 31.9 351 
 GIR2 SZ I         7 6 49.16        19.2 0.64            166           31.9 351 
 BRR  HZ IP     C  7 6 34.40                             152    0.3410 71.3 299 
 BRR  HN ES        7 6 51.25                             152    0.8610 71.3 299 
 BRR  HZ I         7 6 55.40        26.5 0.20            150           71.3 299 
 PAM  SZ IP     D  7 6 35.51                             150    0.3410 78.1  39 
 PAM  SN ES        7 6 52.48                             150    0.1210 78.1  39 
 PAM  SZ I         7 6 55.06        20.5 0.48            155           78.1  39 
 RUS  HZ EP        7 6 36.51                             144   -0.1210 99.9 176 
 RUS  HN ES        7 6 55.00                             144    0.0410 99.9 176 
 RUS  HZ I         7 6 56.45        14.1 0.40            145           99.9 176 
 PTB  HZ EP        7 6 39.33                             132   -0.56 9  147 259 
 PTB  HN ES        7 7  0.25                             132   -0.52 9  147 259 
 PTB  HZ I         7 7  2.91        19.6 0.16            131            147 259 
 OCA  HZ EP   2    7 6 40.71                             129   -0.63 5  161 353 
 OCA  HN ES        7 7  3.12                             129   -0.23 9  161 353 
 OCA  HZ I         7 7  6.15        13.0 0.16            131            161 353 
 NOR  HZ EP        7 6 48.72                             118    0.05 8  234 235 
 NOR  HN ES        7 7 16.48                             118    0.08 8  234 235 
 NOR  HZ I         7 7 26.04        10.0 0.16            119            234 235 
 SML  HZ EP        7 6 48.96                             117   -0.74 8  244 335 
 SML  HN ES   2    7 7 18.75                             117    0.53 4  244 335 
 SML  HZ I         7 7 20.92        19.3 0.10            118            244 335 
 HEL  HZ EP        7 6 54.30                             114    1.11 8  272 256 
 HEL  HN ES   2    7 7 24.11                             114   -0.33 4  272 256 
 HEL  HZ I         7 7 32.87         8.1 0.36            115            272 256 
 URE  HZ EP   4    7 6 53.16                             113   -0.94 0  284 292 
 URE  HN ES   4    7 7 23.58                             113   -2.48 0  284 292 
 URE  HZ I         7 7 25.59        11.9 0.10            114            284 292 
 GUY2CHZ EP   4    7 6 57.61                             112    1.04 0  301 235 
 GUY2CHN ES   4    7 7 35.11                             112    4.65 0  301 235 
 GUY2CHZ I         7 7 38.77        10.0 0.36                           301 235 
 PRA  HZ EP        7 7  6.35                             106   -0.14 6  391 210 
 PRA  HN ES        7 7 48.13                             106    0.02 6  391 210 
 PRA  HZ I         7 7 54.84         9.9 0.38            107            391 210 
                                                                                
