 2011 12 2 0203 19.8 L   7.371 -73.158130.0  RSN  4 0.1 1.8LRSN                1
 GAP=209        0.35       3.0     2.8  4.0 -0.3901E+00 -0.5038E+00  0.1835E+00E
 Epicentro: RIONEGRO - SANTANDER                                               3
 ACTION:UPD 12-07-13 16:13 OP:ep   STATUS:               ID:20111202020319 L   I
 2011-12-02-0200-00M.COL___170                                                 6
 STAT SP IPHASW D HRMM SECON CODA AMPLIT PERI AZIMU VELO AIN AR TRES W  DIS CAZ7
 PAM  SZ EP   1    2 3 39.04                             158    0.21 7 50.8  94 
 PAM  SN ES   1    2 3 53.56                             158   -0.14 7 50.8  94 
 BRR  HZ EP        2 3 38.95                             151   -0.0710 67.7 245 
 BRR  HN ES        2 3 54.06                             151    0.0210 67.7 245 
 BRR  HZ I         2 3 55.78        14.7 0.11                          67.7 245 
 BAR2 SZ EP   1    2 3 40.51                             144   -0.06 7 86.2 182 
 BAR2 SZ ES   1    2 3 56.92                             144    0.13 7 86.2 182 
 BAR2 SZ I         2 3 58.51        12.6 0.12                          86.2 182 
 RUS  HE ES   1    2 4  9.39                             125   -0.07 7  164 177 
                                                                                
