 2012  1 2 0600 43.6 L   6.768 -73.128146.0  RSN  6 0.1 1.3LRSN                1
 GAP=140        0.32       3.1     3.0  4.1  0.3053E+01 -0.2396E+01 -0.1635E+01E
 Epicentro: LOS SANTOS - SANTANDER                                             3
 ACTION:UP  12-02-03 08:13 OP:REBC STATUS:               ID:20120102060043 L   I
 2012-01-02-0600-00M.COL___186                                                 6
 STAT SP IPHASW D HRMM SECON CODA AMPLIT PERI AZIMU VELO SNR AR TRES W  DIS CAZ7
 BAR2 SZ ES   2    6 1 18.57                             172     0.1 5   20 197 
 BRR  HZ EP        6 1  4.85                             151    -0.110   75 300 
 BRR  HE ES   1    6 1 21.62                             151     0.0 7   75 300 
 BRR  HZ I         6 1 26.20         5.6 0.11                            75 300 
 PAM  SZ EP   1    6 1  5.97                             150     0.1 7   79  37 
 RUS  HZ EP   1    6 1  7.01                             145    -0.1 7   97 177 
 RUS  HE ES   2    6 1 25.44                             145     0.0 5   97 177 
 RUS  HZ I         6 1 26.71         2.3 0.43                            97 177 
 PTB  HZ EP   2    6 1 11.03                             132     0.4 5  149 260 
 PTB  HE ES   2    6 1 31.79                             132     0.0 5  149 260 
 ZAR  HN ES   2    6 1 41.89                             122     0.0 4  207 293 
                                                                                
