 2016  5 2 0503 47.2 L   6.795 -73.138146.0  RSN  9 0.5 1.5LRSN                1
 GAP=138        1.12       4.0     5.0  8.1 -0.4197E+01  0.1566E+02  0.6810E-01E
 Epicentro: LOS SANTOS - SANTANDER                                             3
 ACTION:UPD 16-08-18 17:41 OP:cam  STATUS:               ID:20160502050347 L   I
 OLDACT:REG 16-05-02 14:56 OP:edw  STATUS:               ID:20160502045746     3
 2016-05-02-0457-46M.COL___283                                                 6
 STAT SP IPHASW D HRMM SECON CODA AMPLIT PERI AZIMU VELO AIN AR TRES W  DIS CAZ7
 BAR2 EZ EP        5 4  7.17                             171    0.3210 23.0 192 
 BAR2 EZ ES        5 4 22.24                             171    0.0610 23.0 192 
 BAR2 EZ I         5 4 24.35         8.3 0.18            166           23.0 192 
 PAM  EZ EP        5 4 10.13                             151    0.7010 77.2  39 
 PAM  EN ES        5 4 26.83                             151    0.0610 77.2  39 
 PAM  EZ I         5 4 29.39         5.6 0.48            145           77.2  39 
 RUS  HZ EP        5 4 10.21                             144   -0.7310  100 177 
 RUS  HE ES        5 4 29.56                             144    0.1110  100 177 
 RUS  HZ I         5 4 31.59         2.4 0.18            135            100 177 
 PTB  HZ EP        5 4 13.86                             132   -0.40 9  149 259 
 PTB  HN ES        5 4 34.75                             132   -0.61 9  149 259 
 PTB  HZ I         5 4 39.24         3.0 0.09            122            149 259 
 OCA  HN ES        5 4 37.08                             129   -0.65 9  161 353 
 OCA  HZ I         5 4 40.44         6.5 0.30            121            161 353 
 SPBC HZ EP        5 4 15.99                             129    0.26 9  163 219 
 SPBC HN ES        5 4 37.84                             129   -0.15 9  163 219 
 SPBC HZ I         5 4 44.99         4.8 0.09            119            163 219 
 ZAR  HZ EP   2    5 4 19.83                             122    0.06 4  205 292 
 ZAR  HN ES        5 4 45.94                             122    0.77 9  205 292 
 HEL  HZ EP   2    5 4 26.82                             115   -0.69 4  273 256 
 HEL  HZ I         5 5  5.72         2.1 0.48            107            273 256 
 GUY2CHZ EP   2    5 4 30.89                             112    0.02 4  302 235 
 GUY2CHN ES        5 5  5.57                             112    0.64 7  302 235 
 GUY2CHZ I         5 5 13.59         1.8 0.40                           302 235 
                                                                                
