 2011  7 2 0406  0.5 L   6.788 -73.064137.5  RSN  9 0.3 1.8LRSN                1
 GAP=165        0.66       3.1     6.1  6.9 -0.3427E+01 -0.8016E+01 -0.3600E+01E
 Epicentro: LOS SANTOS - SANTANDER                                             3
 ACTION:UPD 12-07-25 13:57 OP:epov STATUS:               ID:20110702040600 L   I
 2011-07-02-0400-00M.COL___124                                                 6
 STAT SP IPHASW D HRMM SECON CODA AMPLIT PERI AZIMU VELO AIN AR TRES W  DIS CAZ7
 BAR2 SZ ES   2    4 6 33.92                             169    0.19 5 25.3 211 
 BAR2 SZ I         4 6 34.92        23.1 0.30                          25.3 211 
 BTL  SZ EP        4 6 19.47                             168    0.2710 26.8 303 
 GIR2 SZ EP        4 6 19.45                             165    0.1610 35.2 336 
 BRR  HZ EP        4 6 21.06                             148   -0.2210 79.9 296 
 BRR  HZ I         4 6 21.51        21.2 0.12                          79.9 296 
 BRR  HN ES   1    4 6 37.89                             148    0.39 7 79.9 296 
 RUS  HZ EP   1    4 6 23.05                             142   -0.26 7 99.0 181 
 RUS  HN ES   1    4 6 40.80                             142   -0.31 7 99.0 181 
 RUS  HZ I         4 6 42.38         6.7 0.27                          99.0 181 
 BRI  SZ EP   1    4 6 23.78                             140    0.31 7  107  16 
 GRA  SZ EP        4 6 25.14                             135    0.2310  125  13 
 GRA  SZ ES   1    4 6 43.64                             135   -0.31 7  125  13 
 GRA  SZ I         4 6 47.11         5.0 0.49                           125  13 
 OCA  SZ EP   1    4 6 28.36                             127   -0.06 7  163 350 
 OCA  SZ ES   1    4 6 49.53                             127   -0.68 7  163 350 
 OCA  SZ I         4 6 53.90         8.8 0.25                           163 350 
 NOR  SE ES   2    4 7  4.34                             116   -0.21 4  241 236 
                                                                                
