 2015  5 2 0703 55.5 L   6.847 -73.139141.9  RSN  8 0.4 1.7LRSN                1
 GAP=101        0.97       3.7     4.4  5.8  0.4725E+01  0.1119E+01 -0.3276E+01E
 Epicentro: LOS SANTOS - SANTANDER                                             3
 ACTION:UPD 15-09-10 22:00 OP:cam  STATUS:               ID:20150502070355 L   I
 OLDACT:UP  15-05-06 07:11 OP:AK   STATUS:               ID:20150502070355 L   3
 OLDACT:REG 15-05-02 13:15 OP:stll STATUS:               ID:20150502065740     3
 2015-05-02-0657-40M.COL___276                                                 6
 STAT SP IPHASW D HRMM SECON CODA AMPLIT PERI AZIMU VELO AIN AR TRES W  DIS CAZ7
 BAR2 EZ EP        7 4 14.70                             168   -0.1210 28.5 190 
 BAR2 EZ ES        7 4 29.27                             168   -0.5910 28.5 190 
 BAR2 EZ I         7 4 30.66         6.0 0.18            170           28.5 190 
 BRR  HZ EP        7 4 16.55                             152    0.3810 69.5 294 
 BRR  HZ I         7 4 16.70         7.5 0.24            151           69.5 294 
 BRR  HN ES        7 4 32.94                             152    0.6810 69.5 294 
 PAM  SZ EP        7 4 17.58                             151    0.5010 73.0  42 
 PAM  SN ES        7 4 34.00                             151    0.1210 73.0  42 
 PAM  SZ I         7 4 36.65        10.4 0.62            152           73.0  42 
 RUS  HZ EP        7 4 19.06                             142   -0.2310  106 177 
 RUS  HN ES   1    7 4 37.78                             142   -0.03 7  106 177 
 OCA  HZ EP        7 4 23.25                             130    0.18 9  155 353 
 OCA  HN ES        7 4 44.02                             130   -0.52 9  155 353 
 OCA  HZ I         7 4 47.94        11.1 0.34            129            155 353 
 TAM  HZ EP        7 4 22.97                             129   -0.00 9  156 107 
 TAM  HZ I         7 4 23.10         9.5 0.20            132            156 107 
 ZAR  HZ EP        7 4 27.89                             122    0.29 9  203 291 
 ZAR  HN ES        7 4 52.26                             122   -0.36 9  203 291 
 ZAR  HZ I         7 4 59.49         4.6 0.50            121            203 291 
 SML  HZ EP        7 4 30.90                             117   -0.57 8  239 335 
 SML  HZ I         7 4 34.50         3.8 0.26            117            239 335 
 SML  HE ES        7 4 59.45                             117   -0.05 8  239 335 
                                                                                
