 2014  9 2 0723 30.2 L   6.768 -73.153149.9  RSN  9 0.5 1.7LRSN                1
 GAP=137        1.05       4.1     5.3  8.0 -0.1659E+01  0.4540E+01 -0.5418E+01E
 Epicentro: LOS SANTOS - SANTANDER                                             3
 ACTION:UPD 14-10-03 23:01 OP:nd   STATUS:               ID:20140902072330 L   I
 OLDACT:UP  14-09-02 17:35 OP:mh   STATUS:               ID:20140902071816d    3
 OLDACT:DUP 14-09-02 17:25 OP:mh   STATUS:               ID:20140902071816d    3
 2014-09-02-0718-15M.COL___260                                                 6
 STAT SP IPHASW D HRMM SECON CODA AMPLIT PERI AZIMU VELO AIN AR TRES W  DIS CAZ7
 BRR  HZ EP        723 51.95                             153    0.1510 72.3 301 
 BRR  HN ES        724  9.00                             153    0.3110 72.3 301 
 BRR  HZ I         724 13.61         8.4 0.22            151           72.3 301 
 PAM  SZ EP        723 53.49                             150    0.4910 80.7  38 
 PAM  SN ES   1    724 10.13                             150   -0.69 7 80.7  38 
 PAM  SZ I         724 12.45         5.3 0.19            155           80.7  38 
 RUS  HZ EP        723 53.32                             146   -0.7410 97.1 175 
 RUS  HN ES        724 13.08                             146    0.3710 97.1 175 
 RUS  HZ I         724 14.78         2.0 0.15            150           97.1 175 
 PTB  HZ EP        723 57.93                             133    0.60 9  146 260 
 PTB  HN ES        724 18.43                             133   -0.09 9  146 260 
 PTB  HZ I         724 21.39         5.7 0.13            134            146 260 
 SPBC HZ EP   1    723 59.12                             131    0.46 7  160 220 
 SPBC HN ES        724 20.45                             131   -0.45 9  160 220 
 SPBC HZ I         724 27.29         8.1 0.05            133            160 220 
 OCA  HN ES   4    724 19.73                             130   -1.96 0  164 354 
 OCA  HZ I         724 24.76         6.2 0.19            133            164 354 
 ZAR  HZ EP   1    724  2.41                             123   -0.52 6  205 293 
 ZAR  HN ES   4    724 29.70                             123    1.20 0  205 293 
 ZAR  HZ I         724 35.63         4.6 0.20            125            205 293 
 SML  HZ EP   1    724  7.27                             118   -0.06 6  247 336 
 SML  HN ES        724 36.04                             118   -0.28 8  247 336 
 SML  HZ I         724 38.77         6.3 0.13            120            247 336 
 HEL  HN ES   2    724 41.30                             116   -0.48 4  270 256 
                                                                                
