 2016  8 2 0740 52.9 L   6.831 -73.132155.1  RSN  5 0.3 1.6LRSN                1
 GAP=137        0.78       3.5     4.0  6.1  0.1641E+00  0.5987E+01  0.1830E+01E
 Epicentro: LOS SANTOS - SANTANDER                                             3
 ACTION:UPD 16-10-29 15:31 OP:rebc STATUS:               ID:20160802073739 L   I
 OLDACT:UPD 16-08-02 15:21 OP:CARA STATUS:               ID:20160802073739 L   3
 2016-08-02-0738-00M.COL___341                                                 6
 STAT SP IPHASW D HRMM SECON CODA AMPLIT PERI AZIMU VELO AIN AR TRES W  DIS CAZ7
 BRR  HZ EP        741 15.30                             154    0.2410 71.0 296 
 BRR  HN ES        741 32.50                             154    0.1610 71.0 296 
 BRR  HZ I         741 33.06         9.5 0.10                          71.0 296 
 PAM  EZ EP        741 16.45                             153    0.5310 73.8  40 
 PAM  EE ES        741 33.53                             153   -0.3510 73.8  40 
 PAM  EZ I         741 35.94         6.4 0.22                          73.8  40 
 RUS  HZ EP        741 17.54                             145   -0.2710  104 177 
 RUS  HN ES        741 37.18                             145   -0.0710  104 177 
 RUS  HZ I         741 37.40         2.0 0.42                           104 177 
 SPBC HZ EP        741 22.62                             130    0.15 9  167 219 
 SPBC HN ES        741 45.58                             130    0.05 9  167 219 
 SPBC HZ I         741 47.80         6.5 0.10                           167 219 
 ZAR  HZ EP        741 25.44                             124   -0.55 9  204 291 
 ZAR  HN ES        741 51.78                             124   -0.01 9  204 291 
 ZAR  HZ I         741 57.55         3.9 0.42                           204 291 
                                                                                
