 2014  1 2 0514 48.1 L   7.297 -73.266126.3  RSN  8 0.7 1.4LRSN                1
 GAP=114        1.66       6.0     6.0 10.6  0.8102E+01  0.1924E+02 -0.1160E+02E
 Epicentro: RIONEGRO - SANTANDER                                               3
 ACTION:UPD 14-03-13 09:50 OP:ep   STATUS:               ID:20140102051448 L   I
 OLDACT:REG 14-01-02 08:28 OP:stll STATUS:               ID:20140102050818     3
 2014-01-02-0508-18M.COL___240                                                 6
 STAT SP IPHASW D HRMM SECON CODA AMPLIT PERI AZIMU VELO AIN AR TRES W  DIS CAZ7
 BRR  HZ EP        515  6.49                             156    0.2710 53.6 247 
 BRR  HZ I         515  6.59        10.6 0.12            155           53.6 247 
 BRR  HN ES        515 20.58                             156    0.2710 53.6 247 
 PAM  SZ EP        515  7.68                             152    0.2610 62.7  86 
 PAM  SN ES        515 22.77                             152    0.3210 62.7  86 
 PAM  SZ I         515 24.57         3.2 0.18            157           62.7  86 
 BAR2 SZ EP        515  8.30                             146    0.2610 78.5 173 
 BAR2 SZ ES        515 23.77                             146    0.2010 78.5 173 
 BAR2 SZ I         515 25.20        12.3 0.22            149           78.5 173 
 PTB  HZ EP        515 14.38                             126   -0.03 9  156 238 
 PTB  HN ES        515 34.57                             126   -0.32 9  156 238 
 PTB  HZ I         515 37.63         3.7 0.18            127            156 238 
 RUS  HZ EP        515 15.14                             126    0.04 9  157 173 
 RUS  HZ I         515 15.69         0.9 0.18            129            157 173 
 RUS  HN ES        515 34.73                             126   -1.40 9  157 173 
 ZAR  HZ EP        515 16.61                             122    0.07 9  177 277 
 ZAR  HN ES        515 39.67                             122    0.97 9  177 277 
 ZAR  HZ I         515 46.34         4.3 0.10            123            177 277 
 SML  HZ EP        515 17.38                             120   -0.34 9  189 332 
 SML  HN ES        515 39.51                             120   -1.29 9  189 332 
 URE  HZ EP        515 26.49                             112    1.42 8  255 282 
 URE  HN ES        515 52.94                             112   -0.94 8  255 282 
                                                                                
