 2013  2 2 0326 58.7 L   6.745 -73.170146.0  RSN  5 0.5 1.4LRSN                1
 GAP=230        1.13       9.2     8.9  8.8  0.4457E+02  0.1568E+02  0.1860E+02E
 Epicentro: VILLANUEVA - SANTANDER                                             3
 ACTION:UPD 13-03-12 09:29 OP:ep   STATUS:               ID:20130202032658 L   I
 2013-02-02-0318-49M.COL___179                                                 6
 STAT SP IPHASW D HRMM SECON CODA AMPLIT PERI AZIMU VELO AIN AR TRES W  DIS CAZ7
 BAR2 SZ EP   1    327 17.77                             173   -0.53 7 17.0 185 
 BAR2 SZ ES        327 32.84                             173   -0.7010 17.0 185 
 BAR2 SZ I         327 34.71         4.6 0.26            169           17.0 185 
 BRR  HZ EP   1    327 20.07                             152    0.10 7 72.0 304 
 BRR  HN ES        327 37.27                             152    0.7510 72.0 304 
 BRR  HN I         327 41.66         6.4 0.18            150           72.0 304 
 RUS  HZ EP        327 22.26                             146    0.1510 94.8 174 
 RUS  HN ES        327 40.76                             146    0.4210 94.8 174 
 RUS  HN I         327 42.16         3.1 0.20            147           94.8 174 
 PTB  HZ EP        327 25.07                             133   -0.33 9  144 261 
 PTB  HN ES        327 45.93                             133   -0.26 9  144 261 
 PTB  HN I         327 52.10         2.6 0.22            132            144 261 
 CHI  HZ EP   1    327 36.15                             118    0.40 6  242 195 
                                                                                
