 2013 10 2 0730  6.0 L   6.799 -73.151142.4  RSN  9 0.5 2.1LRSN                1
 GAP=182        1.26       3.4     6.3  7.2  0.2986E+01  0.2731E+01 -0.2509E+01E
 Epicentro: LOS SANTOS - SANTANDER                                             3
 ACTION:UPD 13-11-25 09:18 OP:ep   STATUS:               ID:20131002073006 L   I
 OLDACT:REG 13-10-02 06:28 OP:nd   STATUS:               ID:20131002072959     3
 2013-10-02-0729-59M.COL___272                                                 6
 STAT SP IPHASW D HRMM SECON CODA AMPLIT PERI AZIMU VELO AIN AR TRES W  DIS CAZ7
 BAR2 SZ IP     D  730 25.53                             170    0.3110 23.1 189 
 BAR2 SZ ES        730 39.93                             170   -0.2810 23.1 189 
 BAR2 SZ I         730 41.66        49.3 0.24            171           23.1 189 
 BRR  HZ IP     C  730 27.38                             152    0.6210 70.8 299 
 BRR  HN ES        730 43.60                             152    0.6510 70.8 299 
 RUS  HZ EP        730 29.48                             143    0.0610  101 176 
 RUS  HN ES        730 47.67                             143   -0.0110  101 176 
 RUS  HZ I         730 50.35        14.0 0.34            145            101 176 
 PTB  HZ EP        730 32.14                             131   -0.51 9  147 259 
 PTB  HN ES        730 53.03                             131   -0.39 9  147 259 
 PTB  HZ I         730 56.61        14.2 0.12            131            147 259 
 OCA  HZ EP        730 33.53                             129   -0.53 9  160 353 
 OCA  HN ES        730 55.14                             129   -0.79 9  160 353 
 OCA  HZ I         730 59.76         8.1 0.24            128            160 353 
 SPBC HZ IP     C  730 34.46                             128    0.26 9  163 219 
 SPBC HN ES        730 56.06                             128   -0.14 9  163 219 
 ZAR  HZ EP        730 38.87                             122    0.69 9  204 292 
 ZAR  HN ES        731  2.78                             122   -0.50 9  204 292 
 ZAR  HZ I         731 10.03        19.6 0.56            121            204 292 
 SML  HZ EP        730 41.75                             117   -0.68 8  244 335 
 SML  HE ES        731 11.98                             117    1.15 8  244 335 
 SML  HZ I         731 23.33        11.2 0.10            117            244 335 
 CHI  HZ EP        730 43.61                             116    0.12 8  248 195 
 CHI  HN ES        731 12.61                             116   -0.12 8  248 195 
 CHI  HZ I         731 17.45         3.6 0.22            117            248 195 
 ROSC BZ EP   4    730 45.76                             116    1.86 0  252 211 
 ROSC BN ES   4    731 13.98                             116    0.52 0  252 211 
 URE  HZ EP   4    730 46.38                             113   -0.48 0  283 292 
 URE  HN ES   4    731 17.06                             113   -1.66 0  283 292 
                                                                                
