 2012  8 2 0546 21.4 L   6.799 -73.102149.6  RSN 10 0.4 1.7LRSN                1
 GAP=142        0.75       3.3     4.2  6.3 -0.1977E+01  0.8312E+01  0.7070E+00E
 Epicentro: LOS SANTOS - SANTANDER                                             3
 ACTION:UPD 12-09-10 11:53 OP:ep   STATUS:               ID:20120802054621 L   I
 2012-08-02-0540-00M.COL___215                                                 6
 STAT SP IPHASW D HRMM SECON CODA AMPLIT PERI AZIMU VELO AIN AR TRES W  DIS CAZ7
 BAR2 SZ EP   1    546 41.40                             170   -0.11 7 24.5 201 
 BAR2 SZ I         546 41.67        10.0 0.19                          24.5 201 
 BAR2 SZ ES   1    546 57.24                             170    0.04 7 24.5 201 
 PAM  SZ EP   1    546 44.18                             152    0.33 7 74.5  37 
 PAM  SN ES   1    547  1.41                             152    0.04 7 74.5  37 
 BRR  HZ EP   1    546 43.34                             152    0.14 7 75.5 297 
 BRR  HZ I         546 44.89        26.3 0.11                          75.5 297 
 BRR  HE ES   1    547  0.80                             152    0.58 7 75.5 297 
 RUS  HZ EP   1    546 44.96                             145   -0.54 7  100 179 
 RUS  HN ES   1    547  3.95                             145   -0.36 7  100 179 
 RUS  HZ I         547  5.53         2.9 0.11                           100 179 
 PTB  HZ EP   1    546 48.55                             132   -0.55 7  152 259 
 PTB  HN ES   2    547  9.84                             132   -0.88 5  152 259 
 OCA  HZ EP   1    546 50.11                             130    0.04 7  161 351 
 OCA  HN ES   1    547 12.31                             130   -0.14 7  161 351 
 ZAR  HN ES   1    547 19.92                             123   -0.50 6  209 292 
 NOR  SN ES   1    547 26.51                             119    0.38 6  239 235 
 CHI  HN ES   1    547 29.70                             118    0.59 6  250 196 
 HEL  HZ EP   1    547  2.96                             115    0.64 6  277 256 
 HEL  HE ES   1    547 34.53                             115    0.29 6  277 256 
 HEL  HZ I         547 41.10         4.2 0.26                           277 256 
                                                                                
