 2013 11 2 0351 43.2 L   6.808 -73.169145.8  RSN 12 0.5 2.1LRSN                1
 GAP=133        1.20       3.5     4.8  6.9 -0.2256E+01  0.1001E+02 -0.1541E+01E
 Epicentro: LOS SANTOS - SANTANDER                                             3
 ACTION:UPD 14-01-09 16:24 OP:ep   STATUS:               ID:20131102035143 L   I
 OLDACT:REG 13-11-02 07:13 OP:jn   STATUS:               ID:20131102035000     3
 2013-11-02-0350-00M.COL___273                                                 6
 STAT SP IPHASW D HRMM SECON CODA AMPLIT PERI AZIMU VELO AIN AR TRES W  DIS CAZ7
 BAR2 SZ EP        352  2.88                             170    0.0610 23.9 184 
 BAR2 SZ ES        352 18.08                             170   -0.0610 23.9 184 
 BAR2 SZ I         352 25.69        26.4 0.52            168           23.9 184 
 BRR  HZ EP        352  4.71                             153    0.5310 68.5 299 
 BRR  HN ES        352 21.30                             153    0.7410 68.5 299 
 BRR  HZ I         352 24.36        20.8 0.30            154           68.5 299 
 PAM  SZ EP        352  5.86                             150    0.4110 78.4  41 
 PAM  SN ES        352 22.98                             150    0.1510 78.4  41 
 PAM  SZ I         352 25.96        14.9 0.32            157           78.4  41 
 RUS  HZ EP        352  6.86                             143   -0.1510  102 175 
 RUS  HN ES        352 25.20                             143   -0.3910  102 175 
 RUS  HZ I         352 26.78        13.6 0.28            146            102 175 
 PTB  HZ EP        352  9.46                             132   -0.47 9  145 258 
 PTB  HN ES        352 30.13                             132   -0.67 9  145 258 
 PTB  HZ I         352 33.25        17.6 0.14            134            145 258 
 OCA  HN ES        352 32.65                             130   -0.73 9  159 354 
 SPBC HZ EP        352 11.84                             129    0.25 9  162 218 
 SPBC HN ES        352 33.62                             129   -0.13 9  162 218 
 SPBC HZ I         352 40.81        20.5 0.24            131            162 218 
 ZAR  HZ EP        352 15.86                             123    0.52 9  201 292 
 ZAR  HN ES        352 41.23                             123    0.80 9  201 292 
 NOR  HZ EP        352 19.06                             119    0.32 8  233 234 
 NOR  HE ES        352 46.21                             119   -0.26 8  233 234 
 NOR  HZ I         352 54.74        11.0 0.18            121            233 234 
 SML  HZ EP        352 19.33                             118   -0.27 8  242 336 
 SML  HN ES        352 47.06                             118   -0.95 8  242 336 
 HEL  HZ EP   4    352 24.10                             115    0.96 0  270 255 
 HEL  HN ES   4    352 54.77                             115    0.46 0  270 255 
 HEL  HZ I         353  3.18         6.8 0.36            117            270 255 
 GUY2CHZ EP   4    352 27.80                             112    1.19 0  300 234 
 GUY2CHZ I         353  9.09         7.6 0.38                           300 234 
                                                                                
