 2012 11 2 0911  2.3 L   6.800 -73.098144.4  RSN  6 0.5 1.7LRSN                1
 GAP=143        0.95       5.9    13.1 12.0  0.2608E+02 -0.7588E+02 -0.2249E+02E
 Epicentro: LOS SANTOS - SANTANDER                                             3
 ACTION:UPD 12-12-05 15:30 OP:}ep  STATUS:               ID:20121102091102 L   I
 2012-11-02-0910-00M.COL___234                                                 6
 STAT SP IPHASW D HRMM SECON CODA AMPLIT PERI AZIMU VELO AIN AR TRES W  DIS CAZ7
 BAR2 SZ EP        911 21.77                             170   -0.0710 24.8 202 
 BAR2 SZ ES   1    911 37.42                             170    0.37 7 24.8 202 
 BAR2 SZ I         911 37.83        11.4 0.16                          24.8 202 
 GIR2 SZ EP   1    911 21.89                             167    0.00 7 32.6 341 
 PAM  SZ EP        911 24.76                             151    0.5410 74.2  36 
 PAM  SN I         911 42.72         6.7 0.66                          74.2  36 
 BRR  HZ EP   1    911 23.80                             151    0.18 7 75.9 297 
 BRR  HN ES   1    911 40.46                             151    0.25 7 75.9 297 
 BRR  HN I         911 40.79         8.6 0.20                          75.9 297 
 RUS  HZ EP   1    911 25.75                             144   -0.19 7  100 179 
 RUS  HN ES   1    911 43.73                             144   -0.62 7  100 179 
 RUS  HN I         911 45.16         6.1 0.20                           100 179 
 OCA  HN ES   1    911 51.68                             129   -0.99 7  161 351 
 OCA  HN I         911 55.07        13.0 0.48                           161 351 
                                                                                
