 2010  5 2 0718 24.6 L   6.792 -72.958130.0  RSN  6 0.6 2.0LRSN                1
 GAP=219        1.27       9.6    13.9 11.4 -0.4184E+02 -0.4120E+02 -0.1237E+02E
 Epicentro: CEPITA - SANTANDER                                                 3
 ACTION:UP  10-08-24 10:02 OP:vdl  STATUS:               ID:20100502071824 L   I
 2010-05-02-0716-08S.COL___113                                                 6
 STAT SP IPHASW D HRMM SECON CODA AMPLIT PERI AZIMU VELO SNR AR TRES W  DIS CAZ7
 BAR2 SZ EP        718 42.45                             165    -0.210   33 228 
 BAR2 SZ ES   1    718 56.71                             165     0.0 7   33 228 
 GIR2 SZ EP        718 42.69                             162    -0.110   41 321 
 GIR2 SZ ES   1    718 56.26                             162    -0.7 7   41 321 
 BRR  HZ EP        718 45.04                             143    -0.410   90 293 
 BRR  HN ES   1    719  2.50                             143     0.9 7   90 293 
 BRR  HZ I         719  3.26        19.9 0.09                            90 293 
 BRI  SZ EP        718 47.28                             139     0.610  104  10 
 BRI  SZ ES   1    719  3.76                             139    -0.1 7  104  10 
 GUE  SZ EP   1    718 48.65                             136     0.9 7  115   2 
 OCA  SZ EP   1    718 51.40                             125    -0.8 7  165 346 
 OCA  SZ ES   2    719 12.88                             125    -0.9 5  165 346 
 OCA  SZ I         719 22.10         9.9 0.23                           165 346 
                                                                                
