 2012  5 2 0925 24.7 L   6.768 -73.182144.2  RSN  7 0.4 1.9LRSN                1
 GAP=133        0.93       5.5     5.2  7.8 -0.3591E+00  0.1240E+02 -0.1680E-03E
 Epicentro: LOS SANTOS - SANTANDER                                             3
 ACTION:UP  12-07-05 12:01 OP:pat  STATUS:               ID:20120502092524 L   I
 2012-05-02-0920-00M.COL___189                                                 6
 STAT SP IPHASW D HRMM SECON CODA AMPLIT PERI AZIMU VELO SNR AR TRES W  DIS CAZ7
 BAR2 SZ EP        925 44.13                             172     0.110   19 180 
 BAR2 SZ ES   1    925 59.53                             172     0.4 7   19 180 
 BAR2 SZ I         926  0.48        26.2 0.28                            19 180 
 BRR  HZ EP        925 45.95                             153     0.410   69 303 
 BRR  HZ I         925 46.10        43.0 0.16                            69 303 
 BRR  HN ES   2    926  2.72                             153     0.9 5   69 303 
 PAM  SZ EP        925 47.02                             149     0.010   83  40 
 PAM  SN ES   1    926  3.88                             149    -0.6 7   83  40 
 RUS  HZ EP   1    925 48.53                             144     0.5 7   97 174 
 RUS  HN ES   1    926  5.74                             144    -0.5 7   97 174 
 RUS  HZ I         926  7.85         7.1 0.40                            97 174 
 PTB  HZ EP        925 50.70                             133    -0.4 9  143 260 
 PTB  HN ES   1    926 11.35                             133    -0.3 7  143 260 
 PTB  HZ I         926 19.02         4.5 0.28                           143 260 
 ZAR  HZ EP   1    925 56.54                             122    -0.2 6  202 293 
 ZAR  HN ES   1    926 21.69                             122    -0.1 6  202 293 
 ZAR  HZ I         926 28.80         5.7 0.22                           202 293 
 PRA  HZ EP   1    926 17.96                             106     0.4 4  387 209 
 PRA  HN ES   2    926 58.62                             106    -0.2 3  387 209 
                                                                                
