 2017  3 2 0239 51.7 L   6.804 -73.122144.6  RSN 14 0.8 1.7LRSN                1
 GAP= 72        1.48       5.6     4.4  7.7  0.3410E+01  0.5659E+01  0.7431E+01E
 Epicentro: LOS SANTOS - SANTANDER                                             3
 ACTION:UPD 17-05-25 18:34 OP:jn   STATUS:               ID:20170302023951 L   I
 OLDACT:UP  17-03-02 14:23 OP:and  STATUS:               ID:20170302023655     3
 OLDACT:UP  17-03-02 14:21 OP:and  STATUS:               ID:20170302023655     3
 OLDACT:UP  17-03-02 14:21 OP:and  STATUS:               ID:20170302023655     3
 OLDACT:UP  17-03-02 14:21 OP:and  STATUS:               ID:20170302023655     3
 OLDACT:REG 17-03-02 12:37 OP:and  STATUS:               ID:20170302023655     3
 2017-03-02-0238-00M.COL___388                                                 6
 STAT SP IPHASW D HRMM SECON CODA AMPLIT PERI AZIMU VELO AIN AR TRES W  DIS CAZ7
 BAR2 EZ EP        240 10.53                             170   -0.6710 24.3 196 
 BAR2 EZ ES     D  240 25.53                             170   -0.8810 24.3 196 
 BAR2 EZ I         240 27.36        12.8 0.14            169           24.3 196 
 BRR  HZ EP        240 13.28                             151    0.4510 73.3 297 
 BRR  HN ES        240 29.97                             151    0.6510 73.3 297 
 BRR  HZ I         240 34.07         9.9 0.23            150           73.3 297 
 PAM  EZ EP        240 14.09                             151    0.4310 75.4  38 
 PAM  EN ES        240 30.90                             151    0.1010 75.4  38 
 PAM  EZ I         240 35.61         7.2 0.36            154           75.4  38 
 RUS  HZ EP        240 15.24                             143   -0.1010  101 178 
 RUS  HN ES        240 33.65                             143   -0.1510  101 178 
 RUS  HZ I         240 34.95         6.5 0.29            144            101 178 
 PTB  HZ EP        240 18.16                             131   -0.64 9  150 259 
 PTB  HN ES        240 39.46                             131   -0.48 9  150 259 
 PTB  HZ I         240 41.97         7.3 0.14            131            150 259 
 TAM  HZ EP        240 19.59                             130    0.54 9  153 105 
 TAM  HN ES        240 40.84                             130    0.45 9  153 105 
 ZAR  HZ EP        240 24.52                             122    0.24 8  206 292 
 ZAR  HN ES        240 50.54                             122    0.83 8  206 292 
 ZAR  HZ I         240 56.10         6.3 0.40            122            206 292 
 NOR  HZ EP   4    240 29.83                             118    2.23 0  237 235 
 NOR  HN ES   3    240 56.90                             118    1.29 2  237 235 
 NOR  HZ I         240 58.29         5.1 0.14            118            237 235 
 CHI  HZ EP        240 29.41                             117   -0.03 8  250 196 
 CHI  HN ES   3    240 59.51                             117    0.62 2  250 196 
 CHI  HZ I         241  5.45         1.2 0.46            118            250 196 
 HEL  HZ EP   4    240 34.88                             114    2.75 0  275 256 
 HEL  HN ES        241  2.93                             114   -0.74 8  275 256 
 HEL  HZ I         241 12.13         2.6 0.36            115            275 256 
 PTGC HZ EP        240 34.53                             111   -0.90 7  308 159 
 PTGC HN ES   3    241  7.77                             111   -1.78 2  308 159 
 CBOC HZ EP   3    240 40.47                             109    1.62 2  336 252 
 PRA  HZ EP   2    240 45.82                             106    0.46 3  394 210 
 PRA  HN ES        241 29.62                             106    2.40 6  394 210 
 PRA  HZ I         241 31.99         1.8 0.26            107            394 210 
 SJC  HZ EP        240 46.22                             105   -1.11 6  410 327 
 SJC  HN ES   2    241 28.50                             105   -2.23 3  410 327 
                                                                                
