 2010  4 2 0936  1.4 L   6.799 -72.983145.2  RSN  4 0.3 2.0LRSN                1
 GAP=237        0.67       6.1    10.4  7.1 -0.1461E+02  0.1890E+02 -0.1241E+02E
 Epicentro: CEPITA - SANTANDER                                                 3
 ACTION:UPD 10-08-24 09:57 OP:vdl  STATUS:               ID:20100402093601 L   I
 2010-04-02-0932-26S.COL___098                                                 6
 STAT SP IPHASW D HRMM SECON CODA AMPLIT PERI AZIMU VELO AIN AR TRES W  DIS CAZ7
 BAR2 SZ EP        936 21.37                             162     0.210   32 224 
 BAR2 SZ ES   1    936 36.35                             162    -0.2 7   32 224 
 BRR  HZ EP        936 23.51                             143     0.110   88 293 
 BRR  HN ES   2    936 40.51                             143    -0.2 5   88 293 
 BRR  HZ I         936 44.57        12.7 0.20                            88 293 
 OCA  SZ EP        936 29.56                             128    -0.4 9  164 347 
 OCA  SZ ES   2    936 52.95                             128     0.7 5  164 347 
 OCA  SZ I         936 55.77        16.8 0.23                           164 347 
 HEL  HZ EP        936 43.50                                     0.0 7  289 257 
                                                                                
