 2012  9 2 0849 47.3 L   6.784 -73.146140.4  RSN  6 0.2 1.0LRSN                1
 GAP=137        0.31       4.5     4.0  6.6 -0.3355E+01 -0.1230E+01 -0.6207E+01E
 Epicentro: LOS SANTOS - SANTANDER                                             3
 ACTION:UPD 12-10-22 14:16 OP:ep   STATUS:               ID:20120902084947 L   I
 2012-09-02-0850-00M.COL___218                                                 6
 STAT SP IPHASW D HRMM SECON CODA AMPLIT PERI AZIMU VELO AIN AR TRES W  DIS CAZ7
 BAR2 SZ EP        850  6.19                             171   -0.0210 21.5 191 
 BAR2 SZ ES   3    850 21.03                             171    0.03 2 21.5 191 
 GIR2 SZ ES   3    850 20.82                             166   -0.42 2 33.1 351 
 BRR  HZ EP        850  7.84                             151   -0.0510 72.1 300 
 BRR  HN ES   3    850 24.68                             151    0.71 2 72.1 300 
 PAM  SZ EP        850  9.07                             149    0.0710 78.8  39 
 PAM  SE ES   3    850 25.80                             149   -0.16 2 78.8  39 
 PAM  SZ I         850 27.73         2.3 0.70                          78.8  39 
 RUS  HZ EP   3    850 10.27                             143   -0.09 2 98.8 176 
 RUS  HN ES   3    850 28.54                             143    0.17 2 98.8 176 
 RUS  HZ I         850 29.82         1.7 0.24                          98.8 176 
 PTB  HE ES   3    850 34.14                             131   -0.30 2  147 260 
                                                                                
