 2011  9 2 0116 57.2 L   6.794 -73.116154.0  RSN  6 0.3 1.3LRSN                1
 GAP=141        0.44       4.8     5.0  7.8  0.5741E+01  0.4680E+01  0.2874E+01E
 Epicentro: LOS SANTOS - SANTANDER                                             3
 ACTION:UPD 12-07-13 15:54 OP:ep   STATUS:               ID:20110902011657 L   I
 2011-09-02-0115-50S.COL___167                                                 6
 STAT SP IPHASW D HRMM SECON CODA AMPLIT PERI AZIMU VELO AIN AR TRES W  DIS CAZ7
 BAR2 SZ EP   1    117 17.49                             171   -0.32 7 23.5 198 
 BAR2 SZ I         117 18.70         3.5 0.17                          23.5 198 
 GIR2 SZ EP   2    117 18.24                             168    0.37 5 32.6 345 
 BRR  HZ EP   1    117 19.31                             153   -0.09 7 74.4 298 
 BRR  HZ I         117 34.41         8.7 0.98                          74.4 298 
 BRR  HN ES   2    117 37.05                             153    0.32 5 74.4 298 
 PAM  SZ EP   2    117 20.56                             153    0.36 5 75.9  37 
 PAM  SN ES   2    117 37.91                             153   -0.24 5 75.9  37 
 RUS  HZ EP   2    117 21.82                             146    0.12 5 99.8 178 
 RUS  HN ES   2    117 40.93                             146    0.11 5 99.8 178 
 RUS  HZ I         117 41.22         1.8 0.46                          99.8 178 
 ZAR  HN ES   2    117 56.36                             124   -0.14 4  207 292 
                                                                                
