 2017 12 2 0339 20.4 L   6.550 -73.555103.2  RSN 16 0.6 1.9LRSN                1
 GAP= 56        1.32       2.8     2.8  6.8 -0.8508E+00  0.4509E+01 -0.3393E+01E
 Epicentro: EL CARMEN - SANTANDER                                              3
 ACTION:UPD 18-01-04 13:16 OP:rebc STATUS:               ID:20171202033920 L   I
 OLDACT:REG 17-12-02 12:17 OP:dhb  STATUS:               ID:20171202033307     3
 2017-12-02-0338-00M.COL___480                                                 6
 STAT SP IPHASW D HRMM SECON CODA AMPLIT PERI AZIMU VELO AIN AR TRES W  DIS CAZ7
 BAR2 EZ IP     D  339 35.88                             157    0.2710 41.5  83 
 BAR2 EZ ES        339 48.11                             157    0.6110 41.5  83 
 RUS  HZ EP        339 39.06                             136   -0.2010 89.5 144 
 RUS  HN ES        339 54.35                             136    0.3510 89.5 144 
 RUS  HZ I         339 57.35        10.1 0.46            139           89.5 144 
 PTB  HZ IP     D  339 38.60                             132   -0.9010 99.6 269 
 PTB  HN ES        339 53.46                             132   -0.9610 99.6 269 
 PTB  HZ I         339 54.66        18.8 0.26            133           99.6 269 
 SPBC HZ EP        339 40.59                             128   -0.4010  115 210 
 SPBC HN ES        339 57.24                             128    0.1610  115 210 
 SPBC HZ I         340  0.17        15.8 0.10            129            115 210 
 PAM  EZ EP        339 42.57                             125   -0.3410  129  47 
 PAM  EN ES        340  0.55                             125    0.0510  129  47 
 PAM  EZ I         340  1.52        15.0 0.24            126            129  47 
 ZAR  HZ EP        339 47.60                             115    0.11 9  178 306 
 ZAR  HE ES   2    340  9.95                             115    1.30 4  178 306 
 ZAR  HZ I         340 15.84        15.5 0.20            115            178 306 
 NOR  HZ EP        339 47.35                             114   -0.65 9  182 233 
 NOR  HE ES        340  8.95                             114   -0.61 9  182 233 
 NOR  HZ I         340 11.03         8.2 0.30            115            182 233 
 YPLC HZ IP     C  339 47.80                             114   -0.27 9  182 134 
 YPLC HE ES        340 10.01                             114    0.32 9  182 134 
 YPLC HZ I         340 11.75        17.2 0.44            116            182 134 
 OCA  HZ IP     C  339 48.39                             113   -0.50 9  189   8 
 OCA  HN ES        340 11.56                             113    0.42 9  189   8 
 OCA  HZ I         340 17.13        26.9 0.42            114            189   8 
 TAM  HZ EP        339 48.84                             112   -0.69 9  196  94 
 TAM  HN ES        340 11.78                             112   -0.50 9  196  94 
 TAM  HZ I         340 14.92         8.5 0.30            114            196  94 
 CHI  HZ EP        339 53.01                             110    1.00 8  213 185 
 CHI  HN ES        340 17.01                             110    0.32 8  213 185 
 CHI  HZ I         340 21.96         2.3 0.20            112            213 185 
 GUY2CHZ EP        339 57.25                             107    1.11 8  248 234 
 GUY2CHE ES   4    340 26.33                             107    2.28 0  248 234 
 GUY2CHZ I         340 28.25         4.2 0.30                           248 234 
 URE  HZ EP        339 56.44                             106    0.01 8  256 301 
 URE  HE ES        340 24.51                             106   -0.06 8  256 301 
 URE  HZ I         340 34.45         6.5 0.18            107            256 301 
 CBOC HZ EP        340  0.45                             104    0.68 7  282 255 
 CBOC HE ES        340 31.42                             104    0.92 7  282 255 
 CBOC HZ I         340 33.77         2.5 0.52            105            282 255 
 DRL03HZ EP   3    340  4.98                             101    1.61 2  314   2 
 DRL03HE ES        340 36.98                             101    0.06 7  314   2 
 LL6C HZ EP   1    340  8.51                              99    0.42 5  354   5 
 LL6C HN ES   1    340 46.30                              99    0.98 5  354   5 
                                                                                
