 2013  9 2 0215 32.8 L   6.804 -73.183152.6  RSN  5 0.3 1.5LRSN                1
 GAP=198        0.75       3.9     5.9  6.0  0.9676E+01 -0.3096E+01 -0.8025E+01E
 Epicentro: LOS SANTOS - SANTANDER                                             3
 ACTION:UPD 13-10-22 09:19 OP:ep   STATUS:               ID:20130902021532 L   I
 OLDACT:UP  13-09-02 08:40 OP:cam  STATUS:               ID:20130902021000     3
 OLDACT:REG 13-09-02 07:45 OP:cam  STATUS:               ID:20130902021000     3
 2013-09-02-0210-00M.COL___268                                                 6
 STAT SP IPHASW D HRMM SECON CODA AMPLIT PERI AZIMU VELO AIN AR TRES W  DIS CAZ7
 BAR2 SZ ES   1    216  9.00                             171   -0.20 7 23.5 180 
 BRR  HZ EP        215 54.97                             155    0.4910 67.3 300 
 BRR  HN ES        216 11.78                             155    0.3910 67.3 300 
 BRR  HZ I         216 12.40        12.1 0.34            150           67.3 300 
 RUS  HZ EP        215 57.28                             145    0.0010  101 174 
 RUS  HN ES        216 16.16                             145   -0.2210  101 174 
 RUS  HZ I         216 18.08         1.6 0.30            143            101 174 
 PTB  HZ EP        215 59.96                             134   -0.01 9  144 258 
 PTB  HE ES        216 20.96                             134   -0.22 9  144 258 
 PTB  HZ I         216 27.92         4.6 0.44            130            144 258 
 SML  HZ EP        216  9.54                             119   -0.04 8  242 336 
 SML  HN ES        216 37.75                             119   -0.52 8  242 336 
                                                                                
