 2016  9 2 0942  7.2 L   6.770 -73.135147.3  RSN  7 0.2 1.6LRSN                1
 GAP=139        0.60       2.5     2.6  3.8 -0.2290E+00  0.2477E+01  0.5422E-01E
 Epicentro: LOS SANTOS - SANTANDER                                             3
 ACTION:UPD 17-08-17 21:05 OP:lp   STATUS:               ID:20160902094207 L   I
 OLDACT:REG 16-09-02 13:29 OP:drio STATUS:               ID:20160902093730     3
 2016-09-02-0938-00M.COL___346                                                 6
 STAT SP IPHASW D HRMM SECON CODA AMPLIT PERI AZIMU VELO AIN AR TRES W  DIS CAZ7
 BAR2 EZ EP        942 26.93                             172   -0.0110 20.3 195 
 BAR2 EZ ES        942 42.00                             172   -0.3510 20.3 195 
 BAR2 EZ I         942 44.57         8.4 0.44            170           20.3 195 
 BRR  HZ EP        942 28.88                             152    0.2310 73.8 300 
 BRR  HE ES        942 45.45                             152    0.0710 73.8 300 
 PAM  EZ EP        942 29.73                             150    0.0610 79.3  37 
 PAM  EE ES        942 47.33                             150    0.1210 79.3  37 
 PAM  EZ I         942 49.03         4.8 0.52            155           79.3  37 
 RUS  HZ EP        942 30.69                             145   -0.1610 97.2 177 
 RUS  HN ES        942 49.41                             145    0.1110 97.2 177 
 RUS  HZ I         942 52.57         3.1 0.24            147           97.2 177 
 PTB  HZ EP        942 33.85                             132   -0.47 9  148 260 
 PTB  HE ES        942 55.81                             132    0.32 9  148 260 
 PTB  HZ I         943  2.11         8.0 0.40            133            148 260 
 SPBC HZ EP        942 35.93                             130    0.30 9  161 220 
 SPBC HN ES        942 57.81                             130   -0.00 9  161 220 
 SPBC HZ I         943  2.12         9.4 0.12            131            161 220 
 ZAR  HZ EP        942 39.92                             122   -0.05 8  206 293 
 ZAR  HN ES        943  5.34                             122   -0.20 8  206 293 
 ZAR  HZ I         943 11.50         4.1 0.48            124            206 293 
                                                                                
