 2010  1 2 0458 34.9 L   6.776 -72.955147.6  RSN  5 0.3 1.4LRSN                1
 GAP=202        0.60       2.7    19.1  5.2 -0.4524E+01 -0.1908E+02 -0.4836E-01E
 Epicentro: CEPITA - SANTANDER                                                 3
 ACTION:UP  10-08-24 09:42 OP:vdl  STATUS:               ID:20100102045834 L   I
 2010-01-02-0440-00S.COL___096                                                 6
 STAT SP IPHASW D HRMM SECON CODA AMPLIT PERI AZIMU VELO AIN AR TRES W  DIS CAZ7
 BAR2 SZ IP        458 55.00                             167     0.010   33 231 
 BAR2 SZ ES   1    459 10.59                             167    -0.1 7   33 231 
 GIR2 SZ EP        458 55.08                             163    -0.110   43 322 
 GIR2 SZ ES   1    459 10.90                             163    -0.1 7   43 322 
 RUS  BZ EP   1    458 59.21                             145     0.5 7   99 188 
 RUS  BN ES   1    459 17.23                             145    -0.1 7   99 188 
 RUS  BZ I         459 18.86         5.2 0.29                            99 188 
 OCA  SZ EP        459  3.65                             129    -0.3 9  167 346 
 OCA  SZ ES   1    459 27.20                             129     0.5 7  167 346 
 CHI  HZ EP   1    459 13.15                             117     0.0 6  253 200 
 CHI  HZ I         459 15.65         1.5 0.33                           253 200 
 CHI  HN ES   1    459 42.95                             117     0.0 6  253 200 
                                                                                
