 2017  6 2 0639 35.0 L   6.788 -73.102148.0  RSN  9 0.5 1.5LRSN                1
 GAP=186        0.80       4.0     4.4  6.1  0.7888E+01 -0.2186E+00  0.1836E+00E
 Epicentro: LOS SANTOS - SANTANDER                                             3
 ACTION:UPD 17-09-14 16:49 OP:jn   STATUS:               ID:20170602063935 L   I
 OLDACT:UP  17-06-02 16:14 OP:and  STATUS:               ID:20170602063742     3
 OLDACT:UP  17-06-02 16:13 OP:and  STATUS:               ID:20170602063742     3
 OLDACT:UP  17-06-02 16:13 OP:and  STATUS:               ID:20170602063742     3
 OLDACT:UP  17-06-02 16:12 OP:and  STATUS:               ID:20170602063742     3
 OLDACT:UP  17-06-02 16:12 OP:and  STATUS:               ID:20170602063742     3
 OLDACT:UP  17-06-02 16:11 OP:and  STATUS:               ID:20170602063742     3
 OLDACT:UP  17-06-02 16:11 OP:and  STATUS:               ID:20170602063742     3
 OLDACT:UP  17-06-02 16:10 OP:and  STATUS:               ID:20170602063742     3
 OLDACT:REG 17-06-02 12:52 OP:and  STATUS:               ID:20170602063742     3
 2017-06-02-0638-00M.COL___341                                                 6
 STAT SP IPHASW D HRMM SECON CODA AMPLIT PERI AZIMU VELO AIN AR TRES W  DIS CAZ7
 BRR  HZ EP        639 56.47                             151   -0.2110 76.1 298 
 BRR  HN ES        640 13.48                             151   -0.1010 76.1 298 
 BRR  HZ I         640 17.50         8.4 0.44            151           76.1 298 
 RUS  HZ EP        639 58.87                             145    0.0010 99.1 179 
 RUS  HN ES        640 17.52                             145    0.0410 99.1 179 
 RUS  HZ I         640 18.80         1.9 0.26            148           99.1 179 
 PTB  HZ EP   1    640  2.26                             132   -0.31 7  152 260 
 PTB  HN ES   2    640 23.22                             132   -0.84 5  152 260 
 SPBC HZ EP        640  3.83                             129   -0.05 9  165 221 
 SPBC HN ES        640 26.70                             129    0.31 9  165 221 
 SPBC HZ I         640 30.48         3.8 0.08            132            165 221 
 YPLC HZ IP   2 C  640  5.14                             128    0.51 4  173 153 
 YPLC HN ES   1    640 28.04                             128    0.31 7  173 153 
 YPLC HZ I         640 30.05         3.8 0.30            133            173 153 
 ZAR  HZ EP   3    640 10.09                             122    1.98 2  209 292 
 ZAR  HN ES        640 34.50                             122    0.57 8  209 292 
 ZAR  HZ I         640 39.84         3.4 0.36            124            209 292 
 NOR  HZ EP        640 11.65                             119    0.44 8  238 235 
 NOR  HN ES        640 38.92                             119   -0.53 8  238 235 
 NOR  HZ I         640 41.52         2.0 0.28            121            238 235 
 PTGC HZ EP   1    640 17.85                             112   -0.78 5  306 159 
 PTGC HN ES   4    640 46.09                             112   -6.56 0  306 159 
 PTGC HZ I         640 46.60         4.3 0.24            116            306 159 
 SJC  HZ EP   1    640 30.64                             106   -0.44 4  413 326 
 SJC  HN ES   4    641 12.41                             106   -2.41 0  413 326 
                                                                                
