 2017  1 2 0710 51.2 L   6.732 -73.173153.9  RSN  5 0.2 1.3LRSN                1
 GAP=229        0.62       5.0     4.5  4.9  0.1188E+02  0.4468E+01 -0.4348E+01E
 Epicentro: VILLANUEVA - SANTANDER                                             3
 ACTION:UPD 17-05-22 15:54 OP:jn   STATUS:               ID:20170102071051 L   I
 OLDACT:DUP 17-01-02 16:21 OP:lv   STATUS:               ID:20170102070647d    3
 2017-01-02-0707-00M.COL___366                                                 6
 STAT SP IPHASW D HRMM SECON CODA AMPLIT PERI AZIMU VELO AIN AR TRES W  DIS CAZ7
 BAR2 EZ EP        711 11.53                             174   -0.1910 15.5 184 
 BAR2 EZ ES        711 27.52                             174   -0.1710 15.5 184 
 BAR2 EZ I         711 28.27         5.1 0.23            176           15.5 184 
 BRR  HZ EP        711 13.40                             153    0.0610 72.6 305 
 BRR  HN ES        711 30.63                             153    0.0510 72.6 305 
 BRR  HZ I         711 34.68         2.5 0.19            151           72.6 305 
 RUS  HE ES        711 34.37                             147    0.2910 93.4 174 
 PTB  HZ EP        711 18.64                             135    0.14 9  143 262 
 PTB  HN ES        711 39.40                             135   -0.37 9  143 262 
 PTB  HZ I         711 41.73         2.4 0.18            135            143 262 
 ZAR  HZ EP        711 24.05                             124   -0.19 9  204 294 
 ZAR  HN ES        711 50.37                             124    0.39 9  204 294 
 ZAR  HZ I         711 55.56         2.9 0.39            124            204 294 
                                                                                
