 2014 12 2 0304 56.4 L   7.450 -73.222134.8  RSN  8 0.5 1.7LRSN                1
 GAP=239        1.14       5.5     6.6  8.5  0.1111E+02  0.9461E+01 -0.8934E+01E
 Epicentro: EL PLAYON - SANTANDER                                              3
 ACTION:UPD 15-02-10 16:59 OP:nd   STATUS:               ID:20141202030456 L   I
 OLDACT:DUP 14-12-02 15:33 OP:fm   STATUS:               ID:20141202025751d    3
 2014-12-02-0257-49M.COL___300                                                 6
 STAT SP IPHASW D HRMM SECON CODA AMPLIT PERI AZIMU VELO AIN AR TRES W  DIS CAZ7
 BRR  HZ EP        3 5 16.72                             152    0.6010 66.1 235 
 BRR  HN ES        3 5 31.64                             152    0.1810 66.1 235 
 BRR  HZ I         3 5 32.68        17.8 0.24            150           66.1 235 
 BAR2 SZ EP        3 5 17.94                             143   -0.4210 95.0 177 
 BAR2 SZ ES        3 5 34.85                             143   -0.6010 95.0 177 
 BAR2 SZ I         3 5 36.23        11.3 0.12            143           95.0 177 
 PTB  HZ EP        3 5 25.34                             125    0.68 9  170 234 
 PTB  HE ES        3 5 46.29                             125   -0.37 9  170 234 
 PTB  HZ I         3 5 48.44         5.9 0.20            125            170 234 
 ZAR  HZ EP        3 5 25.81                             123    0.04 9  181 272 
 ZAR  HN ES        3 5 49.11                             123    0.48 9  181 272 
 ZAR  HZ I         3 5 53.14         6.9 0.46            123            181 272 
 SPBC HZ EP        3 5 30.70                             118    0.69 8  220 205 
 SPBC HN ES        3 5 56.19                             118    0.01 8  220 205 
 SPBC HZ I         3 5 59.59         3.4 0.18            118            220 205 
 NOR  HE ES        3 6  6.89                             112   -0.46 7  277 221 
 MON  HZ EP        3 5 38.76                             109   -0.83 7  307 299 
 MON  HN ES        3 6 12.79                             109   -0.46 7  307 299 
 MON  HZ I         3 6 14.59         0.8 0.40            110            307 299 
 GUY2CHN ES        3 6 21.52                             107   -0.03 7  342 224 
 GUY2CHZ I         3 6 31.26         1.9 0.36                           342 224 
                                                                                
