 2016  9 2 0826 28.0 L   6.748 -73.187144.7  RSN  4 0.4 1.2LRSN                1
 GAP=229        1.04       8.1     7.7  8.4  0.3112E+02  0.7171E+01  0.2495E+01E
 Epicentro: VILLANUEVA - SANTANDER                                             3
 ACTION:UPD 17-08-17 21:05 OP:lp   STATUS:               ID:20160902082628 L   I
 OLDACT:REG 16-09-02 13:26 OP:drio STATUS:               ID:20160902081733     3
 2016-09-02-0818-00M.COL___346                                                 6
 STAT SP IPHASW D HRMM SECON CODA AMPLIT PERI AZIMU VELO AIN AR TRES W  DIS CAZ7
 BAR2 EZ EP        826 47.20                             173   -0.1610 17.2 178 
 BAR2 EZ ES        827  1.79                             173   -0.7010 17.2 178 
 BAR2 EZ I         827  2.91         5.0 0.18            169           17.2 178 
 BRR  HZ EP        826 49.24                             153    0.2910 70.3 304 
 BRR  HN ES        827  5.78                             153    0.4610 70.3 304 
 RUS  HZ EP        826 51.40                             145    0.1610 95.3 173 
 RUS  HN ES        827  9.81                             145    0.4210 95.3 173 
 RUS  HZ I         827 11.28         2.0 0.42            144           95.3 173 
 PTB  HZ EP        826 53.86                             133   -0.49 9  142 261 
 PTB  HE ES        827 14.89                             133   -0.04 9  142 261 
 PTB  HZ I         827 17.21         2.0 0.16            132            142 261 
                                                                                
