 2015  6 2 0748  2.3 L   6.766 -73.049164.3  RSN 10 0.5 2.0LRSN                1
 GAP=129        1.19       4.1     6.8 12.8  0.3261E+01  0.4791E+02  0.5520E+01E
 Epicentro: LOS SANTOS - SANTANDER                                             3
 ACTION:UPD 15-09-10 22:09 OP:cam  STATUS:               ID:20150602074802 L   I
 OLDACT:DUP 15-06-02 18:00 OP:ak   STATUS:               ID:20150602073750d    3
 OLDACT:REG 15-06-02 13:25 OP:ak   STATUS:               ID:20150602073749     3
 2015-06-02-0737-49M.COL___294                                                 6
 STAT SP IPHASW D HRMM SECON CODA AMPLIT PERI AZIMU VELO AIN AR TRES W  DIS CAZ7
 BAR2 EZ ES        748 40.59                             171   -0.6810 24.2 218 
 BAR2 EZ I         748 44.19        14.3 0.19            167           24.2 218 
 PAM  SN ES        748 45.56                             155    0.4210 74.3  31 
 RUS  HN ES        748 47.68                             148    0.2210 96.6 182 
 OCA  HN ES        748 55.94                             133   -0.30 9  166 350 
 SPBC HE ES        748 57.23                             132    0.87 9  167 223 
 SPBC HZ I         749  0.81        11.4 0.08            131            167 223 
 ZAR  HN ES        749  4.64                             125    0.28 8  215 292 
 NOR  HN ES        749  8.30                             121   -0.89 8  241 237 
 NOR  HZ I         749 17.14         7.5 0.40            121            241 237 
 HEL  HN ES   3    749 18.10                             117    0.57 2  282 257 
 PTGC HN ES        749 20.32                             115   -0.22 7  301 160 
 MON  HN ES        749 33.21                             111    0.10 6  364 308 
                                                                                
