 2015  1 2 0949 30.0 L   6.839 -73.179138.7  RSN 29 0.6 2.7LRSN                1
 GAP= 52        1.98       4.1     4.8  8.5 -0.1474E+01  0.1364E+02  0.4676E+01E
 Epicentro: ZAPATOCA - SANTANDER                                               3
 ACTION:UPD 15-03-02 15:36 OP:nd   STATUS:               ID:20150102094930 L   I
 OLDACT:REG 15-01-02 13:23 OP:stll STATUS:               ID:20150102094748     3
 2015-01-02-0947-48M.COL___277                                                 6
 STAT SP IPHASW D HRMM SECON CODA AMPLIT PERI AZIMU VELO AIN AR TRES W  DIS CAZ7
 BAR2 EZ EP        949 49.14                             168    0.2710 27.3 181 
 BAR2 EZ ES        950  3.72                             168    0.1310 27.3 181 
 BAR2 EZ I         950  4.91       175.5 0.30            168           27.3 181 
 BRR  HZ IP     C  949 50.87                             153    0.7910 65.9 297 
 BRR  HZ I         949 51.13       144.3 0.28            150           65.9 297 
 BRR  HN ES        950  6.43                             153    0.6810 65.9 297 
 PAM  SZ EP        949 51.83                             150    0.4110 76.6  44 
 PAM  SN ES        950  8.43                             150    0.3110 76.6  44 
 PAM  SZ I         950 11.01       142.3 0.50            152           76.6  44 
 RUS  HZ EP        949 53.16                             140   -0.2510  105 174 
 RUS  HE ES        950 11.39                             140   -0.2810  105 174 
 RUS  HZ I         950 13.67        44.6 0.16            142            105 174 
 PTB  HZ EP        949 55.56                             130   -0.59 9  145 257 
 PTB  HN ES        950 16.02                             130   -0.52 9  145 257 
 PTB  HZ I         950 20.28        71.0 0.24            129            145 257 
 OCA  HZ EP        949 57.07                             129   -0.25 9  156 354 
 OCA  HN ES        950 18.60                             129   -0.02 9  156 354 
 OCA  HZ I         950 23.89        79.5 0.20            129            156 354 
 TAM  HZ IP     D  949 57.59                             128    0.01 9  160 106 
 TAM  HZ I         949 57.90        92.0 0.20            130            160 106 
 TAM  HN ES        950 18.49                             128   -0.60 9  160 106 
 SPBC HZ EP        949 58.03                             127   -0.05 9  164 217 
 SPBC HN ES        950 19.77                             127   -0.20 9  164 217 
 SPBC HZ I         950 28.13        67.6 0.24            127            164 217 
 ZAR  HZ EP        950  1.75                             121    0.29 9  199 291 
 ZAR  HE ES        950 26.76                             121    0.75 9  199 291 
 ZAR  HZ I         950 35.60        59.9 0.14            121            199 291 
 NOR  HZ EP        950  5.52                             116    0.24 8  234 233 
 NOR  HN ES        950 32.20                             116   -0.60 8  234 233 
 NOR  HZ I         950 38.93        42.2 0.18            117            234 233 
 SML  HZ EP        950  4.97                             116   -0.67 8  238 336 
 SML  HE ES        950 33.01                             116   -0.42 8  238 336 
 SML  HZ I         950 38.48        78.5 0.10            116            238 336 
 CHI  HZ EP        950  7.70                             115    0.02 8  252 194 
 CHI  HN ES        950 36.22                             115   -0.84 8  252 194 
 CHI  HZ I         950 41.51        15.3 0.30            116            252 194 
 ROSC BN ES        950 37.23                             115   -0.32 8  255 210 
 ROSC BZ I         950 46.89        20.7 0.40            115            255 210 
 HEL  HZ EP        950 10.04                             113    0.46 8  270 255 
 HEL  HE ES        950 40.17                             113   -0.29 8  270 255 
 HEL  HZ I         950 47.32        37.1 0.34            113            270 255 
 URE  HZ EP        950  9.10                             112   -1.07 7  279 291 
 URE  HE ES        950 40.45                             112   -1.04 7  279 291 
 URE  HZ I         950 42.18        46.5 0.12            112            279 291 
 SOCV BZ EP   9    950 11.97                             110   -0.85 0  302  58 
 SOCV BN ES        950 43.52                                   -1.85 7  302  58 
 PTGC HZ EP   9    950 12.58                             109   -1.59 0  314 158 
 PTGC HE ES        950 45.41                                   -1.62 7  314 158 
 PTGC HZ I         950 50.81        17.8 0.34            110            314 158 
 RREF HZ EP        950 17.61                             109    1.76 7  322 228 
 RREF HE ES        950 51.79                             109    0.17 7  322 228 
 RREF HZ I         951  1.29        26.4 0.38            109            322 228 
 CBOC HZ EP        950 17.19                             108    0.81 7  331 251 
 CBOC HN ES        950 52.16                             108   -0.40 7  331 251 
 CBOC HZ I         951  1.78         6.9 0.36            108            331 251 
 DBB  SZ EP        950 16.72                             108   -0.02 7  335 274 
 TOL  SZ EP        950 18.75                             108    0.71 7  344 224 
 TOL  SN ES        950 55.87                             108    0.35 7  344 224 
 MON  HZ EP   9    950 16.45                             107   -1.63 0  348 308 
 MON  HZ I         950 23.55        22.6 0.30            107            348 308 
 MON  HE ES        950 53.66                                   -0.29 6  348 308 
 ARGC HZ EP   9    950 18.88                             107    0.11 0  354 341 
 ARGC HN ES        950 55.60                                   -1.32 6  354 341 
 ARGC HZ I         951  7.99        12.6 0.34            107            354 341 
 ANIL HN ES        950 58.61                             107    0.31 6  358 224 
 SDV  BZ EP   9    950 18.57                             107   -1.22 0  360  51 
 SDV  BE ES        950 55.24                                   -2.17 6  360  51 
 ORTC HZ EP        950 23.64                             105   -0.21 6  397 215 
 ORTC HN ES        951  6.38                             105    0.53 6  397 215 
 ORTC HZ I         951 11.80        15.2 0.44            105            397 215 
 SJC  HZ EP   9    950 23.24                             104   -1.43 0  404 327 
 SJC  HN ES        951  3.40                                   -2.48 6  404 327 
 SJC  HZ I         951  8.49        19.0 0.50            105            404 327 
 ELOV BZ EP   9    950 23.29                             104   -1.92 0  409  87 
 ELOV BN ES        951  2.38                                   -3.97 6  409  87 
 CRJC HZ EP   9    950 26.61                             102   -5.21 0  464   4 
 CRJC HN ES        951 10.75                                   -4.08 5  464   4 
 CRJC HZ I         951 28.82        10.0 0.48            103            464   4 
                                                                                
