 2016  9 2 0612  0.5 L   6.768 -73.163141.8  RSN  6 0.4 1.2LRSN                1
 GAP=136        0.97       4.9     5.2  6.9 -0.5761E+00  0.2820E+00 -0.8309E+00E
 Epicentro: LOS SANTOS - SANTANDER                                             3
 ACTION:UPD 17-08-17 21:05 OP:lp   STATUS:               ID:20160902061200 L   I
 OLDACT:REG 16-09-02 13:19 OP:drio STATUS:               ID:20160902060734     3
 2016-09-02-0608-00M.COL___347                                                 6
 STAT SP IPHASW D HRMM SECON CODA AMPLIT PERI AZIMU VELO AIN AR TRES W  DIS CAZ7
 BAR2 EZ EP        612 19.46                             172   -0.1710 19.5 186 
 BAR2 EZ ES        612 33.94                             172   -0.5710 19.5 186 
 BAR2 EZ I         612 35.23         4.2 0.14            166           19.5 186 
 BRR  HZ EP        612 21.71                             152    0.4410 71.3 302 
 BRR  HN ES        612 38.04                             152    0.6010 71.3 302 
 PAM  EZ EP        612 22.36                             149   -0.2310 81.4  39 
 RUS  HZ EP        612 23.81                             144    0.1510 97.2 175 
 RUS  HE ES        612 41.98                             144    0.2910 97.2 175 
 RUS  HZ I         612 43.52         1.9 0.32            142           97.2 175 
 PTB  HZ EP        612 26.64                             132   -0.32 9  145 260 
 PTB  HE ES        612 47.05                             132   -0.51 9  145 260 
 PTB  HZ I         612 52.46         2.0 0.32            129            145 260 
 SPBC HZ EP        612 28.43                             129    0.07 9  159 219 
 SPBC HN ES        612 50.24                             129    0.18 9  159 219 
 SPBC HZ I         612 56.75         1.7 0.10            127            159 219 
                                                                                
