 2011  6 2 0021 45.8 L   6.757 -73.112152.3  RSN 11 0.2 2.4LRSN                1
 GAP=160        0.46       2.0     3.6  3.5 -0.2775E+01  0.1743E+01  0.4069E+00E
 Epicentro: LOS SANTOS - SANTANDER                                             3
 ACTION:UP  11-07-14 19:02 OP:ep   STATUS:               ID:20110602002145 L   I
 2011-06-02-0019-42S.COL___113                                                 6
 STAT SP IPHASW D HRMM SECON CODA AMPLIT PERI AZIMU VELO SNR AR TRES W  DIS CAZ7
 BAR2 SZ EP   1    022  6.20                             172     0.0 8   20 203 
 BAR2 SZ ES   1    022 21.94                             172    -0.1 8   20 203 
 BAR2 SZ I         022 24.01        35.7 0.17                            20 203 
 BRR  HZ EP   1    022  8.11                             152     0.1 8   77 300 
 BRR  HZ I         022  8.53        55.4 0.13                            77 300 
 BRR  HN ES   1    022 25.55                             152     0.3 8   77 300 
 RUS  HZ EP   1    022 10.21                             146     0.3 8   96 178 
 RUS  HN ES   1    022 28.42                             146    -0.2 8   96 178 
 RUS  HZ I         022 29.95        18.6 0.34                            96 178 
 BRI  SZ EP   1    022 10.74                             142     0.2 8  112  18 
 BRI  SZ ES   1    022 29.67                             142    -0.2 8  112  18 
 BRI  SZ I         022 35.12        29.6 0.74                           112  18 
 GRA  SZ IP        022 12.02                             138     0.110  129  15 
 GRA  SZ ES   1    022 32.26                             138     0.0 7  129  15 
 GRA  SZ I         022 34.18        28.3 0.30                           129  15 
 OCA  SZ EP   1    022 15.05                             130    -0.1 7  165 352 
 OCA  SZ ES   1    022 37.71                             130    -0.3 7  165 352 
 OCA  SZ I         022 42.03        32.6 0.22                           165 352 
 NOR  SZ EP   1    022 21.79                             120    -0.2 6  235 236 
 NOR  SE ES   2    022 50.05                             120    -0.1 4  235 236 
 ROSC BZ EP   2    022 23.68                             118    -0.4 4  251 212 
 HEL  HZ EP   2    022 26.39                             116    -0.2 4  275 257 
 HEL  HN ES   2    022 58.51                             116     0.0 4  275 257 
 HEL  HZ I         023  7.43         6.9 0.24                           275 257 
 PRA  HZ EP   2    022 38.85                             108    -0.5 3  390 210 
 SJA  SZ EP   2    022 39.66                             107    -0.5 3  396 194 
 SJA  SZ ES   2    023 23.27                             107     0.7 3  396 194 
 SJA  SZ I         023 32.88        17.4 0.55                           396 194 
                                                                                
