 2015  9 2 0017 20.9 L   6.789 -73.179136.0  RSN 11 0.6 1.9LRSN                1
 GAP=133        1.31       4.2     4.5  7.0 -0.2658E+01  0.1023E+02 -0.1301E+01E
 Epicentro: LOS SANTOS - SANTANDER                                             3
 ACTION:UPD 15-10-28 16:23 OP:cam  STATUS:               ID:20150902001720 L   I
 OLDACT:REG 15-09-02 13:39 OP:stll STATUS:               ID:20150902000747     3
 2015-09-02-0007-47M.COL___364                                                 6
 STAT SP IPHASW D HRMM SECON CODA AMPLIT PERI AZIMU VELO AIN AR TRES W  DIS CAZ7
 BAR2 EZ EP        017 39.46                             170    0.1810 21.8 181 
 BAR2 EZ ES        017 53.01                             170   -0.6410 21.8 181 
 BAR2 EZ I         017 55.42        20.9 0.44            170           21.8 181 
 BRR  HZ EP     C  017 41.17                             152    0.3610 68.6 301 
 BRR  HZ I         017 41.40        21.1 0.26            149           68.6 301 
 BRR  HE ES        017 57.57                             152    1.2010 68.6 301 
 PAM  EZ IP     C  017 42.36                             148    0.1110 80.6  41 
 PAM  EZ I         017 42.38        12.6 0.18            152           80.6  41 
 PAM  EN ES        017 58.79                             148   -0.1410 80.6  41 
 RUS  HZ EP        017 43.45                             142   -0.1410 99.7 174 
 RUS  HN ES        018  1.41                             142    0.0810 99.7 174 
 RUS  HZ I         018  3.88         9.0 0.16            144           99.7 174 
 CPBEREZ EP        017 46.12                             130   -0.57 9  144 259 
 CPBEREE ES        018  6.67                             130   -0.18 9  144 259 
 PTB  HZ EP     D  017 45.97                             130   -0.72 9  144 259 
 PTB  HN ES        018  7.01                             130    0.17 9  144 259 
 PTB  HZ I         018 11.77        10.3 0.16            129            144 259 
 SPBC HZ EP        017 48.29                             127   -0.02 9  160 218 
 SPBC HZ I         017 48.93        14.1 0.26            128            160 218 
 SPBC HE ES        018  9.97                             127    0.24 9  160 218 
 ZAR  HZ EP   2    017 53.93                             120    1.55 4  201 293 
 ZAR  HN ES        018 16.77                             120   -0.19 9  201 293 
 ZAR  HZ I         018 24.48         9.5 0.30            120            201 293 
 SML  HZ EP        017 56.53                             115   -0.38 8  243 336 
 SML  HN ES        018 24.58                             115   -0.45 8  243 336 
 SML  HZ I         018 28.06         6.2 0.10            116            243 336 
 HEL  HZ EP        018  1.28                             113    1.12 8  268 256 
 HEL  HN ES        018 29.82                             113   -1.00 8  268 256 
 HEL  HZ I         018 44.36         4.6 0.42            113            268 256 
 GUY2CHZ EP     D  018  4.06                             111    0.45 7  298 235 
 GUY2CHN ES        018 36.99                             111    0.03 7  298 235 
 GUY2CHZ I         018 45.27         3.5 0.62                           298 235 
                                                                                
