 2014  5 2 0254 38.8 L   6.807 -73.188139.6  RSN  4 0.4 1.6LRSN                1
 GAP=197        0.84       6.4     8.1 16.1  0.6007E+01 -0.6271E+01 -0.7055E+02E
 Epicentro: ZAPATOCA - SANTANDER                                               3
 OLDACT:REG 14-05-02 12:50 OP:fm   STATUS:               ID:20140502024816     3
 ACTION:UPD 15-03-16 16:54 OP:nd   STATUS:               ID:20140502025438 L   I
 OLDACT:UP  14-05-02 16:57 OP:fm   STATUS:               ID:20140502024816     3
 2014-05-02-0248-16M.COL___236                                                 6
 STAT SP IPHASW D HRMM SECON CODA AMPLIT PERI AZIMU VELO AIN AR TRES W  DIS CAZ7
 RUS  HN ES   1    255 19.99                             142   -0.20 8  102 173 
 PTB  HZ EP        255  4.52                             131   -0.3710  143 258 
 PTB  HN ES        255 25.01                             131   -0.2110  143 258 
 PTB  HZ I         255 29.59         2.8 2.36            143            143 258 
 SPBC HN ES   1    255 29.21                             128    0.88 7  161 218 
 SML  HZ EP   1    255 15.03                             116    0.21 6  241 336 
 SML  HN ES   1    255 43.25                             116    0.35 6  241 336 
 SML  HZ I         255 59.07         4.9 4.26            122            241 336 
                                                                                
