 2016  5 2 0052 23.0 L   6.838 -73.171149.5  RSN  8 0.5 1.6LRSN                1
 GAP=131        0.84       3.9     4.2  5.7 -0.3970E+01  0.9175E+01  0.2931E+01E
 Epicentro: ZAPATOCA - SANTANDER                                               3
 ACTION:UPD 16-08-18 17:41 OP:cam  STATUS:               ID:20160502005223 L   I
 OLDACT:UP  16-05-04 04:57 OP:cara STATUS:               ID:20160502005223 L   3
 OLDACT:REG 16-05-02 13:23 OP:edw  STATUS:               ID:20160502004744     3
 2016-05-02-0047-44M.COL___302                                                 6
 STAT SP IPHASW D HRMM SECON CODA AMPLIT PERI AZIMU VELO AIN AR TRES W  DIS CAZ7
 BAR2 EZ EP        052 43.18                             169    0.0410 27.2 183 
 BAR2 EZ ES        052 58.66                             169   -0.2010 27.2 183 
 BAR2 EZ I         052 59.63         8.6 0.24            163           27.2 183 
 PAM  EZ EP        052 46.16                             151    0.6510 76.1  43 
 PAM  EN ES        053  3.00                             151   -0.0910 76.1  43 
 RUS  HZ EP        052 47.32                             143   -0.0910  105 175 
 RUS  HN ES        053  6.35                             143   -0.1210  105 175 
 RUS  HZ I         053  7.84         3.6 0.30            135            105 175 
 PTB  HZ EP        052 50.00                             133   -0.08 9  146 257 
 PTB  HN ES        053 11.13                             133   -0.09 9  146 257 
 PTB  HZ I         053 12.93         5.7 0.16            126            146 257 
 SPBC HZ EP        052 51.96                             129    0.05 9  165 217 
 SPBC HZ I         053 20.33         8.7 0.24            122            165 217 
 CHI  HZ EP        053  1.18                             117   -0.07 8  252 194 
 CHI  HE ES        053 31.09                             117   -0.01 8  252 194 
 CHI  HZ I         053 36.97         2.2 0.34            111            252 194 
 URE  HZ EP   2    053  1.72                             114   -2.04 4  280 291 
 URE  HN ES   2    053 36.27                             114    0.70 4  280 291 
 GUY2CHZ EP        053  6.46                             113   -0.32 7  301 234 
 GUY2CHN ES        053 41.57                             113    0.63 7  301 234 
 GUY2CHZ I         053 53.43         2.4 0.46                           301 234 
                                                                                
