 2012 10 2 0321 21.9 L   6.872 -73.306124.5  RSN  4 0.1 1.7LRSN                1
 GAP=216        0.29       5.2     4.9  3.8  0.2213E+02  0.4162E+01  0.2717E+01E
 Epicentro: BETULIA - SANTANDER                                                3
 ACTION:UPD 12-11-22 17:01 OP:ep   STATUS:               ID:20121002032121 L   I
 2012-10-02-0320-00M.COL___223                                                 6
 STAT SP IPHASW D HRMM SECON CODA AMPLIT PERI AZIMU VELO AIN AR TRES W  DIS CAZ7
 BAR2 SZ EP   1    321 39.38                             164    0.12 7 33.8 156 
 BAR2 SZ ES   1    321 52.81                             164   -0.01 7 33.8 156 
 BAR2 SZ I         321 53.60        15.5 0.22                          33.8 156 
 BRR  HZ EP   1    321 39.59                             156   -0.08 7 51.9 300 
 BRR  HN ES   2    321 53.53                             156   -0.01 5 51.9 300 
 BRR  HZ I         321 54.45         7.7 0.15                          51.9 300 
 RUS  HZ EP   1    321 44.42                             136   -0.05 7  111 167 
 RUS  HN ES   2    322  2.11                             136    0.01 5  111 167 
 ZAR  HE ES   1    322 13.67                             120    0.03 7  185 292 
 ZAR  HN I         322 17.48         6.3 0.36                           185 292 
                                                                                
