 2015  1 2 0316  7.3 L   6.803 -73.139139.1  RSN 14 0.7 1.9LRSN                1
 GAP=130        1.65       5.0     4.7  8.4  0.3332E+01  0.6878E+01 -0.4199E+00E
 Epicentro: LOS SANTOS - SANTANDER                                             3
 ACTION:UPD 15-03-02 15:36 OP:nd   STATUS:               ID:20150102031607 L   I
 OLDACT:DUP 15-01-02 15:47 OP:stll STATUS:               ID:20150102030745d    3
 OLDACT:REG 15-01-02 13:14 OP:stll STATUS:               ID:20150102030743     3
 2015-01-02-0307-43M.COL___277                                                 6
 STAT SP IPHASW D HRMM SECON CODA AMPLIT PERI AZIMU VELO AIN AR TRES W  DIS CAZ7
 BAR2 EZ IP     C  316 26.57                             170    0.4710 23.8 192 
 BAR2 EZ I         316 26.80        24.7 0.38            168           23.8 192 
 BAR2 EZ ES        316 40.94                             170    0.1510 23.8 192 
 BRR  HZ IP     C  316 28.40                             151    0.6810 71.7 298 
 BRR  HN ES        316 44.55                             151    0.8710 71.7 298 
 RUS  HZ EP        316 30.32                             142   -0.0610  101 176 
 RUS  HE ES        316 48.15                             142   -0.2710  101 176 
 RUS  HZ I         316 50.24        11.2 0.34            142            101 176 
 PTB  HZ EP        316 33.51                             130   -0.25 9  149 259 
 PTB  HN ES        316 53.91                             130   -0.53 9  149 259 
 PTB  HZ I         316 55.72        10.4 0.28            127            149 259 
 TAM  HZ EP     C  316 34.94                             129    0.58 9  154 105 
 TAM  HZ I         316 35.09        15.1 0.36            130            154 105 
 TAM  HN ES        316 54.69                             129   -0.80 9  154 105 
 SPBC HZ EP        316 35.50                             127    0.18 9  164 219 
 SPBC HE ES        316 57.05                             127   -0.16 9  164 219 
 SPBC HZ I         317  0.23        24.1 0.22            125            164 219 
 ZAR  HZ EP        316 39.47                             121    0.14 9  205 292 
 ZAR  HE ES        317  4.78                             121    0.42 9  205 292 
 ZAR  HZ I         317 10.35        12.0 0.54            118            205 292 
 NOR  HZ EP        316 43.03                             117    0.34 8  235 235 
 NOR  HE ES        317  9.82                             117   -0.51 8  235 235 
 NOR  HZ I         317 15.63         7.5 0.18            115            235 235 
 SML  HZ EP        316 43.32                             116   -0.20 8  244 335 
 SML  HN ES        317  9.93                             116   -1.88 8  244 335 
 SML  HZ I         317 18.76        11.5 0.10            114            244 335 
 CHI  HZ EP        316 44.92                             116    0.27 8  249 195 
 CHI  HN ES        317 12.66                             116   -1.15 8  249 195 
 CHI  HZ I         317 17.87         3.4 0.58            114            249 195 
 HEL  HZ EP        316 47.65                             113    0.42 8  273 256 
 HEL  HE ES        317 19.34                             113    0.94 8  273 256 
 HEL  HZ I         317 25.71         5.5 0.56            111            273 256 
 CBOC HZ EP        316 54.82                             108    0.83 7  334 252 
 CBOC HN ES        317 29.14                             108   -1.31 7  334 252 
 CBOC HZ I         317 42.83         1.8 0.66            107            334 252 
 MON  HZ EP   9    316 53.61                             107   -2.44 0  354 308 
 MON  HN ES        317 31.21                                   -0.46 6  354 308 
 MON  HZ I         317 47.46         1.4 0.50            106            354 308 
 SJC  HZ EP   9    317  0.62                             104   -2.00 0  409 327 
 SJC  HN ES        317 41.61                                   -2.20 6  409 327 
 SJC  HZ I         317 45.24         1.6 0.44            103            409 327 
                                                                                
