 2011  7 2 0930 30.8 L   6.776 -73.121140.8  RSN  8 0.2 1.6LRSN                1
 GAP=141        0.39       2.4     3.0  3.4 -0.1698E+01  0.8622E+00 -0.3996E+00E
 Epicentro: LOS SANTOS - SANTANDER                                             3
 ACTION:UPD 12-07-25 13:57 OP:epov STATUS:               ID:20110702093030 L   I
 2011-07-02-0920-00M.COL___124                                                 6
 STAT SP IPHASW D HRMM SECON CODA AMPLIT PERI AZIMU VELO AIN AR TRES W  DIS CAZ7
 BAR2 SZ EP   1    930 49.60                             171   -0.19 7 21.5 199 
 BAR2 SZ ES   1    931  4.35                             171   -0.25 7 21.5 199 
 BAR2 SZ I         931  5.85        11.6 0.17                          21.5 199 
 BTL  SZ EP        930 49.80                             170   -0.0110 22.6 314 
 GIR2 SZ EP   2    930 49.85                             166   -0.11 5 34.4 346 
 GIR2 SZ ES   2    931  4.94                             166    0.02 5 34.4 346 
 BRR  HZ EP        930 51.54                             150   -0.0810 74.9 299 
 BRR  HN ES   1    931  8.06                             150    0.19 7 74.9 299 
 BRR  HZ I         931  9.52         9.6 0.08                          74.9 299 
 PAM  SZ EP        930 52.47                             150   -0.0310 77.7  37 
 PAM  SE ES   2    931  9.46                             150    0.03 5 77.7  37 
 RUS  HZ EP   1    930 53.90                             144    0.05 7 97.8 178 
 RUS  HN ES   1    931 12.13                             144    0.29 7 97.8 178 
 RUS  HZ I         931 13.95         5.6 0.20                          97.8 178 
 OCA  SZ EP   2    930 59.63                             128    0.63 5  163 352 
 OCA  SZ I         931 28.26         3.7 0.11                           163 352 
 NOR  SZ EP   2    931  6.13                             117   -0.19 4  235 235 
 NOR  SN ES   1    931 34.00                             117   -0.03 6  235 235 
                                                                                
