 2015  9 2 0359 38.6 L   6.806 -73.200137.8  RSN 11 0.6 2.0LRSN                1
 GAP=109        1.39       4.7     4.8  7.6 -0.4471E+01  0.3377E+01  0.8074E+00E
 Epicentro: ZAPATOCA - SANTANDER                                               3
 ACTION:UPD 15-10-28 16:23 OP:cam  STATUS:               ID:20150902035938 L   I
 OLDACT:REG 15-09-02 13:57 OP:stll STATUS:               ID:20150902035749     3
 2015-09-02-0357-49M.COL___364                                                 6
 STAT SP IPHASW D HRMM SECON CODA AMPLIT PERI AZIMU VELO AIN AR TRES W  DIS CAZ7
 BAR2 EZ EP        359 57.34                             170    0.1110 23.7 175 
 BAR2 EZ ES        4 0 12.00                             170    0.2010 23.7 175 
 BAR2 EZ I         4 0 14.12        14.2 0.40            171           23.7 175 
 BRR  HZ IP     C  359 59.32                             153    0.8010 65.6 300 
 BRR  HN ES        4 0 14.97                             153    0.8710 65.6 300 
 BRR  HZ I         4 0 20.05        18.1 0.12            151           65.6 300 
 RUS  HZ EP        4 0  1.74                             142    0.1210  102 173 
 RUS  HN ES        4 0 19.33                             142   -0.2910  102 173 
 RUS  HZ I         4 0 21.05        11.4 0.24            146            102 173 
 CPBEREN ES        4 0 22.82                             131   -1.65 9  142 258 
 PTB  HZ EP        4 0  4.03                             131   -0.32 9  142 258 
 PTB  HN ES        4 0 24.37                             131   -0.10 9  142 258 
 PTB  HZ I         4 0 32.48        12.8 0.34            132            142 258 
 CPBEREZ EP        4 0  4.15                             131   -0.20 9  142 258 
 OCA  HZ EP        4 0  5.70                             128   -0.43 9  159 355 
 OCA  HN ES        4 0 27.38                             128   -0.26 9  159 355 
 OCA  HZ I         4 0 34.28        16.1 0.18            130            159 355 
 SPBC HZ EP        4 0  6.50                             128    0.36 9  160 217 
 SPBC HE ES        4 0 27.78                             128    0.12 9  160 217 
 SPBC HZ I         4 0 34.65        15.8 0.24            130            160 217 
 TAM  HZ IP     D  4 0  5.75                             127   -0.44 9  161 105 
 TAM  HZ I         4 0  5.86        18.4 0.34            134            161 105 
 NOR  HZ EP        4 0 13.24                             117   -0.11 8  230 233 
 NOR  HN ES        4 0 40.57                             117    0.08 8  230 233 
 NOR  HZ I         4 0 49.48         8.5 0.44            119            230 233 
 HEL  HZ EP        4 0 18.69                             114    0.95 8  266 255 
 HEL  HN ES        4 0 48.44                             114    0.14 8  266 255 
 HEL  HZ I         4 0 56.82         6.1 0.28            115            266 255 
 GUY2CHZ EP   4    4 0 23.03                             111    1.74 0  297 234 
 GUY2CHE ES        4 0 54.90                             111    0.27 7  297 234 
 GUY2CHZ I         4 1  5.86         5.8 0.48                           297 234 
                                                                                
