 2017 11 2 0339 55.7 L   6.212 -73.709104.5  RSN 16 0.5 1.9LRSN                1
 GAP= 63        1.22       2.7     2.9  6.4 -0.1569E+01  0.3860E+01  0.1412E+01E
 Epicentro: LANDAZURI - SANTANDER                                              3
 ACTION:UPD 17-12-12 19:50 OP:rebc STATUS:               ID:20171102033955 L   I
 OLDACT:UP  17-11-02 15:15 OP:dnl  STATUS:               ID:20171102033738     3
 OLDACT:UP  17-11-02 15:14 OP:dnl  STATUS:               ID:20171102033738     3
 OLDACT:REG 17-11-02 13:28 OP:dnl  STATUS:               ID:20171102033738     3
 2017-11-02-0338-00M.COL___444                                                 6
 STAT SP IPHASW D HRMM SECON CODA AMPLIT PERI AZIMU VELO AIN AR TRES W  DIS CAZ7
 BAR2 EZ IP     C  340 13.00                             143    0.0710 71.8  54 
 BAR2 EZ ES        340 26.67                             143    0.2710 71.8  54 
 SPBC HZ EP        340 12.64                             142   -0.2310 73.8 213 
 SPBC HN ES        340 26.95                             142    0.6610 73.8 213 
 SPBC HZ I         340 28.32        29.9 0.26            142           73.8 213 
 RUS  HZ EP        340 13.26                             141   -0.4710 77.7 117 
 RUS  HE ES        340 27.68                             141   -0.1410 77.7 117 
 RUS  HZ I         340 29.11        14.6 0.30            141           77.7 117 
 PTB  HZ EP        340 13.18                             136   -0.9210 90.3 294 
 PTB  HN ES        340 27.70                             136   -0.7710 90.3 294 
 PTB  HZ I         340 28.69        16.3 0.10            136           90.3 294 
 BRR  HZ IP     C  340 14.75                             133   -0.0810 99.0 360 
 BRR  HN ES        340 30.22                             133    0.4410 99.0 360 
 BRR  HZ I         340 30.88        22.7 0.12            134           99.0 360 
 TABC EZ EP        340 20.57                             122    0.77 9  144 203 
 TABC EZ ES        340 38.27                             122   -0.35 9  144 203 
 TABC EZ I         340 42.66        17.6 0.46            122            144 203 
 NOR  HZ EP        340 18.97                             121   -0.66 9  147 241 
 NOR  HN ES        340 37.97                             121   -0.35 9  147 241 
 NOR  HZ I         340 40.39        18.5 0.16            121            147 241 
 ROSC BZ EP        340 22.80                             117    0.71 9  166 204 
 ROSC BE ES   4    340 45.18                             117    2.48 0  166 204 
 ROSC BZ I         340 46.51        14.9 0.40            118            166 204 
 PAM  EZ EP        340 22.06                             117   -0.28 9  167  42 
 PAM  EN ES        340 43.50                             117    0.35 9  167  42 
 PAM  EZ I         340 45.80         6.6 0.16            118            167  42 
 YPLC HZ EP        340 22.14                             116   -0.24 9  173 121 
 YPLC HN ES   4    340 41.85                             116   -1.37 0  173 121 
 YPLC HZ I         340 45.56        24.3 0.30            117            173 121 
 CHI  HZ EP        340 22.76                             116   -0.32 9  175 181 
 CHI  HE ES        340 44.68                             116    0.21 9  175 181 
 CHI  HZ I         340 47.83         7.3 0.58            116            175 181 
 ZAR  HZ EP        340 24.04                             113   -0.22 9  190 318 
 ZAR  HN ES        340 47.24                             113    0.68 9  190 318 
 ZAR  HZ I         340 48.74        12.7 0.20            114            190 318 
 GUY2CHZ EP        340 27.70                             111    0.22 8  213 239 
 GUY2CHN ES        340 52.77                             111    0.48 8  213 239 
 GUY2CHZ I         340 59.98         6.7 0.32                           213 239 
 CBOC HZ EP        340 32.83                             106    0.59 8  258 262 
 CBOC HN ES        341  0.98                             106    0.21 8  258 262 
 CBOC HZ I         341  4.78         2.2 0.54            106            258 262 
 URE  HZ EP   4    340 31.50                             105   -1.24 0  264 310 
 URE  HN ES   4    340 59.15                             105   -2.51 0  264 310 
 URE  HZ I         341  5.23         4.6 0.18            106            264 310 
 SJC  HZ EP   4    340 52.42                              96   -1.34 0  439 338 
 SJC  HN ES   4    341 35.18                              96   -3.89 0  439 338 
 SJC  HZ I         341 39.90         1.6 0.56             96            439 338 
                                                                                
