 2014  6 2 0614 30.6 L   7.380 -73.206126.9  RSN  6 0.5 1.7LRSN                1
 GAP=109        1.01       4.4     5.9  9.0 -0.8864E+01  0.2181E+02  0.3374E+01E
 Epicentro: EL PLAYON - SANTANDER                                              3
 ACTION:UPD 14-07-01 22:49 OP:nd   STATUS:               ID:20140602061430 L   I
 OLDACT:DUP 14-06-02 18:34 OP:stll STATUS:               ID:20140602060809d    3
 2014-06-02-0608-08M.COL___247                                                 6
 STAT SP IPHASW D HRMM SECON CODA AMPLIT PERI AZIMU VELO AIN AR TRES W  DIS CAZ7
 PAM  SZ EP        614 49.35                             155   -0.2410 56.1  94 
 PAM  SZ I         614 49.60        17.2 0.16            165           56.1  94 
 BAR2 SZ EP        614 50.75                             144   -0.4210 87.1 178 
 BAR2 SZ ES        615  7.47                             144    0.2610 87.1 178 
 BAR2 SZ I         615  9.19        17.9 0.24            147           87.1 178 
 OCA  HZ EP        614 51.91                             141    0.2010 95.8 353 
 OCA  HN ES        615  8.06                             141   -0.1110 95.8 353 
 OCA  HZ I         615 11.92         9.5 0.32            142           95.8 353 
 PTB  HZ EP        614 58.02                             124    0.06 9  166 236 
 PTB  HN ES        615 19.78                             124    0.48 9  166 236 
 PTB  HZ I         615 23.19         6.3 0.14            125            166 236 
 HEL  HZ EP        615 12.14                             109    0.34 7  288 243 
 HEL  HN ES        615 43.22                             109   -0.72 7  288 243 
 HEL  HZ I         615 55.11         2.4 0.24            111            288 243 
 GUY2CHZ EP        615 18.56                             106    0.93 7  337 225 
 GUY2CHZ I         615 21.14         1.6 0.26                           337 225 
 GUY2CHE ES        615 53.50                             106   -0.81 7  337 225 
                                                                                
