 2012  8 2 0359 36.9 L   7.392 -73.133  7.7  RSN  7 0.4 1.9LRSN                1
 GAP=109        0.78       2.2     2.5  5.9 -0.2343E+00  0.7221E+01  0.1771E+00E
 Epicentro: EL PLAYON - SANTANDER                                              3
 ACTION:UPD 12-09-10 11:53 OP:ep   STATUS:               ID:20120802035936 L   I
 2012-08-02-0358-59S.COL___215                                                 6
 STAT SP IPHASW D HRMM SECON CODA AMPLIT PERI AZIMU VELO AIN AR TRES W  DIS CAZ7
 PAM  SZ EP   1    359 45.76                              96    0.42 7 48.2  97 
 PAM  SN ES   1    359 52.00                              96    0.08 7 48.2  97 
 BRR  HZ EP        359 48.75                              93    0.4210 71.3 244 
 BRR  HZ I         359 49.59        38.5 0.14                          71.3 244 
 BRR  HE ES   1    359 57.39                              93    0.16 7 71.3 244 
 BAR2 SZ EP   1    359 51.21                              93    0.01 7 88.6 184 
 BAR2 SZ ES   1    4 0  1.62                              93   -0.72 7 88.6 184 
 BAR2 SZ I         4 0  3.35        44.2 0.15                          88.6 184 
 OCA  HZ EP   1    359 52.33                              92    0.13 7 95.8 348 
 OCA  HN ES   1    4 0  3.44                              92   -0.68 7 95.8 348 
 RUS  HZ EP   1    4 0  2.90                              91   -0.27 7  166 178 
 RUS  HZ I         4 0 26.60        14.2 0.26                           166 178 
 PTB  HZ EP   1    4 0  3.85                              56    0.23 7  174 237 
 PTB  HE ES   1    4 0 24.20                              56   -0.25 7  174 237 
 PTB  HZ I         4 0 24.70         9.5 0.34                           174 237 
 ZAR  HN ES   1    4 0 28.26                              56    0.10 7  191 273 
                                                                                
