 2013  5 2 0329 45.8 L   6.415 -73.495124.0  RSN 24 0.5 3.7LRSN 4.2WRSN        1
 SPEC AVERAGE  MO 15.4 ST326.0 OM  3.6 f0 4.33 R0.4497 AL 3.94 WI105.5 MW  4.2 3
 SPEC SD       MO  0.4 ST270.0 OM  0.3 f0 1.79 R0.2377 AL      WI      MW  0.2 3
 GAP= 53        1.12       2.8     3.1  4.9 -0.1768E+01  0.3760E+01  0.1504E+01E
 Epicentro: CONTRATACION - SANTANDER                                           3
 SPEC VIL SH N MO 15.8 ST 40.0 OM  4.0 f0 1.69 R0.9195 AL 3.00 WI112.9 MW  4.5 3
 SPEC VIL SH N T 33049 K 0.000 GD  284 VS 4.20 DE 3.20 Q0300.0 QA 0.60 VS 4.20 3
 SPEC OCA HH N MO 15.7 ST828.2 OM  3.9 f0 5.32 R0.2921 AL 3.48 WI154.9 MW  4.4 3
 SPEC OCA HH N T 33037 K 0.000 GD  237 VS 4.20 DE 3.20 Q0300.0 QA 0.60 VS 4.20 3
 SPEC NOR HH N MO 15.1 ST453.6 OM  3.4 f0 6.58 R0.2362 AL 6.43 WI 47.3 MW  4.0 3
 SPEC NOR HH N T 33036 K 0.000 GD  217 VS 4.20 DE 3.20 Q0300.0 QA 0.60 VS 4.20 3
 SPEC PAM SH N MO 15.0 ST244.0 OM  3.3 f0 6.12 R0.2539 AL 5.77 WI 66.1 MW  3.9 3
 SPEC PAM SH N T 33028 K 0.000 GD  183 VS 4.20 DE 3.20 Q0300.0 QA 0.60 VS 4.20 3
 SPEC GUA SH N MO 15.9 ST347.0 OM  3.8 f0 3.46 R0.4491 AL 2.83 WI172.6 MW  4.5 3
 SPEC GUA SH N T 33122 K 0.000 GD  456 VS 4.20 DE 3.20 Q0300.0 QA 0.60 VS 4.20 3
 SPEC COD HH E MO 15.2 ST 43.1 OM  3.2 f0 2.84 R0.5472 AL 2.10 WI 79.3 MW  4.1 3
 SPEC COD HH E T 33119 K 0.000 GD  408 VS 4.20 DE 3.20 Q0300.0 QA 0.60 VS 4.20 3
 ACTION:UPD 13-06-20 09:47 OP:ep   STATUS:               ID:20130502032945 L   I
 2013-05-02-0328-43M.COL___220                                                 6
 STAT SP IPHASW D HRMM SECON CODA AMPLIT PERI AZIMU VELO AIN AR TRES W  DIS CAZ7
 BAR2 SZ IP     C  330  3.37                             161    0.0410 39.7  60 
 BAR2 SZ ES        330 16.69                             161   -0.3210 39.7  60 
 RUS  HE IP     D  330  5.28                             147   -0.2110 73.6 142 
 RUS  HN ES   1    330 20.21                             147   -0.65 7 73.6 142 
 BRR  HZ IP     C  330  5.12                             144   -0.1210 80.2 343 
 BRR  HN ES        330 20.53                             144    0.1210 80.2 343 
 BRR  HZ I         330 31.69       856.7 0.36            137           80.2 343 
 GIR2 SZ IP     C  330  5.65                             144    0.1810 80.6  24 
 GIR2 SZ ES        330 21.16                             144    0.3410 80.6  24 
 PTB  HZ EP   9    330  6.42                             136   -0.94 0  107 277 
 PTB  HN ES        330 22.27                                   -0.9710  107 277 
 PTB  HZ I         330 23.73       508.4 0.32            129            107 277 
 PAM  SZ EP        330 10.38                             129   -0.0910  135  41 
 PAM  SN ES        330 30.17                             129    0.4610  135  41 
 PAM  SZ I         330 34.51       801.9 0.44            125            135  41 
 NOR  HZ EP        330 13.98                             120   -0.32 9  179 238 
 NOR  HN ES   1    330 36.74                             120    0.20 7  179 238 
 TAM  HZ IP     D  330 15.41                             119    0.12 9  188  89 
 TAM  HE ES        330 38.10                             119   -0.19 9  188  89 
 TAM  HZ I         330 40.17       531.4 0.22            117            188  89 
 ZAR  HZ EP        330 15.55                             118   -0.08 9  192 308 
 ROSC BZ EP   4    330 17.93                             118    1.31 0  197 208 
 ROSC BN ES   4    330 42.02                             118    1.35 0  197 208 
 ROSC BZ I         330 51.25       517.8 0.80            115            197 208 
 OCA  HZ EP     C  330 16.61                             117   -0.34 9  203   5 
 OCA  HN ES   1    330 40.86                             117   -0.40 6  203   5 
 HEL  HZ EP        330 20.85                             114    1.01 8  226 264 
 VIL  SZ EP     D  330 23.17                             111    0.35 8  256 185 
 VIL  SN ES        330 51.83                             111    0.13 8  256 185 
 VIL  SZ I         330 58.37       590.7 0.36            109            256 185 
 URE  HZ EP   4    330 23.15                             110   -1.08 0  269 303 
 URE  HN ES   4    330 52.69                             110   -1.53 0  269 303 
 URE  HZ I         331  1.45       367.6 0.28            106            269 303 
 SML  HZ EP   1    330 24.21                             109   -0.24 6  271 346 
 SML  HZ I         331  1.83       609.2 0.28            106            271 346 
 DBB  SZ EP        330 29.01                             107    0.28 7  307 283 
 DBB  SZ ES        331  0.88                             107   -1.34 7  307 283 
 DBB  SZ I         331  5.03       189.1 0.58            103            307 283 
 PRA  HZ EP        330 32.38                             105    0.34 7  336 207 
 PRA  HN ES        331  8.49                             105    0.38 7  336 207 
 PAL  HZ EP   4    330 35.20                             104    1.37 0  351 242 
 PAL  HN ES   4    331 13.42                             104    2.12 0  351 242 
 COD  HZ EP        330 38.42                             102    0.15 6  389   1 
 COD  HE ES        331 20.41                             102    1.21 6  389   1 
 ARGC HZ EP        330 39.02                             102    0.70 6  390 348 
 YOT  HZ EP        330 41.10                             101   -0.38 6  415 230 
 SDV  BZ EP        330 41.36                             101   -0.51 5  417  49 
 SDV  BN ES        331 24.16                             101   -1.45 5  417  49 
 SDV  BZ I         331 27.41       135.2 0.30             98            417  49 
 SJC  HZ EP   4    330 41.30                             101   -1.60 0  427 334 
 SJC  HN ES   4    331 24.63                             101   -2.82 0  427 334 
 SJC  HZ I         331 48.58        82.7 0.34             98            427 334 
 GUA  SZ EP   4 C  330 43.92                             100   -0.26 0  439 167 
 GUA  SN ES   4    331 28.33                             100   -1.38 0  439 167 
 GUA  SZ I         331 35.20       300.0 0.24             98            439 167 
 MARA HZ EP   4    330 50.01                              99    0.51 0  480 215 
 MARA HE ES   4    331 39.73                              99    0.54 0  480 215 
 SMAR HZ EP   4    330 54.93                              97   -0.39 0  531 351 
 SMAR HE ES   4    331 46.58                              97   -2.97 0  531 351 
 PCON HZ EP   4    330 59.51                              97    0.62 0  555 216 
 PCON HN ES   4    331 59.85                              97    3.95 0  555 216 
 FLO2 HZ EP   4 D  331  1.69                              96   -0.23 0  586 204 
 FLO2 HN ES   4    332  1.92                              96    0.61 0  586 204 
 FLO2 HZ I         332  4.67        26.0 0.48             94            586 204 
 SOTA HZ EP   4    331  3.68                              96    1.13 0  586 216 
                                                                                
