 2012  9 2 0832 56.5 L   6.753 -73.121141.8  RSN  6 0.2 1.7LRSN                1
 GAP=142        0.43       3.9     3.9  4.5 -0.2304E+01 -0.4602E+00 -0.2453E+01E
 Epicentro: LOS SANTOS - SANTANDER                                             3
 ACTION:UPD 12-10-22 14:16 OP:ep   STATUS:               ID:20120902083256 L   I
 2012-09-02-0830-00M.COL___218                                                 6
 STAT SP IPHASW D HRMM SECON CODA AMPLIT PERI AZIMU VELO AIN AR TRES W  DIS CAZ7
 BAR2 SZ EP        833 15.57                             172    0.0410 19.0 201 
 BAR2 SZ ES   1    833 30.27                             172   -0.14 7 19.0 201 
 BAR2 SZ I         833 31.39        15.3 0.24                          19.0 201 
 GIR2 SZ EP        833 15.68                             165   -0.1510 36.9 348 
 BRR  HZ EP        833 17.48                             150    0.0110 76.1 301 
 BRR  HZ I         833 17.87        17.6 0.10                          76.1 301 
 BRR  HN ES   1    833 34.09                             150    0.23 7 76.1 301 
 PAM  SZ EP        833 18.51                             149    0.1110 79.9  36 
 PAM  SZ I         833 18.73        11.4 0.24                          79.9  36 
 PAM  SN ES   1    833 35.43                             149   -0.09 7 79.9  36 
 RUS  HN ES   2    833 37.58                             144    0.22 5 95.2 177 
 RUS  HZ I         833 38.90         3.6 0.22                          95.2 177 
 PTB  HN ES   3    833 43.02                             131   -1.15 2  149 261 
                                                                                
