 2015  3 2 0900 52.1 L   6.773 -73.127143.8  RSN 16 0.5 2.1LRSN                1
 GAP= 67        1.28       3.2     3.8  6.0 -0.1771E+01  0.4843E+01  0.1421E+01E
 Epicentro: LOS SANTOS - SANTANDER                                             3
 ACTION:UPD 15-04-30 16:22 OP:nd   STATUS:               ID:20150302090052 L   I
 OLDACT:REG 15-03-02 13:05 OP:spq  STATUS:               ID:20150302085750     3
 2015-03-02-0857-50M.COL___287                                                 6
 STAT SP IPHASW D HRMM SECON CODA AMPLIT PERI AZIMU VELO AIN AR TRES W  DIS CAZ7
 BAR2 EZ IP     D  9 1 11.73                             171    0.2810 20.9 197 
 BAR2 EZ ES        9 1 26.40                             171   -0.1410 20.9 197 
 BAR2 EZ I         9 1 29.48        17.1 0.26            169           20.9 197 
 BRR  HZ IP     D  9 1 13.63                             151    0.4010 74.4 300 
 BRR  HZ I         9 1 13.91        31.6 0.26            144           74.4 300 
 BRR  HN ES        9 1 30.92                             151    1.2210 74.4 300 
 PAM  SZ IP     D  9 1 14.55                             150    0.3710 78.4  37 
 PAM  SZ I         9 1 14.83        28.7 0.22            148           78.4  37 
 PAM  SN ES        9 1 31.64                             150    0.2510 78.4  37 
 RUS  HZ EP        9 1 15.64                             144    0.2010 97.5 177 
 RUS  HN ES        9 1 33.24                             144   -0.4010 97.5 177 
 RUS  HZ I         9 1 35.42        11.3 0.34            143           97.5 177 
 PTB  HZ EP        9 1 18.72                             131   -0.33 9  149 260 
 PTB  HN ES        9 1 39.58                             131   -0.48 9  149 260 
 PTB  HZ I         9 1 45.42        14.3 0.56            126            149 260 
 TAM  HZ IP     D  9 1 19.88                             131    0.50 9  152 104 
 TAM  HZ I         9 1 20.11        13.7 0.34            130            152 104 
 TAM  HN ES        9 1 40.28                             131   -0.37 9  152 104 
 SPBC HZ EP        9 1 20.73                             129    0.37 9  162 220 
 SPBC HN ES        9 1 42.48                             129    0.08 9  162 220 
 SPBC HZ I         9 1 44.24        27.8 0.44            125            162 220 
 OCA  HZ EP        9 1 20.25                             128   -0.32 9  163 353 
 OCA  HN ES        9 1 41.87                             128   -0.90 9  163 353 
 OCA  HZ I         9 1 47.63        14.2 0.28            124            163 353 
 NOR  HZ EP        9 1 27.90                             118    0.18 8  235 235 
 NOR  HN ES        9 1 54.97                             118   -0.53 8  235 235 
 NOR  HZ I         9 1 58.00         7.7 0.26            114            235 235 
 CHI  HZ EP        9 1 29.74                             117    0.29 8  246 196 
 CHI  HZ I         9 1 31.80         4.9 0.16            114            246 196 
 CHI  HN ES        9 1 57.38                             117   -1.19 8  246 196 
 SML  HZ EP        9 1 28.26                             117   -0.75 8  247 335 
 SML  HE ES        9 1 57.22                             117   -0.57 8  247 335 
 SML  HZ I         9 2  4.98        13.2 0.32            113            247 335 
 GUY2CHZ EP        9 1 36.36                             112    0.73 7  301 235 
 GUY2CHN ES        9 2  9.74                             112    0.17 7  301 235 
 GUY2CHZ I         9 2 19.14         6.3 0.74                           301 235 
 PTGC HZ EP   9    9 1 34.63                             111   -0.85 0  305 159 
 PTGC HZ I         9 1 35.02        10.6 0.18            109            305 159 
 PTGC HN ES        9 2  7.62                                   -0.84 7  305 159 
 CBOC HZ EP        9 1 39.47                             109    0.41 7  335 253 
 CBOC HZ I         9 2 21.81         1.6 0.46            106            335 253 
 MON  HZ EP   9    9 1 39.09                             108   -2.34 0  357 309 
 MON  HN ES        9 2 17.64                                    0.08 6  357 309 
 MON  HZ I         9 2 32.50         3.9 0.68            105            357 309 
 ORTC HZ EP        9 1 45.91                             106    0.09 6  394 217 
                                                                                
