 2013 12 2 0052 10.6 L   6.788 -73.125146.5  RSN  7 0.5 1.6LRSN                1
 GAP=159        1.23       6.2     5.8  8.9 -0.1216E+02  0.1236E+02  0.8200E+01E
 Epicentro: LOS SANTOS - SANTANDER                                             3
 ACTION:UPD 14-01-13 10:15 OP:ep   STATUS:               ID:20131202005210 L   I
 OLDACT:UP  13-12-02 08:02 OP:carl STATUS:               ID:20131202005000     3
 OLDACT:REG 13-12-02 07:18 OP:carl STATUS:               ID:20131202005000     3
 2013-12-02-0050-00M.COL___282                                                 6
 STAT SP IPHASW D HRMM SECON CODA AMPLIT PERI AZIMU VELO AIN AR TRES W  DIS CAZ7
 BAR2 SZ EP        052 30.31                             171   -0.0110 22.5 196 
 BAR2 SZ ES        052 45.22                             171   -0.4710 22.5 196 
 BAR2 SZ I         052 46.27        11.9 0.20            169           22.5 196 
 BRR  HZ EP        052 32.21                             152    0.2110 73.8 299 
 BRR  HE ES        052 49.00                             152    0.3310 73.8 299 
 PAM  SZ EP        052 33.38                             151    0.4910 77.0  38 
 PAM  SN ES        052 50.57                             151    0.3010 77.0  38 
 PAM  SZ I         052 51.20         5.2 0.24            153           77.0  38 
 PTB  HZ EP        052 36.98                             132   -0.84 9  150 260 
 PTB  HN ES        052 58.58                             132   -0.46 9  150 260 
 PTB  HZ I         053  0.23         6.6 0.18            131            150 260 
 OCA  HE ES        053  0.75                             129   -0.64 9  162 352 
 ZAR  HE ES        053  9.50                             122    0.57 8  207 292 
 NOR  HZ EP        052 46.32                             118   -0.18 8  236 235 
 NOR  HN ES        053 15.28                             118    0.79 8  236 235 
 NOR  HZ I         053 19.89         3.4 0.38            118            236 235 
                                                                                
