 2013 12 2 0453 39.0 L   6.809 -73.138154.5  RSN  9 0.4 1.8LRSN                1
 GAP=137        1.10       3.5     4.8  7.4 -0.1357E+01  0.3598E+01 -0.2234E+01E
 Epicentro: LOS SANTOS - SANTANDER                                             3
 ACTION:UPD 14-01-13 10:15 OP:ep   STATUS:               ID:20131202045339 L   I
 OLDACT:REG 13-12-02 07:25 OP:carl STATUS:               ID:20131202045000     3
 2013-12-02-0450-00M.COL___282                                                 6
 STAT SP IPHASW D HRMM SECON CODA AMPLIT PERI AZIMU VELO AIN AR TRES W  DIS CAZ7
 BAR2 SZ EP        453 59.86                             171    0.1110 24.5 192 
 BRR  HZ EP        454  1.80                             154    0.6410 71.5 297 
 BRR  HN ES        454 19.19                             154    0.7810 71.5 297 
 BRR  HZ I         454 22.25         5.2 0.28            151           71.5 297 
 PAM  SZ EP        454  1.94                             153   -0.1810 76.0  40 
 PAM  SN ES        454 19.95                             153   -0.1710 76.0  40 
 PAM  SZ I         454 21.94        12.5 0.56            156           76.0  40 
 RUS  HZ EP        454  3.61                             145   -0.1210  102 177 
 RUS  HN ES        454 23.11                             145    0.1310  102 177 
 PTB  HZ EP        454  6.69                             134   -0.14 9  149 259 
 PTB  HN ES        454 27.62                             134   -0.88 9  149 259 
 PTB  HZ I         454 33.61         5.5 0.28            134            149 259 
 OCA  HZ EP        454  8.05                             132    0.09 9  159 353 
 OCA  HN ES        454 29.98                             132   -0.54 9  159 353 
 OCA  HZ I         454 34.70         6.1 0.30            133            159 353 
 SPBC HZ EP        454  8.62                             131    0.27 9  165 219 
 SPBC HN ES        454 30.75                             131   -0.46 9  165 219 
 SPBC HZ I         454 35.80         8.0 0.24            132            165 219 
 ZAR  HN ES        454 38.46                             124    0.55 9  204 292 
 ZAR  HN I         454 45.63         7.4 0.16            125            204 292 
 SML  HZ EP        454 16.22                             119    0.10 8  243 335 
 SML  HN ES        454 44.65                             119   -0.38 8  243 335 
 SML  HZ I         454 47.67         8.5 0.10            121            243 335 
                                                                                
