 2015  5 2 0426  5.5 L   6.810 -73.157142.0  RSN 14 0.5 1.9LRSN                1
 GAP= 70        1.09       2.7     3.9  5.6 -0.1092E+01  0.4919E+01  0.4580E+00E
 Epicentro: LOS SANTOS - SANTANDER                                             3
 ACTION:UPD 15-09-10 22:00 OP:cam  STATUS:               ID:20150502042605 L   I
 OLDACT:UP  15-05-07 14:31 OP:cam  STATUS:               ID:20150502042605 L   3
 OLDACT:UP  15-05-07 14:30 OP:cam  STATUS:               ID:20150502042605 L   3
 OLDACT:UP  15-05-07 14:30 OP:cam  STATUS:               ID:20150502042605 L   3
 OLDACT:UP  15-05-07 14:29 OP:cam  STATUS:               ID:20150502042605 L   3
 OLDACT:UP  15-05-06 07:11 OP:AK   STATUS:               ID:20150502042605 L   3
 OLDACT:REG 15-05-02 13:07 OP:stll STATUS:               ID:20150502041742     3
 2015-05-02-0417-42M.COL___276                                                 6
 STAT SP IPHASW D HRMM SECON CODA AMPLIT PERI AZIMU VELO AIN AR TRES W  DIS CAZ7
 BAR2 EZ EP        426 24.74                             170    0.0510 24.2 187 
 BAR2 EZ ES        426 39.22                             170   -0.4410 24.2 187 
 BAR2 EZ I         426 42.30        12.6 0.18            166           24.2 187 
 BRR  HZ IP     C  426 26.58                             152    0.4410 69.5 298 
 BRR  HN ES        426 43.06                             152    0.8210 69.5 298 
 BRR  HZ I         426 43.93        17.6 0.12            144           69.5 298 
 PAM  SZ EP        426 27.64                             150    0.3310 77.4  41 
 PAM  SN ES        426 43.84                             150   -0.4810 77.4  41 
 PAM  SZ I         426 46.07         7.9 0.36            150           77.4  41 
 RUS  HZ EP        426 28.85                             143   -0.1110  102 175 
 RUS  HN ES        426 46.96                             143   -0.3110  102 175 
 RUS  HZ I         426 49.33         9.3 0.18            139            102 175 
 TAM  HZ EP        426 33.21                             129    0.19 9  157 105 
 TAM  HZ I         426 33.42        15.2 0.36            128            157 105 
 OCA  HZ EP        426 33.26                             129   -0.13 9  159 354 
 OCA  HE ES        426 55.68                             129    0.52 9  159 354 
 OCA  HZ I         427  1.40        14.6 0.38            124            159 354 
 SPBC HZ EP        426 33.87                             128    0.16 9  163 218 
 SPBC HE ES        426 56.17                             128    0.45 9  163 218 
 SPBC HZ I         426 58.40        10.4 0.12            122            163 218 
 ZAR  HZ EP        426 37.53                             122    0.00 9  202 292 
 ZAR  HN ES        427  2.33                             122   -0.18 9  202 292 
 ZAR  HZ I         427  8.22         9.6 0.40            116            202 292 
 NOR  HZ EP        426 41.09                             118    0.13 8  234 234 
 NOR  HN ES        427  8.04                             118   -0.59 8  234 234 
 NOR  HZ I         427 16.53         4.7 0.68            113            234 234 
 SML  HZ EP        426 40.79                             117   -0.95 8  242 335 
 SML  HE ES   1    427  9.49                             117   -0.52 6  242 335 
 SML  HZ I         427 11.55        10.9 0.10            112            242 335 
 CHI  HZ EP        426 43.38                             116    0.31 8  249 195 
 CHI  HN ES        427 12.21                             116   -0.16 8  249 195 
 CHI  HZ I         427 20.20         2.6 0.34            112            249 195 
 HEL  HZ EP   2    426 47.18                             114    1.77 4  271 256 
 HEL  HZ I         427 23.57         4.6 0.32            109            271 256 
 GUY2CHZ EP   4    426 51.82                             112    2.94 0  301 234 
 GUY2CHE ES        427 22.38                             112   -0.34 7  301 234 
 GUY2CHZ I         427 33.10         4.5 0.52                           301 234 
 MON  HZ EP   4    426 52.11                             108   -2.04 0  352 308 
 MON  HN ES   1    427 31.06                             108   -1.05 5  352 308 
 MON  HZ I         427 45.58         1.9 0.32            104            352 308 
                                                                                
