 2010 12 2 0615 41.4 L   6.793 -73.076140.9  RSN  4 0.1 1.3LRSN                1
 GAP=166        0.44       3.5     6.5  5.5  0.8002E+01 -0.1836E+02 -0.6777E+01E
 Epicentro: LOS SANTOS - SANTANDER                                             3
 ACTION:UP  11-01-14 15:22 OP:pat  STATUS:               ID:20101202061541 L   I
 2010-12-02-0613-52S.COL___132                                                 6
 STAT SP IPHASW D HRMM SECON CODA AMPLIT PERI AZIMU VELO SNR AR TRES W  DIS CAZ7
 BAR2 SZ EP        616  0.47                             169     0.010   25 208 
 BAR2 SZ ES   1    616 15.17                             169    -0.2 7   25 208 
 BRR  HZ EP        616  2.26                             149    -0.210   78 296 
 BRR  HN ES   1    616 19.08                             149     0.2 7   78 296 
 BRR  HZ I         616 22.92         7.0 0.51                            78 296 
 RUS  HZ EP        616  4.66                             143     0.110  100 180 
 RUS  HZ I         616  5.26         1.5 0.17                           100 180 
 RUS  HN ES   2    616 22.82                             143     0.1 5  100 180 
 GRA  SZ EP        616  6.16                             136     0.110  124  14 
 GRA  SZ I         616  6.61         3.4 0.36                           124  14 
                                                                                
