 2016  9 2 0552 23.7 L   6.773 -73.128143.2  RSN  6 0.3 1.2LRSN                1
 GAP=237        0.78       4.3     4.6  5.7  0.8225E+01  0.4658E+01  0.1652E+01E
 Epicentro: LOS SANTOS - SANTANDER                                             3
 ACTION:UPD 17-08-17 21:05 OP:lp   STATUS:               ID:20160902055223 L   I
 OLDACT:REG 16-09-02 13:19 OP:drio STATUS:               ID:20160902054739     3
 2016-09-02-0548-00M.COL___347                                                 6
 STAT SP IPHASW D HRMM SECON CODA AMPLIT PERI AZIMU VELO AIN AR TRES W  DIS CAZ7
 BAR2 EZ EP        552 42.50                             171   -0.5010 20.9 197 
 BAR2 EZ ES        552 58.06                             171    0.0210 20.9 197 
 BAR2 EZ I         552 58.62         3.3 0.18            167           20.9 197 
 BRR  HZ EP        552 44.83                             151    0.0410 74.4 300 
 BRR  HE ES        553  1.46                             151    0.2510 74.4 300 
 RUS  HZ EP        552 47.42                             144    0.4110 97.5 177 
 RUS  HE ES        553  5.02                             144   -0.1410 97.5 177 
 RUS  HZ I         553  6.58         1.7 0.30            143           97.5 177 
 PTB  HZ EP        552 51.01                             131    0.40 9  149 260 
 PTB  HE ES        553 11.80                             131    0.21 9  149 260 
 PTB  HZ I         553 13.63         2.1 0.14            130            149 260 
 SPBC HZ EP        552 51.77                             129   -0.16 9  162 220 
 SPBC HE ES        553 13.77                             129   -0.16 9  162 220 
 SPBC HZ I         553 17.43         2.6 0.18            127            162 220 
 ZAR  HN ES        553 21.26                             121   -0.47 8  207 293 
                                                                                
