 2015 11 2 0351 54.3 L   6.796 -73.124143.1  RSN 11 0.3 1.7LRSN                1
 GAP=140        0.49       2.8     2.8  3.7 -0.3257E+01  0.1973E+01  0.2084E+01E
 Epicentro: LOS SANTOS - SANTANDER                                             3
 ACTION:UPD 15-12-28 16:08 OP:cam  STATUS:               ID:20151102035154 L   I
 OLDACT:REG 15-11-02 12:34 OP:ar   STATUS:               ID:20151102034748     3
 2015-11-02-0347-48M.COL___310                                                 6
 STAT SP IPHASW D HRMM SECON CODA AMPLIT PERI AZIMU VELO AIN AR TRES W  DIS CAZ7
 BAR2 EZ EP        352 13.58                             170   -0.0110 23.4 196 
 BAR2 EZ ES        352 28.44                             170   -0.2210 23.4 196 
 BAR2 EZ I         352 32.15         8.3 0.16            166           23.4 196 
 BRR  HZ EP        352 15.11                             151   -0.1610 73.6 298 
 BRR  HN ES        352 31.90                             151    0.2410 73.6 298 
 BRR  HZ I         352 32.48        12.7 0.32            150           73.6 298 
 PAM  EZ EP        352 16.25                             151    0.1110 76.2  38 
 PAM  EN ES        352 33.14                             151   -0.0510 76.2  38 
 PAM  EZ I         352 35.10         9.0 0.44            156           76.2  38 
 RUS  HZ EP   2    352 17.47                             143   -0.25 5  100 177 
 RUS  HN ES   2    352 36.43                             143    0.42 5  100 177 
 RUS  HZ I         352 37.73         7.5 0.26            142            100 177 
 SPBC HZ EP   2    352 22.43                             128   -0.26 5  164 220 
 SPBC HN ES   2    352 45.18                             128    0.33 5  164 220 
 SPBC HZ I         352 51.56        12.2 0.38            127            164 220 
 ZAR  HZ EP   2    352 27.18                             121    0.38 4  206 292 
 ZAR  HN ES   4    352 46.35                             121   -5.82 0  206 292 
 NOR  HN ES        352 57.67                             118   -0.26 8  236 235 
 CHI  HZ EP   2    352 31.86                             116    0.01 4  249 196 
 CHI  HE ES   2    353  1.81                             116    0.65 4  249 196 
 CHI  HZ I         353  8.15         1.8 0.26            116            249 196 
 HEL  HZ EP   2    352 35.11                             114    0.51 4  274 256 
 HEL  HN ES   2    353  5.39                             114   -0.67 4  274 256 
 HEL  HZ I         353 13.73         4.6 0.54            114            274 256 
 GUY2CHZ EP   4    352 39.87                             112    1.91 0  303 235 
 GUY2CHE ES   2    353 12.45                             112    0.42 4  303 235 
 GUY2CHZ I         353 21.52         4.7 0.36                           303 235 
 MON  HZ EP   9    352 40.54                             108   -2.89 0  356 308 
 MON  HN ES   2    353 18.94                                    0.06 3  356 308 
 MON  HZ I         353 25.20         1.5 0.40            109            356 308 
                                                                                
