 2013  1 2 0736 18.4 L   6.767 -73.172146.4  RSN  6 0.3 1.8LRSN                1
 GAP=232        0.81       4.5     5.2  5.8  0.1264E+02  0.6822E+01  0.6856E+01E
 Epicentro: LOS SANTOS - SANTANDER                                             3
 ACTION:UPD 13-02-15 09:11 OP:ep   STATUS:               ID:20130102073618 L   I
 2013-01-02-0730-00M.COL___242                                                 6
 STAT SP IPHASW D HRMM SECON CODA AMPLIT PERI AZIMU VELO AIN AR TRES W  DIS CAZ7
 BAR2 SZ EP        736 37.79                             172   -0.2910 19.4 183 
 BAR2 SZ ES        736 53.17                             172   -0.2310 19.4 183 
 BAR2 SZ I         736 55.59        11.7 0.42            168           19.4 183 
 BRR  HZ EP        736 39.79                             153    0.1610 70.5 302 
 BRR  HZ I         736 40.05         7.3 0.16            152           70.5 302 
 BRR  HN ES        736 56.81                             153    0.6610 70.5 302 
 RUS  HZ EP        736 42.03                             145    0.0110 97.2 174 
 RUS  HN ES        737  0.28                             145   -0.1310 97.2 174 
 RUS  HN I         737  2.06         5.7 0.16            144           97.2 174 
 PTB  HZ EP        736 44.94                             133   -0.21 9  144 260 
 PTB  HN ES        737  5.58                             133   -0.40 9  144 260 
 PTB  HN I         737 11.50        23.8 0.38            132            144 260 
 ZAR  HE ES        737 15.96                             123   -0.08 9  203 293 
 CHI  HZ EP        736 55.94                             118    0.22 8  244 195 
 CHI  HN ES        737 25.25                             118    0.46 8  244 195 
 CHI  HN I         737 27.75         4.4 0.30            118            244 195 
                                                                                
