 2011  4 2 0920  2.0 L   6.838 -73.150155.5  RSN  4 0.5 1.7LRSN                1
 GAP=277        0.93      11.5    16.3 10.9 -0.8772E+02 -0.3988E+02 -0.3655E+01E
 Epicentro: LOS SANTOS - SANTANDER                                             3
 ACTION:UP  11-06-22 15:28 OP:REBC STATUS:               ID:20110402092002 L   I
 2011-04-02-0919-31S.COL___138                                                 6
 STAT SP IPHASW D HRMM SECON CODA AMPLIT PERI AZIMU VELO SNR AR TRES W  DIS CAZ7
 BTL  SZ EP        920 23.26                             175     0.610   16 304 
 BTL  SZ ES   1    920 38.77                             175    -0.1 7   16 304 
 BRR  HZ EP        920 23.89                             156    -0.210   69 296 
 BRR  HZ I         920 24.05        11.1 0.39                            69 296 
 BRR  HN ES   2    920 40.78                             156    -0.5 5   69 296 
 GRA  SZ EP        920 27.62                             140    -0.210  122  18 
 GRA  SZ I         920 29.03         6.0 0.40                           122  18 
 GRA  SZ ES   2    920 47.50                             140    -0.5 5  122  18 
 OCA  SZ EP   2    920 30.35                             133    -0.4 5  156 353 
 OCA  SZ ES   2    920 54.09                             133     1.0 5  156 353 
                                                                                
