 2016 12 2 0712  5.7 L   6.684 -73.117144.7  RSN  5 0.4 1.3LRSN                1
 GAP=183        0.93       7.8     4.5  6.8 -0.7939E+01  0.8308E+01 -0.8139E+00E
 Epicentro: JORDAN - SANTANDER                                                 3
 ACTION:UPD 17-01-11 20:11 OP:rebc STATUS:               ID:20161202071205 L   I
 OLDACT:REG 16-12-02 12:42 OP:dnl  STATUS:               ID:20161202070643     3
 2016-12-02-0707-00M.COL___328                                                 6
 STAT SP IPHASW D HRMM SECON CODA AMPLIT PERI AZIMU VELO AIN AR TRES W  DIS CAZ7
 BAR2 EZ EP        712 25.53                             175    0.5110 12.4 215 
 BAR2 EZ ES        712 40.22                             175    0.1210 12.4 215 
 BAR2 EZ I         712 42.96         4.2 0.34            171           12.4 215 
 BRR  HZ IP        712 27.35                             149    0.0710 80.6 305 
 BRR  HE ES        712 44.28                             149    0.1510 80.6 305 
 BRR  HZ I         712 47.61         5.0 0.34            148           80.6 305 
 PAM  EZ EP        712 28.55                             148    0.2310 85.9  32 
 PAM  EN ES        712 45.45                             148   -0.5310 85.9  32 
 PAM  EZ I         712 46.20         2.5 0.30            152           85.9  32 
 PTB  HZ EP        712 32.28                             131   -0.39 9  149 264 
 PTB  HE ES        712 53.29                             131   -0.43 9  149 264 
 PTB  HZ I         712 59.03         2.0 0.18            132            149 264 
 ZAR  HZ EP        712 38.58                             121   -0.31 8  212 295 
 ZAR  HE ES        713  5.31                             121    0.52 8  212 295 
 ZAR  HZ I         713  9.56         2.6 0.40            122            212 295 
                                                                                
