 2016 11 2 0256 40.4 L   6.241 -73.665109.7  RSN  4 0.1 1.0LRSN                1
 GAP=170        0.38       2.3     1.9  4.0  0.1891E+01  0.2762E+01  0.1749E+01E
 Epicentro: LA PAZ - SANTANDER                                                 3
 ACTION:UPD 17-10-26 21:03 OP:lp   STATUS:               ID:20161102024743 L   I
 OLDACT:UPD 16-11-02 13:22 OP:dnl  STATUS:               ID:20161102024743 L   3
 2016-11-02-0248-00M.COL___343                                                 6
 STAT SP IPHASW D HRMM SECON CODA AMPLIT PERI AZIMU VELO AIN AR TRES W  DIS CAZ7
 BAR2 EZ ES        257 11.12                             147   -0.1710 66.0  54 
 RUS  HZ EP        256 58.82                             143    0.0810 75.0 121 
 RUS  HN ES        257 13.11                             143    0.0510 75.0 121 
 RUS  HZ I         257 15.09         1.2 0.19            146           75.0 121 
 PTB  HZ EP        256 59.42                             136   -0.1110 93.6 291 
 PTB  HN ES        257 14.49                             136    0.0210 93.6 291 
 PTB  HZ I         257 15.12         2.6 0.16            139           93.6 291 
 BRR  HZ EP        256 59.70                             136   -0.0110 95.9 357 
 BRR  HN ES        257 14.93                             136    0.1410 95.9 357 
 BRR  HZ I         257 19.33         3.5 0.33            136           95.9 357 
                                                                                
