 2015 12 2 0742 11.1 L   6.827 -73.165147.3  RSN 25 0.5 2.5LRSN                1
 GAP= 69        1.01       2.5     2.7  4.5 -0.1245E+01  0.3652E+01  0.1378E+01E
 Epicentro: LOS SANTOS - SANTANDER                                             3
 ACTION:UPD 16-02-04 15:01 OP:cam  STATUS:               ID:20151202074211 L   I
 OLDACT:UP  15-12-02 16:54 OP:mh   STATUS:               ID:20151202073749     3
 OLDACT:UP  15-12-02 16:43 OP:cara STATUS:               ID:20151202073749     3
 OLDACT:UP  15-12-02 16:18 OP:cara STATUS:               ID:20151202073749     3
 OLDACT:REG 15-12-02 12:24 OP:mh   STATUS:               ID:20151202073749     3
 2015-12-02-0737-49M.COL___315                                                 6
 STAT SP IPHASW D HRMM SECON CODA AMPLIT PERI AZIMU VELO AIN AR TRES W  DIS CAZ7
 BAR2 EZ EP     C  742 30.84                             169   -0.1410 26.1 184 
 BAR2 EZ ES        742 46.20                             169   -0.2710 26.1 184 
 BAR2 EZ I         742 48.38        57.0 0.16            167           26.1 184 
 BRR  HZ IP     C  742 32.62                             154    0.3810 67.9 297 
 BRR  HE ES        742 49.42                             154    0.7010 67.9 297 
 BRR  HZ I         742 53.59        52.3 0.36            150           67.9 297 
 PAM  EZ IP     C  742 33.87                             151    0.4410 76.5  42 
 PAM  EE ES        742 51.24                             151    0.4010 76.5  42 
 PAM  EZ I         742 53.03        44.5 0.48            155           76.5  42 
 RUS  HZ EP     C  742 34.85                             143   -0.3910  104 175 
 RUS  HN ES        742 53.98                             143   -0.0810  104 175 
 RUS  HZ I         742 54.52        38.4 0.24            144            104 175 
 PTB  HZ EP        742 37.34                             133   -0.73 9  146 258 
 PTB  HN ES        742 58.66                             133   -0.44 9  146 258 
 PTB  HZ I         743  0.17        39.3 0.46            130            146 258 
 OCA  HZ EP        742 39.30                             131    0.07 9  157 354 
 OCA  HE ES        743  0.91                             131   -0.26 9  157 354 
 OCA  HZ I         743  7.41        55.7 0.32            131            157 354 
 TAM  HZ IP     D  742 39.31                             130    0.14 9  158 106 
 TAM  HE ES   1    743  0.49                             130   -0.56 7  158 106 
 SPBC HZ IP        742 39.70                             129   -0.12 9  164 218 
 SPBC HE ES        743  2.03                             129   -0.19 9  164 218 
 SPBC HZ I         743  8.88        61.0 0.22            128            164 218 
 ZAR  HZ EP        742 43.06                             123   -0.28 9  201 292 
 ZAR  HE ES        743  8.65                             123    0.18 9  201 292 
 ZAR  HZ I         743 14.34        28.3 0.40            122            201 292 
 NOR  HZ EP        742 47.02                             119    0.09 8  235 234 
 NOR  HE ES        743 14.43                             119   -0.45 8  235 234 
 NOR  HZ I         743 22.67        29.3 0.16            118            235 234 
 SML  HZ IP     C  742 47.15                             118   -0.28 8  240 335 
 SML  HE ES        743 15.76                             118    0.01 8  240 335 
 SML  HZ I         743 19.25        40.3 0.10            118            240 335 
 ROSC BZ EP   4    742 50.88                             117    1.40 0  254 210 
 ROSC BE ES   4    743 23.44                             117    4.03 0  254 210 
 ROSC BZ I         743 27.01        27.9 0.35            117            254 210 
 HEL  HZ IP   4 C  742 52.90                             115    1.64 0  271 255 
 HEL  HN ES        743 22.50                             115   -0.07 8  271 255 
 HEL  HZ I         743 30.14        16.4 0.58            114            271 255 
 URE  HZ EP   4    742 50.95                             114   -0.96 0  281 291 
 GUY2CHZ EP   4    742 56.05                             113    1.26 0  301 234 
 GUY2CHN ES        743 29.47                             113    0.60 7  301 234 
 GUY2CHZ I         743 36.07        14.4 0.62                           301 234 
 VIL  SZ EP   1    742 54.29                             112   -0.59 5  306 191 
 VIL  SN ES   4    743 28.30                             112   -0.73 0  306 191 
 PTGC HZ EP   4    742 54.20                             112   -1.24 0  312 158 
 PTGC HN ES   4    743 27.77                             112   -2.25 0  312 158 
 PTGC HZ I         743 32.32        18.3 0.28            113            312 158 
 ELA  HZ EP   4    742 59.83                             110    1.76 0  330 229 
 ELA  HN ES        743 34.96                             110    0.26 7  330 229 
 ELA  HZ I         743 50.10        10.8 0.42            110            330 229 
 CBOC HZ EP        742 58.78                             110    0.81 7  333 251 
 CBOC HE ES        743 34.70                             110    0.19 7  333 251 
 CBOC HZ I         743 51.93         6.0 0.56            110            333 251 
 DBB  SZ EP   1    742 57.98                             110   -0.40 5  337 274 
 DBB  SZ ES        743 33.76                             110   -1.49 7  337 274 
 DBB  SZ I         743 38.61        38.4 0.34            110            337 274 
 MON  HZ EP   4    742 58.16                             109   -1.60 0  350 308 
 MON  HE ES   4    743 36.76                             109   -0.95 0  350 308 
 MON  HZ I         743 52.20        10.7 0.36            109            350 308 
 ANIL HZ EP        743  1.98                             109    0.93 6  358 224 
 ANIL HN ES        743 40.66                             109    0.65 6  358 224 
 ANIL HZ I         743 47.72        42.7 0.32            109            358 224 
 PRA  HZ EP        743  4.88                             107    0.01 6  394 209 
 PRA  HN ES   4    743 46.46                             107   -0.34 0  394 209 
 PRA  HZ I         743 54.61        11.4 0.42            107            394 209 
 ORTC HZ EP        743  5.13                             106   -0.09 6  397 216 
 ORTC HE ES        743 47.77                             106    0.34 6  397 216 
 ORTC HZ I         743 54.82         8.2 0.18            107            397 216 
 PAL  HZ EP        743  6.57                             106    0.28 6  405 239 
 PAL  HE ES        743 50.29                             106    0.96 6  405 239 
 PAL  HZ I         743 54.88         5.9 0.34            106            405 239 
 SJC  HZ EP   4    743  4.17                             106   -2.12 0  406 327 
 SJC  HN ES   4    743 46.16                             106   -3.17 0  406 327 
 SJC  HZ I         743 53.28         4.3 0.24            106            406 327 
                                                                                
