 2017  5 2 0809 11.5 L   6.777 -73.081140.4  RSN  4 0.4 1.1LRSN                1
 GAP=146        0.94       5.0     6.2  9.2 -0.1687E+01  0.1769E+01  0.6545E+01E
 Epicentro: LOS SANTOS - SANTANDER                                             3
 ACTION:UPD 17-06-16 13:32 OP:jn   STATUS:               ID:20170502080911 L   I
 OLDACT:REG 17-05-02 14:04 OP:edw  STATUS:               ID:20170502080736     3
 2017-05-02-0808-00M.COL___359                                                 6
 STAT SP IPHASW D HRMM SECON CODA AMPLIT PERI AZIMU VELO AIN AR TRES W  DIS CAZ7
 PAM  EZ EP     C  8 9 33.44                             150    0.4510 75.2  34 
 PAM  EN ES        8 9 49.31                             150   -0.4510 75.2  34 
 PAM  EZ I         8 9 52.60         2.0 0.56            152           75.2  34 
 BRR  HZ IP     D  8 9 32.25                             149   -0.2510 78.7 298 
 BRR  HN ES        8 9 49.40                             149    0.5110 78.7 298 
 BRR  HZ I         8 9 50.01         2.2 0.46            152           78.7 298 
 RUS  HZ EP        8 9 34.50                             143    0.0110 97.8 180 
 RUS  HN ES        8 9 52.46                             143    0.0210 97.8 180 
 RUS  HZ I         8 9 54.02         2.1 0.50            146           97.8 180 
 PTB  HZ EP   2    8 9 38.37                             129   -0.25 5  154 260 
 PTB  HN ES   2    8 9 58.70                             129   -1.09 5  154 260 
                                                                                
