 2012  9 2 0604 42.2 L   6.729 -73.069146.0  RSN  4 0.3 1.5LRSN                1
 GAP=188        0.38      13.1     6.2  7.5 -0.2358E+02 -0.3487E+01  0.5145E+02E
 Epicentro: JORDAN - SANTANDER                                                 3
 ACTION:UPD 12-10-22 14:16 OP:ep   STATUS:               ID:20120902060442 L   I
 2012-09-02-0600-00M.COL___218                                                 6
 STAT SP IPHASW D HRMM SECON CODA AMPLIT PERI AZIMU VELO AIN AR TRES W  DIS CAZ7
 BAR2 SZ EP   3    6 5  1.75                             172   -0.06 2 19.7 220 
 BAR2 SZ ES   3    6 5 17.16                             172    0.07 2 19.7 220 
 BAR2 SZ I         6 5 18.62         6.8 0.26                          19.7 220 
 GIR2 SZ EP   3    6 5  3.21                             164    0.99 2 41.0 340 
 GIR2 SZ ES   3    6 5 17.40                             164   -0.42 2 41.0 340 
 PAM  SN ES   2    6 5 21.95                             151   -0.01 5 78.9  31 
 BRR  HZ EP        6 5  3.99                             149   -0.0710 82.4 300 
 BRR  HZ I         6 5  5.68         5.9 0.30                          82.4 300 
 BRR  HN ES   1    6 5 21.16                             149    0.06 7 82.4 300 
                                                                                
