 2016  5 2 0429 56.4 L   6.890 -73.211140.5  RSN  5 0.4 1.3LRSN                1
 GAP=154        0.97       8.2     6.2  8.6 -0.2261E+02  0.4155E+01 -0.7228E+01E
 Epicentro: BETULIA - SANTANDER                                                3
 ACTION:UPD 16-08-18 17:41 OP:cam  STATUS:               ID:20160502042955 L   I
 OLDACT:UP  16-05-04 04:57 OP:cara STATUS:               ID:20160502042955 L   3
 OLDACT:REG 16-05-02 14:49 OP:edw  STATUS:               ID:20160502042747     3
 2016-05-02-0427-47M.COL___283                                                 6
 STAT SP IPHASW D HRMM SECON CODA AMPLIT PERI AZIMU VELO AIN AR TRES W  DIS CAZ7
 BAR2 EZ EP        430 15.55                             166   -0.1010 33.1 174 
 BAR2 EZ ES        430 30.48                             166   -0.1810 33.1 174 
 PAM  EZ EP        430 18.45                             150    0.5110 75.3  49 
 RUS  HZ EP        430 20.03                             140   -0.4310  111 173 
 PTB  HZ EP        430 22.51                             132   -0.00 9  143 254 
 PTB  HN ES        430 42.61                             132   -0.26 9  143 254 
 PTB  HZ I         430 48.28         2.3 0.10            130            143 254 
 SPBC HZ EP        430 24.61                             127   -0.24 9  167 215 
 SPBC HE ES        430 47.79                             127    0.75 9  167 215 
 SPBC HZ I         430 56.35         2.3 0.12            125            167 215 
                                                                                
