 2017 11 2 0705 58.6 L   6.759 -73.154147.0  RSN  9 0.3 1.4LRSN                1
 GAP=112        0.76       2.7     3.0  5.0  0.1126E+01  0.2600E+01  0.2863E+01E
 Epicentro: LOS SANTOS - SANTANDER                                             3
 ACTION:UPD 17-12-12 19:50 OP:rebc STATUS:               ID:20171102070558 L   I
 OLDACT:REG 17-11-02 13:36 OP:dnl  STATUS:               ID:20171102065737     3
 2017-11-02-0658-00M.COL___441                                                 6
 STAT SP IPHASW D HRMM SECON CODA AMPLIT PERI AZIMU VELO AIN AR TRES W  DIS CAZ7
 BAR2 EZ EP   2    7 6 18.32                             172   -0.01 5 18.7 189 
 BAR2 EZ ES        7 6 33.50                             172   -0.1910 18.7 189 
 BAR2 EZ I         7 6 34.79        17.9 0.18            171           18.7 189 
 BRR  HZ EP        7 6 20.07                             152    0.0710 72.6 302 
 BRR  HN ES        7 6 37.23                             152    0.5710 72.6 302 
 BRR  HZ I         7 6 38.19         3.6 0.14            152           72.6 302 
 PAM  EZ EP        7 6 21.15                             150   -0.0810 81.5  38 
 PAM  EN ES        7 6 38.85                             150    0.0010 81.5  38 
 PAM  EZ I         7 6 40.73         2.8 0.58            151           81.5  38 
 RUS  HZ EP        7 6 22.40                             145    0.2010 96.2 175 
 RUS  HN ES        7 6 40.71                             145    0.1410 96.2 175 
 RUS  HZ I         7 6 42.10         5.0 0.20            144           96.2 175 
 PTB  HZ EP        7 6 24.95                             133   -0.60 9  146 260 
 PTB  HN ES        7 6 46.18                             133   -0.35 9  146 260 
 PTB  HZ I         7 6 49.07         2.1 0.26            132            146 260 
 SPBC HZ EP        7 6 27.25                             130    0.40 9  159 220 
 SPBC HN ES        7 6 49.03                             130    0.18 9  159 220 
 SPBC HZ I         7 6 50.50         5.4 0.28            129            159 220 
 YPLC HZ EP   2    7 6 28.50                             128    0.32 4  173 150 
 YPLC HN ES        7 6 50.82                             128   -0.41 9  173 150 
 YPLC HZ I         7 6 57.52         2.6 0.68            127            173 150 
 ZAR  HE ES        7 6 56.44                             123   -0.25 9  205 293 
 ZAR  HZ I         7 7  3.10         3.3 0.50            123            205 293 
 CHI  HZ EP   2    7 6 36.58                             118    0.67 4  244 195 
 CHI  HN ES        7 7  4.92                             118   -0.06 8  244 195 
 CHI  HZ I         7 7 11.63         0.9 0.34            117            244 195 
                                                                                
