 2013  8 2 0902  8.7 L   6.699 -73.144145.1  RSN  6 0.4 1.3LRSN                1
 GAP=183        0.75       6.6     5.8  7.1  0.2116E+02  0.2465E+01 -0.9063E+01E
 Epicentro: VILLANUEVA - SANTANDER                                             3
 ACTION:UPD 14-01-14 08:58 OP:ep   STATUS:               ID:20130802090208 L   I
 OLDACT:DUP 13-08-02 12:01 OP:carl STATUS:               ID:20130802085960d    3
 2013-08-02-0859-59M.COL___267                                                 6
 STAT SP IPHASW D HRMM SECON CODA AMPLIT PERI AZIMU VELO AIN AR TRES W  DIS CAZ7
 BAR2 SZ EP        9 2 28.10                             175    0.0410 12.6 199 
 BAR2 SZ ES   1    9 2 42.74                             175   -0.44 7 12.6 199 
 BAR2 SZ I         9 2 44.17         3.8 0.24            169           12.6 199 
 GIR2 SZ EP   1    9 2 28.19                             163   -0.43 7 42.3 353 
 BRR  HZ EP        9 2 29.99                             150   -0.1210 77.2 306 
 BRR  HE ES   1    9 2 47.45                             150    0.62 7 77.2 306 
 BRR  HZ I         9 2 50.76         4.1 0.12            149           77.2 306 
 RUS  HZ EP   1    9 2 31.69                             147    0.09 7 89.5 176 
 RUS  HN ES   1    9 2 49.89                             147    0.42 7 89.5 176 
 RUS  HZ I         9 2 51.85         1.6 0.28            148           89.5 176 
 PTB  HZ EP   1    9 2 35.32                             132   -0.13 7  146 263 
 PTB  HN ES   1    9 2 55.80                             132   -0.53 7  146 263 
 PTB  HZ I         9 3  0.97         2.4 0.34            131            146 263 
 ZAR  HZ EP   1    9 2 42.08                             122    0.52 6  209 295 
 ZAR  HN ES        9 3  7.27                             122    0.07 8  209 295 
 ZAR  HZ I         9 3 11.91         2.4 0.36            122            209 295 
                                                                                
