 2017 11 2 0044 19.1 L   6.776 -73.139139.8  RSN  7 0.5 1.5LRSN                1
 GAP=138        1.23       5.0     5.2  7.8 -0.8781E+00  0.1098E+02  0.4631E+00E
 Epicentro: LOS SANTOS - SANTANDER                                             3
 ACTION:UPD 17-12-12 19:50 OP:rebc STATUS:               ID:20171102004419 L   I
 OLDACT:REG 17-11-02 13:21 OP:dnl  STATUS:               ID:20171102003739     3
 2017-11-02-0038-00M.COL___441                                                 6
 STAT SP IPHASW D HRMM SECON CODA AMPLIT PERI AZIMU VELO AIN AR TRES W  DIS CAZ7
 BAR2 EZ EP        044 37.70                             171   -0.2210 20.8 193 
 BAR2 EZ ES        044 52.33                             171   -0.3010 20.8 193 
 BAR2 EZ I         044 53.49        10.4 0.30            171           20.8 193 
 BRR  HZ EP        044 39.57                             151   -0.1110 73.2 300 
 BRR  HN ES        044 56.39                             151    0.6210 73.2 300 
 BRR  HZ I         044 57.11         8.2 0.52            150           73.2 300 
 PAM  EZ EP        044 40.61                             149   -0.1310 79.0  38 
 PAM  EN ES        044 57.69                             149    0.0310 79.0  38 
 PAM  EZ I         044 59.90         6.7 0.52            151           79.0  38 
 RUS  HZ EP        044 42.02                             143   -0.0110 97.9 176 
 RUS  HN ES        045  0.16                             143    0.2210 97.9 176 
 RUS  HZ I         045  1.04         2.0 0.18            145           97.9 176 
 PTB  HZ EP        044 44.74                             131   -0.83 9  148 260 
 PTB  HN ES        045  5.27                             131   -0.97 9  148 260 
 PTB  HZ I         045  7.26         3.3 0.46            131            148 260 
 SPBC HZ EP        044 47.23                             128    0.28 9  162 220 
 SPBC HE ES        045  9.31                             128    0.60 9  162 220 
 SPBC HZ I         045 12.10         5.0 0.12            129            162 220 
 ZAR  HZ EP        044 52.10                             121    0.80 8  206 293 
 ZAR  HE ES        045 16.68                             121    0.23 8  206 293 
 ZAR  HZ I         045 22.47         3.8 0.26            121            206 293 
                                                                                
