 2013  8 2 0601 16.9 L   6.829 -73.172146.4  RSN  9 0.3 1.7LRSN                1
 GAP=132        0.68       2.8     3.4  5.1 -0.1178E+01  0.7151E+01  0.5503E+00E
 Epicentro: LOS SANTOS - SANTANDER                                             3
 ACTION:UPD 14-01-14 08:58 OP:ep   STATUS:               ID:20130802060116 L   I
 OLDACT:REG 13-08-02 09:10 OP:carl STATUS:               ID:20130802055959     3
 2013-08-02-0559-59M.COL___269                                                 6
 STAT SP IPHASW D HRMM SECON CODA AMPLIT PERI AZIMU VELO AIN AR TRES W  DIS CAZ7
 BAR2 SZ EP        6 1 36.53                             169   -0.1210 26.2 182 
 BAR2 SZ ES   1    6 1 51.92                             169   -0.15 7 26.2 182 
 BAR2 SZ I         6 1 53.36         8.4 0.36            168           26.2 182 
 GIR2 SZ ES   1    6 1 52.08                             169    0.21 7 27.8 355 
 GIR2 SZ I         6 1 53.76         7.2 0.46            168           27.8 355 
 PAM  SZ EP   1    6 1 39.41                             151    0.27 7 76.9  43 
 PAM  SN ES        6 1 56.52                             151    0.0210 76.9  43 
 PAM  SZ I         6 1 58.78         6.3 0.50            157           76.9  43 
 RUS  HZ EP   1    6 1 41.07                             143    0.12 7  104 175 
 RUS  HN ES   1    6 1 59.55                             143   -0.16 7  104 175 
 RUS  HZ I         6 2  1.19         2.6 0.28            145            104 175 
 PTB  HZ EP   1    6 1 42.71                             133   -0.99 7  146 257 
 PTB  HN ES   1    6 2  4.20                             133   -0.42 7  146 257 
 PTB  HN I         6 2  9.44        11.2 0.50            132            146 257 
 SPBC HZ EP        6 1 45.80                             129    0.30 9  164 217 
 SPBC HN ES   1    6 2  7.90                             129    0.09 7  164 217 
 SPBC HZ I         6 2 12.07         7.0 0.20            130            164 217 
 ZAR  HE ES        6 2 14.28                             123    0.29 9  200 292 
 ZAR  HE I         6 2 19.83        11.2 0.34            123            200 292 
 NOR  HZ EP   1    6 1 52.61                             119    0.01 6  234 233 
 NOR  HE ES   1    6 2 20.99                             119    0.54 6  234 233 
 NOR  HZ I         6 2 29.72         2.9 0.48            119            234 233 
 SML  HZ EP   1    6 1 52.99                             118   -0.11 6  240 336 
 SML  HN ES   1    6 2 21.27                             118   -0.08 6  240 336 
 SML  HZ I         6 2 23.85         4.7 0.26            120            240 336 
                                                                                
