 2012  2 2 0403 45.0 L   6.788 -73.184149.3  RSN  4 0.5 1.4LRSN                1
 GAP=232        0.91       6.6     9.8  9.8  0.2764E+02 -0.5833E+01  0.1774E+02E
 ACTION:UP  12-03-07 16:26 OP:epov STATUS:               ID:20120202040345 L   I
 2012-02-02-0400-00M.COL___187                                                 6
 STAT SP IPHASW D HRMM SECON CODA AMPLIT PERI AZIMU VELO SNR AR TRES W  DIS CAZ7
 BRR  HZ EP        4 4  6.65                             154    0.2310 68.2 301 
 BRR  HZ I         4 4  7.05         9.6 0.15                          68.2 301 
 BRR  HE ES        4 4 23.44                             154    0.3510 68.2 301 
 RUS  HZ EP   1    4 4  8.77                             145   -0.31 7 99.6 174 
 RUS  HN ES   1    4 4 27.25                             145   -0.57 7 99.6 174 
 RUS  HZ I         4 4 28.73         1.8 0.28                          99.6 174 
 PTB  HZ EP   1    4 4 11.46                             134   -0.45 7  143 259 
 PTB  HN ES   1    4 4 32.39                             134   -0.48 7  143 259 
 CHI  HZ EP   1    4 4 22.84                             118    0.16 6  246 194 
 CHI  HN ES   1    4 4 52.95                             118    0.91 6  246 194 
                                                                                
