 2016  9 2 0413 12.4 L   6.059 -73.674110.7  RSN  4 0.4 0.9LRSN                1
 GAP=133        1.03       4.8     6.0  9.6 -0.7459E+01  0.1064E+02 -0.1251E+02E
 Epicentro: CHIPATA - SANTANDER                                                3
 ACTION:UPD 17-08-17 21:05 OP:lp   STATUS:               ID:20160902041312 L   I
 OLDACT:REG 16-09-02 13:15 OP:drio STATUS:               ID:20160902040743     3
 2016-09-02-0408-00M.COL___353                                                 6
 STAT SP IPHASW D HRMM SECON CODA AMPLIT PERI AZIMU VELO AIN AR TRES W  DIS CAZ7
 SPBC HZ EP        413 29.24                             148   -0.2010 63.0 224 
 SPBC HN ES        413 43.03                             148    0.2810 63.0 224 
 SPBC HZ I         413 44.74         3.2 0.12            151           63.0 224 
 RUS  HZ EP        413 30.41                             147    0.0710 67.9 106 
 RUS  HE ES        413 43.76                             147   -0.5910 67.9 106 
 RUS  HZ I         413 49.65         1.7 0.56            146           67.9 106 
 BAR2 EZ EP        413 31.16                             142    0.3010 80.2  43 
 BAR2 EZ ES        413 45.91                             142    0.6310 80.2  43 
 BRR  HZ EP        413 33.57                             130   -0.0210  116 358 
 BRR  HN ES        413 49.64                             130   -0.5010  116 358 
                                                                                
