 2017 12 2 0531 29.9 L   6.471 -73.531106.0  RSN  5 0.3 1.4LRSN                1
 GAP= 94        0.82       3.0     4.1  7.5 -0.1162E+01  0.1545E+02 -0.8654E+01E
 Epicentro: SANTA HELENA DEL OPON - SANTANDER                                  3
 ACTION:UPD 18-01-04 13:16 OP:rebc STATUS:               ID:20171202053129 L   I
 OLDACT:REG 17-12-02 12:25 OP:dhb  STATUS:               ID:20171202052735     3
 2017-12-02-0528-00M.COL___471                                                 6
 STAT SP IPHASW D HRMM SECON CODA AMPLIT PERI AZIMU VELO AIN AR TRES W  DIS CAZ7
 BAR2 EZ IP     D  531 45.11                             157   -0.2710 40.8  71 
 BAR2 EZ ES        531 57.30                             157   -0.1910 40.8  71 
 BAR2 EZ I         531 58.73        24.4 0.48            170           40.8  71 
 RUS  HZ EP        531 48.51                             140    0.2110 80.9 142 
 RUS  HN ES        532  2.86                             140    0.1810 80.9 142 
 RUS  HZ I         532  5.26         2.0 0.22            149           80.9 142 
 SPBC HZ EP        531 49.77                             131   -0.3610  109 214 
 SPBC HN ES        532  6.19                             131    0.2510  109 214 
 SPBC HZ I         532 13.50         5.9 0.24            133            109 214 
 ZAR  HZ EP        531 57.39                             115   -0.56 9  185 308 
 ZAR  HN ES        532 20.17                             115    0.31 9  185 308 
 ZAR  HZ I         532 26.98         2.0 0.40            118            185 308 
 OCA  HZ EP   1    532  0.15                             113    0.71 6  197   7 
 OCA  HN ES        532 22.63                             113    0.10 9  197   7 
                                                                                
