 2012  9 2 0634 16.6 L   6.777 -73.129140.2  RSN  6 0.2 1.6LRSN                1
 GAP=159        0.36       4.1     7.3  7.2 -0.6338E+01  0.1534E+02  0.9725E+00E
 Epicentro: LOS SANTOS - SANTANDER                                             3
 ACTION:UPD 12-10-22 14:16 OP:ep   STATUS:               ID:20120902063416 L   I
 2012-09-02-0630-00M.COL___218                                                 6
 STAT SP IPHASW D HRMM SECON CODA AMPLIT PERI AZIMU VELO AIN AR TRES W  DIS CAZ7
 BAR2 SZ EP        634 35.54                             171    0.0010 21.2 196 
 BAR2 SZ ES   2    634 50.44                             171    0.15 5 21.2 196 
 BAR2 SZ I         634 51.75         9.8 0.36                          21.2 196 
 GIR2 SZ EP   3    634 36.03                             165    0.31 2 34.1 348 
 GIR2 SZ ES   3    634 50.98                             165    0.37 2 34.1 348 
 BRR  HZ EP   3    634 37.41                             150    0.07 2 74.0 300 
 PAM  SN ES   2    634 54.84                             150   -0.37 5 78.3  37 
 PAM  SZ I         634 57.31         4.0 0.54                          78.3  37 
 PTB  HN ES   3    635  3.55                             130   -0.49 2  149 260 
 OCA  HN ES   2    635  6.89                             128    0.16 5  163 353 
 OCA  HZ I         635 11.13         8.8 0.26                           163 353 
                                                                                
