 2010  4 2 0901 36.0 L   6.786 -73.125146.2  RSN  5 0.5 1.7LRSN                1
 GAP=203        0.88       5.1    11.1  8.4 -0.4674E+01  0.5108E+01  0.3671E+01E
 Epicentro: LOS SANTOS - SANTANDER                                             3
 ACTION:UPD 10-08-24 09:57 OP:vdl  STATUS:               ID:20100402090135 L   I
 2010-04-02-0856-53S.COL___098                                                 6
 STAT SP IPHASW D HRMM SECON CODA AMPLIT PERI AZIMU VELO AIN AR TRES W  DIS CAZ7
 BAR2 SZ EP        9 1 55.66                             171     0.010   22 197 
 BAR2 SZ ES   1    9 2 10.49                             171    -0.5 7   22 197 
 BRR  HZ IP        9 1 57.65                             151     0.310   74 299 
 BRR  HN ES   2    9 2 15.00                             151     1.0 5   74 299 
 BRR  HZ I         9 2 16.80         8.0 0.12                            74 299 
 OCA  SZ EP        9 2  4.26                             129    -0.2 9  162 352 
 OCA  SZ ES   1    9 2 26.50                             129    -0.2 7  162 352 
 OCA  SZ I         9 2 30.79        10.5 0.13                           162 352 
 CHI  HZ EP        9 2 13.75                             117     0.2 8  248 196 
 CHI  HZ I         9 2 14.08         2.6 0.14                           248 196 
 CHI  HE ES   3    9 2 42.32                             117    -0.6 2  248 196 
 HEL  HZ EP   3    9 2 16.57                             115     0.2 2  274 256 
 HEL  HN ES   2    9 2 46.74                             115    -1.2 4  274 256 
                                                                                
