 2014  3 2 0512  9.1 L   6.848 -73.176134.5  RSN  8 0.3 1.6LRSN                1
 GAP=130        0.71       2.1     3.1  4.9 -0.7152E+00  0.6099E+01 -0.2020E+01E
 Epicentro: ZAPATOCA - SANTANDER                                               3
 ACTION:UPD 14-04-09 23:13 OP:nd   STATUS:               ID:20140302051209 L   I
 OLDACT:REG 14-03-02 08:21 OP:stll STATUS:               ID:20140302050818     3
 2014-03-02-0508-18M.COL___229                                                 6
 STAT SP IPHASW D HRMM SECON CODA AMPLIT PERI AZIMU VELO AIN AR TRES W  DIS CAZ7
 BAR2 SZ EP        512 27.69                             167    0.2410 28.3 181 
 BAR2 SZ ES        512 41.99                             167    0.1910 28.3 181 
 BAR2 SZ I         512 43.96        11.6 0.28            170           28.3 181 
 PAM  SZ EP        512 30.50                             149    0.5210 75.7  44 
 PAM  SZ I         512 30.73         4.3 0.12            152           75.7  44 
 PAM  SE ES        512 46.02                             149   -0.2710 75.7  44 
 RUS  HZ EP        512 31.80                             140   -0.3510  106 174 
 RUS  HN ES        512 49.91                             140   -0.2510  106 174 
 RUS  HZ I         512 52.21         3.4 0.24            144            106 174 
 PTB  HZ EP        512 34.70                             130   -0.23 9  146 257 
 PTB  HN ES        512 54.91                             130   -0.19 9  146 257 
 PTB  HZ I         512 57.86         7.5 0.14            131            146 257 
 OCA  HN ES        512 57.05                             128    0.09 9  155 354 
 OCA  HZ I         513  2.28         5.0 0.54            130            155 354 
 SPBC HZ EP        512 36.90                             126   -0.02 9  165 217 
 SPBC HZ I         512 37.16         5.8 0.12            129            165 217 
 SPBC HN ES        512 58.96                             126    0.30 9  165 217 
 ZAR  HZ EP        512 40.61                             120    0.35 9  199 291 
 ZAR  HN ES        513  4.69                             120    0.10 9  199 291 
 ZAR  HZ I         513 11.16         5.9 0.28            122            199 291 
 SML  HZ EP        512 44.13                             116   -0.26 8  237 335 
 SML  HN ES        513 11.64                             116   -0.31 8  237 335 
 SML  HZ I         513 14.37         4.7 0.10            117            237 335 
                                                                                
