 2011 10 2 0529 40.0 L   6.753 -73.074145.4  RSN  6 0.1 1.5LRSN                1
 GAP=148        0.32       2.1     3.4  3.1 -0.3488E+00 -0.4217E+00  0.5733E+00E
 Epicentro: LOS SANTOS - SANTANDER                                             3
 ACTION:UPD 12-07-13 16:01 OP:ep   STATUS:               ID:20111002052940 L   I
 2011-10-02-0520-00M.COL___169                                                 6
 STAT SP IPHASW D HRMM SECON CODA AMPLIT PERI AZIMU VELO AIN AR TRES W  DIS CAZ7
 BAR2 SZ EP   1    529 59.66                             171    0.09 7 21.4 214 
 BAR2 SZ ES   1    530 14.63                             171   -0.18 7 21.4 214 
 BAR2 SZ I         530 17.51        11.4 0.32                          21.4 214 
 GIR2 SZ EP   1    529 59.70                             164   -0.16 7 38.4 340 
 PAM  SZ EP   1    530  2.28                             151    0.11 7 76.9  33 
 PAM  SE ES   1    530 19.45                             151    0.01 7 76.9  33 
 BRR  HZ EP   1    530  1.59                             149   -0.10 7 80.6 299 
 BRR  HN ES   1    530 18.73                             149    0.14 7 80.6 299 
 RUS  HZ EP   1    530  3.37                             145    0.02 7 95.1 181 
 RUS  HN ES   1    530 21.63                             145    0.09 7 95.1 181 
 RUS  HZ I         530 23.40         4.3 0.20                          95.1 181 
 CHI  HZ EP   2    530 17.33                             117   -0.07 4  246 197 
 CHI  HZ I         530 18.47         1.3 0.18                           246 197 
                                                                                
