 2013 11 2 0421  0.5 L   6.741 -73.215139.7  RSN  4 0.1 1.0LRSN                1
 GAP=221        0.44       4.1     3.2  4.2  0.4897E+01  0.2039E+01 -0.4432E+01E
 Epicentro: VILLANUEVA - SANTANDER                                             3
 ACTION:UPD 14-01-09 16:24 OP:ep   STATUS:               ID:20131102042100 L   I
 OLDACT:REG 13-11-02 07:15 OP:jn   STATUS:               ID:20131102042000     3
 2013-11-02-0420-00M.COL___273                                                 6
 STAT SP IPHASW D HRMM SECON CODA AMPLIT PERI AZIMU VELO AIN AR TRES W  DIS CAZ7
 BAR2 SZ EP        421 19.26                             173    0.0110 16.8 168 
 BAR2 SZ ES        421 33.88                             173   -0.0210 16.8 168 
 BAR2 SZ I         421 39.64         3.9 0.16            172           16.8 168 
 BRR  HZ EP        421 20.82                             152    0.0210 68.2 306 
 RUS  HZ EP        421 23.43                             144    0.2110 94.9 171 
 RUS  HN ES        421 40.85                             144   -0.1110 94.9 171 
 RUS  HZ I         421 45.30         0.7 0.50            148           94.9 171 
 PTB  HZ EP        421 25.90                             132   -0.26 9  139 261 
 PTB  HN ES        421 46.33                             132    0.14 9  139 261 
 PTB  HZ I         421 50.57         2.4 0.16            136            139 261 
                                                                                
