 2014  3 2 0059 40.5 L   6.808 -73.205140.0  RSN  6 0.3 1.6LRSN                1
 GAP=129        0.77       3.2     3.4  6.0  0.5719E+00  0.7834E+01 -0.4158E+01E
 Epicentro: ZAPATOCA - SANTANDER                                               3
 ACTION:UPD 14-04-09 23:13 OP:nd   STATUS:               ID:20140302005940 L   I
 OLDACT:REG 14-03-02 08:06 OP:stll STATUS:               ID:20140302005820     3
 2014-03-02-0058-20M.COL___232                                                 6
 STAT SP IPHASW D HRMM SECON CODA AMPLIT PERI AZIMU VELO AIN AR TRES W  DIS CAZ7
 BAR2 SZ EP        059 59.40                             170   -0.0110 24.0 174 
 BAR2 SZ ES        1 0 14.43                             170    0.2410 24.0 174 
 BAR2 SZ I         1 0 15.34        13.3 0.28            171           24.0 174 
 PAM  SZ EP        1 0  2.32                             149    0.0310 81.0  43 
 PAM  SN ES        1 0 19.36                             149    0.0410 81.0  43 
 PAM  SZ I         1 0 21.37         9.6 0.36            153           81.0  43 
 RUS  HZ EP        1 0  3.64                             142   -0.1210  102 172 
 RUS  HN ES        1 0 21.81                             142   -0.1310  102 172 
 RUS  HZ I         1 0 23.61         2.7 0.34            146            102 172 
 PTB  HZ EP        1 0  6.12                             132   -0.27 9  142 258 
 PTB  HN ES        1 0 26.43                             132   -0.19 9  142 258 
 PTB  HZ I         1 0 32.57         4.8 0.30            133            142 258 
 ZAR  HZ EP        1 0 12.64                             122    0.77 9  198 293 
 ZAR  HN ES        1 0 36.55                             122    0.18 9  198 293 
 ZAR  HZ I         1 0 42.59         5.7 0.22            123            198 293 
 SML  HN ES        1 0 43.85                             117   -0.56 8  240 337 
                                                                                
