 2011 12 2 0456 57.5 L   6.892 -73.443127.7  RSN  4 0.1 1.3LRSN                1
 GAP=148        0.36       2.8     4.3  5.2 -0.2585E+01 -0.8044E+01  0.5324E+01E
 Epicentro: SAN VICENTE DE CHUCURI - SANTANDER                                 3
 ACTION:UPD 12-07-13 16:13 OP:ep   STATUS:               ID:20111202045657 L   I
 2011-12-02-0450-00M.COL___170                                                 6
 STAT SP IPHASW D HRMM SECON CODA AMPLIT PERI AZIMU VELO AIN AR TRES W  DIS CAZ7
 BRR  HN ES   1    457 28.73                             162   -0.04 7 38.0 309 
 BRR  HZ I         457 37.54         5.2 0.13                          38.0 309 
 BAR2 SZ EP   1    457 15.92                             160    0.25 7 44.0 139 
 BAR2 SZ I         457 37.09         4.5 0.41                          44.0 139 
 PAM  SZ EP   1    457 19.12                             141   -0.06 7 95.9  59 
 PAM  SN ES   1    457 36.07                             141    0.00 7 95.9  59 
 PAM  SZ I         457 38.25         3.0 0.29                          95.9  59 
 RUS  HZ EP   1    457 20.83                             135   -0.13 7  118 160 
 RUS  HN ES   1    457 39.21                             135   -0.02 7  118 160 
 RUS  HZ I         457 41.11         4.4 0.27                           118 160 
                                                                                
