 2015  9 2 0559 40.8 L   6.517 -73.576100.0  RSN  7 0.6 1.5LRSN                1
 GAP= 92        1.49       5.0     5.5 10.5  0.5283E+01  0.2765E+02  0.1047E+02E
 Epicentro: SANTA HELENA DEL OPON - SANTANDER                                  3
 ACTION:UPD 15-10-28 16:23 OP:cam  STATUS:               ID:20150902055940 L   I
 OLDACT:REG 15-09-02 14:03 OP:stll STATUS:               ID:20150902055748     3
 2015-09-02-0557-48M.COL___358                                                 6
 STAT SP IPHASW D HRMM SECON CODA AMPLIT PERI AZIMU VELO AIN AR TRES W  DIS CAZ7
 BAR2 EZ EP        559 55.67                             155   -0.1310 44.3  79 
 BAR2 EZ ES        6 0  8.03                             155    0.5010 44.3  79 
 BRR  HZ EP        559 56.71                             144   -0.1810 66.9 347 
 BRR  HE ES        6 0  9.97                             144    0.5010 66.9 347 
 RUS  HZ EP        559 58.84                             136   -0.4210 88.0 142 
 RUS  HN ES        6 0 13.35                             136   -0.3310 88.0 142 
 RUS  HZ I         6 0 15.86         3.9 0.20            140           88.0 142 
 PTB  HZ EP        559 58.53                             133   -0.9010 97.4 271 
 PTB  HZ I         559 58.73        11.3 0.20            134           97.4 271 
 PTB  HN ES        6 0 13.23                             133   -0.7610 97.4 271 
 SPBC HZ EP        6 0  0.59                             129   -0.1510  110 210 
 SPBC HN ES        6 0 16.96                             129    0.6310  110 210 
 SPBC HZ I         6 0 24.08         9.5 0.20            130            110 210 
 ZAR  HZ EP        6 0  7.84                             115    0.07 9  178 307 
 ZAR  HN ES        6 0 29.08                             115    0.26 9  178 307 
 ZAR  HZ I         6 0 32.13         7.5 0.32            118            178 307 
 GUY2CHZ EP     D  6 0 17.57                             108    1.60 8  244 234 
 GUY2CHN ES        6 0 43.43                             108    0.00 8  244 234 
 GUY2CHZ I         6 0 49.04         2.0 0.40                           244 234 
                                                                                
