 2014  3 2 0924 51.6 L   6.810 -73.146145.2  RSN 17 0.6 2.3LRSN                1
 GAP= 71        1.25       3.1     3.3  6.0 -0.1812E+01  0.5830E+01 -0.3258E+00E
 Epicentro: LOS SANTOS - SANTANDER                                             3
 OLDACT:DUP 14-03-02 13:19 OP:stll STATUS:               ID:20140302091814d    3
 ACTION:UPD 14-04-09 23:13 OP:nd   STATUS:               ID:20140302092451 L   I
 OLDACT:UP  14-03-02 13:34 OP:stll STATUS:               ID:20140302091814d    3
 2014-03-02-0918-13M.COL___226                                                 6
 STAT SP IPHASW D HRMM SECON CODA AMPLIT PERI AZIMU VELO AIN AR TRES W  DIS CAZ7
 BAR2 SZ EP        925 11.33                             170    0.1710 24.4 190 
 BAR2 SZ ES        925 26.21                             170   -0.2210 24.4 190 
 BAR2 SZ I         925 29.26        46.4 0.36            169           24.4 190 
 PAM  SZ EP        925 14.24                             151    0.5610 76.5  40 
 PAM  SN ES        925 31.19                             151    0.2710 76.5  40 
 PAM  SZ I         925 33.17        24.4 0.56            151           76.5  40 
 RUS  HZ EP        925 15.15                             143   -0.2010  102 176 
 RUS  HN ES        925 34.01                             143    0.1210  102 176 
 RUS  SZ I         925 34.84        21.3 0.78            143            102 176 
 PTB  HZ EP        925 18.05                             132   -0.47 9  148 258 
 PTB  HN ES        925 38.91                             132   -0.62 9  148 258 
 PTB  SZ I         925 41.07        20.3 0.18            129            148 258 
 TAM  HZ EP        925 19.55                             130    0.32 9  155 105 
 TAM  HN ES        925 41.23                             130    0.43 9  155 105 
 OCA  HZ EP        925 19.47                             130   -0.27 9  159 353 
 OCA  HN ES        925 41.67                             130   -0.03 9  159 353 
 OCA  SZ I         925 47.23        30.2 0.34            127            159 353 
 SPBC HZ EP        925 20.22                             129    0.11 9  164 219 
 SPBC HN ES        925 41.91                             129   -0.46 9  164 219 
 SPBC SZ I         925 44.62        30.3 0.10            127            164 219 
 ZAR  HZ EP        925 23.80                             122   -0.14 9  204 292 
 ZAR  HN ES        925 49.35                             122    0.16 9  204 292 
 ZAR  SZ I         925 57.41        17.1 0.20            119            204 292 
 NOR  HZ EP        925 27.19                             118   -0.15 8  235 234 
 NOR  HN ES        925 55.06                             118   -0.18 8  235 234 
 NOR  SZ I         925 58.81        15.8 0.18            116            235 234 
 SML  HZ EP        925 27.72                             117   -0.34 8  243 335 
 SML  HN ES        925 56.27                             117   -0.25 8  243 335 
 SML  SZ I         926  2.54        34.9 0.08            115            243 335 
 CHI  HZ EP        925 29.39                             117    0.03 8  250 195 
 CHI  HN ES        925 58.36                             117   -0.47 8  250 195 
 CHI  SZ I         926  8.50         6.3 2.14            116            250 195 
 HEL  HZ EP        925 32.88                             115    1.09 8  272 256 
 HEL  HE ES        926  3.50                             115    0.34 8  272 256 
 HEL  SZ I         926 10.62        10.6 0.42            113            272 256 
 SOCV BZ EP        925 33.57                             112   -0.96 7  301  57 
 GUY2CHZ EP        925 35.72                             112    0.49 7  302 235 
 GUY2CHN ES        926 11.31                             112    2.03 7  302 235 
 GUY2CSZ I         926 17.38        13.1 0.32                           302 235 
 CBOC HZ EP        925 39.01                             110    0.50 7  334 252 
 DBB  SZ EP        925 38.71                             109   -0.31 7  339 274 
 DBB  SZ I         926 17.22         9.7 2.22            108            339 274 
 ORTC HZ EP        925 45.09                             106   -0.49 6  396 216 
 ORTC HN ES        926 26.11                             106   -1.59 6  396 216 
 ORTC SZ I         926 35.00         4.2 0.68            105            396 216 
                                                                                
