 2016  9 2 0726 43.0 L   6.840 -73.168139.1  RSN  6 0.3 1.3LRSN                1
 GAP=132        0.88       4.8     4.5  8.6  0.2858E+01  0.1524E+02  0.6819E+00E
 Epicentro: ZAPATOCA - SANTANDER                                               3
 ACTION:UPD 17-08-17 21:05 OP:lp   STATUS:               ID:20160902072643 L   I
 OLDACT:DUP 16-09-02 17:45 OP:drio STATUS:               ID:20160902071734d    3
 2016-09-02-0718-00M.COL___346                                                 6
 STAT SP IPHASW D HRMM SECON CODA AMPLIT PERI AZIMU VELO AIN AR TRES W  DIS CAZ7
 BAR2 EZ EP        727  1.58                             168   -0.3410 27.4 183 
 BAR2 EZ ES        727 17.16                             168    0.4810 27.4 183 
 BAR2 EZ I         727 17.98         5.1 0.24            171           27.4 183 
 BRR  HZ EP        727  3.62                             153    0.4410 66.9 296 
 BRR  HE ES   4    727 20.71                             153    1.78 0 66.9 296 
 PAM  EN ES        727 20.87                             150   -0.2310 75.7  43 
 PAM  EZ I         727 24.40         8.0 0.22            149           75.7  43 
 RUS  HZ EP        727  6.71                             141    0.2710  105 175 
 RUS  HN ES        727 24.36                             141   -0.3710  105 175 
 RUS  HZ I         727 25.28         1.9 0.24            144            105 175 
 PTB  HN ES        727 29.71                             131   -0.08 9  146 257 
 ZAR  HN ES        727 39.01                             121   -0.24 9  200 291 
                                                                                
