 2017  2 2 0901 15.8 L   6.813 -73.149148.1  RSN 18 0.7 2.4LRSN                1
 GAP= 70        1.17       4.1     3.6  5.8  0.1296E+01  0.6066E+01  0.3815E+01E
 Epicentro: LOS SANTOS - SANTANDER                                             3
 ACTION:UPD 17-05-24 15:31 OP:jn   STATUS:               ID:20170202090115 L   I
 OLDACT:UP  17-02-02 18:42 OP:ar   STATUS:               ID:20170202085742     3
 OLDACT:UP  17-02-02 18:40 OP:ar   STATUS:               ID:20170202085742     3
 OLDACT:UP  17-02-02 18:39 OP:ar   STATUS:               ID:20170202085742     3
 OLDACT:UP  17-02-02 18:39 OP:ar   STATUS:               ID:20170202085742     3
 OLDACT:UP  17-02-02 18:37 OP:ar   STATUS:               ID:20170202085742     3
 OLDACT:REG 17-02-02 13:24 OP:ar   STATUS:               ID:20170202085742     3
 2017-02-02-0858-00M.COL___319                                                 6
 STAT SP IPHASW D HRMM SECON CODA AMPLIT PERI AZIMU VELO AIN AR TRES W  DIS CAZ7
 BAR2 EZ IP     D  9 1 35.68                             170   -0.1010 24.7 188 
 BAR2 EZ ES        9 1 50.98                             170   -0.3510 24.7 188 
 BRR  HZ IP     C  9 1 37.46                             153    0.2810 70.1 298 
 BRR  HN ES        9 1 54.61                             153    0.7810 70.1 298 
 BRR  HZ I         9 1 57.50        41.5 0.28            152           70.1 298 
 PAM  EZ EP        9 1 38.52                             151    0.2710 76.5  40 
 PAM  EN ES        9 1 55.68                             151   -0.0610 76.5  40 
 PAM  EZ I         9 1 57.80        34.4 0.58            150           76.5  40 
 RUS  HZ IP     D  9 1 39.62                             144   -0.3110  102 176 
 RUS  HE ES        9 1 58.40                             144   -0.3110  102 176 
 PTB  HZ EP        9 1 42.37                             132   -0.62 9  148 258 
 PTB  HN ES        9 2  3.62                             132   -0.54 9  148 258 
 PTB  HZ I         9 2 10.03        34.6 0.34            130            148 258 
 TAM  HZ EP        9 1 44.08                             131    0.30 9  156 105 
 TAM  HZ I         9 2  4.81        20.1 0.40            128            156 105 
 TAM  HN ES        9 2  5.61                             131    0.05 9  156 105 
 ZAR  HZ EP        9 1 48.88                             123    0.54 9  203 292 
 ZAR  HN ES        9 2 13.66                             123   -0.04 9  203 292 
 ZAR  HZ I         9 2 18.84        37.1 0.46            121            203 292 
 CHI  HZ EP        9 1 53.81                             117   -0.00 8  250 195 
 CHI  HN ES        9 2 23.20                             117   -0.23 8  250 195 
 CHI  HZ I         9 2 26.47        22.1 0.64            115            250 195 
 ROSC BZ EP   4    9 1 55.57                             117    1.37 0  254 211 
 ROSC BN ES   4    9 2 26.16                             117    2.04 0  254 211 
 ROSC BZ I         9 2 30.23        56.3 0.45            114            254 211 
 URE  HZ EP   4    9 1 55.54                             114   -1.38 0  283 292 
 URE  HN ES   4    9 2 26.02                             114   -2.94 0  283 292 
 URE  HZ I         9 2 34.70        19.1 0.14            112            283 292 
 PTGC HZ EP   4    9 1 58.85                             112   -1.12 0  310 159 
 PTGC HN ES   4    9 2 32.80                             112   -1.60 0  310 159 
 PTGC HZ I         9 2 34.90        11.6 0.36            110            310 159 
 ELA  HZ EP   4    9 2  4.61                             110    1.75 0  330 229 
 ELA  HE ES   4    9 2 43.54                             110    4.00 0  330 229 
 ELA  HZ I         9 2 48.21        15.3 0.54            108            330 229 
 CBOC HZ EP        9 2  3.72                             110    0.86 7  334 252 
 CBOC HN ES   1    9 2 40.54                             110    1.00 5  334 252 
 CBOC HZ I         9 2 48.50         4.6 0.50            108            334 252 
 DBB  EZ EP        9 2  3.99                             110    0.64 7  339 274 
 DBB  EN ES   4    9 2 39.60                             110   -0.81 0  339 274 
 DBB  EZ I         9 2 40.29         8.1 0.22            108            339 274 
 ORTC HZ EP        9 2 10.01                             107    0.06 6  396 216 
 ORTC HN ES        9 2 52.21                             107    0.05 6  396 216 
 ORTC HZ I         9 2 56.93        13.3 0.22            105            396 216 
 PAL  HZ EP        9 2 11.44                             106    0.31 6  406 239 
 PAL  HE ES   4    9 2 52.67                             106   -1.58 0  406 239 
 PAL  HZ I         9 2 59.15         3.6 0.22            104            406 239 
 SJC  HZ EP        9 2  9.85                             106   -1.46 6  408 327 
 SJC  HN ES   2    9 2 50.87                             106   -3.71 3  408 327 
 SJC  HZ I         9 2 55.76         3.9 0.38            104            408 327 
 CRJC HZ EP   9    9 2 15.99                             104   -2.25 0  466   4 
 CRJC HN ES        9 3  4.44                                   -0.22 5  466   4 
 CRJC HZ I         9 3  8.11        10.6 0.60            102            466   4 
                                                                                
