 2014  4 2 0640 48.2 L   6.828 -73.183141.2  RSN 10 0.4 1.8LRSN                1
 GAP=131        0.88       2.6     3.7  6.7 -0.6864E+00  0.7342E+01 -0.7122E+00E
 Epicentro: ZAPATOCA - SANTANDER                                               3
 ACTION:UPD 14-05-13 23:05 OP:nd   STATUS:               ID:20140402064048 L   I
 OLDACT:REG 14-04-02 14:28 OP:cam  STATUS:               ID:20140402063814     3
 2014-04-02-0638-14M.COL___246                                                 6
 STAT SP IPHASW D HRMM SECON CODA AMPLIT PERI AZIMU VELO AIN AR TRES W  DIS CAZ7
 PAM  SZ IP     D  641 10.08                             150    0.1410 77.8  43 
 PAM  SN ES        641 27.12                             150    0.2110 77.8  43 
 PAM  SZ I         641 27.95         4.1 0.18            153           77.8  43 
 RUS  HZ EP        641 11.63                             142   -0.1110  104 174 
 RUS  HN ES        641 29.77                             142   -0.3510  104 174 
 RUS  HZ I         641 31.17         6.6 0.66            143            104 174 
 PTB  HZ EP        641 13.91                             132   -0.56 9  144 257 
 PTB  HN ES        641 34.95                             132   -0.03 9  144 257 
 PTB  HZ I         641 37.07         6.5 0.20            131            144 257 
 OCA  HN ES   2    641 36.85                             129   -0.51 5  157 354 
 SPBC HZ EP     C  641 16.56                             128    0.23 9  163 217 
 SPBC HE ES        641 37.94                             128   -0.34 9  163 217 
 SPBC HZ I         641 43.96         8.5 0.24            128            163 217 
 ZAR  HZ EP        641 20.02                             122    0.20 9  199 292 
 ZAR  HN ES        641 44.58                             122    0.08 9  199 292 
 ZAR  HZ I         641 51.43         7.2 0.14            122            199 292 
 NOR  HN ES   1    641 51.33                             118    0.30 6  233 233 
 SML  HZ EP        641 23.54                             117   -0.53 8  239 336 
 SML  HE ES        641 52.53                             117    0.47 8  239 336 
 SML  HZ I         641 56.90         9.0 0.22            118            239 336 
 CHI  HZ EP        641 25.73                             116   -0.11 8  251 194 
 CHI  HN ES        641 56.20                             116    0.98 8  251 194 
 CHI  HZ I         642  2.55         3.2 0.42            117            251 194 
 SJC  HZ EP   4    641 41.45                             105   -1.58 0  404 327 
 SJC  HN ES   4    642 23.05                             105   -2.76 0  404 327 
 SJC  HZ I         642 29.82         2.5 0.80            106            404 327 
                                                                                
