 2017  3 2 0610  6.5 L   6.802 -73.109152.0  RSN  8 0.4 1.3LRSN                1
 GAP=141        0.79       4.1     4.8  5.5 -0.4554E+00  0.6789E+01  0.2265E+01E
 Epicentro: LOS SANTOS - SANTANDER                                             3
 ACTION:UPD 17-05-25 18:34 OP:jn   STATUS:               ID:20170302061006 L   I
 OLDACT:UP  17-03-02 16:41 OP:and  STATUS:               ID:20170302060740     3
 OLDACT:REG 17-03-02 12:51 OP:and  STATUS:               ID:20170302060740     3
 2017-03-02-0608-00M.COL___388                                                 6
 STAT SP IPHASW D HRMM SECON CODA AMPLIT PERI AZIMU VELO AIN AR TRES W  DIS CAZ7
 BAR2 EZ EP        610 26.64                             170   -0.2510 24.6 199 
 BAR2 EZ ES        610 42.94                             170    0.1410 24.6 199 
 BRR  HZ IP     C  610 28.49                             153   -0.0110 74.7 297 
 BRR  HN ES        610 46.21                             153    0.5410 74.7 297 
 BRR  HZ I         610 48.61         3.6 0.15            151           74.7 297 
 PAM  EZ EP        610 29.54                             153    0.3310 74.7  37 
 PAM  EZ I         610 41.58         3.2 0.38            150           74.7  37 
 PAM  EN ES        610 46.60                             153   -0.3410 74.7  37 
 RUS  HZ EP        610 31.16                             145    0.3110  101 178 
 RUS  HN ES        610 49.65                             145   -0.2110  101 178 
 RUS  HZ I         610 52.12         2.6 0.38            143            101 178 
 PTB  HZ EP        610 33.70                             133   -0.62 9  152 259 
 PTB  HN ES   3    610 54.68                             133   -1.36 2  152 259 
 PTB  HZ I         611  1.84         3.8 0.36            130            152 259 
 ZAR  HZ EP   2    610 39.65                             123   -0.06 4  208 292 
 ZAR  HN ES   2    611  5.17                             123   -0.46 4  208 292 
 ZAR  HZ I         611  7.19         2.1 0.14            121            208 292 
 NOR  HZ EP   2    610 43.09                             120    0.15 4  238 235 
 NOR  HE ES   2    611 11.78                             120    0.40 4  238 235 
 NOR  HZ I         611 13.85         2.0 0.14            117            238 235 
 CHI  HZ EP   2    610 44.94                             118    0.27 4  250 196 
 CHI  HN ES   3    611 15.89                             118    1.43 2  250 196 
 CHI  HZ I         611 19.92         1.1 0.27            116            250 196 
                                                                                
