 2017 12 2 0830 36.3 L   6.829 -73.159137.1  RSN  9 0.5 1.7LRSN                1
 GAP=133        1.16       3.4     5.0  7.3 -0.2299E+01  0.1160E+02 -0.8973E-02E
 Epicentro: LOS SANTOS - SANTANDER                                             3
 ACTION:UPD 18-01-04 13:16 OP:rebc STATUS:               ID:20171202083036 L   I
 OLDACT:REG 17-12-02 12:37 OP:dhb  STATUS:               ID:20171202082740     3
 2017-12-02-0828-00M.COL___467                                                 6
 STAT SP IPHASW D HRMM SECON CODA AMPLIT PERI AZIMU VELO AIN AR TRES W  DIS CAZ7
 BAR2 HZ EP        830 54.35                             169   -0.5710 26.3 186 
 BAR2 HZ ES        831  8.80                             169   -0.6710 26.3 186 
 BAR2 HZ I         831 12.09        17.5 0.20            170           26.3 186 
 PAM  EZ IP     C  830 57.73                             150    0.2610 75.9  42 
 PAM  EE ES        831 14.70                             150    0.6910 75.9  42 
 PAM  EZ I         831 17.00        10.4 0.62            154           75.9  42 
 RUS  HZ EP        830 58.84                             141   -0.5810  104 175 
 RUS  HN ES        831 17.75                             141    0.2710  104 175 
 RUS  HZ I         831 18.49         5.2 0.20            145            104 175 
 PTB  HZ EP        831  1.99                             130   -0.47 9  147 258 
 PTB  HE ES        831 23.21                             130    0.31 9  147 258 
 PTB  HZ I         831 25.83         5.6 0.14            131            147 258 
 OCA  HZ EP        831  3.48                             128   -0.11 9  157 354 
 OCA  HE ES        831 24.99                             128    0.08 9  157 354 
 OCA  HZ I         831 30.69        15.5 0.50            131            157 354 
 SPBC HZ EP        831  3.75                             127   -0.52 9  165 218 
 SPBC HN ES        831 26.42                             127    0.31 9  165 218 
 SPBC HZ I         831 32.04         6.4 0.28            129            165 218 
 ZAR  HZ EP        831  7.86                             121   -0.03 9  202 291 
 ZAR  HN ES        831 32.66                             121    0.10 9  202 291 
 ZAR  HZ I         831 38.63         5.6 0.48            122            202 291 
 CHI  HZ EP        831 14.10                             115    0.31 8  251 195 
 CHI  HE ES        831 43.89                             115    0.82 8  251 195 
 CHI  HZ I         831 46.65         1.7 0.74            118            251 195 
 GUY2CHZ EP   2    831 21.12                             111    1.56 4  302 234 
 GUY2CHE ES   4    831 57.13                             111    3.80 0  302 234 
 GUY2CHZ I         832  3.73         1.9 0.52                           302 234 
                                                                                
