 2013 11 2 0524 39.0 L   6.744 -73.195145.3  RSN  5 0.4 1.2LRSN                1
 GAP=195        0.77       6.4     6.9  9.3  0.9031E+01  0.1657E+02 -0.1484E+02E
 Epicentro: VILLANUEVA - SANTANDER                                             3
 ACTION:UPD 14-01-09 16:24 OP:ep   STATUS:               ID:20131102052439 L   I
 OLDACT:REG 13-11-02 07:16 OP:jn   STATUS:               ID:20131102052000     3
 2013-11-02-0520-00M.COL___273                                                 6
 STAT SP IPHASW D HRMM SECON CODA AMPLIT PERI AZIMU VELO AIN AR TRES W  DIS CAZ7
 BAR2 SZ ES   1    525 13.22                             174   -0.43 7 16.8 175 
 BAR2 SZ I         525 14.16         5.1 0.40            171           16.8 175 
 BRR  HZ EP        525  0.37                             153    0.3410 69.8 305 
 BRR  HN ES   1    525 17.00                             153    0.58 7 69.8 305 
 RUS  HN ES   1    525 20.43                             146   -0.06 7 94.9 172 
 RUS  HZ I         525 21.51         1.5 0.46            145           94.9 172 
 PTB  HZ EP   1    525  5.20                             133   -0.15 7  141 261 
 PTB  HN ES        525 25.69                             133   -0.21 9  141 261 
 PTB  HZ I         525 28.63         2.7 0.22            132            141 261 
 SML  HE ES   2    525 44.00                             117   -0.82 4  247 337 
                                                                                
