 2017  1 2 0218 30.3 L   6.809 -73.152147.4  RSN  7 0.5 1.2LRSN                1
 GAP=135        1.18       5.5     5.1  8.0 -0.8006E+00  0.1367E+02  0.3911E+00E
 Epicentro: LOS SANTOS - SANTANDER                                             3
 ACTION:UPD 17-05-22 15:54 OP:jn   STATUS:               ID:20170102021830 L   I
 OLDACT:REG 17-01-02 12:22 OP:lv   STATUS:               ID:20170102020743     3
 2017-01-02-0208-00M.COL___378                                                 6
 STAT SP IPHASW D HRMM SECON CODA AMPLIT PERI AZIMU VELO AIN AR TRES W  DIS CAZ7
 BAR2 EZ ES        219  5.43                             170   -0.1510 24.2 188 
 BAR2 EZ I         219  6.25         5.3 0.32            173           24.2 188 
 BRR  HZ EP        218 51.11                             153   -0.4110 70.1 298 
 BRR  HE ES        219  8.91                             153    0.8010 70.1 298 
 BRR  HZ I         219 11.35         3.0 0.17            152           70.1 298 
 PAM  EZ EP        218 52.95                             151    0.3210 77.1  40 
 PAM  EN ES        219  9.69                             151   -0.3910 77.1  40 
 PAM  EZ I         219 12.19         4.1 0.32            152           77.1  40 
 RUS  HZ EP        218 54.34                             144    0.0910  102 176 
 RUS  HN ES        219 13.17                             144    0.2110  102 176 
 RUS  HZ I         219 13.87         2.9 0.28            147            102 176 
 PTB  HZ EP        218 56.62                             132   -0.69 9  147 258 
 PTB  HE ES        219 17.78                             132   -0.63 9  147 258 
 PTB  HZ I         219 18.87         1.2 0.34            133            147 258 
 ZAR  HZ EP        219  3.31                             123    0.61 9  203 292 
 ZAR  HN ES        219 28.02                             123    0.01 9  203 292 
 ZAR  HZ I         219 33.53         1.3 0.14            124            203 292 
 GUY2CHZ EP   4    219 16.62                             113    2.68 0  301 235 
 GUY2CHN ES        219 48.47                             113    0.46 7  301 235 
 GUY2CHZ I         219 56.01         1.1 0.32                           301 235 
                                                                                
