 2010  8 2 0039 29.5 L   6.824 -73.026141.8  RSN  9 0.3 2.2LRSN                1
 GAP=199        0.64       4.1     6.4  5.8 -0.1547E+02  0.7671E+00  0.5456E+01E
 Epicentro: CEPITA - SANTANDER                                                 3
 ACTION:UP  10-09-07 10:51 OP:vdl  STATUS:               ID:20100802003929 L   I
 2010-08-02-0036-28S.COL___123                                                 6
 STAT SP IPHASW D HRMM SECON CODA AMPLIT PERI AZIMU VELO SNR AR TRES W  DIS CAZ7
 BAR2 SZ EP        039 48.90                             167     0.010   31 214 
 BAR2 SZ ES   2    040  3.86                             167    -0.1 5   31 214 
 BAR2 SZ I         040  5.46        19.2 0.21                            31 214 
 GIR2 SZ EP        039 49.05                             166     0.210   34 327 
 BRR  HZ EP        039 50.78                             148    -0.110   82 293 
 BRR  HZ I         039 51.16        16.6 0.11                            82 293 
 BRR  HN ES   1    040  7.56                             148     0.0 7   82 293 
 GRA  SZ EP        039 53.63                             138    -0.310  120  12 
 GRA  SZ ES   1    040 12.98                             138     0.0 7  120  12 
 OCA  SZ EP        039 57.72                             129     0.2 9  160 348 
 OCA  SZ ES   2    040 19.33                             129     0.0 5  160 348 
 OCA  SZ I         040 23.25        24.9 0.38                           160 348 
 ROSC BZ EP   2    040  9.10                             115     0.6 4  262 213 
 ROSC BN ES   2    040 39.16                             115     0.3 4  262 213 
 ROSC BZ I         040 43.27        11.9 0.48                           262 213 
 HEL  HZ EP        040 10.71                             113    -0.3 7  286 256 
 RREF HZ EP   1    040 17.53                             109     0.7 5  334 231 
 RREF HE ES   2    040 53.94                             109     0.2 3  334 231 
 RREF HZ I         041  0.79         7.8 0.26                           334 231 
 PRA  HZ EP   2    040 22.99                             105    -1.0 3  401 211 
 PRA  HN ES   2    041  5.64                             105    -0.8 3  401 211 
 PRA  HZ I         041 13.21         9.0 0.25                           401 211 
                                                                                
