 2013  5 2 0858  3.6 L   6.788 -73.181150.0  RSN  6 0.4 1.8LRSN                1
 GAP=139        1.11       7.5     6.1  7.3 -0.1253E+02  0.8888E+01 -0.1129E+02E
 Epicentro: LOS SANTOS - SANTANDER                                             3
 ACTION:UPD 13-06-20 09:47 OP:ep   STATUS:               ID:20130502085803 L   I
 2013-05-02-0850-00M.COL___253                                                 6
 STAT SP IPHASW D HRMM SECON CODA AMPLIT PERI AZIMU VELO AIN AR TRES W  DIS CAZ7
 BAR2 SZ EP        858 23.79                             172    0.0410 21.6 180 
 BAR2 SZ ES        858 39.44                             172    0.0110 21.6 180 
 BAR2 SZ I         858 41.14        18.2 0.28            172           21.6 180 
 GIR2 SZ EP        858 23.81                             167   -0.0310 32.2 358 
 GIR2 SZ ES        858 39.59                             167   -0.0110 32.2 358 
 GIR2 SZ I         858 40.73         8.9 0.10            167           32.2 358 
 BRR  HZ IP     D  858 25.59                             154    0.4910 68.5 301 
 BRR  HZ I         858 25.84        21.9 0.28            153           68.5 301 
 BRR  HN ES        858 42.70                             154    0.8610 68.5 301 
 PAM  SZ EP        858 26.73                             150    0.2110 80.9  41 
 PAM  SN ES        858 43.71                             150   -0.6510 80.9  41 
 PAM  SZ I         858 45.27         9.2 0.40            151           80.9  41 
 PTB  HZ EP   1    858 30.51                             134   -0.08 7  144 259 
 PTB  HN ES        858 50.82                             134   -0.80 9  144 259 
 PTB  HZ I         858 54.41         7.6 0.28            133            144 259 
 SML  HZ EP        858 40.32                             118   -0.15 8  243 336 
 SML  HZ I         858 43.57         3.9 0.10            118            243 336 
 SML  HN ES   1    859  8.95                             118   -0.24 6  243 336 
                                                                                
