 2013  7 2 0514 52.7 L   6.783 -73.153146.0  RSN  6 0.4 1.9LRSN                1
 GAP=182        1.11       4.7     7.4  7.8  0.4318E+01 -0.5549E+01 -0.5662E+01E
 Epicentro: LOS SANTOS - SANTANDER                                             3
 ACTION:UPD 13-08-12 10:34 OP:ep   STATUS:               ID:20130702051452 L   I
 OLDACT:REG 13-07-02 08:13 OP:stll STATUS:               ID:20130702050847     3
 2013-07-02-0508-47M.COL___227                                                 6
 STAT SP IPHASW D HRMM SECON CODA AMPLIT PERI AZIMU VELO AIN AR TRES W  DIS CAZ7
 BAR2 SZ EP        515 12.30                             171    0.0210 21.4 189 
 BAR2 SZ ES        515 27.24                             171   -0.3410 21.4 189 
 BAR2 SZ I         515 30.13         9.5 0.38            172           21.4 189 
 GIR2 SZ EP        515 12.19                             167   -0.2210 33.0 352 
 GIR2 SZ ES        515 27.85                             167    0.0410 33.0 352 
 BRR  HZ EP        515 14.23                             152    0.3810 71.4 300 
 BRR  HN ES        515 31.30                             152    0.9310 71.4 300 
 BRR  HN I         515 32.56        33.8 0.24            153           71.4 300 
 RUS  HZ EP        515 16.49                             144    0.1810 98.8 176 
 RUS  HN ES        515 34.68                             144   -0.0710 98.8 176 
 PTB  HN ES        515 39.89                             132   -0.63 9  147 259 
 OCA  HZ EP        515 21.33                             129    0.17 9  162 353 
 OCA  HN ES        515 42.77                             129   -0.61 9  162 353 
                                                                                
