 2011  9 2 0527 18.3 L   6.801 -73.078142.7  RSN 13 0.3 2.1LRSN                1
 GAP=145        0.42       2.4     3.1  3.9 -0.1663E+01  0.3709E+01  0.1522E+01E
 Epicentro: LOS SANTOS - SANTANDER                                             3
 ACTION:UPD 12-07-13 15:55 OP:ep   STATUS:               ID:20110902052718 L   I
 2011-09-02-0520-00M.COL___169                                                 6
 STAT SP IPHASW D HRMM SECON CODA AMPLIT PERI AZIMU VELO AIN AR TRES W  DIS CAZ7
 BAR2 SZ EP   1    527 37.55                             169   -0.09 7 25.8 206 
 BAR2 SZ ES   2    527 52.25                             169   -0.45 5 25.8 206 
 BAR2 SZ I         527 53.30        61.3 0.24                          25.8 206 
 GIR2 SZ EP   2    527 37.72                             166    0.04 5 33.2 337 
 GIR2 SZ ES   2    527 52.44                             166   -0.34 5 33.2 337 
 PAM  SN ES   2    527 57.44                             152    0.65 5 72.7  35 
 BRR  HZ IP     C  527 39.52                             150   -0.0110 77.8 296 
 BRR  HZ I         527 39.85        40.7 0.23                          77.8 296 
 BRR  HN ES   2    527 56.31                             150    0.24 5 77.8 296 
 RUS  HZ EP   2    527 42.03                             143    0.27 5  101 180 
 RUS  HN ES   2    527 59.77                             143   -0.28 5  101 180 
 RUS  HZ I         528  0.77        15.6 0.27                           101 180 
 OCA  SZ EP   2    527 46.73                             129    0.25 5  161 351 
 ZAR  HZ EP   2    527 50.96                             121   -0.33 4  211 291 
 ZAR  HN ES   2    528 16.71                             121   -0.29 4  211 291 
 ZAR  HZ I         528 24.30        15.3 0.32                           211 291 
 NOR  SN ES        528 22.94                             117    0.14 8  241 235 
 CHI  HZ EP   1    527 55.85                             116   -0.24 6  251 197 
 CHI  HN ES   2    528 26.16                             116    0.61 4  251 197 
 CHI  HZ I         528 32.09         3.3 0.30                           251 197 
 HEL  HZ EP   2    527 59.19                             113    0.00 4  279 256 
 HEL  HN ES   2    528 31.47                             113    0.40 4  279 256 
 HEL  HZ I         528 36.95         6.8 0.46                           279 256 
 RREF HN ES   2    528 41.40                             110    0.00 3  328 230 
 RREF HZ I         528 46.70         5.1 0.63                           328 230 
 COD  HZ EP   2    528  6.35                             108   -0.30 3  349 353 
 COD  HZ I         528 48.44         6.6 0.43                           349 353 
 PRA  HZ EP   2    528 11.83                             106   -0.36 3  396 211 
 PRA  HN ES   2    528 54.11                             106   -0.10 3  396 211 
                                                                                
