 2012  1 2 0632 38.3 L   6.530 -73.559  0.0  RSN  4 0.2 0.9LRSN                1
 GAP=127        0.48       2.3     2.1  5.6  0.1845E+01 -0.2464E+01 -0.1592E+01E
 Epicentro: EL CARMEN DE CHUCURI - SANTANDER                                   3
 ACTION:UP  12-02-03 08:13 OP:REBC STATUS:               ID:20120102063238 L   I
 2012-01-02-0630-00M.COL___186                                                 6
 STAT SP IPHASW D HRMM SECON CODA AMPLIT PERI AZIMU VELO SNR AR TRES W  DIS CAZ7
 BAR2 SZ ES   2    632 52.14                              47    -0.1 5   42  81 
 BAR2 SZ I         632 52.85         7.1 0.12                            42  81 
 BRR  HZ EP   1    632 49.27                              47    -0.2 7   66 345 
 BRR  HN ES   2    632 58.54                              47     0.4 5   66 345 
 BRR  HZ I         632 58.86         7.4 0.11                            66 345 
 RUS  HZ EP   1    632 53.58                              47     0.3 7   88 143 
 RUS  HN ES   2    633  4.81                              47    -0.2 5   88 143 
 RUS  HZ I         633  5.46         3.0 0.17                            88 143 
 PTB  HZ EP   1    632 54.41                              47    -0.1 7   99 271 
 PTB  HN ES   2    633  7.30                              47     0.1 5   99 271 
                                                                                
