 2011 10 2 0734 56.6 L   6.776 -73.150143.3  RSN  4 0.3 1.4LRSN                1
 GAP=182        0.47       9.4    19.8 11.9  0.1697E+03 -0.1902E+03 -0.8630E+02E
 Epicentro: LOS SANTOS - SANTANDER                                             3
 ACTION:UPD 12-07-13 16:01 OP:ep   STATUS:               ID:20111002073456 L   I
 2011-10-02-0733-47S.COL___168                                                 6
 STAT SP IPHASW D HRMM SECON CODA AMPLIT PERI AZIMU VELO AIN AR TRES W  DIS CAZ7
 BAR2 SZ EP   2    735 15.28                             171   -0.63 5 20.7 190 
 BAR2 SZ I         735 31.77         4.2 0.21                          20.7 190 
 BRR  HZ EP   1    735 17.62                             152    0.06 7 72.1 301 
 BRR  HN ES   1    735 33.87                             152   -0.02 7 72.1 301 
 BRR  HZ I         735 37.39         7.5 0.11                          72.1 301 
 RUS  HZ EP   1    735 19.95                             144    0.00 7 98.0 176 
 RUS  HN ES   1    735 38.28                             144    0.13 7 98.0 176 
 RUS  HZ I         735 40.30         3.4 0.30                          98.0 176 
 OCA  SZ EP   2    735 25.31                             129    0.32 5  163 353 
 OCA  SZ I         735 50.34         3.1 0.33                           163 353 
                                                                                
