 2012  7 2 0827  2.2 L   6.573 -73.264134.0  RSN  4 0.4 1.0LRSN                1
 GAP=117        0.84      11.2     7.6 10.5  0.2979E+02  0.1737E+02  0.4740E+02E
 Epicentro: CABRERA - SANTANDER                                                3
 ACTION:UPD 12-08-14 11:42 OP:ep   STATUS:               ID:20120702082702 L   I
 2012-07-02-0820-00M.COL___201                                                 6
 STAT SP IPHASW D HRMM SECON CODA AMPLIT PERI AZIMU VELO AIN AR TRES W  DIS CAZ7
 BAR2 SZ EP   1    827 20.27                             176     0.0 7    9  77 
 BAR2 SZ ES   1    827 34.11                             176    -0.2 7    9  77 
 BRR  HZ EP   1    827 21.90                             148    -0.6 7   77 320 
 BRR  HZ I         827 22.18         4.6 0.15            149             77 320 
 BRR  HE ES   1    827 38.77                             148     0.5 7   77 320 
 RUS  HZ EP   1    827 23.43                             148     0.2 7   78 165 
 RUS  HZ I         827 24.73         1.2 0.19            143             78 165 
 PTB  HZ EP   1    827 27.21                             133     0.4 7  132 268 
 PTB  HN ES   1    827 45.71                             133    -0.3 7  132 268 
 PTB  HZ I         827 51.54         1.3 0.16            129            132 268 
