 2014  5 2 0114 49.6 L   6.326 -73.576113.7  RSN 15 0.4 2.0LRSN                1
 GAP= 54        1.01       2.5     2.8  6.2 -0.2338E+01  0.5000E+01 -0.2224E+01E
 Epicentro: SANTA HELENA DEL OPON - SANTANDER                                  3
 OLDACT:DUP 14-05-02 16:36 OP:fm   STATUS:               ID:20140502010808d    3
 ACTION:UPD 15-03-16 16:54 OP:nd   STATUS:               ID:20140502011449 L   I
 OLDACT:UP  14-05-02 16:47 OP:fm   STATUS:               ID:20140502010808d    3
 2014-05-02-0108-06M.COL___239                                                 6
 STAT SP IPHASW D HRMM SECON CODA AMPLIT PERI AZIMU VELO AIN AR TRES W  DIS CAZ7
 RUS  HZ EP        115  8.24                             146    0.1010 72.6 131 
 RUS  HN ES        115 22.40                             146   -0.2410 72.6 131 
 RUS  HZ I         115 24.07        17.2 0.18            152           72.6 131 
 BRR  HZ EP        115  8.55                             139   -0.0210 87.7 350 
 BRR  HN ES        115 23.61                             139    0.2110 87.7 350 
 BRR  HZ I         115 29.15        16.0 0.14            140           87.7 350 
 SPBC HZ EP        115  9.06                             138   -0.0310 92.5 216 
 SPBC HE ES        115 24.60                             138    0.2810 92.5 216 
 SPBC HZ I         115 25.79        30.2 0.12            142           92.5 216 
 PTB  HZ EP     C  115  8.70                             135   -0.9210  100 284 
 PTB  HN ES   4    115 23.85                             135   -1.43 0  100 284 
 PTB  HZ I         115 26.03        23.9 0.14            136            100 284 
 PAM  SZ EP   1    115 14.66                             124   -0.13 7  148  41 
 PAM  SN ES        115 33.86                             124   -0.61 9  148  41 
 PAM  HZ I         115 39.72         9.7 0.32            127            148  41 
 NOR  HZ EP        115 16.33                             120    0.25 9  166 240 
 NOR  HN ES        115 36.81                             120    0.05 9  166 240 
 NOR  HZ I         115 41.78        19.5 0.20            123            166 240 
 CHI  HZ EP   1    115 18.93                             117    0.00 7  188 185 
 CHI  HN ES   1    115 42.05                             117    0.21 7  188 185 
 ZAR  HZ EP        115 18.55                             116   -0.21 9  192 312 
 ZAR  HN ES        115 41.43                             116   -0.11 9  192 312 
 ZAR  HZ I         115 46.10        23.1 0.44            118            192 312 
 TAM  HZ EP        115 19.78                             115    0.28 9  198  86 
 TAM  HN ES   4    115 41.06                             115   -1.79 0  198  86 
 TAM  HZ I         115 41.94        20.9 0.26            119            198  86 
 OCA  HZ EP   2    115 22.30                             113    0.93 4  213   8 
 OCA  HN ES        115 47.34                             113    1.15 8  213   8 
 OCA  HZ I         115 51.91        10.7 0.26            115            213   8 
 HEL  HZ EP        115 22.59                             113    0.59 8  217 266 
 HEL  HN ES        115 47.19                             113   -0.11 8  217 266 
 HEL  HZ I         115 53.92         7.9 0.26            115            217 266 
 GUY2CHZ EP        115 23.29                             111   -0.65 8  233 238 
 GUY2CHN ES        115 51.26                             111    0.50 8  233 238 
 GUY2CHZ I         115 58.01         6.3 0.26                           233 238 
 RREF HZ EP   4    115 27.82                             109    1.50 0  252 231 
 RREF HN ES        115 55.12                             109    0.12 8  252 231 
 RREF HZ I         116  1.08         9.9 0.26            112            252 231 
 URE  HE ES   4    115 54.89                             108   -1.99 0  268 306 
 CBOC HZ EP   2    115 28.06                             107   -0.32 4  274 259 
 CBOC HN ES   1    115 58.20                             107   -0.46 6  274 259 
 CBOC HZ I         116  0.02         3.9 1.44            110            274 259 
 SML  HZ EP        115 28.37                             107   -0.34 7  279 349 
 SML  HN ES   4    115 57.61                             107   -1.63 0  279 349 
 SML  HZ I         116  4.35        12.9 0.10            109            279 349 
                                                                                
