 2013  2 2 0553 36.7 L   6.811 -73.135144.2  RSN 14 0.5 2.7LRSN 3.1WRSN        1
 SPEC AVERAGE  MO 13.7 ST  7.5 OM  1.8 f0 4.24 R0.3640 AL 2.36 WI 24.2 MW  3.1 3
 SPEC SD       MO  0.2 ST  8.7 OM  0.5 f0 1.08 R0.0704 AL      WI      MW  0.2 3
 GAP= 71        1.13       3.2     3.6  6.1 -0.1194E+01  0.7056E+01 -0.5319E+00E
 Epicentro: LOS SANTOS - SANTANDER                                             3
 SPEC ZAR HH N MO 13.8 ST 33.4 OM  2.0 f0 7.29 R0.2016 AL 3.19 WI 31.1 MW  3.1 3
 SPEC ZAR HH N T 55432 K 0.000 GD  250 VS 4.20 DE 3.20 Q0300.0 QA 0.60 VS 4.20 3
 SPEC TAM HH E MO 13.3 ST  1.6 OM  1.6 f0 3.79 R0.3879 AL 2.00 WI 12.6 MW  2.8 3
 SPEC TAM HH E T 55425 K 0.000 GD  210 VS 4.20 DE 3.20 Q0300.0 QA 0.60 VS 4.20 3
 SPEC ROSCBH Z MO 13.9 ST  4.1 OM  1.3 f0 3.25 R0.4523 AL 2.92 WI 25.1 MW  3.2 3
 SPEC ROSCBH Z T 55415 K 0.000 GD  292 VP 7.60 DE 3.20 Q0300.0 QA 0.60 VS 4.20 3
 SPEC PTB HH N MO 13.6 ST  3.6 OM  1.9 f0 3.98 R0.3693 AL 1.46 WI 30.9 MW  3.0 3
 SPEC PTB HH N T 55422 K 0.000 GD  207 VS 4.20 DE 3.20 Q0300.0 QA 0.60 VS 4.20 3
 SPEC RUS HH Z MO 13.3 ST  1.4 OM  0.9 f0 3.66 R0.4016 AL 1.50 WI 17.3 MW  2.8 3
 SPEC RUS HH Z T 554 0 K 0.000 GD  176 VP 7.60 DE 3.20 Q0300.0 QA 0.60 VS 4.20 3
 SPEC OCA HH E MO 14.0 ST 15.2 OM  2.3 f0 4.69 R0.3134 AL 2.74 WI 23.7 MW  3.3 3
 SPEC OCA HH E T 55425 K 0.000 GD  214 VS 4.20 DE 3.20 Q0300.0 QA 0.60 VS 4.20 3
 SPEC PAM SH Z MO 13.7 ST  5.6 OM  1.3 f0 4.39 R0.3349 AL 2.38 WI 16.0 MW  3.1 3
 SPEC PAM SH Z T 55359 K 0.000 GD  162 VP 7.60 DE 3.20 Q0300.0 QA 0.60 VS 4.20 3
 SPEC ANILHH N MO 14.1 ST  7.0 OM  2.1 f0 3.47 R0.4236 AL 2.40 WI 34.0 MW  3.3 3
 SPEC ANILHH N T 555 6 K 0.000 GD  386 VS 4.20 DE 3.20 Q0300.0 QA 0.60 VS 4.20 3
 SPEC HEL HH Z MO 13.5 ST  3.2 OM  0.8 f0 4.32 R0.3403 AL 1.64 WI 27.9 MW  2.9 3
 SPEC HEL HH Z T 55417 K 0.000 GD  308 VP 7.60 DE 3.20 Q0300.0 QA 0.60 VS 4.20 3
 SPEC CHI HH N MO 13.7 ST  2.4 OM  1.8 f0 3.36 R0.4375 AL 2.91 WI 29.6 MW  3.0 3
 SPEC CHI HH N T 55443 K 0.000 GD  288 VS 4.20 DE 3.20 Q0300.0 QA 0.60 VS 4.20 3
 SPEC BRR HH N MO 13.7 ST  9.9 OM  2.1 f0 5.22 R0.2816 AL 2.95 WI 20.9 MW  3.1 3
 SPEC BRR HH N T 55415 K 0.000 GD  161 VS 4.20 DE 3.20 Q0300.0 QA 0.60 VS 4.20 3
 SPEC BAR2SH Z MO 13.6 ST  2.1 OM  2.0 f0 3.47 R0.4236 AL 2.22 WI 21.8 MW  3.0 3
 SPEC BAR2SH Z T 55410 K 0.000 GD  146 VS 4.20 DE 3.20 Q0300.0 QA 0.60 VS 4.20 3
 ACTION:UPD 13-03-12 09:29 OP:ep   STATUS:               ID:20130202055336 L   I
 2013-02-02-0548-37M.COL___179                                                 6
 STAT SP IPHASW D HRMM SECON CODA AMPLIT PERI AZIMU VELO AIN AR TRES W  DIS CAZ7
 BAR2 SZ EP        553 56.23                             170    0.0410 24.7 192 
 BAR2 SZ ES        554 11.15                             170   -0.2310 24.7 192 
 BAR2 SZ I         554 14.02        84.5 0.44            164           24.7 192 
 BRR  HZ IP        553 58.14                             152    0.4210 71.7 297 
 BRR  HN ES   4    554 15.63                             152    1.52 0 71.7 297 
 BRR  HN I         554 15.97       122.2 0.28            148           71.7 297 
 PAM  SZ IP        553 59.04                             151    0.3710 75.7  39 
 PAM  SZ I         553 59.28        66.0 0.20            151           75.7  39 
 PAM  SN ES        554 16.26                             151    0.4710 75.7  39 
 RUS  HZ EP        554  0.11                             143   -0.2910  102 177 
 RUS  HN ES        554 18.38                             143   -0.4910  102 177 
 RUS  HN I         554 19.39        40.0 0.30            137            102 177 
 PTB  HZ EP        554  2.91                             131   -0.77 9  149 258 
 PTB  HE ES        554 24.40                             131   -0.32 9  149 258 
 PTB  HN I         554 29.88        70.9 0.36            126            149 258 
 TAM  HE ES        554 25.86                             130    0.23 9  154 106 
 OCA  HZ EP        554  4.20                             129   -0.61 9  159 353 
 OCA  HN ES        554 27.06                             129    0.34 9  159 353 
 OCA  HN I         554 32.17       161.9 0.22            127            159 353 
 ZAR  HZ EP        554  9.22                             122    0.10 9  205 292 
 ZAR  HN ES        554 34.02                             122   -0.38 9  205 292 
 SML  HZ EP        554 13.25                             117    0.06 8  243 335 
 CHI  HZ EP        554 14.09                             117   -0.40 8  250 195 
 CHI  HN ES        554 43.91                             117   -0.04 8  250 195 
 CHI  HN I         554 48.96        27.9 0.28            112            250 195 
 ROSC BZ EP   1    554 16.23                             116    1.30 6  254 211 
 ROSC BZ I         554 53.89        32.5 0.50            112            254 211 
 HEL  HZ EP        554 17.71                             114    0.70 8  273 256 
 HEL  HN ES        554 48.71                             114    0.27 8  273 256 
 HEL  HN I         554 54.65        12.3 0.26            110            273 256 
 SDV  BZ EP        554 25.57                             108   -0.93 6  359  50 
 ANIL HZ EP   1    554 27.06                             108    0.41 5  359 225 
 ANIL HN ES        555  6.65                             108    1.04 6  359 225 
                                                                                
