 2013  1 2 0520 34.1 L   6.784 -73.155150.3  RSN  6 0.4 1.9LRSN                1
 GAP=235        1.11       6.0     7.3  7.4  0.2408E+02  0.1089E+02  0.6814E+01E
 Epicentro: LOS SANTOS - SANTANDER                                             3
 ACTION:UPD 13-02-15 09:11 OP:ep   STATUS:               ID:20130102052034 L   I
 2013-01-02-0520-00M.COL___242                                                 6
 STAT SP IPHASW D HRMM SECON CODA AMPLIT PERI AZIMU VELO AIN AR TRES W  DIS CAZ7
 BAR2 SZ EP        520 54.19                             172   -0.0710 21.4 188 
 BAR2 SZ ES        521  9.51                             172   -0.4610 21.4 188 
 BAR2 SZ I         521 10.86         9.5 0.32            166           21.4 188 
 BRR  HZ EP        520 56.15                             153    0.3910 71.1 300 
 BRR  HN ES        521 13.57                             153    0.9410 71.1 300 
 BRR  HN I         521 16.82        23.3 0.20            149           71.1 300 
 RUS  HZ EP        520 58.15                             145   -0.0510 98.9 175 
 RUS  HN ES        521 16.62                             145   -0.3610 98.9 175 
 RUS  HN I         521 17.47         5.8 0.34            145           98.9 175 
 PTB  HZ EP        521  0.96                             133   -0.38 9  146 259 
 PTB  HN ES        521 22.46                             133   -0.11 9  146 259 
 PTB  HN I         521 27.58        14.1 0.60            131            146 259 
 ZAR  HZ EP        521  6.83                             123    0.00 9  204 293 
 ZAR  HN ES        521 31.74                             123   -0.61 9  204 293 
 ZAR  HN I         521 37.97         7.3 0.26            123            204 293 
 CHI  HZ EP        521 12.00                             118    0.14 8  247 195 
 CHI  HN ES        521 41.93                             118    0.63 8  247 195 
 CHI  HN I         521 46.46         4.8 0.30            118            247 195 
                                                                                
