 2012  8 2 0213 59.5 L   6.697 -73.512125.0  RSN  4 0.4 1.1LRSN                1
 GAP=134        0.77       7.0     6.6 10.7  0.1938E+02 -0.7591E+01  0.1144E+02E
 Epicentro: EL CARMEN DE CHUCURI - SANTANDER                                   3
 ACTION:UPD 12-09-10 11:53 OP:ep   STATUS:               ID:20120802021359 L   I
 2012-08-02-0210-00M.COL___215                                                 6
 STAT SP IPHASW D HRMM SECON CODA AMPLIT PERI AZIMU VELO AIN AR TRES W  DIS CAZ7
 BAR2 SZ EP   1    214 16.41                             162   -0.67 7 38.2 108 
 BAR2 SZ I         214 16.83         6.5 0.10                          38.2 108 
 BAR2 SZ ES   2    214 30.39                             162   -0.42 5 38.2 108 
 BRR  HZ EP   1    214 17.31                             157    0.05 7 50.5 334 
 BRR  HN ES   1    214 31.53                             157    0.41 7 50.5 334 
 BRR  HZ I         214 32.13         4.1 0.16                          50.5 334 
 RUS  HZ EP   1    214 21.78                             139    0.50 7  101 152 
 RUS  HN ES   1    214 38.39                             139    0.12 7  101 152 
 RUS  HZ I         214 40.88         1.3 0.27                           101 152 
 PTB  HN ES   1    214 37.62                             137   -0.22 7  106 261 
 PTB  HZ I         214 42.61         1.7 0.47                           106 261 
                                                                                
