 2011  9 2 0931 30.8 L   7.260 -73.712 98.8  RSN  8 0.3 1.9LRSN                1
 GAP= 87        0.52       3.5     3.9  6.6  0.3317E+01  0.2753E+01 -0.2635E+01E
 Epicentro: PUERTO WILCHES - SANTANDER                                         3
 ACTION:UPD 12-07-13 15:55 OP:ep   STATUS:               ID:20110902093130 L   I
 2011-09-02-0926-38S.COL___167                                                 6
 STAT SP IPHASW D HRMM SECON CODA AMPLIT PERI AZIMU VELO AIN AR TRES W  DIS CAZ7
 BRR  HZ IP     D  931 44.03                             170   -0.2310 16.8 180 
 BRR  HZ I         931 44.21        52.6 0.12                          16.8 180 
 BRR  HN ES   2    931 54.79                             170    0.01 5 16.8 180 
 GIR2 SZ EP   2    931 46.45                             147   -0.08 5 60.7 109 
 BAR2 SZ EP   1    931 49.03                             134   -0.32 7 94.2 142 
 BAR2 SZ ES   2    932  4.38                             134    0.54 5 94.2 142 
 BAR2 SZ I         932  7.25         9.3 0.59                          94.2 142 
 OCA  SZ EP   2    931 51.60                             127    0.25 5  117  22 
 OCA  SZ ES   2    932  7.71                             127    0.29 5  117  22 
 OCA  SZ I         932 10.93        27.7 0.37                           117  22 
 ZAR  HZ EP   2    931 51.95                             124   -0.47 5  129 282 
 ZAR  HN ES   2    932  9.70                             124    0.40 5  129 282 
 ZAR  HZ I         932 10.53        15.0 0.22                           129 282 
 RUS  HN ES   2    932 17.80                             117    0.28 5  166 155 
 RUS  HZ I         932 19.36         6.5 0.66                           166 155 
 HEL  HZ EP   2    932  5.04                             109    0.57 4  233 240 
 HEL  HZ I         932 34.94         3.0 0.76                           233 240 
 COD  HZ EP   2    932 11.77                             104    0.15 4  297   6 
 COD  HZ I         932 53.62         6.6 0.38                           297   6 
                                                                                
