 2011  6 2 0732  3.2 L   6.781 -73.075161.3  RSN  4 0.1 1.6LRSN                1
 GAP=164        0.36       2.4     5.7  5.1 -0.2844E+01 -0.4235E+01 -0.1802E+01E
 Epicentro: LOS SANTOS - SANTANDER                                             3
 ACTION:UP  11-07-14 19:02 OP:ep   STATUS:               ID:20110602073203 L   I
 2011-06-02-0720-00M.COL___113                                                 6
 STAT SP IPHASW D HRMM SECON CODA AMPLIT PERI AZIMU VELO SNR AR TRES W  DIS CAZ7
 BRR  HZ EP   1    732 26.56                             153     0.1 7   79 297 
 BRR  HZ I         732 26.83        15.3 0.16                            79 297 
 BRR  HN ES   2    732 44.51                             153    -0.1 5   79 297 
 RUS  HZ EP   1    732 28.15                             147    -0.2 7   98 181 
 RUS  HN ES   1    732 48.07                             147     0.1 7   98 181 
 RUS  HZ I         732 48.52         2.8 0.26                            98 181 
 BRI  SZ EP   1    732 28.63                             145     0.1 7  108  17 
 GRA  SZ EP   1    732 29.89                             140     0.0 7  126  14 
 GRA  SZ ES   1    732 50.58                             140    -0.1 7  126  14 
 GRA  SZ I         732 52.11         3.4 0.29                           126  14 
                                                                                
