 2017  7 2 0950 10.3 L   6.692 -73.135154.1  RSN  6 0.3 1.4LRSN                1
 GAP=212        0.54       7.4     6.1  4.6  0.3119E+02  0.7622E+01  0.1518E+02E
 Epicentro: VILLANUEVA - SANTANDER                                             3
 ACTION:UPD 17-08-30 15:29 OP:rebc STATUS:               ID:20170702095010 L   I
 OLDACT:UP  17-07-02 17:47 OP:and  STATUS:               ID:20170702094748     3
 OLDACT:UP  17-07-02 17:40 OP:and  STATUS:               ID:20170702094748     3
 OLDACT:REG 17-07-02 12:07 OP:and  STATUS:               ID:20170702094748     3
 2017-07-02-0948-00M.COL___371                                                 6
 STAT SP IPHASW D HRMM SECON CODA AMPLIT PERI AZIMU VELO AIN AR TRES W  DIS CAZ7
 BAR2 EZ IP     D  950 30.65                             175   -0.0710 12.2 205 
 BAR2 EZ ES        950 46.67                             175   -0.0110 12.2 205 
 BAR2 EZ I         950 47.51         4.6 0.27            158           12.2 205 
 BRR  HZ EP        950 32.71                             152   -0.0010 78.5 306 
 BRR  HN ES        950 50.28                             152    0.0510 78.5 306 
 PTB  HZ EP        950 37.67                             134   -0.18 9  147 263 
 PTB  HN ES   2    950 59.13                             134   -0.24 5  147 263 
 PTB  HZ I         951  6.29         1.9 0.28            126            147 263 
 ZAR  HZ EP   2    950 43.36                             123   -0.48 4  210 295 
 ZAR  HN ES   2    951 11.03                             123    0.99 4  210 295 
 ZAR  HZ I         951 15.24         2.7 0.48            120            210 295 
 GUY2CHZ EP   4    950 56.99                             114    3.38 0  295 237 
 GUY2CHN ES   4    951 32.35                             114    4.91 0  295 237 
 GUY2CHZ I         951 37.59         1.6 0.72                           295 237 
 PTGC HZ EP        950 53.51                             114    0.30 7  297 158 
                                                                                
