 2017  6 2 0559 18.9 L   6.814 -73.121146.6  RSN 16 0.6 2.0LRSN                1
 GAP=216        0.86       3.7     3.2  5.1  0.4049E+01  0.5478E+00  0.3080E+01E
 Epicentro: LOS SANTOS - SANTANDER                                             3
 ACTION:UPD 17-09-14 16:48 OP:jn   STATUS:               ID:20170602055918 L   I
 OLDACT:UP  17-06-02 15:55 OP:and  STATUS:               ID:20170602055155     3
 OLDACT:UP  17-06-02 15:55 OP:and  STATUS:               ID:20170602055155     3
 OLDACT:UP  17-06-02 15:54 OP:and  STATUS:               ID:20170602055155     3
 OLDACT:UP  17-06-02 15:53 OP:and  STATUS:               ID:20170602055155     3
 OLDACT:UP  17-06-02 15:53 OP:and  STATUS:               ID:20170602055155     3
 OLDACT:UP  17-06-02 15:51 OP:and  STATUS:               ID:20170602055155     3
 OLDACT:UP  17-06-02 15:51 OP:and  STATUS:               ID:20170602055155     3
 OLDACT:UP  17-06-02 15:50 OP:and  STATUS:               ID:20170602055155     3
 OLDACT:UP  17-06-02 15:47 OP:and  STATUS:               ID:20170602055155     3
 OLDACT:REG 17-06-02 12:49 OP:and  STATUS:               ID:20170602055155     3
 2017-06-02-0558-00M.COL___350                                                 6
 STAT SP IPHASW D HRMM SECON CODA AMPLIT PERI AZIMU VELO AIN AR TRES W  DIS CAZ7
 BRR  HZ IP     C  559 40.24                             152   -0.0310 72.9 296 
 BRR  HN ES        559 57.26                             152    0.3510 72.9 296 
 BRR  HZ I         559 57.81        19.8 0.12            150           72.9 296 
 RUS  HZ EP        559 42.93                             144    0.0510  102 178 
 RUS  HN ES        6 0  1.35                             144   -0.2010  102 178 
 RUS  HZ I         6 0  2.35        19.9 0.28            140            102 178 
 PTB  HZ EP   9    559 45.17                             132   -1.08 0  151 258 
 PTB  HE ES        6 0  6.77                             132    0.30 9  151 258 
 PTB  HZ I         6 0 11.01        18.6 0.30            129            151 258 
 SPBC HZ EP        559 47.47                             129   -0.31 9  166 219 
 SPBC HN ES        6 0  9.81                             129   -0.47 9  166 219 
 SPBC HZ I         6 0 16.62        23.7 0.34            126            166 219 
 YPLC HZ IP     D  559 49.08                             127    0.27 9  177 152 
 YPLC HN ES        6 0 12.66                             127    0.56 9  177 152 
 YPLC HZ I         6 0 16.70        11.9 0.42            126            177 152 
 ZAR  HZ EP   3    559 52.87                             123    1.23 2  206 291 
 ZAR  HN ES        6 0 16.60                             123   -0.54 8  206 291 
 ZAR  HZ I         6 0 19.11        11.6 0.16            122            206 291 
 NOR  HZ EP     D  559 55.01                             118   -0.04 8  238 235 
 NOR  HE ES        6 0 23.55                             118    0.33 8  238 235 
 NOR  HZ I         6 0 24.33         9.5 0.18            117            238 235 
 CHI  HZ EP        559 57.19                             117    0.26 8  251 196 
 CHI  HN ES        6 0 26.64                             117    0.08 8  251 196 
 CHI  HZ I         6 0 31.35         5.5 0.28            116            251 196 
 HEL  HZ EP   3    6 0  0.86                             115    1.33 2  275 256 
 HEL  HN ES        6 0 30.80                             115   -0.39 8  275 256 
 HEL  HZ I         6 0 38.14         7.3 0.56            114            275 256 
 PTGC HZ EP        6 0  1.89                             112   -1.00 7  309 159 
 PTGC HN ES   3    6 0 35.59                             112   -1.59 2  309 159 
 PTGC HZ I         6 0 37.14         4.6 0.37            112            309 159 
 ELA  HZ EP   3    6 0  8.34                             110    2.16 2  332 230 
 ELA  HN ES        6 0 43.39                             110    0.36 7  332 230 
 ELA  HZ I         6 0 51.17         4.4 0.40            110            332 230 
 CBOC HZ EP   1    6 0  7.21                             110    0.97 5  337 252 
 CBOC HN ES   3    6 0 41.65                             110   -1.49 2  337 252 
 CBOC HZ I         6 0 54.13         1.6 0.30            109            337 252 
 DBB  EE ES   4    6 0 41.35                             110   -2.69 0  342 274 
 DBB  EZ I         6 0 44.93         5.0 0.14            109            342 274 
 ORTC HZ EP        6 0 12.98                             106   -0.25 6  398 216 
 ORTC HE ES   3    6 0 56.79                             106    1.22 1  398 216 
 ORTC HZ I         6 1  1.29         3.7 0.30            106            398 216 
 PAL  HZ EP        6 0 14.28                             106   -0.22 6  409 239 
 PAL  HE ES        6 0 58.43                             106    0.60 6  409 239 
 SJC  HZ EP   4    6 0 12.72                             106   -1.83 0  409 327 
 SJC  HN ES   4    6 0 55.00                             106   -2.92 0  409 327 
 SJC  HZ I         6 0 56.59         2.3 0.38            106            409 327 
 PAL  HZ I         6 1  2.98         2.0 0.44            105            409 239 
                                                                                
