 2011 10 2 0534 35.5 L   7.378 -73.192129.6  RSN 11 0.3 2.3LRSN                1
 GAP= 81        0.62       2.6     3.9  4.3 -0.1179E+01  0.5459E+01  0.1570E+01E
 Epicentro: EL PLAYON - SANTANDER                                              3
 ACTION:UPD 12-07-13 16:01 OP:ep   STATUS:               ID:20111002053435 L   I
 2011-10-02-0520-00M.COL___169                                                 6
 STAT SP IPHASW D HRMM SECON CODA AMPLIT PERI AZIMU VELO AIN AR TRES W  DIS CAZ7
 GIR2 SZ EP   1    534 53.27                             165   -0.03 7 33.0 180 
 GIR2 SZ ES   1    535  6.75                             165   -0.44 7 33.0 180 
 PAM  SZ EP        534 54.83                             156    0.1410 54.6  94 
 PAM  SN ES   1    535  9.62                             156   -0.05 7 54.6  94 
 BRI  SZ EP   1    534 54.59                             155    0.20 7 57.5  49 
 BRR  HZ EP        534 54.54                             152    0.0210 64.7 243 
 BRR  HN ES   1    535  9.66                             152    0.29 7 64.7 243 
 BRR  HZ I         535 11.02        87.7 0.17                          64.7 243 
 BAR2 SZ IP        534 56.39                             144    0.0910 86.9 179 
 BAR2 SZ ES   1    535 12.79                             144    0.26 7 86.9 179 
 BAR2 SZ I         535 14.04        83.5 0.16                          86.9 179 
 OCA  SZ EP   1    534 56.90                             141    0.02 7 96.2 352 
 OCA  SZ ES   1    535 13.53                             141   -0.03 7 96.2 352 
 OCA  SZ I         535 15.95        48.3 0.22                          96.2 352 
 RUS  HZ EP   1    535  3.01                             125   -0.47 7  165 176 
 RUS  HN ES   1    535 24.82                             125   -0.49 7  165 176 
 RUS  HZ I         535 31.12         9.0 0.28                           165 176 
 ZAR  HZ EP   1    535  4.59                             121   -0.26 7  184 274 
 ZAR  HZ I         535 30.89        24.5 0.14                           184 274 
 NOR  SZ EP   1    535 15.08                             111    0.42 6  273 223 
 NOR  SE ES   1    535 44.96                             111   -0.25 6  273 223 
 HEL  HZ EP   1    535 16.80                             110   -0.14 5  290 243 
 HEL  HZ I         535 59.57        11.0 0.17                           290 243 
 CHI  HZ EP   1    535 18.84                             108   -0.46 5  310 191 
 CHI  HE ES   1    535 54.53                             108    1.05 5  310 191 
 CHI  HZ I         536  1.31         5.9 0.37                           310 191 
                                                                                
