 2016 10 2 0934 26.6 L   6.800 -73.114144.0  RSN 12 0.4 2.1LRSN                1
 GAP=141        0.85       2.9     3.2  4.6 -0.6783E+00  0.5649E+01  0.3040E+01E
 Epicentro: LOS SANTOS - SANTANDER                                             3
 ACTION:UPD 16-11-09 19:15 OP:rebc STATUS:               ID:20161002093426 L   I
 OLDACT:REG 16-10-02 13:39 OP:dnl  STATUS:               ID:20161002092742     3
 2016-10-02-0928-00M.COL___366                                                 6
 STAT SP IPHASW D HRMM SECON CODA AMPLIT PERI AZIMU VELO AIN AR TRES W  DIS CAZ7
 BAR2 EZ IP     C  934 45.85                             170   -0.2210 24.2 198 
 BAR2 EZ ES        935  1.37                             170    0.1410 24.2 198 
 BAR2 EZ I         935  2.48        31.8 0.58            167           24.2 198 
 BRR  HZ IP     C  934 47.64                             151   -0.1310 74.2 297 
 BRR  HN ES        935  4.74                             151    0.4810 74.2 297 
 BRR  HZ I         935  8.95        29.2 0.36            149           74.2 297 
 PAM  EZ EP        934 48.78                             151    0.2510 75.2  38 
 PAM  EN ES        935  5.66                             151    0.0410 75.2  38 
 PAM  EZ I         935  7.16        19.8 0.42            156           75.2  38 
 RUS  HZ EP        934 49.93                             143   -0.2710  100 178 
 RUS  HN ES        935  8.60                             143    0.0110  100 178 
 RUS  HZ I         935 10.35        16.1 0.36            145            100 178 
 OCA  HZ EP   9    934 54.12                             129   -0.73 0  161 352 
 OCA  HN ES        935 15.66                                   -0.47 9  161 352 
 OCA  HZ I         935 18.80        38.6 0.38            131            161 352 
 SPBC HZ EP        934 54.89                             128   -0.32 9  165 220 
 SPBC HE ES        935 17.01                             128   -0.49 9  165 220 
 SPBC HZ I         935 21.98        29.7 0.24            129            165 220 
 ZAR  HZ EP        934 58.88                             121   -0.42 8  207 292 
 ZAR  HN ES        935 24.36                             121   -0.41 8  207 292 
 ZAR  HZ I         935 33.09        18.9 0.24            122            207 292 
 NOR  HN ES        935 30.40                             118   -0.20 8  238 235 
 NOR  HZ I         935 37.03         9.6 0.28            118            238 235 
 CHI  HZ EP        935  4.40                             117    0.06 8  250 196 
 CHI  HN ES        935 33.90                             117    0.15 8  250 196 
 CHI  HZ I         935 41.02         5.8 0.34            118            250 196 
 HEL  HZ EP        935  7.74                             114    0.61 7  275 256 
 HEL  HE ES        935 39.04                             114    0.32 7  275 256 
 HEL  HZ I         935 44.04         8.5 0.42            115            275 256 
 GUY2CHZ EP        935 11.50                             112    1.02 7  304 235 
 GUY2CHN ES        935 44.83                             112    0.14 7  304 235 
 GUY2CHZ I         935 51.17         5.2 0.60                           304 235 
 CBOC HZ EP        935 13.49                             109   -0.37 7  337 252 
 CBOC HN ES        935 50.75                             109    0.06 7  337 252 
 CBOC HZ I         935 59.30         2.3 0.38            110            337 252 
                                                                                
