 2015  3 2 0619  2.9 L   6.793 -73.155147.0  RSN  8 0.3 1.2LRSN                1
 GAP=136        0.80       3.4     3.9  6.1 -0.1466E+00  0.3543E+01  0.5818E+00E
 Epicentro: LOS SANTOS - SANTANDER                                             3
 ACTION:UPD 15-04-30 16:22 OP:nd   STATUS:               ID:20150302061902 L   I
 OLDACT:REG 15-03-02 12:47 OP:spq  STATUS:               ID:20150302061746     3
 2015-03-02-0617-46M.COL___290                                                 6
 STAT SP IPHASW D HRMM SECON CODA AMPLIT PERI AZIMU VELO AIN AR TRES W  DIS CAZ7
 BAR2 EZ EP   1    619 22.72                             171    0.02 7 22.4 188 
 BAR2 EZ ES   1    619 37.48                             171   -0.63 7 22.4 188 
 BAR2 EZ I         619 39.15         4.7 0.38            170           22.4 188 
 BRR  HZ EP        619 24.46                             153    0.2710 70.7 299 
 BRR  HN ES        619 41.42                             153    0.6510 70.7 299 
 BRR  HZ I         619 44.59         3.8 0.44            151           70.7 299 
 PAM  SZ EP        619 25.49                             151    0.1310 78.6  40 
 PAM  SN ES   1    619 42.63                             151   -0.22 7 78.6  40 
 PAM  SZ I         619 44.59         2.9 0.52            155           78.6  40 
 RUS  HZ EP   1    619 26.70                             144   -0.05 7 99.8 175 
 RUS  HE ES   1    619 45.21                             144   -0.12 7 99.8 175 
 RUS  HZ I         619 46.08         0.9 0.28            147           99.8 175 
 PTB  HZ EP        619 29.47                             133   -0.43 9  147 259 
 PTB  HN ES   1    619 50.76                             133   -0.17 7  147 259 
 PTB  HZ I         619 57.47         1.7 0.29            132            147 259 
 SPBC HZ EP        619 31.76                             130    0.35 9  162 219 
 SPBC HE ES        619 53.66                             130    0.04 9  162 219 
 SPBC HZ I         619 57.75         2.4 0.12            131            162 219 
 ZAR  HN ES        620  0.41                             123   -0.31 9  203 292 
 ZAR  HZ I         620  6.41         1.8 0.44            123            203 292 
 SML  HE ES   1    620  7.94                             118   -0.37 6  244 336 
 SML  HZ I         620  9.57         2.2 0.24            119            244 336 
                                                                                
