 2015 12 2 0227 46.1 L   6.378 -73.652104.9  RSN 15 0.5 2.4LRSN                1
 GAP= 65        1.11       2.4     3.4  5.8 -0.8993E+00  0.6982E+01  0.1402E+01E
 Epicentro: SANTA HELENA DEL OPON - SANTANDER                                  3
 ACTION:UPD 16-02-04 15:01 OP:cam  STATUS:               ID:20151202022746 L   I
 OLDACT:UP  15-12-02 16:39 OP:mh   STATUS:               ID:20151202021750     3
 OLDACT:UP  15-12-02 13:40 OP:mh   STATUS:               ID:20151202021750     3
 OLDACT:UP  15-12-02 13:40 OP:mh   STATUS:               ID:20151202021750     3
 OLDACT:UP  15-12-02 13:38 OP:mh   STATUS:               ID:20151202021750     3
 OLDACT:UP  15-12-02 13:37 OP:mh   STATUS:               ID:20151202021750     3
 OLDACT:UP  15-12-02 13:35 OP:mh   STATUS:               ID:20151202021750     3
 OLDACT:REG 15-12-02 12:11 OP:mh   STATUS:               ID:20151202021750     3
 2015-12-02-0217-50M.COL___315                                                 6
 STAT SP IPHASW D HRMM SECON CODA AMPLIT PERI AZIMU VELO AIN AR TRES W  DIS CAZ7
 BAR2 EZ IP     C  228  2.70                             149    0.2910 57.1  65 
 BAR2 EZ ES        228 15.49                             149    0.3610 57.1  65 
 BAR2 EZ I         228 16.29       300.5 0.14            153           57.1  65 
 BRR  HZ IP     C  228  3.65                             139   -0.1210 80.9 355 
 BRR  HN ES        228 17.54                             139   -0.0110 80.9 355 
 BRR  HZ I         228 25.12        40.6 0.42            140           80.9 355 
 RUS  HZ IP     C  228  4.63                             139    0.0210 82.7 130 
 RUS  HN ES        228 18.65                             139   -0.3810 82.7 130 
 RUS  HZ I         228 20.22        34.0 0.54            144           82.7 130 
 PTB  HZ IP     D  228  3.66                             136   -0.9510 90.8 281 
 PTB  HN ES   1    228 17.96                             136   -1.08 7 90.8 281 
 PTB  HZ I         228 20.41        38.5 0.10            136           90.8 281 
 SPBC HZ EP   1    228  4.64                             135   -0.25 7 92.8 210 
 SPBC HN ES        228 19.98                             135    0.4510 92.8 210 
 SPBC HZ I         228 23.80        43.4 0.22            138           92.8 210 
 NOR  HZ IP     C  228 11.06                             118   -0.63 9  162 236 
 NOR  HN ES        228 31.96                             118    0.33 9  162 236 
 NOR  HZ I         228 35.63        35.2 0.12            120            162 236 
 ZAR  HZ EP   1    228 13.63                             115   -0.12 7  182 313 
 ZAR  HN ES        228 35.80                             115    0.50 9  182 313 
 ZAR  HZ I         228 39.06        37.0 0.28            116            182 313 
 HEL  HZ EP   1    228 16.29                             111   -0.97 6  209 264 
 HEL  HN ES        228 42.01                             111    0.45 8  209 264 
 HEL  HZ I         228 45.38        17.8 0.34            113            209 264 
 OCA  HZ EP   1    228 16.59                             111   -0.43 6  209  10 
 OCA  HN ES        228 41.80                             111    0.66 8  209  10 
 OCA  HZ I         228 47.74        97.6 0.30            113            209  10 
 GUY2CHZ EP   1    228 20.44                             109    0.76 6  229 236 
 GUY2CHN ES   4    228 49.11                             109    3.25 0  229 236 
 GUY2CHZ I         228 54.22        11.7 0.28                           229 236 
 VIL  SZ EP   1    228 21.65                             107   -0.15 6  251 181 
 VIL  SN ES        228 49.38                             107   -0.25 8  251 181 
 SML  HZ EP        228 23.96                             105   -0.16 8  272 350 
 SML  HN ES   1    228 54.06                             105    0.29 6  272 350 
 SML  HZ I         228 58.51        28.5 0.10            107            272 350 
 ANIL HZ EP        228 26.42                             104    0.39 7  285 223 
 ANIL HE ES   4    229  0.44                             104    3.27 0  285 223 
 PRA  HZ EP        228 30.11                             101   -0.36 7  325 205 
 PRA  HN ES        229  5.59                             101    0.52 7  325 205 
 PRA  HZ I         229 13.42        13.1 0.24            104            325 205 
 ORTC HZ EP   1    228 30.72                             101    0.21 5  325 213 
 ORTC HN ES        229  5.90                             101    0.75 7  325 213 
                                                                                
