 2017  3 2 0700 47.1 L   5.939 -73.844109.8  RSN  6 0.2 1.1LRSN                1
 GAP= 82        0.52       2.9     2.0  6.0 -0.1793E+01 -0.1354E+01  0.4626E+01E
 Epicentro: SUCRE - SANTANDER                                                  3
 ACTION:UPD 17-05-25 18:34 OP:jn   STATUS:               ID:20170302070047 L   I
 OLDACT:UP  17-03-02 16:57 OP:and  STATUS:               ID:20170302065742     3
 OLDACT:UP  17-03-02 16:57 OP:and  STATUS:               ID:20170302065742     3
 OLDACT:UP  17-03-02 16:57 OP:and  STATUS:               ID:20170302065742     3
 OLDACT:UP  17-03-02 16:57 OP:and  STATUS:               ID:20170302065742     3
 OLDACT:UP  17-03-02 16:56 OP:and  STATUS:               ID:20170302065742     3
 OLDACT:UP  17-03-02 16:55 OP:and  STATUS:               ID:20170302065742     3
 OLDACT:UP  17-03-02 16:54 OP:and  STATUS:               ID:20170302065742     3
 OLDACT:UP  17-03-02 16:54 OP:and  STATUS:               ID:20170302065742     3
 OLDACT:UP  17-03-02 16:54 OP:and  STATUS:               ID:20170302065742     3
 OLDACT:REG 17-03-02 12:54 OP:and  STATUS:               ID:20170302065742     3
 2017-03-02-0658-00M.COL___390                                                 6
 STAT SP IPHASW D HRMM SECON CODA AMPLIT PERI AZIMU VELO AIN AR TRES W  DIS CAZ7
 RUS  HZ EP        7 1  6.10                             140   -0.0410 84.4  93 
 RUS  HN ES   2    7 1 20.67                             140   -0.35 5 84.4  93 
 RUS  HZ I         7 1 21.94         2.1 0.24            143           84.4  93 
 PTB  HZ EP        7 1  6.40                             136    0.0710 94.9 314 
 PTB  HN ES        7 1 21.17                             136   -0.2010 94.9 314 
 PTB  HZ I         7 1 23.42         2.2 0.10            140           94.9 314 
 BAR2 EZ EP        7 1  7.54                             134    0.2110  103  45 
 BAR2 EZ ES        7 1 23.23                             134    0.0910  103  45 
 NOR  HZ EP        7 1  8.45                             129   -0.2910  121 250 
 NOR  HN ES        7 1 25.97                             129    0.3110  121 250 
 NOR  HZ I         7 1 26.70         5.7 0.09            131            121 250 
 BRR  HZ EP   2 C  7 1  9.34                             126   -0.21 5  130   6 
 BRR  HN ES   4    7 1 29.05                             126    1.95 0  130   6 
 CHI  HN ES   2    7 1 30.78                             123   -0.03 5  145 175 
 CHI  HZ I         7 1 33.66         1.4 0.24            125            145 175 
                                                                                
