 2013  3 2 0848 11.2 L   6.715 -73.179152.0  RSN  4 0.2 1.6LRSN                1
 GAP=227        0.53       4.5     4.6  5.0  0.1125E+02  0.5194E+00 -0.1615E+00E
 Epicentro: VILLANUEVA - SANTANDER                                             3
 ACTION:UPD 13-04-09 13:59 OP:ep   STATUS:               ID:20130302084811 L   I
 2013-03-02-0838-48M.COL___190                                                 6
 STAT SP IPHASW D HRMM SECON CODA AMPLIT PERI AZIMU VELO AIN AR TRES W  DIS CAZ7
 BAR2 SZ ES   2    848 46.41                             175   -0.77 5 13.6 181 
 BAR2 SZ I         848 47.94         6.2 0.40            168           13.6 181 
 BRR  HZ EP        848 33.18                             153    0.0910 73.1 306 
 BRR  HN ES        848 50.33                             153    0.1310 73.1 306 
 BRR  HN I         848 51.31        12.3 0.28            151           73.1 306 
 RUS  HZ EP        848 34.85                             148   -0.0810 91.6 173 
 RUS  HN ES        848 53.64                             148    0.1810 91.6 173 
 RUS  HN I         848 55.31         3.0 0.18            146           91.6 173 
 PTB  HZ EP        848 38.06                             135   -0.13 9  143 262 
 PTB  HN ES        848 59.25                             135   -0.02 9  143 262 
 PTB  HN I         849  4.84         9.2 0.44            132            143 262 
                                                                                
