 2016  5 2 0813 45.6 L   6.798 -73.174143.0  RSN  4 0.3 1.0LRSN                1
 GAP=276        0.82       7.1     5.8  7.6  0.2653E+01  0.1459E+02 -0.7146E+01E
 Epicentro: LOS SANTOS - SANTANDER                                             3
 ACTION:UPD 16-08-18 17:41 OP:cam  STATUS:               ID:20160502081345 L   I
 OLDACT:REG 16-05-02 18:04 OP:ak   STATUS:               ID:20160502080744     3
 2016-05-02-0807-44M.COL___282                                                 6
 STAT SP IPHASW D HRMM SECON CODA AMPLIT PERI AZIMU VELO AIN AR TRES W  DIS CAZ7
 BAR2 EZ EP        814  4.59                             171   -0.3210 22.8 182 
 BAR2 EZ ES        814 20.35                             171    0.3910 22.8 182 
 BAR2 EZ I         814 22.59         2.9 0.07            170           22.8 182 
 RUS  HZ EP   2    814  8.77                             143   -0.34 5  101 174 
 RUS  HN ES        814 27.18                             143   -0.2510  101 174 
 RUS  HZ I         814 28.80         1.6 0.36            145            101 174 
 PTB  HZ EP        814 12.48                             132    0.40 9  145 259 
 PTB  HE ES        814 32.26                             132   -0.46 9  145 259 
 PTB  HZ I         814 33.50         0.5 0.21            134            145 259 
 SPBC HZ EP        814 13.85                             129    0.14 9  161 218 
 SPBC HE ES        814 35.87                             129    0.25 9  161 218 
 SPBC HZ I         814 37.64         1.6 0.26            130            161 218 
                                                                                
