 2017  5 2 0347 60.0 L   6.877 -73.128149.8  RSN  5 0.2 1.1LRSN                1
 GAP=135        0.72       6.5     3.6  5.9  0.1998E+01  0.1231E+01  0.1325E+02E
 Epicentro: LOS SANTOS - SANTANDER                                             3
 ACTION:UPD 17-06-16 13:31 OP:jn   STATUS:               ID:20170502034760 L   I
 OLDACT:UP  17-05-02 16:41 OP:edw  STATUS:               ID:20170502034744     3
 OLDACT:REG 17-05-02 12:11 OP:edw  STATUS:               ID:20170502034744     3
 2017-05-02-0348-00M.COL___365                                                 6
 STAT SP IPHASW D HRMM SECON CODA AMPLIT PERI AZIMU VELO AIN AR TRES W  DIS CAZ7
 BRR  HZ EP        348 21.30                             153   -0.1610 69.4 292 
 BRR  HN ES        348 38.25                             153    0.0310 69.4 292 
 BRR  HZ I         348 38.85         2.9 0.44            152           69.4 292 
 PAM  EZ EP     C  348 22.32                             153    0.1310 69.7  43 
 PAM  EN ES        348 39.33                             153   -0.1810 69.7  43 
 PAM  EZ I         348 41.22         2.4 0.52            154           69.7  43 
 RUS  HZ EP        348 24.77                             142    0.0410  109 177 
 RUS  HN ES   4    348 42.35                             142   -1.69 0  109 177 
 RUS  HZ I         348 45.06         1.0 0.36            143            109 177 
 PTB  HZ EP   9    348 26.76                             132   -0.85 0  152 256 
 PTB  HN ES        348 47.64                             132   -0.68 9  152 256 
 PTB  HZ I         348 49.10         1.2 0.38            132            152 256 
 YPLC HN ES   4    349  0.15                             126    5.47 0  183 153 
 ZAR  HZ EP        348 32.47                             123   -0.09 9  203 290 
 ZAR  HN ES        348 58.27                             123    0.29 9  203 290 
 ZAR  HZ I         349  3.30         2.8 0.40            123            203 290 
                                                                                
