 2017 11 2 0715 23.0 L   6.680 -73.219144.0  RSN  4 0.3 1.0LRSN                1
 GAP=206        0.61       6.7     7.6  6.1  0.4130E+02  0.6772E+01 -0.1867E+01E
 Epicentro: BARICHARA - SANTANDER                                              3
 ACTION:UPD 17-12-12 19:51 OP:rebc STATUS:               ID:20171102071523 L   I
 OLDACT:REG 17-11-02 13:37 OP:dnl  STATUS:               ID:20171102070636     3
 2017-11-02-0707-00M.COL___438                                                 6
 STAT SP IPHASW D HRMM SECON CODA AMPLIT PERI AZIMU VELO AIN AR TRES W  DIS CAZ7
 BAR2 EZ EP        715 41.85                             176   -0.3510 10.5 157 
 BAR2 EZ ES        715 57.19                             176   -0.0110 10.5 157 
 BAR2 EZ I         715 59.31         3.1 0.40            173           10.5 157 
 BRR  HZ EP        715 44.05                             152    0.0710 72.1 311 
 BRR  HN ES        716  0.62                             152    0.2510 72.1 311 
 BRR  HZ I         716  5.26         1.9 0.26            151           72.1 311 
 RUS  HZ EP   2    715 46.37                             147    0.67 5 88.4 170 
 RUS  HN ES        716  3.44                             147    0.0110 88.4 170 
 RUS  HZ I         716  5.58         0.8 0.30            149           88.4 170 
 ZAR  HZ EP   4    715 53.46                             122   -1.64 0  202 296 
 ZAR  HN ES        716 19.98                             122   -0.18 9  202 296 
 ZAR  HN IS        716 20.11                             123            202 296 
 ZAR  HZ I         716 24.48         1.7 0.32            124            202 296 
                                                                                
