 2010  9 2 0731 14.4 L   6.781 -73.084149.2  RSN  4 0.2 1.5LRSN                1
 GAP=242        0.48       5.3    11.2  7.2  0.4534E+02 -0.2927E+02 -0.1446E+02E
 Epicentro: LOS SANTOS - SANTANDER                                             3
 ACTION:UP  11-02-18 10:59 OP:tino STATUS:               ID:20100902073114 L   I
 2010-09-02-0728-22S.COL___120                                                 6
 STAT SP IPHASW D HRMM SECON CODA AMPLIT PERI AZIMU VELO SNR AR TRES W  DIS CAZ7
 BAR2 SZ EP   1    731 34.41                             171    -0.1 7   24 208 
 BAR2 SZ I         731 51.41         8.1 0.36                            24 208 
 BRR  HZ EP        731 36.24                             151    -0.110   78 298 
 BRR  HE ES   1    731 53.61                             151     0.1 7   78 298 
 BRR  HZ I         731 57.85         6.7 0.20                            78 298 
 RUS  HZ EP   1    731 38.66                             145     0.3 7   98 180 
 RUS  HN ES        731 56.95                             145    -0.110   98 180 
 RUS  HZ I         731 58.70         3.4 0.43                            98 180 
 CHI  HN ES   2    732 21.80                             118    -0.1 4  248 197 
 CHI  HZ I         732 27.62         1.8 0.43                           248 197 
                                                                                
