 2017  5 2 0828 25.1 L   6.787 -73.135159.4  RSN  5 0.5 1.2LRSN                1
 GAP=139        1.17       6.5     6.5  9.9 -0.7205E+01  0.4624E+01  0.8683E+01E
 Epicentro: LOS SANTOS - SANTANDER                                             3
 ACTION:UPD 17-06-16 13:32 OP:jn   STATUS:               ID:20170502082825 L   I
 OLDACT:REG 17-05-02 14:05 OP:edw  STATUS:               ID:20170502082741     3
 2017-05-02-0828-00M.COL___356                                                 6
 STAT SP IPHASW D HRMM SECON CODA AMPLIT PERI AZIMU VELO AIN AR TRES W  DIS CAZ7
 BRR  HZ EP     C  828 48.31                             154    0.4410 72.9 299 
 BRR  HN ES        829  6.40                             154    0.8010 72.9 299 
 PAM  EZ EP        828 49.02                             153    0.1810 77.7  38 
 PAM  EN ES        829  6.66                             153   -0.6710 77.7  38 
 PAM  EZ I         829  8.61         1.4 0.20            156           77.7  38 
 RUS  HZ EP        828 50.22                             147    0.0610 99.1 177 
 RUS  HN ES        829  9.77                             147    0.1010 99.1 177 
 RUS  HZ I         829 11.27         1.5 0.36            146           99.1 177 
 PTB  HZ EP        828 52.98                             135   -0.35 9  149 259 
 PTB  HN ES        829 14.58                             135   -0.74 9  149 259 
 PTB  HZ I         829 15.89         2.3 0.34            136            149 259 
 SPBC HZ EP   2    828 54.63                             132   -0.06 5  163 220 
 SPBC HN ES   2    829 17.97                             132    0.23 5  163 220 
 SPBC HZ I         829 22.98         3.7 0.26            132            163 220 
                                                                                
