 2015 10 2 0857 41.5 L   7.358 -73.113  9.6  RSN  5 0.3 0.7LRSN                1
 GAP=178        0.43       4.5     1.9  4.5 -0.9462E-01  0.3317E+01  0.6849E+01E
 Epicentro: RIONEGRO - SANTANDER                                               3
 ACTION:UPD 15-12-22 20:36 OP:cam  STATUS:               ID:20151002085741 L   I
 OLDACT:REG 15-10-02 13:27 OP:ar   STATUS:               ID:20151002084749     3
 2015-10-02-0847-49M.COL___351                                                 6
 STAT SP IPHASW D HRMM SECON CODA AMPLIT PERI AZIMU VELO AIN AR TRES W  DIS CAZ7
 PAM  EZ EP   2    857 49.35                              98   -0.24 5 45.6  93 
 PAM  EN ES   2    857 55.89                              98    0.00 5 45.6  93 
 PAM  EZ I         857 56.73         6.8 0.18            134           45.6  93 
 BRR  HZ EP   2    857 53.40                              95    0.39 5 71.8 247 
 BRR  HN ES   2    858  1.82                              95   -0.17 5 71.8 247 
 BRR  HZ I         858 36.43         2.3 0.34            112           71.8 247 
 RUS  HZ EP   2    858  7.59                              56    0.45 5  162 179 
 RUS  HE ES   2    858 27.17                              56    0.04 5  162 179 
 RUS  HZ I         858 32.58         0.6 0.20            106            162 179 
 PTB  HZ EP   2    858  7.50                              56   -0.55 4  174 239 
 PTB  HE ES   2    858 28.47                              56   -0.27 4  174 239 
 PTB  HZ I         858 30.37         1.1 0.14            103            174 239 
 ZAR  HZ EP   2    858 10.65                              56    0.19 4  193 275 
 ZAR  HN ES   2    858 33.19                              56    0.16 4  193 275 
 ZAR  HZ I         858 34.40         1.4 0.66            103            193 275 
                                                                                
