 2012  7 2 0013 14.8 L   6.798 -73.161141.1  RSN  6 0.4 1.5LRSN                1
 GAP=181        0.84       5.2     6.5 10.4  0.8189E+01  0.1614E+02 -0.8710E+01E
 Epicentro: LOS SANTOS - SANTANDER                                             3
 ACTION:UPD 12-08-14 11:41 OP:ep   STATUS:               ID:20120702001314 L   I
 2012-07-02-0010-00M.COL___201                                                 6
 STAT SP IPHASW D HRMM SECON CODA AMPLIT PERI AZIMU VELO AIN AR TRES W  DIS CAZ7
 BAR2 SZ EP   1    013 33.93                             170     0.1 7   23 186 
 BAR2 SZ ES   1    013 48.57                             170    -0.1 7   23 186 
 BAR2 SZ I         013 50.73         8.5 0.31            167             23 186 
 BRR  HZ EP   1    013 35.97                             152     0.6 7   70 299 
 BRR  HZ I         013 37.52        11.3 0.13            150             70 299 
 RUS  HZ EP   1    013 37.86                             143    -0.2 7  100 175 
 RUS  HN ES   1    013 56.50                             143     0.3 7  100 175 
 RUS  HZ I         013 58.23         2.9 0.35            143            100 175 
 PTB  HZ EP   1    013 40.79                             131    -0.4 7  146 259 
 PTB  HN ES   1    014  1.46                             131    -0.4 7  146 259 
 PTB  HZ I         014  7.88         5.5 0.22            130            146 259 
 OCA  HN ES   1    014  4.24                             128    -0.3 7  160 354 
 ZAR  HE ES   1    014 12.21                             121     0.5 6  203 292 
