 2016  5 2 0358 24.1 L   6.714 -73.341112.1  RSN  4 0.3 1.4LRSN                1
 GAP=191        0.81       5.9     9.0 10.2 -0.3850E+02  0.5491E+02 -0.1608E+02E
 Epicentro: GALAN - SANTANDER                                                  3
 ACTION:UPD 16-08-18 17:41 OP:cam  STATUS:               ID:20160502034745 L   I
 OLDACT:UPD 16-05-15 07:29 OP:ar   STATUS:               ID:20160502034745 L   3
 2016-05-02-0347-45M.COL___283                                                 6
 STAT SP IPHASW D HRMM SECON CODA AMPLIT PERI AZIMU VELO AIN AR TRES W  DIS CAZ7
 BAR2 EZ ES        358 51.49                             168   -0.3410 22.1 128 
 BAR2 EZ I         358 51.96         8.1 0.22            173           22.1 128 
 RUS  HN ES        359  0.07                             137    0.0610 95.2 163 
 PAM  EN ES        359  0.82                             136    0.2510 99.0  46 
 SPBC HZ EP        358 47.77                             124   -0.39 9  143 215 
 SPBC HE ES        359  7.32                             124    0.41 9  143 215 
 SPBC HZ I         359 10.67         3.8 0.12            124            143 215 
                                                                                
