 2014  8 2 0058 37.7 L   6.817 -73.006147.7  RSN  7 0.5 1.6LRSN                1
 GAP=197        1.12       4.7     8.9 13.0 -0.9406E+01  0.4741E+02  0.2104E+00E
 Epicentro: CEPITA - SANTANDER                                                 3
 ACTION:UPD 14-09-15 21:46 OP:nd   STATUS:               ID:20140802005837 L   I
 OLDACT:DUP 14-08-02 16:27 OP:carl STATUS:               ID:20140802004822d    3
 2014-08-02-0048-20M.COL___251                                                 6
 STAT SP IPHASW D HRMM SECON CODA AMPLIT PERI AZIMU VELO AIN AR TRES W  DIS CAZ7
 RUS  HZ EP        059  1.95                             144    0.1210  103 185 
 RUS  HN ES        059 21.14                             144    0.5310  103 185 
 RUS  HZ I         059 21.66         3.6 0.38            146            103 185 
 OCA  HN ES        059 28.41                             130   -0.12 9  161 348 
 PTB  HZ EP   4    059  4.96                             129   -1.34 0  163 259 
 PTB  HN ES   4    059 25.62                             129   -2.95 0  163 259 
 PTB  HZ I         059 33.41         4.6 0.40            129            163 259 
 SPBC HZ EP        059  7.20                             127   -0.29 9  175 223 
 SPBC HE ES        059 29.83                             127   -0.86 9  175 223 
 SPBC HZ I         059 31.43         5.8 0.22            129            175 223 
 NOR  HN ES        059 44.20                             117    0.03 8  248 236 
 NOR  HZ I         059 48.81         3.6 0.48            119            248 236 
 CHI  HN ES        059 45.77                             117   -0.48 8  255 198 
 GUY2CHZ EP        059 23.38                             112    0.38 7  315 236 
 GUY2CHN ES        059 59.25                             112    0.96 7  315 236 
                                                                                
