 2013  2 2 0230 47.1 L   6.781 -73.127145.1  RSN  5 0.4 1.6LRSN                1
 GAP=140        1.03       5.7     5.6  8.3 -0.2573E+01  0.7529E+01  0.1237E+01E
 Epicentro: LOS SANTOS - SANTANDER                                             3
 ACTION:UPD 13-03-12 09:29 OP:ep   STATUS:               ID:20130202023047 L   I
 2013-02-02-0228-47M.COL___180                                                 6
 STAT SP IPHASW D HRMM SECON CODA AMPLIT PERI AZIMU VELO AIN AR TRES W  DIS CAZ7
 BAR2 SZ EP        231  6.83                             171    0.2110 21.8 196 
 BAR2 SZ ES        231 21.72                             171   -0.1210 21.8 196 
 BAR2 SZ I         231 22.61        13.2 0.38            168           21.8 196 
 BRR  HZ IP     C  231  8.68                             151    0.3410 74.0 299 
 BRR  HN ES        231 25.57                             151    0.6710 74.0 299 
 BRR  HN I         231 25.87        12.0 0.28            150           74.0 299 
 PAM  SZ EP   1    231  9.35                             150    0.08 7 77.7  37 
 PAM  SN ES        231 25.98                             150   -0.5710 77.7  37 
 RUS  HZ EP   1    231 10.95                             144    0.32 7 98.4 177 
 RUS  HN ES        231 29.00                             144    0.0210 98.4 177 
 RUS  HE I         231 31.10         3.4 0.36            143           98.4 177 
 PTB  HZ EP   1    231 13.50                             131   -0.67 7  149 260 
 PTB  HN ES        231 34.75                             131   -0.52 9  149 260 
 PTB  HN I         231 40.00         5.3 0.58            130            149 260 
                                                                                
