 2014  2 2 0213 48.8 L   6.794 -73.106148.3  RSN 13 0.5 2.0LRSN                1
 GAP=142        1.11       3.0     5.1  5.9 -0.4148E+01  0.9696E+01 -0.1282E+00E
 Epicentro: LOS SANTOS - SANTANDER                                             3
 ACTION:UPD 14-03-10 08:06 OP:ep   STATUS:               ID:20140202021348 L   I
 OLDACT:REG 14-02-02 07:09 OP:nd   STATUS:               ID:20140202021000     3
 2014-02-02-0210-00M.COL___288                                                 6
 STAT SP IPHASW D HRMM SECON CODA AMPLIT PERI AZIMU VELO AIN AR TRES W  DIS CAZ7
 BAR2 SZ EP        214  8.82                             170    0.0510 23.9 201 
 BAR2 SZ ES        214 23.54                             170   -0.7910 23.9 201 
 BAR2 SZ I         214 26.72        23.6 0.30            168           23.9 201 
 PAM  SZ EP        214 11.48                             152    0.3010 75.2  37 
 PAM  SN ES        214 28.93                             152    0.3110 75.2  37 
 PAM  SZ I         214 31.26        12.3 0.64            154           75.2  37 
 BRR  HZ EP        214 10.74                             152    0.2510 75.4 297 
 BRR  HN ES        214 28.21                             152    0.8310 75.4 297 
 BRR  HZ I         214 32.47        10.5 0.16            148           75.4 297 
 RUS  HZ EP        214 12.52                             145   -0.2510 99.7 179 
 RUS  HN ES        214 31.25                             145   -0.1910 99.7 179 
 RUS  HZ I         214 32.64         6.7 0.36            146           99.7 179 
 PTB  HZ EP        214 15.73                             132   -0.65 9  152 259 
 PTB  HN ES   2    214 37.70                             132   -0.18 5  152 259 
 PTB  HZ I         214 42.92        10.1 0.43            130            152 259 
 OCA  HZ EP        214 18.29                             130    0.84 9  162 352 
 OCA  HN ES        214 39.54                             130   -0.24 9  162 352 
 OCA  HZ I         214 43.70        12.2 0.34            129            162 352 
 SPBC HZ EP        214 17.71                             129   -0.03 9  165 220 
 SPBC HN ES        214 40.35                             129    0.06 9  165 220 
 SPBC HZ I         214 44.89        15.2 0.26            128            165 220 
 NOR  HZ EP        214 24.88                             119   -0.17 8  238 235 
 NOR  HN ES        214 52.99                             119   -0.31 8  238 235 
 NOR  HZ I         214 56.43         8.3 0.22            118            238 235 
 SML  HZ EP        214 25.33                             118   -0.53 8  246 334 
 SML  HN ES        214 53.96                             118   -0.79 8  246 334 
 SML  HZ I         214 56.36        13.5 0.10            117            246 334 
 CHI  HZ EP        214 26.79                             118    0.06 8  249 196 
 CHI  HN ES        214 56.56                             118    0.27 8  249 196 
 CHI  HZ I         215  3.98         2.8 0.30            118            249 196 
 HEL  HZ EP        214 29.78                             115    0.15 7  276 256 
 HEL  HN ES   2    215  1.31                             115   -0.14 4  276 256 
 HEL  HZ I         215  9.35         5.0 0.40            114            276 256 
 GUY2CHZ EP   4    214 33.85                             112    0.93 0  304 235 
 GUY2CHN ES        215  8.16                             112    0.85 7  304 235 
 GUY2CHZ I         215 15.61         5.9 0.78                           304 235 
 SJC  HZ EP   4    214 43.14                             106   -1.68 0  412 326 
 SJC  HZ I         215 10.37         2.8 0.56            106            412 326 
 SJC  HN ES   4    215 24.77                             106   -3.73 0  412 326 
                                                                                
