 2014  8 2 0632 12.2 L   6.804 -73.157139.5  RSN  5 0.4 1.6LRSN                1
 GAP=182        1.13       5.1     7.3  9.0  0.8033E+01  0.4905E+01 -0.1634E+01E
 Epicentro: LOS SANTOS - SANTANDER                                             3
 ACTION:UPD 14-09-15 21:46 OP:nd   STATUS:               ID:20140802063212 L   I
 OLDACT:UP  14-08-02 17:12 OP:carl STATUS:               ID:20140802062820d    3
 OLDACT:DUP 14-08-02 17:10 OP:carl STATUS:               ID:20140802062820d    3
 2014-08-02-0628-18M.COL___248                                                 6
 STAT SP IPHASW D HRMM SECON CODA AMPLIT PERI AZIMU VELO AIN AR TRES W  DIS CAZ7
 BAR2 SZ EP        632 31.43                             170    0.3110 23.6 187 
 BAR2 SZ ES        632 46.02                             170    0.1710 23.6 187 
 BAR2 SZ I         632 47.28        17.1 0.36            174           23.6 187 
 BRR  HZ EP        632 33.35                             152    0.7210 69.8 299 
 BRR  HN ES        632 48.86                             152    0.3210 69.8 299 
 BRR  HZ I         632 53.20         7.1 0.36            151           69.8 299 
 RUS  HZ EP        632 35.56                             142    0.1410  101 175 
 RUS  HN ES        632 52.95                             142   -0.5510  101 175 
 RUS  HZ I         632 54.80         3.6 0.22            147            101 175 
 PTB  HZ EP        632 38.18                             131   -0.41 9  147 259 
 PTB  HN ES        632 58.94                             131   -0.21 9  147 259 
 PTB  HZ I         633  2.34         3.7 0.30            133            147 259 
 OCA  HN ES        633  1.01                             128   -0.66 9  160 354 
 OCA  HZ I         633  7.46         4.5 0.30            129            160 354 
                                                                                
