 2013  3 2 0903 39.6 L   6.704 -73.206143.6  RSN  4 0.4 1.7LRSN                1
 GAP=152        0.80       7.8     5.6  9.4  0.7791E+01 -0.1805E+02  0.1706E+02E
 Epicentro: VILLANUEVA - SANTANDER                                             3
 ACTION:UPD 13-04-09 13:59 OP:ep   STATUS:               ID:20130302090339 L   I
 2013-03-02-0858-45M.COL___193                                                 6
 STAT SP IPHASW D HRMM SECON CODA AMPLIT PERI AZIMU VELO AIN AR TRES W  DIS CAZ7
 BRR  HZ EP        9 4  0.38                             152   -0.1310 71.5 309 
 BRR  HN ES        9 4 17.04                             152    0.2110 71.5 309 
 RUS  HZ EP   1    9 4  2.96                             146    0.53 7 90.8 171 
 RUS  HN ES   2    9 4 20.23                             146   -0.02 5 90.8 171 
 PTB  HZ EP        9 4  5.92                             133    0.30 9  139 263 
 PTB  HN ES        9 4 25.47                             133   -0.46 9  139 263 
 PTB  HN I         9 4 30.39         6.3 0.26            131            139 263 
 TAM  HZ EP   1    9 4  6.97                             129   -0.51 7  159 101 
                                                                                
