 2015  5 2 0824 35.0 L   6.558 -74.022 70.0  RSN  4 0.2 1.1LRSN                1
 GAP=193        0.60       6.2     5.7 14.3  0.3203E+02  0.6969E+02  0.7541E+02E
 Epicentro: PUERTO PARRA - SANTANDER                                           3
 ACTION:UPD 15-09-10 22:00 OP:cam  STATUS:               ID:20150502082435 L   I
 OLDACT:UP  15-05-02 18:36 OP:stll STATUS:               ID:20150502081751d    3
 OLDACT:DUP 15-05-02 18:34 OP:stll STATUS:               ID:20150502081751d    3
 OLDACT:DUP 15-05-02 18:33 OP:stll STATUS:               ID:20150502081750d    3
 OLDACT:REG 15-05-02 13:18 OP:stll STATUS:               ID:20150502081749     3
 2015-05-02-0817-49M.COL___276                                                 6
 STAT SP IPHASW D HRMM SECON CODA AMPLIT PERI AZIMU VELO AIN AR TRES W  DIS CAZ7
 BRR  HZ EP        824 48.26                             130   -0.4110 69.8  29 
 BRR  HZ I         824 48.39        12.0 0.12            141           69.8  29 
 BRR  HN ES        824 59.42                             130    0.1210 69.8  29 
 BAR2 EZ EP        824 51.23                             122   -0.0810 93.0  88 
 BAR2 EZ ES        825  4.19                             122    0.1810 93.0  88 
 BAR2 EZ I         825  4.99         4.0 0.18            130           93.0  88 
 RUS  HZ EP        824 55.71                             113    0.2910  127 125 
 RUS  HN ES        825 11.10                             113   -0.2210  127 125 
 RUS  HZ I         825 13.59         1.2 0.30            119            127 125 
 ZAR  HZ EP        824 56.25                             110    0.15 9  139 318 
 ZAR  HN ES        825 12.53                             110   -0.01 9  139 318 
                                                                                
