 2010  7 2 0551 24.4 L   6.787 -73.095142.9  RSN  8 0.4 1.7LRSN                1
 GAP=162        0.69       4.0     6.7  6.8 -0.9539E+01 -0.8969E+01 -0.4351E+00E
 Epicentro: LOS SANTOS - SANTANDER                                             3
 ACTION:UPD 10-12-01 15:14 OP:pat  STATUS:               ID:20100702055124 L   I
 2010-07-02-0549-52S.COL___118                                                 6
 STAT SP IPHASW D HRMM SECON CODA AMPLIT PERI AZIMU VELO AIN AR TRES W  DIS CAZ7
 BAR2 SZ EP   2    551 43.31                             170    -0.4 5   24 204 
 BAR2 SZ ES   2    551 58.33                             170    -0.5 5   24 204 
 BRR  HZ EP        551 45.46                             151    -0.210   77 297 
 BRR  HE ES   1    552  2.21                             151     0.1 7   77 297 
 BRR  HZ I         552  3.64        11.5 0.10                            77 297 
 RUS  HZ EP   1    551 47.64                             144    -0.2 7   99 179 
 RUS  HN ES   2    552  6.63                             144     0.6 5   99 179 
 RUS  HZ I         552  7.00         6.3 0.19                            99 179 
 BRI  SZ EP        551 48.28                             141     0.310  108  18 
 BRI  SZ ES   2    552  7.28                             141     0.9 5  108  18 
 GUE  SZ EP        551 48.67                             139    -0.210  117   9 
 GRA  SZ EP        551 49.49                             137     0.110  126  15 
 GRA  SZ ES   2    552  8.84                             137     0.0 5  126  15 
 OCA  SZ EP   1    551 52.33                             129    -0.4 7  162 351 
 OCA  SZ ES   2    552 14.97                             129     0.2 5  162 351 
 OCA  SZ I         552 21.46         4.4 0.29                           162 351 
 RREF HZ EP   2    552 11.70                             110     0.8 3  325 230 
 RREF HN ES   2    552 47.35                             110     0.3 3  325 230 
 RREF HZ I         552 55.89         2.4 0.38                           325 230 
                                                                                
