 2017  9 2 0143 58.6 L   6.474 -73.510108.9  RSN  6 0.4 1.2LRSN                1
 GAP= 88        0.92       4.2     4.5  9.7 -0.1330E+01  0.2531E+02 -0.1095E+02E
 Epicentro: SANTA HELENA DEL OPON - SANTANDER                                  3
 ACTION:UPD 17-10-05 19:08 OP:rebc STATUS:               ID:20170902014358 L   I
 OLDACT:UP  17-09-02 14:28 OP:dani STATUS:               ID:20170902013742     3
 OLDACT:REG 17-09-02 12:59 OP:dani STATUS:               ID:20170902013742     3
 2017-09-02-0138-00M.COL___408                                                 6
 STAT SP IPHASW D HRMM SECON CODA AMPLIT PERI AZIMU VELO AIN AR TRES W  DIS CAZ7
 BAR2 EZ EP        144 14.14                             159   -0.2210 38.5  70 
 BAR2 EZ ES        144 26.23                             159   -0.4110 38.5  70 
 BRR  HZ EP   3    144 15.01                             143   -1.06 2 73.4 342 
 BRR  HN ES   4    144 32.53                             143    2.84 0 73.4 342 
 BRR  HZ I         144 36.82         5.8 0.36            144           73.4 342 
 RUS  HZ EP        144 17.31                             141    0.0710 79.9 144 
 RUS  HN ES        144 32.38                             141    0.6010 79.9 144 
 RUS  HZ I         144 33.16         2.3 0.28            154           79.9 144 
 SPBC HE ES        144 35.29                             131   -0.0810  110 214 
 NOR  HE ES        144 47.81                             116   -0.36 9  181 236 
 ZAR  HZ EP        144 26.91                             115   -0.10 9  187 307 
 ZAR  HE ES        144 49.78                             115    0.61 9  187 307 
 ZAR  HZ I         144 54.01         2.3 0.24            120            187 307 
                                                                                
