 2014 10 2 0418 15.0 L   6.799 -73.139146.4  RSN  7 0.5 1.7LRSN                1
 GAP=217        1.09       3.9     6.8  6.8  0.4762E+01  0.9786E+00 -0.4782E+00E
 Epicentro: LOS SANTOS - SANTANDER                                             3
 ACTION:UPD 14-11-29 23:45 OP:nd   STATUS:               ID:20141002041815 L   I
 OLDACT:REG 14-10-02 12:30 OP:cam  STATUS:               ID:20141002040819     3
 2014-10-02-0408-19M.COL___286                                                 6
 STAT SP IPHASW D HRMM SECON CODA AMPLIT PERI AZIMU VELO AIN AR TRES W  DIS CAZ7
 BAR2 SZ EP        418 34.91                             171    0.2210 23.4 192 
 BAR2 SZ ES        418 49.88                             171   -0.1810 23.4 192 
 BAR2 SZ I         418 52.71         8.6 0.36            170           23.4 192 
 BRR  HZ IP     C  418 36.88                             152    0.6510 71.9 298 
 BRR  HE ES        418 53.11                             152    0.2910 71.9 298 
 BRR  HZ I         418 57.20         4.7 0.20            154           71.9 298 
 PTB  HZ EP        418 41.69                             132   -0.37 9  148 259 
 PTB  HN ES        419  2.95                             132   -0.23 9  148 259 
 PTB  HZ I         419  3.93         6.0 0.16            134            148 259 
 SPBC HZ EP        418 43.79                             129    0.23 9  164 219 
 SPBC HN ES        419  5.25                             129   -0.61 9  164 219 
 SPBC HZ I         419 13.06         7.2 0.18            131            164 219 
 ZAR  HZ EP        418 47.63                             122    0.10 9  205 292 
 ZAR  HE ES        419 13.67                             122    0.74 9  205 292 
 SML  HZ EP        418 51.22                             118   -0.46 8  244 335 
 SML  HN ES        419 19.39                             118   -0.92 8  244 335 
 SML  HZ I         419 24.35         7.4 0.10            120            244 335 
 CHI  HZ EP        418 53.04                             117    0.32 8  249 195 
 CHI  HN ES        419 22.02                             117   -0.14 8  249 195 
 CHI  HN I         419 25.00         3.1 0.58            119            249 195 
                                                                                
