 2013 12 2 0844  6.0 L   7.586 -73.189145.6  RSN  5 0.4 1.2LRSN                1
 GAP=239        0.99       4.7     8.6  8.1 -0.1304E+02  0.1007E+02  0.2776E+01E
 Epicentro: EL PLAYON - SANTANDER                                              3
 ACTION:UPD 14-01-13 10:15 OP:ep   STATUS:               ID:20131202084406 L   I
 OLDACT:DUP 13-12-02 10:09 OP:carl STATUS:               ID:20131202084001d    3
 2013-12-02-0840-00M.COL___282                                                 6
 STAT SP IPHASW D HRMM SECON CODA AMPLIT PERI AZIMU VELO AIN AR TRES W  DIS CAZ7
 OCA  HN ES        844 44.64                             152    0.4210 73.6 349 
 BRR  HZ IP     D  844 27.34                             150   -0.1610 78.3 228 
 BRR  HN ES        844 44.16                             150   -0.1510 78.3 228 
 BRR  HZ I         844 44.47         3.2 0.12            150           78.3 228 
 SML  HZ EP        844 34.74                             128    0.17 9  166 324 
 SML  HN ES        844 56.11                             128   -0.78 9  166 324 
 SML  HZ I         844 57.83         2.6 0.24            128            166 324 
 PTB  HZ EP        844 35.75                             126   -0.38 9  182 231 
 PTB  HN ES        844 59.62                             126   -0.05 9  182 231 
 PTB  HZ I         845  0.72         0.8 0.28            126            182 231 
 ZAR  HZ EP        844 36.99                             125    0.58 9  184 267 
 ZAR  HE ES        845  0.51                             125    0.36 9  184 267 
                                                                                
