 2013  9 2 0958  5.4 L   7.010 -72.950  4.0  RSN  5 0.3 1.4LRSN                1
 GAP=150        0.86       2.1     2.6  7.5 -0.2154E+01  0.8468E+01 -0.5147E+01E
 Epicentro: SANTA BARBARA - SANTANDER                                          3
 ACTION:UPD 13-10-22 09:19 OP:ep   STATUS:               ID:20130902095805 L   I
 OLDACT:UP  13-09-02 11:31 OP:cam  STATUS:               ID:20130902094959     3
 OLDACT:REG 13-09-02 08:24 OP:cam  STATUS:               ID:20130902094959     3
 2013-09-02-0949-59M.COL___269                                                 6
 STAT SP IPHASW D HRMM SECON CODA AMPLIT PERI AZIMU VELO AIN AR TRES W  DIS CAZ7
 PAM  SZ EP        958 13.49                              90    0.0210 45.8  37 
 PAM  SN ES        958 19.46                              90   -0.2710 45.8  37 
 PAM  SZ I         958 19.60        54.4 0.16             47           45.8  37 
 BAR2 SZ EP        958 14.18                              90   -0.1010 52.8 209 
 BAR2 SZ ES        958 20.79                              90   -0.3910 52.8 209 
 BAR2 SZ I         958 21.52        21.9 0.40             47           52.8 209 
 BRR  HZ I         958 19.10         7.9 0.12             47           84.9 277 
 BRR  HZ EP        958 19.11                              90    0.2210 84.9 277 
 BRR  HN ES        958 29.28                              90   -0.1110 84.9 277 
 RUS  HZ EP        958 26.07                              90    0.6810  124 187 
 RUS  HZ I         958 26.62         5.7 0.14             47            124 187 
 RUS  HN ES        958 40.77                              90   -0.1810  124 187 
 ZAR  HZ EP   1    958 38.61                              56    0.74 6  217 284 
 ZAR  HN ES        959  2.98                              56   -0.20 8  217 284 
 ZAR  HZ I         959  4.84         2.3 0.36             37            217 284 
                                                                                
