 2010 12 2 0543 28.1 L   6.767 -73.055142.9  RSN  5 0.3 1.4LRSN                1
 GAP=169        0.76       5.5    10.9  9.3  0.2310E+02 -0.5289E+02 -0.2399E+02E
 Epicentro: LOS SANTOS - SANTANDER                                             3
 ACTION:UP  11-01-14 15:22 OP:pat  STATUS:               ID:20101202054328 L   I
 2010-12-02-0542-04S.COL___132                                                 6
 STAT SP IPHASW D HRMM SECON CODA AMPLIT PERI AZIMU VELO SNR AR TRES W  DIS CAZ7
 BAR2 SZ EP        543 47.31                             170     0.010   24 216 
 BAR2 SZ ES   1    544  2.57                             170     0.2 7   24 216 
 BAR2 SZ I         544  3.48         8.5 0.30                            24 216 
 BRR  HZ EP        543 49.26                             148    -0.310   82 297 
 BRR  HZ I         543 49.52         6.9 0.08                            82 297 
 BRR  HN ES   1    544  6.51                             148     0.2 7   82 297 
 RUS  HZ EP        543 51.63                             144     0.410   97 182 
 RUS  HE ES   1    544  8.87                             144    -0.5 7   97 182 
 RUS  HZ I         544 11.26         2.0 0.30                            97 182 
 GUE  SZ EP   2    543 52.93                             138     0.3 5  118   7 
 GRA  SZ EP        543 53.01                             136    -0.110  127  13 
 GRA  SZ I         543 54.12         4.5 0.50                           127  13 
                                                                                
