 2016  2 2 0412  1.4 L   6.821 -73.198139.7  RSN  6 0.4 1.4LRSN                1
 GAP=241        0.59       5.5     5.9  8.7  0.6303E+01  0.6868E+01  0.3748E+00E
 Epicentro: ZAPATOCA - SANTANDER                                               3
 ACTION:UPD 16-03-04 21:22 OP:rebc STATUS:               ID:20160202041201 L   I
 OLDACT:REG 16-02-02 13:53 OP:dnl  STATUS:               ID:20160202040233     3
 2016-02-02-0410-00M.COL___412                                                 6
 STAT SP IPHASW D HRMM SECON CODA AMPLIT PERI AZIMU VELO AIN AR TRES W  DIS CAZ7
 BAR2 EZ EP   2    412 20.64                             169    0.29 5 25.3 176 
 BAR2 EZ ES   2    412 35.45                             169    0.32 5 25.3 176 
 BAR2 EZ I         412 38.28         4.9 0.22            168           25.3 176 
 RUS  HZ EP   2    412 24.71                             142   -0.07 5  103 173 
 RUS  HE ES   2    412 42.18                             142   -0.83 5  103 173 
 RUS  HZ I         412 45.28         2.7 0.42            142            103 173 
 PTB  HZ EP   2    412 27.23                             132   -0.18 5  143 257 
 PTB  HE ES   2    412 47.85                             132    0.16 5  143 257 
 PTB  HZ I         412 51.10         3.4 0.12            129            143 257 
 SPBC HZ EP   2    412 29.64                             128    0.36 5  161 217 
 SPBC HN ES        412 51.25                             128    0.2410  161 217 
 SPBC HZ I         412 55.48         5.5 0.09            126            161 217 
 ZAR  HN ES   2    412 56.68                             122   -0.63 5  198 292 
 ZAR  HZ I         413  6.08         3.2 0.26            120            198 292 
 CHI  HZ EP   2    412 39.10                             116    0.24 4  249 194 
 CHI  HE ES   2    413  7.30                             116   -0.77 4  249 194 
 CHI  HZ I         413 16.37         1.2 0.52            115            249 194 
                                                                                
