 2017  9 2 0237 27.4 L   6.788 -73.062145.0  RSN  4 0.3 1.5LRSN                1
 GAP=148        0.82       6.0     9.9  8.4  0.2896E+02 -0.3986E+02 -0.1884E+02E
 Epicentro: LOS SANTOS - SANTANDER                                             3
 ACTION:UPD 17-10-05 19:08 OP:rebc STATUS:               ID:20170902023727 L   I
 OLDACT:REG 17-09-02 13:06 OP:dani STATUS:               ID:20170902022740     3
 2017-09-02-0228-00M.COL___408                                                 6
 STAT SP IPHASW D HRMM SECON CODA AMPLIT PERI AZIMU VELO AIN AR TRES W  DIS CAZ7
 BAR2 EZ EP        237 46.84                             170   -0.1710 25.4 212 
 BAR2 EZ ES        238  1.99                             170   -0.2910 25.4 212 
 BAR2 EZ I         238  3.30         8.5 0.32            167           25.4 212 
 PAM  EZ EP        237 49.49                             152    0.1810 73.0  33 
 BRR  HZ EP        237 48.54                             149   -0.4910 80.1 296 
 BRR  HN ES        238  6.27                             149    0.4110 80.1 296 
 BRR  HZ I         238  9.89        10.5 0.29            147           80.1 296 
 RUS  HZ EP        237 51.32                             144    0.3310 99.0 181 
 RUS  HE ES        238  9.41                             144    0.0410 99.0 181 
 RUS  HZ I         238 10.02         2.6 0.34            146           99.0 181 
                                                                                
