 2010  7 2 0444 55.1 L   7.399 -73.236132.9  RSN  6 0.5 1.7LRSN                1
 GAP=122        1.03       6.4    10.2  9.8 -0.3045E+02  0.1097E+02 -0.1753E+02E
 Epicentro: EL PLAYON - SANTANDER                                              3
 ACTION:UPD 10-12-01 15:14 OP:pat  STATUS:               ID:20100702044455 L   I
 2010-07-02-0442-48S.COL___118                                                 6
 STAT SP IPHASW D HRMM SECON CODA AMPLIT PERI AZIMU VELO AIN AR TRES W  DIS CAZ7
 GUE  SZ EP        445 14.50                             155    -0.110   59  36 
 GUE  SZ ES   1    445 29.11                             155    -0.7 7   59  36 
 BRI  SZ EP        445 14.71                             154     0.210   60  54 
 BRI  SZ ES   1    445 30.65                             154     1.1 7   60  54 
 BRR  HZ EP   1    445 14.51                             153     0.2 7   62 239 
 BRR  HN ES   1    445 29.72                             153     0.4 7   62 239 
 BRR  HZ I         445 30.98        14.3 0.12                            62 239 
 GRA  SZ EP        445 15.05                             150    -0.110   72  42 
 GRA  SZ ES   2    445 30.56                             150    -0.2 5   72  42 
 BAR2 SZ ES        445 32.65                             144    -0.410   89 176 
 OCA  SZ EP   1    445 16.60                             143     0.0 7   93 354 
 OCA  SZ ES   2    445 32.86                             143    -0.5 5   93 354 
 OCA  SZ I         445 35.18         8.2 0.24                            93 354 
                                                                                
