 2014  1 2 0659 31.6 L   6.768 -73.167135.9  RSN  6 0.6 1.2LRSN                1
 GAP=135        1.62       5.7     9.0 11.9 -0.1075E+02  0.2810E+02  0.8161E+01E
 Epicentro: LOS SANTOS - SANTANDER                                             3
 ACTION:UPD 14-03-13 09:50 OP:ep   STATUS:               ID:20140102065931 L   I
 OLDACT:REG 14-01-02 08:31 OP:stll STATUS:               ID:20140102065811     3
 2014-01-02-0658-11M.COL___237                                                 6
 STAT SP IPHASW D HRMM SECON CODA AMPLIT PERI AZIMU VELO AIN AR TRES W  DIS CAZ7
 BAR2 SZ ES        7 0  4.93                             171    0.6110 19.5 185 
 BAR2 SZ I         7 0  6.46         8.8 0.22            169           19.5 185 
 PAM  SZ EP        659 53.08                             147    0.0210 81.6  39 
 PAM  SZ I         659 53.28         4.7 0.26            151           81.6  39 
 PAM  SN ES        7 0 10.53                             147    0.7410 81.6  39 
 RUS  HZ EP        659 54.15                             143   -0.0210 97.3 175 
 RUS  HN ES        7 0 10.41                             143   -1.3510 97.3 175 
 RUS  HZ I         7 0 13.75         1.6 0.30            142           97.3 175 
 PTB  HZ EP        659 57.82                             130    0.30 9  145 260 
 PTB  HN ES        7 0 17.64                             130   -0.09 9  145 260 
 PTB  HZ I         7 0 20.36         1.2 0.12            130            145 260 
 OCA  HN ES        7 0 20.43                             127   -0.81 9  163 354 
 CHI  HZ EP        7 0  8.31                             115   -0.04 8  245 195 
 CHI  HN ES        7 0 37.81                             115    0.81 8  245 195 
 CHI  HZ I         7 0 43.27         1.0 0.38            116            245 195 
                                                                                
