 2017 12 2 0152  7.5 L   6.830 -73.141152.0  RSN  4 0.3 1.3LRSN                1
 GAP=279        0.69       8.3     5.5  5.9  0.1836E+02  0.5748E+01 -0.4687E+01E
 Epicentro: LOS SANTOS - SANTANDER                                             3
 ACTION:UPD 18-01-04 13:16 OP:rebc STATUS:               ID:20171202015207 L   I
 OLDACT:DUP 17-12-02 13:21 OP:dhb  STATUS:               ID:20171202014234d    3
 OLDACT:REG 17-12-02 12:02 OP:dhb  STATUS:               ID:20171202014233     3
 2017-12-02-0148-00M.COL___483                                                 6
 STAT SP IPHASW D HRMM SECON CODA AMPLIT PERI AZIMU VELO AIN AR TRES W  DIS CAZ7
 BAR2 EZ EP        152 28.05                             170    0.1110 26.7 190 
 BAR2 EZ ES        152 43.64                             170   -0.2510 26.7 190 
 BAR2 EZ I         152 45.73         6.3 0.38            151           26.7 190 
 RUS  HZ EP        152 32.42                             144    0.3310  104 176 
 RUS  HN ES        152 51.35                             144    0.0710  104 176 
 RUS  HZ I         152 52.49         1.5 0.44            128            104 176 
 PTB  HZ EP        152 35.04                             133   -0.04 9  149 258 
 PTB  HE ES        152 56.82                             133    0.22 9  149 258 
 PTB  HZ I         153  0.46         1.1 0.28            119            149 258 
 SPBC HZ EP        152 36.25                             130   -0.50 9  166 218 
 SPBC HZ I         152 57.45         6.9 0.10            116            166 218 
                                                                                
