 2011  7 2 0457 22.3 L   6.784 -73.103143.1  RSN 11 0.2 1.9LRSN                1
 GAP=161        0.39       1.8     2.8  3.3 -0.1153E+01 -0.1142E+01  0.2502E+00E
 Epicentro: LOS SANTOS - SANTANDER                                             3
 ACTION:UPD 12-07-25 13:57 OP:epov STATUS:               ID:20110702045722 L   I
 2011-07-02-0455-16S.COL___140                                                 6
 STAT SP IPHASW D HRMM SECON CODA AMPLIT PERI AZIMU VELO AIN AR TRES W  DIS CAZ7
 BAR2 SZ EP        457 41.61                             170   -0.0110 22.9 203 
 BAR2 SZ I         457 42.17        22.7 0.15                          22.9 203 
 BAR2 SZ ES   2    457 56.44                             170   -0.24 5 22.9 203 
 BTL  SZ EP        457 41.90                             170    0.2610 23.6 309 
 GIR2 SZ EP        457 41.73                             166   -0.0310 34.2 343 
 BRR  HZ IP     C  457 43.42                             150   -0.0610 76.3 298 
 BRR  HZ I         457 43.67        29.6 0.16                          76.3 298 
 BRR  HE ES        457 59.99                             150    0.0010 76.3 298 
 RUS  HZ EP        457 45.67                             144    0.0110 98.5 179 
 RUS  HZ I         457 46.85         9.2 0.13                          98.5 179 
 RUS  HE ES   1    458  3.86                             144   -0.01 7 98.5 179 
 BRI  SZ EP   1    457 46.13                             141    0.16 7  109  18 
 GRA  SZ EP        457 47.40                             136    0.0410  126  15 
 GRA  SZ ES   1    458  6.67                             136   -0.23 7  126  15 
 GRA  SZ I         458  9.68        11.3 0.54                           126  15 
 OCA  SZ EP   1    457 50.63                             128   -0.03 7  163 352 
 OCA  SZ I         458 16.58        11.2 0.57                           163 352 
 NOR  SZ EP   2    457 57.78                             117   -0.43 4  238 235 
 NOR  SE ES   2    458 25.83                             117   -0.37 4  238 235 
 CHI  HZ EP   2    457 59.45                             117   -0.37 4  248 196 
 CHI  HE ES   2    458 29.35                             117    0.28 4  248 196 
 CHI  HZ I         458 34.53         4.5 0.30                           248 196 
 HEL  HZ EP   2    458  2.53                             114   -0.34 4  276 256 
 HEL  HN ES   2    458 35.20                             114    0.71 4  276 256 
 HEL  HZ I         458 39.96         5.5 0.34                           276 256 
                                                                                
