 2013  1 2 0123 40.2 L   6.681 -73.235141.8  RSN  4 0.2 1.4LRSN                1
 GAP=217        0.59       5.4     5.3  6.3  0.2179E+02  0.6755E+01  0.5130E+01E
 Epicentro: BARICHARA - SANTANDER                                              3
 ACTION:UPD 13-02-15 09:11 OP:ep   STATUS:               ID:20130102012340 L   I
 2013-01-02-0120-00M.COL___242                                                 6
 STAT SP IPHASW D HRMM SECON CODA AMPLIT PERI AZIMU VELO AIN AR TRES W  DIS CAZ7
 BRR  HN ES        124 17.08                             152    0.0610 70.7 312 
 BRR  HN I         124 20.69         6.0 0.16            152           70.7 312 
 RUS  HZ EP        124  3.02                             146    0.3010 88.8 169 
 RUS  HN ES        124 20.08                             146   -0.2210 88.8 169 
 PTB  HZ EP        124  5.51                             134   -0.26 9  136 263 
 PTB  HN ES        124 25.94                             134    0.22 9  136 263 
 PTB  HN I         124 31.41         3.4 0.40            134            136 263 
 ZAR  HN ES        124 36.70                             122   -0.13 9  200 297 
                                                                                
