 2014  2 2 0343  3.2 L   6.787 -73.341123.9  RSN 15 0.4 1.8LRSN                1
 GAP= 53        1.07       2.6     3.0  5.6  0.2702E+00  0.3113E+01  0.1997E+00E
 Epicentro: ZAPATOCA - SANTANDER                                               3
 ACTION:UPD 14-03-10 08:06 OP:ep   STATUS:               ID:20140202034303 L   I
 OLDACT:REG 14-02-02 07:11 OP:nd   STATUS:               ID:20140202034000     3
 2014-02-02-0340-00M.COL___288                                                 6
 STAT SP IPHASW D HRMM SECON CODA AMPLIT PERI AZIMU VELO AIN AR TRES W  DIS CAZ7
 BAR2 SZ EP        343 20.57                             167    0.2210 27.8 141 
 BAR2 SZ ES        343 33.65                             167   -0.0610 27.8 141 
 BAR2 SZ I         343 34.57        36.9 0.18            167           27.8 141 
 BRR  HZ EP        343 21.43                             155    0.3610 54.2 311 
 BRR  HN ES        343 35.72                             155    0.7410 54.2 311 
 BRR  HZ I         343 36.54        24.5 0.12            150           54.2 311 
 PAM  SZ EP        343 24.70                             141    0.3610 93.5  49 
 PAM  SN ES   2    343 40.89                             141    0.08 5 93.5  49 
 PAM  SZ I         343 43.20         8.0 0.18            139           93.5  49 
 RUS  HZ EP        343 24.96                             138   -0.1310  103 164 
 RUS  HN ES        343 41.43                             138   -0.7110  103 164 
 RUS  HZ I         343 43.80         7.3 0.38            135            103 164 
 PTB  HZ EP        343 25.61                             131   -0.8610  126 258 
 PTB  HN ES   2    343 43.96                             131   -0.64 5  126 258 
 PTB  HZ I         343 48.40        11.8 0.22            126            126 258 
 SPBC HZ EP        343 28.49                             126   -0.27 9  149 213 
 SPBC HN ES   2    343 48.69                             126    0.01 5  149 213 
 SPBC HZ I         343 55.77         5.3 0.17            122            149 213 
 OCA  HZ EP        343 29.86                             124   -0.11 9  161   1 
 OCA  HN ES        343 49.85                             124   -0.97 9  161   1 
 OCA  HZ I         343 55.85         9.9 0.14            120            161   1 
 TAM  HZ EP        343 31.68                             121    0.30 9  176 103 
 TAM  HN ES        343 53.37                             121    0.04 9  176 103 
 TAM  HZ I         343 53.99         6.0 0.12            119            176 103 
 ZAR  HZ EP        343 32.11                             120   -0.18 9  185 295 
 ZAR  HN ES        343 55.57                             120    0.61 9  185 295 
 ZAR  HZ I         343 58.77        12.4 0.28            115            185 295 
 NOR  HZ EP        343 36.17                             116    0.39 8  217 231 
 NOR  HN ES        344  1.10                             116   -0.07 8  217 231 
 NOR  HZ I         344  7.21         4.0 0.18            112            217 231 
 SML  HZ EP        343 37.66                             113   -0.30 8  237 340 
 SML  HN ES        344  5.27                             113    0.23 8  237 340 
 SML  HZ I         344  8.88         9.5 0.10            110            237 340 
 CHI  HZ EP        343 39.67                             113    0.55 8  242 190 
 CHI  HN ES        344  7.52                             113    0.40 8  242 190 
 CHI  HZ I         344 15.15         2.5 0.38            109            242 190 
 HEL  HZ EP   2    343 40.05                             112    0.05 4  251 255 
 HEL  HN ES        344  8.52                             112   -0.17 8  251 255 
 HEL  HZ I         344 14.12         3.3 0.46            108            251 255 
 PRA  HZ EP   4    343 57.13                             103    2.41 0  381 207 
 PRA  HN ES   4    344 35.44                             103    0.56 0  381 207 
 PRA  HZ I         344 42.62         3.4 0.26            100            381 207 
 SJC  HZ EP   4    343 54.75                             102   -2.20 0  399 330 
 SJC  HZ I         344 32.97         2.9 0.80             99            399 330 
 SJC  HN ES   4    344 36.04                             102   -2.81 0  399 330 
                                                                                
