 2017 11 2 0220 35.1 L   6.715 -73.210144.0  RSN  4 0.3 1.2LRSN                1
 GAP=232        0.64       6.8     5.3  6.5  0.2517E+02  0.6230E+01 -0.4102E+01E
 Epicentro: VILLANUEVA - SANTANDER                                             3
 ACTION:UPD 17-12-12 19:50 OP:rebc STATUS:               ID:20171102022035 L   I
 OLDACT:REG 17-11-02 13:24 OP:dnl  STATUS:               ID:20171102021738     3
 2017-11-02-0218-00M.COL___444                                                 6
 STAT SP IPHASW D HRMM SECON CODA AMPLIT PERI AZIMU VELO AIN AR TRES W  DIS CAZ7
 BAR2 EZ EP   2    220 55.40                             174    1.00 5 13.9 167 
 BAR2 EZ ES        221  9.20                             174   -0.2210 13.9 167 
 BAR2 EZ I         221  9.68         3.2 0.24            174           13.9 167 
 RUS  HZ EP        220 57.93                             146   -0.1810 92.0 171 
 RUS  HE ES        221 16.20                             146    0.1710 92.0 171 
 RUS  HZ I         221 17.62         1.2 0.26            147           92.0 171 
 PTB  HZ EP   2    221  0.94                             133   -0.24 5  139 262 
 PTB  HN ES        221 21.50                             133   -0.00 9  139 262 
 PTB  HZ I         221 24.50         2.0 0.12            131            139 262 
 ZAR  HZ EP   2    221  6.82                             122   -0.36 4  201 295 
 ZAR  HN ES        221 32.31                             122    0.13 9  201 295 
 ZAR  HZ I         221 39.48         3.2 0.44            121            201 295 
                                                                                
