 2016  4 2 0557 56.3 L   6.829 -73.195138.0  RSN  6 0.3 1.4LRSN                1
 GAP=129        0.85       3.1     4.5  7.4 -0.4839E+01  0.1242E+02 -0.3904E+01E
 Epicentro: ZAPATOCA - SANTANDER                                               3
 ACTION:UPD 16-05-05 14:17 OP:rebc STATUS:               ID:20160402055756 L   I
 OLDACT:UP  16-04-02 14:54 OP:drio STATUS:               ID:20160402054744     3
 OLDACT:REG 16-04-02 12:42 OP:drio STATUS:               ID:20160402054744     3
 2016-04-02-0547-44M.COL___303                                                 6
 STAT SP IPHASW D HRMM SECON CODA AMPLIT PERI AZIMU VELO AIN AR TRES W  DIS CAZ7
 PAM  EZ EP        558 17.99                             149    0.1810 78.6  44 
 PAM  EE ES        558 34.91                             149    0.3510 78.6  44 
 PAM  EZ I         558 36.74         7.1 0.50            155           78.6  44 
 RUS  HZ EP        558 19.30                             141   -0.3210  104 173 
 RUS  HE ES        558 37.62                             141   -0.1510  104 173 
 RUS  HZ I         558 39.27         3.6 0.42            147            104 173 
 PTB  HZ EP        558 22.12                             131   -0.14 9  143 257 
 PTB  HN ES        558 42.22                             131   -0.25 9  143 257 
 PTB  HZ I         558 46.08         2.1 0.18            133            143 257 
 OCA  HZ EP        558 23.22                             129   -0.48 9  157 355 
 OCA  HN ES        558 44.80                             129   -0.24 9  157 355 
 OCA  HZ I         558 50.31         5.0 0.20            132            157 355 
 SPBC HZ EP        558 24.32                             127    0.14 9  162 217 
 SPBC HE ES        558 46.15                             127    0.26 9  162 217 
 SPBC HZ I         558 53.17         3.5 0.10            131            162 217 
 ZAR  HZ EP        558 28.38                             121    0.74 9  198 292 
 ZAR  HE ES   4    558 53.83                             121    1.78 0  198 292 
 ZAR  HZ I         558 58.86         2.8 0.40            124            198 292 
                                                                                
