 2015  3 2 0016 25.0 L   6.561 -73.559117.4  RSN  7 0.4 1.4LRSN                1
 GAP=101        0.84       3.5     4.9  7.5 -0.1176E+01  0.1453E+02  0.6965E+01E
 Epicentro: EL CARMEN - SANTANDER                                              3
 ACTION:UPD 15-04-30 16:22 OP:nd   STATUS:               ID:20150302001625 L   I
 OLDACT:REG 15-03-02 12:14 OP:spq  STATUS:               ID:20150302000745     3
 2015-03-02-0007-45M.COL___290                                                 6
 STAT SP IPHASW D HRMM SECON CODA AMPLIT PERI AZIMU VELO AIN AR TRES W  DIS CAZ7
 BAR2 EZ EP        016 42.06                             159    0.1610 41.8  85 
 BAR2 EZ ES   1    016 54.83                             159   -0.23 7 41.8  85 
 BAR2 EZ I         016 56.17        20.1 0.48            167           41.8  85 
 BRR  HZ EP        016 42.90                             150    0.2510 62.7 344 
 BRR  HN ES        016 56.62                             150    0.2310 62.7 344 
 BRR  HZ I         017  2.86         4.6 0.33            154           62.7 344 
 RUS  HZ EP   1    016 45.32                             140   -0.00 7 90.8 145 
 RUS  HE ES   1    017  1.15                             140    0.00 7 90.8 145 
 RUS  HZ I         017  2.23         3.2 0.38            146           90.8 145 
 PTB  HZ EP        016 44.88                             137   -0.4710 99.3 269 
 PTB  HN ES   4    016 59.80                             137   -1.40 0 99.3 269 
 PTB  HZ I         017  3.25         5.7 0.14            139           99.3 269 
 SPBC HZ EP        016 46.45                             132   -0.4110  115 210 
 SPBC HN ES        017  3.50                             132   -0.3910  115 210 
 SPBC HZ I         017  9.22         9.8 0.22            135            115 210 
 NOR  HZ EP        016 53.66                             118    0.17 9  182 233 
 NOR  HE ES   1    017 16.27                             118    0.59 7  182 233 
 NOR  HZ I         017 19.17         5.8 0.16            122            182 233 
 CHI  HE ES   1    017 23.60                             114    0.82 6  214 185 
 CHI  HZ I         017 27.71         0.8 0.20            119            214 185 
                                                                                
