 2013  4 2 0733  0.3 L   6.853 -73.220144.0  RSN  5 0.4 1.3LRSN                1
 GAP=125        0.81       4.5     5.7  8.5 -0.5015E+00  0.1285E+02  0.3032E+01E
 Epicentro: ZAPATOCA - SANTANDER                                               3
 ACTION:UPD 13-05-22 14:35 OP:EP   STATUS:               ID:20130402073300 L   I
 2013-04-02-0730-00M.COL___245                                                 6
 STAT SP IPHASW D HRMM SECON CODA AMPLIT PERI AZIMU VELO AIN AR TRES W  DIS CAZ7
 GIR2 SZ EP   1    733 19.59                             170   -0.07 8 25.1   7 
 GIR2 SZ ES   1    733 35.05                             170    0.33 8 25.1   7 
 PAM  SZ EP   1    733 22.82                             150    0.37 8 78.7  47 
 PAM  SN ES   1    733 39.75                             150    0.05 8 78.7  47 
 PAM  SZ I         733 41.89         3.9 0.58            153           78.7  47 
 RUS  HZ EP        733 24.52                             142    0.1010  107 172 
 RUS  HN ES   1    733 42.46                             142   -0.74 7  107 172 
 RUS  HZ I         733 44.40         2.9 0.36            144            107 172 
 PTB  HZ EP   1    733 26.79                             133    0.22 7  141 256 
 PTB  HN ES   1    733 47.29                             133    0.27 7  141 256 
 PTB  HZ I         733 49.47         3.9 0.42            135            141 256 
 SML  HE ES   1    734  2.82                             118   -0.87 6  235 336 
                                                                                
