 2010  4 2 0253 24.6 L   6.446 -73.178140.8  RSN 11 0.5 2.8LRSN                1
 GAP=199        0.89       4.0     8.1  7.0 -0.1359E+02  0.1569E+02  0.5333E+01E
 Epicentro: PARAMO - SANTANDER                                                 3
 ACTION:UPD 10-08-24 09:57 OP:vdl  STATUS:               ID:20100402025324 L   I
 2010-04-02-0251-19S.COL___098                                                 6
 STAT SP IPHASW D HRMM SECON CODA AMPLIT PERI AZIMU VELO AIN AR TRES W  DIS CAZ7
 BAR2 SZ IP        253 43.86                             174     0.310   16 358 
 BAR2 SZ ES   1    253 57.64                             174    -0.6 7   16 358 
 BRR  HZ IP        253 47.09                             145     0.410   94 321 
 BRR  HN ES   1    254  4.51                             145     0.6 7   94 321 
 BRR  HZ I         254  7.02        80.8 0.27                            94 321 
 OCA  SZ IP        253 56.63                             122     0.2 9  199 356 
 OCA  SZ I         253 57.18        56.6 0.06                           199 356 
 OCA  SZ ES   1    254 20.18                             122    -1.0 6  199 356 
 CHI  HZ EP        253 57.97                             121     0.1 8  210 197 
 CHI  HE ES   2    254 22.87                             121    -1.0 4  210 197 
 ROSC BZ EP   2    253 59.28                             120     0.6 4  218 216 
 ROSC BE ES   1    254 25.68                             120     0.4 6  218 216 
 HEL  HZ EP   1    254  3.28                             115    -0.1 6  262 264 
 HEL  HZ I         254 39.10        18.6 0.28                           262 264 
 RREF BZ EP        254  7.28                             112    -0.2 7  295 235 
 RREF BN ES   1    254 40.95                             112     0.0 5  295 235 
 RREF BZ I         254 48.33        25.6 0.32                           295 235 
 TOL  SZ EP        254  9.17                             111    -0.1 7  314 229 
 TOL  SZ ES   2    254 43.67                             111    -0.5 3  314 229 
 ANIL BZ EP   2    254 10.99                             110     0.2 3  328 229 
 ANIL BN ES   3    254 47.36                             110     0.5 2  328 229 
 ANIL BZ I         254 52.69        33.7 0.50                           328 229 
 DBB  SZ EP        254 11.56                             109    -0.5 7  341 281 
 PRA  HZ EP   2    254 13.43                             108    -0.4 3  356 212 
 PRA  HE ES   2    254 52.14                             108    -0.1 3  356 212 
 PRA  HZ I         254 57.67        35.0 0.29                           356 212 
                                                                                
