 2012  7 2 0420 47.3 L   6.616 -73.458109.6  RSN  5 0.2 1.6LRSN                1
 GAP=150        0.59       3.6     4.1  6.3  0.7047E+01  0.1113E+02  0.4633E+01E
 Epicentro: EL CARMEN DE CHUCURI - SANTANDER                                   3
 ACTION:UPD 12-08-14 11:41 OP:ep   STATUS:               ID:20120702042047 L   I
 2012-07-02-0420-00M.COL___201                                                 6
 STAT SP IPHASW D HRMM SECON CODA AMPLIT PERI AZIMU VELO AIN AR TRES W  DIS CAZ7
 BAR2 SZ EP   1    421  3.21                             163     0.3 7   31  95 
 BAR2 SZ ES   1    421 15.31                             163     0.3 7   31  95 
 BAR2 SZ I         421 16.62        52.9 0.35            168             31  95 
 BRR  HZ EP   1    421  3.77                             149    -0.3 7   61 333 
 BRR  HZ I         421  4.06         8.4 0.11            151             61 333 
 BRR  HN ES   1    421 16.81                             149    -0.3 7   61 333 
 RUS  HZ EP        421  6.74                             138    -0.110   90 153 
 RUS  HE ES   1    421 21.96                             138    -0.1 7   90 153 
 RUS  HZ I         421 23.94         4.4 0.35            140             90 153 
 PAM  SE ES   1    421 26.04                             130    -0.1 7  116  46 
 ZAR  HZ EP   1    421 15.58                             116     0.2 7  183 302 
 ZAR  HN ES   1    421 37.26                             116     0.1 7  183 302 
 ZAR  HZ I         421 39.30         5.2 0.30            118            183 302 
