 2016  9 2 0627 19.1 L   6.098 -73.729118.5  RSN  4 0.3 0.8LRSN                1
 GAP=110        0.92       5.6     4.0  8.4 -0.4453E+00  0.2135E+01 -0.6115E+01E
 Epicentro: EL PENON - SANTANDER                                               3
 ACTION:UPD 17-08-17 21:05 OP:lp   STATUS:               ID:20160902062719 L   I
 OLDACT:REG 16-09-02 13:21 OP:drio STATUS:               ID:20160902061730     3
 2016-09-02-0618-00M.COL___347                                                 6
 STAT SP IPHASW D HRMM SECON CODA AMPLIT PERI AZIMU VELO AIN AR TRES W  DIS CAZ7
 SPBC HZ EP        627 37.33                             150    0.4010 62.2 218 
 SPBC HN ES        627 51.09                             150    0.2510 62.2 218 
 SPBC HZ I         627 52.96         2.8 0.18            154           62.2 218 
 RUS  HZ EP        627 37.98                             146   -0.3510 75.1 108 
 RUS  HE ES        627 52.88                             146   -0.4510 75.1 108 
 RUS  HZ I         627 59.32         0.5 0.44            148           75.1 108 
 BAR2 EZ EP        627 38.58                             143    0.1610 81.5  48 
 BAR2 EZ ES        627 53.98                             143    0.4710 81.5  48 
 BAR2 EZ I         627 55.20         2.2 0.26            147           81.5  48 
 PTB  HZ EP        627 38.97                             139   -0.1110 94.1 301 
 PTB  HE ES        627 54.30                             139   -0.3710 94.1 301 
 PTB  HZ I         627 56.69         1.4 0.42            145           94.1 301 
                                                                                
