 2014  6 2 0144  7.7 L   6.855 -73.170140.0  RSN  6 0.6 1.4LRSN                1
 GAP=181        1.44       7.0     9.0 10.9  0.5483E+01  0.9645E+00 -0.1648E+02E
 Epicentro: ZAPATOCA - SANTANDER                                               3
 ACTION:UPD 14-07-01 22:49 OP:nd   STATUS:               ID:20140602014407 L   I
 OLDACT:DUP 14-06-02 16:35 OP:stll STATUS:               ID:20140602013818d    3
 2014-06-02-0138-17M.COL___256                                                 6
 STAT SP IPHASW D HRMM SECON CODA AMPLIT PERI AZIMU VELO AIN AR TRES W  DIS CAZ7
 BAR2 SZ ES        144 40.97                             168   -0.7210 29.1 183 
 BAR2 SZ I         144 42.93         5.6 0.22            174           29.1 183 
 BRR  HZ IP        144 28.56                             153    0.5810 66.1 295 
 BRR  HN ES        144 44.63                             153    0.8610 66.1 295 
 BRR  HZ I         144 48.85         6.2 0.40            145           66.1 295 
 RUS  HZ EP        144 31.94                             141    0.5410  107 175 
 RUS  HN ES        144 49.84                             141   -0.0210  107 175 
 PTB  HZ EP        144 33.87                             131   -0.25 9  146 256 
 PTB  HN ES        144 54.09                             131   -0.61 9  146 256 
 PTB  HZ I         144 57.20         2.7 0.50            128            146 256 
 OCA  HZ EP        144 34.33                             129   -0.68 9  154 354 
 OCA  HZ I         144 57.44         2.9 0.30            118            154 354 
 SPBC HN ES        144 58.37                             127    0.14 9  166 217 
                                                                                
