 2014 12 2 0442  6.1 L   6.914 -73.307115.5  RSN  4 0.6 1.3LRSN                1
 GAP=223        1.47      14.9     8.7 11.8  0.5533E+01  0.4650E+02  0.3240E+02E
 Epicentro: BETULIA - SANTANDER                                                3
 ACTION:UPD 15-02-10 16:59 OP:nd   STATUS:               ID:20141202044206 L   I
 OLDACT:REG 14-12-02 12:53 OP:fm   STATUS:               ID:20141202043747     3
 2014-12-02-0437-47M.COL___300                                                 6
 STAT SP IPHASW D HRMM SECON CODA AMPLIT PERI AZIMU VELO AIN AR TRES W  DIS CAZ7
 BAR2 SZ EP        442 22.82                             161    0.2210 38.2 159 
 BAR2 SZ ES        442 35.55                             161    0.0810 38.2 159 
 BAR2 SZ I         442 37.88         5.1 0.20            157           38.2 159 
 BRR  HZ EP        442 22.58                             155   -0.2010 49.6 296 
 BRR  HN ES        442 36.17                             155    0.3910 49.6 296 
 BRR  HZ I         442 37.55         3.5 0.30            154           49.6 296 
 PTB  HZ EP        442 28.42                             127   -0.9710  134 252 
 PTB  HN ES        442 46.82                             127   -0.7410  134 252 
 PTB  HZ I         442 51.09         3.4 0.44            126            134 252 
 HEL  HZ EP        442 44.28                             109    0.89 8  258 252 
 HEL  HN ES        443 13.35                             109    0.88 8  258 252 
 HEL  HZ I         443 19.00         1.6 0.46            110            258 252 
                                                                                
