 2016  5 2 0443 51.4 L   6.815 -73.186146.8  RSN  5 0.3 1.2LRSN                1
 GAP=145        0.68       3.9     3.9  5.8 -0.6669E+01  0.6491E+01 -0.9559E+00E
 Epicentro: ZAPATOCA - SANTANDER                                               3
 ACTION:UPD 16-08-18 17:41 OP:cam  STATUS:               ID:20160502043746 L   I
 OLDACT:UPD 16-05-15 07:29 OP:ar   STATUS:               ID:20160502043746 L   3
 2016-05-02-0437-46M.COL___283                                                 6
 STAT SP IPHASW D HRMM SECON CODA AMPLIT PERI AZIMU VELO AIN AR TRES W  DIS CAZ7
 BAR2 EZ ES   1    444 26.02                             170   -0.63 7 24.6 179 
 PAM  EZ EP        444 14.02                             150    0.1610 79.1  43 
 PAM  EE ES        444 31.52                             150    0.1710 79.1  43 
 PAM  EZ I         444 31.77         1.9 0.26            155           79.1  43 
 RUS  HZ EP        444 15.09                             143   -0.3510  103 174 
 RUS  HE ES        444 34.36                             143    0.2010  103 174 
 PTB  HZ EP        444 17.91                             133   -0.22 9  144 258 
 PTB  HN ES        444 39.03                             133    0.08 9  144 258 
 PTB  HZ I         444 41.39         1.8 0.14            133            144 258 
 SPBC HZ EP        444 20.02                             130    0.14 9  162 217 
 SPBC HE ES        444 42.28                             130    0.22 9  162 217 
 SPBC HZ I         444 48.73         3.0 0.62            130            162 217 
                                                                                
