 2014  1 2 0917 22.5 L   6.818 -73.135142.2  RSN 14 0.5 1.9LRSN                1
 GAP= 71        1.10       2.8     3.1  5.6 -0.1220E+01  0.4234E+01  0.1667E+00E
 Epicentro: LOS SANTOS - SANTANDER                                             3
 ACTION:UPD 14-03-13 09:50 OP:ep   STATUS:               ID:20140102091722 L   I
 OLDACT:REG 14-01-02 08:34 OP:stll STATUS:               ID:20140102090808     3
 2014-01-02-0908-08M.COL___237                                                 6
 STAT SP IPHASW D HRMM SECON CODA AMPLIT PERI AZIMU VELO AIN AR TRES W  DIS CAZ7
 BAR2 SZ IP     C  917 41.94                             169    0.2310 25.6 192 
 BAR2 SZ ES        917 56.96                             169    0.2310 25.6 192 
 BAR2 SZ I         917 58.06        17.3 0.28            166           25.6 192 
 PAM  SZ IP     D  917 44.83                             151    0.6710 75.0  40 
 PAM  SN ES        918  1.55                             151    0.4710 75.0  40 
 PAM  SZ I         918  4.07        14.2 0.48            151           75.0  40 
 RUS  HZ EP        917 45.82                             143   -0.1910  103 177 
 RUS  HN ES        918  4.62                             143    0.2410  103 177 
 RUS  HZ I         918  5.89         5.8 0.36            139            103 177 
 PTB  HZ EP        917 48.96                             131   -0.33 9  149 258 
 PTB  HN ES        918  9.94                             131   -0.27 9  149 258 
 PTB  HZ I         918 15.68        11.0 0.26            127            149 258 
 TAM  HZ EP        917 50.11                             130    0.31 9  154 106 
 TAM  HN ES        918 10.51                             130   -0.62 9  154 106 
 OCA  HN ES        918 11.90                             129   -0.15 9  158 353 
 SPBC HZ EP        917 50.86                             128   -0.05 9  166 219 
 SPBC HE ES        918 12.34                             128   -0.77 9  166 219 
 ZAR  HZ EP        917 55.30                             122    0.59 9  204 291 
 ZAR  HN ES        918 19.88                             122    0.01 9  204 291 
 NOR  HZ EP        917 58.14                             118   -0.08 8  237 234 
 NOR  HN ES        918 25.57                             118   -0.54 8  237 234 
 NOR  HZ I         918 33.01         6.3 0.26            114            237 234 
 SML  HZ EP        917 58.35                             117   -0.39 8  242 335 
 SML  HN ES        918 26.45                             117   -0.60 8  242 335 
 CHI  HZ EP        917 59.93                             116   -0.28 8  251 195 
 CHI  HZ I         918  0.71         3.1 0.22            113            251 195 
 CHI  HN ES        918 29.61                             116   -0.05 8  251 195 
 SOCV BZ EP        918  4.36                             112   -0.75 7  299  57 
 GUY2CHZ EP        918  6.73                             111    0.58 7  303 235 
 GUY2CHN ES        918 40.79                             111    0.56 7  303 235 
 GUY2CHZ I         918 48.68         6.9 0.74                           303 235 
 RREF HZ EP        918  9.91                             110    1.20 7  324 229 
 RREF HZ I         918 50.41         4.6 0.22            107            324 229 
                                                                                
