 2010  1 2 0947 21.8 L   5.917 -73.584125.2  RSN  7 0.4 1.4LRSN                1
 GAP=100        0.67       3.7     5.0  8.3 -0.8577E+01  0.2440E+02 -0.5541E+01E
 Epicentro: MONIQUIRA - BOYACA                                                 3
 ACTION:UP  10-08-24 09:42 OP:vdl  STATUS:               ID:20100102094721 L   I
 2010-01-02-0943-24S.COL___096                                                 6
 STAT SP IPHASW D HRMM SECON CODA AMPLIT PERI AZIMU VELO AIN AR TRES W  DIS CAZ7
 RUS  BZ EP   1    947 40.50                             155     0.0 7   56  93 
 RUS  BN ES   1    947 55.20                             155     0.0 7   56  93 
 BAR2 SZ IP        947 42.32                             143     0.210   87  31 
 BAR2 SZ ES   1    947 57.99                             143    -0.1 7   87  31 
 GIR2 SZ EP   1    947 46.25                             130     0.1 7  136  19 
 CHI  HZ EP   1    947 47.03                             128    -0.2 7  143 187 
 CHI  HN ES   1    948  6.79                             128    -0.3 7  143 187 
 CHI  HZ I         948  8.59         2.7 0.18                           143 187 
 HEL  HZ EP   1    947 54.55                             116    -0.3 6  217 278 
 HEL  HN ES   2    948 20.00                             116    -0.7 4  217 278 
 HEL  HZ I         948 26.69         3.3 0.32                           217 278 
 RREF BN ES   1    948 23.66                             115     0.8 6  225 240 
 RREF BZ I         948 28.60         1.8 0.68                           225 240 
 PRA  HZ EP   3    948  1.11                             109    -0.8 2  283 211 
 PRA  HE ES   2    948 33.79                             109     0.6 4  283 211 
                                                                                
