 2016  6 2 0403 34.0 L   6.806 -73.149145.1  RSN 10 0.4 2.0LRSN                1
 GAP=136        0.91       2.8     4.1  5.1 -0.3226E+01  0.5264E+01 -0.6294E+00E
 Epicentro: LOS SANTOS - SANTANDER                                             3
 ACTION:UPD 16-07-21 22:14 OP:rebc STATUS:               ID:20160602040334 L   I
 OLDACT:UP  16-06-02 18:43 OP:edw  STATUS:               ID:20160602035744     3
 OLDACT:UP  16-06-02 18:39 OP:edw  STATUS:               ID:20160602035744     3
 OLDACT:REG 16-06-02 13:31 OP:edw  STATUS:               ID:20160602035744     3
 2016-06-02-0357-44M.COL___307                                                 6
 STAT SP IPHASW D HRMM SECON CODA AMPLIT PERI AZIMU VELO AIN AR TRES W  DIS CAZ7
 BAR2 EZ EP        4 3 53.48                             170   -0.0510 23.9 189 
 BAR2 EZ ES        4 4  8.34                             170   -0.4510 23.9 189 
 BAR2 EZ I         4 4  9.46        17.7 0.18                          23.9 189 
 BRR  HZ EP        4 3 55.37                             152    0.3610 70.6 298 
 BRR  HE ES        4 4 12.34                             152    0.9110 70.6 298 
 BRR  HZ I         4 4 15.40        16.0 0.30                          70.6 298 
 PAM  EZ IP     C  4 3 56.49                             151    0.3910 77.2  40 
 PAM  EN ES        4 4 13.26                             151   -0.1110 77.2  40 
 PAM  EZ I         4 4 15.76        23.7 0.68                          77.2  40 
 RUS  HZ EP        4 3 57.92                             143    0.2210  101 176 
 RUS  HE ES        4 4 15.80                             143   -0.4110  101 176 
 RUS  HZ I         4 4 17.07        10.1 0.34                           101 176 
 PTB  HZ EP        4 4  0.51                             132   -0.35 9  147 259 
 PTB  HN ES        4 4 21.37                             132   -0.46 9  147 259 
 PTB  HZ I         4 4 23.48        11.3 0.14                           147 259 
 OCA  HZ EP        4 4  1.99                             129   -0.18 9  160 353 
 OCA  HE ES        4 4 23.92                             129   -0.24 9  160 353 
 OCA  HZ I         4 4 27.87        17.0 0.17                           160 353 
 SPBC HZ EP        4 4  2.48                             129    0.04 9  163 219 
 SPBC HE ES        4 4 24.76                             129    0.11 9  163 219 
 SPBC HZ I         4 4 27.10         8.7 0.14                           163 219 
 NOR  HN ES        4 4 37.73                             118    0.22 8  235 234 
 HEL  HZ EP   4    4 4 19.11                             115    4.99 0  272 256 
 HEL  HE ES   4    4 4 45.01                             115   -0.43 0  272 256 
 LL6C HZ EP   4    4 4 19.11                             110   -0.46 0  324 358 
 LL6C HE ES   4    4 4 53.65                             110   -1.49 0  324 358 
 CBOC HZ EP   4    4 4 22.07                             110    1.24 0  333 252 
 CBOC HN ES   4    4 4 58.92                             110    1.53 0  333 252 
 PRA  HZ EP        4 4 27.79                             106    0.28 6  392 209 
 PRA  HN ES        4 5  9.47                             106    0.21 6  392 209 
 PRA  HZ I         4 5 15.93         3.7 0.64                           392 209 
 SJC  HZ EP        4 4 28.94                             106   -0.48 6  408 327 
 SJC  HN ES        4 5 12.42                             106   -0.26 6  408 327 
 SJC  HZ I         4 5 13.16         1.7 0.60                           408 327 
                                                                                
