 2016  5 2 0044 32.0 L   6.828 -73.176146.1  RSN  6 0.2 1.5LRSN                1
 GAP=131        0.56       2.2     4.4  4.4 -0.4430E+01  0.9350E+01 -0.2434E+01E
 Epicentro: ZAPATOCA - SANTANDER                                               3
 ACTION:UPD 16-08-18 17:41 OP:cam  STATUS:               ID:20160502004431 L   I
 OLDACT:UP  16-05-04 04:57 OP:cara STATUS:               ID:20160502004431 L   3
 OLDACT:REG 16-05-02 13:18 OP:edw  STATUS:               ID:20160502003750     3
 2016-05-02-0037-50M.COL___299                                                 6
 STAT SP IPHASW D HRMM SECON CODA AMPLIT PERI AZIMU VELO AIN AR TRES W  DIS CAZ7
 BAR2 EZ EP        044 51.60                             169   -0.1210 26.0 182 
 BAR2 EZ ES        045  7.19                             169    0.0810 26.0 182 
 BAR2 EZ I         045  8.03         8.1 0.14            158           26.0 182 
 PAM  EZ EP        044 54.44                             151    0.2010 77.3  43 
 PAM  EE ES        045 11.61                             151    0.0210 77.3  43 
 PAM  EN ES        045 11.93                             150           77.3  43 
 RUS  HZ EP        044 55.99                             143   -0.0310  104 174 
 RUS  HN ES        045 14.51                             143   -0.2510  104 174 
 RUS  HZ I         045 15.11         2.6 0.30            140            104 174 
 PTB  HZ EP        044 58.33                             133   -0.42 9  145 257 
 PTB  HZ I         045 22.60         3.2 0.10            121            145 257 
 OCA  HZ EP        045  0.03                             130    0.02 9  157 354 
 OCA  HE ES        045 21.84                             130   -0.02 9  157 354 
 OCA  HZ I         045 25.55         9.6 0.22            123            157 354 
 SPBC HZ EP        045  0.83                             129    0.28 9  164 217 
 SPBC HE ES        045 23.11                             129    0.29 9  164 217 
 GUY2CHE ES   4    045 55.13                             112    5.68 0  300 234 
                                                                                
