 2017  5 2 0130 33.5 L   6.747 -73.248157.0  RSN  4 0.3 0.9LRSN                1
 GAP=126        0.89       6.6     5.9  9.8  0.8912E+01 -0.1352E+02 -0.2035E+02E
 Epicentro: ZAPATOCA - SANTANDER                                               3
 ACTION:UPD 17-06-16 13:31 OP:jn   STATUS:               ID:20170502013033 L   I
 OLDACT:UP  17-05-05 20:15 OP:nlst STATUS:               ID:20170502013033 L   3
 OLDACT:DUP 17-05-02 14:53 OP:edw  STATUS:               ID:20170502012745d    3
 2017-05-02-0128-00M.COL___371                                                 6
 STAT SP IPHASW D HRMM SECON CODA AMPLIT PERI AZIMU VELO AIN AR TRES W  DIS CAZ7
 BRR  HZ IP     D  130 56.30                             156    0.7210 64.9 308 
 BRR  HN ES   1    131 12.43                             156   -0.34 7 64.9 308 
 PAM  EZ EP     C  130 57.47                             149   -0.1810 89.2  43 
 RUS  HZ EP        130 57.86                             147   -0.2510 96.3 169 
 RUS  HN ES        131 17.45                             147    0.1710 96.3 169 
 RUS  HZ I         131 18.24         1.2 0.26            147           96.3 169 
 PTB  HZ EP        131  0.13                             137   -0.26 9  136 260 
 PTB  HN ES        131 21.30                             137   -0.04 9  136 260 
 PTB  HZ I         131 24.13         1.2 0.42            137            136 260 
                                                                                
