 2010  7 2 0147  8.8 L   6.787 -73.100144.0  RSN  6 0.3 1.7LRSN                1
 GAP=161        0.66       3.5     7.2  7.0 -0.4727E+01 -0.1221E+02 -0.3272E+01E
 Epicentro: LOS SANTOS - SANTANDER                                             3
 ACTION:UPD 10-12-01 15:14 OP:pat  STATUS:               ID:20100702014708 L   I
 2010-07-02-0144-02S.COL___118                                                 6
 STAT SP IPHASW D HRMM SECON CODA AMPLIT PERI AZIMU VELO AIN AR TRES W  DIS CAZ7
 BAR2 SZ EP        147 28.01                             170    -0.210   23 203 
 BAR2 SZ ES   2    147 42.54                             170    -0.8 5   23 203 
 BRR  HZ EP        147 29.92                             151    -0.110   76 298 
 BRR  HE ES   1    147 46.89                             151     0.3 7   76 298 
 BRR  HZ I         147 48.01        16.2 0.27                            76 298 
 RUS  HZ EP   1    147 32.03                             144    -0.2 7   99 179 
 RUS  HE ES   1    147 50.95                             144     0.4 7   99 179 
 RUS  HZ I         147 51.52         4.6 0.20                            99 179 
 BRI  SZ EP   1    147 32.79                             141     0.3 7  108  18 
 BRI  SZ ES   2    147 51.33                             141     0.4 5  108  18 
 GUE  SZ EP        147 33.32                             139     0.010  117   9 
 GRA  SZ EP   1    147 34.00                             137     0.1 7  126  15 
 GRA  SZ ES   1    147 53.16                             137    -0.3 7  126  15 
                                                                                
