 2016 11 2 0825 13.9 L   6.722 -73.124149.2  RSN  5 0.2 0.9LRSN                1
 GAP=143        0.63       5.9     4.8  5.1 -0.8638E+01  0.3645E+01  0.3517E+01E
 Epicentro: JORDAN - SANTANDER                                                 3
 ACTION:UPD 17-10-26 21:03 OP:lp   STATUS:               ID:20161102081746dL   I
 OLDACT:DUP 16-11-02 15:02 OP:dnl  STATUS:               ID:20161102081746dL   3
 OLDACT:UPD 16-11-02 13:22 OP:dnl  STATUS:               ID:20161102081745 L   3
 2016-11-02-0818-00M.COL___334                                                 6
 STAT SP IPHASW D HRMM SECON CODA AMPLIT PERI AZIMU VELO AIN AR TRES W  DIS CAZ7
 BAR2 EZ EP        825 34.03                             174    0.2210 15.7 204 
 BAR2 EZ ES        825 49.25                             174   -0.1010 15.7 204 
 BAR2 EZ I         825 52.02         1.9 0.25            160           15.7 204 
 BRR  HZ EP        825 35.86                             151    0.0810 77.6 303 
 BRR  HE ES        825 53.13                             151    0.2710 77.6 303 
 PAM  EZ EP        825 37.01                             150    0.2110 82.8  34 
 PAM  EN ES        825 54.36                             150   -0.3110 82.8  34 
 PAM  EZ I         825 56.79         1.9 0.60            148           82.8  34 
 RUS  HZ EP   3    825 37.47                             147    0.09 2 91.8 177 
 RUS  HN ES   3    825 55.81                             147    0.11 2 91.8 177 
 RUS  HZ I    4    825 59.21         0.8 0.24            133           91.8 177 
 PTB  HZ EP        825 40.79                             132   -0.44 9  149 262 
 PTB  HZ I         826  6.93         1.4 0.64            118            149 262 
                                                                                
