 2017  2 2 0505 44.8 L   6.789 -73.131148.9  RSN  5 0.5 1.4LRSN                1
 GAP=139        1.31       7.1     6.9  9.5 -0.4734E+01  0.7815E+01  0.2961E+01E
 Epicentro: LOS SANTOS - SANTANDER                                             3
 ACTION:UPD 17-05-24 15:31 OP:jn   STATUS:               ID:20170202050544 L   I
 OLDACT:DUP 17-02-02 17:27 OP:ar   STATUS:               ID:20170202045642d    3
 2017-02-02-0457-00M.COL___331                                                 6
 STAT SP IPHASW D HRMM SECON CODA AMPLIT PERI AZIMU VELO AIN AR TRES W  DIS CAZ7
 BAR2 EZ EP        5 6  3.78                             171   -1.0410 22.5 195 
 BAR2 EZ ES        5 6 19.94                             171   -0.4710 22.5 195 
 BAR2 EZ I         5 6 21.39         8.1 0.26            171           22.5 195 
 BRR  HZ EP        5 6  6.70                             152    0.2810 73.2 299 
 BRR  HN ES        5 6 23.95                             152    0.6810 73.2 299 
 PAM  EZ EP        5 6  7.51                             151    0.1410 77.3  38 
 PAM  EN ES        5 6 24.86                             151   -0.0910 77.3  38 
 PAM  EZ I         5 6 26.64         3.9 0.56            153           77.3  38 
 RUS  HZ EP        5 6  9.25                             145    0.4510 99.3 177 
 RUS  HN ES        5 6 27.92                             145    0.4310 99.3 177 
 RUS  HZ I         5 6 28.96         2.7 0.28            146           99.3 177 
 PTB  HZ EP        5 6 12.15                             132   -0.02 9  149 259 
 PTB  HE ES        5 6 33.07                             132   -0.43 9  149 259 
 PTB  HZ I         5 6 35.44         4.8 0.40            133            149 259 
                                                                                
