 2017  3 2 0433 13.8 L   6.802 -73.162147.9  RSN 16 0.4 1.9LRSN                1
 GAP= 73        0.78       2.9     2.5  4.1  0.1501E+00  0.1262E+01  0.9255E+00E
 Epicentro: LOS SANTOS - SANTANDER                                             3
 ACTION:UPD 17-05-25 18:34 OP:jn   STATUS:               ID:20170302043313 L   I
 OLDACT:UP  17-03-02 15:58 OP:and  STATUS:               ID:20170302042743     3
 OLDACT:UP  17-03-02 15:57 OP:and  STATUS:               ID:20170302042743     3
 OLDACT:UP  17-03-02 15:56 OP:and  STATUS:               ID:20170302042743     3
 OLDACT:UP  17-03-02 15:56 OP:and  STATUS:               ID:20170302042743     3
 OLDACT:UP  17-03-02 15:55 OP:and  STATUS:               ID:20170302042743     3
 OLDACT:UP  17-03-02 15:55 OP:and  STATUS:               ID:20170302042743     3
 OLDACT:REG 17-03-02 12:44 OP:and  STATUS:               ID:20170302042743     3
 2017-03-02-0428-00M.COL___387                                                 6
 STAT SP IPHASW D HRMM SECON CODA AMPLIT PERI AZIMU VELO AIN AR TRES W  DIS CAZ7
 BAR2 EZ EP        433 33.57                             171   -0.1010 23.3 186 
 BAR2 EZ ES        433 49.23                             171    0.0510 23.3 186 
 BAR2 EZ I         433 49.65        22.2 0.34            168           23.3 186 
 BRR  HZ IP     C  433 35.35                             153    0.2810 69.6 299 
 BRR  HN ES        433 52.44                             153    0.7610 69.6 299 
 BRR  HZ I         433 56.42        12.1 0.40            149           69.6 299 
 PAM  EZ EP     C  433 36.32                             151    0.0410 78.4  41 
 PAM  EN ES        433 53.38                             151   -0.4510 78.4  41 
 PAM  EZ I         433 55.76        14.5 0.54            154           78.4  41 
 RUS  HZ EP        433 37.51                             144   -0.2510  101 175 
 RUS  HN ES        433 56.39                             144   -0.0810  101 175 
 RUS  HZ I         433 57.24         8.2 0.22            144            101 175 
 PTB  HZ EP        433 40.54                             133   -0.23 9  146 259 
 PTB  HN ES        434  1.40                             133   -0.42 9  146 259 
 PTB  HZ I         434  7.98         5.1 0.16            130            146 259 
 TAM  HZ IP     D  433 41.98                             131    0.19 9  157 105 
 TAM  HN ES        434  3.79                             131    0.15 9  157 105 
 ZAR  HZ EP   2    433 45.96                             123   -0.23 4  202 292 
 ZAR  HE ES   2    434 11.81                             123    0.34 4  202 292 
 ZAR  HZ I         434 16.96         7.3 0.36            121            202 292 
 CHI  HZ EP        433 52.16                             118    0.60 8  248 195 
 CHI  HN ES        434 20.80                             118   -0.24 8  248 195 
 CHI  HZ I         434 24.56         5.3 0.58            117            248 195 
 ROSC BZ EP   9    433 54.25                             117    2.32 0  252 211 
 ROSC BN ES        434 24.12                             117    0.11 8  252 211 
 ROSC BZ I         434 27.41         9.1 0.45            116            252 211 
 HEL  HZ EP   3    433 55.81                             115    1.89 2  270 256 
 HEL  HN ES   2    434 24.73                             115   -0.49 4  270 256 
 HEL  HZ I         434 31.02         3.1 0.32            114            270 256 
 URE  HZ EP        433 54.25                             114   -0.51 7  282 292 
 URE  HN ES   2    434 26.50                             114   -0.23 4  282 292 
 URE  HZ I         434 37.47         4.3 0.18            113            282 292 
 PTGC HZ EP   9    433 56.60                             112   -1.22 0  310 158 
 PTGC HN ES        434 30.37                             112   -0.59 7  310 158 
 PTGC HZ I         434 31.95         4.8 0.26            112            310 158 
 CBOC HZ EP   9    434  1.83                             110    1.23 0  332 252 
 CBOC HE ES        434 38.55                             110    0.20 7  332 252 
 PRA  HZ EP   2    434  7.99                             107    0.70 3  391 209 
 PRA  HN ES   2    434 49.11                             107    0.08 3  391 209 
 PRA  HZ I         434 55.51         3.8 0.30            107            391 209 
 ORTC HZ EP   2    434  8.33                             107    0.66 3  395 216 
 ORTC HN ES   4    434 45.62                             107   -4.08 0  395 216 
 SJC  HZ EP   3    434  7.74                             106   -1.54 1  408 327 
 SJC  HN ES   4    434 49.25                             106   -3.32 0  408 327 
 SJC  HZ I         434 55.64         2.1 0.58            106            408 327 
                                                                                
