 2016 10 2 0943 15.7 L   6.802 -73.111144.7  RSN  9 0.3 1.9LRSN                1
 GAP=141        0.78       2.5     3.3  4.5 -0.1673E+01  0.5749E+01 -0.6630E-01E
 Epicentro: LOS SANTOS - SANTANDER                                             3
 ACTION:UPD 16-11-09 19:15 OP:rebc STATUS:               ID:20161002094315 L   I
 OLDACT:REG 16-10-02 13:39 OP:dnl  STATUS:               ID:20161002093748     3
 2016-10-02-0938-00M.COL___366                                                 6
 STAT SP IPHASW D HRMM SECON CODA AMPLIT PERI AZIMU VELO AIN AR TRES W  DIS CAZ7
 BAR2 EZ IP     C  943 35.06                             170   -0.1910 24.5 199 
 BAR2 EZ ES        943 50.37                             170   -0.1110 24.5 199 
 BAR2 EZ I         943 52.47        16.6 0.38            170           24.5 199 
 BRR  HZ EP        943 37.22                             151    0.2710 74.5 297 
 BRR  HN ES        943 53.80                             151    0.3010 74.5 297 
 BRR  HZ I         943 54.92        14.0 0.14            149           74.5 297 
 PAM  EZ EP        943 38.07                             151    0.3910 74.8  37 
 PAM  EE ES        943 55.00                             151    0.2010 74.8  37 
 PAM  EZ I         943 57.23        16.2 0.28            154           74.8  37 
 RUS  HZ EP        943 39.09                             144   -0.2810  101 178 
 RUS  HN ES        943 57.61                             144   -0.2110  101 178 
 RUS  HZ I         943 58.33         4.9 0.26            147            101 178 
 OCA  HZ EP        943 43.59                             129   -0.39 9  161 352 
 OCA  HN ES        944  5.94                             129   -0.08 9  161 352 
 OCA  HZ I         944 12.73        21.2 0.46            130            161 352 
 SPBC HZ EP        943 44.30                             128   -0.09 9  166 220 
 SPBC HE ES        944  6.78                             128    0.03 9  166 220 
 SPBC HZ I         944 13.36        10.3 0.22            130            166 220 
 ZAR  HZ EP     D  943 48.07                             122   -0.39 8  208 292 
 ZAR  HN ES        944 13.51                             122   -0.49 8  208 292 
 ZAR  HZ I         944 19.12        12.9 0.38            122            208 292 
 HEL  HZ EP        943 56.47                             114    0.17 7  276 256 
 HEL  HN ES        944 28.30                             114    0.35 7  276 256 
 HEL  HZ I         944 34.47         3.6 0.28            115            276 256 
 GUY2CHZ EP        944  0.55                             112    0.90 7  304 235 
 GUY2CHN ES        944 33.84                             112   -0.08 7  304 235 
 GUY2CHZ I         944 40.42         2.9 0.20                           304 235 
                                                                                
