 2015 11 2 0551 41.0 L   6.866 -72.982134.0  RSN  4 0.4 1.3LRSN                1
 GAP=230        0.63       7.9    10.6  9.8  0.1982E+02  0.2803E+02 -0.3538E+02E
 Epicentro: CEPITA - SANTANDER                                                 3
 ACTION:UPD 15-12-28 16:08 OP:cam  STATUS:               ID:20151102055141 L   I
 OLDACT:REG 15-11-02 12:40 OP:ar   STATUS:               ID:20151102054738     3
 2015-11-02-0547-38M.COL___310                                                 6
 STAT SP IPHASW D HRMM SECON CODA AMPLIT PERI AZIMU VELO AIN AR TRES W  DIS CAZ7
 BAR2 EZ EP   2    551 59.35                             164   -0.28 5 37.4 216 
 BAR2 EZ ES        552 14.26                             164    0.1110 37.4 216 
 BAR2 EZ I         552 15.13         2.7 0.28            161           37.4 216 
 BRR  HZ EP   2    552  1.05                             146   -0.74 5 84.9 288 
 BRR  HN ES   2    552 17.99                             146   -0.01 5 84.9 288 
 BRR  HZ I         552 23.03         3.0 0.36            142           84.9 288 
 OCA  HN ES   2    552 29.28                             128    0.13 5  156 346 
 ZAR  HZ EP   2    552 15.23                             118    0.97 4  218 289 
 ZAR  HN ES   2    552 39.93                             118   -0.27 4  218 289 
 ZAR  HZ I         552 42.79         3.1 0.50            119            218 289 
                                                                                
