 2015  7 2 0912 51.5 L   6.855 -73.329135.7  RSN  8 0.4 1.7LRSN                1
 GAP=151        0.91       3.0     4.4  7.3 -0.2469E+01  0.1292E+02 -0.2592E+01E
 Epicentro: BETULIA - SANTANDER                                                3
 ACTION:UPD 15-09-08 21:46 OP:cam  STATUS:               ID:20150702091251 L   I
 OLDACT:UP  15-07-02 18:10 OP:ar   STATUS:               ID:20150702090748     3
 OLDACT:REG 15-07-02 14:22 OP:ar   STATUS:               ID:20150702090748     3
 2015-07-02-0907-48M.COL___298                                                 6
 STAT SP IPHASW D HRMM SECON CODA AMPLIT PERI AZIMU VELO AIN AR TRES W  DIS CAZ7
 BAR2 EZ EP        913  9.63                             166   -0.5410 33.2 151 
 BAR2 EZ ES        913 24.86                             166    0.1210 33.2 151 
 BAR2 EZ I         913 25.34         5.5 0.20            168           33.2 151 
 OCA  HZ EP        913 18.07                             129   -0.27 9  153   0 
 OCA  HN ES        913 39.64                             129    0.36 9  153   0 
 OCA  HZ I         913 43.07         9.6 0.16            130            153   0 
 ZAR  HZ EP        913 22.03                             123    0.92 9  183 293 
 ZAR  HN ES        913 44.00                             123   -0.22 9  183 293 
 ZAR  HZ I         913 52.61         8.4 0.36            121            183 293 
 NOR  HN ES        913 52.07                             118    0.37 8  222 230 
 NOR  HZ I         914  2.33         3.8 0.16            117            222 230 
 SML  HZ EP        913 25.87                             117   -0.22 8  230 339 
 SML  HE ES        913 53.12                             117    0.03 8  230 339 
 SML  HZ I         914  1.55         5.7 0.10            117            230 339 
 HEL  HZ EP   4    913 31.21                             114    2.00 0  254 253 
 HEL  HN ES        913 58.30                             114   -0.33 8  254 253 
 HEL  HZ I         914  8.08         3.2 0.72            114            254 253 
 URE  HN ES        913 59.20                             113   -0.34 8  263 292 
 URE  HZ I         914  9.41         4.0 0.32            113            263 292 
 PRA  HZ EP        913 44.46                             105    0.27 6  388 207 
 PRA  HN ES        914 25.24                             105   -0.06 6  388 207 
 PRA  HZ I         914 31.98         1.8 0.36            106            388 207 
                                                                                
