 2014  3 2 0359 55.5 L   6.899 -73.336123.1  RSN  7 0.4 1.6LRSN                1
 GAP= 98        1.02       3.3     4.4  8.2  0.2991E+00  0.1633E+02 -0.6222E+01E
 Epicentro: BETULIA - SANTANDER                                                3
 ACTION:UPD 14-04-09 23:13 OP:nd   STATUS:               ID:20140302035955 L   I
 OLDACT:DUP 14-03-02 10:36 OP:stll STATUS:               ID:20140302035820d    3
 2014-03-02-0358-19M.COL___232                                                 6
 STAT SP IPHASW D HRMM SECON CODA AMPLIT PERI AZIMU VELO AIN AR TRES W  DIS CAZ7
 BAR2 SZ IP     C  4 0 12.96                             162    0.1010 37.9 153 
 BAR2 SZ I         4 0 13.06        23.0 0.34            167           37.9 153 
 BAR2 SZ ES        4 0 26.21                             162   -0.1910 37.9 153 
 PAM  SN ES        4 0 32.42                             143    0.5610 85.5  55 
 PAM  SZ I         4 0 34.60         5.7 0.26            146           85.5  55 
 RUS  HZ EP        4 0 18.10                             134   -0.1810  115 166 
 RUS  HN ES        4 0 35.71                             134   -0.3410  115 166 
 RUS  HZ I         4 0 36.55         2.1 0.22            139            115 166 
 PTB  HZ EP        4 0 18.70                             130   -0.3210  130 252 
 PTB  HN ES        4 0 37.84                             130    0.4710  130 252 
 PTB  HZ I         4 0 40.62         4.4 0.38            132            130 252 
 OCA  HN ES        4 0 40.55                             126   -0.24 9  148   1 
 OCA  HZ I         4 0 41.89         7.8 0.16            128            148   1 
 ZAR  HZ EP        4 0 24.79                             120    0.74 9  180 291 
 ZAR  HN ES        4 0 46.11                             120   -0.21 9  180 291 
 ZAR  HZ I         4 0 51.06         3.9 0.26            122            180 291 
 SML  HZ EP        4 0 29.15                             114    0.24 8  225 339 
 SML  HN ES        4 0 54.25                             114   -0.72 8  225 339 
 SML  HZ I         4 1  2.19         7.3 0.10            116            225 339 
                                                                                
