 2013  3 2 0803 32.5 L   6.710 -73.193146.2  RSN  4 0.2 1.4LRSN                1
 GAP=225        0.56       5.8     8.3  4.7  0.3563E+02  0.1132E+02  0.5547E+01E
 Epicentro: VILLANUEVA - SANTANDER                                             3
 ACTION:UPD 13-04-09 13:59 OP:ep   STATUS:               ID:20130302080332 L   I
 2013-03-02-0758-43M.COL___193                                                 6
 STAT SP IPHASW D HRMM SECON CODA AMPLIT PERI AZIMU VELO AIN AR TRES W  DIS CAZ7
 BAR2 SZ EP        8 3 51.82                             175   -0.2210 13.1 175 
 BAR2 SZ ES        8 4  7.20                             175   -0.0710 13.1 175 
 BAR2 SZ I         8 4  7.95         5.2 0.28            175           13.1 175 
 BRR  HZ EP        8 3 53.70                             152   -0.0710 72.2 307 
 BRR  HZ I         8 3 53.97         5.6 0.26            153           72.2 307 
 BRR  HN ES        8 4 10.54                             152    0.1910 72.2 307 
 RUS  HZ EP        8 3 56.04                             147    0.3810 91.2 172 
 RUS  HN ES        8 4 13.62                             147   -0.0910 91.2 172 
 PTB  HZ EP        8 3 58.79                             133   -0.13 9  141 262 
                                                                                
