 2016 12 2 0255 34.9 L   7.483 -73.214139.1  RSN  5 0.3 1.4LRSN                1
 GAP=233        0.67       7.3     4.3  5.9 -0.1542E+02  0.9081E+01 -0.1162E+02E
 Epicentro: EL PLAYON - SANTANDER                                              3
 ACTION:UPD 17-01-11 20:11 OP:rebc STATUS:               ID:20161202025534 L   I
 OLDACT:UP  16-12-02 13:56 OP:dnl  STATUS:               ID:20161202024743     3
 OLDACT:UP  16-12-02 13:56 OP:dnl  STATUS:               ID:20161202024743     3
 OLDACT:REG 16-12-02 12:24 OP:dnl  STATUS:               ID:20161202024743     3
 2016-12-02-0248-00M.COL___337                                                 6
 STAT SP IPHASW D HRMM SECON CODA AMPLIT PERI AZIMU VELO AIN AR TRES W  DIS CAZ7
 PAM  EZ EP        255 55.07                             156   -0.3210 59.0 106 
 PAM  EN ES        256 11.33                             156   -0.0310 59.0 106 
 PAM  EZ I         256 13.89         3.2 0.42            162           59.0 106 
 BRR  HZ IP     C  255 55.45                             152    0.2510 68.9 233 
 BRR  HN ES        256 11.18                             152    0.1410 68.9 233 
 BRR  HZ I         256 20.64         7.0 0.56            153           68.9 233 
 BAR2 EZ EP        255 57.53                             143    0.0310 98.5 178 
 BAR2 EZ ES        256 15.24                             143    0.1210 98.5 178 
 BAR2 EZ I         256 20.32         7.0 0.46            146           98.5 178 
 PTB  HZ EP        256  3.97                             126    0.27 9  172 233 
 PTB  HN ES        256 25.66                             126   -0.50 9  172 233 
 PTB  HZ I         256 29.20         2.3 0.28            130            172 233 
 SJC  HZ EP   4    256 20.09                             108   -2.48 0  344 321 
 SJC  HN ES   4    256 52.21                             108   -7.53 0  344 321 
 SJC  HZ I         256 56.83         1.1 0.66            114            344 321 
                                                                                
