 2011  8 2 0706  2.7 L   6.799 -73.029143.0  RSN  5 0.3 1.2LRSN                1
 GAP=152        0.49       4.2     6.8  6.6 -0.3054E+01 -0.5552E+01 -0.1956E+01E
 Epicentro: CEPITA - SANTANDER                                                 3
 ACTION:UPD 12-07-25 14:05 OP:epov STATUS:               ID:20110802070602 L   I
 2011-08-02-0700-00M.COL___140                                                 6
 STAT SP IPHASW D HRMM SECON CODA AMPLIT PERI AZIMU VELO AIN AR TRES W  DIS CAZ7
 BAR2 SZ EP   1    7 6 22.29                             168    0.20 7 28.5 217 
 BAR2 SZ ES   2    7 6 36.92                             168   -0.32 5 28.5 217 
 BAR2 SZ I         7 6 38.20         6.5 0.16                          28.5 217 
 PAM  SZ EP   2    7 6 23.60                             153   -0.56 5 69.9  31 
 PAM  SN ES   2    7 6 41.05                             153    0.13 5 69.9  31 
 BRR  HZ EP   1    7 6 23.93                             148   -0.30 7 82.8 294 
 BRR  HZ I         7 6 24.96         3.7 0.10                          82.8 294 
 BRR  HE ES   2    7 6 41.36                             148    0.31 5 82.8 294 
 RUS  HZ EP   1    7 6 26.32                             143    0.17 7  100 183 
 RUS  HZ I         7 6 27.36         1.6 0.16                           100 183 
 RUS  HN ES   2    7 6 44.35                             143   -0.10 5  100 183 
 BRI  SZ EP   1    7 6 26.18                             142    0.17 7  105  14 
                                                                                
