 2016  9 2 0232 55.9 L   6.789 -73.144149.0  RSN 12 0.4 2.0LRSN                1
 GAP=137        1.03       3.2     4.1  6.2 -0.2104E+01  0.5631E+01  0.4809E+01E
 Epicentro: LOS SANTOS - SANTANDER                                             3
 ACTION:UPD 17-08-17 21:05 OP:lp   STATUS:               ID:20160902023255 L   I
 OLDACT:UP  16-09-02 15:34 OP:drio STATUS:               ID:20160902022728     3
 OLDACT:UP  16-09-02 15:34 OP:drio STATUS:               ID:20160902022728     3
 OLDACT:REG 16-09-02 13:02 OP:drio STATUS:               ID:20160902022728     3
 2016-09-02-0228-00M.COL___358                                                 6
 STAT SP IPHASW D HRMM SECON CODA AMPLIT PERI AZIMU VELO AIN AR TRES W  DIS CAZ7
 BAR2 EZ EP        233 15.89                             171   -0.0410 22.1 191 
 BAR2 HE ES        233 31.36                             171   -0.1710 22.1 191 
 BAR2 EZ I         233 33.50        35.4 0.34            168           22.1 191 
 BRR  HZ EP        233 17.63                             153    0.1610 72.0 299 
 BRR  HN ES        233 35.07                             153    0.7910 72.0 299 
 BRR  HZ I         233 39.36        13.9 0.12            151           72.0 299 
 PAM  EZ EP        233 18.51                             151   -0.0310 78.2  39 
 PAM  EE ES        233 35.89                             151   -0.2910 78.2  39 
 PAM  EZ I         233 37.08         9.2 0.16            158           78.2  39 
 RUS  HZ EP        233 19.68                             145   -0.2310 99.3 176 
 RUS  HE ES        233 38.56                             145   -0.0610 99.3 176 
 RUS  HZ I         233 41.24        12.7 0.42            146           99.3 176 
 PTB  HZ EP        233 22.46                             133   -0.70 9  148 259 
 PTB  HE ES        233 43.90                             133   -0.50 9  148 259 
 PTB  HZ I         233 50.99        21.8 0.38            132            148 259 
 OCA  HZ EP   4    233 22.62                             130   -1.99 0  162 353 
 OCA  HE ES        233 47.32                             130    0.34 9  162 353 
 SPBC HZ EP        233 24.66                             130    0.06 9  162 219 
 SPBC HN ES        233 46.65                             130   -0.31 9  162 219 
 SPBC HZ I         233 52.66        19.7 0.34            130            162 219 
 ZAR  HZ EP   4    233 30.03                             123    1.38 0  205 292 
 ZAR  HN ES        233 54.09                             123   -0.09 9  205 292 
 ZAR  HZ I         234  1.02        11.7 0.34            124            205 292 
 NOR  HZ EP        233 32.02                             119    0.23 8  234 235 
 NOR  HE ES        233 59.35                             119   -0.41 8  234 235 
 NOR  HZ I         234  5.32         9.1 0.30            120            234 235 
 CHI  HZ EP        233 33.74                             118    0.06 8  247 195 
 CHI  HE ES        234  4.23                             118    1.10 8  247 195 
 CHI  HZ I         234 12.89         5.4 0.20            120            247 195 
 GUY2CHZ EP   4    233 41.09                             113    1.46 0  301 235 
 GUY2CHE ES        234 14.28                             113    0.57 7  301 235 
 GUY2CHZ I         234 24.49         5.7 0.48                           301 235 
 CBOC HZ EP   4    233 44.26                             110    1.30 0  333 252 
 CBOC HE ES   4    234 18.22                             110   -1.42 0  333 252 
 CBOC HZ I         234 25.18         2.4 0.46            112            333 252 
                                                                                
