 2012 11 2 0408 14.0 L   6.818 -73.109146.0  RSN 11 0.4 2.4LRSN                1
 GAP= 72        1.03       3.6     3.8  5.9  0.1748E+01  0.3741E+01  0.4996E+01E
 Epicentro: LOS SANTOS - SANTANDER                                             3
 ACTION:UPD 12-12-05 15:30 OP:}ep  STATUS:               ID:20121102040814 L   I
 2012-11-02-0406-44M.COL___203                                                 6
 STAT SP IPHASW D HRMM SECON CODA AMPLIT PERI AZIMU VELO AIN AR TRES W  DIS CAZ7
 BAR2 SZ EP        4 8 33.52                             169   -0.2210 26.3 198 
 BAR2 SZ ES        4 8 49.26                             169    0.1410 26.3 198 
 GIR2 SZ EP        4 8 33.51                             168   -0.1810 30.3 342 
 PAM  SZ EP        4 8 36.29                             152    0.2710 73.3  38 
 PAM  SN ES        4 8 53.48                             152    0.3010 73.3  38 
 PAM  SN I         4 8 54.49        37.5 0.28                          73.3  38 
 BRR  HZ IP     D  4 8 35.32                             152   -0.0310 73.9 296 
 BRR  HN ES        4 8 52.46                             152    0.4810 73.9 296 
 BRR  HN I         4 8 52.84        54.8 0.32                          73.9 296 
 RUS  HZ IP     C  4 8 37.41                             143   -0.5110  102 178 
 RUS  HN ES   1    4 8 55.85                             143   -0.72 7  102 178 
 RUS  HN I         4 8 57.60        47.5 0.30                           102 178 
 TAM  HZ EP        4 8 41.71                             131    0.31 9  152 106 
 TAM  HN ES        4 9  2.92                             131    0.16 9  152 106 
 TAM  HN I         4 9  4.04        31.9 0.36                           152 106 
 OCA  HZ EP        4 8 41.92                             130   -0.29 9  159 352 
 OCA  HN ES        4 9  3.60                             130   -0.60 9  159 352 
 OCA  HN I         4 9  6.33        70.8 0.20                           159 352 
 ZAR  HN ES        4 9 12.17                             122   -0.19 8  207 291 
 ZAR  HN I         4 9 17.70        27.4 0.28                           207 291 
 CHI  HZ EP        4 8 51.60                             117   -0.46 8  252 196 
 CHI  HE ES   1    4 9 21.25                             117   -0.48 6  252 196 
 CHI  HN I         4 9 26.61        15.1 0.46                           252 196 
 ROSC BZ EP        4 8 53.65                             116    1.08 8  257 212 
 ROSC BZ I         4 9 29.21        20.1 0.40                           257 212 
 HEL  HZ EP        4 8 55.32                             114    0.59 7  277 256 
 HEL  HN ES   2    4 9 26.98                             114    0.49 4  277 256 
 HEL  HN I         4 9 32.08         9.2 0.24                           277 256 
                                                                                
