 2017 11 2 0932 36.9 L   6.805 -73.153147.8  RSN 12 0.3 1.7LRSN                1
 GAP=111        0.77       2.6     3.1  4.9  0.4863E+00  0.4336E+01  0.3330E+01E
 Epicentro: LOS SANTOS - SANTANDER                                             3
 ACTION:UPD 17-12-12 19:51 OP:rebc STATUS:               ID:20171102093236 L   I
 OLDACT:UP  17-11-02 17:18 OP:dnl  STATUS:               ID:20171102092737     3
 OLDACT:REG 17-11-02 13:48 OP:dnl  STATUS:               ID:20171102092737     3
 2017-11-02-0928-00M.COL___432                                                 6
 STAT SP IPHASW D HRMM SECON CODA AMPLIT PERI AZIMU VELO AIN AR TRES W  DIS CAZ7
 BAR2 EZ EP        932 56.58                             170   -0.2010 23.8 188 
 BAR2 EZ ES        933 12.06                             170   -0.2310 23.8 188 
 BAR2 EZ I         933 12.88        11.7 0.22            169           23.8 188 
 BRR  HZ EP        932 58.46                             153    0.2510 70.2 298 
 BRR  HN ES        933 15.30                             153    0.4610 70.2 298 
 BRR  HZ I         933 17.29         7.5 0.42            153           70.2 298 
 PAM  EZ EP        932 59.27                             151   -0.0610 77.4  40 
 PAM  EN ES        933 16.49                             151   -0.3410 77.4  40 
 PAM  EZ I         933 18.77         7.2 0.70            154           77.4  40 
 RUS  HZ EP        933  0.90                             144    0.0010  101 176 
 RUS  HN ES        933 19.86                             144    0.2510  101 176 
 RUS  HZ I         933 21.13         6.0 0.32            144            101 176 
 PTB  HZ EP        933  3.45                             133   -0.52 9  147 259 
 PTB  HN ES   4    933 24.21                             133   -0.88 0  147 259 
 PTB  HZ I         933 27.16         4.6 0.16            132            147 259 
 SPBC HZ EP        933  5.70                             129    0.15 9  163 219 
 SPBC HE ES        933 27.21                             129   -0.69 9  163 219 
 SPBC HZ I         933 30.98         5.6 0.30            129            163 219 
 YPLC HZ EP   2    933  7.25                             127    0.32 4  178 151 
 YPLC HN ES        933 30.78                             127    0.43 9  178 151 
 YPLC HZ I         933 34.70         6.6 0.38            128            178 151 
 ZAR  HZ EP   2    933  9.74                             123    0.36 4  203 292 
 ZAR  HN ES        933 34.93                             123    0.21 9  203 292 
 ZAR  HZ I         933 39.97         4.4 0.30            123            203 292 
 NOR  HZ EP   2    933 13.38                             119    0.66 4  234 234 
 NOR  HE ES        933 40.89                             119    0.24 8  234 234 
 NOR  HZ I         933 44.60         2.7 0.30            119            234 234 
 CHI  HZ EP   2    933 14.15                             117   -0.60 4  249 195 
 CHI  HN ES        933 44.43                             117    0.16 8  249 195 
 CHI  HZ I         933 47.79         2.1 0.50            118            249 195 
 GUY2CHZ EP   4    933 22.06                             113    1.49 0  301 235 
 GUY2CHN ES   4    933 58.49                             113    3.86 0  301 235 
 GUY2CHZ I         934  2.67         2.6 0.60                           301 235 
 PRA  HZ EP   2    933 30.37                             107   -0.14 3  392 209 
 PRA  HN ES        934 12.05                             107   -0.27 6  392 209 
 PRA  HZ I         934 19.21         1.9 0.60            107            392 209 
                                                                                
