 2015  2 2 0231 15.5 L   6.756 -73.146147.2  RSN  7 0.6 1.5LRSN                1
 GAP=182        1.45       6.1     8.2 10.8  0.6048E+01  0.7021E+01 -0.2879E+02E
 Epicentro: LOS SANTOS - SANTANDER                                             3
 ACTION:UPD 15-04-30 21:20 OP:nd   STATUS:               ID:20150202023115 L   I
 OLDACT:DUP 15-02-02 17:25 OP:stll STATUS:               ID:20150202022746d    3
 OLDACT:REG 15-02-02 13:21 OP:stll STATUS:               ID:20150202022745     3
 2015-02-02-0227-45M.COL___262                                                 6
 STAT SP IPHASW D HRMM SECON CODA AMPLIT PERI AZIMU VELO AIN AR TRES W  DIS CAZ7
 BAR2 EZ EP        231 35.85                             172    0.6310 18.6 193 
 BAR2 EZ ES        231 50.08                             172   -0.5110 18.6 193 
 BAR2 EZ I         231 51.68         6.9 0.30            171           18.6 193 
 BRR  HZ IP     C  231 37.62                             152    0.6810 73.6 302 
 BRR  HZ I         231 37.84         9.3 0.28            150           73.6 302 
 BRR  HE ES        231 54.74                             152    1.0810 73.6 302 
 RUS  HE ES        231 56.90                             145   -0.5210 95.7 176 
 RUS  HZ I         232  0.71         1.5 0.36            147           95.7 176 
 PTB  HZ EP        231 42.97                             132    0.47 9  147 261 
 PTB  HN ES        232  3.01                             132   -0.56 9  147 261 
 PTB  HZ I         232  8.48         4.2 0.18            132            147 261 
 OCA  HZ EP        231 43.95                             129   -0.43 9  165 353 
 OCA  HN ES        232  6.72                             129   -0.18 9  165 353 
 OCA  HZ I         232  9.47         3.3 0.14            130            165 353 
 ZAR  HN ES        232 13.31                             122   -0.45 8  206 293 
 ZAR  HZ I         232 19.18         4.2 0.40            122            206 293 
 SML  HZ EP        231 52.34                             117   -0.34 8  248 336 
 SML  HE ES        232 21.30                             117   -0.39 8  248 336 
 SML  HZ I         232 27.94         5.1 0.24            118            248 336 
                                                                                
