 2010  5 2 0345 24.9 L   6.798 -73.111145.6  RSN 15 0.5 3.0LRSN                1
 GAP=146        1.20       5.0     7.9  7.0 -0.2398E+02 -0.8139E+00  0.8658E+01E
 Epicentro: LOS SANTOS - SANTANDER                                             3
 ACTION:UP  10-08-24 10:02 OP:vdl  STATUS:               ID:20100502034524 L   I
 2010-05-02-0342-43S.COL___105                                                 6
 STAT SP IPHASW D HRMM SECON CODA AMPLIT PERI AZIMU VELO SNR AR TRES W  DIS CAZ7
 BAR2 SZ EP        345 44.36                             170    -0.110   24 199 
 BAR2 SZ ES   1    345 58.92                             170    -0.9 7   24 199 
 GIR2 SZ EP        345 44.38                             167    -0.210   32 344 
 GIR2 SZ ES   1    345 59.84                             167    -0.1 7   32 344 
 BRR  HZ IP        345 46.74                             152     0.510   75 297 
 BRR  HE ES   1    346  3.65                             152     0.8 7   75 297 
 BRR  HZ I         346  6.49       169.2 0.34                            75 297 
 BRI  SZ IP        345 48.85                             142     0.210  107  19 
 BRI  SZ ES   1    346  6.95                             142    -0.3 7  107  19 
 GUE  SZ IP        345 50.34                             140     0.810  116  10 
 GRA  SZ IP        345 50.13                             137     0.110  125  16 
 GRA  SZ ES   1    346  9.71                             137     0.1 7  125  16 
 OCA  SZ EP        345 52.85                             130    -0.4 9  161 352 
 OCA  SZ ES   1    346 14.81                             130    -0.6 7  161 352 
 OCA  SZ I         346 19.38       111.3 0.46                           161 352 
 CHI  HZ EP   1    346  2.61                             117     0.0 6  249 196 
 CHI  HN ES   1    346 31.61                             117    -0.5 6  249 196 
 CHI  HZ I         346 37.58        42.1 0.31                           249 196 
 ROSC BZ EP        346  4.15                             117     1.0 8  255 212 
 ROSC BN ES   1    346 33.48                             117     0.4 6  255 212 
 ROSC BZ I         346 42.72        56.2 0.35                           255 212 
 HEL  HZ EP   2    346  4.81                             115    -0.7 4  276 256 
 HEL  HN ES   2    346 36.15                             115    -1.0 4  276 256 
 HEL  HZ I         346 44.54        48.5 0.33                           276 256 
 RREF BZ EP   1    346 11.10                             111    -0.2 5  325 230 
 RREF BN ES   1    346 47.09                             111    -0.5 5  325 230 
 RREF BZ I         346 51.59        46.2 0.38                           325 230 
 DBB  SZ EP        346 12.06                             109    -0.7 7  343 274 
 TOL  SZ EP   1    346 13.75                             109     0.3 5  346 225 
 SDV  BZ EP        346 13.92                             108    -0.7 6  358  50 
 SDV  BZ I         346 55.08        16.2 0.63                           358  50 
 PRA  HZ EP   1    346 17.95                             106    -0.6 4  394 210 
 PRA  HZ I         347  6.58        53.1 0.27                           394 210 
                                                                                
