 2016  1 2 0702  1.1 L   6.819 -73.146148.3  RSN 11 0.5 1.9LRSN                1
 GAP=196        1.23       3.8     6.8  7.4 -0.7257E+01  0.1870E+01  0.1636E+01E
 Epicentro: LOS SANTOS - SANTANDER                                             3
 ACTION:UPD 16-03-09 23:22 OP:cam  STATUS:               ID:20160102070201 L   I
 OLDACT:REG 16-01-02 12:39 OP:drio STATUS:               ID:20160102065746     3
 2016-01-02-0657-46M.COL___320                                                 6
 STAT SP IPHASW D HRMM SECON CODA AMPLIT PERI AZIMU VELO AIN AR TRES W  DIS CAZ7
 BAR2 EZ EP     C  7 2 21.21                             170    0.1110 25.4 189 
 BAR2 EZ ES        7 2 36.22                             170   -0.4610 25.4 189 
 BAR2 EZ I         7 2 38.89        14.7 0.24            168           25.4 189 
 BRR  HZ IP     C  7 2 23.07                             153    0.5810 70.2 297 
 BRR  HN ES        7 2 40.34                             153    1.1910 70.2 297 
 PTB  HZ EP        7 2 28.02                             133   -0.31 9  148 258 
 PTB  HN ES        7 2 48.85                             133   -0.70 9  148 258 
 PTB  HZ I         7 2 56.41        11.3 0.60            130            148 258 
 OCA  HZ EP        7 2 29.01                             131   -0.42 9  158 353 
 OCA  HE ES        7 2 51.15                             131   -0.36 9  158 353 
 OCA  HZ I         7 2 56.89        18.0 0.28            131            158 353 
 SPBC HZ EP        7 2 30.23                             129    0.26 9  165 219 
 SPBC HN ES        7 2 52.08                             129   -0.39 9  165 219 
 SPBC HZ I         7 2 56.25        14.1 0.26            129            165 219 
 ZAR  HZ EP   4    7 2 35.75                             123    2.10 0  203 292 
 ZAR  HE ES   4    7 3  0.87                             123    1.86 0  203 292 
 ZAR  HZ I         7 3  6.40         7.7 0.18            122            203 292 
 NOR  HZ EP        7 2 37.76                             119    0.63 8  236 234 
 NOR  HE ES        7 3  4.72                             119   -0.49 8  236 234 
 NOR  HZ I         7 3  8.96         6.3 0.18            119            236 234 
 SML  HZ EP        7 2 37.41                             118   -0.27 8  242 335 
 SML  HE ES        7 3  6.10                             118   -0.09 8  242 335 
 SML  HZ I         7 3 12.73         7.9 0.24            118            242 335 
 CHI  HZ EP        7 2 39.33                             117    0.15 8  251 195 
 CHI  HE ES        7 3  8.97                             117    0.10 8  251 195 
 CHI  HZ I         7 3 14.12         2.6 0.26            119            251 195 
 HEL  HZ EP   4    7 2 43.26                             115    1.74 0  273 255 
 HEL  HN ES        7 3 13.38                             115    0.36 8  273 255 
 HEL  HZ I         7 3 19.63         4.3 0.32            115            273 255 
 GUY2CHZ EP   4    7 2 46.48                             113    1.50 0  302 234 
 GUY2CHE ES   4    7 3 20.65                             113    1.46 0  302 234 
 GUY2CHZ I         7 3 26.58         3.3 0.28                           302 234 
 SJC  HZ EP   4    7 2 55.60                             106   -0.95 0  407 327 
 SJC  HN ES   4    7 3 36.82                             106   -2.97 0  407 327 
                                                                                
