 2017  5 2 0716 38.5 L   6.858 -73.262123.3  RSN  4 0.1 0.8LRSN                1
 GAP=120        0.37       1.9     2.4  3.7 -0.1360E+00 -0.4088E+00  0.1725E+01E
 Epicentro: ZAPATOCA - SANTANDER                                               3
 ACTION:UPD 17-06-16 13:32 OP:jn   STATUS:               ID:20170502071638 L   I
 OLDACT:UP  17-05-02 18:23 OP:edw  STATUS:               ID:20170502070643d    3
 OLDACT:DUP 17-05-02 18:21 OP:edw  STATUS:               ID:20170502070643d    3
 OLDACT:UP  17-05-02 18:20 OP:edw  STATUS:               ID:20170502070642     3
 OLDACT:REG 17-05-02 14:01 OP:edw  STATUS:               ID:20170502070642     3
 2017-05-02-0707-00M.COL___365                                                 6
 STAT SP IPHASW D HRMM SECON CODA AMPLIT PERI AZIMU VELO AIN AR TRES W  DIS CAZ7
 BRR  HZ EP        716 56.39                             154   -0.0410 56.8 299 
 BRR  HN ES        717 10.42                             154    0.0110 56.8 299 
 BRR  HZ I         717 12.15         2.2 0.16            157           56.8 299 
 PAM  EZ EP        716 58.56                             145   -0.1510 81.8  49 
 PAM  EN ES        717 14.54                             145    0.0910 81.8  49 
 PAM  EZ I         717 17.67         1.3 0.30            146           81.8  49 
 RUS  HZ EP        717  0.97                             136    0.1710  109 170 
 RUS  HN ES        717 18.08                             136   -0.1010  109 170 
 RUS  HZ I         717 19.67         1.0 0.28            139            109 170 
 PTB  HZ EP   2    717  2.76                             129    0.07 5  137 255 
 PTB  HN ES   4    717 18.89                             129   -2.64 0  137 255 
                                                                                
