 2017  8 2 0355 39.9 L   6.801 -73.167146.1  RSN  4 0.3 1.0LRSN                1
 GAP=276        0.80       7.8     5.7  7.9  0.1136E+02  0.1202E+02 -0.4308E+01E
 Epicentro: LOS SANTOS - SANTANDER                                             3
 ACTION:UPD 17-09-04 20:15 OP:rebc STATUS:               ID:20170802035539 L   I
 OLDACT:REG 17-08-02 13:01 OP:osc  STATUS:               ID:20170802034736     3
 2017-08-02-0348-00M.COL___392                                                 6
 STAT SP IPHASW D HRMM SECON CODA AMPLIT PERI AZIMU VELO AIN AR TRES W  DIS CAZ7
 BAR2 EZ ES        356 14.68                             171   -0.2110 23.2 184 
 RUS  HZ EP        356  4.00                             144    0.3210  101 175 
 RUS  HN ES        356 22.36                             144    0.1110  101 175 
 RUS  HZ I         356 23.68         1.7 0.40            143            101 175 
 PTB  HZ EP        356  6.28                             132   -0.38 9  145 259 
 PTB  HE ES        356 27.99                             132    0.43 9  145 259 
 SPBC HN ES        356 30.10                             129   -0.32 9  162 218 
                                                                                
