 2012  1 2 0153 38.2 L   6.362 -73.713107.7  RSN  5 0.2 1.3LRSN                1
 GAP=103        0.46       3.1     3.6  6.8  0.3751E+01  0.1000E+02  0.8113E+01E
 Epicentro: SANTA HELENA DEL OPON - SANTANDER                                  3
 ACTION:UP  12-02-03 08:13 OP:REBC STATUS:               ID:20120102015338 L   I
 2012-01-02-0150-00M.COL___186                                                 6
 STAT SP IPHASW D HRMM SECON CODA AMPLIT PERI AZIMU VELO SNR AR TRES W  DIS CAZ7
 BAR2 SZ ES   1    154  8.30                             147    -0.2 7   64  67 
 BRR  HZ EP        153 56.19                             140     0.010   82   0 
 BRR  HZ I         154  4.85         6.3 0.14                            82   0 
 BRR  HE ES   1    154 10.59                             140     0.3 7   82   0 
 PTB  HZ EP   1    153 56.44                             139     0.0 7   85 283 
 PTB  HN ES   2    154 10.32                             139    -0.3 5   85 283 
 RUS  HZ EP   1    153 57.14                             138    -0.1 7   87 127 
 RUS  HZ I         153 57.28         4.2 0.23                            87 127 
 RUS  HN ES   2    154 12.38                             138     0.2 5   87 127 
 CHI  HN ES   2    154 30.85                             114     0.3 4  192 181 
                                                                                
