 2013  1 2 0021  0.3 L   6.803 -73.167148.3  RSN 11 0.5 2.3LRSN 3.0WRSN        1
 SPEC AVERAGE  MO 13.6 ST  3.7 OM  2.4 f0 3.33 R0.4749 AL 1.92 WI 21.8 MW  3.0 3
 SPEC SD       MO  0.2 ST  4.0 OM  0.5 f00.934 R0.1225 AL      WI      MW  0.1 3
 GAP=181        1.29       4.0     5.7  7.9  0.7257E+00  0.7502E+01  0.5686E+01E
 Epicentro: LOS SANTOS - SANTANDER                                             3
 SPEC ZAR HH N MO 13.9 ST 11.8 OM  2.1 f0 4.88 R0.3012 AL 2.23 WI 32.0 MW  3.2 3
 SPEC ZAR HH N T 02156 K 0.000 GD  250 VS 4.20 DE 3.00 Q0230.0 QA 0.60 VS 4.20 3
 SPEC PTB HH N MO 13.6 ST  2.3 OM  1.9 f0 3.49 R0.4212 AL 1.29 WI 10.0 MW  3.0 3
 SPEC PTB HH N T 02147 K 0.000 GD  207 VS 4.20 DE 3.00 Q0230.0 QA 0.60 VS 4.20 3
 SPEC RUS HH N MO 13.4 ST0.620 OM  1.8 f0 2.57 R0.5720 AL 2.28 WI 11.6 MW  2.9 3
 SPEC RUS HH N T 02142 K 0.000 GD  179 VS 4.20 DE 3.00 Q0230.0 QA 0.60 VS 4.20 3
 SPEC HEL HH N MO 13.4 ST0.533 OM  1.5 f0 2.57 R0.5720 AL 1.31 WI 18.7 MW  2.8 3
 SPEC HEL HH N T 02210 K 0.000 GD  308 VS 4.20 DE 3.00 Q0230.0 QA 0.60 VS 4.20 3
 SPEC OCA HH N MO 13.8 ST  2.6 OM  2.1 f0 3.09 R0.4757 AL 1.79 WI 45.3 MW  3.1 3
 SPEC OCA HH N T 02149 K 0.000 GD  218 VS 4.20 DE 3.00 Q0230.0 QA 0.60 VS 4.20 3
 SPEC CHI HH N MO 13.5 ST0.532 OM  1.7 f0 2.25 R0.6533 AL 1.39 WI 14.4 MW  3.0 3
 SPEC CHI HH N T 022 7 K 0.000 GD  288 VS 4.20 DE 3.00 Q0230.0 QA 0.60 VS 4.20 3
 SPEC BRR HH N MO 13.8 ST  7.5 OM  2.2 f0 4.47 R0.3289 AL 3.18 WI 20.4 MW  3.1 3
 SPEC BRR HH N T 02139 K 0.000 GD  163 VS 4.20 DE 3.00 Q0230.0 QA 0.60 VS 4.20 3
 ACTION:UPD 13-02-15 09:11 OP:ep   STATUS:               ID:20130102002100 L   I
 2013-01-02-0020-00M.COL___242                                                 6
 STAT SP IPHASW D HRMM SECON CODA AMPLIT PERI AZIMU VELO AIN AR TRES W  DIS CAZ7
 BAR2 SZ EP        021 20.06                             171   -0.2010 23.3 184 
 BAR2 SZ ES        021 35.21                             171   -0.6010 23.3 184 
 BAR2 SZ I         021 37.01        54.9 0.42            168           23.3 184 
 BRR  HZ EP        021 22.06                             154    0.4410 69.0 299 
 BRR  HZ I         021 22.29        25.4 0.24            143           69.0 299 
 BRR  HN ES        021 39.45                             154    1.2110 69.0 299 
 RUS  HZ EP        021 24.18                             144   -0.1810  101 175 
 RUS  HN ES        021 42.90                             144   -0.2110  101 175 
 RUS  HN I         021 44.47        35.7 0.36            139            101 175 
 PTB  HZ EP        021 26.79                             133   -0.50 9  145 259 
 PTB  HN ES        021 48.03                             133   -0.30 9  145 259 
 PTB  HN I         021 53.88        49.9 0.16            124            145 259 
 OCA  HZ EP        021 28.73                             130   -0.05 9  160 354 
 OCA  HN ES        021 51.00                             130    0.03 9  160 354 
 OCA  HN I         021 54.45        38.3 0.18            122            160 354 
 ZAR  HE ES        021 57.56                             123   -0.39 9  202 292 
 ZAR  HN I         022  4.54        38.8 0.56            115            202 292 
 CHI  HZ EP        021 38.36                             118    0.24 8  248 195 
 CHI  HN ES        022  8.29                             118    0.68 8  248 195 
 CHI  HN I         022 14.14        11.9 0.42            111            248 195 
 ROSC BZ EP        021 38.80                             117    0.33 8  252 211 
 ROSC BN ES        022  7.80                             117   -0.44 8  252 211 
 ROSC BZ I         022 16.03        15.9 0.65            111            252 211 
 HEL  HN ES        022 10.93                             115   -0.76 8  270 256 
 HEL  HN I         022 19.71         9.4 0.34            108            270 256 
 RREF HN ES        022 23.33                             111    1.00 7  320 229 
 RREF HZ I         022 29.47         7.0 0.36            105            320 229 
 MON  HZ EP   4    021 47.46                             109   -1.72 0  352 309 
 MON  HN I         022 27.61         4.3 0.24            103            352 309 
                                                                                
