 2012  7 2 0531 37.4 L   6.847 -73.144142.8  RSN 10 0.4 2.0LRSN                1
 GAP=183        0.81       3.4     5.1  6.7  0.1969E+01  0.8713E+01  0.1938E+01E
 Epicentro: LOS SANTOS - SANTANDER                                             3
 ACTION:UPD 12-08-14 11:42 OP:ep   STATUS:               ID:20120702053137 L   I
 2012-07-02-0530-00M.COL___201                                                 6
 STAT SP IPHASW D HRMM SECON CODA AMPLIT PERI AZIMU VELO AIN AR TRES W  DIS CAZ7
 BAR2 SZ EP   1    531 56.87                             168     0.1 7   29 188 
 BAR2 SZ ES   1    532 12.23                             168     0.3 7   29 188 
 BAR2 SZ I         532 13.18        14.9 0.40            173             29 188 
 BRR  HZ EP        531 58.54                             153     0.510   69 295 
 BRR  HZ I         532 19.54        17.4 0.14            149             69 295 
 RUS  HZ EP   1    532  1.12                             142    -0.1 7  106 176 
 RUS  HN ES   1    532 19.63                             142    -0.2 7  106 176 
 RUS  HZ I         532 21.39        18.8 0.27            145            106 176 
 PTB  HZ EP   1    532  3.80                             131    -0.4 7  149 257 
 PTB  HN ES   1    532 25.11                             131    -0.1 7  149 257 
 PTB  HZ I         532 27.21        11.7 0.15            130            149 257 
 OCA  HZ EP   1    532  4.25                             130    -0.7 7  155 353 
 OCA  HN ES   1    532 26.18                             130    -0.3 7  155 353 
 ZAR  HZ EP   1    532  9.79                             122     0.3 6  202 291 
 ZAR  HN ES   1    532 34.65                             122     0.2 6  202 291 
 CHI  HZ EP   1    532 15.40                             116    -0.1 6  254 195 
 CHI  HZ I         532 16.57         5.0 0.19            116            254 195 
 CHI  HN ES   1    532 44.88                             116    -0.3 6  254 195 
 HEL  HZ EP   1    532 18.39                             114     0.8 6  274 255 
 HEL  HN ES   1    532 48.40                             114    -0.6 6  274 255 
 HEL  HZ I         532 56.69         6.9 0.34            113            274 255 
 PRA  HZ EP   1    532 31.51                             106     0.2 4  397 209 
 PRA  HE ES   1    533 13.16                             106    -0.3 4  397 209 
 SJA  SZ EP   1    532 32.97                             105     0.5 4  405 193 
