 2012  7 2 0410 50.7 L   7.402 -73.161130.6  RSN  7 0.3 1.8LRSN                1
 GAP=108        0.80       3.8     4.8  8.3  0.1886E+01  0.1741E+02  0.4440E+01E
 Epicentro: EL PLAYON - SANTANDER                                              3
 ACTION:UPD 12-08-14 11:41 OP:ep   STATUS:               ID:20120702041050 L   I
 2012-07-02-0410-00M.COL___201                                                 6
 STAT SP IPHASW D HRMM SECON CODA AMPLIT PERI AZIMU VELO AIN AR TRES W  DIS CAZ7
 PAM  SZ EP   1    411 10.11                             157     0.3 7   51  98 
 PAM  SZ I         411 10.47        19.1 0.25            164             51  98 
 PAM  SN ES   1    411 25.06                             157     0.3 7   51  98 
 BRR  HZ EP        411 10.29                             150     0.210   69 242 
 BRR  HZ I         411 10.67        32.6 0.15            148             69 242 
 BAR2 SZ EP   1    411 11.91                             144     0.2 7   90 182 
 BAR2 SZ ES   1    411 28.31                             144     0.1 7   90 182 
 BAR2 SZ I         411 29.95        13.7 0.35            145             90 182 
 OCA  HZ EP   1    411 11.72                             142    -0.3 7   94 349 
 OCA  HN ES   1    411 28.13                             142    -0.5 7   94 349 
 RUS  HZ EP   1    411 19.08                             125     0.1 7  167 177 
 RUS  HN ES   1    411 40.32                             125    -0.7 7  167 177 
 RUS  HZ I         411 42.78         2.9 0.29            127            167 177 
 PTB  HZ EP   1    411 18.38                             124    -0.4 7  172 236 
 PTB  HN ES   1    411 40.73                             124    -0.1 7  172 236 
 PTB  HZ I         411 44.28         6.8 0.19            124            172 236 
 ZAR  HZ EP   1    411 20.60                             121     0.2 7  188 273 
 ZAR  HN ES   1    411 43.98                             121     0.3 7  188 273 
 ZAR  HZ I         411 49.42         9.8 0.16            122            188 273 
