 2015 12 2 0403  1.0 L   6.881 -73.131152.6  RSN  5 0.3 1.6LRSN                1
 GAP=216        0.68       4.4     5.6  7.3  0.1352E+01  0.1082E+02 -0.1701E+02E
 Epicentro: LOS SANTOS - SANTANDER                                             3
 ACTION:UPD 16-02-04 15:01 OP:cam  STATUS:               ID:20151202040301 L   I
 OLDACT:UP  15-12-02 13:52 OP:mh   STATUS:               ID:20151202035748     3
 OLDACT:REG 15-12-02 12:15 OP:mh   STATUS:               ID:20151202035748     3
 2015-12-02-0357-48M.COL___315                                                 6
 STAT SP IPHASW D HRMM SECON CODA AMPLIT PERI AZIMU VELO AIN AR TRES W  DIS CAZ7
 BAR2 EZ EP   1    4 3 22.12                             167    0.49 7 32.4 190 
 BAR2 EZ ES        4 3 37.47                             167   -0.2710 32.4 190 
 BAR2 EZ I         4 3 38.80         8.1 0.19            167           32.4 190 
 PTB  HZ EP        4 3 28.49                             133   -0.33 9  151 256 
 PTB  HE ES        4 3 50.86                             133    0.31 9  151 256 
 PTB  HZ I         4 3 55.19         3.4 0.30            132            151 256 
 ZAR  HN ES   1    4 3 59.11                             124   -0.13 6  202 290 
 ZAR  HZ I         4 4  5.20         3.6 0.60            124            202 290 
 SML  HN ES        4 4  5.67                             120    0.20 8  236 334 
 SML  HZ I         4 4  9.00         6.7 0.10            121            236 334 
 SJC  HZ EP        4 3 56.17                             107    0.17 6  403 326 
 SJC  HE ES        4 4 38.57                             107   -0.36 6  403 326 
 SJC  HZ I         4 4 41.34         1.0 0.68            108            403 326 
                                                                                
