 2013  3 2 0900  0.1 L   6.698 -73.227140.5  RSN  4 0.4 1.5LRSN                1
 GAP=207        0.73       8.3     6.1  9.9  0.8583E+01 -0.1295E+02  0.3760E+02E
 Epicentro: VILLANUEVA - SANTANDER                                             3
 ACTION:UPD 13-04-09 13:59 OP:ep   STATUS:               ID:20130302090000 L   I
 2013-03-02-0858-45M.COL___193                                                 6
 STAT SP IPHASW D HRMM SECON CODA AMPLIT PERI AZIMU VELO AIN AR TRES W  DIS CAZ7
 BAR2 SZ EP   2    9 0 18.42                             174   -0.50 5 12.7 157 
 BAR2 SZ ES   2    9 0 32.99                             174   -0.60 5 12.7 157 
 BAR2 SZ I         9 0 35.08         4.3 0.38            169           12.7 157 
 BRR  HZ EP        9 0 20.39                             153   -0.2210 70.1 310 
 BRR  HN ES        9 0 36.88                             153    0.2710 70.1 310 
 BRR  HN I         9 0 37.72        12.6 0.22            153           70.1 310 
 RUS  HZ EP        9 0 23.04                             145    0.4310 90.5 170 
 PTB  HZ EP   2    9 0 25.36                             133   -0.31 5  137 263 
 PTB  HN ES        9 0 45.46                             133   -0.15 9  137 263 
 PTB  HN I         9 0 50.89         4.0 0.36            132            137 263 
                                                                                
