 2017  3 2 0438  2.7 L   6.756 -73.147147.5  RSN  7 0.4 1.4LRSN                1
 GAP=138        0.81       4.9     5.4  6.2  0.5489E+01  0.2724E+00 -0.2390E+01E
 Epicentro: LOS SANTOS - SANTANDER                                             3
 ACTION:UPD 17-05-25 18:34 OP:jn   STATUS:               ID:20170302043802 L   I
 OLDACT:UP  17-03-02 16:02 OP:and  STATUS:               ID:20170302042744d    3
 OLDACT:UP  17-03-02 16:01 OP:and  STATUS:               ID:20170302042744d    3
 OLDACT:DUP 17-03-02 15:59 OP:and  STATUS:               ID:20170302042744d    3
 OLDACT:UP  17-03-02 15:58 OP:and  STATUS:               ID:20170302042743     3
 OLDACT:UP  17-03-02 15:57 OP:and  STATUS:               ID:20170302042743     3
 OLDACT:UP  17-03-02 15:56 OP:and  STATUS:               ID:20170302042743     3
 OLDACT:UP  17-03-02 15:56 OP:and  STATUS:               ID:20170302042743     3
 OLDACT:UP  17-03-02 15:55 OP:and  STATUS:               ID:20170302042743     3
 OLDACT:UP  17-03-02 15:55 OP:and  STATUS:               ID:20170302042743     3
 OLDACT:REG 17-03-02 12:44 OP:and  STATUS:               ID:20170302042743     3
 2017-03-02-0428-00M.COL___387                                                 6
 STAT SP IPHASW D HRMM SECON CODA AMPLIT PERI AZIMU VELO AIN AR TRES W  DIS CAZ7
 BAR2 EZ EP        438 22.46                             173    0.0110 18.5 192 
 BAR2 EZ ES        438 37.40                             173   -0.4510 18.5 192 
 BAR2 EZ I         438 38.74        13.6 0.16            170           18.5 192 
 BRR  HZ EP   2    438 24.30                             152    0.14 5 73.5 302 
 BRR  HN ES        438 41.30                             152    0.3910 73.5 302 
 PAM  EZ EP     C  438 25.41                             150    0.0810 81.3  37 
 PAM  EN ES   2    438 42.71                             150   -0.27 5 81.3  37 
 PAM  EZ I         438 46.95         2.9 0.20            151           81.3  37 
 RUS  HZ EP        438 26.42                             146    0.1410 95.7 176 
 RUS  HN ES        438 44.94                             146    0.2710 95.7 176 
 RUS  HZ I         438 46.15         4.4 0.32            144           95.7 176 
 PTB  HZ EP        438 29.24                             133   -0.47 9  147 261 
 PTB  HN ES   2    438 50.06                             133   -0.73 5  147 261 
 PTB  HZ I         438 52.60         3.2 0.26            133            147 261 
 ZAR  HN ES   2    439  1.87                             123    0.90 4  206 293 
 CHI  HZ EP   9    438 41.76                             118    1.78 0  244 195 
 CHI  HN ES   2    439 11.67                             117    0.83 4  244 195 
 CHI  HZ I         439 15.75         1.2 0.36            118            244 195 
                                                                                
