 2017 11 2 0650 55.3 L   6.769 -73.174148.9  RSN  5 0.3 1.2LRSN                1
 GAP=232        0.67       4.6     5.1  7.5  0.7305E+01  0.1322E+02  0.9776E+01E
 Epicentro: LOS SANTOS - SANTANDER                                             3
 ACTION:UPD 17-12-12 19:50 OP:rebc STATUS:               ID:20171102065055 L   I
 OLDACT:DUP 17-11-02 16:30 OP:dnl  STATUS:               ID:20171102064738d    3
 OLDACT:REG 17-11-02 13:36 OP:dnl  STATUS:               ID:20171102064737     3
 2017-11-02-0648-00M.COL___441                                                 6
 STAT SP IPHASW D HRMM SECON CODA AMPLIT PERI AZIMU VELO AIN AR TRES W  DIS CAZ7
 BAR2 EZ EP   2    651 15.07                             172   -0.18 5 19.6 183 
 BAR2 EZ ES        651 30.72                             172   -0.0810 19.6 183 
 BAR2 EZ I         651 32.83         3.9 0.40            171           19.6 183 
 BRR  HZ EP   2    651 17.10                             153    0.35 5 70.2 302 
 BRR  HN ES        651 33.75                             153    0.2910 70.2 302 
 BRR  HZ I         651 41.48         5.2 0.34            152           70.2 302 
 RUS  HZ EP   2    651 19.07                             145   -0.09 5 97.5 174 
 RUS  HN ES        651 37.60                             145   -0.1510 97.5 174 
 RUS  HZ I         651 39.72         1.2 0.34            149           97.5 174 
 PTB  HZ EP   2    651 21.73                             133   -0.48 5  144 260 
 PTB  HN ES        651 42.73                             133   -0.46 9  144 260 
 PTB  HZ I         651 45.82         1.2 0.38            134            144 260 
 SPBC HZ EP   2    651 24.02                             131    0.39 5  159 219 
 SPBC HE ES        651 46.13                             131    0.42 9  159 219 
 SPBC HZ I         651 52.03         2.0 0.26            133            159 219 
                                                                                
