 2016  3 2 0515 50.4 L   6.798 -73.194139.5  RSN  8 0.4 1.3LRSN                1
 GAP=131        0.96       3.1     5.0  6.2 -0.5700E+01  0.9198E+01 -0.5138E+00E
 Epicentro: ZAPATOCA - SANTANDER                                               3
 ACTION:UPD 16-05-13 21:20 OP:cam  STATUS:               ID:20160302051550 L   I
 OLDACT:UP  16-03-02 18:11 OP:mh   STATUS:               ID:20160302050750     3
 OLDACT:UP  16-03-02 18:10 OP:mh   STATUS:               ID:20160302050750     3
 OLDACT:UP  16-03-02 18:10 OP:mh   STATUS:               ID:20160302050750     3
 OLDACT:UP  16-03-02 18:09 OP:mh   STATUS:               ID:20160302050750     3
 OLDACT:UP  16-03-02 18:09 OP:mh   STATUS:               ID:20160302050750     3
 OLDACT:REG 16-03-02 12:53 OP:mh   STATUS:               ID:20160302050750     3
 2016-03-02-0507-50M.COL___316                                                 6
 STAT SP IPHASW D HRMM SECON CODA AMPLIT PERI AZIMU VELO AIN AR TRES W  DIS CAZ7
 BAR2 EZ EP        516  9.63                             170    0.3810 22.8 177 
 BAR2 EZ ES        516 24.33                             170    0.3710 22.8 177 
 BAR2 EZ I         516 25.74         3.3 0.17            166           22.8 177 
 PAM  EZ EP        516 12.52                             148    0.3610 81.1  42 
 PAM  EN ES        516 29.12                             148   -0.0310 81.1  42 
 PAM  EZ I         516 30.84         3.1 0.18            141           81.1  42 
 RUS  HZ EP   1    516 12.62                             142   -0.92 7  101 173 
 RUS  HN ES        516 31.25                             142   -0.3610  101 173 
 RUS  HZ I         516 32.82         2.3 0.32            133            101 173 
 PTB  HZ EP        516 16.31                             132   -0.04 9  142 258 
 PTB  HN ES        516 36.67                             132    0.06 9  142 258 
 PTB  HZ I         516 40.82         2.6 0.10            122            142 258 
 SPBC HZ EP        516 18.32                             128    0.25 9  160 218 
 SPBC HN ES        516 39.75                             128    0.09 9  160 218 
 SPBC HZ I         516 43.53         3.6 0.14            118            160 218 
 OCA  HZ EP        516 18.17                             128   -0.01 9  160 355 
 OCA  HN ES        516 39.30                             128   -0.56 9  160 355 
 OCA  HZ I         516 46.65         5.5 0.16            119            160 355 
 CHI  HZ EP        516 28.22                             116    0.65 8  247 194 
 CHI  HZ I         516 44.29         1.1 0.76            107            247 194 
 CHI  HN ES        516 56.01                             116   -0.56 8  247 194 
 GUY2CHZ EP   1    516 32.90                             111   -0.29 5  297 234 
 GUY2CHN ES   4    517  9.93                             111    3.34 0  297 234 
                                                                                
