 2014  9 2 0535 56.9 L   6.820 -73.157141.6  RSN 14 0.5 2.0LRSN                1
 GAP=134        0.96       2.7     4.3  6.4 -0.1131E+01  0.3272E+01  0.1148E+01E
 Epicentro: LOS SANTOS - SANTANDER                                             3
 ACTION:UPD 14-10-03 23:01 OP:nd   STATUS:               ID:20140902053556 L   I
 OLDACT:UP  14-09-02 17:04 OP:mh   STATUS:               ID:20140902052820d    3
 OLDACT:DUP 14-09-02 16:43 OP:mh   STATUS:               ID:20140902052820d    3
 2014-09-02-0528-19M.COL___260                                                 6
 STAT SP IPHASW D HRMM SECON CODA AMPLIT PERI AZIMU VELO AIN AR TRES W  DIS CAZ7
 BAR2 SZ EP        536 16.17                             169    0.1510 25.3 186 
 BAR2 SZ I         536 32.39        15.7 0.03            170           25.3 186 
 BRR  HZ EP        536 17.48                             153    0.0610 69.0 297 
 BRR  HN ES   1    536 33.96                             153    0.49 7 69.0 297 
 BRR  HZ I         536 35.69        12.7 0.12            152           69.0 297 
 PAM  SZ EP   1    536 18.09                             150   -0.48 7 76.5  41 
 PAM  SE ES   4    536 33.72                             150   -1.79 0 76.5  41 
 PAM  SZ I         536 38.45        21.6 0.60            153           76.5  41 
 RUS  HZ EP        536 20.33                             142   -0.0310  103 175 
 RUS  HN ES        536 39.02                             142    0.3210  103 175 
 RUS  HZ I         536 40.56        14.8 0.38            145            103 175 
 PTB  HZ EP   1    536 22.87                             131   -0.53 7  147 258 
 PTB  HN ES        536 43.48                             131   -0.63 9  147 258 
 PTB  HZ I         536 46.46        13.5 0.35            132            147 258 
 OCA  HZ EP        536 24.90                             129    0.29 9  158 354 
 OCA  HN ES        536 46.03                             129   -0.24 9  158 354 
 OCA  HZ I         536 50.94         9.3 0.24            131            158 354 
 SPBC HZ EP        536 25.34                             128    0.22 9  164 218 
 SPBC HN ES   1    536 47.55                             128    0.38 7  164 218 
 SPBC HZ I         536 49.68        16.8 0.22            130            164 218 
 ZAR  HZ EP   1    536 29.01                             122    0.20 6  202 292 
 ZAR  HN ES   2    536 54.15                             122    0.41 4  202 292 
 ZAR  HZ I         537  2.29        10.4 0.21            123            202 292 
 NOR  HZ EP        536 32.79                             117    0.43 8  235 234 
 NOR  HN ES   1    537  0.46                             117    0.40 6  235 234 
 NOR  HZ I         537  7.27         7.4 0.10            119            235 234 
 SML  HZ EP   1    536 32.78                             117   -0.19 6  241 335 
 SML  HN ES   1    537  0.67                             117   -0.47 6  241 335 
 SML  HZ I         537  4.88        18.8 0.13            118            241 335 
 CHI  HZ EP        536 34.18                             116   -0.34 8  250 195 
 CHI  HN ES        537  2.96                             116   -0.93 8  250 195 
 CHI  HZ I         537  6.98         4.2 0.32            118            250 195 
 HEL  HZ EP        536 37.70                             114    0.93 8  271 255 
 HEL  HN ES        537  7.29                             114   -0.62 8  271 255 
 HEL  HZ I         537 14.83         5.7 0.57            115            271 255 
 GUY2CHZ EP        536 40.97                             111    0.68 7  301 234 
 GUY2CHN ES   4    537 16.95                             111    2.77 0  301 234 
 GUY2CHZ I         537 22.99         5.5 0.61                           301 234 
 PRA  HZ EP   1    536 50.00                             106   -0.38 4  393 209 
 PRA  HN ES   1    537 31.60                             106   -0.53 4  393 209 
 PRA  HZ I         537 38.78         5.4 0.22            107            393 209 
 SJC  HZ EP   4    536 50.07                             105   -1.90 0  407 327 
 SJC  HN ES   4    537 31.47                             105   -3.50 0  407 327 
                                                                                
