 2015  8 2 0917 53.9 L   6.825 -73.098143.1  RSN 12 0.4 2.2LRSN                1
 GAP=188        0.99       3.0     4.9  5.6 -0.9344E+00  0.1048E+02 -0.1355E+01E
 Epicentro: LOS SANTOS - SANTANDER                                             3
 ACTION:UPD 15-09-15 22:59 OP:cam  STATUS:               ID:20150802091753 L   I
 OLDACT:REG 15-08-02 12:22 OP:drio STATUS:               ID:20150802090747     3
 2015-08-02-0907-47M.COL___340                                                 6
 STAT SP IPHASW D HRMM SECON CODA AMPLIT PERI AZIMU VELO AIN AR TRES W  DIS CAZ7
 BAR2 EZ IP     C  918 13.25                             169   -0.0610 27.4 200 
 BAR2 EZ ES        918 27.91                             169   -0.5310 27.4 200 
 BAR2 EZ I         918 29.37        45.8 0.22            168           27.4 200 
 BRR  HZ EP     C  918 15.19                             151    0.2110 74.6 295 
 BRR  HE ES        918 32.11                             151    0.7110 74.6 295 
 BRR  HZ I         918 36.27        26.7 0.12            148           74.6 295 
 RUS  HZ EP        918 18.24                             142    0.6510  103 179 
 RUS  HN ES        918 35.73                             142   -0.3210  103 179 
 RUS  HZ I         918 36.08        12.0 0.22            147            103 179 
 OCA  HZ EP        918 21.58                             129   -0.25 9  158 351 
 OCA  HN ES        918 43.64                             129    0.04 9  158 351 
 OCA  HZ I         918 48.40        47.1 0.18            131            158 351 
 ZAR  HZ EP        918 26.71                             121    0.12 8  208 291 
 ZAR  HN ES        918 52.21                             121    0.14 8  208 291 
 ZAR  HZ I         919  0.05        20.2 0.46            122            208 291 
 NOR  HZ EP        918 29.70                             117   -0.43 8  241 235 
 NOR  HE ES        918 58.27                             117   -0.10 8  241 235 
 NOR  HZ I         919  2.96         6.1 0.18            119            241 235 
 SML  HZ EP        918 29.86                             117   -0.51 8  243 334 
 SML  HN ES        918 58.50                             117   -0.30 8  243 334 
 SML  HZ I         919  4.57        18.7 0.10            118            243 334 
 HEL  HZ EP        918 34.63                             114   -0.01 7  278 256 
 HEL  HE ES   4    919  3.02                             114   -3.38 0  278 256 
 HEL  HZ I         919 12.23         7.4 0.34            115            278 256 
 URE  HZ EP        918 35.50                             113    0.21 7  288 291 
 URE  HN ES   4    919  5.69                             113   -1.87 0  288 291 
 URE  HZ I         919  7.35        12.3 0.14            114            288 291 
 GUY2CHZ EP        918 38.85                             111    0.78 7  307 235 
 GUY2CHN ES        919 12.78                             111    0.28 7  307 235 
 GUY2CHZ I         919 20.82         5.5 0.74                           307 235 
 CBOC HZ EP        918 41.37                             109   -0.02 7  339 252 
 CBOC HE ES        919 17.37                             109   -1.05 7  339 252 
 CBOC HZ I         919 21.56         2.2 0.56            110            339 252 
 MON  HZ EP   4    918 41.21                             108   -1.89 0  356 308 
 MON  HN ES   4    919 19.75                             108   -1.71 0  356 308 
 MON  HZ I    4    919 20.49         6.0 0.18            109            356 308 
 SJC  HZ EP   4    918 48.23                             105   -1.23 0  410 326 
 SJC  HN ES   4    919 28.98                             105   -3.80 0  410 326 
 SJC  HZ I         919 33.31         6.0 0.44            107            410 326 
                                                                                
