 2012  6 2 0741 36.1 L   6.828 -73.165144.0  RSN  5 0.3 1.6LRSN                1
 GAP=243        0.49       8.1     4.7  7.2  0.1956E+02  0.1065E+00 -0.1234E+02E
 Epicentro: LOS SANTOS - SANTANDER                                             3
 ACTION:UPD 12-08-06 17:46 OP:ep   STATUS:               ID:20120602074134 L   I
 2012-06-02-0740-00M.COL___201                                                 6
 STAT SP IPHASW D HRMM SECON CODA AMPLIT PERI AZIMU VELO AIN AR TRES W  DIS CAZ7
 BAR2 SZ EP        741 55.71                             169    0.1010 26.1 184 
 BAR2 SZ ES   2    742 10.92                             169    0.11 5 26.1 184 
 RUS  HZ EP   1    741 59.65                             143   -0.30 7  104 175 
 RUS  HN ES   2    742 18.79                             143    0.26 5  104 175 
 RUS  HZ I         742 20.01         4.1 0.28            148            104 175 
 PTB  HZ EP   1    742  2.56                             132   -0.26 7  146 257 
 PTB  HN ES   1    742 23.62                             132   -0.02 7  146 257 
 PTB  HZ I         742 27.02         4.1 0.19            133            146 257 
 ZAR  HN ES   2    742 33.10                             123    0.00 4  201 292 
 ZAR  HZ I         742 39.82         7.0 0.22            123            201 292 
 HEL  HZ EP   2    742 16.91                             115    0.80 4  271 255 
                                                                                
