 2013  4 2 0250 35.1 L   6.801 -73.161148.9  RSN  5 0.3 1.2LRSN                1
 GAP=236        0.62       6.7     7.2  7.5  0.3176E+02 -0.1725E+01 -0.1484E+01E
 Epicentro: LOS SANTOS - SANTANDER                                             3
 ACTION:UPD 13-05-22 14:35 OP:EP   STATUS:               ID:20130402025035 L   I
 2013-04-02-0250-00M.COL___245                                                 6
 STAT SP IPHASW D HRMM SECON CODA AMPLIT PERI AZIMU VELO AIN AR TRES W  DIS CAZ7
 BAR2 SZ EP   1    250 54.84                             171   -0.28 7 23.2 186 
 BRR  HZ EP        250 56.62                             154    0.1010 69.7 299 
 BRR  HE ES   1    251 13.17                             154   -0.05 7 69.7 299 
 BRR  HZ I         251 15.10         5.6 0.44            154           69.7 299 
 RUS  HZ EP        250 59.48                             145    0.2910  101 175 
 RUS  HN ES   1    251 17.95                             145   -0.03 7  101 175 
 RUS  HZ I         251 21.53         1.0 0.54            144            101 175 
 PTB  HZ EP        251  1.84                             133   -0.36 9  146 259 
 PTB  HN ES   2    251 23.17                             133   -0.15 5  146 259 
 PTB  HZ I         251 26.91         3.2 0.18            133            146 259 
 ZAR  HE ES   2    251 33.79                             123    0.85 4  202 292 
                                                                                
