 2013  2 2 0225 56.0 L   6.781 -73.172142.4  RSN  6 0.1 1.5LRSN                1
 GAP= 99        0.41       2.1     2.0  2.8 -0.1647E+00 -0.3247E+00  0.4492E+00E
 Epicentro: LOS SANTOS - SANTANDER                                             3
 ACTION:UPD 13-03-12 09:29 OP:ep   STATUS:               ID:20130202022556 L   I
 2013-02-02-0218-50M.COL___179                                                 6
 STAT SP IPHASW D HRMM SECON CODA AMPLIT PERI AZIMU VELO AIN AR TRES W  DIS CAZ7
 BAR2 SZ ES        226 30.27                             171    0.0910 21.0 183 
 BRR  HZ EP        226 16.98                             152    0.2410 69.7 301 
 BRR  HN ES        226 32.89                             152    0.0110 69.7 301 
 PAM  SZ EP        226 18.11                             149    0.0010 80.8  40 
 PAM  SZ I         226 18.26         7.2 0.20            152           80.8  40 
 PAM  SN ES        226 35.23                             149   -0.0910 80.8  40 
 RUS  HZ EP        226 19.46                             144    0.1310 98.8 174 
 RUS  HN ES        226 37.46                             144   -0.0410 98.8 174 
 RUS  HN I         226 39.58         3.6 0.36            143           98.8 174 
 PTB  HZ EP        226 22.36                             132   -0.08 9  145 259 
 PTB  HE ES   1    226 42.73                             132   -0.30 7  145 259 
 PTB  HE I         226 48.25         4.1 0.38            130            145 259 
 TAM  HZ EP        226 23.52                             129   -0.15 9  157 104 
                                                                                
