 2017  3 2 0325 40.8 L   6.736 -73.157144.0  RSN  5 0.3 1.3LRSN                1
 GAP=231        0.62       7.5     4.8  6.4  0.1715E+02  0.3231E+01  0.4860E+01E
 Epicentro: LOS SANTOS - SANTANDER                                             3
 ACTION:UPD 17-05-25 18:34 OP:jn   STATUS:               ID:20170302032540 L   I
 OLDACT:UP  17-03-02 15:18 OP:and  STATUS:               ID:20170302030615     3
 OLDACT:UP  17-03-02 15:18 OP:and  STATUS:               ID:20170302030615     3
 OLDACT:UP  17-03-02 15:18 OP:and  STATUS:               ID:20170302030615     3
 OLDACT:UP  17-03-02 15:17 OP:and  STATUS:               ID:20170302030615     3
 OLDACT:REG 17-03-02 12:39 OP:and  STATUS:               ID:20170302030615     3
 2017-03-02-0318-00M.COL___390                                                 6
 STAT SP IPHASW D HRMM SECON CODA AMPLIT PERI AZIMU VELO AIN AR TRES W  DIS CAZ7
 BAR2 EZ EP        326  0.08                             173   -0.0210 16.2 190 
 BAR2 EZ ES        326 14.81                             173   -0.3410 16.2 190 
 BRR  HZ EP   2    326  2.12                             151    0.21 5 73.8 304 
 BRR  HE ES   2    326 19.04                             151    0.67 5 73.8 304 
 BRR  HZ I         326 23.85         4.2 0.24            147           73.8 304 
 RUS  HZ EP        326  4.00                             145    0.1110 93.7 175 
 RUS  HN ES   2    326 22.56                             145    0.66 5 93.7 175 
 RUS  HZ I         326 24.06         1.6 0.26            152           93.7 175 
 PTB  HZ EP   2    326  6.88                             132   -0.53 5  145 261 
 PTB  HN ES        326 28.07                             132   -0.08 9  145 261 
 PTB  HZ I         326 30.28         3.8 0.16            132            145 261 
 ZAR  HN ES   2    326 38.95                             121    0.30 4  206 294 
 ZAR  HZ I         326 47.31         3.0 0.46            121            206 294 
                                                                                
