 2012 12 2 0025 56.4 L   6.815 -73.176144.5  RSN  7 0.3 2.0LRSN                1
 GAP=132        0.69       3.8     3.9  6.1 -0.3111E+00  0.6116E+01 -0.1232E+01E
 Epicentro: LOS SANTOS - SANTANDER                                             3
 ACTION:UPD 13-01-04 14:25 OP:ep   STATUS:               ID:20121202002556 L   I
 2012-12-02-0020-00M.COL___236                                                 6
 STAT SP IPHASW D HRMM SECON CODA AMPLIT PERI AZIMU VELO AIN AR TRES W  DIS CAZ7
 BAR2 SZ EP        026 16.16                             170    0.2210 24.7 182 
 BAR2 SZ ES   1    026 31.05                             170   -0.10 7 24.7 182 
 BAR2 SZ I         026 32.44        36.6 0.26                          24.7 182 
 GIR2 SZ EP        026 15.99                             168    0.0910 29.2 356 
 PAM  SZ EP        026 18.89                             150    0.3210 78.3  42 
 PAM  SZ I         026 19.26        25.8 0.23                          78.3  42 
 PAM  SE ES   1    026 35.29                             150   -0.54 7 78.3  42 
 RUS  HZ EP        026 20.08                             143   -0.1310  103 174 
 RUS  HE ES        026 38.93                             143    0.1810  103 174 
 RUS  HE I         026 40.84        12.6 0.22                           103 174 
 PTB  HZ EP        026 22.58                             132   -0.45 9  145 258 
 PTB  HE ES   1    026 43.62                             132   -0.16 7  145 258 
 PTB  HZ I         026 50.84         8.9 0.45                           145 258 
 ZAR  HN ES   1    026 53.85                             123    0.50 6  200 292 
 ZAR  HZ I         027  1.85         7.7 0.30                           200 292 
 CHI  HZ EP   1    026 34.02                             117   -0.13 6  249 194 
                                                                                
