 2012 12 2 0153 36.2 L   6.820 -73.152148.2  RSN  6 0.2 1.7LRSN                1
 GAP=135        0.59       3.3     3.5  5.2 -0.1001E+01  0.6862E+01 -0.1289E+01E
 Epicentro: LOS SANTOS - SANTANDER                                             3
 ACTION:UPD 13-01-04 14:25 OP:ep   STATUS:               ID:20121202015336 L   I
 2012-12-02-0150-00M.COL___236                                                 6
 STAT SP IPHASW D HRMM SECON CODA AMPLIT PERI AZIMU VELO AIN AR TRES W  DIS CAZ7
 BAR2 SZ ES        154 11.85                             170    0.0810 25.4 188 
 BAR2 SZ I         154 12.78        22.5 0.31                          25.4 188 
 GIR2 SZ EP        153 56.43                             168    0.2910 29.0 351 
 PAM  SZ EP   1    153 58.50                             152   -0.14 7 76.2  41 
 PAM  SN ES        154 15.97                             152   -0.1410 76.2  41 
 PAM  SZ I         154 17.83         7.0 0.24                          76.2  41 
 RUS  HZ EP        154  0.67                             144    0.2910  103 176 
 RUS  HN ES        154 19.04                             144   -0.1810  103 176 
 RUS  HN I         154 19.98         7.2 0.22                           103 176 
 PTB  HZ EP        154  2.97                             133   -0.41 9  147 258 
 PTB  HN ES   1    154 24.63                             133    0.09 7  147 258 
 PTB  HZ I         154 27.84         4.5 0.17                           147 258 
 ZAR  HE ES   1    154 34.11                             123    0.11 6  203 292 
 ZAR  HZ I         154 40.28         6.6 0.42                           203 292 
                                                                                
