 2011  4 2 0858 31.1 L   6.751 -73.094138.4  RSN  7 0.5 2.2LRSN                1
 GAP=176        1.09       6.8     9.1  9.5 -0.3192E+02 -0.1684E+01 -0.2980E+01E
 Epicentro: LOS SANTOS - SANTANDER                                             3
 ACTION:UP  11-06-22 15:28 OP:REBC STATUS:               ID:20110402085831 L   I
 2011-04-02-0840-00M.COL___139                                                 6
 STAT SP IPHASW D HRMM SECON CODA AMPLIT PERI AZIMU VELO SNR AR TRES W  DIS CAZ7
 BAR2 SZ IP        858 49.70                             171    -0.110   20 209 
 BAR2 SZ ES   1    859  3.88                             171    -0.5 7   20 209 
 BAR2 SZ I         859  5.73        41.1 0.25                            20 209 
 GIR2 SZ EP        858 51.10                             164     1.010   38 343 
 PAM  SZ EP        858 52.67                             149     0.110   78  34 
 PAM  SN ES   2    859  9.38                             149     0.0 5   78  34 
 BRR  HZ EP   2    858 51.72                             149    -0.2 5   79 300 
 BRR  HN ES   1    859  8.61                             149     0.4 7   79 300 
 GRA  SZ IP        858 55.73                             134    -0.310  129  14 
 GRA  SZ ES   1    859 14.81                             134    -0.6 7  129  14 
 GRA  SZ I         859 16.25        16.7 0.35                           129  14 
 OCA  SZ EP        858 59.42                             127     0.0 9  166 351 
 OCA  SZ ES   1    859 21.36                             127    -0.2 7  166 351 
 OCA  SZ I         859 25.56        21.5 0.58                           166 351 
 NOR  SZ EP   2    859  5.85                             117    -0.7 4  236 236 
 NOR  SN ES   1    859 33.79                             117    -0.5 6  236 236 
                                                                                
