 2013  1 2 0323  4.5 L   6.794 -73.150144.8  RSN  7 0.5 2.0LRSN                1
 GAP=182        1.26       4.3     6.7  7.8  0.6831E+01  0.4685E+01 -0.2565E-01E
 Epicentro: LOS SANTOS - SANTANDER                                             3
 ACTION:UPD 13-02-15 09:11 OP:ep   STATUS:               ID:20130102032304 L   I
 2013-01-02-0320-00M.COL___242                                                 6
 STAT SP IPHASW D HRMM SECON CODA AMPLIT PERI AZIMU VELO AIN AR TRES W  DIS CAZ7
 BAR2 SZ EP        323 24.05                             171    0.0110 22.6 189 
 BAR2 SZ ES        323 39.41                             171    0.1610 22.6 189 
 BAR2 SZ I         323 40.56        12.2 0.10            171           22.6 189 
 BRR  HZ EP        323 25.94                             152    0.3710 71.1 299 
 BRR  HN ES        323 42.96                             152    0.9710 71.1 299 
 BRR  HN I         323 43.98        16.0 0.22            153           71.1 299 
 RUS  HZ EP        323 28.11                             144   -0.0410100.0 176 
 RUS  HN ES        323 46.22                             144   -0.3510100.0 176 
 RUS  HN I         323 48.16        16.4 0.26            145          100.0 176 
 PTB  HZ EP        323 30.89                             132   -0.48 9  147 259 
 PTB  HN ES        323 51.56                             132   -0.74 9  147 259 
 PTB  HN I         323 54.09        12.6 0.22            133            147 259 
 OCA  HZ EP        323 33.04                             129    0.22 9  161 353 
 OCA  HN ES        323 53.91                             129   -0.98 9  161 353 
 OCA  HN I         323 59.31        23.0 0.30            130            161 353 
 ZAR  HZ EP        323 37.47                             122    0.57 9  204 292 
 ZAR  HN ES        324  2.12                             122   -0.02 9  204 292 
 CHI  HZ EP        323 42.35                             117    0.25 8  248 195 
 CHI  HN ES        324 11.43                             117    0.03 8  248 195 
 CHI  HN I         324 15.94         4.4 0.58            118            248 195 
                                                                                
