 2010  9 2 0328 12.3 L   6.797 -73.024144.2  RSN 13 0.5 2.4LRSN                1
 GAP=135        1.12       4.0     7.9  7.2 -0.1464E+02 -0.2503E+01  0.4787E+01E
 Epicentro: CEPITA - SANTANDER                                                 3
 ACTION:UP  11-02-18 10:59 OP:tino STATUS:               ID:20100902032812 L   I
 2010-09-02-0325-21S.COL___120                                                 6
 STAT SP IPHASW D HRMM SECON CODA AMPLIT PERI AZIMU VELO SNR AR TRES W  DIS CAZ7
 BAR2 SZ IP        328 31.92                             168     0.110   29 218 
 BAR2 SZ I         328 32.20        43.9 0.12                            29 218 
 BAR2 SZ ES   1    328 46.62                             168    -0.5 7   29 218 
 BRR  HZ EP        328 33.83                             148    -0.210   83 294 
 BRR  HN ES   1    328 50.92                             148     0.0 7   83 294 
 BRR  HZ I         328 53.55        55.9 0.11                            83 294 
 RUS  HZ IP     D  328 35.78                             143    -0.110  100 184 
 RUS  HN ES   1    328 54.83                             143     0.6 7  100 184 
 RUS  HZ I         328 57.45        14.3 0.23                           100 184 
 GUE  SZ EP        328 37.41                             139     0.710  115   5 
 GRA  SZ EP        328 36.76                             137    -0.410  123  11 
 GRA  SZ ES   1    328 55.78                             137    -0.7 7  123  11 
 GRA  SZ I         328 57.53        40.7 0.46                           123  11 
 OCA  SZ EP   1    328 40.56                             129    -0.1 7  163 348 
 OCA  SZ ES   1    329  3.62                             129     0.7 7  163 348 
 OCA  SZ I         329 10.81        17.4 0.35                           163 348 
 CHI  HZ EP        328 50.02                             116    -0.3 8  252 198 
 CHI  HE ES   1    329 19.55                             116    -0.4 6  252 198 
 CHI  HZ I         329 25.27        10.5 0.32                           252 198 
 ROSC BZ EP   1    328 52.00                             116     0.9 6  260 214 
 ROSC BN ES   1    329 22.01                             116     0.7 6  260 214 
 ROSC BZ I         329 27.98        16.2 0.26                           260 214 
 HEL  HZ EP   1    328 53.65                             113    -0.2 6  285 257 
 HEL  HZ I         329 30.43        11.9 0.24                           285 257 
 GUY  SZ EP   1    328 56.54                             111    -0.5 5  312 236 
 GUY  SZ I         329 39.48        50.8 0.21                           312 236 
 RREF HZ EP   1    328 59.43                             110    -0.1 5  332 231 
 RREF HN ES   2    329 36.94                             110     0.6 3  332 231 
 RREF HZ I         329 43.43        19.6 0.37                           332 231 
 SDV  BZ IP     D  329  1.32                             108     0.2 6  350  49 
 SDV  BZ I         329  2.39         6.7 0.41                           350  49 
 PRA  HZ EP   1    329  5.58                             106    -0.9 4  399 211 
 PRA  HN ES   1    329 48.51                             106    -0.3 4  399 211 
 PRA  HZ I         329 53.65        14.1 0.15                           399 211 
                                                                                
