 2017  1 2 0838 43.7 L   6.743 -73.172153.7  RSN  5 0.4 1.1LRSN                1
 GAP=230        0.99       9.4     7.3  8.7  0.4190E+02  0.2052E+01 -0.2742E+02E
 Epicentro: LOS SANTOS - SANTANDER                                             3
 ACTION:UPD 17-05-22 15:54 OP:jn   STATUS:               ID:20170102083843 L   I
 OLDACT:UP  17-04-19 19:04 OP:nlst STATUS:               ID:20170102083843 L   3
 OLDACT:REG 17-01-02 12:44 OP:lv   STATUS:               ID:20170102083749     3
 2017-01-02-0838-00M.COL___366                                                 6
 STAT SP IPHASW D HRMM SECON CODA AMPLIT PERI AZIMU VELO AIN AR TRES W  DIS CAZ7
 BAR2 EZ EP        839  3.76                             173   -0.3810 16.7 184 
 BAR2 EZ ES        839 19.98                             173   -0.1310 16.7 184 
 BRR  HZ EP   1    839  5.51                             154   -0.21 7 72.0 304 
 RUS  HZ EP        839  8.00                             147    0.2010 94.5 174 
 RUS  HN ES        839 27.07                             147    0.4610 94.5 174 
 RUS  HZ I         839 27.33         1.2 0.22            148           94.5 174 
 PTB  HZ EP        839 10.80                             135   -0.15 9  144 261 
 PTB  HN ES        839 31.63                             135   -0.59 9  144 261 
 PTB  HZ I         839 36.32         2.0 0.14            133            144 261 
 ZAR  HZ EP        839 16.69                             124    0.07 9  204 294 
 ZAR  HN ES        839 43.12                             124    0.80 9  204 294 
 ZAR  HZ I         839 48.22         1.2 0.30            124            204 294 
                                                                                
