 2012  1 2 0311  1.7 L   7.505 -73.028158.2  RSN  8 0.4 1.9LRSN                1
 GAP=138        0.71       4.6     5.5  6.4 -0.1026E+01  0.7386E+01 -0.2002E+01E
 Epicentro: SURATA - SANTANDER                                                 3
 ACTION:UP  12-02-03 08:13 OP:REBC STATUS:               ID:20120102031101 L   I
 2012-01-02-0310-00M.COL___186                                                 6
 STAT SP IPHASW D HRMM SECON CODA AMPLIT PERI AZIMU VELO SNR AR TRES W  DIS CAZ7
 PAM  SZ EP   1    311 23.58                             165    -0.1 7   41 117 
 PAM  SE ES   1    311 40.34                             165    -0.4 7   41 117 
 BRR  HZ EP   1    311 25.04                             150    -0.1 7   87 240 
 BRR  HN ES   1    311 44.11                             150     0.7 7   87 240 
 BRR  HZ I         311 45.88        14.6 0.12                            87 240 
 OCA  SZ EP        311 25.76                             150     0.410   87 338 
 OCA  SZ I         311 26.13        15.2 0.17                            87 338 
 OCA  SZ ES   2    311 43.44                             150    -0.4 5   87 338 
 BAR2 SZ EP   1    311 26.49                             146     0.0 7  102 190 
 BAR2 SZ ES   1    311 46.02                             146     0.2 7  102 190 
 BAR2 SZ I         311 47.31         8.6 0.16                           102 190 
 RUS  HZ EP   1    311 33.13                             129     0.0 7  178 182 
 RUS  HE ES   2    311 57.79                             129     0.1 4  178 182 
 PTB  HZ EP   1    311 33.21                             127    -0.5 7  191 236 
 PTB  HN ES   2    311 58.27                             127    -0.4 4  191 236 
 ZAR  HZ EP   2    311 34.73                             125    -0.1 4  202 270 
 ZAR  HN ES   2    311 59.84                             125    -0.8 4  202 270 
 HEL  HZ EP   2    311 47.28                             114     0.2 3  312 242 
                                                                                
