 2016  6 2 0446 59.2 L   6.806 -73.151147.5  RSN  7 0.5 1.5LRSN                1
 GAP=182        1.24       4.1     7.5  7.8 -0.1237E+01 -0.7684E+00  0.2229E+01E
 Epicentro: LOS SANTOS - SANTANDER                                             3
 ACTION:UPD 16-07-21 22:14 OP:rebc STATUS:               ID:20160602044659 L   I
 OLDACT:DUP 16-06-02 18:57 OP:edw  STATUS:               ID:20160602043746d    3
 2016-06-02-0437-45M.COL___307                                                 6
 STAT SP IPHASW D HRMM SECON CODA AMPLIT PERI AZIMU VELO AIN AR TRES W  DIS CAZ7
 BAR2 EZ EP        447 19.00                             170   -0.0210 23.9 188 
 BAR2 EZ ES        447 33.77                             170   -0.7310 23.9 188 
 BAR2 EZ I         447 35.20         8.2 0.22                          23.9 188 
 BRR  HZ EP        447 20.82                             153    0.3610 70.4 298 
 BRR  HE ES        447 38.23                             153    1.1610 70.4 298 
 BRR  HZ I         447 40.99         6.2 0.26                          70.4 298 
 RUS  HZ EP        447 23.24                             144    0.1010  101 176 
 RUS  HE ES        447 42.00                             144    0.1610  101 176 
 RUS  HZ I         447 42.71         4.5 0.28                           101 176 
 PTB  HZ EP        447 25.71                             132   -0.53 9  147 259 
 PTB  HN ES        447 46.72                             132   -0.64 9  147 259 
 PTB  HZ I         447 49.69         3.7 0.12                           147 259 
 OCA  HZ EP        447 27.63                             130    0.08 9  160 353 
 OCA  HE ES        447 49.20                             130   -0.49 9  160 353 
 OCA  HZ I         447 56.98         5.7 0.48                           160 353 
 SPBC HZ EP        447 28.16                             129    0.34 9  163 219 
 SPBC HN ES        447 50.27                             129    0.11 9  163 219 
 SPBC HZ I         447 54.44         5.9 0.24                           163 219 
 CHI  HZ EP        447 37.05                             117    0.03 8  249 195 
 CHI  HE ES        448  6.45                             117   -0.08 8  249 195 
 CHI  HZ I         448 11.74         1.7 0.25                           249 195 
                                                                                
