 2015  3 2 0509  7.4 L   6.794 -73.142149.1  RSN 10 0.3 1.5LRSN                1
 GAP=137        0.81       2.7     3.8  4.8 -0.2083E+01  0.2860E+01  0.1390E+01E
 Epicentro: LOS SANTOS - SANTANDER                                             3
 ACTION:UPD 15-04-30 16:22 OP:nd   STATUS:               ID:20150302050907 L   I
 OLDACT:REG 15-03-02 12:37 OP:spq  STATUS:               ID:20150302050740     3
 2015-03-02-0507-40M.COL___290                                                 6
 STAT SP IPHASW D HRMM SECON CODA AMPLIT PERI AZIMU VELO AIN AR TRES W  DIS CAZ7
 BAR2 EZ EP   1    5 9 27.38                             171   -0.04 7 22.8 191 
 BAR2 EZ ES   1    5 9 42.51                             171   -0.53 7 22.8 191 
 BAR2 EZ I         5 9 43.82         6.7 0.22            169           22.8 191 
 BRR  HZ EP   1    5 9 29.39                             153    0.44 7 71.9 299 
 BRR  HN ES        5 9 46.42                             153    0.6610 71.9 299 
 BRR  HZ I         5 9 50.89         4.7 0.32            152           71.9 299 
 PAM  SZ EP     C  5 9 30.13                             151    0.1510 77.6  39 
 PAM  SN ES        5 9 47.65                             151    0.0510 77.6  39 
 PAM  SZ I         5 9 48.52         2.6 0.19            155           77.6  39 
 RUS  HZ EP        5 9 31.18                             145   -0.2610 99.9 176 
 RUS  HE ES   1    5 9 50.04                             145   -0.14 7 99.9 176 
 RUS  HZ I         5 9 52.79         3.2 0.38            145           99.9 176 
 PTB  HZ EP        5 9 34.36                             133   -0.31 9  148 259 
 PTB  HE ES        5 9 55.71                             133   -0.23 9  148 259 
 PTB  HZ I         5 9 57.44         4.5 0.22            133            148 259 
 SPBC HZ EP        5 9 36.28                             130    0.14 9  163 219 
 SPBC HN ES        5 9 58.35                             130   -0.20 9  163 219 
 SPBC HZ I         510  1.05         5.3 0.30            130            163 219 
 NOR  HZ EP        5 9 43.96                             119    0.63 8  235 235 
 NOR  HE ES   1    510 11.18                             119   -0.17 6  235 235 
 NOR  HZ I         510 16.71         2.8 0.82            120            235 235 
 SML  HZ EP        5 9 43.83                             118   -0.47 8  244 335 
 SML  HN ES        510 12.75                             118   -0.33 8  244 335 
 SML  HZ I         510 17.05         4.1 0.10            119            244 335 
 CHI  HZ EP        5 9 45.59                             118    0.36 8  248 195 
 CHI  HN ES   1    510 14.74                             118   -0.00 6  248 195 
 CHI  HZ I         510 23.29         1.0 0.42            119            248 195 
 GUY2CHN ES   4    510 27.98                             113    2.68 0  301 235 
 GUY2CHZ I         510 35.83         1.5 0.52                           301 235 
                                                                                
