 2011  8 2 0717 45.1 L   6.801 -73.041149.8  RSN  5 0.2 1.2LRSN                1
 GAP=150        0.46       3.8     5.1  5.0 -0.1627E+01 -0.2049E+01  0.2338E+01E
 Epicentro: CEPITA - SANTANDER                                                 3
 ACTION:UPD 12-07-25 14:05 OP:epov STATUS:               ID:20110802071745 L   I
 2011-08-02-0700-00M.COL___140                                                 6
 STAT SP IPHASW D HRMM SECON CODA AMPLIT PERI AZIMU VELO AIN AR TRES W  DIS CAZ7
 BAR2 SZ EP   1    718  5.36                             169    0.00 7 27.9 214 
 BAR2 SZ ES   1    718 21.38                             169    0.25 7 27.9 214 
 BAR2 SZ I         718 21.80         3.9 0.52                          27.9 214 
 PAM  SZ EP   2    718  7.83                             154    0.42 5 70.5  32 
 PAM  SN ES   1    718 24.49                             154   -0.28 7 70.5  32 
 BRR  HZ EP   1    718  7.13                             150   -0.21 7 81.6 295 
 BRR  HZ I         718  9.56         5.0 0.50                          81.6 295 
 BRR  HE ES   1    718 24.65                             150    0.00 7 81.6 295 
 RUS  HZ EP   1    718  9.20                             145   -0.10 7  101 183 
 RUS  HZ I         718 10.43         1.4 0.62                           101 183 
 RUS  HE ES   2    718 28.04                             145   -0.09 5  101 183 
 BRI  SZ EP   2    718  9.59                             143    0.43 5  105  15 
                                                                                
