 2014  1 2 0123 16.4 L   6.945 -72.911180.8  RSN  4 0.3 1.1LRSN                1
 GAP=161        0.81       6.4     6.4  8.9  0.7350E+01 -0.1718E+02 -0.1267E+02E
 Epicentro: SANTA BARBARA - SANTANDER                                          3
 ACTION:UPD 14-03-13 09:50 OP:ep   STATUS:               ID:20140102012316 L   I
 OLDACT:DUP 14-01-02 09:54 OP:stll STATUS:               ID:20140102011809d    3
 2014-01-02-0118-07M.COL___243                                                 6
 STAT SP IPHASW D HRMM SECON CODA AMPLIT PERI AZIMU VELO AIN AR TRES W  DIS CAZ7
 PAM  SZ EP        123 40.95                             164   -0.2810 49.5  28 
 PAM  SZ I         123 41.00         1.7 0.16            166           49.5  28 
 BRR  HZ EP        123 42.16                             152   -0.2010 90.2 282 
 BRR  HN ES        124  3.05                             152    0.4110 90.2 282 
 RUS  HZ EP        123 45.21                             146    0.4010  118 189 
 RUS  HN ES        124  6.84                             146   -0.1710  118 189 
 RUS  HZ I         124  8.60         1.5 0.42            145            118 189 
 PTB  HZ EP        123 49.02                             134    0.22 9  177 255 
 PTB  HN ES        124 13.70                             134   -0.41 9  177 255 
 PTB  HZ I         124 15.27         1.4 0.18            134            177 255 
                                                                                
