 2013  9 2 0350 32.1 L   6.810 -73.123149.4  RSN 16 0.5 2.4LRSN                1
 GAP=139        1.03       2.7     4.7  5.5 -0.7628E+00  0.5945E+01  0.4409E-01E
 Epicentro: LOS SANTOS - SANTANDER                                             3
 ACTION:UPD 13-10-22 09:19 OP:ep   STATUS:               ID:20130902035032 L   I
 OLDACT:UP  13-09-02 09:07 OP:cam  STATUS:               ID:20130902034959     3
 OLDACT:REG 13-09-02 07:53 OP:cam  STATUS:               ID:20130902034959     3
 2013-09-02-0349-59M.COL___269                                                 6
 STAT SP IPHASW D HRMM SECON CODA AMPLIT PERI AZIMU VELO AIN AR TRES W  DIS CAZ7
 BAR2 SZ EP     D  350 52.20                             170   -0.0210 24.9 195 
 BAR2 SZ ES        351  7.61                             170   -0.2910 24.9 195 
 BAR2 SZ I         351  8.46        42.9 0.32            166           24.9 195 
 BRR  HZ IP     C  350 54.05                             153    0.2910 72.9 297 
 BRR  HN ES        351 11.54                             153    0.9010 72.9 297 
 BRR  HZ I         351 13.88        31.7 0.36            143           72.9 297 
 PAM  SZ EP     C  350 54.96                             152    0.3710 75.0  39 
 PAM  SN ES        351 12.39                             152    0.2810 75.0  39 
 PAM  SZ I         351 16.48        17.0 0.40            151           75.0  39 
 RUS  HZ EP        350 56.37                             144    0.0710  102 177 
 RUS  HN ES        351 14.69                             144   -0.4710  102 177 
 RUS  HZ I         351 15.84        33.1 0.26            141            102 177 
 PTB  HZ EP   4    350 58.77                             132   -0.86 0  150 259 
 PTB  HN ES   4    351 20.34                             132   -0.74 0  150 259 
 PTB  HZ I         351 25.90        24.3 0.16            125            150 259 
 OCA  HZ EP        351  0.39                             131   -0.26 9  160 352 
 OCA  HN ES        351 22.33                             131   -0.56 9  160 352 
 OCA  HZ I         351 27.93        44.9 0.26            125            160 352 
 SPBC HZ EP        351  1.12                             129   -0.01 9  166 219 
 SPBC HN ES        351 23.39                             129   -0.36 9  166 219 
 SPBC HZ I         351 27.04        51.1 0.22            123            166 219 
 ZAR  HZ EP        351  5.71                             123    0.71 8  206 292 
 ZAR  HE ES        351 30.53                             123   -0.11 8  206 292 
 ZAR  HZ I         351 36.06        39.1 0.42            116            206 292 
 NOR  HN ES   1    351 36.06                             119   -0.54 6  237 235 
 NOR  HZ I         351 41.38        24.8 0.26            113            237 235 
 SML  HZ EP   1    351  8.48                             118   -0.48 6  244 335 
 SML  HE ES        351 37.13                             118   -0.56 8  244 335 
 SML  HZ I         351 40.54        59.9 0.10            113            244 335 
 CHI  HZ EP        351 10.23                             118    0.02 8  250 196 
 CHI  HE ES        351 40.02                             118    0.10 8  250 196 
 CHI  HZ I         351 49.51         7.7 0.30            113            250 196 
 ROSC BZ EP   2    351 12.23                             117    1.55 4  255 211 
 HEL  HZ EP   4    351 14.42                             115    1.60 0  275 256 
 HEL  HN ES   4    351 48.60                             115    4.04 0  275 256 
 HEL  HZ I         351 52.16        12.7 0.28            110            275 256 
 URE  HZ EP   4    351 16.68                             114    3.10 0  286 292 
 URE  HZ I         351 56.17        18.5 0.20            109            286 292 
 COD  HZ EP   1    351 20.00                             110   -0.55 5  347 354 
 COD  HZ I         351 22.60         4.3 0.44            106            347 354 
 COD  HN ES   4    351 55.75                             110   -2.57 0  347 354 
 PRA  HZ EP   1    351 25.84                             107   -0.18 4  394 210 
 SJC  HZ EP   4    351 26.42                             106   -1.44 0  410 327 
                                                                                
