 2017  5 2 0019 24.1 L   6.010 -73.711109.2  RSN  4 0.3 0.8LRSN                1
 GAP=205        0.81       5.9     4.9  9.2  0.1781E+02  0.1056E+02 -0.3336E+01E
 Epicentro: VELEZ - SANTANDER                                                  3
 ACTION:UPD 17-06-16 13:31 OP:jn   STATUS:               ID:20170502001924 L   I
 OLDACT:DUP 17-05-02 14:19 OP:edw  STATUS:               ID:20170502000902d    3
 OLDACT:REG 17-05-02 11:51 OP:edw  STATUS:               ID:20170502000901     3
 2017-05-02-0018-00M.COL___371                                                 6
 STAT SP IPHASW D HRMM SECON CODA AMPLIT PERI AZIMU VELO AIN AR TRES W  DIS CAZ7
 RUS  HZ EP        019 42.05                             145   -0.0610 70.7 101 
 RUS  HN ES        019 56.42                             145    0.2710 70.7 101 
 RUS  HZ I         019 58.19         1.8 0.28            152           70.7 101 
 PTB  HZ EP        019 43.80                             134   -0.0710  101 305 
 PTB  HN ES        019 59.03                             134   -0.2610  101 305 
 PTB  HZ I         020  3.68         1.1 0.18            138            101 305 
 BRR  HZ EP        019 45.48                             128   -0.2310  121 360 
 BRR  HN ES        020  2.35                             128   -0.2110  121 360 
 ZAR  HN ES        020 19.53                             113    0.74 8  207 322 
                                                                                
