 2010  5 2 0749 13.1 L   6.716 -72.957131.0  RSN  6 0.4 1.8LRSN                1
 GAP=226        0.70       5.9    10.8  9.8 -0.1160E+02  0.3717E+02 -0.1093E+02E
 Epicentro: CEPITA - SANTANDER                                                 3
 ACTION:UP  10-08-24 10:02 OP:vdl  STATUS:               ID:20100502074913 L   I
 2010-05-02-0747-46S.COL___105                                                 6
 STAT SP IPHASW D HRMM SECON CODA AMPLIT PERI AZIMU VELO SNR AR TRES W  DIS CAZ7
 BAR2 SZ EP        749 31.41                             167     0.310   29 241 
 BAR2 SZ ES   1    749 44.66                             167    -0.4 7   29 241 
 GIR2 SZ EP   2    749 31.75                             159     0.1 5   48 327 
 BRR  HE ES   3    749 51.06                             142     0.4 2   94 297 
 OCA  SZ ES   1    750  3.64                             123    -0.1 7  173 347 
 OCA  SZ I         750  6.05         6.2 0.26                           173 347 
 HEL  HZ EP   2    749 53.79                             110    -0.9 4  290 259 
 HEL  HE ES   2    750 27.46                             110     0.4 4  290 259 
 HEL  HZ I         750 30.80         2.7 0.35                           290 259 
 PRA  HZ EP   3    750  6.08                             103    -0.4 1  395 213 
 PRA  HZ I         750 52.88         2.3 0.61                           395 213 
                                                                                
