 2017  6 2 0502 51.1 L   6.776 -73.157146.0  RSN  9 0.4 1.7LRSN                1
 GAP=210        0.64       3.0     3.6  5.2  0.5358E+01 -0.6379E+01 -0.1854E+01E
 Epicentro: LOS SANTOS - SANTANDER                                             3
 ACTION:UPD 17-09-14 16:48 OP:jn   STATUS:               ID:20170602050251 L   I
 OLDACT:UP  17-06-02 15:20 OP:and  STATUS:               ID:20170602044706     3
 OLDACT:UP  17-06-02 15:20 OP:and  STATUS:               ID:20170602044706     3
 OLDACT:UP  17-06-02 15:19 OP:and  STATUS:               ID:20170602044706     3
 OLDACT:UP  17-06-02 15:19 OP:and  STATUS:               ID:20170602044706     3
 OLDACT:REG 17-06-02 12:46 OP:and  STATUS:               ID:20170602044706     3
 2017-06-02-0457-00M.COL___350                                                 6
 STAT SP IPHASW D HRMM SECON CODA AMPLIT PERI AZIMU VELO AIN AR TRES W  DIS CAZ7
 BRR  HZ IP     C  5 3 12.13                             153   -0.1410 71.4 301 
 BRR  HN ES        5 3 29.32                             153    0.5310 71.4 301 
 BRR  HZ I         5 3 33.61         8.3 0.12            149           71.4 301 
 RUS  HZ EP        5 3 14.61                             145   -0.0610 98.0 175 
 RUS  HN ES        5 3 32.93                             145   -0.1410 98.0 175 
 RUS  HZ I         5 3 33.97         9.4 0.46            144           98.0 175 
 PTB  HZ EP   9    5 3 16.86                             133   -1.05 0  146 260 
 PTB  HN ES        5 3 37.87                             133    0.08 9  146 260 
 SPBC HZ EP   2    5 3 19.56                             130    0.23 5  160 219 
 SPBC HN ES        5 3 41.20                             130   -0.16 9  160 219 
 SPBC HZ I         5 3 42.54         9.3 0.26            128            160 219 
 YPLC HZ EP        5 3 20.73                             127    0.01 9  175 151 
 YPLC HN ES        5 3 43.82                             127   -0.02 9  175 151 
 YPLC HZ I         5 3 47.44         4.2 0.48            127            175 151 
 ZAR  HZ EP   3    5 3 24.93                             123    1.40 2  204 293 
 ZAR  HN ES        5 3 48.33                             123   -0.50 9  204 293 
 ZAR  HZ I         5 3 54.92         8.1 0.34            121            204 293 
 CHI  HZ EP   2    5 3 28.22                             118   -0.26 4  246 195 
 CHI  HN ES        5 3 58.04                             118    0.40 8  246 195 
 CHI  HZ I         5 4  1.26         2.4 0.34            117            246 195 
 HEL  HZ EP   9    5 3 34.22                             115    3.12 0  270 256 
 HEL  HN ES        5 4  5.54                             114    0.11 8  270 256 
 HEL  HZ I         5 4 10.51         2.6 0.26            114            270 256 
 PTGC HZ EP   9    5 3 33.49                             112   -1.23 0  307 158 
 PTGC HN ES   1    5 4  7.21                             111   -0.32 5  307 158 
                                                                                
