 2017 11 2 0252  0.9 L   6.670 -73.200147.3  RSN  4 0.4 1.1LRSN                1
 GAP=217        0.90       7.3     7.1  9.2  0.2301E+02  0.2486E+01 -0.7984E+01E
 Epicentro: VILLANUEVA - SANTANDER                                             3
 ACTION:UPD 17-12-12 19:50 OP:rebc STATUS:               ID:20171102025200 L   I
 OLDACT:REG 17-11-02 14:55 OP:dnl  STATUS:               ID:20171102024746     3
 2017-11-02-0248-00M.COL___444                                                 6
 STAT SP IPHASW D HRMM SECON CODA AMPLIT PERI AZIMU VELO AIN AR TRES W  DIS CAZ7
 BAR2 EZ EP        252 20.17                             176   -0.3810 8.81 167 
 BAR2 EZ ES        252 35.40                             176   -0.4410 8.81 167 
 BAR2 EZ I         252 36.16         3.7 0.46            176           8.81 167 
 BRR  HZ EP        252 22.51                             152    0.0810 74.4 311 
 BRR  HE ES        252 39.68                             152    0.4810 74.4 311 
 BRR  HZ I         252 43.25         4.1 0.50            151           74.4 311 
 RUS  HZ EP   2    252 24.37                             148    0.46 5 86.9 171 
 RUS  HN ES        252 42.18                             148    0.3610 86.9 171 
 RUS  HZ I         252 43.20         1.2 0.24            150           86.9 171 
 PTB  HN ES        252 47.65                             134   -0.23 9  140 264 
 PTB  HZ I         252 50.62         1.1 0.28            134            140 264 
                                                                                
