 2010  4 2 0320 29.4 L   6.810 -72.980144.0  RSN  6 0.3 1.9LRSN                1
 GAP=225        0.63       4.1     8.8  6.3 -0.1296E+02 -0.8865E+01  0.8963E+01E
 Epicentro: CEPITA - SANTANDER                                                 3
 ACTION:UPD 10-08-24 09:57 OP:vdl  STATUS:               ID:20100402032029 L   I
 2010-04-02-0317-21S.COL___098                                                 6
 STAT SP IPHASW D HRMM SECON CODA AMPLIT PERI AZIMU VELO AIN AR TRES W  DIS CAZ7
 BAR2 SZ EP        320 49.25                             166     0.210   33 223 
 BAR2 SZ ES   2    321  4.06                             166    -0.3 5   33 223 
 BRR  HZ EP        320 51.29                             147    -0.110   87 292 
 BRR  HN ES   1    321  8.71                             147     0.2 7   87 292 
 BRR  HZ I         321 11.04        15.2 0.14                            87 292 
 OCA  SZ EP        320 57.77                             129     0.0 9  162 347 
 OCA  SZ ES   1    321 19.53                             129    -0.4 7  162 347 
 OCA  SZ I         321 24.71        12.4 0.27                           162 347 
 ROSC BZ EP   3    321  9.28                             115     0.7 2  264 214 
 ROSC BN ES   3    321 38.35                             115    -0.8 2  264 214 
 ROSC BZ I         321 45.21         3.5 0.64                           264 214 
 RREF BZ EP        321 17.56                             109     0.4 7  337 231 
 RREF BN ES   2    321 53.86                             109    -0.5 3  337 231 
 RREF BZ I         322  0.72         4.5 0.38                           337 231 
 PRA  HZ EP        321 23.54                             106    -0.5 6  402 212 
                                                                                
