 2017  9 2 0727 10.0 L   6.736 -73.175154.5  RSN  4 0.3 1.1LRSN                1
 GAP=229        0.68       9.0     9.6  8.3  0.7288E+02 -0.1287E+02 -0.6980E+01E
 Epicentro: VILLANUEVA - SANTANDER                                             3
 ACTION:UPD 17-10-05 19:08 OP:rebc STATUS:               ID:20170902072710 L   I
 OLDACT:UP  17-09-02 16:56 OP:dani STATUS:               ID:20170902071743     3
 OLDACT:REG 17-09-02 13:34 OP:dani STATUS:               ID:20170902071743     3
 2017-09-02-0718-00M.COL___399                                                 6
 STAT SP IPHASW D HRMM SECON CODA AMPLIT PERI AZIMU VELO AIN AR TRES W  DIS CAZ7
 BAR2 EZ EP        727 30.17                             174   -0.4010 15.9 183 
 BRR  HZ EP        727 32.22                             154    0.0610 72.2 305 
 BRR  HN ES        727 49.62                             154    0.1910 72.2 305 
 BRR  HZ I         727 52.03         2.0 0.16            156           72.2 305 
 RUS  HZ EP        727 34.53                             147    0.3610 93.8 174 
 RUS  HN ES   1    727 52.83                             147   -0.19 7 93.8 174 
 RUS  HZ I         727 54.20         2.2 0.36            151           93.8 174 
 ZAR  HE ES        728  8.64                             124   -0.13 9  204 294 
                                                                                
