 2016  4 2 0139 13.5 L   6.825 -73.123148.8  RSN 17 0.4 2.4LRSN                1
 GAP=120        0.93       3.3     3.2  4.7 -0.1901E+01  0.4752E+01  0.1399E+00E
 Epicentro: LOS SANTOS - SANTANDER                                             3
 ACTION:UPD 16-05-05 14:17 OP:rebc STATUS:               ID:20160402013913 L   I
 OLDACT:UP  16-04-02 13:50 OP:drio STATUS:               ID:20160402013744     3
 OLDACT:UP  16-04-02 13:49 OP:drio STATUS:               ID:20160402013744     3
 OLDACT:REG 16-04-02 12:34 OP:drio STATUS:               ID:20160402013744     3
 2016-04-02-0137-44M.COL___324                                                 6
 STAT SP IPHASW D HRMM SECON CODA AMPLIT PERI AZIMU VELO AIN AR TRES W  DIS CAZ7
 BAR2 EZ EP        139 33.68                             170    0.1010 26.6 194 
 BAR2 EZ ES        139 49.17                             170   -0.0610 26.6 194 
 BAR2 EZ I         139 51.27        32.0 0.30            165           26.6 194 
 PAM  EZ EP        139 36.45                             152    0.6110 73.6  39 
 PAM  EE ES        139 53.68                             152    0.4310 73.6  39 
 PAM  EZ I         139 55.82        30.5 0.50            159           73.6  39 
 RUS  HZ EP        139 37.63                             144   -0.1210  103 178 
 RUS  HE ES        139 56.40                             144   -0.2610  103 178 
 PTB  HZ EP        139 40.39                             132   -0.61 9  151 258 
 PTB  HN ES        140  1.87                             132   -0.56 9  151 258 
 PTB  HZ I         140  7.51        29.3 0.32            131            151 258 
 SPBC HZ EP        139 42.68                             129    0.08 9  167 219 
 SPBC HN ES        140  5.36                             129    0.08 9  167 219 
 SPBC HZ I         140 11.61        33.5 0.24            128            167 219 
 ZAR  HZ EP        139 46.39                             123    0.11 8  205 291 
 ZAR  HE ES        140 12.04                             123    0.19 8  205 291 
 ZAR  HZ I         140 18.06        24.0 0.32            123            205 291 
 NOR  HZ EP        139 49.64                             119   -0.17 8  238 234 
 NOR  HN ES        140 17.87                             119   -0.25 8  238 234 
 NOR  HZ I         140 21.44        18.5 0.26            119            238 234 
 CHI  HZ EP        139 51.81                             117    0.07 8  252 196 
 CHI  HE ES        140 21.53                             117   -0.03 8  252 196 
 CHI  HZ I         140 29.70         8.5 0.60            118            252 196 
 ROSC BZ EP   4    139 53.53                             117    1.33 0  256 211 
 ROSC BN ES   4    140 24.20                             117    1.83 0  256 211 
 ROSC BZ I         140 29.73        23.7 0.50            117            256 211 
 HEL  HZ EP   4    139 56.04                             115    1.82 0  275 255 
 HEL  HN ES        140 26.26                             115    0.29 8  275 255 
 HEL  HZ I         140 32.37        12.0 0.36            115            275 255 
 SOCV BZ EP        139 55.16                             113   -1.13 7  298  57 
 SOCV BE ES   4    140 27.65                             113   -2.02 0  298  57 
 GUY2CHZ EP        139 58.52                             113    0.85 7  305 235 
 GUY2CHN ES   4    140 36.46                             113    4.35 0  305 235 
 GUY2CHZ I         140 40.56        19.0 0.74                           305 235 
 ELA  HZ EP   4    140  2.74                             111    1.83 0  333 229 
 ELA  HN ES   4    140 41.89                             111    4.00 0  333 229 
 ELA  HZ I         140 45.42        11.2 0.40            111            333 229 
 CBOC HZ EP        140  1.32                             110    0.40 7  337 252 
 CBOC HE ES   4    140 37.06                             110   -0.84 0  337 252 
 CBOC HZ I         140 58.83         3.7 0.44            111            337 252 
 DBB  SZ EP        140  1.21                             110   -0.16 7  342 274 
 DBB  SZ ES        140 38.16                             110   -0.54 7  342 274 
 DBB  SZ I         140 40.05        28.2 0.52            111            342 274 
 ANIL HZ EP   4    140  0.69                             109   -3.17 0  361 224 
 ANIL HE ES   4    140 45.08                             109    1.94 0  361 224 
 ORTC HZ EP        140  8.59                             107    0.62 6  399 216 
 ORTC HE ES        140 50.85                             107    0.40 6  399 216 
 ORTC HZ I         140 58.37         8.5 0.62            107            399 216 
 PAL  HZ EP        140  9.16                             106   -0.03 6  409 239 
 PAL  HN ES   4    140 51.87                             106   -0.75 0  409 239 
 PAL  HZ I         140 55.25         3.7 0.66            107            409 239 
                                                                                
