 2017  8 2 0345 26.9 L   6.331 -74.025 27.6  RSN  8 0.5 1.5LRSN                1
 GAP= 86        1.20       2.8     2.4  4.9 -0.4838E+00 -0.3658E+01 -0.1522E+01E
 Epicentro: CIMITARRA - SANTANDER                                              3
 ACTION:UPD 17-09-04 20:15 OP:rebc STATUS:               ID:20170802034526 L   I
 OLDACT:DUP 17-08-02 15:59 OP:osc  STATUS:               ID:20170802033745d    3
 2017-08-02-0338-00M.COL___392                                                 6
 STAT SP IPHASW D HRMM SECON CODA AMPLIT PERI AZIMU VELO AIN AR TRES W  DIS CAZ7
 PTB  HZ IP     D  345 36.17                             109   -0.1110 53.0 296 
 PTB  HE ES        345 43.60                             109   -0.0210 53.0 296 
 PTB  HZ I         345 44.25        45.8 0.14            110           53.0 296 
 SPBC HZ EP        345 39.39                              99   -0.0610 75.2 184 
 SPBC HE ES        345 49.06                              99   -0.2010 75.2 184 
 SPBC HZ I         345 50.29        13.7 0.09             99           75.2 184 
 BRR  HZ EP        345 41.72                              61   -0.0110 92.5  22 
 BRR  HE ES        345 53.52                              61    0.2110 92.5  22 
 BAR2 EZ EP        345 42.58                              61   -0.0610 97.6  73 
 BAR2 EZ ES        345 54.38                              61   -0.5610 97.6  73 
 BAR2 EZ I         345 59.06        12.0 0.30             61           97.6  73 
 RUS  HZ EP        345 45.57                              61    0.4510  115 115 
 RUS  HN ES        345 59.45                              61    0.1010  115 115 
 RUS  HZ I         346  0.79        10.8 0.17             61            115 115 
 HEL  HZ EP        345 51.21                              61   -0.29 9  167 265 
 HEL  HE ES        346  9.91                              61   -0.79 9  167 265 
 HEL  HZ I         346 10.89         8.8 0.22             61            167 265 
 GUY2CHZ EP        345 55.95                              61    1.17 9  192 231 
 GUY2CHE ES        346 15.87                              61   -0.67 9  192 231 
 GUY2CHZ I         346 21.83         1.3 0.52                           192 231 
 CBOC HZ EP        345 58.90                              61    0.29 8  226 257 
 CBOC HE ES        346 24.24                              61    0.88 8  226 257 
                                                                                
