 2013  4 2 0649 17.4 L   6.233 -73.748 10.8  RSN  8 0.5 1.5LRSN                1
 GAP=122        1.05       3.2     2.3  5.7 -0.7503E+00  0.2932E+01 -0.4069E+01E
 Epicentro: LANDAZURI - SANTANDER                                              3
 ACTION:UPD 13-05-22 14:35 OP:EP   STATUS:               ID:20130402064917 L   I
 2013-04-02-0646-35M.COL___209                                                 6
 STAT SP IPHASW D HRMM SECON CODA AMPLIT PERI AZIMU VELO AIN AR TRES W  DIS CAZ7
 BAR2 SZ EP        649 29.58                              95    0.0410 74.1  58 
 BAR2 SZ ES   1    649 38.22                              95   -0.78 7 74.1  58 
 BAR2 SZ I         649 39.57        23.9 0.50             92           74.1  58 
 RUS  HZ EP        649 31.41                              95    0.3210 82.7 117 
 RUS  HN ES   1    649 40.98                              95   -0.78 7 82.7 117 
 RUS  HZ I         649 42.65         7.2 0.48             92           82.7 117 
 PTB  HZ EP   1    649 30.99                              95   -0.01 7 85.3 293 
 PTB  HN ES   1    649 41.08                              95   -0.52 7 85.3 293 
 PTB  HZ I         649 41.40        45.2 0.18             92           85.3 293 
 BRR  HZ EP   1    649 33.08                              94    0.37 7 96.8   2 
 BRR  HN ES   1    649 44.74                              94    0.11 7 96.8   2 
 BRR  HZ I         649 47.27         4.5 0.28             92           96.8   2 
 NOR  HZ EP   1    649 40.38                              93    0.39 7  145 239 
 NOR  HN ES   1    649 57.53                              93   -0.06 7  145 239 
 NOR  HZ I         649 58.38        19.3 0.24             91            145 239 
 PAM  SZ EP        649 44.82                              56    1.07 9  169  43 
 PAM  SN ES   1    650  3.76                              56   -0.53 7  169  43 
 PAM  SZ I         650  9.13         4.7 0.35             56            169  43 
 ZAR  HZ EP   1    649 45.60                              56    0.31 7  186 319 
 ZAR  HN ES   1    650  6.65                              56   -0.39 7  186 319 
 ZAR  HZ I         650  8.24         3.8 0.12             56            186 319 
 HEL  HZ EP   1    649 47.17                              56    0.00 6  197 269 
 HEL  HN ES   1    650  9.87                              56   -0.51 6  197 269 
 HEL  HZ I         650 11.18         9.1 0.28             56            197 269 
                                                                                
