 2010 12 2 0127 46.0 L   6.794 -73.087142.0  RSN 12 0.3 2.3LRSN                1
 GAP=182        0.70       3.2     5.3  5.1 -0.9269E+01  0.1100E+01  0.5002E+01E
 Epicentro: LOS SANTOS - SANTANDER                                             3
 ACTION:UP  11-01-14 15:22 OP:pat  STATUS:               ID:20101202012746 L   I
 2010-12-02-0125-57S.COL___132                                                 6
 STAT SP IPHASW D HRMM SECON CODA AMPLIT PERI AZIMU VELO SNR AR TRES W  DIS CAZ7
 BAR2 SZ EP        128  5.24                             170     0.110   25 206 
 BAR2 SZ ES   1    128 19.93                             170    -0.2 7   25 206 
 BAR2 SZ I         128 21.34        57.3 0.23                            25 206 
 GIR2 SZ EP        128  5.33                             166     0.110   34 339 
 BRR  HZ IP     D  128  7.01                             150    -0.110   77 297 
 BRR  HZ I         128  7.20        62.7 0.12                            77 297 
 BRR  HN ES   1    128 23.94                             150     0.4 7   77 297 
 GUE  SZ EP        128 10.32                             139     0.010  116   9 
 GRA  SZ EP        128 10.43                             136    -0.410  125  15 
 GRA  SZ ES   1    128 30.31                             136     0.2 7  125  15 
 GRA  SZ I         128 31.78        13.8 0.31                           125  15 
 OCA  SZ EP   2    128 14.36                             129     0.2 5  162 351 
 OCA  SZ ES   1    128 36.16                             129     0.0 7  162 351 
 OCA  SZ I         128 38.50        21.2 0.21                           162 351 
 NOR  SZ EP        128 21.61                             117    -0.4 8  240 236 
 NOR  SN ES   1    128 49.36                             117    -0.8 6  240 236 
 CHI  HZ EP        128 23.80                             116     0.2 8  250 197 
 CHI  HN ES   1    128 53.36                             116     0.4 6  250 197 
 CHI  HZ I         128 56.43        13.3 0.42                           250 197 
 HEL  HZ EP        128 26.99                             113     0.3 7  278 256 
 HEL  HN ES   3    128 58.02                             113    -0.4 2  278 256 
 HEL  HZ I         129  3.56         9.5 0.46                           278 256 
 GUY  SZ EP   3    128 30.74                             111     0.7 2  306 236 
 GUY  SZ I         129 12.71        13.1 0.42                           306 236 
 RREF HZ EP   1    128 32.91                             110     0.4 5  326 230 
 RREF HN ES   2    129  9.64                             110     0.9 3  326 230 
 RREF HZ I         129 15.11        10.7 0.33                           326 230 
 PRA  HZ EP        128 39.56                             106    -0.1 6  395 210 
 PRA  HN ES   1    129 21.41                             106    -0.2 4  395 210 
                                                                                
