 2011 10 2 0713 29.8 L   6.780 -73.117150.4  RSN  4 0.1 1.2LRSN                1
 GAP=192        0.30       7.5    13.7  8.3  0.8980E+02 -0.8625E+02 -0.3954E+02E
 Epicentro: LOS SANTOS - SANTANDER                                             3
 ACTION:UPD 12-07-13 16:01 OP:ep   STATUS:               ID:20111002071329 L   I
 2011-10-02-0700-00M.COL___169                                                 6
 STAT SP IPHASW D HRMM SECON CODA AMPLIT PERI AZIMU VELO AIN AR TRES W  DIS CAZ7
 BAR2 SZ EP   2    713 50.05                             171    0.04 5 22.0 199 
 BAR2 SZ I         714 20.91         5.7 0.58                          22.0 199 
 GIR2 SZ EP   2    713 50.12                             167   -0.02 5 34.1 346 
 BRR  HZ EP   1    713 51.77                             152    0.06 7 75.0 299 
 BRR  HE ES   1    714  8.72                             152   -0.04 7 75.0 299 
 BRR  HZ I         714 12.55         3.9 0.16                          75.0 299 
 RUS  HZ EP   2    713 53.77                             145   -0.12 5 98.2 178 
 RUS  HN ES   2    714 12.70                             145    0.06 5 98.2 178 
 RUS  HZ I         714 14.35         1.2 0.28                          98.2 178 
                                                                                
