 2015  2 2 0433 17.1 L   6.748 -73.184142.0  RSN  4 0.4 1.2LRSN                1
 GAP=235        1.02       7.2     7.7  8.4 -0.7000E+01  0.7746E+01  0.1303E+02E
 Epicentro: VILLANUEVA - SANTANDER                                             3
 ACTION:UPD 15-04-30 21:20 OP:nd   STATUS:               ID:20150202043317 L   I
 OLDACT:DUP 15-02-02 18:24 OP:stll STATUS:               ID:20150202042750d    3
 OLDACT:REG 15-02-02 13:30 OP:stll STATUS:               ID:20150202042749     3
 2015-02-02-0427-49M.COL___262                                                 6
 STAT SP IPHASW D HRMM SECON CODA AMPLIT PERI AZIMU VELO AIN AR TRES W  DIS CAZ7
 BAR2 EZ EP        433 36.03                             173   -0.1610 17.2 180 
 BAR2 EZ ES        433 50.68                             173   -0.3810 17.2 180 
 BAR2 EZ I         433 52.71         2.9 0.24            164           17.2 180 
 BRR  HZ EP        433 38.13                             152    0.3010 70.6 304 
 BRR  HE ES        433 54.50                             152    0.5210 70.6 304 
 BRR  HZ I         433 57.23         4.0 0.80            150           70.6 304 
 PTB  HZ EP        433 42.95                             132   -0.36 9  143 261 
 PTB  HN ES        434  3.16                             132   -0.58 9  143 261 
 PTB  HZ I         434  9.73         2.0 0.24            130            143 261 
 SPBC HZ EP        433 44.81                             129    0.15 9  156 219 
 SPBC HN ES        434  6.65                             129    0.51 9  156 219 
 SPBC HZ I         434 15.53         2.4 0.24            128            156 219 
                                                                                
