 2011  2 2 0646 11.0 L   6.814 -73.138140.9  RSN  6 0.4 1.4LRSN                1
 GAP=159        0.72       4.4    10.5  8.0 -0.2116E+02  0.2136E+02 -0.4478E+01E
 Epicentro: LOS SANTOS - SANTANDER                                             3
 ACTION:UP  11-03-28 15:05 OP:jfem STATUS:               ID:20110202064611 L   I
 2011-02-02-0643-01S.COL___135                                                 6
 STAT SP IPHASW D HRMM SECON CODA AMPLIT PERI AZIMU VELO SNR AR TRES W  DIS CAZ7
 BAR2 SZ EP        646 30.24                             169     0.210   25 192 
 BAR2 SZ ES   1    646 44.82                             169    -0.1 7   25 192 
 BAR2 SZ I         646 47.13         6.5 0.24                            25 192 
 RUS  HZ EP   1    646 34.13                             142    -0.2 7  102 177 
 RUS  HN ES   2    646 53.02                             142     0.4 5  102 177 
 RUS  HZ I         646 54.37         3.7 0.36                           102 177 
 GRA  SZ EP   1    646 35.99                             136     0.4 7  124  17 
 GRA  SZ ES   2    646 54.11                             136    -0.8 5  124  17 
 GRA  SZ I         646 56.98         4.2 0.53                           124  17 
 OCA  SZ EP   2    646 39.39                             129     0.6 5  159 353 
 OCA  SZ ES   2    647  0.13                             129    -0.3 5  159 353 
 OCA  SZ I         647  4.95         3.2 0.37                           159 353 
 NOR  SZ EP   2    646 46.16                             117    -0.5 4  236 234 
 NOR  SE ES   2    647 14.79                             117     0.4 4  236 234 
 CHI  HZ EP   2    646 47.83                             116    -0.8 4  250 195 
 CHI  HZ I         646 49.20         1.5 0.34                           250 195 
 CHI  HE ES   2    647 17.71                             116    -0.2 4  250 195 
                                                                                
