 2010  7 2 0444 30.9 L   7.179 -73.364 26.0  RSN  7 0.3 1.0LRSN                1
 GAP=116        0.55       1.6     2.8  4.0 -0.1196E+01 -0.2381E+01 -0.1699E+01E
 Epicentro: LEBRIJA - SANTANDER                                                3
 ACTION:UPD 10-12-01 15:14 OP:pat  STATUS:               ID:20100702044430 L   I
 2010-07-02-0442-48S.COL___118                                                 6
 STAT SP IPHASW D HRMM SECON CODA AMPLIT PERI AZIMU VELO AIN AR TRES W  DIS CAZ7
 BRR  HZ EP   2    444 38.42                             115     0.1 5   39 258 
 BRR  HE ES   2    444 44.54                             115     0.4 5   39 258 
 BRR  HZ I         444 44.88         6.2 0.11                            39 258 
 BAR2 SZ EP   1    444 42.29                              96    -0.2 7   68 163 
 BAR2 SZ ES   1    444 51.68                              96     0.1 7   68 163 
 BRI  SZ EP   2    444 45.56                              92     0.5 5   86  46 
 BRI  SZ ES   2    444 56.52                              92     0.3 5   86  46 
 GUE  SZ EP        444 45.11                              92    -0.210   87  34 
 GUE  SZ ES   1    444 56.35                              92    -0.2 7   87  34 
 GRA  SZ EP   2    444 46.81                              61    -0.1 5  100  38 
 GRA  SZ ES   1    444 59.83                              61     0.4 7  100  38 
 OCA  SZ EP        444 49.09                              61     0.010  117   2 
 OCA  SZ ES   2    445  2.88                              61    -0.5 5  117   2 
 OCA  SZ I         445  6.92         5.0 0.31                           117   2 
 RUS  HZ EP        444 53.04                              61     0.0 9  146 168 
 RUS  HZ I         445 11.67         1.8 0.54                           146 168 
                                                                                
