 2014  6 2 0042 57.9 L   6.820 -73.179136.3  RSN  8 0.3 1.5LRSN                1
 GAP=180        0.88       2.8     4.7  5.8 -0.1008E+00  0.7339E+01  0.6266E+00E
 Epicentro: LOS SANTOS - SANTANDER                                             3
 ACTION:UPD 14-07-01 22:49 OP:nd   STATUS:               ID:20140602004257 L   I
 OLDACT:DUP 14-06-02 14:45 OP:stll STATUS:               ID:20140602003818d    3
 2014-06-02-0038-17M.COL___256                                                 6
 STAT SP IPHASW D HRMM SECON CODA AMPLIT PERI AZIMU VELO AIN AR TRES W  DIS CAZ7
 BAR2 SZ EP        043 16.40                             169   -0.0010 25.2 181 
 BAR2 SZ ES        043 30.87                             169    0.0110 25.2 181 
 BAR2 SZ I         043 32.60         8.0 0.28            168           25.2 181 
 BRR  HZ EP        043 18.45                             152    0.7010 66.9 298 
 BRR  HN ES        043 33.76                             152    0.5010 66.9 298 
 BRR  HZ I         043 38.79         7.6 0.18            152           66.9 298 
 RUS  HZ EP        043 20.68                             141   -0.2110  103 174 
 RUS  HZ I         043 21.75         3.9 0.10            143            103 174 
 RUS  HN ES        043 38.64                             141   -0.2110  103 174 
 PTB  HZ EP        043 23.35                             130   -0.44 9  145 258 
 PTB  HN ES        043 43.57                             130   -0.43 9  145 258 
 PTB  HZ I         043 46.62         6.0 0.10            131            145 258 
 OCA  HN ES        043 46.27                             128   -0.27 9  158 354 
 SPBC HZ EP        043 25.59                             127   -0.01 9  163 217 
 SPBC HN ES        043 47.23                             127   -0.00 9  163 217 
 SPBC HZ I         043 55.22         5.8 0.18            128            163 217 
 SML  HE ES        044  1.28                             116   -0.18 8  240 336 
 GUY2CHZ EP        043 41.48                             111    0.62 7  299 234 
 GUY2CHE ES        044 14.38                             111   -0.01 7  299 234 
 GUY2CHZ I         044 22.36         1.7 0.28                           299 234 
                                                                                
