 2015  3 2 0222 17.9 L   6.789 -73.168149.4  RSN  5 0.4 1.2LRSN                1
 GAP=134        1.03       6.2     6.2  9.7 -0.1240E+02  0.3751E+01  0.1020E+02E
 Epicentro: LOS SANTOS - SANTANDER                                             3
 ACTION:UPD 15-04-30 16:22 OP:nd   STATUS:               ID:20150302022217 L   I
 OLDACT:REG 15-03-02 12:22 OP:spq  STATUS:               ID:20150302021735     3
 2015-03-02-0217-35M.COL___293                                                 6
 STAT SP IPHASW D HRMM SECON CODA AMPLIT PERI AZIMU VELO AIN AR TRES W  DIS CAZ7
 BRR  HZ EP        222 39.66                             153    0.2810 69.6 300 
 BRR  HN ES        222 56.75                             153    0.6410 69.6 300 
 BRR  HZ I         223  0.26         3.5 0.16            154           69.6 300 
 PAM  SZ EP        222 40.74                             151    0.0710 79.9  40 
 PAM  SN ES        222 57.85                             151   -0.5610 79.9  40 
 PAM  SZ I         223  0.24         2.0 0.48            155           79.9  40 
 RUS  HZ EP   1    222 42.55                             145    0.59 7 99.6 175 
 RUS  HN ES   1    223  0.73                             145    0.02 7 99.6 175 
 RUS  HZ I         223  2.01         1.2 0.26            148           99.6 175 
 PTB  HZ EP        222 44.55                             133   -0.40 9  145 259 
 PTB  HE ES   1    223  5.47                             133   -0.56 7  145 259 
 PTB  HZ I         223  9.33         2.2 0.18            135            145 259 
 SPBC HE ES   1    223  8.42                             130   -0.32 7  161 219 
 SPBC HZ I         223 11.45         4.5 0.22            133            161 219 
                                                                                
