 2013  4 2 0727 46.2 L   6.757 -73.137138.7  RSN  4 0.2 1.2LRSN                1
 GAP=140        0.39       3.2     4.6  4.9 -0.6250E+01  0.1525E+01 -0.5150E+00E
 Epicentro: LOS SANTOS - SANTANDER                                             3
 ACTION:UPD 13-05-22 14:35 OP:EP   STATUS:               ID:20130402072746 L   I
 2013-04-02-0720-00M.COL___245                                                 6
 STAT SP IPHASW D HRMM SECON CODA AMPLIT PERI AZIMU VELO AIN AR TRES W  DIS CAZ7
 BAR2 SZ EP   1    728  4.67                             172   -0.22 7 18.9 195 
 BAR2 SZ ES   1    728 19.67                             172    0.20 7 18.9 195 
 BAR2 SZ I         728 21.23         4.0 0.16            172           18.9 195 
 PAM  SZ EP   1    728  8.01                             148    0.16 7 80.5  37 
 PAM  SN ES   1    728 24.62                             148   -0.13 7 80.5  37 
 PAM  SZ I         728 26.98         5.4 0.44            150           80.5  37 
 RUS  HZ EP   1    728  9.02                             144    0.12 7 95.8 176 
 RUS  HN ES   1    728 26.50                             144   -0.12 7 95.8 176 
 RUS  HZ I         728 29.04         1.3 0.32            145           95.8 176 
 PTB  HN ES   2    728 33.16                             130   -0.04 5  148 261 
                                                                                
