 2013  6 2 0748  4.4 L   6.896 -72.914142.6  RSN  4 0.2 1.4LRSN                1
 GAP=221        0.52       6.1    12.2  6.9  0.6510E+02 -0.6283E+02 -0.3208E+02E
 Epicentro: GUACA - SANTANDER                                                  3
 ACTION:UPD 14-01-08 09:51 OP:ep   STATUS:               ID:20130602074804 L   I
 2013-06-02-0740-00M.COL___261                                                 6
 STAT SP IPHASW D HRMM SECON CODA AMPLIT PERI AZIMU VELO AIN AR TRES W  DIS CAZ7
 BAR2 SZ EP        748 24.46                             162    0.2210 44.8 221 
 BAR2 SZ ES        748 39.69                             162   -0.0610 44.8 221 
 BAR2 SZ I         748 40.56         3.0 0.38             47           44.8 221 
 BRR  HZ EP        748 26.30                             145   -0.1410 91.2 285 
 BRR  HN ES        748 43.78                             145    0.1310 91.2 285 
 BRR  HZ I         748 47.04         3.3 0.40             47           91.2 285 
 RUS  HZ EP        748 28.54                             140   -0.1710  113 190 
 RUS  HZ I         748 44.04         3.6 0.66             47            113 190 
 SML  HZ EP        748 41.39                             116    0.29 8  246 329 
 SML  HN ES        749  9.48                             116   -0.27 8  246 329 
 SML  HZ I         749 12.96         4.5 0.10             37            246 329 
                                                                                
