 2016  8 2 0800 44.0 L   6.732 -73.162150.9  RSN  4 0.2 1.5LRSN                1
 GAP=230        0.63       3.7     5.3  5.6  0.1058E+02  0.1585E+01 -0.1608E+01E
 Epicentro: VILLANUEVA - SANTANDER                                             3
 ACTION:UPD 16-10-29 15:31 OP:rebc STATUS:               ID:20160802075731 L   I
 OLDACT:UPD 16-08-02 15:21 OP:CARA STATUS:               ID:20160802075731 L   3
 2016-08-02-0758-00M.COL___341                                                 6
 STAT SP IPHASW D HRMM SECON CODA AMPLIT PERI AZIMU VELO AIN AR TRES W  DIS CAZ7
 BRR  HZ EP        8 1  6.03                             153    0.1810 73.6 304 
 BRR  HN ES        8 1 23.09                             153    0.2010 73.6 304 
 BRR  HZ I         8 1 28.12         2.7 0.12                          73.6 304 
 RUS  HZ EP        8 1  7.60                             147   -0.1710 93.2 175 
 RUS  HN ES        8 1 26.11                             147   -0.1910 93.2 175 
 RUS  HZ I         8 1 26.84         2.4 0.26                          93.2 175 
 SPBC HZ EP        8 1 12.70                             131    0.43 9  156 220 
 SPBC HN ES        8 1 34.32                             131    0.01 9  156 220 
 SPBC HZ I         8 1 38.94         4.4 0.14                           156 220 
 ZAR  HZ EP        8 1 16.66                             123   -0.27 8  205 294 
 ZAR  HN ES        8 1 42.35                             123   -0.26 8  205 294 
 ZAR  HZ I         8 1 47.43         7.7 0.88                           205 294 
                                                                                
