 2013  1 2 0925 33.4 L   6.831 -73.129147.7  RSN 17 0.6 3.2LRSN 3.6WRSN        1
 SPEC AVERAGE  MO 14.5 ST 28.6 OM  3.0 f0 3.23 R0.5201 AL 2.05 WI 27.4 MW  3.6 3
 SPEC SD       MO  0.3 ST 34.6 OM  0.5 f0 1.22 R0.1967 AL      WI      MW  0.2 3
 GAP=127        1.33       3.5     6.0  6.6 -0.3819E+01  0.7457E+01  0.1098E+00E
 Epicentro: LOS SANTOS - SANTANDER                                             3
 SPEC ZAR HH N MO 14.6 ST114.4 OM  2.8 f0 6.06 R0.2426 AL 2.50 WI 33.7 MW  3.7 3
 SPEC ZAR HH N T 92629 K 0.000 GD  252 VS 4.20 DE 3.00 Q0230.0 QA 0.60 VS 4.20 3
 SPEC RREFHH Z MO 14.6 ST 20.5 OM  1.9 f0 3.36 R0.4375 AL 2.76 WI 36.1 MW  3.7 3
 SPEC RREFHH Z T 92620 K 0.000 GD  356 VP 7.60 DE 3.00 Q0230.0 QA 0.60 VS 4.20 3
 SPEC PTB HH N MO 14.4 ST  7.9 OM  2.7 f0 2.85 R0.5158 AL 1.39 WI 35.5 MW  3.5 3
 SPEC PTB HH N T 92619 K 0.000 GD  210 VS 4.20 DE 3.00 Q0230.0 QA 0.60 VS 4.20 3
 SPEC RUS HH N MO 13.9 ST  3.8 OM  2.3 f0 3.19 R0.4608 AL 1.87 WI 13.5 MW  3.2 3
 SPEC RUS HH N T 92614 K 0.000 GD  180 VS 4.20 DE 3.00 Q0230.0 QA 0.60 VS 4.20 3
 SPEC HEL HH N MO 14.4 ST  3.6 OM  2.5 f0 2.24 R0.6562 AL 1.49 WI 28.7 MW  3.5 3
 SPEC HEL HH N T 92645 K 0.000 GD  312 VS 4.20 DE 3.00 Q0230.0 QA 0.60 VS 4.20 3
 SPEC OCA HH N MO 14.9 ST 48.9 OM  3.2 f0 3.54 R0.4153 AL 2.18 WI 20.5 MW  3.9 3
 SPEC OCA HH N T 92623 K 0.000 GD  215 VS 4.20 DE 3.00 Q0230.0 QA 0.60 VS 4.20 3
 SPEC ANILHH N MO 14.9 ST 19.4 OM  2.9 f0 2.69 R0.5465 AL 1.96 WI 32.1 MW  3.9 3
 SPEC ANILHH N T 927 3 K 0.000 GD  390 VS 4.20 DE 3.00 Q0230.0 QA 0.60 VS 4.20 3
 SPEC COD HH N MO 14.2 ST0.783 OM  2.3 f0 1.48 R0.9932 AL 1.04 WI 26.5 MW  3.4 3
 SPEC COD HH N T 92657 K 0.000 GD  375 VS 4.20 DE 3.00 Q0230.0 QA 0.60 VS 4.20 3
 SPEC CHI HH N MO 14.4 ST  5.3 OM  2.6 f0 2.42 R0.6074 AL 2.15 WI 25.1 MW  3.6 3
 SPEC CHI HH N T 92639 K 0.000 GD  292 VS 4.20 DE 3.00 Q0230.0 QA 0.60 VS 4.20 3
 SPEC BRR HH N MO 14.7 ST 61.1 OM  3.1 f0 4.51 R0.3259 AL 3.20 WI 22.4 MW  3.7 3
 SPEC BRR HH N T 92612 K 0.000 GD  164 VS 4.20 DE 3.00 Q0230.0 QA 0.60 VS 4.20 3
 ACTION:UPD 13-02-15 09:11 OP:ep   STATUS:               ID:20130102092533 L   I
 2013-01-02-0920-00M.COL___242                                                 6
 STAT SP IPHASW D HRMM SECON CODA AMPLIT PERI AZIMU VELO AIN AR TRES W  DIS CAZ7
 BAR2 SZ IP        925 53.57                             169    0.2210 27.0 193 
 BAR2 SZ ES        926  8.43                             169   -0.4710 27.0 193 
 BAR2 SZ I         926 11.20       220.0 0.18            161           27.0 193 
 BRR  HZ IP     D  925 55.47                             152    0.6910 71.3 295 
 BRR  HN ES   1    926 12.76                             152    1.32 7 71.3 295 
 BRR  HN I         926 15.44       420.0 0.20            137           71.3 295 
 RUS  HZ IP     D  925 57.39                             143   -0.2010  104 177 
 RUS  HN ES        926 15.76                             143   -0.6810  104 177 
 RUS  HN I         926 17.88       143.0 0.38            136            104 177 
 PTB  HZ EP        926  0.11                             132   -0.65 9  150 258 
 PTB  HN ES   1    926 21.02                             132   -1.08 7  150 258 
 PTB  HN I         926 26.99       352.9 0.48            119            150 258 
 OCA  HZ EP        926  1.87                             130    0.29 9  157 352 
 OCA  HN ES        926 23.98                             130    0.43 9  157 352 
 OCA  HN I         926 27.74       425.6 0.36            120            157 352 
 ZAR  HZ EP        926  5.84                             123   -0.19 9  205 291 
 ZAR  HN I         926 37.95       204.6 0.60            112            205 291 
 CHI  HZ EP        926 11.46                             117   -0.16 8  252 195 
 CHI  HN ES        926 41.21                             117   -0.22 8  252 195 
 CHI  HN I         926 48.80        81.5 0.54            109            252 195 
 ROSC BZ EP        926 13.06                             117    1.00 8  257 211 
 ROSC BZ I         926 51.24       106.1 0.45            108            257 211 
 HEL  HZ EP        926 13.54                             115   -0.48 8  275 255 
 HEL  HN ES        926 45.70                             115    0.01 8  275 255 
 HEL  HN I         926 53.79        47.7 0.26            106            275 255 
 URE  HZ EP   1    926 13.42                             114   -1.21 6  284 291 
 URE  HN I         926 55.85        82.5 0.28            105            284 291 
 VIL  SZ EP        926 16.34                             112   -1.00 7  307 192 
 VIL  SN ES        926 52.72                             112    1.13 7  307 192 
 VIL  SN I         926 58.21       157.7 0.46            105            307 192 
 RREF HZ EP        926 20.64                             111    0.59 7  325 229 
 RREF HN ES        926 56.87                             111    0.44 7  325 229 
 RREF HZ I         927  1.94        53.4 0.30            103            325 229 
 COD  HZ EP        926 21.31                             109   -0.19 7  345 354 
 COD  HN ES        926 58.69                             109   -0.31 7  345 354 
 COD  HN I         927  4.64        31.5 0.52            102            345 354 
 TOL  SZ EP        926 22.84                             109    0.67 6  347 224 
 SDV  BZ EP        926 22.73                             109   -0.38 6  357  50 
 ANIL HZ EP        926 24.11                             108    0.39 6  361 224 
 ANIL HE ES        927  3.34                             108    0.38 6  361 224 
 ANIL HN I         927  8.57       107.8 0.22            101            361 224 
 YOT  HZ EP        926 36.06                             103   -0.88 5  476 229 
                                                                                
