 2015 11 2 0201 33.1 L   7.452 -73.208133.3  RSN 12 0.5 2.3LRSN                1
 GAP=110        0.91       3.3     4.0  6.5  0.1176E+00  0.1242E+02 -0.9625E+00E
 Epicentro: EL PLAYON - SANTANDER                                              3
 ACTION:UPD 15-12-28 16:08 OP:cam  STATUS:               ID:20151102020133 L   I
 OLDACT:UP  15-11-02 13:51 OP:ar   STATUS:               ID:20151102015750     3
 OLDACT:REG 15-11-02 12:29 OP:ar   STATUS:               ID:20151102015750     3
 2015-11-02-0157-50M.COL___313                                                 6
 STAT SP IPHASW D HRMM SECON CODA AMPLIT PERI AZIMU VELO AIN AR TRES W  DIS CAZ7
 PAM  EZ EP        2 1 52.95                             156    0.1110 57.5 102 
 PAM  EN ES        2 2  8.03                             156   -0.2210 57.5 102 
 PAM  EZ I         2 2  9.74        28.5 0.40            160           57.5 102 
 BRR  HZ EP        2 1 52.75                             151    0.0810 67.5 236 
 BRR  HN ES        2 2  8.01                             151    0.0610 67.5 236 
 BRR  HZ I         2 2  9.86        44.6 0.18            146           67.5 236 
 OCA  HZ EP        2 1 54.22                             144    0.0110 87.9 352 
 OCA  HN ES        2 2 10.91                             144    0.2110 87.9 352 
 OCA  HZ I         2 2 13.00        65.3 0.20            146           87.9 352 
 BAR2 EZ EP   2    2 1 54.62                             142   -0.23 5 95.1 178 
 BAR2 EZ ES        2 2 11.51                             142   -0.3310 95.1 178 
 BAR2 EZ I         2 2 12.15        42.2 0.14            140           95.1 178 
 SML  HZ EP   2    2 2  1.83                             123   -0.08 4  177 328 
 SML  HN ES        2 2 23.77                             123   -0.62 9  177 328 
 SML  HZ I         2 2 24.90        55.2 0.10            123            177 328 
 ZAR  HZ EP   1    2 2  3.63                             122    1.17 7  182 272 
 ZAR  HN ES        2 2 26.08                             122    0.71 9  182 272 
 ZAR  HZ I         2 2 29.43        33.7 0.32            121            182 272 
 SPBC HZ EP   2    2 2  6.84                             117    0.19 4  221 206 
 SPBC HN ES   2    2 2 33.04                             117    0.21 4  221 206 
 SPBC HZ I         2 2 40.47        12.8 0.24            116            221 206 
 URE  HZ EP   2    2 2  9.88                             113   -0.85 4  259 278 
 URE  HN ES   4    2 2 38.99                             113   -1.11 0  259 278 
 URE  HZ I         2 2 48.53        11.9 0.30            112            259 278 
 NOR  HZ EP   4    2 2 14.80                             111    1.82 0  278 221 
 NOR  HE ES   2    2 2 43.60                             111   -0.50 4  278 221 
 NOR  HZ I         2 2 51.88         9.2 0.16            110            278 221 
 HEL  HZ EP   4    2 2 17.24                             110    2.29 0  292 242 
 HEL  HN ES   2    2 2 47.47                             110   -0.14 4  292 242 
 HEL  HZ I         2 2 55.99         5.1 0.30            109            292 242 
 DBB  SZ EP        2 2 19.81                             107    0.25 7  335 262 
 DBB  SZ ES        2 2 54.92                             107   -0.89 7  335 262 
 DBB  SZ I         2 2 59.23        22.3 0.60            106            335 262 
 GUY2CHZ EP   4    2 2 23.66                             107    2.68 0  343 224 
 GUY2CHN ES   4    2 3  2.35                             107    4.01 0  343 224 
 GUY2CHZ I         2 3  8.12         4.5 0.60                           343 224 
                                                                                
