 2010  9 2 0710 36.3 L   6.780 -73.078144.4  RSN 14 0.4 2.9LRSN                1
 GAP=166        0.90       3.1     6.0  5.9 -0.5409E+01  0.8057E+01  0.2503E+01E
 Epicentro: LOS SANTOS - SANTANDER                                             3
 ACTION:UP  11-02-18 10:59 OP:tino STATUS:               ID:20100902071036 L   I
 2010-09-02-0708-09S.COL___120                                                 6
 STAT SP IPHASW D HRMM SECON CODA AMPLIT PERI AZIMU VELO SNR AR TRES W  DIS CAZ7
 BAR2 SZ IP        710 55.73                             170    -0.110   24 209 
 BAR2 SZ ES   1    711 10.66                             170    -0.3 7   24 209 
 BRR  HZ IP     C  710 57.67                             150    -0.110   79 297 
 BRR  HE ES   1    711 14.88                             150     0.3 7   79 297 
 BRR  HZ I         711 18.05       170.2 0.20                            79 297 
 RUS  HZ IP     C  710 59.67                             144    -0.110   98 180 
 RUS  HE ES   1    711 18.20                             144     0.1 7   98 180 
 RUS  HZ I         711 20.14       121.5 0.64                            98 180 
 GUE  SZ EP   1    711  1.29                             139     0.3 7  117   8 
 GUE  SZ I         711 21.03        15.8 0.07                           117   8 
 GRA  SZ IP        711  1.54                             137     0.110  126  14 
 GRA  SZ ES   1    711 21.27                             137     0.2 7  126  14 
 OCA  SZ EP        711  4.21                             129    -0.6 9  164 351 
 OCA  SZ ES   1    711 27.44                             129     0.3 7  164 351 
 OCA  SZ I         711 32.55        62.3 0.18                           164 351 
 CHI  HZ EP   1    711 13.57                             117    -0.4 6  249 197 
 CHI  HN ES   1    711 42.83                             117    -0.5 6  249 197 
 CHI  HZ I         711 49.12        55.1 0.57                           249 197 
 ROSC BZ EP        711 15.48                             116     0.9 8  255 213 
 ROSC BZ I         711 49.54        73.5 0.71                           255 213 
 CVER SZ EP   1    711 17.04                             114     0.3 6  273 204 
 CVER SZ I         711 56.47        75.3 0.34                           273 204 
 HEL  HZ EP   1    711 17.37                             114     0.1 6  279 257 
 HEL  HE ES   1    711 48.68                             114    -0.4 6  279 257 
 HEL  HZ I         711 54.85        48.7 0.60                           279 257 
 GUY  SZ EP   1    711 20.69                             112     0.2 5  306 236 
 GUY  SZ I         712  1.02       169.0 0.24                           306 236 
 RREF HZ EP   1    711 22.77                             110    -0.1 5  326 231 
 RREF HZ I         712  6.85        62.9 0.09                           326 231 
 DBB  SZ EP   1    711 24.45                             109    -0.2 5  347 275 
 DBB  SZ I         712  2.04        16.0 0.14                           347 275 
 PRA  HZ EP   1    711 29.54                             106    -0.5 4  394 211 
 PRA  HN ES   1    712 12.63                             106     0.7 4  394 211 
 PRA  HZ I         712 15.55        57.4 0.55                           394 211 
                                                                                
