 2011 12 2 0731 21.6 L   6.757 -73.114141.2  RSN  5 0.3 1.7LRSN                1
 GAP=143        0.60       4.1     4.9  5.9 -0.1516E+01  0.5118E+01  0.1339E+01E
 Epicentro: LOS SANTOS - SANTANDER                                             3
 ACTION:UPD 12-07-13 16:13 OP:ep   STATUS:               ID:20111202073121 L   I
 2011-12-02-0729-43S.COL___152                                                 6
 STAT SP IPHASW D HRMM SECON CODA AMPLIT PERI AZIMU VELO AIN AR TRES W  DIS CAZ7
 BAR2 SZ EP   1    731 40.41                             172   -0.17 7 19.8 203 
 BAR2 SZ ES   1    731 54.89                             172   -0.52 7 19.8 203 
 BAR2 SZ I         731 58.48        14.4 0.26                          19.8 203 
 BRR  HZ EP   1    731 42.60                             150    0.05 7 76.6 300 
 BRR  HN ES   1    731 59.11                             150    0.20 7 76.6 300 
 BRR  HZ I         732  2.06         9.3 0.11                          76.6 300 
 PAM  SZ EP   1    731 43.32                             149   -0.08 7 79.0  35 
 PAM  SN ES   1    732  0.58                             149    0.16 7 79.0  35 
 PAM  SZ I         732  2.79         5.1 0.65                          79.0  35 
 RUS  HZ EP   1    731 44.90                             144    0.38 7 95.7 178 
 RUS  HN ES   1    732  2.53                             144    0.11 7 95.7 178 
 RUS  HZ I         732  5.38         8.9 0.24                          95.7 178 
 HEL  HZ EP   2    732  0.90                             113   -0.91 4  274 257 
 HEL  HN ES   2    732 33.59                             113    0.39 4  274 257 
                                                                                
