 2012  1 2 0111 51.1 L   6.794 -73.166144.0  RSN  6 0.4 1.2LRSN                1
 GAP=134        0.79       5.5     6.3  8.9 -0.6187E+01  0.1429E+01  0.1892E+02E
 Epicentro: LOS SANTOS - SANTANDER                                             3
 ACTION:UP  12-02-03 08:13 OP:REBC STATUS:               ID:20120102011151 L   I
 2012-01-02-0110-00M.COL___186                                                 6
 STAT SP IPHASW D HRMM SECON CODA AMPLIT PERI AZIMU VELO SNR AR TRES W  DIS CAZ7
 BRR  HZ EP   1    112 11.96                             153     0.0 7   70 300 
 BRR  HN ES   1    112 28.94                             153     0.7 7   70 300 
 PAM  SZ EP   1    112 13.28                             150     0.0 7   79  40 
 PAM  SE ES   1    112 30.14                             150    -0.4 7   79  40 
 RUS  HZ EP   1    112 14.71                             144     0.0 7  100 175 
 RUS  HE ES   2    112 33.18                             144     0.1 5  100 175 
 RUS  HZ I         112 34.35         2.5 0.22                           100 175 
 PTB  HZ EP   1    112 17.31                             132    -0.4 7  145 259 
 PTB  HN ES   2    112 37.55                             132    -1.0 5  145 259 
 OCA  SZ EP   2    112 20.05                             129     0.7 5  161 354 
 CHI  HZ EP   1    112 28.89                             117     0.3 6  247 195 
 CHI  HN ES   2    112 58.01                             117     0.2 4  247 195 
 CHI  HZ I         113  5.35         1.4 0.52                           247 195 
                                                                                
