 2013  7 2 0603  0.5 L   6.817 -73.150144.6  RSN 13 0.5 2.4LRSN                1
 GAP=113        1.28       3.4     4.1  7.3 -0.2306E+00  0.2789E+01 -0.5956E-01E
 Epicentro: LOS SANTOS - SANTANDER                                             3
 ACTION:UPD 13-08-12 10:34 OP:ep   STATUS:               ID:20130702060301 L   I
 OLDACT:UP  13-07-03 00:10 OP:CF   STATUS:               ID:20130702060301 L   3
 OLDACT:REG 13-07-02 08:15 OP:stll STATUS:               ID:20130702055844     3
 2013-07-02-0558-44M.COL___227                                                 6
 STAT SP IPHASW D HRMM SECON CODA AMPLIT PERI AZIMU VELO AIN AR TRES W  DIS CAZ7
 BAR2 SZ IP     D  6 3 20.01                             170    0.0310 25.1 188 
 BAR2 SZ ES   1    6 3 34.96                             170   -0.25 7 25.1 188 
 BAR2 SZ I         6 3 36.38        37.4 0.18            167           25.1 188 
 BRR  HZ IP     C  6 3 21.83                             153    0.4310 69.9 297 
 BRR  HN ES        6 3 38.68                             153    0.9410 69.9 297 
 BRR  HN I         6 3 39.09       114.0 0.18            150           69.9 297 
 PAM  SZ EP        6 3 22.97                             151    0.5010 76.2  41 
 PAM  SN ES        6 3 39.57                             151   -0.0810 76.2  41 
 RUS  HZ EP        6 3 24.04                             143   -0.1910  103 176 
 RUS  HN ES        6 3 41.82                             143   -0.9510  103 176 
 PTB  HN ES        6 3 47.60                             132   -0.68 9  148 258 
 CAPV BZ IP     D  6 3 28.00                             132    0.36 9  148  38 
 CAPV BZ ES        6 3 49.25                             132    0.40 9  148  38 
 OCA  HZ EP        6 3 27.58                             130   -0.91 9  158 353 
 OCA  HE ES        6 3 50.01                             130   -0.35 9  158 353 
 YOP  SZ EP        6 3 30.64                             126    0.04 9  181 153 
 YOP  SN ES        6 3 54.35                             126    0.24 9  181 153 
 ZAR  HZ EP   1    6 3 32.51                             122   -0.20 6  203 292 
 ZAR  HE ES        6 3 58.07                             122    0.21 9  203 292 
 NOR  HZ EP        6 3 36.61                             118    0.41 8  235 234 
 NOR  HN ES        6 4  4.77                             118    0.70 8  235 234 
 NOR  HN I         6 4 11.17        24.6 0.18            117            235 234 
 SML  HN EP   1    6 3 36.11                             117   -0.70 6  242 335 
 SML  HE ES        6 4  4.68                             117   -0.48 8  242 335 
 HEL  HZ EP   4    6 3 42.22                             114    1.61 0  272 255 
 HEL  HN ES   4    6 4 16.36                             114    4.43 0  272 255 
 HEL  HN I         6 4 19.68         7.9 0.44            113            272 255 
 GUY2CHZ EP   4    6 3 45.49                             112    1.40 0  302 234 
 GUY2CHN ES   4    6 4 20.59                             112    2.46 0  302 234 
 GUY2CHN I         6 4 27.73         9.0 0.64                           302 234 
                                                                                
