 2015  9 2 0607  4.5 L   6.799 -73.158143.5  RSN  7 0.6 1.5LRSN                1
 GAP=182        1.59       5.6     8.0 10.3  0.4299E+01  0.9186E+01 -0.8048E+01E
 Epicentro: LOS SANTOS - SANTANDER                                             3
 ACTION:UPD 15-10-28 16:23 OP:cam  STATUS:               ID:20150902060704 L   I
 OLDACT:UP  15-09-02 18:18 OP:stll STATUS:               ID:20150902055749d    3
 OLDACT:DUP 15-09-02 18:15 OP:stll STATUS:               ID:20150902055749d    3
 OLDACT:REG 15-09-02 14:03 OP:stll STATUS:               ID:20150902055748     3
 2015-09-02-0557-48M.COL___358                                                 6
 STAT SP IPHASW D HRMM SECON CODA AMPLIT PERI AZIMU VELO AIN AR TRES W  DIS CAZ7
 BAR2 EZ EP        6 7 23.92                             170    0.1010 23.1 187 
 BAR2 EZ ES        6 7 38.43                             170   -0.4810 23.1 187 
 BAR2 EZ I         6 7 40.24         8.3 0.32            171           23.1 187 
 BRR  HZ EP        6 7 25.55                             153    0.2510 70.0 299 
 BRR  HE ES        6 7 42.74                             153    1.1810 70.0 299 
 BRR  HZ I         6 7 43.24         5.1 0.34            150           70.0 299 
 RUS  HZ EP        6 7 28.55                             143    0.5510  101 175 
 RUS  HN ES        6 7 46.43                             143    0.0810  101 175 
 RUS  HZ I         6 7 47.80         2.9 0.26            147            101 175 
 PTB  HZ EP        6 7 31.07                             132   -0.05 9  146 259 
 PTB  HN ES        6 7 51.14                             132   -0.77 9  146 259 
 PTB  HZ I         6 7 57.91         3.7 0.38            132            146 259 
 OCA  HZ EP        6 7 31.34                             129   -1.25 9  160 354 
 OCA  HN ES        6 7 54.29                             129   -0.24 9  160 354 
 OCA  HZ I         6 8  2.20         8.3 0.46            130            160 354 
 SPBC HZ EP        6 7 32.91                             129    0.21 9  162 219 
 SPBC HN ES        6 7 54.09                             129   -0.64 9  162 219 
 SPBC HZ I         6 7 59.22         5.0 0.64            130            162 219 
 ZAR  HZ EP        6 7 37.54                             122    0.91 9  203 292 
 ZAR  HE ES        6 8  1.70                             122   -0.02 9  203 292 
 ZAR  HZ I         6 8  6.92         3.9 0.22            122            203 292 
                                                                                
