 2016 12 2 0820 52.5 L   6.708 -73.645100.0  RSN  5 0.5 1.3LRSN                1
 GAP=154        1.21       8.2     4.5 10.2 -0.7617E+01  0.1684E+02 -0.1808E+02E
 Epicentro: EL CARMEN - SANTANDER                                              3
 ACTION:UPD 17-01-11 20:11 OP:rebc STATUS:               ID:20161202082052 L   I
 OLDACT:DUP 16-12-02 16:13 OP:dnl  STATUS:               ID:20161202081747d    3
 OLDACT:REG 16-12-02 12:53 OP:dnl  STATUS:               ID:20161202081746     3
 2016-12-02-0818-00M.COL___334                                                 6
 STAT SP IPHASW D HRMM SECON CODA AMPLIT PERI AZIMU VELO AIN AR TRES W  DIS CAZ7
 BRR  HZ EP        821  6.62                             154   -0.5810 44.8 351 
 BRR  HN ES        821 18.61                             154   -0.0710 44.8 351 
 BRR  HZ I         821 26.84         2.9 0.16            152           44.8 351 
 BAR2 EZ ES        821 20.87                             150    0.7610 52.8 104 
 BAR2 EZ I         821 22.57        13.2 0.42            157           52.8 104 
 PTB  HZ EP        821 10.50                             134   -0.1410 91.6 258 
 PTB  HN ES        821 24.29                             134   -0.5010 91.6 258 
 PTB  HE ES        821 24.87                             134           91.6 258 
 PTB  HZ I         821 27.09         3.5 0.42            142           91.6 258 
 PAM  EZ EP   2    821 14.84                             125    0.32 5  126  56 
 PAM  EN ES        821 31.24                             125   -0.4510  126  56 
 PAM  EZ I         821 36.14         2.2 0.36            130            126  56 
 ZAR  HZ EP        821 17.87                             118    0.41 9  160 303 
 ZAR  HN ES        821 37.57                             118    0.64 9  160 303 
 ZAR  HZ I         821 39.35         5.5 0.24            123            160 303 
                                                                                
