 2017 12 2 0434 11.3 L   6.817 -73.176143.4  RSN 10 0.5 1.5LRSN                1
 GAP=132        1.01       3.1     4.4  6.3 -0.1177E+01  0.9169E+01  0.3168E+01E
 Epicentro: ZAPATOCA - SANTANDER                                               3
 ACTION:UPD 18-01-04 13:16 OP:rebc STATUS:               ID:20171202043411 L   I
 OLDACT:REG 17-12-02 12:21 OP:dhb  STATUS:               ID:20171202042737     3
 2017-12-02-0428-00M.COL___480                                                 6
 STAT SP IPHASW D HRMM SECON CODA AMPLIT PERI AZIMU VELO AIN AR TRES W  DIS CAZ7
 BAR2 EZ EP        434 30.39                             170   -0.3210 24.9 182 
 BAR2 EZ ES        434 45.65                             170   -0.1810 24.9 182 
 BAR2 EZ I         434 46.93         5.7 0.48            170           24.9 182 
 PAM  EZ EP        434 33.24                             150   -0.1110 78.2  42 
 PAM  EN ES        434 50.63                             150    0.1110 78.2  42 
 PAM  EZ I         434 53.51         2.7 0.68            152           78.2  42 
 RUS  HZ EP        434 34.90                             143   -0.1110  103 174 
 RUS  HN ES        434 53.56                             143    0.0810  103 174 
 RUS  HZ I         434 54.14         4.5 0.20            144            103 174 
 PTB  HZ EP        434 37.28                             132   -0.57 9  145 258 
 PTB  HN ES        434 58.16                             132   -0.36 9  145 258 
 PTB  HZ I         435  0.78         2.0 0.20            132            145 258 
 OCA  HE ES        435  1.74                             129    0.71 9  158 354 
 OCA  HZ I         435  6.06         9.8 0.22            130            158 354 
 SPBC HZ EP        434 39.28                             129   -0.32 9  163 218 
 SPBC HE ES        435  1.88                             129    0.24 9  163 218 
 SPBC HZ I         435  6.46         5.9 0.22            129            163 218 
 ZAR  HZ EP        434 42.95                             122   -0.28 9  200 292 
 ZAR  HN ES        435  8.38                             122    0.27 9  200 292 
 ZAR  HZ I         435 10.36         2.3 0.26            123            200 292 
 CHI  HZ EP        434 48.55                             116   -0.46 8  250 194 
 CHI  HN ES        435 19.14                             116    0.75 8  250 194 
 CHI  HZ I         435 23.09         1.3 0.22            117            250 194 
 GUY2CHZ EP   2    434 56.29                             112    1.64 4  300 234 
 GUY2CHE ES   4    435 32.43                             112    4.00 0  300 234 
 GUY2CHZ I         435 35.21         1.8 0.34                           300 234 
 PRA  HZ EP        435  5.05                             106    0.28 6  392 209 
 PRA  HE ES        435 47.45                             106    0.99 6  392 209 
 PRA  HZ I         435 52.94         1.3 0.22            107            392 209 
                                                                                
