 2010  3 2 0447  6.1 L   6.812 -72.994143.4  RSN  6 0.4 1.5LRSN                1
 GAP=198        0.75       4.1     9.0  7.6 -0.6671E+01  0.6112E+00 -0.4773E+01E
 Epicentro: CEPITA - SANTANDER                                                 3
 ACTION:UP  10-08-24 09:51 OP:vdl  STATUS:               ID:20100302044705 L   I
 2010-03-02-0441-52S.COL___093                                                 6
 STAT SP IPHASW D HRMM SECON CODA AMPLIT PERI AZIMU VELO SNR AR TRES W  DIS CAZ7
 BAR2 SZ EP        447 25.83                             167     0.210   32 221 
 BAR2 SZ ES   1    447 41.19                             167     0.3 7   32 221 
 BRR  HZ EP        447 27.64                             147    -0.210   86 292 
 BRR  HN ES   1    447 44.87                             147     0.0 7   86 292 
 RUS  BN ES   2    447 47.85                             143    -0.3 5  102 186 
 RUS  BZ I         447 49.54         3.5 0.75                           102 186 
 OCA  SZ EP        447 34.65                             129     0.3 9  162 347 
 OCA  SZ ES   1    447 56.00                             129    -0.4 7  162 347 
 CHI  HZ I         447 43.14         1.9 0.62                           255 199 
 CHI  HE ES   2    448 13.17                             116    -1.0 4  255 199 
 RREF BN ES   1    448 31.28                             109     0.4 5  336 231 
 RREF BZ I         448 35.24         2.6 0.13                           336 231 
                                                                                
