 2010  5 2 0436 16.0 L   6.769 -73.072147.4  RSN 15 0.5 3.7LRSN                1
 GAP=148        1.10       4.6     7.3  6.3 -0.1935E+02 -0.9086E+00  0.8958E+01E
 Epicentro: LOS SANTOS - SANTANDER                                             3
 ACTION:UP  10-08-24 10:02 OP:vdl  STATUS:               ID:20100502043616 L   I
 2010-05-02-0433-42S.COL___105                                                 6
 STAT SP IPHASW D HRMM SECON CODA AMPLIT PERI AZIMU VELO SNR AR TRES W  DIS CAZ7
 BAR2 SZ IP        436 36.05                             171     0.210   23 212 
 BAR2 SZ ES   1    436 50.54                             171    -0.8 7   23 212 
 GIR2 SZ EP        436 36.10                             166     0.110   37 339 
 GIR2 SZ ES   1    436 51.78                             166     0.1 7   37 339 
 BRR  HZ IP        436 38.47                             150     0.610   80 298 
 BRR  HN ES   1    436 55.58                             150     0.7 7   80 298 
 BRR  HZ I         436 57.26       797.8 0.12                            80 298 
 BRI  SZ IP        436 40.56                             142     0.410  109  16 
 BRI  SZ ES   1    436 58.55                             142    -0.4 7  109  16 
 GUE  SZ EP        436 40.82                             140    -0.210  118   8 
 GRA  SZ IP        436 41.83                             137     0.310  127  13 
 GRA  SZ ES   1    437  1.20                             137    -0.2 7  127  13 
 OCA  SZ IP        436 44.37                             130    -0.5 9  165 350 
 OCA  SZ ES   1    437  7.15                             130    -0.3 7  165 350 
 CHI  HZ EP        436 53.74                             118     0.0 8  248 197 
 CHI  HN ES   1    437 22.26                             118    -0.8 6  248 197 
 CHI  HZ I         437 26.98       273.0 0.60                           248 197 
 ROSC BZ EP        436 55.32                             117     0.9 8  254 213 
 ROSC BE ES   2    437 23.96                             117    -0.3 4  254 213 
 ROSC BZ I         437 29.89       299.3 0.51                           254 213 
 HEL  HZ EP   1    436 56.44                             115    -0.7 6  279 257 
 HEL  HN ES   2    437 28.26                             115    -0.9 4  279 257 
 HEL  HZ I         437 34.01       247.5 0.40                           279 257 
 RREF BZ EP        437  3.01                             111     0.3 7  326 231 
 RREF BN ES   2    437 39.46                             111     0.4 3  326 231 
 RREF BZ I         437 48.01       418.2 0.64                           326 231 
 TOL  SZ EP        437  4.51                             110    -0.2 6  347 226 
 DBB  SZ EP        437  3.70                             109    -0.8 6  348 275 
 SDV  BZ IP        437  5.26                             109    -0.4 6  356  49 
 SDV  BZ I         437 44.86       109.0 0.32                           356  49 
 PRA  HZ EP   1    437  9.03                             107    -0.7 4  393 211 
 PRA  HE ES   1    437 52.10                             107     0.5 4  393 211 
 PRA  HZ I         437 57.74       294.8 0.36                           393 211 
                                                                                
