 2016  4 2 0712 28.8 L   6.753 -73.300134.7  RSN  4 0.2 0.8LRSN                1
 GAP=230        0.55       5.8     4.8  7.9  0.1337E+02 -0.4813E+01 -0.2945E+02E
 Epicentro: ZAPATOCA - SANTANDER                                               3
 ACTION:UPD 16-05-05 14:18 OP:rebc STATUS:               ID:20160402071228 L   I
 OLDACT:REG 16-04-02 12:45 OP:drio STATUS:               ID:20160402070741     3
 2016-04-02-0707-41M.COL___303                                                 6
 STAT SP IPHASW D HRMM SECON CODA AMPLIT PERI AZIMU VELO AIN AR TRES W  DIS CAZ7
 RUS  HE ES        713  8.82                             142    0.0010 98.1 166 
 RUS  HZ I         713  9.70         0.7 0.24            146           98.1 166 
 PTB  HZ EP        712 52.96                             133   -0.2810  130 260 
 PTB  HN ES        713 12.23                             133   -0.0910  130 260 
 PTB  HZ I         713 16.86         1.1 0.40            132            130 260 
 SPBC HZ EP        712 54.96                             129   -0.10 9  149 215 
 SPBC HN ES        713 15.76                             129    0.20 9  149 215 
 SPBC HZ I         713 20.47         1.2 0.24            130            149 215 
 ZAR  HZ EP        712 59.44                             122    0.33 9  191 296 
 ZAR  HZ I         713 12.09         0.5 0.32            119            191 296 
 ZAR  HE ES   4    713 24.69                             122    1.92 0  191 296 
                                                                                
