 2010  5 2 0203 10.9 L   5.869 -73.652116.4  RSN  7 0.3 1.7LRSN                1
 GAP=174        0.53       3.1     8.7  7.5 -0.8475E+01  0.1986E+02 -0.1648E+01E
 Epicentro: PUENTE NACIONAL - SANTANDER                                        3
 ACTION:UP  10-08-24 10:02 OP:vdl  STATUS:               ID:20100502020310 L   I
 2010-05-02-0200-19S.COL___105                                                 6
 STAT SP IPHASW D HRMM SECON CODA AMPLIT PERI AZIMU VELO SNR AR TRES W  DIS CAZ7
 BAR2 SZ EP   1    2 3 31.12                             138     0.0 8   95  33 
 BAR2 SZ ES   1    2 3 46.86                             138     0.0 8   95  33 
 CHI  HZ EP   2    2 3 35.79                             127     0.6 5  137 184 
 CHI  HZ I         2 3 59.48         4.1 0.55                           137 184 
 BRR  HZ EP        2 3 34.73                             126     0.110  137 357 
 CHI  HE ES   2    2 3 53.81                             127    -0.3 5  137 184 
 BRR  HN ES   1    2 3 52.98                             126    -0.1 7  137 357 
 BRR  HZ I         2 3 55.67         7.6 0.11                           137 357 
 GIR2 SZ EP   2    2 3 34.87                             125    -0.5 5  143  21 
 BRI  SZ EP   2    2 3 43.67                             113    -0.6 4  225  25 
 BRI  SZ ES   2    2 4 10.81                             113     0.6 4  225  25 
 GUE  SZ EP   2    2 3 45.09                             112     0.0 4  231  20 
 OCA  SZ EP   2    2 3 48.39                             109    -0.3 4  265   8 
 OCA  SZ ES   2    2 4 18.42                             109     0.3 4  265   8 
 OCA  SZ I         2 4 21.92         5.5 0.50                           265   8 
                                                                                
