 2017  5 2 0533 48.0 L   6.772 -73.114144.5  RSN  7 0.3 1.4LRSN                1
 GAP=116        0.68       3.1     3.0  5.4  0.1057E+01  0.3811E+01  0.4885E+00E
 Epicentro: LOS SANTOS - SANTANDER                                             3
 ACTION:UPD 17-06-16 13:32 OP:jn   STATUS:               ID:20170502053348 L   I
 OLDACT:DUP 17-05-02 17:13 OP:edw  STATUS:               ID:20170502052745d    3
 2017-05-02-0528-00M.COL___365                                                 6
 STAT SP IPHASW D HRMM SECON CODA AMPLIT PERI AZIMU VELO AIN AR TRES W  DIS CAZ7
 BRR  HZ IP     C  534  9.25                             151    0.0110 75.8 299 
 BRR  HN ES        534 26.09                             151    0.2510 75.8 299 
 BRR  HZ I         534 30.66         5.0 0.38            151           75.8 299 
 PAM  EZ EP     D  534 10.21                             150    0.1510 77.6  36 
 PAM  EN ES        534 27.12                             150   -0.1710 77.6  36 
 PAM  EZ I         534 29.32         8.3 0.66            153           77.6  36 
 RUS  HZ EP        534 11.68                             144    0.3310 97.3 178 
 RUS  HN ES        534 29.50                             144   -0.1010 97.3 178 
 RUS  HZ I         534 31.34         2.2 0.32            149           97.3 178 
 PTB  HZ EP        534 14.54                             131   -0.55 9  151 260 
 PTB  HN ES        534 36.30                             131    0.04 9  151 260 
 PTB  HZ I         534 37.87         2.7 0.40            133            151 260 
 SPBC HN ES   2    534 38.80                             129    0.30 5  163 221 
 YPLC HE ES   2    534 39.61                             127   -0.46 4  172 152 
 ZAR  HZ EP        534 21.11                             121    0.33 8  209 293 
 ZAR  HN ES        534 46.05                             121   -0.34 8  209 293 
 ZAR  HZ I         534 51.48         3.1 0.22            124            209 293 
                                                                                
