 2015 10 2 0659  3.6 L   6.763 -73.112141.0  RSN  9 0.4 1.5LRSN                1
 GAP=143        0.74       3.1     3.8  5.4 -0.3614E+00  0.6090E+01  0.2585E+01E
 Epicentro: LOS SANTOS - SANTANDER                                             3
 ACTION:UPD 15-12-22 20:36 OP:cam  STATUS:               ID:20151002065903 L   I
 OLDACT:REG 15-10-02 13:16 OP:ar   STATUS:               ID:20151002064749     3
 2015-10-02-0647-49M.COL___351                                                 6
 STAT SP IPHASW D HRMM SECON CODA AMPLIT PERI AZIMU VELO AIN AR TRES W  DIS CAZ7
 BAR2 EZ ES        659 36.92                             171   -0.4910 20.4 202 
 BAR2 EZ I         659 41.02         5.0 0.28            170           20.4 202 
 BRR  HZ EP   2    659 24.69                             150    0.14 5 76.4 300 
 BRR  HN ES        659 41.39                             150    0.5110 76.4 300 
 BRR  HZ I         659 46.71         6.9 0.14            150           76.4 300 
 PAM  EZ EP        659 25.51                             150    0.1410 78.4  36 
 PAM  EN ES        659 42.40                             150    0.0510 78.4  36 
 PAM  EZ I         659 44.69         4.0 0.56            153           78.4  36 
 RUS  HZ EP   2    659 27.10                             144    0.53 5 96.3 178 
 RUS  HN ES   2    659 44.87                             144    0.38 5 96.3 178 
 RUS  HZ I         659 45.65         3.4 0.22            147           96.3 178 
 PTB  HZ EP   2    659 30.48                             130    0.03 5  151 261 
 PTB  HN ES   2    659 50.86                             130   -0.53 5  151 261 
 PTB  HZ I         659 53.17         5.7 0.16            132            151 261 
 SPBC HZ EP   2    659 31.85                             128    0.19 5  162 221 
 SPBC HN ES   2    659 54.40                             128    0.85 5  162 221 
 OCA  HZ EP   4    659 29.46                             128   -2.52 0  165 352 
 OCA  HN ES   2    659 53.19                             128   -0.93 5  165 352 
 OCA  HZ I         659 55.88        13.5 0.34            130            165 352 
 ZAR  HZ EP        659 36.03                             121   -0.23 8  209 293 
 ZAR  HN ES        7 0  1.66                             121   -0.07 8  209 293 
 ZAR  HZ I         7 0  7.26         5.4 0.28            122            209 293 
 CHI  HZ EP   2    659 40.84                             116    0.12 4  246 196 
 CHI  HN ES        7 0  9.37                             116   -0.29 8  246 196 
 CHI  HZ I         7 0 13.24         1.3 0.32            119            246 196 
                                                                                
