 2013  8 2 0220 25.0 L   6.820 -73.144144.8  RSN 15 0.5 2.2LRSN                1
 GAP=136        1.12       3.1     4.5  5.8 -0.1772E+01  0.7139E+01  0.1619E+01E
 Epicentro: LOS SANTOS - SANTANDER                                             3
 ACTION:UPD 14-01-14 08:58 OP:ep   STATUS:               ID:20130802022025 L   I
 OLDACT:REG 13-08-02 08:59 OP:carl STATUS:               ID:20130802021959     3
 2013-08-02-0219-59M.COL___268                                                 6
 STAT SP IPHASW D HRMM SECON CODA AMPLIT PERI AZIMU VELO AIN AR TRES W  DIS CAZ7
 BAR2 SZ EP        220 44.60                             170    0.0810 25.6 190 
 BAR2 SZ ES   1    220 59.70                             170   -0.08 7 25.6 190 
 BAR2 SZ I         221  0.49        48.9 0.22            169           25.6 190 
 GIR2 SZ EP        220 44.68                             168    0.2210 29.1 349 
 GIR2 SZ ES   1    221  0.05                             168    0.38 7 29.1 349 
 GIR2 SZ I         221  1.93        22.4 0.40            167           29.1 349 
 BRR  HZ EP        220 46.48                             153    0.5210 70.3 297 
 BRR  HN ES        221  3.09                             153    0.7610 70.3 297 
 BRR  HZ I         221  3.99        17.7 0.14            150           70.3 297 
 PAM  SZ EP        220 47.47                             151    0.5110 75.5  41 
 PAM  SN ES   1    221  3.56                             151   -0.56 7 75.5  41 
 PAM  SN I         221  5.68        34.7 0.42            152           75.5  41 
 RUS  HZ EP        220 48.46                             143   -0.3210  103 176 
 RUS  HN ES        221  7.29                             143   -0.0710  103 176 
 RUS  HZ I         221  8.03        21.0 0.26            144            103 176 
 PTB  HZ EP        220 51.07                             132   -0.84 9  148 258 
 PTB  HN ES   1    221 12.18                             132   -0.75 7  148 258 
 PTB  HN I         221 14.06        36.2 0.18            130            148 258 
 SPBC HZ EP        220 53.44                             129   -0.13 9  165 219 
 SPBC HN ES   1    221 15.37                             129   -0.51 7  165 219 
 SPBC HN I         221 17.14        54.4 0.24            128            165 219 
 ZAR  HZ EP   1    220 58.37                             122    1.09 6  203 292 
 ZAR  HN ES        221 22.45                             122   -0.03 9  203 292 
 ZAR  HN I         221 25.18        20.1 0.14            121            203 292 
 NOR  HZ EP        221  0.97                             118    0.18 8  236 234 
 NOR  HE ES        221 28.61                             118   -0.13 8  236 234 
 NOR  HZ I         221 35.42         7.8 0.44            118            236 234 
 SML  HN ES        221 28.73                             118   -0.95 8  242 335 
 CHI  HZ EP   1    221  2.73                             117   -0.12 6  251 195 
 CHI  HN ES   1    221 31.80                             117   -0.60 6  251 195 
 CHI  HZ I         221 35.85         4.2 0.24            117            251 195 
 HEL  HZ EP   1    221  6.53                             115    1.32 6  273 255 
 HEL  HN ES   4    221 35.23                             115   -1.37 0  273 255 
 HEL  HN I         221 42.95         8.6 0.48            114            273 255 
 URE  HN ES   4    221 36.07                             114   -1.78 0  283 291 
 GUY2CHZ EP   1    221  8.87                             112    0.18 5  303 234 
 GUY2CHN ES        221 42.60                             112   -0.20 7  303 234 
 GUY2CHN I         221 50.67         6.8 0.36                           303 234 
 RREF HZ EP   4    221 12.54                             111    1.29 0  323 229 
 RREF HN ES   4    221 45.35                             111   -2.00 0  323 229 
 COD  HZ EP   1    221 12.65                             109   -0.39 5  346 355 
 COD  HN ES        221 50.03                             109   -0.51 6  346 355 
 COD  HN I         221 59.85         2.1 0.44            109            346 355 
 PRA  HZ EP        221 18.79                             106    0.10 6  394 209 
 PRA  HN ES        222  1.15                             106    0.55 6  394 209 
 PRA  HZ I         222  5.94         5.1 0.36            106            394 209 
 SJC  HZ EP   4    221 19.19                             106   -1.09 0  407 327 
 SJC  HN ES   4    222  0.81                             106   -2.62 0  407 327 
                                                                                
