 2014  1 2 0450 46.1 L   6.824 -73.164135.2  RSN 15 0.6 1.8LRSN                1
 GAP=133        1.47       3.7     5.1  7.0 -0.2939E+01  0.1081E+02  0.1958E+01E
 Epicentro: LOS SANTOS - SANTANDER                                             3
 ACTION:UPD 14-03-13 09:50 OP:ep   STATUS:               ID:20140102045046 L   I
 OLDACT:REG 14-01-02 08:27 OP:stll STATUS:               ID:20140102044807     3
 2014-01-02-0448-07M.COL___240                                                 6
 STAT SP IPHASW D HRMM SECON CODA AMPLIT PERI AZIMU VELO AIN AR TRES W  DIS CAZ7
 BAR2 SZ EP        451  4.59                             169    0.0410 25.8 185 
 BAR2 SZ ES        451 18.67                             169   -0.2410 25.8 185 
 BAR2 SZ I         451 21.82        19.2 0.16            167           25.8 185 
 BRR  HZ IP     D  451  6.39                             152    0.4210 68.2 297 
 BRR  HN ES        451 22.65                             152    1.2110 68.2 297 
 BRR  HZ I         451 23.83        15.3 0.32            151           68.2 297 
 PAM  SZ EP        451  7.46                             149    0.2810 76.6  42 
 PAM  SZ I         451  7.58         5.5 0.16            154           76.6  42 
 PAM  SN ES        451 23.81                             149    0.2010 76.6  42 
 RUS  HZ EP        451  8.84                             141   -0.2310  103 175 
 RUS  HN ES        451 26.18                             141   -0.7910  103 175 
 RUS  HZ I         451 29.17         7.2 0.18            142            103 175 
 PTB  HZ EP        451 11.35                             130   -0.77 9  146 258 
 PTB  HN ES        451 31.92                             130   -0.48 9  146 258 
 PTB  HZ I         451 34.67        11.0 0.14            130            146 258 
 OCA  HZ EP        451 13.08                             128   -0.28 9  157 354 
 SPBC HZ EP        451 13.68                             126   -0.24 9  164 218 
 SPBC HN ES        451 35.73                             126    0.13 9  164 218 
 SPBC HZ I         451 41.68        11.2 0.22            127            164 218 
 ZAR  HZ EP        451 18.55                             120    0.95 9  201 292 
 ZAR  HN ES        451 42.05                             120   -0.11 9  201 292 
 ZAR  HZ I         451 49.60         6.5 0.24            121            201 292 
 NOR  HZ EP        451 21.22                             116   -0.04 8  235 234 
 NOR  HE ES        451 48.41                             116   -0.26 8  235 234 
 NOR  HZ I         451 50.85         4.2 0.42            117            235 234 
 SML  HZ EP        451 20.91                             115   -0.91 8  240 335 
 SML  HN ES        451 49.14                             115   -0.52 8  240 335 
 SML  HZ I         451 51.16         9.2 0.30            117            240 335 
 CHI  HZ EP        451 23.20                             115   -0.29 8  251 195 
 CHI  HN ES        451 52.10                             115   -0.54 8  251 195 
 CHI  HZ I         452  0.16         4.4 0.40            116            251 195 
 ROSC BZ EP        451 24.64                             114    0.80 8  254 210 
 ROSC BE ES        451 54.76                             114    1.51 8  254 210 
 HEL  HZ EP        451 26.37                             113    0.69 8  271 255 
 HEL  HN ES        451 55.42                             113   -1.11 8  271 255 
 HEL  HZ I         452  3.34         4.4 0.36            114            271 255 
 GUY2CHZ EP        451 30.20                             110    0.94 7  301 234 
 GUY2CHN ES        452  2.54                             110   -0.37 7  301 234 
 GUY2CHZ I         452 12.71         3.0 0.60                           301 234 
 ORTC HZ EP        451 40.11                             104    0.29 6  396 216 
 ORTC HN ES        452 21.63                             104   -0.08 6  396 216 
 ORTC HZ I         452 28.94         3.0 0.50            106            396 216 
                                                                                
