 2012  5 2 0615 38.6 L   7.005 -73.285122.4  RSN  5 0.4 1.3LRSN                1
 GAP=168        1.02       6.8     8.4 12.6  0.1425E+01 -0.1652E+02 -0.2565E+02E
 Epicentro: BETULIA - SANTANDER                                                3
 ACTION:UP  12-07-05 12:01 OP:pat  STATUS:               ID:20120502061538 L   I
 2012-05-02-0610-00M.COL___189                                                 6
 STAT SP IPHASW D HRMM SECON CODA AMPLIT PERI AZIMU VELO SNR AR TRES W  DIS CAZ7
 BAR2 SZ EP   1    615 56.88                             158     0.6 8   47 166 
 BAR2 SZ I         616 11.62        11.2 0.25                            47 166 
 BRR  HZ EP   1    615 55.48                             157    -0.5 8   49 284 
 BRR  HN ES   1    616  9.82                             157     0.3 8   49 284 
 BRR  HZ I         616 10.55        12.4 0.10                            49 284 
 RUS  HN ES   1    616 20.31                             132    -0.4 8  125 170 
 RUS  HZ I         616 22.69         1.7 0.17                           125 170 
 OCA  SZ EP        616  2.67                             129    -0.210  137 358 
 PTB  HZ EP        616  3.28                             128     0.310  139 248 
 PTB  HN ES   1    616 21.57                             128    -0.4 7  139 248 
 PTB  HZ I         616 25.79         1.8 0.32                           139 248 
                                                                                
