 2010 12 2 0559 21.0 L   6.789 -73.098153.1  RSN 31 0.4 4.1LRSN                1
 GAP=124        0.68       2.1     3.2  3.6 -0.2834E+01  0.1641E+01  0.1664E+01E
 Epicentro: LOS SANTOS - SANTANDER                                             3
 ACTION:UP  11-01-14 15:22 OP:pat  STATUS:               ID:20101202055921 L   I
 2010-12-02-0559-08S.COL___132                                                 6
 STAT SP IPHASW D HRMM SECON CODA AMPLIT PERI AZIMU VELO SNR AR TRES W  DIS CAZ7
 BAR2 SZ IP     C  559 41.70                             171     0.210   24 203 
 BAR2 SZ ES   1    559 57.02                             171    -0.5 7   24 203 
 BAR2 SZ I         559 59.75      3324.4 0.65                            24 203 
 GIR2 SZ IP     D  559 41.75                             167     0.110   34 342 
 BRR  HZ IP     C  559 43.52                             152     0.310   76 298 
 BRR  HE ES   1    6 0  0.60                             152     0.0 7   76 298 
 BRR  HZ I         6 0  3.34      2525.1 0.20                            76 298 
 RUS  HZ IP     D  559 45.45                             146     0.010   99 179 
 RUS  HE ES   1    6 0  4.43                             146     0.0 7   99 179 
 RUS  HZ I         6 0  7.09      1419.4 0.25                            99 179 
 GUE  SZ EP        559 46.63                             141     0.210  117   9 
 GRA  SZ IP     C  559 47.46                             139     0.510  126  15 
 GRA  SZ ES   1    6 0  6.97                             139    -0.1 7  126  15 
 GRA  SZ I         6 0  9.73      2001.0 0.29                           126  15 
 OCA  SZ EP        559 49.90                             131    -0.2 9  162 351 
 OCA  SZ ES   1    6 0 12.40                             131    -0.4 7  162 351 
 OCA  SZ I         6 0 17.05      3221.1 0.27                           162 351 
 NOR  SZ EP        559 57.20                             120    -0.4 8  238 236 
 NOR  SE ES   1    6 0 26.13                             120     0.0 6  238 236 
 CHI  HZ IP     D  559 59.19                             119     0.0 8  249 196 
 CHI  HE ES   1    6 0 28.64                             119    -0.3 6  249 196 
 CHI  HZ I         6 0 37.31       737.3 0.61                           249 196 
 ROSC BE ES   1    6 0 30.46                             118     0.5 6  254 212 
 CVER SZ EP        6 0  1.84                             116     0.0 8  273 203 
 HEL  HZ EP        6 0  1.60                             116    -0.5 7  277 256 
 HEL  HN ES   1    6 0 33.68                             116    -0.5 6  277 256 
 HEL  HZ I         6 0 40.97       937.2 0.33                           277 256 
 VIL  SZ EP        6 0  4.52                             113     0.0 7  301 191 
 VIL  SE ES   1    6 0 38.47                             113    -0.1 5  301 191 
 VIL  SZ I         6 0 48.94       514.5 0.46                           301 191 
 GUY  SZ EP   1    6 0  6.00                             113     0.6 5  305 236 
 GUY  SN ES   1    6 0 40.46                             113     0.5 5  305 236 
 GUY  SZ I         6 0 48.24      1744.6 0.31                           305 236 
 RREF HZ EP        6 0  7.67                             112    -0.2 7  325 230 
 RREF HN ES   1    6 0 44.96                             112     0.6 5  325 230 
 RREF HZ I         6 0 53.94       875.2 0.56                           325 230 
 DBB  SZ IP        6 0  9.41                             110     0.0 7  345 274 
 TOL  SZ EP        6 0 10.05                             110     0.1 6  346 225 
 SDV  BZ EP        6 0 10.89                             110    -0.1 6  357  49 
 SDV  BZ I         6 0 50.44       343.3 0.63                           357  49 
 ANIL HZ EP        6 0 12.07                             109     0.6 6  360 225 
 ANIL HE ES   2    6 0 50.91                             109     0.1 3  360 225 
 PRA  HZ EP        6 0 14.60                             108    -0.4 6  393 210 
 PRA  HE ES   1    6 0 57.01                             108    -0.1 4  393 210 
 GUA  SZ EP        6 0 23.39                             104    -0.8 5  472 174 
 SOL  SZ EP        6 0 25.20                             104     0.0 5  481 263 
 BET  SZ EP        6 0 29.51                             102    -0.8 4  523 210 
 HORQ SZ EP        6 0 31.59                             102    -0.4 4  535 227 
 HORQ SN ES   1    6 1 26.35                             102    -1.0 3  535 227 
 MARA HZ EP   1    6 0 32.56                             102     0.1 3  539 216 
 POP2 HZ EP        6 0 41.27                             100    -0.2 3  615 220 
 POP2 HE ES   2    6 1 45.67                             100     1.4 1  615 220 
 FLO2 HZ EP        6 0 44.03                             100    -0.4 2  642 206 
 FLO2 HZ I         6 0 46.15        49.0 0.41                           642 206 
 FLO2 HE ES   2    6 1 50.19                             100     0.7 1  642 206 
 SOTA HZ EP        6 0 46.29                             100     0.8 2  645 217 
 SOTA HZ I         6 2  0.63        74.1 0.54                           645 217 
 CRU  SZ EP   1    6 0 55.00                              98     0.9 1  718 217 
 GCUF HZ EP        6 1  1.22                              97     0.1 0  775 218 
 GCUF HZ I         6 1  4.07        27.6 0.49                           775 218 
 CUM  SZ EP        6 1  7.89                              97    -0.1 0  833 219 
                                                                                
