 2015  9 2 0608  7.4 L   6.777 -73.176148.1  RSN  6 0.3 1.6LRSN                1
 GAP=232        0.67       3.8     4.3  4.6  0.4157E+01  0.3271E+01 -0.5822E+00E
 Epicentro: LOS SANTOS - SANTANDER                                             3
 ACTION:UPD 15-10-28 16:23 OP:cam  STATUS:               ID:20150902060807 L   I
 OLDACT:DUP 15-09-02 18:19 OP:stll STATUS:               ID:20150902055750d    3
 OLDACT:DUP 15-09-02 18:15 OP:stll STATUS:               ID:20150902055749d    3
 OLDACT:REG 15-09-02 14:03 OP:stll STATUS:               ID:20150902055748     3
 2015-09-02-0557-48M.COL___358                                                 6
 STAT SP IPHASW D HRMM SECON CODA AMPLIT PERI AZIMU VELO AIN AR TRES W  DIS CAZ7
 BAR2 EZ EP        6 8 27.22                             172   -0.0510 20.4 182 
 BAR2 EZ ES        6 8 42.43                             172   -0.3210 20.4 182 
 BAR2 EZ I         6 8 44.47         7.3 0.20            173           20.4 182 
 BRR  HZ EP        6 8 29.00                             153    0.2810 69.6 302 
 BRR  HZ I         6 8 29.28        11.6 0.22            141           69.6 302 
 BRR  HE ES        6 8 45.69                             153    0.3510 69.6 302 
 RUS  HZ EP        6 8 31.13                             145   -0.1010 98.3 174 
 RUS  HN ES        6 8 49.86                             145    0.0510 98.3 174 
 RUS  HZ I         6 8 52.24         3.2 0.22            142           98.3 174 
 PTB  HZ EP        6 8 33.91                             133   -0.32 9  144 260 
 PTB  HN ES        6 8 54.92                             133   -0.22 9  144 260 
 PTB  HZ I         6 9  0.92         6.5 0.44            123            144 260 
 SPBC HZ EP        6 8 36.11                             130    0.41 9  159 219 
 SPBC HN ES        6 8 57.88                             130    0.11 9  159 219 
 SPBC HZ I         6 9  1.46         8.0 0.12            123            159 219 
 ZAR  HZ EP        6 8 39.56                             123   -0.23 9  202 293 
 ZAR  HZ I         6 9 12.38         4.6 0.22            114            202 293 
                                                                                
