 2013  5 2 0123 12.2 L   6.805 -73.123151.0  RSN 18 0.4 2.6LRSN                1
 GAP= 67        0.88       2.5     2.9  4.4  0.2792E+00  0.3449E+01  0.8949E+00E
 Epicentro: LOS SANTOS - SANTANDER                                             3
 ACTION:UPD 13-06-20 09:47 OP:ep   STATUS:               ID:20130502012312 L   I
 2013-05-02-0120-00M.COL___253                                                 6
 STAT SP IPHASW D HRMM SECON CODA AMPLIT PERI AZIMU VELO AIN AR TRES W  DIS CAZ7
 BAR2 SZ IP     C  123 32.19                             170   -0.2810 24.4 196 
 BAR2 SZ ES   1    123 48.03                             170   -0.27 7 24.4 196 
 BAR2 SZ I         123 50.14        82.6 0.32            169           24.4 196 
 GIR2 SZ EP        123 32.33                             168   -0.1610 31.3 346 
 GIR2 SZ ES   1    123 48.05                             168   -0.27 7 31.3 346 
 GIR2 SZ I         123 49.65        54.3 0.14            165           31.3 346 
 BRR  HZ EP     C  123 34.07                             153    0.0510 73.2 297 
 BRR  HN ES        123 51.45                             153    0.4010 73.2 297 
 BRR  HZ I         123 55.90        58.6 0.28            148           73.2 297 
 PAM  SZ EP     D  123 35.11                             152    0.2610 75.4  38 
 PAM  SN ES        123 52.29                             152   -0.2410 75.4  38 
 PAM  SZ I         123 54.28        32.1 0.20            149           75.4  38 
 RUS  HZ EP     D  123 36.03                             145   -0.4610  101 178 
 RUS  HN ES        123 55.14                             145   -0.3010  101 178 
 RUS  HZ I         123 55.80        43.9 0.28            141            101 178 
 PTB  HZ EP        123 39.24                             133   -0.58 9  150 259 
 PTB  HZ I         124  7.46        98.7 0.32            127            150 259 
 TAM  HZ EP     C  123 40.37                             132    0.29 9  153 105 
 TAM  HZ I         124  1.07        31.7 0.32            128            153 105 
 TAM  HE ES        124  2.47                             132    0.64 9  153 105 
 OCA  HZ EP        123 40.80                             131   -0.10 9  160 352 
 OCA  HN ES        124  3.47                             131    0.18 9  160 352 
 OCA  HZ I         124  7.14        61.2 0.28            126            160 352 
 YOP  SZ EP   1    123 42.81                             128    0.26 7  178 154 
 ZAR  HZ EP        123 44.83                             123   -0.37 8  206 292 
 ZAR  HN ES   1    124 11.35                             123    0.39 6  206 292 
 ZAR  HZ I         124 17.19        43.9 0.18            118            206 292 
 NOR  HZ EP        123 48.13                             119   -0.35 8  237 235 
 NOR  HE ES        124 17.22                             119    0.43 8  237 235 
 NOR  HZ I         124 20.43        55.4 0.18            115            237 235 
 SML  HZ EP        123 48.64                             118   -0.54 8  244 335 
 SML  HE ES        124 18.55                             118    0.51 8  244 335 
 SML  HZ I         124 22.09        50.9 0.18            114            244 335 
 ROSC BZ EP   1    123 51.74                             118    0.95 6  255 211 
 HEL  HZ EP     C  123 53.53                             116    0.57 8  275 256 
 HEL  HN ES   1    124 25.19                             116    0.43 6  275 256 
 HEL  HZ I         124 31.39        35.8 0.30            111            275 256 
 URE  HZ EP   4    123 52.02                             114   -1.74 0  286 292 
 URE  HN ES   4    124 23.30                             114   -2.89 0  286 292 
 URE  HZ I         124 36.43        31.7 0.26            110            286 292 
 COD  HZ EP   2    124  0.69                             110   -0.06 3  348 354 
 COD  HN ES   1    124 38.05                             110   -0.57 5  348 354 
 COD  HZ I         124 47.09        10.0 0.76            106            348 354 
 PRA  HZ EP   1    124  5.80                             107   -0.29 4  394 210 
 PRA  HN ES   1    124 48.34                             107    0.20 4  394 210 
 PRA  HZ I         124 51.53        17.5 0.28            104            394 210 
 SJC  HZ EP   4    124  6.42                             106   -1.62 0  410 327 
 SJC  HN ES   4    124 49.78                             106   -1.83 0  410 327 
 SJC  HZ I         124 52.43        10.5 0.44            103            410 327 
                                                                                
