 2012  7 2 0533  9.2 L   6.571 -73.341130.1  RSN  6 0.4 1.1LRSN                1
 GAP=109        0.80       5.1     6.6  9.4  0.1492E+02  0.8410E+01 -0.6983E+01E
 Epicentro: HATO - SANTANDER                                                   3
 ACTION:UPD 12-08-14 11:42 OP:ep   STATUS:               ID:20120702053309 L   I
 2012-07-02-0530-00M.COL___201                                                 6
 STAT SP IPHASW D HRMM SECON CODA AMPLIT PERI AZIMU VELO AIN AR TRES W  DIS CAZ7
 BAR2 SZ EP   1    533 26.92                             172     0.1 7   18  82 
 BAR2 SZ ES   1    533 40.62                             172     0.0 7   18  82 
 BAR2 SZ I         533 41.36         4.0 0.23            172             18  82 
 BRR  HZ EP   1    533 28.87                             149     0.1 7   72 325 
 BRR  HN ES   1    533 44.16                             149     0.2 7   72 325 
 RUS  HZ EP   1    533 29.87                             147    -0.1 7   80 159 
 RUS  HZ I         533 30.33         2.3 0.38            147             80 159 
 RUS  HN ES   1    533 46.23                             147     0.1 7   80 159 
 PTB  HN ES   2    533 49.96                             134    -1.0 5  123 268 
 PTB  HZ I         533 51.43         2.1 0.32            134            123 268 
 OCA  HN ES   1    534  1.33                             122    -0.5 7  184   1 
 ZAR  HN ES   1    534  4.32                             120     0.6 6  196 301 
