 2017  7 2 0820  8.7 L   6.653 -73.390116.7  RSN  4 0.4 1.4LRSN                1
 GAP=158        0.64       9.5     6.3  8.4  0.4145E+02  0.2305E+02  0.2755E+02E
 Epicentro: GALAN - SANTANDER                                                  3
 ACTION:UPD 17-08-30 15:29 OP:rebc STATUS:               ID:20170702082008 L   I
 OLDACT:UP  17-07-02 16:47 OP:and  STATUS:               ID:20170702081740     3
 OLDACT:UP  17-07-02 16:47 OP:and  STATUS:               ID:20170702081740     3
 OLDACT:UP  17-07-02 16:47 OP:and  STATUS:               ID:20170702081740     3
 OLDACT:UP  17-07-02 16:46 OP:and  STATUS:               ID:20170702081740     3
 OLDACT:UP  17-07-02 16:46 OP:and  STATUS:               ID:20170702081740     3
 OLDACT:UP  17-07-02 16:46 OP:and  STATUS:               ID:20170702081740     3
 OLDACT:REG 17-07-02 12:01 OP:and  STATUS:               ID:20170702081740     3
 2017-07-02-0818-00M.COL___380                                                 6
 STAT SP IPHASW D HRMM SECON CODA AMPLIT PERI AZIMU VELO AIN AR TRES W  DIS CAZ7
 BAR2 EZ IP     C  820 24.85                             168    0.0410 23.9 106 
 BAR2 EZ ES   2    820 38.03                             168    0.61 5 23.9 106 
 BAR2 EZ I         820 39.24        17.2 0.24            174           23.9 106 
 BRR  HZ IP   2 D  820 25.29                             150   -0.83 5 61.5 325 
 BRR  HN ES        820 39.57                             150   -0.1810 61.5 325 
 BRR  HZ I         820 45.92         4.8 0.52            154           61.5 325 
 PTB  HZ EP   3    820 30.18                             131   -0.42 2  119 264 
 PTB  HN ES   2    820 47.51                             131   -0.21 5  119 264 
 PTB  HZ I         820 52.31         2.3 0.20            135            119 264 
 ZAR  HZ EP   2    820 37.95                             117    0.45 4  187 300 
 ZAR  HN ES        821  0.26                             117    0.25 9  187 300 
                                                                                
