 2012  2 2 0508  8.0 L   6.777 -73.178154.4  RSN  5 0.3 1.4LRSN                1
 GAP=232        0.69       6.0     5.4  8.9  0.4918E+01 -0.1557E+01  0.2746E+01E
 ACTION:UP  12-03-07 16:26 OP:epov STATUS:               ID:20120202050808 L   I
 2012-02-02-0500-00M.COL___187                                                 6
 STAT SP IPHASW D HRMM SECON CODA AMPLIT PERI AZIMU VELO SNR AR TRES W  DIS CAZ7
 BAR2 SZ EP        5 8 28.55                             172   -0.1110 20.4 181 
 BAR2 SZ I         5 8 46.86         5.5 0.27                          20.4 181 
 BRR  HZ EP   1    5 8 30.38                             155    0.34 7 69.4 302 
 BRR  HN ES   1    5 8 47.39                             155    0.19 7 69.4 302 
 BRR  HZ I         5 8 52.06         7.4 0.33                          69.4 302 
 RUS  HZ EP   1    5 8 32.82                             146    0.32 7 98.4 174 
 RUS  HE ES   1    5 8 51.39                             146   -0.19 7 98.4 174 
 RUS  HZ I         5 8 52.76         2.9 0.22                          98.4 174 
 PTB  HZ EP   1    5 8 34.80                             135   -0.58 7  144 260 
 PTB  HN ES   1    5 8 56.39                             135   -0.32 7  144 260 
 NOR  SN ES   1    5 9 12.26                             121    0.52 6  230 234 
                                                                                
