 2010  6 2 0229 34.1 L   6.790 -72.949148.7  RSN  5 0.2 2.3LRSN                1
 GAP=214        0.47       3.0     7.9  5.2 -0.1157E+02  0.1242E+02 -0.1991E+01E
 Epicentro: CEPITA - SANTANDER                                                 3
 ACTION:UP  10-08-24 10:07 OP:vdl  STATUS:               ID:20100602022934 L   I
 2010-06-02-0227-41S.COL___109                                                 6
 STAT SP IPHASW D HRMM SECON CODA AMPLIT PERI AZIMU VELO SNR AR TRES W  DIS CAZ7
 BAR2 SZ IP        229 54.50                             167     0.110   34 230 
 BAR2 SZ ES   1    230  9.97                             167    -0.2 7   34 230 
 OCA  SZ IP        230  3.03                             129    -0.1 9  165 346 
 OCA  SZ ES   1    230 25.88                             129     0.1 7  165 346 
 OCA  SZ I         230 32.03        22.9 0.44                           165 346 
 CHI  HZ EP   2    230 12.02                             117    -0.6 4  254 200 
 CHI  HE ES   2    230 42.96                             117     0.4 4  254 200 
 CHI  HZ I         230 51.37        13.0 0.70                           254 200 
 HEL  HZ EP   2    230 16.58                             113    -0.2 4  293 257 
 HEL  HZ I         230 53.63         6.1 0.72                           293 257 
 RREF BZ EP   2    230 22.63                             110     0.4 3  338 232 
 RREF BE ES   1    230 59.68                             110    -0.1 5  338 232 
 RREF BZ I         231  6.99        16.9 0.35                           338 232 
                                                                                
