 2015  5 2 0028 13.9 L   7.108 -73.325 21.1  RSN  4 0.3 0.8LRSN                1
 GAP=160        0.87       3.0     2.2  4.4 -0.1083E+01 -0.2354E+01  0.6073E+01E
 Epicentro: LEBRIJA - SANTANDER                                                3
 ACTION:UPD 15-09-10 22:00 OP:cam  STATUS:               ID:20150502002813 L   I
 OLDACT:DUP 15-05-02 14:14 OP:stll STATUS:               ID:20150502001747d    3
 2015-05-02-0017-45M.COL___274                                                 6
 STAT SP IPHASW D HRMM SECON CODA AMPLIT PERI AZIMU VELO AIN AR TRES W  DIS CAZ7
 BRR  HZ EP     D  028 21.23                             114   -0.2510 42.8 270 
 BRR  HZ I         028 24.37         5.2 0.24             90           42.8 270 
 BRR  HN ES        028 27.54                             114    0.1110 42.8 270 
 BAR2 EZ EP        028 23.74                             108   -0.3410 59.2 165 
 BAR2 EZ I         028 26.22         4.8 0.10             90           59.2 165 
 BAR2 EZ ES        028 32.25                             108    0.2010 59.2 165 
 PAM  SZ EP        028 26.61                             105    0.1610 73.6  70 
 PAM  SZ I         028 26.99         3.0 0.14             90           73.6  70 
 PAM  SN ES        028 36.14                             105   -0.1210 73.6  70 
 RUS  HZ EP        028 36.05                              56    0.68 9  137 169 
 RUS  HZ I         028 38.57         1.4 0.18             90            137 169 
 RUS  HE ES        028 51.74                              56   -0.41 9  137 169 
                                                                                
