 2016 10 2 0923 48.0 L   6.815 -73.182138.7  RSN  7 0.3 1.6LRSN                1
 GAP=179        0.69       2.7     3.8  6.5  0.8839E+00  0.6044E+01 -0.3434E+01E
 Epicentro: ZAPATOCA - SANTANDER                                               3
 ACTION:UPD 16-11-09 19:15 OP:rebc STATUS:               ID:20161002092348 L   I
 OLDACT:REG 16-10-02 13:37 OP:dnl  STATUS:               ID:20161002091740     3
 2016-10-02-0918-00M.COL___366                                                 6
 STAT SP IPHASW D HRMM SECON CODA AMPLIT PERI AZIMU VELO AIN AR TRES W  DIS CAZ7
 BAR2 EZ EP   2    924  6.81                             169    0.02 5 24.7 180 
 BAR2 EZ ES        924 21.13                             169   -0.3310 24.7 180 
 BAR2 EZ I         924 24.33         7.3 0.26            174           24.7 180 
 BRR  HZ EP   2    924  8.57                             153    0.45 5 66.9 299 
 BRR  HE ES   4    924 25.69                             153    1.86 0 66.9 299 
 BRR  HZ I         924 29.85         8.4 0.32            152           66.9 299 
 RUS  HZ EP        924 10.85                             142   -0.3410  103 174 
 RUS  HE ES        924 29.75                             142    0.4510  103 174 
 RUS  HZ I         924 30.32         3.9 0.20            149            103 174 
 PTB  HZ EP   2    924 13.19                             131   -0.85 5  144 258 
 PTB  HN ES        924 34.14                             131   -0.24 9  144 258 
 PTB  HZ I         924 36.37         5.3 0.42            134            144 258 
 OCA  HZ EP   2    924 15.64                             128    0.09 5  158 355 
 OCA  HN ES        924 37.18                             128    0.13 9  158 355 
 OCA  HZ I         924 45.14         9.2 0.28            130            158 355 
 SPBC HZ EP   2    924 15.75                             128   -0.08 5  162 218 
 SPBC HN ES        924 37.78                             128    0.23 9  162 218 
 SPBC HZ I         924 42.06         8.1 0.20            133            162 218 
 ZAR  HZ EP   2    924 19.96                             121    0.44 4  200 292 
 ZAR  HN ES        924 44.27                             121    0.16 9  200 292 
 ZAR  HZ I         924 49.84         5.6 0.30            124            200 292 
                                                                                
