 2012  4 2 0922  4.0 L   6.763 -73.212141.2  RSN  4 0.3 1.2LRSN                1
 GAP=225        0.64       7.5     6.9  8.4  0.2735E+02  0.3812E+01 -0.7116E+01E
 Epicentro: VILLANUEVA - SANTANDER                                             3
 ACTION:UPD 12-07-05 11:49 OP:tino STATUS:               ID:20120402092204 L   I
 2012-04-02-0920-00M.COL___196                                                 6
 STAT SP IPHASW D HRMM SECON CODA AMPLIT PERI AZIMU VELO AIN AR TRES W  DIS CAZ7
 BAR2 SZ ES   2    922 37.12                             172    -0.7 5   19 170 
 BAR2 SZ I         922 41.05         8.6 0.63                            19 170 
 BRR  HZ EP   1    922 24.57                             153     0.1 7   67 305 
 BRR  HN ES   2    922 40.85                             153     0.5 5   67 305 
 RUS  HZ EP   1    922 27.14                             144     0.0 7   97 172 
 RUS  HE ES   1    922 45.27                             144     0.2 7   97 172 
 RUS  HZ I         922 46.93         2.0 0.30                            97 172 
 PTB  HZ EP   1    922 29.63                             133    -0.3 7  140 260 
 PTB  HN ES   1    922 50.10                             133     0.0 7  140 260 
 PTB  HZ I         922 53.18         1.2 0.15                           140 260 
                                                                                
