 2012  6 2 0352 33.3 L   6.788 -73.175148.2  RSN  4 0.4 1.4LRSN                1
 GAP=241        0.70      11.5     6.8  9.0  0.3941E+02  0.4390E+01 -0.1346E+02E
 Epicentro: LOS SANTOS - SANTANDER                                             3
 ACTION:UPD 12-08-06 17:46 OP:ep   STATUS:               ID:20120602035231 L   I
 2012-06-02-0350-00M.COL___201                                                 6
 STAT SP IPHASW D HRMM SECON CODA AMPLIT PERI AZIMU VELO AIN AR TRES W  DIS CAZ7
 BAR2 SZ EP        352 53.33                             171    0.1610 21.7 182 
 BAR2 SZ ES   1    353  8.53                             171   -0.16 7 21.7 182 
 BAR2 SZ I         353 10.92         8.9 0.27            167           21.7 182 
 RUS  HZ EP   1    352 57.56                             145    0.36 7 99.6 174 
 RUS  HN ES   2    353 15.47                             145   -0.39 5 99.6 174 
 RUS  HZ I         353 17.50         2.8 0.35            145           99.6 174 
 PTB  HZ EP   1    352 59.44                             133   -0.71 7  144 259 
 PTB  HN ES   1    353 21.45                             133    0.35 7  144 259 
 PTB  HZ I         353 25.71         3.0 0.15            133            144 259 
 ZAR  HN ES   2    353 30.90                             123    0.03 4  202 293 
                                                                                
