 2013  8 2 0932 13.6 L   6.783 -73.116148.1  RSN  7 0.5 1.4LRSN                1
 GAP=141        0.99       6.4     5.8 10.5  0.5818E+01  0.2527E+02  0.1315E+02E
 Epicentro: LOS SANTOS - SANTANDER                                             3
 ACTION:UPD 14-01-14 08:58 OP:ep   STATUS:               ID:20130802093213 L   I
 OLDACT:DUP 13-08-02 12:08 OP:carl STATUS:               ID:20130802092960d    3
 2013-08-02-0929-59M.COL___268                                                 6
 STAT SP IPHASW D HRMM SECON CODA AMPLIT PERI AZIMU VELO AIN AR TRES W  DIS CAZ7
 BAR2 SZ EP   1    932 33.65                             171    0.12 7 22.3 199 
 BAR2 SZ I         932 51.03         3.7 0.40            167           22.3 199 
 GIR2 SZ EP   1    932 33.59                             167   -0.07 7 33.8 345 
 BRR  HZ EP   1    932 35.24                             152   -0.01 7 75.0 299 
 BRR  HN ES   1    932 52.88                             152    0.77 7 75.0 299 
 PAM  SN ES        932 53.14                             151   -0.4210 76.8  37 
 RUS  HZ EP   1    932 37.83                             145    0.36 7 98.5 178 
 RUS  HE ES   1    932 56.32                             145    0.25 7 98.5 178 
 RUS  HZ I         932 58.89         1.5 0.30            137           98.5 178 
 PTB  HZ EP   1    932 40.34                             132   -0.72 7  151 260 
 PTB  HN ES   1    933  1.54                             132   -0.90 7  151 260 
 PTB  HZ I         933  3.73         4.5 0.42            128            151 260 
 ZAR  HZ EP   1    932 47.29                             122    0.67 6  208 292 
 ZAR  HE ES        933 12.55                             122    0.20 8  208 292 
 ZAR  HZ I         933 17.70         3.9 0.36            118            208 292 
                                                                                
