 2016 12 2 0455 56.0 L   6.734 -73.155144.4  RSN  5 0.5 1.2LRSN                1
 GAP=154        1.22      10.1     5.8  8.9 -0.1243E+02  0.1457E+02 -0.3827E+01E
 Epicentro: LOS SANTOS - SANTANDER                                             3
 ACTION:UPD 17-01-11 20:11 OP:rebc STATUS:               ID:20161202045556 L   I
 OLDACT:REG 16-12-02 12:31 OP:dnl  STATUS:               ID:20161202044740     3
 2016-12-02-0448-00M.COL___337                                                 6
 STAT SP IPHASW D HRMM SECON CODA AMPLIT PERI AZIMU VELO AIN AR TRES W  DIS CAZ7
 BAR2 EZ EP        456 15.68                             173    0.3810 15.9 191 
 BAR2 EZ ES        456 30.37                             173   -0.0110 15.9 191 
 BAR2 EZ I         456 33.78         4.0 0.56            173           15.9 191 
 BRR  HZ EP        456 17.60                             151    0.4710 74.1 304 
 BRR  HE ES        456 34.40                             151    0.7610 74.1 304 
 BRR  HZ I         456 35.01         5.4 0.38            151           74.1 304 
 PAM  EZ EP        456 18.45                             148    0.0210 83.8  37 
 PAM  EE ES        456 35.28                             148   -0.6710 83.8  37 
 PAM  EZ I         456 37.71         3.2 0.48            152           83.8  37 
 PTB  HZ EP        456 22.00                             132   -0.61 9  145 262 
 PTB  HN ES        456 42.97                             132   -0.42 9  145 262 
 PTB  HZ I         456 47.72         1.2 0.30            133            145 262 
 ZAR  HZ EP        456 28.90                             122    0.38 8  206 294 
 ZAR  HE ES        456 53.49                             122   -0.42 8  206 294 
 ZAR  HZ I         456 59.31         1.5 0.42            123            206 294 
                                                                                
