 2015  1 2 0405 19.4 L   6.764 -73.052160.4  RSN  5 0.7 1.4LRSN                1
 GAP=245        1.81      12.0    13.8 19.2  0.1893E+02  0.3157E+02 -0.2624E+02E
 Epicentro: LOS SANTOS - SANTANDER                                             3
 ACTION:UPD 15-03-02 15:36 OP:nd   STATUS:               ID:20150102040519 L   I
 OLDACT:DUP 15-01-02 16:30 OP:stll STATUS:               ID:20150102035746d    3
 OLDACT:DUP 15-01-02 16:26 OP:stll STATUS:               ID:20150102035745d    3
 2015-01-02-0357-44M.COL___277                                                 6
 STAT SP IPHASW D HRMM SECON CODA AMPLIT PERI AZIMU VELO AIN AR TRES W  DIS CAZ7
 BAR2 EZ EP        4 5 39.63                             171   -1.1710 23.9 217 
 BAR2 EZ ES        4 5 57.24                             171   -0.2610 23.9 217 
 BAR2 EZ I         4 6  0.10         4.2 0.18            168           23.9 217 
 BRR  HZ EP        4 5 43.79                             151    1.0410 82.2 298 
 BRR  HN ES        4 6  1.32                             151    0.3510 82.2 298 
 BRR  HZ I         4 6  5.97         3.9 0.14            150           82.2 298 
 RUS  HN ES        4 6  4.18                             148    0.3810 96.4 182 
 RUS  HZ I         4 6  5.96         2.4 0.42            150           96.4 182 
 PTB  HE ES        4 6 10.27                             133   -0.80 9  157 261 
 PTB  HZ I         4 6 16.46         2.5 0.18            133            157 261 
 SPBC HN ES        4 6 13.22                             131    0.41 9  167 223 
 SPBC HZ I         4 6 16.40         3.0 0.28            133            167 223 
                                                                                
