 2015  3 2 0625 17.2 L   6.746 -73.120150.4  RSN  4 0.3 0.8LRSN                1
 GAP=142        0.65       5.1     4.4  7.0 -0.4569E+01  0.3395E+00 -0.5211E+00E
 Epicentro: LOS SANTOS - SANTANDER                                             3
 ACTION:UPD 15-04-30 16:22 OP:nd   STATUS:               ID:20150302062517 L   I
 OLDACT:DUP 15-03-02 17:37 OP:spq  STATUS:               ID:20150302061747d    3
 2015-03-02-0617-46M.COL___290                                                 6
 STAT SP IPHASW D HRMM SECON CODA AMPLIT PERI AZIMU VELO AIN AR TRES W  DIS CAZ7
 BRR  HZ EP        625 39.29                             151    0.1510 76.7 301 
 BRR  HE ES        625 56.55                             151    0.2910 76.7 301 
 BRR  HZ I         626  0.49         1.6 0.38            153           76.7 301 
 PAM  SZ EP        625 40.16                             151    0.1010 80.4  35 
 PAM  SE ES   1    625 57.44                             151   -0.48 7 80.4  35 
 PAM  SZ I         625 59.91         1.1 0.54            154           80.4  35 
 RUS  HN ES   1    625 59.62                             146    0.11 7 94.4 178 
 RUS  HZ I         626  1.18         0.7 0.32            150           94.4 178 
 PTB  HZ EP   1    625 44.47                             133   -0.21 7  150 261 
 PTB  HE ES   1    626  5.67                             133   -0.47 7  150 261 
 PTB  HZ I         626  7.66         1.2 0.32            136            150 261 
                                                                                
