 2016  4 2 0937 19.5 L   6.791 -73.143152.2  RSN  5 0.3 1.2LRSN                1
 GAP=137        0.72       3.4     4.1  5.7 -0.1904E+01  0.9407E+01 -0.2174E+01E
 Epicentro: LOS SANTOS - SANTANDER                                             3
 ACTION:UPD 16-05-05 14:18 OP:rebc STATUS:               ID:20160402093719 L   I
 OLDACT:REG 16-04-02 12:52 OP:drio STATUS:               ID:20160402092742     3
 2016-04-02-0927-42M.COL___302                                                 6
 STAT SP IPHASW D HRMM SECON CODA AMPLIT PERI AZIMU VELO AIN AR TRES W  DIS CAZ7
 BAR2 EZ EP        937 39.92                             171    0.0710 22.4 191 
 BAR2 EZ ES        937 55.93                             171    0.1810 22.4 191 
 BAR2 EZ I         937 56.20         1.9 0.12            170           22.4 191 
 PAM  EZ EP        937 42.76                             152    0.3610 77.9  39 
 PAM  EE ES        938  0.04                             152   -0.2510 77.9  39 
 PAM  EZ I         938  1.84         1.8 0.32            155           77.9  39 
 RUS  HZ EP        937 43.80                             145    0.0110 99.6 176 
 RUS  HE ES        938  2.50                             145   -0.2510 99.6 176 
 RUS  HZ I         938  4.50         1.0 0.28            148           99.6 176 
 SPBC HZ EP        937 48.65                             130    0.23 9  163 219 
 SPBC HN ES        938 10.96                             130   -0.03 9  163 219 
 SPBC HZ I         938 14.50         3.4 0.20            131            163 219 
 ZAR  HZ EP        937 51.76                             124   -0.65 9  205 292 
 ZAR  HN ES        938 18.35                             124    0.25 9  205 292 
 ZAR  HZ I         938 24.63         2.7 0.48            124            205 292 
                                                                                
