 2016  3 2 0349 18.2 L   6.792 -73.168143.2  RSN  9 0.3 1.8LRSN                1
 GAP=134        0.72       2.9     3.0  4.8 -0.8577E+00  0.4968E+01  0.1969E+01E
 Epicentro: LOS SANTOS - SANTANDER                                             3
 ACTION:UPD 16-05-13 21:20 OP:cam  STATUS:               ID:20160302034918 L   I
 OLDACT:UP  16-03-02 17:25 OP:mh   STATUS:               ID:20160302034747     3
 OLDACT:UP  16-03-02 17:25 OP:mh   STATUS:               ID:20160302034747     3
 OLDACT:REG 16-03-02 12:51 OP:mh   STATUS:               ID:20160302034747     3
 2016-03-02-0347-47M.COL___316                                                 6
 STAT SP IPHASW D HRMM SECON CODA AMPLIT PERI AZIMU VELO AIN AR TRES W  DIS CAZ7
 BAR2 EZ IP     C  349 37.60                             171    0.1010 22.1 184 
 BAR2 EZ ES        349 52.27                             171   -0.2810 22.1 184 
 BAR2 EZ I         349 53.44        13.3 0.28            170           22.1 184 
 PAM  EZ EP     C  349 40.28                             149   -0.0110 79.7  41 
 PAM  EN ES        349 57.47                             149   -0.0410 79.7  41 
 PAM  EZ I         349 59.65        10.3 0.50            153           79.7  41 
 RUS  HZ EP        349 41.63                             143   -0.0210 99.9 175 
 RUS  HN ES        350  0.25                             143    0.3110 99.9 175 
 RUS  HZ I         350  1.77        10.4 0.42            144           99.9 175 
 PTB  HZ EP   1    349 44.23                             132   -0.49 7  145 259 
 PTB  HN ES        350  5.09                             132   -0.31 9  145 259 
 PTB  HZ I         350  7.85         8.8 0.44            132            145 259 
 SPBC HZ EP        349 46.52                             129    0.23 9  161 218 
 SPBC HN ES        350  8.27                             129    0.08 9  161 218 
 SPBC HZ I         350 13.67        13.1 0.13            129            161 218 
 ZAR  HN ES        350 15.87                             122    0.58 9  202 293 
 ZAR  HZ I         350 17.98         7.5 0.10            122            202 293 
 CHI  HZ EP        349 55.91                             117    0.32 8  247 195 
 CHI  HN ES        350 24.53                             117   -0.23 8  247 195 
 CHI  HZ I         350 28.13         2.4 0.36            118            247 195 
 URE  HZ EP   4    350  1.44                             113    2.51 0  282 292 
 URE  HN ES   4    350 28.54                             113   -2.15 0  282 292 
 URE  HZ I         350 34.68         4.9 0.18            114            282 292 
 GUY2CHZ EP   4    350  2.85                             112    1.45 0  299 235 
 GUY2CHN ES   4    350 36.92                             112    1.83 0  299 235 
 CBOC HZ EP        350  3.98                             109   -0.73 7  331 252 
 CBOC HN ES        350 41.07                             109    0.10 7  331 252 
 CBOC HZ I         350 46.92         0.9 0.20            110            331 252 
                                                                                
