 2017  9 2 0358 25.8 L   6.284 -73.731102.0  RSN  9 0.5 1.5LRSN                1
 GAP= 79        1.04       3.2     3.7  7.2 -0.2026E+01  0.9102E+01  0.1115E+01E
 Epicentro: LANDAZURI - SANTANDER                                              3
 ACTION:UPD 17-10-05 19:08 OP:rebc STATUS:               ID:20170902035825 L   I
 OLDACT:UP  17-09-02 15:11 OP:dani STATUS:               ID:20170902034740     3
 OLDACT:UP  17-09-02 15:11 OP:dani STATUS:               ID:20170902034740     3
 OLDACT:UP  17-09-02 15:11 OP:dani STATUS:               ID:20170902034740     3
 OLDACT:REG 17-09-02 13:11 OP:dani STATUS:               ID:20170902034740     3
 2017-09-02-0348-00M.COL___399                                                 6
 STAT SP IPHASW D HRMM SECON CODA AMPLIT PERI AZIMU VELO AIN AR TRES W  DIS CAZ7
 BAR2 EZ EP        358 42.58                             143   -0.0610 69.6  61 
 BAR2 EZ ES        358 55.81                             143    0.0210 69.6  61 
 BAR2 EZ I         358 57.17        24.3 0.40            144           69.6  61 
 SPBC HZ EP        358 42.95                             139   -0.2410 79.4 208 
 SPBC HN ES        358 57.05                             139    0.2910 79.4 208 
 SPBC HZ I         358 59.21        11.0 0.20            138           79.4 208 
 RUS  HZ EP        358 43.61                             138   -0.4810 83.8 121 
 RUS  HE ES        358 58.30                             138   -0.0810 83.8 121 
 RUS  HZ I         358 58.93         4.9 0.24            138           83.8 121 
 BRR  HZ EP        358 43.90                             135   -0.1310 91.0   1 
 BRR  HN ES        358 58.57                             135    0.3110 91.0   1 
 BRR  HZ I         358 59.57         7.2 0.12            136           91.0   1 
 NOR  HZ EP        358 49.15                             119   -0.64 9  149 238 
 NOR  HE ES        359  7.97                             119   -0.55 9  149 238 
 NOR  HZ I         359 11.91         5.8 0.40            119            149 238 
 YPLC HZ EP        358 52.99                             114   -0.08 9  179 123 
 YPLC HN ES   3    359 16.32                             114    1.97 2  179 123 
 YPLC HZ I         359 20.23         5.6 0.42            114            179 123 
 ZAR  HZ EP        358 53.64                             114    0.24 9  183 317 
 ZAR  HN ES   3    359 16.08                             114    1.13 2  183 317 
 ZAR  HZ I         359 19.67         5.1 0.25            114            183 317 
 CHI  HZ EP   4    358 57.29                             114    3.34 0  183 180 
 CHI  HE ES        359 16.56                             114    0.64 9  183 180 
 CHI  HZ I         359 19.89         2.5 0.22            114            183 180 
 GUY2CHZ EP        358 58.64                             110    0.91 8  216 237 
 GUY2CHN ES   4    359 25.54                             110    2.89 0  216 237 
 GUY2CHZ I         359 28.37         3.0 0.26                           216 237 
                                                                                
