 2013  6 2 0029 53.0 L   6.750 -73.155148.2  RSN  4 0.3 1.3LRSN                1
 GAP=233        0.77       6.2     5.9  6.2  0.1793E+02  0.3140E+01  0.3969E+00E
 Epicentro: LOS SANTOS - SANTANDER                                             3
 ACTION:UPD 14-01-08 09:51 OP:ep   STATUS:               ID:20130602002953 L   I
 2013-06-02-0030-00M.COL___261                                                 6
 STAT SP IPHASW D HRMM SECON CODA AMPLIT PERI AZIMU VELO AIN AR TRES W  DIS CAZ7
 BAR2 SZ EP        030 12.77                             173   -0.0810 17.7 190 
 BAR2 SZ ES        030 27.79                             173   -0.5310 17.7 190 
 BAR2 SZ I         030 29.35         7.0 0.26            169           17.7 190 
 BRR  HZ EP        030 14.63                             152    0.0810 73.1 303 
 BRR  HN ES        030 31.75                             152    0.4210 73.1 303 
 BRR  HZ I         030 35.65         4.7 0.26            150           73.1 303 
 RUS  HZ EP        030 16.73                             146    0.0910 95.2 175 
 RUS  HN ES        030 35.38                             146    0.3210 95.2 175 
 RUS  HZ I         030 36.60         1.8 0.26            147           95.2 175 
 PTB  HZ EP        030 19.77                             133   -0.25 9  146 261 
 PTB  HN ES        030 40.96                             133   -0.11 9  146 261 
 PTB  HZ I         030 46.35         2.1 0.44            132            146 261 
                                                                                
