 2016  5 2 0652 40.2 L   6.827 -73.168137.6  RSN 12 0.4 1.7LRSN                1
 GAP=132        0.86       2.9     3.6  5.4 -0.4384E+01  0.9665E+01 -0.2447E+01E
 Epicentro: LOS SANTOS - SANTANDER                                             3
 ACTION:UPD 16-08-18 17:41 OP:cam  STATUS:               ID:20160502065240 L   I
 OLDACT:REG 16-05-02 17:53 OP:ak   STATUS:               ID:20160502064746     3
 2016-05-02-0647-46M.COL___282                                                 6
 STAT SP IPHASW D HRMM SECON CODA AMPLIT PERI AZIMU VELO AIN AR TRES W  DIS CAZ7
 BAR2 EZ EP        652 58.81                             169   -0.1010 26.1 183 
 BAR2 EZ ES        653 13.43                             169   -0.0810 26.1 183 
 BAR2 EZ I         653 14.66        13.1 0.12            169           26.1 183 
 PAM  EZ IP     D  653  1.73                             149    0.2210 76.7  42 
 PAM  EN ES        653 18.63                             149    0.4910 76.7  42 
 PAM  EZ I         653 21.04        10.8 0.58            154           76.7  42 
 RUS  HZ EP        653  3.22                             141   -0.1810  104 175 
 RUS  HN ES        653 21.09                             141   -0.4110  104 175 
 RUS  HZ I         653 23.00         3.5 0.32            145            104 175 
 PTB  HZ EP        653  5.65                             130   -0.70 9  146 257 
 PTB  HN ES        653 26.64                             130   -0.10 9  146 257 
 PTB  HZ I         653 29.79        11.2 0.32            131            146 257 
 OCA  HZ EP        653  7.50                             128   -0.07 9  157 354 
 OCA  HN ES        653 28.73                             128   -0.19 9  157 354 
 SPBC HZ EP        653  7.92                             127   -0.25 9  164 218 
 SPBC HE ES        653 30.71                             127    0.73 9  164 218 
 SPBC HZ I         653 35.21         5.8 0.07            129            164 218 
 ZAR  HZ EP        653 12.01                             121    0.24 9  201 292 
 ZAR  HE ES   4    653 37.76                             121    1.37 0  201 292 
 ZAR  HZ I         653 43.81         7.5 0.39            122            201 292 
 NOR  HZ EP   2    653 16.19                             117    0.74 4  234 234 
 NOR  HE ES        653 43.04                             117    0.11 8  234 234 
 NOR  HZ I         653 45.97         4.1 0.26            119            234 234 
 HEL  HZ EP   2    653 19.70                             113   -0.13 4  270 255 
 HEL  HN ES        653 50.82                             113    0.09 8  270 255 
 HEL  HZ I         653 59.80         2.8 0.26            115            270 255 
 GUY2CHZ EP        653 23.86                             111    0.44 7  301 234 
 GUY2CHE ES        653 56.65                             111   -0.47 7  301 234 
 GUY2CHZ I         654  4.26         2.6 0.28                           301 234 
 CBOC HZ EP        653 26.91                             108    0.28 7  332 251 
 CBOC HN ES        654  2.98                             108    0.14 7  332 251 
 CBOC HZ I         654  6.65         1.5 0.68            110            332 251 
 SJC  HZ EP   9    653 32.80                             104   -2.25 0  405 327 
 SJC  HN ES        654 14.66                                   -0.92 6  405 327 
 SJC  HZ I         654 18.40         2.1 0.42            106            405 327 
                                                                                
