 2014  1 2 0245 56.6 L   6.810 -73.130149.5  RSN  8 0.5 1.6LRSN                1
 GAP=138        1.32       4.2     6.5  7.6 -0.2668E+01  0.8360E+01  0.8757E+00E
 Epicentro: LOS SANTOS - SANTANDER                                             3
 ACTION:UPD 14-03-13 09:50 OP:ep   STATUS:               ID:20140102024556 L   I
 OLDACT:REG 14-01-02 08:17 OP:stll STATUS:               ID:20140102023807     3
 2014-01-02-0238-07M.COL___240                                                 6
 STAT SP IPHASW D HRMM SECON CODA AMPLIT PERI AZIMU VELO AIN AR TRES W  DIS CAZ7
 BAR2 SZ EP        246 16.71                             170   -0.0510 24.8 194 
 BAR2 SZ ES        246 32.17                             170   -0.2710 24.8 194 
 BAR2 SZ I         246 33.47        10.7 0.24            169           24.8 194 
 BRR  HZ EP        246 18.70                             153    0.4410 72.2 297 
 BRR  HN ES        246 36.29                             153    1.1810 72.2 297 
 BRR  HZ I         246 38.34         4.5 0.16            151           72.2 297 
 PAM  SZ EP        246 19.50                             152    0.3610 75.4  39 
 PAM  SN ES        246 36.74                             152    0.0410 75.4  39 
 PAM  SZ I         246 38.95         5.5 0.60            156           75.4  39 
 RUS  HZ EP        246 20.72                             144   -0.1210  102 177 
 RUS  HN ES        246 38.87                             144   -0.8410  102 177 
 RUS  HZ I         246 42.27         2.7 0.36            146            102 177 
 PTB  HZ EP        246 23.76                             132   -0.33 9  150 259 
 PTB  HN ES        246 44.84                             132   -0.67 9  150 259 
 PTB  HZ I         246 50.73         5.9 0.42            132            150 259 
 SPBC HZ EP        246 25.77                             130    0.15 9  165 219 
 SPBC HE ES        246 48.23                             130    0.01 9  165 219 
 SPBC HZ I         246 54.75         7.2 0.26            130            165 219 
 SML  HZ EP        246 33.01                             118   -0.44 8  243 335 
 SML  HN ES        247  1.57                             118   -0.59 8  243 335 
 SML  HZ I         247  6.40         5.7 0.10            120            243 335 
 CHI  HZ EP        246 34.92                             118    0.20 8  250 195 
 CHI  HN ES        247  5.27                             118    0.85 8  250 195 
 CHI  HZ I         247  8.16         1.8 0.36            119            250 195 
                                                                                
