 2014 11 2 0521 53.1 L   6.768 -73.120135.7  RSN  4 0.3 1.0LRSN                1
 GAP=238        0.65       6.4     6.6  7.4  0.1651E+02  0.8983E+01 -0.7346E+01E
 Epicentro: LOS SANTOS - SANTANDER                                             3
 ACTION:UPD 14-12-19 15:38 OP:nd   STATUS:               ID:20141102052153 L   I
 OLDACT:REG 14-11-02 13:36 OP:spq  STATUS:               ID:20141102051741     3
 2014-11-02-0517-41M.COL___271                                                 6
 STAT SP IPHASW D HRMM SECON CODA AMPLIT PERI AZIMU VELO AIN AR TRES W  DIS CAZ7
 BAR2 SZ EP   1    522 11.04                             171   -0.37 7 20.6 200 
 BAR2 SZ ES   1    522 25.52                             171   -0.22 7 20.6 200 
 BAR2 SZ I         522 28.83         3.8 0.34            169           20.6 200 
 BRR  HZ EP        522 13.77                             149    0.3910 75.4 300 
 BRR  HE ES   1    522 29.22                             149   -0.01 7 75.4 300 
 BRR  HZ I         522 31.77         3.0 0.33            150           75.4 300 
 RUS  HN ES   1    522 33.33                             143    0.24 7 96.8 178 
 RUS  HZ I         522 34.55         1.5 0.48            145           96.8 178 
 PTB  HZ EP   1    522 19.01                             129   -0.41 7  150 260 
 PTB  HN ES   1    522 39.99                             129    0.01 7  150 260 
 PTB  HZ I         522 43.45         0.8 0.11            131            150 260 
                                                                                
