 2014  9 2 0959 53.0 L   6.817 -73.118144.3  RSN  8 0.5 1.5LRSN                1
 GAP=203        1.02       4.8     7.0  7.7  0.1143E+02  0.7536E+01  0.3037E+00E
 Epicentro: LOS SANTOS - SANTANDER                                             3
 ACTION:UPD 14-10-03 23:01 OP:nd   STATUS:               ID:20140902095953 L   I
 OLDACT:REG 14-09-02 20:11 OP:fm   STATUS:               ID:20140902095818     3
 2014-09-02-0958-18M.COL___263                                                 6
 STAT SP IPHASW D HRMM SECON CODA AMPLIT PERI AZIMU VELO AIN AR TRES W  DIS CAZ7
 BAR2 SZ EP   1   10 0 12.77                             169    0.24 7 25.9 196 
 BAR2 SZ ES   1   10 0 27.56                             169   -0.18 7 25.9 196 
 BAR2 SZ I        10 0 29.13         8.4 0.18            169           25.9 196 
 BRR  HZ EP   1   10 0 13.95                             152   -0.16 7 73.0 296 
 BRR  HN ES       10 0 31.29                             152    0.7210 73.0 296 
 BRR  HZ I        10 0 32.78         5.2 0.36            150           73.0 296 
 RUS  HZ EP       10 0 17.30                             143    0.5510  102 178 
 RUS  HN ES   1   10 0 34.48                             143   -0.78 7  102 178 
 RUS  HZ I        10 0 37.61         3.6 0.28            145            102 178 
 PTB  HZ EP   1   10 0 19.99                             131   -0.18 7  151 258 
 PTB  HE ES   1   10 0 40.58                             131   -0.77 7  151 258 
 PTB  HZ I        10 0 42.43         4.9 0.46            131            151 258 
 ZAR  HZ EP   1   10 0 25.80                             122    0.21 6  206 291 
 ZAR  HN ES   1   10 0 50.91                             122   -0.08 6  206 291 
 ZAR  HZ I        10 0 58.03         2.4 0.34            122            206 291 
 SML  HZ EP   1   10 0 28.60                             117   -0.92 6  243 334 
 SML  HN ES   1   10 0 57.52                             117   -0.46 6  243 334 
 SML  HZ I        10 1  0.10         3.3 0.10            118            243 334 
 CHI  HN ES   1   10 1  0.10                             117   -0.39 6  251 196 
 GUY2CHZ EP   1   10 0 37.56                             112    0.60 5  305 235 
 GUY2CHN ES   1   10 1 11.58                             112    0.34 5  305 235 
 GUY2CHZ I        10 1 21.85         1.6 0.58                           305 235 
                                                                                
