 2015  9 2 0038 54.3 L   6.083 -73.720106.5  RSN  9 0.5 1.6LRSN                1
 GAP=113        1.17       4.2     3.3  7.0 -0.2660E+01  0.4818E+01 -0.1265E+00E
 Epicentro: VELEZ - SANTANDER                                                  3
 ACTION:UPD 15-10-28 16:23 OP:cam  STATUS:               ID:20150902003854 L   I
 OLDACT:DUP 15-09-02 15:24 OP:stll STATUS:               ID:20150902002749d    3
 2015-09-02-0027-48M.COL___361                                                 6
 STAT SP IPHASW D HRMM SECON CODA AMPLIT PERI AZIMU VELO AIN AR TRES W  DIS CAZ7
 SPBC HZ EP        039 10.70                             148   -0.1010 61.6 219 
 SPBC HZ I         039 10.94        19.3 0.14            149           61.6 219 
 SPBC HN ES        039 24.05                             148    0.3510 61.6 219 
 RUS  HZ EP        039 11.99                             143   -0.2110 73.5 107 
 RUS  HN ES        039 25.79                             143   -0.4010 73.5 107 
 RUS  HZ I         039 27.59         6.9 0.28            145           73.5 107 
 BAR2 EZ EP        039 12.16                             140   -0.3210 81.9  47 
 BAR2 EZ ES        039 27.08                             140    0.3910 81.9  47 
 BAR2 EZ I         039 28.21        26.7 0.12            141           81.9  47 
 PTB  HZ EP        039 12.66                             135   -0.6810 95.9 302 
 PTB  HE ES        039 28.20                             135   -0.0210 95.9 302 
 CPBEREZ EP        039 13.96                             135    0.6210 95.9 302 
 CPBEREE ES        039 27.75                             135   -0.4710 95.9 302 
 PTB  HZ I         039 30.64         6.2 0.14            135           95.9 302 
 BRR  HZ EP        039 14.99                             129    0.1010  113   0 
 BRR  HN ES        039 31.48                             129    0.4910  113   0 
 PAM  EZ EP        039 22.35                             116    0.04 9  179  39 
 PAM  EZ I         039 23.74         4.2 0.20            117            179  39 
 HEL  HZ EP        039 24.99                             113    0.43 9  201 274 
 HEL  HN ES        039 47.29                             113   -0.91 9  201 274 
 HEL  HZ I         039 52.55         5.0 0.56            114            201 274 
 GUY2CHZ EP        039 25.25                             112    0.00 8  205 243 
 GUY2CHN ES        039 50.24                             112    0.82 8  205 243 
 GUY2CHZ I         039 56.69         3.7 0.66                           205 243 
                                                                                
