 2015  3 2 0429 55.3 L   6.707 -73.556111.8  RSN  5 0.4 1.3LRSN                1
 GAP=128        0.97       4.9     4.7  9.0  0.1848E+01  0.1287E+01  0.1214E+02E
 Epicentro: EL CARMEN - SANTANDER                                              3
 ACTION:UPD 15-04-30 16:22 OP:nd   STATUS:               ID:20150302042955 L   I
 OLDACT:REG 15-03-02 12:34 OP:spq  STATUS:               ID:20150302042748     3
 2015-03-02-0427-48M.COL___287                                                 6
 STAT SP IPHASW D HRMM SECON CODA AMPLIT PERI AZIMU VELO AIN AR TRES W  DIS CAZ7
 BAR2 EZ EP        430 11.55                             157   -0.0810 43.2 107 
 BAR2 EZ ES   1    430 23.89                             157   -0.45 7 43.2 107 
 BAR2 EZ I         430 24.56        12.4 0.56            161           43.2 107 
 BRR  HZ EP        430 11.51                             155    0.0310 47.4 339 
 BRR  HN ES        430 24.59                             155    0.5110 47.4 339 
 BRR  HZ I         430 24.99         7.9 0.12            159           47.4 339 
 PTB  HZ EP        430 15.28                             135   -0.0510  101 259 
 PTB  HE ES        430 30.30                             135   -0.6310  101 259 
 PTB  HZ I         430 34.86         2.5 0.07            134            101 259 
 RUS  HZ EP        430 16.29                             134    0.0510  104 150 
 RUS  HE ES   1    430 32.27                             134   -0.27 7  104 150 
 RUS  HZ I         430 33.79         2.3 0.28            135            104 150 
 SPBC HE ES        430 36.46                             127    0.6310  130 206 
 SPBC HZ I         430 42.58         2.8 0.16            126            130 206 
                                                                                
