 2015  3 2 0632 44.9 L   6.786 -73.119148.5  RSN  7 0.3 1.3LRSN                1
 GAP=141        0.83       3.4     4.2  5.5 -0.3104E+01  0.3224E+01 -0.5673E+00E
 Epicentro: LOS SANTOS - SANTANDER                                             3
 ACTION:UPD 15-04-30 16:22 OP:nd   STATUS:               ID:20150302063244 L   I
 OLDACT:DUP 15-03-02 18:01 OP:spq  STATUS:               ID:20150302062738d    3
 2015-03-02-0627-37M.COL___290                                                 6
 STAT SP IPHASW D HRMM SECON CODA AMPLIT PERI AZIMU VELO AIN AR TRES W  DIS CAZ7
 BAR2 EZ EP        633  4.86                             171   -0.0110 22.5 198 
 BAR2 EZ ES   1    633 20.23                             171   -0.20 7 22.5 198 
 BAR2 EZ I         633 21.41         3.5 0.20            170           22.5 198 
 BRR  HZ EP        633  6.74                             152    0.1810 74.5 298 
 BRR  HN ES        633 23.98                             152    0.5410 74.5 298 
 BRR  HZ I         633 27.25         3.0 0.28            151           74.5 298 
 PAM  SZ EP        633  7.60                             151    0.2010 76.8  37 
 PAM  SE ES        633 24.61                             151   -0.3210 76.8  37 
 PAM  SZ I         633 26.67         4.2 0.50            155           76.8  37 
 RUS  HZ EP        633  8.88                             145    0.0510 98.9 178 
 RUS  HN ES   1    633 27.40                             145   -0.08 7 98.9 178 
 RUS  HZ I         633 29.43         1.1 0.58            146           98.9 178 
 PTB  HZ EP        633 11.60                             132   -0.75 9  150 260 
 PTB  HN ES        633 33.43                             132   -0.31 9  150 260 
 PTB  HZ I         633 35.14         2.3 0.38            133            150 260 
 SPBC HZ EP        633 13.91                             130    0.21 9  164 220 
 SPBC HE ES        633 36.37                             130    0.22 9  164 220 
 SPBC HZ I         633 43.35         4.0 0.24            131            164 220 
 SML  HZ EP        633 22.33                             118    0.34 8  246 335 
 SML  HE ES   1    633 50.55                             118   -0.35 6  246 335 
 SML  HZ I         633 54.37         2.3 0.22            119            246 335 
                                                                                
