 2011  5 2 0529 37.8 L   6.768 -73.097136.8  RSN 13 0.5 2.1LRSN                1
 GAP=144        0.95       3.7     6.0  6.1 -0.9110E+01  0.8531E+01 -0.1011E+01E
 Epicentro: LOS SANTOS - SANTANDER                                             3
 ACTION:UP  11-06-29 08:50 OP:tino STATUS:               ID:20110502052937 L   I
 2011-05-02-0520-00M.COL___140                                                 6
 STAT SP IPHASW D HRMM SECON CODA AMPLIT PERI AZIMU VELO SNR AR TRES W  DIS CAZ7
 BAR2 SZ EP   1    529 56.24                             171    -0.1 7   22 206 
 BAR2 SZ ES   1    530 10.19                             171    -0.6 7   22 206 
 GIR2 SZ EP   2    529 56.31                             164    -0.2 5   36 343 
 GIR2 SZ ES   2    530 11.27                             164     0.1 5   36 343 
 PAM  SZ EP   1    529 59.08                             149     0.0 7   77  35 
 BRR  HZ EP   1    529 57.93                             149    -0.5 7   78 299 
 BRR  HN ES   1    530 14.96                             149     0.5 7   78 299 
 BRR  HZ I         530 16.10        43.3 0.24                            78 299 
 RUS  HZ EP   1    530  0.18                             143    -0.2 7   97 179 
 RUS  HN ES        530 18.54                             143     0.510   97 179 
 RUS  HZ I         530 20.61        22.5 0.28                            97 179 
 BRI  SZ IP        530  0.74                             139    -0.210  110  18 
 BRI  SZ I         530  1.54        14.5 0.12                           110  18 
 GRA  SZ IP        530  1.98                             135    -0.410  128  15 
 GRA  SZ ES   2    530 21.50                             135    -0.1 5  128  15 
 OCA  SZ EP   1    530  6.51                             127     0.7 7  164 351 
 OCA  SZ ES   1    530 28.36                             127     0.7 7  164 351 
 OCA  SZ I         530 38.94        13.1 0.19                           164 351 
 NOR  SZ EP   1    530 12.53                             116    -0.8 6  237 236 
 NOR  SN ES   1    530 40.48                             116    -0.5 6  237 236 
 ROSC BZ EP   1    530 16.00                             115     0.6 6  253 212 
 HEL  HZ EP   1    530 18.45                             113     0.4 6  276 257 
 HEL  HN ES   2    530 49.13                             113    -0.3 4  276 257 
 HEL  HZ I         530 55.21         6.7 0.24                           276 257 
 RREF HZ EP        530 24.35                             109     0.6 7  324 230 
 RREF HN ES   2    530 58.94                             109    -0.7 3  324 230 
 RREF HZ I         531  5.22         8.6 0.30                           324 230 
 PRA  HZ EP   1    530 31.58                             105     0.6 4  392 211 
 PRA  HN ES   1    531 12.04                             105    -0.4 4  392 211 
                                                                                
