 2017  8 2 0956 32.3 L   6.795 -73.138138.0  RSN 11 0.5 1.6LRSN                1
 GAP=113        0.89       3.2     3.0  5.7  0.6182E+00  0.5656E+01  0.7388E+00E
 Epicentro: LOS SANTOS - SANTANDER                                             3
 ACTION:UPD 17-09-04 20:15 OP:rebc STATUS:               ID:20170802095632 L   I
 OLDACT:UP  17-08-02 19:05 OP:dhb  STATUS:               ID:20170802094738     3
 OLDACT:REG 17-08-02 13:51 OP:osc  STATUS:               ID:20170802094738     3
 2017-08-02-0948-00M.COL___383                                                 6
 STAT SP IPHASW D HRMM SECON CODA AMPLIT PERI AZIMU VELO AIN AR TRES W  DIS CAZ7
 BAR2 EZ IP     C  956 50.81                             170   -0.2110 22.9 192 
 BAR2 EZ ES        957  5.53                             170   -0.0610 22.9 192 
 BAR2 EZ I         957  6.75         6.4 0.15            168           22.9 192 
 PAM  EZ IP     C  956 53.70                             149   -0.0210 77.3  39 
 PAM  EE ES        957 10.60                             149    0.2010 77.3  39 
 PAM  EZ I         957 12.49         7.7 0.36            146           77.3  39 
 RUS  HZ EP        956 55.24                             142   -0.0410100.0 176 
 RUS  HN ES        957 13.45                             142    0.2710100.0 176 
 RUS  HZ I         957 15.17         8.5 0.30            138          100.0 176 
 PTB  HZ EP        956 57.76                             130   -0.98 9  148 259 
 PTB  HN ES        957 19.29                             130   -0.05 9  148 259 
 PTB  HZ I         957 23.98         3.1 0.22            124            148 259 
 SPBC HZ IP        956 59.85                             127   -0.40 9  163 219 
 SPBC HE ES        957 22.35                             127    0.32 9  163 219 
 SPBC HZ I         957 26.60         4.7 0.20            122            163 219 
 YPLC HZ EP        957  1.72                             125    0.24 9  176 151 
 YPLC HN ES        957 24.03                             125   -0.19 9  176 151 
 YPLC HZ I         957 26.30         6.1 0.28            121            176 151 
 ZAR  HZ EP        957  4.96                             121    0.58 9  205 292 
 ZAR  HN ES        957 29.13                             121   -0.25 9  205 292 
 ZAR  HZ I         957 35.42         2.6 0.18            115            205 292 
 NOR  HZ EP   3    957  8.70                             117    1.04 2  235 235 
 NOR  HE ES        957 35.36                             117    0.15 8  235 235 
 NOR  HZ I         957 36.99         2.5 0.20            112            235 235 
 URE  HZ EP   2    957 14.48                             112    1.34 4  285 292 
 URE  HN ES   2    957 45.85                             112    0.88 4  285 292 
 URE  HZ I         957 48.66         5.1 0.14            107            285 292 
 GUY2CHZ EP   4    957 17.52                             111    1.89 0  302 235 
 GUY2CHN ES   3    957 51.03                             111    1.63 2  302 235 
 CBOC HZ EP   4    957 17.49                             108   -1.51 0  334 252 
 CBOC HZ I         957 52.85         1.1 0.10            104            334 252 
 CBOC HE ES        957 55.53                             108    0.12 7  334 252 
                                                                                
