 2015  5 2 0938  5.3 L   6.773 -73.132142.1  RSN  5 0.4 1.3LRSN                1
 GAP=140        0.94       4.5     6.2  6.9 -0.8856E+01  0.2824E+01  0.4351E+01E
 Epicentro: LOS SANTOS - SANTANDER                                             3
 ACTION:UPD 15-09-10 22:00 OP:cam  STATUS:               ID:20150502093805 L   I
 OLDACT:DUP 15-05-02 19:05 OP:stll STATUS:               ID:20150502092746d    3
 2015-05-02-0927-44M.COL___273                                                 6
 STAT SP IPHASW D HRMM SECON CODA AMPLIT PERI AZIMU VELO AIN AR TRES W  DIS CAZ7
 BAR2 EZ EP        938 24.64                             171    0.1810 20.7 196 
 BAR2 EZ ES        938 39.99                             171    0.6010 20.7 196 
 BAR2 EZ I         938 43.58         3.9 0.40            170           20.7 196 
 BRR  HZ EP        938 26.31                             151    0.0710 74.0 300 
 BRR  HN ES        938 42.65                             151    0.0910 74.0 300 
 PAM  SZ EP        938 27.32                             150    0.0810 78.8  37 
 PAM  SZ I         938 27.66         5.0 0.22            151           78.8  37 
 PAM  SN ES        938 43.70                             150   -0.6310 78.8  37 
 RUS  HZ EP        938 28.83                             144    0.3410 97.5 177 
 RUS  HZ I         938 29.05         1.4 0.64            144           97.5 177 
 RUS  HN ES        938 46.38                             144   -0.1810 97.5 177 
 SPBC HZ EP        938 33.30                             128   -0.11 9  162 220 
 SPBC HZ I         938 36.01         4.1 0.10            129            162 220 
 SPBC HE ES        938 54.77                             128   -0.55 9  162 220 
                                                                                
