 2013  6 2 0805 58.8 L   6.757 -73.174132.4  RSN  8 0.5 1.5LRSN                1
 GAP=177        1.23       4.8     6.0  7.7  0.4633E+01  0.8329E+01 -0.3480E+01E
 Epicentro: VILLANUEVA - SANTANDER                                             3
 ACTION:UPD 14-01-08 09:51 OP:ep   STATUS:               ID:20130602080558 L   I
 2013-06-02-0800-00M.COL___261                                                 6
 STAT SP IPHASW D HRMM SECON CODA AMPLIT PERI AZIMU VELO AIN AR TRES W  DIS CAZ7
 BAR2 SZ EP        8 6 17.47                             172    0.7610 18.2 183 
 BAR2 SZ ES   1    8 6 31.06                             172    0.37 7 18.2 183 
 GIR2 SZ EP        8 6 16.97                             164   -0.0410 35.7 357 
 GIR2 SZ ES        8 6 31.33                             164    0.1010 35.7 357 
 GIR2 SZ I         8 6 34.20         5.8 0.52            161           35.7 357 
 BRR  HZ IP     C  8 6 18.74                             150    0.2510 70.9 303 
 BRR  HN ES        8 6 33.20                             150   -0.6610 70.9 303 
 BRR  HZ I         8 6 39.38         4.4 0.52            149           70.9 303 
 RUS  HZ EP        8 6 20.42                             142   -0.4910 96.1 174 
 RUS  HN ES        8 6 38.30                             142    0.1410 96.1 174 
 RUS  HZ I         8 6 40.00         3.9 0.32            148           96.1 174 
 PTB  HZ EP        8 6 23.47                             130   -0.86 9  144 260 
 PTB  HN ES        8 6 44.05                             130   -0.19 9  144 260 
 PTB  HZ I         8 6 45.50         4.6 0.10            132            144 260 
 OCA  HZ EP        8 6 26.36                             126   -0.17 9  165 354 
 OCA  HN ES        8 6 47.91                             126   -0.26 9  165 354 
 OCA  HZ I         8 6 51.65         3.6 0.48            126            165 354 
 ZAR  HZ EP        8 6 30.97                             119    0.68 9  203 294 
 ZAR  HN ES        8 6 55.57                             119    0.71 9  203 294 
 ZAR  HZ I         8 6 58.47         3.8 0.34            121            203 294 
 SML  HZ EP   4    8 6 33.67                             114   -1.37 0  247 336 
 SML  HN ES   4    8 7  4.73                             114    1.41 0  247 336 
 SML  HZ I         8 7 11.06         4.7 0.26            115            247 336 
                                                                                
