 2011  6 2 0448 30.0 L   6.801 -73.165136.7  RSN 12 0.3 1.9LRSN                1
 GAP=134        0.60       3.0     5.4  5.1 -0.1022E+02  0.1560E+02 -0.3989E+01E
 Epicentro: LOS SANTOS - SANTANDER                                             3
 ACTION:UP  11-07-14 19:02 OP:ep   STATUS:               ID:20110602044830 L   I
 2011-06-02-0445-08S.COL___130                                                 6
 STAT SP IPHASW D HRMM SECON CODA AMPLIT PERI AZIMU VELO SNR AR TRES W  DIS CAZ7
 BAR2 SZ EP   1    448 48.74                             170     0.2 8   23 185 
 BAR2 SZ ES   1    449  2.96                             170    -0.1 8   23 185 
 BAR2 SZ I         449  5.94        38.5 0.24                            23 185 
 BRR  HZ EP   1    448 50.52                             151     0.4 8   69 299 
 BRR  HZ I         449  8.33        30.9 0.10                            69 299 
 PAM  SZ EP   1    448 51.58                             149     0.2 8   79  41 
 PAM  SN ES   1    449  8.24                             149     0.2 8   79  41 
 RUS  HZ EP   1    448 53.09                             142     0.2 8  101 175 
 RUS  HE ES   1    449 10.49                             142    -0.3 8  101 175 
 RUS  HZ I         449 13.24        17.2 0.21                           101 175 
 BRI  SZ EP   1    448 53.09                             139     0.0 8  109  22 
 BRI  SZ ES   1    449 11.12                             139     0.0 8  109  22 
 BRI  SZ I         449 16.82        13.9 0.28                           109  22 
 GRA  SZ IP        448 54.46                             135    -0.110  126  18 
 GRA  SZ ES   2    449 13.57                             135    -0.1 5  126  18 
 GRA  SZ I         449 15.25        12.6 0.27                           126  18 
 OCA  SZ EP   1    448 57.00                             127    -0.6 7  160 354 
 OCA  SZ ES   2    449 19.10                             127    -0.1 5  160 354 
 OCA  SZ I         449 22.80        12.0 0.18                           160 354 
 NOR  SZ EP   1    449  5.17                             117     0.1 6  233 234 
 NOR  SN ES   1    449 32.23                             117    -0.2 6  233 234 
 NOR  SZ I         449 37.83         1.1 0.14                           233 234 
 HEL  HZ EP   2    449 10.50                             113     0.9 4  270 256 
 GUY  SZ EP   1    449 12.96                             111    -0.4 6  302 235 
 RREF HZ EP   1    449 15.52                             109    -0.1 5  320 229 
 RREF HZ I         450  0.00         6.1 0.29                           320 229 
 PRA  HZ EP   1    449 23.31                             105     0.2 5  391 209 
                                                                                
