 2012  2 2 0253 57.9 L   6.747 -73.165146.3  RSN  5 0.4 1.5LRSN                1
 GAP=231        0.82       5.8     7.6  7.5  0.1983E+02  0.1188E+02  0.9342E+01E
 ACTION:UP  12-03-07 16:26 OP:epov STATUS:               ID:20120202025357 L   I
 2012-02-02-0250-00M.COL___187                                                 6
 STAT SP IPHASW D HRMM SECON CODA AMPLIT PERI AZIMU VELO SNR AR TRES W  DIS CAZ7
 BAR2 SZ EP   1    254 17.05                             173   -0.41 7 17.2 186 
 BAR2 SZ ES   1    254 32.69                             173   -0.05 7 17.2 186 
 BAR2 SZ I         254 33.89        10.1 0.20                          17.2 186 
 BRR  HZ EP   1    254 19.34                             152    0.19 7 72.4 303 
 BRR  HN ES   1    254 36.47                             152    0.73 7 72.4 303 
 BRR  HZ I         254 38.49         6.5 0.15                          72.4 303 
 RUS  HZ EP   1    254 21.09                             146   -0.19 7 94.9 174 
 RUS  HN ES        254 39.43                             146   -0.1010 94.9 174 
 PTB  HZ EP   1    254 24.25                             133   -0.35 7  145 261 
 PTB  HN ES   1    254 44.88                             133   -0.56 7  145 261 
 CHI  HZ EP   1    254 35.56                             118    0.63 6  242 195 
 CHI  HN ES   1    255  4.31                             118    0.48 6  242 195 
 CHI  HZ I         255  8.25         1.8 0.64                           242 195 
                                                                                
