 2013  7 2 0410 13.2 L   6.818 -73.166144.4  RSN 11 0.5 2.3LRSN                1
 GAP= 74        1.34       4.1     5.2  6.7 -0.3145E+01 -0.6346E+00 -0.3062E+01E
 Epicentro: LOS SANTOS - SANTANDER                                             3
 ACTION:UPD 13-08-12 10:34 OP:ep   STATUS:               ID:20130702041013 L   I
 OLDACT:REG 13-07-02 08:12 OP:stll STATUS:               ID:20130702040849     3
 2013-07-02-0408-49M.COL___227                                                 6
 STAT SP IPHASW D HRMM SECON CODA AMPLIT PERI AZIMU VELO AIN AR TRES W  DIS CAZ7
 BAR2 SZ EP        410 32.80                             170    0.1110 25.0 184 
 BAR2 SZ ES        410 47.39                             170   -0.5210 25.0 184 
 GIR2 SZ EP        410 32.83                             168    0.1910 29.0 354 
 GIR2 SZ ES        410 48.28                             168    0.4610 29.0 354 
 BRR  HN ES        410 51.57                             153    1.2910 68.2 298 
 BRR  HN I         410 52.41        59.4 0.16            151           68.2 298 
 PAM  SZ EP        410 35.71                             151    0.4510 77.3  42 
 PAM  SZ I         410 35.90        29.3 0.22            151           77.3  42 
 PAM  SN ES        410 52.54                             151    0.0710 77.3  42 
 RUS  HZ EP        410 37.20                             143    0.2310  103 175 
 RUS  HN ES        410 54.91                             143   -0.6110  103 175 
 GRA  SZ EP        410 38.56                             137    0.3510  125  19 
 GRA  SZ ES        410 57.66                             137   -0.0710  125  19 
 PTB  HZ EP        410 39.70                             132   -0.18 9  146 258 
 PTB  HN ES        411  0.06                             132   -0.64 9  146 258 
 PTB  HN I         411  3.30        11.7 0.24            132            146 258 
 CAPV BZ EP        410 40.61                             132    0.15 9  149  39 
 CAPV BZ ES        411  0.79                             132   -0.94 9  149  39 
 TAM  HZ IP     D  410 41.17                             130    0.16 9  158 105 
 OCA  HZ EP        410 41.52                             130    0.34 9  158 354 
 OCA  HN ES        411  2.66                             130   -0.36 9  158 354 
 OCA  HN I         411 11.29        28.2 0.64            129            158 354 
 SML  HN EP        410 49.28                             117   -0.16 8  241 336 
 SML  HE ES        411 16.84                             117   -0.87 8  241 336 
                                                                                
