 2015  5 2 0840 40.4 L   6.781 -73.118153.3  RSN 10 0.4 1.5LRSN                1
 GAP=141        0.81       2.5     3.9  4.7  0.3812E+00  0.5363E+01 -0.3819E+00E
 Epicentro: LOS SANTOS - SANTANDER                                             3
 ACTION:UPD 15-09-10 22:00 OP:cam  STATUS:               ID:20150502084040 L   I
 OLDACT:UP  15-05-07 14:39 OP:cam  STATUS:               ID:20150502084040 L   3
 OLDACT:UP  15-05-06 07:11 OP:AK   STATUS:               ID:20150502084040 L   3
 OLDACT:REG 15-05-02 13:18 OP:stll STATUS:               ID:20150502083736     3
 2015-05-02-0837-36M.COL___273                                                 6
 STAT SP IPHASW D HRMM SECON CODA AMPLIT PERI AZIMU VELO AIN AR TRES W  DIS CAZ7
 BAR2 EZ EP        841  0.80                             171   -0.1010 22.0 199 
 BAR2 EZ ES        841 16.81                             171   -0.0810 22.0 199 
 BAR2 EZ I         841 18.88         4.8 0.32            166           22.0 199 
 BRR  HZ EP        841  2.97                             153    0.4110 74.9 299 
 BRR  HZ I         841  3.03         5.6 0.18            144           74.9 299 
 BRR  HN ES        841 20.26                             153    0.4110 74.9 299 
 PAM  SZ EP        841  3.72                             152    0.3210 77.2  37 
 PAM  SN ES        841 21.05                             152   -0.2910 77.2  37 
 PAM  SZ I         841 23.32         3.0 0.54            152           77.2  37 
 RUS  HZ EP        841  4.71                             146   -0.0210 98.3 178 
 RUS  HN ES        841 23.61                             146   -0.1010 98.3 178 
 RUS  HZ I         841 25.95         1.5 0.50            142           98.3 178 
 OCA  HZ EP        841  9.83                             131    0.31 9  163 352 
 OCA  HN ES        841 31.93                             131   -0.31 9  163 352 
 OCA  HZ I         841 35.77         9.7 0.26            126            163 352 
 ZAR  HZ EP        841 13.03                             123   -0.67 8  208 292 
 ZAR  HN ES        841 39.80                             123    0.12 8  208 292 
 ZAR  HZ I         841 45.60         3.9 0.48            117            208 292 
 CHI  HZ EP        841 18.59                             119    0.21 8  247 196 
 CHI  HZ I         841 19.66         1.6 0.46            114            247 196 
 CHI  HN ES   2    841 48.16                             119    0.14 4  247 196 
 SML  HZ EP        841 17.34                             119   -0.45 8  247 335 
 SML  HN ES        841 47.05                             119    0.09 8  247 335 
 SML  HZ I         841 57.33         5.7 0.10            114            247 335 
 HEL  HZ EP   2    841 22.47                             116    1.21 4  275 256 
 HEL  HZ I         841 58.80         1.4 0.30            111            275 256 
 GUY2CHZ EP   4    841 27.28                             114    2.78 0  302 235 
 GUY2CHE ES        841 58.38                             114   -0.52 7  302 235 
 GUY2CHZ I         842  5.65         1.8 0.30                           302 235 
                                                                                
