 2010  7 2 0256 47.4 L   6.807 -73.124141.5  RSN  6 0.1 1.2LRSN                1
 GAP=158        0.34       3.4     5.8  6.3  0.2688E+01 -0.1864E+02 -0.1244E+02E
 Epicentro: LOS SANTOS - SANTANDER                                             3
 ACTION:UPD 10-12-01 15:14 OP:pat  STATUS:               ID:20100702025647 L   I
 2010-07-02-0253-47S.COL___118                                                 6
 STAT SP IPHASW D HRMM SECON CODA AMPLIT PERI AZIMU VELO AIN AR TRES W  DIS CAZ7
 BAR2 SZ ES   2    257 21.43                             170    -0.1 5   25 195 
 BRR  HZ EP   1    257  8.22                             151     0.0 8   73 297 
 BRR  HE ES   2    257 24.46                             151     0.0 5   73 297 
 BRR  HZ I         257 30.44         6.6 0.20                            73 297 
 RUS  HZ EP   2    257 10.78                             143     0.0 5  101 177 
 RUS  HE ES   2    257 29.06                             143     0.0 5  101 177 
 RUS  HZ I         257 30.36         1.2 0.21                           101 177 
 BRI  SZ EP   1    257 10.92                             141     0.1 8  107  20 
 GUE  SZ EP        257 11.46                             139    -0.210  115  11 
 GRA  SZ EP        257 12.24                             136     0.110  124  17 
                                                                                
