 2013  9 2 0530 54.4 L   6.769 -73.169153.1  RSN  4 0.4 1.4LRSN                1
 GAP=232        1.00       6.3     7.5  9.1  0.1425E+02 -0.4821E+01  0.1201E+01E
 Epicentro: LOS SANTOS - SANTANDER                                             3
 ACTION:UPD 13-10-22 09:19 OP:ep   STATUS:               ID:20130902053054 L   I
 OLDACT:UP  13-09-02 09:45 OP:cam  STATUS:               ID:20130902052960d    3
 OLDACT:DUP 13-09-02 09:43 OP:cam  STATUS:               ID:20130902052960d    3
 OLDACT:REG 13-09-02 08:03 OP:cam  STATUS:               ID:20130902052959     3
 2013-09-02-0529-59M.COL___269                                                 6
 STAT SP IPHASW D HRMM SECON CODA AMPLIT PERI AZIMU VELO AIN AR TRES W  DIS CAZ7
 BRR  HZ EP        531 16.35                             154    0.0710 70.7 302 
 BRR  HE ES        531 33.74                             154    0.3610 70.7 302 
 RUS  HZ EP        531 18.71                             146    0.0910 97.4 174 
 RUS  HN ES        531 37.11                             146   -0.4310 97.4 174 
 PTB  HZ EP        531 21.25                             134   -0.41 9  145 260 
 PTB  HN ES        531 42.40                             134   -0.55 9  145 260 
 PTB  HZ I         531 44.12         2.4 0.28            132            145 260 
 SPBC HZ EP        531 23.32                             131    0.28 9  159 219 
 SPBC HE ES        531 46.03                             131    0.62 9  159 219 
 SPBC HZ I         531 50.54         3.2 0.32            129            159 219 
                                                                                
