 2016  8 2 0930 37.3 L   6.798 -73.126145.0  RSN 14 0.5 2.1LRSN                1
 GAP=139        1.06       3.7     4.3  5.9 -0.1839E+01  0.1049E+02  0.4437E+01E
 Epicentro: LOS SANTOS - SANTANDER                                             3
 ACTION:UPD 16-10-29 15:31 OP:rebc STATUS:               ID:20160802092741dL   I
 OLDACT:UP  16-08-02 19:06 OP:edw  STATUS:               ID:20160802092741dL   3
 OLDACT:DUP 16-08-02 18:55 OP:edw  STATUS:               ID:20160802092741dL   3
 2016-08-02-0928-00M.COL___341                                                 6
 STAT SP IPHASW D HRMM SECON CODA AMPLIT PERI AZIMU VELO AIN AR TRES W  DIS CAZ7
 BAR2 EZ EP        930 56.54                             170   -0.3310 23.6 195 
 BAR2 EZ ES        931 12.07                             170   -0.0410 23.6 195 
 BRR  HZ EP        930 58.48                             152   -0.0310 73.2 298 
 BRR  HN ES        931 15.81                             152    0.7810 73.2 298 
 BRR  HZ I         931 19.63        16.8 0.18                          73.2 298 
 PAM  EZ EP        930 59.65                             151    0.2610 76.2  38 
 PAM  EN ES        931 16.57                             151   -0.0310 76.2  38 
 PAM  EZ I         931 18.68        29.3 0.50                          76.2  38 
 RUS  HZ EP        931  0.85                             144   -0.1310  100 177 
 RUS  HN ES        931 19.43                             144    0.0110  100 177 
 RUS  HZ I         931 20.41        14.9 0.30                           100 177 
 SPBC HZ EP        931  5.34                             129   -0.54 9  164 220 
 SPBC HN ES        931 27.84                             129   -0.31 9  164 220 
 SPBC HZ I         931 29.97        25.1 0.26                           164 220 
 ZAR  HZ EP        931  9.38                             122   -0.56 8  206 292 
 ZAR  HN ES        931 34.31                             122   -1.06 8  206 292 
 ZAR  HZ I         931 39.71        11.1 0.24                           206 292 
 ROSC BZ EP        931 15.93                             116    0.42 8  254 211 
 ROSC BN ES        931 45.25                             116   -0.03 8  254 211 
 ROSC BZ I         931 51.09        13.9 0.45                           254 211 
 HEL  HZ EP        931 18.79                             114    1.06 8  274 256 
 HEL  HN ES        931 49.06                             114   -0.18 8  274 256 
 HEL  HZ I         931 54.61         7.0 0.26                           274 256 
 SOCV BZ EP   4    931 19.53                             112   -0.62 0  300  57 
 SOCV BN ES   4    931 51.02                             112   -2.53 0  300  57 
 GUY2CHZ EP        931 21.32                             112    0.23 7  303 235 
 GUY2CHE ES        931 55.64                             112    0.43 7  303 235 
 GUY2CHZ I         932  2.80         6.8 0.34                           303 235 
 PTGC HZ EP   4    931 19.67                             111   -1.37 0  308 159 
 PTGC HN ES   4    931 53.43                             111   -1.70 0  308 159 
 PTGC HZ I         931 57.96         8.0 0.30                           308 159 
 LL6C HZ EP   4    931 21.21                             110   -1.82 0  325 357 
 LL6C HN ES   4    931 57.48                             110   -1.20 0  325 357 
 CBOC HZ EP        931 25.07                             110    0.63 7  336 252 
 CBOC HN ES        932  1.71                             110    0.53 7  336 252 
 CBOC HZ I         932  4.75         2.0 0.20                           336 252 
 PRA  HZ EP        931 30.61                             106   -0.31 6  393 210 
 PRA  HN ES        932 12.40                             106   -0.33 6  393 210 
 PRA  HZ I         932 16.86         4.6 0.22                           393 210 
 SJC  HZ EP   4    931 30.80                             105   -2.22 0  411 327 
 SJC  HE ES   4    932 11.90                             105   -4.57 0  411 327 
 SJC  HZ I         932 20.48         2.3 0.40                           411 327 
 CRJC HZ EP   9    931 37.00                             103   -2.82 0  468   3 
 CRJC HN ES        932 25.46                                   -0.28 5  468   3 
                                                                                
