 2013  4 2 0052 49.5 L   6.802 -73.168151.9  RSN 10 0.5 1.8LRSN                1
 GAP=143        0.92       4.9     6.2  6.7 -0.7648E+01  0.1353E+02  0.3763E+01E
 Epicentro: LOS SANTOS - SANTANDER                                             3
 ACTION:UPD 13-05-22 14:35 OP:EP   STATUS:               ID:20130402005249 L   I
 2013-04-02-0050-00M.COL___245                                                 6
 STAT SP IPHASW D HRMM SECON CODA AMPLIT PERI AZIMU VELO AIN AR TRES W  DIS CAZ7
 BAR2 SZ EP   1    053  9.20                             171   -0.68 7 23.3 184 
 BAR2 SZ ES   1    053 25.89                             171    0.13 7 23.3 184 
 BAR2 SZ I         053 26.41        13.8 0.28            160           23.3 184 
 GIR2 SZ EP   1    053  9.85                             168   -0.05 7 30.7 355 
 GIR2 SZ ES   1    053 25.63                             168   -0.17 7 30.7 355 
 BRR  HZ EP        053 11.75                             154    0.5510 68.9 299 
 BRR  HE ES   1    053 28.27                             154    0.15 7 68.9 299 
 BRR  HZ I         053 34.01        10.0 0.36            155           68.9 299 
 PAM  SZ EP   2    053 12.71                             151    0.25 5 78.8  41 
 PAM  SN ES   1    053 30.66                             151    0.30 7 78.8  41 
 PAM  SZ I         053 31.82         4.2 0.54            151           78.8  41 
 PTB  HZ EP        053 15.99                             134   -0.79 9  145 259 
 PTB  HN ES   1    053 37.69                             134   -0.35 7  145 259 
 PTB  HZ I         053 44.90        13.1 0.32            128            145 259 
 OCA  HN ES   1    053 40.20                             131   -0.47 7  160 354 
 OCA  HZ I         053 45.98         9.0 0.56            130            160 354 
 ZAR  HN ES   2    053 48.58                             124    1.03 4  202 292 
 NOR  HZ EP        053 25.81                             120    0.40 8  233 234 
 NOR  HN ES   2    053 53.58                             120    0.17 4  233 234 
 NOR  HZ I         053 57.87         5.5 0.20            114            233 234 
 SML  HZ EP   1    053 26.03                             119   -0.32 6  242 336 
 SML  HN ES   1    053 55.41                             119    0.32 6  242 336 
 PRA  HZ EP   1    053 44.02                             108    0.88 4  391 209 
 PRA  HZ I         054 29.62         2.3 0.37            103            391 209 
                                                                                
