 2017  6 2 0827 43.7 L   6.822 -73.130144.3  RSN 31 0.4 3.3LRSN 3.6WRSN        1
 SPEC AVERAGE  MO 14.5 ST  1.5 OM  2.5 f0 1.67 R1.3638 AL 0.00 WI 30.0 MW  3.6 3
 SPEC SD       MO  0.1 ST  2.7 OM  0.3 f00.809 R0.5181 AL      WI      MW  0.1 3
 GAP=149        0.96       2.7     3.8  5.0  0.2897E+01 -0.1095E+00 -0.8633E+00E
 Epicentro: LOS SANTOS - SANTANDER                                             3
 SPEC RUS HH Z MO 14.7 ST  1.5 OM  2.7 f0 1.73 R1.1121 AL-0.00 WI 30.0 MW  3.7 3
 SPEC RUS HH Z T 82824 K 0.000 GD  177 VS 5.20 DE 3.50 Q0750.0 QA 1.50 VS 5.20 3
 SPEC ZAR HH Z MO 14.4 ST 10.7 OM  2.3 f0 4.07 R0.4727 AL-0.00 WI 30.0 MW  3.6 3
 SPEC ZAR HH Z T 82839 K 0.000 GD  250 VS 5.20 DE 3.50 Q0750.0 QA 1.50 VS 5.20 3
 SPEC CHI HH Z MO 14.4 ST0.352 OM  2.2 f0 1.34 R1.4358 AL-0.00 WI 30.0 MW  3.5 3
 SPEC CHI HH Z T 82849 K 0.000 GD  289 VS 5.20 DE 3.50 Q0750.0 QA 1.50 VS 5.20 3
 SPEC ROSCBH Z MO 14.6 ST0.321 OM  2.4 f0 1.11 R1.7333 AL-0.00 WI 30.0 MW  3.7 3
 SPEC ROSCBH Z T 82851 K 0.000 GD  293 VS 5.20 DE 3.50 Q0750.0 QA 1.50 VS 5.20 3
 SPEC HEL HH Z MO 14.5 ST0.821 OM  2.3 f0 1.61 R1.1950 AL-0.00 WI 30.0 MW  3.6 3
 SPEC HEL HH Z T 82852 K 0.000 GD  309 VS 5.20 DE 3.50 Q0750.0 QA 1.50 VS 5.20 3
 SPEC VIL EH Z MO 14.3 ST0.598 OM  2.1 f0 1.64 R1.1732 AL-0.00 WI 30.0 MW  3.5 3
 SPEC VIL EH Z T 82860 K 0.000 GD  338 VS 5.20 DE 3.50 Q0750.0 QA 1.50 VS 5.20 3
 SPEC ELA HH Z MO 14.8 ST0.240 OM  2.5 f00.870 R2.2115 AL-0.00 WI 30.0 MW  3.8 3
 SPEC ELA HH Z T 829 5 K 0.000 GD  362 VS 5.20 DE 3.50 Q0750.0 QA 1.50 VS 5.20 3
 SPEC CBOCHH Z MO 14.7 ST0.180 OM  2.4 f00.851 R2.2609 AL-0.00 WI 30.0 MW  3.7 3
 SPEC CBOCHH Z T 829 5 K 0.000 GD  365 VS 5.20 DE 3.50 Q0750.0 QA 1.50 VS 5.20 3
 SPEC DBB EH Z MO 14.5 ST0.709 OM  2.2 f0 1.56 R1.2333 AL-0.00 WI 30.0 MW  3.6 3
 SPEC DBB EH Z T 829 5 K 0.000 GD  370 VS 5.20 DE 3.50 Q0750.0 QA 1.50 VS 5.20 3
 SPEC ANILHH Z MO 14.4 ST  1.9 OM  2.1 f0 2.30 R0.8365 AL-0.00 WI 30.0 MW  3.5 3
 SPEC ANILHH Z T 82913 K 0.000 GD  387 VS 5.20 DE 3.50 Q0750.0 QA 1.50 VS 5.20 3
 SPEC ORTCHH Z MO 14.3 ST0.698 OM  2.0 f0 1.73 R1.1121 AL-0.00 WI 30.0 MW  3.5 3
 SPEC ORTCHH Z T 82919 K 0.000 GD  423 VS 5.20 DE 3.50 Q0750.0 QA 1.50 VS 5.20 3
 SPEC APACHH Z MO 14.5 ST0.195 OM  2.2 f00.969 R1.9856 AL-0.00 WI 30.0 MW  3.6 3
 SPEC APACHH Z T 82918 K 0.000 GD  424 VS 5.20 DE 3.50 Q0750.0 QA 1.50 VS 5.20 3
 SPEC LCBCHH Z MO 14.3 ST0.889 OM  1.9 f0 1.99 R0.9668 AL-0.00 WI 30.0 MW  3.5 3
 SPEC LCBCHH Z T 82923 K 0.000 GD  445 VS 5.20 DE 3.50 Q0750.0 QA 1.50 VS 5.20 3
 OLDACT:UP  17-06-02 16:32 OP:and  STATUS:               ID:20170602082733     3
 OLDACT:REG 17-06-02 13:04 OP:and  STATUS:               ID:20170602082733     3
 ACTION:UPD 17-09-14 16:49 OP:jn   STATUS:               ID:20170602082743 L   I
 OLDACT:UP  17-06-02 16:36 OP:and  STATUS:               ID:20170602082733     3
 2017-06-02-0828-00M.COL___341                                                 6
 STAT SP IPHASW D HRMM SECON CODA AMPLIT PERI AZIMU VELO AIN AR TRES W  DIS CAZ7
 BRR  HZ IP     D  828  5.00                             152    0.3310 71.6 296 
 BRR  HN ES        828 21.45                             152    0.3810 71.6 296 
 BRR  HZ I         828 25.76       409.3 0.14            149           71.6 296 
 RUS  HZ EP     C  828  7.32                             143   -0.1210  103 177 
 RUS  HN ES        828 25.64                             143   -0.3510  103 177 
 RUS  HZ I         828 27.77       188.1 0.33            141            103 177 
 PTB  HZ EP   9    828  9.85                             131   -0.86 0  150 258 
 PTB  HN ES        828 31.05                                    0.10 9  150 258 
 PTB  HZ I         828 37.93       210.0 0.36            129            150 258 
 SPBC HZ IP     D  828 12.16                             128   -0.17 9  166 219 
 SPBC HE ES        828 34.62                             128   -0.08 9  166 219 
 SPBC HZ I         828 39.29       426.2 0.34            126            166 219 
 YPLC HZ IP     C  828 13.75                             126    0.27 9  178 152 
 YPLC HN ES   4    828 37.67                             126    0.93 0  178 152 
 YPLC HZ I         828 40.51       216.8 0.36            126            178 152 
 ZAR  HZ EP        828 16.16                             122    0.08 9  205 291 
 ZAR  HN ES        828 41.30                             122   -0.07 9  205 291 
 ZAR  HZ I         828 44.00       297.7 0.14            121            205 291 
 NOR  HZ EP        828 19.17                             118   -0.44 8  237 234 
 NOR  HE ES        828 47.48                             118   -0.17 8  237 234 
 NOR  HZ I         828 54.70       126.7 0.13            116            237 234 
 CHI  HZ EP        828 21.70                             116    0.12 8  251 195 
 CHI  HN ES        828 51.03                             116   -0.14 8  251 195 
 CHI  HZ I         828 54.97        54.8 0.26            115            251 195 
 ROSC BZ EP   9    828 23.38                             116    1.35 0  256 211 
 ROSC BE ES        828 53.45                             116    0.14 8  256 211 
 ROSC BZ I         828 58.50       147.4 0.40            115            256 211 
 HEL  HZ EP   4    828 24.85                             114    0.80 0  274 255 
 HEL  HN ES   4    828 54.43                             114   -1.12 0  274 255 
 HEL  HZ I         829  1.33       118.1 0.46            113            274 255 
 VIL  EZ EP        828 27.12                             111   -0.20 7  306 192 
 VIL  EN ES        829  1.74                             111    0.36 7  306 192 
 VIL  EZ I         829  5.87       123.1 0.32            111            306 192 
 PTGC HZ IP   9 C  828 26.51                             111   -1.13 0  310 159 
 PTGC HN ES        829  0.31                             111   -0.51 7  310 159 
 PTGC HZ I         829  2.62        83.0 0.48            111            310 159 
 ELA  HZ EP   4    828 32.45                             110    1.67 0  332 229 
 ELA  HN ES   4    829  6.73                             110   -0.80 0  332 229 
 ELA  HZ I         829 17.89        78.0 0.50            109            332 229 
 CBOC HZ EP        828 31.40                             109    0.61 7  336 252 
 CBOC HE ES        829  6.98                             109   -0.57 7  336 252 
 CBOC HZ I         829 19.00        43.2 0.62            109            336 252 
 DBB  EZ EP   4    828 32.13                             109    0.88 0  341 274 
 DBB  EN ES   4    829  6.92                             109   -1.45 0  341 274 
 DBB  EZ I         829 10.12        75.2 0.46            108            341 274 
 ARGC HZ EP   4    828 33.58                             108    0.52 0  357 340 
 ARGC HE ES        829 11.00                             108   -0.59 6  357 340 
 ANIL HZ EP   9    828 35.19                             108    1.44 0  360 224 
 ANIL HE ES        829 15.04                             108    0.78 6  360 224 
 ANIL HZ I         829 18.58       171.4 0.40            107            360 224 
 ORTC HZ EP        828 38.20                             106    0.32 6  398 216 
 ORTC HE ES        829 21.12                             106    0.95 6  398 216 
 ORTC HZ I         829 30.71        37.8 0.22            105            398 216 
 APAC HZ EP        828 37.46                             106   -0.44 6  399 288 
 APAC HN ES        829 20.19                             106   -0.02 6  399 288 
 APAC HZ I         829 23.56        81.2 0.74            105            399 288 
 SJC  HZ EP   9    828 37.10                             105   -1.94 0  408 327 
 SJC  HE ES        829 19.27                             106   -1.03 6  408 327 
 SJC  HZ I         829 22.81        71.4 0.50            105            408 327 
 PAL  HZ EP        828 39.19                             105    0.10 6  408 239 
 PAL  HE ES        829 22.36                             105    0.03 6  408 239 
 PAL  HZ I         829 30.64        34.2 0.24            105            408 239 
 LCBC HZ EP        828 40.78                             105    0.19 5  422 302 
 LCBC HN ES        829 25.45                             105    0.45 5  422 302 
 LCBC HZ I         829 28.34        66.3 0.34            105            422 302 
 CRJC HZ EP   9    828 43.54                             103   -2.28 0  465   3 
 CRJC HE ES        829 30.46                             104   -1.56 5  465   3 
 CRJC HZ I         829 43.03        21.2 0.16            103            465   3 
 YOT  HZ EP        828 46.21                             103   -0.80 5  475 229 
 YOT  HE ES   4    829 34.83                             103   -1.59 0  475 229 
 GUA  EZ EP   9    828 45.58                             103   -1.46 0  476 173 
 GUA  EN ES        829 35.22                             103    0.21 5  476 173 
 GUA  EZ I         829 40.94        32.7 0.30            103            476 173 
 SMAR HZ EP   4    828 49.60                             102    0.34 0  495 346 
 SMAR HN ES   4    829 36.58                             102   -3.85 0  495 346 
 SMAR HZ I         829 51.35        13.1 0.34            102            495 346 
 CAP2 HZ EP   4    828 48.72                             102   -2.13 0  508 294 
 CAP2 HN ES   4    829 38.81                             102   -4.46 0  508 294 
 CAP2 HZ I         829 41.51        25.9 0.09            101            508 294 
 MACC HZ EP   9    828 50.65                             101   -2.00 0  523 189 
 MACC HN ES        829 42.80                             102   -1.67 4  523 189 
 MACC HZ I         830 13.50        12.7 0.30            101            523 189 
 JAMC HZ EP   4    828 58.49                             100    1.20 0  560 225 
 JAMC HE ES   2    829 53.89                             100   -0.84 2  560 225 
 GARC HZ EP   9    828 57.96                             100   -1.28 0  576 207 
 GARC HN ES        829 53.69                                   -3.22 3  576 207 
 GARC HZ I         829 57.82        25.9 0.26            100            576 207 
 FLO2 HZ EP        829  6.77                              98   -0.34 2  643 206 
 FLO2 HE ES   4    830 13.93                              98    1.73 0  643 206 
                                                                                
