 2016 11 2 0419 55.4 L   6.768 -73.122145.6  RSN 17 0.4 2.1LRSN                1
 GAP=122        0.84       3.1     3.0  4.2 -0.6124E+00  0.3291E+01  0.3168E+01E
 Epicentro: LOS SANTOS - SANTANDER                                             3
 ACTION:UPD 17-10-26 21:03 OP:lp   STATUS:               ID:20161102041738 L   I
 OLDACT:UP  16-11-02 16:10 OP:dani STATUS:               ID:20161102041738 L   3
 OLDACT:UP  16-11-02 16:09 OP:dani STATUS:               ID:20161102041738 L   3
 OLDACT:UP  16-11-02 16:09 OP:dani STATUS:               ID:20161102041738 L   3
 OLDACT:UPD 16-11-02 13:22 OP:dnl  STATUS:               ID:20161102041738 L   3
 2016-11-02-0418-00M.COL___343                                                 6
 STAT SP IPHASW D HRMM SECON CODA AMPLIT PERI AZIMU VELO AIN AR TRES W  DIS CAZ7
 BAR2 EZ EP     D  420 14.96                             171   -0.0410 20.6 199 
 BAR2 HE ES        420 30.12                             171   -0.1310 20.6 199 
 BAR2 EZ I         420 31.27        38.6 0.22            167           20.6 199 
 BRR  HZ EP        420 16.73                             151   -0.0810 75.2 300 
 BRR  HN ES        420 33.74                             151    0.2710 75.2 300 
 BRR  HZ I         420 37.67        26.7 0.30            148           75.2 300 
 PAM  EZ EP        420 17.91                             151    0.2010 78.5  36 
 PAM  EE ES        420 35.04                             151   -0.0410 78.5  36 
 PAM  EZ I         420 36.96        27.4 0.52            150           78.5  36 
 RUS  HZ EP        420 18.87                             145   -0.0510 96.9 177 
 RUS  HN ES        420 37.42                             145    0.2010 96.9 177 
 RUS  HZ I         420 38.27        12.8 0.24            139           96.9 177 
 PTB  HZ EP        420 21.77                             132   -0.81 9  150 260 
 PTB  HN ES   3    420 42.73                             132   -1.01 2  150 260 
 PTB  HZ I         420 44.99        17.2 0.16            127            150 260 
 SPBC HZ EP        420 23.91                             129    0.07 9  162 221 
 SPBC HE ES        420 45.97                             129   -0.01 9  162 221 
 SPBC HZ I         420 48.02        12.9 0.10            124            162 221 
 ZAR  HZ EP        420 28.04                             122   -0.23 8  208 293 
 ZAR  HN ES        420 54.10                             122    0.22 8  208 293 
 ZAR  HZ I         420 58.92        16.0 0.26            118            208 293 
 NOR  HZ EP        420 31.46                             118    0.28 8  235 236 
 NOR  HN ES        420 59.05                             118   -0.00 8  235 236 
 NOR  HZ I         421  4.04         6.7 0.34            114            235 236 
 CHI  HZ EP        420 33.15                             117    0.31 8  246 196 
 CHI  HZ I         421  9.35         4.2 0.59            113            246 196 
 HEL  HZ EP   3    420 34.15                             115   -1.69 2  274 257 
 HEL  HN ES        421  6.93                             115   -0.42 8  274 257 
 HEL  HZ I         421 15.55         4.8 0.56            111            274 257 
 GUY2CHZ EP   9    420 40.70                             112    1.63 0  301 236 
 GUY2CHN ES        421 15.23                             112    0.51 7  301 236 
 GUY2CHZ I         421 19.72         5.1 0.30                           301 236 
 PTGC HZ EP        420 38.03                             112   -0.78 7  304 159 
 PTGC HN ES   4    421 11.47                             112   -1.17 0  304 159 
 PTGC HZ I         421 13.12         5.0 0.32            108            304 159 
 LL6C HZ EP   9    420 20.49                             110   -21.1 0  329 357 
 LL6C HN ES   3    421  0.01                                    3.56 2  329 357 
 CBOC HZ EP        420 43.02                             110    0.50 7  335 253 
 CBOC HN ES        421 19.35                             110    0.11 7  335 253 
 CBOC HZ I         421 28.74         1.6 0.25            106            335 253 
 PRA  HZ EP        420 49.38                             107    0.62 6  390 210 
 PRA  HE ES   4    421 31.90                             107    1.56 0  390 210 
 PRA  HZ I         421 36.67         5.1 0.26            103            390 210 
 ORTC HZ EP        420 49.85                             106    0.64 6  394 217 
 ORTC HN ES   4    421 33.05                             106    1.90 0  394 217 
 ORTC HZ I         421 39.24         3.9 0.26            103            394 217 
 SJC  HZ EP   4    420 49.66                             106   -1.86 0  414 327 
 SJC  HE ES   4    421 30.63                             106   -4.63 0  414 327 
 SJC  HZ I         421 35.05         4.8 0.56            103            414 327 
                                                                                
