 2013  7 2 0501 54.1 L   6.773 -73.181149.5  RSN  8 0.5 2.1LRSN                1
 GAP=176        1.32       5.1     6.8  8.6  0.7926E+01  0.2064E+01 -0.1395E+02E
 Epicentro: LOS SANTOS - SANTANDER                                             3
 ACTION:UPD 13-08-12 10:34 OP:ep   STATUS:               ID:20130702050154 L   I
 OLDACT:REG 13-07-02 08:13 OP:stll STATUS:               ID:20130702045850     3
 2013-07-02-0458-50M.COL___227                                                 6
 STAT SP IPHASW D HRMM SECON CODA AMPLIT PERI AZIMU VELO AIN AR TRES W  DIS CAZ7
 BAR2 SZ EP        5 2 13.94                             172   -0.1410 20.0 180 
 BAR2 SZ ES        5 2 28.97                             172   -0.7210 20.0 180 
 BAR2 SZ I         5 2 30.35        11.6 0.16            172           20.0 180 
 GIR2 SZ EP        5 2 14.10                             167   -0.1510 33.8 358 
 BRR  HZ EP        5 2 16.14                             154    0.6210 69.3 302 
 BRR  HN ES        5 2 33.29                             154    1.0410 69.3 302 
 BRR  HN I         5 2 33.75        34.3 0.22            154           69.3 302 
 RUS  HZ EP     C  5 2 18.19                             145    0.1910 98.0 174 
 RUS  HN ES        5 2 36.59                             145   -0.0810 98.0 174 
 RUS  HN I         5 2 38.39        15.9 0.24            147           98.0 174 
 PTB  HZ EP        5 2 20.67                             134   -0.28 9  143 260 
 PTB  HN ES        5 2 41.93                             134    0.01 9  143 260 
 PTB  HN I         5 2 45.07        15.6 0.10            135            143 260 
 OCA  HZ EP        5 2 23.88                             130    0.97 9  163 355 
 OCA  HN ES        5 2 45.11                             130   -0.29 9  163 355 
 OCA  HN I         5 2 47.98        50.3 0.32            131            163 355 
 ZAR  HZ EP        5 2 26.12                             124   -0.39 9  202 293 
 ZAR  HE ES        5 2 51.61                             124   -0.20 9  202 293 
 SML  HN EP        5 2 30.72                             118   -0.30 8  245 336 
 SML  HE ES        5 2 59.10                             118   -0.75 8  245 336 
                                                                                
