 2015  8 2 0640 51.2 L   6.826 -73.100146.3  RSN  9 0.4 1.7LRSN                1
 GAP=188        0.93       3.5     5.1  6.1  0.3729E+01  0.5884E+01 -0.5897E+01E
 Epicentro: LOS SANTOS - SANTANDER                                             3
 ACTION:UPD 15-09-15 22:59 OP:cam  STATUS:               ID:20150802064051 L   I
 OLDACT:REG 15-08-02 12:19 OP:drio STATUS:               ID:20150802063742     3
 2015-08-02-0637-42M.COL___346                                                 6
 STAT SP IPHASW D HRMM SECON CODA AMPLIT PERI AZIMU VELO AIN AR TRES W  DIS CAZ7
 BAR2 EZ EP        641 11.18                             169    0.2310 27.4 199 
 BAR2 EZ ES        641 26.06                             169   -0.3210 27.4 199 
 BAR2 EZ I         641 29.52         6.5 0.20            171           27.4 199 
 BRR  HZ EP        641 13.09                             152    0.5310 74.4 295 
 BRR  HN ES        641 29.82                             152    0.5810 74.4 295 
 BRR  HZ I         641 34.07        12.2 0.14            151           74.4 295 
 RUS  HZ EP        641 15.57                             143    0.4010  103 179 
 RUS  HN ES        641 33.40                             143   -0.4810  103 179 
 RUS  HZ I         641 34.57         3.4 0.56            148            103 179 
 OCA  HZ EP        641 19.21                             130   -0.11 9  158 351 
 OCA  HN ES        641 41.07                             130   -0.21 9  158 351 
 OCA  HZ I         641 44.35        11.5 0.46            132            158 351 
 ZAR  HZ EP        641 23.90                             122   -0.13 8  208 291 
 ZAR  HN ES        641 49.92                             122    0.27 8  208 291 
 ZAR  HZ I         641 52.63         5.4 0.32            124            208 291 
 SML  HZ EP        641 27.74                             118   -0.04 8  243 334 
 SML  HN ES        641 55.80                             118   -0.53 8  243 334 
 SML  HZ I         642  4.97         5.7 0.26            120            243 334 
 HEL  HE ES        642  3.37                             114   -0.53 7  278 255 
 HEL  HZ I         642  9.69         2.2 0.24            117            278 255 
 URE  HZ EP        641 32.45                             113   -0.22 7  287 291 
 URE  HN ES   4    642  1.44                             113   -3.60 0  287 291 
 URE  HZ I         642  3.80         3.9 0.14            115            287 291 
 MON  HZ EP   4    641 38.76                             108   -1.69 0  356 308 
 MON  HN ES   4    642 17.63                             108   -1.25 0  356 308 
 MON  HZ I         642 17.81         1.1 0.28            111            356 308 
                                                                                
