 2010  7 2 0244 51.3 L   6.797 -73.096145.4  RSN  8 0.4 1.7LRSN                1
 GAP=161        0.73       4.7     7.6  7.1 -0.1458E+02 -0.3448E+01  0.3112E+01E
 Epicentro: LOS SANTOS - SANTANDER                                             3
 ACTION:UPD 10-12-01 15:14 OP:pat  STATUS:               ID:20100702024451 L   I
 2010-07-02-0242-59S.COL___118                                                 6
 STAT SP IPHASW D HRMM SECON CODA AMPLIT PERI AZIMU VELO AIN AR TRES W  DIS CAZ7
 BAR2 SZ EP   2    245 10.29                             170    -0.6 7   25 203 
 BAR2 SZ ES   2    245 25.93                             170    -0.3 7   25 203 
 BRR  HZ EP   1    245 12.19                             151    -0.511   76 297 
 BRR  HN ES   1    245 29.69                             151     0.311   76 297 
 BRR  HZ I         245 35.06        19.3 0.35                            76 297 
 RUS  HZ EP   2    245 14.72                             144    -0.2 7  100 179 
 RUS  HN ES   2    245 33.87                             144     0.4 7  100 179 
 RUS  HZ I         245 34.78         4.7 0.43                           100 179 
 BRI  SZ EP   1    245 15.70                             142     0.711  107  18 
 GUE  SZ EP   2    245 15.92                             139     0.0 7  116   9 
 GRA  SZ EP   1    245 16.20                             137    -0.211  125  15 
 GRA  SZ ES   2    245 35.64                             137    -0.3 7  125  15 
 OCA  SZ EP   2    245 19.55                             129    -0.1 7  161 351 
 OCA  SZ ES   2    245 41.92                             129     0.1 7  161 351 
 OCA  SZ I         245 44.19         5.0 0.25                           161 351 
 RREF HZ EP        245 38.21                             110     0.310  326 230 
 RREF HE ES   2    246 13.67                             110    -0.5 5  326 230 
 RREF HZ I         246 22.47         2.7 0.22                           326 230 
                                                                                
