 2017 10 2 0846  9.6 L   6.808 -73.168130.7  RSN  8 0.4 1.6LRSN                1
 GAP=133        0.93       3.5     4.2  6.7 -0.8939E+00  0.1406E+02  0.2543E+01E
 Epicentro: LOS SANTOS - SANTANDER                                             3
 ACTION:UPD 17-11-07 19:27 OP:rebc STATUS:               ID:20171002084609 L   I
 OLDACT:UP  17-10-02 19:26 OP:dhb  STATUS:               ID:20171002083743     3
 OLDACT:UP  17-10-02 19:26 OP:dhb  STATUS:               ID:20171002083743     3
 OLDACT:REG 17-10-02 14:48 OP:osc  STATUS:               ID:20171002083743     3
 2017-10-02-0838-00M.COL___399                                                 6
 STAT SP IPHASW D HRMM SECON CODA AMPLIT PERI AZIMU VELO AIN AR TRES W  DIS CAZ7
 BAR2 EZ IP     C  846 27.18                             169   -0.2510 23.9 184 
 BAR2 EZ ES        846 41.35                             169    0.0110 23.9 184 
 BAR2 EZ I         846 43.47        15.4 0.20            168           23.9 184 
 PAM  EZ IP     D  846 30.09                             148   -0.2110 78.4  41 
 PAM  EN ES        846 46.31                             148   -0.1310 78.4  41 
 PAM  EZ I         846 49.35         9.7 0.48            152           78.4  41 
 RUS  HZ EP        846 31.72                             140   -0.2610  102 175 
 RUS  HN ES        846 50.06                             140    0.6210  102 175 
 RUS  HZ I         846 50.64         3.3 0.22            142            102 175 
 ZAR  HZ IP     D  846 41.27                             119    0.44 9  201 292 
 ZAR  HN ES        847  5.42                             119    0.23 9  201 292 
 ZAR  HZ I         847 12.03         5.4 0.20            120            201 292 
 NOR  HN ES        847 11.02                             115   -0.40 8  233 234 
 NOR  HZ I         847 15.17         4.6 0.36            116            233 234 
 CHI  HN EP        846 47.33                             114    0.80 8  249 195 
 CHI  HE ES        847 14.73                             114   -0.60 8  249 195 
 CHI  HZ I         847 21.98         0.8 0.22            116            249 195 
 HEL  HE ES        847 19.34                             112   -0.10 8  270 255 
 HEL  HZ I         847 25.46         1.8 0.30            113            270 255 
 GUY2CHZ EP        846 52.25                             109   -0.13 7  300 234 
 GUY2CHN ES   4    847 29.71                             109    3.97 0  300 234 
 GUY2CHZ I         847 33.75         2.9 0.54                           300 234 
                                                                                
