 2012  8 2 0500 20.9 L   6.791 -73.154144.7  RSN  7 0.4 1.4LRSN                1
 GAP=136        0.86       4.6     5.0  8.3  0.7277E+00  0.8017E+01 -0.4233E+00E
 Epicentro: LOS SANTOS - SANTANDER                                             3
 ACTION:UPD 12-09-10 11:53 OP:ep   STATUS:               ID:20120802050020 L   I
 2012-08-02-0500-00M.COL___215                                                 6
 STAT SP IPHASW D HRMM SECON CODA AMPLIT PERI AZIMU VELO AIN AR TRES W  DIS CAZ7
 BAR2 SZ EP   1    5 0 40.49                             171    0.06 7 22.2 188 
 BAR2 SZ ES   1    5 0 55.59                             171   -0.04 7 22.2 188 
 BAR2 SZ I         5 0 56.25         6.6 0.15                          22.2 188 
 BRR  HZ EP   1    5 0 42.36                             152    0.39 7 70.9 300 
 BRR  HN ES   1    5 0 58.91                             152    0.55 7 70.9 300 
 BRR  HZ I         5 1  0.38         9.5 0.13                          70.9 300 
 PAM  SZ EP   1    5 0 43.46                             150    0.33 7 78.7  40 
 PAM  SN ES   1    5 1  0.30                             150   -0.13 7 78.7  40 
 RUS  HZ EP   1    5 0 44.63                             144    0.10 7 99.7 176 
 RUS  HN ES   1    5 1  2.85                             144   -0.08 7 99.7 176 
 RUS  HZ I         5 1  4.24         2.5 0.24                          99.7 176 
 PTB  HZ EP   1    5 0 47.25                             132   -0.48 7  147 259 
 PTB  HN ES   1    5 1  7.89                             132   -0.74 7  147 259 
 PTB  HZ I         5 1 11.32         3.2 0.16                           147 259 
 OCA  HN ES   1    5 1 10.59                             129   -0.75 7  161 353 
 ZAR  HN ES   1    5 1 19.18                             122    0.69 6  204 292 
                                                                                
