 2017 11 2 0136 43.1 L   6.749 -73.179141.9  RSN 11 0.5 1.6LRSN                1
 GAP=110        1.08       3.9     3.9  6.7  0.1330E+01  0.7416E+01  0.2661E+01E
 Epicentro: LOS SANTOS - SANTANDER                                             3
 ACTION:UPD 17-12-12 19:50 OP:rebc STATUS:               ID:20171102013643 L   I
 OLDACT:UP  17-11-02 14:08 OP:dnl  STATUS:               ID:20171102012741     3
 OLDACT:REG 17-11-02 13:22 OP:dnl  STATUS:               ID:20171102012741     3
 2017-11-02-0128-00M.COL___441                                                 6
 STAT SP IPHASW D HRMM SECON CODA AMPLIT PERI AZIMU VELO AIN AR TRES W  DIS CAZ7
 BAR2 EZ EP        137  2.14                             173    0.0010 17.4 181 
 BAR2 EZ ES        137 17.02                             173    0.0210 17.4 181 
 BAR2 EZ I         137 18.08         8.6 0.20            168           17.4 181 
 BRR  HZ EP        137  3.84                             152    0.0410 71.0 304 
 BRR  HE ES        137 20.87                             152    0.9110 71.0 304 
 BRR  HZ I         137 25.38        14.0 0.34            152           71.0 304 
 PAM  EZ EP        137  4.98                             148   -0.3210 84.0  39 
 PAM  EN ES        137 22.07                             148   -0.5710 84.0  39 
 PAM  EZ I         137 22.58         4.9 0.24            155           84.0  39 
 RUS  HZ EP   2    137  6.30                             145    0.23 5 95.3 174 
 RUS  HN ES        137 24.25                             145    0.2510 95.3 174 
 RUS  HZ I         137 26.24         6.5 0.24            143           95.3 174 
 PTB  HZ EP        137  8.91                             132   -0.41 9  143 261 
 PTB  HN ES        137 29.78                             132    0.00 9  143 261 
 PTB  HZ I         137 30.97         3.2 0.58            131            143 261 
 SPBC HZ EP        137 11.41                             129    0.76 9  157 219 
 SPBC HN ES        137 31.25                             129   -0.90 9  157 219 
 SPBC HZ I         137 40.23         6.9 0.20            128            157 219 
 YPLC HZ EP   2    137 12.59                             126    0.30 4  174 149 
 YPLC HN ES        137 35.07                             126   -0.00 9  174 149 
 YPLC HZ I         137 39.24         5.6 0.38            127            174 149 
 ZAR  HZ EP        137 15.14                             122   -0.02 9  203 294 
 ZAR  HN ES        137 40.24                             122    0.06 9  203 294 
 ZAR  HZ I         137 45.64         9.6 0.24            122            203 294 
 NOR  HE ES   4    137 43.26                             118   -1.83 0  228 235 
 NOR  HZ I         137 54.95         2.3 0.20            118            228 235 
 CHI  HZ EP   2    137 20.75                             117    0.88 4  242 195 
 CHI  HN ES   4    137 50.00                             117    1.43 0  242 195 
 CHI  HZ I         137 54.69         1.7 0.32            117            242 195 
 GUY2CHZ EP   4    137 28.34                             112    2.53 0  295 235 
 GUY2CHE ES        137 58.86                             112   -0.28 7  295 235 
 GUY2CHZ I         138 10.17         1.2 0.34                           295 235 
                                                                                
