 2014  6 2 0700 13.7 L   6.746 -73.149143.2  RSN  8 0.5 2.1LRSN                1
 GAP=109        1.17       4.1     4.1  7.4 -0.3000E+01  0.3889E+01 -0.1776E+01E
 Epicentro: JORDAN - SANTANDER                                                 3
 ACTION:UPD 14-07-01 22:49 OP:nd   STATUS:               ID:20140602070013 L   I
 OLDACT:UP  14-06-04 04:24 OP:CAM  STATUS:               ID:20140602070013 L   3
 OLDACT:REG 14-06-02 14:13 OP:stll STATUS:               ID:20140602065809     3
 2014-06-02-0658-09M.COL___247                                                 6
 STAT SP IPHASW D HRMM SECON CODA AMPLIT PERI AZIMU VELO AIN AR TRES W  DIS CAZ7
 BAR2 SZ EP        7 0 33.24                             173    0.3210 17.4 192 
 BAR2 SZ ES        7 0 48.60                             173    0.7010 17.4 192 
 BAR2 SZ I         7 0 50.07        25.3 0.44            171           17.4 192 
 RUS  HZ EP        7 0 37.12                             145    0.3410 94.7 176 
 RUS  HN ES        7 0 54.83                             145    0.0610 94.7 176 
 RUS  HZ I         7 0 56.79        12.3 0.26            146           94.7 176 
 PTB  HZ EP        7 0 40.07                             132   -0.27 9  146 261 
 PTB  HN ES        7 1  1.06                             132   -0.04 9  146 261 
 PTB  HZ I         7 1  4.54        17.1 0.16            131            146 261 
 TAM  HZ EP        7 0 41.35                             130    0.27 9  154 103 
 TAM  HZ I         7 0 41.56        18.0 0.32            133            154 103 
 TAM  HN ES        7 1  1.53                             130   -0.90 9  154 103 
 SPBC HZ EP        7 0 42.18                             129    0.63 9  158 220 
 SPBC HE ES        7 1  2.48                             129   -0.78 9  158 220 
 SPBC HZ I         7 1  6.72        19.5 0.50            129            158 220 
 OCA  HZ EP        7 0 42.34                             128   -0.04 9  166 354 
 OCA  HE ES        7 1  4.40                             128   -0.34 9  166 354 
 OCA  HZ I         7 1  9.10        14.6 0.18            129            166 354 
 NOR  HZ EP        7 0 48.61                             118   -0.28 8  231 236 
 NOR  HE ES        7 1 16.17                             118   -0.15 8  231 236 
 NOR  HZ I         7 1 24.46        11.1 0.20            119            231 236 
 CHI  HZ EP        7 0 51.22                             117    0.59 8  243 195 
 CHI  HE ES   1    7 1 18.70                             117   -0.72 6  243 195 
 CHI  HZ I         7 1 26.42         6.6 0.30            118            243 195 
                                                                                
