 2010 11 2 0601  5.8 L   6.817 -73.071135.0  RSN  5 0.2 1.6LRSN                1
 GAP=167        0.53       2.9     6.1  5.7  0.1470E+01 -0.1438E+02 -0.5183E+01E
 Epicentro: LOS SANTOS - SANTANDER                                             3
 ACTION:UP  10-12-17 16:49 OP:REBC STATUS:               ID:20101102060105 L   I
 2010-11-02-0558-30S.COL___126                                                 6
 STAT SP IPHASW D HRMM SECON CODA AMPLIT PERI AZIMU VELO SNR AR TRES W  DIS CAZ7
 BAR2 SZ EP        6 1 24.14                             168    -0.110   28 207 
 BAR2 SZ ES   1    6 1 38.59                             168     0.0 7   28 207 
 BAR2 SZ I         6 1 40.24        12.7 0.30                            28 207 
 BRR  HZ IP     D  6 1 25.90                             149    -0.310   78 294 
 BRR  HZ I         6 1 26.09        20.5 0.16                            78 294 
 BRR  HE ES   1    6 1 42.33                             149     0.2 7   78 294 
 RUS  HZ EP        6 1 28.62                             141     0.010  102 181 
 RUS  HN ES   1    6 1 46.47                             141     0.0 7  102 181 
 RUS  HZ I         6 1 48.26         3.5 0.27                           102 181 
 GUE  SZ EP        6 1 29.31                             138     0.110  113   8 
 GRA  SZ EP        6 1 29.95                             135     0.210  122  14 
 GRA  SZ ES   2    6 1 48.05                             135    -0.4 5  122  14 
 GRA  SZ I         6 1 50.76         4.4 0.17                           122  14 
                                                                                
