 2015  2 2 0249 18.7 L   6.791 -73.158133.8  RSN 21 0.6 2.2LRSN                1
 GAP= 65        1.44       3.2     3.7  6.4 -0.1719E+01  0.6947E+01  0.2805E+01E
 Epicentro: LOS SANTOS - SANTANDER                                             3
 ACTION:UPD 15-04-30 21:20 OP:nd   STATUS:               ID:20150202024918 L   I
 OLDACT:REG 15-02-02 13:21 OP:stll STATUS:               ID:20150202024743     3
 2015-02-02-0247-43M.COL___262                                                 6
 STAT SP IPHASW D HRMM SECON CODA AMPLIT PERI AZIMU VELO AIN AR TRES W  DIS CAZ7
 BAR2 EZ IP     C  249 37.20                             170    0.3010 22.1 187 
 BAR2 EZ I         249 37.33        57.9 0.40            169           22.1 187 
 BAR2 EZ ES        249 51.31                             170    0.2310 22.1 187 
 BRR  HZ IP     C  249 39.10                             151    0.5410 70.5 300 
 BRR  HN ES        249 54.61                             151    0.5810 70.5 300 
 BRR  HZ I         249 59.81        36.4 0.24            147           70.5 300 
 PAM  SZ EP        249 40.24                             148    0.4410 79.1  40 
 PAM  SN ES        249 56.35                             148    0.1210 79.1  40 
 PAM  SZ I         249 59.09        43.6 0.42            150           79.1  40 
 RUS  HZ EP        249 41.18                             141   -0.0810 99.7 175 
 RUS  HE ES        249 58.93                             141    0.1010 99.7 175 
 RUS  HZ I         250  0.18        18.6 0.46            141           99.7 175 
 PTB  HZ EP        249 43.78                             129   -0.83 9  146 259 
 PTB  HN ES        250  3.82                             129   -0.97 9  146 259 
 PTB  HZ I         250 11.96        15.3 0.30            127            146 259 
 TAM  HZ IP     C  249 45.55                             127   -0.05 9  156 104 
 TAM  HE ES        250  6.82                             127    0.27 9  156 104 
 OCA  HZ EP        249 45.52                             127   -0.71 9  161 354 
 OCA  HE ES        250  6.82                             127   -0.86 9  161 354 
 OCA  HZ I         250  9.36        18.9 0.18            126            161 354 
 SPBC HZ EP        249 46.08                             127   -0.10 9  162 219 
 SPBC HN ES        250  7.52                             127   -0.07 9  162 219 
 SPBC HZ I         250 11.37        28.0 0.10            125            162 219 
 ZAR  HZ EP        249 50.64                             120    0.30 9  203 293 
 ZAR  HE ES        250 15.92                             120    0.94 9  203 293 
 ZAR  HZ I         250 21.18        32.1 0.44            118            203 293 
 NOR  HZ EP        249 53.29                             116   -0.32 8  233 234 
 NOR  HN ES        250 20.82                             116    0.01 8  233 234 
 NOR  HZ I         250 27.04        11.4 0.18            115            233 234 
 SML  HZ EP        249 53.44                             115   -1.32 8  244 336 
 SML  HE ES        250 22.51                             115   -0.35 8  244 336 
 SML  HZ I         250 29.31        22.4 0.10            114            244 336 
 CHI  HZ EP        249 55.70                             115    0.05 8  247 195 
 CHI  HE ES        250 22.99                             115   -1.45 8  247 195 
 CHI  HZ I         250 29.00         7.3 0.42            114            247 195 
 HEL  HZ EP        249 59.48                             112    1.29 8  270 256 
 HEL  HN ES        250 28.95                             112   -0.01 8  270 256 
 HEL  HZ I         250 35.92         9.7 0.42            111            270 256 
 GUY2CHZ EP        250  2.17                             110    0.55 7  299 235 
 GUY2CHN ES        250 35.35                             110    0.28 7  299 235 
 GUY2CHZ I         250 42.57         8.0 0.20                           299 235 
 PTGC HZ EP   9    250  0.44                             109   -1.59 0  308 158 
 PTGC HE ES        250 33.14                                   -1.07 7  308 158 
 PTGC HZ I         250 39.07        13.1 0.30            109            308 158 
 RREF HZ EP        250  5.18                             109    0.99 7  320 229 
 RREF HE ES        250 38.42                             109   -1.22 7  320 229 
 RREF HZ I         250 46.36         7.1 0.20            108            320 229 
 CBOC HZ EP        250  5.27                             108    0.28 7  332 252 
 CBOC HZ I         250 44.88         3.0 0.20            107            332 252 
 TOL  SZ EP        250  7.39                             107    1.05 7  342 225 
 TOL  SN ES        250 43.68                             107    0.21 7  342 225 
 MON  HZ EP   9    250  5.09                             106   -2.16 0  353 309 
 MON  HN ES        250 43.06                                    0.13 6  353 309 
 MON  HZ I         250 44.29         4.1 0.18            106            353 309 
 ANIL HN ES        250 46.71                             106    0.45 6  356 224 
 ORTC HZ EP        250 12.44                             104    0.36 6  394 216 
 ORTC HE ES        250 53.12                             104   -0.56 6  394 216 
 ORTC HZ I         250 58.94         6.4 0.46            104            394 216 
                                                                                
