 2013  4 2 0847 11.3 L   6.814 -73.175141.9  RSN  9 0.4 1.7LRSN                1
 GAP=132        0.77       3.4     4.3  6.5 -0.1294E+00  0.1080E+02 -0.2532E+01E
 Epicentro: LOS SANTOS - SANTANDER                                             3
 ACTION:UPD 13-05-22 14:35 OP:EP   STATUS:               ID:20130402084711 L   I
 2013-04-02-0840-00M.COL___245                                                 6
 STAT SP IPHASW D HRMM SECON CODA AMPLIT PERI AZIMU VELO AIN AR TRES W  DIS CAZ7
 BAR2 SZ EP        847 30.56                             170    0.0610 24.5 182 
 BAR2 SZ ES   1    847 45.47                             170    0.00 7 24.5 182 
 BAR2 SZ I         847 47.20        30.1 0.28            160           24.5 182 
 PAM  SZ EP        847 33.50                             150    0.3310 78.3  42 
 PAM  SN ES   1    847 50.56                             150    0.33 7 78.3  42 
 PAM  SZ I         847 51.61         3.5 0.18            149           78.3  42 
 RUS  HZ EP   1    847 34.70                             142   -0.12 7  102 174 
 RUS  HN ES   1    847 52.75                             142   -0.40 7  102 174 
 RUS  HZ I         847 54.63         9.1 0.32            132            102 174 
 PTB  HZ EP   1    847 37.31                             132   -0.39 7  145 258 
 PTB  HN ES   1    847 58.22                             132   -0.07 7  145 258 
 PTB  HZ I         848  5.55         6.2 0.44            119            145 258 
 OCA  HN ES   1    848  0.45                             129   -0.40 7  158 354 
 OCA  HZ I         848  4.21         6.6 0.20            121            158 354 
 ZAR  HZ EP   1    847 43.95                             122    0.81 6  200 292 
 ZAR  HN ES   1    848  8.22                             122    0.26 6  200 292 
 ZAR  HZ I         848 14.33         7.4 0.22            111            200 292 
 SML  HZ EP   1    847 46.62                             117   -0.80 6  241 336 
 SML  HE ES   1    848 15.17                             117   -0.42 6  241 336 
 HEL  HZ EP   1    847 51.61                             114    0.59 6  269 255 
 HEL  HZ I         848 32.17         1.9 0.42            105            269 255 
 PRA  HZ EP   1    848  4.36                             106   -0.31 4  392 209 
                                                                                
