 2011  9 2 0223 11.6 L   6.797 -73.152140.0  RSN  7 0.2 1.9LRSN                1
 GAP=136        0.36       2.3     3.0  4.5 -0.1965E-01  0.1655E+01 -0.3242E+00E
 Epicentro: LOS SANTOS - SANTANDER                                             3
 ACTION:UPD 12-07-13 15:54 OP:ep   STATUS:               ID:20110902022311 L   I
 2011-09-02-0218-44S.COL___168                                                 6
 STAT SP IPHASW D HRMM SECON CODA AMPLIT PERI AZIMU VELO AIN AR TRES W  DIS CAZ7
 BAR2 SZ IP        223 30.48                             170   -0.0510 22.9 188 
 BAR2 SZ I         223 30.85        13.5 0.12                          22.9 188 
 BAR2 SZ ES   2    223 45.26                             170   -0.04 5 22.9 188 
 BRR  HZ IP     D  223 32.27                             152    0.1610 70.7 299 
 BRR  HZ I         223 32.46        22.4 0.16                          70.7 299 
 BRR  HN ES   2    223 48.31                             152    0.21 5 70.7 299 
 PAM  SZ EP   1    223 33.29                             149    0.04 7 78.1  40 
 PAM  SN ES   2    223 50.14                             149    0.00 5 78.1  40 
 RUS  HZ EP   1    223 34.93                             143    0.16 7  100 176 
 RUS  HN ES   2    223 52.54                             143   -0.30 5  100 176 
 RUS  HZ I         223 54.58        10.5 0.31                           100 176 
 OCA  SZ EP   2    223 39.05                             128   -0.45 5  161 353 
 OCA  SZ ES   2    224  1.09                             128   -0.16 5  161 353 
 OCA  SZ I         224  3.97         7.1 0.25                           161 353 
 ZAR  HN ES   2    224  8.42                             121   -0.18 4  204 292 
 ZAR  HZ I         224 14.89        10.3 0.25                           204 292 
 NOR  SN ES   2    224 14.28                             117   -0.19 4  234 234 
                                                                                
