 2010  9 2 0809 49.8 L   6.891 -73.288120.0  RSN  7 0.2 1.5LRSN                1
 GAP=135        0.50       2.7     5.2  4.9  0.4400E+00 -0.6178E+01 -0.4930E+01E
 Epicentro: BETULIA - SANTANDER                                                3
 ACTION:UP  11-02-18 10:59 OP:tino STATUS:               ID:20100902080949 L   I
 2010-09-02-0806-15S.COL___120                                                 6
 STAT SP IPHASW D HRMM SECON CODA AMPLIT PERI AZIMU VELO SNR AR TRES W  DIS CAZ7
 BAR2 SZ IP        810  6.73                             163     0.010   35 161 
 BAR2 SZ I         810  6.96        16.8 0.12                            35 161 
 BAR2 SZ ES   1    810 20.02                             163     0.1 7   35 161 
 BRR  HZ EP        810  7.11                             155    -0.110   53 297 
 BRR  HN ES   1    810 20.84                             155     0.2 7   53 297 
 BRR  HZ I         810 21.93         9.0 0.16                            53 297 
 GUE  SZ EP        810 11.82                             135     0.010  111  21 
 GUE  SZ I         810 17.84         2.8 0.09                           111  21 
 RUS  HN ES   2    810 29.41                             134    -0.2 5  113 168 
 RUS  HZ I         810 31.31         3.3 0.38                           113 168 
 GRA  SZ EP   1    810 13.03                             131     0.4 7  122  26 
 GRA  SZ ES   2    810 30.05                             131    -0.3 5  122  26 
 OCA  SZ EP        810 14.93                             125    -0.2 9  149 359 
 OCA  SZ ES   1    810 34.96                             125     0.0 7  149 359 
 OCA  SZ I         810 36.32         9.0 0.33                           149 359 
 PRA  HZ EP   2    810 42.79                             102     0.0 3  393 207 
 PRA  HZ I         810 43.33         1.6 0.49                           393 207 
                                                                                
