 2010  5 2 0821  5.6 L   6.763 -73.155137.6  RSN 10 0.4 1.7LRSN                1
 GAP=169        0.71       5.5    11.1  7.6 -0.3217E+02  0.1230E+02 -0.7077E+01E
 Epicentro: LOS SANTOS - SANTANDER                                             3
 ACTION:UP  10-08-24 10:02 OP:vdl  STATUS:               ID:20100502082105 L   I
 2010-05-02-0818-34S.COL___105                                                 6
 STAT SP IPHASW D HRMM SECON CODA AMPLIT PERI AZIMU VELO SNR AR TRES W  DIS CAZ7
 BAR2 SZ EP        821 23.91                             172    -0.210   19 189 
 BAR2 SZ ES   1    821 38.71                             172     0.1 7   19 189 
 GIR2 SZ EP   2    821 24.09                             165    -0.3 5   35 353 
 BRR  HZ EP   2    821 26.42                             150     0.5 5   72 302 
 BRR  HE ES   3    821 41.31                             150    -0.5 2   72 302 
 BRR  HZ I         821 41.90        13.5 0.07                            72 302 
 BRI  SZ EP        821 29.51                             139     0.510  113  21 
 BRI  SZ ES   1    821 47.47                             139     0.2 7  113  21 
 GUE  SZ EP   2    821 29.22                             136    -0.6 5  121  12 
 GUE  SZ ES   2    821 48.23                             136    -0.6 5  121  12 
 GRA  SZ EP   2    821 29.63                             134    -0.8 5  130  17 
 OCA  SZ EP   2    821 33.16                             127    -0.5 5  164 354 
 OCA  SZ ES   2    821 55.94                             127     0.4 5  164 354 
 OCA  SZ I         822  0.01         5.7 0.27                           164 354 
 CHI  HZ EP   3    821 42.27                             116    -0.1 2  244 195 
 CHI  HN ES   3    822 11.74                             116     0.7 2  244 195 
 CHI  HZ I         822 19.05         1.7 0.29                           244 195 
 HEL  HZ EP   3    821 45.36                             113     0.2 2  270 257 
 HEL  HE ES   3    822 16.09                             113     0.1 2  270 257 
 HEL  HZ I         822 24.62         2.3 0.22                           270 257 
 PRA  HZ EP   3    821 58.77                             105     0.4 1  388 210 
 PRA  HZ I         822 48.34         1.9 0.39                           388 210 
                                                                                
