 2012  7 2 0741  4.3 L   6.356 -73.616 99.6  RSN  4 0.4 0.9LRSN                1
 GAP=221        0.96      10.6     6.3 12.7  0.1267E+02  0.3739E+02  0.2369E+02E
 Epicentro: SANTA HELENA DEL OPON - SANTANDER                                  3
 ACTION:UPD 12-08-14 11:42 OP:ep   STATUS:               ID:20120702074104 L   I
 2012-07-02-0740-00M.COL___201                                                 6
 STAT SP IPHASW D HRMM SECON CODA AMPLIT PERI AZIMU VELO AIN AR TRES W  DIS CAZ7
 BAR2 SZ EP   1    741 19.84                             149    -0.1 7   55  61 
 BAR2 SZ ES   1    741 32.55                             149     0.5 7   55  61 
 BAR2 SZ I         741 33.65         3.9 0.33            155             55  61 
 BRR  HN ES   1    741 34.65                             137    -0.6 7   84 353 
 PTB  HZ EP   1    741 22.58                             133    -0.2 7   95 282 
 PTB  HN ES   1    741 36.97                             133    -0.1 7   95 282 
 PTB  HZ I         741 39.13         1.4 0.19            136             95 282 
 ZAR  HZ EP   1    741 32.00                             114    -0.2 7  186 313 
 ZAR  HN ES   1    741 54.77                             114     0.8 7  186 313 
