 2011 11 2 0232  8.0 L   6.782 -73.087144.2  RSN  6 0.2 1.7LRSN                1
 GAP=145        0.42       2.7     3.3  3.8  0.9465E+00  0.8634E+00 -0.1755E+00E
 Epicentro: LOS SANTOS - SANTANDER                                             3
 ACTION:UPD 12-07-13 16:07 OP:ep   STATUS:               ID:20111102023208 L   I
 2011-11-02-0220-00M.COL___178                                                 6
 STAT SP IPHASW D HRMM SECON CODA AMPLIT PERI AZIMU VELO AIN AR TRES W  DIS CAZ7
 BAR2 SZ EP        232 27.41                             170   -0.0610 23.5 207 
 BAR2 SZ I         232 28.03         8.4 0.15                          23.5 207 
 BAR2 SZ ES   1    232 42.60                             170   -0.04 7 23.5 207 
 GIR2 SZ EP   2    232 27.61                             166    0.00 5 34.8 340 
 PAM  SZ EP        232 29.96                             151    0.0210 75.0  35 
 PAM  SN ES   1    232 46.99                             151   -0.04 7 75.0  35 
 BRR  HZ EP        232 29.32                             150   -0.0810 77.8 298 
 BRR  HE ES   1    232 46.39                             150    0.32 7 77.8 298 
 BRR  HZ I         232 48.94         8.9 0.22                          77.8 298 
 RUS  HZ EP        232 31.48                             144    0.0110 98.4 180 
 RUS  HN ES   1    232 49.75                             144    0.00 7 98.4 180 
 ZAR  HZ EP   2    232 41.57                             121    0.50 4  211 292 
 ZAR  HE ES   2    233  6.16                             121   -0.68 4  211 292 
 ZAR  HZ I         233 12.37         5.3 0.53                           211 292 
                                                                                
