 2017  8 2 0337 53.1 L   6.791 -73.126147.5  RSN 11 0.5 1.6LRSN                1
 GAP=114        1.21       4.2     4.4  6.6 -0.1419E+01  0.6625E+01  0.5656E+01E
 Epicentro: LOS SANTOS - SANTANDER                                             3
 ACTION:UPD 17-09-04 20:15 OP:rebc STATUS:               ID:20170802033753 L   I
 OLDACT:DUP 17-08-02 15:59 OP:osc  STATUS:               ID:20170802033744d    3
 2017-08-02-0338-00M.COL___392                                                 6
 STAT SP IPHASW D HRMM SECON CODA AMPLIT PERI AZIMU VELO AIN AR TRES W  DIS CAZ7
 BAR2 EZ EP        338 13.03                             171    0.0710 22.8 196 
 BAR2 EZ ES        338 27.91                             171   -0.5210 22.8 196 
 BAR2 EZ I         338 29.24        13.5 0.26            167           22.8 196 
 BRR  HZ EP        338 14.80                             152    0.2010 73.6 298 
 BRR  HN ES        338 32.17                             152    0.8210 73.6 298 
 PAM  EZ EP        338 14.42                             151   -1.0810 76.8  38 
 PAM  EN ES        338 33.47                             151    0.5310 76.8  38 
 RUS  HZ EP        338 17.33                             144    0.3610 99.5 177 
 RUS  HN ES        338 35.25                             144   -0.3210 99.5 177 
 RUS  HZ I         338 36.60         4.6 0.24            144           99.5 177 
 PTB  HZ EP        338 20.01                             132   -0.40 9  150 259 
 PTB  HE ES        338 40.89                             132   -0.80 9  150 259 
 PTB  HZ I         338 46.49         3.2 0.09            131            150 259 
 SPBC HZ EP        338 22.05                             129    0.24 9  164 220 
 SPBC HE ES        338 44.42                             129    0.23 9  164 220 
 SPBC HZ I         338 50.51         5.8 0.09            129            164 220 
 YPLC HZ EP        338 23.25                             127    0.39 9  175 152 
 YPLC HE ES   4    338 41.30                             127   -4.76 0  175 152 
 ZAR  HZ EP        338 26.03                             122    0.10 8  206 292 
 ZAR  HN ES        338 51.53                             122    0.02 8  206 292 
 ZAR  HZ I         338 57.16         7.4 0.36            123            206 292 
 NOR  HZ EP        338 28.92                             119   -0.16 8  236 235 
 NOR  HE ES        338 56.87                             119   -0.26 8  236 235 
 NOR  HZ I         338 58.68         3.6 0.16            119            236 235 
 CHI  HE ES        339  0.49                             117    0.16 8  248 196 
 CHI  HZ I         339  8.50         1.4 0.17            118            248 196 
 GUY2CHZ EP        338 36.94                             113   -0.01 7  302 235 
 GUY2CHE ES        339 11.84                             113    0.71 7  302 235 
 GUY2CHZ I         339 19.63         2.1 0.42                           302 235 
                                                                                
