 2012  2 2 0718 44.6 L   6.762 -73.146141.8  RSN  6 0.5 1.4LRSN                1
 GAP=138        0.90       4.9     6.0  7.8 -0.2350E+01  0.6233E+01  0.8781E+01E
 ACTION:UP  12-03-07 16:26 OP:epov STATUS:               ID:20120202071844 L   I
 2012-02-02-0716-00S.MAN___181                                                 6
 STAT SP IPHASW D HRMM SECON CODA AMPLIT PERI AZIMU VELO SNR AR TRES W  DIS CAZ7
 BAR2 SZ EP   1    719  3.76                             172    0.04 7 19.2 192 
 BAR2 SZ ES   1    719 18.67                             172    0.07 7 19.2 192 
 BAR2 SZ I         719 21.60         7.3 0.28                          19.2 192 
 BRR  HZ EP        719  5.63                             151    0.1410 73.3 301 
 BRR  HE ES   1    719 22.70                             151    0.95 7 73.3 301 
 BRR  HZ I         719 23.97         4.5 0.48                          73.3 301 
 PAM  SZ EP   1    719  6.69                             149    0.04 7 80.7  38 
 PAM  SN ES   1    719 23.37                             149   -0.44 7 80.7  38 
 RUS  HZ EP   1    719  7.79                             144    0.09 7 96.4 176 
 RUS  HN ES   1    719 25.32                             144   -0.37 7 96.4 176 
 PTB  HZ EP   1    719 10.68                             131   -0.54 7  147 260 
 PTB  HN ES   1    719 31.17                             131   -0.78 7  147 260 
 CHI  HZ EP   1    719 22.00                             117    0.32 6  245 195 
 CHI  HN ES   1    719 51.09                             117    0.52 6  245 195 
 CHI  HZ I         719 54.91         1.4 0.46                           245 195 
                                                                                
