 2012  8 2 0506 40.9 L   6.737 -73.195150.8  RSN  6 0.3 1.4LRSN                1
 GAP=177        0.54       4.2     5.1  6.5  0.8454E+01  0.3028E+01 -0.3116E+00E
 Epicentro: VILLANUEVA - SANTANDER                                             3
 ACTION:UPD 12-09-10 11:53 OP:ep   STATUS:               ID:20120802050640 L   I
 2012-08-02-0500-00M.COL___215                                                 6
 STAT SP IPHASW D HRMM SECON CODA AMPLIT PERI AZIMU VELO AIN AR TRES W  DIS CAZ7
 BAR2 SZ ES   2    5 7 15.99                             174   -0.71 5 16.1 175 
 BAR2 SZ I         5 7 18.99         7.8 0.37                          16.1 175 
 BRR  HZ EP   1    5 7  2.63                             154    0.09 7 70.3 306 
 BRR  HZ I         5 7  4.22         4.8 0.11                          70.3 306 
 BRR  HN ES   1    5 7 19.65                             154    0.23 7 70.3 306 
 RUS  HZ EP   1    5 7  4.75                             147    0.05 7 94.2 172 
 RUS  HN ES   1    5 7 23.58                             147    0.30 7 94.2 172 
 RUS  HZ I         5 7 25.95         2.5 0.47                          94.2 172 
 PTB  HZ EP   1    5 7  7.32                             135   -0.38 7  141 261 
 PTB  HN ES   1    5 7 28.46                             135   -0.15 7  141 261 
 PTB  HZ I         5 7 30.35         3.3 0.26                           141 261 
 OCA  HN ES   2    5 7 33.05                             130    0.01 5  167 355 
 ZAR  HE ES   2    5 7 39.16                             124    0.33 4  202 295 
                                                                                
