 2011  9 2 0850  0.5 L   6.752 -73.059142.2  RSN  4 0.2 1.5LRSN                1
 GAP=204        0.41       7.9    13.4  6.1  0.8132E+02 -0.2908E+02 -0.2006E+02E
 Epicentro: LOS SANTOS - SANTANDER                                             3
 ACTION:UPD 12-07-13 15:55 OP:ep   STATUS:               ID:20110902085000 L   I
 2011-09-02-0840-00M.COL___169                                                 6
 STAT SP IPHASW D HRMM SECON CODA AMPLIT PERI AZIMU VELO AIN AR TRES W  DIS CAZ7
 BAR2 SZ EP   1    850 19.91                             171    0.26 7 22.3 218 
 BAR2 SZ ES   1    850 34.43                             171   -0.18 7 22.3 218 
 BAR2 SZ I         850 35.55        10.6 0.27                          22.3 218 
 GIR2 SZ EP   2    850 20.02                             164    0.06 5 39.0 338 
 BRR  HZ EP   1    850 21.80                             148   -0.10 7 82.1 299 
 BRR  HZ I         850 22.17        11.1 0.10                          82.1 299 
 BRR  HN ES   2    850 38.74                             148    0.13 5 82.1 299 
 RUS  HZ EP   2    850 23.17                             145   -0.31 5 95.1 182 
 RUS  HN ES   2    850 41.60                             145    0.18 5 95.1 182 
 RUS  HZ I         850 43.02         2.6 0.32                          95.1 182 
                                                                                
