 2017 11 2 0653 27.4 L   6.075 -73.717113.5  RSN 12 0.5 1.5LRSN                1
 GAP= 64        1.32       3.2     3.2  7.5 -0.1549E+01  0.2371E+01  0.1864E+01E
 Epicentro: VELEZ - SANTANDER                                                  3
 ACTION:UPD 17-12-12 19:50 OP:rebc STATUS:               ID:20171102065327 L   I
 OLDACT:REG 17-11-02 13:36 OP:dnl  STATUS:               ID:20171102064737     3
 2017-11-02-0648-00M.COL___441                                                 6
 STAT SP IPHASW D HRMM SECON CODA AMPLIT PERI AZIMU VELO AIN AR TRES W  DIS CAZ7
 SPBC HZ EP        653 44.43                             150   -0.2110 61.1 220 
 SPBC HE ES        653 58.78                             150    0.6910 61.1 220 
 SPBC HZ I         653 59.63        12.3 0.16            151           61.1 220 
 RUS  HZ EP        653 45.82                             145   -0.1810 73.0 106 
 RUS  HN ES        654  0.45                             145   -0.0510 73.0 106 
 RUS  HZ I         654  1.36         8.1 0.26            146           73.0 106 
 BAR2 EZ IP     C  653 46.42                             142    0.1110 82.3  46 
 BAR2 EZ ES        654  1.47                             142    0.4110 82.3  46 
 PTB  HZ EP        653 46.35                             137   -0.8010 96.6 302 
 PTB  HN ES        654  1.50                             137   -1.0510 96.6 302 
 PTB  HZ I         654  5.64         3.3 0.26            137           96.6 302 
 BRR  HZ EP        653 48.65                             131   -0.0210  114   0 
 BRR  HE ES        654  5.72                             131    0.4710  114   0 
 BRR  HZ I         654  8.92         6.8 0.14            132            114   0 
 NOR  HZ EP        653 51.22                             125    0.04 9  140 246 
 NOR  HN ES        654 10.05                             125    0.32 9  140 246 
 NOR  HZ I         654 11.83         6.7 0.20            126            140 246 
 CHI  HZ EP   2    653 53.08                             121   -0.64 5  160 181 
 CHI  HN ES        654 12.91                             121   -1.34 9  160 181 
 CHI  HZ I         654 15.87         2.7 0.48            123            160 181 
 YPLC HZ EP        653 53.80                             120   -0.13 9  166 117 
 YPLC HE ES        654 14.77                             120    0.16 9  166 117 
 YPLC HZ I         654 18.64         6.3 0.32            121            166 117 
 PAM  EZ EP        653 55.92                             118    0.02 9  179  39 
 PAM  EN ES        654 18.32                             118    0.20 9  179  39 
 PAM  EZ I         654 21.33         2.5 0.24            119            179  39 
 ZAR  HZ EP   2    653 58.16                             115    0.51 4  201 321 
 ZAR  HN ES        654 21.01                             115   -0.24 9  201 321 
 ZAR  HZ I         654 24.49         5.3 0.18            115            201 321 
 GUY2CHZ EP        653 59.23                             114    0.51 8  205 243 
 GUY2CHN ES        654 23.99                             114    0.85 8  205 243 
 GUY2CHZ I         654 27.89         3.0 0.28                           205 243 
 PRA  HZ EP   2    654  8.35                             106    0.29 4  292 206 
 PRA  HE ES        654 40.55                             106    0.78 7  292 206 
 PRA  HZ I         654 44.52         3.0 0.26            107            292 206 
                                                                                
