 2016 11 2 0846 11.0 L   6.806 -73.147146.6  RSN 18 0.3 1.9LRSN                1
 GAP=136        0.72       2.4     2.8  4.0 -0.5997E+00  0.2889E+01  0.2501E+01E
 Epicentro: LOS SANTOS - SANTANDER                                             3
 ACTION:UPD 17-10-26 21:04 OP:lp   STATUS:               ID:20161102083744 L   I
 OLDACT:UP  16-11-02 15:27 OP:dnl  STATUS:               ID:20161102083744 L   3
 OLDACT:UP  16-11-02 15:26 OP:dnl  STATUS:               ID:20161102083744 L   3
 OLDACT:UP  16-11-02 15:26 OP:dnl  STATUS:               ID:20161102083744 L   3
 OLDACT:UPD 16-11-02 13:22 OP:dnl  STATUS:               ID:20161102083744 L   3
 2016-11-02-0838-00M.COL___334                                                 6
 STAT SP IPHASW D HRMM SECON CODA AMPLIT PERI AZIMU VELO AIN AR TRES W  DIS CAZ7
 BAR2 EZ IP     C  846 30.58                             170   -0.1410 23.9 189 
 BAR2 EZ ES        846 45.65                             170   -0.4610 23.9 189 
 BAR2 EZ I         846 47.14        28.5 0.22            163           23.9 189 
 BRR  HZ EP        846 32.36                             153    0.1710 70.7 298 
 BRR  HN ES        846 49.35                             153    0.6210 70.7 298 
 BRR  HZ I         846 53.30        20.2 0.44            152           70.7 298 
 PAM  EZ IP     C  846 33.53                             151    0.2710 77.0  40 
 PAM  EE ES        846 50.63                             151   -0.0110 77.0  40 
 PAM  EZ I         846 51.27        13.5 0.16            155           77.0  40 
 RUS  HZ EP        846 34.57                             144   -0.2810  101 176 
 RUS  HN ES        846 53.72                             144    0.2410  101 176 
 RUS  HZ I         846 55.49         6.1 0.28            138            101 176 
 PTB  HZ EP        846 37.36                             132   -0.64 9  148 259 
 PTB  HE ES        846 58.80                             132   -0.29 9  148 259 
 PTB  HZ I         847  0.94        11.8 0.20            129            148 259 
 SPBC HZ EP        846 39.56                             129   -0.01 9  164 219 
 SPBC HN ES        847  2.01                             129    0.13 9  164 219 
 SPBC HZ I         847  8.60        22.5 0.34            125            164 219 
 ZAR  HZ EP        846 43.30                             123   -0.13 9  204 292 
 ZAR  HE ES        847  8.59                             123   -0.16 9  204 292 
 ZAR  HZ I         847 14.76         9.7 0.30            121            204 292 
 NOR  HZ EP   2    846 46.91                             119    0.13 4  235 234 
 NOR  HN ES        847 14.83                             119    0.13 8  235 234 
 NOR  HZ I         847 20.94         7.4 0.16            115            235 234 
 CHI  HZ EP        846 49.01                             117    0.23 8  249 195 
 CHI  HN ES        847 18.34                             117    0.08 8  249 195 
 CHI  HZ I         847 21.76         5.0 0.64            114            249 195 
 ROSC BZ EP   4    846 50.43                             117    1.24 0  253 211 
 ROSC BN ES   4    847 21.64                             117    2.65 0  253 211 
 ROSC BZ I         847 24.64        11.7 0.35            114            253 211 
 HEL  HZ EP   4    846 52.44                             115    1.21 0  272 256 
 HEL  HN ES   4    847 25.17                             115    2.55 0  272 256 
 HEL  HZ I         847 30.92         4.2 0.34            113            272 256 
 GUY2CHZ EP   4    846 55.95                             112    1.30 0  301 235 
 GUY2CHN ES   4    847 32.19                             112    3.48 0  301 235 
 GUY2CHZ I         847 40.93         4.3 0.54                           301 235 
 PTGC HZ EP   4    846 53.85                             112   -1.09 0  309 159 
 PTGC HZ I         847 27.07         3.0 0.34            109            309 159 
 PTGC HN ES   4    847 27.46                             112   -1.77 0  309 159 
 LL6C HZ EP   4    846 36.72                             111   -19.9 0  324 358 
 LL6C HN ES   4    847 12.38                             111   -19.9 0  324 358 
 LL6C HZ I         847 17.55         2.4 0.58            110            324 358 
 CBOC HZ EP   2    846 58.65                             110    0.72 3  334 252 
 CBOC HN ES   3    847 35.76                             110    1.21 2  334 252 
 CBOC HZ I         847 45.77         1.6 0.40            108            334 252 
 PRA  HZ EP        847  4.57                             107   -0.01 6  392 209 
 PRA  HN ES        847 46.19                             107   -0.19 6  392 209 
 PRA  HZ I         847 50.87         5.3 0.28            105            392 209 
 ORTC HZ EP   2    847  4.82                             106   -0.15 3  396 216 
 ORTC HN ES        847 47.58                             106    0.50 6  396 216 
 ORTC HZ I         847 51.56         2.0 0.36            104            396 216 
 SJC  HZ EP   4    847  4.86                             106   -1.63 0  409 327 
 SJC  HN ES   4    847 44.34                             106   -5.45 0  409 327 
 SJC  HZ I         847 53.21         1.2 0.40            105            409 327 
                                                                                
