 2011 12 2 0452 58.6 L   6.678 -73.140145.3  RSN  4 0.2 1.9LRSN                1
 GAP=229        0.40       4.0     4.1  6.0  0.6914E+01  0.4140E+01  0.1614E+01E
 Epicentro: VILLANUEVA - SANTANDER                                             3
 ACTION:UPD 12-07-13 16:13 OP:ep   STATUS:               ID:20111202045258 L   I
 2011-12-02-0450-00M.COL___170                                                 6
 STAT SP IPHASW D HRMM SECON CODA AMPLIT PERI AZIMU VELO AIN AR TRES W  DIS CAZ7
 BAR2 SZ EP   1    453 17.87                             176   -0.11 7 10.6 206 
 BRR  HZ EP   1    453 20.00                             150   -0.15 7 79.0 307 
 BRR  HZ I         453 20.39         4.3 0.10                          79.0 307 
 BRR  HN ES   1    453 37.10                             150    0.13 7 79.0 307 
 RUS  HZ EP   1    453 21.63                             148    0.26 7 87.1 176 
 RUS  HN ES   1    453 39.03                             148   -0.11 7 87.1 176 
 HEL  HN ES   1    454  9.63                             115   -0.03 6  270 259 
 HEL  HZ I         454 10.81        12.7 0.20                           270 259 
                                                                                
