 2010  5 2 0429 19.3 L   6.426 -73.550112.2  RSN  6 0.5 1.4LRSN                1
 GAP=164        0.93       7.8     7.6  9.1 -0.2774E+02  0.1635E+02  0.7165E+01E
 Epicentro: SANTA HELENA DEL OPON - SANTANDER                                  3
 ACTION:UP  10-08-24 10:02 OP:vdl  STATUS:               ID:20100502042919 L   I
 2010-05-02-0425-59S.COL___105                                                 6
 STAT SP IPHASW D HRMM SECON CODA AMPLIT PERI AZIMU VELO SNR AR TRES W  DIS CAZ7
 BAR2 SZ EP   1    429 35.87                             157     0.2 7   45  66 
 BAR2 SZ ES   1    429 48.39                             157    -0.1 7   45  66 
 BRR  HZ EP   1    429 37.56                             143     0.2 7   77 347 
 BRR  HN ES   1    429 51.51                             143     0.0 7   77 347 
 BRR  HZ I         430  0.55         6.1 0.12                            77 347 
 BRI  SZ EP   1    429 46.47                             120     0.7 7  165  30 
 GUE  SZ EP   1    429 46.77                             119     0.3 7  170  24 
 GUE  SZ ES   1    430  6.85                             119    -0.8 7  170  24 
 HEL  HZ EP   2    429 51.15                             112    -1.0 4  220 263 
 HEL  HN ES   2    430 18.35                             112     0.7 4  220 263 
 HEL  HZ I         430 20.65         2.5 0.30                           220 263 
 RREF BZ EP   1    429 56.60                             108    -0.5 6  261 230 
 RREF BZ I         430 33.40         1.8 0.70                           261 230 
                                                                                
