 2010  8 2 0338 24.6 L   7.376 -73.168127.2  RSN  4 0.2 1.2LRSN                1
 GAP=146        0.49      12.4    12.2  7.6 -0.1361E+03 -0.9597E+01  0.1359E+02E
 Epicentro: RIONEGRO - SANTANDER                                               3
 ACTION:UP  10-09-07 10:51 OP:vdl  STATUS:               ID:20100802033824 L   I
 2010-08-02-0336-30S.COL___123                                                 6
 STAT SP IPHASW D HRMM SECON CODA AMPLIT PERI AZIMU VELO SNR AR TRES W  DIS CAZ7
 GUE  SZ EP   1    338 43.38                             154     0.0 7   57  28 
 GUE  SZ ES   2    338 57.61                             154    -0.5 5   57  28 
 GUE  SZ I         338 59.04         1.8 0.16                            57  28 
 BRR  HZ EP        338 43.42                             150    -0.110   67 244 
 BRR  HE ES   2    338 58.57                             150     0.3 5   67 244 
 BRR  HZ I         339  0.04         4.4 0.15                            67 244 
 GRA  SZ EP        338 43.99                             150     0.110   69  36 
 GRA  SZ ES   2    338 59.13                             150     0.2 5   69  36 
 GRA  SZ I         339  0.15         3.8 0.32                            69  36 
 BAR2 SZ ES   3    339  1.18                             143     0.0 2   87 181 
 BAR2 SZ I         339  2.86         6.1 0.15                            87 181 
                                                                                
