 2011  2 2 0521  8.1 L   7.435 -73.277 17.6  RSN  5 0.2 1.7LRSN                1
 GAP=183        0.43       1.3     3.7  3.6 -0.9083E+00 -0.1146E+01  0.1331E+01E
 Epicentro: EL PLAYON - SANTANDER                                              3
 ACTION:UP  11-03-28 15:05 OP:jfem STATUS:               ID:20110202052108 L   I
 2011-02-02-0519-26S.COL___135                                                 6
 STAT SP IPHASW D HRMM SECON CODA AMPLIT PERI AZIMU VELO SNR AR TRES W  DIS CAZ7
 GRA  SZ EP   1    521 20.01                             101     0.0 7   72  46 
 GRA  SZ ES   2    521 29.45                             101     0.2 5   72  46 
 GRA  SZ I         521 31.06        58.3 0.32                            72  46 
 OCA  SZ EP        521 22.49                              99     0.010   89 357 
 OCA  SZ ES   2    521 33.66                              99    -0.1 5   89 357 
 OCA  SZ I         521 36.11        41.4 0.40                            89 357 
 BAR2 SZ EP   1    521 23.36                              99     0.1 7   94 174 
 BAR2 SZ ES   1    521 34.98                              99    -0.2 7   94 174 
 BAR2 SZ I         521 38.64        23.2 0.23                            94 174 
 RUS  HZ EP   1    521 34.56                              56     0.3 7  172 173 
 RUS  HE ES   2    521 54.63                              56     0.0 4  172 173 
 RUS  HZ I         521 58.31         4.7 0.19                           172 173 
 SDV  BZ EP        521 53.65                              55    -0.3 7  333  61 
 SDV  BZ I         521 57.42         0.9 0.53                           333  61 
                                                                                
