 2013 10 2 0726 25.9 L   6.811 -73.126143.3  RSN  4 0.5 1.6LRSN                1
 GAP=220        1.32       6.1    14.3 10.1  0.1616E+01  0.1262E+02 -0.1213E+02E
 Epicentro: LOS SANTOS - SANTANDER                                             3
 ACTION:UPD 13-11-25 09:18 OP:ep   STATUS:               ID:20131002072625 L   I
 OLDACT:REG 13-10-02 06:28 OP:nd   STATUS:               ID:20131002071959     3
 2013-10-02-0719-59M.COL___272                                                 6
 STAT SP IPHASW D HRMM SECON CODA AMPLIT PERI AZIMU VELO AIN AR TRES W  DIS CAZ7
 BAR2 SZ EP        726 45.81                             170    0.5010 24.9 194 
 BAR2 SZ ES        726 59.67                             170   -0.7510 24.9 194 
 BAR2 SZ I         727  2.12        13.0 0.36            167           24.9 194 
 BRR  HZ IP     C  726 47.40                             151    0.4910 72.6 297 
 BRR  HN ES        727  3.92                             151    0.6610 72.6 297 
 SPBC HZ EP        726 54.64                             128    0.17 9  165 219 
 SPBC HN ES        727 16.27                             128   -0.46 9  165 219 
 SPBC HZ I         727 20.89         2.1 0.44            127            165 219 
 SML  HZ EP        727  1.92                             117   -0.50 8  244 335 
 SML  HE ES        727 30.31                             117   -0.55 8  244 335 
 SML  HZ I         727 34.14         3.0 0.10            117            244 335 
                                                                                
