 2015  9 2 0222 10.8 L   6.789 -73.171143.2  RSN  7 0.3 1.6LRSN                1
 GAP=134        0.89       4.1     3.8  5.7 -0.3444E+01  0.3301E+01  0.2198E+01E
 Epicentro: LOS SANTOS - SANTANDER                                             3
 ACTION:UPD 15-10-28 16:23 OP:cam  STATUS:               ID:20150902022210 L   I
 OLDACT:DUP 15-09-02 16:43 OP:stll STATUS:               ID:20150902021744d    3
 2015-09-02-0217-43M.COL___364                                                 6
 STAT SP IPHASW D HRMM SECON CODA AMPLIT PERI AZIMU VELO AIN AR TRES W  DIS CAZ7
 BAR2 EZ EP        222 29.95                             171   -0.1410 21.8 183 
 BAR2 EZ ES        222 44.94                             171   -0.1910 21.8 183 
 BAR2 EZ I         222 45.92         5.7 0.24            170           21.8 183 
 BRR  HZ EP        222 31.74                             153    0.1710 69.4 300 
 BRR  HN ES        222 48.29                             153    0.5210 69.4 300 
 PAM  EZ EP        222 32.95                             149    0.0510 80.1  40 
 PAM  EN ES        222 50.03                             149   -0.1210 80.1  40 
 PAM  EZ I         222 51.98        12.6 0.58            152           80.1  40 
 RUS  HZ EP        222 34.43                             144    0.2110 99.6 174 
 RUS  HN ES        222 52.33                             144   -0.1610 99.6 174 
 RUS  HZ I         222 53.60         4.8 0.26            144           99.6 174 
 PTB  HZ EP        222 36.80                             132   -0.49 9  145 259 
 PTB  HN ES        222 57.23                             132   -0.72 9  145 259 
 PTB  HZ I         223  1.29         4.7 0.22            133            145 259 
 CPBEREZ EP        222 37.08                             132   -0.21 9  145 259 
 CPBEREE ES        222 58.31                             132    0.35 9  145 259 
 SPBC HZ EP        222 39.26                             129    0.42 9  160 218 
 SPBC HE ES        223  1.01                             129    0.29 9  160 218 
 SPBC HZ I         223  5.87         7.1 0.40            129            160 218 
                                                                                
