 2016 12 2 0910 11.9 L   7.407 -73.293121.2  RSN 10 0.4 1.8LRSN                1
 GAP=183        0.86       5.8     3.5  5.6 -0.6470E+00  0.7479E+01 -0.2001E+01E
 Epicentro: EL PLAYON - SANTANDER                                              3
 ACTION:UPD 17-01-11 20:11 OP:rebc STATUS:               ID:20161202091011 L   I
 OLDACT:UP  16-12-02 16:24 OP:dnl  STATUS:               ID:20161202090742     3
 OLDACT:UP  16-12-02 16:24 OP:dnl  STATUS:               ID:20161202090742     3
 OLDACT:UP  16-12-02 16:24 OP:dnl  STATUS:               ID:20161202090742     3
 OLDACT:REG 16-12-02 12:54 OP:dnl  STATUS:               ID:20161202090742     3
 2016-12-02-0908-00M.COL___328                                                 6
 STAT SP IPHASW D HRMM SECON CODA AMPLIT PERI AZIMU VELO AIN AR TRES W  DIS CAZ7
 BRR  HZ EP        910 29.38                             153   -0.2410 57.0 234 
 BRR  HN ES        910 43.41                             153   -0.0110 57.0 234 
 PAM  EZ EP        910 30.75                             150   -0.1010 65.9  96 
 PAM  EE ES        910 45.74                             150    0.1310 65.9  96 
 PAM  EZ I         910 47.37        12.2 0.14            151           65.9  96 
 BAR2 EZ IP     C  910 32.30                             141    0.0610 90.9 172 
 BAR2 EZ ES        910 48.15                             141    0.0810 90.9 172 
 BAR2 EZ I         910 49.83        27.3 0.14            133           90.9 172 
 PTB  HZ EP        910 37.76                             123   -0.53 9  160 233 
 PTB  HE ES        910 58.55                             123   -0.31 9  160 233 
 PTB  HZ I         911  3.60         9.4 0.26            119            160 233 
 ZAR  HZ EP        910 39.26                             121   -0.32 9  173 273 
 ZAR  HE ES        911  1.78                             121    0.62 9  173 273 
 ZAR  HZ I         911  5.32        10.6 0.10            119            173 273 
 LL6C HZ EP   4    910 28.66                             110   -20.2 0  257   1 
 LL6C HN ES   4    910 55.64                             110   -22.1 0  257   1 
 LL6C HZ I         911  5.69         2.8 0.54            114            257   1 
 NOR  HZ EP        910 51.07                             110    0.89 8  268 221 
 NOR  HN ES   4    911 22.97                             110    2.95 0  268 221 
 NOR  HZ I         911 26.22         6.4 0.18            107            268 221 
 SJC  HZ EP   4    910 57.38                             104   -1.75 0  345 323 
 SJC  HN ES   4    911 31.57                             104   -4.38 0  345 323 
 SJC  HZ I         911 35.52         1.2 0.38            105            345 323 
 CBOC HZ EP        910 59.29                             104   -0.09 6  346 241 
 CBOC HN ES   4    911 35.98                             104   -0.41 0  346 241 
 CBOC HZ I         911 50.95         0.8 0.18            103            346 241 
 PRA  HZ EP        911 11.31                             100    0.26 5  445 203 
 PRA  HN ES   4    912  0.01                             100    2.85 0  445 203 
 PRA  HZ I         912  9.87         1.3 0.50             99            445 203 
                                                                                
