 2011  3 2 0751 29.6 L   6.874 -73.253139.0  RSN  6 0.5 1.5LRSN                1
 GAP=142        1.15       5.4    14.4 20.2 -0.3332E+02  0.1064E+03 -0.3003E+02E
 Epicentro: BETULIA - SANTANDER                                                3
 ACTION:UP  11-06-16 14:31 OP:jfem STATUS:               ID:20110302075129 L   I
 2011-03-02-0748-27S.COL___136                                                 6
 STAT SP IPHASW D HRMM SECON CODA AMPLIT PERI AZIMU VELO SNR AR TRES W  DIS CAZ7
 BAR2 SZ EP        751 49.36                             167     0.710   32 166 
 RUS  HZ EP   1    751 53.35                             140    -0.1 7  110 170 
 RUS  HE ES   1    752 12.14                             140     0.1 7  110 170 
 GRA  SZ EP        751 53.90                             137     0.010  122  24 
 GRA  SZ ES   2    752 11.78                             137    -1.2 5  122  24 
 GRA  SZ I         752 14.25         4.9 0.27                           122  24 
 OCA  SZ EP   1    751 56.51                             130     0.0 7  151 357 
 OCA  SZ ES   2    752 17.36                             130    -0.1 5  151 357 
 OCA  SZ I         752 23.03         3.8 0.30                           151 357 
 CHI  HE ES        752 36.36                             115    -0.7 8  254 192 
 CHI  HZ I         752 42.05         1.4 0.24                           254 192 
 HEL  HN ES   2    752 38.85                             114     0.1 4  263 253 
 HEL  HZ I         752 45.97         2.4 0.76                           263 253 
                                                                                
