 2014  3 2 0919 39.6 L   6.776 -73.152140.9  RSN 15 0.6 2.2LRSN                1
 GAP= 72        1.36       3.3     3.6  6.7 -0.2281E+01  0.6402E+01 -0.3918E+00E
 Epicentro: LOS SANTOS - SANTANDER                                             3
 OLDACT:REG 14-03-02 08:29 OP:stll STATUS:               ID:20140302091813     3
 ACTION:UPD 14-04-09 23:13 OP:nd   STATUS:               ID:20140302091939 L   I
 OLDACT:UP  14-03-02 13:28 OP:stll STATUS:               ID:20140302091813     3
 2014-03-02-0918-13M.COL___226                                                 6
 STAT SP IPHASW D HRMM SECON CODA AMPLIT PERI AZIMU VELO AIN AR TRES W  DIS CAZ7
 BAR2 SZ IP     C  919 59.04                             171    0.4110 20.6 190 
 BAR2 SZ ES        920 13.84                             171    0.4010 20.6 190 
 BAR2 SZ I         920 21.31        35.7 0.40            171           20.6 190 
 PAM  SZ EP        920  2.21                             149    0.7210 79.8  39 
 PAM  SN ES        920 19.16                             149    0.6310 79.8  39 
 PAM  SZ I         920 22.08        15.8 0.48            153           79.8  39 
 RUS  HZ IP     D  920  2.74                             143    0.0210 98.0 176 
 RUS  SZ I         920 19.14         7.0 1.72            146           98.0 176 
 RUS  HE ES        920 20.75                             143    0.0210 98.0 176 
 PTB  HZ EP        920  5.71                             131   -0.40 9  147 260 
 PTB  HN ES        920 26.03                             131   -0.72 9  147 260 
 PTB  SZ I         920 31.74        21.9 0.18            133            147 260 
 TAM  HZ EP        920  7.33                             129    0.40 9  155 104 
 TAM  HN ES        920 27.16                             129   -1.06 9  155 104 
 TAM  SZ I         920 27.74        16.2 0.36            134            155 104 
 SPBC HZ EP        920  7.79                             128    0.26 9  161 219 
 SPBC HN ES        920 28.54                             128   -0.75 9  161 219 
 SPBC SZ I         920 32.53        25.0 0.24            131            161 219 
 OCA  HZ EP        920  8.15                             128    0.33 9  163 353 
 OCA  HN ES        920 29.54                             128   -0.26 9  163 353 
 OCA  SZ I         920 34.97        15.9 0.24            131            163 353 
 ZAR  HZ EP        920 12.05                             121    0.24 9  204 293 
 ZAR  HN ES        920 37.41                             121    0.50 9  204 293 
 ZAR  SZ I         920 43.71        25.0 0.50            123            204 293 
 NOR  HZ EP        920 14.49                             118   -0.37 8  233 235 
 NOR  HN ES        920 42.34                             118   -0.00 8  233 235 
 NOR  SZ I         920 47.86        22.7 0.28            120            233 235 
 CHI  HZ EP        920 17.10                             116    0.33 8  246 195 
 CHI  HN ES        920 45.32                             116   -0.41 8  246 195 
 CHI  SZ I         920 50.44         6.3 0.38            119            246 195 
 SML  HZ EP        920 15.89                             116   -0.34 8  246 336 
 SML  HN ES        920 43.83                             116   -0.94 8  246 336 
 SML  SZ I         920 52.37        23.8 0.10            119            246 336 
 HEL  HZ EP        920 20.39                             114    0.93 8  271 256 
 HEL  HN ES        920 49.56                             114   -0.97 8  271 256 
 HEL  SZ I         920 57.94        12.4 0.30            116            271 256 
 GUY2CHZ EP        920 23.62                             111    0.83 7  299 235 
 GUY2CHN ES        920 56.88                             111    0.43 7  299 235 
 GUY2CSZ I         921  4.99        15.3 0.56                           299 235 
 SOCV BZ EP        920 21.72                             111   -0.97 7  303  56 
 ORTC HZ EP        920 32.46                             106   -0.64 6  393 216 
 ORTC HE ES        921 15.75                             106    0.95 6  393 216 
 ORTC SZ I         921 21.14         5.1 0.36            108            393 216 
                                                                                
