 2011 10 2 0901 59.2 L   6.809 -73.132138.9  RSN 15 0.4 3.0LRSN                1
 GAP=115        0.78       3.0     4.5  5.2  0.1343E+01  0.7489E+01  0.4738E+01E
 Epicentro: LOS SANTOS - SANTANDER                                             3
 ACTION:UPD 12-07-13 16:01 OP:ep   STATUS:               ID:20111002090159 L   I
 2011-10-02-0859-06S.COL___168                                                 6
 STAT SP IPHASW D HRMM SECON CODA AMPLIT PERI AZIMU VELO AIN AR TRES W  DIS CAZ7
 BAR2 SZ IP        9 2 18.18                             169    0.1610 24.6 193 
 BAR2 SZ ES   1    9 2 32.24                             169   -0.47 7 24.6 193 
 BAR2 SZ I         9 2 34.64       260.9 0.31                          24.6 193 
 BRR  HZ IP     C  9 2 19.93                             151    0.2810 72.0 297 
 BRR  HZ I         9 2 20.19       358.6 0.13                          72.0 297 
 BRR  HE ES   1    9 2 36.38                             151    0.77 7 72.0 297 
 PAM  SZ EP        9 2 20.84                             150    0.2610 75.7  39 
 PAM  SN ES   1    9 2 37.30                             150    0.04 7 75.7  39 
 RUS  HZ EP        9 2 22.32                             142   -0.0210  101 177 
 RUS  HN ES   1    9 2 40.16                             142   -0.23 7  101 177 
 RUS  HZ I         9 2 42.49       134.7 0.26                           101 177 
 OCA  SZ EP   1    9 2 26.53                             128   -0.37 7  160 353 
 OCA  SZ ES   1    9 2 47.88                             128   -0.64 7  160 353 
 OCA  SZ I         9 2 52.97       137.8 0.30                           160 353 
 YOP  SZ EP   1    9 2 29.07                             125    0.30 7  179 154 
 YOP  SZ I         9 2 55.90        33.6 0.27                           179 154 
 ZAR  HZ EP   1    9 2 30.78                             121   -0.52 6  205 292 
 ZAR  HE ES   1    9 2 55.85                             121   -0.50 6  205 292 
 ZAR  HZ I         9 3  2.02       179.0 0.22                           205 292 
 NOR  SZ EP   1    9 2 35.05                             117    0.33 6  236 234 
 CHI  HZ EP   1    9 2 36.25                             115   -0.41 6  250 195 
 CHI  HE ES   1    9 3  5.43                             115   -0.46 6  250 195 
 CHI  HZ I         9 3 13.14        43.0 0.21                           250 195 
 HEL  HZ EP   1    9 2 39.77                             113    0.52 6  274 256 
 HEL  HZ I         9 3 17.19        39.6 0.46                           274 256 
 GUY  SZ EP   1    9 2 43.22                             111    0.27 5  305 235 
 VIL  SZ EP   1    9 2 42.22                             111   -0.22 5  305 192 
 VIL  SZ I         9 3 27.11        47.1 0.52                           305 192 
 GUY  SZ I         9 3 26.99        44.3 0.24                           305 235 
 RREF HZ EP   1    9 2 45.11                             109   -0.13 5  323 229 
 RREF HZ I         9 3 25.91        43.5 0.30                           323 229 
 TOL  SZ EP   1    9 2 48.20                             108    0.82 5  345 225 
 PRA  HZ EP   1    9 2 51.87                             105   -0.79 4  394 210 
                                                                                
