 2017  1 2 0317 41.5 L   6.735 -73.154139.0  RSN  8 0.4 1.5LRSN                1
 GAP=138        1.02       4.5     3.9  6.7 -0.1118E+01  0.7420E+01 -0.1960E+00E
 Epicentro: LOS SANTOS - SANTANDER                                             3
 ACTION:UPD 17-05-22 15:54 OP:jn   STATUS:               ID:20170102031742dL   I
 OLDACT:REG 17-01-02 12:25 OP:lv   STATUS:               ID:20170102030745     3
 2017-01-02-0308-00M.COL___378                                                 6
 STAT SP IPHASW D HRMM SECON CODA AMPLIT PERI AZIMU VELO AIN AR TRES W  DIS CAZ7
 BAR2 EZ EP        318  0.22                             173    0.0310 16.0 191 
 BAR2 EZ ES        318 14.96                             173    0.1910 16.0 191 
 BAR2 EZ I         318 18.66         9.0 0.40            173           16.0 191 
 BRR  HZ IP     C  318  2.12                             150    0.0210 74.2 304 
 BRR  HN ES        318 18.92                             150    0.7510 74.2 304 
 BRR  HZ I         318 23.98         6.5 0.13            150           74.2 304 
 PAM  EZ EP        318  3.22                             147   -0.1810 83.6  37 
 PAM  EN ES        318 20.00                             147   -0.4810 83.6  37 
 RUS  HZ EP        318  4.32                             144    0.2410 93.4 175 
 RUS  HN ES        318 21.77                             144    0.0910 93.4 175 
 RUS  HZ I         318 23.90         5.5 0.26            149           93.4 175 
 PTB  HZ EP        318  7.36                             131   -0.37 9  146 262 
 PTB  HN ES        318 27.54                             131   -0.65 9  146 262 
 PTB  HN ISg       318 27.68                             131   -0.51 9  146 262 
 PTB  HZ I         318 30.29         5.7 0.19            133            146 262 
 ZAR  HZ EP        318 14.34                             121    0.61 8  206 294 
 ZAR  HN ES        318 39.02                             121    0.16 8  206 294 
 ZAR  HZ I         318 47.36         4.0 0.27            123            206 294 
 NOR  HN ES   4    318 44.85                             118    1.37 0  230 236 
 NOR  HZ I         318 46.24         1.4 0.17            120            230 236 
 GUY2CHZ EP   4    318 26.31                             111    2.06 0  296 236 
 GUY2CHN ES        318 57.82                             111    0.22 7  296 236 
 GUY2CHZ I         319  7.07         1.1 0.54                           296 236 
                                                                                
