 2016  1 2 0753  1.8 L   6.802 -73.143145.6  RSN 18 0.4 2.3LRSN                1
 GAP=137        0.99       2.6     3.3  4.7 -0.2106E+01  0.5118E+01  0.2432E+01E
 Epicentro: LOS SANTOS - SANTANDER                                             3
 ACTION:UPD 16-03-09 23:22 OP:cam  STATUS:               ID:20160102075301 L   I
 OLDACT:REG 16-01-02 12:41 OP:drio STATUS:               ID:20160102074740     3
 2016-01-02-0747-40M.COL___320                                                 6
 STAT SP IPHASW D HRMM SECON CODA AMPLIT PERI AZIMU VELO AIN AR TRES W  DIS CAZ7
 BAR2 EZ IP     D  753 21.47                             170    0.0410 23.6 191 
 BAR2 EZ ES        753 36.37                             170   -0.3610 23.6 191 
 BAR2 EZ I         753 39.17        33.6 0.36            168           23.6 191 
 BRR  HZ EP        753 23.42                             152    0.4610 71.3 298 
 BRR  HE ES        753 40.09                             152    0.6510 71.3 298 
 BRR  HZ I         753 44.93        26.2 0.36            151           71.3 298 
 PAM  EZ EP        753 24.31                             151    0.3110 77.1  39 
 PAM  EN ES        753 41.54                             151    0.2510 77.1  39 
 PAM  EZ I         753 43.57        30.5 0.52            157           77.1  39 
 RUS  HZ EP        753 25.21                             144   -0.3610  101 176 
 RUS  HN ES        753 44.39                             144    0.3010  101 176 
 RUS  HZ I         753 47.15        13.6 0.20            146            101 176 
 PTB  HZ EP        753 28.10                             132   -0.70 9  148 259 
 PTB  HN ES        753 49.11                             132   -0.73 9  148 259 
 PTB  HZ I         753 56.67        44.6 0.40            132            148 259 
 OCA  HZ EP        753 29.51                             130   -0.59 9  160 353 
 OCA  HN ES        753 51.86                             130   -0.30 9  160 353 
 OCA  HZ I         754  1.23        37.2 0.30            133            160 353 
 SPBC HZ EP        753 30.45                             129    0.12 9  163 219 
 SPBC HE ES        753 52.32                             129   -0.26 9  163 219 
 SPBC HZ I         754  0.03        31.8 0.16            130            163 219 
 ZAR  HZ EP        753 34.19                             122   -0.08 9  204 292 
 ZAR  HE ES        753 59.70                             122    0.12 9  204 292 
 ZAR  HZ I         754  5.57        35.7 0.26            124            204 292 
 NOR  HZ EP        753 37.59                             118    0.02 8  235 234 
 NOR  HN ES        754  5.51                             118    0.05 8  235 234 
 NOR  HZ I         754 11.03        18.4 0.30            120            235 234 
 CHI  HZ EP        753 39.40                             117   -0.14 8  249 195 
 CHI  HN ES        754  8.73                             117   -0.22 8  249 195 
 CHI  HZ I         754 18.70         7.4 0.38            119            249 195 
 HEL  HZ EP        753 42.27                             115    0.21 8  272 256 
 HEL  HE ES        754 12.70                             115   -0.74 8  272 256 
 HEL  HZ I         754 20.49        16.0 0.36            116            272 256 
 GUY2CHZ EP        753 46.40                             112    0.94 7  302 235 
 GUY2CHE ES        754 20.12                             112    0.63 7  302 235 
 GUY2CHZ I         754 26.93        10.7 0.26                           302 235 
 ELA  HZ EP   4    753 51.41                             110    2.71 0  329 229 
 ELA  HN ES        754 24.80                             110   -0.46 7  329 229 
 ELA  HZ I         754 41.51         7.7 0.56            112            329 229 
 CBOC HZ EP        753 49.26                             110    0.50 7  334 252 
 CBOC HE ES        754 25.91                             110    0.54 7  334 252 
 CBOC HZ I         754 30.08         3.6 0.72            112            334 252 
 DBB  SZ EP   4    753 48.45                             109   -0.87 0  340 274 
 DBB  SZ ES   4    754 24.83                             109   -1.53 0  340 274 
 ANIL HZ EP   4    753 47.20                             108   -4.45 0  358 225 
 ANIL HE ES        754 30.97                             108    0.45 6  358 225 
 ANIL HZ I         754 41.12        21.7 0.32            110            358 225 
 PRA  HZ EP        753 54.78                             106   -0.59 6  392 210 
 PRA  HN ES        754 36.58                             106   -0.56 6  392 210 
 PRA  HZ I         754 41.44         7.9 0.54            109            392 210 
 ORTC HZ EP        753 56.05                             106    0.28 6  396 216 
 ORTC HN ES        754 38.47                             106    0.62 6  396 216 
 ORTC HZ I         754 45.26         4.8 0.54            108            396 216 
 PAL  HZ EP        753 57.18                             106    0.17 6  406 239 
 PAL  HE ES        754 40.25                             106    0.19 6  406 239 
 PAL  HZ I         754 44.55         3.3 0.22            108            406 239 
                                                                                
