 2010 11 2 0713 45.8 L   6.771 -73.114144.2  RSN  4 0.1 1.5LRSN                1
 GAP=162        0.38       3.1     6.5  6.7  0.1027E+02 -0.2859E+02 -0.1079E+02E
 Epicentro: LOS SANTOS - SANTANDER                                             3
 ACTION:UP  10-12-17 16:49 OP:REBC STATUS:               ID:20101102071345 L   I
 2010-11-02-0710-42S.COL___126                                                 6
 STAT SP IPHASW D HRMM SECON CODA AMPLIT PERI AZIMU VELO SNR AR TRES W  DIS CAZ7
 BAR2 SZ EP        714  5.11                             171    -0.110   21 201 
 BAR2 SZ I         714 21.22         8.3 0.14                            21 201 
 BRR  HZ EP        714  7.06                             151     0.010   76 299 
 BRR  HE ES   1    714 23.74                             151     0.1 7   76 299 
 BRR  HZ I         714 28.69        10.6 0.08                            76 299 
 RUS  HZ EP        714  9.30                             144     0.110   97 178 
 RUS  HE ES   1    714 27.39                             144     0.0 7   97 178 
 RUS  HZ I         714 29.50         4.3 0.37                            97 178 
 GRA  SZ EP        714 11.17                             136     0.010  128  16 
 GRA  SZ I         714 32.07         2.9 0.51                           128  16 
                                                                                
