 2014  1 2 0902  6.2 L   6.811 -73.168141.2  RSN 10 0.5 1.6LRSN                1
 GAP=133        1.06       3.1     4.2  6.4 -0.1907E+01  0.1029E+02 -0.1221E+01E
 Epicentro: LOS SANTOS - SANTANDER                                             3
 ACTION:UPD 14-03-13 09:50 OP:ep   STATUS:               ID:20140102090206 L   I
 OLDACT:REG 14-01-02 08:33 OP:stll STATUS:               ID:20140102085806     3
 2014-01-02-0858-06M.COL___237                                                 6
 STAT SP IPHASW D HRMM SECON CODA AMPLIT PERI AZIMU VELO AIN AR TRES W  DIS CAZ7
 BAR2 SZ EP        9 2 25.30                             170   -0.0110 24.3 184 
 BAR2 SZ ES        9 2 40.05                             170   -0.1710 24.3 184 
 BAR2 SZ I         9 2 43.13        11.9 0.40            170           24.3 184 
 PAM  SZ EP        9 2 28.29                             150    0.3110 78.0  42 
 PAM  SN ES        9 2 45.22                             150    0.2510 78.0  42 
 PAM  SZ I         9 2 47.50         6.2 0.50            154           78.0  42 
 RUS  HZ EP        9 2 29.41                             142   -0.2110  102 175 
 RUS  HN ES        9 2 48.14                             142    0.2510  102 175 
 RUS  HZ I         9 2 49.60         3.7 0.30            145            102 175 
 PTB  HZ EP        9 2 31.86                             131   -0.75 9  146 258 
 PTB  HN ES        9 2 52.60                             131   -0.60 9  146 258 
 PTB  HZ I         9 3  0.53         4.1 0.46            133            146 258 
 SPBC HZ EP        9 2 34.10                             128   -0.21 9  163 218 
 SPBC HN ES        9 2 56.36                             128    0.13 9  163 218 
 SPBC HZ I         9 2 59.10         8.5 0.18            130            163 218 
 ZAR  HZ EP        9 2 38.02                             122   -0.05 9  201 292 
 ZAR  HN ES        9 3  3.27                             122    0.34 9  201 292 
 NOR  HE ES        9 3  9.29                             118    0.19 8  233 234 
 NOR  HZ I         9 3 12.89         4.2 0.22            120            233 234 
 SML  HZ EP        9 2 41.92                             117   -0.43 8  242 336 
 SML  HN ES        9 3 10.64                             117    0.11 8  242 336 
 CHI  HZ EP        9 2 43.36                             116   -0.36 8  249 195 
 CHI  HZ I         9 2 46.07         2.0 0.22            119            249 195 
 CHI  HN ES        9 3 12.76                             116   -0.22 8  249 195 
 GUY2CHZ EP        9 2 51.01                             111    1.55 7  300 234 
 GUY2CHE ES        9 3 23.72                             111    0.52 7  300 234 
                                                                                
