 2013 11 2 0500 28.1 L   6.634 -73.097168.1  RSN  6 0.4 1.4LRSN                1
 GAP=203        0.92       5.1     6.3  7.2  0.4566E+01  0.3965E+01 -0.6132E+01E
 Epicentro: CURITI - SANTANDER                                                 3
 ACTION:UPD 14-01-09 16:24 OP:ep   STATUS:               ID:20131102050028 L   I
 OLDACT:REG 13-11-02 07:16 OP:jn   STATUS:               ID:20131102050000     3
 2013-11-02-0500-00M.COL___273                                                 6
 STAT SP IPHASW D HRMM SECON CODA AMPLIT PERI AZIMU VELO AIN AR TRES W  DIS CAZ7
 BAR2 SZ EP        5 0 50.07                             176   -0.1710 10.5 244 
 BAR2 SZ ES        5 1  7.31                             176   -0.2210 10.5 244 
 BAR2 SZ I         5 1 10.37         3.3 0.30            177           10.5 244 
 RUS  HZ EP        5 0 52.85                             153   -0.1210 82.0 179 
 RUS  HN ES        5 1 12.31                             153   -0.0810 82.0 179 
 RUS  HZ I         5 1 13.54         4.7 0.32            157           82.0 179 
 BRR  HZ EP        5 0 52.99                             152    0.5110 85.8 308 
 BRR  HN ES   1    5 1 12.12                             152    0.62 7 85.8 308 
 BRR  HZ I         5 1 16.10         3.1 0.48            152           85.8 308 
 PTB  HZ EP        5 0 56.82                             136   -0.39 9  151 266 
 PTB  HN ES        5 1 19.36                             136   -0.57 9  151 266 
 SPBC HZ EP   1    5 0 57.85                             136    0.34 7  153 225 
 SPBC HN ES        5 1 20.97                             136    0.50 9  153 225 
 SML  HN ES   1    5 1 39.11                             120   -0.11 6  263 336 
                                                                                
