 2011  4 2 0103 30.6 L   6.796 -73.109146.1  RSN 12 0.4 2.3LRSN                1
 GAP=159        0.89       7.2     8.7  8.3 -0.3271E+02  0.2086E+02  0.8689E+01E
 Epicentro: LOS SANTOS - SANTANDER                                             3
 ACTION:UP  11-06-22 15:27 OP:REBC STATUS:               ID:20110402010330 L   I
 2011-04-02-0100-00M.COL___139                                                 6
 STAT SP IPHASW D HRMM SECON CODA AMPLIT PERI AZIMU VELO SNR AR TRES W  DIS CAZ7
 BTL  SZ EP   3    1 3 50.38                             171     0.1 2   22 308 
 BTL  SZ ES   2    1 4  6.35                             171     0.7 5   22 308 
 BAR2 SZ EP   2    1 3 50.47                             170     0.2 5   24 200 
 BAR2 SZ I         1 4  8.07        31.8 0.19                            24 200 
 GIR2 SZ EP        1 3 49.49                             167    -0.910   33 343 
 BRR  HZ EP        1 3 51.89                             151    -0.110   75 297 
 BRR  HZ I         1 3 52.65        39.0 0.07                            75 297 
 BRR  HN ES   2    1 4  9.13                             151     0.4 5   75 297 
 PAM  SZ EP        1 3 53.24                             151     0.510   75  37 
 PAM  SZ I         1 3 53.47        30.7 0.11                            75  37 
 PAM  SN ES   1    1 4  9.95                             151    -0.1 7   75  37 
 GRA  SZ EP        1 3 56.12                             137     0.310  125  16 
 GRA  SZ ES   1    1 4 15.27                             137    -0.2 7  125  16 
 GRA  SZ I         1 4 16.85        27.9 0.16                           125  16 
 OCA  SZ EP        1 3 59.06                             129     0.0 9  161 352 
 OCA  SZ I         1 4 24.71        18.8 0.21                           161 352 
 NOR  SZ EP   2    1 4  6.77                             118     0.1 4  238 235 
 CHI  HZ EP   3    1 4  9.11                             117     0.7 2  249 196 
 CHI  HN ES   3    1 4 38.34                             117     0.4 2  249 196 
 HEL  HZ EP   3    1 4 11.52                             114     0.2 2  276 256 
 DBB  SZ EP        1 4 18.86                             109     0.3 7  344 274 
 PRA  HZ EP   1    1 4 24.41                             106     0.1 4  394 210 
 PRA  HN ES   2    1 5  5.79                             106    -0.5 3  394 210 
 PRA  HZ I         1 5  9.87        16.6 0.16                           394 210 
                                                                                
