 2011  2 2 0820 50.8 L   6.800 -73.354134.4  RSN  5 0.2 1.6LRSN                1
 GAP=171        0.54       3.6    16.3 12.7 -0.3521E+02  0.1381E+03 -0.1844E+02E
 Epicentro: ZAPATOCA - SANTANDER                                               3
 ACTION:UP  11-03-28 15:05 OP:jfem STATUS:               ID:20110202082050 L   I
 2011-02-02-0818-47S.COL___135                                                 6
 STAT SP IPHASW D HRMM SECON CODA AMPLIT PERI AZIMU VELO SNR AR TRES W  DIS CAZ7
 BAR2 SZ EP        821  9.24                             166     0.110   30 141 
 BAR2 SZ I         821  9.53         6.9 0.20                            30 141 
 RUS  HE ES   2    821 31.56                             140    -0.1 5  105 163 
 RUS  HZ I         821 32.96         4.1 0.43                           105 163 
 GRA  SZ EP   1    821 16.13                             132     0.4 7  134  27 
 GRA  SZ ES   1    821 35.09                             132    -0.2 7  134  27 
 GRA  SZ I         821 36.90         7.7 0.39                           134  27 
 OCA  SZ EP   1    821 17.75                             127    -0.3 7  159   1 
 OCA  SZ ES   2    821 39.69                             127     0.3 5  159   1 
 OCA  SZ I         821 45.47         6.9 0.15                           159   1 
 CHI  HZ EP   2    821 27.15                             115    -0.1 4  244 190 
 CHI  HE ES   2    821 55.82                             115     0.0 4  244 190 
 CHI  HZ I         822  6.22         2.2 0.48                           244 190 
                                                                                
