 2016  7 2 0906 23.5 L   6.848 -73.140144.9  RSN  7 0.3 1.4LRSN                1
 GAP=135        0.68       3.1     3.0  4.8 -0.1904E+01  0.5586E+01  0.7546E+00E
 Epicentro: LOS SANTOS - SANTANDER                                             3
 ACTION:UPD 17-03-29 16:45 OP:lp   STATUS:               ID:20160702090623 L   I
 OLDACT:REG 16-07-02 13:40 OP:edw  STATUS:               ID:20160702085750     3
 2016-07-02-0857-50M.COL___319                                                 6
 STAT SP IPHASW D HRMM SECON CODA AMPLIT PERI AZIMU VELO AIN AR TRES W  DIS CAZ7
 BAR2 EZ EP        9 6 43.35                             168    0.2010 28.7 189 
 BAR2 EZ ES        9 6 58.76                             168    0.2910 28.7 189 
 BAR2 EZ I         9 7  1.31         5.9 0.32            170           28.7 189 
 PAM  EZ EP        9 6 45.47                             152    0.1010 72.9  42 
 PAM  EN ES        9 7  2.23                             152   -0.1810 72.9  42 
 PAM  EZ I         9 7  5.81         3.1 0.22            156           72.9  42 
 RUS  HZ EP        9 6 47.53                             142   -0.0310  106 177 
 RUS  HN ES        9 7  6.30                             142   -0.0210  106 177 
 RUS  HZ I         9 7  7.66         2.7 0.20            147            106 177 
 PTB  HZ EP        9 6 50.32                             131   -0.24 9  150 257 
 PTB  HN ES        9 7 11.21                             131   -0.45 9  150 257 
 PTB  HZ I         9 7 15.00         3.7 0.12            133            150 257 
 SPBC HZ EP        9 6 52.35                             128   -0.03 9  168 218 
 SPBC HN ES        9 7 14.62                             128   -0.27 9  168 218 
 SPBC HZ I         9 7 20.50         6.4 0.24            131            168 218 
 ZAR  HE ES        9 7 21.16                             122    0.25 9  203 291 
 ZAR  HZ I         9 7 28.73         2.0 0.36            124            203 291 
 GUY2CHZ EP        9 7  7.36                             112   -0.13 7  305 234 
 GUY2CHN ES        9 7 42.51                             112    0.72 7  305 234 
 GUY2CHZ I         9 7 48.21         1.7 0.32                           305 234 
                                                                                
