 2010  5 2 0024 28.7 L   6.696 -72.962136.0  RSN  5 0.3 1.9LRSN                1
 GAP=236        0.48       7.0     6.7  7.0 -0.1549E+02 -0.1439E+02  0.3588E+01E
 Epicentro: ARATOCA - SANTANDER                                                3
 ACTION:UP  10-08-24 10:02 OP:vdl  STATUS:               ID:20100502002428 L   I
 2010-05-02-0022-35S.COL___105                                                 6
 STAT SP IPHASW D HRMM SECON CODA AMPLIT PERI AZIMU VELO SNR AR TRES W  DIS CAZ7
 BAR2 SZ EP   2    024 47.71                             168     0.5 5   27 245 
 BAR2 SZ ES   2    025  1.49                             168    -0.2 5   27 245 
 GIR2 SZ EP   1    024 47.89                             159     0.0 7   49 329 
 BRR  HZ EP        024 50.25                             143    -0.110   95 299 
 BRR  HE ES   1    025  7.27                             143     0.0 7   95 299 
 BRR  HZ I         025 11.52        17.8 0.11                            95 299 
 BRI  SZ EP   1    024 51.87                             138    -0.3 7  114   9 
 BRI  SZ ES   2    025 10.80                             138     0.4 5  114   9 
 HEL  HZ EP   3    025 10.97                             111     0.6 2  289 259 
 HEL  HZ I         025 50.15         3.3 0.39                           289 259 
                                                                                
