 2010  5 2 0312 34.7 L   7.019 -73.151148.0  RSN  5 0.4 1.6LRSN                1
 GAP=252        0.67      12.1    12.2 11.5 -0.1085E+03 -0.7374E+02  0.7165E+02E
 Epicentro: GIRON - SANTANDER                                                  3
 ACTION:UP  10-08-24 10:02 OP:vdl  STATUS:               ID:20100502031234 L   I
 2010-05-02-0309-41S.COL___105                                                 6
 STAT SP IPHASW D HRMM SECON CODA AMPLIT PERI AZIMU VELO SNR AR TRES W  DIS CAZ7
 GIR2 SZ EP   2    312 53.32                             177    -0.9 5    8 325 
 BRR  HZ EP        312 55.59                             156    -0.110   63 279 
 BRR  HE ES   1    313 12.23                             156     0.2 7   63 279 
 BRR  HZ I         313 14.60         4.3 0.26                            63 279 
 BRI  SZ EP   1    312 57.63                             148     0.4 7   86  27 
 BRI  SZ ES   2    313 15.16                             148     0.3 5   86  27 
 GUE  SZ EP   2    312 58.07                             146     0.2 5   93  16 
 GUE  SZ ES   2    313 15.58                             146    -0.4 5   93  16 
 OCA  SZ EP   3    313  1.40                             135     0.4 2  136 352 
 OCA  SZ ES   2    313 21.23                             135    -0.3 5  136 352 
 OCA  SZ I         313 26.39         8.9 0.51                           136 352 
                                                                                
