 2014  7 2 0436  5.2 L   6.823 -73.180141.6  RSN  5 0.2 1.8LRSN                1
 GAP=276        0.47       4.0     3.4  4.3  0.9141E+00  0.5355E+01 -0.1944E+01E
 Epicentro: ZAPATOCA - SANTANDER                                               3
 ACTION:UPD 15-03-16 20:40 OP:nd   STATUS:               ID:20140702043605 L   I
 OLDACT:UP  14-07-02 14:29 OP:cam  STATUS:               ID:20140702043000     3
 OLDACT:UP  14-07-02 14:29 OP:cam  STATUS:               ID:20140702043000     3
 OLDACT:REG 14-07-02 13:15 OP:cam  STATUS:               ID:20140702043000     3
 2014-07-02-0430-00M.COL___279                                                 6
 STAT SP IPHASW D HRMM SECON CODA AMPLIT PERI AZIMU VELO AIN AR TRES W  DIS CAZ7
 BAR2 SZ EP        436 24.45                             169    0.1110 25.5 181 
 BAR2 SZ ES        436 39.11                             169   -0.1810 25.5 181 
 BAR2 SZ I         436 40.51        13.2 0.38            168           25.5 181 
 RUS  HE ES        436 47.25                             142    0.1610  103 174 
 RUS  HZ I         436 48.50         7.9 0.44            143            103 174 
 PTB  HZ EP        436 31.32                             132   -0.18 9  145 258 
 PTB  HN ES        436 52.27                             132    0.23 9  145 258 
 PTB  HZ I         436 55.20         7.3 0.14            132            145 258 
 SPBC HZ EP        436 33.37                             128    0.06 9  163 217 
 SPBC HE ES        436 55.06                             128   -0.20 9  163 217 
 SPBC HZ I         436 57.84        10.0 0.28            128            163 217 
 SML  HZ EP   4    436 38.61                             117   -2.54 0  240 336 
 SML  HE ES   4    437  9.96                             117    0.76 0  240 336 
 RREF HZ EP   4    436 52.75                             110    1.76 0  321 229 
 PRA  HZ EP   2    436 58.53                             106   -0.06 3  392 209 
                                                                                
