 2016  7 2 0138 22.9 L   6.772 -73.146143.1  RSN  8 0.3 1.3LRSN                1
 GAP=235        0.64       3.1     3.4  4.2  0.2664E+01  0.4976E+01  0.2951E+01E
 Epicentro: LOS SANTOS - SANTANDER                                             3
 ACTION:UPD 17-03-29 16:45 OP:lp   STATUS:               ID:20160702013822 L   I
 OLDACT:REG 16-07-02 12:44 OP:edw  STATUS:               ID:20160702013747     3
 2016-07-02-0137-47M.COL___331                                                 6
 STAT SP IPHASW D HRMM SECON CODA AMPLIT PERI AZIMU VELO AIN AR TRES W  DIS CAZ7
 BAR2 EZ ES        138 57.03                             172   -0.1010 20.3 191 
 BAR2 EZ I         138 58.30         3.8 0.12            169           20.3 191 
 BRR  HZ EP        138 43.95                             152    0.1310 72.7 301 
 BRR  HN ES        139  0.54                             152    0.3910 72.7 301 
 RUS  HZ EP        138 46.10                             144   -0.0410 97.5 176 
 RUS  HE ES        139  4.25                             144   -0.0310 97.5 176 
 RUS  HZ I         139  5.38         2.1 0.40            144           97.5 176 
 PTB  HZ EP        138 48.99                             132   -0.58 9  147 260 
 PTB  HE ES        139 10.04                             132   -0.34 9  147 260 
 PTB  HZ I         139 13.15         2.3 0.10            131            147 260 
 SPBC HZ EP        138 50.86                             129   -0.07 9  161 220 
 SPBC HN ES        139 12.92                             129    0.10 9  161 220 
 ZAR  HE ES        139 20.42                             122   -0.11 9  205 293 
 NOR  HZ EP        138 58.59                             118    0.34 8  233 235 
 NOR  HN ES        139 25.90                             118    0.06 8  233 235 
 NOR  HZ I         139 29.60         2.6 0.16            119            233 235 
 GUY2CHZ EP        139  6.43                             112    0.28 7  299 235 
 GUY2CHN ES        139 40.10                             112    0.19 7  299 235 
 GUY2CHZ I         139 48.65         1.8 0.72                           299 235 
                                                                                
