 2017  5 2 0316 11.0 L   6.816 -73.166154.0  RSN  9 0.5 1.8LRSN                1
 GAP=109        1.16       4.3     4.5  7.9  0.3542E+01  0.1940E+01  0.3867E+01E
 Epicentro: LOS SANTOS - SANTANDER                                             3
 ACTION:UPD 17-06-16 13:31 OP:jn   STATUS:               ID:20170502031611 L   I
 OLDACT:UP  17-05-02 16:04 OP:edw  STATUS:               ID:20170502030746d    3
 OLDACT:DUP 17-05-02 15:56 OP:edw  STATUS:               ID:20170502030746d    3
 OLDACT:UP  17-05-02 15:54 OP:edw  STATUS:               ID:20170502030744     3
 OLDACT:REG 17-05-02 12:08 OP:edw  STATUS:               ID:20170502030744     3
 2017-05-02-0308-00M.COL___371                                                 6
 STAT SP IPHASW D HRMM SECON CODA AMPLIT PERI AZIMU VELO AIN AR TRES W  DIS CAZ7
 BRR  HZ EP     D  316 33.37                             155    0.4510 68.4 298 
 BRR  HN ES        316 50.50                             155    0.5010 68.4 298 
 BRR  HZ I         316 51.50        12.5 0.14            154           68.4 298 
 PAM  EZ IP     D  316 34.57                             152    0.4510 77.5  42 
 PAM  EN ES        316 51.60                             152   -0.5410 77.5  42 
 PAM  EZ I         316 54.15        10.3 0.52            154           77.5  42 
 RUS  HZ EP        316 35.93                             145    0.2010  103 175 
 RUS  HN ES        316 54.58                             145   -0.4210  103 175 
 RUS  HZ I         316 56.18        10.0 0.42            146            103 175 
 PTB  HZ EP        316 38.43                             134   -0.08 9  146 258 
 PTB  HN ES        316 59.33                             134   -0.63 9  146 258 
 PTB  HZ I         317  0.53         5.9 0.40            134            146 258 
 SPBC HZ EP        316 40.89                             131    0.72 9  163 218 
 SPBC HN ES        317  2.82                             131   -0.08 9  163 218 
 SPBC HZ I         317  6.49         9.4 0.74            131            163 218 
 YPLC HZ EP        316 41.20                             128   -0.48 9  179 151 
 YPLC HN ES        317  5.88                             128    0.29 9  179 151 
 YPLC HZ I         317  8.97         4.5 0.30            129            179 151 
 ZAR  HZ EP   4    316 44.68                             124    0.94 0  201 292 
 ZAR  HN ES        317  9.33                             124    0.06 9  201 292 
 ZAR  HZ I         317 16.13         7.6 0.12            125            201 292 
 CHI  HE ES   2    317 18.92                             118   -0.26 4  250 195 
 SJC  HZ EP        317  5.25                             107   -1.30 6  407 327 
 SJC  HN ES   4    317 45.40                             107   -4.46 0  407 327 
 SJC  HZ I         317 51.05         1.5 0.50            108            407 327 
                                                                                
