 2011 12 2 0816 35.1 L   6.759 -72.981133.1  RSN  4 0.4 1.2LRSN                1
 GAP=161        0.79       5.2     7.9  8.7 -0.2232E+01 -0.5378E+01  0.1830E+01E
 Epicentro: CEPITA - SANTANDER                                                 3
 ACTION:UPD 12-07-13 16:13 OP:ep   STATUS:               ID:20111202081635 L   I
 2011-12-02-0810-00M.COL___170                                                 6
 STAT SP IPHASW D HRMM SECON CODA AMPLIT PERI AZIMU VELO AIN AR TRES W  DIS CAZ7
 BAR2 SZ EP   1    816 52.95                             167   -0.38 7 28.9 230 
 BAR2 SZ ES   1    817  8.05                             167    0.49 7 28.9 230 
 BAR2 SZ I         817 11.23         4.7 0.29                          28.9 230 
 PAM  SZ EP   1    816 55.70                             150    0.12 7 71.3  26 
 PAM  SN ES   1    817 11.44                             150   -0.14 7 71.3  26 
 BRR  HZ EP   1    816 55.82                             144   -0.27 7 89.5 296 
 BRR  HZ I         817  9.89         4.1 0.45                          89.5 296 
 BRR  HE ES   1    817 12.53                             144    0.05 7 89.5 296 
 RUS  HZ EP   1    816 57.95                             142    0.65 7 96.5 187 
 RUS  HN ES   1    817 14.10                             142   -0.53 7 96.5 187 
 RUS  HZ I         817 17.55         1.5 0.27                          96.5 187 
                                                                                
