 2017  7 2 0529 35.9 L   6.758 -73.138150.6  RSN  4 0.3 1.3LRSN                1
 GAP=254        0.82       7.8     6.6  6.9  0.1360E+01  0.5278E+01  0.1557E+02E
 Epicentro: LOS SANTOS - SANTANDER                                             3
 ACTION:UPD 17-08-30 15:29 OP:rebc STATUS:               ID:20170702052935 L   I
 OLDACT:DUP 17-07-02 14:54 OP:and  STATUS:               ID:20170702052740d    3
 2017-07-02-0528-00M.COL___380                                                 6
 STAT SP IPHASW D HRMM SECON CODA AMPLIT PERI AZIMU VELO AIN AR TRES W  DIS CAZ7
 BAR2 EZ EP        529 56.02                             173   -0.0110 19.0 195 
 BAR2 EZ ES        530 11.43                             173   -0.3010 19.0 195 
 BAR2 EZ I         530 13.87         8.7 0.46            170           19.0 195 
 BRR  HZ EP        529 57.70                             152   -0.0410 74.3 301 
 BRR  HN ES        530 15.22                             152    0.4510 74.3 301 
 BRR  HZ I         530 18.27         3.6 0.28            153           74.3 301 
 PTB  HZ EP        530  2.83                             133   -0.43 9  148 261 
 PTB  HN ES        530 24.36                             133   -0.25 9  148 261 
 PTB  HZ I         530 26.96         1.1 0.20            134            148 261 
 SPBC HZ EP        530  4.97                             131    0.48 9  160 220 
 SPBC HN ES   2    530 27.17                             131    0.38 5  160 220 
 SPBC HZ I         530 29.87         3.4 0.06            132            160 220 
                                                                                
