 2013  1 2 0648 37.3 L   6.788 -73.182147.3  RSN  6 0.3 1.7LRSN                1
 GAP=233        0.88       4.9     5.7  6.3  0.1508E+02  0.7733E+01  0.8128E+01E
 Epicentro: LOS SANTOS - SANTANDER                                             3
 ACTION:UPD 13-02-15 09:11 OP:ep   STATUS:               ID:20130102064836 L   I
 2013-01-02-0640-00M.COL___242                                                 6
 STAT SP IPHASW D HRMM SECON CODA AMPLIT PERI AZIMU VELO AIN AR TRES W  DIS CAZ7
 BAR2 SZ EP        648 56.78                             171   -0.3010 21.7 180 
 BAR2 SZ I         648 57.13         9.3 0.36            169           21.7 180 
 BAR2 SZ ES        649 12.31                             171   -0.2010 21.7 180 
 BRR  HZ EP        648 58.60                             154    0.1510 68.4 301 
 BRR  HN ES        649 15.62                             154    0.6610 68.4 301 
 BRR  HN I         649 16.10        15.0 0.18            153           68.4 301 
 RUS  HZ EP        649  1.08                             144   -0.0510 99.6 174 
 RUS  HZ I         649  2.05         3.0 0.14            143           99.6 174 
 RUS  HN ES        649 19.58                             144   -0.1410 99.6 174 
 PTB  HZ EP        649  3.62                             133   -0.39 9  144 259 
 PTB  HN ES        649 24.44                             133   -0.41 9  144 259 
 PTB  HN I         649 26.96         9.4 0.22            132            144 259 
 OCA  HE ES   4    649 25.15                             130   -2.90 0  161 355 
 ZAR  HN ES        649 34.65                             123    0.01 9  201 293 
 CHI  HZ EP        649 15.34                             118    0.51 8  246 194 
 CHI  HN ES        649 44.50                             118    0.39 8  246 194 
 CHI  HN I         649 47.23         4.3 0.36            117            246 194 
                                                                                
