 2010  1 2 0033  8.5 L   6.785 -73.088149.8  RSN 11 0.4 2.3LRSN                1
 GAP=130        0.81       3.3     6.0  5.5 -0.8279E+01  0.7445E+01  0.1240E+01E
 Epicentro: LOS SANTOS - SANTANDER                                             3
 ACTION:UP  10-08-24 09:42 OP:vdl  STATUS:               ID:20100102003308 L   I
 2010-01-02-0031-31S.COL___097                                                 6
 STAT SP IPHASW D HRMM SECON CODA AMPLIT PERI AZIMU VELO AIN AR TRES W  DIS CAZ7
 BAR2 SZ EP        033 28.59                             171     0.010   24 206 
 BAR2 SZ ES   1    033 43.63                             171    -0.7 7   24 206 
 GIR2 SZ EP        033 28.93                             166     0.210   35 340 
 GIR2 SZ ES   1    033 45.11                             166     0.6 7   35 340 
 RUS  BZ EP        033 32.67                             145     0.110   99 180 
 RUS  BE ES   1    033 51.23                             145     0.0 7   99 180 
 RUS  BZ I         033 52.65        22.1 0.50                            99 180 
 OCA  SZ EP        033 37.23                             130    -0.1 9  163 351 
 OCA  SZ ES   1    033 59.83                             130     0.0 7  163 351 
 NOR  SZ EP        033 44.45                             119    -0.5 8  239 236 
 NOR  SZ ES   1    034 13.73                             119     0.4 6  239 236 
 CHI  HZ EP   1    033 46.57                             118     0.1 6  249 197 
 CHI  HN ES   1    034 15.99                             118     0.0 6  249 197 
 CHI  HZ I         034 21.66        10.3 0.25                           249 197 
 ROSC BZ EP   1    033 47.71                             117     0.7 6  255 212 
 ROSC BN ES   1    034 17.43                             117     0.3 6  255 212 
 HEL  HZ EP   2    033 50.44                             115     0.9 4  278 256 
 HEL  HN ES   2    034 20.54                             115    -1.0 4  278 256 
 HEL  HZ I         034 26.88        10.0 0.30                           278 256 
 RREF BE ES   2    034 32.31                             111     0.6 3  326 230 
 RREF BZ I         034 40.30        12.1 0.38                           326 230 
 SDV  BZ EP   1    033 57.93                             109    -0.3 5  357  49 
 PRA  HZ EP        034  2.26                             107    -0.1 6  394 210 
 PRA  HE ES   1    034 43.47                             107    -0.9 4  394 210 
                                                                                
