 2015  2 2 0528 33.7 L   6.801 -73.154141.1  RSN  6 0.6 1.3LRSN                1
 GAP=194        1.45       6.3     8.9 10.6 -0.4658E+01  0.2046E+02  0.7985E+00E
 Epicentro: LOS SANTOS - SANTANDER                                             3
 ACTION:UPD 15-04-30 21:20 OP:nd   STATUS:               ID:20150202052833 L   I
 OLDACT:DUP 15-02-02 18:39 OP:stll STATUS:               ID:20150202051747d    3
 OLDACT:REG 15-02-02 13:32 OP:stll STATUS:               ID:20150202051746     3
 2015-02-02-0517-46M.COL___262                                                 6
 STAT SP IPHASW D HRMM SECON CODA AMPLIT PERI AZIMU VELO AIN AR TRES W  DIS CAZ7
 BAR2 EZ EP        528 52.69                             170   -0.1010 23.3 188 
 BAR2 EZ ES        529  7.73                             170    0.0710 23.3 188 
 BAR2 EZ I         529  9.18         3.6 0.38            168           23.3 188 
 BRR  HZ EP        528 54.53                             152    0.2210 70.3 299 
 BRR  HZ I         528 54.85         5.7 0.26            149           70.3 299 
 BRR  HN ES        529 11.28                             152    0.9110 70.3 299 
 PTB  HZ EP        528 59.90                             131   -0.33 9  147 259 
 PTB  HN ES        529 20.17                             131   -0.73 9  147 259 
 PTB  HZ I         529 23.75         1.8 0.18            130            147 259 
 OCA  HN ES        529 22.53                             129   -0.89 9  160 353 
 SPBC HZ EP        529  1.73                             128   -0.09 9  163 219 
 SPBC HN ES        529 23.57                             128   -0.16 9  163 219 
 SPBC HZ I         529 27.78         2.7 0.24            128            163 219 
 ZAR  HZ EP        529  6.99                             121    1.22 9  203 292 
 ZAR  HE ES        529 30.59                             121   -0.17 9  203 292 
 ZAR  HZ I         529 37.25         2.8 0.28            121            203 292 
                                                                                
