 2015  4 2 0401 48.7 L   6.861 -73.290124.6  RSN  9 0.4 1.8LRSN                1
 GAP= 63        1.07       3.3     3.1  6.8  0.7621E+00  0.1391E+01  0.4352E+00E
 Epicentro: BETULIA - SANTANDER                                                3
 ACTION:UPD 15-06-03 16:51 OP:cam  STATUS:               ID:20150402040148 L   I
 OLDACT:UP  15-04-02 13:51 OP:mh   STATUS:               ID:20150402035750     3
 OLDACT:REG 15-04-02 12:36 OP:mh   STATUS:               ID:20150402035750     3
 2015-04-02-0357-50M.COL___280                                                 6
 STAT SP IPHASW D HRMM SECON CODA AMPLIT PERI AZIMU VELO AIN AR TRES W  DIS CAZ7
 BRR  HZ EP        4 2  6.54                             155   -0.0910 54.0 300 
 BRR  HN ES        4 2 20.76                             155    0.1610 54.0 300 
 BRR  HZ I         4 2 21.02        22.6 0.34            154           54.0 300 
 PAM  SZ EP        4 2  9.31                             144    0.1110 84.0  51 
 PAM  SE ES        4 2 25.27                             144    0.1110 84.0  51 
 PAM  SZ I         4 2 28.63         7.8 0.13            145           84.0  51 
 RUS  HZ EP        4 2 10.52                             136   -0.6810  110 168 
 RUS  HN ES        4 2 28.25                             136   -0.4810  110 168 
 RUS  HZ I         4 2 29.35         6.2 0.28            137            110 168 
 PTB  HZ EP   4    4 2 11.29                             130   -1.43 0  134 255 
 PTB  HN ES        4 2 31.56                             130    0.1310  134 255 
 PTB  HZ I         4 2 33.07         5.8 0.16            130            134 255 
 OCA  HZ EP        4 2 14.29                             126   -0.41 9  152 359 
 OCA  HN ES        4 2 34.54                             126   -0.41 9  152 359 
 OCA  HZ I         4 2 35.48        23.0 0.22            126            152 359 
 TAM  HZ EP        4 2 17.11                             122    0.54 9  172 106 
 TAM  HN ES        4 2 38.87                             122    0.59 9  172 106 
 ZAR  HZ EP        4 2 18.66                             120    0.62 9  187 292 
 ZAR  HN ES        4 2 41.59                             120    0.70 9  187 292 
 ZAR  HZ I         4 2 43.49         7.3 0.30            120            187 292 
 NOR  HZ EP        4 2 22.38                             114    0.01 8  226 231 
 NOR  HN ES   1    4 2 48.25                             114   -0.36 6  226 231 
 NOR  HZ I         4 2 54.03         2.3 0.20            115            226 231 
 SML  HZ EP   1    4 2 22.72                             114   -0.14 6  231 338 
 SML  HN ES   1    4 2 48.59                             114   -0.89 6  231 338 
 SML  HZ I         4 2 53.06        11.8 0.10            114            231 338 
                                                                                
