 2017 11 2 0506 21.5 L   6.799 -73.141142.5  RSN  4 0.2 1.2LRSN                1
 GAP=244        0.42       3.6     4.2  5.1 -0.7316E+00  0.8054E+01 -0.1555E+01E
 Epicentro: LOS SANTOS - SANTANDER                                             3
 ACTION:UPD 17-12-12 19:50 OP:rebc STATUS:               ID:20171102050621 L   I
 OLDACT:REG 17-11-02 13:30 OP:dnl  STATUS:               ID:20171102045640     3
 2017-11-02-0457-00M.COL___441                                                 6
 STAT SP IPHASW D HRMM SECON CODA AMPLIT PERI AZIMU VELO AIN AR TRES W  DIS CAZ7
 BAR2 EZ EP        5 6 40.72                             170   -0.0310 23.3 191 
 BAR2 EZ ES        5 6 55.89                             170    0.1410 23.3 191 
 BAR2 EZ I         5 6 57.47         5.0 0.28            169           23.3 191 
 RUS  HZ EP   2    5 6 44.80                             143   -0.13 5  100 176 
 RUS  HN ES        5 7  2.98                             143   -0.2210  100 176 
 RUS  HZ I         5 7  5.08         1.4 0.34            146            100 176 
 SPBC HZ EP   2    5 6 50.14                             128    0.36 5  163 219 
 SPBC HN ES        5 7 11.94                             128    0.11 9  163 219 
 SPBC HZ I         5 7 14.41         2.3 0.42            129            163 219 
 ZAR  HE ES   2    5 7 18.82                             121   -0.15 4  205 292 
 ZAR  HZ I         5 7 25.12         1.8 0.30            121            205 292 
                                                                                
