 2015  5 2 0822  5.5 L   6.821 -73.147136.0  RSN  8 0.2 1.1LRSN                1
 GAP=103        0.64       2.3     2.9  4.1  0.1999E+01  0.7833E+00 -0.9684E+00E
 Epicentro: LOS SANTOS - SANTANDER                                             3
 ACTION:UPD 15-09-10 22:00 OP:cam  STATUS:               ID:20150502082205 L   I
 OLDACT:UP  15-05-02 18:34 OP:stll STATUS:               ID:20150502081750d    3
 OLDACT:DUP 15-05-02 18:33 OP:stll STATUS:               ID:20150502081750d    3
 OLDACT:REG 15-05-02 13:18 OP:stll STATUS:               ID:20150502081749     3
 2015-05-02-0817-49M.COL___276                                                 6
 STAT SP IPHASW D HRMM SECON CODA AMPLIT PERI AZIMU VELO AIN AR TRES W  DIS CAZ7
 BAR2 EZ EP        822 24.07                             169    0.0310 25.6 189 
 BAR2 EZ ES        822 38.59                             169    0.1210 25.6 189 
 BAR2 EZ I         822 40.07         2.9 0.18            169           25.6 189 
 BRR  HZ EP        822 26.13                             151    0.5710 70.0 297 
 BRR  HE ES        822 40.82                             151   -0.3610 70.0 297 
 PAM  SZ EP        822 26.73                             149    0.1210 75.7  41 
 PAM  SN ES        822 42.98                             149   -0.0710 75.7  41 
 PAM  SZ I         822 45.77         2.7 0.42            152           75.7  41 
 RUS  HZ EP        822 28.46                             141   -0.0510  103 176 
 RUS  HN ES        822 46.39                             141   -0.0410  103 176 
 RUS  HZ I         822 48.36         1.7 0.32            143            103 176 
 TAM  HZ EP        822 32.33                             128   -0.19 9  156 106 
 OCA  HN ES        822 54.35                             128    0.15 9  158 353 
 ZAR  HZ EP        822 36.90                             120   -0.35 9  203 292 
 ZAR  HN ES        823  2.15                             120    0.16 9  203 292 
 ZAR  HZ I         823  7.48         2.1 0.54            121            203 292 
 SML  HN ES        823  9.14                             115   -0.22 8  242 335 
                                                                                
