 2011  3 2 0443 58.5 L   6.515 -73.524121.7  RSN  6 0.3 1.4LRSN                1
 GAP=106        0.69       4.8     7.5  8.8 -0.1263E+02  0.3139E+02 -0.1339E+02E
 Epicentro: EL CARMEN DE CHUCURI - SANTANDER                                   3
 ACTION:UP  11-06-16 14:31 OP:jfem STATUS:               ID:20110302044358 L   I
 2011-03-02-0441-48S.COL___136                                                 6
 STAT SP IPHASW D HRMM SECON CODA AMPLIT PERI AZIMU VELO SNR AR TRES W  DIS CAZ7
 BAR2 SZ EP   1    444 15.03                             161    -0.6 7   39  77 
 BAR2 SZ ES   1    444 29.10                             161     0.0 7   39  77 
 BAR2 SZ I         444 32.64         8.6 0.23                            39  77 
 RUS  HZ EP   1    444 18.81                             143     0.1 7   84 145 
 RUS  HE ES   2    444 34.77                             143     0.3 5   84 145 
 RUS  HZ I         444 37.26         2.8 0.19                            84 145 
 GRA  SZ EP   2    444 26.03                             122    -0.1 4  171  28 
 GRA  SZ ES   1    444 48.01                             122     0.3 7  171  28 
 GRA  SZ I         444 52.63         4.2 0.37                           171  28 
 OCA  SZ EP   1    444 28.37                             118     0.0 7  192   7 
 OCA  SZ I         444 54.12         7.7 0.46                           192   7 
 CHI  HZ EP   2    444 30.83                             116     0.2 4  210 186 
 CHI  HZ I         445  0.00         1.5 0.15                           210 186 
 HEL  HN ES   2    444 58.70                             114     0.2 4  225 261 
 HEL  HZ I         445  6.77         1.5 0.30                           225 261 
                                                                                
