 2016  9 2 0953 23.1 L   6.756 -73.146150.3  RSN  6 0.3 1.7LRSN                1
 GAP=138        0.90       4.6     4.1  6.5  0.1660E+01  0.4872E+01  0.2554E+00E
 Epicentro: LOS SANTOS - SANTANDER                                             3
 ACTION:UPD 17-08-17 21:05 OP:lp   STATUS:               ID:20160902095323 L   I
 OLDACT:REG 16-09-02 13:29 OP:drio STATUS:               ID:20160902094735     3
 2016-09-02-0948-00M.COL___346                                                 6
 STAT SP IPHASW D HRMM SECON CODA AMPLIT PERI AZIMU VELO AIN AR TRES W  DIS CAZ7
 BAR2 EZ EP        953 43.21                             173   -0.0310 18.6 192 
 BAR2 EZ ES        953 58.39                             173   -0.5310 18.6 192 
 BAR2 EZ I         954  1.18        13.5 0.26            171           18.6 192 
 BRR  HZ EP        953 45.27                             152    0.3410 73.6 302 
 BRR  HE ES        954  2.49                             152    0.5810 73.6 302 
 BRR  HZ I         954  6.00        13.8 0.32            150           73.6 302 
 PAM  EZ EP        953 46.32                             150    0.2410 81.2  37 
 PAM  EE ES        954  3.68                             150   -0.2810 81.2  37 
 PAM  EZ I         954  5.53        10.0 0.58            153           81.2  37 
 RUS  HZ EP        953 46.78                             146   -0.2410 95.8 176 
 RUS  HZ I         953 49.20         2.8 0.16            148           95.8 176 
 RUS  HE ES        954  6.00                             146    0.3610 95.8 176 
 PTB  HZ EP        953 50.23                             133   -0.18 9  147 261 
 PTB  HE ES        954 11.66                             133   -0.02 9  147 261 
 PTB  HZ I         954 18.30         5.9 0.46            132            147 261 
 ZAR  HZ EP   4    953 58.89                             123    2.81 0  206 293 
 ZAR  HE ES        954 21.38                             123   -0.39 8  206 293 
 ZAR  HZ I         954 28.12         6.1 0.36            123            206 293 
                                                                                
