 2017  7 2 0741 32.5 L   6.182 -73.945 96.0  RSN  5 0.2 1.0LRSN                1
 GAP=132        0.51       4.2     5.9  7.4 -0.1475E+02  0.5542E+00  0.3450E+00E
 Epicentro: CIMITARRA - SANTANDER                                              3
 ACTION:UPD 17-08-30 15:29 OP:rebc STATUS:               ID:20170702074132 L   I
 OLDACT:REG 17-07-02 11:59 OP:and  STATUS:               ID:20170702073740     3
 2017-07-02-0738-00M.COL___380                                                 6
 STAT SP IPHASW D HRMM SECON CODA AMPLIT PERI AZIMU VELO AIN AR TRES W  DIS CAZ7
 SPBC HN ES   2    741 59.86                             146   -0.03 5 60.2 194 
 SPBC HZ I         742  1.31         4.0 0.12            146           60.2 194 
 PTB  HZ EP        741 48.10                             142   -0.3410 69.0 305 
 PTB  HN ES   2    742  0.87                             142    0.02 5 69.0 305 
 PTB  HZ I         742  1.44         1.5 0.12            145           69.0 305 
 BAR2 EZ ES   3    742  5.06                             132   -0.37 2 95.8  62 
 BAR2 EZ I         742  6.09         5.1 0.44            134           95.8  62 
 BRR  HZ IP     C  741 51.68                             129    0.0710  106  14 
 BRR  HN ES   2    742  6.87                             129    0.38 5  106  14 
 NOR  HZ EP        741 53.64                             124    0.2110  123 236 
                                                                                
