 2012  9 2 0028  0.6 L   6.722 -73.167148.7  RSN  6 0.4 1.4LRSN                1
 GAP=137        0.46       6.2     8.6  8.2  0.2920E+02 -0.3224E+02 -0.1563E+02E
 Epicentro: VILLANUEVA - SANTANDER                                             3
 ACTION:UPD 12-10-22 14:16 OP:ep   STATUS:               ID:20120902002800 L   I
 2012-09-02-0020-00M.COL___218                                                 6
 STAT SP IPHASW D HRMM SECON CODA AMPLIT PERI AZIMU VELO AIN AR TRES W  DIS CAZ7
 BAR2 SZ EP   3    028 20.49                             174    0.06 2 14.5 187 
 BAR2 SZ ES   3    028 35.20                             174   -0.71 2 14.5 187 
 BAR2 SZ I         028 36.83         8.4 0.20                          14.5 187 
 GIR2 SZ EP   3    028 20.24                             164   -0.61 2 39.5 356 
 BRR  HZ EP        028 22.23                             152    0.0310 73.7 305 
 BRR  HZ I         028 22.34         5.6 0.20                          73.7 305 
 BRR  HN ES   1    028 39.21                             152    0.16 7 73.7 305 
 PAM  SZ EP   2    028 23.35                             149   -0.26 5 85.6  37 
 PAM  SZ I         028 23.53         6.2 0.22                          85.6  37 
 RUS  HZ EP   2    028 24.46                             147    0.41 5 92.2 174 
 RUS  HN ES   2    028 42.29                             147   -0.07 5 92.2 174 
 RUS  HZ I         028 43.97         2.0 0.24                          92.2 174 
 PTB  HN ES   3    028 47.26                             133   -1.16 2  144 262 
                                                                                
