 2017 12 2 0403  8.9 L   6.795 -73.203138.3  RSN  5 0.3 1.1LRSN                1
 GAP=144        0.80       4.4     4.4  6.8 -0.8616E+01  0.8598E+01 -0.3623E+01E
 Epicentro: ZAPATOCA - SANTANDER                                               3
 ACTION:UPD 18-01-04 13:16 OP:rebc STATUS:               ID:20171202040308 L   I
 OLDACT:REG 17-12-02 12:19 OP:dhb  STATUS:               ID:20171202035740     3
 2017-12-02-0358-00M.COL___480                                                 6
 STAT SP IPHASW D HRMM SECON CODA AMPLIT PERI AZIMU VELO AIN AR TRES W  DIS CAZ7
 BAR2 EZ EP        4 3 27.39                             170   -0.1810 22.6 174 
 BAR2 EZ ES        4 3 41.71                             170   -0.4610 22.6 174 
 BAR2 EZ I         4 3 46.25         3.6 0.42            174           22.6 174 
 PAM  EZ EP        4 3 30.59                             148    0.0210 82.0  43 
 PAM  EN ES        4 3 47.91                             148    0.4010 82.0  43 
 PAM  EZ I         4 3 53.44         1.9 0.30            151           82.0  43 
 RUS  HZ EP        4 3 31.55                             142   -0.3410  101 172 
 RUS  HN ES        4 3 50.06                             142    0.2010  101 172 
 RUS  HZ I         4 3 51.04         3.1 0.32            148            101 172 
 PTB  HZ EP        4 3 34.72                             132    0.08 9  141 259 
 PTB  HN ES        4 3 54.61                             132   -0.14 9  141 259 
 PTB  HZ I         4 3 57.12         1.4 0.16            136            141 259 
 SPBC HE ES        4 3 58.32                             128    0.49 9  159 217 
 SPBC HZ I         4 4  0.05         2.5 0.09            134            159 217 
                                                                                
