 2017  9 2 0314 14.8 L   6.799 -73.103147.4  RSN  5 0.5 1.4LRSN                1
 GAP=242        1.14       6.6     8.5  8.3  0.2730E+02  0.1248E+02 -0.5023E+00E
 Epicentro: LOS SANTOS - SANTANDER                                             3
 ACTION:UPD 17-10-05 19:08 OP:rebc STATUS:               ID:20170902031414 L   I
 OLDACT:UP  17-09-02 14:48 OP:dani STATUS:               ID:20170902030737     3
 OLDACT:REG 17-09-02 13:08 OP:dani STATUS:               ID:20170902030737     3
 2017-09-02-0308-00M.COL___405                                                 6
 STAT SP IPHASW D HRMM SECON CODA AMPLIT PERI AZIMU VELO AIN AR TRES W  DIS CAZ7
 BAR2 EZ EP        314 34.30                             170   -0.3910 24.5 201 
 BAR2 EZ ES        314 50.24                             170    0.0710 24.5 201 
 BAR2 EZ I         314 50.76         8.8 0.12            168           24.5 201 
 BRR  HZ EP        314 36.22                             151   -0.1810 75.4 297 
 BRR  HN ES        314 53.67                             151    0.4410 75.4 297 
 BRR  HZ I         314 57.87         4.5 0.38            149           75.4 297 
 RUS  HZ EP        314 38.31                             144   -0.4210  100 179 
 RUS  HN ES        314 57.48                             144    0.1210  100 179 
 RUS  HZ I         314 58.74         2.2 0.40            147            100 179 
 SPBC HZ EP        314 44.59                             129    0.85 9  166 220 
 SPBC HN ES        315  5.98                             129   -0.31 9  166 220 
 SPBC HZ I         315  8.01         4.0 0.22            130            166 220 
 ZAR  HZ EP        314 48.42                             122    0.58 8  208 292 
 ZAR  HN ES        315 12.90                             122   -0.69 8  208 292 
 ZAR  HZ I         315 18.91         2.9 0.34            122            208 292 
                                                                                
