 2017  4 2 0207 45.1 L   6.714 -73.178142.7  RSN  6 0.3 1.0LRSN                1
 GAP=227        0.71       4.8     4.8  4.9  0.1390E+02  0.5831E+01  0.1887E+01E
 Epicentro: VILLANUEVA - SANTANDER                                             3
 ACTION:UPD 17-05-30 21:07 OP:jn   STATUS:               ID:20170402020745 L   I
 OLDACT:DUP 17-04-02 14:06 OP:lv   STATUS:               ID:20170402015742d    3
 2017-04-02-0158-00M.COL___362                                                 6
 STAT SP IPHASW D HRMM SECON CODA AMPLIT PERI AZIMU VELO AIN AR TRES W  DIS CAZ7
 BAR2 EZ EP        2 8  4.30                             174    0.0610 13.4 182 
 BAR2 EZ ES        2 8 18.80                             174   -0.3410 13.4 182 
 BRR  HZ EP        2 8  5.97                             151   -0.1210 73.3 306 
 BRR  HN ES        2 8 22.45                             151    0.0310 73.3 306 
 RUS  HZ EP        2 8  8.24                             146    0.3010 91.4 173 
 RUS  HN ES        2 8 26.04                             146    0.3110 91.4 173 
 RUS  HZ I         2 8 27.70         1.4 0.17            145           91.4 173 
 PTB  HZ EP        2 8 11.01                             132   -0.39 9  143 262 
 PTB  HN ES        2 8 31.93                             132    0.05 9  143 262 
 PTB  HZ I         2 8 36.85         0.8 0.19            130            143 262 
 SPBC HZ EP        2 8 12.10                             130   -0.40 9  154 220 
 SPBC HN ES   4    2 8 37.67                             130    3.83 0  154 220 
 ZAR  HZ EP        2 8 17.74                             122    0.29 9  205 295 
 ZAR  HN ES        2 8 42.93                             122    0.28 9  205 295 
 ZAR  HZ I         2 8 48.67         2.2 0.22            121            205 295 
                                                                                
