 2013  9 2 0018  6.2 L   6.781 -73.143143.3  RSN 12 0.5 2.3LRSN                1
 GAP=138        1.11       3.5     4.5  6.2 -0.2234E+01  0.6927E+01  0.2263E+01E
 Epicentro: LOS SANTOS - SANTANDER                                             3
 ACTION:UPD 13-10-22 09:19 OP:ep   STATUS:               ID:20130902001806 L   I
 OLDACT:UP  13-09-02 08:30 OP:cam  STATUS:               ID:20130902000959     3
 OLDACT:UP  13-09-02 08:30 OP:cam  STATUS:               ID:20130902000959     3
 OLDACT:REG 13-09-02 07:40 OP:cam  STATUS:               ID:20130902000959     3
 2013-09-02-0009-59M.COL___269                                                 6
 STAT SP IPHASW D HRMM SECON CODA AMPLIT PERI AZIMU VELO AIN AR TRES W  DIS CAZ7
 BAR2 SZ EP        018 25.52                             171    0.0410 21.4 192 
 BAR2 SZ ES        018 40.32                             171   -0.2210 21.4 192 
 BAR2 SZ I         018 42.64        50.7 0.27            171           21.4 192 
 BRR  HZ EP     C  018 27.43                             152    0.2910 72.5 300 
 BRR  HN ES        018 44.30                             152    0.8110 72.5 300 
 BRR  HZ I         018 45.86        34.6 0.20            151           72.5 300 
 PAM  SZ EP        018 28.37                             150    0.1410 78.8  38 
 PAM  SN ES        018 45.34                             150   -0.0810 78.8  38 
 PAM  SZ I         018 47.41        34.1 0.54            153           78.8  38 
 RUS  HZ EP        018 29.48                             144   -0.0710 98.5 176 
 RUS  HN ES        018 48.06                             144    0.2910 98.5 176 
 RUS  HZ I         018 48.67        25.6 0.20            146           98.5 176 
 PTB  HZ EP        018 32.03                             131   -0.92 9  148 260 
 PTB  HN ES        018 53.05                             131   -0.77 9  148 260 
 PTB  HZ I         018 55.69        20.8 0.24            132            148 260 
 OCA  HN ES        018 55.84                             129   -0.75 9  162 353 
 SPBC HZ EP        018 34.56                             129    0.20 9  162 220 
 SPBC HN ES        018 56.11                             129   -0.23 9  162 220 
 SPBC HZ I         018 58.95        21.0 0.24            130            162 220 
 ZAR  HZ EP   1    018 39.39                             122    0.81 6  205 293 
 ZAR  HN ES        019  4.45                             122    0.60 9  205 293 
 ZAR  HZ I         019  6.99        24.6 0.44            123            205 293 
 NOR  HZ EP        018 42.10                             118    0.43 8  234 235 
 NOR  HN ES        019  9.19                             118   -0.16 8  234 235 
 NOR  HZ I         019 14.29        12.1 0.14            119            234 235 
 SML  HZ EP   1    018 42.71                             117   -0.18 6  246 335 
 CHI  HZ EP   1    018 43.96                             117    0.42 6  247 195 
 CHI  HN ES   2    019 12.34                             117   -0.34 4  247 195 
 HEL  HZ EP   4    018 47.66                             114    1.41 0  272 256 
 PRA  HZ EP   1    018 59.15                             106   -0.28 4  390 210 
                                                                                
