 2016 11 2 0941 36.3 L   7.226 -73.960 70.5  RSN  7 0.4 1.5LRSN                1
 GAP=158        1.08       4.4     2.6  7.3  0.1122E+01  0.7285E+00  0.2442E+01E
 Epicentro: PUERTO WILCHES - SANTANDER                                         3
 ACTION:UPD 17-10-26 21:04 OP:lp   STATUS:               ID:20161102093749 L   I
 OLDACT:UPD 16-11-02 13:22 OP:dnl  STATUS:               ID:20161102093749 L   3
 2016-11-02-0938-00M.COL___334                                                 6
 STAT SP IPHASW D HRMM SECON CODA AMPLIT PERI AZIMU VELO AIN AR TRES W  DIS CAZ7
 BRR  HZ EP        941 46.67                             154   -0.2610 30.4 116 
 BRR  HN ES        941 55.47                             154    0.2310 30.4 116 
 BRR  HZ I         941 56.22        20.5 0.10            155           30.4 116 
 PTB  HZ EP        941 51.88                             121   -0.4910 93.7 216 
 PTB  HN ES        942  4.21                             121   -0.7110 93.7 216 
 PTB  HZ I         942  5.02        11.0 0.18            120           93.7 216 
 ZAR  HZ EP        941 53.08                             118   -0.3210  103 287 
 ZAR  HN ES        942  7.42                             118    0.6610  103 287 
 ZAR  HZ I         942 12.08        13.2 0.36            118            103 287 
 BAR2 EZ EP        941 54.41                             116   -0.1210  111 129 
 BAR2 EZ ES        942  8.99                             116    0.2310  111 129 
 BAR2 EZ I         942 14.69         8.6 0.62            117            111 129 
 PAM  EZ EP        941 58.17                             111    0.06 9  140  85 
 PAM  EN ES        942 14.80                             111   -0.34 9  140  85 
 PAM  EZ I         942 15.89        10.9 0.44            111            140  85 
 RUS  HZ EP        942  2.79                             106    0.36 9  177 147 
 RUS  HE ES        942 23.37                             106    0.54 9  177 147 
 RUS  HZ I         942 24.93         3.9 0.30            106            177 147 
 HEL  HZ EP   4    942  8.68                             103    2.66 0  208 237 
 HEL  HN ES        942 29.69                             103    0.46 8  208 237 
 HEL  HZ I         942 35.10         2.5 0.46            102            208 237 
                                                                                
