 2013 12 2 0327 32.6 L   6.798 -73.151148.3  RSN  9 0.4 1.7LRSN                1
 GAP=136        1.11       3.6     4.7  7.3 -0.8529E+00  0.6983E+01 -0.4796E+01E
 Epicentro: LOS SANTOS - SANTANDER                                             3
 ACTION:UPD 14-01-13 10:15 OP:ep   STATUS:               ID:20131202032732 L   I
 OLDACT:REG 13-12-02 07:22 OP:carl STATUS:               ID:20131202032000     3
 2013-12-02-0320-00M.COL___282                                                 6
 STAT SP IPHASW D HRMM SECON CODA AMPLIT PERI AZIMU VELO AIN AR TRES W  DIS CAZ7
 BAR2 SZ EP        327 52.42                             171   -0.0710 23.0 189 
 BAR2 SZ ES        328  7.59                             171   -0.4410 23.0 189 
 BAR2 SZ I         328  8.47        18.5 0.36            170           23.0 189 
 BRR  HZ EP        327 54.35                             153    0.3910 70.8 299 
 BRR  HN ES        328 11.48                             153    0.8410 70.8 299 
 BRR  HZ I         328 12.38         8.4 0.22            150           70.8 299 
 PAM  SZ EP        327 55.37                             151    0.2910 77.9  40 
 PAM  SN ES        328 12.65                             151    0.0110 77.9  40 
 PAM  SZ I         328 14.73         6.1 0.66            153           77.9  40 
 RUS  HZ EP        327 56.67                             144    0.1210  100 176 
 RUS  HN ES        328 15.18                             144   -0.0710  100 176 
 RUS  HZ I         328 15.90         2.8 0.26            146            100 176 
 PTB  HZ EP        327 59.36                             133   -0.31 9  147 259 
 PTB  HN ES        328 20.00                             133   -0.82 9  147 259 
 PTB  HZ I         328 27.54         4.4 0.30            132            147 259 
 OCA  HN ES        328 22.93                             130   -0.39 9  160 353 
 SPBC HE ES        328 23.69                             130    0.15 9  163 219 
 SPBC HE I         328 28.57         8.2 0.28            130            163 219 
 ZAR  HN ES        328 31.15                             123    0.64 9  204 292 
 SML  HZ EP        328  9.35                             118    0.03 8  244 335 
 SML  HN ES        328 37.40                             118   -0.59 8  244 335 
 SML  HZ I         328 44.83         6.2 0.26            118            244 335 
                                                                                
