 2017  9 2 0524 33.4 L   6.828 -73.087150.0  RSN  4 0.3 0.9LRSN                1
 GAP=246        0.71       8.5     9.6  7.3  0.6926E+02 -0.1708E+02 -0.1979E+02E
 Epicentro: LOS SANTOS - SANTANDER                                             3
 ACTION:UPD 17-10-05 19:08 OP:rebc STATUS:               ID:20170902052433 L   I
 OLDACT:REG 17-09-02 13:22 OP:dani STATUS:               ID:20170902051740     3
 2017-09-02-0518-00M.COL___399                                                 6
 STAT SP IPHASW D HRMM SECON CODA AMPLIT PERI AZIMU VELO AIN AR TRES W  DIS CAZ7
 BAR2 EZ EP        524 53.18                             169   -0.4610 28.2 202 
 BRR  HZ EP        524 55.37                             152    0.1210 75.6 294 
 BRR  HE ES        525 12.48                             152    0.1910 75.6 294 
 BRR  HZ I         525 15.05         2.1 0.15            147           75.6 294 
 RUS  HZ EP        524 57.86                             144    0.0910  104 180 
 RUS  HN ES        525 16.84                             144    0.0610  104 180 
 RUS  HZ I         525 20.36         0.6 0.47            140            104 180 
 ZAR  HZ EP        525  6.99                             123    0.37 8  209 291 
 ZAR  HN ES        525 32.16                             123   -0.37 8  209 291 
 ZAR  HZ I         525 37.62         1.2 0.08            121            209 291 
                                                                                
