 2012  7 2 0655 21.0 L   6.701 -73.170148.1  RSN  4 0.4 0.8LRSN                1
 GAP=239        0.92      12.6     9.4 11.6  0.7703E+02  0.1620E+02 -0.1888E+02E
 Epicentro: VILLANUEVA - SANTANDER                                             3
 ACTION:UPD 12-08-14 11:42 OP:ep   STATUS:               ID:20120702065521 L   I
 2012-07-02-0650-00M.COL___201                                                 6
 STAT SP IPHASW D HRMM SECON CODA AMPLIT PERI AZIMU VELO AIN AR TRES W  DIS CAZ7
 BAR2 SZ EP   1    655 40.48                             175    -0.2 7   12 187 
 BAR2 SZ ES   1    655 56.34                             175     0.2 7   12 187 
 BAR2 SZ I         655 58.08         2.0 0.33            164             12 187 
 RUS  HZ EP   1    655 44.86                             147     0.6 7   90 174 
 RUS  HZ I         655 45.15         0.7 0.32            143             90 174 
 RUS  HN ES   1    656  1.83                             147    -0.5 7   90 174 
 PTB  HZ EP   1    655 47.38                             133    -0.4 7  143 263 
 PTB  HE ES   1    656  8.98                             133     0.4 7  143 263 
 PTB  HZ I         656 16.13         1.1 0.19            130            143 263 
 ZAR  HN ES   1    656 19.16                             123    -0.2 6  206 295 
