 2011 12 2 0358 44.0 L   6.773 -73.076139.1  RSN  4 0.2 1.9LRSN                1
 GAP=147        0.64       3.9     5.0  5.5 -0.1566E+01 -0.1824E+01  0.7525E+00E
 Epicentro: LOS SANTOS - SANTANDER                                             3
 ACTION:UPD 12-07-13 16:13 OP:ep   STATUS:               ID:20111202035845dL   I
 2011-12-02-0350-00M.COL___170                                                 6
 STAT SP IPHASW D HRMM SECON CODA AMPLIT PERI AZIMU VELO AIN AR TRES W  DIS CAZ7
 BAR2 SZ EP        359  2.73                             170   -0.0610 23.2 210 
 BAR2 SZ ES        359 17.66                             170    0.1910 23.2 210 
 BAR2 SZ I         359 19.13        20.1 0.13                          23.2 210 
 PAM  SZ EP        359  5.62                             150    0.2910 75.1  34 
 PAM  SE ES        359 21.80                             150   -0.2010 75.1  34 
 BRR  HZ EP        359  4.55                             149   -0.3410 79.4 298 
 BRR  HN ES        359 21.36                             149    0.1410 79.4 298 
 BRR  HZ I         359 24.88        17.9 0.08                          79.4 298 
 RUS  HZ EP   1    359  7.14                             143    0.31 7 97.4 180 
 RUS  HN ES   1    359 24.33                             143   -0.33 7 97.4 180 
                                                                                
