 2010  1 2 0456 39.8 L   6.798 -73.140137.0  RSN  4 0.2 1.1LRSN                1
 GAP=187        0.37       3.8    17.6  5.3 -0.1262E+02  0.2173E+02 -0.1799E+01E
 Epicentro: LOS SANTOS - SANTANDER                                             3
 ACTION:UP  10-08-24 09:42 OP:vdl  STATUS:               ID:20100102045639 L   I
 2010-01-02-0440-00S.COL___096                                                 6
 STAT SP IPHASW D HRMM SECON CODA AMPLIT PERI AZIMU VELO AIN AR TRES W  DIS CAZ7
 BAR2 SZ IP        456 58.39                             170     0.010   23 192 
 BAR2 SZ ES   1    457 12.85                             170     0.0 7   23 192 
 GIR2 SZ EP   2    456 58.43                             166     0.0 5   32 349 
 RUS  BZ EP   2    457  2.92                             142     0.2 5  100 176 
 RUS  BN ES   1    457 20.40                             142    -0.1 7  100 176 
 RUS  BZ I         457 21.82         2.9 0.20                           100 176 
 CHI  HZ EP   3    457 16.28                             115    -0.7 2  249 195 
 CHI  HN ES   2    457 46.26                             115     0.2 4  249 195 
 CHI  HZ I         457 52.90         0.8 0.19                           249 195 
                                                                                
