 2011  7 2 0622  0.6 L   6.782 -72.991136.0  RSN  6 0.3 1.0LRSN                1
 GAP=176        0.66       7.0    13.4 11.4  0.6153E+02 -0.9660E+02 -0.4429E+02E
 Epicentro: CEPITA - SANTANDER                                                 3
 ACTION:UPD 12-07-25 13:57 OP:epov STATUS:               ID:20110702062200 L   I
 2011-07-02-0620-29S.COL___140                                                 6
 STAT SP IPHASW D HRMM SECON CODA AMPLIT PERI AZIMU VELO AIN AR TRES W  DIS CAZ7
 BAR2 SZ EP   1    622 19.19                             168   -0.01 7 29.8 225 
 BAR2 SZ ES   2    622 33.15                             168   -0.57 5 29.8 225 
 BAR2 SZ I         622 33.69         3.1 0.30                          29.8 225 
 BTL  SZ EP        622 19.66                             166    0.3310 34.1 296 
 GIR2 SZ EP   2    622 19.67                             163    0.30 5 39.8 326 
 BRR  HZ EP   1    622 21.10                             146   -0.64 7 87.4 294 
 BRR  HZ I         622 22.56         2.3 0.17                          87.4 294 
 BRR  HE ES   1    622 38.48                             146    0.25 7 87.4 294 
 RUS  HZ EP   1    622 23.17                             143   -0.08 7 98.8 186 
 RUS  HE ES   1    622 41.04                             143    0.10 7 98.8 186 
 RUS  HZ I         622 43.12         1.6 0.49                          98.8 186 
 GRA  SZ EP   2    622 24.57                             135   -0.23 5  124  10 
 GRA  SZ I         622 40.26         1.5 0.46                           124  10 
                                                                                
