 2011  5 2 0835 48.2 L   6.771 -73.107141.1  RSN  9 0.4 1.7LRSN                1
 GAP=160        0.77       4.6     7.5  7.0 -0.1698E+02  0.1299E+02 -0.3625E+01E
 Epicentro: LOS SANTOS - SANTANDER                                             3
 ACTION:UP  11-06-29 08:50 OP:tino STATUS:               ID:20110502083548 L   I
 2011-05-02-0832-17S.COL___130                                                 6
 STAT SP IPHASW D HRMM SECON CODA AMPLIT PERI AZIMU VELO SNR AR TRES W  DIS CAZ7
 BAR2 SZ EP   1    836  7.38                             171     0.1 7   21 203 
 BAR2 SZ ES   2    836 22.06                             171    -0.1 5   21 203 
 BAR2 SZ I         836 23.59        16.0 0.18                            21 203 
 BTL  SZ EP   1    836  7.62                             170     0.3 7   24 313 
 BTL  SZ ES   1    836 22.67                             170     0.5 7   24 313 
 GIR2 SZ EP   1    836  7.50                             165     0.0 7   35 344 
 RUS  HZ EP   1    836 11.24                             144     0.0 7   97 178 
 RUS  HZ I         836 12.00         4.8 0.26                            97 178 
 RUS  HN ES   2    836 28.53                             144    -0.7 5   97 178 
 BRI  SZ EP   1    836 12.07                             140     0.3 7  110  18 
 BRI  SZ ES   2    836 30.09                             140    -0.1 5  110  18 
 GRA  SZ EP   1    836 13.31                             136     0.1 7  128  15 
 GRA  SZ ES   1    836 32.49                             136    -0.2 7  128  15 
 GRA  SZ I         836 33.98         5.8 0.39                           128  15 
 OCA  SZ EP   1    836 15.77                             128    -0.8 7  164 352 
 OCA  SZ ES   2    836 38.26                             128    -0.4 5  164 352 
 OCA  SZ I         836 42.22         5.5 0.28                           164 352 
 NOR  SE ES   2    836 51.10                             117    -0.6 4  236 236 
 HEL  HZ EP   1    836 29.38                             113     0.8 6  275 257 
 HEL  HN ES   2    836 59.81                             113    -0.3 4  275 257 
 HEL  HZ I         837  6.44         3.2 0.72                           275 257 
                                                                                
