 2013  6 2 0003 55.2 L   6.865 -73.332121.5  RSN  8 0.4 1.9LRSN                1
 GAP=151        0.91       2.7     5.0  5.8  0.5199E-01  0.8228E+01 -0.2348E+01E
 Epicentro: BETULIA - SANTANDER                                                3
 ACTION:UPD 14-01-08 09:51 OP:ep   STATUS:               ID:20130602000355 L   I
 2013-06-02-0000-00M.COL___261                                                 6
 STAT SP IPHASW D HRMM SECON CODA AMPLIT PERI AZIMU VELO AIN AR TRES W  DIS CAZ7
 BAR2 SZ IP     D  0 4 12.55                             163    0.2910 34.3 151 
 BAR2 SZ ES        0 4 25.49                             163   -0.0610 34.3 151 
 BAR2 SZ I         0 4 26.72        83.1 0.20            164           34.3 151 
 BRR  HZ IP     C  0 4 12.82                             156    0.2510 49.9 303 
 BRR  HN ES        0 4 26.11                             156    0.0210 49.9 303 
 BRR  HZ I         0 4 27.86        18.2 0.12            150           49.9 303 
 RUS  HZ EP        0 4 17.44                             135   -0.1010  111 166 
 RUS  HN ES        0 4 35.03                             135    0.0910  111 166 
 RUS  HZ I         0 4 36.05         4.5 0.24            132            111 166 
 PTB  HZ IP     D  0 4 17.70                             130   -0.8610  129 254 
 PTB  HN ES   2    0 4 36.16                             130   -0.60 5  129 254 
 PTB  HZ I         0 4 36.21         6.0 0.18            126            129 254 
 OCA  HZ EP        0 4 20.66                             125   -0.26 9  152   1 
 OCA  HN ES        0 4 40.68                             125   -0.30 9  152   1 
 OCA  HZ I         0 4 45.49        13.8 0.24            118            152   1 
 NOR  HZ EP        0 4 28.37                             114    0.03 8  223 230 
 NOR  HN ES        0 4 54.68                             114    0.51 8  223 230 
 NOR  HZ I         0 5  2.14         3.0 0.16            110            223 230 
 SML  HZ EP        0 4 29.11                             113    0.14 8  229 339 
 SML  HN ES        0 4 55.96                             113    0.67 8  229 339 
 SML  HZ I         0 5  0.18        15.3 0.10            108            229 339 
 COD  HZ EP   4    0 4 41.54                             105   -0.21 0  340 358 
 COD  HN ES   4    0 5 19.95                             105    1.91 0  340 358 
 COD  HZ I         0 5 48.22         3.8 0.52            100            340 358 
                                                                                
