 2010  1 2 0818 59.9 L   6.767 -72.982148.9  RSN  6 0.2 1.6LRSN                1
 GAP=199        0.36       2.6     5.2  4.5 -0.1749E+01  0.7082E+01 -0.3098E+01E
 Epicentro: CEPITA - SANTANDER                                                 3
 ACTION:UP  10-08-24 09:42 OP:vdl  STATUS:               ID:20100102081900 L   I
 2010-01-02-0817-49S.COL___097                                                 6
 STAT SP IPHASW D HRMM SECON CODA AMPLIT PERI AZIMU VELO AIN AR TRES W  DIS CAZ7
 BAR2 SZ IP        819 19.97                             168    -0.110   30 229 
 BAR2 SZ ES   2    819 35.72                             168     0.0 5   30 229 
 GIR2 SZ EP   2    819 20.11                             164    -0.1 5   42 326 
 RUS  BZ EP   1    819 23.88                             145     0.2 7   97 187 
 RUS  BN ES   1    819 42.21                             145    -0.1 7   97 187 
 RUS  BZ I         819 43.98         5.8 0.29                            97 187 
 OCA  SZ EP   1    819 28.96                             129    -0.1 7  167 347 
 OCA  SZ ES   3    819 52.75                             129     0.9 2  167 347 
 CHI  HZ EP   1    819 38.14                             117     0.2 6  251 199 
 CHI  HE ES   2    820  7.72                             117     0.1 4  251 199 
 CHI  HZ I         820 13.12         2.4 0.50                           251 199 
 HEL  HZ EP   2    819 41.83                             114    -0.3 4  289 257 
 HEL  HN ES   2    820 15.04                             114     0.0 4  289 257 
 HEL  HZ I         820 20.47         3.0 0.30                           289 257 
                                                                                
