 2016  9 2 0901  3.0 L   6.821 -73.141149.2  RSN 22 0.4 2.4LRSN                1
 GAP= 71        0.96       2.6     2.9  4.6 -0.1341E+01  0.3456E+01 -0.7877E+00E
 Epicentro: LOS SANTOS - SANTANDER                                             3
 ACTION:UPD 17-08-17 21:05 OP:lp   STATUS:               ID:20160902090103 L   I
 OLDACT:UP  16-09-02 18:22 OP:drio STATUS:               ID:20160902085737     3
 OLDACT:REG 16-09-02 13:27 OP:drio STATUS:               ID:20160902085737     3
 2016-09-02-0858-00M.COL___346                                                 6
 STAT SP IPHASW D HRMM SECON CODA AMPLIT PERI AZIMU VELO AIN AR TRES W  DIS CAZ7
 BAR2 EZ EP        9 1 23.19                             170    0.0910 25.7 190 
 BAR2 EZ ES        9 1 38.26                             170   -0.5210 25.7 190 
 BAR2 EZ I         9 1 39.58       106.3 0.28            169           25.7 190 
 BRR  HZ IP     C  9 1 24.84                             153    0.3410 70.6 297 
 BRR  HN ES        9 1 41.99                             153    0.7310 70.6 297 
 BRR  HZ I         9 1 45.95        47.1 0.30            149           70.6 297 
 PAM  EZ EP        9 1 25.87                             152    0.4010 75.3  40 
 PAM  EE ES        9 1 43.43                             152    0.4410 75.3  40 
 PAM  EZ I         9 1 45.28        27.9 0.52            155           75.3  40 
 RUS  HZ EP        9 1 26.96                             144   -0.3010  103 176 
 RUS  HN ES        9 1 45.87                             144   -0.3110  103 176 
 RUS  HZ I         9 1 47.08        29.5 0.36            146            103 176 
 PTB  HZ EP        9 1 29.92                             133   -0.43 9  149 258 
 PTB  HE ES   4    9 1 50.50                             133   -1.17 0  149 258 
 PTB  HZ I         9 1 57.51        18.7 0.36            131            149 258 
 TAM  HZ EP        9 1 31.30                             131    0.32 9  155 106 
 TAM  HN ES        9 1 52.69                             131   -0.10 9  155 106 
 OCA  HZ EP        9 1 31.13                             131   -0.25 9  158 353 
 OCA  HN ES   4    9 1 54.13                             131    0.62 0  158 353 
 OCA  HZ I         9 2  3.00        43.5 0.26            131            158 353 
 SPBC HZ EP        9 1 32.06                             130    0.09 9  165 219 
 SPBC HE ES        9 1 54.20                             130   -0.37 9  165 219 
 SPBC HZ I         9 1 58.91        49.0 0.22            129            165 219 
 ZAR  HZ EP        9 1 35.77                             123    0.13 9  204 291 
 ZAR  HN ES        9 2  0.93                             123   -0.16 9  204 291 
 ZAR  HZ I         9 2  6.47        27.2 0.40            122            204 291 
 NOR  HZ EP        9 1 39.25                             119    0.12 8  236 234 
 NOR  HN ES        9 2  6.74                             119   -0.56 8  236 234 
 NOR  HZ I         9 2 14.86        16.6 0.16            119            236 234 
 CHI  HZ EP        9 1 41.33                             118    0.17 8  251 195 
 CHI  HE ES        9 2 10.60                             118   -0.31 8  251 195 
 CHI  HZ I         9 2 14.06        13.7 0.66            118            251 195 
 ROSC BZ EP   4    9 1 43.20                             117    1.64 0  255 211 
 ROSC BE ES        9 2 11.77                             117    0.14 8  255 211 
 ROSC BZ I         9 2 17.60        32.7 0.45            118            255 211 
 HEL  HZ EP   4    9 1 45.31                             115    1.79 0  273 255 
 HEL  HE ES        9 2 15.44                             115    0.33 8  273 255 
 HEL  HZ I         9 2 21.99         8.2 0.52            115            273 255 
 URE  HZ EP   4    9 1 42.46                             114   -1.74 0  283 291 
 URE  HE ES   4    9 2 13.62                             114   -2.72 0  283 291 
 URE  HZ I         9 2 24.48        14.0 0.24            114            283 291 
 GUY2CHZ EP        9 1 47.73                             113    0.76 7  303 234 
 GUY2CHE ES   4    9 2 24.53                             113    3.26 0  303 234 
 GUY2CHZ I         9 2 29.29        11.4 0.34                           303 234 
 PTGC HZ EP   4    9 1 46.07                             112   -1.18 0  311 159 
 PTGC HE ES   4    9 2 19.28                             112   -2.47 0  311 159 
 PTGC HZ I         9 2 26.69         5.4 0.32            114            311 159 
 LL6C HZ EP        9 1 47.91                             111   -0.69 7  323 357 
 LL6C HZ ES        9 2 23.60                             111   -0.56 7  323 357 
 LL6C HZ I         9 2 29.07         6.7 0.38            112            323 357 
 ELA  HZ EP   4    9 1 52.21                             111    1.99 0  331 229 
 ELA  HE ES   4    9 2 29.86                             111    2.81 0  331 229 
 ELA  HZ I         9 2 39.64         8.5 0.44            111            331 229 
 CBOC HZ EP        9 1 50.82                             110    0.62 7  335 252 
 CBOC HN ES   4    9 2 25.49                             110   -1.53 0  335 252 
 ARGC HZ EP   4    9 1 54.00                             109    1.43 0  357 340 
 ARGC HN ES   4    9 2 32.79                             109    1.57 0  357 340 
 SJC  HZ EP   4    9 1 55.61                             106   -2.88 0  408 327 
 SJC  HN ES   4    9 2 37.96                             106   -3.81 0  408 327 
 SJC  HZ I         9 2 46.18         5.4 0.38            107            408 327 
 CRJC HZ EP   4    9 2  3.43                             104   -1.90 0  465   4 
 CRJC HE ES   4    9 2 52.21                             104   -1.73 0  465   4 
 CRJC HZ I         9 2 58.54        10.4 0.52            105            465   4 
 SMAR HZ EP        9 2  7.72                             103   -1.00 4  495 346 
                                                                                
