 2015  1 2 0333 36.1 L   6.849 -73.119144.5  RSN  8 0.6 1.5LRSN                1
 GAP=244        1.46       6.9     7.4 10.5  0.1888E+02  0.1141E+02  0.1103E+02E
 Epicentro: LOS SANTOS - SANTANDER                                             3
 ACTION:UPD 15-03-02 15:36 OP:nd   STATUS:               ID:20150102033336 L   I
 OLDACT:DUP 15-01-02 15:55 OP:stll STATUS:               ID:20150102032747d    3
 2015-01-02-0327-46M.COL___277                                                 6
 STAT SP IPHASW D HRMM SECON CODA AMPLIT PERI AZIMU VELO AIN AR TRES W  DIS CAZ7
 BAR2 EZ EP        333 55.76                             168    0.0510 29.2 194 
 BAR2 EZ I         334 12.94         6.4 0.74            170           29.2 194 
 BRR  HZ EP        333 57.49                             152    0.3710 71.4 294 
 BRR  HN ES        334 13.99                             152    0.4710 71.4 294 
 BRR  HZ I         334 19.11         5.7 0.16            155           71.4 294 
 RUS  HZ EP        334  0.23                             142    0.1210  106 178 
 RUS  HN ES        334 18.82                             142   -0.0210  106 178 
 RUS  HZ I         334 20.58         2.6 0.34            144            106 178 
 PTB  HZ EP        334  2.86                             131   -0.46 9  152 257 
 PTB  HN ES        334 23.30                             131   -1.27 9  152 257 
 PTB  HZ I         334 25.34         4.7 0.16            134            152 257 
 ZAR  HZ EP        334  8.31                             122   -0.22 9  205 290 
 ZAR  HN ES        334 33.59                             122   -0.25 9  205 290 
 ZAR  HZ I         334 39.30         6.0 0.32            124            205 290 
 NOR  HZ EP        334 11.98                             118   -0.37 8  240 234 
 NOR  HE ES        334 40.26                             118   -0.37 8  240 234 
 NOR  HZ I         334 46.89         2.6 0.16            120            240 234 
 CHI  HZ EP        334 14.49                             116    0.11 8  255 195 
 CHI  HN ES        334 44.41                             116    0.17 8  255 195 
 CHI  HZ I         334 51.92         1.3 0.36            118            255 195 
 HEL  HZ EP        334 16.76                             114    0.05 7  276 255 
 HEL  HN ES        334 50.36                             114    1.97 7  276 255 
 HEL  HZ I         334 55.08         2.3 0.56            116            276 255 
                                                                                
