 2011  5 2 0254 35.7 L   7.350 -73.560166.6  RSN  4 0.2 1.7LRSN                1
 GAP=163        0.52       9.9    10.7  7.9 -0.7260E+02  0.8646E+00  0.7321E+01E
 Epicentro: SABANA DE TORRES - SANTANDER                                       3
 ACTION:UP  11-06-29 08:50 OP:tino STATUS:               ID:20110502025435 L   I
 2011-05-02-0252-15S.COL___130                                                 6
 STAT SP IPHASW D HRMM SECON CODA AMPLIT PERI AZIMU VELO SNR AR TRES W  DIS CAZ7
 BRR  HZ EP   1    254 57.67                             169     0.0 7   32 212 
 BRR  HN ES   2    255 14.73                             169     0.0 5   32 212 
 BRR  HZ I         255 18.81         8.0 0.15                            32 212 
 BRI  SZ EP   2    255  0.06                             149    -0.6 5   93  64 
 BRI  SZ I         255 22.14         6.6 0.36                            93  64 
 GRA  SZ I         255 22.26        10.5 0.31                           102  55 
 OCA  SZ ES   2    255 20.98                             147     0.0 5  102  15 
 OCA  SZ I         255 30.11         5.3 0.18                           102  15 
 GRA  SZ EP   1    255  1.47                             147     0.3 7  102  55 
 GRA  SZ ES   1    255 21.04                             147     0.0 7  102  55 
 OCA  SZ EP   2    255  1.02                             147    -0.1 5  102  15 
                                                                                
