 2014 11 2 0117 11.6 L   6.762 -73.156147.9  RSN  5 0.3 1.5LRSN                1
 GAP=233        0.83       5.0     5.3  6.1  0.5717E+01  0.4017E+01  0.2667E+01E
 Epicentro: LOS SANTOS - SANTANDER                                             3
 ACTION:UPD 14-12-19 15:38 OP:nd   STATUS:               ID:20141102011711 L   I
 OLDACT:REG 14-11-02 13:05 OP:spq  STATUS:               ID:20141102010746     3
 2014-11-02-0107-46M.COL___274                                                 6
 STAT SP IPHASW D HRMM SECON CODA AMPLIT PERI AZIMU VELO AIN AR TRES W  DIS CAZ7
 BAR2 SZ EP        117 31.15                             172   -0.2710 19.0 189 
 BAR2 SZ ES        117 46.44                             172   -0.4310 19.0 189 
 BAR2 SZ I         117 47.75         7.0 0.36            165           19.0 189 
 BRR  HZ EP        117 33.06                             152    0.0110 72.3 302 
 BRR  HN ES        117 50.27                             152    0.5010 72.3 302 
 RUS  HZ EP        117 35.27                             145   -0.0210 96.5 175 
 RUS  HN ES        117 54.09                             145    0.3410 96.5 175 
 RUS  HZ I         117 54.59         3.0 0.60            143           96.5 175 
 PTB  HZ EP        117 38.89                             133    0.30 9  146 260 
 PTB  HN ES        117 59.13                             133   -0.49 9  146 260 
 PTB  HZ I         118  6.42         5.1 0.50            130            146 260 
 SPBC HZ EP        117 39.80                             130   -0.11 9  159 220 
 SPBC HN ES        118  2.12                             130    0.15 9  159 220 
 SPBC HZ I         118  7.66         4.7 0.42            128            159 220 
                                                                                
