 2010  5 2 0555 17.4 L   6.709 -72.888101.4  RSN  4 0.6 1.3LRSN                1
 GAP=243        0.91      21.6    16.8 25.5  0.1873E+03 -0.2685E+03 -0.3667E+03E
 Epicentro: MOLAGAVITA - SANTANDER                                             3
 ACTION:UP  10-08-24 10:02 OP:vdl  STATUS:               ID:20100502055517 L   I
 2010-05-02-0551-40S.COL___105                                                 6
 STAT SP IPHASW D HRMM SECON CODA AMPLIT PERI AZIMU VELO SNR AR TRES W  DIS CAZ7
 BAR2 SZ EP   2    555 33.12                             159     1.0 5   35 248 
 BAR2 SZ ES   2    555 43.07                             159    -0.6 5   35 248 
 GIR2 SZ EP   3    555 33.06                             150     0.1 2   53 320 
 BRR  HZ EP   2    555 35.52                             131    -1.0 5  101 296 
 BRR  HN ES   1    555 51.68                             131     0.3 7  101 296 
 BRR  HZ I         555 56.46         4.6 0.13                           101 296 
 BRI  SZ EP   2    555 37.69                             128    -0.1 5  112   5 
                                                                                
