 2015  5 2 0034 10.5 L   7.423 -73.179127.5  RSN  4 0.6 1.1LRSN                1
 GAP=111        1.58       8.0    10.8 15.2 -0.3469E+01  0.5471E+01  0.1516E+02E
 Epicentro: EL PLAYON - SANTANDER                                              3
 ACTION:UPD 15-09-10 22:00 OP:cam  STATUS:               ID:20150502003410 L   I
 OLDACT:REG 15-05-02 12:56 OP:stll STATUS:               ID:20150502002750     3
 2015-05-02-0027-50M.COL___277                                                 6
 STAT SP IPHASW D HRMM SECON CODA AMPLIT PERI AZIMU VELO AIN AR TRES W  DIS CAZ7
 PAM  SZ EP        034 29.89                             156    0.4210 53.7 100 
 PAM  SN ES        034 44.72                             156    0.4910 53.7 100 
 PAM  SZ I         034 46.26         3.2 0.14            155           53.7 100 
 BRR  HZ EP        034 29.67                             150    0.1010 68.4 239 
 BRR  HE ES        034 45.21                             150    0.7910 68.4 239 
 OCA  HN ES        034 46.95                             142   -0.6710 91.5 350 
 BAR2 EZ EP        034 31.45                             142   -0.0710 91.9 180 
 BAR2 EZ ES        034 46.82                             142   -1.0610 91.9 180 
                                                                                
