 2013 10 2 0127 29.5 L   6.778 -73.178141.1  RSN  4 0.3 1.5LRSN                1
 GAP=232        0.74       4.5     5.3  6.8  0.7572E+01 -0.1536E+01  0.1834E+01E
 Epicentro: LOS SANTOS - SANTANDER                                             3
 ACTION:UPD 13-11-25 09:18 OP:ep   STATUS:               ID:20131002012729 L   I
 OLDACT:UP  13-10-02 07:22 OP:nd   STATUS:               ID:20131002011959     3
 OLDACT:REG 13-10-02 05:53 OP:nd   STATUS:               ID:20131002011959     3
 2013-10-02-0119-59M.COL___272                                                 6
 STAT SP IPHASW D HRMM SECON CODA AMPLIT PERI AZIMU VELO AIN AR TRES W  DIS CAZ7
 BRR  HZ EP        127 50.40                             152    0.3610 69.3 302 
 BRR  HZ I         128  4.17        13.4 0.28            149           69.3 302 
 BRR  HN ES        128  6.12                             152    0.0610 69.3 302 
 RUS  HZ EP        127 52.44                             143   -0.2110 98.5 174 
 RUS  HN ES        128 10.55                             143   -0.1410 98.5 174 
 RUS  HZ I         128 13.10         2.3 0.40            144           98.5 174 
 PTB  HZ EP        127 55.35                             132   -0.38 9  144 260 
 PTB  HN ES        128 15.87                             132   -0.31 9  144 260 
 PTB  HZ I         128 19.38         3.6 0.34            130            144 260 
 SPBC HZ EP        127 57.50                             129    0.25 9  159 219 
 SPBC HN ES        128 19.28                             129    0.39 9  159 219 
 SPBC HZ I         128 25.47         4.4 0.34            128            159 219 
                                                                                
