 2014  1 2 0531 13.5 L   6.821 -73.177138.4  RSN  6 0.4 1.1LRSN                1
 GAP=132        0.90       3.9     5.2  8.6 -0.5614E+01  0.1661E+02 -0.4589E+01E
 Epicentro: LOS SANTOS - SANTANDER                                             3
 ACTION:UPD 14-03-13 09:50 OP:ep   STATUS:               ID:20140102053113 L   I
 OLDACT:REG 14-01-02 08:28 OP:stll STATUS:               ID:20140102052818     3
 2014-01-02-0528-18M.COL___237                                                 6
 STAT SP IPHASW D HRMM SECON CODA AMPLIT PERI AZIMU VELO AIN AR TRES W  DIS CAZ7
 BAR2 SZ EP        531 32.58                             169    0.3310 25.2 181 
 BAR2 SZ I         531 48.47         4.9 0.40            170           25.2 181 
 PAM  SZ EP        531 35.25                             149    0.3110 77.9  43 
 PAM  SN ES        531 51.29                             149   -0.4010 77.9  43 
 PAM  SZ I         531 54.17         4.4 0.46            149           77.9  43 
 RUS  HZ EP        531 37.06                             141    0.3710  103 174 
 RUS  HN ES        531 54.80                             141   -0.0110  103 174 
 RUS  HZ I         531 56.61         1.2 0.30            142            103 174 
 PTB  HZ EP        531 39.55                             131   -0.02 9  145 258 
 PTB  HN ES        532  0.13                             131    0.20 9  145 258 
 PTB  HZ I         532  3.30         1.2 0.14            131            145 258 
 SML  HZ EP        531 48.86                             116   -0.45 8  240 336 
 CHI  HN ES        532 19.36                             115   -0.76 8  250 194 
                                                                                
