 2016  6 2 0816 11.1 L   6.801 -73.117148.8  RSN  6 0.3 1.9LRSN                1
 GAP=186        0.76       2.9     4.7  5.2 -0.7202E+00  0.3121E+00 -0.1377E+01E
 Epicentro: LOS SANTOS - SANTANDER                                             3
 ACTION:UPD 16-07-21 22:14 OP:rebc STATUS:               ID:20160602081611 L   I
 OLDACT:DUP 16-06-02 17:52 OP:cara STATUS:               ID:20160602080744d    3
 OLDACT:UP  16-06-02 17:50 OP:cara STATUS:               ID:20160602080743     3
 OLDACT:REG 16-06-02 15:01 OP:edw  STATUS:               ID:20160602080743     3
 2016-06-02-0807-43M.COL___301                                                 6
 STAT SP IPHASW D HRMM SECON CODA AMPLIT PERI AZIMU VELO AIN AR TRES W  DIS CAZ7
 BAR2 EZ EP        816 31.13                             170    0.0310 24.2 198 
 BAR2 EZ ES        816 46.47                             170   -0.2310 24.2 198 
 BAR2 EZ I         816 47.43        20.0 0.18                          24.2 198 
 BRR  HZ EP        816 33.17                             152    0.4510 74.0 297 
 BRR  HN ES        816 50.07                             152    0.4710 74.0 297 
 BRR  HZ I         816 53.61         8.3 0.14                          74.0 297 
 RUS  HZ EP        816 35.06                             144   -0.0710  100 178 
 RUS  HN ES        816 53.86                             144   -0.0210  100 178 
 RUS  HZ I         816 54.85         7.0 0.32                           100 178 
 PTB  HZ EP        816 38.19                             132   -0.40 9  151 259 
 PTB  HE ES        816 59.70                             132   -0.34 9  151 259 
 PTB  HZ I         817  2.09         7.4 0.14                           151 259 
 OCA  HZ EP        816 39.86                             130    0.19 9  161 352 
 OCA  HE ES        817  1.56                             130   -0.40 9  161 352 
 OCA  HZ I         817  8.74        15.0 0.30                           161 352 
 SPBC HZ EP        816 40.07                             129    0.05 9  165 220 
 SPBC HN ES        817  2.77                             129    0.19 9  165 220 
 SPBC HZ I         817  4.73        11.1 0.24                           165 220 
                                                                                
