 2016  8 2 0433 19.2 L   6.826 -73.098148.1  RSN 16 0.4 2.4LRSN                1
 GAP=122        0.92       3.3     3.0  4.3 -0.3797E+01  0.2661E+01  0.2117E+00E
 Epicentro: LOS SANTOS - SANTANDER                                             3
 ACTION:UPD 16-10-29 15:31 OP:rebc STATUS:               ID:20160802042731 L   I
 OLDACT:UP  16-08-02 16:42 OP:edw  STATUS:               ID:20160802042731 L   3
 OLDACT:UPD 16-08-02 15:21 OP:CARA STATUS:               ID:20160802042731 L   3
 2016-08-02-0428-00M.COL___353                                                 6
 STAT SP IPHASW D HRMM SECON CODA AMPLIT PERI AZIMU VELO AIN AR TRES W  DIS CAZ7
 BAR2 EZ EP        433 39.07                             169   -0.1010 27.5 200 
 BAR2 EZ ES        433 54.29                             169   -0.4810 27.5 200 
 PAM  EZ EP        433 41.83                             153    0.5110 71.8  38 
 PAM  EN ES        433 59.23                             153    0.6410 71.8  38 
 PAM  EZ I         434  1.19        60.2 0.52                          71.8  38 
 BRR  HZ IP     C  433 40.82                             152    0.0510 74.6 295 
 BRR  HN ES        433 57.95                             152    0.3410 74.6 295 
 BRR  HZ I         433 58.49        47.1 0.12                          74.6 295 
 RUS  HZ EP        433 43.51                             144    0.1710  103 179 
 RUS  HN ES        434  2.10                             144   -0.0910  103 179 
 RUS  HZ I         434  2.68        18.7 0.20                           103 179 
 SPBC HZ EP        433 47.96                             129   -0.41 9  169 220 
 SPBC HN ES        434 10.55                             129   -0.61 9  169 220 
 SPBC HZ I         434 14.86        51.9 0.24                           169 220 
 ZAR  HZ EP        433 52.15                             122   -0.01 8  208 291 
 ZAR  HE ES        434 17.80                             122   -0.10 8  208 291 
 ZAR  HZ I         434 23.81        32.0 0.38                           208 291 
 NOR  HZ EP        433 55.67                             118   -0.00 8  241 235 
 NOR  HN ES        434 24.07                             118   -0.08 8  241 235 
 NOR  HZ I         434 28.52        12.7 0.14                           241 235 
 HEL  HZ EP        434  0.05                             115   -0.10 7  278 256 
 HEL  HN ES        434 31.76                             115   -0.35 7  278 256 
 HEL  HZ I         434 38.03        11.5 0.40                           278 256 
 SOCV BZ EP        434  1.81                             113    0.16 7  295  57 
 SOCV BN ES        434 33.77                             113   -1.01 7  295  57 
 GUY2CHZ EP   2    434  3.82                             112    0.26 4  307 235 
 GUY2CHN ES   2    434 38.59                             112    0.41 4  307 235 
 GUY2CHZ I         434 45.29        11.8 0.34                           307 235 
 PTGC HZ EP   4    433 57.98                             112   -5.24 0  309 160 
 PTGC HN ES   4    434 35.38                             112   -2.20 0  309 160 
 LL6C HZ EP   4    434  4.02                             111   -0.65 0  322 357 
 LL6C HE ES   4    434 41.41                             111    1.24 0  322 357 
 ELA  HZ EP        434  7.49                             110    0.70 7  335 230 
 ELA  HN ES        434 44.37                             110    0.44 7  335 230 
 ELA  HZ I         434 51.77        10.8 0.44                           335 230 
 CBOC HZ EP        434  7.56                             110    0.70 7  340 252 
 CBOC HN ES        434 43.36                             110   -0.69 7  340 252 
 CBOC HZ I         434 47.17         3.3 0.18                           340 252 
 PRA  HZ EP        434 13.74                             107    0.37 6  397 210 
 PRA  HN ES   4    434 54.66                             107   -0.98 0  397 210 
 PRA  HZ I         435  1.29        13.0 0.28                           397 210 
 SJC  HZ EP   9    434 13.28                             106   -1.59 0  410 326 
 SJC  HN ES        434 57.27                             110    0.54 6  410 326 
 SJC  HZ I         435  2.15         6.5 0.40                           410 326 
 CRJC HZ EP   9    434 19.42                             104   -1.94 0  464   3 
 CRJC HN ES        435  8.15                             107    0.22 5  464   3 
 CRJC HZ I         435 14.14        10.7 0.38                           464   3 
 SMAR HZ EP        434 24.42                             103   -0.50 4  496 346 
 SMAR HE ES   4    435 13.85                             103   -2.36 0  496 346 
                                                                                
