 2017  2 2 0742 16.6 L   6.783 -73.133141.0  RSN  4 0.3 1.0LRSN                1
 GAP=139        0.87       4.5     6.7  7.1 -0.4865E+00 -0.3134E+01  0.1253E+01E
 Epicentro: LOS SANTOS - SANTANDER                                             3
 ACTION:UPD 17-05-24 15:31 OP:jn   STATUS:               ID:20170202074216 L   I
 OLDACT:REG 17-02-02 13:19 OP:ar   STATUS:               ID:20170202073740     3
 2017-02-02-0738-00M.COL___319                                                 6
 STAT SP IPHASW D HRMM SECON CODA AMPLIT PERI AZIMU VELO AIN AR TRES W  DIS CAZ7
 BAR2 EZ EP        742 35.38                             171   -0.2410 21.8 195 
 BAR2 EZ ES        742 49.81                             171   -0.6510 21.8 195 
 BAR2 EZ I         742 51.71         3.8 0.32            172           21.8 195 
 BRR  HZ EP        742 37.29                             151   -0.0710 73.4 299 
 BRR  HN ES        742 53.86                             151    0.3010 73.4 299 
 BRR  HZ I         742 55.72         1.9 0.18            152           73.4 299 
 PAM  EZ EP        742 38.25                             150   -0.0910 78.0  38 
 PAM  EN ES        742 55.57                             150    0.2610 78.0  38 
 PAM  EZ I         742 57.52         2.2 0.72            151           78.0  38 
 RUS  HZ EP        742 39.81                             143    0.0810 98.6 177 
 RUS  HN ES        742 58.19                             143    0.4110 98.6 177 
 RUS  HZ I         742 58.75         0.8 0.28            146           98.6 177 
                                                                                
