 2012  2 2 0928 43.8 L   6.735 -73.176150.0  RSN  5 0.3 1.4LRSN                1
 GAP=177        0.57       5.1     5.2  5.6  0.1016E+02 -0.1584E+00 -0.2337E+01E
 ACTION:UP  12-03-07 16:26 OP:epov STATUS:               ID:20120202092843 L   I
 2012-02-02-0920-00M.COL___187                                                 6
 STAT SP IPHASW D HRMM SECON CODA AMPLIT PERI AZIMU VELO SNR AR TRES W  DIS CAZ7
 BAR2 SZ EP   1    929  3.63                             174   -0.20 7 15.8 183 
 BAR2 SZ ES   1    929 19.20                             174   -0.24 7 15.8 183 
 BAR2 SZ I         929 19.85         5.5 0.24                          15.8 183 
 GIR2 SZ EP   1    929  3.86                             165   -0.33 7 38.1 357 
 BRR  HZ EP        929  5.63                             153    0.1510 72.2 305 
 BRR  HE ES        929 22.60                             153    0.2310 72.2 305 
 BRR  HZ I         929 23.66         7.9 0.15                          72.2 305 
 RUS  HZ EP   2    929  8.18                             147    0.67 5 93.7 174 
 RUS  HN ES   1    929 26.13                             147    0.14 7 93.7 174 
 RUS  HZ I         929 27.65         2.2 0.32                          93.7 174 
 PTB  HZ EP   1    929 10.52                             134   -0.21 7  143 261 
 PTB  HN ES   1    929 31.55                             134   -0.18 7  143 261 
                                                                                
