 2015  1 2 0404 54.2 L   6.759 -73.169140.3  RSN  5 0.4 1.4LRSN                1
 GAP=232        1.10       6.3     6.8  8.1  0.1001E+02  0.8473E+01  0.5803E+01E
 Epicentro: LOS SANTOS - SANTANDER                                             3
 ACTION:UPD 15-03-02 15:36 OP:nd   STATUS:               ID:20150102040454 L   I
 OLDACT:DUP 15-01-02 16:26 OP:stll STATUS:               ID:20150102035745d    3
 2015-01-02-0357-44M.COL___277                                                 6
 STAT SP IPHASW D HRMM SECON CODA AMPLIT PERI AZIMU VELO AIN AR TRES W  DIS CAZ7
 BAR2 EZ EP        4 5 13.03                             172   -0.1010 18.5 184 
 BAR2 EZ ES        4 5 27.16                             172   -0.7010 18.5 184 
 BAR2 EZ I         4 5 29.23         7.6 0.28            171           18.5 184 
 BRR  HZ EP        4 5 14.78                             151   -0.0310 71.2 303 
 BRR  HZ I         4 5 14.95         7.9 0.12            151           71.2 303 
 BRR  HN ES        4 5 31.65                             151    0.8110 71.2 303 
 RUS  HZ EP        4 5 17.31                             144    0.1610 96.3 174 
 RUS  HZ I         4 5 18.06         2.0 0.20            144           96.3 174 
 RUS  HN ES        4 5 35.23                             144    0.2110 96.3 174 
 PTB  HZ EP        4 5 20.00                             131   -0.46 9  144 260 
 PTB  HE ES        4 5 40.46                             131   -0.45 9  144 260 
 PTB  HZ I         4 5 43.52         2.1 0.16            131            144 260 
 SPBC HZ EP        4 5 22.11                             129    0.27 9  158 219 
 SPBC HN ES        4 5 43.61                             129    0.25 9  158 219 
 SPBC HZ I         4 5 45.26         5.4 0.26            128            158 219 
                                                                                
