 2012  3 2 0742 32.8 L   6.652 -73.181136.1  RSN  4 0.1 1.3LRSN                1
 GAP=231        0.30       4.3     3.1  3.3  0.2212E+01  0.3452E+01 -0.1518E+01E
 ACTION:UP  12-03-31 23:16 OP:EP   STATUS:               ID:20120302074232 L   I
 2012-03-02-0740-00M.COL___190                                                 6
 STAT SP IPHASW D HRMM SECON CODA AMPLIT PERI AZIMU VELO SNR AR TRES W  DIS CAZ7
 BAR2 SZ ES   1    743  5.17                             177    -0.1 7    7 182 
 BAR2 SZ I         743  7.68         4.3 0.15                             7 182 
 BRR  HZ EP        742 53.26                             149     0.010   77 311 
 BRR  HE ES   1    743  9.33                             149     0.1 7   77 311 
 BRR  HZ I         743 14.00         4.8 0.10                            77 311 
 PTB  HZ EP   1    742 58.47                             131     0.1 7  142 265 
 PTB  HE ES   1    743 18.38                             131     0.0 7  142 265 
 PTB  HZ I         743 21.46                                            142 265 
 ZAR  HZ EP   1    743  4.90                             120     0.0 6  207 297 
 ZAR  HN ES   1    743 29.96                             120    -0.1 6  207 297 
 ZAR  HZ I         743 35.32         1.8 0.37                           207 297 
                                                                                
