 2011  6 2 0336  1.0 L   6.776 -73.075145.4  RSN  9 0.2 2.1LRSN                1
 GAP=164        0.49       2.3     4.4  3.7 -0.3016E+01  0.6360E+00 -0.1245E+01E
 Epicentro: LOS SANTOS - SANTANDER                                             3
 ACTION:UP  11-07-14 19:02 OP:ep   STATUS:               ID:20110602033601 L   I
 2011-06-02-0334-11S.COL___130                                                 6
 STAT SP IPHASW D HRMM SECON CODA AMPLIT PERI AZIMU VELO SNR AR TRES W  DIS CAZ7
 BAR2 SZ EP   1    336 20.54                             170     0.0 7   24 210 
 BAR2 SZ ES        336 35.69                             170    -0.210   24 210 
 BAR2 SZ I         336 38.49        39.6 0.40                            24 210 
 BRR  HZ EP   1    336 22.39                             150    -0.2 7   79 297 
 BRR  HZ I         336 22.74        35.2 0.13                            79 297 
 BRR  HE ES   1    336 39.44                             150     0.0 7   79 297 
 RUS  HZ EP   1    336 24.52                             144     0.0 7   98 181 
 RUS  HE ES   1    336 43.16                             144     0.3 7   98 181 
 RUS  HZ I         336 43.99        10.7 0.28                            98 181 
 BRI  SZ EP   1    336 25.01                             141     0.2 7  108  16 
 BRI  SZ I         336 25.38        11.7 0.18                           108  16 
 BRI  SZ ES   2    336 43.51                             141     0.1 5  108  16 
 GRA  SZ IP        336 26.29                             137     0.010  126  14 
 GRA  SZ I         336 27.41        23.8 0.33                           126  14 
 GRA  SZ ES   1    336 45.65                             137    -0.3 7  126  14 
 OCA  SZ EP   1    336 29.39                             129    -0.2 7  164 351 
 OCA  SZ ES   1    336 52.47                             129     0.5 7  164 351 
 OCA  SZ I         336 55.28        18.3 0.24                           164 351 
 NOR  SZ EP   2    336 37.17                             118    -0.1 4  240 236 
 NOR  SN ES   2    337  5.66                             118     0.1 4  240 236 
 HEL  HZ EP   2    336 41.87                             114    -0.1 4  279 257 
 HEL  HZ I         337 19.52         6.8 0.27                           279 257 
 PRA  HZ EP   2    336 54.78                             106     0.1 3  394 211 
                                                                                
