 2011  1 2 0027 25.8 L   6.799 -73.131143.0  RSN 16 0.5 2.6LRSN                1
 GAP=137        1.18       3.7     6.0  8.5 -0.4735E+01  0.1612E+02  0.3222E+01E
 Epicentro: LOS SANTOS - SANTANDER                                             3
 ACTION:UP  11-02-08 08:37 OP:pat  STATUS:               ID:20110102002725 L   I
 2011-01-02-0024-27S.COL___134                                                 6
 STAT SP IPHASW D HRMM SECON CODA AMPLIT PERI AZIMU VELO SNR AR TRES W  DIS CAZ7
 BTL  SZ IP        027 45.64                             172     0.610   20 311 
 BAR2 SZ IP        027 45.04                             170    -0.110   24 194 
 BAR2 SZ ES   1    028  1.00                             170     0.8 7   24 194 
 BAR2 SZ I         028  2.77        71.2 0.30                            24 194 
 GIR2 SZ EP   1    027 45.16                             167     0.0 7   32 347 
 RUS  HZ EP        027 48.86                             144    -0.410  100 177 
 RUS  HN ES   1    028  6.78                             144    -0.8 7  100 177 
 RUS  HZ I         028 10.55        26.3 0.15                           100 177 
 GRA  SZ IP        027 50.86                             137     0.110  125  17 
 GRA  SZ ES   1    028 10.21                             137     0.0 7  125  17 
 GRA  SZ I         028 11.73        85.0 0.27                           125  17 
 OCA  SZ EP        027 53.29                             129    -0.6 9  161 353 
 OCA  SZ ES   1    028 15.76                             129    -0.1 7  161 353 
 OCA  SZ I         028 20.22        63.6 0.24                           161 353 
 YOP  SZ EP        027 55.50                             126    -0.1 9  178 154 
 YOP  SE ES   1    028 19.54                             126     0.7 7  178 154 
 YOP  SZ I         028 20.80        20.0 0.49                           178 154 
 NOR  SZ EP   1    028  0.86                             118    -0.7 6  236 235 
 NOR  SN ES   1    028 28.58                             118    -0.8 6  236 235 
 CHI  HZ EP        028  3.15                             117    -0.2 8  249 196 
 CHI  HN ES   1    028 31.94                             117    -0.8 6  249 196 
 CHI  HZ I         028 35.93        23.2 0.49                           249 196 
 ROSC BN ES   1    028 33.88                             116     0.3 6  254 211 
 HEL  HZ EP   1    028  6.95                             114     0.9 6  274 256 
 HEL  HN ES   1    028 37.94                             114     0.5 6  274 256 
 HEL  HZ I         028 44.32        16.8 0.36                           274 256 
 VIL  SZ EP   1    028  9.87                             112     0.9 5  302 190 
 VIL  SZ I         028 48.18        19.9 0.37                           302 190 
 GUY  SE ES   1    028 43.68                             112     0.2 5  303 235 
 GUY  SZ I         028 52.48        50.4 0.40                           303 235 
 DBB  SZ EP   1    028 13.46                             109     0.1 5  341 274 
 TOL  SZ EP   1    028 14.99                             109     0.9 5  345 225 
 PRA  HZ EP   1    028 19.46                             106     0.1 4  393 210 
 PRA  HN ES   1    029  0.91                             106    -0.1 4  393 210 
                                                                                
