 2012  7 2 0902 44.9 L   6.749 -73.147149.6  RSN  6 0.4 1.5LRSN                1
 GAP=182        1.04       6.5     7.9  9.9  0.1669E+02  0.1120E+02 -0.6716E+01E
 Epicentro: LOS SANTOS - SANTANDER                                             3
 ACTION:UPD 12-08-14 11:42 OP:ep   STATUS:               ID:20120702090244 L   I
 2012-07-02-0900-00M.COL___201                                                 6
 STAT SP IPHASW D HRMM SECON CODA AMPLIT PERI AZIMU VELO AIN AR TRES W  DIS CAZ7
 BAR2 SZ EP        9 3  5.08                             173     0.110   18 193 
 BAR2 SZ ES   1    9 3 20.70                             173     0.2 7   18 193 
 BAR2 SZ I         9 3 22.65         6.9 0.17            167             18 193 
 BRR  HZ EP        9 3  6.93                             152     0.310   74 302 
 BRR  HZ I         9 3  7.28        11.1 0.14            150             74 302 
 BRR  HN ES   1    9 3 24.29                             152     0.7 7   74 302 
 RUS  HZ EP   1    9 3  9.02                             146     0.3 7   95 176 
 RUS  HN ES   1    9 3 26.39                             146    -0.8 7   95 176 
 RUS  HZ I         9 3 29.36         2.6 0.19            145             95 176 
 PTB  HZ EP   1    9 3 11.83                             133    -0.3 7  147 261 
 PTB  HN ES   1    9 3 33.29                             133     0.0 7  147 261 
 PTB  HZ I         9 3 40.40         4.4 0.42            131            147 261 
 OCA  HN ES   1    9 3 36.08                             129    -0.7 7  166 353 
 ZAR  HZ EP   1    9 3 17.96                             123     0.1 6  206 294 
 ZAR  HN ES   1    9 3 43.01                             123    -0.5 6  206 294 
