 2011  6 2 0931 55.5 L   6.788 -73.034141.7  RSN  7 0.4 1.8LRSN                1
 GAP=152        0.81       4.5     9.1  8.1  0.2057E+01 -0.2590E+02 -0.1357E+02E
 Epicentro: CEPITA - SANTANDER                                                 3
 ACTION:UP  11-07-14 19:02 OP:ep   STATUS:               ID:20110602093155 L   I
 2011-06-02-0929-42S.COL___130                                                 6
 STAT SP IPHASW D HRMM SECON CODA AMPLIT PERI AZIMU VELO SNR AR TRES W  DIS CAZ7
 BAR2 SZ IP        932 14.53                             170    -0.210   27 217 
 BAR2 SZ I         932 14.81        14.4 0.24                            27 217 
 BAR2 SZ ES   1    932 29.92                             170     0.2 7   27 217 
 PAM  SZ EP   2    932 17.39                             152     0.5 5   71  31 
 BRR  HZ IP     C  932 16.48                             149    -0.410   83 295 
 BRR  HZ I         932 18.01        24.4 0.13                            83 295 
 BRR  HN ES   1    932 33.95                             149     0.3 7   83 295 
 RUS  HZ EP        932 18.45                             145    -0.310   99 183 
 RUS  HN ES   1    932 37.13                             145     0.2 7   99 183 
 RUS  HZ I         932 38.47         7.0 0.24                            99 183 
 BRI  SZ EP        932 19.17                             141     0.410  106  14 
 BRI  SZ ES   3    932 35.49                             141    -1.5 2  106  14 
 GRA  SZ EP        932 20.40                             137     0.210  124  12 
 GRA  SZ ES   2    932 39.62                             137     0.1 5  124  12 
 GRA  SZ I         932 41.12         9.7 0.34                           124  12 
 OCA  SZ EP        932 23.74                             129    -0.1 9  164 349 
                                                                                
