 2011  9 2 0119 47.9 L   6.761 -73.131152.0  RSN  8 0.3 2.3LRSN                1
 GAP=140        0.50       3.2     4.0  4.7 -0.8897E+00  0.1512E+01  0.1577E+01E
 Epicentro: LOS SANTOS - SANTANDER                                             3
 ACTION:UPD 12-07-13 15:54 OP:ep   STATUS:               ID:20110902011947 L   I
 2011-09-02-0115-50S.COL___167                                                 6
 STAT SP IPHASW D HRMM SECON CODA AMPLIT PERI AZIMU VELO AIN AR TRES W  DIS CAZ7
 BAR2 SZ IP        120  8.17                             172   -0.0310 19.5 197 
 BAR2 SZ ES   2    120 23.51                             172   -0.53 5 19.5 197 
 BAR2 SZ I         120 24.88        44.3 0.21                          19.5 197 
 GIR2 SZ EP   1    120  8.26                             166   -0.17 7 35.8 349 
 GIR2 SZ ES   2    120 24.83                             166    0.38 5 35.8 349 
 BRR  HZ IP     C  120 10.04                             152    0.1310 74.7 301 
 BRR  HZ I         120 10.30        77.9 0.18                          74.7 301 
 BRR  HE ES   1    120 27.33                             152    0.25 7 74.7 301 
 PAM  SZ EP   1    120 11.01                             151    0.10 7 79.8  37 
 PAM  SN ES   2    120 28.19                             151   -0.67 5 79.8  37 
 RUS  HZ EP   1    120 12.20                             146    0.25 7 96.2 177 
 RUS  HE ES   2    120 30.92                             146    0.20 5 96.2 177 
 RUS  HZ I         120 32.03        20.9 0.38                          96.2 177 
 OCA  SZ EP   1    120 17.16                             130    0.06 7  165 353 
 OCA  SZ ES   2    120 39.98                             130    0.09 5  165 353 
 OCA  SZ I         120 42.41        12.4 0.27                           165 353 
 ZAR  HE ES   2    120 46.53                             123   -0.41 4  207 293 
 ZAR  HZ I         120 52.21        19.4 0.39                           207 293 
 NOR  SZ EP   1    120 23.40                             120   -0.46 6  234 236 
 NOR  SN ES   2    120 51.98                             120    0.06 4  234 236 
                                                                                
