 2017  9 2 0936 59.7 L   6.804 -73.138148.9  RSN 12 0.4 2.1LRSN                1
 GAP=108        0.97       3.3     4.1  5.1  0.3926E+01  0.9796E+00  0.9656E+00E
 Epicentro: LOS SANTOS - SANTANDER                                             3
 ACTION:UPD 17-10-05 19:08 OP:rebc STATUS:               ID:20170902093659 L   I
 OLDACT:UP  17-09-02 17:41 OP:dani STATUS:               ID:20170902092740     3
 OLDACT:UP  17-09-02 17:40 OP:dani STATUS:               ID:20170902092740     3
 OLDACT:REG 17-09-02 13:41 OP:dani STATUS:               ID:20170902092740     3
 2017-09-02-0928-00M.COL___399                                                 6
 STAT SP IPHASW D HRMM SECON CODA AMPLIT PERI AZIMU VELO AIN AR TRES W  DIS CAZ7
 BAR2 HZ EP     D  937 19.43                             171   -0.2910 23.9 192 
 BAR2 HZ ES        937 35.03                             171   -0.3010 23.9 192 
 BAR2 HZ I         937 36.21        23.4 0.22            164           23.9 192 
 BRR  HZ EP        937 21.38                             153    0.1610 71.7 298 
 BRR  HN ES        937 38.77                             153    0.7710 71.7 298 
 BRR  HZ I         937 41.84        21.4 0.36            152           71.7 298 
 RUS  HZ EP        937 23.22                             144   -0.5710  101 177 
 RUS  HN ES        937 42.48                             144   -0.1010  101 177 
 RUS  HZ I         937 44.88        13.5 0.46            139            101 177 
 TAM  HZ EP     D  937 27.61                             131    0.04 9  154 105 
 SPBC HZ EP        937 28.43                             130   -0.09 9  164 219 
 SPBC HN ES        937 50.73                             130   -0.27 9  164 219 
 SPBC HZ I         937 55.50        30.7 0.30            125            164 219 
 YPLC HZ EP     D  937 29.60                             127   -0.13 9  177 152 
 YPLC HN ES        937 53.79                             127    0.65 9  177 152 
 YPLC HZ I         938  8.11         9.7 0.26            123            177 152 
 ZAR  HZ EP        937 32.25                             123   -0.16 9  205 292 
 ZAR  HN ES        937 57.40                             123   -0.52 9  205 292 
 ZAR  HZ I         938  5.14        10.1 0.50            121            205 292 
 CHI  HZ EP        937 37.60                             118   -0.05 8  249 195 
 CHI  HZ I         938  2.21         6.8 0.13            114            249 195 
 GUY2CHZ EP        937 44.67                             113    1.11 7  302 235 
 GUY2CHN ES   4    938 21.25                             113    3.48 0  302 235 
 GUY2CHZ I         938 27.56         7.4 0.52                           302 235 
 LL6C HZ EP   3    937 44.29                             111   -1.20 2  324 357 
 LL6C HN ES        938 21.41                             111    0.21 7  324 357 
 PRA  HZ EP        937 53.82                             107    0.39 6  393 210 
 PRA  HN ES        938 35.34                             107    0.01 6  393 210 
 PRA  HZ I         938 41.07         6.2 0.28            105            393 210 
 ORTC HZ EP        937 53.67                             107   -0.16 6  396 216 
 ORTC HN ES   4    938 39.88                             107    3.83 0  396 216 
 ORTC HZ I         938 43.21         5.0 0.24            105            396 216 
                                                                                
