 2015 11 2 0950 36.2 L   6.015 -73.810103.6  RSN  5 0.4 1.4LRSN                1
 GAP=144        0.54       5.1     3.9 12.6  0.1799E+01  0.3307E+02  0.6821E+01E
 Epicentro: EL PENON - SANTANDER                                               3
 ACTION:UPD 15-12-28 16:08 OP:cam  STATUS:               ID:20151102095036 L   I
 OLDACT:REG 15-11-02 12:52 OP:ar   STATUS:               ID:20151102094750     3
 2015-11-02-0947-50M.COL___310                                                 6
 STAT SP IPHASW D HRMM SECON CODA AMPLIT PERI AZIMU VELO AIN AR TRES W  DIS CAZ7
 RUS  HZ EP        950 54.38                             139   -0.0810 81.6 100 
 RUS  HN ES   2    951  8.97                             139    0.25 5 81.6 100 
 RUS  HZ I         951 10.90         2.5 0.20            149           81.6 100 
 BAR2 EZ ES   2    951  9.89                             134   -0.10 5 94.3  47 
 BAR2 EZ I         951 11.30         8.7 0.26            141           94.3  47 
 HEL  HZ EP   2    951  4.82                             113   -0.49 4  191 276 
 HEL  HN ES   2    951 28.14                             113    0.12 4  191 276 
 HEL  HZ I         951 30.85         3.5 0.34            118            191 276 
 GUY2CHZ EP   2    951  5.50                             113   -0.16 4  193 243 
 GUY2CHN ES   2    951 28.82                             113    0.17 4  193 243 
 GUY2CHZ I         951 32.97         2.7 0.32                           193 243 
 ZAR  HZ EP   2    951  6.89                             112    1.03 4  200 325 
 ZAR  HN ES   2    951 28.60                             112   -0.41 4  200 325 
 ZAR  HZ I         951 33.57         2.7 0.38            117            200 325 
                                                                                
