 2010 10 2 0246 12.4 L   6.769 -73.038143.5  RSN  7 0.4 1.8LRSN                1
 GAP=171        0.78       4.4     9.3  8.2 -0.1596E+02 -0.2565E+02  0.6710E+01E
 Epicentro: CEPITA - SANTANDER                                                 3
 ACTION:UP  11-02-18 11:07 OP:tino STATUS:               ID:20101002024612 L   I
 2010-10-02-0243-28S.COL___125                                                 6
 STAT SP IPHASW D HRMM SECON CODA AMPLIT PERI AZIMU VELO SNR AR TRES W  DIS CAZ7
 BAR2 SZ EP   2    246 31.04                             170    -0.7 5   25 219 
 BAR2 SZ ES   2    246 46.46                             170    -0.4 5   25 219 
 BAR2 SZ I         246 48.72        11.7 0.53                            25 219 
 BRR  HZ IP     C  246 33.71                             148    -0.310   83 297 
 BRR  HZ I         246 33.98        25.2 0.18                            83 297 
 BRR  HN ES   1    246 51.22                             148     0.3 7   83 297 
 RUS  HZ EP   2    246 36.21                             144     0.6 5   97 183 
 RUS  HE ES   2    246 54.38                             144     0.6 5   97 183 
 RUS  HZ I         246 55.68         4.9 0.24                            97 183 
 GUE  SZ EP        246 37.17                             139     0.210  118   6 
 GRA  SZ EP        246 37.61                             136     0.210  126  12 
 GRA  SZ I         246 38.76         7.3 0.26                           126  12 
 GRA  SZ ES   2    246 56.37                             136    -0.6 5  126  12 
 CHI  HZ EP   1    246 49.71                             117    -0.2 6  249 198 
 CHI  HZ I         246 52.48         2.1 0.41                           249 198 
 CHI  HN ES   2    247 18.97                             117    -0.3 4  249 198 
 PRA  HZ EP   2    247  6.04                             106    -0.1 3  395 211 
 PRA  HZ I         247  7.64         6.7 0.22                           395 211 
 PRA  HN ES   2    247 48.65                             106     0.5 3  395 211 
                                                                                
