 2011 11 2 0846  7.2 L   6.799 -73.088138.4  RSN  6 0.2 1.8LRSN                1
 GAP=144        0.41       2.1     3.9  3.8 -0.1221E+00  0.2921E+00 -0.8738E+00E
 Epicentro: LOS SANTOS - SANTANDER                                             3
 ACTION:UPD 12-07-13 16:07 OP:ep   STATUS:               ID:20111102084607 L   I
 2011-11-02-0844-28S.COL___176                                                 6
 STAT SP IPHASW D HRMM SECON CODA AMPLIT PERI AZIMU VELO AIN AR TRES W  DIS CAZ7
 BAR2 SZ EP   1    846 25.98                             169   -0.01 7 25.1 204 
 BAR2 SZ ES   1    846 40.78                             169    0.14 7 25.1 204 
 BAR2 SZ I         846 42.15        23.8 0.30                          25.1 204 
 PAM  SZ EP   1    846 28.70                             151    0.28 7 73.6  36 
 PAM  SN ES   2    846 44.81                             151   -0.15 5 73.6  36 
 BRR  HZ EP   1    846 27.98                             149    0.07 7 76.9 296 
 BRR  HZ I         846 28.48        16.9 0.15                          76.9 296 
 BRR  HE ES   1    846 43.96                             149   -0.10 7 76.9 296 
 RUS  HZ EP   1    846 30.10                             142   -0.12 7  100 180 
 RUS  HE ES   1    846 48.05                             142   -0.11 7  100 180 
 RUS  HZ I         846 49.02         4.3 0.19                           100 180 
 OCA  SZ EP   1    846 34.64                             128   -0.42 7  161 351 
 OCA  SZ I         846 36.02         8.8 0.28                           161 351 
 OCA  SZ ES   1    846 56.99                             128    0.21 7  161 351 
 RREF HZ EP   2    846 54.02                             109    0.43 3  326 230 
 RREF HN ES   2    847 29.78                             109    0.02 3  326 230 
 RREF HZ I         847 34.98         1.6 0.49                           326 230 
                                                                                
