 2010  5 2 0804 54.2 L   6.623 -73.239112.8  RSN  4 0.3 1.9LRSN                1
 GAP=197        0.59       7.8    19.0  8.7 -0.9274E+02  0.5995E+02 -0.3763E+02E
 Epicentro: BARICHARA - SANTANDER                                              3
 ACTION:UP  10-08-24 10:02 OP:vdl  STATUS:               ID:20100502080454 L   I
 2010-05-02-0801-44S.COL___105                                                 6
 STAT SP IPHASW D HRMM SECON CODA AMPLIT PERI AZIMU VELO SNR AR TRES W  DIS CAZ7
 BAR2 SZ EP   1    8 5  9.17                             176    -0.4 7    7 119 
 BAR2 SZ ES   1    8 5 21.85                             176     0.2 7    7 119 
 GIR2 SZ EP   2    8 5 10.74                             154    -0.1 5   51   6 
 GIR2 SZ ES   3    8 5 23.56                             154    -0.2 2   51   6 
 BRR  HZ EP   2    8 5 12.21                             144     0.1 5   75 316 
 BRR  HZ I         8 5 24.66        19.3 0.19                            75 316 
 GUE  SZ EP   1    8 5 18.54                             125     0.4 7  138  15 
 GUE  SZ ES   1    8 5 36.54                             125    -0.2 7  138  15 
                                                                                
