 2014  9 2 0058 21.8 L   6.758 -73.178145.3  RSN  7 0.3 1.8LRSN                1
 GAP=231        0.79       3.9     5.2  5.7  0.6641E+01  0.4760E+01  0.6427E+01E
 Epicentro: LOS SANTOS - SANTANDER                                             3
 ACTION:UPD 14-10-03 23:01 OP:nd   STATUS:               ID:20140902005821 L   I
 OLDACT:REG 14-09-02 12:15 OP:mh   STATUS:               ID:20140902004819     3
 2014-09-02-0048-19M.COL___275                                                 6
 STAT SP IPHASW D HRMM SECON CODA AMPLIT PERI AZIMU VELO AIN AR TRES W  DIS CAZ7
 BAR2 SZ EP   1    058 41.16                             172   -0.13 7 18.4 182 
 BAR2 SZ ES        058 56.13                             172   -0.3610 18.4 182 
 BAR2 SZ I         058 57.65        21.9 0.23            169           18.4 182 
 BRR  HZ EP        058 42.81                             153   -0.0510 70.5 303 
 BRR  HN ES        058 59.86                             153    0.5710 70.5 303 
 BRR  HZ I         059 25.21        13.9 0.36            148           70.5 303 
 RUS  HZ EP        058 45.06                             145   -0.1410 96.3 174 
 RUS  HN ES   1    059  3.67                             145    0.21 7 96.3 174 
 RUS  HZ I         059  4.74        10.0 0.30            153           96.3 174 
 PTB  HZ EP        058 48.18                             133   -0.16 9  143 260 
 PTB  HN ES   1    059  8.36                             133   -0.68 7  143 260 
 PTB  HZ I         059 15.99         5.7 0.19            134            143 260 
 SPBC HZ EP   1    058 49.98                             130    0.26 7  157 219 
 SPBC HN ES        059 11.81                             130    0.32 9  157 219 
 SPBC HZ I         059 17.07         8.5 0.21            134            157 219 
 ZAR  HN ES   1    059 19.06                             122   -0.17 6  203 294 
 CHI  HZ EP        058 59.34                             118    0.45 8  243 195 
 CHI  HN ES        059 27.53                             118   -0.29 8  243 195 
 CHI  HZ I         059 34.95         3.0 0.23            124            243 195 
                                                                                
