 2014  6 2 0611 22.1 L   6.867 -73.150137.9  RSN  7 0.4 1.5LRSN                1
 GAP=183        0.89       4.5     5.0  7.4 -0.4570E+01  0.1164E+02  0.4427E+01E
 Epicentro: LOS SANTOS - SANTANDER                                             3
 ACTION:UPD 14-07-01 22:49 OP:nd   STATUS:               ID:20140602061122 L   I
 OLDACT:REG 14-06-02 14:09 OP:stll STATUS:               ID:20140602060808     3
 2014-06-02-0608-08M.COL___247                                                 6
 STAT SP IPHASW D HRMM SECON CODA AMPLIT PERI AZIMU VELO AIN AR TRES W  DIS CAZ7
 BAR2 SZ EP        611 41.52                             167    0.5810 30.5 187 
 BAR2 SZ I         611 41.59         5.6 0.36            166           30.5 187 
 BAR2 SZ ES        611 55.67                             167    0.0110 30.5 187 
 RUS  HZ EP        611 45.19                             140   -0.4410  108 176 
 RUS  HZ I         611 46.06         2.9 0.18            140            108 176 
 PTB  HZ EP        611 48.16                             130   -0.37 9  149 256 
 PTB  HN ES        612  9.32                             130    0.17 9  149 256 
 PTB  HZ I         612 11.60         8.4 0.42            128            149 256 
 OCA  HN ES        612  9.96                             129   -0.19 9  153 353 
 SPBC HZ EP        611 50.52                             126   -0.01 9  169 217 
 SPBC HZ I         611 50.84         4.6 0.10            125            169 217 
 NOR  HN ES        612 25.50                             116   -0.16 8  239 233 
 HEL  HZ EP        612  2.83                             113    0.76 8  274 254 
 HEL  HN ES        612 33.00                             113   -0.26 8  274 254 
 HEL  HZ I         612 41.03         2.3 0.28            112            274 254 
                                                                                
