 2016 10 2 0814 32.1 L   6.801 -73.146144.3  RSN  7 0.5 1.9LRSN                1
 GAP=183        1.19       5.5     6.6  8.4  0.1054E+02  0.7065E+01 -0.1143E+01E
 Epicentro: LOS SANTOS - SANTANDER                                             3
 ACTION:UPD 16-11-09 19:15 OP:rebc STATUS:               ID:20161002081432 L   I
 OLDACT:REG 16-10-02 13:06 OP:dnl  STATUS:               ID:20161002080745     3
 2016-10-02-0808-00M.COL___369                                                 6
 STAT SP IPHASW D HRMM SECON CODA AMPLIT PERI AZIMU VELO AIN AR TRES W  DIS CAZ7
 BAR2 EZ EP        814 51.67                             170    0.1110 23.4 190 
 BAR2 EZ ES        815  6.16                             170   -0.5810 23.4 190 
 BAR2 EZ I         815  8.12        14.7 0.14            170           23.4 190 
 BRR  HZ EP        814 53.48                             152    0.3910 71.1 298 
 BRR  HN ES        815 10.39                             152    0.9310 71.1 298 
 BRR  HZ I         815 13.44        11.5 0.40            149           71.1 298 
 RUS  HZ EP        814 55.77                             144    0.0510  101 176 
 RUS  HN ES        815 13.96                             144   -0.1810  101 176 
 PTB  HZ EP        814 58.56                             132   -0.39 9  148 259 
 PTB  HN ES        815 19.10                             132   -0.79 9  148 259 
 PTB  HZ I         815 24.44         8.2 0.10            131            148 259 
 OCA  HZ EP   2    815  0.50                             129    0.21 5  160 353 
 OCA  HE ES   2    815 21.42                             129   -0.86 5  160 353 
 OCA  HZ I         815 26.57        19.3 0.28            130            160 353 
 SPBC HZ EP        815  0.79                             129    0.30 9  163 219 
 SPBC HN ES        815 23.12                             129    0.48 9  163 219 
 SPBC HZ I         815 28.82         9.2 0.18            130            163 219 
 ZAR  HZ EP   2    815  3.35                             122   -1.09 4  204 292 
 ZAR  HN ES        815 29.67                             122    0.00 9  204 292 
 ZAR  HZ I         815 35.25         8.0 0.38            122            204 292 
                                                                                
