 2014 12 2 0840 47.3 L   6.760 -73.178138.2  RSN  8 0.5 1.6LRSN                1
 GAP=224        1.11       4.7     7.0  7.7  0.1071E+02  0.2502E+02  0.3621E+01E
 Epicentro: LOS SANTOS - SANTANDER                                             3
 ACTION:UPD 15-02-10 16:59 OP:nd   STATUS:               ID:20141202084047 L   I
 OLDACT:REG 14-12-02 13:07 OP:fm   STATUS:               ID:20141202083743     3
 2014-12-02-0837-43M.COL___300                                                 6
 STAT SP IPHASW D HRMM SECON CODA AMPLIT PERI AZIMU VELO AIN AR TRES W  DIS CAZ7
 BAR2 SZ EP        841  6.03                             172    0.1410 18.6 182 
 BAR2 SZ ES        841 19.84                             172   -0.5810 18.6 182 
 BAR2 SZ I         841 23.34        13.5 0.22            168           18.6 182 
 BRR  HZ IP     C  841  7.72                             151    0.1710 70.4 303 
 BRR  HE ES        841 24.20                             151    0.8310 70.4 303 
 BRR  HZ I         841 28.55         6.5 0.16            150           70.4 303 
 RUS  HE ES        841 27.67                             143   -0.0210 96.5 174 
 RUS  HZ I         841 29.76         4.9 0.30            146           96.5 174 
 SPBC HZ EP        841 14.30                             128   -0.34 9  158 219 
 SPBC HN ES        841 36.13                             128    0.13 9  158 219 
 SPBC HZ I         841 40.19         6.1 0.14            129            158 219 
 ZAR  HZ EP        841 18.75                             121   -0.31 9  202 294 
 ZAR  HE ES        841 43.11                             121   -0.75 9  202 294 
 ZAR  HZ I         841 49.32         4.1 0.44            123            202 294 
 CHI  HN ES        841 52.63                             116    0.00 8  243 195 
 CHI  HZ I         841 55.97         2.0 0.36            119            243 195 
 HEL  HZ EP        841 27.51                             114    0.92 8  268 257 
 HEL  HN ES        841 57.16                             114   -0.11 8  268 257 
 HEL  HZ I         842  4.43         1.6 0.30            115            268 257 
 MON  HZ EP   1    841 35.77                             107   -0.21 5  354 309 
 MON  HN ES   4    842 11.65                             107   -2.32 0  354 309 
 MON  HZ I         842 12.44         1.2 0.20            110            354 309 
                                                                                
