 2017 10 2 0918 55.8 L   6.789 -73.168144.0  RSN 11 0.3 1.6LRSN                1
 GAP=110        0.79       2.9     3.4  5.3  0.1073E+01  0.6862E+01  0.3213E+01E
 Epicentro: LOS SANTOS - SANTANDER                                             3
 ACTION:UPD 17-11-07 19:27 OP:rebc STATUS:               ID:20171002091855 L   I
 OLDACT:UP  17-10-02 19:08 OP:mg   STATUS:               ID:20171002091553d    3
 OLDACT:UP  17-10-02 19:07 OP:mg   STATUS:               ID:20171002091553d    3
 OLDACT:DUP 17-10-02 18:56 OP:mg   STATUS:               ID:20171002091553d    3
 2017-10-02-0918-00M.COL___389                                                 6
 STAT SP IPHASW D HRMM SECON CODA AMPLIT PERI AZIMU VELO AIN AR TRES W  DIS CAZ7
 BAR2 EZ EP        919 14.97                             171   -0.2110 21.8 184 
 BAR2 EZ ES        919 30.42                             171    0.1210 21.8 184 
 BAR2 EZ I         919 31.65        13.7 0.18            169           21.8 184 
 PAM  EZ EP     C  919 18.01                             150    0.0410 79.9  40 
 PAM  EN ES        919 35.01                             150   -0.2610 79.9  40 
 PAM  EZ I         919 37.17         9.7 0.54            153           79.9  40 
 RUS  HZ EP        919 19.23                             144   -0.0610 99.5 175 
 RUS  HN ES        919 37.83                             144    0.2110 99.5 175 
 RUS  HZ I         919 39.55         1.5 0.22            144           99.5 175 
 YPLC HZ EP     C  919 25.51                             126    0.04 9  177 150 
 YPLC HN ES        919 48.66                             126    0.05 9  177 150 
 YPLC HZ I         919 50.56         3.6 0.60            127            177 150 
 ZAR  HZ EP        919 28.38                             122    0.45 9  202 293 
 ZAR  HN ES        919 53.40                             122    0.40 9  202 293 
 ZAR  HZ I         919 59.07         4.3 0.30            122            202 293 
 NOR  HZ EP        919 30.55                             118   -0.57 8  232 234 
 NOR  HN ES        919 57.88                             118   -0.80 8  232 234 
 NOR  HZ I         920  5.29         1.5 0.15            118            232 234 
 CHI  HZ EP        919 33.27                             117    0.08 8  247 195 
 CHI  HN ES        920  2.66                             117    0.30 8  247 195 
 CHI  HZ I         920  6.38         2.4 0.38            117            247 195 
 GUY2CHN ES   4    920 18.08                             112    5.36 0  298 235 
 GUY2CHZ I         920 25.64         1.1 0.46                           298 235 
 PTGC HZ EP   9 D  919 38.33                             111   -1.21 0  308 158 
 PTGC HN ES   4    920 11.92                             111   -0.53 0  308 158 
 PTGC HZ I         920 17.98         4.3 0.31            112            308 158 
 PRA  HN ES   1    920 31.16                             106    0.69 4  390 209 
 PRA  HZ I         920 36.16         1.6 0.41            107            390 209 
 SJC  HZ EP   9    919 49.17                             105   -2.09 0  409 327 
 SJC  HN ES   4    920 31.79                             105   -0.65 0  409 327 
 SJC  HZ I         920 36.50         0.8 0.48            106            409 327 
                                                                                
