 2015  6 2 0426 38.2 L   6.766 -73.123145.2  RSN 10 0.3 2.0LRSN                1
 GAP=185        0.80       2.4     3.8  4.8 -0.1117E+00  0.6003E+01 -0.2076E+01E
 Epicentro: LOS SANTOS - SANTANDER                                             3
 ACTION:UPD 15-09-10 22:09 OP:cam  STATUS:               ID:20150602042638 L   I
 OLDACT:REG 15-06-02 12:56 OP:ak   STATUS:               ID:20150602041744     3
 2015-06-02-0417-44M.COL___300                                                 6
 STAT SP IPHASW D HRMM SECON CODA AMPLIT PERI AZIMU VELO AIN AR TRES W  DIS CAZ7
 BAR2 EZ EP        426 57.98                             172    0.2410 20.3 199 
 BAR2 EZ ES        427 12.60                             172   -0.3510 20.3 199 
 BAR2 EZ I         427 14.14        17.1 0.18            169           20.3 199 
 BRR  HZ IP     D  426 59.99                             151    0.4310 75.2 300 
 BRR  HN ES        427 16.75                             151    0.5710 75.2 300 
 BRR  HZ I         427 18.25        14.5 0.15            147           75.2 300 
 RUS  HZ EP        427  2.03                             145    0.3710 96.7 177 
 RUS  HN ES        427 19.59                             145   -0.3310 96.7 177 
 RUS  HZ I         427 21.52        11.9 0.34            147           96.7 177 
 SPBC HZ EP        427  6.82                             129    0.25 9  162 221 
 SPBC HN ES        427 28.54                             129   -0.12 9  162 221 
 SPBC HZ I         427 35.74         8.7 0.08            129            162 221 
 OCA  HZ EP        427  6.42                             129   -0.47 9  164 352 
 OCA  HN ES        427 28.86                             129   -0.38 9  164 352 
 OCA  HZ I         427 33.77        20.1 0.26            129            164 352 
 ZAR  HZ EP        427 10.94                             122   -0.10 8  208 293 
 ZAR  HN ES        427 36.66                             122    0.05 8  208 293 
 ZAR  HZ I         427 42.38        13.1 0.32            121            208 293 
 SML  HZ EP   1    427 14.93                             117   -0.39 6  248 335 
 SML  HN ES        427 44.51                             117    0.27 8  248 335 
 SML  HZ I         427 48.18        13.5 0.09            117            248 335 
 HEL  HZ EP        427 18.64                             114    0.05 8  274 257 
 HEL  HE ES        427 49.51                             114   -0.55 8  274 257 
 HEL  HZ I         427 53.77         2.4 0.22            114            274 257 
 GUY2CHZ EP   4    427 24.32                             112    2.51 0  301 236 
 GUY2CHN ES        427 55.70                             112   -0.09 7  301 236 
 GUY2CHZ I         428  4.06         3.0 0.65                           301 236 
 MON  HZ EP   1    427 27.71                             108   -0.01 5  358 309 
 MON  HN ES   1    428  6.32                             108    0.01 5  358 309 
 MON  HZ I         428 20.87         4.0 0.80            108            358 309 
                                                                                
