 2017  5 2 0439  3.5 L   6.811 -73.001165.4  RSN  5 0.2 1.2LRSN                1
 GAP=155        0.65       3.7     3.3  5.1  0.9529E+00  0.3680E+01  0.5663E+00E
 Epicentro: CEPITA - SANTANDER                                                 3
 ACTION:UPD 17-06-16 13:32 OP:jn   STATUS:               ID:20170502043903 L   I
 OLDACT:UP  17-05-02 17:07 OP:edw  STATUS:               ID:20170502043741     3
 OLDACT:REG 17-05-02 12:16 OP:edw  STATUS:               ID:20170502043741     3
 2017-05-02-0438-00M.COL___365                                                 6
 STAT SP IPHASW D HRMM SECON CODA AMPLIT PERI AZIMU VELO AIN AR TRES W  DIS CAZ7
 PAM  EZ EP        439 27.44                             157    0.1110 67.3  30 
 PAM  EN ES        439 45.57                             157   -0.3410 67.3  30 
 PAM  EZ I         439 48.27         3.7 0.40            161           67.3  30 
 BRR  HZ IP     D  439 27.63                             151    0.0710 85.1 293 
 BRR  HN ES        439 46.78                             151    0.4610 85.1 293 
 BRR  HZ I         439 51.62         2.2 0.22            151           85.1 293 
 RUS  HZ EP        439 29.55                             147    0.2310  102 185 
 RUS  HN ES        439 49.41                             147   -0.0510  102 185 
 RUS  HZ I         439 50.74         3.3 0.24            150            102 185 
 PTB  HZ EP        439 33.21                             133   -0.31 9  164 260 
 PTB  HN ES        439 56.65                             133   -0.28 9  164 260 
 PTB  HZ I         440  5.64         1.2 0.52            134            164 260 
 ZAR  HZ EP        439 38.75                             124    0.01 8  219 290 
 ZAR  HE ES        440  6.21                             124   -0.01 8  219 290 
 ZAR  HZ I         440  7.73         1.1 0.14            126            219 290 
                                                                                
