 2017  2 2 0453  0.5 L   6.810 -73.148144.7  RSN 15 0.5 2.3LRSN                1
 GAP=102        1.18       4.2     3.3  5.9  0.1094E+01  0.6344E+01  0.3958E+01E
 Epicentro: LOS SANTOS - SANTANDER                                             3
 ACTION:UPD 17-05-24 15:31 OP:jn   STATUS:               ID:20170202045300 L   I
 OLDACT:UP  17-02-02 17:18 OP:ar   STATUS:               ID:20170202044106     3
 OLDACT:UP  17-02-02 17:17 OP:ar   STATUS:               ID:20170202044106     3
 OLDACT:REG 17-02-02 13:08 OP:ar   STATUS:               ID:20170202044106     3
 2017-02-02-0448-00M.COL___328                                                 6
 STAT SP IPHASW D HRMM SECON CODA AMPLIT PERI AZIMU VELO AIN AR TRES W  DIS CAZ7
 BAR2 EZ IP     D  453 19.85                             170   -0.1310 24.4 189 
 BAR2 EZ ES        453 34.63                             170   -0.5810 24.4 189 
 BAR2 EZ I         453 36.13        78.5 0.18            166           24.4 189 
 BRR  HZ IP     D  453 21.65                             153    0.2010 70.4 298 
 BRR  HN ES        453 38.72                             153    0.9010 70.4 298 
 BRR  HZ I         453 39.41        32.4 0.16            149           70.4 298 
 PAM  EZ EP        453 22.71                             151    0.1910 76.7  40 
 PAM  EN ES        453 39.70                             151   -0.0310 76.7  40 
 PAM  EZ I         453 40.47        28.2 0.22            155           76.7  40 
 RUS  HZ IP     D  453 23.86                             143   -0.3310  102 176 
 RUS  HN ES        453 42.77                             143    0.0810  102 176 
 RUS  HZ I         453 44.45        21.8 0.28            141            102 176 
 PTB  HZ EP        453 26.31                             132   -1.02 9  148 258 
 PTB  HN ES        453 47.51                             132   -0.78 9  148 258 
 PTB  HZ I         453 49.09        30.8 0.52            129            148 258 
 TAM  HZ EP        453 28.21                             130    0.10 9  156 105 
 TAM  HN ES        453 49.78                             130    0.11 9  156 105 
 TAM  HZ I         453 50.36        15.7 0.28            132            156 105 
 ZAR  HZ EP        453 32.97                             122    0.21 9  203 292 
 ZAR  HN ES        453 58.13                             122    0.17 9  203 292 
 ZAR  HZ I         454  3.58        30.6 0.50            120            203 292 
 NOR  HZ EP        453 36.49                             118    0.32 8  235 234 
 NOR  HN ES        454  5.04                             118    1.02 8  235 234 
 NOR  HZ I         454  8.78        23.4 0.30            116            235 234 
 CHI  HZ EP        453 38.13                             117   -0.08 8  250 195 
 CHI  HN ES        454  7.61                             117   -0.04 8  250 195 
 CHI  HZ I         454 14.49         8.8 0.52            115            250 195 
 ROSC BZ EP   4    453 40.09                             116    1.48 0  254 211 
 ROSC BN ES   4    454 10.59                             116    2.23 0  254 211 
 ROSC BZ I         454 14.81        16.8 0.50            115            254 211 
 URE  HZ EP        453 40.55                             113   -0.85 7  283 292 
 URE  HN ES   4    454 11.73                             113   -1.60 0  283 292 
 URE  HZ I         454 24.19        11.3 0.34            112            283 292 
 ELA  HZ EP   4    453 50.03                             110    2.71 0  330 229 
 ELA  HE ES   4    454 28.90                             110    5.03 0  330 229 
 ELA  HZ I         454 31.44         9.1 0.42            109            330 229 
 CBOC HZ EP        453 47.79                             110    0.46 7  334 252 
 CBOC HN ES        454 23.95                             110    0.05 7  334 252 
 CBOC HZ I         454 41.03         4.7 0.76            108            334 252 
 DBB  EZ EP        453 48.28                             109    0.43 7  339 274 
 DBB  EN ES        454 24.36                             109   -0.45 7  339 274 
 DBB  EZ I         454 33.28         4.9 0.44            108            339 274 
 ORTC HZ EP        453 55.10                             106    0.67 6  396 216 
 ORTC HN ES   4    454 38.52                             106    2.00 0  396 216 
 ORTC HZ I         454 41.76         7.5 0.50            105            396 216 
                                                                                
