 2011  5 2 0501 13.5 L   6.780 -73.086146.3  RSN 10 0.3 1.9LRSN                1
 GAP=145        0.62       3.6     4.5  5.7 -0.7237E+01  0.1869E+01  0.1110E+01E
 Epicentro: LOS SANTOS - SANTANDER                                             3
 ACTION:UP  11-06-29 08:50 OP:tino STATUS:               ID:20110502050113 L   I
 2011-05-02-0459-02S.COL___129                                                 6
 STAT SP IPHASW D HRMM SECON CODA AMPLIT PERI AZIMU VELO SNR AR TRES W  DIS CAZ7
 BAR2 SZ EP   1    5 1 33.04                             170    -0.1 7   23 207 
 BAR2 SZ ES   2    5 1 48.28                             170    -0.2 5   23 207 
 BAR2 SZ I         5 1 49.77        17.0 0.21                            23 207 
 PAM  SZ EP   1    5 1 35.89                             152     0.3 7   75  35 
 PAM  SN ES   2    5 1 53.16                             152     0.3 5   75  35 
 BRR  HZ IP     C  5 1 34.89                             150    -0.210   78 298 
 BRR  HZ I         5 1 35.20        25.8 0.19                            78 298 
 BRR  HN ES   1    5 1 52.36                             150     0.5 7   78 298 
 RUS  HZ EP   1    5 1 37.20                             145     0.1 7   98 180 
 RUS  HN ES   2    5 1 55.14                             145    -0.4 5   98 180 
 RUS  HZ I         5 1 56.92         8.6 0.40                            98 180 
 BRI  SZ EP   1    5 1 37.58                             141     0.2 7  108  17 
 BRI  SZ I         5 1 38.33         8.1 0.29                           108  17 
 GRA  SZ IP        5 1 38.80                             137     0.010  126  14 
 GRA  SZ ES   1    5 1 58.10                             137    -0.4 7  126  14 
 GRA  SZ I         5 2  1.36         8.4 0.38                           126  14 
 OCA  SZ EP   2    5 1 41.49                             129    -0.6 5  163 351 
 OCA  SZ ES   2    5 2  4.37                             129    -0.1 5  163 351 
 OCA  SZ I         5 2  9.02        12.3 0.24                           163 351 
 NOR  SE ES   2    5 2 17.81                             118    -0.1 4  239 236 
 HEL  HZ EP   1    5 1 54.71                             114     0.4 6  278 257 
 HEL  HN ES   2    5 2 25.66                             114    -0.6 4  278 257 
 HEL  HZ I         5 2 33.51         2.4 0.47                           278 257 
 RREF HN ES   2    5 2 36.31                             111     0.0 3  325 230 
 RREF HZ I         5 2 44.70         3.9 0.30                           325 230 
                                                                                
