 2016 12 2 0020 57.3 L   6.774 -73.130146.7  RSN  6 0.5 1.6LRSN                1
 GAP=159        1.12       7.4     5.3  8.0 -0.1339E+02  0.9750E+01  0.1129E+02E
 Epicentro: LOS SANTOS - SANTANDER                                             3
 ACTION:UPD 17-01-11 20:11 OP:rebc STATUS:               ID:20161202002057 L   I
 OLDACT:DUP 16-12-02 13:37 OP:dnl  STATUS:               ID:20161202001743d    3
 2016-12-02-0018-00M.COL___343                                                 6
 STAT SP IPHASW D HRMM SECON CODA AMPLIT PERI AZIMU VELO AIN AR TRES W  DIS CAZ7
 BAR2 EZ EP        021 16.86                             172   -0.1910 20.9 196 
 BAR2 EZ ES        021 31.75                             172   -0.6610 20.9 196 
 BAR2 EZ I         021 37.96        11.3 0.68            169           20.9 196 
 BRR  HZ EP        021 18.83                             152    0.0610 74.2 300 
 BRR  HE ES        021 36.27                             152    0.7910 74.2 300 
 BRR  HZ I         021 39.15         8.0 0.28            154           74.2 300 
 PAM  EZ EP        021 20.13                             151    0.3910 78.6  37 
 PAM  EE ES        021 37.22                             151    0.0210 78.6  37 
 PAM  EZ I         021 39.33         8.7 0.46            158           78.6  37 
 PTB  HZ EP        021 24.23                             132   -0.27 9  149 260 
 PTB  HE ES        021 45.49                             132   -0.19 9  149 260 
 PTB  HZ I         021 51.71         4.4 0.28            135            149 260 
 ZAR  HZ EP   2    021 29.47                             122   -0.67 4  207 293 
 ZAR  HE ES        021 55.08                             122   -0.64 8  207 293 
 ZAR  HZ I         021 57.52         3.8 0.26            126            207 293 
 NOR  HZ EP        021 33.28                             119    0.17 8  234 235 
 NOR  HN ES        022  1.70                             119    0.70 8  234 235 
 NOR  HZ I         022  5.85         3.1 0.18            122            234 235 
                                                                                
