 2012  4 2 0152 13.8 L   6.812 -73.153146.8  RSN  5 0.3 1.4LRSN                1
 GAP=135        0.86       6.0     5.2 10.0  0.2147E+01  0.8876E+01  0.6866E+01E
 Epicentro: LOS SANTOS - SANTANDER                                             3
 ACTION:UPD 12-07-05 11:49 OP:tino STATUS:               ID:20120402015213 L   I
 2012-04-02-0150-00M.COL___196                                                 6
 STAT SP IPHASW D HRMM SECON CODA AMPLIT PERI AZIMU VELO AIN AR TRES W  DIS CAZ7
 BRR  HZ EP   1    152 35.55                             153     0.6 7   70 298 
 BRR  HZ I         152 35.69         7.4 0.13                            70 298 
 BRR  HE ES   1    152 51.89                             153     0.4 7   70 298 
 PAM  SZ EP   1    152 36.24                             151     0.2 7   77  41 
 PAM  SN ES   1    152 52.97                             151    -0.5 7   77  41 
 PAM  SZ I         152 55.83         3.4 0.44                            77  41 
 RUS  HZ EP   1    152 37.60                             144    -0.1 7  102 176 
 RUS  HE ES   1    152 56.57                             144     0.2 7  102 176 
 RUS  HZ I         152 58.08         4.7 0.27                           102 176 
 PTB  HZ EP   1    152 40.47                             132    -0.3 7  147 258 
 PTB  HN ES   1    153  1.47                             132    -0.4 7  147 258 
 PTB  HZ I         153  7.20         2.8 0.44                           147 258 
 ZAR  HN ES   1    153 11.30                             123    -0.1 6  203 292 
 ZAR  HZ I         153 17.76         2.9 0.33                           203 292 
                                                                                
