 2011  8 2 0503 38.2 L   6.726 -73.337115.7  RSN  6 0.2 1.9LRSN                1
 GAP=152        0.42       3.1     4.6  4.9 -0.2839E+00  0.1154E+01 -0.6751E+01E
 Epicentro: GALAN - SANTANDER                                                  3
 ACTION:UPD 12-07-25 14:05 OP:epov STATUS:               ID:20110802050338 L   I
 2011-08-02-0500-00M.COL___140                                                 6
 STAT SP IPHASW D HRMM SECON CODA AMPLIT PERI AZIMU VELO AIN AR TRES W  DIS CAZ7
 BAR2 SZ EP   1    5 3 54.22                             168    0.05 7 22.6 131 
 BAR2 SZ ES   1    5 4  6.68                             168    0.03 7 22.6 131 
 BAR2 SZ I         5 4  7.57        33.1 0.24                          22.6 131 
 BRR  HZ EP   1    5 3 55.10                             151   -0.28 7 59.1 316 
 BRR  HN ES   2    5 4  9.19                             151    0.38 5 59.1 316 
 BRR  HZ I         5 4  9.97        18.9 0.48                          59.1 316 
 RUS  HZ I         5 4  1.69         8.0 0.62                          96.3 163 
 RUS  HE ES   2    5 4 14.53                             138   -0.25 5 96.3 163 
 PAM  SZ EP   1    5 3 59.20                             137    0.35 7 97.8  46 
 PAM  SN ES   2    5 4 14.90                             137   -0.09 5 97.8  46 
 BRI  SZ EP   2    5 4  0.77                             129   -0.05 5  125  29 
 BRI  SZ ES   2    5 4 18.19                             129   -0.31 5  125  29 
 OCA  SZ EP   1    5 4  5.13                             120    0.07 7  167   1 
 OCA  SZ ES   2    5 4 25.84                             120   -0.20 5  167   1 
 OCA  SZ I         5 4 27.47        12.3 0.43                           167   1 
                                                                                
