 2010 10 2 0518 14.8 L   6.923 -72.893140.8  RSN  4 0.1 1.3LRSN                1
 GAP=268        0.29       6.5    11.7  7.9  0.5996E+02 -0.6523E+02 -0.3296E+02E
 Epicentro: GUACA - SANTANDER                                                  3
 ACTION:UP  11-02-18 11:07 OP:tino STATUS:               ID:20101002051814 L   I
 2010-10-02-0514-40S.COL___125                                                 6
 STAT SP IPHASW D HRMM SECON CODA AMPLIT PERI AZIMU VELO SNR AR TRES W  DIS CAZ7
 BTL  SZ EP   1    518 34.38                             163     0.0 7   41 269 
 BAR2 SZ EP   2    518 34.76                             160     0.1 5   49 221 
 BAR2 SZ ES   2    518 50.10                             160     0.0 5   49 221 
 BAR2 SZ I         518 51.58         7.5 0.18                            49 221 
 BRR  HZ EP   2    518 36.72                             145    -0.1 5   93 283 
 BRR  HN ES   2    518 54.08                             145     0.1 5   93 283 
 BRR  HZ I         518 56.50         4.4 0.04                            93 283 
 RUS  HZ EP   2    518 39.33                             139     0.0 5  116 190 
 RUS  HE ES   2    518 58.32                             139     0.0 5  116 190 
 RUS  HZ I         518 59.32         2.0 0.34                           116 190 
                                                                                
