 2011 12 2 0628 51.2 L   6.755 -72.994150.1  RSN  4 0.4 1.8LRSN                1
 GAP=159        0.78       5.6     8.0  9.6 -0.6406E+01  0.6440E+01  0.1297E+02E
 Epicentro: CEPITA - SANTANDER                                                 3
 ACTION:UPD 12-07-13 16:13 OP:ep   STATUS:               ID:20111202062851 L   I
 2011-12-02-0620-00M.COL___170                                                 6
 STAT SP IPHASW D HRMM SECON CODA AMPLIT PERI AZIMU VELO AIN AR TRES W  DIS CAZ7
 BAR2 SZ EP   1    629 11.31                             169   -0.08 7 27.6 229 
 BAR2 SZ I         629 27.45        10.8 0.13                          27.6 229 
 PAM  SZ EP   1    629 14.00                             153    0.46 7 72.3  27 
 PAM  SZ I         629 14.39        13.5 0.17                          72.3  27 
 PAM  SN ES        629 30.85                             153   -0.1510 72.3  27 
 BRR  HZ EP   1    629 13.11                             148   -0.69 7 88.4 296 
 BRR  HN ES   1    629 31.87                             148    0.40 7 88.4 296 
 BRR  HZ I         629 34.26        25.9 0.16                          88.4 296 
 RUS  HZ EP   1    629 15.34                             146    0.33 7 95.9 186 
 RUS  HN ES   1    629 33.47                             146   -0.14 7 95.9 186 
 RUS  HZ I         629 35.11         4.5 0.25                          95.9 186 
                                                                                
