 2013  2 2 0559 22.1 L   6.774 -73.160141.3  RSN  6 0.5 1.6LRSN                1
 GAP=136        1.16       5.3     5.9  8.0 -0.2877E+01  0.5841E+01  0.8221E+01E
 Epicentro: LOS SANTOS - SANTANDER                                             3
 ACTION:UPD 13-03-12 09:29 OP:ep   STATUS:               ID:20130202055922 L   I
 2013-02-02-0558-49M.COL___179                                                 6
 STAT SP IPHASW D HRMM SECON CODA AMPLIT PERI AZIMU VELO AIN AR TRES W  DIS CAZ7
 BAR2 SZ EP   1    559 40.84                             171   -0.34 7 20.3 187 
 BAR2 SZ ES        559 55.85                             171   -0.1810 20.3 187 
 BAR2 SZ I         559 57.04         7.4 0.36            172           20.3 187 
 BRR  HZ EP        559 42.87                             152    0.0610 71.2 301 
 BRR  HN ES        559 59.81                             152    0.8710 71.2 301 
 BRR  HN I         6 0  0.33         9.8 0.32            152           71.2 301 
 PAM  SZ EP        559 44.03                             149   -0.0510 80.6  39 
 PAM  SE ES        6 0  0.90                             149   -0.3010 80.6  39 
 RUS  HZ EP        559 45.06                             144   -0.2010 97.9 175 
 RUS  HN ES        6 0  3.59                             144    0.3010 97.9 175 
 PTB  HZ EP        559 49.02                             131    0.46 9  146 260 
 PTB  HN ES        6 0  8.15                             131   -1.02 9  146 260 
 CHI  HZ EP   1    559 59.63                             116    0.38 6  245 195 
 CHI  HN ES   1    6 0 28.33                             116    0.13 6  245 195 
                                                                                
