 2014  2 2 0604 23.2 L   6.799 -73.142151.1  RSN  7 0.5 1.3LRSN                1
 GAP=201        1.34       4.7     8.6  8.2  0.8621E+01  0.1867E+01 -0.2134E+01E
 Epicentro: LOS SANTOS - SANTANDER                                             3
 ACTION:UPD 14-03-10 08:07 OP:ep   STATUS:               ID:20140202060423 L   I
 OLDACT:REG 14-02-02 07:14 OP:nd   STATUS:               ID:20140202060000     3
 2014-02-02-0600-00M.COL___288                                                 6
 STAT SP IPHASW D HRMM SECON CODA AMPLIT PERI AZIMU VELO AIN AR TRES W  DIS CAZ7
 BAR2 SZ EP        6 4 43.30                             171   -0.1510 23.3 191 
 BAR2 SZ ES        6 4 59.02                             171   -0.2410 23.3 191 
 BAR2 SZ I         6 5  2.39         5.1 0.44            168           23.3 191 
 BRR  HZ EP        6 4 45.23                             153    0.3010 71.6 298 
 BRR  HN ES        6 5  2.76                             153    0.8710 71.6 298 
 BRR  HZ I         6 5 14.15         2.8 0.64            149           71.6 298 
 RUS  HZ EP        6 4 47.64                             145    0.1910  100 176 
 RUS  HN ES        6 5  6.11                             145   -0.2710  100 176 
 RUS  HZ I         6 5  7.24         1.3 0.68            149            100 176 
 PTB  HZ EP        6 4 51.45                             133    0.83 9  148 259 
 PTB  HN ES        6 5 11.08                             133   -0.94 9  148 259 
 PTB  HZ I         6 5 18.66         4.1 0.34            133            148 259 
 SPBC HZ EP        6 4 51.99                             130   -0.12 9  163 219 
 SPBC HN ES        6 5 15.20                             130    0.53 9  163 219 
 SPBC HZ I         6 5 18.41         3.6 0.26            132            163 219 
 SML  HZ EP        6 4 59.81                             118   -0.33 8  244 335 
 SML  HN ES        6 5 28.22                             118   -0.74 8  244 335 
 SML  HZ I         6 5 35.06         3.2 0.11            121            244 335 
 CHI  HZ EP        6 5  1.51                             118    0.33 8  249 195 
 CHI  HN ES        6 5 30.11                             118   -0.71 8  249 195 
 CHI  HZ I         6 5 38.56         1.0 0.52            121            249 195 
                                                                                
