 2016  4 2 0054 55.6 L   6.762 -73.169139.2  RSN  5 0.4 1.5LRSN                1
 GAP=135        0.90       4.6     4.2  7.1 -0.6024E+00  0.1193E+02 -0.5870E+01E
 Epicentro: LOS SANTOS - SANTANDER                                             3
 ACTION:UPD 16-05-05 14:17 OP:rebc STATUS:               ID:20160402005455 L   I
 OLDACT:REG 16-04-02 12:31 OP:drio STATUS:               ID:20160402004747     3
 2016-04-02-0047-47M.COL___322                                                 6
 STAT SP IPHASW D HRMM SECON CODA AMPLIT PERI AZIMU VELO AIN AR TRES W  DIS CAZ7
 BAR2 EZ ES        055 29.25                             172    0.2710 18.8 185 
 BAR2 EZ I         055 30.53        11.3 0.38            172           18.8 185 
 PAM  EZ EP        055 17.28                             148   -0.1410 82.2  39 
 PAM  EN ES        055 34.37                             148   -0.0810 82.2  39 
 PAM  EZ I         055 36.83         8.4 0.72            152           82.2  39 
 RUS  HZ EP        055 18.31                             144   -0.1110 96.6 174 
 RUS  HE ES        055 36.20                             144   -0.0210 96.6 174 
 RUS  HZ I         055 37.95         2.1 0.32            148           96.6 174 
 PTB  HZ EP        055 21.37                             131   -0.37 9  145 260 
 PTB  HE ES        055 42.12                             131   -0.01 9  145 260 
 PTB  HZ I         055 49.32         4.7 0.46            132            145 260 
 ZAR  HZ EP        055 28.50                             121    0.95 9  203 294 
 ZAR  HE ES        055 52.08                             121   -0.39 9  203 294 
 ZAR  HZ I         055 58.38         4.0 0.28            122            203 294 
                                                                                
