 2010  7 2 0349 36.5 L   6.800 -73.145145.4  RSN  5 0.3 1.3LRSN                1
 GAP=155        0.51       5.6     9.3  8.1  0.1903E+02 -0.1827E+02 -0.1521E+02E
 Epicentro: LOS SANTOS - SANTANDER                                             3
 ACTION:UPD 10-12-01 15:14 OP:pat  STATUS:               ID:20100702034936 L   I
 2010-07-02-0347-55S.COL___118                                                 6
 STAT SP IPHASW D HRMM SECON CODA AMPLIT PERI AZIMU VELO AIN AR TRES W  DIS CAZ7
 BAR2 SZ EP        349 56.00                             170    -0.110   23 191 
 BAR2 SZ ES   2    350 11.31                             170     0.0 5   23 191 
 BRR  HZ EP        349 57.71                             152     0.110   71 298 
 BRR  HN ES   2    350 13.86                             152    -0.2 5   71 298 
 BRR  HZ I         350 18.60         6.7 0.24                            71 298 
 RUS  HZ EP   2    349 59.58                             144    -0.6 5  101 176 
 RUS  HN ES   2    350 19.16                             144     0.5 5  101 176 
 RUS  HZ I         350 20.91         2.2 0.31                           101 176 
 BRI  SZ EP   2    350  0.53                             141     0.2 5  108  21 
 GRA  SZ EP   3    350  2.26                             137     0.6 2  126  17 
 GRA  SZ ES   3    350 20.90                             137    -0.4 2  126  17 
                                                                                
