 2017  5 2 0034 24.1 L   6.769 -73.336151.4  RSN  4 0.4 1.1LRSN                1
 GAP=116        1.00       7.0     9.3  9.6  0.2488E+02 -0.1016E+02 -0.6322E+01E
 Epicentro: ZAPATOCA - SANTANDER                                               3
 ACTION:UPD 17-06-16 13:31 OP:jn   STATUS:               ID:20170502003424 L   I
 OLDACT:UP  17-05-02 14:40 OP:edw  STATUS:               ID:20170502002740d    3
 OLDACT:UP  17-05-02 14:39 OP:edw  STATUS:               ID:20170502002740d    3
 OLDACT:DUP 17-05-02 14:33 OP:edw  STATUS:               ID:20170502002740d    3
 OLDACT:UP  17-05-02 14:32 OP:edw  STATUS:               ID:20170502002739     3
 OLDACT:UP  17-05-02 14:28 OP:edw  STATUS:               ID:20170502002739     3
 OLDACT:REG 17-05-02 11:53 OP:edw  STATUS:               ID:20170502002739     3
 2017-05-02-0028-00M.COL___371                                                 6
 STAT SP IPHASW D HRMM SECON CODA AMPLIT PERI AZIMU VELO AIN AR TRES W  DIS CAZ7
 BRR  HZ EP        034 45.40                             159    0.3010 55.9 312 
 BRR  HN ES        035  1.62                             159    0.1410 55.9 312 
 BRR  HZ I         035 11.73         2.8 0.44            158           55.9 312 
 PAM  EZ EP     D  034 47.63                             147   -0.3610 94.5  48 
 PAM  EN ES   4    035  5.61                             147   -1.00 0 94.5  48 
 RUS  HZ EP        034 49.04                             145    0.6110  101 164 
 RUS  HN ES        035  7.11                             145   -0.2910  101 164 
 RUS  HZ I         035  8.57         2.1 0.34            154            101 164 
 PTB  HZ EP        034 49.27                             138   -0.4410  126 259 
 PTB  HN ES   4    035  5.86                             138   -3.83 0  126 259 
 PTB  HZ I         035  6.42         1.5 0.24            150            126 259 
                                                                                
