 2012  7 2 0231 57.6 L   6.707 -73.159145.5  RSN  5 0.4 1.2LRSN                1
 GAP=229        0.85       9.0     8.6 12.3  0.4260E+02  0.4951E+01 -0.2074E+02E
 Epicentro: VILLANUEVA - SANTANDER                                             3
 ACTION:UPD 12-08-14 11:41 OP:ep   STATUS:               ID:20120702023157 L   I
 2012-07-02-0230-00M.COL___201                                                 6
 STAT SP IPHASW D HRMM SECON CODA AMPLIT PERI AZIMU VELO AIN AR TRES W  DIS CAZ7
 BAR2 SZ EP   1    232 17.04                             175     0.0 7   13 191 
 BRR  HZ EP   1    232 18.87                             151    -0.1 7   75 306 
 BRR  HZ I         232 19.14         3.9 0.14            149             75 306 
 BRR  HN ES   1    232 35.27                             151    -0.3 7   75 306 
 RUS  HN ES   1    232 38.87                             147     0.3 7   90 175 
 PTB  HZ EP   1    232 23.87                             133    -0.4 7  145 263 
 PTB  HN ES   1    232 44.69                             133    -0.3 7  145 263 
 PTB  HZ I         232 47.83         1.3 0.16            130            145 263 
 ZAR  HN ES   1    232 56.65                             122     0.9 6  207 295 
