 2017  8 2 0609  1.5 L   6.738 -73.135143.2  RSN  6 0.4 1.2LRSN                1
 GAP=234        1.09       6.0     6.4  8.0  0.1521E+02  0.9677E+01  0.3284E+01E
 Epicentro: LOS SANTOS - SANTANDER                                             3
 ACTION:UPD 17-09-04 20:15 OP:rebc STATUS:               ID:20170802060901 L   I
 OLDACT:REG 17-08-02 13:23 OP:osc  STATUS:               ID:20170802060736     3
 2017-08-02-0608-00M.COL___392                                                 6
 STAT SP IPHASW D HRMM SECON CODA AMPLIT PERI AZIMU VELO AIN AR TRES W  DIS CAZ7
 BAR2 EZ EP        6 9 20.70                             173    0.0010 17.0 198 
 BAR2 EZ ES        6 9 35.29                             173   -0.3910 17.0 198 
 BAR2 EZ I         6 9 36.72         5.8 0.34            170           17.0 198 
 BRR  HZ EP        6 9 22.58                             151   -0.0410 75.7 303 
 BRR  HN ES        6 9 39.63                             151    0.5310 75.7 303 
 RUS  HZ EP        6 9 25.04                             145    0.5410 93.7 176 
 RUS  HN ES        6 9 42.21                             145   -0.2310 93.7 176 
 RUS  HZ I         6 9 44.06         2.1 0.22            145           93.7 176 
 PTB  HZ EP        6 9 27.74                             131   -0.50 9  148 262 
 PTB  HN ES        6 9 48.52                             131   -0.59 9  148 262 
 PTB  HZ I         6 9 51.79         1.7 0.16            131            148 262 
 SPBC HZ EP        6 9 29.11                             129   -0.25 9  159 221 
 SPBC HE ES        6 9 51.80                             129    0.70 9  159 221 
 SPBC HZ I         6 9 53.60         2.8 0.20            129            159 221 
 ZAR  HN ES        6 9 59.86                             121    0.23 8  208 294 
                                                                                
