 2016 11 2 0342 55.0 L   6.799 -73.130144.4  RSN  4 0.4 1.1LRSN                1
 GAP=239        1.07       8.6     8.3  8.7  0.3581E+02  0.4653E+01 -0.3029E+00E
 Epicentro: LOS SANTOS - SANTANDER                                             3
 ACTION:UPD 17-10-26 21:03 OP:lp   STATUS:               ID:20161102033742 L   I
 OLDACT:UP  16-11-02 15:25 OP:dani STATUS:               ID:20161102033742 L   3
 OLDACT:UPD 16-11-02 13:22 OP:dnl  STATUS:               ID:20161102033742 L   3
 2016-11-02-0338-00M.COL___343                                                 6
 STAT SP IPHASW D HRMM SECON CODA AMPLIT PERI AZIMU VELO AIN AR TRES W  DIS CAZ7
 BAR2 EZ EP        343 14.35                             170   -0.1210 23.6 194 
 BAR2 EZ ES        343 28.90                             170   -0.7610 23.6 194 
 BAR2 EZ I         343 32.89         6.3 0.58            170           23.6 194 
 BRR  HZ EP        343 16.30                             152    0.2110 72.8 298 
 BRR  HN ES        343 33.07                             152    0.5310 72.8 298 
 BRR  HZ I         343 35.99         2.6 0.19            153           72.8 298 
 RUS  HZ EP        343 18.56                             144   -0.0410  100 177 
 RUS  HN ES        343 37.57                             144    0.5610  100 177 
 RUS  HZ I         343 39.06         0.8 0.26            146            100 177 
 PTB  HZ EP        343 21.76                             131   -0.25 9  149 259 
 PTB  HE ES        343 42.87                             131   -0.21 9  149 259 
 PTB  HZ I         343 45.88         1.1 0.25            134            149 259 
                                                                                
