 2017  5 2 0524 28.3 L   6.747 -73.124146.0  RSN  5 0.4 1.2LRSN                1
 GAP=142        1.09       5.5     5.0  8.7  0.2135E+01  0.1043E+02  0.8517E+00E
 Epicentro: LOS SANTOS - SANTANDER                                             3
 ACTION:UPD 17-06-16 13:32 OP:jn   STATUS:               ID:20170502052428 L   I
 OLDACT:UP  17-05-02 17:11 OP:edw  STATUS:               ID:20170502051742     3
 OLDACT:REG 17-05-02 13:40 OP:edw  STATUS:               ID:20170502051742     3
 2017-05-02-0518-00M.COL___365                                                 6
 STAT SP IPHASW D HRMM SECON CODA AMPLIT PERI AZIMU VELO AIN AR TRES W  DIS CAZ7
 BRR  HZ IP     C  524 49.64                             151   -0.0910 76.2 302 
 BRR  HN ES        525  7.16                             151    0.6910 76.2 302 
 BRR  HZ I         525  8.47         2.5 0.52            150           76.2 302 
 PAM  EZ EP     C  524 50.51                             150   -0.1910 80.6  36 
 PAM  EN ES        525  7.89                             150   -0.3110 80.6  36 
 PAM  EZ I         525 10.51         1.7 0.44            153           80.6  36 
 RUS  HZ EP        524 52.09                             146    0.4710 94.6 177 
 RUS  HN ES        525  9.79                             146   -0.0410 94.6 177 
 RUS  HZ I         525 11.59         1.8 0.24            148           94.6 177 
 PTB  HZ EP        524 54.80                             132   -0.58 9  149 261 
 PTB  HN ES        525 16.05                             132   -0.47 9  149 261 
 PTB  HZ I         525 21.51         3.5 0.38            133            149 261 
 ZAR  HZ EP        525  1.88                             122    0.69 8  209 293 
 ZAR  HN ES        525 26.72                             122   -0.15 8  209 293 
 ZAR  HZ I         525 32.82         2.7 0.34            123            209 293 
                                                                                
