 2017  7 2 0648 53.8 L   6.065 -73.711117.0  RSN 20 0.5 2.2LRSN                1
 GAP= 45        0.88       2.5     2.1  4.6  0.1989E-01  0.2008E+00 -0.2005E+01E
 Epicentro: VELEZ - SANTANDER                                                  3
 ACTION:UPD 17-08-30 15:29 OP:rebc STATUS:               ID:20170702064853 L   I
 OLDACT:UP  17-07-02 16:11 OP:and  STATUS:               ID:20170702064740     3
 OLDACT:UP  17-07-02 16:10 OP:and  STATUS:               ID:20170702064740     3
 OLDACT:UP  17-07-02 16:10 OP:and  STATUS:               ID:20170702064740     3
 OLDACT:UP  17-07-02 16:07 OP:and  STATUS:               ID:20170702064740     3
 OLDACT:UP  17-07-02 16:06 OP:and  STATUS:               ID:20170702064740     3
 OLDACT:UP  17-07-02 16:06 OP:and  STATUS:               ID:20170702064740     3
 OLDACT:UP  17-07-02 16:04 OP:and  STATUS:               ID:20170702064740     3
 OLDACT:UP  17-07-02 16:04 OP:and  STATUS:               ID:20170702064740     3
 OLDACT:UP  17-07-02 16:04 OP:and  STATUS:               ID:20170702064740     3
 OLDACT:REG 17-07-02 11:56 OP:and  STATUS:               ID:20170702064740     3
 2017-07-02-0648-00M.COL___380                                                 6
 STAT SP IPHASW D HRMM SECON CODA AMPLIT PERI AZIMU VELO AIN AR TRES W  DIS CAZ7
 SPBC HZ IP     C  649 11.26                             151   -0.0910 60.7 221 
 SPBC HN ES        649 24.77                             151   -0.2910 60.7 221 
 SPBC HZ I         649 26.80        81.7 0.12            151           60.7 221 
 BAR2 EZ IP     D  649 13.17                             142    0.1410 82.6  45 
 BAR2 EZ ES        649 28.10                             142    0.0310 82.6  45 
 BAR2 EZ I         649 29.13        94.1 0.48            146           82.6  45 
 PTB  HZ IP   9 C  649 12.95                             137   -0.96 0 97.7 303 
 PTB  HN ES        649 28.97                             138    0.3010 97.7 303 
 PTB  HZ I         649 35.52        18.8 0.24            139           97.7 303 
 BRR  HZ IP     C  649 15.36                             132   -0.0510  115 360 
 BRR  HE ES   4    649 33.95                             132    1.65 0  115 360 
 BRR  HZ I         649 35.54        35.5 0.14            135            115 360 
 TABC EZ EP   2    649 18.33                             129    1.05 5  129 205 
 NOR  HZ EP   2    649 17.52                             126   -0.28 5  140 247 
 NOR  HE ES        649 36.84                             126    0.29 9  140 247 
 NOR  HZ I         649 38.49        32.1 0.14            128            140 247 
 ROSC BZ EP   9    649 21.69                             124    2.28 0  151 207 
 ROSC BN ES        649 41.17                             124   -0.52 9  151 207 
 ROSC BZ I         649 43.99        15.4 0.35            126            151 207 
 CHI  HZ EP        649 19.81                             122   -0.38 9  159 181 
 CHI  HE ES        649 40.20                             122   -0.61 9  159 181 
 CHI  HZ I         649 43.09         7.7 0.40            125            159 181 
 YPLC HZ EP        649 20.53                             121    0.14 9  165 117 
 YPLC HE ES        649 41.81                             121    0.65 9  165 117 
 YPLC HZ I         649 44.99        25.0 0.30            124            165 117 
 ZAR  HZ EP        649 23.98                             115   -0.35 9  202 321 
 ZAR  HN ES        649 48.27                             115    0.09 9  202 321 
 ZAR  HZ I         649 49.63        31.8 0.28            118            202 321 
 HEL  HZ EP        649 25.34                             116    0.63 9  202 274 
 HEL  HN ES   2    649 48.07                             116   -0.78 4  202 274 
 HEL  HZ I         649 54.29         8.2 0.19            118            202 274 
 GUY2CHZ EP   9    649 25.83                             115    0.57 0  205 243 
 GUY2CHN ES        649 50.56                             115    0.16 8  205 243 
 GUY2CHZ I         649 56.30        13.4 0.48                           205 243 
 TAM  HZ EP        649 25.96                             113    0.03 8  216  79 
 TAM  HN ES        649 50.66                             113   -0.35 8  216  79 
 TAM  HZ I         649 52.29        15.3 0.26            117            216  79 
 CBOC HZ EP        649 31.07                             109    0.52 8  256 265 
 CBOC HN ES   2    649 58.34                             109   -0.90 4  256 265 
 CBOC HZ I         650  0.14         2.6 0.18            112            256 265 
 PTGC HZ EP   9    649 31.08                             108   -0.96 0  270 140 
 PTGC HE ES        650  0.40                             109   -0.54 8  270 140 
 PTGC HZ I         650  2.91         8.2 0.20            111            270 140 
 URE  HZ EP   4    649 31.33                             108   -1.18 0  274 313 
 URE  HN ES   4    650  0.15                             108   -2.58 0  274 313 
 URE  HZ I         650  2.42        10.0 0.18            110            274 313 
 ORTC HZ EP        649 34.94                             106    0.25 7  293 216 
 ORTC HN ES   3    650  8.30                             106    1.68 2  293 216 
 ORTC HZ I         650 12.33         8.2 0.46            108            293 216 
 DBB  EZ EP   2    649 35.26                             106    0.18 4  296 291 
 DBB  EN ES        650  7.28                             106   -0.02 7  296 291 
 DBB  EZ I         650 11.36         8.5 0.28            108            296 291 
 PAL  HZ EP   4    649 39.04                             105    2.01 0  312 246 
 PAL  HE ES   3    650  9.80                             105   -0.98 2  312 246 
 SJC  HZ EP        649 52.88                              99   -0.99 5  454 339 
 SJC  HN ES   4    650 37.17                              99   -3.58 0  454 339 
 SJC  HZ I         650 40.33         2.7 0.26            101            454 339 
                                                                                
