 2011 12 2 0912  4.1 L   6.752 -73.137145.3  RSN  7 0.3 1.7LRSN                1
 GAP=140        0.56       3.7     4.1  5.3 -0.3569E+01  0.3229E+01  0.4545E+01E
 Epicentro: LOS SANTOS - SANTANDER                                             3
 ACTION:UPD 12-07-13 16:13 OP:ep   STATUS:               ID:20111202091204 L   I
 2011-12-02-0910-00M.COL___170                                                 6
 STAT SP IPHASW D HRMM SECON CODA AMPLIT PERI AZIMU VELO AIN AR TRES W  DIS CAZ7
 BAR2 SZ EP   1    912 23.57                             172    0.04 7 18.4 196 
 BAR2 SZ ES   1    912 38.46                             172   -0.26 7 18.4 196 
 BAR2 SZ I         912 40.47        11.6 0.17                          18.4 196 
 BRR  HZ EP   1    912 25.54                             151    0.19 7 74.7 302 
 BRR  HZ I         912 40.15        15.8 0.28                          74.7 302 
 BRR  HE ES   1    912 42.13                             151    0.17 7 74.7 302 
 PAM  SZ EP   1    912 26.40                             150   -0.03 7 81.0  37 
 PAM  SN ES   1    912 43.59                             150   -0.29 7 81.0  37 
 RUS  HZ EP   1    912 27.87                             145    0.50 7 95.2 176 
 RUS  HN ES   1    912 45.74                             145    0.18 7 95.2 176 
 RUS  HZ I         912 47.24         5.2 0.33                          95.2 176 
 NOR  SN ES   1    913  6.97                             119   -0.20 6  232 236 
 CHI  HZ EP   1    912 40.60                             117   -0.59 6  244 196 
 HEL  HN ES   2    913 15.49                             115   -0.04 4  272 257 
                                                                                
