 2017 11 2 0150  1.8 L   6.756 -73.402116.0  RSN  5 0.4 1.5LRSN                1
 GAP=168        1.06       6.8     6.1  8.8  0.2597E+02  0.1345E+02  0.7934E+01E
 Epicentro: EL CARMEN - SANTANDER                                              3
 ACTION:UPD 17-12-12 19:50 OP:rebc STATUS:               ID:20171102015001 L   I
 OLDACT:REG 17-11-02 13:23 OP:dnl  STATUS:               ID:20171102014744     3
 2017-11-02-0148-00M.COL___441                                                 6
 STAT SP IPHASW D HRMM SECON CODA AMPLIT PERI AZIMU VELO AIN AR TRES W  DIS CAZ7
 BAR2 EZ EP        150 17.73                             165   -0.3610 30.3 127 
 BAR2 EZ ES        150 30.78                             165    0.0110 30.3 127 
 BAR2 EZ I         150 31.91        15.4 0.22            158           30.3 127 
 BRR  HZ EP        150 18.07                             154   -0.5910 51.8 319 
 BRR  HN ES        150 32.01                             154    0.2110 51.8 319 
 BRR  HZ I         150 32.77        11.6 0.60            136           51.8 319 
 RUS  HZ EP        150 23.07                             136    0.1910  102 160 
 RUS  HN ES        150 39.71                             136    0.4010  102 160 
 PTB  HZ EP   2    150 23.97                             131    0.21 5  119 258 
 PTB  HN ES        150 40.29                             131   -0.5810  119 258 
 PTB  HZ I         150 45.31         2.1 0.10            116            119 258 
 ZAR  HZ EP   2    150 30.03                             118    0.10 4  180 297 
 ZAR  HZ I         150 51.11         5.0 0.48            105            180 297 
 ZAR  HN ES        150 52.65                             118    0.80 9  180 297 
                                                                                
