 2013 10 2 0058 40.2 L   6.701 -73.219145.4  RSN  4 0.3 1.1LRSN                1
 GAP=212        0.74       5.9     5.7  6.5  0.1696E+02  0.3486E+01  0.1612E+01E
 Epicentro: VILLANUEVA - SANTANDER                                             3
 ACTION:UPD 13-11-25 09:18 OP:ep   STATUS:               ID:20131002005840 L   I
 OLDACT:DUP 13-10-02 07:03 OP:nd   STATUS:               ID:20131002004960d    3
 2013-10-02-0049-59M.COL___272                                                 6
 STAT SP IPHASW D HRMM SECON CODA AMPLIT PERI AZIMU VELO AIN AR TRES W  DIS CAZ7
 BAR2 SZ EP   1    058 59.41                             175   -0.23 7 12.7 161 
 BAR2 SZ ES   1    059 14.26                             175   -0.53 7 12.7 161 
 BAR2 SZ I         059 16.86         3.4 0.18            173           12.7 161 
 BRR  HZ EP        059  1.05                             153   -0.2510 70.6 309 
 BRR  HN ES        059 18.20                             153    0.4710 70.6 309 
 BRR  HZ I         059 20.74         4.5 0.44            153           70.6 309 
 RUS  HZ EP        059  3.50                             147    0.2510 90.7 170 
 RUS  HN ES        059 21.32                             147    0.1110 90.7 170 
 RUS  HZ I         059 23.66         1.4 0.34            148           90.7 170 
 PTB  HZ EP        059  6.34                             134    0.05 9  138 263 
 PTB  HN ES        059 26.39                             134   -0.23 9  138 263 
 PTB  HZ I         059 30.87         1.8 0.28            135            138 263 
                                                                                
