 2017 11 2 0035  9.8 L   6.747 -73.235143.4  RSN  4 0.3 1.0LRSN                1
 GAP=214        0.64       5.8     5.4  6.7  0.1851E+02  0.1089E+01  0.4634E+01E
 Epicentro: ZAPATOCA - SANTANDER                                               3
 ACTION:UPD 17-12-12 19:50 OP:rebc STATUS:               ID:20171102003509 L   I
 OLDACT:REG 17-11-02 13:20 OP:dnl  STATUS:               ID:20171102002741     3
 2017-11-02-0028-00M.COL___441                                                 6
 STAT SP IPHASW D HRMM SECON CODA AMPLIT PERI AZIMU VELO AIN AR TRES W  DIS CAZ7
 BAR2 EZ EP   2    035 28.26                             172   -0.77 5 18.1 161 
 BAR2 EZ I         035 46.75         3.2 0.54            165           18.1 161 
 BRR  HZ EP   2    035 30.88                             154    0.49 5 66.0 307 
 BRR  HE ES        035 46.48                             154    0.0210 66.0 307 
 RUS  HZ EP        035 32.82                             145   -0.1510 96.0 170 
 RUS  HN ES        035 51.23                             145    0.1810 96.0 170 
 RUS  HZ I         035 53.10         1.3 0.42            145           96.0 170 
 PTB  HZ EP        035 35.84                             134    0.25 9  137 260 
 PTB  HE ES        035 55.49                             134   -0.23 9  137 260 
 PTB  HZ I         036  1.24         1.2 0.20            134            137 260 
                                                                                
