 2011  2 2 0115 13.0 L   6.779 -73.128150.0  RSN  8 0.3 1.8LRSN                1
 GAP=161        0.56       3.3     7.4  5.0 -0.1267E+02  0.1596E+02 -0.3717E+01E
 Epicentro: LOS SANTOS - SANTANDER                                             3
 ACTION:UP  11-03-28 15:05 OP:jfem STATUS:               ID:20110202011513 L   I
 2011-02-02-0113-20S.COL___134                                                 6
 STAT SP IPHASW D HRMM SECON CODA AMPLIT PERI AZIMU VELO SNR AR TRES W  DIS CAZ7
 BAR2 SZ EP   2    115 32.91                             171    -0.2 5   22 196 
 BAR2 SZ ES        115 49.09                             171     0.310   22 196 
 BAR2 SZ I         115 51.13        13.3 0.15                            22 196 
 RUS  HZ EP   2    115 36.55                             146    -0.4 5   98 177 
 RUS  HE ES   2    115 55.34                             146    -0.4 5   98 177 
 RUS  HZ I         115 59.26         4.7 0.33                            98 177 
 GRA  SZ EP   1    115 38.76                             138     0.0 7  127  16 
 GRA  SZ ES   1    115 58.78                             138    -0.1 7  127  16 
 GRA  SZ I         116  0.93        12.0 0.44                           127  16 
 OCA  SZ EP   1    115 41.84                             130     0.0 7  163 353 
 OCA  SZ ES   2    116  4.15                             130    -0.3 5  163 353 
 OCA  SZ I         116  8.51        14.5 0.32                           163 353 
 NOR  SZ EP   2    115 48.72                             119    -0.3 4  235 235 
 NOR  SE ES   2    116 16.65                             119    -0.5 4  235 235 
 CHI  HZ EP   1    115 51.16                             118     0.4 6  247 196 
 CHI  HE ES   2    116 19.82                             118    -0.4 4  247 196 
 CHI  HZ I         116 28.33         2.5 0.36                           247 196 
 HEL  HZ EP   2    115 54.08                             116     0.5 4  273 256 
 HEL  HZ I         116 32.85         4.8 0.15                           273 256 
 DBB  SZ EP   2    116  1.15                             110     0.3 3  342 275 
                                                                                
