 2017  8 2 0953  6.8 L   6.694 -73.412111.1  RSN  5 0.4 0.9LRSN                1
 GAP=175        0.83       4.9     4.1  6.9  0.3639E+01  0.1090E+02 -0.4570E+01E
 Epicentro: EL CARMEN - SANTANDER                                              3
 ACTION:UPD 17-09-04 20:15 OP:rebc STATUS:               ID:20170802095306 L   I
 OLDACT:DUP 17-08-02 19:13 OP:dhb  STATUS:               ID:20170802094739d    3
 OLDACT:UP  17-08-02 19:05 OP:dhb  STATUS:               ID:20170802094738     3
 OLDACT:REG 17-08-02 13:51 OP:osc  STATUS:               ID:20170802094738     3
 2017-08-02-0948-00M.COL___383                                                 6
 STAT SP IPHASW D HRMM SECON CODA AMPLIT PERI AZIMU VELO AIN AR TRES W  DIS CAZ7
 BAR2 EZ IP     C  953 22.67                             165    0.2210 27.7 114 
 BAR2 EZ ES        953 34.76                             165    0.1310 27.7 114 
 BAR2 EZ I         953 37.18         3.8 0.31            170           27.7 114 
 RUS  HZ EP        953 27.12                             136    0.1510 95.8 158 
 RUS  HN ES        953 42.32                             136   -0.3410 95.8 158 
 RUS  HZ I         953 43.18         1.6 0.32            145           95.8 158 
 PTB  HZ EP        953 28.20                             130    0.0110  117 262 
 PTB  HN ES        953 44.34                             130   -0.4910  117 262 
 PTB  HZ I         953 47.03         1.6 0.18            132            117 262 
 SPBC HZ EP        953 29.86                             125   -0.33 9  136 212 
 SPBC HE ES        953 49.00                             125    0.61 9  136 212 
 ZAR  HZ EP        953 34.89                             117   -0.03 9  183 299 
 ZAR  HN ES   3    953 58.06                             117    1.24 2  183 299 
 ZAR  HZ I         954  3.96         0.9 0.08            118            183 299 
                                                                                
