 2017  2 2 0118 29.2 L   6.751 -73.155146.8  RSN  5 0.2 1.6LRSN                1
 GAP=137        0.52       2.8     2.5  4.4 -0.1704E+00  0.3203E+01 -0.1114E+01E
 Epicentro: LOS SANTOS - SANTANDER                                             3
 ACTION:UPD 17-05-24 15:31 OP:jn   STATUS:               ID:20170202011829 L   I
 OLDACT:UP  17-02-02 14:52 OP:ar   STATUS:               ID:20170202010033d    3
 OLDACT:UP  17-02-02 14:51 OP:ar   STATUS:               ID:20170202010033d    3
 OLDACT:DUP 17-02-02 14:47 OP:ar   STATUS:               ID:20170202010033d    3
 OLDACT:UP  17-02-02 14:40 OP:ar   STATUS:               ID:20170202010032     3
 OLDACT:UP  17-02-02 14:38 OP:ar   STATUS:               ID:20170202010032     3
 OLDACT:REG 17-02-02 12:52 OP:ar   STATUS:               ID:20170202010032     3
 2017-02-02-0108-00M.COL___328                                                 6
 STAT SP IPHASW D HRMM SECON CODA AMPLIT PERI AZIMU VELO AIN AR TRES W  DIS CAZ7
 BAR2 HZ EP        118 48.87                             173   -0.0110 17.8 190 
 BAR2 HZ ES        119  4.41                             173    0.2010 17.8 190 
 BAR2 HZ I         119  5.02         9.2 0.22            173           17.8 190 
 PAM  EZ EP        118 51.90                             149    0.0510 82.2  38 
 PAM  EN ES        119  9.28                             149   -0.2110 82.2  38 
 PAM  EZ I         119 11.55         6.9 0.68            152           82.2  38 
 RUS  HZ EP     D  118 52.72                             145    0.0110 95.3 175 
 RUS  HN ES        119 11.08                             145    0.0610 95.3 175 
 RUS  HZ I         119 12.76         3.7 0.24            148           95.3 175 
 PTB  HZ EP        118 56.07                             133   -0.03 9  146 261 
 PTB  HN ES        119 16.69                             133   -0.37 9  146 261 
 PTB  HZ I         119 21.31         4.2 0.24            133            146 261 
 ZAR  HZ EP   4    119  5.71                             122    3.86 0  205 294 
 ZAR  HE ES        119 27.63                             122    0.33 9  205 294 
 ZAR  HZ I         119 32.69         5.1 0.34            123            205 294 
                                                                                
