 2015 10 2 0734 49.8 L   6.210 -73.690109.8  RSN  6 0.2 1.4LRSN                1
 GAP= 97        0.48       2.3     2.6  4.8 -0.1997E+01  0.7245E+01 -0.3572E+01E
 Epicentro: LA PAZ - SANTANDER                                                 3
 ACTION:UPD 15-12-22 20:36 OP:cam  STATUS:               ID:20151002073449 L   I
 OLDACT:UP  15-10-30 14:17 OP:nlst STATUS:               ID:20151002073449 L   3
 OLDACT:REG 15-10-02 13:18 OP:ar   STATUS:               ID:20151002072748     3
 2015-10-02-0727-48M.COL___351                                                 6
 STAT SP IPHASW D HRMM SECON CODA AMPLIT PERI AZIMU VELO AIN AR TRES W  DIS CAZ7
 BAR2 EZ ES        735 21.19                             145   -0.0410 70.3  53 
 BAR2 EZ I         735 22.51        15.7 0.46            149           70.3  53 
 SPBC HZ EP        735  7.33                             143   -0.2210 74.8 214 
 SPBC HN ES        735 21.52                             143    0.1010 74.8 214 
 SPBC HZ I         735 22.44         5.0 0.12            146           74.8 214 
 RUS  HZ EP   2    735  8.01                             143   -0.18 5 75.8 118 
 RUS  HN ES   2    735 22.88                             143    0.31 5 75.8 118 
 RUS  HZ I         735 23.77         2.2 0.22            149           75.8 118 
 NOR  HN ES        735 33.16                             122   -0.15 9  149 241 
 NOR  HZ I         735 36.92         4.7 0.22            124            149 241 
 ZAR  HZ EP        735 18.67                             115   -0.11 9  192 318 
 ZAR  HE ES        735 41.54                             115    0.12 9  192 318 
 ZAR  HZ I         735 45.38         2.8 0.28            117            192 318 
 GUY2CHZ EP        735 22.35                             112    0.36 8  215 240 
 GUY2CHN ES   4    735 49.97                             112    2.84 0  215 240 
 GUY2CHZ I         735 52.96         2.2 0.50                           215 240 
                                                                                
