 2011  4 2 0941 32.2 L   6.811 -73.120142.5  RSN 12 0.4 2.1LRSN                1
 GAP=157        1.14       6.8     8.6  7.3 -0.3571E+02  0.1506E+02  0.4115E+01E
 Epicentro: LOS SANTOS - SANTANDER                                             3
 ACTION:UP  11-06-22 15:28 OP:REBC STATUS:               ID:20110402094132 L   I
 2011-04-02-0939-58S.COL___138                                                 6
 STAT SP IPHASW D HRMM SECON CODA AMPLIT PERI AZIMU VELO SNR AR TRES W  DIS CAZ7
 BTL  SZ IP        941 52.11                             172     0.710   20 306 
 BAR2 SZ IP        941 50.99                             169    -0.510   25 196 
 BAR2 SZ I         941 51.13        24.0 0.08                            25 196 
 BAR2 SZ ES   1    942  6.38                             169    -0.1 7   25 196 
 GIR2 SZ EP        941 52.20                             167     0.710   31 345 
 GIR2 SZ ES   1    942  6.17                             167    -0.3 7   31 345 
 BRR  HZ IP     D  941 52.84                             151    -0.310   73 297 
 BRR  HZ I         941 53.01        41.6 0.22                            73 297 
 BRR  HN ES   1    942  9.74                             151     0.3 7   73 297 
 PAM  SZ EP        941 53.95                             151     0.110   75  38 
 PAM  SZ I         941 54.19        11.3 0.23                            75  38 
 PAM  SN ES   1    942 10.86                             151     0.0 7   75  38 
 GRA  SZ EP        941 56.82                             137    -0.210  124  16 
 GRA  SZ ES   1    942 15.87                             137    -0.4 7  124  16 
 GRA  SZ I         942 18.97        10.2 0.30                           124  16 
 OCA  SZ EP        941 59.85                             129    -0.3 9  159 352 
 OCA  SZ I         942 25.95        21.0 0.12                           159 352 
 NOR  SZ EP        942  7.54                             117    -0.5 8  238 235 
 NOR  SN ES   1    942 35.68                             117    -0.4 6  238 235 
 CHI  HZ EP   2    942  9.38                             116    -0.5 4  251 196 
 CHI  HN ES   2    942 39.14                             116    -0.2 4  251 196 
 CHI  HZ I         942 44.93         5.2 0.43                           251 196 
 HEL  HZ EP        942 12.79                             114     0.2 8  275 256 
 HEL  HZ I         942 49.57        11.2 0.27                           275 256 
 RREF HZ EP        942 19.31                             110     0.8 7  325 230 
 RREF HZ I         943  5.14         7.1 0.04                           325 230 
 DBB  SZ EP   2    942 19.68                             109    -0.2 3  342 274 
                                                                                
