 2011  5 2 0948 52.8 L   6.773 -73.141140.6  RSN  5 0.2 1.6LRSN                1
 GAP=159        0.41       4.0     5.8  6.6 -0.8723E+01  0.1532E+02  0.5970E+01E
 Epicentro: VILLANUEVA - SANTANDER                                             3
 ACTION:UP  11-06-29 08:50 OP:tino STATUS:               ID:20110502094829dL   I
 2011-05-02-0947-52S.COL___130                                                 6
 STAT SP IPHASW D HRMM SECON CODA AMPLIT PERI AZIMU VELO SNR AR TRES W  DIS CAZ7
 BTL  SZ ES   2    949 26.92                             170     0.3 5   21 319 
 BRR  HE ES   2    949 29.60                             151    -0.1 5   73 300 
 RUS  HN ES   2    949 33.70                             144    -0.1 5   98 176 
 RUS  HZ I         949 35.90         4.5 0.30                            98 176 
 GRA  SZ ES   2    949 37.16                             133    -0.2 5  128  17 
 GRA  SZ I         949 38.91         7.1 0.47                           128  17 
 NOR  SZ EP   1    949 28.30                             117     0.2 6  233 235 
 NOR  SE ES   1    949 55.51                             117    -0.1 6  233 235 
                                                                                
