 2014  6 2 0139 35.6 L   6.715 -73.130136.9  RSN  5 0.5 1.3LRSN                1
 GAP=233        1.22       8.7     9.0  9.1  0.3821E+02  0.1805E+02  0.1381E+02E
 Epicentro: JORDAN - SANTANDER                                                 3
 ACTION:UPD 14-07-01 22:49 OP:nd   STATUS:               ID:20140602013935 L   I
 OLDACT:REG 14-06-02 13:47 OP:stll STATUS:               ID:20140602013817     3
 2014-06-02-0138-17M.COL___256                                                 6
 STAT SP IPHASW D HRMM SECON CODA AMPLIT PERI AZIMU VELO AIN AR TRES W  DIS CAZ7
 BAR2 SZ EP        139 53.56                             174   -0.4010 14.7 203 
 BAR2 SZ I         139 54.64         6.1 0.16            174           14.7 203 
 BAR2 SZ ES        140  8.07                             174   -0.2510 14.7 203 
 BRR  HZ EP        139 55.95                             149   -0.1910 77.6 304 
 BRR  HZ I         139 56.15         6.3 0.28            149           77.6 304 
 BRR  HN ES        140 12.88                             149    0.6910 77.6 304 
 RUS  HZ EP        139 58.29                             145    0.5510 91.1 177 
 RUS  HZ I         139 59.33         2.1 0.16            144           91.1 177 
 RUS  HN ES        140 14.88                             145   -0.1710 91.1 177 
 PTB  HZ EP        140  1.11                             130   -0.72 9  148 263 
 PTB  HZ I         140  2.13         2.9 0.18            130            148 263 
 PTB  HE ES        140 22.13                             130   -0.19 9  148 263 
 SPBC HZ EP        140  3.47                             128    0.67 9  157 222 
                                                                                
