 2014  4 2 0024  1.2 L   6.749 -73.154156.2  RSN  6 0.5 1.7LRSN                1
 GAP=138        0.96       6.1     5.7  9.8 -0.1385E+02 -0.1142E+01  0.8271E+01E
 Epicentro: LOS SANTOS - SANTANDER                                             3
 ACTION:UPD 14-05-13 23:05 OP:nd   STATUS:               ID:20140402002401 L   I
 OLDACT:DUP 14-04-02 14:48 OP:fm   STATUS:               ID:20140402001814d    3
 2014-04-02-0018-13M.COL___255                                                 6
 STAT SP IPHASW D HRMM SECON CODA AMPLIT PERI AZIMU VELO AIN AR TRES W  DIS CAZ7
 BRR  HZ EP   1    024 24.08                             154    0.52 7 73.3 303 
 BRR  HN ES   1    024 41.02                             154   -0.01 7 73.3 303 
 BRR  HZ I         024 42.81         8.7 0.68            160           73.3 303 
 PAM  SZ EP        024 25.30                             151    0.5210 82.3  38 
 PAM  SN ES   1    024 42.63                             151   -0.57 7 82.3  38 
 PAM  SZ I         024 44.53         7.8 0.60            148           82.3  38 
 RUS  HZ EP   1    024 24.92                             147   -0.66 7 95.0 175 
 RUS  HZ I         024 43.16         7.0 0.58            138           95.0 175 
 RUS  HE ES   1    024 44.85                             147    0.23 7 95.0 175 
 PTB  HZ EP   1    024 27.93                             135   -0.90 7  146 261 
 PTB  HE ES        024 50.47                             135    0.05 9  146 261 
 PTB  HZ I         024 52.30         5.4 0.16            133            146 261 
 SPBC HZ EP   1    024 30.28                             132    0.25 7  158 220 
 SPBC HN ES   1    024 52.84                             132    0.28 7  158 220 
 SPBC HZ I         024 56.20         9.5 0.22            127            158 220 
 NOR  HE ES   1    025  4.89                             121   -0.25 6  231 235 
                                                                                
