 2013  3 2 0100 12.7 L   6.771 -73.144140.9  RSN  4 0.3 1.6LRSN                1
 GAP=138        0.77       4.1     4.4  6.9 -0.1403E+01  0.3959E+01  0.3987E+01E
 Epicentro: LOS SANTOS - SANTANDER                                             3
 ACTION:UPD 13-04-09 13:59 OP:ep   STATUS:               ID:20130302010012 L   I
 2013-03-02-0058-49M.COL___199                                                 6
 STAT SP IPHASW D HRMM SECON CODA AMPLIT PERI AZIMU VELO AIN AR TRES W  DIS CAZ7
 BRR  HZ EP        1 0 33.80                             151    0.3710 73.0 301 
 BRR  HN ES        1 0 49.97                             151    0.3710 73.0 301 
 BRR  HN I         1 0 54.52        12.7 0.18            150           73.0 301 
 PAM  SZ EP        1 0 34.65                             149    0.0910 79.8  38 
 PAM  SZ I         1 0 34.76         5.9 0.18            152           79.8  38 
 PAM  SN ES        1 0 51.22                             149   -0.3810 79.8  38 
 RUS  HZ EP        1 0 35.82                             144    0.0810 97.3 176 
 RUS  HN ES        1 0 53.72                             144    0.0110 97.3 176 
 RUS  HN I         1 0 54.55         3.7 0.42            147           97.3 176 
 PTB  HZ EP        1 0 38.91                             131   -0.33 9  147 260 
 PTB  HN ES   1    1 0 59.44                             131   -0.50 7  147 260 
 PTB  HN I         1 1  2.42         6.5 0.18            132            147 260 
                                                                                
