 2014 11 2 0851 21.2 L   6.714 -73.166147.5  RSN  4 0.3 1.1LRSN                1
 GAP=228        0.70       6.3     5.8  6.6  0.1317E+02  0.5318E+01  0.1111E+01E
 Epicentro: VILLANUEVA - SANTANDER                                             3
 ACTION:UPD 14-12-19 15:38 OP:nd   STATUS:               ID:20141102085121 L   I
 OLDACT:DUP 14-11-02 14:48 OP:spq  STATUS:               ID:20141102084743d    3
 2014-11-02-0847-42M.COL___268                                                 6
 STAT SP IPHASW D HRMM SECON CODA AMPLIT PERI AZIMU VELO AIN AR TRES W  DIS CAZ7
 BAR2 SZ EP   1    851 41.01                             175    0.10 7 13.6 188 
 BAR2 SZ ES   1    851 55.65                             175   -0.62 7 13.6 188 
 BAR2 SZ I         851 57.90         3.4 0.22            172           13.6 188 
 BRR  HZ EP        851 42.73                             152   -0.0110 74.3 306 
 BRR  HN ES        851 59.84                             152    0.3110 74.3 306 
 BRR  HZ I         852  1.40         2.2 0.22            153           74.3 306 
 RUS  HZ EP   2    851 44.18                             147   -0.33 5 91.3 174 
 RUS  HE ES   1    852  3.15                             147    0.48 7 91.3 174 
 RUS  HZ I         852  4.89         1.1 0.40            147           91.3 174 
 PTB  HZ EP        851 47.98                             133   -0.02 9  144 262 
 PTB  HN ES        852  8.69                             133   -0.19 9  144 262 
 PTB  HZ I         852 11.38         1.7 0.22            134            144 262 
                                                                                
