 2012  7 2 0615 43.7 L   6.720 -73.189151.6  RSN  7 0.3 1.5LRSN                1
 GAP=178        0.71       4.6     5.3  6.2  0.8234E+01  0.1733E+01 -0.5188E+01E
 Epicentro: VILLANUEVA - SANTANDER                                             3
 ACTION:UPD 12-08-14 11:42 OP:ep   STATUS:               ID:20120702061543 L   I
 2012-07-02-0610-00M.COL___201                                                 6
 STAT SP IPHASW D HRMM SECON CODA AMPLIT PERI AZIMU VELO AIN AR TRES W  DIS CAZ7
 BAR2 SZ EP   1    616  3.91                             175     0.0 7   14 177 
 BAR2 SZ I         616  4.17         8.2 0.19            147             14 177 
 BAR2 SZ ES   1    616 19.56                             175    -0.1 7   14 177 
 BRR  HZ EP        616  5.84                             153     0.310   72 307 
 BRR  HN ES   1    616 23.05                             153     0.5 7   72 307 
 BRR  HZ I         616 25.51         9.6 0.11            136             72 307 
 RUS  HZ EP   1    616  7.72                             148     0.2 7   92 173 
 RUS  HZ I         616  8.61         2.5 0.28            122             92 173 
 RUS  HN ES   1    616 25.85                             148    -0.2 7   92 173 
 PTB  HZ EP   1    616 10.47                             135    -0.2 7  142 262 
 PTB  HN ES   1    616 31.00                             135    -0.6 7  142 262 
 PTB  HZ I         616 37.76         4.6 0.29            114            142 262 
 OCA  HZ EP   1    616 13.08                             129    -0.2 7  169 355 
 OCA  HN ES   2    616 35.63                             129    -0.7 5  169 355 
 ZAR  HZ EP   1    616 16.40                             124    -0.1 6  203 295 
 ZAR  HN ES   1    616 42.27                             124     0.3 6  203 295 
 CHI  HZ EP   2    616 20.58                             119    -0.1 4  239 195 
 CHI  HZ I         617  0.05         2.6 0.38            104            239 195 
