 2010 11 2 0317 40.1 L   6.801 -73.091148.0  RSN 23 0.5 3.8LRSN                1
 GAP=106        0.94       3.2     5.0  5.4 -0.5060E+01  0.2395E+01  0.4490E+01E
 Epicentro: LOS SANTOS - SANTANDER                                             3
 ACTION:UP  10-12-17 16:49 OP:REBC STATUS:               ID:20101102031740 L   I
 2010-11-02-0315-07S.COL___126                                                 6
 STAT SP IPHASW D HRMM SECON CODA AMPLIT PERI AZIMU VELO SNR AR TRES W  DIS CAZ7
 BAR2 SZ IP        318  0.02                             170     0.010   25 204 
 BAR2 SZ ES   1    318 14.90                             170    -0.7 7   25 204 
 BAR2 SZ I         318 18.13      1363.2 0.48                            25 204 
 BRR  HZ IP     C  318  1.90                             151     0.110   77 296 
 BRR  HZ I         318  2.27      1084.0 0.14                            77 296 
 BRR  HE ES   1    318 19.41                             151     0.7 7   77 296 
 RUS  HZ IP     D  318  3.88                             144    -0.210  101 179 
 RUS  HE ES   1    318 22.68                             144    -0.1 7  101 179 
 RUS  HZ I         318 24.03       647.7 0.43                           101 179 
 GUE  SZ EP        318  5.00                             140     0.110  115   9 
 GRA  SZ IP        318  5.82                             138     0.410  124  15 
 GRA  SZ ES   1    318 25.40                             138     0.3 7  124  15 
 GRA  SZ I         318 26.62       778.1 0.34                           124  15 
 OCA  SZ IP        318  8.35                             130    -0.3 9  161 351 
 OCA  SZ ES   1    318 30.29                             130    -0.6 7  161 351 
 OCA  SZ I         318 36.43       422.1 0.29                           161 351 
 YOP  SZ IP        318 10.45                             127     0.4 9  177 155 
 NOR  SZ EP        318 15.78                             118    -0.7 8  240 235 
 NOR  SN ES   2    318 44.23                             118    -0.7 4  240 235 
 ROSC BZ IP     D  318 19.49                             117     0.8 8  256 212 
 ROSC BZ I         318 57.72       528.0 0.50                           256 212 
 CVER SZ EP        318 21.09                             115     0.2 8  275 203 
 CVER SZ I         318 23.05       529.8 0.31                           275 203 
 HEL  HZ EP        318 21.16                             115     0.1 7  278 256 
 HEL  HE ES   2    318 52.72                             115    -0.3 4  278 256 
 HEL  HZ I         318 57.81       187.9 0.67                           278 256 
 VIL  SZ EP        318 22.97                             112    -0.6 7  303 191 
 VIL  SN ES   2    318 57.54                             112     0.1 4  303 191 
 VIL  SZ I         319  4.49       217.8 0.46                           303 191 
 GUY  SZ EP   2    318 25.29                             112     0.9 4  306 235 
 GUY  SN ES   2    318 58.53                             112    -0.4 4  306 235 
 GUY  SZ I         319 10.88       538.0 0.51                           306 235 
 RREF HZ EP        318 26.90                             111     0.0 7  326 230 
 RREF HZ I         319  8.38       280.3 0.47                           326 230 
 TOL  SZ EP        318 29.35                             109     0.4 6  348 225 
 SDV  BZ IP     C  318 29.16                             109    -0.5 6  356  50 
 SDV  BZ I         318 30.57       116.9 0.45                           356  50 
 ANIL HZ EP        318 30.74                             108     0.3 6  362 225 
 PRA  HN ES   2    319 16.47                             107     0.3 3  395 210 
 GUA  SZ EP   3    318 42.27                             103    -1.0 1  473 174 
 HORQ SZ EP        318 50.69                             101    -0.4 4  537 227 
 PCON HZ EP        319  0.39                             100    -0.6 3  616 217 
 FLO2 HZ IP     C  319  2.38                              99    -1.2 2  643 206 
 SOTA HZ EP        319  4.60                              99     0.0 2  647 217 
                                                                                
