 2012 11 2 0736 27.3 L   6.793 -73.121151.8  RSN  7 0.3 1.9LRSN                1
 GAP=140        0.57       4.2     5.1  6.6  0.1238E+02  0.9859E+01  0.6824E+01E
 Epicentro: LOS SANTOS - SANTANDER                                             3
 ACTION:UPD 12-12-05 15:30 OP:}ep  STATUS:               ID:20121102073627 L   I
 2012-11-02-0730-00M.COL___234                                                 6
 STAT SP IPHASW D HRMM SECON CODA AMPLIT PERI AZIMU VELO AIN AR TRES W  DIS CAZ7
 BAR2 SZ EP   1    736 47.46                             171   -0.20 7 23.2 197 
 BRR  HZ EP   1    736 49.42                             153    0.16 7 74.0 298 
 BRR  HN ES   1    737  6.91                             153    0.52 7 74.0 298 
 BRR  HN I         737 10.95        17.9 0.22                          74.0 298 
 PAM  SN ES   2    737  7.60                             152   -0.28 5 76.3  38 
 RUS  HZ EP   1    736 51.83                             145    0.24 7 99.6 178 
 RUS  HN ES        737 10.35                             145   -0.1710 99.6 178 
 RUS  HN I         737 11.56         9.0 0.40                          99.6 178 
 ZAR  HE ES        737 25.97                             123   -0.32 8  207 292 
 ZAR  HN I         737 31.67         8.6 0.30                           207 292 
 CHI  HZ EP   1    737  5.55                             118    0.21 6  249 196 
 CHI  HN I         737 39.79         3.4 0.52                           249 196 
 PRA  HN ES   2    738  3.00                             107   -0.09 3  393 210 
                                                                                
