 2017  5 2 0257 12.5 L   6.875 -73.023149.6  RSN  4 0.3 1.0LRSN                1
 GAP=149        0.69       4.0     5.1  6.2 -0.5898E+00  0.6026E+01  0.4706E+01E
 Epicentro: PIEDECUESTA - SANTANDER                                            3
 ACTION:UPD 17-06-16 13:31 OP:jn   STATUS:               ID:20170502025712 L   I
 OLDACT:UP  17-05-02 15:41 OP:edw  STATUS:               ID:20170502024530d    3
 OLDACT:DUP 17-05-02 15:38 OP:edw  STATUS:               ID:20170502024530d    3
 2017-05-02-0248-00M.COL___371                                                 6
 STAT SP IPHASW D HRMM SECON CODA AMPLIT PERI AZIMU VELO AIN AR TRES W  DIS CAZ7
 PAM  EZ EP        257 34.05                             156   -0.2910 62.6  35 
 PAM  EE ES        257 51.40                             156    0.0310 62.6  35 
 PAM  EZ I         257 54.83         2.5 0.50            159           62.6  35 
 BRR  HZ EP        257 34.96                             150    0.3610 80.3 289 
 BRR  HN ES        257 51.84                             150    0.0110 80.3 289 
 RUS  HZ EP        257 37.56                             142    0.3210  109 183 
 RUS  HN ES        257 56.39                             142   -0.1410  109 183 
 RUS  HZ I         257 56.95         0.9 0.58            145            109 183 
 PTB  HZ EP        257 40.80                             130   -0.36 9  163 257 
 PTB  HN ES   4    258  0.86                             130   -2.65 0  163 257 
 PTB  HZ I         258  7.98         1.1 0.38            131            163 257 
                                                                                
