 2011  8 2 0710 23.6 L   6.799 -73.156152.6  RSN  4 0.1 1.0LRSN                1
 GAP=135        0.32       3.4     6.2  6.1  0.1191E+02 -0.2365E+02 -0.8910E+01E
 Epicentro: LOS SANTOS - SANTANDER                                             3
 ACTION:UPD 12-07-25 14:05 OP:epov STATUS:               ID:20110802071023 L   I
 2011-08-02-0700-00M.COL___140                                                 6
 STAT SP IPHASW D HRMM SECON CODA AMPLIT PERI AZIMU VELO AIN AR TRES W  DIS CAZ7
 BAR2 SZ EP   1    710 43.94                             171   -0.15 7 23.0 187 
 BAR2 SZ I         710 49.33         3.0 0.74                          23.0 187 
 BRR  HZ EP   1    710 45.47                             154   -0.02 7 70.2 299 
 BRR  HZ I         710 45.59         2.9 0.16                          70.2 299 
 BRR  HE ES   1    711  2.56                             154    0.04 7 70.2 299 
 PAM  SZ EP   1    710 46.68                             152    0.04 7 78.2  40 
 RUS  HZ EP   1    710 48.17                             145    0.10 7  101 175 
 RUS  HE ES   1    711  7.12                             145   -0.01 7  101 175 
 RUS  HZ I         711  7.80         0.9 0.28                           101 175 
                                                                                
