 2013  9 2 0929 10.0 L   6.807 -73.112146.7  RSN 14 0.5 2.4LRSN                1
 GAP= 73        1.15       3.3     3.5  5.8 -0.9185E+00  0.4997E+01  0.3350E+01E
 Epicentro: LOS SANTOS - SANTANDER                                             3
 ACTION:UPD 13-10-22 09:19 OP:ep   STATUS:               ID:20130902092910 L   I
 OLDACT:UP  13-09-02 12:04 OP:cam  STATUS:               ID:20130902092744     3
 OLDACT:REG 13-09-02 11:37 OP:cam  STATUS:               ID:20130902092744     3
 2013-09-02-0927-44M.COL___208                                                 6
 STAT SP IPHASW D HRMM SECON CODA AMPLIT PERI AZIMU VELO AIN AR TRES W  DIS CAZ7
 BAR2 SZ EP        929 29.49                             170   -0.2410 25.0 198 
 BAR2 SZ ES        929 45.19                             170    0.0310 25.0 198 
 BAR2 SZ I         929 50.48        28.0 0.22            164           25.0 198 
 BRR  HZ EP        929 31.40                             152    0.0310 74.2 297 
 BRR  HN ES        929 48.44                             152    0.3610 74.2 297 
 BRR  HZ I         929 51.50        42.3 0.30            145           74.2 297 
 PAM  SZ EP        929 32.41                             152    0.3110 74.5  38 
 PAM  SN ES        929 49.49                             152    0.1210 74.5  38 
 PAM  SZ I         929 51.47        69.5 0.54            157           74.5  38 
 RUS  HZ EP        929 33.36                             144   -0.4810  101 178 
 RUS  HN ES        929 52.38                             144   -0.0910  101 178 
 RUS  HZ I         929 52.93        23.0 0.30            146            101 178 
 PTB  HZ EP   4    929 36.14                             131   -1.21 0  152 259 
 PTB  HN ES   4    929 57.27                             131   -1.44 0  152 259 
 PTB  HZ I         930  0.94        34.1 0.10            128            152 259 
 TAM  HZ EP     C  929 37.74                             131    0.35 9  152 106 
 TAM  HZ I         929 37.76        65.6 0.20            140            152 106 
 TAM  HN ES        929 59.38                             131    0.59 9  152 106 
 OCA  HZ EP        929 38.05                             130   -0.26 9  160 352 
 OCA  HN ES        929 59.61                             130   -0.82 9  160 352 
 OCA  HZ I         930  4.13        26.5 0.28            130            160 352 
 SPBC HZ EP        929 38.50                             129   -0.31 9  166 220 
 SPBC HN ES        930  0.27                             129   -1.04 9  166 220 
 SPBC HZ I         930  2.99        38.9 0.26            128            166 220 
 ZAR  HZ EP   1    929 42.78                             122   -0.01 6  207 292 
 ZAR  HN ES        930  8.39                             122   -0.01 8  207 292 
 ZAR  HZ I         930 15.40        22.4 0.34            121            207 292 
 NOR  HZ EP        929 45.98                             118   -0.13 8  238 235 
 NOR  HE ES        930 14.57                             118    0.25 8  238 235 
 NOR  HZ I         930 20.53        25.5 0.18            118            238 235 
 CHI  HZ EP        929 48.15                             117    0.26 8  250 196 
 CHI  HN ES        930 17.37                             117   -0.11 8  250 196 
 CHI  HZ I         930 25.17         8.7 0.32            119            250 196 
 HEL  HZ EP        929 51.07                             115    0.43 7  276 256 
 HEL  HN ES        930 23.96                             115    1.59 7  276 256 
 HEL  HZ I         930 29.20        11.3 0.36            114            276 256 
 GUY2CHZ EP        929 54.09                             112    0.09 7  305 235 
 PRA  HZ EP        930  3.35                             106   -0.45 6  395 210 
                                                                                
