 2010  2 2 0956 56.6 L   6.824 -73.107146.4  RSN 10 0.4 2.9LRSN                1
 GAP=128        0.86       4.1     8.3  8.5 -0.7149E+01  0.2400E+02 -0.9038E+00E
 Epicentro: LOS SANTOS - SANTANDER                                             3
 ACTION:UP  10-08-24 09:47 OP:vdl  STATUS:               ID:20100202095656 L   I
 2010-02-02-0955-16S.COL___096                                                 6
 STAT SP IPHASW D HRMM SECON CODA AMPLIT PERI AZIMU VELO SNR AR TRES W  DIS CAZ7
 BAR2 SZ IP        957 16.56                             169     0.210   27 198 
 GIR2 SZ EP        957 16.64                             168     0.410   30 341 
 RUS  BZ EP        957 20.46                             143    -0.110  103 179 
 RUS  BE ES   1    957 39.11                             143    -0.2 7  103 179 
 RUS  BZ I         957 40.83        65.2 0.13                           103 179 
 OCA  SZ EP   1    957 24.94                             130     0.2 7  158 352 
 OCA  SZ ES   1    957 46.23                             130    -0.5 7  158 352 
 CHI  HZ EP   1    957 34.40                             117    -0.3 6  252 196 
 CHI  HZ I         958 12.25        32.3 0.42                           252 196 
 RREF BZ EP   1    957 43.43                             111     0.1 5  327 230 
 RREF BZ I         958 27.46        45.2 0.31                           327 230 
 DBB  SZ EP        957 44.22                             109    -0.3 7  344 274 
 TOL  SZ EP   1    957 46.76                             109     1.3 5  348 225 
 SDV  BZ IP        957 45.97                             109    -0.1 6  355  50 
 PRA  HZ EP        957 49.95                             106    -0.7 6  396 210 
 PRA  HE ES   2    958 32.54                             106    -0.3 3  396 210 
 PRA  HZ I         958 38.33        48.3 0.56                           396 210 
                                                                                
