 2014  6 2 0516 20.2 L   6.634 -73.692 90.3  RSN 10 0.7 1.7LRSN                1
 GAP= 67        1.67       4.6     4.4 11.4 -0.4453E+01  0.1521E+02 -0.9152E+01E
 Epicentro: EL CARMEN DE CHUCURI - SANTANDER                                   3
 ACTION:UPD 14-07-01 22:49 OP:nd   STATUS:               ID:20140602051620 L   I
 OLDACT:REG 14-06-02 14:07 OP:stll STATUS:               ID:20140602050809     3
 2014-06-02-0508-09M.COL___250                                                 6
 STAT SP IPHASW D HRMM SECON CODA AMPLIT PERI AZIMU VELO AIN AR TRES W  DIS CAZ7
 BAR2 SZ EP        516 35.60                             146    0.6210 56.5  95 
 BAR2 SZ ES        516 47.66                             146    1.1710 56.5  95 
 BAR2 SZ I         516 49.24        31.1 0.32            147           56.5  95 
 PTB  HZ EP        516 36.26                             133   -0.7210 85.2 263 
 PTB  HN ES        516 49.22                             133   -0.8310 85.2 263 
 PTB  HZ I         516 50.63        18.3 0.16            135           85.2 263 
 RUS  HZ EP        516 39.26                             127   -0.3410  106 141 
 RUS  HN ES        516 54.11                             127   -0.6010  106 141 
 RUS  HZ I         516 56.39         7.6 0.22            128            106 141 
 SPBC HZ EP        516 39.66                             124   -0.4610  116 201 
 SPBC HN ES        516 55.51                             124   -0.1110  116 201 
 SPBC HZ I         516 59.74        14.1 0.20            125            116 201 
 PAM  SZ EP        516 42.96                             120    0.4210  135  55 
 PAM  SZ I         516 44.67        10.2 0.16            122            135  55 
 ZAR  HN ES        517  4.81                             115    1.00 9  160 306 
 NOR  HZ EP        516 46.44                             112   -0.15 9  176 228 
 NOR  HN ES        517  7.08                             112   -0.06 9  176 228 
 NOR  HZ I         517  9.44        11.5 0.14            114            176 228 
 OCA  HZ EP        516 47.48                             112    0.06 9  182  13 
 OCA  HN ES        517  7.24                             112   -1.38 9  182  13 
 HEL  HZ EP        516 51.31                             109    0.51 8  209 257 
 HEL  HN ES        517 14.74                             109    0.10 8  209 257 
 HEL  HZ I         517 18.55         3.8 0.28            110            209 257 
 GUY2CHZ EP        516 55.49                             106    0.66 8  242 230 
 GUY2CHN ES        517 22.38                             106    0.57 8  242 230 
 GUY2CHZ I         517 28.02         3.7 0.58                           242 230 
                                                                                
