 2015  5 2 0927 22.1 L   6.811 -73.112140.0  RSN 11 0.5 1.5LRSN                1
 GAP=140        1.20       3.9     6.2  8.0 -0.4852E+01  0.1679E+02 -0.3101E+01E
 Epicentro: LOS SANTOS - SANTANDER                                             3
 ACTION:UPD 15-09-10 22:00 OP:cam  STATUS:               ID:20150502092722 L   I
 OLDACT:UP  15-05-07 14:42 OP:cam  STATUS:               ID:20150502092722 L   3
 OLDACT:UP  15-05-06 07:11 OP:AK   STATUS:               ID:20150502092722 L   3
 OLDACT:REG 15-05-02 13:20 OP:stll STATUS:               ID:20150502091736     3
 2015-05-02-0917-36M.COL___273                                                 6
 STAT SP IPHASW D HRMM SECON CODA AMPLIT PERI AZIMU VELO AIN AR TRES W  DIS CAZ7
 BAR2 EZ EP        927 41.33                             169    0.2810 25.4 198 
 BAR2 EZ I         927 58.01         4.9 0.18            167           25.4 198 
 BRR  HZ EP        927 43.10                             151    0.3510 73.9 296 
 BRR  HN ES        927 59.30                             151    0.4110 73.9 296 
 PAM  SZ EP        927 43.01                             151   -0.4610 74.1  38 
 PAM  SN ES        928  0.36                             151    0.1910 74.1  38 
 RUS  HZ EP        927 45.42                             142    0.0910  102 178 
 RUS  HN ES        928  3.27                             142   -0.2110  102 178 
 RUS  HZ I         928  5.96         4.9 0.38            140            102 178 
 OCA  HZ EP        927 50.46                             128    0.60 9  160 352 
 SPBC HZ EP        927 50.51                             127    0.06 9  166 220 
 SPBC HZ I         927 50.74         6.1 0.12            122            166 220 
 SPBC HE ES        928 11.54                             127   -1.04 9  166 220 
 ZAR  HZ EP        927 54.27                             121   -0.18 8  207 291 
 ZAR  HZ I         928 25.57         6.9 0.34            114            207 291 
 SML  HZ EP        927 57.83                             116   -0.59 8  244 334 
 SML  HN ES        928 25.96                             116   -0.82 8  244 334 
 GUY2CHZ EP        928  6.71                             111    0.87 7  305 235 
 GUY2CHZ I         928  9.16         1.2 0.50                           305 235 
 GUY2CHE ES        928 40.42                             111    0.44 7  305 235 
 MON  HZ EP   4    928  8.96                             107   -2.14 0  356 308 
 MON  HN ES   4    928 45.35                             107   -3.99 0  356 308 
 MON  HZ I         929  2.27         1.0 0.48            103            356 308 
 SJC  HZ EP   9    928 15.66                             105   -1.90 0  410 326 
 SJC  HN ES        928 59.54                                    0.59 6  410 326 
                                                                                
