 2014 12 2 0250 17.9 L   6.854 -73.152155.0  RSN  9 0.5 1.7LRSN                1
 GAP=228        1.27       5.5     6.9  8.7  0.1003E+02  0.1011E+02  0.7176E+01E
 Epicentro: LOS SANTOS - SANTANDER                                             3
 ACTION:UPD 15-02-10 16:59 OP:nd   STATUS:               ID:20141202025017 L   I
 OLDACT:REG 14-12-02 12:48 OP:fm   STATUS:               ID:20141202024748     3
 2014-12-02-0247-48M.COL___300                                                 6
 STAT SP IPHASW D HRMM SECON CODA AMPLIT PERI AZIMU VELO AIN AR TRES W  DIS CAZ7
 BRR  HZ EP        250 40.04                             155    0.1110 67.9 294 
 BRR  HN ES        250 57.85                             155    0.7710 67.9 294 
 BRR  HZ I         251  4.91         3.6 0.20            153           67.9 294 
 RUS  HZ EP        250 43.20                             144    0.1610  107 176 
 RUS  HE ES        251  1.86                             144   -0.7610  107 176 
 RUS  HZ I         251  5.03         2.8 0.44            149            107 176 
 PTB  HZ EP        250 44.93                             134   -0.80 9  148 257 
 PTB  HE ES        251  7.56                             134    0.15 9  148 257 
 PTB  HZ I         251 13.47         6.6 0.28            136            148 257 
 SPBC HZ EP        250 48.54                             130    0.98 9  167 218 
 SPBC HN ES        251 10.59                             130   -0.07 9  167 218 
 SPBC HZ I         251 16.42         8.1 0.30            134            167 218 
 ZAR  HN ES        251 16.04                             125   -0.25 9  201 291 
 ZAR  HZ I         251 24.97         4.1 0.34            127            201 291 
 NOR  HZ EP        250 53.81                             120   -0.73 8  238 233 
 NOR  HN ES        251 22.67                             120   -0.41 8  238 233 
 NOR  HZ I         251 27.32         4.4 0.18            123            238 233 
 GUY2CHZ EP        251  2.54                             114    0.22 7  304 234 
 GUY2CHN ES        251 36.83                             114   -0.10 7  304 234 
 GUY2CHZ I         251 46.31         2.5 0.30                           304 234 
 TOL  SZ EP        251  7.72                             111    0.70 6  347 224 
 TOL  SE ES        251 45.91                             111    0.62 6  347 224 
 TOL  SZ I         251 51.09         4.3 0.38            114            347 224 
 MON  HN ES        251 44.58                             110   -0.39 6  349 308 
 MON  HZ I         251 49.45         1.1 0.64            113            349 308 
                                                                                
