 2014 11 2 0234  8.9 L   6.526 -73.586114.2  RSN  7 0.4 1.5LRSN                1
 GAP= 93        0.92       3.7     3.6  6.0  0.2422E+01  0.3227E+00 -0.1822E+01E
 Epicentro: EL CARMEN - SANTANDER                                              3
 ACTION:UPD 14-12-19 15:38 OP:nd   STATUS:               ID:20141102023408 L   I
 OLDACT:REG 14-11-02 13:23 OP:spq  STATUS:               ID:20141102022747     3
 2014-11-02-0227-47M.COL___274                                                 6
 STAT SP IPHASW D HRMM SECON CODA AMPLIT PERI AZIMU VELO AIN AR TRES W  DIS CAZ7
 BAR2 SZ EP        234 25.63                             157    0.0710 45.2  81 
 BAR2 SZ ES   1    234 38.51                             157   -0.04 7 45.2  81 
 BAR2 SZ I         234 39.15        15.2 0.14            162           45.2  81 
 BRR  HZ EP        234 26.62                             148    0.2410 65.8 348 
 BRR  HN ES        234 40.42                             148    0.4110 65.8 348 
 BRR  HZ I         234 41.16         6.3 0.11            152           65.8 348 
 RUS  HZ EP        234 28.61                             139   -0.1710 89.4 142 
 RUS  HE ES        234 43.98                             139   -0.3110 89.4 142 
 RUS  HZ I         234 46.71         3.2 0.26            140           89.4 142 
 PTB  HZ EP     C  234 28.45                             137   -0.2310 96.3 271 
 PTB  HN ES        234 43.51                             137   -0.6010 96.3 271 
 PTB  HZ I         234 44.67        11.9 0.06            136           96.3 271 
 SPBC HZ EP        234 30.80                             133    0.7710  111 209 
 SPBC HE ES        234 46.68                             133    0.1810  111 209 
 SPBC HZ I         234 54.35         6.2 0.30            132            111 209 
 TAM  HZ EP        234 38.64                             115   -0.32 9  199  93 
 TAM  HE ES   4    234 58.42                             115   -3.99 0  199  93 
 TAM  HZ I         235  0.16         6.1 0.28            118            199  93 
 MON  HZ EP        234 55.12                             103    0.03 7  339 317 
 MON  HN ES   1    235 30.78                             103   -0.33 5  339 317 
 MON  HZ I         235 33.51         1.6 0.26            105            339 317 
                                                                                
