 2015  6 2 0658 37.6 L   6.059 -73.739115.5  RSN  6 0.3 1.4LRSN                1
 GAP=173        0.83       3.5     3.8  6.8 -0.6555E+01  0.1168E+02 -0.5717E+01E
 Epicentro: BOLIVAR - SANTANDER                                                3
 ACTION:UPD 15-09-10 22:09 OP:cam  STATUS:               ID:20150602065837 L   I
 OLDACT:REG 15-06-02 13:12 OP:ak   STATUS:               ID:20150602064750     3
 2015-06-02-0647-50M.COL___297                                                 6
 STAT SP IPHASW D HRMM SECON CODA AMPLIT PERI AZIMU VELO AIN AR TRES W  DIS CAZ7
 SPBC HZ IP     D  658 55.35                             151    0.4510 58.2 219 
 SPBC HN ES        659  8.14                             151   -0.2410 58.2 219 
 SPBC HZ I         659 10.82         9.3 0.08            153           58.2 219 
 BAR2 EZ EP        658 57.14                             141    0.1910 85.3  46 
 BAR2 EZ ES        659 11.82                             141   -0.2110 85.3  46 
 BAR2 EZ I         659 13.45         9.3 0.22            145           85.3  46 
 BRR  HZ EP        658 59.41                             131    0.1910  116   1 
 BRR  HN ES        659 16.09                             131    0.0310  116   1 
 BRR  HZ I         659 19.31         3.5 0.12            133            116   1 
 HEL  HZ EP   1    659  8.25                             116    0.09 6  199 274 
 HEL  HN ES        659 31.81                             116   -0.17 9  199 274 
 HEL  HZ I         659 38.57         1.1 0.37            118            199 274 
 ZAR  HZ EP        659  7.69                             115   -0.27 9  201 322 
 ZAR  HN ES        659 31.76                             115    0.13 9  201 322 
 ZAR  HZ I         659 36.32         3.4 0.39            117            201 322 
 GUY2CHZ EP        659  7.92                             115   -0.79 9  202 243 
 GUY2CHE ES        659 33.47                             115    0.51 9  202 243 
 GUY2CHZ I         659 40.41         1.8 0.35                           202 243 
                                                                                
