 2012  1 2 0225 24.4 L   6.817 -72.984142.2  RSN  4 0.2 1.4LRSN                1
 GAP=254        0.44       4.7     9.4  4.8  0.2599E+02 -0.5579E+01  0.1812E+01E
 Epicentro: CEPITA - SANTANDER                                                 3
 ACTION:UP  12-02-03 08:13 OP:REBC STATUS:               ID:20120102022524 L   I
 2012-01-02-0220-00M.COL___186                                                 6
 STAT SP IPHASW D HRMM SECON CODA AMPLIT PERI AZIMU VELO SNR AR TRES W  DIS CAZ7
 BAR2 SZ EP   1    225 43.69                             166    -0.2 7   33 221 
 BAR2 SZ ES   1    225 58.95                             166    -0.1 7   33 221 
 BAR2 SZ I         226  1.69         6.3 0.21                            33 221 
 BRR  HZ EP        225 46.12                             147     0.010   87 292 
 BRR  HZ I         225 46.29         5.3 0.17                            87 292 
 BRR  HE ES   1    226  3.23                             147     0.1 7   87 292 
 RUS  HZ EP   2    225 48.50                             142     0.5 5  103 186 
 RUS  HE ES   2    226  6.62                             142     0.2 5  103 186 
 CHI  HZ EP   1    226  2.68                             116     0.0 6  256 199 
 CHI  HN ES   2    226 32.41                             116    -0.2 4  256 199 
 CHI  HZ I         226 34.38         1.2 0.41                           256 199 
                                                                                
