 2017  3 2 0720 55.6 L   6.747 -73.186150.7  RSN  5 0.2 0.8LRSN                1
 GAP=229        0.38       5.0     4.9  6.3  0.1199E+02  0.9968E+00 -0.2389E+01E
 Epicentro: VILLANUEVA - SANTANDER                                             3
 ACTION:UPD 17-05-25 18:34 OP:jn   STATUS:               ID:20170302072055 L   I
 OLDACT:REG 17-03-02 12:55 OP:and  STATUS:               ID:20170302071748     3
 2017-03-02-0718-00M.COL___390                                                 6
 STAT SP IPHASW D HRMM SECON CODA AMPLIT PERI AZIMU VELO AIN AR TRES W  DIS CAZ7
 BAR2 EZ EP   2    721 15.47                             173   -0.21 5 17.1 179 
 BRR  HZ EP        721 17.19                             154   -0.0210 70.5 304 
 BRR  HN ES   2    721 34.26                             154    0.17 5 70.5 304 
 RUS  HZ EP   2    721 19.91                             146    0.48 5 95.2 173 
 RUS  HN ES   2    721 37.81                             146   -0.23 5 95.2 173 
 RUS  HZ I         721 39.82         0.8 0.30            145           95.2 173 
 PTB  HZ EP        721 22.41                             134   -0.05 9  142 261 
 PTB  HN ES   2    721 43.56                             134    0.12 5  142 261 
 PTB  HZ I         721 45.56         1.0 0.11            134            142 261 
 ZAR  HN ES   2    721 53.48                             124   -0.10 4  202 294 
                                                                                
