 2013  1 2 0500 35.6 L   6.738 -73.189148.4  RSN  4 0.3 1.5LRSN                1
 GAP=228        0.82       6.7     6.4  7.4  0.1715E+02  0.1011E+02 -0.3490E+01E
 Epicentro: VILLANUEVA - SANTANDER                                             3
 ACTION:UPD 13-02-15 09:11 OP:ep   STATUS:               ID:20130102050035 L   I
 2013-01-02-0500-00M.COL___242                                                 6
 STAT SP IPHASW D HRMM SECON CODA AMPLIT PERI AZIMU VELO AIN AR TRES W  DIS CAZ7
 BAR2 SZ EP        5 0 55.29                             174   -0.1510 16.1 177 
 BAR2 SZ ES        5 1 10.38                             174   -0.5210 16.1 177 
 BRR  HZ EP        5 0 57.16                             153    0.1410 70.7 305 
 BRR  HN ES        5 1 14.11                             153    0.3910 70.7 305 
 BRR  HN I         5 1 17.18         6.3 0.18            150           70.7 305 
 RUS  HN ES        5 1 17.95                             146    0.3910 94.2 173 
 PTB  HZ EP        5 1  2.15                             134   -0.11 9  142 261 
 PTB  HN ES        5 1 22.88                             134   -0.17 9  142 261 
 PTB  HN I         5 1 28.55         4.0 0.24            132            142 261 
                                                                                
