 2010 12 2 0716 33.1 L   6.844 -72.990135.5  RSN  4 0.1 1.4LRSN                1
 GAP=199        0.40       4.0     9.1  7.1  0.2486E+02 -0.4675E+02 -0.1793E+02E
 Epicentro: CEPITA - SANTANDER                                                 3
 ACTION:UP  11-01-14 15:22 OP:pat  STATUS:               ID:20101202071633 L   I
 2010-12-02-0715-00S.COL___128                                                 6
 STAT SP IPHASW D HRMM SECON CODA AMPLIT PERI AZIMU VELO SNR AR TRES W  DIS CAZ7
 BAR2 SZ ES   2    717  6.55                             165     0.1 5   35 218 
 BRR  HZ EP        716 54.01                             146    -0.110   85 290 
 BRR  HE ES   1    717 10.46                             146     0.1 7   85 290 
 BRR  HZ I         717 11.98         6.9 0.20                            85 290 
 RUS  HZ EP        716 56.40                             140     0.110  106 186 
 RUS  HN ES   2    717 14.01                             140    -0.3 5  106 186 
 RUS  HZ I         717 16.42         2.0 0.05                           106 186 
 OCA  SZ EP        717  0.48                             127     0.0 9  159 347 
 OCA  SZ I         717 27.92         4.9 0.90                           159 347 
                                                                                
