 2013  8 2 0323 54.4 L   7.079 -73.205118.3  RSN 14 0.5 2.2LRSN                1
 GAP= 85        1.03       3.0     4.9  6.4 -0.2795E+01  0.1180E+02 -0.1147E+01E
 Epicentro: GIRON - SANTANDER                                                  3
 ACTION:UPD 14-01-14 08:58 OP:ep   STATUS:               ID:20130802032354 L   I
 OLDACT:REG 13-08-02 09:03 OP:carl STATUS:               ID:20130802031959     3
 2013-08-02-0319-59M.COL___269                                                 6
 STAT SP IPHASW D HRMM SECON CODA AMPLIT PERI AZIMU VELO AIN AR TRES W  DIS CAZ7
 GIR2 SZ IP     D  324 10.48                             179    0.1710 1.28  93 
 GIR2 SZ ES        324 22.30                             179   -0.4110 1.28  93 
 GIR2 SZ I         324 26.07        30.7 0.30            178           1.28  93 
 BAR2 SZ IP     D  324 11.58                             154   -0.3910 53.9 177 
 BAR2 SZ ES   1    324 25.70                             154    0.04 7 53.9 177 
 BAR2 SZ I         324 26.81        39.4 0.42            155           53.9 177 
 BRR  HZ EP        324 11.89                             153    0.1510 56.1 273 
 BRR  HN ES   4    324 26.94                             153    1.69 0 56.1 273 
 BRR  HN I         324 27.46        43.9 0.24            151           56.1 273 
 PAM  SZ EP   1    324 13.29                             150    0.45 7 62.8  63 
 PAM  SN ES   4    324 28.79                             150    1.58 0 62.8  63 
 PAM  SZ I         324 30.14        21.8 0.22            153           62.8  63 
 OCA  HZ EP   1    324 17.00                             129   -0.64 7  129 354 
 OCA  HN ES        324 36.64                             129    0.8910  129 354 
 OCA  HN I         324 38.18        55.0 0.20            129            129 354 
 RUS  HZ EP   4    324 17.26                             129   -1.12 0  132 174 
 RUS  HN ES   4    324 35.11                             129   -1.97 0  132 174 
 PTB  HZ EP   4    324 17.86                             124   -1.73 0  151 247 
 PTB  HN ES        324 38.71                             124   -0.51 9  151 247 
 PTB  HZ I         324 40.48        19.7 0.28            124            151 247 
 SPBC HZ EP   4    324 21.60                             118   -1.63 0  185 211 
 SPBC HN ES   4    324 43.86                             118   -1.85 0  185 211 
 SPBC HZ I         324 52.94        12.2 0.30            119            185 211 
 ZAR  HZ EP   1    324 22.83                             118   -0.67 7  188 284 
 ZAR  HN ES   1    324 46.36                             118    0.17 7  188 284 
 ZAR  HZ I         324 51.60        18.9 0.28            118            188 284 
 SML  HZ EP   1    324 25.33                             114   -0.88 6  213 333 
 SML  HN ES        324 50.75                             114   -0.25 8  213 333 
 SML  HE I         324 54.76        39.5 0.10            115            213 333 
 NOR  HZ EP   4    324 28.86                             110   -1.48 0  249 228 
 NOR  HE ES   4    324 57.40                             110   -0.96 0  249 228 
 HEL  HZ EP   1    324 33.51                             108   -0.22 6  275 249 
 HEL  HN ES        325  5.18                             108    0.78 8  275 249 
 HEL  HZ I         325  8.95         9.1 0.28            109            275 249 
 CHI  HZ EP   2    324 33.90                             108   -0.12 4  277 192 
 CHI  HN ES        325  5.65                             108    0.73 7  277 192 
 CHI  HN I         325  8.71        19.0 0.32            109            277 192 
 GUY2CHZ EP        324 39.01                             105    0.49 7  315 229 
 GUY2CHN ES   2    325 12.99                             105    0.06 3  315 229 
 GUY2CHN I         325 18.79         6.1 0.34                           315 229 
 COD  HZ EP   1    324 37.89                             105   -0.26 5  317 355 
 COD  HN ES   1    325 12.61                             105    0.35 5  317 355 
 COD  HZ I         325 21.31         3.0 0.68            106            317 355 
 PRA  HZ EP   4    324 47.81                             100   -2.21 0  416 207 
 PRA  HN ES   1    325 32.69                             100   -0.70 4  416 207 
 PRA  HN I         325 36.80         8.8 0.30            101            416 207 
                                                                                
