 2011 12 2 0355  8.3 L   6.755 -73.116134.0  RSN  4 0.3 1.7LRSN                1
 GAP=142        0.50       4.6     6.1  6.0  0.4285E+00  0.1310E+01 -0.5140E+01E
 Epicentro: LOS SANTOS - SANTANDER                                             3
 ACTION:UPD 12-07-13 16:13 OP:ep   STATUS:               ID:20111202035508 L   I
 2011-12-02-0350-00M.COL___170                                                 6
 STAT SP IPHASW D HRMM SECON CODA AMPLIT PERI AZIMU VELO AIN AR TRES W  DIS CAZ7
 BAR2 SZ EP        355 26.52                             171    0.0510 19.4 202 
 BAR2 SZ ES   1    355 40.24                             171   -0.38 7 19.4 202 
 BAR2 SZ I         355 42.66         6.8 0.36                          19.4 202 
 BRR  HZ EP        355 28.42                             148   -0.1410 76.5 301 
 BRR  HN ES   2    355 44.87                             148    0.54 5 76.5 301 
 BRR  HN I         355 49.54        15.4 0.24                          76.5 301 
 PAM  SZ EP   1    355 29.42                             148   -0.02 7 79.3  35 
 PAM  SE ES   2    355 46.10                             148    0.20 5 79.3  35 
 RUS  HZ EP   2    355 30.83                             143    0.27 5 95.4 178 
 RUS  HE ES   2    355 48.15                             143    0.25 5 95.4 178 
                                                                                
