 2011  1 2 0430  4.9 L   6.757 -73.107143.4  RSN  9 0.3 1.9LRSN                1
 GAP=163        0.63       3.3     7.5  6.1 -0.6600E+01  0.2007E+02 -0.1536E+01E
 Epicentro: LOS SANTOS - SANTANDER                                             3
 ACTION:UP  11-02-08 08:37 OP:pat  STATUS:               ID:20110102043004 L   I
 2011-01-02-0420-00M.COL___136                                                 6
 STAT SP IPHASW D HRMM SECON CODA AMPLIT PERI AZIMU VELO SNR AR TRES W  DIS CAZ7
 BAR2 SZ EP        430 24.01                             172    -0.210   20 205 
 BAR2 SZ ES   1    430 39.44                             172     0.2 7   20 205 
 BAR2 SZ I         430 40.67        27.4 0.16                            20 205 
 RUS  HZ EP   1    430 27.89                             145    -0.2 7   96 178 
 RUS  HN ES   1    430 46.33                             145     0.2 7   96 178 
 RUS  HZ I         430 47.78        10.3 0.29                            96 178 
 GRA  SZ EP   1    430 30.56                             136     0.3 7  129  15 
 GRA  SZ I         430 53.29         5.4 0.28                           129  15 
 OCA  SZ ES   1    430 55.64                             128    -0.2 7  165 352 
 OCA  SZ I         430 58.51         7.8 0.15                           165 352 
 NOR  SZ EP   2    430 40.06                             118    -0.6 4  236 236 
 NOR  SN ES   2    431  8.08                             118    -0.4 4  236 236 
 CHI  HZ EP   1    430 42.11                             117     0.0 6  245 196 
 CHI  HN ES   2    431 10.69                             117    -0.4 4  245 196 
 CHI  HZ I         431 17.17         4.5 0.30                           245 196 
 HEL  HZ EP   1    430 45.98                             114     0.6 6  275 257 
 HEL  HZ I         431 21.99         4.9 0.31                           275 257 
 GUY  SZ EP   2    430 48.73                             112     0.2 4  302 236 
 GUY  SZ I         431 29.02         7.2 0.47                           302 236 
 PRA  HZ EP   2    430 57.86                             106    -0.3 3  390 210 
 PRA  HN ES   2    431 40.39                             106     0.8 3  390 210 
                                                                                
