 2017  1 2 0840 44.7 L   6.802 -73.142159.4  RSN  4 0.1 1.1LRSN                1
 GAP=238        0.32       2.8     3.0  3.6  0.5011E+01  0.1062E+01 -0.1412E+01E
 Epicentro: LOS SANTOS - SANTANDER                                             3
 ACTION:UPD 17-05-22 15:54 OP:jn   STATUS:               ID:20170102084044 L   I
 OLDACT:DUP 17-01-02 17:11 OP:lv   STATUS:               ID:20170102083750d    3
 2017-01-02-0838-00M.COL___366                                                 6
 STAT SP IPHASW D HRMM SECON CODA AMPLIT PERI AZIMU VELO AIN AR TRES W  DIS CAZ7
 BRR  HZ EP        841  7.33                             155   -0.0310 71.5 298 
 BRR  HN ES        841 24.99                             155   -0.0310 71.5 298 
 RUS  HE ES        841 29.47                             146    0.0510  101 176 
 PTB  HZ EP        841 12.83                             135   -0.02 9  148 259 
 PTB  HE ES        841 34.74                             135   -0.06 9  148 259 
 PTB  HZ I         841 40.08         1.3 0.15            130            148 259 
 ZAR  HN ES        841 44.27                             125    0.12 9  204 292 
 ZAR  HZ I         841 50.27         1.3 0.47            122            204 292 
                                                                                
