 2011  7 2 0322 17.2 L   6.756 -73.193148.8  RSN  4 0.3 1.3LRSN                1
 GAP=154        0.60       3.7     7.3  7.8 -0.7777E+00 -0.1610E+02 -0.3888E+01E
 Epicentro: VILLANUEVA - SANTANDER                                             3
 ACTION:UPD 12-07-25 13:57 OP:epov STATUS:               ID:20110702032217 L   I
 2011-07-02-0320-22S.COL___140                                                 6
 STAT SP IPHASW D HRMM SECON CODA AMPLIT PERI AZIMU VELO AIN AR TRES W  DIS CAZ7
 BTL  SZ EP   1    322 37.12                             172   -0.05 7 19.8 335 
 BRR  HZ EP        322 38.79                             154    0.1810 69.3 304 
 BRR  HZ I         322 39.05         5.9 0.26                          69.3 304 
 BRR  HE ES   1    322 55.14                             154   -0.14 7 69.3 304 
 RUS  HZ EP   1    322 41.32                             146    0.34 7 96.2 173 
 RUS  HE ES   1    322 59.31                             146   -0.19 7 96.2 173 
 RUS  HZ I         323  2.92         1.5 0.70                          96.2 173 
 GRA  SZ EP        322 42.91                             136   -0.3610  132  19 
 GRA  SZ ES   1    323  3.92                             136    0.33 7  132  19 
 GRA  SZ I         323 14.46         3.0 0.31                           132  19 
                                                                                
