 2013 12 2 0253  8.5 L   6.788 -73.145145.9  RSN  6 0.3 1.6LRSN                1
 GAP=152        0.81       5.5     4.7  6.1 -0.1720E+02  0.1410E+01  0.2752E+01E
 Epicentro: LOS SANTOS - SANTANDER                                             3
 ACTION:UPD 14-01-13 10:15 OP:ep   STATUS:               ID:20131202025308 L   I
 OLDACT:REG 13-12-02 07:21 OP:carl STATUS:               ID:20131202025000     3
 2013-12-02-0250-00M.COL___282                                                 6
 STAT SP IPHASW D HRMM SECON CODA AMPLIT PERI AZIMU VELO AIN AR TRES W  DIS CAZ7
 BAR2 SZ EP        253 27.97                             171   -0.1510 22.0 191 
 BAR2 SZ ES        253 43.54                             171    0.1210 22.0 191 
 BAR2 SZ I         253 44.10        10.4 0.44            172           22.0 191 
 BRR  HZ EP        253 29.87                             152    0.1610 71.9 299 
 BRR  HN ES        253 46.59                             152    0.3410 71.9 299 
 BRR  HN I         253 47.09        10.8 0.20            152           71.9 299 
 PAM  SZ EP        253 30.96                             150    0.1710 78.4  39 
 PAM  SZ IP     C  253 30.97                             150    0.1810 78.4  39 
 PAM  SE ES        253 47.88                             150   -0.3010 78.4  39 
 PAM  SZ I         253 50.09         6.2 0.62            151           78.4  39 
 PTB  HZ EP        253 35.09                             132   -0.38 9  148 259 
 PTB  HE ES        253 55.98                             132   -0.51 9  148 259 
 PTB  HZ I         253 58.99         2.7 0.12            133            148 259 
 SPBC HN ES        253 58.90                             129   -0.18 9  162 219 
 NOR  HE ES        254 12.60                             119    0.62 8  234 235 
                                                                                
