 2011  4 2 0114  9.7 L   6.761 -73.367111.8  RSN  5 0.4 1.9LRSN                1
 GAP=183        0.99       8.2     9.9 10.9 -0.4923E+01 -0.2827E+02 -0.2927E+02E
 Epicentro: ZAPATOCA - SANTANDER                                               3
 ACTION:UP  11-06-22 15:27 OP:REBC STATUS:               ID:20110402011409 L   I
 2011-04-02-0100-00M.COL___139                                                 6
 STAT SP IPHASW D HRMM SECON CODA AMPLIT PERI AZIMU VELO SNR AR TRES W  DIS CAZ7
 BAR2 SZ EP        114 25.62                             165     0.210   28 132 
 BAR2 SZ ES   1    114 37.68                             165     0.1 7   28 132 
 BAR2 SZ I         114 38.86        32.4 0.10                            28 132 
 GIR2 SZ EP        114 25.00                             159    -0.710   40  29 
 BRR  HZ IP     C  114 26.09                             152    -0.110   54 315 
 BRR  HZ I         114 26.34        47.0 0.20                            54 315 
 BRR  HN ES   1    114 39.38                             152     0.3 7   54 315 
 PAM  SZ EP   2    114 30.38                             136     0.3 5   98  49 
 GRA  SZ EP        114 33.84                             125     0.4 9  139  27 
 GRA  SZ ES   1    114 51.81                             125    -0.1 7  139  27 
 GRA  SZ I         114 55.34         4.5 0.65                           139  27 
                                                                                
