 2017 12 2 0724 46.7 L   6.834 -73.151123.4  RSN  6 0.3 1.3LRSN                1
 GAP=134        0.78       2.9     3.5  6.5 -0.5403E+00  0.8990E+01 -0.3393E+01E
 Epicentro: LOS SANTOS - SANTANDER                                             3
 ACTION:UPD 18-01-04 13:16 OP:rebc STATUS:               ID:20171202072446 L   I
 OLDACT:REG 17-12-02 12:33 OP:dhb  STATUS:               ID:20171202071743     3
 2017-12-02-0718-00M.COL___477                                                 6
 STAT SP IPHASW D HRMM SECON CODA AMPLIT PERI AZIMU VELO AIN AR TRES W  DIS CAZ7
 BAR2 HZ EP        725  3.74                             167    0.0510 26.9 187 
 BAR2 HZ ES        725 17.16                             167    0.1910 26.9 187 
 BAR2 HZ I         725 19.36         4.6 0.30            170           26.9 187 
 PAM  EZ EP        725  6.55                             147    0.1710 75.0  42 
 PAM  EE ES        725 21.45                             147   -0.3110 75.0  42 
 PAM  EZ I         725 25.35         4.0 0.78            150           75.0  42 
 RUS  HZ EP        725  8.20                             137   -0.3810  104 176 
 RUS  HE ES        725 26.02                             137    0.3410  104 176 
 RUS  HZ I         725 26.83         2.4 0.22            143            104 176 
 PTB  HZ EP   4    725 10.25                             126   -1.66 0  148 257 
 PTB  HE ES        725 31.05                             126   -0.56 9  148 257 
 PTB  HZ I         725 34.02         1.6 0.10            128            148 257 
 OCA  HN ES        725 33.47                             125    0.02 9  156 353 
 OCA  HZ I         725 36.70         5.7 0.30            127            156 353 
 ZAR  HZ EP        725 17.72                             117    0.19 9  202 291 
 ZAR  HE ES        725 42.00                             117    0.38 9  202 291 
 ZAR  HZ I         725 48.95         2.4 0.44            119            202 291 
                                                                                
