 2016 11 2 0303  5.0 L   6.781 -73.138142.3  RSN  8 0.4 1.5LRSN                1
 GAP=138        1.02       4.3     4.4  6.5 -0.1084E+01  0.6889E+01  0.3555E+01E
 Epicentro: LOS SANTOS - SANTANDER                                             3
 ACTION:UPD 17-10-26 21:03 OP:lp   STATUS:               ID:20161102025747 L   I
 OLDACT:UP  16-11-02 15:17 OP:dani STATUS:               ID:20161102025747 L   3
 OLDACT:UPD 16-11-02 13:22 OP:dnl  STATUS:               ID:20161102025747 L   3
 2016-11-02-0258-00M.COL___343                                                 6
 STAT SP IPHASW D HRMM SECON CODA AMPLIT PERI AZIMU VELO AIN AR TRES W  DIS CAZ7
 BAR2 EZ EP        3 3 24.03                             171   -0.1410 21.4 193 
 BAR2 EZ ES        3 3 39.01                             171   -0.1210 21.4 193 
 BAR2 EZ I         3 3 39.78        10.0 0.32            172           21.4 193 
 BRR  HZ EP        3 3 25.88                             151    0.0110 73.0 300 
 BRR  HN ES        3 3 42.66                             151    0.5010 73.0 300 
 BRR  HZ I         3 3 49.01         3.5 0.64            152           73.0 300 
 PAM  EZ EP        3 3 26.93                             150    0.0210 78.5  38 
 PAM  EN ES        3 3 43.88                             150   -0.1210 78.5  38 
 PAM  EZ I         3 3 46.24         6.9 0.48            152           78.5  38 
 RUS  HZ EP        3 3 28.17                             144   -0.0710 98.4 176 
 RUS  HE ES        3 3 46.52                             144    0.1410 98.4 176 
 RUS  HZ I         3 3 47.97         3.9 0.24            147           98.4 176 
 PTB  HZ EP        3 3 30.94                             131   -0.78 9  148 260 
 PTB  HN ES        3 3 51.74                             131   -0.83 9  148 260 
 PTB  HZ I         3 3 53.42         3.6 0.38            133            148 260 
 SPBC HZ EP        3 3 33.69                             128    0.57 9  162 220 
 SPBC HE ES        3 3 55.30                             128    0.24 9  162 220 
 SPBC HZ I         3 3 57.60         7.1 0.28            131            162 220 
 ZAR  HE ES        3 4  3.12                             121    0.48 8  206 293 
 GUY2CHZ EP        3 3 48.67                             112    0.29 7  301 235 
 GUY2CHZ I         3 4 30.45         1.8 0.33                           301 235 
                                                                                
