 2013 11 2 0527  6.5 L   6.739 -73.168147.3  RSN  6 0.4 1.2LRSN                1
 GAP=198        0.87       4.4     6.1  7.3  0.6231E+01  0.4994E+01 -0.3402E+01E
 Epicentro: VILLANUEVA - SANTANDER                                             3
 ACTION:UPD 14-01-09 16:24 OP:ep   STATUS:               ID:20131102052706 L   I
 OLDACT:DUP 13-11-02 08:25 OP:jn   STATUS:               ID:20131102052001d    3
 OLDACT:REG 13-11-02 07:16 OP:jn   STATUS:               ID:20131102052000     3
 2013-11-02-0520-00M.COL___273                                                 6
 STAT SP IPHASW D HRMM SECON CODA AMPLIT PERI AZIMU VELO AIN AR TRES W  DIS CAZ7
 BAR2 SZ ES   1    527 40.82                             173   -0.73 7 16.3 186 
 BAR2 SZ I         527 42.57         7.2 0.26            173           16.3 186 
 BRR  HZ EP        527 27.96                             152    0.0610 72.6 304 
 BRR  HN ES   1    527 45.17                             152    0.59 7 72.6 304 
 BRR  HZ I         527 56.78         4.2 0.40            150           72.6 304 
 RUS  HZ EP        527 30.00                             146    0.0510 94.1 174 
 RUS  HN ES        527 48.34                             146    0.1110 94.1 174 
 RUS  HZ I         527 49.25         0.8 0.40            155           94.1 174 
 PTB  HZ EP        527 32.69                             133   -0.59 9  144 261 
 PTB  HN ES        527 53.91                             133   -0.25 9  144 261 
 PTB  HZ I         527 59.71         2.7 0.26            135            144 261 
 SPBC HZ EP        527 34.79                             131    0.30 9  156 220 
 SPBC HN ES        527 56.61                             131    0.30 9  156 220 
 SPBC HZ I         527 58.66         2.4 0.22            136            156 220 
 SML  HE ES   1    528 13.06                             117    0.22 6  249 336 
                                                                                
