 2014  9 2 0347  0.9 L   6.781 -73.158145.0  RSN 11 0.4 1.9LRSN                1
 GAP=136        0.89       3.6     4.0  6.0 -0.1634E+01  0.6053E+01 -0.4726E+00E
 Epicentro: LOS SANTOS - SANTANDER                                             3
 ACTION:UPD 14-10-03 23:01 OP:nd   STATUS:               ID:20140902034700 L   I
 OLDACT:DUP 14-09-02 15:51 OP:mh   STATUS:               ID:20140902033818d    3
 2014-09-02-0338-17M.COL___269                                                 6
 STAT SP IPHASW D HRMM SECON CODA AMPLIT PERI AZIMU VELO AIN AR TRES W  DIS CAZ7
 BAR2 SZ EP   1    347 20.40                             171    0.04 7 21.0 187 
 BAR2 SZ ES        347 35.80                             171    0.2410 21.0 187 
 BAR2 SZ I         347 37.31        24.2 0.18            172           21.0 187 
 BRR  HZ EP   1    347 22.32                             153    0.40 7 71.0 301 
 BRR  HN ES        347 38.87                             153    0.5310 71.0 301 
 BRR  HZ I         347 42.27        15.3 0.26            149           71.0 301 
 PAM  SZ EP        347 23.41                             150    0.2610 79.9  39 
 PAM  SN ES   1    347 39.86                             150   -0.67 7 79.9  39 
 PAM  SZ I         347 43.52         8.9 0.56            151           79.9  39 
 RUS  HZ EP   1    347 24.27                             144   -0.13 7 98.6 175 
 RUS  HN ES        347 42.75                             144    0.0010 98.6 175 
 RUS  HZ I         347 44.45        14.1 0.16            148           98.6 175 
 PTB  HZ EP        347 27.06                             132   -0.55 9  146 260 
 PTB  HN ES        347 47.80                             132   -0.67 9  146 260 
 PTB  HZ I         347 49.67        12.7 0.19            131            146 260 
 SPBC HZ EP        347 29.22                             129    0.15 9  161 219 
 SPBC HN ES        347 51.02                             129   -0.04 9  161 219 
 SPBC HZ I         348  0.45         7.5 0.11            131            161 219 
 OCA  HN ES   1    347 51.05                             129   -0.42 7  162 354 
 OCA  HZ I         348  1.30         6.0 0.14            129            162 354 
 ZAR  HZ EP   1    347 33.69                             122    0.48 6  204 293 
 ZAR  HN ES   1    347 58.85                             122    0.41 6  204 293 
 ZAR  HZ I         348  6.73         9.3 0.45            122            204 293 
 HEL  HZ EP   4    347 38.41                             115   -2.42 0  270 256 
 HEL  HN ES   1    348 11.89                             115   -0.11 6  270 256 
 HEL  HZ I         348 19.77         5.9 0.19            115            270 256 
 GUY2CHZ EP   4    347 45.10                             112    0.93 0  299 235 
 GUY2CHN ES   4    348 20.32                             112    2.37 0  299 235 
 GUY2CHZ I         348 25.75         3.2 0.60                           299 235 
 SJC  HZ EP   4    347 51.29                             106   -5.23 0  410 327 
 SJC  HN ES   4    348 36.12                             106   -3.81 0  410 327 
 SJC  HZ I         348 42.80         1.6 0.48            106            410 327 
                                                                                
