 2017 11 2 0553 38.5 L   6.812 -73.168145.7  RSN 16 0.5 2.1LRSN                1
 GAP=109        1.12       3.5     3.6  5.6  0.1197E+01  0.5099E+01  0.2632E+01E
 Epicentro: LOS SANTOS - SANTANDER                                             3
 ACTION:UPD 17-12-12 19:50 OP:rebc STATUS:               ID:20171102055338 L   I
 OLDACT:UP  17-11-02 16:09 OP:dnl  STATUS:               ID:20171102054737     3
 OLDACT:UP  17-11-02 16:09 OP:dnl  STATUS:               ID:20171102054737     3
 OLDACT:REG 17-11-02 13:34 OP:dnl  STATUS:               ID:20171102054737     3
 2017-11-02-0548-00M.COL___444                                                 6
 STAT SP IPHASW D HRMM SECON CODA AMPLIT PERI AZIMU VELO AIN AR TRES W  DIS CAZ7
 BAR2 EZ EP        553 57.90                             170   -0.2210 24.3 184 
 BAR2 EZ ES        554 13.34                             170   -0.1010 24.3 184 
 BAR2 EZ I         554 13.89        48.7 0.32            169           24.3 184 
 BRR  HZ IP     C  553 59.65                             153    0.1810 68.4 299 
 BRR  HE ES        554 16.77                             153    0.9410 68.4 299 
 BRR  HZ I         554 17.78        27.9 0.18            150           68.4 299 
 PAM  EZ EP        554  0.77                             151    0.0410 78.0  42 
 PAM  EN ES        554 17.71                             151   -0.3710 78.0  42 
 PAM  EZ I         554 20.60        16.6 0.42            153           78.0  42 
 RUS  HZ EP        554  2.17                             143   -0.1610  102 175 
 RUS  HE ES        554 20.79                             143   -0.1410  102 175 
 RUS  HZ I         554 22.15        12.4 0.54            143            102 175 
 PTB  HZ EP        554  4.40                             132   -0.85 9  146 258 
 PTB  HN ES        554 25.49                             132   -0.63 9  146 258 
 PTB  HZ I         554 29.91        12.6 0.14            130            146 258 
 SPBC HZ EP        554  7.01                             129    0.09 9  163 218 
 SPBC HN ES        554 29.10                             129   -0.00 9  163 218 
 SPBC HZ I         554 33.92        23.3 0.40            128            163 218 
 YPLC HZ IP     D  554  8.44                             126   -0.06 9  179 151 
 YPLC HE ES        554 32.19                             126    0.28 9  179 151 
 YPLC HZ I         554 35.65         6.7 0.30            127            179 151 
 ZAR  HZ EP        554 11.41                             123    0.77 9  201 292 
 ZAR  HN ES        554 35.88                             123    0.17 9  201 292 
 ZAR  HZ I         554 39.20        16.1 0.30            121            201 292 
 NOR  HZ EP        554 14.13                             119    0.06 8  233 234 
 NOR  HN ES        554 42.21                             119    0.38 8  233 234 
 NOR  HZ I         554 46.02         8.1 0.28            118            233 234 
 CHI  HZ EP        554 16.49                             117    0.25 8  249 195 
 CHI  HN ES        554 45.90                             117    0.21 8  249 195 
 CHI  HZ I         554 50.02         8.8 0.30            117            249 195 
 ROSC BZ EP   9    554 18.55                             117    1.97 0  253 210 
 ROSC BN ES        554 48.45                             117    0.19 8  253 210 
 ROSC BZ I         554 52.16        14.4 0.30            116            253 210 
 URE  HZ EP        554 18.29                             114   -0.95 7  281 292 
 URE  HN ES   4    554 48.47                             114   -2.55 0  281 292 
 URE  HZ I         554 59.12        13.9 0.20            113            281 292 
 GUY2CHZ EP   4    554 23.29                             112    1.35 0  300 234 
 GUY2CHN ES   4    554 59.29                             112    3.45 0  300 234 
 GUY2CHZ I         555  5.72         7.8 0.28                           300 234 
 PTGC HZ EP   4    554 21.25                             111   -1.33 0  311 158 
 PTGC HN ES   4    554 54.62                             111   -2.34 0  311 158 
 PTGC HZ I         554 56.41         4.4 0.18            112            311 158 
 CBOC HZ EP        554 26.14                             110    0.97 7  332 252 
 CBOC HE ES        555  0.89                             110   -0.69 7  332 252 
 CBOC HZ I         555 12.39         2.1 0.22            109            332 252 
 SJC  HZ EP   4    554 32.73                             106   -1.03 0  407 327 
 SJC  HN ES   4    555 12.57                             106   -4.30 0  407 327 
 SJC  HZ I         555 27.57         3.0 0.64            106            407 327 
                                                                                
