 2014  5 2 0046 21.5 L   6.827 -73.109143.0  RSN  5 0.5 1.5LRSN                1
 GAP=140        1.12       6.3     6.5 12.1 -0.4999E+01  0.6353E+01  0.6284E+01E
 Epicentro: LOS SANTOS - SANTANDER                                             3
 OLDACT:DUP 14-05-02 16:27 OP:fm   STATUS:               ID:20140502003808d    3
 ACTION:UPD 15-03-16 16:54 OP:nd   STATUS:               ID:20140502004621 L   I
 OLDACT:UP  14-05-02 16:31 OP:fm   STATUS:               ID:20140502003808d    3
 2014-05-02-0038-07M.COL___239                                                 6
 STAT SP IPHASW D HRMM SECON CODA AMPLIT PERI AZIMU VELO AIN AR TRES W  DIS CAZ7
 PAM  SZ EP   1    046 43.30                             152    0.15 8 72.5  39 
 PAM  SN ES   1    046 59.17                             152   -0.85 8 72.5  39 
 PAM  SZ I         047  4.08         4.0 2.38            160           72.5  39 
 BRR  HZ EP   1    046 43.22                             151    0.72 8 73.5 295 
 BRR  HE ES   1    046 59.77                             151    0.90 8 73.5 295 
 BRR  SZ I         047  6.08         5.2 2.14            149           73.5 295 
 RUS  HZ EP        046 45.22                             142    0.0110  103 178 
 RUS  HN ES        047  3.91                             142    0.2210  103 178 
 RUS  SZ I         047  8.75         6.0 3.58            149            103 178 
 PTB  HZ EP   1    046 48.47                             130   -0.22 7  152 258 
 PTB  HN ES        047  9.27                             130   -0.61 9  152 258 
 PTB  SZ I         047 26.26         5.2 0.04            132            152 258 
 SPBC HN ES   1    047 12.45                             127   -0.26 7  168 219 
                                                                                
