 2017 11 2 0521 41.2 L   7.098 -73.430  4.0  RSN  7 0.4 1.1LRSN                1
 GAP=146        1.07       3.4     2.2  6.2 -0.4920E+00  0.2823E+01 -0.3648E+01E
 Epicentro: LEBRIJA - SANTANDER                                                3
 ACTION:UPD 17-12-12 19:50 OP:rebc STATUS:               ID:20171102052141 L   I
 OLDACT:REG 17-11-02 13:32 OP:dnl  STATUS:               ID:20171102051740     3
 2017-11-02-0518-00M.COL___441                                                 6
 STAT SP IPHASW D HRMM SECON CODA AMPLIT PERI AZIMU VELO AIN AR TRES W  DIS CAZ7
 BRR  HZ IP     D  521 46.51                              47    0.0510 31.1 272 
 BRR  HN ES        521 50.93                              47    0.3210 31.1 272 
 BRR  HZ I         521 51.47        15.6 0.34             93           31.1 272 
 BAR2 EZ EP        521 51.04                              47   -0.3910 62.3 154 
 BAR2 EZ I         521 58.79         7.0 0.40             91           62.3 154 
 PAM  EZ EP   2    521 55.30                              47    0.17 5 85.0  72 
 PAM  EN ES        522  5.78                              47   -0.2410 85.0  72 
 PTB  HZ EP        522  1.20                              47   -0.1310  129 241 
 PTB  HN ES        522 16.12                              47   -0.9610  129 241 
 PTB  HZ I         522 18.68         2.8 0.24             91            129 241 
 RUS  HZ EP        522  3.66                              47    0.38 9  139 164 
 RUS  HN ES   4    522 18.69                              47   -1.85 0  139 164 
 RUS  HZ I         522 20.30         3.4 0.20             91            139 164 
 ZAR  HZ EP        522  6.88                              47    0.34 9  164 286 
 ZAR  HN ES        522 26.20                              47   -0.14 9  164 286 
 ZAR  HZ I         522 28.27         4.2 0.30             90            164 286 
 SPBC HZ EP        522  9.08                              47    0.73 9  175 204 
 SPBC HN ES        522 29.74                              47    0.17 9  175 204 
 SPBC HZ I         522 31.58         3.4 0.22             56            175 204 
                                                                                
