 2012  2 2 0803 48.3 L   6.770 -73.163149.7  RSN  9 0.4 1.7LRSN                1
 GAP=180        0.79       3.9     4.6  6.2  0.3908E+01  0.3841E+01  0.1832E+00E
 ACTION:UP  12-03-07 16:26 OP:epov STATUS:               ID:20120202080348 L   I
 2012-02-02-0800-00M.COL___187                                                 6
 STAT SP IPHASW D HRMM SECON CODA AMPLIT PERI AZIMU VELO SNR AR TRES W  DIS CAZ7
 BAR2 SZ EP        8 4  8.16                             172   -0.1410 19.7 186 
 BAR2 SZ ES   1    8 4 23.97                             172    0.04 7 19.7 186 
 BAR2 SZ I         8 4 26.17        10.8 0.16                          19.7 186 
 GIR2 SZ EP   1    8 4  8.26                             166   -0.22 7 34.4 354 
 BRR  HZ EP        8 4 10.04                             153    0.2110 71.2 302 
 BRR  HE ES   1    8 4 27.46                             153    0.80 7 71.2 302 
 BRR  HZ I         8 4 29.78        18.7 0.17                          71.2 302 
 RUS  HZ EP   1    8 4 11.95                             146   -0.22 7 97.4 175 
 RUS  HE ES   1    8 4 30.64                             146   -0.19 7 97.4 175 
 RUS  HZ I         8 4 32.10         3.5 0.22                          97.4 175 
 PTB  HZ EP        8 4 14.85                             134   -0.47 9  145 260 
 PTB  HN ES   1    8 4 35.71                             134   -0.72 7  145 260 
 OCA  SZ EP   1    8 4 17.45                             130    0.28 7  163 354 
 ZAR  HZ EP   1    8 4 21.00                             123    0.09 6  204 293 
 ZAR  HN ES        8 4 46.13                             123   -0.25 9  204 293 
 ZAR  HZ I         8 4 52.60        10.8 0.27                           204 293 
 NOR  SZ EP   1    8 4 24.30                             120    0.46 6  231 235 
 NOR  SN ES   1    8 4 52.22                             120    0.62 6  231 235 
 CHI  HZ EP   1    8 4 26.10                             118    0.33 6  245 195 
 CHI  HN ES   1    8 4 55.26                             118    0.23 6  245 195 
 CHI  HZ I         8 5  3.84         2.0 0.22                           245 195 
                                                                                
