 2016  3 2 0448 57.8 L   6.770 -73.128145.6  RSN  7 0.4 1.5LRSN                1
 GAP=140        0.90       3.4     4.5  6.0 -0.2945E+01  0.1115E+02  0.1007E+01E
 Epicentro: LOS SANTOS - SANTANDER                                             3
 ACTION:UPD 16-05-13 21:20 OP:cam  STATUS:               ID:20160302044857 L   I
 OLDACT:UP  16-03-02 18:04 OP:mh   STATUS:               ID:20160302044750     3
 OLDACT:REG 16-03-02 12:53 OP:mh   STATUS:               ID:20160302044750     3
 2016-03-02-0447-50M.COL___316                                                 6
 STAT SP IPHASW D HRMM SECON CODA AMPLIT PERI AZIMU VELO AIN AR TRES W  DIS CAZ7
 BAR2 EZ EP        449 17.46                             172    0.0510 20.5 197 
 BAR2 EZ ES        449 32.95                             172    0.2810 20.5 197 
 BAR2 EZ I         449 38.31         4.4 0.46            169           20.5 197 
 PAM  EZ EP        449 20.27                             150    0.1310 78.8  37 
 PAM  EE ES        449 37.41                             150   -0.1110 78.8  37 
 PAM  EE I         449 39.62         8.7 0.48            157           78.8  37 
 RUS  HZ EP        449 21.33                             145   -0.0110 97.1 177 
 RUS  HN ES        449 39.52                             145   -0.1510 97.1 177 
 RUS  HZ I         449 42.13         2.2 0.38            147           97.1 177 
 SPBC HZ EP        449 26.43                             129    0.22 9  162 220 
 SPBC HN ES        449 48.00                             129   -0.33 9  162 220 
 SPBC HZ I         449 51.59         5.5 0.20            131            162 220 
 ZAR  HZ EP        449 31.07                             122    0.47 8  207 293 
 ZAR  HN ES        449 55.50                             122   -0.65 8  207 293 
 ZAR  HZ I         450  1.13         4.3 0.28            124            207 293 
 NOR  HZ EP        449 33.82                             118    0.29 8  234 235 
 NOR  HN ES        450  1.86                             118    0.49 8  234 235 
 NOR  HZ I         450  7.33         2.9 0.22            121            234 235 
 CHI  HZ EP        449 34.31                             117   -0.94 8  246 196 
 CHI  HN ES        450  4.58                             117    0.17 8  246 196 
 CHI  HZ I         450 12.26         1.2 0.40            120            246 196 
                                                                                
