 2012  1 2 0238 38.9 L   6.807 -73.139144.3  RSN  5 0.2 1.3LRSN                1
 GAP=137        0.51       3.7     3.8  5.6  0.3027E+01 -0.6844E+00  0.1757E+01E
 Epicentro: LOS SANTOS - SANTANDER                                             3
 ACTION:UP  12-02-03 08:13 OP:REBC STATUS:               ID:20120102023838 L   I
 2012-01-02-0230-00M.COL___186                                                 6
 STAT SP IPHASW D HRMM SECON CODA AMPLIT PERI AZIMU VELO SNR AR TRES W  DIS CAZ7
 BRR  HZ EP        238 59.90                             152     0.010   72 298 
 BRR  HZ I         239 16.26         5.1 0.27                            72 298 
 BRR  HN ES        239 16.46                             152     0.210   72 298 
 PAM  SZ EP   1    239  0.98                             151     0.1 7   76  39 
 PAM  SN ES   2    239 17.54                             151    -0.5 5   76  39 
 RUS  HZ EP   1    239  2.79                             143     0.3 7  101 177 
 RUS  HE ES   1    239 20.76                             143    -0.2 7  101 177 
 RUS  HZ I         239 21.36         2.8 0.62                           101 177 
 PTB  HZ EP   1    239  5.59                             131    -0.2 7  149 259 
 PTB  HN ES   2    239 26.74                             131    -0.1 5  149 259 
 ZAR  HE ES   2    239 36.18                             122    -0.3 4  204 292 
                                                                                
