 2016  7 2 0635  4.4 L   6.772 -73.097154.7  RSN  6 0.3 1.3LRSN                1
 GAP=241        0.67       3.8     4.1  4.6  0.6380E+01  0.2377E+01 -0.1151E+01E
 Epicentro: LOS SANTOS - SANTANDER                                             3
 ACTION:UPD 17-03-29 16:45 OP:lp   STATUS:               ID:20160702063504 L   I
 OLDACT:DUP 16-07-02 15:26 OP:cara STATUS:               ID:20160702062747d    3
 OLDACT:REG 16-07-02 13:23 OP:edw  STATUS:               ID:20160702062746     3
 2016-07-02-0627-46M.COL___322                                                 6
 STAT SP IPHASW D HRMM SECON CODA AMPLIT PERI AZIMU VELO AIN AR TRES W  DIS CAZ7
 BAR2 EZ EP        635 24.96                             172   -0.0810 22.0 205 
 BAR2 EZ ES        635 41.11                             172   -0.0610 22.0 205 
 BAR2 EZ I         635 42.43         3.1 0.22            169           22.0 205 
 BRR  HZ EP        635 26.93                             152    0.1010 77.4 299 
 BRR  HN ES        635 44.48                             152    0.1310 77.4 299 
 BRR  HZ I         635 45.44         2.9 0.24            150           77.4 299 
 RUS  HZ EP        635 28.92                             146    0.1510 97.3 179 
 RUS  HE ES        635 47.71                             146   -0.1110 97.3 179 
 RUS  HZ I         635 48.55         1.6 0.32            147           97.3 179 
 PTB  HZ EP        635 31.99                             133   -0.50 9  153 260 
 PTB  HN ES        635 54.04                             133   -0.39 9  153 260 
 PTB  HZ I         635 56.84         2.6 0.24            132            153 260 
 SPBC HZ EP        635 34.01                             131    0.35 9  164 221 
 SPBC HE ES        635 56.75                             131    0.23 9  164 221 
 SPBC HZ I         635 58.77         3.5 0.26            131            164 221 
 ZAR  HZ EP        635 37.85                             123   -0.18 8  210 292 
 ZAR  HN ES        636  4.68                             123    0.39 8  210 292 
 ZAR  HZ I         636  8.54         3.0 0.36            123            210 292 
                                                                                
