 2016 11 2 0755 31.0 L   6.449 -73.572116.2  RSN  5 0.5 0.9LRSN                1
 GAP= 82        1.21       5.4     5.4 10.6  0.2999E+01  0.9321E+01  0.1775E+01E
 Epicentro: SANTA HELENA DEL OPON - SANTANDER                                  3
 ACTION:UPD 17-10-26 21:03 OP:lp   STATUS:               ID:20161102074742 L   I
 OLDACT:UP  16-11-02 18:18 OP:dani STATUS:               ID:20161102074742 L   3
 OLDACT:UP  16-11-02 18:18 OP:dani STATUS:               ID:20161102074742 L   3
 OLDACT:UP  16-11-02 18:18 OP:dani STATUS:               ID:20161102074742 L   3
 OLDACT:UPD 16-11-02 13:22 OP:dnl  STATUS:               ID:20161102074742 L   3
 2016-11-02-0748-00M.COL___334                                                 6
 STAT SP IPHASW D HRMM SECON CODA AMPLIT PERI AZIMU VELO AIN AR TRES W  DIS CAZ7
 BAR2 EZ EP        755 48.16                             157    0.2010 45.9  70 
 BAR2 EZ ES        756  0.70                             157   -0.4610 45.9  70 
 BRR  HZ EP        755 49.55                             145    0.2410 74.4 348 
 BRR  HN ES        756  4.20                             145    0.6410 74.4 348 
 BRR  HZ I         756 10.22         2.2 0.12            144           74.4 348 
 RUS  HZ EP        755 50.38                             143   -0.1610 81.9 139 
 RUS  HE ES        756  5.60                             143   -0.1510 81.9 139 
 RUS  HZ I         756  6.09         1.4 0.33            148           81.9 139 
 PTB  HZ EP        755 50.81                             137   -0.3610 98.3 276 
 PTB  HN ES        756  6.21                             137   -0.6710 98.3 276 
 PTB  HZ I         756  6.93         2.1 0.12            140           98.3 276 
 SPBC HE ES        756  8.66                             135    0.7410  104 212 
 ZAR  HE ES   4    756 24.21                             118    2.58 0  183 309 
                                                                                
