 2012  7 2 0520 44.8 L   6.773 -73.277135.0  RSN  4 0.4 1.1LRSN                1
 GAP=205        0.95      11.5     8.7 12.2  0.3757E+02  0.1720E+02 -0.3230E+02E
 Epicentro: ZAPATOCA - SANTANDER                                               3
 ACTION:UPD 12-08-14 11:41 OP:ep   STATUS:               ID:20120702052044 L   I
 2012-07-02-0520-00M.COL___201                                                 6
 STAT SP IPHASW D HRMM SECON CODA AMPLIT PERI AZIMU VELO AIN AR TRES W  DIS CAZ7
 BAR2 SZ EP   1    521  2.73                             170    -0.4 7   23 152 
 BAR2 SZ ES   1    521 17.41                             170     0.0 7   23 152 
 BAR2 SZ I         521 19.08         3.9 0.12            155             23 152 
 BRR  HZ EP   1    521  4.63                             154     0.4 7   61 308 
 BRR  HZ I         521 23.68         3.3 0.19                            61 308 
 RUS  HZ EP   1    521  7.05                             142    -0.4 7  100 168 
 RUS  HN ES   1    521 25.57                             142     0.4 7  100 168 
 RUS  HZ I         521 26.41         1.7 0.67            142            100 168 
 PTB  HZ EP   1    521 10.04                             133     0.5 7  133 259 
 PTB  HE ES   1    521 28.52                             133    -0.4 7  133 259 
 PTB  HZ I         521 30.87         1.9 0.25            125            133 259 
