 2013  6 2 0207 54.3 L   5.942 -73.758110.4  RSN 13 0.5 1.9LRSN                1
 GAP= 85        1.10       3.0     3.3  7.4 -0.4093E+01  0.7931E+01 -0.2593E+00E
 Epicentro: GUAVATA - SANTANDER                                                3
 ACTION:UPD 14-01-08 09:51 OP:ep   STATUS:               ID:20130602020754 L   I
 2013-06-02-0200-00M.COL___261                                                 6
 STAT SP IPHASW D HRMM SECON CODA AMPLIT PERI AZIMU VELO AIN AR TRES W  DIS CAZ7
 RUS  HZ IP     D  2 8 12.88                             144    0.2010 75.0  94 
 RUS  HN ES        2 8 27.06                             144    0.0110 75.0  94 
 RUS  HZ I         2 8 28.96         6.6 0.18            144           75.0  94 
 BAR2 SZ EP        2 8 14.48                             136    0.4810 96.1  42 
 BAR2 SZ ES        2 8 29.89                             136    0.5010 96.1  42 
 BAR2 SZ I         2 8 31.72        73.9 0.66            136           96.1  42 
 PTB  HZ EP   2    2 8 13.87                             134   -0.30 5  102 311 
 PTB  HN ES   2    2 8 29.18                             134   -0.52 5  102 311 
 PTB  HZ I         2 8 30.43        10.7 0.46            134            102 311 
 BRR  HZ IP     C  2 8 16.63                             126   -0.0610  129   2 
 BRR  HN ES        2 8 33.68                             126   -0.5210  129   2 
 BRR  HZ I         2 8 37.91        13.8 0.10            126            129   2 
 NOR  HZ EP        2 8 16.78                             126   -0.0810  130 251 
 NOR  HN ES        2 8 34.74                             126    0.2510  130 251 
 NOR  HZ I         2 8 36.17        44.4 0.18            126            130 251 
 GIR2 SZ EP        2 8 18.51                             124    0.49 9  140  26 
 GIR2 SZ ES        2 8 36.32                             124   -0.24 9  140  26 
 GIR2 SZ I         2 8 39.41        10.3 0.44            124            140  26 
 CHI  HZ EP   2    2 8 18.66                             123   -0.19 5  145 179 
 CHI  HN ES        2 8 37.23                             123   -0.81 9  145 179 
 CHI  HZ I         2 8 42.64         7.8 0.36            123            145 179 
 PAM  SZ EP        2 8 24.38                             115    0.22 9  194  37 
 PAM  SN ES   2    2 8 46.52                             115   -0.97 4  194  37 
 PAM  SZ I         2 8 53.35         5.6 0.20            115            194  37 
 GUY2CHZ EP        2 8 24.50                             115    0.25 9  195 246 
 GUY2CHN ES        2 8 48.54                             115    0.90 9  195 246 
 GUY2CHZ I         2 8 52.70         6.0 0.20                           195 246 
 HEL  HZ EP        2 8 24.88                             114    0.43 9  198 278 
 HEL  HN ES        2 8 47.22                             114   -0.78 9  198 278 
 HEL  HZ I         2 8 52.52         6.1 0.46            114            198 278 
 RREF HZ EP   4    2 8 25.05                             113   -1.13 0  210 237 
 RREF HE ES   4    2 8 52.27                             113    1.19 0  210 237 
 RREF HZ I         2 8 55.40         6.4 0.22            113            210 237 
 PRA  HZ EP        2 8 32.42                             106   -0.60 7  276 207 
 PRA  HN ES        2 9  3.28                             106    0.03 7  276 207 
 PRA  HZ I         2 9 11.99         4.3 0.22            106            276 207 
 SML  HZ EP        2 8 37.17                             103   -0.72 7  318 354 
 SML  HN ES   4    2 9 12.95                             103    1.02 0  318 354 
 SML  HZ I         2 9 18.74         7.6 0.30            103            318 354 
                                                                                
