 2015  5 2 0933 41.5 L   6.079 -73.685115.9  RSN  4 0.5 1.3LRSN                1
 GAP=115        1.22       6.7     6.0 11.6 -0.2770E+01  0.2681E+02 -0.3313E+02E
 Epicentro: CHIPATA - SANTANDER                                                3
 ACTION:UPD 15-09-10 22:00 OP:cam  STATUS:               ID:20150502093341 L   I
 OLDACT:UP  15-05-07 15:11 OP:cam  STATUS:               ID:20150502093341 L   3
 OLDACT:UP  15-05-07 15:07 OP:nlst STATUS:               ID:20150502093341 L   3
 OLDACT:REG 15-05-02 13:20 OP:stll STATUS:               ID:20150502092744     3
 2015-05-02-0927-44M.COL___273                                                 6
 STAT SP IPHASW D HRMM SECON CODA AMPLIT PERI AZIMU VELO AIN AR TRES W  DIS CAZ7
 SPBC HZ EP        933 59.14                             149   -0.0610 63.7 222 
 SPBC HZ I         933 59.24        15.5 0.12            151           63.7 222 
 SPBC HE ES        934 13.38                             149    0.4010 63.7 222 
 RUS  HZ EP        934  0.06                             147   -0.1010 69.7 107 
 RUS  HZ I         934  0.39         2.0 0.28            151           69.7 107 
 RUS  HN ES        934 13.83                             147   -0.8610 69.7 107 
 BAR2 EZ EP        934  0.89                             143    0.4110 79.5  44 
 BAR2 EZ ES        934 15.78                             143    0.5310 79.5  44 
 BAR2 EZ I         934 16.70         4.9 0.16            143           79.5  44 
 ZAR  HZ EP        934 12.37                             115    0.24 9  203 320 
 ZAR  HN ES        934 35.33                             115   -0.66 9  203 320 
 ZAR  HZ I         934 40.98         1.7 0.36            115            203 320 
                                                                                
