 2017  9 2 0440 47.9 L   6.834 -73.046146.3  RSN 10 0.5 1.9LRSN                1
 GAP=223        1.13       5.6     7.7  6.4  0.2113E+02  0.5227E+01  0.1079E+02E
 Epicentro: LOS SANTOS - SANTANDER                                             3
 ACTION:UPD 17-10-05 19:08 OP:rebc STATUS:               ID:20170902044047 L   I
 OLDACT:UP  17-09-02 15:26 OP:dani STATUS:               ID:20170902043744     3
 OLDACT:REG 17-09-02 13:20 OP:dani STATUS:               ID:20170902043744     3
 2017-09-02-0438-00M.COL___399                                                 6
 STAT SP IPHASW D HRMM SECON CODA AMPLIT PERI AZIMU VELO AIN AR TRES W  DIS CAZ7
 BAR2 EZ EP     D  441  7.79                             168    0.0310 30.6 209 
 BAR2 EZ ES        441 23.15                             168   -0.1010 30.6 209 
 BAR2 EZ I         441 24.03        17.0 0.24            159           30.6 209 
 BRR  HZ EP        441 10.64                             150    1.0510 79.6 292 
 BRR  HN ES        441 26.21                             150   -0.3010 79.6 292 
 BRR  HZ I         441 28.93        13.9 0.14            146           79.6 292 
 RUS  HZ EP        441 11.89                             143   -0.0710  104 182 
 RUS  HN ES        441 30.70                             143   -0.0210  104 182 
 SPBC HZ EP        441 16.94                             127   -0.45 9  173 221 
 SPBC HN ES   3    441 40.08                             127   -0.31 2  173 221 
 SPBC HZ I         441 46.63         9.0 0.42            124            173 221 
 YPLC HZ EP     D  441 18.28                             127    0.71 9  175 155 
 ZAR  HZ EP        441 20.49                             121   -0.81 8  213 290 
 ZAR  HN ES   3    441 45.89                             121   -1.47 2  213 290 
 CHI  HZ EP        441 26.34                             116   -0.01 8  255 197 
 CHI  HE ES        441 56.67                             116    0.33 8  255 197 
 CHI  HZ I         442  2.21         2.3 0.33            115            255 197 
 PTGC HZ EP        441 31.08                             112   -0.66 7  308 161 
 PTGC HN ES        442  5.15                             112   -0.79 7  308 161 
 PTGC HZ I         442  8.06         6.5 0.18            112            308 161 
 GUY2CHZ EP        441 33.23                             111    0.44 7  312 235 
 GUY2CHN ES   4    442 12.44                             111    4.63 0  312 235 
 GUY2CHZ I         442 16.72         5.0 0.54                           312 235 
 PRA  HZ EP        441 42.68                             106    0.22 6  401 211 
 PRA  HE ES        442 25.32                             106    0.30 6  401 211 
 PRA  HZ I         442 30.67         2.6 0.14            106            401 211 
                                                                                
