 2012  7 2 0933 23.0 L   6.694 -73.235162.0  RSN  4 0.4 1.0LRSN                1
 GAP=202        0.91      10.5     9.8 11.6  0.3986E+02  0.1001E+02 -0.1532E+02E
 Epicentro: BARICHARA - SANTANDER                                              3
 ACTION:UPD 12-08-14 11:42 OP:ep   STATUS:               ID:20120702093322 L   I
 2012-07-02-0930-00M.COL___201                                                 6
 STAT SP IPHASW D HRMM SECON CODA AMPLIT PERI AZIMU VELO AIN AR TRES W  DIS CAZ7
 BAR2 SZ EP   1    933 43.88                             175    -0.5 7   13 153 
 BAR2 SZ ES   2    934  0.57                             175    -0.6 5   13 153 
 BRR  HZ EP   1    933 46.42                             156     0.6 7   70 311 
 BRR  HZ I         933 46.73         2.8 0.24            151             70 311 
 BRR  HN ES   1    934  3.82                             156     0.2 7   70 311 
 RUS  HN ES   1    934  7.36                             150     0.4 7   90 169 
 RUS  HZ I         934  8.42         1.1 0.30            146             90 169 
 PTB  HZ EP   1    933 50.11                             138    -0.2 7  136 263 
 PTB  HN ES   1    934 11.62                             138    -0.1 7  136 263 
 PTB  HZ I         934 18.50         0.8 0.10            132            136 263 
