 2011  7 2 0846 38.3 L   6.788 -73.102152.2  RSN  6 0.2 1.4LRSN                1
 GAP=164        0.41       2.6     5.3  4.3  0.2168E+01 -0.7952E+01 -0.2951E+01E
 Epicentro: LOS SANTOS - SANTANDER                                             3
 ACTION:UPD 12-07-25 13:57 OP:epov STATUS:               ID:20110702084638 L   I
 2011-07-02-0840-00M.COL___124                                                 6
 STAT SP IPHASW D HRMM SECON CODA AMPLIT PERI AZIMU VELO AIN AR TRES W  DIS CAZ7
 BTL  SZ EP        846 58.77                             171    0.0210 23.3 308 
 BAR2 SZ EP   1    846 58.38                             171   -0.37 7 23.4 202 
 BAR2 SZ ES   1    847 14.60                             171   -0.07 7 23.4 202 
 BAR2 SZ I         847 15.28         5.3 0.28                          23.4 202 
 GIR2 SZ EP   1    846 58.97                             167    0.12 7 33.7 343 
 BRR  HZ EP        847  0.39                             152   -0.0810 76.1 298 
 BRR  HZ I         847  0.70        10.6 0.19                          76.1 298 
 BRR  HN ES   1    847 17.84                             152    0.12 7 76.1 298 
 RUS  HZ EP        847  2.85                             145    0.2310 99.0 179 
 RUS  HE ES   1    847 21.48                             145   -0.08 7 99.0 179 
 RUS  HZ I         847 22.41         2.2 0.29                          99.0 179 
 GRA  SZ EP        847  4.11                             138   -0.0510  126  15 
 GRA  SZ I         847  5.79         3.2 0.33                           126  15 
 GRA  SZ ES   2    847 24.45                             138    0.15 5  126  15 
                                                                                
