 2011 11 2 0611  6.7 L   6.794 -73.100138.0  RSN  4 0.2 1.2LRSN                1
 GAP=143        0.46       4.3     6.5  7.3  0.7743E+01 -0.2662E+02 -0.6924E+01E
 Epicentro: LOS SANTOS - SANTANDER                                             3
 ACTION:UPD 12-07-13 16:07 OP:ep   STATUS:               ID:20111102061106 L   I
 2011-11-02-0608-28S.COL___176                                                 6
 STAT SP IPHASW D HRMM SECON CODA AMPLIT PERI AZIMU VELO AIN AR TRES W  DIS CAZ7
 BAR2 SZ EP   2    611 25.35                             170   -0.04 5 24.1 202 
 BAR2 SZ ES   2    611 39.65                             170   -0.34 5 24.1 202 
 BAR2 SZ I         611 44.12         3.8 0.32                          24.1 202 
 PAM  SZ EP        611 27.97                             150    0.0610 74.8  36 
 BRR  HZ EP   1    611 26.93                             150   -0.35 7 75.9 297 
 BRR  HZ I         611 27.41         4.1 0.13                          75.9 297 
 BRR  HE ES   1    611 43.60                             150    0.26 7 75.9 297 
 RUS  HZ EP   1    611 29.71                             143    0.10 7 99.7 179 
 RUS  HE ES   2    611 47.60                             143    0.11 5 99.7 179 
 RUS  HZ I         611 49.35         1.6 0.29                          99.7 179 
                                                                                
