 2016  9 2 0726  2.3 L   6.791 -73.150143.2  RSN  8 0.5 1.3LRSN                1
 GAP=136        1.20       4.2     5.1  8.1 -0.1895E+01  0.8517E+01  0.2126E+01E
 Epicentro: LOS SANTOS - SANTANDER                                             3
 ACTION:UPD 17-08-17 21:05 OP:lp   STATUS:               ID:20160902072602 L   I
 OLDACT:DUP 16-09-02 17:16 OP:drio STATUS:               ID:20160902071733d    3
 2016-09-02-0718-00M.COL___346                                                 6
 STAT SP IPHASW D HRMM SECON CODA AMPLIT PERI AZIMU VELO AIN AR TRES W  DIS CAZ7
 BAR2 EZ EP        726 21.58                             171    0.0310 22.2 189 
 BAR2 EZ ES        726 36.37                             171   -0.2410 22.2 189 
 BAR2 EZ I         726 38.66         5.3 0.24            169           22.2 189 
 BRR  HZ EP        726 23.53                             152    0.4010 71.2 299 
 BRR  HE ES        726 40.28                             152    0.8710 71.2 299 
 PAM  EZ EP        726 24.59                             150    0.3210 78.5  39 
 PAM  EN ES        726 41.42                             150   -0.0210 78.5  39 
 PAM  EZ I         726 43.66         3.4 0.64            154           78.5  39 
 RUS  HZ EP        726 25.35                             144   -0.3310 99.6 176 
 RUS  HN ES        726 44.03                             144    0.0710 99.6 176 
 RUS  HZ I         726 45.89         2.5 0.36            144           99.6 176 
 PTB  HZ EP        726 28.76                             132   -0.19 9  147 259 
 PTB  HN ES        726 48.90                             132   -0.87 9  147 259 
 PTB  HZ I         726 53.27         1.9 0.10            133            147 259 
 OCA  HE ES        726 51.58                             129   -0.88 9  161 353 
 SPBC HZ EP        726 30.79                             129    0.34 9  162 219 
 SPBC HE ES        726 52.38                             129   -0.06 9  162 219 
 SPBC HZ I         726 57.64         2.3 0.22            130            162 219 
 ZAR  HN ES        727  0.11                             122    0.42 9  204 292 
                                                                                
