 2011  9 2 0118 13.0 L   6.778 -73.103138.4  RSN  6 0.2 1.7LRSN                1
 GAP=143        0.39       3.3     4.1  4.9 -0.1496E+01  0.1424E+01  0.1356E+01E
 Epicentro: LOS SANTOS - SANTANDER                                             3
 ACTION:UPD 12-07-13 15:54 OP:ep   STATUS:               ID:20110902011813 L   I
 2011-09-02-0115-50S.COL___167                                                 6
 STAT SP IPHASW D HRMM SECON CODA AMPLIT PERI AZIMU VELO AIN AR TRES W  DIS CAZ7
 BAR2 SZ EP   1    118 31.75                             170    0.00 7 22.3 203 
 BAR2 SZ I         118 32.09        17.1 0.13                          22.3 203 
 BAR2 SZ ES   2    118 45.90                             170   -0.46 5 22.3 203 
 GIR2 SZ EP   1    118 31.81                             165   -0.12 7 34.7 343 
 PAM  SZ EP   1    118 34.64                             150    0.23 7 76.4  36 
 BRR  HZ EP   1    118 33.59                             149   -0.11 7 76.4 298 
 BRR  HZ I         118 37.38        18.4 0.13                          76.4 298 
 BRR  HE ES   2    118 50.13                             149    0.30 5 76.4 298 
 RUS  HZ EP        118 35.84                             143   -0.0310 98.0 179 
 RUS  HZ I         118 36.56         4.0 0.11                          98.0 179 
 RUS  HE ES   2    118 53.97                             143    0.29 5 98.0 179 
 NOR  SZ EP   1    118 48.54                             117   -0.07 6  237 236 
 NOR  SN ES   2    119 16.46                             117    0.10 4  237 236 
                                                                                
