 2014  3 2 0522 55.8 L   6.082 -73.726112.0  RSN  7 0.3 1.5LRSN                1
 GAP=113        0.73       3.2     2.8  6.4 -0.3784E+01  0.8682E+01 -0.1201E+02E
 Epicentro: BOLIVAR - SANTANDER                                                3
 ACTION:UPD 14-04-09 23:13 OP:nd   STATUS:               ID:20140302052255 L   I
 OLDACT:REG 14-03-02 08:22 OP:stll STATUS:               ID:20140302051819     3
 2014-03-02-0518-19M.COL___229                                                 6
 STAT SP IPHASW D HRMM SECON CODA AMPLIT PERI AZIMU VELO AIN AR TRES W  DIS CAZ7
 SPBC HZ EP        523 13.01                             149    0.1510 61.0 219 
 SPBC HN ES        523 26.33                             149    0.1510 61.0 219 
 RUS  HZ EP        523 14.35                             144    0.0410 74.2 106 
 RUS  HN ES        523 28.36                             144   -0.4010 74.2 106 
 RUS  HZ I         523 30.23         5.2 0.28            146           74.2 106 
 BAR2 SZ EP        523 14.95                             141    0.3810 82.5  47 
 BAR2 SZ I         523 15.23        13.4 0.30            142           82.5  47 
 BAR2 SZ ES        523 29.22                             141    0.0010 82.5  47 
 NOR  HE ES        523 38.02                             125    0.21 9  139 246 
 NOR  HZ I         523 41.13         4.2 0.24            125            139 246 
 ZAR  HZ EP        523 25.85                             114    0.03 9  200 321 
 ZAR  HN ES        523 48.86                             114   -0.40 9  200 321 
 GUY2CHN ES        523 50.97                             114   -0.31 9  205 242 
 GUY2CHZ I         523 57.26         1.2 0.62                           205 242 
 SML  HZ EP        523 37.20                             105   -0.50 7  303 353 
 SML  HN ES        524 10.88                             105    0.49 7  303 353 
 SML  HZ I         524 13.80         2.8 0.28            105            303 353 
                                                                                
