 2011 11 2 0635 16.4 L   6.776 -73.089145.4  RSN  4 0.3 1.5LRSN                1
 GAP=145        0.66       4.4     6.7  6.5  0.1317E+01 -0.2593E+00  0.2318E+01E
 Epicentro: LOS SANTOS - SANTANDER                                             3
 ACTION:UPD 12-07-13 16:07 OP:ep   STATUS:               ID:20111102063516 L   I
 2011-11-02-0633-30S.COL___176                                                 6
 STAT SP IPHASW D HRMM SECON CODA AMPLIT PERI AZIMU VELO AIN AR TRES W  DIS CAZ7
 BAR2 SZ EP   1    635 35.68                             171   -0.33 7 22.8 207 
 BAR2 SZ ES   1    635 50.93                             171   -0.35 7 22.8 207 
 BAR2 SZ I         635 52.76         7.4 0.35                          22.8 207 
 PAM  SZ EP   1    635 38.89                             151    0.38 7 75.7  35 
 PAM  SN ES   1    635 55.65                             151   -0.08 7 75.7  35 
 BRR  HZ EP        635 37.64                             150   -0.2910 77.9 298 
 BRR  HZ I         635 38.16        10.5 0.15                          77.9 298 
 BRR  HN ES   1    635 55.12                             150    0.41 7 77.9 298 
 RUS  HZ EP        635 40.08                             144    0.1410 97.7 180 
 RUS  HE ES   1    635 58.51                             144    0.23 7 97.7 180 
 RUS  HZ I         635 59.90         3.6 0.43                          97.7 180 
                                                                                
