 2011  6 2 0354 19.6 L   6.787 -73.060147.8  RSN 10 0.3 2.0LRSN                1
 GAP=148        0.59       2.6     4.7  4.8 -0.5256E+01  0.3348E+01  0.1031E+01E
 Epicentro: LOS SANTOS - SANTANDER                                             3
 ACTION:UP  11-07-14 19:02 OP:ep   STATUS:               ID:20110602035419 L   I
 2011-06-02-0352-21S.COL___130                                                 6
 STAT SP IPHASW D HRMM SECON CODA AMPLIT PERI AZIMU VELO SNR AR TRES W  DIS CAZ7
 BAR2 SZ EP   1    354 39.19                             171    -0.3 8   25 212 
 BAR2 SZ ES   2    354 55.05                             171     0.0 5   25 212 
 BAR2 SZ I         354 57.05        25.9 0.32                            25 212 
 PAM  SZ EP   1    354 42.09                             152     0.4 8   73  33 
 PAM  SN ES   2    354 58.89                             152    -0.1 5   73  33 
 BRR  HZ EP   1    354 41.07                             151    -0.4 8   80 296 
 BRR  HE ES   1    354 58.58                             151     0.0 8   80 296 
 BRR  HZ I         355  1.78        19.4 0.15                            80 296 
 RUS  HZ EP   1    354 43.04                             145    -0.4 8   99 182 
 RUS  HN ES   1    355  1.98                             145     0.0 8   99 182 
 RUS  HZ I         355  3.21        10.3 0.27                            99 182 
 BRI  SZ EP   1    354 43.78                             142     0.3 8  107  16 
 BRI  SZ ES   2    355  2.32                             142     0.1 5  107  16 
 BRI  SZ I         355  4.38         9.8 0.23                           107  16 
 GRA  SZ IP        354 44.99                             138     0.110  125  13 
 GRA  SZ ES   1    355  4.90                             138     0.3 7  125  13 
 GRA  SZ I         355  5.95        11.1 0.31                           125  13 
 OCA  SZ EP   1    354 48.01                             130    -0.3 7  163 350 
 OCA  SZ ES   1    355 10.53                             130    -0.2 7  163 350 
 OCA  SZ I         355 16.03        13.7 0.35                           163 350 
 HEL  HZ EP   1    355  0.80                             115    -0.1 6  281 257 
 HEL  HZ I         355 37.48         6.7 0.29                           281 257 
 RREF HE ES   1    355 43.74                                     0.6 5  328 231 
 RREF HZ I         355 47.76         7.6 0.23                           328 231 
 PRA  HZ EP   1    355 13.55                             107     0.0 4  396 211 
 PRA  HN ES   1    355 56.13                                     0.4 4  396 211 
                                                                                
