 2016  7 2 0736 16.3 L   6.745 -73.140149.1  RSN  5 0.2 1.2LRSN                1
 GAP=234        0.52       4.1     3.8  4.1  0.8357E+01  0.3166E+01 -0.3178E+01E
 Epicentro: LOS SANTOS - SANTANDER                                             3
 ACTION:UPD 17-03-29 16:45 OP:lp   STATUS:               ID:20160702073616 L   I
 OLDACT:DUP 16-07-02 15:00 OP:cara STATUS:               ID:20160702072746d    3
 2016-07-02-0727-45M.COL___319                                                 6
 STAT SP IPHASW D HRMM SECON CODA AMPLIT PERI AZIMU VELO AIN AR TRES W  DIS CAZ7
 BAR2 EZ EP        736 36.09                             173   -0.0910 17.6 196 
 BAR2 EZ ES        736 51.60                             173   -0.1310 17.6 196 
 BAR2 EZ I         736 56.22         3.2 0.58            174           17.6 196 
 BRR  HZ EP        736 38.02                             152    0.0510 74.9 302 
 BRR  HN ES        736 55.09                             152    0.1910 74.9 302 
 BRR  HZ I         737  0.31         2.8 0.44            152           74.9 302 
 RUS  HE ES        736 58.40                             146    0.0410 94.5 176 
 RUS  HZ I         737  0.61         1.6 0.28            152           94.5 176 
 PTB  HZ EP        736 43.30                             133   -0.16 9  147 261 
 PTB  HE ES        737  4.82                             133    0.14 9  147 261 
 PTB  HZ I         737  8.19         1.5 0.26            136            147 261 
 ZAR  HZ EP        736 49.54                             123    0.32 8  207 294 
 ZAR  HN ES        737 14.56                             123   -0.38 8  207 294 
 ZAR  HZ I         737 19.41         2.7 0.56            126            207 294 
                                                                                
