 2012  2 2 0632 54.8 L   6.780 -73.124141.4  RSN 13 0.4 2.1LRSN                1
 GAP=128        0.81       3.7     3.9  5.3 -0.2673E+01  0.3393E+01  0.2011E+01E
 ACTION:UP  12-03-07 16:26 OP:epov STATUS:               ID:20120202063254 L   I
 2012-02-02-0630-00M.COL___187                                                 6
 STAT SP IPHASW D HRMM SECON CODA AMPLIT PERI AZIMU VELO SNR AR TRES W  DIS CAZ7
 BAR2 SZ EP        633 14.01                             171    0.1010 21.8 197 
 BAR2 SZ ES   1    633 28.54                             171   -0.26 7 21.8 197 
 BAR2 SZ I         633 30.19        32.4 0.30                          21.8 197 
 GIR2 SZ EP   1    633 14.07                             166    0.00 7 33.9 347 
 BRR  HZ EP        633 15.86                             151    0.1610 74.3 299 
 BRR  HE ES   1    633 32.55                             151    0.57 7 74.3 299 
 BRR  HZ I         633 36.82        28.8 0.13                          74.3 299 
 PAM  SZ EP   1    633 16.96                             150    0.35 7 77.6  37 
 PAM  SN ES   1    633 33.55                             150   -0.04 7 77.6  37 
 RUS  HZ EP   1    633 17.76                             144   -0.23 7 98.3 177 
 RUS  HN ES   1    633 36.22                             144    0.16 7 98.3 177 
 PTB  HZ EP        633 21.10                             131   -0.53 9  150 260 
 PTB  HE ES   1    633 41.80                             131   -0.73 7  150 260 
 OCA  SZ EP   1    633 22.88                             128   -0.17 7  163 352 
 OCA  SZ I         633 48.92        17.6 0.16                           163 352 
 ZAR  HZ EP   1    633 28.36                             121    1.04 6  207 292 
 ZAR  HN ES   1    633 52.26                             121   -0.39 6  207 292 
 ZAR  HZ I         633 57.93        18.3 0.46                           207 292 
 NOR  SZ EP   1    633 30.59                             117    0.20 6  235 235 
 NOR  SE ES   1    633 58.04                             117   -0.09 6  235 235 
 CHI  HZ EP        633 32.44                             116    0.30 8  247 196 
 CHI  HZ I         634  9.12         5.7 0.37                           247 196 
 RREF HE ES   1    634 17.09                             110    0.37 5  322 230 
 RREF HZ I         634 25.45         6.0 0.32                           322 230 
 SDV  BZ EP   1    633 43.80                             107   -0.86 5  360  50 
 PRA  HZ EP   1    633 47.75                             106   -0.38 4  391 210 
                                                                                
