 2010  8 2 0044  1.0 L   6.778 -73.025138.9  RSN  5 0.4 1.4LRSN                1
 GAP=209        1.06      15.1    17.6 17.6 -0.5644E+02 -0.1101E+03 -0.1103E+03E
 Epicentro: CEPITA - SANTANDER                                                 3
 ACTION:UP  10-09-07 10:51 OP:vdl  STATUS:               ID:20100802004401 L   I
 2010-08-02-0042-28S.COL___123                                                 6
 STAT SP IPHASW D HRMM SECON CODA AMPLIT PERI AZIMU VELO SNR AR TRES W  DIS CAZ7
 BAR2 SZ ES   2    044 34.45                             169    -0.2 5   27 220 
 BAR2 SZ I         044 36.48         9.0 0.28                            27 220 
 BRR  HZ EP        044 22.11                             148    -0.110   84 296 
 BRR  HE ES   2    044 39.05                             148     0.3 5   84 296 
 BRR  HZ I         044 40.84         9.0 0.10                            84 296 
 GUE  SZ EP   1    044 26.10                             138     1.0 7  117   5 
 GUE  SZ I         044 47.42         1.9 0.19                           117   5 
 GRA  SZ EP        044 25.17                             135    -0.410  125  11 
 GRA  SZ I         044 49.78         2.9 0.39                           125  11 
 OCA  SZ EP        044 29.12                             127    -0.1 9  165 349 
 OCA  SZ ES   2    044 50.97                             127    -0.3 5  165 349 
                                                                                
