 2017  1 2 0211 28.1 L   6.690 -73.169159.5  RSN  4 0.3 1.0LRSN                1
 GAP=238        0.83       7.0     5.9  9.7  0.2078E+02  0.1150E+01 -0.2503E+02E
 Epicentro: VILLANUEVA - SANTANDER                                             3
 ACTION:UPD 17-05-22 15:54 OP:jn   STATUS:               ID:20170102021128 L   I
 OLDACT:UP  17-04-19 19:48 OP:nlst STATUS:               ID:20170102021128 L   3
 OLDACT:DUP 17-01-02 14:08 OP:lv   STATUS:               ID:20170102020744d    3
 2017-01-02-0208-00M.COL___378                                                 6
 STAT SP IPHASW D HRMM SECON CODA AMPLIT PERI AZIMU VELO AIN AR TRES W  DIS CAZ7
 RUS  HZ EP        211 52.19                             150   -0.3110 88.7 174 
 RUS  HN ES        212 11.79                             150    0.2810 88.7 174 
 RUS  HZ I         212 13.50         0.7 0.26            155           88.7 174 
 PTB  HZ EP        211 55.52                             136   -0.37 9  143 263 
 PTB  HN ES        212 17.26                             136   -0.27 9  143 263 
 PTB  HZ I         212 18.64         1.5 0.16            139            143 263 
 ZAR  HZ EP        212  2.38                             125    0.61 8  207 296 
 ZAR  HN ES        212 28.03                             125    0.02 8  207 296 
 ZAR  HZ I         212 32.28         1.6 0.34            127            207 296 
 GUY2CHZ EP   4    212 13.41                             116    1.98 0  292 236 
 GUY2CHN ES        212 45.46                             116    0.26 7  292 236 
                                                                                
