 2011 11 2 0033 54.7 L   6.800 -73.004135.6  RSN  4 0.4 1.7LRSN                1
 GAP=156        0.85       9.2    14.3 11.1  0.9472E+02 -0.8574E+02 -0.4442E+02E
 Epicentro: CEPITA - SANTANDER                                                 3
 ACTION:UPD 12-07-13 16:07 OP:ep   STATUS:               ID:20111102003354 L   I
 2011-11-02-0030-45S.COL___176                                                 6
 STAT SP IPHASW D HRMM SECON CODA AMPLIT PERI AZIMU VELO AIN AR TRES W  DIS CAZ7
 BAR2 SZ EP        034 13.38                             166    0.0610 30.3 221 
 BAR2 SZ ES   1    034 27.09                             166   -0.72 7 30.3 221 
 BAR2 SZ I         034 30.08        15.6 0.19                          30.3 221 
 PAM  SZ EP   2    034 15.97                             152    0.63 5 68.4  29 
 BRR  HZ EP        034 15.47                             146   -0.2410 85.3 293 
 BRR  HE ES        034 32.32                             146    0.2610 85.3 293 
 BRR  HZ I         034 41.67        11.8 0.33                          85.3 293 
 RUS  HZ EP   1    034 17.30                             141   -0.22 7  101 185 
 RUS  HE ES   1    034 35.80                             141    0.51 7  101 185 
 RUS  HZ I         034 37.39         5.0 0.31                           101 185 
                                                                                
