 2012 11 2 0440  7.0 L   6.797 -73.076146.4  RSN  5 0.3 2.0LRSN                1
 GAP=190        0.70       5.5     7.4  6.3  0.2399E+02 -0.1174E+02 -0.8749E+01E
 Epicentro: LOS SANTOS - SANTANDER                                             3
 ACTION:UPD 12-12-05 15:30 OP:}ep  STATUS:               ID:20121102044007 L   I
 2012-11-02-0440-00M.COL___234                                                 6
 STAT SP IPHASW D HRMM SECON CODA AMPLIT PERI AZIMU VELO AIN AR TRES W  DIS CAZ7
 BAR2 SZ EP        440 26.66                             170   -0.0510 25.5 207 
 BAR2 SZ ES        440 41.68                             170   -0.4410 25.5 207 
 BAR2 SZ I         440 43.48        27.9 0.20                          25.5 207 
 BRR  HZ IP     C  440 28.74                             150    0.1510 78.2 296 
 BRR  HN ES        440 45.84                             150    0.3910 78.2 296 
 BRR  HN I         440 46.78        22.0 0.18                          78.2 296 
 RUS  HZ EP        440 30.77                             144    0.0410100.0 180 
 RUS  HN ES   2    440 49.71                             144    0.44 5100.0 180 
 RUS  HN I         440 50.20         4.8 0.30                         100.0 180 
 OCA  HZ EP   1    440 35.64                             129    0.18 7  162 350 
 OCA  HN ES   2    440 57.42                             129   -0.26 5  162 350 
 OCA  HN I         441  1.33        19.6 0.22                           162 350 
 ZAR  HE ES   1    441  5.56                             121   -0.57 6  211 291 
 ZAR  HE I         441 12.04        13.2 0.18                           211 291 
                                                                                
