 2017  7 2 0748 46.3 L   6.624 -73.179144.0  RSN  4 0.1 1.1LRSN                1
 GAP=234        0.31       5.5     3.5  4.4  0.6235E+01  0.4119E+01  0.3027E+01E
 Epicentro: BARICHARA - SANTANDER                                              3
 ACTION:UPD 17-08-30 15:29 OP:rebc STATUS:               ID:20170702074846 L   I
 OLDACT:REG 17-07-02 11:59 OP:and  STATUS:               ID:20170702074737     3
 2017-07-02-0748-00M.COL___380                                                 6
 STAT SP IPHASW D HRMM SECON CODA AMPLIT PERI AZIMU VELO AIN AR TRES W  DIS CAZ7
 BAR2 EZ EP        749  5.54                             178    0.0510 3.55 186 
 BAR2 EZ ES   2    749 20.35                             178   -0.10 5 3.55 186 
 BAR2 EZ I         749 22.68         4.1 0.31            170           3.55 186 
 BRR  HZ EP        749  7.66                             149   -0.1010 79.5 312 
 BRR  HN ES   2    749 24.73                             149    0.24 5 79.5 312 
 PTB  HZ EP        749 12.60                             133    0.03 9  142 266 
 PTB  HN ES   2    749 33.00                             133   -0.06 5  142 266 
 PTB  HZ I         749 36.68         1.4 0.10            133            142 266 
 ZAR  HZ EP   2    749 19.31                             121    0.17 4  209 297 
 ZAR  HN ES   2    749 44.60                             121   -0.15 4  209 297 
                                                                                
