 2012  1 2 0756  1.9 L   6.762 -73.396109.0  RSN  9 0.4 1.8LRSN                1
 GAP= 78        0.81       3.4     4.0  6.1  0.9144E-01  0.9031E+01  0.2618E+01E
 Epicentro: EL CARMEN DE CHUCURI - SANTANDER                                   3
 ACTION:UP  12-02-03 08:13 OP:REBC STATUS:               ID:20120102075601 L   I
 2012-01-02-0750-00M.COL___186                                                 6
 STAT SP IPHASW D HRMM SECON CODA AMPLIT PERI AZIMU VELO SNR AR TRES W  DIS CAZ7
 BAR2 SZ IP        756 17.29                             164    -0.110   30 129 
 BAR2 SZ ES   1    756 29.54                             164     0.1 7   30 129 
 BAR2 SZ I         756 31.20        32.6 0.32                            30 129 
 BRR  HZ IP     D  756 17.51                             153    -0.510   52 318 
 BRR  HZ I         756 17.79        36.2 0.11                            52 318 
 BRR  HN ES   1    756 30.71                             153     0.2 7   52 318 
 PAM  SZ EP   1    756 22.13                             135    -0.1 7  100  50 
 PAM  SN ES   1    756 38.55                             135     0.5 7  100  50 
 RUS  HZ EP   1    756 22.00                             134    -0.4 7  102 160 
 RUS  HN ES   2    756 37.90                             134    -0.5 5  102 160 
 RUS  HZ I         756 39.68        15.3 0.40                           102 160 
 OCA  SZ EP        756 28.14                             119     0.1 9  164   3 
 OCA  SZ ES   2    756 47.49                             119    -0.9 5  164   3 
 OCA  SZ I         756 52.04        10.2 0.26                           164   3 
 ZAR  HZ EP   1    756 29.83                             116     0.2 7  181 297 
 ZAR  HN ES   1    756 51.64                             116     0.3 7  181 297 
 ZAR  HZ I         756 54.00         8.1 0.17                           181 297 
 CHI  HZ EP   1    756 37.15                             109     0.4 6  239 189 
 CHI  HN ES   2    757  4.75                             109     0.9 4  239 189 
 CHI  HZ I         757  9.12         2.8 0.57                           239 189 
 HEL  HZ EP   1    756 37.31                             109     0.0 6  244 255 
 HEL  HN ES   2    757  4.63                             109    -0.3 4  244 255 
 HEL  HZ I         757  5.15         2.1 0.72                           244 255 
 RREF HZ EP   1    756 44.37                             104     0.4 5  298 227 
 RREF HZ I         756 46.49         1.9 0.36                           298 227 
 RREF HN ES   2    757 16.25                             104    -0.5 4  298 227 
                                                                                
