 2011  2 2 0438  3.2 L   6.814 -73.168141.1  RSN  7 0.2 1.6LRSN                1
 GAP=156        0.45       3.5     6.8  6.5 -0.1389E+02  0.2156E+02 -0.7126E+01E
 Epicentro: LOS SANTOS - SANTANDER                                             3
 ACTION:UP  11-03-28 15:05 OP:jfem STATUS:               ID:20110202043803 L   I
 2011-02-02-0435-13S.COL___135                                                 6
 STAT SP IPHASW D HRMM SECON CODA AMPLIT PERI AZIMU VELO SNR AR TRES W  DIS CAZ7
 BAR2 SZ EP        438 22.32                             170     0.010   25 184 
 BAR2 SZ I         438 22.89        12.5 0.13                            25 184 
 BAR2 SZ ES   2    438 36.97                             170    -0.3 5   25 184 
 RUS  HZ EP   2    438 26.10                             142    -0.6 5  102 175 
 RUS  HZ I         438 27.56         5.3 0.17                           102 175 
 RUS  HN ES   2    438 45.28                             142     0.3 5  102 175 
 GRA  SZ EP   1    438 28.04                             136     0.0 7  125  19 
 GRA  SZ ES   2    438 47.58                             136     0.2 5  125  19 
 GRA  SZ I         438 48.81         6.5 0.39                           125  19 
 OCA  SZ EP   2    438 31.07                             129     0.0 5  158 354 
 OCA  SZ I         438 56.55         6.1 0.65                           158 354 
 NOR  SZ EP   2    438 38.77                             118     0.2 4  234 234 
 NOR  SN ES   2    439  6.07                             118    -0.1 4  234 234 
 CHI  HZ EP   2    438 40.74                             116     0.0 4  249 195 
 CHI  HE ES   2    439 10.47                             116     0.4 4  249 195 
 CHI  HZ I         439 14.63         2.6 0.47                           249 195 
 HEL  HZ EP   2    438 42.97                             114     0.0 4  270 255 
 HEL  HZ I         439 20.68         3.0 0.26                           270 255 
                                                                                
