 2015  1 2 0926 31.7 L   6.725 -73.105142.0  RSN  4 0.5 1.2LRSN                1
 GAP=268        1.35       9.7    10.4 11.1 -0.1267E+02  0.1136E+02  0.2279E+02E
 Epicentro: JORDAN - SANTANDER                                                 3
 ACTION:UPD 15-03-02 15:36 OP:nd   STATUS:               ID:20150102092631 L   I
 OLDACT:DUP 15-01-02 18:12 OP:stll STATUS:               ID:20150102091746d    3
 OLDACT:REG 15-01-02 13:22 OP:stll STATUS:               ID:20150102091745     3
 2015-01-02-0917-45M.COL___277                                                 6
 STAT SP IPHASW D HRMM SECON CODA AMPLIT PERI AZIMU VELO AIN AR TRES W  DIS CAZ7
 BAR2 EZ EP        926 50.83                             173    0.0910 17.0 210 
 BAR2 EZ ES        927  5.01                             173   -0.6010 17.0 210 
 BAR2 EZ I         927  6.99         2.2 0.20            166           17.0 210 
 BRR  HZ EP        926 52.79                             149   -0.1210 79.3 302 
 BRR  HE ES        927 10.34                             149    0.8810 79.3 302 
 PTB  HZ EP        926 58.35                             130   -0.28 9  151 262 
 PTB  HN ES        927 18.83                             130   -0.81 9  151 262 
 PTB  HZ I         927 26.12         1.8 0.34            129            151 262 
 SPBC HZ EP        926 59.81                             129    0.24 9  160 222 
 SPBC HN ES        927 21.90                             129    0.58 9  160 222 
 SPBC HZ I         927 25.52         4.0 0.10            127            160 222 
                                                                                
