 2013  2 2 0309 34.8 L   6.761 -73.152137.1  RSN  5 0.1 1.2LRSN                1
 GAP=138        0.29       2.2     2.6  4.2  0.2385E+01 -0.4214E+01 -0.3404E+01E
 Epicentro: LOS SANTOS - SANTANDER                                             3
 ACTION:UPD 13-03-12 09:29 OP:ep   STATUS:               ID:20130202030934 L   I
 2013-02-02-0308-50M.COL___179                                                 6
 STAT SP IPHASW D HRMM SECON CODA AMPLIT PERI AZIMU VELO AIN AR TRES W  DIS CAZ7
 BAR2 SZ EP   1    3 9 53.29                             172    0.02 7 18.9 190 
 BRR  HZ EP        3 9 55.16                             150    0.0810 72.8 302 
 BRR  HN ES   1    310 10.93                             150    0.00 7 72.8 302 
 PAM  SZ EP   1    3 9 56.22                             148   -0.09 7 81.2  38 
 RUS  HZ EP        3 9 57.35                             143   -0.0110 96.3 175 
 RUS  HN ES        310 14.99                             143    0.0110 96.3 175 
 PTB  HE ES   1    310 21.23                             130   -0.07 7  146 260 
 PTB  HE I         310 23.65         2.2 0.18            127            146 260 
                                                                                
