 2014  2 2 0702 33.9 L   6.814 -73.206140.2  RSN  9 0.2 1.6LRSN                1
 GAP=128        0.44       1.6     2.0  2.8 -0.8944E+00  0.2002E+01 -0.3739E+00E
 Epicentro: ZAPATOCA - SANTANDER                                               3
 ACTION:UPD 14-03-10 08:07 OP:ep   STATUS:               ID:20140202070233 L   I
 OLDACT:REG 14-02-02 07:16 OP:nd   STATUS:               ID:20140202070000     3
 2014-02-02-0700-00M.COL___288                                                 6
 STAT SP IPHASW D HRMM SECON CODA AMPLIT PERI AZIMU VELO AIN AR TRES W  DIS CAZ7
 BAR2 SZ EP        7 2 52.76                             170   -0.0910 24.7 174 
 BAR2 SZ ES        7 3  7.70                             170    0.0310 24.7 174 
 BAR2 SZ I         7 3  9.53        11.6 0.26            169           24.7 174 
 PAM  SZ EP        7 2 55.78                             149    0.0910 80.7  44 
 PAM  SN ES        7 3 12.67                             149   -0.0510 80.7  44 
 PAM  SZ I         7 3 16.23         4.1 0.46            153           80.7  44 
 RUS  HZ EP        7 2 56.97                             142   -0.2710  103 172 
 RUS  HN ES        7 3 15.61                             142    0.1410  103 172 
 RUS  HZ I         7 3 17.07         2.9 0.28            144            103 172 
 PTB  HZ EP        7 2 59.67                             132   -0.14 9  142 258 
 PTB  HN ES        7 3 20.14                             132    0.09 9  142 258 
 PTB  HZ I         7 3 22.68         4.7 0.10            132            142 258 
 SPBC HZ EP        7 3  2.05                             128    0.39 9  160 217 
 SPBC HN ES        7 3 23.32                             128   -0.03 9  160 217 
 SPBC HZ I         7 3 29.51         5.9 0.19            129            160 217 
 SML  HZ EP        7 3  9.91                             117    0.18 8  240 337 
 SML  HN ES   2    7 3 37.34                             117   -0.36 4  240 337 
 SML  HZ I         7 3 40.14         5.9 0.10            118            240 337 
 CHI  HZ EP        7 3 11.26                             116    0.02 8  249 194 
 CHI  HN ES        7 3 40.19                             116   -0.21 8  249 194 
 CHI  HZ I         7 3 45.68         2.3 0.38            118            249 194 
 HEL  HZ EP   2    7 3 13.37                             114    0.25 4  266 255 
 HEL  HN ES        7 3 43.60                             114   -0.14 8  266 255 
 HEL  HZ I         7 3 51.63         2.5 0.30            115            266 255 
 GUY2CHZ EP   4    7 3 18.31                             112    1.60 0  297 234 
 GUY2CHN ES   4    7 3 53.47                             112    3.35 0  297 234 
 GUY2CHZ I         7 3 59.44         2.3 0.64                           297 234 
                                                                                
