 2016  4 2 0802 25.4 L   6.793 -73.163135.2  RSN  5 0.4 1.2LRSN                1
 GAP=135        0.89       3.8     4.0  8.2 -0.2126E+01  0.1285E+02 -0.2818E+01E
 Epicentro: LOS SANTOS - SANTANDER                                             3
 ACTION:UPD 16-05-05 14:18 OP:rebc STATUS:               ID:20160402080225 L   I
 OLDACT:DUP 16-04-02 15:49 OP:drio STATUS:               ID:20160402075740d    3
 2016-04-02-0757-39M.COL___303                                                 6
 STAT SP IPHASW D HRMM SECON CODA AMPLIT PERI AZIMU VELO AIN AR TRES W  DIS CAZ7
 PAM  EZ EP        8 2 46.58                             148   -0.0810 79.1  40 
 PAM  EN ES        8 3  3.19                             148   -0.0210 79.1  40 
 PAM  EZ I         8 3  5.08         3.6 0.16            154           79.1  40 
 RUS  HZ EP        8 2 48.15                             142    0.0210  100 175 
 RUS  HN ES        8 3  5.94                             142    0.1210  100 175 
 RUS  HZ I         8 3  8.37         1.5 0.28            147            100 175 
 PTB  HZ EP        8 2 50.50                             130   -0.88 9  146 259 
 PTB  HN ES        8 3 11.41                             130   -0.21 9  146 259 
 PTB  HZ I         8 3 17.71         2.1 0.54            132            146 259 
 SPBC HZ EP        8 2 53.22                             127    0.24 9  161 219 
 SPBC HN ES        8 3 14.58                             127    0.12 9  161 219 
 SPBC HZ I         8 3 18.39         2.5 0.30            131            161 219 
 ZAR  HZ EP        8 2 57.62                             120    0.55 9  203 293 
 ZAR  HN ES        8 3 22.03                             120    0.29 9  203 293 
 ZAR  HZ I         8 3 28.36         3.2 0.36            123            203 293 
                                                                                
