 2013  6 2 0856 41.3 L   6.820 -73.134142.4  RSN  9 0.4 1.8LRSN                1
 GAP=137        1.09       3.4     5.5  5.7  0.2055E+01  0.9392E+01 -0.2764E+00E
 Epicentro: LOS SANTOS - SANTANDER                                             3
 ACTION:UPD 14-01-08 09:51 OP:ep   STATUS:               ID:20130602085641 L   I
 2013-06-02-0855-50M.COL___217                                                 6
 STAT SP IPHASW D HRMM SECON CODA AMPLIT PERI AZIMU VELO AIN AR TRES W  DIS CAZ7
 BAR2 SZ EP        857  0.50                             169   -0.0510 25.7 192 
 BAR2 SZ ES        857 15.32                             169   -0.2710 25.7 192 
 BAR2 SZ I         857 16.83        14.1 0.22            169           25.7 192 
 GIR2 SZ EP        857  0.59                             168    0.0910 29.4 347 
 GIR2 SZ ES        857 15.02                             168   -0.4710 29.4 347 
 GIR2 SZ I         857 18.34         5.8 0.16            166           29.4 347 
 BRR  HZ IP     D  857  2.41                             152    0.3410 71.4 296 
 BRR  HN ES        857 19.30                             152    1.0110 71.4 296 
 BRR  HZ I         857 21.04         8.5 0.12            149           71.4 296 
 PAM  SZ IP     C  857  3.53                             151    0.5510 74.9  40 
 PAM  SN ES        857 20.29                             151    0.3710 74.9  40 
 PAM  SZ I         857 22.41        10.3 0.56            154           74.9  40 
 RUS  HZ EP        857  4.96                             142    0.1110  103 177 
 RUS  HN ES        857 22.72                             142   -0.5210  103 177 
 RUS  HZ I         857 24.51         7.9 0.28            145            103 177 
 OCA  HZ EP        857  8.74                             129   -0.40 9  158 353 
 OCA  HN ES        857 30.37                             129   -0.50 9  158 353 
 OCA  HZ I         857 35.13         8.2 0.32            130            158 353 
 ZAR  HZ EP        857 13.82                             122    0.27 9  204 291 
 ZAR  HN ES        857 38.51                             122   -0.21 9  204 291 
 ZAR  HZ I         857 44.92         7.2 0.32            121            204 291 
 SML  HZ EP        857 17.29                             117   -0.27 8  242 335 
 SML  HN ES        857 45.42                             117   -0.44 8  242 335 
 SML  HZ I         857 50.19        11.1 0.10            117            242 335 
 PRA  HZ EP        857 35.39                             106    0.41 6  395 210 
 PRA  HN ES        858 16.48                             106   -0.39 6  395 210 
 PRA  HZ I         858 23.25         4.3 0.28            107            395 210 
                                                                                
