 2010  4 2 0026 39.7 L   6.818 -73.074140.2  RSN  4 0.2 1.5LRSN                1
 GAP=207        0.39       4.1     8.5  8.0  0.8527E+01 -0.3930E+02 -0.2710E+01E
 Epicentro: LOS SANTOS - SANTANDER                                             3
 ACTION:UPD 10-08-24 09:57 OP:vdl  STATUS:               ID:20100402002639 L   I
 2010-04-02-0025-02S.COL___098                                                 6
 STAT SP IPHASW D HRMM SECON CODA AMPLIT PERI AZIMU VELO AIN AR TRES W  DIS CAZ7
 BAR2 SZ EP        026 58.83                             168     0.010   28 206 
 BAR2 SZ ES   3    027 13.47                             168    -0.2 2   28 206 
 BRR  HZ EP        027  0.79                             148     0.110   77 294 
 BRR  HN ES   1    027 16.89                             148    -0.1 7   77 294 
 BRR  HZ I         027 21.96         6.8 0.12                            77 294 
 OCA  SZ EP   2    027  7.17                             127    -0.4 5  159 350 
 OCA  SZ ES   2    027 29.24                             127     0.0 5  159 350 
 CHI  HE ES   3    027 46.40                             115    -0.7 2  253 197 
                                                                                
