 2013  1 2 0902 36.6 L   6.818 -73.138145.9  RSN  7 0.5 2.7LRSN                1
 GAP=182        1.14       4.1     7.5  7.4  0.3802E+01 -0.9131E+00  0.1172E+01E
 Epicentro: LOS SANTOS - SANTANDER                                             3
 ACTION:UPD 13-02-15 09:11 OP:ep   STATUS:               ID:20130102090236 L   I
 2013-01-02-0900-00M.COL___242                                                 6
 STAT SP IPHASW D HRMM SECON CODA AMPLIT PERI AZIMU VELO AIN AR TRES W  DIS CAZ7
 BAR2 SZ EP        9 2 56.57                             170    0.2910 25.5 191 
 BAR2 SZ ES        9 3 11.28                             170   -0.3610 25.5 191 
 BAR2 SZ I         9 3 12.63       118.5 0.22            170           25.5 191 
 BRR  HZ IP        9 2 58.38                             153    0.6410 71.0 297 
 BRR  HN ES        9 3 15.08                             153    0.8410 71.0 297 
 BRR  HN I         9 3 15.54       101.7 0.24            153           71.0 297 
 RUS  HZ EP        9 3  0.63                             143    0.1410  103 177 
 RUS  HN ES        9 3 18.84                             143   -0.3010  103 177 
 PTB  HZ EP        9 3  3.22                             132   -0.45 9  149 258 
 PTB  HN ES        9 3 24.33                             132   -0.47 9  149 258 
 OCA  HN ES        9 3 26.11                             130   -0.57 9  158 353 
 OCA  HN I         9 3 29.92       111.3 0.24            130            158 353 
 CHI  HZ EP        9 3 14.78                             117    0.26 8  251 195 
 CHI  HN ES        9 3 44.11                             117   -0.01 8  251 195 
 CHI  HN I         9 3 49.07        17.2 0.30            117            251 195 
 COD  HZ EP        9 3 24.44                             109   -0.30 6  346 354 
                                                                                
