 2015 11 2 0056 23.4 L   6.762 -73.093141.0  RSN  9 0.4 1.7LRSN                1
 GAP=145        0.60       2.8     4.5  4.6  0.2453E+01  0.4142E+01  0.2742E+01E
 Epicentro: LOS SANTOS - SANTANDER                                             3
 ACTION:UPD 15-12-28 16:08 OP:cam  STATUS:               ID:20151102005623 L   I
 OLDACT:DUP 15-11-02 13:10 OP:ar   STATUS:               ID:20151102004749d    3
 2015-11-02-0047-48M.COL___316                                                 6
 STAT SP IPHASW D HRMM SECON CODA AMPLIT PERI AZIMU VELO AIN AR TRES W  DIS CAZ7
 BAR2 EZ EP        056 42.24                             171   -0.2210 21.2 208 
 BAR2 EZ ES        056 57.35                             171    0.0610 21.2 208 
 BAR2 EZ I         056 57.96         9.6 0.32            170           21.2 208 
 PAM  EZ EP   2    056 45.14                             150   -0.01 5 77.3  34 
 PAM  EN ES   2    057  2.13                             150    0.05 5 77.3  34 
 PAM  EZ I         057  4.14         6.8 0.48            151           77.3  34 
 BRR  HZ EP        056 44.40                             149   -0.1110 78.3 299 
 BRR  HN ES        057  1.08                             149    0.1410 78.3 299 
 BRR  HZ I         057  5.42         7.4 0.14            147           78.3 299 
 RUS  HZ EP        056 46.28                             144   -0.1310 96.1 179 
 RUS  HN ES        057  4.63                             144    0.3110 96.1 179 
 RUS  HZ I         057  6.31         6.4 0.40            146           96.1 179 
 SPBC HZ EP   2    056 51.30                             128   -0.34 5  164 221 
 SPBC HN ES   2    057 12.96                             128   -0.66 5  164 221 
 SPBC HZ I         057 15.42         8.8 0.30            128            164 221 
 ZAR  HZ EP   2    056 57.20                             121    0.89 4  211 293 
 ZAR  HN ES   2    057 21.20                             121   -0.75 4  211 293 
 ZAR  HZ I         057 26.06         6.3 0.30            120            211 293 
 CHI  HZ EP   4    057  2.10                             117    1.48 0  246 197 
 CHI  HN ES        057 29.52                             117   -0.09 8  246 197 
 CHI  HZ I         057 32.99         2.4 0.56            117            246 197 
 SML  HZ EP   9    056 58.76                             116   -1.74 0  250 334 
 SML  HE ES   2    057 28.22                                    0.56 4  250 334 
 SML  HZ I         057 33.03         6.9 0.10            116            250 334 
 GUY2CHZ EP   2    057  7.86                             111    0.75 4  304 236 
 GUY2CHN ES   2    057 41.81                             111    0.64 4  304 236 
 GUY2CHZ I         057 49.15         1.6 0.38                           304 236 
                                                                                
