 2014  5 2 0337 32.4 L   6.845 -73.143144.6  RSN  4 0.3 1.5LRSN                1
 GAP=246        0.66       9.7     6.7 10.9  0.4508E+02 -0.2408E+02 -0.6279E+02E
 Epicentro: LOS SANTOS - SANTANDER                                             3
 OLDACT:REG 14-05-02 12:55 OP:fm   STATUS:               ID:20140502032815d    3
 ACTION:UPD 15-03-16 16:54 OP:nd   STATUS:               ID:20140502033732 L   I
 OLDACT:UP  14-05-02 17:22 OP:fm   STATUS:               ID:20140502032815d    3
 2014-05-02-0328-14M.COL___236                                                 6
 STAT SP IPHASW D HRMM SECON CODA AMPLIT PERI AZIMU VELO AIN AR TRES W  DIS CAZ7
 RUS  HZ EP   1    337 56.62                             142    0.22 7  106 176 
 RUS  HN ES        338 15.08                             142   -0.0410  106 176 
 RUS  HZ I         338 18.15         4.8 2.22            149            106 176 
 PTB  HZ EP        337 59.08                             131   -0.31 9  149 257 
 PTB  HN ES        338 20.20                             131   -0.25 9  149 257 
 PTB  HZ I         338 27.01         3.6 0.94            136            149 257 
 SPBC HZ EP   1    338  1.46                             128    0.26 7  167 218 
 SPBC HE ES   1    338 23.90                             128    0.24 7  167 218 
 SPBC HZ I         338 25.43         4.4 2.04            133            167 218 
 ZAR  HE ES   2    338 30.68                             122    0.95 4  202 291 
                                                                                
