 2015  1 2 0133  9.5 L   6.737 -73.222141.5  RSN  5 0.4 1.2LRSN                1
 GAP=217        0.89       5.2     6.6  6.7  0.1587E+02  0.1166E+02  0.1269E+02E
 Epicentro: VILLANUEVA - SANTANDER                                             3
 ACTION:UPD 15-03-02 15:36 OP:nd   STATUS:               ID:20150102013309 L   I
 OLDACT:DUP 15-01-02 15:03 OP:stll STATUS:               ID:20150102012738d    3
 OLDACT:DUP 15-01-02 13:55 OP:stll STATUS:               ID:20150102012737d    3
 2015-01-02-0127-36M.COL___277                                                 6
 STAT SP IPHASW D HRMM SECON CODA AMPLIT PERI AZIMU VELO AIN AR TRES W  DIS CAZ7
 BAR2 EZ ES        133 43.56                             173    0.2610 16.6 165 
 BRR  HZ EP        133 30.00                             153    0.0210 67.9 307 
 BRR  HN ES        133 46.19                             153    0.2210 67.9 307 
 BRR  HN I         133 47.37         8.3 0.26            151           67.9 307 
 RUS  HZ EP        133 31.85                             145   -0.5410 94.6 171 
 RUS  HN ES        133 50.01                             145   -0.2410 94.6 171 
 RUS  HZ I         133 53.00         1.7 0.28            141           94.6 171 
 PTB  HZ EP        133 35.08                             133   -0.16 9  138 261 
 PTB  HN ES        133 55.09                             133   -0.24 9  138 261 
 PTB  HZ I         134  0.76         2.5 0.12            130            138 261 
 CHI  HZ EP        133 46.80                             117    0.82 8  240 194 
 CHI  HN ES        134 14.63                             117    0.18 8  240 194 
 CHI  HZ I         134 22.34         0.7 0.34            116            240 194 
                                                                                
