 2015 10 2 0949 15.2 L   6.434 -73.734  3.9  RSN 12 0.6 1.6LRSN                1
 GAP= 56        1.05       2.4     2.2  5.6  0.1923E+00 -0.3085E+00  0.4871E+00E
 Epicentro: SANTA HELENA DEL OPON - SANTANDER                                  3
 ACTION:UPD 15-12-22 20:36 OP:cam  STATUS:               ID:20151002094915 L   I
 OLDACT:REG 15-10-02 13:34 OP:ar   STATUS:               ID:20151002094742     3
 2015-10-02-0947-42M.COL___351                                                 6
 STAT SP IPHASW D HRMM SECON CODA AMPLIT PERI AZIMU VELO AIN AR TRES W  DIS CAZ7
 BAR2 EZ EP     D  949 25.69                              47    0.0310 63.4  74 
 BAR2 EZ ES        949 32.89                              47   -0.9310 63.4  74 
 BAR2 EZ I         949 33.72         9.4 0.18             47           63.4  74 
 BRR  HZ EP        949 27.24                              47    0.1510 74.5   2 
 BRR  HN ES        949 36.76                              47    0.4010 74.5   2 
 BRR  HZ I         949 38.26        14.8 0.14             47           74.5   2 
 PTB  HZ EP   2    949 27.52                              47   -0.54 5 80.8 278 
 PTB  HN ES   2    949 37.60                              47   -0.50 5 80.8 278 
 PTB  HZ I         949 40.33        22.1 0.10             47           80.8 278 
 RUS  HZ EP        949 30.94                              47    0.4410 93.6 130 
 RUS  HN ES        949 42.35                              47   -0.0810 93.6 130 
 RUS  HZ I         949 43.89         7.4 0.28             47           93.6 130 
 SPBC HN ES   4    949 44.58                              47    2.72 0 94.2 203 
 SPBC HZ I         949 49.34        20.8 0.10             47           94.2 203 
 PAM  EZ EP   2    949 40.07                              47    0.74 5  152  49 
 PAM  EN ES   2    949 58.62                              47    0.47 5  152  49 
 PAM  EZ I         950  3.09        10.2 0.16             47            152  49 
 NOR  HE ES   2    949 58.75                              47   -0.33 5  158 233 
 NOR  HZ I         949 59.57         9.9 0.48             47            158 233 
 ZAR  HZ EP        949 41.17                              47   -0.51 9  171 313 
 ZAR  HN ES   2    950  1.40                              47   -0.93 4  171 313 
 ZAR  HZ I         950  3.64        11.2 0.20             47            171 313 
 CHI  HZ EP   2    949 46.83                              37    0.92 4  200 180 
 CHI  HN ES   4    950 15.33                              37    5.47 0  200 180 
 CHI  HZ I         950 17.49         2.9 0.34             37            200 180 
 HEL  HZ EP   2    949 45.30                              37   -0.67 4  200 262 
 HEL  HN ES   4    950  8.45                              37   -1.52 0  200 262 
 HEL  HZ I         950  9.37        15.8 0.18             37            200 262 
 OCA  HZ EP   2    949 46.72                              37    0.47 4  205  13 
 OCA  HN ES   2    950 11.23                              37    0.76 4  205  13 
 OCA  HZ I         950 18.82         8.4 0.34             37            205  13 
 GUY2CHZ EP        949 49.93                              37    0.79 8  225 234 
 GUY2CHN ES        950 15.42                              37   -0.20 8  225 234 
 GUY2CHZ I         950 18.73         3.5 0.24                           225 234 
                                                                                
