 2017 11 2 0949 38.8 L   6.785 -73.182149.5  RSN  5 0.2 1.2LRSN                1
 GAP=209        0.40       3.4     3.2  5.0  0.7257E+01 -0.3569E+01 -0.3999E+00E
 Epicentro: LOS SANTOS - SANTANDER                                             3
 ACTION:UPD 17-12-12 19:51 OP:rebc STATUS:               ID:20171102094938 L   I
 OLDACT:REG 17-11-02 13:48 OP:dnl  STATUS:               ID:20171102094736     3
 2017-11-02-0948-00M.COL___426                                                 6
 STAT SP IPHASW D HRMM SECON CODA AMPLIT PERI AZIMU VELO AIN AR TRES W  DIS CAZ7
 BAR2 EZ EP        949 58.57                             172   -0.2410 21.3 180 
 BAR2 EZ I         950 16.41         4.5 0.30            169           21.3 180 
 BRR  HZ EP   2    950  0.28                             154    0.10 5 68.6 301 
 BRR  HN ES        950 16.99                             154    0.1210 68.6 301 
 BRR  HZ I         950 21.54         3.6 0.32            145           68.6 301 
 RUS  HZ EP   2    950  3.01                             145    0.21 5 99.3 174 
 RUS  HN ES        950 21.42                             145   -0.1210 99.3 174 
 RUS  HZ I         950 22.36         1.2 0.20            147           99.3 174 
 PTB  HZ EP   2    950  5.59                             134   -0.08 5  144 259 
 PTB  HE ES        950 26.66                             134    0.01 9  144 259 
 PTB  HZ I         950 28.91         1.0 0.18            132            144 259 
 YPLC HZ EP   2    950  9.15                             127    0.26 4  177 150 
 YPLC HN ES        950 32.52                             127    0.14 9  177 150 
 YPLC HZ I         950 34.06         2.4 0.28            123            177 150 
                                                                                
