 2017 10 2 0808 31.5 L   6.821 -73.127139.0  RSN 18 0.5 2.0LRSN                1
 GAP= 67        1.00       3.0     2.8  5.4  0.1915E+00  0.6413E+01  0.1176E+01E
 Epicentro: LOS SANTOS - SANTANDER                                             3
 ACTION:UPD 17-11-07 19:27 OP:rebc STATUS:               ID:20171002080831 L   I
 OLDACT:UP  17-10-02 19:20 OP:dhb  STATUS:               ID:20171002080739     3
 OLDACT:UP  17-10-02 19:18 OP:dhb  STATUS:               ID:20171002080739     3
 OLDACT:REG 17-10-02 14:44 OP:osc  STATUS:               ID:20171002080739     3
 2017-10-02-0808-00M.COL___405                                                 6
 STAT SP IPHASW D HRMM SECON CODA AMPLIT PERI AZIMU VELO AIN AR TRES W  DIS CAZ7
 BAR2 EZ IP     C  8 8 50.25                             169   -0.0910 26.0 194 
 BAR2 EZ ES        8 9  4.83                             169   -0.2410 26.0 194 
 BAR2 EZ I         8 9  7.07        28.4 0.26            169           26.0 194 
 PAM  EZ IP     D  8 8 53.28                             150    0.5010 74.3  39 
 PAM  EN ES        8 9  9.97                             150    0.5710 74.3  39 
 PAM  EZ I         8 9 12.39        36.5 0.47            151           74.3  39 
 RUS  HZ EP        8 8 54.52                             142   -0.2010  103 177 
 RUS  HN ES        8 9 12.10                             142   -0.7610  103 177 
 RUS  HZ I         8 9 14.34        23.6 0.38            142            103 177 
 TAM  HZ IP     C  8 8 58.62                             129    0.13 9  154 106 
 TAM  HN ES        8 9 19.01                             129   -0.56 9  154 106 
 TAM  HZ I         8 9 27.23         9.9 0.15            130            154 106 
 YPLC HZ EP        8 9  0.75                             125   -0.13 9  178 152 
 YPLC HN ES        8 9 24.32                             125    0.49 9  178 152 
 YPLC HZ I         8 9 27.07        18.4 0.26            125            178 152 
 ZAR  HZ EP        8 9  3.48                             120   -0.10 9  205 291 
 ZAR  HN ES        8 9 29.07                             120    0.43 9  205 291 
 ZAR  HZ I         8 9 35.05        10.9 0.11            121            205 291 
 NOR  HZ EP        8 9  7.09                             117   -0.04 8  238 234 
 NOR  HN ES        8 9 35.41                             117    0.45 8  238 234 
 NOR  HZ I         8 9 36.12         5.2 0.14            117            238 234 
 CHI  HZ IP     C  8 9  8.76                             115   -0.34 8  251 195 
 CHI  HE ES        8 9 38.97                             115    0.51 8  251 195 
 CHI  HZ I         8 9 44.47         2.4 0.32            116            251 195 
 ROSC BZ EP   2    8 9 10.47                             115    0.91 4  256 211 
 ROSC BN ES        8 9 39.43                             115    0.16 8  256 211 
 ROSC BZ I         8 9 45.11         6.4 0.40            115            256 211 
 HEL  HZ EP        8 9 12.30                             113    0.68 8  275 255 
 HEL  HE ES        8 9 41.91                             113   -1.04 8  275 255 
 HEL  HZ I         8 9 49.28         3.9 0.36            113            275 255 
 URE  HZ EP        8 9 11.65                             112   -0.68 7  285 291 
 URE  HE ES   3    8 9 42.44                             112   -1.76 2  285 291 
 URE  HZ I         8 9 44.22         8.6 0.14            112            285 291 
 GUY2CHZ EP   9    8 9 16.91                             111    1.80 0  304 235 
 GUY2CHN ES        8 9 51.33                             110    0.38 7  304 235 
 GUY2CHZ I         8 9 52.43         2.2 0.40                           304 235 
 PTGC HZ EP   4    8 9 13.56                             110   -1.63 0  310 159 
 PTGC HE ES   4    8 9 47.02                             110   -2.28 0  310 159 
 PTGC HZ I         8 9 49.05         7.1 0.20            111            310 159 
 LL6C HZ EP   3    8 9 15.33                             109   -1.30 2  323 357 
 LL6C HE ES   4    8 9 55.61                             109    3.75 0  323 357 
 LL6C HZ I         810  2.30         6.5 0.71            109            323 357 
 ELA  HE ES        8 9 54.94                             109   -0.05 7  332 229 
 ELA  HZ I         810  7.19         2.5 0.36            109            332 229 
 ORTC HZ EP        8 9 25.55                             105    0.03 6  398 216 
 ORTC HN ES        810  7.80                             105    0.12 6  398 216 
 ORTC HZ I         810 13.24         2.0 0.32            105            398 216 
 APAC HZ EP        8 9 25.87                             105    0.30 6  399 288 
 APAC HN ES        810  7.82                             105    0.04 6  399 288 
 APAC HZ I         810  9.57         2.7 0.30            105            399 288 
 SJC  HZ IP   4 C  8 9 25.28                             104   -1.43 0  408 327 
 SJC  HN ES   4    810  6.75                             104   -3.06 0  408 327 
 SJC  HZ I         810 10.14         2.5 0.48            105            408 327 
                                                                                
