 2010 11 2 0641 58.2 L   6.816 -73.118140.2  RSN 14 0.5 2.7LRSN                1
 GAP=138        1.33       4.7     8.0  8.3 -0.9675E+01  0.1144E+02  0.7851E+01E
 Epicentro: LOS SANTOS - SANTANDER                                             3
 ACTION:UP  10-12-17 16:49 OP:REBC STATUS:               ID:20101102064158 L   I
 2010-11-02-0640-04S.COL___126                                                 6
 STAT SP IPHASW D HRMM SECON CODA AMPLIT PERI AZIMU VELO SNR AR TRES W  DIS CAZ7
 BAR2 SZ IP        642 17.14                             169    -0.110   26 196 
 BAR2 SZ ES   1    642 31.81                             169    -0.2 7   26 196 
 BAR2 SZ I         642 33.17       151.9 0.26                            26 196 
 BRR  HZ IP        642 18.96                             151     0.110   73 296 
 BRR  HE ES   1    642 35.79                             151     0.8 7   73 296 
 BRR  HZ I         642 38.80       141.1 0.08                            73 296 
 RUS  HZ EP        642 21.20                             142    -0.310  102 178 
 RUS  HE ES   1    642 39.59                             142    -0.1 7  102 178 
 RUS  HZ I         642 41.72        69.0 0.38                           102 178 
 GUE  SZ EP        642 22.06                             139    -0.110  114  11 
 GRA  SZ IP        642 22.89                             136     0.210  123  16 
 GRA  SZ ES   1    642 42.37                             136     0.5 7  123  16 
 GRA  SZ I         642 43.23        64.3 0.44                           123  16 
 OCA  SZ EP        642 25.56                             129    -0.4 9  159 352 
 OCA  SZ ES   1    642 46.98                             129    -0.6 7  159 352 
 OCA  SZ I         642 51.20        59.7 0.19                           159 352 
 YOP  SZ IP        642 27.97                             125     0.1 9  179 154 
 NOR  SZ EP        642 32.80                             117    -1.2 8  238 235 
 NOR  SN ES   1    643  1.04                             117    -0.9 6  238 235 
 ROSC BZ EP        642 37.30                             115     1.0 8  256 211 
 ROSC BZ I         643 12.15        31.3 0.47                           256 211 
 HEL  HZ EP        642 39.01                             113     0.5 7  275 256 
 HEL  HZ I         643 15.13        31.1 0.50                           275 256 
 VIL  SZ EP   2    642 41.68                             111     0.3 4  304 190 
 RREF HZ EP        642 45.23                             110     0.7 7  325 230 
 RREF HZ I         643 29.35        21.6 0.26                           325 230 
 TOL  SZ EP        642 47.14                             108     0.5 6  347 225 
 PRA  HZ EP        642 51.29                             105    -0.6 6  395 210 
                                                                                
