 2016 10 2 0249 11.5 L   6.763 -73.144150.0  RSN  6 0.5 1.8LRSN                1
 GAP=235        0.89       5.2     6.8  8.4  0.2077E+02  0.2406E+01  0.4918E+01E
 Epicentro: LOS SANTOS - SANTANDER                                             3
 ACTION:UPD 16-11-09 19:15 OP:rebc STATUS:               ID:20161002024911 L   I
 OLDACT:REG 16-10-02 12:58 OP:dnl  STATUS:               ID:20161002024739     3
 2016-10-02-0248-00M.COL___375                                                 6
 STAT SP IPHASW D HRMM SECON CODA AMPLIT PERI AZIMU VELO AIN AR TRES W  DIS CAZ7
 BRR  HZ EP        249 32.98                             153   -0.2910 73.4 301 
 BRR  HE ES        249 50.82                             153    0.6010 73.4 301 
 BRR  HZ I         249 55.32         8.7 0.12            151           73.4 301 
 RUS  HZ EP        249 35.43                             146    0.0110 96.5 176 
 RUS  HN ES        249 53.84                             146   -0.2110 96.5 176 
 RUS  HZ I         249 56.38         6.7 0.48            146           96.5 176 
 PTB  HZ EP   2    249 37.77                             133   -1.03 5  147 260 
 PTB  HE ES        249 59.92                             133   -0.14 9  147 260 
 PTB  HZ I         250  3.69         7.8 0.30            133            147 260 
 ZAR  HZ EP   2    249 45.35                             123    0.91 4  206 293 
 ZAR  HN ES        250  9.80                             123   -0.30 8  206 293 
 ZAR  HZ I         250 16.04         9.8 0.34            124            206 293 
 CHI  HZ EP   2    249 48.61                             119   -0.44 4  245 195 
 CHI  HN ES        250 18.71                             119    0.40 8  245 195 
 CHI  HZ I         250 24.40         3.7 0.24            120            245 195 
 GUY2CHZ EP   2    249 55.90                             114    0.81 4  299 235 
 GUY2CHE ES   4    250 31.40                             114    2.33 0  299 235 
 GUY2CHZ I         250 36.95         2.7 0.50                           299 235 
                                                                                
