 2016 12 2 0751 19.2 L   6.711 -73.130145.7  RSN  6 0.4 1.5LRSN                1
 GAP=169        1.01       6.7     4.9  7.2 -0.1177E+02  0.9652E+01  0.2510E+01E
 Epicentro: JORDAN - SANTANDER                                                 3
 ACTION:UPD 17-01-11 20:11 OP:rebc STATUS:               ID:20161202075119 L   I
 OLDACT:DUP 16-12-02 14:59 OP:dnl  STATUS:               ID:20161202074739d    3
 2016-12-02-0748-00M.COL___334                                                 6
 STAT SP IPHASW D HRMM SECON CODA AMPLIT PERI AZIMU VELO AIN AR TRES W  DIS CAZ7
 BAR2 EZ EP        751 38.81                             174    0.1710 14.3 204 
 BAR2 EZ ES        751 53.51                             174   -0.3210 14.3 204 
 BAR2 EZ I         751 55.89         5.9 0.48            170           14.3 204 
 BRR  HZ EP        751 40.91                             150    0.2210 77.8 304 
 BRR  HE ES        751 58.30                             150    0.8210 77.8 304 
 BRR  HZ I         751 58.88         5.9 0.42            149           77.8 304 
 PAM  EZ EP        751 41.90                             149    0.1110 84.2  34 
 PAM  EN ES        751 59.18                             149   -0.2610 84.2  34 
 PAM  EZ I         752  1.44         5.2 0.46            153           84.2  34 
 PTB  HZ EP        751 45.69                             132   -0.45 9  148 263 
 PTB  HE ES        752  6.60                             132   -0.57 9  148 263 
 PTB  HZ I         752 11.83         3.1 0.14            131            148 263 
 ZAR  HZ EP        751 52.22                             122    0.05 8  210 294 
 ZAR  HE ES        752 17.56                             122   -0.36 8  210 294 
 ZAR  HZ I         752 24.04         4.8 0.26            122            210 294 
 NOR  HZ EP   2    751 54.47                             119    0.03 4  231 237 
 NOR  HE ES        752 22.51                             119    0.55 8  231 237 
 NOR  HZ I         752 30.63         2.7 0.14            119            231 237 
                                                                                
