 2010  5 2 0133 41.4 L   6.871 -73.142143.2  RSN  6 0.3 1.7LRSN                1
 GAP=232        0.75       8.0    11.3 10.3 -0.3938E+02  0.1165E+02  0.2270E+02E
 Epicentro: LOS SANTOS - SANTANDER                                             3
 ACTION:UP  10-08-24 10:02 OP:vdl  STATUS:               ID:20100502013341 L   I
 2010-05-02-0130-24S.COL___105                                                 6
 STAT SP IPHASW D HRMM SECON CODA AMPLIT PERI AZIMU VELO SNR AR TRES W  DIS CAZ7
 GIR2 SZ EP        134  0.03                             170    -0.510   24 346 
 GIR2 SZ ES   2    134 15.63                             170     0.1 5   24 346 
 BRR  HZ IP        134  2.39                             153     0.310   68 293 
 BRR  HZ I         134 23.79         9.2 0.16                            68 293 
 BRI  SZ EP        134  4.64                             143     0.210  101  22 
 BRI  SZ ES   1    134 22.74                             143     0.3 7  101  22 
 GUE  SZ EP   1    134  5.10                             141    -0.1 7  109  13 
 GUE  SZ ES   2    134 24.00                             141     0.2 5  109  13 
 OCA  SZ EP   2    134  8.98                             131     0.2 5  153 353 
 OCA  SZ ES   1    134 29.71                             131    -0.4 7  153 353 
 OCA  SZ I         134 35.39         6.5 0.34                           153 353 
 HEL  HZ EP   3    134 22.19                             114     0.5 2  274 254 
 HEL  HZ I         134 58.81         2.1 0.30                           274 254 
                                                                                
