 2014  7 2 0158 34.6 L   6.868 -73.167138.0  RSN 14 0.4 2.2LRSN                1
 GAP= 70        1.01       3.8     3.6  6.5  0.2147E+00  0.4797E+01 -0.6206E+01E
 Epicentro: ZAPATOCA - SANTANDER                                               3
 ACTION:UPD 15-03-16 20:40 OP:nd   STATUS:               ID:20140702015834 L   I
 OLDACT:UP  14-07-02 18:20 OP:cam  STATUS:               ID:20140702015641     3
 OLDACT:REG 14-07-02 18:11 OP:cam  STATUS:               ID:20140702015641     3
 2014-07-02-0156-41M.COL___250                                                 6
 STAT SP IPHASW D HRMM SECON CODA AMPLIT PERI AZIMU VELO AIN AR TRES W  DIS CAZ7
 BAR2 SZ IP     C  158 53.46                             167   -0.0210 30.6 183 
 BAR2 SZ ES        159  8.00                             167   -0.2110 30.6 183 
 BAR2 SZ I         159 10.68        22.7 0.18            171           30.6 183 
 BRR  HZ IP     D  158 55.05                             153    0.4410 65.7 294 
 BRR  HN ES   4    159 12.07                             153    1.86 0 65.7 294 
 BRR  HZ I         159 15.78        29.9 0.12            152           65.7 294 
 PAM  SZ EP     C  158 56.16                             151    0.4010 73.4  45 
 PAM  SE ES   4    159  9.71                             151   -2.55 0 73.4  45 
 PAM  SZ I         159 14.99        43.4 0.54            154           73.4  45 
 RUS  HZ EP        158 57.65                             140   -0.5510  108 175 
 RUS  HN ES        159 16.86                             140    0.2710  108 175 
 RUS  HZ I         159 17.66        10.9 0.20            147            108 175 
 PTB  HZ EP        159  0.08                             130   -0.81 9  147 256 
 PTB  HN ES        159 21.35                             130   -0.04 9  147 256 
 PTB  HZ I         159 27.31        27.4 0.44            133            147 256 
 OCA  HZ EP   4    159  0.21                             129   -1.38 0  153 354 
 OCA  HN ES   4    159 21.62                             129   -1.01 0  153 354 
 OCA  HZ I         159 27.97        16.1 0.28            132            153 354 
 TAM  HZ IP     D  159  1.85                             128   -0.26 9  160 107 
 TAM  HE ES        159 23.61                             128    0.06 9  160 107 
 SPBC HZ EP        159  2.48                             127   -0.48 9  168 217 
 SPBC HN ES        159 25.38                             127    0.31 9  168 217 
 SPBC HZ I         159 31.62        20.1 0.16            131            168 217 
 ZAR  HZ EP        159  5.71                             121   -0.33 9  199 290 
 ZAR  HN ES   4    159 31.56                             121    1.01 0  199 290 
 ZAR  HZ I         159 33.92        12.9 0.26            124            199 290 
 SML  HZ EP   1    159  9.39                             117   -0.56 6  236 335 
 SML  HE ES        159 37.96                             117    0.44 8  236 335 
 SML  HZ I         159 45.29        17.2 0.46            119            236 335 
 ROSC BZ EP   1    159 13.49                             115    0.59 6  258 210 
 HEL  HZ EP   1    159 14.98                             113    0.58 6  272 254 
 GUY2CHZ EP   1    159 18.51                             111    0.36 5  304 233 
 RREF HN EP   4    159 22.25                             109    1.46 0  325 228 
 TOL  SZ EP        159 23.93                             108    0.93 6  347 223 
 SJC  HZ EP   4    159 27.37                             105   -1.66 0  402 327 
                                                                                
