 2014 11 2 0249 40.5 L   6.764 -73.150149.3  RSN  8 0.4 1.5LRSN                1
 GAP=182        0.85       3.4     5.6  6.3 -0.7612E+00 -0.4533E+00  0.4953E+01E
 Epicentro: LOS SANTOS - SANTANDER                                             3
 ACTION:UPD 14-12-19 15:38 OP:nd   STATUS:               ID:20141102024940 L   I
 OLDACT:DUP 14-11-02 19:10 OP:spq  STATUS:               ID:20141102024744d    3
 2014-11-02-0247-42M.COL___274                                                 6
 STAT SP IPHASW D HRMM SECON CODA AMPLIT PERI AZIMU VELO AIN AR TRES W  DIS CAZ7
 BAR2 SZ EP   1    250  0.28                             172   -0.21 7 19.3 191 
 BAR2 SZ ES   1    250 15.68                             172   -0.40 7 19.3 191 
 BAR2 SZ I         250 16.99         8.7 0.30            170           19.3 191 
 BRR  HZ EP     C  250  2.03                             153   -0.0910 72.7 301 
 BRR  HN ES        250 19.57                             153    0.5810 72.7 301 
 BRR  HZ I         250 26.00         5.3 0.19            151           72.7 301 
 RUS  HZ EP        250  4.41                             146    0.0810 96.7 176 
 RUS  HE ES   1    250 22.85                             146   -0.07 7 96.7 176 
 RUS  HZ I         250 24.19         2.6 0.30            148           96.7 176 
 PTB  HZ EP        250  7.38                             133   -0.27 9  147 260 
 PTB  HN ES        250 28.13                             133   -0.70 9  147 260 
 PTB  HZ I         250 33.99         3.5 0.14            133            147 260 
 SPBC HZ EP        250  9.16                             131    0.20 9  160 220 
 SPBC HN ES        250 31.76                             131    0.60 9  160 220 
 SPBC HZ I         250 35.44         5.4 0.34            131            160 220 
 OCA  HN ES        250 32.03                             130   -0.00 9  164 353 
 OCA  HZ I         250 34.73         5.7 0.18            132            164 353 
 CHI  HZ EP   1    250 17.92                             118   -0.05 6  245 195 
 CHI  HN ES   1    250 46.98                             118   -0.22 6  245 195 
 CHI  HZ I         250 52.84         1.1 0.34            120            245 195 
 GUY2CHZ EP   1    250 24.31                             113    0.34 5  298 235 
 GUY2CHE ES   4    251  0.06                             113    2.18 0  298 235 
 GUY2CHZ I         251  7.16         1.6 0.28                           298 235 
                                                                                
