 2013  3 2 0938 27.6 L   6.821 -73.159146.2  RSN  5 0.4 2.0LRSN                1
 GAP=134        1.03       5.6     5.3  7.5 -0.2886E+01  0.4833E+01  0.2192E+01E
 Epicentro: LOS SANTOS - SANTANDER                                             3
 ACTION:UPD 13-04-09 13:59 OP:ep   STATUS:               ID:20130302093827 L   I
 2013-03-02-0928-51M.COL___193                                                 6
 STAT SP IPHASW D HRMM SECON CODA AMPLIT PERI AZIMU VELO AIN AR TRES W  DIS CAZ7
 BAR2 SZ EP        938 47.35                             170    0.0210 25.4 186 
 BAR2 SZ ES        939  2.70                             170   -0.0110 25.4 186 
 BAR2 SZ I         939  3.70        12.2 0.56            170           25.4 186 
 BRR  HZ EP        938 48.97                             153    0.3010 68.8 297 
 BRR  HN ES        939  5.71                             153    0.6210 68.8 297 
 BRR  HN I         939  6.42        37.4 0.28            153           68.8 297 
 PAM  SZ EP        938 50.16                             151    0.3410 76.6  41 
 PAM  SZ I         938 50.31        13.9 0.16            152           76.6  41 
 PAM  SN ES        939  6.47                             151   -0.6710 76.6  41 
 RUS  HZ EP        938 51.74                             143    0.1710  103 175 
 RUS  HN ES        939 10.30                             143    0.0410  103 175 
 PTB  HZ EP        938 53.98                             132   -0.53 9  147 258 
 PTB  HN ES        939 15.10                             132   -0.40 9  147 258 
                                                                                
