 2016  4 2 0613 36.2 L   6.836 -73.162149.7  RSN 24 0.4 2.4LRSN                1
 GAP= 69        0.92       2.5     2.4  4.4 -0.1149E+01  0.3249E+01 -0.1456E+01E
 Epicentro: LOS SANTOS - SANTANDER                                             3
 ACTION:UPD 16-05-05 14:17 OP:rebc STATUS:               ID:20160402061336 L   I
 OLDACT:UP  16-04-02 15:10 OP:drio STATUS:               ID:20160402060748     3
 OLDACT:UP  16-04-02 15:09 OP:drio STATUS:               ID:20160402060748     3
 OLDACT:REG 16-04-02 12:42 OP:drio STATUS:               ID:20160402060748     3
 2016-04-02-0607-48M.COL___303                                                 6
 STAT SP IPHASW D HRMM SECON CODA AMPLIT PERI AZIMU VELO AIN AR TRES W  DIS CAZ7
 BAR2 EZ EP        613 56.38                             169   -0.0110 27.0 185 
 BAR2 EZ ES        614 12.02                             169   -0.1210 27.0 185 
 BAR2 EZ I         614 13.46        40.5 0.20            168           27.0 185 
 PAM  EZ EP     C  613 59.19                             152    0.4510 75.6  43 
 PAM  EN ES        614 16.62                             152    0.3010 75.6  43 
 PAM  EZ I         614 18.97        59.8 0.60            151           75.6  43 
 RUS  HZ EP        614  0.30                             143   -0.3510  105 175 
 RUS  HN ES        614 19.25                             143   -0.4510  105 175 
 RUS  HZ I         614 21.86        30.1 0.38            141            105 175 
 PTB  HZ EP        614  3.18                             133   -0.23 9  147 257 
 PTB  HN ES        614 24.49                             133   -0.14 9  147 257 
 PTB  HZ I         614 26.89        27.6 0.34            130            147 257 
 OCA  HZ EP        614  4.58                             131    0.13 9  156 354 
 OCA  HE ES        614 26.74                             131    0.27 9  156 354 
 OCA  HZ I         614 31.17        76.1 0.22            129            156 354 
 TAM  HZ IP     C  614  4.55                             131    0.08 9  158 106 
 TAM  HZ I         614 25.46        12.5 0.40            129            158 106 
 TAM  HE ES        614 26.61                             131    0.11 9  158 106 
 SPBC HZ EP        614  5.11                             130   -0.09 9  165 218 
 SPBC HN ES        614 27.45                             130   -0.36 9  165 218 
 SPBC HZ I         614 29.31        51.9 0.40            127            165 218 
 ZAR  HZ EP        614  8.98                             124    0.39 9  201 291 
 ZAR  HE ES        614 33.87                             124    0.02 9  201 291 
 ZAR  HZ I         614 41.98        24.1 0.28            121            201 291 
 NOR  HZ EP        614 12.28                             119    0.02 8  236 233 
 NOR  HN ES        614 40.21                             119   -0.17 8  236 233 
 NOR  HZ I         614 45.85        22.4 0.18            117            236 233 
 CHI  HZ EP        614 13.94                             117   -0.55 8  252 195 
 CHI  HN ES   4    614 43.26                             117   -1.09 0  252 195 
 CHI  HZ I         614 51.72        12.3 0.46            115            252 195 
 ROSC BZ EP   4    614 15.94                             117    1.12 0  255 210 
 ROSC BN ES        614 45.96                             117    1.03 8  255 210 
 ROSC BZ I         614 54.05        25.2 0.35            115            255 210 
 HEL  HZ EP        614 17.48                             116    0.94 8  271 255 
 HEL  HN ES        614 47.80                             116   -0.20 8  271 255 
 HEL  HZ I         614 54.43        11.1 0.22            113            271 255 
 URE  HZ EP        614 16.87                             114   -0.25 7  281 291 
 URE  HN ES   4    614 47.62                             114   -1.41 0  281 291 
 URE  HZ I         614 58.28        14.4 0.30            112            281 291 
 SOCV BZ EP   4    614 17.79                             113   -1.59 0  301  58 
 SOCV BN ES   4    614 50.27                             113   -2.77 0  301  58 
 GUY2CHZ EP   4    614 21.51                             113    1.42 0  302 234 
 GUY2CHN ES   4    614 56.76                             113    2.44 0  302 234 
 GUY2CHZ I         615  1.23        18.4 0.30                           302 234 
 PTGC HZ EP   4    614 19.26                             112   -1.48 0  313 159 
 PTGC HE ES   4    614 52.39                             112   -3.08 0  313 159 
 PTGC HZ I         614 55.87         9.9 0.22            110            313 159 
 LL6C HZ EP        614 21.49                             111   -0.13 7  321 358 
 LL6C HN ES   4    614 54.31                             111   -2.73 0  321 358 
 ELA  HZ EP   4    614 27.43                             111    4.06 0  330 229 
 ELA  HN ES   4    615  1.70                             111    1.55 0  330 229 
 ELA  HZ I         615  8.08        11.1 0.50            109            330 229 
 CBOC HZ EP        614 24.03                             111    0.80 7  333 251 
 CBOC HE ES        614 59.80                             111   -0.11 7  333 251 
 CBOC HZ I         615  6.73         6.0 0.48            108            333 251 
 MON  HZ EP   4    614 22.76                             109   -2.16 0  350 308 
 MON  HN ES        615  2.02                             109   -0.89 6  350 308 
 MON  HZ I         615 17.05         5.8 0.50            107            350 308 
 ANIL HZ EP   4    614 27.92                             109    1.57 0  359 224 
 ANIL HE ES   4    615  7.61                             109    2.16 0  359 224 
 ANIL HZ I         615 16.37        25.1 0.30            107            359 224 
 SDV  BZ EP        614 25.68                             109   -0.60 6  359  51 
 SDV  BE ES   4    615  3.53                             109   -1.80 0  359  51 
 SDV  BZ I         615  5.12         4.6 0.40            107            359  51 
 SJC  HZ EP   4    614 30.15                             106   -1.25 0  405 327 
 SJC  HN ES   4    615 11.91                             106   -2.53 0  405 327 
 SJC  HZ I         615 16.03         4.8 0.50            105            405 327 
 PAL  HZ EP        614 31.84                             106    0.28 6  406 238 
 PAL  HN ES   4    615 13.42                             106   -1.31 0  406 238 
 PAL  HZ I         615 18.81         4.8 0.20            105            406 238 
 SMAR HZ EP        614 40.95                             103   -0.73 4  493 346 
 SMAR HN ES   4    615 29.44                             103   -3.30 0  493 346 
                                                                                
