 2012  2 2 0830 23.0 L   6.803 -73.097142.5  RSN  5 0.2 1.4LRSN                1
 GAP=243        0.54       4.2     6.4  6.4  0.1558E+02  0.8578E+01  0.1816E+01E
 ACTION:UP  12-03-07 16:26 OP:epov STATUS:               ID:20120202083023 L   I
 2012-02-02-0830-00M.COL___187                                                 6
 STAT SP IPHASW D HRMM SECON CODA AMPLIT PERI AZIMU VELO SNR AR TRES W  DIS CAZ7
 BAR2 SZ EP        830 42.26                             170    0.0310 25.2 202 
 BAR2 SZ ES   1    830 57.13                             170   -0.13 7 25.2 202 
 BAR2 SZ I         830 58.32         5.0 0.29                          25.2 202 
 BRR  HZ EP        830 44.04                             150    0.0210 75.8 296 
 BRR  HE ES   1    831  0.86                             150    0.41 7 75.8 296 
 BRR  HZ I         831  5.03         5.9 0.12                          75.8 296 
 RUS  HE ES   1    831  4.43                             143   -0.25 7  101 179 
 RUS  HZ I         831  6.35         2.8 0.23                           101 179 
 ZAR  HN ES   1    831 20.82                             121   -0.41 6  209 291 
 ZAR  HZ I         831 26.23         4.2 0.43                           209 291 
 CHI  HN ES   1    831 30.37                             116    0.28 6  250 196 
                                                                                
