 2012  7 2 0431 15.8 L   6.753 -73.229153.3  RSN  5 0.4 1.5LRSN                1
 GAP=218        0.94      11.3    11.1 11.2  0.9088E+02  0.5164E+01 -0.4286E+01E
 Epicentro: VILLANUEVA - SANTANDER                                             3
 ACTION:UPD 12-08-14 11:41 OP:ep   STATUS:               ID:20120702043115 L   I
 2012-07-02-0430-00M.COL___201                                                 6
 STAT SP IPHASW D HRMM SECON CODA AMPLIT PERI AZIMU VELO AIN AR TRES W  DIS CAZ7
 BAR2 SZ EP   1    431 36.14                             173    -0.2 7   18 164 
 BAR2 SZ ES   1    431 51.72                             173    -0.5 7   18 164 
 BAR2 SZ I         431 52.51         6.5 0.24            171             18 164 
 BRR  HZ EP   1    431 37.99                             155     0.4 7   66 306 
 BRR  HZ I         431 38.17        11.9 0.12            156             66 306 
 BRR  HN ES   1    431 55.04                             155     0.6 7   66 306 
 RUS  HZ EP   1    431 40.02                             147     0.0 7   96 170 
 RUS  HN ES   1    431 59.07                             147     0.1 7   96 170 
 RUS  HZ I         432  0.43         2.4 0.49            145             96 170 
 PTB  HN ES   2    432  3.81                             136     0.4 5  138 260 
 ZAR  HN ES   1    432 12.61                             125    -0.7 6  198 295 
