 2016 11 2 0205 28.7 L   6.842 -73.137146.0  RSN  8 0.4 1.4LRSN                1
 GAP=242        0.96       5.4     6.2  6.2  0.1658E+02  0.7126E+01  0.8082E+01E
 Epicentro: LOS SANTOS - SANTANDER                                             3
 ACTION:UPD 17-10-26 21:03 OP:lp   STATUS:               ID:20161102015744 L   I
 OLDACT:UP  16-11-02 14:52 OP:dani STATUS:               ID:20161102015744 L   3
 OLDACT:UP  16-11-02 14:51 OP:dani STATUS:               ID:20161102015744 L   3
 OLDACT:UPD 16-11-02 13:22 OP:dnl  STATUS:               ID:20161102015744 L   3
 2016-11-02-0158-00M.COL___343                                                 6
 STAT SP IPHASW D HRMM SECON CODA AMPLIT PERI AZIMU VELO AIN AR TRES W  DIS CAZ7
 BAR2 EZ ES        2 6  3.78                             169   -0.1510 28.1 190 
 BRR  HZ EP        2 5 50.29                             153    0.4410 69.9 295 
 BRR  HN ES        2 6  6.65                             153    0.3310 69.9 295 
 BRR  HZ I         2 6 14.55         6.0 0.43            151           69.9 295 
 RUS  HZ EP        2 5 52.58                             143   -0.2810  105 177 
 RUS  HN ES        2 6 11.53                             143   -0.1310  105 177 
 RUS  HZ I         2 6 12.25         2.7 0.19            145            105 177 
 PTB  HZ EP        2 5 55.25                             132   -0.65 9  150 257 
 PTB  HE ES        2 6 16.36                             132   -0.73 9  150 257 
 PTB  HZ I         2 6 18.27         2.7 0.17            132            150 257 
 SPBC HZ EP        2 5 57.79                             128    0.13 9  167 218 
 SPBC HN ES        2 6 20.76                             128    0.54 9  167 218 
 SPBC HZ I         2 6 21.98         4.9 0.11            130            167 218 
 ZAR  HN ES        2 6 26.60                             122    0.23 9  203 291 
 ZAR  HZ I         2 6 31.25         2.0 0.32            123            203 291 
 CHI  HZ EP        2 6  7.15                             117    0.18 8  253 195 
 CHI  HN ES   2    2 6 37.34                             117    0.55 4  253 195 
 CHI  HZ I         2 6 39.48         1.4 0.29            119            253 195 
 PRA  HZ EP        2 6 23.01                             106    0.21 6  396 209 
 PRA  HE ES   4    2 7  7.21                             106    2.25 0  396 209 
 PRA  HZ I         2 7  8.95         1.3 0.52            108            396 209 
                                                                                
