 2010  7 2 0339 24.1 L   6.763 -73.136154.5  RSN  6 0.2 1.4LRSN                1
 GAP=157        0.44       3.4     7.5  6.1 -0.1528E+01 -0.1249E+02 -0.3946E+01E
 Epicentro: LOS SANTOS - SANTANDER                                             3
 ACTION:UPD 10-12-01 15:14 OP:pat  STATUS:               ID:20100702033924 L   I
 2010-07-02-0337-27S.COL___118                                                 6
 STAT SP IPHASW D HRMM SECON CODA AMPLIT PERI AZIMU VELO AIN AR TRES W  DIS CAZ7
 BAR2 SZ EP   1    339 44.55                             172    -0.1 7   20 196 
 BAR2 SZ ES   2    340  0.57                             172    -0.2 5   20 196 
 BRR  HZ EP   1    339 46.33                             153     0.0 7   74 301 
 BRR  HZ I         339 47.95         7.3 0.10                            74 301 
 BRR  HE ES   2    340  3.86                             153     0.2 5   74 301 
 RUS  HZ EP   1    339 48.46                             147     0.1 7   96 177 
 RUS  HE ES   2    340  7.53                             147     0.1 5   96 177 
 RUS  HZ I         340  8.22         2.7 0.42                            96 177 
 BRI  SZ EP   2    339 49.72                             142     0.7 5  112  20 
 GUE  SZ EP   1    339 49.73                             140    -0.2 7  120  11 
 GRA  SZ EP   2    339 50.18                             138    -0.2 5  129  16 
 GRA  SZ ES   2    340 10.98                             138     0.0 5  129  16 
                                                                                
