 2010  1 2 0954 54.2 L   6.042 -73.676108.2  RSN  6 0.4 1.9LRSN                1
 GAP= 95        0.67       3.6     4.8 10.8 -0.5186E+01  0.3357E+02 -0.1026E+02E
 Epicentro: VELEZ - SANTANDER                                                  3
 ACTION:UP  10-08-24 09:42 OP:vdl  STATUS:               ID:20100102095454 L   I
 2010-01-02-0954-18S.COL___096                                                 6
 STAT SP IPHASW D HRMM SECON CODA AMPLIT PERI AZIMU VELO AIN AR TRES W  DIS CAZ7
 RUS  BZ IP        955 11.93                             147     0.010   68 104 
 RUS  BN ES   1    955 25.81                             147     0.1 7   68 104 
 CHI  HZ EP        955 19.59                             121    -0.2 9  156 182 
 CHI  HE ES   1    955 39.65                             121    -0.1 7  156 182 
 CHI  HZ I         955 45.28        10.8 0.43                           156 182 
 HEL  HZ EP   2    955 25.73                             113     0.6 4  206 275 
 HEL  HE ES   2    955 48.53                             113    -0.8 4  206 275 
 HEL  HZ I         955 53.59         7.3 0.32                           206 275 
 RREF BN ES   1    955 54.21                             111     0.6 6  224 236 
 RREF BZ I         955 57.78         8.2 0.26                           224 236 
 OCA  SZ ES   1    955 57.05                             109     0.0 6  246   9 
 DBB  SZ EP   2    955 35.41                             104    -0.4 4  300 291 
                                                                                
