 2015 11 2 0946 42.4 L   6.843 -73.134145.4  RSN 14 0.4 2.1LRSN                1
 GAP= 70        0.79       2.8     3.4  4.9 -0.1569E+01  0.5641E+01  0.1328E+01E
 Epicentro: LOS SANTOS - SANTANDER                                             3
 ACTION:UPD 15-12-28 16:08 OP:cam  STATUS:               ID:20151102094642 L   I
 OLDACT:DUP 15-11-02 16:47 OP:ar   STATUS:               ID:20151102093737d    3
 OLDACT:REG 15-11-02 12:51 OP:ar   STATUS:               ID:20151102093736     3
 2015-11-02-0937-36M.COL___310                                                 6
 STAT SP IPHASW D HRMM SECON CODA AMPLIT PERI AZIMU VELO AIN AR TRES W  DIS CAZ7
 BAR2 EZ EP   2    947  1.93                             168   -0.21 5 28.3 191 
 BAR2 EZ ES        947 17.19                             168   -0.3110 28.3 191 
 BAR2 EZ I         947 19.09        17.4 0.24            168           28.3 191 
 BRR  HZ EP   2    947  3.73                             153    0.24 5 70.2 295 
 BRR  HN ES   2    947 20.66                             153    0.75 5 70.2 295 
 BRR  HZ I         947 24.11        20.2 0.28            149           70.2 295 
 PAM  EZ EP        947  4.81                             152    0.4610 72.9  41 
 PAM  EN ISg       947 21.93                             152    0.4910 72.9  41 
 PAM  EZ I         947 23.57        34.4 0.48            156           72.9  41 
 RUS  HZ EP        947  5.98                             142   -0.5210  105 177 
 RUS  HN ES   2    947 25.17                             142   -0.10 5  105 177 
 RUS  HZ I         947 25.98        17.9 0.28            146            105 177 
 TAM  HZ EP     D  947 10.33                             130    0.24 9  155 107 
 TAM  HE ES   2    947 31.94                             130    0.28 5  155 107 
 OCA  HZ EP        947 10.00                             130   -0.29 9  156 352 
 OCA  HN ES        947 31.38                             130   -0.63 9  156 352 
 OCA  HZ I         947 36.85        27.6 0.28            132            156 352 
 SPBC HZ EP   2    947 10.93                             128   -0.42 5  168 218 
 SPBC HN ES   2    947 33.41                             128   -0.48 5  168 218 
 SPBC HZ I         947 40.18        21.2 0.22            129            168 218 
 ZAR  HZ EP        947 14.94                             122    0.13 9  204 291 
 ZAR  HN ES   2    947 40.44                             122    0.39 4  204 291 
 ZAR  HZ I         947 46.69        16.2 0.26            123            204 291 
 NOR  HZ EP   2    947 17.97                             118   -0.60 4  239 234 
 NOR  HN ES   2    947 46.91                             118    0.17 4  239 234 
 NOR  HZ I         947 52.93         9.8 0.16            119            239 234 
 SML  HZ EP   2    947 18.12                             118   -0.52 4  240 335 
 SML  HE ES   2    947 46.62                             118   -0.25 4  240 335 
 SML  HZ I         947 56.25        14.6 0.10            119            240 335 
 CHI  HZ EP   2    947 20.45                             116   -0.21 4  254 195 
 CHI  HE ES   2    947 49.83                             116   -0.64 4  254 195 
 CHI  HZ I         947 53.29         3.2 0.48            119            254 195 
 HEL  HZ EP        947 22.98                             114    0.07 8  275 255 
 HEL  HE ES   2    947 55.21                             114    0.74 4  275 255 
 HEL  HZ I         948  0.97         7.6 0.42            115            275 255 
 URE  HN ES   4    947 52.03                             113   -3.37 0  283 291 
 URE  HZ I         947 54.69         9.4 0.36            114            283 291 
 GUY2CHZ EP        947 27.21                             112    0.74 7  305 234 
 GUY2CHN ES        948  0.92                             112    0.11 7  305 234 
 GUY2CHZ I         948 10.29         5.9 0.26                           305 234 
                                                                                
