 2017  8 2 0443 34.1 L   6.357 -73.638116.9  RSN  4 0.3 1.0LRSN                1
 GAP=140        0.75       5.1     3.7  7.4 -0.3904E+01 -0.8325E+00  0.6228E+01E
 Epicentro: SANTA HELENA DEL OPON - SANTANDER                                  3
 ACTION:UPD 17-09-04 20:15 OP:rebc STATUS:               ID:20170802044334 L   I
 OLDACT:REG 17-08-02 13:10 OP:osc  STATUS:               ID:20170802043742     3
 2017-08-02-0438-00M.COL___392                                                 6
 STAT SP IPHASW D HRMM SECON CODA AMPLIT PERI AZIMU VELO AIN AR TRES W  DIS CAZ7
 BAR2 EZ EP        443 51.85                             152    0.2010 56.7  63 
 BAR2 EZ ES        444  5.46                             152    0.1210 56.7  63 
 BAR2 EZ I         444  6.70         8.9 0.28            154           56.7  63 
 RUS  HZ EP        443 52.98                             144   -0.5410 80.1 130 
 RUS  HN ES   4    444  7.51                             144   -1.17 0 80.1 130 
 RUS  HZ I         444  8.39         1.5 0.28            145           80.1 130 
 SPBC HZ EP        443 54.19                             139    0.3510 91.6 212 
 SPBC HN ES        444  9.29                             139    0.0510 91.6 212 
 SPBC HZ I         444 10.65         2.5 0.10            140           91.6 212 
 PTB  HZ EP     D  443 53.86                             139    0.0410 92.7 283 
 PTB  HE ES        444  8.99                             139   -0.2210 92.7 283 
 PTB  HZ I         444  9.47         1.2 0.15            140           92.7 283 
                                                                                
