 2012  7 2 0406 59.8 L   6.791 -73.137144.2  RSN 13 0.4 2.3LRSN                1
 GAP=115        0.98       3.5     4.5  6.5  0.1727E+01  0.7152E+01  0.5292E+01E
 Epicentro: LOS SANTOS - SANTANDER                                             3
 ACTION:UPD 12-08-14 11:41 OP:ep   STATUS:               ID:20120702040659 L   I
 2012-07-02-0400-00M.COL___201                                                 6
 STAT SP IPHASW D HRMM SECON CODA AMPLIT PERI AZIMU VELO AIN AR TRES W  DIS CAZ7
 BAR2 SZ IP        4 7 19.18                             171     0.010   23 193 
 BAR2 SZ ES   1    4 7 33.61                             171    -0.7 7   23 193 
 BAR2 SZ I         4 7 35.33        81.8 0.21            163             23 193 
 BRR  HZ EP        4 7 21.19                             152     0.410   73 299 
 BRR  HN ES   1    4 7 38.06                             152     0.8 7   73 299 
 BRR  HZ I         4 7 38.84        60.8 0.18            145             73 299 
 PAM  SZ EP   1    4 7 22.28                             150     0.5 7   78  39 
 PAM  SZ I         4 7 22.48        16.7 0.22            151             78  39 
 PAM  SN ES   1    4 7 39.14                             150     0.1 7   78  39 
 RUS  HZ EP        4 7 23.05                             144    -0.210  100 177 
 RUS  HZ I         4 7 24.16        25.8 0.23            136            100 177 
 RUS  HE ES   1    4 7 41.38                             144    -0.2 7  100 177 
 PTB  HZ EP   1    4 7 25.96                             131    -0.7 7  149 259 
 PTB  HN ES   1    4 7 46.94                             131    -0.7 7  149 259 
 PTB  HZ I         4 7 49.80        23.9 0.14            124            149 259 
 OCA  HZ EP   1    4 7 27.80                             129    -0.3 7  161 353 
 OCA  HN ES   1    4 7 49.60                             129    -0.5 7  161 353 
 YOP  SZ EP   1    4 7 29.73                             126     0.2 7  178 153 
 YOP  SN ES   1    4 7 53.17                             126     0.4 7  178 153 
 YOP  SZ I         4 7 54.10        18.8 0.23            121            178 153 
 ZAR  HZ EP   1    4 7 32.31                             122     0.1 6  205 292 
 ZAR  HN ES   1    4 7 58.15                             122     0.6 6  205 292 
 ZAR  HZ I         4 8  3.73        33.1 0.18            116            205 292 
 NOR  SZ EP   1    4 7 35.28                             118    -0.1 6  235 235 
 NOR  SN ES   1    4 8  3.46                             118     0.2 6  235 235 
 CHI  HZ EP   1    4 7 36.88                             117    -0.4 6  248 195 
 CHI  HN ES   1    4 8  7.06                             117     0.5 6  248 195 
 ROSC BZ EP   1    4 7 38.35                             116     0.6 6  252 211 
 ROSC BZ I         4 8 14.01        15.5 0.44            111            252 211 
 DBB  SZ EP   1    4 7 46.95                             109    -0.3 5  341 274 
 PRA  HZ EP   1    4 7 52.77                             106    -0.4 4  392 210 
 PRA  HN ES   1    4 8 35.19                             106     0.3 4  392 210 
