 2016  8 2 0900 51.5 L   6.818 -73.034142.9  RSN  6 0.4 1.5LRSN                1
 GAP=250        0.91       4.6     5.9  6.1  0.8909E+01  0.1095E+02  0.2492E+01E
 Epicentro: CEPITA - SANTANDER                                                 3
 ACTION:UPD 16-10-29 15:31 OP:rebc STATUS:               ID:20160802085737 L   I
 OLDACT:UPD 16-08-02 15:21 OP:CARA STATUS:               ID:20160802085737 L   3
 2016-08-02-0858-00M.COL___341                                                 6
 STAT SP IPHASW D HRMM SECON CODA AMPLIT PERI AZIMU VELO AIN AR TRES W  DIS CAZ7
 BAR2 EZ EP        9 1 10.90                             168   -0.0810 29.8 213 
 BAR2 EZ ES        9 1 26.06                             168   -0.0810 29.8 213 
 BAR2 EZ I         9 1 26.86         8.8 0.22                          29.8 213 
 BRR  HZ EP        9 1 12.87                             149   -0.1310 81.5 293 
 BRR  HN ES        9 1 30.08                             149    0.3410 81.5 293 
 BRR  HZ I         9 1 34.35         6.0 0.46                          81.5 293 
 RUS  HZ EP        9 1 15.68                             143    0.5310  102 183 
 RUS  HN ES        9 1 33.59                             143    0.0310  102 183 
 RUS  HZ I         9 1 35.32         3.3 0.36                           102 183 
 SPBC HZ EP        9 1 20.52                             127   -0.22 9  173 222 
 SPBC HN ES        9 1 42.74                             127   -0.77 9  173 222 
 SPBC HZ I         9 1 44.75         5.9 0.34                           173 222 
 ZAR  HZ EP        9 1 24.60                             120   -0.33 8  215 290 
 ZAR  HN ES        9 1 50.95                             120   -0.02 8  215 290 
 ZAR  HZ I         9 1 57.48         2.9 0.26                           215 290 
 GUY2CHZ EP        9 1 36.38                             111    0.09 7  312 236 
 GUY2CHE ES        9 2 12.02                             111    0.81 7  312 236 
 GUY2CHZ I         9 2 16.66         1.1 0.24                           312 236 
 SJC  HZ EP   4    9 1 46.29                             105   -1.33 0  414 325 
 SJC  HN ES   4    9 2 28.51                             105   -2.86 0  414 325 
                                                                                
