 2014 10 2 0727 27.4 L   6.773 -73.186143.8  RSN  7 0.5 1.4LRSN                1
 GAP=184        1.25       4.8     8.9  8.4 -0.1034E+02  0.1430E+02 -0.7115E+01E
 Epicentro: LOS SANTOS - SANTANDER                                             3
 ACTION:UPD 14-11-29 23:45 OP:nd   STATUS:               ID:20141002072727 L   I
 OLDACT:UP  14-10-02 15:56 OP:cam  STATUS:               ID:20141002071808     3
 OLDACT:REG 14-10-02 12:38 OP:cam  STATUS:               ID:20141002071808     3
 2014-10-02-0718-08M.COL___289                                                 6
 STAT SP IPHASW D HRMM SECON CODA AMPLIT PERI AZIMU VELO AIN AR TRES W  DIS CAZ7
 BAR2 SZ EP        727 46.70                             172   -0.0310 20.0 179 
 BAR2 SZ ES        728  1.42                             172   -0.3810 20.0 179 
 BAR2 SZ I         728  2.81         7.8 0.28            170           20.0 179 
 BRR  HZ EP        727 48.86                             153    0.6610 68.9 302 
 BRR  HE ES        728  5.41                             153    0.9810 68.9 302 
 BRR  HZ I         728  6.75         4.7 0.20            150           68.9 302 
 PTB  HZ EP        727 53.93                             133    0.17 9  143 260 
 PTB  HN ES        728 13.57                             133   -0.75 9  143 260 
 PTB  HZ I         728 19.66         2.4 0.20            131            143 260 
 SPBC HZ EP        727 55.43                             129    0.16 9  158 218 
 SPBC HE ES        728 16.76                             129   -0.24 9  158 218 
 SPBC HZ I         728 19.61         2.6 0.32            129            158 218 
 OCA  HN ES        728 17.36                             129   -0.57 9  163 355 
 ZAR  HZ EP        727 59.67                             122    0.26 9  201 293 
 SML  HZ EP        728  3.58                             117   -0.43 8  245 337 
 SML  HN ES        728 32.44                             117   -0.13 8  245 337 
                                                                                
