 2014  6 2 0249 16.1 L   6.717 -73.231136.5  RSN  5 0.4 1.2LRSN                1
 GAP=210        1.02       7.4     7.4  7.5  0.3489E+02  0.1492E+02  0.1367E+01E
 Epicentro: VILLANUEVA - SANTANDER                                             3
 ACTION:UPD 14-07-01 22:49 OP:nd   STATUS:               ID:20140602024916 L   I
 OLDACT:REG 14-06-02 14:00 OP:stll STATUS:               ID:20140602024813     3
 2014-06-02-0248-13M.COL___256                                                 6
 STAT SP IPHASW D HRMM SECON CODA AMPLIT PERI AZIMU VELO AIN AR TRES W  DIS CAZ7
 BAR2 SZ ES        249 48.47                             174   -0.3510 14.8 159 
 BAR2 SZ I         249 49.81         5.0 0.34            169           14.8 159 
 BRR  HZ EP        249 35.89                             152   -0.2310 68.5 309 
 BRR  HZ I         249 36.08         4.5 0.18            149           68.5 309 
 BRR  HN ES        249 52.12                             152    0.4010 68.5 309 
 RUS  HZ EP        249 39.13                             144    0.7410 92.6 170 
 RUS  HE ES        249 55.55                             144   -0.2010 92.6 170 
 RUS  HZ I         249 58.03         1.1 0.26            143           92.6 170 
 PTB  HZ EP        249 40.75                             132   -0.60 9  137 262 
 PTB  HN ES        250  1.25                             132    0.22 9  137 262 
 PTB  HZ I         250  5.57         2.4 0.12            130            137 262 
 ZAR  HZ EP        249 47.44                             121   -0.03 9  199 296 
 ZAR  HE ES        250 11.92                             121    0.00 9  199 296 
 ZAR  HZ I         250 18.81         3.0 0.30            121            199 296 
                                                                                
