 2015  1 2 0448 18.0 L   6.805 -73.132141.6  RSN  9 0.6 1.9LRSN                1
 GAP=113        1.51       4.9     5.1  9.2  0.5443E+01  0.9027E+00 -0.8220E+01E
 Epicentro: LOS SANTOS - SANTANDER                                             3
 ACTION:UPD 15-03-02 15:36 OP:nd   STATUS:               ID:20150102044818 L   I
 OLDACT:DUP 15-01-02 16:42 OP:stll STATUS:               ID:20150102043749d    3
 2015-01-02-0437-48M.COL___277                                                 6
 STAT SP IPHASW D HRMM SECON CODA AMPLIT PERI AZIMU VELO AIN AR TRES W  DIS CAZ7
 BAR2 EZ IP     C  448 37.71                             170    0.5710 24.2 193 
 BAR2 EZ ES        448 52.19                             170    0.1210 24.2 193 
 BAR2 EZ I         448 53.76        21.1 0.20            171           24.2 193 
 BRR  HZ IP     C  448 39.62                             151    0.8710 72.2 298 
 BRR  HZ I         448 39.81        16.9 0.24            149           72.2 298 
 BRR  HN ES        448 56.05                             151    1.1110 72.2 298 
 RUS  HZ EP        448 41.63                             143    0.2610  101 177 
 RUS  HE ES        448 59.13                             143   -0.4810  101 177 
 RUS  HZ I         449  1.08         8.2 0.22            145            101 177 
 PTB  HZ EP        448 44.28                             131   -0.49 9  149 259 
 PTB  HN ES        449  5.16                             131   -0.49 9  149 259 
 PTB  HZ I         449  8.66         7.7 0.18            130            149 259 
 TAM  HZ EP        448 45.62                             130    0.40 9  154 105 
 TAM  HZ I         448 46.06        10.2 0.20            132            154 105 
 TAM  HE ES        449  5.95                             130   -0.51 9  154 105 
 OCA  HN ES        449  6.70                             129   -1.04 9  160 353 
 OCA  HZ I         449 11.06         5.5 0.28            128            160 353 
 SPBC HZ EP        448 46.65                             128    0.34 9  165 219 
 SPBC HN ES        449  7.55                             128   -0.84 9  165 219 
 SPBC HZ I         449 12.19        10.0 0.10            129            165 219 
 ZAR  HZ EP        448 50.70                             121    0.41 9  205 292 
 ZAR  HE ES        449 15.40                             121   -0.08 9  205 292 
 ZAR  HZ I         449 21.92         8.1 0.40            121            205 292 
 SML  HZ EP        448 54.03                             117   -0.37 8  244 335 
 SML  HE ES        449 22.42                             117   -0.37 8  244 335 
 SML  HZ I         449 31.70         6.4 0.10            116            244 335 
                                                                                
