 2016  2 2 0616 54.4 L   6.798 -73.224135.2  RSN  7 0.5 1.3LRSN                1
 GAP=124        0.63       3.8     5.9  8.1 -0.5315E+01  0.2704E+02 -0.5416E+00E
 Epicentro: ZAPATOCA - SANTANDER                                               3
 ACTION:UPD 16-03-04 21:22 OP:rebc STATUS:               ID:20160202061654 L   I
 OLDACT:REG 16-02-02 14:03 OP:dnl  STATUS:               ID:20160202060243     3
 2016-02-02-0610-00M.COL___412                                                 6
 STAT SP IPHASW D HRMM SECON CODA AMPLIT PERI AZIMU VELO AIN AR TRES W  DIS CAZ7
 BAR2 EZ EP   2    617 12.99                             170    0.20 5 23.2 168 
 BAR2 EZ ES   2    617 26.74                             170   -0.36 5 23.2 168 
 BAR2 EZ I         617 29.36         5.3 0.14            173           23.2 168 
 PAM  EZ EP   2    617 15.89                             146   -0.03 5 83.4  44 
 PAM  EN ES        617 32.92                             146    0.2410 83.4  44 
 PAM  EZ I         617 34.95         5.1 0.52            150           83.4  44 
 RUS  HZ EP   2    617 17.55                             141    0.34 5  101 171 
 RUS  HN ES   2    617 33.86                             141   -1.12 5  101 171 
 RUS  HZ I         617 36.68         1.3 0.35            146            101 171 
 PTB  HZ EP   2    617 19.43                             131   -0.33 5  139 258 
 PTB  HE ES   2    617 40.04                             131    0.52 5  139 258 
 PTB  HZ I         617 42.46         1.7 0.14            132            139 258 
 ZAR  HZ EP   2    617 25.18                             121   -0.20 4  196 293 
 SML  HZ EP   2    617 29.62                             115   -0.51 4  240 337 
 SML  HN ES   2    617 57.63                             115   -0.34 4  240 337 
 SML  HZ I         618  2.60         3.3 0.08            117            240 337 
 CHI  HZ EP   2    617 31.55                             115    0.25 4  246 193 
 CHI  HN ES   2    618  0.65                             115    0.59 4  246 193 
                                                                                
