 2013  1 2 0124 36.7 L   6.765 -73.197146.0  RSN  6 0.2 1.4LRSN                1
 GAP=229        0.65       3.8     4.6  5.3  0.1005E+02  0.7777E+01  0.5046E+01E
 Epicentro: VILLANUEVA - SANTANDER                                             3
 ACTION:UPD 13-02-15 09:11 OP:ep   STATUS:               ID:20130102012436 L   I
 2013-01-02-0120-00M.COL___242                                                 6
 STAT SP IPHASW D HRMM SECON CODA AMPLIT PERI AZIMU VELO AIN AR TRES W  DIS CAZ7
 BAR2 SZ ES        125 11.12                             172   -0.3910 19.2 175 
 BAR2 SZ I         125 11.87         6.0 0.30            172           19.2 175 
 BRR  HZ EP        124 57.77                             154    0.0910 68.3 304 
 BRR  HZ I         124 58.00         4.8 0.26            154           68.3 304 
 BRR  HN ES        125 14.34                             154    0.2810 68.3 304 
 RUS  HZ EP        125  0.28                             145    0.0810 97.3 173 
 RUS  HN ES        125 18.76                             145    0.2010 97.3 173 
 PTB  HZ EP        125  2.68                             133   -0.40 9  141 260 
 PTB  HN ES        125 23.55                             133   -0.13 9  141 260 
 ZAR  HN ES        125 33.93                             123    0.17 9  200 294 
 CHI  HN ES        125 42.93                             118    0.14 8  243 194 
                                                                                
