 2013  1 2 0307 30.1 L   6.796 -73.161145.5  RSN  7 0.4 1.8LRSN                1
 GAP=181        1.12       4.3     6.4  7.9  0.8600E+01  0.7353E+01  0.6350E+01E
 Epicentro: LOS SANTOS - SANTANDER                                             3
 ACTION:UPD 13-02-15 09:11 OP:ep   STATUS:               ID:20130102030730 L   I
 2013-01-02-0300-00M.COL___242                                                 6
 STAT SP IPHASW D HRMM SECON CODA AMPLIT PERI AZIMU VELO AIN AR TRES W  DIS CAZ7
 BAR2 SZ EP        3 7 49.79                             171    0.1310 22.6 186 
 BAR2 SZ ES        3 8  4.87                             171   -0.0710 22.6 186 
 BAR2 SZ I         3 8  6.23        11.5 0.22            169           22.6 186 
 BRR  HZ EP        3 7 51.50                             153    0.3710 70.0 300 
 BRR  HN ES        3 8  8.52                             153    0.9710 70.0 300 
 BRR  HN I         3 8  9.09        15.9 0.30            152           70.0 300 
 RUS  HZ EP        3 7 53.83                             144    0.0510  100 175 
 RUS  HN ES        3 8 11.71                             144   -0.5510  100 175 
 RUS  HN I         3 8 14.15         8.6 0.34            145            100 175 
 PTB  HZ EP        3 7 56.74                             132   -0.13 9  146 259 
 PTB  HN ES        3 8 17.17                             132   -0.60 9  146 259 
 PTB  HN I         3 8 22.67         6.1 0.60            132            146 259 
 OCA  HN ES        3 8 19.96                             129   -0.52 9  161 354 
 ZAR  HE ES        3 8 27.39                             122   -0.16 9  203 292 
 CHI  HZ EP        3 8  7.74                             117    0.07 8  248 195 
 CHI  HN ES        3 8 37.39                             117    0.41 8  248 195 
                                                                                
