 2013  1 2 0039 41.7 L   6.348 -73.610106.2  RSN 17 0.5 2.3LRSN 3.0WRSN        1
 SPEC AVERAGE  MO 13.6 ST  4.9 OM  2.3 f0 3.69 R0.4214 AL 2.02 WI 22.4 MW  3.0 3
 SPEC SD       MO  0.4 ST  4.8 OM  0.5 f00.900 R0.0976 AL      WI      MW  0.2 3
 GAP= 53        1.26       2.9     3.3  6.8 -0.1093E+01  0.7511E+01 -0.8879E+00E
 Epicentro: SANTA HELENA DEL OPON - SANTANDER                                  3
 SPEC RUS HH N MO 13.1 ST0.656 OM  1.6 f0 3.39 R0.4336 AL 1.42 WI 11.9 MW  2.7 3
 SPEC RUS HH N T 04013 K 0.000 GD  131 VS 4.20 DE 3.00 Q0230.0 QA 0.60 VS 4.20 3
 SPEC MON HH N MO 13.6 ST  8.7 OM  1.7 f0 5.28 R0.2784 AL 2.18 WI 22.2 MW  3.0 3
 SPEC MON HH N T 041 4 K 0.000 GD  367 VS 4.20 DE 3.00 Q0230.0 QA 0.60 VS 4.20 3
 SPEC HEL HH N MO 13.4 ST0.844 OM  1.7 f0 2.80 R0.5250 AL 1.40 WI 22.3 MW  2.9 3
 SPEC HEL HH N T 04038 K 0.000 GD  238 VS 4.20 DE 3.00 Q0230.0 QA 0.60 VS 4.20 3
 SPEC OCA HH N MO 14.2 ST 13.3 OM  2.5 f0 3.80 R0.3868 AL 2.23 WI 33.6 MW  3.4 3
 SPEC OCA HH N T 04036 K 0.000 GD  237 VS 4.20 DE 3.00 Q0230.0 QA 0.60 VS 4.20 3
 SPEC CHI HH E MO 13.3 ST0.510 OM  1.6 f0 2.63 R0.5589 AL 1.72 WI 17.1 MW  2.8 3
 SPEC CHI HH E T 04033 K 0.000 GD  218 VS 4.20 DE 3.00 Q0230.0 QA 0.60 VS 4.20 3
 SPEC BRR HH E MO 13.7 ST  5.3 OM  2.2 f0 4.25 R0.3459 AL 3.16 WI 27.2 MW  3.1 3
 SPEC BRR HH E T 04015 K 0.000 GD  135 VS 4.20 DE 3.00 Q0230.0 QA 0.60 VS 4.20 3
 ACTION:UPD 13-02-15 09:11 OP:ep   STATUS:               ID:20130102003941 L   I
 2013-01-02-0038-10M.COL___199                                                 6
 STAT SP IPHASW D HRMM SECON CODA AMPLIT PERI AZIMU VELO AIN AR TRES W  DIS CAZ7
 BAR2 SZ EP        039 58.24                             151    0.2210 54.4  60 
 BAR2 SZ ES        040 11.13                             151    0.4110 54.4  60 
 BAR2 SZ I         040 12.57       131.3 0.40            149           54.4  60 
 RUS  HZ EP        039 59.60                             142   -0.3210 77.1 131 
 RUS  HE ES        040 14.10                             142    0.0010 77.1 131 
 RUS  HN I         040 14.90        27.9 0.28            135           77.1 131 
 BRR  HZ EP        039 59.83                             138    0.0010 84.7 352 
 BRR  HN I         040 21.27        87.5 0.18            133           84.7 352 
 PTB  HZ EP        040  0.02                             134   -0.7910 96.0 283 
 PTB  HN ES        040 15.21                             134   -0.4610 96.0 283 
 PTB  HN I         040 20.71        48.0 0.18            126           96.0 283 
 PAM  SZ EP        040  6.39                             121   -0.16 9  149  43 
 PAM  SN ES        040 25.89                             121    0.00 9  149  43 
 PAM  SN I         040 29.18        20.6 0.20            117            149  43 
 ROSC BZ EP        040 11.77                             115    1.51 9  184 205 
 ROSC BZ I         040 42.25        16.6 0.40            109            184 205 
 ZAR  HZ EP        040  9.82                             114   -0.25 9  187 313 
 ZAR  HE ES        040 32.74                             114    0.57 9  187 313 
 ZAR  HN I         040 37.40        58.5 0.20            109            187 313 
 CHI  HZ EP        040 10.41                             114   -0.56 9  191 184 
 CHI  HN ES        040 33.48                             114   -0.28 9  191 184 
 CHI  HN I         040 35.70        10.6 0.52            109            191 184 
 TAM  HZ EP        040 11.06                             112   -0.66 9  201  87 
 OCA  HZ EP        040 12.72                             111   -0.28 8  212   9 
 OCA  HN ES        040 37.95                             111    0.57 8  212   9 
 OCA  HN I         040 42.31        70.3 0.24            108            212   9 
 HEL  HZ EP        040 13.60                             111    0.16 8  213 265 
 HEL  HN ES        040 38.45                             111    0.28 8  213 265 
 HEL  HN I         040 44.98        14.8 0.24            106            213 265 
 RREF HZ EP        040 18.99                             107    0.92 8  250 230 
 RREF HZ I         040 52.46        19.1 0.24            104            250 230 
 TOL  SZ EP        040 20.69                             105    0.47 8  272 224 
 ANIL HN ES        040 52.75                             104   -0.30 7  286 224 
 ANIL HN I         040 59.29        24.6 0.20            102            286 224 
 DBB  SZ EP        040 22.31                             104   -0.54 7  297 285 
 MON  HZ EP   4    040 27.72                             100   -1.57 0  352 320 
 MON  HZ I         040 27.85         3.9 0.20             99            352 320 
 MON  HN ES        041  5.47                             100   -0.90 6  352 320 
 COD  HZ EP        040 35.11                              98    0.35 6  397   3 
 COD  HN ES        041 16.47                              98    0.37 6  397   3 
 COD  HN I         041 26.67         3.8 0.24             98            397   3 
                                                                                
