 2016 12 2 0819 51.9 L   7.378 -73.186132.5  RSN  5 0.1 1.8LRSN                1
 GAP=180        0.38       3.0     1.7  3.1 -0.5087E+00  0.1987E+01 -0.2232E+01E
 Epicentro: EL PLAYON - SANTANDER                                              3
 ACTION:UPD 17-01-11 20:11 OP:rebc STATUS:               ID:20161202081951 L   I
 OLDACT:REG 16-12-02 12:53 OP:dnl  STATUS:               ID:20161202081746     3
 2016-12-02-0818-00M.COL___334                                                 6
 STAT SP IPHASW D HRMM SECON CODA AMPLIT PERI AZIMU VELO AIN AR TRES W  DIS CAZ7
 PAM  EZ EP        820 11.51                             157    0.1210 53.9  94 
 PAM  EN ES        820 26.45                             157   -0.1510 53.9  94 
 BRR  HZ EP        820 11.28                             152    0.0010 65.3 243 
 BRR  HN ES        820 26.48                             152    0.0810 65.3 243 
 BRR  HZ I         820 26.94        13.4 0.12            149           65.3 243 
 BAR2 EZ EP        820 13.09                             145    0.0910 86.9 180 
 BAR2 EZ ES        820 29.48                             145    0.0210 86.9 180 
 BAR2 EZ I         820 30.62        15.1 0.14            144           86.9 180 
 PTB  HZ EP        820 19.85                             125    0.04 9  168 237 
 PTB  HE ES        820 41.43                             125   -0.16 9  168 237 
 PTB  HZ I         820 45.96         3.9 0.24            124            168 237 
 ZAR  HZ EP        820 21.28                             122   -0.23 9  185 274 
 ZAR  HN ES        820 44.76                             122    0.15 9  185 274 
 ZAR  HZ I         820 47.80         7.4 0.50            121            185 274 
                                                                                
