 2014  6 2 0948 41.8 L   6.813 -73.016143.7  RSN  6 0.4 1.6LRSN                1
 GAP=234        0.80       3.8     8.4 11.5 -0.1767E+02 -0.2130E+02  0.3917E+00E
 Epicentro: CEPITA - SANTANDER                                                 3
 ACTION:UPD 14-07-01 22:49 OP:nd   STATUS:               ID:20140602094841 L   I
 OLDACT:UP  14-06-02 21:03 OP:fm   STATUS:               ID:20140602094818     3
 OLDACT:REG 14-06-02 14:17 OP:stll STATUS:               ID:20140602094818     3
 2014-06-02-0948-18M.COL___247                                                 6
 STAT SP IPHASW D HRMM SECON CODA AMPLIT PERI AZIMU VELO AIN AR TRES W  DIS CAZ7
 OCA  HN ES        949 32.32                             129    0.2610  161 348 
 OCA  HZ I         949 35.74         4.5 0.36            129            161 348 
 PTB  HZ EP        949  9.84                             129   -0.0910  162 259 
 PTB  HN ES        949 31.93                             129    0.0510  162 259 
 PTB  HZ I         949 33.27         4.6 0.14            129            162 259 
 SPBC HN ES        949 33.85                             127   -0.1810  174 222 
 SPBC HZ I         949 37.47         3.5 0.22            128            174 222 
 ZAR  HZ EP   1    949 15.41                             120   -0.04 7  217 290 
 ZAR  HN ES        949 42.07                             120    0.37 9  217 290 
 ZAR  HZ I         949 47.32         3.0 0.30            120            217 290 
 NOR  HN ES   1    949 47.63                             117    0.02 6  247 236 
 NOR  HZ I         949 51.52         2.8 0.14            118            247 236 
 SML  HZ EP        949 19.27                             116    0.41 9  249 332 
 SML  HN ES        949 46.89                             116   -0.88 9  249 332 
 SML  HZ I         949 57.22         4.2 0.10            117            249 332 
                                                                                
