 2017  4 2 0752 24.6 L   6.752 -73.203155.7  RSN  5 0.4 1.3LRSN                1
 GAP=273        0.89       5.3     8.9  7.6  0.5299E+01 -0.1405E+02 -0.1286E+01E
 Epicentro: VILLANUEVA - SANTANDER                                             3
 ACTION:UPD 17-05-30 21:07 OP:jn   STATUS:               ID:20170402075224 L   I
 OLDACT:REG 17-04-02 12:53 OP:lv   STATUS:               ID:20170402074740     3
 2017-04-02-0748-00M.COL___356                                                 6
 STAT SP IPHASW D HRMM SECON CODA AMPLIT PERI AZIMU VELO AIN AR TRES W  DIS CAZ7
 BRR  HZ EP        752 46.46                             155   -0.2610 68.6 305 
 BRR  HE ES        753  4.03                             155    0.0810 68.6 305 
 BRR  HZ I         753  7.63         2.2 0.43            146           68.6 305 
 PTB  HZ EP        752 51.62                             136   -0.18 9  141 260 
 PTB  HN ES        753 12.68                             136   -0.32 9  141 260 
 PTB  HZ I         753 15.77         1.4 0.12            130            141 260 
 SPBC HZ EP        752 53.83                             133    0.66 9  155 218 
 SPBC HN ES        753 15.30                             133   -0.14 9  155 218 
 SPBC HZ I         753 20.84         2.6 0.05            129            155 218 
 ZAR  HZ EP        752 57.54                             125    0.17 9  200 294 
 ZAR  HN ES        753 23.42                             125    0.52 9  200 294 
 ZAR  HZ I         753 29.26         1.7 0.23            121            200 294 
 URE  HZ EP        753  5.21                             116   -0.57 7  280 293 
 URE  HN ES   4    753 35.78                             116   -2.10 0  280 293 
 URE  HZ I         753 48.65         1.5 0.18            114            280 293 
                                                                                
