 2010  3 2 0646 21.4 L   6.787 -73.004148.5  RSN  4 0.3 1.1LRSN                1
 GAP=251        0.56       7.7    12.5  6.5  0.7237E+02 -0.1126E+02  0.8452E+01E
 Epicentro: CEPITA - SANTANDER                                                 3
 ACTION:UP  10-08-24 09:51 OP:vdl  STATUS:               ID:20100302064621 L   I
 2010-03-02-0645-07S.COL___093                                                 6
 STAT SP IPHASW D HRMM SECON CODA AMPLIT PERI AZIMU VELO SNR AR TRES W  DIS CAZ7
 BAR2 SZ EP   1    646 41.58                             168     0.1 7   29 223 
 BAR2 SZ ES   1    646 56.75                             168    -0.4 7   29 223 
 BRR  HN ES        647  1.22                             148     0.110   86 294 
 RUS  BZ EP   1    646 45.53                             145     0.2 7   99 185 
 RUS  BE ES   1    647  4.22                             145     0.2 7   99 185 
 RUS  BZ I         647  5.45         1.9 0.42                            99 185 
 CHI  HZ EP   1    646 59.17                             117    -0.4 6  252 199 
 CHI  HE ES   3    647 29.58                             117     0.2 2  252 199 
                                                                                
