 2017  5 2 0924 52.0 L   6.809 -73.151155.1  RSN 10 0.5 1.8LRSN                1
 GAP=111        1.05       3.7     4.0  6.0  0.1502E+01  0.2884E+01  0.2245E+01E
 Epicentro: LOS SANTOS - SANTANDER                                             3
 ACTION:UPD 17-06-16 13:32 OP:jn   STATUS:               ID:20170502092452 L   I
 OLDACT:UP  17-05-02 18:59 OP:edw  STATUS:               ID:20170502091747     3
 OLDACT:REG 17-05-02 14:07 OP:edw  STATUS:               ID:20170502091747     3
 2017-05-02-0918-00M.COL___356                                                 6
 STAT SP IPHASW D HRMM SECON CODA AMPLIT PERI AZIMU VELO AIN AR TRES W  DIS CAZ7
 BRR  HZ EP        925 14.64                             154    0.4910 70.3 298 
 BRR  HE ES        925 31.81                             154    0.4110 70.3 298 
 BRR  HZ I         925 33.37        12.5 0.30            153           70.3 298 
 PAM  EZ EP        925 15.58                             152    0.3510 77.0  40 
 PAM  EN ES        925 32.75                             152   -0.5710 77.0  40 
 PAM  EZ I         925 34.80        14.2 0.52            155           77.0  40 
 RUS  HZ EP        925 16.87                             145    0.0810  102 176 
 RUS  HN ES        925 35.92                             145   -0.1710  102 176 
 RUS  HZ I         925 36.38         7.9 0.26            147            102 176 
 PTB  HZ EP   9    925 18.79                             134   -0.96 0  147 258 
 PTB  HN ES        925 40.33                             134   -0.08 9  147 258 
 PTB  HZ I         925 47.40         5.6 0.66            134            147 258 
 SPBC HZ EP        925 21.53                             131    0.22 9  164 219 
 SPBC HN ES        925 43.79                             131   -0.35 9  164 219 
 SPBC HZ I         925 46.17        12.9 0.40            132            164 219 
 YPLC HZ EP        925 22.99                             128    0.36 9  178 151 
 YPLC HN ES        925 46.30                             128   -0.20 9  178 151 
 YPLC HZ I         925 49.82         7.7 0.28            130            178 151 
 ZAR  HZ EP        925 25.50                             124    0.48 9  203 292 
 ZAR  HN ES        925 50.45                             124   -0.30 9  203 292 
 ZAR  HZ I         925 55.80         4.0 0.24            125            203 292 
 NOR  HZ EP        925 27.33                             120   -1.01 8  235 234 
 NOR  HN ES        925 56.71                             120    0.06 8  235 234 
 NOR  HZ I         925 59.14         3.9 0.20            121            235 234 
 ORTC HZ EP        925 46.92                             108    0.58 6  396 216 
 ORTC HN ES   4    926 29.92                             108    1.22 0  396 216 
 SJC  HZ EP        925 46.76                             107   -1.03 6  408 327 
 SJC  HN ES   4    926 28.84                             107   -2.43 0  408 327 
                                                                                
