 2010  2 2 0210 43.7 L   6.819 -73.213137.3  RSN  5 0.4 1.7LRSN                1
 GAP=168        0.78       9.2    22.9  9.3 -0.9319E+02  0.9033E+02  0.1008E+02E
 Epicentro: LOS SANTOS - SANTANDER                                             3
 ACTION:UP  10-08-24 09:47 OP:vdl  STATUS:               ID:20100202021043 L   I
 2010-02-02-0208-02S.COL___097                                                 6
 STAT SP IPHASW D HRMM SECON CODA AMPLIT PERI AZIMU VELO SNR AR TRES W  DIS CAZ7
 BAR2 SZ IP        211  2.63                             169     0.310   25 173 
 BAR2 SZ ES   1    211 16.42                             169    -0.5 7   25 173 
 GIR2 SZ EP   2    211  2.81                             167     0.5 5   29   4 
 RUS  BZ EP        211  6.62                             141    -0.210  104 172 
 RUS  BN ES   2    211 25.68                             141     0.8 5  104 172 
 RUS  BZ I         211 26.43         6.0 0.31                           104 172 
 CHI  HZ EP        211 20.82                             115    -0.2 8  249 193 
 CHI  HE ES   2    211 50.26                             115     0.2 4  249 193 
 CHI  HZ I         211 52.78         2.2 0.51                           249 193 
 PRA  HZ EP   2    211 36.23                             105    -0.5 3  390 208 
 PRA  HN ES   2    212 18.61                             105     0.5 3  390 208 
 PRA  HZ I         212 24.92         3.2 0.44                           390 208 
                                                                                
