 2012  8 2 0442 38.1 L   6.719 -73.243149.7  RSN  4 0.3 1.1LRSN                1
 GAP=205        0.61       6.2     6.5  7.1  0.1989E+02  0.2007E+01 -0.1606E+01E
 Epicentro: VILLANUEVA - SANTANDER                                             3
 ACTION:UPD 12-09-10 11:53 OP:ep   STATUS:               ID:20120802044238 L   I
 2012-08-02-0440-00M.COL___215                                                 6
 STAT SP IPHASW D HRMM SECON CODA AMPLIT PERI AZIMU VELO AIN AR TRES W  DIS CAZ7
 BAR2 SZ ES   2    443 13.12                             174   -0.56 5 15.5 154 
 BRR  HZ EP        442 59.34                             155   -0.1510 67.3 310 
 BRR  HZ I         442 59.51         6.6 0.11                          67.3 310 
 BRR  HE ES   1    443 16.52                             155    0.37 7 67.3 310 
 RUS  HZ EP   1    443  2.15                             147    0.41 7 93.0 169 
 RUS  HN ES   1    443 20.10                             147   -0.06 7 93.0 169 
 RUS  HZ I         443 21.85         0.9 0.31                          93.0 169 
 PTB  HZ EP   1    443  4.04                             136   -0.31 7  136 262 
 PTB  HZ I         443  6.32         1.4 0.17                           136 262 
 PTB  HN ES   1    443 24.89                             136    0.08 7  136 262 
                                                                                
