 2016 11 2 0604 44.0 L   6.799 -73.128151.3  RSN  6 0.3 1.3LRSN                1
 GAP=139        0.78       3.9     5.1  5.8 -0.5299E+01  0.4591E+01  0.4978E+00E
 Epicentro: LOS SANTOS - SANTANDER                                             3
 ACTION:UPD 17-10-26 21:03 OP:lp   STATUS:               ID:20161102055748 L   I
 OLDACT:UPD 16-11-02 13:22 OP:dnl  STATUS:               ID:20161102055748 L   3
 2016-11-02-0558-00M.COL___337                                                 6
 STAT SP IPHASW D HRMM SECON CODA AMPLIT PERI AZIMU VELO AIN AR TRES W  DIS CAZ7
 BAR2 EZ EP        6 5  3.69                             171   -0.5710 23.6 195 
 BAR2 EZ ES        6 5 19.95                             171   -0.1510 23.6 195 
 BAR2 EZ I         6 5 20.83         5.5 0.36            165           23.6 195 
 BRR  HZ EP        6 5  6.00                             153    0.1910 72.9 298 
 BRR  HN ES        6 5 22.87                             153    0.0310 72.9 298 
 BRR  HZ I         6 5 26.95         4.0 0.40            139           72.9 298 
 PAM  EZ EP        6 5  7.12                             152    0.4210 76.2  38 
 PAM  EN ES        6 5 24.46                             152    0.0210 76.2  38 
 PAM  EZ I         6 5 26.28         4.8 0.52            147           76.2  38 
 RUS  HZ EP        6 5  8.32                             145    0.0710  100 177 
 RUS  HN ES        6 5 27.16                             145   -0.0310  100 177 
 RUS  HZ I         6 5 27.87         1.5 0.28            141            100 177 
 PTB  HZ EP        6 5 11.19                             133   -0.36 9  150 259 
 PTB  HZ I         6 5 33.72         1.0 0.15            122            150 259 
 SPBC HE ES        6 5 36.05                             130    0.41 9  164 220 
 SPBC HZ I         6 5 38.41         3.8 0.11            121            164 220 
                                                                                
