 2013 11 2 0734 38.3 L   6.816 -73.172145.6  RSN 11 0.5 1.9LRSN                1
 GAP=132        1.13       3.5     4.9  7.0 -0.3665E+01  0.9204E+01 -0.2338E+01E
 Epicentro: LOS SANTOS - SANTANDER                                             3
 ACTION:UPD 14-01-09 16:24 OP:ep   STATUS:               ID:20131102073438 L   I
 OLDACT:REG 13-11-02 07:21 OP:jn   STATUS:               ID:20131102073000     3
 2013-11-02-0730-00M.COL___273                                                 6
 STAT SP IPHASW D HRMM SECON CODA AMPLIT PERI AZIMU VELO AIN AR TRES W  DIS CAZ7
 BAR2 SZ EP        734 58.11                             170    0.1610 24.8 183 
 BAR2 SZ ES        735 12.83                             170   -0.4410 24.8 183 
 BAR2 SZ I         735 14.30        24.8 0.22            170           24.8 183 
 BRR  HZ EP        734 59.94                             154    0.6910 67.8 298 
 BRR  HE ES        735 16.47                             154    0.8810 67.8 298 
 BRR  HZ I         735 21.05         9.1 0.14            151           67.8 298 
 PAM  SZ EP        735  1.00                             150    0.4610 77.9  42 
 PAM  SN ES        735 18.03                             150    0.1510 77.9  42 
 PAM  SZ I         735 20.24        16.8 0.46            154           77.9  42 
 RUS  HZ EP        735  2.31                             143    0.1210  103 175 
 RUS  HN ES        735 20.35                             143   -0.4710  103 175 
 RUS  HZ I         735 21.96         9.5 0.30            146            103 175 
 PTB  HZ EP        735  4.71                             132   -0.33 9  145 258 
 PTB  HN ES        735 25.30                             132   -0.59 9  145 258 
 PTB  HZ I         735 28.77         7.4 0.14            132            145 258 
 OCA  HN ES        735 27.88                             130   -0.45 9  158 354 
 OCA  HZ I         735 31.46         5.5 0.26            131            158 354 
 SPBC HZ EP        735  6.62                             129   -0.14 9  163 218 
 SPBC HN ES        735 28.90                             129   -0.05 9  163 218 
 SPBC HZ I         735 31.65        13.3 0.34            130            163 218 
 NOR  HN ES   1    735 41.47                             119   -0.17 6  233 234 
 NOR  HZ I         735 47.73         6.6 0.14            119            233 234 
 SML  HZ EP        735 14.37                             118   -0.25 8  241 336 
 SML  HN ES        735 42.51                             118   -0.44 8  241 336 
 SML  HZ I         735 46.41        14.7 0.10            119            241 336 
 HEL  HN ES   1    735 50.29                             115    0.88 6  270 255 
 HEL  HZ I         735 56.89         3.6 0.34            116            270 255 
 GUY2CHZ EP   4    735 23.90                             112    2.14 0  300 234 
 GUY2CHN ES   4    735 57.67                             112    2.02 0  300 234 
 GUY2CHZ I         736  4.22         3.6 0.32                           300 234 
                                                                                
