 2017  4 2 0857  7.7 L   6.614 -73.248143.5  RSN  5 0.3 1.1LRSN                1
 GAP=152        0.75       5.7     6.0  7.5  0.1758E+02  0.2115E+02  0.1147E+01E
 Epicentro: CABRERA - SANTANDER                                                3
 ACTION:UPD 17-05-30 21:07 OP:jn   STATUS:               ID:20170402085707 L   I
 OLDACT:REG 17-04-02 12:56 OP:lv   STATUS:               ID:20170402084744     3
 2017-04-02-0848-00M.COL___356                                                 6
 STAT SP IPHASW D HRMM SECON CODA AMPLIT PERI AZIMU VELO AIN AR TRES W  DIS CAZ7
 BAR2 EZ ES        857 42.18                             177    0.4410 7.72 109 
 BAR2 EZ I         857 42.92         2.7 0.16            174           7.72 109 
 BRR  HZ EP        857 28.53                             151   -0.2510 74.8 317 
 BRR  HN ES        857 45.06                             151   -0.1810 74.8 317 
 BRR  HZ I         857 51.21         4.2 0.14            148           74.8 317 
 RUS  HN ES        857 46.98                             149   -0.3010 81.9 167 
 PTB  HZ EP        857 33.61                             134    0.4010  134 267 
 PTB  HN ES        857 53.11                             134   -0.0210  134 267 
 ZAR  HZ EP   4    857 41.51                             122    1.69 0  203 299 
 ZAR  HE ES        858  4.82                             122   -0.07 9  203 299 
 ZAR  HZ I         858  9.62         0.9 0.19            123            203 299 
                                                                                
