 2013  9 2 0156 45.7 L   6.043 -73.569129.4  RSN  5 0.4 1.2LRSN                1
 GAP=125        0.94       5.1     5.3  9.1 -0.1824E+01  0.1821E+01 -0.4155E+01E
 Epicentro: GUEPSA - SANTANDER                                                 3
 ACTION:UPD 13-10-22 09:19 OP:ep   STATUS:               ID:20130902015645 L   I
 OLDACT:UP  13-09-02 08:38 OP:cam  STATUS:               ID:20130902014959     3
 OLDACT:REG 13-09-02 07:44 OP:cam  STATUS:               ID:20130902014959     3
 2013-09-02-0149-59M.COL___269                                                 6
 STAT SP IPHASW D HRMM SECON CODA AMPLIT PERI AZIMU VELO AIN AR TRES W  DIS CAZ7
 RUS  HZ EP        157  4.97                             155    0.0410 56.3 107 
 RUS  HN ES   1    157 19.18                             155   -0.78 7 56.3 107 
 RUS  HZ I         157 21.75         1.4 0.58            157           56.3 107 
 SPBC HZ EP   1    157  5.40                             150    0.25 7 70.5 232 
 SPBC HN ES        157 20.70                             150    0.3410 70.5 232 
 SPBC HZ I         157 22.13         6.9 0.18            151           70.5 232 
 BAR2 SZ EP        157  6.04                             148    0.4410 74.3  35 
 BAR2 SZ ES   1    157 21.37                             148    0.22 7 74.3  35 
 PTB  HZ EP        157  7.54                             136   -0.6110  113 299 
 PTB  HN ES   1    157 25.45                             136   -0.24 7  113 299 
 PTB  HZ I         157 26.98         3.3 0.16            139            113 299 
 BRR  HE ES        157 26.66                             135    0.0610  119 352 
                                                                                
