 2017  1 2 0131 33.0 L   6.817 -73.164142.1  RSN 28 0.4 2.5LRSN                1
 GAP= 70        0.87       2.2     2.9  4.2 -0.9150E+00  0.4441E+01  0.2746E+00E
 Epicentro: LOS SANTOS - SANTANDER                                             3
 ACTION:UPD 17-05-22 15:54 OP:jn   STATUS:               ID:20170102013133 L   I
 OLDACT:REG 17-01-02 12:20 OP:lv   STATUS:               ID:20170102012741     3
 2017-01-02-0128-00M.COL___377                                                 6
 STAT SP IPHASW D HRMM SECON CODA AMPLIT PERI AZIMU VELO AIN AR TRES W  DIS CAZ7
 BAR2 EZ EP        131 52.24                             170    0.0010 24.9 185 
 BAR2 EZ ES        132  6.87                             170   -0.3610 24.9 185 
 BAR2 EZ I         132  8.61        70.3 0.19            169           24.9 185 
 BRR  HZ IP     D  131 54.04                             153    0.4210 68.5 298 
 BRR  HE ES   4    132 11.11                             153    1.43 0 68.5 298 
 BRR  HZ I         132 14.95        49.8 0.16            150           68.5 298 
 PAM  EZ EP        131 55.25                             150    0.4110 77.3  42 
 PAM  EN ES        132 12.16                             150    0.3110 77.3  42 
 PAM  EZ I         132 14.48       106.1 0.50            154           77.3  42 
 RUS  HZ EP        131 56.20                             142   -0.3610  103 175 
 RUS  HE ES        132 15.07                             142    0.1610  103 175 
 RUS  HZ I         132 16.03        37.2 0.24            145            103 175 
 PTB  HZ EP        131 59.16                             131   -0.38 9  146 258 
 PTB  HN ES        132 20.07                             131   -0.15 9  146 258 
 PTB  HZ I         132 25.80        22.8 0.33            131            146 258 
 TAM  HZ EP        132  0.75                             129    0.11 9  158 105 
 TAM  HN ES   4    132 20.71                             129   -1.47 0  158 105 
 TAM  HZ I         132 21.57        17.8 0.40            135            158 105 
 ZAR  HZ EP        132  4.53                             122   -0.43 9  201 292 
 ZAR  HN ES        132 29.88                             122    0.01 9  201 292 
 ZAR  HZ I         132 36.22        27.0 0.11            122            201 292 
 NOR  HZ EP        132  8.34                             118   -0.14 8  234 234 
 NOR  HN ES        132 35.95                             118   -0.18 8  234 234 
 NOR  HZ I         132 43.76        24.0 0.28            119            234 234 
 CHI  HZ EP        132 10.45                             116   -0.20 8  250 195 
 CHI  HN ES        132 39.44                             116   -0.57 8  250 195 
 CHI  HZ I         132 43.30        26.9 0.42            118            250 195 
 ROSC BZ EP   4    132 12.45                             116    1.45 0  253 210 
 ROSC BN ES        132 40.59                             116   -0.03 8  253 210 
 ROSC BZ I         132 46.09        44.3 0.40            117            253 210 
 URE  HZ EP        132 12.79                             113   -0.83 7  281 292 
 URE  HN ES   4    132 43.14                             113   -2.15 0  281 292 
 URE  HZ I         132 55.01        20.4 0.20            114            281 292 
 GUY2CHZ EP        132 17.29                             112    0.90 7  301 234 
 GUY2CHE ES   4    132 52.33                             112    2.11 0  301 234 
 GUY2CHZ I         132 56.45        14.0 0.32                           301 234 
 LL1C HZ EP   4    132 17.29                             111    1.08 0  304 352 
 LL1C HE ES   4    132 53.09                             111    3.20 0  304 352 
 VIL  EZ EP        132 15.90                             111   -0.53 7  305 191 
 VIL  EE ES        132 50.34                             111    0.05 7  305 191 
 VIL  EZ I         132 52.97        35.0 0.42            113            305 191 
 PTGC HZ EP   4    132 15.46                             111   -1.53 0  311 158 
 PTGC HN ES   4    132 48.73                             111   -2.56 0  311 158 
 PTGC HZ I         132 53.74        27.5 0.26            113            311 158 
 ELA  HZ EP   4    132 21.61                             110    1.93 0  329 229 
 ELA  HN ES        132 57.06                             110    0.99 7  329 229 
 ELA  HZ I         133  4.99        10.9 0.25            111            329 229 
 CBOC HZ EP        132 20.52                             109    0.89 7  332 252 
 CBOC HN ES        132 55.83                             109   -0.15 7  332 252 
 CBOC HZ I         133  2.02         4.2 0.37            110            332 252 
 DBB  EZ EP        132 19.97                             109   -0.13 7  337 274 
 DBB  EN ES   4    132 55.69                             109   -1.13 0  337 274 
 DBB  EZ I         132 57.71         5.9 0.36            110            337 274 
 ANIL HZ EP        132 23.19                             108    0.52 6  357 224 
 ANIL HE ES        133  1.99                             108    0.59 6  357 224 
 ARGC HZ EP        132 22.07                             108   -0.19 6  357 341 
 ARGC HN ES        133  0.74                             108    0.08 6  357 341 
 ARGC HZ I         133 14.19         5.3 0.34            109            357 341 
 ORTC HZ EP        132 26.60                             106   -0.25 6  396 216 
 ORTC HN ES        133  9.08                             106    0.24 6  396 216 
 ORTC HZ I         133 13.75        11.3 0.19            107            396 216 
 APAC HZ EP   4    132 25.71                             106   -1.08 0  396 288 
 APAC HN ES   4    133  5.43                             106   -3.30 0  396 288 
 APAC HZ I         133 13.05         5.3 0.38            107            396 288 
 PAL  HZ EP        132 27.97                             105    0.00 6  405 239 
 PAL  HN ES   4    133  8.63                             105   -2.19 0  405 239 
 PAL  HZ I         133 16.29         5.2 0.34            106            405 239 
 SJC  HZ EP   4    132 26.34                             105   -1.81 0  407 327 
 SJC  HN ES   4    133  7.86                             105   -3.29 0  407 327 
 SJC  HZ I         133 14.60         5.3 0.44            106            407 327 
 CRJC HZ EP   9    132 32.58                             103   -2.63 0  466   4 
 CRJC HN ES        133 20.42                                   -0.67 5  466   4 
 CRJC HZ I         133 23.88         7.7 0.24            104            466   4 
 YOT  HZ EP        132 35.47                             103   -0.46 5  472 229 
 YOT  HN ES   4    133 27.74                             103    2.75 0  472 229 
 SMAR HZ EP        132 38.58                             102    0.05 4  495 346 
 SMAR HN ES   4    133 24.82                             102   -4.80 0  495 346 
 MACC HZ EP   4    132 39.32                             101   -2.50 0  522 188 
 MACC HE ES   4    133 31.02                             101   -4.47 0  522 188 
 MACC HZ I         133 34.06         2.4 0.22            102            522 188 
 GARC HZ EP   4    132 46.49                             100   -1.79 0  573 207 
 GARC HN ES   4    133 42.32                             100   -4.67 0  573 207 
 GARC HZ I         133 52.02         4.4 0.25            101            573 207 
                                                                                
