 2016 11 2 0040 58.0 L   6.784 -73.138148.9  RSN  9 0.4 1.5LRSN                1
 GAP=138        1.01       4.3     4.1  7.8 -0.3300E+01  0.3395E+01  0.4533E+01E
 Epicentro: LOS SANTOS - SANTANDER                                             3
 ACTION:UPD 17-10-26 21:03 OP:lp   STATUS:               ID:20161102004058 L   I
 OLDACT:UP  16-11-02 13:13 OP:dani STATUS:               ID:20161102003740     3
 OLDACT:UP  16-11-02 13:12 OP:dani STATUS:               ID:20161102003740     3
 OLDACT:REG 16-11-02 12:15 OP:dani STATUS:               ID:20161102003740     3
 2016-11-02-0038-00M.COL___343                                                 6
 STAT SP IPHASW D HRMM SECON CODA AMPLIT PERI AZIMU VELO AIN AR TRES W  DIS CAZ7
 BAR2 EZ EP        041 18.01                             171    0.0110 21.8 193 
 BAR2 EZ I         041 35.90        11.1 0.38            173           21.8 193 
 BRR  HZ EP        041 19.83                             153    0.2310 72.8 299 
 BRR  HE ES        041 36.12                             153   -0.3110 72.8 299 
 BRR  HZ I         041 41.43         4.6 0.11            151           72.8 299 
 PAM  EZ EP        041 20.85                             151    0.2310 78.2  38 
 PAM  EN ES        041 38.36                             151    0.1110 78.2  38 
 PAM  EZ I         041 40.38         4.1 0.50            150           78.2  38 
 RUS  HZ EP        041 21.70                             145   -0.2610 98.8 176 
 RUS  HN ES        041 40.79                             145    0.1610 98.8 176 
 RUS  HZ I         041 41.87         4.0 0.29            146           98.8 176 
 PTB  HZ EP        041 24.83                             133   -0.47 9  148 260 
 PTB  HN ES        041 45.74                             133   -0.83 9  148 260 
 PTB  HZ I         041 51.94         2.1 0.15            132            148 260 
 SPBC HZ EP        041 26.40                             130   -0.29 9  162 220 
 SPBC HN ES        041 49.36                             130    0.31 9  162 220 
 SPBC HZ I         041 51.12         6.3 0.10            130            162 220 
 ZAR  HZ EP   4    041 32.14                             123    1.31 0  206 292 
 ZAR  HN ES        041 57.11                             123    0.70 8  206 292 
 ZAR  HZ I         042  2.86         3.3 0.27            122            206 292 
 NOR  HZ EP   4    041 30.14                             119   -3.77 0  234 235 
 NOR  HN ES        042  2.56                             119    0.67 8  234 235 
 NOR  HZ I         042  6.58         3.4 0.25            119            234 235 
 GUY2CHZ EP   9    041 43.46                             113    1.71 0  301 235 
 GUY2CHN ES        042 17.83                             113    0.27 7  301 235 
 GUY2CHZ I         042 25.99         1.4 0.25                           301 235 
                                                                                
