 2013  5 2 1652 46.0 L   6.817 -73.142146.3  RSN  5 0.4 1.8LRSN                1
 GAP=136        0.83       6.3     6.8 10.1  0.1276E+02  0.9297E+01  0.1538E+01E
 Epicentro: LOS SANTOS - SANTANDER                                             3
 ACTION:UPD 13-06-20 09:47 OP:ep   STATUS:               ID:20130502165246 L   I
 2013-05-02-1650-00M.COL___253                                                 6
 STAT SP IPHASW D HRMM SECON CODA AMPLIT PERI AZIMU VELO AIN AR TRES W  DIS CAZ7
 BAR2 SZ EP   1   1653  5.85                             170    0.15 8 25.3 190 
 BAR2 SZ I        1653 22.33        10.3 0.26            170           25.3 190 
 BRR  HZ EP   1   1653  7.40                             153    0.26 8 70.6 297 
 BRR  HN ES   1   1653 24.27                             153    0.62 8 70.6 297 
 BRR  HN I        1653 25.43        26.5 0.22            149           70.6 297 
 PAM  SE ES   2   1653 24.57                             151   -0.85 5 75.7  40 
 PAM  SE I        1653 28.33        11.8 0.44            141           75.7  40 
 RUS  HZ EP   1   1653 10.03                             143    0.13 7  102 176 
 RUS  HE ES       1653 28.50                             143   -0.0710  102 176 
 RUS  HE I        1653 30.38         4.4 0.18            138            102 176 
 PTB  HZ EP   1   1653 13.04                             132   -0.00 7  148 258 
 PTB  HN ES   1   1653 33.39                             132   -0.77 7  148 258 
 PTB  HN I        1653 38.59        14.6 0.38            127            148 258 
                                                                                
