 2013  8 2 1049 46.6 L   6.892 -73.229122.0  RSN  4 0.1 1.9LRSN                1
 GAP=175        0.42       2.5     3.1  3.5  0.8551E+00  0.1313E+01 -0.3248E+01E
 Epicentro: BETULIA - SANTANDER                                                3
 ACTION:UPD 14-01-14 08:58 OP:ep   STATUS:               ID:20130802104946 L   I
 OLDACT:REG 13-08-02 16:38 OP:cam  STATUS:               ID:20130802104843     3
 2013-08-02-1048-43M.COL___230                                                 6
 STAT SP IPHASW D HRMM SECON CODA AMPLIT PERI AZIMU VELO AIN AR TRES W  DIS CAZ7
 BAR2 SZ EP       1050  3.87                             164    0.1610 33.5 171 
 BAR2 SZ ES       1050 16.97                             164   -0.0510 33.5 171 
 BAR2 SZ I        1050 18.17        54.5 0.23            166           33.5 171 
 BRR  HZ EP       1050  4.28                             153   -0.2110 58.4 294 
 BRR  HN ES       1050 18.45                             153    0.0410 58.4 294 
 BRR  HZ I        1050 20.09        11.7 0.26            153           58.4 294 
 OCA  HZ EP       1050 12.25                             126    0.14 9  149 356 
 OCA  HN ES       1050 31.91                             126   -0.07 9  149 356 
 OCA  HZ I        1050 33.09        10.2 0.30            127            149 356 
 ZAR  HZ EP       1050 16.17                             118   -0.15 9  192 290 
 ZAR  HE ES   1   1050 39.70                             118    0.23 7  192 290 
                                                                                
