 2017 12 2 1150 41.5 L   6.794 -73.196142.0  RSN  6 0.5 1.5LRSN                1
 GAP=144        0.69       3.9     3.9  5.1 -0.4133E+01  0.4615E+01  0.1660E+01E
 Epicentro: ZAPATOCA - SANTANDER                                               3
 ACTION:UPD 18-01-04 13:16 OP:rebc STATUS:               ID:20171202115041 L   I
 OLDACT:UP  17-12-02 22:44 OP:dani STATUS:               ID:20171202114739     3
 OLDACT:UP  17-12-02 22:42 OP:dani STATUS:               ID:20171202114739     3
 OLDACT:REG 17-12-02 21:24 OP:dani STATUS:               ID:20171202114739     3
 2017-12-02-1148-00M.COL___471                                                 6
 STAT SP IPHASW D HRMM SECON CODA AMPLIT PERI AZIMU VELO AIN AR TRES W  DIS CAZ7
 BAR2 EZ EP       1151  0.56                             171   -0.0710 22.4 176 
 BAR2 EZ ES       1151 15.58                             171    0.0010 22.4 176 
 BAR2 EZ I        1151 16.56        13.3 0.36            169           22.4 176 
 PAM  EZ EP       1151  3.47                             149   -0.0810 81.5  42 
 PAM  EE ES       1151 20.83                             149    0.0710 81.5  42 
 RUS  HZ EP       1151  4.84                             143   -0.0110  100 173 
 RUS  HN ES       1151 23.19                             143    0.1110  100 173 
 RUS  HZ I        1151 24.30         5.1 0.30            143            100 173 
 PTB  HZ EP       1151  7.22                             132   -0.41 9  142 259 
 PTB  HE ES       1151 28.23                             132    0.20 9  142 259 
 PTB  HZ I        1151 30.61         3.4 0.14            132            142 259 
 CHI  HZ EP       1151 18.99                             116    0.24 8  247 194 
 CHI  HN ES   3   1151 45.77                             116   -2.05 2  247 194 
 CHI  HZ I        1151 50.49         2.4 0.36            117            247 194 
 GUY2CHZ EP   3   1151 27.17                             112    2.81 2  296 234 
                                                                                
