 2013  3 2 1015 39.5 L   6.764 -73.145145.5  RSN  7 0.4 1.6LRSN                1
 GAP=110        0.79       4.9     5.3  8.6  0.9599E+01 -0.1085E+02 -0.7379E+01E
 Epicentro: LOS SANTOS - SANTANDER                                             3
 ACTION:UPD 13-04-09 13:59 OP:ep   STATUS:               ID:20130302101539 L   I
 2013-03-02-1010-00M.COL___228                                                 6
 STAT SP IPHASW D HRMM SECON CODA AMPLIT PERI AZIMU VELO AIN AR TRES W  DIS CAZ7
 BAR2 SZ EP   1   1015 58.98                             172   -0.03 7 19.5 192 
 BAR2 SZ ES   1   1016 14.63                             172    0.39 7 19.5 192 
 BAR2 SZ I        1016 15.70        13.4 0.29            170           19.5 192 
 BRR  HZ EP   1   1016  1.06                             152    0.34 7 73.3 301 
 BRR  HE ES   1   1016 17.55                             152    0.27 7 73.3 301 
 BRR  HZ I        1016 19.45         6.8 0.64            151           73.3 301 
 RUS  HZ EP   1   1016  2.90                             145   -0.03 7 96.6 176 
 RUS  HN ES   1   1016 20.85                             145   -0.36 7 96.6 176 
 RUS  HZ I        1016 22.76         3.9 0.32            145           96.6 176 
 PTB  HE ES   1   1016 26.70                             132   -0.64 7  147 260 
 PTB  HZ I        1016 30.80         4.4 0.14            132            147 260 
 TAM  HZ EP   1   1016  7.22                             131    0.18 7  154 104 
 OCA  HN ES   1   1016 29.79                             129   -0.71 7  164 353 
 ZAR  HN ES   1   1016 38.05                             122    0.55 6  206 293 
                                                                                
