 2010  9 2 1630 14.5 L   6.803 -73.053146.7  RSN  6 0.1 2.0LRSN                1
 GAP=169        0.34       2.8     4.9  3.4  0.2543E+01 -0.2213E+01 -0.4996E+00E
 Epicentro: LOS SANTOS - SANTANDER                                             3
 ACTION:UP  11-02-18 10:59 OP:tino STATUS:               ID:20100902163014 L   I
 2010-09-02-1627-33S.COL___120                                                 6
 STAT SP IPHASW D HRMM SECON CODA AMPLIT PERI AZIMU VELO SNR AR TRES W  DIS CAZ7
 BAR2 SZ IP       1630 34.33                             169     0.010   27 212 
 BAR2 SZ ES   1   1630 50.05                             169     0.2 7   27 212 
 BAR2 SZ I        1630 51.17        13.6 0.39                            27 212 
 BRR  HZ IP     C 1630 36.25                             150     0.010   80 295 
 BRR  HZ I        1630 36.51        35.7 0.16                            80 295 
 BRR  HE ES   1   1630 53.26                             150     0.0 7   80 295 
 RUS  HZ EP   2   1630 38.32                             144     0.0 5  101 182 
 RUS  HE ES   2   1630 56.72                             144    -0.3 5  101 182 
 RUS  HZ I        1630 58.20         8.0 0.27                           101 182 
 GRA  SZ EP   2   1630 39.70                             138     0.1 5  123  13 
 GRA  SZ I        1631  4.92        10.7 0.42                           123  13 
 OCA  SZ EP   2   1630 42.92                             130    -0.1 5  161 350 
 OCA  SZ I        1631 19.10        18.5 0.26                           161 350 
 PRA  HZ EP   1   1631  8.77                             106     0.1 4  397 211 
 PRA  HE ES   2   1631 51.04                             106     0.1 3  397 211 
 PRA  HZ I        1631 56.10         4.0 0.35                           397 211 
                                                                                
