 2017  2 2 1058 54.0 L   6.755 -73.104144.0  RSN  6 0.4 1.6LRSN                1
 GAP=144        0.98       5.3     5.5  7.9  0.4027E+01  0.9645E+01 -0.5721E+01E
 Epicentro: LOS SANTOS - SANTANDER                                             3
 ACTION:UPD 17-05-24 15:31 OP:jn   STATUS:               ID:20170202105854 L   I
 OLDACT:REG 17-02-02 20:12 OP:dnl  STATUS:               ID:20170202105744     3
 2017-02-02-1058-00M.COL___325                                                 6
 STAT SP IPHASW D HRMM SECON CODA AMPLIT PERI AZIMU VELO AIN AR TRES W  DIS CAZ7
 BAR2 EZ EP       1059 13.06                             172   -0.2910 20.0 206 
 BAR2 EZ ES       1059 27.79                             172   -0.6610 20.0 206 
 BAR2 EZ I        1059 29.84         7.5 0.26            172           20.0 206 
 BRR  HZ EP       1059 15.40                             150    0.0610 77.6 300 
 BRR  HE ES       1059 32.71                             150    0.7310 77.6 300 
 BRR  HZ I        1059 37.21        12.2 0.44            149           77.6 300 
 PAM  EZ EP       1059 16.40                             150    0.3010 78.6  35 
 PAM  EN ES       1059 33.22                             150   -0.1210 78.6  35 
 PAM  EZ I        1059 35.72         6.9 0.50            152           78.6  35 
 RUS  HZ EP   2   1059 17.20                             145   -0.01 5 95.4 179 
 RUS  HE ES       1059 35.63                             145    0.3210 95.4 179 
 RUS  HZ I        1059 36.84         5.2 0.36            149           95.4 179 
 PTB  HZ EP   2   1059 21.34                             131    0.18 5  151 261 
 PTB  HN ES   4   1059 40.82                             131   -1.52 0  151 261 
 PTB  HZ I        1059 43.74         3.8 0.32            132            151 261 
 ZAR  HZ EP   2   1059 26.60                             121   -0.36 4  210 293 
 ZAR  HN ES       1059 52.24                             121   -0.44 8  210 293 
 ZAR  HZ I        1059 57.17         3.7 0.30            123            210 293 
                                                                                
