 2015  3 2 1149 11.3 L   6.787 -73.154153.8  RSN  5 0.5 2.0LRSN                1
 GAP=149        1.25       7.6     7.0  9.0 -0.1187E+02  0.1422E+02 -0.1757E+02E
 Epicentro: LOS SANTOS - SANTANDER                                             3
 ACTION:UPD 15-04-30 16:22 OP:nd   STATUS:               ID:20150302114911 L   I
 OLDACT:REG 15-03-02 22:13 OP:carl STATUS:               ID:20150302114747     3
 2015-03-02-1147-47M.COL___293                                                 6
 STAT SP IPHASW D HRMM SECON CODA AMPLIT PERI AZIMU VELO AIN AR TRES W  DIS CAZ7
 BAR2 EZ EP       1149 32.03                             172    0.1210 21.8 188 
 BAR2 EZ ES       1149 47.36                             172   -0.6010 21.8 188 
 BAR2 EZ I        1149 48.14        15.9 0.24            172           21.8 188 
 BRR  HZ EP       1149 33.92                             154    0.5610 71.1 300 
 BRR  HN ES       1149 51.43                             154    0.8910 71.1 300 
 PAM  SZ EP       1149 34.91                             152    0.3910 79.1  39 
 PAM  SN ES       1149 52.29                             152   -0.3010 79.1  39 
 PAM  SZ I        1149 54.44        15.1 0.66            153           79.1  39 
 PTB  HZ EP       1149 38.47                             134   -0.40 9  147 259 
 PTB  HN ES       1150  0.08                             134   -0.27 9  147 259 
 PTB  HZ I        1150  7.40         9.1 0.48            133            147 259 
 SML  HZ EP       1149 48.42                             119   -0.11 8  245 336 
 SML  HN ES       1150 16.90                             119   -0.63 8  245 336 
 SML  HZ I        1150 24.22        10.7 0.20            118            245 336 
                                                                                
