 2011  6 2 1627 13.5 L   6.780 -73.098140.0  RSN  4 0.2 1.8LRSN                1
 GAP=164        0.50       2.8     6.5  6.0 -0.2211E+01 -0.4326E+01 -0.2598E+01E
 Epicentro: LOS SANTOS - SANTANDER                                             3
 ACTION:UP  11-07-14 19:02 OP:ep   STATUS:               ID:20110602162713 L   I
 2011-06-02-1624-38S.COL___132                                                 6
 STAT SP IPHASW D HRMM SECON CODA AMPLIT PERI AZIMU VELO SNR AR TRES W  DIS CAZ7
 BAR2 SZ EP   2   1627 32.10                             170    -0.3 5   23 204 
 BAR2 SZ ES   2   1627 46.75                             170    -0.4 5   23 204 
 BAR2 SZ I        1627 49.86        18.6 0.23                            23 204 
 BRR  HZ EP       1627 34.41                             150     0.110   77 298 
 BRR  HN ES   2   1627 50.63                             150     0.0 5   77 298 
 BRR  HZ I        1627 51.56        16.8 0.32                            77 298 
 RUS  HZ EP       1627 36.40                             144    -0.110   98 179 
 RUS  HN ES   1   1627 54.70                             144     0.3 7   98 179 
 RUS  HZ I        1627 56.00         6.8 0.26                            98 179 
 GRA  SZ EP       1627 38.12                             136    -0.110  126  15 
 GRA  SZ ES   1   1627 57.83                             136     0.2 7  126  15 
                                                                                
