 2010  6 2 1449 20.0 L   6.795 -72.937146.5  RSN  7 0.5 2.5LRSN                1
 GAP=208        1.29       7.1    15.5  9.6 -0.8479E+02  0.3668E+02 -0.1645E+01E
 Epicentro: CEPITA - SANTANDER                                                 3
 ACTION:UP  10-08-24 10:08 OP:vdl  STATUS:               ID:20100602144919 L   I
 2010-06-02-1444-22S.COL___109                                                 6
 STAT SP IPHASW D HRMM SECON CODA AMPLIT PERI AZIMU VELO SNR AR TRES W  DIS CAZ7
 BAR2 SZ IP       1449 39.74                             166    -0.310   35 231 
 BAR2 SZ ES       1449 55.01                             166    -0.610   35 231 
 GUE  SZ EP       1449 44.77                             140     0.210  114   1 
 GUE  SZ ES   1   1450  3.98                             140     0.2 7  114   1 
 GRA  SZ EP       1449 45.50                             138     0.610  121   7 
 GRA  SZ ES       1450  4.91                             138     0.510  121   7 
 OCA  SZ EP       1449 48.19                             129    -0.6 9  165 345 
 OCA  SZ ES       1450 11.02                             129    -0.3 9  165 345 
 ROSC BN ES       1450 31.19                             115     0.9 8  265 215 
 ROSC BZ I        1450 33.62        17.5 0.59                           265 215 
 RREF BZ EP       1450  7.69                             110    -0.5 7  339 232 
 RREF BN ES       1450 46.36                             110     0.6 7  339 232 
 RREF BZ I        1450 51.21        10.9 0.34                           339 232 
 TOL  SZ EP       1450  9.38                             108    -0.8 6  360 227 
                                                                                
