 2012 12 2 1702 18.2 L   6.821 -73.167143.9  RSN 15 0.6 2.6LRSN                1
 GAP=133        1.31       3.3     5.5  7.2  0.8701E+00  0.1678E+02  0.2287E+01E
 Epicentro: LOS SANTOS - SANTANDER                                             3
 ACTION:UPD 13-01-04 14:25 OP:ep   STATUS:               ID:20121202170218 L   I
 2012-12-02-1700-00M.COL___236                                                 6
 STAT SP IPHASW D HRMM SECON CODA AMPLIT PERI AZIMU VELO AIN AR TRES W  DIS CAZ7
 BAR2 SZ IP       17 2 37.51                             170   -0.1310 25.4 184 
 BAR2 SZ ES       17 2 52.92                             170    0.1010 25.4 184 
 BAR2 SZ I        17 2 56.63        38.3 0.22                          25.4 184 
 PAM  SZ EP       17 2 40.33                             151    0.1310 77.2  42 
 PAM  SN ES       17 2 57.64                             151    0.2810 77.2  42 
 PAM  SN I        17 2 58.54        55.6 0.20                          77.2  42 
 RUS  HZ IP     D 17 2 41.37                             143   -0.5810  103 175 
 RUS  HN ES       17 3  0.14                             143   -0.3410  103 175 
 RUS  HN I        17 3  1.62        37.5 0.38                           103 175 
 PTB  HZ EP       17 2 44.40                             132   -0.44 9  146 258 
 PTB  HN ES       17 3  5.37                             132   -0.25 9  146 258 
 PTB  HN I        17 3 10.72        89.4 0.48                           146 258 
 OCA  HZ EP       17 2 46.06                             130   -0.05 9  158 354 
 OCA  HN ES       17 3  8.49                             130    0.60 9  158 354 
 OCA  HN I        17 3 11.43        96.0 0.38                           158 354 
 ZAR  HZ EP       17 2 49.90                             122   -0.29 9  201 292 
 ZAR  HN ES       17 3 15.84                             122    0.68 9  201 292 
 ZAR  HN I        17 3 21.71        56.2 0.56                           201 292 
 CTAB SZ EP   1   17 2 55.09                             119    1.17 6  231 210 
 NOR  HZ EP       17 2 54.68                             118    0.93 8  234 234 
 SML  HZ EP       17 2 54.13                             117   -0.24 8  241 336 
 SML  HN ES       17 3 21.75                             117   -0.84 8  241 336 
 SML  HN I        17 3 28.27        71.6 0.30                           241 336 
 CHI  HZ EP       17 2 55.54                             117   -0.43 8  250 194 
 CHI  HN ES       17 3 25.27                             117   -0.17 8  250 194 
 CHI  HN I        17 3 32.64        18.7 0.54                           250 194 
 ROSC BZ EP       17 2 57.24                             116    0.94 8  254 210 
 ROSC BZ I        17 3 35.07        23.9 0.45                           254 210 
 HEL  HZ EP       17 2 59.24                             115    1.12 8  270 255 
 HEL  HN I        17 3 37.49        13.6 0.26                           270 255 
 COD  HZ EP   4   17 3  6.01                             109   -0.19 0  346 355 
 COD  HN ES   4   17 3 41.03                             109   -2.61 0  346 355 
 COD  HN I        17 3 47.53         6.6 0.24                           346 355 
 MON  HZ EP   4   17 3  4.69                             108   -2.04 0  350 308 
 MON  HN ES       17 3 43.48                             108   -1.12 6  350 308 
 MON  HN I        17 3 45.80        11.5 0.30                           350 308 
 PRA  HZ EP       17 3 10.87                             106   -0.88 6  393 209 
 PRA  HN ES       17 3 53.34                             106   -0.19 6  393 209 
 PRA  HN I        17 3 59.11         7.5 0.26                           393 209 
                                                                                
