 2017 10 2 1242 51.3 L   6.829 -73.157138.9  RSN  6 0.3 1.4LRSN                1
 GAP=134        0.79       3.3     4.1  6.0 -0.1509E+01  0.1013E+02  0.3955E+01E
 Epicentro: LOS SANTOS - SANTANDER                                             3
 ACTION:UPD 17-11-07 19:27 OP:rebc STATUS:               ID:20171002124251 L   I
 OLDACT:DUP 17-10-02 22:38 OP:dhb  STATUS:               ID:20171002123739d    3
 2017-10-02-1238-00M.COL___422                                                 6
 STAT SP IPHASW D HRMM SECON CODA AMPLIT PERI AZIMU VELO AIN AR TRES W  DIS CAZ7
 BAR2 EZ EP       1243 10.24                             169    0.0210 26.3 186 
 BAR2 EZ ES       1243 24.86                             169   -0.0810 26.3 186 
 PAM  EZ EP       1243 13.22                             150    0.4810 75.8  42 
 PAM  EN ES       1243 29.22                             150   -0.2110 75.8  42 
 PAM  EZ I        1243 32.64         3.4 0.15            152           75.8  42 
 RUS  HZ EP       1243 14.40                             141   -0.2710  104 175 
 RUS  HN ES       1243 33.17                             141    0.3010  104 175 
 RUS  HZ I        1243 33.98         4.9 0.28            143            104 175 
 ZAR  HN ES       1243 47.55                             121   -0.33 9  202 291 
 ZAR  HZ I        1243 50.59         3.1 0.07            122            202 291 
 NOR  HZ EP       1243 26.86                             117    0.09 8  236 234 
 NOR  HE ES       1243 54.99                             117    0.58 8  236 234 
 NOR  HZ I        1243 59.01         1.4 0.18            118            236 234 
 CHI  HZ EP       1243 28.79                             115   -0.18 8  251 195 
 CHI  HN ES       1243 57.82                             115   -0.50 8  251 195 
 CHI  HZ I        1243 59.84         2.0 0.16            117            251 195 
                                                                                
