 2014 12 2 1437 39.7 L   6.792 -73.115142.0  RSN 18 0.5 2.5LRSN                1
 GAP=141        0.98       2.9     3.7  5.1 -0.2601E+01  0.4447E+01  0.3357E+01E
 Epicentro: LOS SANTOS - SANTANDER                                             3
 ACTION:UPD 15-02-10 16:59 OP:nd   STATUS:               ID:20141202143739 L   I
 OLDACT:REG 14-12-02 21:08 OP:spq  STATUS:               ID:20141202142748     3
 2014-12-02-1427-48M.COL___300                                                 6
 STAT SP IPHASW D HRMM SECON CODA AMPLIT PERI AZIMU VELO AIN AR TRES W  DIS CAZ7
 BAR2 SZ EP       1437 58.98                             170    0.0610 23.3 199 
 BAR2 SZ ES   1   1438 13.59                             170   -0.28 7 23.3 199 
 BAR2 SZ I        1438 14.78        78.5 0.36            168           23.3 199 
 BRR  HZ EP     C 1438  0.88                             151    0.2010 74.6 298 
 BRR  HN ES       1438 17.68                             151    0.6610 74.6 298 
 BRR  HZ I        1438 21.92        90.2 0.12            150           74.6 298 
 PAM  SZ EP       1438  1.84                             151    0.3710 76.0  37 
 PAM  SN ES       1438 18.64                             151    0.2210 76.0  37 
 PAM  SZ I        1438 20.81        65.5 0.58            156           76.0  37 
 RUS  HZ EP       1438  3.21                             143    0.1710 99.5 178 
 RUS  HE ES   1   1438 21.03                             143   -0.19 7 99.5 178 
 RUS  HZ I        1438 22.28        39.4 0.22            145           99.5 178 
 PTB  HZ EP       1438  6.00                             131   -0.69 9  151 259 
 PTB  HE ES       1438 28.22                             131    0.51 9  151 259 
 PTB  HZ I        1438 29.94        42.0 0.18            131            151 259 
 OCA  HZ EP       1438  7.33                             129   -0.56 9  162 352 
 OCA  HN ES       1438 29.11                             129   -0.73 9  162 352 
 OCA  HZ I        1438 34.39        46.1 0.22            132            162 352 
 SPBC HZ EP       1438  8.04                             128   -0.05 9  165 220 
 SPBC HE ES       1438 29.79                             128   -0.41 9  165 220 
 SPBC HZ I        1438 38.27        33.5 0.24            129            165 220 
 ZAR  HZ EP       1438 12.10                             121   -0.20 8  208 292 
 ZAR  HN ES       1438 38.06                             121    0.36 8  208 292 
 ZAR  HZ I        1438 45.77        44.3 0.36            123            208 292 
 NOR  HZ EP       1438 15.66                             118    0.17 8  237 235 
 NOR  HN ES       1438 42.64                             118   -0.74 8  237 235 
 NOR  HZ I        1438 50.27        25.3 0.14            119            237 235 
 CHI  HZ EP       1438 17.27                             116    0.04 8  249 196 
 CHI  HN ES   1   1438 45.85                             116   -0.63 6  249 196 
 CHI  HZ I        1438 49.70        10.8 0.30            119            249 196 
 HEL  HZ EP   1   1438 20.66                             114    0.56 6  275 256 
 HEL  HN ES   1   1438 51.41                             114   -0.18 6  275 256 
 HEL  HZ I        1438 56.07        10.7 0.38            115            275 256 
 GUY2CHZ EP   1   1438 23.13                             112   -0.30 5  303 235 
 GUY2CHN ES   1   1438 56.75                             112   -0.76 5  303 235 
 GUY2CHZ I        1439  4.04         9.3 0.30                           303 235 
 DBB  SZ EP       1438 27.19                             109   -0.27 7  343 274 
 DBB  SZ ES   4   1439  3.09                             109   -1.59 0  343 274 
 DBB  SZ I        1439  5.36        31.9 0.40            110            343 274 
 TOL  SZ EP       1438 28.81                             109    0.76 7  345 225 
 TOL  SN ES       1439  6.36                             109    0.63 7  345 225 
 TOL  SZ I        1439 13.20        18.4 0.46            110            345 225 
 MON  HZ EP   4   1438 26.82                             108   -2.15 0  357 308 
 MON  HE ES   4   1439  5.61                             108   -1.76 0  357 308 
 MON  HZ I        1439  6.21         8.7 0.20            110            357 308 
 ANIL HZ EP   1   1438 30.06                             108    0.46 5  359 225 
 ANIL HN ES   4   1439 10.35                             108    1.86 0  359 225 
 ORTC HZ EP       1438 34.22                             106    0.54 6  397 217 
 ORTC HE ES   1   1439 16.19                             106    0.43 4  397 217 
 ORTC HZ I        1439 22.29        10.3 0.22            108            397 217 
 SJC  HZ EP   4   1438 33.32                             105   -2.17 0  412 327 
 SJC  HN ES   4   1439 14.93                             105   -4.04 0  412 327 
 SJC  HZ I        1439 18.89        15.1 0.74            107            412 327 
                                                                                
