 2017  3 2 1153 32.9 L   6.668 -73.216143.9  RSN  5 0.4 1.3LRSN                1
 GAP=205        1.08       8.0     7.3  8.6  0.3577E+02  0.1290E+02  0.3025E+01E
 Epicentro: BARICHARA - SANTANDER                                              3
 ACTION:UPD 17-05-25 18:34 OP:jn   STATUS:               ID:20170302115332 L   I
 OLDACT:REG 17-03-02 20:18 OP:lv   STATUS:               ID:20170302114740     3
 2017-03-02-1148-00M.COL___385                                                 6
 STAT SP IPHASW D HRMM SECON CODA AMPLIT PERI AZIMU VELO AIN AR TRES W  DIS CAZ7
 BAR2 EZ EP       1153 51.84                             176   -0.2510 9.12 156 
 BAR2 EZ ES       1154  6.64                             176   -0.4210 9.12 156 
 BAR2 EZ I        1154  7.91         7.8 0.35            172           9.12 156 
 BRR  HZ EP       1153 53.61                             151   -0.3410 73.3 312 
 BRR  HN ES       1154 10.75                             151    0.3610 73.3 312 
 RUS  HZ EP       1153 55.88                             147    0.3710 87.0 170 
 RUS  HN ES       1154 13.58                             147    0.4210 87.0 170 
 RUS  HZ I        1154 15.58         2.4 0.30            147           87.0 170 
 PTB  HZ EP       1153 58.63                             134   -0.19 9  138 264 
 PTB  HN ES       1154 18.51                             134   -0.54 9  138 264 
 PTB  HZ I        1154 22.83         2.7 0.24            131            138 264 
 ZAR  HN ES       1154 30.95                             122    0.71 9  203 297 
 ZAR  HZ I        1154 36.39         1.7 0.17            122            203 297 
 NOR  HN ES   4   1154 36.35                             120    2.84 0  220 236 
                                                                                
