 2011  7 2 1822 53.8 L   6.042 -73.765108.2  RSN  6 0.4 1.7LRSN                1
 GAP=141        0.97       6.0     5.3 13.1 -0.1038E+02  0.3571E+02 -0.1080E+02E
 Epicentro: BOLIVAR - SANTANDER                                                3
 ACTION:UPD 12-07-25 13:57 OP:epov STATUS:               ID:20110702182254 L   I
 2011-07-02-1820-00M.COL___124                                                 6
 STAT SP IPHASW D HRMM SECON CODA AMPLIT PERI AZIMU VELO AIN AR TRES W  DIS CAZ7
 RUS  HZ EP       1823 12.51                             142    0.3410 77.2 102 
 RUS  HZ I        1823 12.70         6.3 0.10                          77.2 102 
 RUS  HN ES   1   1823 26.26                             142   -0.25 7 77.2 102 
 BAR2 SZ EP       1823 12.51                             138   -0.2010 88.6  47 
 BAR2 SZ I        1823 27.94        16.5 0.50                          88.6  47 
 BRR  HZ EP       1823 14.41                             129   -0.5910  118   3 
 BRR  HE ES   1   1823 32.27                             129    0.73 7  118   3 
 BRR  HZ I        1823 36.87        15.4 0.46                           118   3 
 NOR  SZ EP       1823 17.08                             125    0.5110  133 247 
 NOR  SN ES   1   1823 33.84                             125   -0.50 7  133 247 
 HEL  HZ EP       1823 23.60                             114   -0.06 9  196 275 
 HEL  HZ I        1823 49.23         4.0 0.26                           196 275 
 GUY  SZ EP   2   1823 24.44                             113    0.02 4  202 243 
 GUY  SZ I        1823 54.46         9.1 0.58                           202 243 
                                                                                
