 2017  2 2 1557 45.3 L   6.073 -73.032  0.0  RSN  4 0.2 1.0LRSN                1
 GAP=181        0.48       5.5     3.3  9.4 -0.6733E+01  0.9858E+01 -0.5075E+02E
 Epicentro: ENCINO - SANTANDER                                                 3
 ACTION:UPD 17-05-24 15:31 OP:jn   STATUS:               ID:20170202155745 L   I
 OLDACT:UP  17-02-02 23:15 OP:dnl  STATUS:               ID:20170202154748d    3
 OLDACT:UP  17-02-02 23:15 OP:dnl  STATUS:               ID:20170202154748d    3
 OLDACT:DUP 17-02-02 23:12 OP:dnl  STATUS:               ID:20170202154748d    3
 2017-02-02-1548-00M.COL___337                                                 6
 STAT SP IPHASW D HRMM SECON CODA AMPLIT PERI AZIMU VELO AIN AR TRES W  DIS CAZ7
 RUS  HZ IP     D 1557 49.60                             100   -0.0910 20.7 196 
 RUS  HN ES       1557 53.20                             100    0.0910 20.7 196 
 RUS  HZ I        1557 54.13        16.2 0.10            100           20.7 196 
 BAR2 EZ EP   2   1557 55.05                              47   -0.71 5 59.7 344 
 BAR2 EZ ES   4   1558  2.29                              47   -1.63 0 59.7 344 
 BAR2 EZ I        1558  2.99         6.0 0.16             47           59.7 344 
 BRR  HZ EP   2   1558  7.39                              47    0.20 5  137 327 
 BRR  HN ES       1558 24.32                              47    0.05 9  137 327 
 PAM  EZ EP   4   1558 10.73                              47    1.83 0  145  15 
 PAM  EE ES   2   1558 27.21                              47   -0.11 5  145  15 
 PAM  EZ ES       1558 27.45                              47    0.13 9  145  15 
 PAM  EZ I        1558 32.02         4.5 0.16             47            145  15 
                                                                                
