 2015  1 2 1243 43.0 L   6.809 -73.173150.6  RSN  8 0.4 1.7LRSN                1
 GAP=199        1.01       3.5     5.6  6.2  0.6250E+01  0.1231E+01 -0.1042E+01E
 Epicentro: LOS SANTOS - SANTANDER                                             3
 ACTION:UPD 15-03-02 15:36 OP:nd   STATUS:               ID:20150102124343 L   I
 OLDACT:UP  15-01-02 23:12 OP:cam  STATUS:               ID:20150102123815     3
 OLDACT:REG 15-01-02 20:15 OP:cam  STATUS:               ID:20150102123815     3
 2015-01-02-1238-15M.COL___280                                                 6
 STAT SP IPHASW D HRMM SECON CODA AMPLIT PERI AZIMU VELO AIN AR TRES W  DIS CAZ7
 BAR2 EZ EP       1244  3.21                             171   -0.0110 24.0 182 
 BAR2 EZ ES       1244 19.07                             171    0.0810 24.0 182 
 BAR2 EZ I        1244 19.73        14.9 0.28            169           24.0 182 
 BRR  HZ EP       1244  4.53                             154    0.0310 68.0 299 
 BRR  HN ES       1244 22.07                             154    0.8110 68.0 299 
 BRR  HZ I        1244 25.97        11.6 0.28            153           68.0 299 
 RUS  HZ EP       1244  7.27                             144   -0.0410  102 174 
 RUS  HE ES       1244 25.88                             144   -0.4010  102 174 
 RUS  HZ I        1244 27.25         4.0 0.26            145            102 174 
 PTB  HZ EP       1244 10.16                             134    0.05 9  145 258 
 PTB  HE ES       1244 30.95                             134   -0.31 9  145 258 
 PTB  HZ I        1244 33.52         5.4 0.14            133            145 258 
 SPBC HZ EP       1244 12.14                             130    0.37 9  162 218 
 SPBC HN ES       1244 33.52                             130   -0.69 9  162 218 
 SPBC HZ I        1244 40.10         6.7 0.10            130            162 218 
 ZAR  HN ES       1244 40.95                             124    0.22 9  201 292 
 SML  HZ EP       1244 19.67                             119    0.01 8  241 336 
 SML  HN ES       1244 47.40                             119   -0.85 8  241 336 
 SML  HZ I        1244 50.37         7.0 0.26            120            241 336 
 CHI  HZ EP       1244 21.29                             118    0.30 8  249 194 
 CHI  HN ES       1244 50.96                             118    0.34 8  249 194 
 CHI  HZ I        1244 54.16         2.7 0.64            119            249 194 
                                                                                
