 2014  9 2 1519 14.5 L   6.747 -73.137143.7  RSN  5 0.3 1.6LRSN                1
 GAP=234        0.65       5.5     6.2  8.2  0.1711E+02  0.1438E+02  0.7474E+01E
 Epicentro: LOS SANTOS - SANTANDER                                             3
 ACTION:UPD 14-10-03 23:01 OP:nd   STATUS:               ID:20140902151914 L   I
 OLDACT:REG 14-09-02 20:25 OP:fm   STATUS:               ID:20140902151818     3
 2014-09-02-1518-18M.COL___260                                                 6
 STAT SP IPHASW D HRMM SECON CODA AMPLIT PERI AZIMU VELO AIN AR TRES W  DIS CAZ7
 BRR  HZ EP   1   1519 36.02                             151    0.36 8 74.9 302 
 BRR  HN ES   1   1519 52.46                             151    0.31 8 74.9 302 
 BRR  HZ I        1519 59.98         9.5 0.40            151           74.9 302 
 RUS  HZ EP   1   1519 37.73                             145    0.08 8 94.7 176 
 RUS  HN ES   1   1519 55.43                             145   -0.26 8 94.7 176 
 RUS  HZ I        1519 58.20         1.7 0.38            154           94.7 176 
 PTB  HZ EP       1519 41.07                             132   -0.2410  148 261 
 PTB  HN ES   2   1520  1.85                             132   -0.36 5  148 261 
 PTB  HZ I        1520  7.98         5.5 0.22            136            148 261 
 ZAR  HE ES   1   1520 12.18                             121   -0.43 7  207 294 
 ZAR  HZ I        1520 18.73         5.4 0.52            127            207 294 
 GUY2CHN ES   1   1520 32.10                             112    0.64 6  299 236 
 GUY2CHZ I        1520 41.03         3.1 0.76                           299 236 
                                                                                
