 2013  9 2 1221 13.8 L   6.726 -73.027146.9  RSN  6 0.4 1.7LRSN                1
 GAP=156        0.80       5.3     7.4  7.4  0.1045E+02 -0.8427E+01 -0.1020E+02E
 Epicentro: ARATOCA - SANTANDER                                                3
 ACTION:UPD 13-10-22 09:19 OP:ep   STATUS:               ID:20130902122113 L   I
 OLDACT:UP  13-09-02 19:04 OP:mh   STATUS:               ID:20130902121959     3
 OLDACT:REG 13-09-02 15:05 OP:mh   STATUS:               ID:20130902121959     3
 2013-09-02-1219-59M.COL___269                                                 6
 STAT SP IPHASW D HRMM SECON CODA AMPLIT PERI AZIMU VELO AIN AR TRES W  DIS CAZ7
 BAR2 SZ EP   1   1221 33.39                             171   -0.17 7 22.7 229 
 BAR2 SZ ES   1   1221 48.41                             171   -0.56 7 22.7 229 
 BAR2 SZ I        1221 49.27         5.9 0.16            170           22.7 229 
 PAM  SZ EP       1221 36.40                             151    0.2910 76.8  28 
 PAM  SN ES   2   1221 53.19                             151   -0.32 5 76.8  28 
 PAM  SZ I        1221 55.08         9.7 0.54            151           76.8  28 
 BRR  HZ EP   1   1221 35.50                             148   -0.51 7 86.6 299 
 BRR  HN ES       1221 53.76                             148    0.4210 86.6 299 
 BRR  HN I        1221 54.96        13.0 0.22            146           86.6 299 
 RUS  HZ EP   1   1221 37.44                             147    0.34 7 92.4 184 
 RUS  HN ES       1221 55.32                             147    0.0510 92.4 184 
 RUS  HZ I        1221 56.90         4.0 0.24            148           92.4 184 
 ZAR  HZ EP   1   1221 47.46                             121   -0.45 6  219 293 
 ZAR  HN ES   4   1222 12.26                             121   -2.25 0  219 293 
 ZAR  HZ I        1222 17.43         3.9 0.28            120            219 293 
 SML  HZ EP   4   1221 49.56                             116   -2.35 0  257 333 
 SML  HN ES   4   1222 18.25                             116   -3.39 0  257 333 
 SML  HZ I        1222 25.20         5.2 0.24            116            257 333 
                                                                                
