 2015  5 2 1539 45.3 L   6.794 -73.156140.3  RSN 12 0.4 2.2LRSN                1
 GAP=135        1.00       2.5     3.8  5.2 -0.1639E+01  0.7314E+01  0.2191E+00E
 Epicentro: LOS SANTOS - SANTANDER                                             3
 ACTION:UPD 15-09-10 22:00 OP:cam  STATUS:               ID:20150502153945 L   I
 OLDACT:REG 15-05-02 20:56 OP:ak   STATUS:               ID:20150502153745     3
 2015-05-02-1537-45M.COL___270                                                 6
 STAT SP IPHASW D HRMM SECON CODA AMPLIT PERI AZIMU VELO AIN AR TRES W  DIS CAZ7
 BAR2 EZ EP       1540  4.01                             170   -0.2410 22.5 187 
 BAR2 EZ ES       1540 19.00                             170   -0.0410 22.5 187 
 BAR2 EZ I        1540 20.36        39.1 0.20            170           22.5 187 
 BRR  HZ IP     C 1540  6.11                             152    0.2910 70.5 299 
 BRR  HN ES       1540 21.59                             152   -0.2310 70.5 299 
 BRR  HZ I        1540 24.30        27.9 0.12            150           70.5 299 
 PAM  SZ IP     C 1540  6.99                             149   -0.0210 78.7  40 
 PAM  SN ES       1540 24.45                             149    0.5010 78.7  40 
 PAM  SZ I        1540 25.86        12.7 0.18            153           78.7  40 
 RUS  HZ EP       1540  8.26                             143   -0.2110  100 175 
 RUS  HN ES       1540 26.39                             143   -0.1610  100 175 
 RUS  HZ I        1540 27.49        15.9 0.44            145            100 175 
 OCA  HZ EP       1540 13.48                             128    0.24 9  161 354 
 OCA  HN ES       1540 35.08                             128    0.05 9  161 354 
 OCA  HZ I        1540 37.63        51.8 0.20            130            161 354 
 SPBC HZ EP       1540 13.20                             128   -0.06 9  162 219 
 SPBC HN ES       1540 35.29                             128    0.22 9  162 219 
 SPBC HZ I        1540 36.62        30.8 0.11            129            162 219 
 ZAR  HZ EP       1540 16.98                             121   -0.32 9  203 292 
 ZAR  HN ES       1540 43.10                             121    0.83 9  203 292 
 ZAR  HZ I        1540 48.34        20.6 0.31            122            203 292 
 NOR  HZ EP       1540 20.57                             117    0.01 8  233 234 
 NOR  HN ES       1540 47.25                             117   -0.83 8  233 234 
 NOR  HZ I        1540 53.42        13.3 0.20            118            233 234 
 SML  HZ EP       1540 21.00                             116   -0.63 8  244 336 
 SML  HN ES       1540 49.19                             116   -0.79 8  244 336 
 SML  HZ I        1540 52.64        26.2 0.07            117            244 336 
 CHI  HZ EP       1540 22.43                             116   -0.16 8  248 195 
 CHI  HN ES       1540 51.75                             116    0.07 8  248 195 
 CHI  HZ I        1540 57.13         6.0 0.26            117            248 195 
 HEL  HZ EP       1540 25.91                             114    0.82 8  271 256 
 HEL  HN ES       1540 55.73                             114   -0.40 8  271 256 
 HEL  HZ I        1541  3.19         7.5 0.60            114            271 256 
 GUY2CHZ EP       1540 29.28                             111    0.78 7  300 235 
 GUY2CHE ES       1541  2.63                             111    0.43 7  300 235 
 GUY2CHZ I        1541  8.98         3.8 0.33                           300 235 
                                                                                
