 2011  9 2 1107 17.3 L   6.840 -73.051135.5  RSN  4 0.2 1.4LRSN                1
 GAP=213        0.45       6.2    10.8  7.1  0.5188E+02 -0.4028E+02 -0.2279E+02E
 Epicentro: LOS SANTOS - SANTANDER                                             3
 ACTION:UPD 12-07-13 15:55 OP:ep   STATUS:               ID:20110902110717 L   I
 2011-09-02-1102-29S.COL___171                                                 6
 STAT SP IPHASW D HRMM SECON CODA AMPLIT PERI AZIMU VELO AIN AR TRES W  DIS CAZ7
 GIR2 SZ EP   1   11 7 36.03                             167    0.26 7 30.7 329 
 BAR2 SZ EP   1   11 7 35.89                             166   -0.03 7 31.0 208 
 BAR2 SZ I        11 7 36.24         5.7 0.09                          31.0 208 
 BAR2 SZ ES   1   11 7 50.16                             166   -0.26 7 31.0 208 
 BRR  HZ EP   1   11 7 37.72                             148   -0.13 7 78.8 292 
 BRR  HZ I        11 7 38.06        10.0 0.18                          78.8 292 
 BRR  HN ES   1   11 7 53.94                             148    0.08 7 78.8 292 
 RUS  HZ EP   2   11 7 40.10                             140   -0.31 5  105 182 
 RUS  HN ES   1   11 7 58.64                             140    0.22 7  105 182 
 RUS  HZ I        11 7 59.30         2.7 0.30                           105 182 
                                                                                
