 2013  6 2 1712  1.4 L   6.792 -73.151147.3  RSN  7 0.4 2.0LRSN                1
 GAP=136        1.02       4.2     5.3  6.6 -0.2255E+01  0.4123E+01  0.1722E+01E
 Epicentro: LOS SANTOS - SANTANDER                                             3
 ACTION:UPD 14-01-08 09:51 OP:ep   STATUS:               ID:20130602171201 L   I
 2013-06-02-1708-52M.COL___224                                                 6
 STAT SP IPHASW D HRMM SECON CODA AMPLIT PERI AZIMU VELO AIN AR TRES W  DIS CAZ7
 BAR2 SZ EP       1712 21.11                             171   -0.1010 22.3 189 
 BAR2 SZ ES       1712 36.64                             171   -0.0110 22.3 189 
 BAR2 SZ I        1712 37.94        14.0 0.18            171           22.3 189 
 GIR2 SZ EP       1712 21.28                             167   -0.0210 32.1 352 
 GIR2 SZ ES       1712 36.87                             167    0.0710 32.1 352 
 BRR  HZ EP       1712 23.12                             153    0.3910 71.2 299 
 BRR  HN ES       1712 40.09                             153    0.7310 71.2 299 
 BRR  HE I        1712 43.69        24.6 0.20            152           71.2 299 
 PAM  SZ EP       1712 24.19                             151    0.3310 78.5  39 
 PAM  SE ES       1712 41.19                             151   -0.1810 78.5  39 
 RUS  HZ EP       1712 25.00                             144   -0.2610 99.7 176 
 RUS  HN ES       1712 43.79                             144   -0.0610 99.7 176 
 RUS  HE I        1712 44.60        17.3 0.20            146           99.7 176 
 PTB  HZ EP       1712 28.78                             132    0.33 9  147 259 
 PTB  HN ES       1712 48.81                             132   -0.72 9  147 259 
 PTB  HE I        1712 50.77        15.7 0.32            133            147 259 
 OCA  HE ES       1712 51.50                             130   -0.67 9  161 353 
                                                                                
