 2015  9 2 1336 31.0 L   6.756 -73.170133.6  RSN  5 0.4 1.7LRSN                1
 GAP=241        0.94       5.9     5.5  7.5  0.1270E+02  0.1020E+02 -0.8010E+01E
 Epicentro: LOS SANTOS - SANTANDER                                             3
 ACTION:UPD 15-10-28 16:23 OP:cam  STATUS:               ID:20150902133631 L   I
 OLDACT:REG 15-09-02 21:27 OP:ak   STATUS:               ID:20150902132749     3
 2015-09-02-1327-49M.COL___346                                                 6
 STAT SP IPHASW D HRMM SECON CODA AMPLIT PERI AZIMU VELO AIN AR TRES W  DIS CAZ7
 BAR2 EZ EP       1336 49.03                             172   -0.0110 18.2 184 
 BAR2 EZ ES       1337  3.28                             172    0.1510 18.2 184 
 BAR2 EZ I        1337  6.32        12.5 0.20            172           18.2 184 
 RUS  HZ EP       1336 53.50                             142    0.3010 96.0 174 
 RUS  HE ES       1337 10.17                             142   -0.3710 96.0 174 
 PTB  HZ EP       1336 56.08                             130   -0.56 9  144 260 
 PTB  HN ES       1337 16.54                             130   -0.12 9  144 260 
 PTB  HZ I        1337 19.07         5.4 0.11            131            144 260 
 SPBC HZ EP       1336 57.69                             127   -0.35 9  158 219 
 SPBC HN ES       1337 19.72                             127    0.58 9  158 219 
 SPBC HZ I        1337 23.48         8.7 0.19            129            158 219 
 ZAR  HZ EP       1337  3.21                             120    0.62 9  203 294 
 ZAR  HN ES       1337 27.10                             120   -0.15 9  203 294 
 ZAR  HZ I        1337 34.09         5.0 0.17            121            203 294 
                                                                                
