 2014 12 2 1947 41.6 L   6.807 -73.172151.4  RSN  4 0.2 1.5LRSN                1
 GAP=276        0.64       5.9     4.4  5.5  0.3898E+01  0.5175E+01 -0.3568E+01E
 Epicentro: LOS SANTOS - SANTANDER                                             3
 ACTION:UPD 15-02-10 16:59 OP:nd   STATUS:               ID:20141202193750 L   I
 OLDACT:UP  14-12-03 10:38 OP:mh   STATUS:               ID:20141202193750 L   3
 OLDACT:UPD 14-12-03 10:15 OP:nlst STATUS:               ID:20141202193750 L   3
 2014-12-02-1937-50M.COL___309                                                 6
 STAT SP IPHASW D HRMM SECON CODA AMPLIT PERI AZIMU VELO AIN AR TRES W  DIS CAZ7
 BAR2 SZ EP   1   1948  2.02                             171    0.10 7 23.8 183 
 BAR2 SZ ES       1948 17.55                             171   -0.2110 23.8 183 
 BAR2 SZ I        1948 20.24         5.7 0.29            165           23.8 183 
 RUS  HZ EP       1948  6.38                             145    0.3910  102 174 
 RUS  HN ES       1948 25.02                             145    0.0210  102 174 
 RUS  HZ I        1948 26.97         4.1 0.44            143            102 174 
 PTB  HZ EP       1948  8.63                             134   -0.17 9  145 258 
 PTB  HN ES       1948 30.29                             134    0.28 9  145 258 
 PTB  HZ I        1948 32.20         5.0 0.42            133            145 258 
 SPBC HZ EP       1948 10.06                             130   -0.37 9  162 218 
 SPBC HN ES       1948 32.85                             130   -0.06 9  162 218 
 SPBC HZ I        1948 39.31         5.2 0.38            130            162 218 
                                                                                
