 2016  9 2 1846  2.7 L   6.797 -73.158149.4  RSN  4 0.0 1.5LRSN                1
 GAP=141        0.31       2.4     2.0  4.4 -0.8365E+00 -0.8898E+00 -0.4318E+01E
 Epicentro: LOS SANTOS - SANTANDER                                             3
 ACTION:UPD 17-08-17 21:05 OP:lp   STATUS:               ID:20160902184602 L   I
 OLDACT:REG 16-09-02 21:48 OP:edw  STATUS:               ID:20160902183734     3
 2016-09-02-1838-00M.COL___353                                                 6
 STAT SP IPHASW D HRMM SECON CODA AMPLIT PERI AZIMU VELO AIN AR TRES W  DIS CAZ7
 PAM  EZ EP       1846 25.36                             151    0.0410 78.5  40 
 PAM  EZ I        1846 44.92         3.5 0.39            140           78.5  40 
 RUS  HZ EP       1846 26.67                             145   -0.0810  100 175 
 RUS  HN ES       1846 45.55                             145    0.0010  100 175 
 RUS  HZ I        1846 46.31         4.1 0.33            156            100 175 
 PTB  HE ES       1846 50.94                             133   -0.04 9  146 259 
 SPBC HZ EP       1846 31.37                             130    0.04 9  162 219 
 SPBC HN ES       1846 53.75                             130    0.05 9  162 219 
 SPBC HZ I        1846 58.36         5.2 0.28            138            162 219 
                                                                                
