 2017  3 2 1143 29.1 L   6.774 -73.167144.6  RSN 16 0.4 2.3LRSN                1
 GAP= 98        0.91       3.2     3.0  4.6  0.1082E+01  0.3651E+01  0.2034E+01E
 Epicentro: LOS SANTOS - SANTANDER                                             3
 ACTION:UPD 17-05-25 18:34 OP:jn   STATUS:               ID:20170302114329 L   I
 OLDACT:REG 17-03-02 20:17 OP:lv   STATUS:               ID:20170302113745     3
 2017-03-02-1138-00M.COL___385                                                 6
 STAT SP IPHASW D HRMM SECON CODA AMPLIT PERI AZIMU VELO AIN AR TRES W  DIS CAZ7
 BAR2 EZ IP     C 1143 48.47                             172   -0.0610 20.1 185 
 BAR2 EZ ES       1144  3.58                             172   -0.1010 20.1 185 
 BAR2 EZ I        1144  4.67        84.6 0.22            167           20.1 185 
 BRR  HZ EP       1143 50.44                             153    0.3510 70.6 302 
 BRR  HN ES       1144  6.95                             153    0.4910 70.6 302 
 BRR  HZ I        1144  9.65        47.7 0.14            150           70.6 302 
 PAM  EZ EP       1143 51.54                             150    0.1210 81.2  40 
 PAM  EN ES       1144  8.65                             150   -0.1810 81.2  40 
 PAM  EZ I        1144 11.07        26.7 0.26            155           81.2  40 
 RUS  HZ EP       1143 52.37                             144   -0.1710 97.9 175 
 RUS  HN ES       1144 10.96                             144    0.1310 97.9 175 
 RUS  HZ I        1144 11.87        40.3 0.23            143           97.9 175 
 PTB  HZ EP       1143 55.05                             132   -0.66 9  145 260 
 PTB  HN ES       1144 16.04                             132   -0.42 9  145 260 
 PTB  HZ I        1144 18.13        35.2 0.24            130            145 260 
 TAM  HZ EP       1143 56.73                             130   -0.11 9  157 104 
 TAM  HN ES   4   1144 16.39                             130   -2.08 0  157 104 
 TAM  HZ I        1144 17.47        19.9 0.22            133            157 104 
 ZAR  HZ EP       1144  1.38                             122    0.02 9  203 293 
 ZAR  HN ES       1144 27.08                             122    0.56 9  203 293 
 ZAR  HZ I        1144 32.88        25.1 0.26            122            203 293 
 NOR  HZ EP       1144  4.78                             119    0.41 8  231 235 
 NOR  HN ES   4   1144 33.17                             119    1.29 0  231 235 
 NOR  HZ I        1144 37.41        19.1 0.21            117            231 235 
 CHI  HZ EP       1144  6.33                             117   -0.03 8  245 195 
 CHI  HN ES       1144 35.23                             117   -0.19 8  245 195 
 CHI  HZ I        1144 41.62         6.6 0.33            117            245 195 
 ROSC BZ EP   9   1144  7.98                             117    1.23 0  249 211 
 ROSC BN ES       1144 37.82                                    0.48 8  249 211 
 ROSC BZ I        1144 42.68        18.9 0.39            116            249 211 
 HEL  HZ EP   4   1144 10.45                             115    1.53 0  269 256 
 HEL  HN ES   4   1144 37.25                             115   -2.72 0  269 256 
 HEL  HZ I        1144 48.03        14.8 0.22            114            269 256 
 URE  HZ EP       1144  9.38                             113   -0.61 7  283 293 
 URE  HN ES       1144 41.22                             113   -0.66 7  283 293 
 URE  HZ I        1144 46.94        14.1 0.24            113            283 293 
 ELA  HZ EP   4   1144 18.95                             110    3.47 0  325 230 
 ELA  HN ES   4   1144 57.50                             110    5.85 0  325 230 
 ELA  HZ I        1144 59.85         8.3 0.36            110            325 230 
 CBOC HZ EP       1144 16.36                             110    0.76 7  330 252 
 CBOC HE ES       1144 51.90                             110    0.03 7  330 252 
 CBOC HZ I        1145  4.04         5.5 0.56            109            330 252 
 DBB  EZ EP   4   1144 16.43                             109    0.15 0  337 275 
 DBB  EN ES   4   1144 51.95                             109   -1.13 0  337 275 
 DBB  EZ I        1144 55.57         6.2 0.11            109            337 275 
 ORTC HZ EP       1144 23.28                             106    0.74 6  392 216 
 ORTC HN ES   4   1145  5.86                             106    1.64 0  392 216 
 ORTC HZ I        1145 11.24         6.2 0.42            106            392 216 
                                                                                
