 2013  8 2 1632  1.5 L   6.815 -73.130147.3  RSN 10 0.5 2.2LRSN                1
 GAP=191        1.11       5.2     5.6  6.1  0.8072E+01  0.8885E+01  0.5963E+01E
 Epicentro: LOS SANTOS - SANTANDER                                             3
 ACTION:UPD 14-01-14 08:58 OP:ep   STATUS:               ID:20130802163201 L   I
 OLDACT:UP  13-08-02 15:48 OP:cam  STATUS:               ID:20130802162959     3
 OLDACT:REG 13-08-02 15:00 OP:cam  STATUS:               ID:20130802162959     3
 2013-08-02-1629-59M.COL___269                                                 6
 STAT SP IPHASW D HRMM SECON CODA AMPLIT PERI AZIMU VELO AIN AR TRES W  DIS CAZ7
 BAR2 SZ EP       1632 21.38                             170    0.0110 25.2 193 
 BAR2 SZ ES       1632 36.57                             170   -0.2910 25.2 193 
 BAR2 SZ I        1632 37.51        41.9 0.27            151           25.2 193 
 GIR2 SZ EP       1632 21.21                             168   -0.1210 30.0 347 
 GIR2 SZ ES   1   1632 37.40                             168    0.60 7 30.0 347 
 BRR  HZ EP     D 1632 23.16                             153    0.2910 72.0 297 
 BRR  HZ I        1632 23.40        62.6 0.26            144           72.0 297 
 BRR  HN ES       1632 40.23                             153    0.7010 72.0 297 
 RUS  HZ EP       1632 25.13                             144   -0.3910  102 177 
 RUS  HN ES       1632 44.09                             144   -0.1610  102 177 
 RUS  HZ I        1632 46.15        13.2 0.30            124            102 177 
 PTB  HZ EP       1632 28.30                             132   -0.48 9  150 258 
 PTB  HN ES       1632 49.18                             132   -0.88 9  150 258 
 PTB  HZ I        1632 55.41        20.5 0.36            118            150 258 
 ZAR  HZ EP       1632 34.22                             123    0.06 9  205 292 
 ZAR  HN ES       1632 59.58                             123   -0.04 9  205 292 
 ZAR  HZ I        1633  4.83        15.4 0.26            112            205 292 
 NOR  HZ EP       1632 38.23                             119    0.65 8  237 234 
 NOR  HN ES       1633  5.85                             119    0.14 8  237 234 
 NOR  HZ I        1633 11.80        10.6 0.20            107            237 234 
 CHI  HZ EP       1632 39.95                             117    0.44 8  251 195 
 CHI  HZ I        1633 12.35         7.2 0.34            106            251 195 
 GUY2CHZ EP   4   1632 46.98                             112    1.53 0  304 235 
 PRA  HZ EP       1632 56.00                             107    0.66 6  394 210 
 PRA  HZ I        1633 45.48         5.0 0.22            100            394 210 
 SJC  HZ EP   1   1632 55.73                             106   -1.34 4  409 327 
 SJC  HN ES   4   1633 37.96                             106   -2.45 0  409 327 
 SJC  HZ I        1633 40.11         2.9 0.66            101            409 327 
                                                                                
