 2017 11 2 1018 45.3 L   5.891 -73.774116.8  RSN  4 0.1 1.1LRSN                1
 GAP=224        0.32       3.1     2.2  5.0  0.2286E+01  0.1975E+01 -0.4701E+00E
 Epicentro: JESUS MARIA - SANTANDER                                            3
 ACTION:UPD 17-12-12 19:51 OP:rebc STATUS:               ID:20171102101845 L   I
 OLDACT:UP  17-11-02 21:39 OP:mg   STATUS:               ID:20171102100738     3
 OLDACT:UP  17-11-02 21:38 OP:mg   STATUS:               ID:20171102100738     3
 OLDACT:UP  17-11-02 21:37 OP:mg   STATUS:               ID:20171102100738     3
 OLDACT:UP  17-11-02 21:36 OP:mg   STATUS:               ID:20171102100738     3
 OLDACT:UP  17-11-02 21:35 OP:mg   STATUS:               ID:20171102100738     3
 OLDACT:REG 17-11-02 19:46 OP:mg   STATUS:               ID:20171102100738     3
 2017-11-02-1008-00M.COL___426                                                 6
 STAT SP IPHASW D HRMM SECON CODA AMPLIT PERI AZIMU VELO AIN AR TRES W  DIS CAZ7
 RUS  HZ EP   3   1019  4.48                             145    0.02 3 76.5  90 
 RUS  HN ES   1   1019 19.49                             145    0.07 8 76.5  90 
 RUS  HZ I        1019 20.72         1.9 0.30            146           76.5  90 
 BAR2 EZ EP   2   1019  5.95                             136   -0.10 5  101  40 
 BAR2 EZ ES   2   1019 21.91                             136   -0.32 5  101  40 
 BAR2 EZ I        1019 22.45         5.8 0.24            137            101  40 
 PTB  HZ EP   1   1019  5.90                             135   -0.07 7  104 314 
 PTB  HN ES       1019 22.10                             135   -0.0010  104 314 
 PTB  HZ I        1019 23.01         1.3 0.11            137            104 314 
 BRR  HZ EP   2   1019  8.91                             127    0.16 5  135   3 
 BRR  HN ES       1019 27.12                             127    0.0710  135   3 
 BRR  HZ I        1019 29.08         3.3 0.27            128            135   3 
                                                                                
