 2011  1 2 1127 34.4 L   6.871 -73.121144.8  RSN  8 0.4 2.0LRSN                1
 GAP=160        0.61       4.4     7.9  7.6 -0.1709E+02  0.3231E+02 -0.3272E+01E
 Epicentro: LOS SANTOS - SANTANDER                                             3
 ACTION:UP  11-02-08 08:37 OP:pat  STATUS:               ID:20110102112734 L   I
 2011-01-02-1120-00M.COL___137                                                 6
 STAT SP IPHASW D HRMM SECON CODA AMPLIT PERI AZIMU VELO SNR AR TRES W  DIS CAZ7
 BAR2 SZ EP   1   1127 54.02                             167    -0.1 7   32 193 
 BAR2 SZ ES   2   1128  9.22                             167    -0.3 5   32 193 
 BAR2 SZ I        1128 10.92        20.7 0.44                            32 193 
 RUS  HZ EP   1   1127 58.54                             141    -0.1 7  108 178 
 RUS  HN ES   2   1128 17.65                             141     0.1 5  108 178 
 RUS  HZ I        1128 18.97         9.8 0.30                           108 178 
 GRA  SZ EP   1   1127 59.13                             139     0.2 7  117  17 
 GRA  SZ ES   2   1128 18.24                             139     0.2 5  117  17 
 GRA  SZ I        1128 19.38        21.5 0.33                           117  17 
 NOR  SZ EP   1   1128 10.78                             117    -0.1 6  242 233 
 NOR  SE ES   2   1128 40.12                             117     0.9 4  242 233 
 CHI  HZ EP   1   1128 13.01                             116     0.0 6  257 195 
 CHI  HZ I        1128 14.62         5.6 0.24                           257 195 
 CHI  HE ES   2   1128 42.99                             116    -0.1 4  257 195 
 HEL  HZ EP   1   1128 14.37                             114    -0.7 6  277 254 
 HEL  HZ I        1128 52.56         5.9 0.24                           277 254 
 GUY  SZ EP   1   1128 19.02                             111     0.2 5  308 234 
 GUY  SZ I        1128 21.80        10.4 0.49                           308 234 
 PRA  HZ EP   1   1128 29.48                             106     0.6 4  400 209 
 PRA  HE ES   2   1129 11.21                             106    -0.1 3  400 209 
                                                                                
