 2014  5 2 1851 17.8 L   6.810 -73.168143.9  RSN 10 0.4 2.5LRSN                1
 GAP=133        0.85       2.9     3.7  5.7 -0.2235E+01  0.4240E+01  0.8435E-01E
 Epicentro: LOS SANTOS - SANTANDER                                             3
 ACTION:UPD 15-03-16 16:54 OP:nd   STATUS:               ID:20140502185117 L   I
 OLDACT:UP  14-05-02 22:14 OP:mh   STATUS:               ID:20140502185000     3
 OLDACT:UP  14-05-02 22:13 OP:mh   STATUS:               ID:20140502185000     3
 OLDACT:REG 14-05-02 20:52 OP:spq  STATUS:               ID:20140502185000     3
 2014-05-02-1850-00M.COL___273                                                 6
 STAT SP IPHASW D HRMM SECON CODA AMPLIT PERI AZIMU VELO AIN AR TRES W  DIS CAZ7
 BRR  HZ IP     C 1851 39.03                             153    0.4810 68.5 299 
 BRR  HN ES   1   1851 55.31                             153    0.54 7 68.5 299 
 PAM  SZ EP     C 1851 39.94                             150    0.1210 78.1  41 
 PAM  SN ES   1   1851 57.22                             150    0.20 7 78.1  41 
 PAM  SZ I        1851 59.54        63.9 0.35            150           78.1  41 
 RUS  HZ EP       1851 41.22                             143   -0.2010  102 175 
 RUS  HN ES       1851 59.51                             143   -0.3710  102 175 
 PTB  HZ EP       1851 44.00                             132   -0.37 9  146 258 
 PTB  HN ES       1852  4.88                             132   -0.25 9  146 258 
 SPBC HZ EP       1851 46.07                             129    0.02 9  163 218 
 SPBC HN ES       1852  8.30                             129    0.18 9  163 218 
 NOR  HZ EP       1851 53.44                             118    0.21 8  233 234 
 NOR  HN ES       1852 20.50                             118   -0.40 8  233 234 
 SML  HZ EP       1851 53.61                             117   -0.44 8  242 336 
 SML  HN ES   1   1852 21.72                             117   -0.64 6  242 336 
 CHI  HZ EP       1851 55.33                             117   -0.07 8  249 195 
 CHI  HN ES       1852 24.99                             117    0.22 8  249 195 
 ROSC BZ EP   4   1851 57.08                             116    1.34 0  252 210 
 ROSC BN ES   4   1852 28.35                             116    2.98 0  252 210 
 HEL  HZ EP   1   1851 58.40                             115    0.76 6  270 255 
 HEL  HN ES   1   1852 29.27                             115    0.52 6  270 255 
 GUY2CHZ EP   1   1852  2.01                             112    0.89 5  300 234 
 GUY2CHN ES   1   1852 34.25                             112   -0.70 5  300 234 
 SJC  HZ EP   4   1852 10.74                             105   -2.24 0  407 327 
 SJC  HN ES   4   1852 52.05                             105   -4.01 0  407 327 
                                                                                
