 2014  9 2 1239 31.0 L   6.977 -73.155148.1  RSN  7 0.5 1.7LRSN                1
 GAP=203        1.05       6.2     7.0  8.8  0.1832E+02 -0.5807E-01 -0.1289E+02E
 Epicentro: GIRON - SANTANDER                                                  3
 ACTION:UPD 14-10-03 23:01 OP:nd   STATUS:               ID:20140902123931 L   I
 OLDACT:REG 14-09-02 20:19 OP:fm   STATUS:               ID:20140902123819     3
 2014-09-02-1238-19M.COL___260                                                 6
 STAT SP IPHASW D HRMM SECON CODA AMPLIT PERI AZIMU VELO AIN AR TRES W  DIS CAZ7
 BAR2 SZ EP     D 1239 51.85                             163    0.3710 42.6 184 
 BAR2 SZ ES   1   1240  6.90                             163   -0.53 7 42.6 184 
 BAR2 SZ I        1240 15.04         5.9 0.24            169           42.6 184 
 BRR  HN ES   1   1240  9.18                             156    0.81 7 63.2 283 
 BRR  HZ I        1240 11.03        15.4 0.30            159           63.2 283 
 RUS  HZ EP   1   1239 56.95                             139    0.45 7  120 176 
 RUS  HN ES   1   1240 15.94                             139   -0.42 7  120 176 
 RUS  HZ I        1240 17.62         3.2 0.30            146            120 176 
 PTB  HZ EP       1239 58.63                             132    0.07 9  152 252 
 PTB  HN ES       1240 19.54                             132   -0.48 9  152 252 
 PTB  HZ I        1240 25.36         6.5 0.24            138            152 252 
 ZAR  HZ EP   1   1240  1.97                             124   -0.90 6  197 287 
 ZAR  HN ES       1240 28.21                             124    0.51 9  197 287 
 ZAR  HZ I        1240 30.12         3.8 0.10            129            197 287 
 SML  HZ EP   1   1240  6.04                             120    0.17 6  226 333 
 SML  HN ES   1   1240 32.31                             120   -0.72 6  226 333 
 SML  HZ I        1240 39.52         7.8 0.10            124            226 333 
 GUY2CHZ EP   1   1240 16.01                             112    0.03 5  312 232 
 GUY2CHN ES   4   1240 54.65                             112    3.62 0  312 232 
 GUY2CHZ I        1241  0.33         1.8 0.22                           312 232 
                                                                                
