 2017  5 2 1551 42.7 L   6.773 -73.140151.0  RSN  6 0.4 1.9LRSN                1
 GAP=138        1.01       4.8     4.4  8.0 -0.1383E+01  0.8917E+01  0.1793E+01E
 Epicentro: LOS SANTOS - SANTANDER                                             3
 ACTION:UPD 17-06-16 13:32 OP:jn   STATUS:               ID:20170502155142 L   I
 OLDACT:REG 17-05-02 20:43 OP:ar   STATUS:               ID:20170502154744     3
 2017-05-02-1548-00M.COL___370                                                 6
 STAT SP IPHASW D HRMM SECON CODA AMPLIT PERI AZIMU VELO AIN AR TRES W  DIS CAZ7
 BRR  HZ IP     C 1552  4.69                             153    0.2010 73.2 300 
 BRR  HE ES       1552 22.20                             153    0.6910 73.2 300 
 BRR  HZ I        1552 23.77        16.8 0.14            150           73.2 300 
 PAM  EZ EP       1552  5.68                             151    0.1310 79.3  38 
 PAM  EE ES       1552 23.06                             151   -0.3410 79.3  38 
 PAM  EZ I        1552 25.22        10.9 0.60            156           79.3  38 
 RUS  HZ EP     D 1552  6.93                             146    0.2110 97.6 176 
 RUS  HE ES       1552 25.33                             146   -0.1610 97.6 176 
 RUS  HZ I        1552 26.09         8.4 0.28            148           97.6 176 
 PTB  HZ EP       1552  9.78                             133   -0.29 9  148 260 
 PTB  HN ES       1552 30.64                             133   -0.80 9  148 260 
 PTB  HZ I        1552 40.67         8.2 0.28            133            148 260 
 ZAR  HZ EP       1552 15.47                             123   -0.16 8  206 293 
 ZAR  HE ES       1552 41.31                             123   -0.03 8  206 293 
 ZAR  HZ I        1552 47.48        11.3 0.44            124            206 293 
 NOR  HZ EP   4   1552 21.68                             120    3.11 0  233 235 
 NOR  HE ES       1552 47.11                             120    0.53 8  233 235 
 NOR  HZ I        1552 52.06         5.3 0.18            121            233 235 
                                                                                
