 2012  8 2 1505 48.4 L   6.763 -73.159145.5  RSN  7 0.4 2.2LRSN                1
 GAP= 97        0.81       5.0     3.9  6.0  0.2031E+01  0.9136E+00 -0.6804E+00E
 Epicentro: LOS SANTOS - SANTANDER                                             3
 ACTION:UPD 12-09-10 11:53 OP:ep   STATUS:               ID:20120802150548 L   I
 2012-08-02-1500-00M.COL___215                                                 6
 STAT SP IPHASW D HRMM SECON CODA AMPLIT PERI AZIMU VELO AIN AR TRES W  DIS CAZ7
 BAR2 SZ IP       15 6  8.10                             172    0.1410 19.1 188 
 BAR2 SZ I        15 6  8.47        39.4 0.34                          19.1 188 
 BAR2 SZ ES   1   15 6 22.87                             172   -0.31 7 19.1 188 
 BRR  HZ IP     D 15 6  9.97                             152    0.3710 72.0 302 
 BRR  HZ I        15 6 10.21        40.3 0.24                          72.0 302 
 BRR  HE ES   1   15 6 26.91                             152    0.80 7 72.0 302 
 PAM  SZ EP       15 6 10.86                             149   -0.0110 81.5  38 
 PAM  SZ I        15 6 11.07        33.0 0.24                          81.5  38 
 PAM  SN ES   1   15 6 27.77                             149   -0.60 7 81.5  38 
 RUS  HZ EP       15 6 11.99                             145    0.1110 96.6 175 
 RUS  HN ES   1   15 6 30.20                             145    0.04 7 96.6 175 
 RUS  HZ I        15 6 31.52        11.1 0.44                          96.6 175 
 PTB  HZ EP       15 6 14.63                             132   -0.56 9  146 260 
 PTB  HN ES   1   15 6 35.81                             132   -0.24 7  146 260 
 PTB  HZ I        15 6 38.42        13.4 0.14                           146 260 
 TAM  HZ EP       15 6 16.28                             130    0.15 9  155 103 
 TAM  HZ I        15 6 36.93        16.1 0.34                           155 103 
 ZAR  HZ EP       15 6 20.78                             122   -0.11 9  204 293 
 ZAR  HE ES   2   15 6 46.11                             122   -0.09 4  204 293 
 ZAR  HZ I        15 6 52.66        25.0 0.34                           204 293 
                                                                                
