 2013  9 2 1000 22.1 L   6.798 -73.168139.5  RSN 12 0.5 2.2LRSN                1
 GAP=134        0.94       3.3     4.4  6.2 -0.3564E+01  0.1072E+02 -0.1317E+01E
 Epicentro: LOS SANTOS - SANTANDER                                             3
 ACTION:UPD 13-10-22 09:19 OP:ep   STATUS:               ID:20130902100023dL   I
 OLDACT:REG 13-09-02 21:57 OP:mh   STATUS:               ID:20130902095946     3
 2013-09-02-0959-46M.COL___208                                                 6
 STAT SP IPHASW D HRMM SECON CODA AMPLIT PERI AZIMU VELO AIN AR TRES W  DIS CAZ7
 BAR2 SZ EP       10 0 41.07                             170    0.1210 22.8 184 
 BAR2 SZ ES   1   10 0 55.42                             170   -0.25 7 22.8 184 
 BAR2 SZ I        10 0 56.64        23.2 0.18            171           22.8 184 
 BRR  HZ EP   1   10 0 43.10                             152    0.66 7 69.1 300 
 BRR  HN ES   1   10 0 59.14                             152    0.82 7 69.1 300 
 BRR  HZ I        10 1  3.94        14.2 0.44            149           69.1 300 
 BRR  HN I        10 1  4.36        43.5 0.16                          69.1 300 
 PAM  SZ EP   1   10 0 44.05                             149    0.30 7 79.2  41 
 PAM  SN ES       10 1  0.83                             149    0.1810 79.2  41 
 PAM  SZ I        10 1  2.88        42.2 0.46            152           79.2  41 
 RUS  HZ EP   1   10 0 45.54                             142    0.31 7  101 175 
 RUS  HN ES       10 1  3.02                             142   -0.2510  101 175 
 RUS  HZ I        10 1  4.62        18.9 0.26            146            101 175 
 PTB  HZ EP   1   10 0 47.91                             131   -0.41 7  145 259 
 PTB  HN ES       10 1  8.44                             131   -0.34 9  145 259 
 PTB  HZ I        10 1 12.50        10.9 0.48            131            145 259 
 OCA  HZ EP   1   10 0 49.44                             128   -0.48 7  160 354 
 OCA  HN ES       10 1 10.90                             128   -0.72 9  160 354 
 OCA  HN I        10 1 14.98       106.9 0.22            129            160 354 
 ZAR  HZ EP   1   10 0 53.90                             121    0.00 6  202 292 
 ZAR  HN ES   2   10 1 19.51                             121    0.80 4  202 292 
 ZAR  HN I        10 1 21.07        22.6 0.10            121            202 292 
 NOR  HZ EP   1   10 0 57.63                             117    0.41 6  233 234 
 NOR  HN ES       10 1 24.39                             117   -0.24 8  233 234 
 NOR  HN I        10 1 27.90        20.7 0.16            118            233 234 
 SML  HZ EP   1   10 0 57.46                             116   -0.82 6  243 336 
 SML  HE ES   2   10 1 27.01                             116    0.50 4  243 336 
 SML  HN I        10 1 34.54        38.6 0.10            117            243 336 
 HEL  HZ EP       10 1  2.46                             114    0.75 8  270 256 
 HEL  HN ES   2   10 1 31.85                             114   -0.76 4  270 256 
 HEL  HN I        10 1 39.05         5.0 0.54            114            270 256 
 URE  HN ES   4   10 1 32.51                             112   -1.70 0  282 292 
 GUY2CHZ EP   4   10 1  7.52                             111    2.36 0  299 235 
 GUY2CHN ES   4   10 1 40.36                             111    1.60 0  299 235 
 GUY2CHN I        10 1 46.98         5.9 0.48                           299 235 
 COD  HZ EP   4   10 1  9.13                             108   -1.10 0  348 355 
 COD  HN ES   4   10 1 46.84                             108   -0.93 0  348 355 
 PRA  HZ EP   1   10 1 15.57                             105    0.34 4  391 209 
 PRA  HN ES   2   10 1 55.87                             105   -0.81 3  391 209 
 PRA  HN I        10 2  1.26         2.8 0.36            107            391 209 
                                                                                
