 2015  2 2 1149 27.3 L   6.776 -73.153147.4  RSN  4 0.3 1.5LRSN                1
 GAP=213        0.75       5.3     5.1  7.7  0.2088E+01  0.6534E+01 -0.2013E+02E
 Epicentro: LOS SANTOS - SANTANDER                                             3
 ACTION:UPD 15-04-30 21:20 OP:nd   STATUS:               ID:20150202114927 L   I
 OLDACT:REG 15-02-02 22:48 OP:y    STATUS:               ID:20150202114819     3
 2015-02-02-1148-19M.COL___261                                                 6
 STAT SP IPHASW D HRMM SECON CODA AMPLIT PERI AZIMU VELO AIN AR TRES W  DIS CAZ7
 BAR2 EZ EP       1149 47.30                             172    0.1810 20.5 189 
 BAR2 EZ ES       1150  2.56                             172    0.0210 20.5 189 
 BAR2 EZ I        1150  4.09         4.5 0.46            170           20.5 189 
 PTB  HZ EP       1149 54.21                             133   -0.12 9  146 260 
 PTB  HN ES       1150 14.99                             133   -0.39 9  146 260 
 PTB  HZ I        1150 22.68         3.2 0.38            132            146 260 
 ZAR  HN ES       1150 25.95                             123    0.61 9  204 293 
 SML  HZ EP       1150  4.33                             117    0.04 8  246 336 
 SML  HN ES       1150 32.75                             117   -0.36 8  246 336 
 SML  HZ I        1150 36.80         4.5 0.10            119            246 336 
                                                                                
