 2016 10 2 1554 43.6 L   6.998 -73.486109.5  RSN  5 0.4 1.3LRSN                1
 GAP=131        0.86       7.2     4.2  7.3 -0.3971E+01  0.2797E+01 -0.9469E+01E
 Epicentro: SAN VICENTE DE CHUCURI - SANTANDER                                 3
 ACTION:UPD 16-11-09 19:15 OP:rebc STATUS:               ID:20161002155443 L   I
 OLDACT:UP  16-10-03 00:18 OP:dani STATUS:               ID:20161002154742d    3
 OLDACT:DUP 16-10-03 00:14 OP:dani STATUS:               ID:20161002154742d    3
 2016-10-02-1548-00M.COL___375                                                 6
 STAT SP IPHASW D HRMM SECON CODA AMPLIT PERI AZIMU VELO AIN AR TRES W  DIS CAZ7
 BRR  HZ EP       1554 58.49                             165   -0.1910 27.7 296 
 BRR  HN ES       1555 10.28                             165   -0.1510 27.7 296 
 BRR  HZ I        1555 10.82         7.0 0.11            164           27.7 296 
 BAR2 EZ EP   2   1555  1.14                             150    0.80 5 56.0 143 
 BAR2 EZ ES       1555 13.74                             150    0.3610 56.0 143 
 BAR2 EZ I        1555 15.08        12.3 0.20            148           56.0 143 
 PAM  EZ EP       1555  3.29                             136   -0.2210 94.8  66 
 PTB  HZ EP       1555  5.22                             129    0.2110  119 245 
 PTB  HN ES       1555 21.26                             129   -0.4310  119 245 
 PTB  HZ I        1555 26.66         2.0 0.15            126            119 245 
 ZAR  HN ES   2   1555 30.31                             120    1.00 5  161 290 
                                                                                
