 2017 12 2 1059 19.5 L   6.809 -73.140139.7  RSN  5 0.4 1.2LRSN                1
 GAP=137        0.93       5.0     4.9  7.8  0.3302E+01  0.1846E+02 -0.9911E+00E
 Epicentro: LOS SANTOS - SANTANDER                                             3
 ACTION:UPD 18-01-04 13:16 OP:rebc STATUS:               ID:20171202105919 L   I
 OLDACT:REG 17-12-02 21:22 OP:dani STATUS:               ID:20171202105740     3
 2017-12-02-1058-00M.COL___465                                                 6
 STAT SP IPHASW D HRMM SECON CODA AMPLIT PERI AZIMU VELO AIN AR TRES W  DIS CAZ7
 BAR2 EZ EP       1059 38.23                             170   -0.1810 24.4 191 
 BAR2 EZ ES       1059 52.81                             170   -0.3610 24.4 191 
 BAR2 EZ I        11 0  3.11         3.3 0.64            171           24.4 191 
 PAM  EN ES       1059 57.86                             150    0.1010 76.2  40 
 RUS  HZ EP       1059 42.75                             142    0.0410  102 176 
 RUS  HE ES       11 0  1.26                             142    0.4310  102 176 
 RUS  HZ I        11 0  2.62         2.4 0.30            150            102 176 
 PTB  HZ EP       1059 45.30                             130   -0.73 9  149 259 
 PTB  HN ES       11 0  6.86                             130    0.11 9  149 259 
 PTB  HZ I        11 0  8.01         1.9 0.12            135            149 259 
 ZAR  HZ EP       1059 52.12                             121    0.56 9  204 292 
 ZAR  HN ES       11 0 16.71                             121    0.13 9  204 292 
 ZAR  HZ I        11 0 24.17         1.9 0.25            126            204 292 
                                                                                
