 2014  2 2 1233 58.9 L   5.944 -73.776108.2  RSN 13 0.5 1.9LRSN 2.4WRSN        1
 SPEC AVERAGE  MO 12.7 ST100.1 OM  1.2 f0 27.2 R0.1019 AL 0.00 WI 20.0 MW  2.4 3
 SPEC SD       MO  0.6 ST 77.2 OM  0.6 f0 16.4 R0.2775 AL      WI      MW  0.4 3
 GAP= 84        1.19       3.0     3.2  7.1 -0.2795E+01  0.2385E+01 -0.1347E+01E
 Epicentro: GUAVATA - SANTANDER                                                3
 SPEC RUS HH Z MO 12.2 ST 62.1 OM  0.4 f0 40.0 R0.0481 AL-0.00 WI 20.0 MW  2.1 3
 SPEC RUS HH Z T123429 K 0.050 GD  132 VS 5.20 DE 3.20 Q0750.0 QA 1.50 VS 5.20 3
 SPEC NOR HH Z MO 12.8 ST143.1 OM  0.9 f0 33.3 R0.0578 AL-0.00 WI 20.0 MW  2.5 3
 SPEC NOR HH Z T123437 K 0.050 GD  167 VS 5.20 DE 3.20 Q0750.0 QA 1.50 VS 5.20 3
 SPEC BRR HH Z MO 13.0 ST 16.9 OM  1.1 f0 14.0 R0.1374 AL-0.00 WI 20.0 MW  2.6 3
 SPEC BRR HH Z T123436 K 0.050 GD  168 VS 5.20 DE 3.20 Q0750.0 QA 1.50 VS 5.20 3
 SPEC CHI HH Z MO 12.5 ST  1.4 OM  0.6 f0 8.82 R0.2181 AL-0.00 WI 20.0 MW  2.3 3
 SPEC CHI HH Z T123440 K 0.050 GD  180 VS 5.20 DE 3.20 Q0750.0 QA 1.50 VS 5.20 3
 SPECGUY2CHH Z MO 15.3 ST  0.0 OM  3.2 f00.131 R  14.6 AL-0.00 WI 20.0 MW  4.1 3
 SPECGUY2CHH Z T123450 K 0.050 GD221.0 VS 5.20 DE 3.20 Q0750.0 QA 1.50 VS 5.20 3
 SPEC ZAR HH Z MO 12.8 ST276.6 OM  0.8 f0 40.0 R0.0481 AL-0.00 WI 20.0 MW  2.5 3
 SPEC ZAR HH Z T123450 K 0.050 GD  235 VS 5.20 DE 3.20 Q0750.0 QA 1.50 VS 5.20 3
 OLDACT:REG 14-02-02 15:36 OP:stll STATUS:               ID:20140202122818     3
 ACTION:UPD 14-03-10 08:07 OP:ep   STATUS:               ID:20140202123358 L   I
 OLDACT:UP  14-02-03 04:29 OP:CAM  STATUS:               ID:20140202123358 L   3
 OLDACT:UP  14-02-02 17:17 OP:stll STATUS:               ID:20140202122818     3
 2014-02-02-1228-18M.COL___235                                                 6
 STAT SP IPHASW D HRMM SECON CODA AMPLIT PERI AZIMU VELO AIN AR TRES W  DIS CAZ7
 SPBC HZ EP   1   1234 14.88                             155    0.14 7 46.0 225 
 SPBC HN ES   1   1234 27.45                             155    0.37 7 46.0 225 
 SPBC HZ I        1234 28.86        23.8 0.24            155           46.0 225 
 RUS  HZ IP     D 1234 17.35                             142    0.0610 77.0  94 
 RUS  HN ES   1   1234 31.21                             142   -0.39 7 77.0  94 
 RUS  HZ I        1234 33.28         3.9 0.22            141           77.0  94 
 BAR2 SZ EP     C 1234 18.92                             135    0.3510 97.2  43 
 BAR2 SZ ES       1234 34.31                             135    0.4210 97.2  43 
 BAR2 SZ I        1234 35.76       142.6 0.46            135           97.2  43 
 PTB  HN ES       1234 32.97                             134   -0.8110100.0 311 
 NOR  HZ EP       1234 21.30                             126    0.1010  128 251 
 NOR  HN ES       1234 38.68                             126    0.1110  128 251 
 NOR  HZ I        1234 40.51        32.8 0.18            127            128 251 
 BRR  HZ EP   1   1234 20.89                             126   -0.30 7  129   3 
 BRR  HN ES   1   1234 38.20                             126   -0.35 7  129   3 
 BRR  HZ I        1234 41.88        16.2 0.38            127            129   3 
 CHI  HZ EP       1234 23.29                             122   -0.13 9  145 178 
 CHI  HN ES       1234 41.94                             122   -0.58 9  145 178 
 CHI  HZ I        1234 54.76         3.6 1.30            122            145 178 
 GUY2CHZ EP       1234 28.98                             114    0.35 9  193 246 
 GUY2CHE ES       1234 52.01                             114    0.22 9  193 246 
 GUY2CHZ I        1235  2.43         4.5 0.62                           193 246 
 PAM  SZ EP       1234 30.17                             114    1.34 9  195  38 
 PAM  SN ES       1234 51.87                             114   -0.28 9  195  38 
 PAM  HZ I        1234 56.91         5.9 2.06            114            195  38 
 HEL  HN ES       1234 53.01                             114    0.93 9  196 278 
 ZAR  HZ EP   1   1234 29.72                             112   -0.06 6  209 325 
 ZAR  HN ES   1   1234 53.45                             112   -0.39 6  209 325 
 ZAR  HZ I        1234 55.56         8.4 0.22            113            209 325 
 PRA  HZ EP   1   1234 36.84                             105   -0.71 6  276 207 
 PRA  HN ES   1   1235  7.01                             105   -0.66 6  276 207 
 PRA  HZ I        1235 11.39         6.4 0.26            105            276 207 
 SML  HZ EP       1234 41.70                             102   -0.75 7  318 354 
 SML  HE ES       1235 15.78                             102   -0.61 7  318 354 
 SML  HZ I        1235 23.77         7.2 1.00            103            318 354 
                                                                                
