 2011  9 2 1450 53.8 L   6.805 -73.047134.1  RSN  5 0.2 1.5LRSN                1
 GAP=210        0.51       4.0     6.2  5.3  0.7999E+01  0.8290E+00  0.3341E+01E
 Epicentro: LOS SANTOS - SANTANDER                                             3
 ACTION:UPD 12-07-13 15:55 OP:ep   STATUS:               ID:20110902145053 L   I
 2011-09-02-1448-57S.COL___170                                                 6
 STAT SP IPHASW D HRMM SECON CODA AMPLIT PERI AZIMU VELO AIN AR TRES W  DIS CAZ7
 BAR2 SZ EP   1   1451 12.12                             168   -0.02 7 27.9 212 
 BAR2 SZ ES   1   1451 26.71                             168    0.27 7 27.9 212 
 BAR2 SZ I        1451 28.37        11.9 0.26                          27.9 212 
 GIR2 SZ EP   1   1451 12.54                             165    0.36 7 34.3 332 
 GIR2 SZ ES   1   1451 26.08                             165   -0.44 7 34.3 332 
 BRR  HZ EP   1   1451 14.13                             147   -0.17 7 80.7 294 
 BRR  HE ES   1   1451 30.46                             147    0.17 7 80.7 294 
 BRR  HZ I        1451 37.91        10.7 0.41                          80.7 294 
 RUS  HZ EP   1   1451 16.33                             141   -0.13 7  101 182 
 RUS  HN ES   1   1451 34.13                             141    0.00 7  101 182 
 RUS  HZ I        1451 35.59         2.6 0.19                           101 182 
 NOR  SN ES   2   1451 57.94                             115   -0.12 4  244 236 
                                                                                
