 2017 12 2 1854 53.4 L   6.790 -73.112148.7  RSN 12 0.6 2.0LRSN                1
 GAP=141        0.90       2.7     3.8  5.3 -0.2213E+01  0.6054E+01  0.5161E+00E
 Epicentro: LOS SANTOS - SANTANDER                                             3
 ACTION:UPD 18-01-04 13:16 OP:rebc STATUS:               ID:20171202185453 L   I
 OLDACT:UP  17-12-03 00:10 OP:mg   STATUS:               ID:20171202184741d    3
 OLDACT:UP  17-12-03 00:09 OP:mg   STATUS:               ID:20171202184741d    3
 OLDACT:DUP 17-12-03 00:02 OP:mg   STATUS:               ID:20171202184741d    3
 2017-12-02-1848-00M.COL___483                                                 6
 STAT SP IPHASW D HRMM SECON CODA AMPLIT PERI AZIMU VELO AIN AR TRES W  DIS CAZ7
 BAR2 EZ EP       1855 13.36                             171   -0.0210 23.2 200 
 BAR2 EZ ES       1855 28.88                             171   -0.0810 23.2 200 
 BAR2 EZ I        1855 30.10        17.1 0.30            169           23.2 200 
 PAM  EZ EP       1855 16.12                             152    0.2710 75.9  37 
 PAM  EN ES       1855 33.52                             152    0.1710 75.9  37 
 PAM  EZ I        1855 35.55         9.8 0.22            155           75.9  37 
 RUS  HZ EP       1855 17.33                             145   -0.0210 99.3 178 
 RUS  HN ES       1855 35.65                             145   -0.3810 99.3 178 
 RUS  HZ I        1855 37.00        13.2 0.38            147           99.3 178 
 PTB  HZ EP       1855 20.35                             132   -0.57 9  151 260 
 PTB  HN ES       1855 41.55                             132   -0.83 9  151 260 
 PTB  HZ I        1855 48.92        11.1 0.44            131            151 260 
 OCA  HZ EP       1855 22.08                             130   -0.01 9  162 352 
 OCA  HN ES       1855 44.40                             130   -0.06 9  162 352 
 OCA  HZ I        1855 48.76        22.8 0.16            131            162 352 
 SPBC HZ EP       1855 22.38                             129    0.11 9  165 220 
 SPBC HN ES       1855 45.10                             129    0.32 9  165 220 
 SPBC HZ I        1855 49.52        14.7 0.16            130            165 220 
 ZAR  HZ EP   1   1855 26.63                             122    0.19 6  208 292 
 ZAR  HE ES       1855 52.85                             122    0.65 8  208 292 
 ZAR  HZ I        1855 57.05        13.9 0.27            123            208 292 
 NOR  HZ EP   1   1855 29.66                             119    0.10 6  237 235 
 NOR  HN ES       1855 58.34                             119    0.58 8  237 235 
 NOR  HZ I        1856  1.35         5.9 0.26            119            237 235 
 CHI  HZ EP       1855 31.48                             118    0.22 8  249 196 
 CHI  HN ES       1856  0.59                             118   -0.19 8  249 196 
 CHI  HZ I        1856  6.69         4.6 0.28            119            249 196 
 GUY2CHZ EP   1   1855 37.62                             113    0.20 5  304 235 
 GUY2CHZ I        1856 20.45         5.1 0.38                           304 235 
 PRA  HZ EP   1   1855 47.74                             107    0.61 4  393 210 
 PRA  HN ES   2   1856 29.44                             107    0.41 3  393 210 
 PRA  HZ I        1856 32.64         5.2 0.28            108            393 210 
 SJC  HZ EP   2   1855 47.62                             106   -1.79 3  412 327 
 SJC  HN ES   3   1856 29.07                             106   -4.02 1  412 327 
 SJC  HZ I        1856 34.38         1.0 0.19            107            412 327 
                                                                                
