 2016 10 2 1508 45.9 L   6.782 -73.186149.2  RSN  4 0.3 1.4LRSN                1
 GAP=232        0.73       5.9     5.5  5.9  0.1602E+02  0.2640E+01  0.6372E+00E
 Epicentro: LOS SANTOS - SANTANDER                                             3
 ACTION:UPD 16-11-09 19:15 OP:rebc STATUS:               ID:20161002150845 L   I
 OLDACT:REG 16-10-02 21:00 OP:dani STATUS:               ID:20161002150744     3
 2016-10-02-1508-00M.COL___381                                                 6
 STAT SP IPHASW D HRMM SECON CODA AMPLIT PERI AZIMU VELO AIN AR TRES W  DIS CAZ7
 BAR2 EZ EP       15 9  5.90                             172    0.0110 20.9 179 
 BAR2 EZ ES       15 9 21.01                             172   -0.4710 20.9 179 
 BAR2 EZ I        15 9 21.96         8.1 0.18            169           20.9 179 
 BRR  HZ EP       15 9  7.49                             154    0.2410 68.3 302 
 BRR  HN ES       15 9 24.14                             154    0.2210 68.3 302 
 BRR  HZ I        15 9 27.12         6.5 0.20            151           68.3 302 
 RUS  HZ EP       15 9  9.92                             145    0.0610 99.0 173 
 RUS  HE ES       15 9 28.83                             145    0.2710 99.0 173 
 RUS  HZ I        15 9 29.46         3.4 0.28            146           99.0 173 
 PTB  HZ EP       15 9 12.28                             134   -0.43 9  143 259 
 PTB  HN ES       15 9 33.69                             134    0.06 9  143 259 
 PTB  HZ I        15 9 38.53         2.1 0.25            132            143 259 
                                                                                
