 2010  3 2 1007 46.0 L   6.846 -73.016145.7  RSN  8 0.5 2.3LRSN                1
 GAP=253        0.75       5.9     7.8  7.9  0.1263E+02  0.2380E+02  0.1237E+02E
 Epicentro: CEPITA - SANTANDER                                                 3
 ACTION:UP  10-08-24 09:51 OP:vdl  STATUS:               ID:20100302100745 L   I
 2010-03-02-1006-09S.COL___093                                                 6
 STAT SP IPHASW D HRMM SECON CODA AMPLIT PERI AZIMU VELO SNR AR TRES W  DIS CAZ7
 BAR2 SZ IP       10 8  6.06                             166     0.210   34 213 
 BAR2 SZ ES   2   10 8 20.91                             166    -0.5 5   34 213 
 BRR  HZ IP       10 8  7.85                             149     0.110   82 291 
 BRR  HN ES   2   10 8 24.74                             149     0.0 5   82 291 
 RUS  BZ EP       10 8 10.09                             142     0.010  106 184 
 RUS  BE ES   2   10 8 28.81                             142    -0.1 5  106 184 
 RUS  BZ I        10 8 29.80        24.6 0.29                           106 184 
 CHI  HZ EP   1   10 8 24.57                             116    -0.1 6  258 198 
 CHI  HN ES   2   10 8 55.31                             116     0.5 4  258 198 
 CHI  HZ I        10 8 57.30         7.2 0.52                           258 198 
 HEL  HZ EP   2   10 8 28.62                             113     0.7 4  287 256 
 HEL  HN ES   2   10 9  1.64                             113     1.1 4  287 256 
 HEL  HZ I        10 9  4.24        12.6 0.37                           287 256 
 RREF BZ EP   1   10 8 34.34                             110     0.6 5  336 230 
 RREF BN ES   2   10 9 10.54                             110    -0.5 3  336 230 
 RREF BZ I        10 9 14.15         6.7 0.31                           336 230 
 DBB  SZ EP       10 8 34.30                             109    -0.8 6  353 273 
 PRA  HZ EP   1   10 8 40.67                             106    -0.2 4  404 211 
 PRA  HN ES   2   10 9 22.55                             106    -1.1 3  404 211 
 PRA  HZ I        10 9 25.40         6.6 0.35                           404 211 
                                                                                
