 2010  4 2 1608  8.7 L   6.827 -73.061143.2  RSN  7 0.4 2.5LRSN                1
 GAP=207        0.65       4.3     7.8  7.2 -0.8340E+01  0.7784E+01  0.9207E+01E
 Epicentro: LOS SANTOS - SANTANDER                                             3
 ACTION:UPD 10-08-24 09:57 OP:vdl  STATUS:               ID:20100402160808 L   I
 2010-04-02-1604-41S.COL___098                                                 6
 STAT SP IPHASW D HRMM SECON CODA AMPLIT PERI AZIMU VELO AIN AR TRES W  DIS CAZ7
 BAR2 SZ EP   1   16 8 28.27                             168     0.1 7   29 207 
 BAR2 SZ ES   2   16 8 43.37                             168     0.0 5   29 207 
 BRR  HZ EP   1   16 8 30.00                             150     0.0 7   78 293 
 BRR  HE ES   2   16 8 46.82                             150     0.2 5   78 293 
 BRR  HZ I        16 8 49.04        67.0 0.14                            78 293 
 OCA  SZ EP   1   16 8 36.40                             130    -0.3 7  159 350 
 OCA  SZ ES   2   16 8 58.34                             130    -0.1 5  159 350 
 CHI  HZ EP   1   16 8 47.03                             116     0.2 6  254 197 
 CHI  HE ES   2   16 9 15.82                             116    -0.8 4  254 197 
 CHI  HZ I        16 9 24.56        10.7 0.57                           254 197 
 HEL  HZ EP   1   16 8 50.05                             113     0.2 6  282 256 
 HEL  HN ES   2   16 9 20.97                             113    -1.0 4  282 256 
 HEL  HZ I        16 9 27.78        19.7 0.38                           282 256 
 RREF BZ EP   1   16 8 56.42                             110     0.7 5  331 230 
 RREF BN ES   2   16 9 33.42                             110     0.9 3  331 230 
 RREF BZ I        16 9 38.90        15.5 0.33                           331 230 
 PRA  HZ EP   1   16 9  2.67                             106    -0.3 4  399 211 
 PRA  HE ES   2   16 9 44.85                             106    -0.5 3  399 211 
 PRA  HZ I        16 9 52.76        14.4 0.31                           399 211 
                                                                                
