 2011  7 2 1843 29.4 L   6.790 -73.098145.1  RSN 15 0.5 2.4LRSN                1
 GAP=143        1.04       4.3     6.6  7.5 -0.1347E+02  0.1478E+02  0.4177E+01E
 Epicentro: LOS SANTOS - SANTANDER                                             3
 ACTION:UPD 12-07-25 13:57 OP:epov STATUS:               ID:20110702184329 L   I
 2011-07-02-1841-54S.COL___140                                                 6
 STAT SP IPHASW D HRMM SECON CODA AMPLIT PERI AZIMU VELO AIN AR TRES W  DIS CAZ7
 BTL  SZ EP       1843 50.22                             170    1.2610 23.5 307 
 BAR2 SZ EP       1843 48.71                             170   -0.2510 23.8 203 
 BAR2 SZ ES   3   1844  3.77                             170   -0.45 2 23.8 203 
 BAR2 SZ I        1844  4.99        88.1 0.28                          23.8 203 
 GIR2 SZ EP       1843 48.97                             166   -0.0910 33.6 342 
 PAM  SZ IP       1843 51.65                             151    0.2510 75.0  36 
 PAM  SN ES   1   1844  8.70                             151    0.13 7 75.0  36 
 BRR  HZ IP     C 1843 50.58                             151   -0.2010 76.4 297 
 BRR  HN ES   1   1844  7.67                             151    0.22 7 76.4 297 
 BRR  HZ I        1844 11.75        48.8 0.52                          76.4 297 
 RUS  HZ EP       1843 52.71                             144   -0.2810 99.3 179 
 RUS  HN ES   1   1844 10.88                             144   -0.52 7 99.3 179 
 BRI  SZ EP       1843 53.28                             141    0.1110  108  18 
 BRI  SZ ES   1   1844 12.19                             141    0.48 7  108  18 
 GRA  SZ IP       1843 54.56                             137    0.0110  125  15 
 GRA  SZ I        1843 55.87        38.5 0.26                           125  15 
 GRA  SZ ES   1   1844 13.57                             137   -0.59 7  125  15 
 OCA  SZ EP       1843 57.19                             129   -0.63 9  162 351 
 OCA  SZ ES   2   1844 18.63                             129   -1.37 5  162 351 
 OCA  SZ I        1844 23.70        39.1 0.27                           162 351 
 NOR  SZ EP       1844  5.09                             118   -0.40 8  238 235 
 NOR  SN ES   1   1844 33.38                             118   -0.26 6  238 235 
 CHI  HZ EP   2   1844  6.99                             117   -0.12 4  249 196 
 CHI  HN ES   2   1844 36.96                             117    0.44 4  249 196 
 CHI  HZ I        1844 38.41         9.9 0.34                           249 196 
 ROSC BN ES   3   1844 37.91                             116    0.36 2  255 212 
 ROSC BZ I        1844 48.29        20.7 0.45                           255 212 
 HEL  HZ EP       1844 10.87                             114    0.75 7  277 256 
 HEL  HZ I        1844 47.73         9.8 0.31                           277 256 
 GUY  SZ EP       1844 13.81                             112    0.14 7  307 236 
 GUY  SN ES   2   1844 47.91                             112   -0.28 4  307 236 
 GUY  SZ I        1844 55.39        18.7 0.42                           307 236 
 MON  HZ EP   4   1844 16.19                             108   -2.74 0  358 308 
 PRA  HZ EP       1844 23.09                             106   -0.01 6  394 210 
                                                                                
