 2017  8 2 1106 49.9 L   6.051 -73.594116.0  RSN  5 0.2 1.4LRSN                1
 GAP=148        0.46       3.9     2.5  3.9 -0.7031E+01  0.4566E+01 -0.3084E+01E
 Epicentro: GUEPSA - SANTANDER                                                 3
 ACTION:UPD 17-09-04 20:15 OP:rebc STATUS:               ID:20170802110649 L   I
 OLDACT:UP  17-08-02 22:22 OP:dhb  STATUS:               ID:20170802105739     3
 OLDACT:REG 17-08-02 21:00 OP:dhb  STATUS:               ID:20170802105739     3
 2017-08-02-1058-00M.COL___386                                                 6
 STAT SP IPHASW D HRMM SECON CODA AMPLIT PERI AZIMU VELO AIN AR TRES W  DIS CAZ7
 RUS  HZ EP       11 7  7.75                             152   -0.1610 59.2 107 
 RUS  HN ES       11 7 22.14                             152    0.2110 59.2 107 
 RUS  HZ I        11 7 24.12         2.4 0.19            153           59.2 107 
 SPBC HZ EP       11 7  7.81                             147   -0.1410 68.9 230 
 SPBC HE ES       11 7 21.85                             147   -0.1410 68.9 230 
 SPBC HZ I        11 7 23.06         5.5 0.24            149           68.9 230 
 BAR2 EZ IP     C 11 7  8.47                             145   -0.1110 75.2  37 
 BAR2 EZ ES       11 7 23.22                             145    0.1010 75.2  37 
 BAR2 EZ I        11 7 24.37        17.1 0.38            147           75.2  37 
 NOR  HZ EP       11 7 15.03                             124   -0.04 9  151 249 
 NOR  HN ES       11 7 34.64                             124   -0.02 9  151 249 
 NOR  HZ I        11 7 36.41         4.6 0.22            126            151 249 
 GUY2CHZ EP   1   11 7 23.03                             114    0.41 6  216 245 
 GUY2CHN ES       11 7 48.30                             114    0.19 8  216 245 
 GUY2CHZ I        11 7 52.83         1.4 0.39                           216 245 
                                                                                
