 2011  6 2 1254  0.7 L   6.792 -73.139141.2  RSN 16 0.4 3.0LRSN                1
 GAP=138        0.87       3.3     6.1  6.7 -0.1014E+02  0.2167E+02 -0.2199E+00E
 Epicentro: LOS SANTOS - SANTANDER                                             3
 ACTION:UP  11-07-14 19:02 OP:ep   STATUS:               ID:20110602125400 L   I
 2011-06-02-1251-12S.COL___130                                                 6
 STAT SP IPHASW D HRMM SECON CODA AMPLIT PERI AZIMU VELO SNR AR TRES W  DIS CAZ7
 BAR2 SZ IP       1254 19.76                             170     0.010   23 192 
 BAR2 SZ I        1254 19.96       167.2 0.21                            23 192 
 BAR2 SZ ES   2   1254 34.46                             170    -0.2 5   23 192 
 BRR  HZ IP     C 1254 21.67                             151     0.210   72 299 
 BRR  HZ I        1254 21.95       323.0 0.14                            72 299 
 BRR  HN ES   3   1254 38.17                             151     0.6 2   72 299 
 PAM  SZ EP       1254 22.58                             150     0.110   78  39 
 PAM  SN ES   1   1254 39.94                             150     0.5 7   78  39 
 RUS  HZ EP       1254 23.56                             143    -0.410  100 176 
 RUS  HN ES   1   1254 41.97                             143    -0.1 7  100 176 
 RUS  HZ I        1254 43.66        71.9 0.26                           100 176 
 BRI  SZ IP       1254 24.30                             140     0.110  109  20 
 BRI  SZ ES   1   1254 42.30                             140    -0.2 7  109  20 
 BRI  SZ I        1254 46.12       114.7 0.19                           109  20 
 GRA  SZ IP       1254 25.60                             136     0.010  126  17 
 GRA  SZ ES   1   1254 44.98                             136     0.0 7  126  17 
 GRA  SZ I        1254 46.30       169.6 0.28                           126  17 
 OCA  SZ EP       1254 28.17                             128    -0.6 9  161 353 
 OCA  SZ ES   1   1254 50.39                             128    -0.2 7  161 353 
 OCA  SZ I        1254 56.21       131.7 0.29                           161 353 
 NOR  SZ EP   1   1254 35.59                             117    -0.6 6  235 235 
 NOR  SN ES   1   1255  3.21                             117    -0.6 6  235 235 
 ROSC BZ EP       1254 39.37                             116     0.8 8  252 211 
 ROSC BN ES   2   1255  8.27                             116     0.2 4  252 211 
 ROSC BZ I        1255 14.74        66.8 0.50                           252 211 
 HEL  HZ EP   1   1254 41.12                             114     0.4 6  273 256 
 HEL  HZ I        1255 18.15        28.8 0.39                           273 256 
 VIL  SZ EP   2   1254 43.51                             111    -0.3 4  303 192 
 GUY  SZ EP   2   1254 44.04                             111    -0.3 4  304 235 
 GUY  SZ I        1255 26.06        69.2 0.41                           304 235 
 RREF HZ EP       1254 46.77                             110     0.1 7  322 230 
 RREF HN ES   2   1255 22.82                             110     0.3 3  322 230 
 RREF HZ I        1255 31.39        63.8 0.28                           322 230 
 DBB  SZ EP       1254 48.61                             108     0.5 7  340 274 
 TOL  SZ EP       1254 49.03                             108     0.3 7  343 225 
 PRA  HZ EP   1   1254 53.17                             106    -0.8 4  392 210 
                                                                                
