 2012  5 2 1910 46.3 L   6.606 -73.584102.0  RSN  7 0.4 2.0LRSN                1
 GAP=106        0.81       4.3     4.3  8.0  0.7400E+01  0.1516E+02  0.1083E+02E
 Epicentro: EL CARMEN DE CHUCURI - SANTANDER                                   3
 ACTION:UP  12-07-05 12:01 OP:pat  STATUS:               ID:20120502191046 L   I
 2012-05-02-1910-00M.COL___186                                                 6
 STAT SP IPHASW D HRMM SECON CODA AMPLIT PERI AZIMU VELO SNR AR TRES W  DIS CAZ7
 BAR2 SZ IP       1911  1.50                             155    -0.110   44  92 
 BAR2 SZ I        1911  1.70        95.2 0.28                            44  92 
 BAR2 SZ ES   1   1911 13.58                             155     0.1 7   44  92 
 BRR  HZ EP       1911  2.04                             148     0.110   57 346 
 BRR  HN ES   2   1911 14.71                             148     0.5 5   57 346 
 BRR  HZ I        1911 18.32        32.0 0.15                            57 346 
 RUS  HZ EP   1   1911  5.14                             133    -0.6 7   96 145 
 RUS  HN ES   1   1911 20.94                             133     0.1 7   96 145 
 RUS  HZ I        1911 21.77        22.3 0.28                            96 145 
 PTB  HZ EP   1   1911  4.59                             133    -0.5 7   97 266 
 PTB  HN ES   1   1911 19.31                             133    -0.4 7   97 266 
 PTB  HZ I        1911 20.78        13.4 0.21                            97 266 
 ZAR  HZ EP   1   1911 12.70                             115     0.0 7  172 305 
 ZAR  HE ES   2   1911 34.08                             115     0.8 4  172 305 
 ZAR  HZ I        1911 37.59        18.6 0.31                           172 305 
 CHI  HZ EP   1   1911 18.94                             109     0.3 6  219 184 
 CHI  HN ES   1   1911 44.22                             109     0.5 6  219 184 
 CHI  HZ I        1911 51.89         5.2 0.54                           219 184 
 HEL  HZ EP   2   1911 19.00                             109     0.4 4  220 258 
 HEL  HN ES   2   1911 44.19                             109     0.3 4  220 258 
 HEL  HZ I        1911 52.31         6.2 0.36                           220 258 
                                                                                
