 2015 10 2 1523 31.7 L   6.346 -73.602120.9  RSN  4 0.2 1.4LRSN                1
 GAP=137        0.55       3.9     2.7  6.1  0.6301E+00 -0.5487E+00 -0.4979E+01E
 Epicentro: SANTA HELENA DEL OPON - SANTANDER                                  3
 ACTION:UPD 15-12-22 20:36 OP:cam  STATUS:               ID:20151002152331 L   I
 OLDACT:DUP 15-10-03 00:50 OP:spq  STATUS:               ID:20151002151751d    3
 OLDACT:REG 15-10-02 20:54 OP:spq  STATUS:               ID:20151002151748     3
 2015-10-02-1517-48M.COL___357                                                 6
 STAT SP IPHASW D HRMM SECON CODA AMPLIT PERI AZIMU VELO AIN AR TRES W  DIS CAZ7
 BAR2 EZ EP       1523 49.79                             155    0.2210 53.8  60 
 BAR2 EZ ES   1   1524  3.22                             155   -0.26 7 53.8  60 
 BAR2 EZ I        1524  4.01         7.7 0.14            157           53.8  60 
 RUS  HZ EP       1523 51.40                             146    0.1010 76.2 131 
 RUS  HN ES   1   1524  6.51                             146   -0.04 7 76.2 131 
 RUS  HZ I        1524  8.99         4.3 0.36            147           76.2 131 
 SPBC HN ES       1524  7.67                             140   -0.0410 92.8 214 
 SPBC HZ I        1524  9.31         7.1 0.12            141           92.8 214 
 PTB  HZ EP       1523 51.85                             139   -0.3210 96.9 283 
 PTB  HN ES       1524  8.32                             139    0.2010 96.9 283 
 PTB  HZ I        1524  9.11         6.1 0.12            141           96.9 283 
                                                                                
