 2013 11 2 1227 47.9 L   6.800 -73.151144.9  RSN  8 0.5 2.0LRSN                1
 GAP=136        1.11       4.0     4.6  6.7 -0.7192E+00  0.9189E+01 -0.2705E+01E
 Epicentro: LOS SANTOS - SANTANDER                                             3
 ACTION:UPD 14-01-09 16:25 OP:ep   STATUS:               ID:20131102122747 L   I
 OLDACT:REG 13-11-02 18:53 OP:carl STATUS:               ID:20131102122643     3
 2013-11-02-1226-43M.COL___214                                                 6
 STAT SP IPHASW D HRMM SECON CODA AMPLIT PERI AZIMU VELO AIN AR TRES W  DIS CAZ7
 BAR2 SZ EP       1228  7.47                             170    0.0310 23.3 188 
 BAR2 SZ ES       1228 22.69                             170    0.0210 23.3 188 
 BAR2 SZ I        1228 23.51        30.1 0.22            171           23.3 188 
 BRR  HZ EP       1228  9.27                             153    0.3410 70.6 299 
 BRR  HN ES       1228 25.97                             153    0.6410 70.6 299 
 BRR  HZ I        1228 29.93        14.4 0.14            152           70.6 299 
 PAM  SZ IP     C 1228 10.40                             150    0.3410 77.7  40 
 PAM  SE ES       1228 27.15                             150   -0.1810 77.7  40 
 RUS  HZ EP       1228 11.49                             144   -0.0910  101 176 
 RUS  HE ES       1228 29.85                             144   -0.2010  101 176 
 RUS  HZ I        1228 31.72         9.1 0.24            146            101 176 
 PTB  HZ EP       1228 14.33                             132   -0.42 9  147 259 
 PTB  HN ES       1228 34.88                             132   -0.81 9  147 259 
 PTB  HZ I        1228 37.07         9.1 0.30            133            147 259 
 ZAR  HZ EP   1   1228 21.42                             122    1.18 6  203 292 
 ZAR  HN ES       1228 45.73                             122    0.28 9  203 292 
 NOR  HZ EP       1228 23.88                             118    0.34 8  234 234 
 NOR  HE ES       1228 51.39                             118    0.06 8  234 234 
 NOR  HZ I        1228 54.50         9.3 0.26            120            234 234 
 SML  HZ EP       1228 23.81                             117   -0.64 8  243 335 
 SML  HE ES       1228 52.35                             117   -0.61 8  243 335 
 SML  HZ I        1228 57.82        10.9 0.10            118            243 335 
                                                                                
