 2016 12 2 1356 12.8 L   6.739 -73.147143.2  RSN  5 0.2 1.7LRSN                1
 GAP=157        0.57       4.7     2.7  4.6 -0.2899E+01  0.2727E+01  0.4419E+00E
 Epicentro: LOS SANTOS - SANTANDER                                             3
 ACTION:UPD 17-01-11 20:11 OP:rebc STATUS:               ID:20161202135612 L   I
 OLDACT:REG 16-12-02 20:58 OP:lv   STATUS:               ID:20161202134741     3
 2016-12-02-1348-00M.COL___331                                                 6
 STAT SP IPHASW D HRMM SECON CODA AMPLIT PERI AZIMU VELO AIN AR TRES W  DIS CAZ7
 BAR2 EZ EP       1356 32.20                             173    0.1510 16.7 194 
 BAR2 EZ ES       1356 46.98                             173   -0.0510 16.7 194 
 BAR2 EZ I        1356 50.76         7.8 0.11            171           16.7 194 
 BRR  HZ EP       1356 34.24                             151    0.3310 74.6 303 
 BRR  HN ES       1356 50.64                             151    0.2910 74.6 303 
 PAM  EZ EP       1356 35.04                             149   -0.0810 82.8  37 
 PAM  EN ES       1356 52.26                             149   -0.2410 82.8  37 
 PAM  EZ I        1356 54.35        11.0 0.52            153           82.8  37 
 PTB  HZ EP       1356 39.35                             132   -0.14 9  146 261 
 PTB  HN ES       1357  0.06                             132   -0.21 9  146 261 
 PTB  HZ I        1357  6.68         5.2 0.23            132            146 261 
 ZAR  HZ EP   4   1356 47.68                             121    2.30 0  207 294 
 ZAR  HN ES       1357 10.62                             121   -0.15 8  207 294 
 ZAR  HZ I        1357 15.90         6.7 0.28            123            207 294 
 SJC  HZ EP   4   1357  6.49                             105   -2.49 0  415 327 
 SJC  HN ES   4   1357 48.87                             105   -3.90 0  415 327 
                                                                                
