 2017  2 2 1418 49.7 L   6.637 -73.208148.0  RSN  4 0.2 1.5LRSN                1
 GAP=197        0.50       4.0     4.1  5.1  0.7302E+01  0.4534E+01 -0.8128E+00E
 Epicentro: BARICHARA - SANTANDER                                              3
 ACTION:UPD 17-05-24 15:31 OP:jn   STATUS:               ID:20170202141849 L   I
 OLDACT:REG 17-02-02 20:23 OP:dnl  STATUS:               ID:20170202141748     3
 2017-02-02-1418-00M.COL___325                                                 6
 STAT SP IPHASW D HRMM SECON CODA AMPLIT PERI AZIMU VELO AIN AR TRES W  DIS CAZ7
 BAR2 EZ EP   2   1419  9.16                             178   -0.26 5 5.67 150 
 BAR2 EZ ES       1419 24.63                             178   -0.1410 5.67 150 
 BAR2 EZ I        1419 27.26         7.3 0.52            172           5.67 150 
 BRR  HZ IP     D 1419 11.24                             151   -0.1810 76.2 313 
 BRR  HE ES       1419 28.60                             151    0.2710 76.2 313 
 BRR  HZ I        1419 30.16        13.4 0.42            152           76.2 313 
 RUS  HZ EP   2   1419 12.84                             149    0.27 5 83.4 170 
 RUS  HN ES       1419 30.46                             149    0.0910 83.4 170 
 RUS  HZ I        1419 34.11         2.2 0.36            148           83.4 170 
 PTB  HZ EP   2   1419 16.46                             135    0.38 5  138 266 
 PTB  HN ES       1419 36.48                             135   -0.13 9  138 266 
 PTB  HZ I        1419 41.76         2.8 0.22            134            138 266 
                                                                                
