 2013  2 2 1555  6.7 L   6.714 -73.134142.5  RSN  8 0.3 2.0LRSN                1
 GAP=142        0.84       3.4     3.9  5.3 -0.2052E+00  0.5680E+01  0.3496E+01E
 Epicentro: JORDAN - SANTANDER                                                 3
 ACTION:UPD 13-03-12 09:29 OP:ep   STATUS:               ID:20130202155506 L   I
 2013-02-02-1550-00M.COL___241                                                 6
 STAT SP IPHASW D HRMM SECON CODA AMPLIT PERI AZIMU VELO AIN AR TRES W  DIS CAZ7
 BAR2 SZ EP       1555 25.84                             174    0.0110 14.5 202 
 BAR2 SZ ES       1555 40.58                             174   -0.1410 14.5 202 
 BAR2 SZ I        1555 42.01        31.9 0.20            169           14.5 202 
 BRR  HZ EP       1555 28.19                             150    0.2910 77.3 304 
 BRR  HN ES       1555 45.09                             150    0.6910 77.3 304 
 BRR  HN I        1555 45.80        48.9 0.19            147           77.3 304 
 PAM  SZ EP       1555 29.07                             148    0.0410 84.2  35 
 PAM  SZ I        1555 29.23        17.4 0.17            152           84.2  35 
 PAM  SN ES       1555 45.97                             148   -0.4510 84.2  35 
 RUS  HZ EP       1555 29.63                             146    0.1410 91.0 176 
 RUS  HN ES       1555 47.29                             146    0.0510 91.0 176 
 RUS  HN I        1555 49.86        17.5 0.31            146           91.0 176 
 PTB  HZ EP       1555 32.79                             131   -0.64 9  148 263 
 PTB  HE ES   1   1555 53.60                             131   -0.63 7  148 263 
 PTB  HZ I        1555 58.78        11.4 0.40            129            148 263 
 ZAR  HZ EP   1   1555 39.66                             121    0.16 6  209 294 
 ZAR  HN ES   1   1556  5.01                             121   -0.03 6  209 294 
 ZAR  HZ I        1556 13.38         8.1 0.39            120            209 294 
 NOR  HZ EP   1   1555 41.67                             118   -0.15 6  230 237 
 NOR  HE ES   1   1556  9.13                             118   -0.05 6  230 237 
 NOR  HZ I        1556 15.10        10.1 0.41            118            230 237 
 CHI  HZ EP       1555 43.72                             117    0.41 8  240 196 
 CHI  HZ I        1555 44.61         4.2 0.28            118            240 196 
 CHI  HE ES   1   1556 11.81                             117   -0.01 6  240 196 
                                                                                
