 2015  4 2 1922 41.3 L   6.751 -73.173142.0  RSN  5 0.2 1.3LRSN                1
 GAP=231        0.48       3.0     3.2  4.3  0.5035E+01  0.9480E+00 -0.1138E+01E
 Epicentro: LOS SANTOS - SANTANDER                                             3
 ACTION:UPD 15-06-03 16:52 OP:cam  STATUS:               ID:20150402192241 L   I
 OLDACT:DUP 15-04-03 00:11 OP:fm   STATUS:               ID:20150402191748d    3
 2015-04-02-1917-47M.COL___283                                                 6
 STAT SP IPHASW D HRMM SECON CODA AMPLIT PERI AZIMU VELO AIN AR TRES W  DIS CAZ7
 BRR  HZ EP       1923  2.04                             152    0.0310 71.5 304 
 BRR  HN ES       1923 18.44                             152    0.2310 71.5 304 
 BRR  HZ I        1923 22.05         4.3 0.42            150           71.5 304 
 RUS  HZ EP       1923  4.32                             145    0.0610 95.4 174 
 RUS  HN ES       1923 22.03                             145   -0.1810 95.4 174 
 RUS  HZ I        1923 24.40         1.9 0.28            146           95.4 174 
 PTB  HZ EP       1923  7.56                             132   -0.00 9  144 261 
 PTB  HE ES       1923 28.02                             132   -0.06 9  144 261 
 PTB  HZ I        1923 33.73         3.0 0.30            132            144 261 
 ZAR  HZ EP       1923 13.48                             122    0.09 9  203 294 
 ZAR  HN ES       1923 38.11                             122   -0.35 9  203 294 
 ZAR  HZ I        1923 43.46         2.0 0.28            123            203 294 
 NOR  HN ES   1   1923 43.71                             118    0.31 6  229 235 
 NOR  HZ I        1923 47.98         1.5 0.28            119            229 235 
                                                                                
