 2017  5 2 1334 57.4 L   6.789 -73.149151.4  RSN  5 0.3 1.5LRSN                1
 GAP=137        0.84       4.5     4.2  6.6 -0.4979E+01  0.4536E+01  0.6342E+01E
 Epicentro: LOS SANTOS - SANTANDER                                             3
 ACTION:UPD 17-06-16 13:32 OP:jn   STATUS:               ID:20170502133457 L   I
 OLDACT:REG 17-05-02 20:37 OP:ar   STATUS:               ID:20170502132746     3
 2017-05-02-1328-00M.COL___371                                                 6
 STAT SP IPHASW D HRMM SECON CODA AMPLIT PERI AZIMU VELO AIN AR TRES W  DIS CAZ7
 BRR  HZ EP       1335 19.21                             153    0.0810 71.5 300 
 BRR  HN ES       1335 36.56                             153    0.4410 71.5 300 
 BRR  HZ I        1335 37.35         8.6 0.24            153           71.5 300 
 PAM  EZ EP       1335 20.30                             151    0.0610 78.6  39 
 PAM  EN ES       1335 38.01                             151   -0.0910 78.6  39 
 PAM  EZ I        1335 40.11         3.9 0.48            153           78.6  39 
 RUS  HZ EP       1335 21.58                             145    0.0010 99.4 176 
 RUS  HE ES       1335 40.37                             145   -0.1110 99.4 176 
 RUS  HZ I        1335 40.80         3.7 0.34            146           99.4 176 
 PTB  HZ EP       1335 24.31                             133   -0.43 9  147 259 
 PTB  HN ES       1335 45.47                             133   -0.62 9  147 259 
 PTB  HZ I        1335 46.54         4.4 0.30            134            147 259 
 NOR  HZ EP       1335 33.62                             120    0.31 8  234 235 
 NOR  HE ES       1336  1.85                             120    0.49 8  234 235 
 NOR  HZ I        1336  5.47         3.4 0.12            120            234 235 
                                                                                
