 2014  3 2 1726 47.9 L   7.393 -73.194132.1  RSN  8 0.3 1.9LRSN                1
 GAP=183        0.66       3.5     2.9  4.7  0.4932E+00  0.5029E+01 -0.5894E+00E
 Epicentro: EL PLAYON - SANTANDER                                              3
 ACTION:UPD 14-04-09 23:14 OP:nd   STATUS:               ID:20140302172647 L   I
 OLDACT:UP  14-03-02 18:57 OP:cam  STATUS:               ID:20140302172449d    3
 OLDACT:DUP 14-03-02 18:54 OP:cam  STATUS:               ID:20140302172449d    3
 2014-03-02-1724-48M.COL___238                                                 6
 STAT SP IPHASW D HRMM SECON CODA AMPLIT PERI AZIMU VELO AIN AR TRES W  DIS CAZ7
 PAM  SZ EP       1727  7.43                             156    0.0210 54.9  96 
 PAM  SN ES       1727 22.28                             156   -0.3410 54.9  96 
 PAM  SZ I        1727 24.81         6.4 0.22            159           54.9  96 
 BRR  HZ EP       1727  7.22                             152   -0.0410 65.4 241 
 BRR  HN ES       1727 22.69                             152    0.3410 65.4 241 
 BRR  HZ I        1727 23.10        26.2 0.12            153           65.4 241 
 BAR2 SZ EP       1727  9.15                             144    0.0610 88.5 179 
 BAR2 SZ ES       1727 26.04                             144    0.4210 88.5 179 
 BAR2 SZ I        1727 26.83        41.1 0.14            147           88.5 179 
 RUS  HN ES       1727 38.13                             125   -0.22 9  166 176 
 PTB  HZ EP       1727 15.80                             125   -0.03 9  168 236 
 PTB  HN ES       1727 37.24                             125   -0.36 9  168 236 
 PTB  HZ I        1727 39.28         7.9 0.16            126            168 236 
 SML  HE ES   4   1727 37.88                             122   -2.37 0  183 328 
 ZAR  HZ EP       1727 17.58                             122    0.17 9  184 274 
 ZAR  HN ES       1727 40.15                             122   -0.26 9  184 274 
 ZAR  HZ I        1727 43.19         8.1 0.42            123            184 274 
 SPBC HN ES   1   1727 46.31                             118   -0.24 6  216 207 
 NOR  HZ EP       1727 27.67                             111    0.35 8  274 223 
 GUY2CHZ EP   4   1727 37.52                             107    2.17 0  339 225 
                                                                                
