 2012 11 2 1702 30.7 L   6.764 -73.130151.4  RSN  5 0.2 1.8LRSN                1
 GAP=140        0.45       3.2     3.5  4.6  0.2634E+01  0.1955E+01 -0.3191E+00E
 Epicentro: LOS SANTOS - SANTANDER                                             3
 ACTION:UPD 12-12-05 15:31 OP:}ep  STATUS:               ID:20121102170230 L   I
 2012-11-02-1700-00M.COL___234                                                 6
 STAT SP IPHASW D HRMM SECON CODA AMPLIT PERI AZIMU VELO AIN AR TRES W  DIS CAZ7
 BAR2 SZ EP       17 2 50.76                             172   -0.1610 19.9 197 
 BAR2 SZ ES   1   17 3  6.68                             172   -0.02 7 19.9 197 
 BAR2 SZ I        17 3  7.04        15.2 0.18                          19.9 197 
 BRR  HZ EP       17 2 52.84                             152    0.2210 74.6 301 
 BRR  HN ES   1   17 3 10.00                             152    0.26 7 74.6 301 
 BRR  HN I        17 3 12.41        21.4 0.18                          74.6 301 
 PAM  SZ EP   1   17 2 53.72                             151    0.11 7 79.4  37 
 PAM  SN ES   1   17 3 11.32                             151   -0.17 7 79.4  37 
 PAM  SN I        17 3 12.19        10.4 0.62                          79.4  37 
 RUS  HZ EP   1   17 2 54.67                             146   -0.03 7 96.5 177 
 RUS  HE ES   1   17 3 13.46                             146    0.02 7 96.5 177 
 RUS  HE I        17 3 14.23         4.8 0.18                          96.5 177 
 ZAR  HN ES   1   17 3 29.26                             123   -0.39 6  207 293 
 ZAR  HN I        17 3 34.33         7.7 0.34                           207 293 
                                                                                
