 2016 10 2 1024 55.5 L   6.779 -73.179146.3  RSN  4 0.2 1.2LRSN                1
 GAP=232        0.59       7.1     8.4  4.8  0.5159E+02  0.8646E+01  0.2340E+01E
 Epicentro: LOS SANTOS - SANTANDER                                             3
 ACTION:UPD 16-11-09 19:15 OP:rebc STATUS:               ID:20161002102455 L   I
 OLDACT:REG 16-10-02 20:23 OP:dani STATUS:               ID:20161002101744     3
 2016-10-02-1018-00M.COL___381                                                 6
 STAT SP IPHASW D HRMM SECON CODA AMPLIT PERI AZIMU VELO AIN AR TRES W  DIS CAZ7
 BAR2 EZ ES       1025 30.78                             172    0.3210 20.6 181 
 BAR2 EZ I        1025 32.55         3.3 0.25            170           20.6 181 
 BRR  HZ EP       1025 16.63                             153    0.0410 69.2 302 
 BRR  HN ES       1025 32.70                             153   -0.3510 69.2 302 
 BRR  HZ I        1025 38.47         6.2 0.30            151           69.2 302 
 RUS  HZ EP       1025 18.95                             144   -0.2110 98.6 174 
 RUS  HN ES       1025 37.60                             144           98.6 174 
 RUS  HN IS       1025 37.60                             144   -0.0110 98.6 174 
 RUS  HZ I        1025 38.80         1.5 0.29            147           98.6 174 
 ZAR  HZ EP       1025 27.91                             123    0.19 9  202 293 
 ZAR  HE ES       1025 52.95                             123    0.09 9  202 293 
 ZAR  HZ I        1025 57.66         1.7 0.18            124            202 293 
                                                                                
