 2013  4 2 1330 14.4 L   6.814 -73.116140.1  RSN  8 0.5 1.7LRSN                1
 GAP=140        1.05       4.9     5.1  8.5 -0.1522E-01  0.1051E+02 -0.5474E+01E
 Epicentro: LOS SANTOS - SANTANDER                                             3
 ACTION:UPD 13-05-22 14:35 OP:EP   STATUS:               ID:20130402133014 L   I
 2013-04-02-1330-00M.COL___245                                                 6
 STAT SP IPHASW D HRMM SECON CODA AMPLIT PERI AZIMU VELO AIN AR TRES W  DIS CAZ7
 BAR2 SZ EP       1330 33.18                             169   -0.1710 25.6 197 
 BAR2 SZ ES   1   1330 47.73                             169   -0.44 7 25.6 197 
 BAR2 SZ I        1330 54.43        10.7 0.38            169           25.6 197 
 BRR  HZ IP     C 1330 34.93                             151   -0.0910 73.4 296 
 BRR  HE ES   1   1330 51.57                             151    0.43 7 73.4 296 
 BRR  HZ I        1330 55.43        19.9 0.48            152           73.4 296 
 PAM  SZ EP       1330 36.11                             151    0.3410 74.1  38 
 PAM  SN ES   1   1330 52.58                             151    0.10 7 74.1  38 
 PAM  SZ I        1330 55.25        10.9 0.50            157           74.1  38 
 RUS  HZ EP   1   1330 37.35                             142   -0.30 7  102 178 
 RUS  HN ES   1   1330 56.22                             142    0.39 7  102 178 
 RUS  HZ I        1330 57.19         3.7 0.26            147            102 178 
 PTB  HZ EP   4   1330 39.98                             130   -1.21 0  151 258 
 PTB  HN ES   1   1331  0.86                             130   -1.26 7  151 258 
 PTB  HZ I        1331  3.66         5.6 0.16            133            151 258 
 ZAR  HZ EP   2   1330 46.87                             121    0.18 4  206 291 
 ZAR  HE ES       1331 12.48                             121    0.57 8  206 291 
 ZAR  HZ I        1331 16.50         8.6 0.30            125            206 291 
 NOR  HZ EP   1   1330 50.95                             117    0.80 6  238 235 
 NOR  HN ES   1   1331 18.37                             117    0.31 6  238 235 
 NOR  HZ I        1331 23.53         4.1 0.22            121            238 235 
 SML  HZ EP   1   1330 49.54                             116   -1.13 6  244 334 
 SML  HN ES   1   1331 18.93                             116   -0.06 6  244 334 
                                                                                
