 2017  2 2 1116  5.9 L   6.718 -73.190150.6  RSN  4 0.2 1.5LRSN                1
 GAP=226        0.46       4.0     3.7  4.9  0.6875E+01  0.2474E+01  0.1240E+01E
 Epicentro: VILLANUEVA - SANTANDER                                             3
 ACTION:UPD 17-05-24 15:31 OP:jn   STATUS:               ID:20170202111605 L   I
 OLDACT:DUP 17-02-02 22:26 OP:dnl  STATUS:               ID:20170202110729d    3
 OLDACT:UP  17-02-02 22:20 OP:dnl  STATUS:               ID:20170202110728     3
 OLDACT:UP  17-02-02 22:20 OP:dnl  STATUS:               ID:20170202110728     3
 OLDACT:REG 17-02-02 20:13 OP:dnl  STATUS:               ID:20170202110728     3
 2017-02-02-1108-00M.COL___325                                                 6
 STAT SP IPHASW D HRMM SECON CODA AMPLIT PERI AZIMU VELO AIN AR TRES W  DIS CAZ7
 BAR2 EZ EP       1116 25.99                             175    0.0010 13.9 177 
 BAR2 EZ ES       1116 41.41                             175   -0.2310 13.9 177 
 BAR2 EZ I        1116 41.99         6.4 0.38            178           13.9 177 
 BRR  HZ EP   2   1116 27.36                             153   -0.28 5 72.0 307 
 BRR  HE ES       1116 44.82                             153    0.2310 72.0 307 
 BRR  HZ I        1116 51.45        13.8 0.46            152           72.0 307 
 RUS  HZ EP   2   1116 29.91                             147    0.34 5 92.0 173 
 RUS  HN ES       1116 48.09                             147    0.0810 92.0 173 
 RUS  HZ I        1116 49.68         3.4 0.26            152           92.0 173 
 PTB  HZ EP   2   1116 32.59                             134   -0.14 5  141 262 
 PTB  HN ES       1116 53.57                             134   -0.08 9  141 262 
 PTB  HZ I        1116 55.61         2.4 0.14            136            141 262 
                                                                                
