 2011 11 2 1756 12.9 L   6.372 -73.612107.0  RSN  6 0.4 1.8LRSN                1
 GAP=115        0.78       5.5     5.7 10.5 -0.1517E+02  0.1478E+02 -0.1032E+02E
 Epicentro: SANTA HELENA DEL OPON - SANTANDER                                  3
 ACTION:UPD 12-07-13 16:07 OP:ep   STATUS:               ID:20111102175613 L   I
 2011-11-02-1754-19S.COL___176                                                 6
 STAT SP IPHASW D HRMM SECON CODA AMPLIT PERI AZIMU VELO AIN AR TRES W  DIS CAZ7
 BAR2 SZ IP       1756 29.57                             151    0.3610 53.4  63 
 BAR2 SZ ES   1   1756 42.03                             151    0.11 7 53.4  63 
 BAR2 SZ I        1756 43.45        56.8 0.12                          53.4  63 
 RUS  HZ EP       1756 31.37                             141    0.0710 78.9 132 
 RUS  HZ I        1756 47.23         7.6 0.38                          78.9 132 
 BRR  HZ IP     C 1756 30.55                             140   -0.3110 82.1 352 
 BRR  HZ I        1756 44.94        14.6 0.32                          82.1 352 
 PAM  SZ EP       1756 37.57                             122   -0.01 9  147  43 
 PAM  SN ES   2   1756 55.71                             122   -1.12 5  147  43 
 NOR  SE ES   1   1756 59.12                             118   -0.16 7  165 237 
 OCA  SZ ES   2   1757  8.97                             112    0.88 4  209   9 
                                                                                
