 2011 12 2 1152  1.7 L   6.771 -73.099148.2  RSN  5 0.1 1.5LRSN                1
 GAP=144        0.33       2.3     3.8  3.7 -0.1102E+01  0.1639E+01 -0.2160E-01E
 Epicentro: LOS SANTOS - SANTANDER                                             3
 ACTION:UPD 12-07-13 16:13 OP:ep   STATUS:               ID:20111202115201 L   I
 2011-12-02-1150-00M.COL___180                                                 6
 STAT SP IPHASW D HRMM SECON CODA AMPLIT PERI AZIMU VELO AIN AR TRES W  DIS CAZ7
 BAR2 SZ EP       1152 21.53                             171   -0.0910 21.8 205 
 BAR2 SZ ES   2   1152 37.10                             171   -0.03 5 21.8 205 
 BAR2 SZ I        1152 38.92         6.5 0.40                          21.8 205 
 GIR2 SZ EP   3   1152 21.55                             166   -0.25 2 35.5 343 
 PAM  SZ EP       1152 24.23                             151    0.0710 76.8  35 
 PAM  SN ES   1   1152 41.61                             151   -0.05 7 76.8  35 
 BRR  HZ EP       1152 23.38                             151   -0.1010 77.2 299 
 BRR  HZ I        1152 33.31         9.5 0.56                          77.2 299 
 BRR  HN ES   2   1152 40.75                             151    0.30 5 77.2 299 
 RUS  HZ EP       1152 25.60                             145    0.1210 97.2 179 
 RUS  HE ES   1   1152 43.96                             145   -0.04 7 97.2 179 
 RUS  HZ I        1152 45.22         2.4 0.20                          97.2 179 
                                                                                
