 2011 11 2 1420 18.2 L   6.758 -73.115152.0  RSN  9 0.3 2.3LRSN                1
 GAP=142        0.51       2.7     3.4  4.0 -0.2180E+01  0.2839E+01  0.4975E+00E
 Epicentro: LOS SANTOS - SANTANDER                                             3
 ACTION:UPD 12-07-13 16:07 OP:ep   STATUS:               ID:20111102142018 L   I
 2011-11-02-1417-51S.COL___176                                                 6
 STAT SP IPHASW D HRMM SECON CODA AMPLIT PERI AZIMU VELO AIN AR TRES W  DIS CAZ7
 BAR2 SZ IP       1420 38.42                             172   -0.0610 19.8 202 
 BAR2 SZ I        1420 38.85        29.6 0.36                          19.8 202 
 BAR2 SZ ES   1   1420 54.10                             172   -0.23 7 19.8 202 
 BRR  HZ EP       1420 40.36                             152    0.0710 76.5 300 
 BRR  HN ES   1   1420 57.73                             152    0.19 7 76.5 300 
 BRR  HZ I        1421  0.08        35.5 0.14                          76.5 300 
 PAM  SZ EP       1420 41.28                             151    0.1410 79.0  35 
 PAM  SE ES   1   1420 58.57                             151   -0.49 7 79.0  35 
 RUS  HZ EP       1420 42.31                             146    0.1110 95.7 178 
 RUS  HN ES   2   1421  1.41                             146    0.46 5 95.7 178 
 OCA  SZ EP       1420 47.50                             130    0.06 9  165 352 
 OCA  SZ ES   2   1421 10.74                             130    0.47 5  165 352 
 ZAR  HZ EP   2   1420 51.15                             123   -0.38 4  209 293 
 ZAR  HE ES   2   1421 17.35                             123   -0.20 4  209 293 
 ZAR  HZ I        1421 22.94        20.7 0.44                           209 293 
 NOR  SZ EP       1420 53.97                             120   -0.31 8  235 236 
 NOR  SN ES   1   1421 22.78                             120    0.33 6  235 236 
 RREF HZ EP   3   1421  4.66                             112    0.12 2  321 230 
 RREF HZ I        1421 46.80         7.2 0.30                           321 230 
 PRA  HN ES   3   1421 52.04                             108   -1.31 1  390 210 
                                                                                
