 2012  1 2 1449  9.4 L   6.737 -73.084137.1  RSN  4 0.2 1.9LRSN                1
 GAP=147        0.54       4.4     4.8  5.6 -0.4683E+01 -0.1235E+01  0.8769E+01E
 Epicentro: JORDAN - SANTANDER                                                 3
 ACTION:UP  12-02-03 08:13 OP:REBC STATUS:               ID:20120102144909 L   I
 2012-01-02-1440-00M.COL___187                                                 6
 STAT SP IPHASW D HRMM SECON CODA AMPLIT PERI AZIMU VELO SNR AR TRES W  DIS CAZ7
 BAR2 SZ EP       1449 28.06                             172     0.110   19 214 
 BAR2 SZ ES   1   1449 42.30                             172    -0.1 7   19 214 
 BAR2 SZ I        1449 44.39        20.1 0.20                            19 214 
 PAM  SZ EP       1449 31.02                             149     0.210   79  33 
 PAM  SE ES       1449 47.41                             149    -0.110   79  33 
 BRR  HZ EP       1449 29.92                             148    -0.310   81 301 
 BRR  HZ I        1449 30.96        15.3 0.30                            81 301 
 BRR  HN ES   1   1449 46.65                             148     0.2 7   81 301 
 RUS  HZ EP       1449 31.82                             144     0.010   93 180 
                                                                                
