 2012  3 2 1723 35.5 L   6.733 -73.136151.2  RSN  7 0.4 1.8LRSN                1
 GAP=141        0.97       6.5     6.6  8.7 -0.6178E+01  0.7329E+01  0.1139E+02E
 ACTION:UP  12-03-31 23:16 OP:EP   STATUS:               ID:20120302172335 L   I
 2012-03-02-1720-00M.COL___191                                                 6
 STAT SP IPHASW D HRMM SECON CODA AMPLIT PERI AZIMU VELO SNR AR TRES W  DIS CAZ7
 BAR2 SZ ES   1   1724 11.07                             173    -0.3 7   16 198 
 BAR2 SZ I        1724 11.98        16.4 0.37                            16 198 
 BRR  HZ EP   1   1723 57.80                             152     0.3 7   76 303 
 BRR  HZ I        1723 58.23        18.0 0.13                            76 303 
 BRR  HN ES   1   1724 15.14                             152     0.5 7   76 303 
 PAM  SZ EP   1   1723 58.73                             150     0.1 7   83  36 
 PAM  SZ I        1723 59.06        15.5 0.19                            83  36 
 PAM  SN ES   1   1724 16.02                             150    -0.6 7   83  36 
 RUS  HZ EP   1   1723 59.81                             147     0.6 7   93 176 
 RUS  HN ES   1   1724 18.10                             147     0.3 7   93 176 
 RUS  HZ I        1724 19.70         6.3 0.62                            93 176 
 PTB  HZ EP   1   1724  2.78                             133    -0.1 7  148 262 
 PTB  HN ES   1   1724 23.85                             133    -0.4 7  148 262 
 NOR  SN ES   2   1724 38.91                             120    -0.1 4  231 236 
 CHI  HZ EP   1   1724 11.98                             119    -0.8 6  242 196 
 CHI  HZ I        1724 14.82         4.2 0.49                           242 196 
                                                                                
