 2014  9 2 1141  1.1 L   6.795 -73.142147.2  RSN 21 0.3 2.4LRSN                1
 GAP= 71        0.68       1.8     2.2  3.3 -0.3497E+00  0.1217E+01  0.8061E+00E
 Epicentro: LOS SANTOS - SANTANDER                                             3
 ACTION:UPD 14-10-03 23:01 OP:nd   STATUS:               ID:20140902114101 L   I
 OLDACT:REG 14-09-02 20:14 OP:fm   STATUS:               ID:20140902113819     3
 2014-09-02-1138-19M.COL___263                                                 6
 STAT SP IPHASW D HRMM SECON CODA AMPLIT PERI AZIMU VELO AIN AR TRES W  DIS CAZ7
 BAR2 SZ EP     D 1141 20.77                             171   -0.1510 22.9 191 
 BAR2 SZ ES   1   1141 36.07                             171   -0.28 7 22.9 191 
 BAR2 SZ I        1141 37.37        90.9 0.16            168           22.9 191 
 BRR  HZ EP     C 1141 22.60                             153    0.1410 71.8 299 
 BRR  HN ES       1141 39.45                             153    0.3510 71.8 299 
 BRR  HZ I        1141 43.17        33.4 0.30            149           71.8 299 
 PAM  SZ EP       1141 23.53                             151    0.0310 77.5  39 
 PAM  SN ES       1141 40.99                             151    0.0410 77.5  39 
 PAM  SZ I        1141 43.01        37.6 0.52            155           77.5  39 
 RUS  HZ EP       1141 24.85                             144   -0.1210  100 176 
 RUS  HE ES       1141 43.33                             144   -0.2410  100 176 
 RUS  HZ I        1141 44.67        52.1 0.28            145            100 176 
 PTB  HZ EP       1141 27.78                             132   -0.46 9  148 259 
 PTB  HE ES       1141 49.45                             132    0.07 9  148 259 
 PTB  HZ I        1141 54.24        25.3 0.33            130            148 259 
 TAM  HZ IP     C 1141 29.06                             131    0.20 9  155 105 
 TAM  HN ES   1   1141 50.95                             131    0.45 7  155 105 
 TAM  HZ I        1141 51.95        15.6 0.34            134            155 105 
 OCA  HZ EP       1141 29.39                             130   -0.21 9  161 353 
 OCA  HN ES       1141 51.72                             130   -0.09 9  161 353 
 OCA  HZ I        1141 57.11        19.1 0.28            130            161 353 
 SPBC HZ EP       1141 29.71                             129   -0.01 9  163 219 
 SPBC HE ES       1141 52.18                             129    0.16 9  163 219 
 SPBC HZ I        1141 54.45        59.4 0.34            128            163 219 
 ZAR  HZ EP   1   1141 33.90                             123    0.18 6  205 292 
 ZAR  HN ES       1141 59.27                             123    0.12 9  205 292 
 ZAR  HZ I        1142  5.10        25.8 0.34            122            205 292 
 NOR  HZ EP       1141 36.84                             119   -0.10 8  235 235 
 NOR  HN ES       1142  4.57                             119   -0.30 8  235 235 
 NOR  HZ I        1142 10.48        20.0 0.18            118            235 235 
 SML  HZ EP       1141 37.38                             118   -0.52 8  244 335 
 SML  HE ES   1   1142  6.78                             118    0.19 6  244 335 
 SML  HZ I        1142  9.86        38.6 0.07            118            244 335 
 CHI  HZ EP       1141 38.83                             117   -0.03 8  248 195 
 CHI  HN ES       1142  8.25                             117   -0.04 8  248 195 
 CHI  HZ I        1142 13.79        11.0 0.26            118            248 195 
 ROSC BZ EP   4   1141 40.75                             117    1.45 0  253 211 
 ROSC BN ES   4   1142 11.49                             117    2.42 0  253 211 
 ROSC BZ I        1142 16.39        22.1 0.35            117            253 211 
 HEL  HZ EP   1   1141 41.23                             115   -0.21 6  272 256 
 HEL  HN ES   4   1142 14.06                             115    1.18 0  272 256 
 HEL  HZ I        1142 19.84         9.0 0.24            114            272 256 
 GUY2CHZ EP       1141 45.61                             113    0.81 7  301 235 
 GUY2CHE ES   4   1142 22.33                             113    3.46 0  301 235 
 GUY2CHZ I        1142 28.34        10.2 0.64                           301 235 
 TOL  SZ EP       1141 50.34                             110    0.91 7  343 225 
 TOL  SN ES   4   1142 29.25                             110    2.15 0  343 225 
 TOL  SZ I        1142 35.17        23.1 0.50            109            343 225 
 MON  HZ EP   4   1141 47.88                             109   -2.38 0  354 308 
 MON  HN ES   4   1142 26.78                             109   -1.80 0  354 308 
 MON  HZ I        1142 41.64         6.9 0.54            109            354 308 
 ANIL HZ EP   4   1141 52.98                             109    2.01 0  357 225 
 ANIL HN ES   4   1142 33.00                             109    3.15 0  357 225 
 ANIL HZ I        1142 37.35         3.1 0.36            109            357 225 
 PRA  HZ EP       1141 54.18                             107   -0.48 6  392 210 
 PRA  HN ES   4   1142 39.37                             107    2.95 0  392 210 
 PRA  HZ I        1142 42.82        11.7 0.46            107            392 210 
 ORTC HZ EP   1   1141 55.23                             107    0.16 4  395 216 
 ORTC HN ES   4   1142 39.30                             107    2.15 0  395 216 
 ORTC HZ I        1142 43.79         8.2 0.48            107            395 216 
 SJC  HZ EP   4   1141 54.91                             106   -1.90 0  410 327 
 SJC  HN ES   4   1142 37.81                             106   -2.44 0  410 327 
 SJC  HZ I        1142 40.36         5.0 0.48            106            410 327 
                                                                                
