 2016  2 2 1833 33.9 L   6.805 -73.111148.0  RSN  8 0.4 2.0LRSN                1
 GAP=141        0.85       2.7     4.2  5.6 -0.1255E+01  0.1101E+02  0.2244E+00E
 Epicentro: LOS SANTOS - SANTANDER                                             3
 ACTION:UPD 16-03-04 21:22 OP:rebc STATUS:               ID:20160202183333 L   I
 OLDACT:REG 16-02-02 21:12 OP:cara STATUS:               ID:20160202182759     3
 2016-02-02-1827-59S.COL___184                                                 6
 STAT SP IPHASW D HRMM SECON CODA AMPLIT PERI AZIMU VELO AIN AR TRES W  DIS CAZ7
 BAR2 EZ IP     C 1833 53.63                             170   -0.1810 24.8 199 
 BAR2 EZ ES       1834  9.06                             170   -0.3010 24.8 199 
 BAR2 EZ I        1834 10.19        25.6 0.18            168           24.8 199 
 PAM  EZ IP       1833 56.52                             152    0.3510 74.6  38 
 PAM  EN ES       1834 13.90                             152    0.3410 74.6  38 
 PAM  EZ I        1834 15.86        17.7 0.52            155           74.6  38 
 RUS  HZ EP       1833 57.57                             144   -0.3110  101 178 
 RUS  HN ES       1834 16.95                             144    0.3510  101 178 
 RUS  HZ I        1834 17.29         7.4 0.28            147            101 178 
 ZAR  HN ES       1834 32.22                             122   -0.29 8  207 292 
 ZAR  HZ I        1834 42.11         7.2 0.38            122            207 292 
 NOR  HZ EP       1834 10.19                             119    0.08 8  238 235 
 NOR  HN ES       1834 38.36                             119   -0.01 8  238 235 
 NOR  HZ I        1834 42.87         7.3 0.20            119            238 235 
 SML  HZ IP       1834 10.55                             118   -0.20 8  245 334 
 SML  HN ES       1834 39.36                             118   -0.16 8  245 334 
 SML  HZ I        1834 41.55        13.3 0.10            119            245 334 
 CHI  HZ EP       1834 11.58                             117   -0.29 8  250 196 
 CHI  HN ES       1834 40.95                             117   -0.56 8  250 196 
 CHI  HZ I        1834 44.25         4.0 0.58            119            250 196 
 GUY2CHZ EP       1834 18.83                             112    0.85 7  305 235 
 GUY2CHN ES       1834 52.90                             112    0.52 7  305 235 
 GUY2CHZ I        1835  1.40         5.1 0.46                           305 235 
                                                                                
