 2016  8 2 1536 56.6 L   6.687 -73.160147.2  RSN  4 0.3 1.6LRSN                1
 GAP=246        0.73       8.4     5.5  6.9  0.1340E+02  0.2331E+01  0.5018E+01E
 Epicentro: VILLANUEVA - SANTANDER                                             3
 ACTION:UPD 16-10-29 15:31 OP:rebc STATUS:               ID:20160802153656 L   I
 OLDACT:REG 16-08-02 20:12 OP:dani STATUS:               ID:20160802152759     3
 2016-08-02-1527-59S.COL___337                                                 6
 STAT SP IPHASW D HRMM SECON CODA AMPLIT PERI AZIMU VELO AIN AR TRES W  DIS CAZ7
 BAR2 EZ EP       1537 16.09                             176   -0.1410 10.8 193 
 BAR2 EZ ES   2   1537 32.00                             176    0.46 5 10.8 193 
 BAR2 EZ I        1537 32.22         6.8 0.28                          10.8 193 
 BRR  HZ EP     C 1537 18.34                             151    0.1010 76.7 307 
 BRR  HE ES       1537 34.89                             151   -0.2110 76.7 307 
 BRR  HZ I        1537 37.58        13.3 0.32                          76.7 307 
 PTB  HZ EP       1537 22.99                             133   -0.40 9  144 264 
 PTB  HE ES       1537 44.48                             133    0.20 9  144 264 
 PTB  HZ I        1537 48.92         3.3 0.32                           144 264 
 ZAR  HZ EP       1537 30.11                             122    0.58 8  208 295 
 ZAR  HE ES       1537 55.05                             122   -0.15 8  208 295 
 ZAR  HZ I        1538  0.34         2.9 0.40                           208 295 
                                                                                
