 2016  1 2 1935 39.0 L   6.810 -73.148146.5  RSN 24 0.5 2.7LRSN                1
 GAP= 65        0.98       2.5     3.0  4.7 -0.1847E+01  0.2840E+01  0.2468E+01E
 Epicentro: LOS SANTOS - SANTANDER                                             3
 ACTION:UPD 16-03-09 23:22 OP:cam  STATUS:               ID:20160102193539 L   I
 OLDACT:REG 16-01-02 21:01 OP:dnl  STATUS:               ID:20160102192746     3
 2016-01-02-1927-46M.COL___313                                                 6
 STAT SP IPHASW D HRMM SECON CODA AMPLIT PERI AZIMU VELO AIN AR TRES W  DIS CAZ7
 BAR2 EZ EP     C 1935 58.71                             170   -0.0310 24.4 189 
 BAR2 EZ ES   2   1936 13.92                             170   -0.22 5 24.4 189 
 BAR2 EZ I        1936 15.12       191.4 0.15            169           24.4 189 
 BRR  HZ EP     C 1936  0.57                             153    0.3810 70.4 298 
 BRR  HN ES       1936 17.23                             153    0.5210 70.4 298 
 BRR  HZ I        1936 18.96        53.4 0.12            149           70.4 298 
 PAM  EZ IP     D 1936  1.51                             151    0.2510 76.7  40 
 PAM  EN ES       1936 18.77                             151    0.1610 76.7  40 
 PAM  EZ I        1936 21.49        52.6 0.54            154           76.7  40 
 RUS  HZ EP     C 1936  2.57                             144   -0.3410  102 176 
 RUS  HN ES       1936 21.44                             144   -0.1110  102 176 
 RUS  HZ I        1936 23.02        71.2 0.23            146            102 176 
 PTB  HZ EP   2   1936  5.24                             132   -0.79 5  148 258 
 PTB  HN ES       1936 26.44                             132   -0.66 9  148 258 
 PTB  HZ I        1936 28.67        62.0 0.15            131            148 258 
 TAM  HZ EP     D 1936  6.91                             131    0.12 9  156 105 
 TAM  HN ES   2   1936 27.74                             131   -0.72 5  156 105 
 TAM  HZ I        1936 27.99        21.0 0.25            135            156 105 
 OCA  HZ EP       1936  7.14                             130   -0.13 9  159 353 
 OCA  HE ES       1936 29.19                             130   -0.12 9  159 353 
 OCA  HZ I        1936 33.74        94.4 0.34            130            159 353 
 SPBC HZ EP       1936  7.70                             129    0.07 9  164 219 
 SPBC HN ES       1936 29.97                             129    0.02 9  164 219 
 SPBC HZ I        1936 32.45       100.8 0.10            129            164 219 
 ZAR  HZ EP   2   1936 11.19                             123   -0.24 4  203 292 
 ZAR  HE ES   2   1936 36.39                             123   -0.33 4  203 292 
 ZAR  HZ I        1936 47.47        43.9 0.29            122            203 292 
 NOR  HZ EP       1936 14.54                             119   -0.28 8  235 234 
 NOR  HN ES   2   1936 42.26                             119   -0.50 4  235 234 
 NOR  HZ I        1936 46.28        49.0 0.18            119            235 234 
 SML  HZ EP       1936 15.13                             118   -0.42 8  243 335 
 SML  HN ES   2   1936 43.27                             118   -0.79 4  243 335 
 SML  HZ I        1936 48.98        34.4 0.12            118            243 335 
 CHI  HZ EP       1936 16.70                             117   -0.15 8  250 195 
 CHI  HN ES       1936 45.80                             117   -0.57 8  250 195 
 CHI  HZ I        1936 48.55        17.6 0.47            118            250 195 
 ROSC BZ EP   2   1936 18.45                             117    1.19 4  254 211 
 ROSC BN ES       1936 48.13                             117    1.04 8  254 211 
 ROSC BZ I        1936 54.30        47.3 0.53            117            254 211 
 HEL  HZ EP       1936 19.99                             115    0.73 8  272 256 
 HEL  HN ES       1936 50.93                             115    0.28 8  272 256 
 HEL  HZ I        1936 57.88        22.7 0.19            115            272 256 
 URE  HZ EP   2   1936 19.28                             114   -0.76 4  283 292 
 URE  HE ES   4   1936 50.14                             114   -1.90 0  283 292 
 URE  HZ I        1936 58.94        18.9 0.15            114            283 292 
 SOCV BZ EP   4   1936 20.32                             112   -1.73 0  301  57 
 SOCV BN ES   4   1936 51.96                             112   -3.66 0  301  57 
 GUY2CHZ EP       1936 23.88                             112    1.18 7  302 235 
 GUY2CHN ES       1936 57.21                             112    0.44 7  302 235 
 GUY2CHZ I        1937  9.20        24.4 0.53                           302 235 
 VIL  SZ EP   2   1936 22.54                             112   -0.04 4  304 191 
 VIL  SN ES   2   1936 56.69                             112    0.13 4  304 191 
 PTGC HZ EP   2   1936 22.02                             112   -1.01 4  310 159 
 PTGC HN ES   4   1936 55.16                             112   -2.20 0  310 159 
 PTGC HZ I        1936 57.24        24.6 0.61            113            310 159 
 CBOC HZ EP   2   1936 26.69                             110    0.73 3  334 252 
 CBOC HN ES       1937  1.42                             110   -1.16 7  334 252 
 CBOC HZ I        1937  6.82         7.8 0.29            110            334 252 
 DBB  SZ EP   2   1936 26.06                             110   -0.41 3  339 274 
 DBB  SZ ES   4   1936 58.82                             110   -4.67 0  339 274 
 DBB  SZ I        1937  6.99        44.5 0.55            110            339 274 
 ANIL HZ EP       1936 29.92                             108    1.01 6  358 224 
 ANIL HE ES       1937  7.64                             108   -0.19 6  358 224 
 ANIL HZ I        1937 15.10        47.5 0.33            109            358 224 
 PRA  HZ EP       1936 32.27                             107   -0.38 6  393 209 
 PRA  HN ES       1937 13.92                             107   -0.57 6  393 209 
 PRA  HZ I        1937 20.84        23.1 0.22            107            393 209 
 ORTC HZ EP       1936 32.57                             106   -0.47 6  396 216 
 ORTC HE ES       1937 15.04                             106   -0.14 6  396 216 
 ORTC HZ I        1937 22.37        17.0 0.48            107            396 216 
 PAL  HZ EP       1936 34.39                             106    0.16 6  406 239 
 PAL  HE ES   4   1937 14.22                             106   -3.08 0  406 239 
 PAL  HZ I        1937 21.43         8.8 0.16            106            406 239 
                                                                                
