 2017  8 2 1155 14.7 L   6.774 -73.153140.6  RSN 12 0.4 1.9LRSN                1
 GAP=137        1.01       3.4     3.6  5.6 -0.4828E+00  0.5191E+01  0.2563E+01E
 Epicentro: LOS SANTOS - SANTANDER                                             3
 ACTION:UPD 17-09-04 20:15 OP:rebc STATUS:               ID:20170802115514 L   I
 OLDACT:REG 17-08-02 21:07 OP:dhb  STATUS:               ID:20170802114743     3
 2017-08-02-1148-00M.COL___389                                                 6
 STAT SP IPHASW D HRMM SECON CODA AMPLIT PERI AZIMU VELO AIN AR TRES W  DIS CAZ7
 BAR2 EZ IP     D 1155 33.37                             171   -0.2510 20.4 189 
 BAR2 EZ ES       1155 48.26                             171   -0.1410 20.4 189 
 BAR2 EZ I        1155 49.35        31.6 0.24            172           20.4 189 
 BRR  HZ IP     C 1155 35.27                             151   -0.0310 71.9 301 
 BRR  HN ES       1155 52.24                             151    0.8410 71.9 301 
 BRR  HZ I        1155 53.91        21.3 0.16            151           71.9 301 
 PAM  EZ IP     C 1155 36.36                             149   -0.1410 80.0  39 
 PAM  EN ES       1155 53.04                             149   -0.4910 80.0  39 
 PAM  EZ I        1155 55.35        18.3 0.64            151           80.0  39 
 RUS  HZ EP       1155 37.78                             144    0.0710 97.8 175 
 RUS  HN ES       1155 56.10                             144    0.4210 97.8 175 
 RUS  HZ I        1155 56.84         6.9 0.24            146           97.8 175 
 PTB  HZ IP     C 1155 40.46                             131   -0.64 9  146 260 
 PTB  HN ES       1156  1.17                             131   -0.55 9  146 260 
 PTB  HZ I        1156  3.26         9.4 0.16            132            146 260 
 SPBC HZ EP       1155 42.45                             128   -0.07 9  161 219 
 SPBC HN ES       1156  4.25                             128    0.01 9  161 219 
 SPBC HZ I        1156  6.47         8.5 0.08            130            161 219 
 ZAR  HZ EP       1155 47.63                             121    0.81 9  204 293 
 ZAR  HE ES       1156 12.26                             121    0.36 9  204 293 
 ZAR  HZ I        1156 18.13        10.8 0.32            122            204 293 
 NOR  HZ EP       1155 50.27                             118    0.41 8  232 235 
 NOR  HN ES       1156 16.74                             118   -0.56 8  232 235 
 NOR  HZ I        1156 19.06         5.6 0.34            119            232 235 
 CHI  HZ EP   1   1155 51.86                             116    0.10 6  246 195 
 CHI  HN ES       1156 21.05                             116    0.35 8  246 195 
 URE  HZ EP   9   1155 54.00                             113   -1.53 0  284 292 
 URE  HE ES       1156 25.99                                    0.12 7  284 292 
 URE  HZ I        1156 27.00         5.7 0.12            113            284 292 
 GUY2CHZ EP   9   1155 59.50                             112    1.72 0  299 235 
 GUY2CHN ES       1156 33.26                                    0.13 7  299 235 
 GUY2CHZ I        1156 39.96         3.4 0.44                           299 235 
 DBB  EZ EP   3   1156  2.13                             109    0.26 2  339 275 
 DBB  EN ES       1156 38.19                             109   -0.51 7  339 275 
 DBB  EZ I        1156 40.63         2.6 0.09            110            339 275 
                                                                                
