 2014  7 2 1011 38.0 L   6.815 -73.157142.2  RSN 12 0.4 1.8LRSN                1
 GAP=193        0.79       2.4     4.1  5.4 -0.3252E+01  0.2488E+01  0.5466E+00E
 Epicentro: LOS SANTOS - SANTANDER                                             3
 ACTION:UPD 15-03-16 20:40 OP:nd   STATUS:               ID:20140702101138 L   I
 OLDACT:REG 14-07-02 20:01 OP:spq  STATUS:               ID:20140702100814     3
 2014-07-02-1008-14M.COL___241                                                 6
 STAT SP IPHASW D HRMM SECON CODA AMPLIT PERI AZIMU VELO AIN AR TRES W  DIS CAZ7
 BAR2 SZ EP       1011 57.56                             170    0.3110 24.8 186 
 BAR2 SZ ES   1   1012 12.10                             170   -0.16 7 24.8 186 
 BAR2 SZ I        1012 13.86        13.9 0.12            166           24.8 186 
 PTB  HZ EP       1012  4.51                             131   -0.10 9  147 258 
 PTB  HN ES       1012 24.94                             131   -0.42 9  147 258 
 PTB  HZ I        1012 29.17         5.5 0.17            129            147 258 
 OCA  HZ EP       1012  5.16                             129   -0.72 9  158 354 
 OCA  HN ES       1012 27.93                             129    0.32 9  158 354 
 OCA  HZ I        1012 32.64         5.1 0.28            129            158 354 
 SPBC HZ EP       1012  6.52                             128    0.23 9  164 218 
 SPBC HN ES       1012 28.32                             128   -0.03 9  164 218 
 SPBC HZ I        1012 33.92         7.5 0.12            128            164 218 
 ZAR  HZ EP       1012 10.37                             122    0.33 9  202 292 
 ZAR  HN ES       1012 35.20                             122    0.18 9  202 292 
 ZAR  HZ I        1012 41.79         5.6 0.25            120            202 292 
 SML  HZ EP       1012 13.91                             117   -0.31 8  242 335 
 SML  HN ES       1012 42.78                             117    0.33 8  242 335 
 SML  HZ I        1012 52.17         6.0 0.09            117            242 335 
 HEL  HN ES       1012 49.20                             114    0.09 8  271 255 
 HEL  HZ I        1012 58.00         3.1 0.34            114            271 255 
 URE  HZ EP       1012 18.25                             113   -0.46 7  282 292 
 URE  HN ES   4   1012 48.71                             113   -1.74 0  282 292 
 URE  HZ I        1013  2.35         4.7 0.32            113            282 292 
 GUY2CHZ EP       1012 22.18                             112    0.73 7  301 234 
 GUY2CHN ES       1012 55.52                             112    0.18 7  301 234 
 GUY2CHZ I        1013  4.13         4.0 0.40                           301 234 
 RREF HN ES       1012 59.42                             110   -0.49 7  322 229 
 RREF HZ I        1013 10.13         3.0 0.27            111            322 229 
 PRA  HZ EP       1012 31.29                             106   -0.22 6  393 209 
 PRA  HN ES       1013 13.59                             106    0.35 6  393 209 
 PRA  HZ I        1013 20.55         2.2 0.28            107            393 209 
 ORTC HZ EP       1012 31.73                             106   -0.16 6  396 216 
                                                                                
