 2016  4 2 1356 49.6 L   6.802 -73.125146.0  RSN  8 0.4 1.9LRSN                1
 GAP=139        0.94       4.2     4.3  6.3 -0.2959E+01  0.1137E+02  0.7253E+00E
 Epicentro: LOS SANTOS - SANTANDER                                             3
 ACTION:UPD 16-05-05 14:18 OP:rebc STATUS:               ID:20160402135649 L   I
 OLDACT:UP  16-04-02 23:12 OP:mh   STATUS:               ID:20160402134745     3
 OLDACT:REG 16-04-02 20:36 OP:mh   STATUS:               ID:20160402134745     3
 2016-04-02-1347-45M.COL___312                                                 6
 STAT SP IPHASW D HRMM SECON CODA AMPLIT PERI AZIMU VELO AIN AR TRES W  DIS CAZ7
 BAR2 EZ IP     D 1357  9.43                             170    0.1410 24.1 195 
 BAR2 EZ ES       1357 23.78                             170   -0.8510 24.1 195 
 BAR2 EZ I        1357 27.16        14.6 0.28            169           24.1 195 
 PAM  EZ EP   1   1357 12.12                             151    0.36 7 75.7  38 
 PAM  EN ES       1357 29.42                             151    0.3910 75.7  38 
 PAM  EZ I        1357 30.97        12.0 0.48            157           75.7  38 
 RUS  HZ EP       1357 13.27                             144   -0.1310  101 177 
 RUS  HE ES       1357 31.97                             144    0.0210  101 177 
 RUS  HZ I        1357 33.64         3.4 0.22            147            101 177 
 PTB  HZ EP       1357 16.38                             131   -0.43 9  150 259 
 PTB  HE ES       1357 38.05                             131    0.03 9  150 259 
 PTB  HZ I        1357 43.02        10.1 0.58            132            150 259 
 SPBC HZ EP       1357 18.42                             129    0.13 9  165 220 
 SPBC HN ES       1357 41.26                             129    0.61 9  165 220 
 SPBC HZ I        1357 47.28        14.0 0.24            131            165 220 
 ZAR  HZ EP   1   1357 21.58                             122   -0.71 6  206 292 
 ZAR  HN ES       1357 48.08                             122    0.31 8  206 292 
 ZAR  HZ I        1357 53.48         8.5 0.24            124            206 292 
 NOR  HZ EP       1357 25.46                             118   -0.12 8  237 235 
 NOR  HN ES       1357 53.83                             118    0.21 8  237 235 
 NOR  HZ I        1357 57.15         5.8 0.43            120            237 235 
 GUY2CHZ EP       1357 33.38                             112   -0.08 7  303 235 
 GUY2CHN ES   4   1358 12.00                             112    4.33 0  303 235 
 GUY2CHZ I        1358 16.00         6.4 0.74                           303 235 
                                                                                
