 2011 12 2 1410 54.9 L   6.771 -73.133148.0  RSN  5 0.2 2.0LRSN                1
 GAP=139        0.36       2.4     4.1  4.4 -0.1008E+01  0.2644E+01  0.6239E+00E
 Epicentro: LOS SANTOS - SANTANDER                                             3
 ACTION:UPD 12-07-13 16:13 OP:ep   STATUS:               ID:20111202141054 L   I
 2011-12-02-1410-00M.COL___180                                                 6
 STAT SP IPHASW D HRMM SECON CODA AMPLIT PERI AZIMU VELO AIN AR TRES W  DIS CAZ7
 BAR2 SZ EP       1411 14.58                             172   -0.1210 20.5 195 
 GIR2 SZ EP   2   1411 14.56                             166   -0.33 5 34.6 349 
 GIR2 SZ ES   3   1411 30.14                             166   -0.37 2 34.6 349 
 BRR  HZ EP       1411 16.44                             152    0.0410 74.0 300 
 BRR  HN ES   2   1411 33.36                             152    0.15 5 74.0 300 
 BRR  HZ I        1411 39.61        18.1 0.38                          74.0 300 
 PAM  SZ EP       1411 17.36                             151   -0.0410 79.0  37 
 PAM  SE ES   1   1411 35.13                             151    0.14 7 79.0  37 
 RUS  HZ EP       1411 18.74                             145    0.1410 97.3 177 
 RUS  HN ES   1   1411 37.06                             145   -0.05 7 97.3 177 
                                                                                
