 2014  3 2 1234 24.4 L   6.808 -73.157143.3  RSN 12 0.4 2.2LRSN                1
 GAP=135        0.88       2.3     3.4  5.0 -0.1060E+01  0.6686E+01 -0.6947E-01E
 Epicentro: LOS SANTOS - SANTANDER                                             3
 ACTION:UPD 14-04-09 23:13 OP:nd   STATUS:               ID:20140302123424 L   I
 OLDACT:UP  14-03-02 17:37 OP:cam  STATUS:               ID:20140302122810     3
 OLDACT:REG 14-03-02 16:45 OP:cam  STATUS:               ID:20140302122810     3
 2014-03-02-1228-10M.COL___229                                                 6
 STAT SP IPHASW D HRMM SECON CODA AMPLIT PERI AZIMU VELO AIN AR TRES W  DIS CAZ7
 BAR2 SZ IP     C 1234 43.73                             170   -0.0110 24.0 187 
 BAR2 SZ ES       1234 58.70                             170   -0.1310 24.0 187 
 BAR2 SZ I        1235  1.57        57.5 0.27            169           24.0 187 
 PAM  SZ EP       1234 46.68                             150    0.3210 77.6  41 
 PAM  SN ES       1235  4.06                             150    0.5710 77.6  41 
 PAM  SZ I        1235  6.01        23.2 0.50            155           77.6  41 
 RUS  HZ EP     D 1234 47.57                             143   -0.4010  102 175 
 RUS  HN ES       1235  6.38                             143    0.0210  102 175 
 RUS  HZ I        1235  7.55        10.1 0.26            145            102 175 
 PTB  HZ EP       1234 50.61                             132   -0.45 9  147 258 
 PTB  HN ES       1235 11.29                             132   -0.57 9  147 258 
 PTB  HZ I        1235 14.75        18.2 0.12            133            147 258 
 OCA  HN ES       1235 13.99                             129   -0.29 9  159 354 
 SPBC HZ EP       1234 52.71                             128    0.02 9  163 218 
 SPBC HN ES       1235 14.76                             128    0.00 9  163 218 
 SPBC HZ I        1235 21.62        33.9 0.22            130            163 218 
 ZAR  HZ EP       1234 56.39                             122   -0.13 9  203 292 
 ZAR  HE ES       1235 22.07                             122    0.49 9  203 292 
 NOR  HZ EP       1234 59.85                             118   -0.07 8  234 234 
 NOR  HN ES       1235 28.08                             118    0.45 8  234 234 
 NOR  HZ I        1235 31.88        15.8 0.18            120            234 234 
 SML  HZ EP       1235  0.24                             117   -0.50 8  242 335 
 SML  HN ES       1235 28.90                             117   -0.19 8  242 335 
 SML  HZ I        1235 34.17        15.3 0.10            119            242 335 
 CHI  HZ EP       1235  2.17                             116    0.16 8  249 195 
 CHI  HN ES       1235 30.97                             116   -0.37 8  249 195 
 CHI  HZ I        1235 34.90         5.7 0.38            119            249 195 
 HEL  HZ EP       1235  5.05                             114    0.69 8  271 256 
 HEL  HE ES       1235 35.74                             114    0.20 8  271 256 
 HEL  HN I        1235 41.34         6.9 0.28            116            271 256 
 GUY2CHZ EP       1235  8.41                             112    0.59 7  301 235 
 GUY2CHZ I        1235 50.27         7.2 0.26                           301 235 
                                                                                
