 2011  3 2 1943 41.4 L   6.431 -73.678103.4  RSN 12 0.3 2.4LRSN                1
 GAP= 88        0.53       2.2     4.0  4.8 -0.2588E+01  0.1218E+02 -0.3689E-01E
 Epicentro: SANTA HELENA DEL OPON - SANTANDER                                  3
 ACTION:UP  11-06-16 14:31 OP:jfem STATUS:               ID:20110302194341 L   I
 2011-03-02-1940-56S.COL___136                                                 6
 STAT SP IPHASW D HRMM SECON CODA AMPLIT PERI AZIMU VELO SNR AR TRES W  DIS CAZ7
 BAR2 SZ EP       1943 57.62                             148     0.010   57  72 
 BAR2 SZ ES       1944 10.26                             148     0.110   57  72 
 BAR2 SZ I        1944 11.74       208.8 0.23                            57  72 
 RUS  HZ EP       1943 59.95                             136    -0.310   89 132 
 RUS  HZ I        1944  0.85        37.9 0.10                            89 132 
 RUS  HE ES   1   1944 15.01                             136     0.0 7   89 132 
 YOP  SZ EP       1944  9.75                             114     0.4 9  183 131 
 YOP  SZ I        1944 33.56        14.8 0.25                           183 131 
 GRA  SZ IP       1944  9.85                             113     0.0 9  188  31 
 GRA  SZ ES   1   1944 32.10                             113     0.1 7  188  31 
 GRA  SZ I        1944 36.05        34.1 0.22                           188  31 
 CHI  HZ EP   1   1944 11.15                             112    -0.3 6  199 182 
 CHI  HE ES   2   1944 35.27                             112     0.3 4  199 182 
 CHI  HZ I        1944 47.77        10.2 0.53                           199 182 
 OCA  SZ EP   2   1944 11.39                             111    -0.3 4  204  11 
 OCA  SZ I        1944 42.01        50.8 0.12                           204  11 
 HEL  HZ EP   2   1944 12.18                             111    -0.1 4  206 263 
 HEL  HN ES   3   1944 36.16                             111    -0.1 2  206 263 
 HEL  HZ I        1944 39.01        18.8 0.43                           206 263 
 RREF HZ EP   1   1944 17.54                             107    -0.1 6  251 228 
 RREF HN ES   3   1944 47.07                             107     1.1 2  251 228 
 RREF HZ I        1944 53.34        27.7 0.30                           251 228 
 VIL  SZ EP   3   1944 16.62                             106    -1.1 2  256 180 
 DBB  SZ EP   2   1944 21.56                             103     0.2 4  287 283 
 PRA  HZ EP   1   1944 26.45                             101     0.2 5  329 204 
 PRA  HN ES   3   1945  1.81                             101     0.6 2  329 204 
 SJA  SZ EP       1944 28.73                              99    -0.2 6  351 185 
 SJA  SZ ES   1   1945  5.85                              99    -0.1 5  351 185 
                                                                                
