 2016  9 2 1753 20.0 L   6.786 -73.141148.8  RSN  8 0.3 1.9LRSN                1
 GAP=138        0.86       3.5     3.5  5.2 -0.1534E+01  0.5289E+01  0.1055E+01E
 Epicentro: LOS SANTOS - SANTANDER                                             3
 ACTION:UPD 17-08-17 21:05 OP:lp   STATUS:               ID:20160902175320 L   I
 OLDACT:REG 16-09-02 21:38 OP:edw  STATUS:               ID:20160902174733     3
 2016-09-02-1748-00M.COL___353                                                 6
 STAT SP IPHASW D HRMM SECON CODA AMPLIT PERI AZIMU VELO AIN AR TRES W  DIS CAZ7
 BAR2 EZ EP       1753 39.85                             171   -0.1310 21.9 192 
 BAR2 EZ ES       1753 55.52                             171   -0.0310 21.9 192 
 BAR2 EZ I        1753 56.40        21.3 0.20            167           21.9 192 
 BRR  HZ EP       1753 41.63                             153    0.0710 72.4 299 
 BRR  HE ES       1753 58.90                             153    0.5410 72.4 299 
 BRR  HZ I        1754  2.76        12.5 0.28            150           72.4 299 
 PAM  EZ EP       1753 42.75                             151    0.1510 78.2  39 
 PAM  EE ES       1754  0.04                             151   -0.1810 78.2  39 
 RUS  HZ EP       1753 43.74                             145   -0.2110 99.0 176 
 RUS  HN ES       1754  2.54                             145   -0.0810 99.0 176 
 RUS  HZ I        1754  4.05         5.8 0.50            146           99.0 176 
 PTB  HZ EP       1753 46.57                             133   -0.68 9  148 259 
 PTB  HE ES       1754  8.35                             133   -0.14 9  148 259 
 PTB  HZ I        1754 15.00         7.9 0.24            131            148 259 
 SPBC HZ EP       1753 48.83                             130    0.16 9  162 219 
 SPBC HN ES       1754 11.32                             130    0.31 9  162 219 
 SPBC HZ I        1754 15.18        20.0 0.22            130            162 219 
 ZAR  HZ EP       1753 53.24                             123    0.47 9  205 292 
 ZAR  HN ES       1754 17.80                             123   -0.51 9  205 292 
 ZAR  HZ I        1754 22.95         8.4 0.34            123            205 292 
 NOR  HZ EP       1753 56.46                             119    0.59 8  234 235 
 NOR  HN ES       1754 23.62                             119   -0.22 8  234 235 
 NOR  HZ I        1754 33.34         3.9 0.18            119            234 235 
                                                                                
