 2011 12 2 1940 59.5 L   6.766 -73.072144.0  RSN  5 0.1 2.1LRSN                1
 GAP=148        0.39       5.5     5.2  8.0  0.7313E+01 -0.8244E+00  0.2811E+02E
 Epicentro: LOS SANTOS - SANTANDER                                             3
 ACTION:UPD 12-07-13 16:13 OP:ep   STATUS:               ID:20111202194059 L   I
 2011-12-02-1940-00M.COL___180                                                 6
 STAT SP IPHASW D HRMM SECON CODA AMPLIT PERI AZIMU VELO AIN AR TRES W  DIS CAZ7
 BAR2 SZ EP   1   1941 19.05                             170    0.17 7 22.8 212 
 GIR2 SZ EP   1   1941 19.30                             165    0.19 7 37.1 339 
 PAM  SE ES   2   1941 38.33                             151   -0.16 5 75.5  33 
 BRR  HZ EP       1941 20.84                             149   -0.1310 80.2 298 
 BRR  HN ES   1   1941 37.78                             149    0.05 7 80.2 298 
 BRR  HZ I        1941 38.36        20.8 0.40                          80.2 298 
 RUS  HZ EP       1941 22.71                             145   -0.0610 96.6 181 
                                                                                
