 2015  6 2 1234 25.0 L   6.813 -73.161147.7  RSN 12 0.5 2.6LRSN                1
 GAP=134        1.15       2.8     4.5  6.0 -0.1006E+01  0.9696E+01  0.1300E+00E
 Epicentro: LOS SANTOS - SANTANDER                                             3
 ACTION:UPD 15-09-10 22:09 OP:cam  STATUS:               ID:20150602123425 L   I
 OLDACT:UP  15-06-03 00:11 OP:ar   STATUS:               ID:20150602122748     3
 OLDACT:REG 15-06-02 20:43 OP:ar   STATUS:               ID:20150602122748     3
 2015-06-02-1227-48M.COL___294                                                 6
 STAT SP IPHASW D HRMM SECON CODA AMPLIT PERI AZIMU VELO AIN AR TRES W  DIS CAZ7
 BAR2 EZ EP       1234 44.90                             170    0.0410 24.5 186 
 BAR2 EZ ES       1234 59.42                             170   -0.9610 24.5 186 
 BAR2 EZ I        1235  6.22        30.2 0.36            168           24.5 186 
 BRR  HZ EP       1234 46.77                             153    0.5510 69.0 298 
 BRR  HE ES       1235  3.70                             153    0.9110 69.0 298 
 BRR  HZ I        1235  9.23        72.5 0.12            151           69.0 298 
 PAM  SZ EP       1234 47.72                             151    0.3210 77.4  41 
 PAM  SN ES       1235  4.97                             151    0.0810 77.4  41 
 PAM  SZ I        1235  5.98        33.2 0.18            158           77.4  41 
 RUS  HZ EP       1234 49.17                             144    0.1410  102 175 
 RUS  HE ES       1235  7.66                             144   -0.1310  102 175 
 RUS  HZ I        1235  8.87        27.4 0.48            148            102 175 
 OCA  HZ EP       1234 53.53                             130    0.24 9  159 354 
 OCA  HN ES       1235 14.85                             130   -0.52 9  159 354 
 OCA  HZ I        1235 21.20       115.1 0.30            134            159 354 
 SPBC HZ EP       1234 53.78                             129    0.15 9  163 218 
 SPBC HN ES       1235 16.15                             129    0.17 9  163 218 
 SPBC HZ I        1235 23.69        63.1 0.28            132            163 218 
 ZAR  HZ EP       1234 57.51                             123    0.18 9  202 292 
 ZAR  HE ES       1235 23.23                             123    0.66 9  202 292 
 ZAR  HZ I        1235 28.95        41.4 0.30            125            202 292 
 NOR  HZ EP       1235  0.90                             119    0.14 8  234 234 
 NOR  HN ES       1235 28.30                             119   -0.38 8  234 234 
 NOR  HZ I        1235 36.50        23.0 0.54            121            234 234 
 SML  HZ EP       1235  1.52                             118    0.02 8  242 336 
 SML  HE ES       1235 29.24                             118   -0.74 8  242 336 
 SML  HZ I        1235 34.67        79.9 0.10            121            242 336 
 CHI  HZ EP       1235  2.88                             117   -0.01 8  250 195 
 CHI  HN ES       1235 32.09                             117   -0.36 8  250 195 
 CHI  HZ I        1235 38.09        16.1 3.77            121            250 195 
 URE  HZ EP       1235  4.88                             114   -1.03 7  282 292 
 URE  HN ES       1235 37.23                             114   -0.61 7  282 292 
 URE  HZ I        1235 47.59        23.2 0.24            116            282 292 
 GUY2CHZ EP       1235  8.82                             113    0.21 7  301 234 
 GUY2CHN ES       1235 42.73                             113    0.08 7  301 234 
 GUY2CHZ I        1235 51.01        17.1 0.62                           301 234 
                                                                                
