 2013  9 2 1743 30.8 L   6.829 -73.205139.4  RSN  5 0.2 1.5LRSN                1
 GAP=128        0.44       3.4     3.9  5.2 -0.2500E+01  0.4866E+01 -0.4130E+01E
 Epicentro: ZAPATOCA - SANTANDER                                               3
 ACTION:UPD 13-10-22 09:19 OP:ep   STATUS:               ID:20130902174330 L   I
 OLDACT:DUP 13-09-02 21:20 OP:mh   STATUS:               ID:20130902173960d    3
 OLDACT:REG 13-09-02 15:21 OP:mh   STATUS:               ID:20130902173959     3
 2013-09-02-1739-59M.COL___269                                                 6
 STAT SP IPHASW D HRMM SECON CODA AMPLIT PERI AZIMU VELO AIN AR TRES W  DIS CAZ7
 BAR2 SZ EP   1   1743 49.75                             169    0.04 7 26.3 175 
 BAR2 SZ ES   1   1744  4.65                             169    0.18 7 26.3 175 
 BAR2 SZ I        1744  5.27         9.1 0.32            171           26.3 175 
 PAM  SZ EP       1743 52.54                             149    0.0910 79.4  45 
 PAM  SN ES   2   1744  9.21                             149   -0.13 5 79.4  45 
 PAM  SZ I        1744 11.62        10.3 0.78            153           79.4  45 
 RUS  HZ EP   1   1743 54.29                             141    0.09 7  104 173 
 RUS  HN ES   2   1744 11.83                             141   -0.64 5  104 173 
 RUS  HZ I        1744 13.71         2.2 0.64            145            104 173 
 PTB  HZ EP   1   1743 56.62                             132   -0.09 7  142 257 
 PTB  HN ES   2   1744 17.09                             132    0.16 5  142 257 
 PTB  HZ I        1744 21.02         3.3 0.10            133            142 257 
 SML  HN ES   2   1744 33.83                             117   -0.43 4  238 336 
                                                                                
