 2011  7 2 1005 11.0 L   6.769 -73.103142.1  RSN  9 0.3 1.6LRSN                1
 GAP=143        0.50       2.5     4.3  3.8 -0.2809E+01 -0.1991E+01  0.5236E-01E
 Epicentro: LOS SANTOS - SANTANDER                                             3
 ACTION:UPD 12-07-25 13:57 OP:epov STATUS:               ID:20110702100511 L   I
 2011-07-02-1003-14S.COL___140                                                 6
 STAT SP IPHASW D HRMM SECON CODA AMPLIT PERI AZIMU VELO AIN AR TRES W  DIS CAZ7
 BAR2 SZ EP       10 5 30.17                             171    0.0110 21.5 204 
 BAR2 SZ ES   1   10 5 44.68                             171   -0.41 7 21.5 204 
 BAR2 SZ I        10 5 46.71         9.9 0.54                          21.5 204 
 BTL  SZ EP       10 5 30.33                             170    0.1110 24.5 312 
 BTL  SZ ES   1   10 5 45.30                             170    0.09 7 24.5 312 
 GIR2 SZ EP   2   10 5 30.61                             165    0.24 5 35.6 344 
 BRR  HZ EP       10 5 31.97                             150   -0.1310 76.9 299 
 BRR  HZ I        10 5 32.16        13.0 0.17                          76.9 299 
 BRR  HN ES   1   10 5 48.88                             150    0.33 7 76.9 299 
 PAM  SZ EP       10 5 33.09                             150    0.2710 77.2  35 
 PAM  SN ES   1   10 5 49.98                             150    0.14 7 77.2  35 
 RUS  HZ EP       10 5 34.13                             144   -0.0110 97.0 179 
 RUS  HN ES   1   10 5 52.18                             144    0.00 7 97.0 179 
 RUS  HZ I        10 5 55.05         4.6 0.26                          97.0 179 
 BRI  SZ EP   3   10 5 34.87                             140    0.19 2  110  18 
 GRA  SZ EP       10 5 35.99                             136   -0.1010  128  15 
 GRA  SZ ES   1   10 5 55.17                             136   -0.48 7  128  15 
 GRA  SZ I        10 5 56.34         5.4 0.36                           128  15 
 NOR  SZ EP   3   10 5 46.08                             117   -0.65 2  237 236 
 NOR  SN ES   3   10 6 13.76                             117   -0.84 2  237 236 
                                                                                
