 2014  1 2 1251 44.1 L   6.769 -73.143150.8  RSN  8 0.4 1.6LRSN                1
 GAP=201        0.73       2.9     6.0  7.4  0.5276E+01 -0.1006E+02 -0.1534E+01E
 Epicentro: LOS SANTOS - SANTANDER                                             3
 ACTION:UPD 14-03-13 09:50 OP:ep   STATUS:               ID:20140102125144 L   I
 OLDACT:UP  14-01-02 18:10 OP:mher STATUS:               ID:20140102125000     3
 OLDACT:UP  14-01-02 18:10 OP:mher STATUS:               ID:20140102125000     3
 OLDACT:REG 14-01-02 14:54 OP:mh   STATUS:               ID:20140102125000     3
 2014-01-02-1250-00M.COL___285                                                 6
 STAT SP IPHASW D HRMM SECON CODA AMPLIT PERI AZIMU VELO AIN AR TRES W  DIS CAZ7
 BAR2 SZ EP       1252  3.86                             172   -0.4210 20.0 193 
 BAR2 SZ I        1252 22.82         6.0 0.23            174           20.0 193 
 BRR  HZ EP   1   1252  5.93                             153    0.02 7 73.2 301 
 BRR  HN ES   1   1252 23.39                             153    0.47 7 73.2 301 
 BRR  HZ I        1252 25.04         5.4 0.22            155           73.2 301 
 RUS  HZ EP       1252  8.43                             146    0.3210 97.1 176 
 RUS  HN ES   2   1252 26.50                             146   -0.34 5 97.1 176 
 RUS  HZ I        1252 27.66         2.0 0.36            150           97.1 176 
 PTB  HZ EP   1   1252 10.91                             133   -0.55 7  147 260 
 PTB  HN ES   2   1252 32.23                             133   -0.57 5  147 260 
 PTB  HZ I        1252 34.51         4.4 0.10            138            147 260 
 SPBC HZ EP   1   1252 12.99                             131    0.22 7  161 220 
 SPBC HN ES   1   1252 35.54                             131    0.42 7  161 220 
 ZAR  HN ES   1   1252 42.81                             123    0.06 6  206 293 
 ZAR  HN I        1252 48.52        12.3 0.19            125            206 293 
 CHI  HZ EP       1252 22.15                             118    0.41 8  245 195 
 CHI  HN ES       1252 50.69                             118   -0.41 8  245 195 
 SML  HZ EP       1252 21.46                             118    0.09 8  247 336 
 SML  HN ES       1252 50.32                             118   -0.12 8  247 336 
 SML  HZ I        1252 59.02         6.5 0.06            118            247 336 
                                                                                
