 2017 11 2 1433 17.5 L   6.795 -73.131148.0  RSN  6 0.4 1.6LRSN                1
 GAP=139        0.92       4.8     4.5  7.2 -0.5797E+01  0.4153E+01  0.7741E+01E
 Epicentro: LOS SANTOS - SANTANDER                                             3
 ACTION:UPD 17-12-12 19:51 OP:rebc STATUS:               ID:20171102143317 L   I
 OLDACT:REG 17-11-02 20:17 OP:mg   STATUS:               ID:20171102142735     3
 2017-11-02-1428-00M.COL___435                                                 6
 STAT SP IPHASW D HRMM SECON CODA AMPLIT PERI AZIMU VELO AIN AR TRES W  DIS CAZ7
 BAR2 EZ EP       1433 37.21                             171   -0.1410 23.1 194 
 BAR2 EZ ES   2   1433 52.98                             171    0.11 5 23.1 194 
 BAR2 EZ I        1433 55.08         8.6 0.22            168           23.1 194 
 BRR  HZ EP       1433 39.15                             152    0.2110 72.9 298 
 BRR  HN ES       1433 56.19                             152    0.4910 72.9 298 
 BRR  HZ I        1433 58.77         8.9 0.28            150           72.9 298 
 PAM  EZ EP       1433 40.02                             151    0.1510 76.8  38 
 PAM  EN ES       1433 57.11                             151   -0.2510 76.8  38 
 PAM  EZ I        1433 58.59         5.6 0.18            157           76.8  38 
 RUS  HZ EP       1433 41.14                             144   -0.2410 99.9 177 
 RUS  HN ES       1434  0.16                             144    0.1210 99.9 177 
 RUS  HZ I        1434  1.61         4.2 0.24            146           99.9 177 
 PTB  HZ EP   2   1433 43.81                             132   -0.93 5  149 259 
 PTB  HN ES       1434  5.25                             132   -0.78 9  149 259 
 PTB  HZ I        1434 12.62         5.1 0.38            132            149 259 
 NOR  HZ EP       1433 53.87                             119    0.45 8  236 235 
 NOR  HN ES       1434 21.82                             119    0.34 8  236 235 
 NOR  HZ I        1434 29.38         3.6 0.22            120            236 235 
                                                                                
