 2017  3 2 1709 29.6 L   6.762 -73.163144.5  RSN  5 0.3 1.4LRSN                1
 GAP=233        0.76       5.9     5.4  6.1  0.1980E+02  0.4659E+01  0.3358E-01E
 Epicentro: LOS SANTOS - SANTANDER                                             3
 ACTION:UPD 17-05-25 18:35 OP:jn   STATUS:               ID:20170302170929 L   I
 OLDACT:REG 17-03-02 20:41 OP:lv   STATUS:               ID:20170302170746     3
 2017-03-02-1708-00M.COL___387                                                 6
 STAT SP IPHASW D HRMM SECON CODA AMPLIT PERI AZIMU VELO AIN AR TRES W  DIS CAZ7
 BAR2 EZ EP       17 9 48.83                             172   -0.1910 18.9 186 
 BAR2 EZ ES       1710  3.66                             172   -0.4910 18.9 186 
 BAR2 EZ I        1710  4.82         7.0 0.34            171           18.9 186 
 BRR  HZ EP       17 9 50.63                             152   -0.0310 71.7 302 
 BRR  HN ES       1710  7.54                             152    0.4710 71.7 302 
 BRR  HZ I        1710 10.97        12.5 0.24            152           71.7 302 
 RUS  HZ EP       17 9 53.26                             145    0.3010 96.6 175 
 RUS  HN ES       1710 11.39                             145    0.2210 96.6 175 
 RUS  HZ I        1710 12.79         1.9 0.37            146           96.6 175 
 PTB  HZ EP       17 9 56.00                             132   -0.24 9  145 260 
 PTB  HN ES       1710 16.89                             132   -0.12 9  145 260 
 PTB  HZ I        1710 20.41         2.9 0.10            133            145 260 
 ZAR  HN ES       1710 27.22                             122    0.02 9  204 293 
                                                                                
