 2012 12 2 1234 54.1 L   6.789 -73.126150.0  RSN 10 0.5 2.3LRSN                1
 GAP=140        1.15       3.7     5.5  7.0 -0.1324E+01  0.1789E+02 -0.2669E+01E
 Epicentro: LOS SANTOS - SANTANDER                                             3
 ACTION:UPD 13-01-04 14:25 OP:ep   STATUS:               ID:20121202123454 L   I
 2012-12-02-1230-00M.COL___236                                                 6
 STAT SP IPHASW D HRMM SECON CODA AMPLIT PERI AZIMU VELO AIN AR TRES W  DIS CAZ7
 BAR2 SZ EP       1235 14.43                             171    0.2410 22.6 196 
 BAR2 SZ ES       1235 28.94                             171   -0.9510 22.6 196 
 GIR2 SZ EP       1235 14.54                             167    0.2510 32.9 347 
 GIR2 SZ ES       1235 30.29                             167    0.2310 32.9 347 
 GIR2 SZ I        1235 31.44        14.9 0.34                          32.9 347 
 PAM  SZ EP       1235 17.21                             152    0.5010 77.0  38 
 PAM  SN ES       1235 34.33                             152   -0.0510 77.0  38 
 PAM  SN I        1235 35.56        30.0 0.50                          77.0  38 
 RUS  HZ EP       1235 18.28                             145    0.1410 99.2 177 
 RUS  HN ES       1235 37.13                             145    0.2110 99.2 177 
 RUS  HN I        1235 38.63        11.0 0.34                          99.2 177 
 PTB  HZ EP       1235 21.16                             132   -0.39 9  150 259 
 PTB  HN I        1235 47.98        54.3 0.36                           150 259 
 OCA  HZ EP       1235 22.24                             130   -0.61 9  162 352 
 OCA  HN ES       1235 45.57                             130    0.27 9  162 352 
 OCA  HN I        1235 48.13        81.2 0.20                           162 352 
 ZAR  HZ EP       1235 26.96                             123   -0.08 8  207 292 
 ZAR  HN ES       1235 53.82                             123    1.06 8  207 292 
 ZAR  HN I        1235 59.03        31.6 0.32                           207 292 
 SML  HZ EP       1235 30.90                             118   -0.25 8  246 335 
 SML  HN ES       1235 59.56                             118   -0.52 8  246 335 
 SML  HN I        1236  8.10        46.4 0.10                           246 335 
 HEL  HN ES       1236  5.97                             115   -0.42 8  274 256 
 HEL  HN I        1236 17.28         5.1 0.58                           274 256 
 PRA  HN ES       1236 29.80                             107    0.20 6  392 210 
 PRA  HN I        1236 35.27         2.8 0.28                           392 210 
                                                                                
