 2017  3 2 1833 35.7 L   7.563 -73.487108.0  RSN  6 0.4 1.8LRSN                1
 GAP=199        1.05       5.8     3.7  8.3  0.3387E+01  0.6105E+01 -0.4473E+01E
 Epicentro: SABANA DE TORRES - SANTANDER                                       3
 ACTION:UPD 17-05-25 18:35 OP:jn   STATUS:               ID:20170302183335 L   I
 OLDACT:DUP 17-03-03 02:03 OP:lv   STATUS:               ID:20170302182747d    3
 2017-03-02-1828-00M.COL___396                                                 6
 STAT SP IPHASW D HRMM SECON CODA AMPLIT PERI AZIMU VELO AIN AR TRES W  DIS CAZ7
 BRR  HZ EP       1833 51.74                             150   -0.2210 56.2 206 
 BRR  HN ES       1834  4.18                             150   -0.4410 56.2 206 
 BRR  HZ I        1834  6.18        28.3 0.18            147           56.2 206 
 PAM  EZ EP       1833 54.41                             137   -0.7110 90.4 106 
 PAM  EN ES       1834 10.73                             137    0.4810 90.4 106 
 PAM  EZ I        1834 12.20        17.1 0.20            138           90.4 106 
 BAR2 EZ ES       1834 13.58                             130    0.4610  113 163 
 BAR2 EZ I        1834 15.09        28.6 0.06            129            113 163 
 ZAR  HZ EP       1834  0.28                             121   -0.02 9  152 267 
 ZAR  HN ES       1834 20.01                             121    0.54 9  152 267 
 ZAR  HZ I        1834 22.87        14.3 0.10            121            152 267 
 PTB  HZ EP       1834  0.98                             120    0.21 9  156 223 
 PTB  HN ES       1834 19.97                             120   -0.33 9  156 223 
 PTB  HZ I        1834 23.60         3.4 0.23            119            156 223 
 RUS  HZ EP       1834  5.39                             115    0.30 9  190 166 
 RUS  HN ES       1834 27.83                             115   -0.16 9  190 166 
 RUS  HZ I        1834 34.48         2.5 0.25            114            190 166 
                                                                                
