 2014  5 2 1946 36.3 L   6.430 -73.617 91.1  RSN  5 0.4 1.6LRSN                1
 GAP=184        0.93       6.2     4.2 10.3  0.1121E+02  0.9837E+01  0.4734E+01E
 Epicentro: SANTA HELENA DEL OPON - SANTANDER                                  3
 ACTION:UPD 15-03-16 16:54 OP:nd   STATUS:               ID:20140502194637dL   I
 OLDACT:UP  14-05-02 22:01 OP:mh   STATUS:               ID:20140502194000     3
 OLDACT:REG 14-05-02 20:55 OP:mh   STATUS:               ID:20140502194000     3
 2014-05-02-1940-00M.COL___273                                                 6
 STAT SP IPHASW D HRMM SECON CODA AMPLIT PERI AZIMU VELO AIN AR TRES W  DIS CAZ7
 RUS  HZ EP       1946 53.42                             135   -0.2610 83.7 135 
 RUS  HN ES   1   1947  7.82                             135    0.62 7 83.7 135 
 PTB  HZ EP       1946 53.41                             131   -0.5310 93.7 278 
 PTB  HN ES       1947  7.40                             131   -0.2610 93.7 278 
 NOR  HZ EP       1947  1.80                             114   -0.08 9  169 235 
 NOR  HN ES       1947 21.82                             114    0.02 9  169 235 
 NOR  HZ I        1947 24.18                             113            169 235 
 ZAR  HN ES   1   1947 24.83                             112    0.68 7  181 311 
 HEL  HZ EP       1947  7.70                             109    0.27 8  213 263 
 HEL  HN ES   1   1947 32.33                             109    0.66 6  213 263 
 HEL  HZ I        1947 34.33         3.7 0.28            108            213 263 
                                                                                
