 2015 12 2 1055 13.4 L   6.596 -74.163 25.0  RSN  6 0.4 1.5LRSN                1
 GAP= 84        1.03       2.7     2.4  3.5 -0.1152E+01 -0.3458E+01  0.3578E+00E
 Epicentro: PUERTO PARRA - SANTANDER                                           3
 ACTION:UPD 16-02-04 15:02 OP:cam  STATUS:               ID:20151202105513 L   I
 OLDACT:REG 15-12-02 19:53 OP:drio STATUS:               ID:20151202104748     3
 2015-12-02-1047-48M.COL___306                                                 6
 STAT SP IPHASW D HRMM SECON CODA AMPLIT PERI AZIMU VELO AIN AR TRES W  DIS CAZ7
 PTB  HZ EP       1055 19.85                             125   -0.2410 33.0 259 
 PTB  HE ES       1055 25.03                             125   -0.2310 33.0 259 
 PTB  HZ I        1055 27.71        33.7 0.36            122           33.0 259 
 BRR  HZ EP       1055 26.11                              71    0.2110 75.3  41 
 BRR  HE ES       1055 35.51                              71   -0.1110 75.3  41 
 BRR  HZ I        1055 37.68        22.9 0.14             95           75.3  41 
 SPBC HZ EP       1055 30.63                              56    0.5010  105 174 
 SPBC HN ES       1055 42.59                              56   -0.5510  105 174 
 SPBC HZ I        1055 44.03        10.0 0.42             61            105 174 
 BAR2 EZ EP       1055 31.25                              56    0.5010  108  90 
 BAR2 EZ ES       1055 43.79                              56   -0.4610  108  90 
 BAR2 EZ I        1055 46.02         7.6 0.44             61            108  90 
 ZAR  HZ EP       1055 32.76                              56    0.1710  125 322 
 ZAR  HN ES       1055 47.11                              56   -0.4110  125 322 
 ZAR  HZ I        1055 48.72         8.1 0.22             61            125 322 
 HEL  HZ EP       1055 37.76                              56    0.71 9  158 254 
 HEL  HN ES       1055 55.46                              56   -0.01 9  158 254 
 HEL  HZ I        1055 56.97         9.3 0.20             61            158 254 
                                                                                
