 2012  4 2 1736 10.9 L   6.772 -73.148147.5  RSN  7 0.4 2.2LRSN                1
 GAP=137        0.93       5.1     5.6  7.8  0.1026E+01  0.5966E+01 -0.1040E+02E
 Epicentro: LOS SANTOS - SANTANDER                                             3
 ACTION:UPD 12-07-05 11:49 OP:tino STATUS:               ID:20120402173610 L   I
 2012-04-02-1730-00M.COL___195                                                 6
 STAT SP IPHASW D HRMM SECON CODA AMPLIT PERI AZIMU VELO AIN AR TRES W  DIS CAZ7
 BAR2 SZ IP       1736 30.55                             172    -0.110   20 191 
 BAR2 SZ ES   1   1736 45.93                             172    -0.2 7   20 191 
 BAR2 SZ I        1736 47.28        30.0 0.32                            20 191 
 BRR  HZ IP     C 1736 32.38                             152     0.110   73 301 
 BRR  HZ I        1736 32.60        61.1 0.16                            73 301 
 BRR  HE ES   1   1736 49.72                             152     0.7 7   73 301 
 PAM  SZ EP       1736 33.40                             150    -0.110   80  38 
 PAM  SN ES   2   1736 50.52                             150    -0.5 5   80  38 
 RUS  HZ EP       1736 34.71                             145     0.110   97 176 
 RUS  HN ES   1   1736 53.25                             145     0.2 7   97 176 
 RUS  HZ I        1736 54.64        10.9 0.38                            97 176 
 OCA  SZ EP       1736 39.47                             129    -0.2 9  163 353 
 ZAR  HZ EP       1736 44.15                             123     0.6 9  205 293 
 ZAR  HN ES   1   1737  8.27                             123    -0.8 6  205 293 
 ZAR  HZ I        1737 15.38        19.6 0.48                           205 293 
 NOR  SN ES   1   1737 13.72                             119    -0.6 6  233 235 
                                                                                
