 2015  5 2 1303 13.9 L   6.847 -73.186133.5  RSN  5 0.4 1.4LRSN                1
 GAP=135        0.91       5.8     5.3  8.6 -0.1301E+02  0.2277E+02  0.2476E+01E
 Epicentro: ZAPATOCA - SANTANDER                                               3
 ACTION:UPD 15-09-10 22:00 OP:cam  STATUS:               ID:20150502130313 L   I
 OLDACT:REG 15-05-02 20:44 OP:ak   STATUS:               ID:20150502125749     3
 2015-05-02-1257-49M.COL___267                                                 6
 STAT SP IPHASW D HRMM SECON CODA AMPLIT PERI AZIMU VELO AIN AR TRES W  DIS CAZ7
 BAR2 EZ IP     D 13 3 31.94                             167   -0.2710 28.1 179 
 BAR2 EZ ES       13 3 46.13                             167   -0.3310 28.1 179 
 BAR2 EZ I        13 3 48.02         6.5 0.18            170           28.1 179 
 PAM  SZ IP     C 13 3 34.83                             149    0.0310 76.6  45 
 PAM  SN ES       13 3 51.55                             149    0.4610 76.6  45 
 PAM  SZ I        13 3 54.15         4.8 0.46            151           76.6  45 
 ZAR  HN ES       13 4  8.94                             120   -0.23 9  198 291 
 ZAR  HZ I        13 4 18.20         3.5 0.08            120            198 291 
 NOR  HZ EP       13 3 48.48                             116   -0.44 8  234 233 
 NOR  HN ES       13 4 16.45                             116    0.24 8  234 233 
 NOR  HZ I        13 4 21.70         2.6 0.18            118            234 233 
 GUY2CHN ES       13 4 31.27                             110    0.80 7  301 233 
 GUY2CHZ I        13 4 38.46         1.1 0.38                           301 233 
                                                                                
