 2015 11 2 1722 27.4 L   6.796 -73.134147.6  RSN 16 0.4 2.5LRSN                1
 GAP=138        0.93       2.6     4.0  5.1 -0.1405E+01  0.6498E+01  0.7408E+00E
 Epicentro: LOS SANTOS - SANTANDER                                             3
 ACTION:UPD 15-12-28 16:08 OP:cam  STATUS:               ID:20151102172228dL   I
 OLDACT:DUP 15-11-03 03:28 OP:mh   STATUS:               ID:20151102171750d    3
 OLDACT:REG 15-11-02 21:34 OP:cara STATUS:               ID:20151102171749     3
 2015-11-02-1717-49M.COL___310                                                 6
 STAT SP IPHASW D HRMM SECON CODA AMPLIT PERI AZIMU VELO AIN AR TRES W  DIS CAZ7
 BAR2 EZ EP       1722 47.32                             171    0.0810 23.2 193 
 BAR2 EZ ES       1723  1.95                             171   -0.7710 23.2 193 
 BAR2 EZ I        1723  3.32        57.1 0.24            167           23.2 193 
 BRR  HZ EP       1722 49.14                             152    0.3210 72.6 298 
 BRR  HN ES       1723  6.07                             152    0.5510 72.6 298 
 BRR  HZ I        1723  9.83        31.8 0.30            146           72.6 298 
 PAM  EZ EP   1   1722 50.19                             151    0.42 7 76.8  39 
 PAM  EN ES       1723  7.59                             151    0.3710 76.8  39 
 PAM  EZ I        1723  9.38        49.4 0.50            154           76.8  39 
 RUS  HZ EP       1722 51.32                             144    0.0310  100 177 
 RUS  HN ES   1   1723 10.19                             144    0.26 7  100 177 
 RUS  HZ I        1723 10.84        24.1 0.26            146            100 177 
 OCA  HZ EP       1722 55.30                             130   -0.60 9  161 353 
 OCA  HN ES   1   1723 17.70                             130   -0.43 7  161 353 
 OCA  HZ I        1723 21.20        42.7 0.22            129            161 353 
 SPBC HZ EP   2   1722 55.72                             129   -0.36 5  164 219 
 SPBC HN ES       1723 18.18                             129   -0.28 9  164 219 
 SPBC HZ I        1723 22.71        49.3 0.32            128            164 219 
 ZAR  HZ EP   1   1723  0.09                             123   -0.01 6  205 292 
 ZAR  HN ES       1723 25.60                             123   -0.01 8  205 292 
 ZAR  HZ I        1723 30.22        30.7 0.40            121            205 292 
 NOR  HZ EP   1   1723  3.23                             119   -0.09 6  236 235 
 NOR  HN ES   1   1723 31.82                             119    0.48 6  236 235 
 NOR  HZ I        1723 38.91        18.3 0.16            118            236 235 
 SML  HZ EP       1723  3.69                             118   -0.53 8  245 335 
 SML  HN ES       1723 33.01                             118    0.06 8  245 335 
 SML  HZ I        1723 41.84        36.4 0.10            117            245 335 
 CHI  HZ EP   1   1723  5.50                             117    0.31 6  249 195 
 CHI  HN ES       1723 34.55                             117   -0.12 8  249 195 
 CHI  HZ I        1723 38.06        21.0 0.58            118            249 195 
 ROSC BZ EP   4   1723  7.43                             117    1.78 0  253 211 
 ROSC BN ES   4   1723 37.24                             117    1.75 0  253 211 
 ROSC BZ I        1723 41.30        42.2 0.45            117            253 211 
 HEL  HZ EP   1   1723  9.17                             115    1.34 6  273 256 
 HEL  HN ES       1723 38.93                             115   -0.44 8  273 256 
 HEL  HZ I        1723 45.10        15.4 0.28            114            273 256 
 URE  HZ EP   4   1723  8.01                             114   -0.70 0  285 292 
 URE  HN ES   4 C 1723 41.03                             114    0.10 0  285 292 
 URE  HZ I        1723 49.57        17.5 0.22            113            285 292 
 GUY2CHZ EP   1   1723 11.61                             113    0.43 5  302 235 
 GUY2CHN ES   4   1723 49.16                             113    3.82 0  302 235 
 GUY2CHZ I        1723 53.35        13.3 0.34                           302 235 
 MON  HN ES   4   1723 52.78                             109   -2.23 0  355 308 
 MON  HZ I        1724  7.88         5.9 0.60            108            355 308 
 ORTC HZ EP       1723 21.32                             107   -0.11 6  396 216 
 ORTC HN ES       1724  3.33                             107   -0.25 6  396 216 
 ORTC HZ I        1724  8.54         9.9 0.26            107            396 216 
                                                                                
