 2012  2 2 1450 59.5 L   6.772 -73.192142.0  RSN  4 0.2 2.1LRSN                1
 GAP=230        0.43       5.2     4.3  5.6  0.1117E+02  0.6079E+00 -0.3217E+01E
 ACTION:UP  12-03-07 16:26 OP:epov STATUS:               ID:20120202145059 L   I
 2012-02-02-1450-00M.COL___187                                                 6
 STAT SP IPHASW D HRMM SECON CODA AMPLIT PERI AZIMU VELO SNR AR TRES W  DIS CAZ7
 BAR2 SZ EP   1   1451 18.39                             172   -0.19 7 19.9 177 
 BAR2 SZ ES   2   1451 33.61                             172    0.12 5 19.9 177 
 BRR  HZ EP   2   1451 20.33                             153    0.28 5 68.4 303 
 BRR  HE ES   2   1451 36.02                             153   -0.09 5 68.4 303 
 BRR  HZ I        1451 44.16        23.1 0.42                          68.4 303 
 RUS  HZ EP   1   1451 22.42                             144   -0.23 7 97.9 173 
 RUS  HN ES   1   1451 40.91                             144    0.16 7 97.9 173 
 PTB  HZ EP   1   1451 25.89                             132    0.27 7  142 260 
 PTB  HN ES   1   1451 45.87                             132   -0.15 7  142 260 
                                                                                
