 2014  1 2 1524  3.2 L   6.808 -73.152146.4  RSN 13 0.5 2.4LRSN                1
 GAP=135        0.96       3.1     4.1  5.8 -0.1074E+01  0.7273E+01 -0.2825E+00E
 Epicentro: LOS SANTOS - SANTANDER                                             3
 ACTION:UPD 14-03-13 09:50 OP:ep   STATUS:               ID:20140102152404dL   I
 OLDACT:DUP 14-01-02 19:18 OP:mher STATUS:               ID:20140102152001d    3
 OLDACT:UP  14-01-02 19:14 OP:mher STATUS:               ID:20140102152000     3
 OLDACT:REG 14-01-02 15:22 OP:mh   STATUS:               ID:20140102152000     3
 2014-01-02-1520-00M.COL___285                                                 6
 STAT SP IPHASW D HRMM SECON CODA AMPLIT PERI AZIMU VELO AIN AR TRES W  DIS CAZ7
 BAR2 SZ EP       1524 22.97                             170    0.0310 24.0 188 
 BAR2 SZ ES   1   1524 38.16                             170   -0.16 7 24.0 188 
 BAR2 SZ I        1524 39.15       100.1 0.10            169           24.0 188 
 BRR  HZ EP       1524 24.91                             153    0.5410 70.2 298 
 BRR  HN ES   1   1524 41.85                             153    0.97 7 70.2 298 
 BRR  HZ I        1524 43.48        34.1 0.08            150           70.2 298 
 PAM  SZ IP     C 1524 25.84                             151    0.3510 77.2  40 
 PAM  SN ES   1   1524 42.79                             151   -0.07 7 77.2  40 
 PAM  SZ I        1524 45.35        48.6 0.50            155           77.2  40 
 RUS  HZ EP       1524 26.71                             144   -0.3810  101 176 
 RUS  HN ES       1524 45.54                             144   -0.1810  101 176 
 RUS  HZ I        1524 47.23        32.5 0.29            147            101 176 
 PTB  HZ EP       1524 29.54                             132   -0.65 9  147 258 
 PTB  HN ES   1   1524 50.45                             132   -0.77 7  147 258 
 PTB  HZ I        1524 55.09        22.7 0.17            132            147 258 
 OCA  HZ EP       1524 31.79                             130    0.30 9  159 353 
 OCA  HN ES   1   1524 52.72                             130   -0.82 7  159 353 
 OCA  HZ I        1524 58.15        18.1 0.26            132            159 353 
 SPBC HZ EP       1524 31.89                             129    0.11 9  163 219 
 SPBC HN ES   2   1524 53.75                             129   -0.31 5  163 219 
 SPBC HZ I        1524 56.67        41.9 0.20            130            163 219 
 ZAR  HZ EP       1524 35.31                             123   -0.29 9  203 292 
 ZAR  HN ES       1525  1.33                             123    0.47 9  203 292 
 ZAR  HZ I        1525  9.08        23.5 0.22            123            203 292 
 NOR  HZ EP   1   1524 39.02                             119    0.05 6  235 234 
 NOR  HN ES       1525  7.03                             119    0.17 8  235 234 
 NOR  HZ I        1525 14.21        21.5 0.15            120            235 234 
 SML  HZ EP   1   1524 39.18                             118   -0.58 6  243 335 
 SML  HN ES   1   1525  7.59                             118   -0.68 6  243 335 
 SML  HZ I        1525 12.07        16.9 0.12            119            243 335 
 CHI  HZ EP   1   1524 41.15                             117    0.14 6  249 195 
 CHI  HN ES   2   1525 10.42                             117   -0.08 4  249 195 
 CHI  HZ I        1525 13.56         8.5 0.33            119            249 195 
 ROSC BZ EP   4   1524 42.48                             117    1.07 0  253 211 
 HEL  HZ EP       1524 43.73                             115    0.33 8  272 256 
 HEL  HN ES   2   1525 14.28                             115   -0.47 4  272 256 
 HEL  HZ I        1525 22.08        15.3 0.50            116            272 256 
 URE  HZ EP   4   1524 45.88                             114    1.68 0  283 292 
 URE  HN ES   4   1525 15.29                             114   -0.89 0  283 292 
 GUY2CHZ EP       1524 47.44                             112    0.60 7  301 235 
 SJC  HZ EP   4   1524 57.54                             106   -1.13 0  408 327 
 SJC  HN ES   4   1525 38.60                             106   -3.32 0  408 327 
                                                                                
