 2011  6 2 1538 14.7 L   6.856 -72.941134.2  RSN  4 0.0 1.7LRSN                1
 GAP=260        0.29       5.8    11.8  4.4  0.6200E+02 -0.3085E+02 -0.1429E+02E
 Epicentro: CEPITA - SANTANDER                                                 3
 ACTION:UP  11-07-14 19:02 OP:ep   STATUS:               ID:20110602153814 L   I
 2011-06-02-1534-23S.COL___132                                                 6
 STAT SP IPHASW D HRMM SECON CODA AMPLIT PERI AZIMU VELO SNR AR TRES W  DIS CAZ7
 BTL  SZ ES   2   1538 47.84                             164     0.0 5   37 281 
 BAR2 SZ ES   2   1538 48.05                             163     0.0 5   40 222 
 BAR2 SZ I        1538 51.22        14.6 0.25                            40 222 
 BRR  HZ EP       1538 35.85                             144     0.010   90 288 
 BRR  HZ I        1538 41.29         9.1 0.13                            90 288 
 BRR  HN ES   2   1538 52.30                             144     0.0 5   90 288 
 RUS  HZ EP       1538 37.90                             139     0.010  108 188 
 RUS  HN ES   1   1538 56.00                             139     0.0 7  108 188 
                                                                                
