 2012  2 2 1805 45.5 L   6.747 -73.169145.2  RSN  8 0.3 1.8LRSN                1
 GAP=178        0.61       4.1     4.0  5.3  0.4214E+01  0.4094E+01  0.3530E+01E
 ACTION:UP  12-03-07 16:27 OP:epov STATUS:               ID:20120202180545 L   I
 2012-02-02-1800-00M.COL___187                                                 6
 STAT SP IPHASW D HRMM SECON CODA AMPLIT PERI AZIMU VELO SNR AR TRES W  DIS CAZ7
 BAR2 SZ EP       18 6  4.75                             173   -0.2110 17.2 185 
 BAR2 SZ ES   1   18 6 19.72                             173   -0.41 7 17.2 185 
 BAR2 SZ I        18 6 21.82         9.7 0.27                          17.2 185 
 GIR2 SZ EP   1   18 6  5.24                             165   -0.03 7 36.8 356 
 BRR  HZ EP       18 6  6.99                             152    0.3510 72.0 304 
 BRR  HE ES   1   18 6 23.52                             152    0.40 7 72.0 304 
 BRR  HZ I        18 6 26.68        25.6 0.35                          72.0 304 
 RUS  HZ EP   1   18 6  8.77                             145   -0.04 7 95.0 174 
 RUS  HN ES   1   18 6 27.12                             145    0.14 7 95.0 174 
 RUS  HZ I        18 6 30.63         6.2 0.56                          95.0 174 
 PTB  HZ EP   1   18 6 12.06                             133   -0.05 7  144 261 
 PTB  HE ES   1   18 6 32.96                             133    0.11 7  144 261 
 ZAR  HN ES   1   18 6 42.76                             122   -0.42 6  204 294 
 ZAR  HZ I        18 6 51.95         5.5 0.24                           204 294 
 NOR  SZ EP   1   18 6 20.10                             119   -0.52 6  229 235 
 NOR  SE ES   1   18 6 48.03                             119    0.03 6  229 235 
 CHI  HZ EP   1   18 6 22.93                             118    0.44 6  242 195 
                                                                                
