 2011  7 2 1631  9.4 L   6.805 -73.130141.4  RSN 11 0.5 2.3LRSN                1
 GAP=115        1.11       4.3     7.5  7.5 -0.1024E+02  0.4070E+01  0.4652E+01E
 Epicentro: LOS SANTOS - SANTANDER                                             3
 ACTION:UPD 12-07-25 13:57 OP:epov STATUS:               ID:20110702163109 L   I
 2011-07-02-1625-49S.COL___140                                                 6
 STAT SP IPHASW D HRMM SECON CODA AMPLIT PERI AZIMU VELO AIN AR TRES W  DIS CAZ7
 BTL  SZ EP       1631 29.64                             172    1.2310 19.7 310 
 BTL  SZ ES   1   1631 43.98                             172    0.72 7 19.7 310 
 BAR2 SZ EP       1631 28.39                             170   -0.1110 24.2 194 
 BAR2 SZ ES   2   1631 42.68                             170   -0.73 5 24.2 194 
 BAR2 SZ I        1631 44.66        42.9 0.36                          24.2 194 
 BRR  HZ EP       1631 30.26                             151    0.1310 72.5 297 
 BRR  HN ES   2   1631 46.84                             151    0.53 5 72.5 297 
 BRR  HZ I        1631 50.64        31.6 0.14                          72.5 297 
 PAM  SN ES   2   1631 47.44                             151   -0.49 5 75.9  39 
 RUS  HZ EP       1631 32.41                             143   -0.3310  101 177 
 RUS  HN ES   1   1631 50.55                             143   -0.40 7  101 177 
 BRI  SZ EP       1631 32.99                             141    0.2210  107  20 
 BRI  SZ ES   1   1631 50.54                             141   -0.47 7  107  20 
 GRA  SZ EP       1631 34.23                             136    0.0810  125  17 
 GRA  SZ ES   1   1631 53.01                             136   -0.45 7  125  17 
 GRA  SZ I        1631 56.53        29.5 0.42                           125  17 
 OCA  SZ EP       1631 36.90                             129   -0.42 9  160 353 
 OCA  SZ ES   2   1631 58.31                             129   -0.80 5  160 353 
 OCA  SZ I        1632  2.07        31.3 0.20                           160 353 
 YOP  SZ EP       1631 39.33                             125    0.25 9  179 154 
 NOR  SZ EP       1631 44.90                             117   -0.15 8  236 235 
 NOR  SN ES   1   1632 12.17                             117   -0.69 6  236 235 
 CHI  HZ EP   2   1631 46.62                             116   -0.33 4  250 196 
                                                                                
