 2012 10 2 1926 11.6 L   6.785 -73.109138.8  RSN  4 0.1 1.7LRSN                1
 GAP=195        0.32       3.6     7.1  4.9  0.1872E+02 -0.1683E+02 -0.6415E+01E
 Epicentro: LOS SANTOS - SANTANDER                                             3
 ACTION:UPD 12-11-22 17:01 OP:ep   STATUS:               ID:20121002192611 L   I
 2012-10-02-1920-00M.COL___222                                                 6
 STAT SP IPHASW D HRMM SECON CODA AMPLIT PERI AZIMU VELO AIN AR TRES W  DIS CAZ7
 BAR2 SZ ES   3   1926 45.49                             170    0.49 2 22.9 201 
 BAR2 SZ I        1926 48.08        17.4 0.26                          22.9 201 
 GIR2 SZ EP       1926 30.52                             166    0.0410 33.8 344 
 GIR2 SZ ES   3   1926 44.89                             166   -0.35 2 33.8 344 
 BRR  HZ EP       1926 32.20                             150   -0.0310 75.6 298 
 BRR  HN ES   1   1926 48.34                             150   -0.01 7 75.6 298 
 BRR  HN I        1926 52.91        47.6 0.16                          75.6 298 
 RUS  HZ EP       1926 34.53                             143    0.0310 98.8 178 
 RUS  HN ES   1   1926 52.32                             143   -0.07 7 98.8 178 
 RUS  HZ I        1926 53.40         1.7 0.44                          98.8 178 
                                                                                
