 2014  2 2 1517 28.4 L   6.786 -73.171147.7  RSN  5 0.4 1.5LRSN                1
 GAP=134        1.06       5.7     5.5  7.8 -0.2953E+01  0.4981E+01  0.1905E+01E
 Epicentro: LOS SANTOS - SANTANDER                                             3
 ACTION:UPD 14-03-10 08:07 OP:ep   STATUS:               ID:20140202151728 L   I
 OLDACT:DUP 14-02-02 18:18 OP:stll STATUS:               ID:20140202150817d    3
 2014-02-02-1508-16M.COL___238                                                 6
 STAT SP IPHASW D HRMM SECON CODA AMPLIT PERI AZIMU VELO AIN AR TRES W  DIS CAZ7
 BAR2 SZ EP       1517 48.18                             171   -0.0610 21.4 183 
 BAR2 SZ ES       1518  3.77                             171    0.0710 21.4 183 
 BAR2 SZ I        1518  4.91         9.5 0.16            171           21.4 183 
 BRR  HZ EP       1517 50.22                             153    0.5410 69.6 301 
 BRR  HN ES       1518  6.91                             153    0.6510 69.6 301 
 BRR  HZ I        1518 14.30         7.0 0.34            150           69.6 301 
 PAM  SZ EP       1517 50.94                             150   -0.0710 80.4  40 
 PAM  SZ I        1517 51.12         6.1 0.26            154           80.4  40 
 PAM  SE ES       1518  8.07                             150   -0.5610 80.4  40 
 RUS  HZ EP       1517 52.49                             145    0.2310 99.2 174 
 RUS  HN ES       1518 10.86                             145    0.0010 99.2 174 
 RUS  HZ I        1518 11.86         2.1 0.22            149           99.2 174 
 PTB  HZ EP       1517 55.05                             133   -0.22 9  145 259 
 PTB  HN ES       1518 15.51                             133   -0.70 9  145 259 
 PTB  HZ I        1518 22.51         3.8 0.50            132            145 259 
                                                                                
