 2014  7 2 1017 44.3 L   6.833 -73.177132.6  RSN  8 0.4 1.6LRSN                1
 GAP=187        0.95       3.2     5.2  7.7 -0.4751E+01  0.1081E+02 -0.2651E+01E
 Epicentro: ZAPATOCA - SANTANDER                                               3
 ACTION:UPD 15-03-16 20:40 OP:nd   STATUS:               ID:20140702101744 L   I
 OLDACT:UP  14-07-02 23:37 OP:spq  STATUS:               ID:20140702100816d    3
 OLDACT:DUP 14-07-02 23:23 OP:spq  STATUS:               ID:20140702100816d    3
 OLDACT:REG 14-07-02 20:01 OP:spq  STATUS:               ID:20140702100814     3
 2014-07-02-1008-14M.COL___241                                                 6
 STAT SP IPHASW D HRMM SECON CODA AMPLIT PERI AZIMU VELO AIN AR TRES W  DIS CAZ7
 BAR2 SZ EP       1018  2.62                             168    0.1510 26.7 181 
 BAR2 SZ ES   1   1018 16.28                             168   -0.33 7 26.7 181 
 BAR2 SZ I        1018 19.52         5.7 0.26            169           26.7 181 
 PTB  HZ EP       1018  9.51                             129   -0.51 9  145 257 
 PTB  HN ES       1018 30.04                             129   -0.01 9  145 257 
 PTB  HZ I        1018 33.58         4.4 0.18            132            145 257 
 OCA  HN ES       1018 32.67                             127    0.40 9  156 354 
 OCA  HZ I        1018 36.71         4.4 0.20            131            156 354 
 SPBC HZ EP       1018 11.79                             126   -0.15 9  164 217 
 SPBC HN ES       1018 33.66                             126    0.19 9  164 217 
 SPBC HZ I        1018 39.43         7.1 0.40            129            164 217 
 ZAR  HZ EP       1018 14.92                             120   -0.56 9  199 292 
 ZAR  HN ES       1018 39.71                             120   -0.05 9  199 292 
 ZAR  HZ I        1018 43.47         2.2 0.14            123            199 292 
 SML  HZ EP       1018 19.30                             115   -0.43 8  239 336 
 SML  HN ES       1018 47.73                             115    0.39 8  239 336 
 SML  HZ I        1018 50.74         5.1 0.10            118            239 336 
 HEL  HN ES       1018 53.90                             112   -0.40 8  270 255 
 HEL  HZ I        1019  1.80         2.0 0.30            115            270 255 
 GUY2CHZ EP       1018 28.06                             110    0.76 7  301 234 
 GUY2CHE ES       1019  1.64                             110    0.83 7  301 234 
 GUY2CHZ I        1019  9.19         1.7 0.34                           301 234 
                                                                                
