 2015 11 2 1323 47.7 L   6.846 -73.091140.7  RSN 10 0.5 1.8LRSN                1
 GAP=141        1.21       4.0     5.7  7.0  0.4510E+01  0.1509E+02  0.1560E+01E
 Epicentro: LOS SANTOS - SANTANDER                                             3
 ACTION:UPD 15-12-28 16:08 OP:cam  STATUS:               ID:20151102132347 L   I
 OLDACT:REG 15-11-02 21:11 OP:cara STATUS:               ID:20151102131748     3
 2015-11-02-1317-48M.COL___310                                                 6
 STAT SP IPHASW D HRMM SECON CODA AMPLIT PERI AZIMU VELO AIN AR TRES W  DIS CAZ7
 BAR2 EZ EP       1324  6.61                             168   -0.3010 29.8 200 
 BAR2 EZ ES       1324 21.33                             168   -0.5310 29.8 200 
 BAR2 EZ I        1324 22.36        14.0 0.12            169           29.8 200 
 PAM  EZ EP       1324  9.48                             152    0.5210 69.6  38 
 PAM  EN ES       1324 26.03                             152    0.5210 69.6  38 
 PAM  EZ I        1324 28.72        17.2 0.54            153           69.6  38 
 BRR  HZ IP       1324  8.60                             150    0.0710 74.5 293 
 BRR  HE ES       1324 25.44                             150    0.6910 74.5 293 
 BRR  HZ I        1324 26.94        18.7 0.14            150           74.5 293 
 RUS  HZ EP       1324 10.93                             141   -0.4210  105 180 
 RUS  HE ES       1324 29.28                             141   -0.4910  105 180 
 RUS  HZ I        1324 30.06         4.9 0.40            143            105 180 
 ZAR  HZ EP       1324 19.85                             121   -0.41 8  208 290 
 ZAR  HN ES       1324 45.61                             121   -0.01 8  208 290 
 ZAR  HZ I        1324 49.58        11.1 0.30            121            208 290 
 SML  HZ EP       1324 23.76                             116   -0.11 8  242 333 
 SML  HE ES       1324 51.18                             116   -0.88 8  242 333 
 SML  HZ I        1324 58.89        13.0 0.10            117            242 333 
 CHI  HZ EP       1324 26.03                             115    0.16 8  255 196 
 CHI  HN ES       1324 56.18                             115    0.56 8  255 196 
 CHI  HZ I        1325  0.41         1.9 0.30            116            255 196 
 HEL  HZ EP       1324 29.45                             113    0.95 7  279 255 
 HEL  HN ES   4   1324 57.30                             113   -2.99 0  279 255 
 HEL  HZ I        1325  0.67         3.3 0.40            114            279 255 
 DBB  SZ ES       1325 12.87                             108   -0.20 7  345 273 
 MON  HZ EP   4   1324 34.32                             107   -2.43 0  355 307 
 MON  HN ES   4   1325 13.58                             107   -1.39 0  355 307 
 MON  HZ I        1325 13.71         2.0 0.20            108            355 307 
                                                                                
