 2011  4 2 1547 58.5 L   6.770 -73.018132.8  RSN  5 0.3 1.8LRSN                1
 GAP=212        0.78       8.5    12.8 12.7 -0.3557E+02 -0.5324E+02 -0.1747E+02E
 Epicentro: CEPITA - SANTANDER                                                 3
 ACTION:UP  11-06-22 15:28 OP:REBC STATUS:               ID:20110402154758 L   I
 2011-04-02-1540-00M.COL___139                                                 6
 STAT SP IPHASW D HRMM SECON CODA AMPLIT PERI AZIMU VELO SNR AR TRES W  DIS CAZ7
 BAR2 SZ EP       1548 16.91                             168     0.310   27 223 
 BAR2 SZ ES   2   1548 30.03                             168    -0.8 5   27 223 
 BAR2 SZ I        1548 34.87         9.8 0.53                            27 223 
 BTL  SZ EP       1548 17.03                             166     0.210   32 301 
 GIR2 SZ EP   1   1548 16.85                             163     0.0 7   39 330 
 BRR  HZ EP   1   1548 18.63                             146    -0.5 7   85 296 
 BRR  HE ES   2   1548 35.61                             146     0.3 5   85 296 
 BRR  HZ I        1548 37.49        17.8 0.33                            85 296 
 GRA  SZ EP       1548 22.48                             134    -0.110  126  11 
 GRA  SZ I        1548 22.95         8.2 0.47                           126  11 
 GRA  SZ ES   2   1548 41.49                             134     0.1 5  126  11 
                                                                                
