 2013 12 2 1004 22.0 L   6.810 -73.150149.8  RSN  9 0.4 2.1LRSN                1
 GAP=148        0.94       4.5     5.3  5.7 -0.1237E+02  0.6474E+01 -0.4172E+00E
 Epicentro: LOS SANTOS - SANTANDER                                             3
 ACTION:UPD 14-01-13 10:15 OP:ep   STATUS:               ID:20131202100422 L   I
 OLDACT:UP  13-12-02 15:56 OP:cam  STATUS:               ID:20131202100000     3
 OLDACT:REG 13-12-02 14:20 OP:cam  STATUS:               ID:20131202100000     3
 2013-12-02-1000-00M.COL___282                                                 6
 STAT SP IPHASW D HRMM SECON CODA AMPLIT PERI AZIMU VELO AIN AR TRES W  DIS CAZ7
 BAR2 SZ EP       10 4 42.09                             170   -0.0410 24.3 188 
 BAR2 SZ ES       10 4 57.42                             170   -0.4210 24.3 188 
 BAR2 SZ I        10 4 58.57        43.2 0.20            170           24.3 188 
 BRR  HZ IP     C 10 4 43.96                             154    0.4310 70.2 298 
 BRR  HN ES       10 5  1.10                             154    0.7810 70.2 298 
 BRR  HZ I        10 5  4.98        18.5 0.24            146           70.2 298 
 PAM  SZ EP       10 4 44.83                             152    0.2210 76.9  40 
 PAM  SE ES       10 5  2.27                             152    0.0210 76.9  40 
 PAM  SZ I        10 5  4.02        12.5 0.60            151           76.9  40 
 PTB  HZ EP       10 4 49.03                             133   -0.24 9  147 258 
 PTB  HN ES       10 5  9.89                             133   -0.65 9  147 258 
 PTB  HZ I        10 5 12.85        11.4 0.14            131            147 258 
 OCA  HZ EP   2   10 4 50.05                             131   -0.46 5  159 353 
 OCA  HN ES   1   10 5 12.33                             131   -0.43 7  159 353 
 OCA  HZ I        10 5 21.91        10.8 0.22            128            159 353 
 SPBC HZ EP       10 4 50.98                             130    0.13 9  164 219 
 SPBC HN ES       10 5 13.22                             130   -0.15 9  164 219 
 SPBC HZ I        10 5 14.18        15.9 0.20            131            164 219 
 ZAR  HZ EP   2   10 4 54.80                             123    0.19 4  203 292 
 NOR  HZ EP       10 4 58.12                             119    0.14 8  235 234 
 NOR  HN ES   1   10 5 26.71                             119    0.66 6  235 234 
 NOR  HZ I        10 5 34.07         8.1 0.20            120            235 234 
 SML  HZ EP       10 4 58.30                             118   -0.42 8  242 335 
 SML  HE ES   4   10 5 28.31                             118    0.95 0  242 335 
 SML  HZ I        10 5 34.29        12.9 0.26            117            242 335 
 GUY2CHZ EP   4   10 5  7.23                             113    1.42 0  301 235 
 SJC  HZ EP   4   10 5 16.20                             106   -1.35 0  408 327 
 SJC  HN ES   4   10 5 58.19                             106   -2.69 0  408 327 
                                                                                
