 2010  9 2 1446  2.9 L   6.767 -73.075149.0  RSN  7 0.3 2.0LRSN                1
 GAP=190        0.55       4.6     7.3  6.2  0.3555E+01  0.4507E+01  0.3375E+01E
 Epicentro: LOS SANTOS - SANTANDER                                             3
 ACTION:UP  11-02-18 10:59 OP:tino STATUS:               ID:20100902144602 L   I
 2010-09-02-1442-24S.COL___120                                                 6
 STAT SP IPHASW D HRMM SECON CODA AMPLIT PERI AZIMU VELO SNR AR TRES W  DIS CAZ7
 BAR2 SZ EP   1   1446 22.89                             171    -0.1 7   23 212 
 BAR2 SZ ES   2   1446 38.35                             171    -0.2 5   23 212 
 BAR2 SZ I        1446 39.16        12.3 0.39                            23 212 
 BRR  HZ IP     C 1446 24.85                             150    -0.110   80 298 
 BRR  HZ I        1446 25.09        30.7 0.15                            80 298 
 BRR  HN ES   1   1446 42.26                             150     0.1 7   80 298 
 RUS  HZ EP   2   1446 26.91                             146     0.2 5   97 181 
 RUS  HE ES   2   1446 45.70                             146     0.4 5   97 181 
 RUS  HZ I        1446 48.99         5.4 0.64                            97 181 
 OCA  SZ EP   2   1446 31.80                             130    -0.2 5  165 351 
 OCA  SZ I        1446 58.26        16.7 0.38                           165 351 
 HEL  HZ EP   2   1446 44.89                             115     0.8 4  279 257 
 HEL  HZ I        1447 20.64         4.6 0.25                           279 257 
 RREF HE ES   2   1447 25.83                             111    -0.3 3  325 231 
 RREF HZ I        1447 35.15         4.8 0.34                           325 231 
 PRA  HZ EP   2   1446 56.68                             107     0.0 3  393 211 
 PRA  HE ES   2   1447 37.77                             107    -0.8 3  393 211 
 PRA  HZ I        1447 43.38         3.0 0.26                           393 211 
                                                                                
