 2016 11 2 1245 35.0 L   6.808 -73.185140.2  RSN  6 0.4 1.3LRSN                1
 GAP=131        1.01       5.2     4.7  8.1 -0.6012E+01  0.5957E+01  0.1040E+02E
 Epicentro: ZAPATOCA - SANTANDER                                               3
 ACTION:UPD 17-10-26 21:04 OP:lp   STATUS:               ID:20161102124535 L   I
 OLDACT:REG 16-11-02 20:25 OP:cog  STATUS:               ID:20161102123745     3
 2016-11-02-1238-00M.COL___346                                                 6
 STAT SP IPHASW D HRMM SECON CODA AMPLIT PERI AZIMU VELO AIN AR TRES W  DIS CAZ7
 BAR2 EZ EP       1245 54.08                             170    0.0910 23.8 179 
 BRR  HZ EP       1245 55.96                             153    0.6310 67.0 300 
 BRR  HN ES       1246 11.10                             153   -0.0810 67.0 300 
 PAM  EZ EP       1245 56.81                             149    0.0310 79.6  42 
 PAM  EN ES       1246 13.32                             149   -0.4410 79.6  42 
 PAM  EZ I        1246 18.49         8.0 0.20            150           79.6  42 
 RUS  HZ EP       1245 58.21                             142   -0.1110  102 174 
 RUS  HE ES       1246 16.79                             142    0.2910  102 174 
 RUS  HZ I        1246 17.50         2.1 0.20            145            102 174 
 PTB  HZ EP       1246  0.76                             131   -0.41 9  144 258 
 PTB  HN ES       1246 21.96                             131    0.40 9  144 258 
 PTB  HZ I        1246 23.84         2.7 0.09            134            144 258 
 NOR  HZ EP       1246 10.39                             118    0.28 8  232 234 
 NOR  HN ES       1246 36.60                             118   -0.88 8  232 234 
                                                                                
