 2010 12 2 1955 40.8 L   6.451 -72.946183.0  RSN  5 0.3 2.0LRSN                1
 GAP=215        0.55       6.5    16.1  7.0  0.4790E+02  0.5252E+01  0.1460E+02E
 Epicentro: MOGOTES - SANTANDER                                                3
 ACTION:UP  11-01-14 15:22 OP:pat  STATUS:               ID:20101202195540 L   I
 2010-12-02-1950-48S.COL___132                                                 6
 STAT SP IPHASW D HRMM SECON CODA AMPLIT PERI AZIMU VELO SNR AR TRES W  DIS CAZ7
 BAR2 SZ EP   1   1956  4.93                             170    -0.1 7   31 301 
 BAR2 SZ I        1956  5.03        14.5 0.10                            31 301 
 BAR2 SZ ES   2   1956 23.27                             170    -0.7 5   31 301 
 RUS  HZ EP   1   1956  6.69                             160     0.2 7   64 194 
 RUS  HE ES   2   1956 26.76                             160     0.3 5   64 194 
 RUS  HZ I        1956 28.39         8.1 0.31                            64 194 
 GIR2 SZ EP   2   1956  6.53                             157     0.1 5   75 338 
 GIR2 SZ ES   2   1956 26.64                             157     0.2 5   75 338 
 BRR  HZ EP   1   1956  8.25                             147    -0.1 7  112 311 
 BRR  HZ I        1956  8.66        44.6 0.13                           112 311 
 BRR  HN ES   2   1956 30.11                             147     0.3 5  112 311 
 CHI  HZ EP   1   1956 17.80                             128    -0.1 6  219 203 
 CHI  HZ I        1956 52.04         3.9 0.74                           219 203 
                                                                                
