 2016  1 2 1553 25.5 L   6.932 -72.912108.6  RSN  4 0.1 1.4LRSN                1
 GAP=221        0.32       4.6    14.1 10.3  0.5319E+02 -0.2510E+02 -0.2891E+02E
 Epicentro: SANTA BARBARA - SANTANDER                                          3
 ACTION:UP  16-03-09 23:22 OP:cam  STATUS:               ID:20160102155325 L   I
 OLDACT:UP  16-03-09 21:33 OP:cam  STATUS:               ID:20160102155325 L   3
 OLDACT:UPD 16-03-09 21:13 OP:cam  STATUS:               ID:20160102155325 L   3
 OLDACT:REG 16-01-02 20:56 OP:dnl  STATUS:               ID:20160102154750     3
 2016-01-02-1547-50M.COL___323                                                 6
 STAT SP IPHASW D HRMM SECON CODA AMPLIT PERI AZIMU VELO AIN AR TRES W  DIS CAZ7
 RUS  HZ EP   2   1553 47.17                             130   -0.09 5  116 189 
 RUS  HE ES       1554  4.24                             130    0.0110  116 189 
 RUS  HZ I        1554  9.02         1.7 0.21             96            116 189 
 PTB  HZ I        1554 14.27         2.9 0.12             81            176 256 
 ZAR  HZ EP   2   1553 58.06                             110    0.00 4  224 286 
 ZAR  HZ I        1554 27.33         2.8 0.13             81            224 286 
 SML  HZ EP   2   1554  0.40                             108    0.13 4  243 328 
 SML  HE ES       1554 27.37                             108   -0.02 8  243 328 
 SML  HZ I        1554 32.60         5.4 0.07             81            243 328 
                                                                                
