 2014  2 2 1738 25.0 L   6.799 -73.172144.4  RSN  9 0.5 1.9LRSN                1
 GAP=133        1.25       4.5     5.5  7.5 -0.8756E+01  0.1129E+02  0.4644E+01E
 Epicentro: LOS SANTOS - SANTANDER                                             3
 ACTION:UPD 14-03-10 08:07 OP:ep   STATUS:               ID:20140202173825 L   I
 OLDACT:REG 14-02-02 15:44 OP:stll STATUS:               ID:20140202172814     3
 2014-02-02-1728-14M.COL___236                                                 6
 STAT SP IPHASW D HRMM SECON CODA AMPLIT PERI AZIMU VELO AIN AR TRES W  DIS CAZ7
 BAR2 SZ EP       1738 44.45                             171    0.0210 22.9 183 
 BAR2 SZ ES       1738 59.10                             171   -0.5110 22.9 183 
 BAR2 SZ I        1739  2.35        16.2 0.42            171           22.9 183 
 BRR  HZ EP       1738 46.31                             153    0.4710 68.7 300 
 BRR  HN ES       1739  3.25                             153    1.1410 68.7 300 
 BRR  HZ I        1739  4.70        43.7 0.98            153           68.7 300 
 PAM  SZ IP     C 1738 47.34                             150    0.1810 79.3  41 
 PAM  SN ES       1739  4.39                             150   -0.0710 79.3  41 
 PAM  SZ I        1739  6.58        14.9 0.56            154           79.3  41 
 RUS  HZ EP       1738 48.47                             143   -0.1310  101 174 
 RUS  HN ES       1739  7.04                             143    0.0110  101 174 
 RUS  HZ I        1739  8.76         6.7 0.24            146            101 174 
 PTB  HZ EP       1738 51.35                             132   -0.22 9  145 259 
 PTB  HN ES       1739 11.80                             132   -0.52 9  145 259 
 PTB  HZ I        1739 17.18         6.0 0.34            133            145 259 
 OCA  HN ES       1739 14.34                             129   -0.79 9  160 354 
 OCA  HZ I        1739 18.34         7.9 0.46            132            160 354 
 SPBC HZ EP       1738 53.19                             129   -0.00 9  161 218 
 SPBC HN ES       1739 15.52                             129    0.32 9  161 218 
 SPBC HZ I        1739 20.46        11.5 0.20            131            161 218 
 NOR  HZ EP       1739  0.60                             118    0.23 8  232 234 
 NOR  HE ES       1739 28.02                             118    0.04 8  232 234 
 NOR  HZ I        1739 32.15         4.9 0.24            120            232 234 
 GUY2CHZ EP       1739  8.86                             112    0.61 7  299 234 
 GUY2CHN ES       1739 40.92                             112   -1.08 7  299 234 
 GUY2CHZ I        1739 49.83         3.3 0.26                           299 234 
                                                                                
