 2010  2 2 1910 20.2 L   6.838 -72.924142.9  RSN  4 0.3 2.0LRSN                1
 GAP=318        0.45       9.3     9.7  6.6 -0.6185E+01  0.2539E+02 -0.1245E+02E
 Epicentro: CEPITA - SANTANDER                                                 3
 ACTION:UP  10-08-24 09:47 OP:vdl  STATUS:               ID:20100202191019 L   I
 2010-02-02-1859-50S.COL___091                                                 6
 STAT SP IPHASW D HRMM SECON CODA AMPLIT PERI AZIMU VELO SNR AR TRES W  DIS CAZ7
 BAR2 SZ ES   2   1910 55.14                             164    -0.2 5   40 227 
 RUS  HZ EP   1   1910 44.26                             141     0.2 7  106 190 
 RUS  HN ES       1911  2.67                             141     0.010  106 190 
 RUS  HZ I        1911  3.81         6.9 0.27                           106 190 
 RREF HZ EP   2   1911  8.90                             109     0.2 3  343 232 
 RREF HN ES   2   1911 46.69                             109     0.2 3  343 232 
 RREF HZ I        1911 52.24         4.1 0.52                           343 232 
 PRA  HZ EP   2   1911 14.79                             105    -0.7 3  408 212 
 PRA  HZ I        1912  1.41         5.8 0.69                           408 212 
                                                                                
