 2012  3 2 1847 34.8 L   6.808 -73.171146.9  RSN  6 0.3 1.8LRSN                1
 GAP=133        0.65       5.7     5.0  7.9  0.8681E+01  0.1198E+02 -0.3497E+01E
 ACTION:UP  12-03-31 23:16 OP:EP   STATUS:               ID:20120302184734 L   I
 2012-03-02-1840-00M.COL___191                                                 6
 STAT SP IPHASW D HRMM SECON CODA AMPLIT PERI AZIMU VELO SNR AR TRES W  DIS CAZ7
 BAR2 SZ EP   1   1847 54.32                             170    -0.3 7   24 183 
 BAR2 SZ ES   1   1848 10.25                             170     0.2 7   24 183 
 BAR2 SZ I        1848 11.43        10.5 0.31                            24 183 
 BRR  HZ EP   1   1847 56.52                             154     0.6 7   68 299 
 BRR  HZ I        1847 56.82        20.7 0.20                            68 299 
 PAM  SN ES   2   1848 14.26                             151    -0.5 5   79  41 
 RUS  HZ EP   1   1847 58.78                             144     0.0 7  102 175 
 RUS  HN ES   1   1848 17.44                             144     0.0 7  102 175 
 RUS  HZ I        1848 18.53         5.3 0.45                           102 175 
 PTB  HZ EP   1   1848  1.52                             133    -0.1 7  145 258 
 PTB  HN ES   1   1848 22.40                             133    -0.2 7  145 258 
 ZAR  HN ES   1   1848 32.13                             123    -0.1 6  201 292 
 ZAR  HZ I        1848 39.75         8.2 0.26                           201 292 
                                                                                
