 2012  5 2 1717 27.5 L   6.097 -73.866 97.2  RSN  6 0.3 1.6LRSN                1
 GAP=169        0.61       6.4     3.6 10.2  0.9953E+01  0.1326E+02  0.2562E+01E
 Epicentro: EL PEON - SANTANDER                                                3
 ACTION:UP  12-07-05 12:01 OP:pat  STATUS:               ID:20120502171727 L   I
 2012-05-02-1710-00M.COL___186                                                 6
 STAT SP IPHASW D HRMM SECON CODA AMPLIT PERI AZIMU VELO SNR AR TRES W  DIS CAZ7
 PTB  HZ EP   1   1717 44.06                             137    -0.5 7   82 307 
 PTB  HN ES   2   1717 57.71                             137    -0.2 5   82 307 
 PTB  HZ I        1718  1.23         4.6 0.07                            82 307 
 RUS  HZ EP   1   1717 45.87                             135     0.0 7   90 105 
 RUS  HZ I        1717 46.20        12.2 0.18                            90 105 
 RUS  HE ES   1   1718  0.33                             135     0.1 7   90 105 
 BAR2 SZ EP   1   1717 45.71                             133    -0.2 7   93  54 
 BAR2 SZ I        1717 46.03        10.5 0.35                            93  54 
 BAR2 SZ ES   2   1718  0.50                             133     0.3 5   93  54 
 BRR  HZ EP   2   1717 47.84                             127     0.4 5  113   9 
 BRR  HZ I        1717 49.92        18.2 0.45                           113   9 
 HEL  HZ EP   2   1717 55.95                             114     0.4 4  184 273 
 HEL  HE ES   2   1718 17.94                             114     0.5 4  184 273 
 ZAR  HN ES   2   1718 17.85                             113     0.2 4  189 325 
                                                                                
