 2012  8 2 1030 23.8 L   6.839 -73.281130.8  RSN  5 0.3 1.1LRSN                1
 GAP=109        0.50       5.6     5.9 10.5 -0.1276E+01 -0.2693E+02  0.1892E+02E
 Epicentro: ZAPATOCA - SANTANDER                                               3
 ACTION:UPD 12-09-10 11:53 OP:ep   STATUS:               ID:20120802103023 L   I
 2012-08-02-1030-00M.COL___215                                                 6
 STAT SP IPHASW D HRMM SECON CODA AMPLIT PERI AZIMU VELO AIN AR TRES W  DIS CAZ7
 BAR2 SZ EP       1030 41.55                             166   -0.2510 29.4 158 
 BAR2 SZ I        1030 56.40         7.0 0.42                          29.4 158 
 BRR  HN ES   2   1030 56.76                             155   -0.34 5 56.1 302 
 PAM  SZ EP   2   1030 45.05                             145    0.10 5 84.8  49 
 PAM  SE ES   3   1031  2.29                             145    0.84 2 84.8  49 
 PAM  SZ I        1031  4.12         2.0 0.28                          84.8  49 
 RUS  HZ EP       1030 46.82                             138    0.1910  107 168 
 RUS  HN ES   2   1031  4.46                             138    0.04 5  107 168 
 RUS  HZ I        1031  5.59         1.2 0.38                           107 168 
 PTB  HN ES   2   1031  7.71                             131    0.27 5  134 256 
 PTB  HZ I        1031  9.01         1.6 0.14                           134 256 
                                                                                
