 2015  5 2 1017 22.9 L   6.817 -73.116138.0  RSN 25 0.5 2.6LRSN                1
 GAP= 56        1.07       2.3     2.7  4.7 -0.1230E+01  0.3341E+01 -0.6260E-01E
 Epicentro: LOS SANTOS - SANTANDER                                             3
 ACTION:UPD 15-09-10 22:00 OP:cam  STATUS:               ID:20150502101722 L   I
 OLDACT:REG 15-05-02 20:13 OP:ak   STATUS:               ID:20150502100749     3
 2015-05-02-1007-49M.COL___273                                                 6
 STAT SP IPHASW D HRMM SECON CODA AMPLIT PERI AZIMU VELO AIN AR TRES W  DIS CAZ7
 BAR2 EZ IP     D 1017 41.93                             169    0.2410 25.9 197 
 BAR2 EZ ES       1017 56.11                             169   -0.2110 25.9 197 
 BAR2 EZ I        1017 57.69       167.9 0.22            168           25.9 197 
 BRR  HZ IP     D 1017 43.84                             151    0.4610 73.3 296 
 BRR  HN ES       1017 59.47                             151    0.1510 73.3 296 
 BRR  HZ I        1018  2.34        97.2 0.14            151           73.3 296 
 PAM  SZ IP     C 1017 44.85                             150    0.7310 73.8  38 
 PAM  SN ES       1018  1.55                             150    0.9210 73.8  38 
 PAM  SZ I        1018  4.10       142.5 0.52            153           73.8  38 
 RUS  HZ EP     D 1017 45.92                             142   -0.1410  102 178 
 RUS  HN ES       1018  3.66                             142   -0.4410  102 178 
 RUS  HZ I        1018  5.15        50.8 0.24            143            102 178 
 TAM  HZ IP     C 1017 50.28                             129    0.53 9  152 106 
 TAM  HE ES       1018 10.47                             129   -0.20 9  152 106 
 TAM  HZ I        1018 16.43        16.4 0.30            132            152 106 
 OCA  HZ IP     C 1017 50.35                             128   -0.17 9  159 352 
 OCA  HE ES       1018 11.63                             128   -0.40 9  159 352 
 SPBC HZ IP     D 1017 50.87                             127   -0.33 9  167 219 
 SPBC HN ES       1018 12.91                             127   -0.34 9  167 219 
 SPBC HZ I        1018 20.00        65.4 0.17            128            167 219 
 ZAR  HZ EP       1017 55.17                             120    0.03 8  206 291 
 ZAR  HN ES       1018 20.89                             120    0.63 8  206 291 
 ZAR  HZ I        1018 26.84        56.5 0.31            122            206 291 
 NOR  HZ EP       1017 58.41                             116   -0.23 8  238 235 
 NOR  HN ES       1018 25.55                             116   -0.94 8  238 235 
 NOR  HZ I        1018 29.18        40.3 0.22            118            238 235 
 SML  HZ EP       1017 58.44                             116   -0.67 8  243 334 
 SML  HN ES       1018 26.82                             116   -0.50 8  243 334 
 SML  HZ I        1018 30.23        82.3 0.12            118            243 334 
 CHI  HZ EP       1018  0.77                             115    0.25 8  251 196 
 CHI  HN ES       1018 29.51                             115   -0.32 8  251 196 
 CHI  HZ I        1018 36.77        10.1 0.26            116            251 196 
 ROSC BZ EP   4   1018  2.22                             115    1.21 0  256 211 
 ROSC BN ES   4   1018 33.38                             115    2.67 0  256 211 
 HEL  HZ EP   1   1018  3.77                             113    0.59 6  276 256 
 HEL  HE ES       1018 33.71                             113   -0.86 7  276 256 
 HEL  HZ I        1018 40.97        33.5 0.26            114            276 256 
 URE  HZ EP       1018  3.31                             112   -0.60 7  286 291 
 URE  HE ES   4   1018 34.38                             112   -1.49 0  286 291 
 URE  HZ I        1018 36.10        57.4 0.12            113            286 291 
 LL2C HZ EP   2   1018  6.83                             110    0.82 4  305 353 
 LL2C HN ES       1018 39.01                             110   -0.59 7  305 353 
 GUY2CHZ EP       1018  7.26                             111    0.63 7  305 235 
 GUY2CHN ES       1018 41.54                             111    0.83 7  305 235 
 GUY2CHZ I        1018 47.34        28.6 0.28                           305 235 
 PTGC HZ EP   1   1018  5.51                             110   -1.01 5  309 159 
 PTGC HE ES   4   1018 38.60                             110   -1.92 0  309 159 
 CRECREE ES   4   1018 51.40                             109    7.11 0  322 230 
 LL3C HZ EP   1   1018  8.27                             109    0.13 5  323 354 
 LL3C HN ES   2   1018 43.88                             109    0.48 3  323 354 
 RREF HZ EP   2   1018  9.93                             109    0.74 3  326 230 
 RREF HN ES       1018 45.48                             109    0.22 7  326 230 
 RREF HZ I        1018 50.44         7.0 0.24            110            326 230 
 CBOC HZ EP   1   1018 10.75                             108    0.77 5  337 252 
 CBOC HE ES       1018 46.64                             108   -0.03 7  337 252 
 CBOC HZ I        1018 49.75        12.6 0.30            109            337 252 
 TOL  SN ES       1018 49.68                             108    0.62 6  347 225 
 MON  HZ IP   4 C 1018  9.88                             107   -1.94 0  355 308 
 MON  HN ES   4   1018 48.46                             107   -1.49 0  355 308 
 MON  HZ I        1018 49.69        14.8 0.16            108            355 308 
 SDV  BZ EP       1018 11.85                             107   -0.40 6  357  50 
 SDV  BN ES   2   1018 49.91                             107   -0.81 3  357  50 
 SDV  BZ I        1018 51.86         9.2 0.35            109            357  50 
 ORTC HZ EP   2   1018 17.67                             105    0.66 3  399 216 
 ORTC HN ES   1   1018 58.90                             105   -0.29 4  399 216 
 ORTC HZ I        1019  4.03         8.0 0.35            106            399 216 
 SJC  HZ EP   4   1018 16.95                             104   -1.33 0  409 326 
 SJC  HN ES   4   1018 58.07                             104   -3.39 0  409 326 
 SJC  HZ I        1019  1.72         8.0 0.45            106            409 326 
 YOT  HZ EP   2   1018 25.45                             102   -0.77 2  476 229 
 YOT  HN ES   2   1019 16.36                             102    0.78 2  476 229 
                                                                                
