 2014 12 2 1410 44.7 L   6.708 -73.103145.7  RSN  5 0.3 1.7LRSN                1
 GAP=182        0.76       7.2     4.6  6.8 -0.4267E+00  0.9320E+01  0.7512E+01E
 Epicentro: JORDAN - SANTANDER                                                 3
 ACTION:UPD 15-02-10 16:59 OP:nd   STATUS:               ID:20141202141044 L   I
 OLDACT:REG 14-12-02 21:07 OP:spq  STATUS:               ID:20141202140746     3
 2014-12-02-1407-46M.COL___300                                                 6
 STAT SP IPHASW D HRMM SECON CODA AMPLIT PERI AZIMU VELO AIN AR TRES W  DIS CAZ7
 BAR2 SZ EP       1411  4.50                             174    0.2810 15.5 214 
 BAR2 SZ ES   1   1411 19.11                             174   -0.30 7 15.5 214 
 BAR2 SZ I        1411 20.84         7.1 0.16            170           15.5 214 
 BRR  HZ EP       1411  6.52                             149    0.1010 80.5 303 
 BRR  HN ES       1411 23.73                             149    0.4010 80.5 303 
 BRR  HZ I        1411 27.83        12.7 0.54            147           80.5 303 
 PAM  SN ES   1   1411 24.47                             149   -0.38 7 82.9  33 
 PAM  SZ I        1411 25.35         7.0 0.34            152           82.9  33 
 PTB  HZ EP       1411 11.58                             131   -0.38 9  151 263 
 PTB  HE ES       1411 33.22                             131    0.01 9  151 263 
 PTB  HZ I        1411 38.40         7.8 0.52            131            151 263 
 ZAR  HZ EP   1   1411 18.47                             121    0.44 6  212 294 
 ZAR  HN ES       1411 43.64                             121   -0.37 8  212 294 
 ZAR  HZ I        1411 49.41         7.1 0.36            122            212 294 
                                                                                
