 2010 11 2 1818 47.3 L   6.823 -73.110154.0  RSN 22 0.4 4.7LRSN                1
 GAP=105        1.00       3.0     5.0  5.8 -0.4161E+01  0.2810E+01  0.4331E+01E
 Epicentro: LOS SANTOS - SANTANDER                                             3
 Evento Sentido                                                                2
 Reportado como sentido                                                        3
 BUCARAMANGA, FLORIDABLANCA, PIEDECUESTA, (SANTANDER)                          3
 ACTION:UP  10-12-17 16:49 OP:REBC STATUS:               ID:20101102181847 L   I
 2010-11-02-1817-12S.COL___129                                                 6
 STAT SP IPHASW D HRMM SECON CODA AMPLIT PERI AZIMU VELO SNR AR TRES W  DIS CAZ7
 BAR2 SZ IP       1819  7.84                             170    -0.110   27 198 
 BAR2 SZ I        1819 24.17     13492.3 0.20                            27 198 
 GIR2 SZ ES   1   1819 23.78                             168    -0.2 7   30 342 
 BRR  HZ IP       1819  9.60                             153     0.210   74 295 
 BRR  HE ES   1   1819 26.99                             153     0.3 7   74 295 
 BRR  HZ I        1819 28.94      6813.0 0.12                            74 295 
 RUS  HZ IP     D 1819 11.71                             145    -0.310  103 178 
 RUS  HE ES   1   1819 30.76                             145    -0.5 7  103 178 
 RUS  HZ I        1819 32.36      4361.5 0.52                           103 178 
 GUE  SZ EP       1819 11.80                             142    -0.710  113  10 
 GRA  SZ IP       1819 13.67                             139     0.710  122  16 
 GRA  SZ ES   1   1819 32.78                             139    -0.2 7  122  16 
 GRA  SZ I        1819 37.77      5690.6 0.28                           122  16 
 OCA  SZ IP       1819 16.21                             132     0.2 9  158 352 
 OCA  SZ ES   1   1819 38.65                             132     0.2 7  158 352 
 OCA  SZ I        1819 47.21      6121.9 0.59                           158 352 
 YOP  SZ IP       1819 18.57                             128     0.6 9  180 155 
 YOP  SE ES   1   1819 41.95                             128     0.0 7  180 155 
 NOR  SZ IP       1819 23.43                             119    -0.6 8  240 235 
 NOR  SE ES   1   1819 52.29                             119    -0.4 6  240 235 
 ROSC BN ES       1819 57.65                             118     0.9 8  257 211 
 ROSC BZ I        1820  2.43      5485.3 0.43                           257 211 
 CVER SZ IP       1819 29.22                             116     0.7 7  276 203 
 CVER SZ I        1820  7.92      4084.8 0.49                           276 203 
 VIL  SZ IP       1819 30.91                             113    -0.3 7  305 190 
 VIL  SN ES   1   1820  5.37                             113    -0.2 5  305 190 
 VIL  SZ  AML     1820 10.73      2228.1 0.75                           305 190 
 GUY  SZ EP   1   1819 32.22                             113     0.4 5  306 235 
 RREF HZ EP   3   1819 33.75                             112    -0.6 2  326 229 
 RREF HN ES   2   1820 11.10                             112     0.1 3  326 229 
 RREF HZ I        1820 20.17      3006.0 0.84                           326 229 
 DBB  SZ IP       1819 35.55                             111     0.0 7  343 274 
 TOL  SZ EP   1   1819 36.20                             110    -0.2 5  348 225 
 SDV  BZ IP     C 1819 37.26                             110     0.2 6  356  50 
 SDV  BZ I        1819 38.46      1134.4 0.33                           356  50 
 ANIL HZ EP       1819 37.55                             109    -0.4 6  362 225 
 ANIL HE ES   2   1820 17.77                             109     0.3 3  362 225 
 PRA  HZ EP       1819 40.81                             108    -0.8 6  396 210 
 PRA  HN ES   2   1820 24.56                             108     0.6 3  396 210 
 MARA HZ EP   1   1819 58.70                             102    -0.3 3  542 216 
 MARA HZ I        1821 17.22       347.2 0.93                           542 216 
 PCON HZ EP       1820  8.37                             100     0.0 3  616 216 
 POP2 HZ EP       1820  7.19                             100    -0.8 3  617 220 
                                                                                
