 2010 11 2 1013  4.6 L   6.807 -73.119142.6  RSN 11 0.4 2.2LRSN                1
 GAP=138        0.74       2.9     4.2  5.3 -0.1813E+01  0.2923E+01  0.2330E+01E
 Epicentro: LOS SANTOS - SANTANDER                                             3
 ACTION:UP  10-12-17 16:49 OP:REBC STATUS:               ID:20101102101304 L   I
 2010-11-02-1011-04S.COL___126                                                 6
 STAT SP IPHASW D HRMM SECON CODA AMPLIT PERI AZIMU VELO SNR AR TRES W  DIS CAZ7
 BAR2 SZ EP       1013 23.75                             170    -0.110   25 197 
 BAR2 SZ ES   1   1013 38.51                             170    -0.4 7   25 197 
 BAR2 SZ I        1013 40.06        38.4 0.33                            25 197 
 BRR  HZ EP       1013 25.48                             151    -0.110   74 297 
 BRR  HZ I        1013 25.83        33.5 0.19                            74 297 
 BRR  HN ES   1   1013 42.47                             151     0.6 7   74 297 
 RUS  HZ EP       1013 27.77                             143    -0.310  101 178 
 RUS  HZ I        1013 28.67        15.8 0.13                           101 178 
 RUS  HE ES   1   1013 46.63                             143     0.2 7  101 178 
 GRA  SZ IP       1013 29.59                             137     0.210  124  16 
 GRA  SZ ES   1   1013 48.74                             137    -0.1 7  124  16 
 GRA  SZ I        1013 51.81        15.8 0.39                           124  16 
 OCA  SZ EP   1   1013 32.64                             129     0.0 7  160 352 
 OCA  SZ ES   2   1013 54.07                             129    -0.4 5  160 352 
 OCA  SZ I        1013 57.22        26.4 0.10                           160 352 
 YOP  SZ EP       1013 34.52                             126     0.2 9  178 154 
 YOP  SN ES   2   1013 58.42                             126     0.8 4  178 154 
 NOR  SZ EP       1013 40.16                             117    -0.3 8  238 235 
 NOR  SE ES   1   1014  8.36                             117    -0.1 6  238 235 
 HEL  HZ EP   2   1013 45.25                             114     0.3 4  275 256 
 HEL  HN ES   2   1014 16.95                             114     0.5 4  275 256 
 HEL  HZ I        1014 22.16        10.1 0.37                           275 256 
 GUY  SZ EP   2   1013 49.16                             111     0.8 4  304 235 
 GUY  SZ I        1014 29.39        13.8 0.11                           304 235 
 RREF HZ EP   1   1013 51.62                             110     0.7 5  324 230 
 RREF HN ES   2   1014 26.14                             110    -0.9 3  324 230 
 RREF HZ I        1014 37.82        10.6 0.27                           324 230 
 PRA  HZ EP   2   1013 57.82                             106    -0.4 3  394 210 
 PRA  HN ES   2   1014 39.81                             106    -0.3 3  394 210 
                                                                                
