 2013  7 2 1616  9.1 L   6.750 -73.160140.6  RSN  7 0.3 1.6LRSN                1
 GAP=137        0.68       3.6     3.1  5.2 -0.1858E+01  0.3856E+01  0.1066E+01E
 Epicentro: LOS SANTOS - SANTANDER                                             3
 ACTION:UPD 13-08-12 10:34 OP:ep   STATUS:               ID:20130702161609 L   I
 OLDACT:DUP 13-07-02 16:46 OP:jn   STATUS:               ID:20130702160960d    3
 2013-07-02-1609-59M.COL___267                                                 6
 STAT SP IPHASW D HRMM SECON CODA AMPLIT PERI AZIMU VELO AIN AR TRES W  DIS CAZ7
 BAR2 SZ EP       1616 27.98                             172   -0.0610 17.7 188 
 BAR2 SZ ES       1616 43.00                             172    0.2210 17.7 188 
 BAR2 SZ I        1616 44.11        11.8 0.18            173           17.7 188 
 BRR  HZ EP       1616 30.29                             151    0.4810 72.7 303 
 BRR  HE ES   1   1616 46.18                             151    0.24 7 72.7 303 
 BRR  HZ I        1616 51.06         9.6 0.14            151           72.7 303 
 PAM  SZ EP       1616 31.14                             148    0.0110 82.6  38 
 PAM  SN ES       1616 48.03                             148   -0.2610 82.6  38 
 PAM  SZ I        1616 50.47         7.1 0.60            152           82.6  38 
 RUS  HZ EP       1616 32.09                             144    0.1010 95.2 175 
 RUS  HN ES   1   1616 49.66                             144   -0.16 7 95.2 175 
 RUS  HZ I        1616 51.92         4.9 0.32            148           95.2 175 
 PTB  HZ EP       1616 35.09                             131   -0.36 9  145 261 
 PTB  HN ES       1616 55.58                             131   -0.40 9  145 261 
 PTB  HZ I        1617  0.16         8.0 0.10            133            145 261 
 ZAR  HE ES   1   1617  6.43                             121    0.01 6  205 294 
 NOR  HN ES   1   1617 11.72                             118    0.37 6  230 235 
                                                                                
