 2012 10 2 1719 41.5 L   6.764 -73.104142.8  RSN  5 0.1 2.0LRSN                1
 GAP=144        0.41       2.5     3.9  3.4 -0.1095E+00 -0.1111E+01  0.8591E+00E
 Epicentro: LOS SANTOS - SANTANDER                                             3
 ACTION:UPD 12-11-22 17:01 OP:ep   STATUS:               ID:20121002171941 L   I
 2012-10-02-1718-19M.COL___212                                                 6
 STAT SP IPHASW D HRMM SECON CODA AMPLIT PERI AZIMU VELO AIN AR TRES W  DIS CAZ7
 BAR2 SZ IP       1720  0.68                             171   -0.0510 20.8 205 
 BAR2 SZ ES   1   1720 15.47                             171   -0.26 7 20.8 205 
 BAR2 SZ I        1720 17.18        44.2 0.42                          20.8 205 
 GIR2 SZ IP       1720  0.80                             165   -0.1710 36.2 344 
 GIR2 SZ ES   1   1720 16.31                             165    0.15 7 36.2 344 
 BRR  HZ IP       1720  2.55                             150   -0.1410 77.2 300 
 BRR  HZ I        1720  2.84        47.4 0.26                          77.2 300 
 BRR  HN ES   1   1720 19.41                             150    0.20 7 77.2 300 
 PAM  SZ EP       1720  3.52                             150    0.0910 77.8  35 
 PAM  SZ I        1720  3.81        16.4 0.24                          77.8  35 
 PAM  SN ES   1   1720 20.55                             150    0.02 7 77.8  35 
 RUS  HZ EP       1720  4.83                             144    0.1710 96.3 179 
 RUS  HN ES   1   1720 22.76                             144    0.04 7 96.3 179 
 RUS  HZ I        1720 24.07         3.3 0.24                          96.3 179 
                                                                                
