 2016  6 2 1334 50.3 L   6.833 -73.288122.2  RSN  5 0.4 1.8LRSN                1
 GAP=213        0.95       5.2     5.3  7.5  0.7587E+01  0.7717E+01  0.6956E+01E
 Epicentro: ZAPATOCA - SANTANDER                                               3
 ACTION:UPD 16-07-21 22:14 OP:rebc STATUS:               ID:20160602133450 L   I
 OLDACT:UP  16-06-03 00:43 OP:ar   STATUS:               ID:20160602132745     3
 OLDACT:REG 16-06-02 21:44 OP:ar   STATUS:               ID:20160602132745     3
 2016-06-02-1327-45M.COL___319                                                 6
 STAT SP IPHASW D HRMM SECON CODA AMPLIT PERI AZIMU VELO AIN AR TRES W  DIS CAZ7
 BAR2 EZ IP     C 1335  7.26                             166    0.0310 29.1 156 
 BAR2 EZ ES       1335 20.76                             166    0.3110 29.1 156 
 BAR2 EZ I        1335 21.68        22.9 0.44                          29.1 156 
 BRR  HZ EP       1335  7.80                             154   -0.2010 55.8 303 
 BRR  HN ES       1335 22.01                             154    0.1810 55.8 303 
 BRR  HZ I        1335 22.38        22.9 0.38                          55.8 303 
 RUS  HZ EP       1335 12.34                             137    0.0710  106 168 
 RUS  HN ES       1335 28.83                             137   -0.5910  106 168 
 RUS  HZ I        1335 30.54         6.3 0.24                           106 168 
 PTB  HZ EP       1335 14.24                             129    0.2210  133 256 
 PTB  HN ES       1335 31.93                             129   -0.6110  133 256 
 PTB  HZ I        1335 36.28         7.6 0.38                           133 256 
 SPBC HZ EP   2   1335 16.51                             124    0.08 5  157 214 
 SPBC HN ES       1335 37.45                             124    0.62 9  157 214 
 SPBC HZ I        1335 40.22         8.5 0.40                           157 214 
                                                                                
