 2013  9 2 1539  4.9 L   6.029 -74.120  0.0  RSN 10 0.4 2.4LRSN                1
 GAP=173        0.88       2.8     3.3  5.7 -0.6037E+01  0.7253E+01 -0.4245E+01E
 Epicentro: LA BELLEZA - SANTANDER                                             3
 ACTION:UPD 13-10-22 09:19 OP:ep   STATUS:               ID:20130902153904 L   I
 OLDACT:UP  13-09-02 22:24 OP:mh   STATUS:               ID:20130902153751     3
 OLDACT:REG 13-09-02 21:58 OP:mh   STATUS:               ID:20130902153751     3
 2013-09-02-1537-51M.COL___211                                                 6
 STAT SP IPHASW D HRMM SECON CODA AMPLIT PERI AZIMU VELO AIN AR TRES W  DIS CAZ7
 PTB  HZ EP       1539 16.36                              47    0.0710 67.6 327 
 PTB  HN ES       1539 25.63                              47    0.4310 67.6 327 
 NOR  HZ EP       1539 21.16                              47    0.2710 97.6 238 
 NOR  HN ES       1539 33.44                              47    0.0610 97.6 238 
 NOR  HN I        1539 34.96       309.5 0.16             47           97.6 238 
 RUS  HZ EP   4   1539 21.20                              47   -2.89 0  116  97 
 RUS  HN ES   4   1539 33.10                              47   -5.98 0  116  97 
 RUS  HN I        1539 33.90       140.8 0.32             47            116  97 
 BAR2 SZ EP   4   1539 22.70                              47   -1.92 0  121  59 
 BAR2 SZ I        1539 38.25        26.7 0.48             47            121  59 
 BRR  HZ EP       1539 24.79                              47   -0.5610  127  21 
 BRR  HN ES       1539 41.59                              47    0.2710  127  21 
 BRR  HN I        1539 42.78        96.9 0.14             47            127  21 
 HEL  HZ EP   1   1539 29.60                              47   -0.60 7  157 277 
 HEL  HN ES       1539 49.68                              47   -0.28 9  157 277 
 HEL  HZ I        1539 51.50        29.1 0.30             47            157 277 
 GUY2CHZ EP   4   1539 32.23                              47    0.83 0  164 237 
 GUY2CHN ES       1539 51.85                              47   -0.24 9  164 237 
 ZAR  HZ EP   1   1539 33.18                              37   -0.27 7  181 333 
 ZAR  HN ES   4   1539 53.60                              37   -2.15 0  181 333 
 ZAR  HN I        1539 58.54        23.8 0.14             37            181 333 
 TOL  SZ EP   1   1539 38.14                              37    0.96 6  208 220 
 PAM  SZ EP   1   1539 37.94                              37   -0.15 6  214  47 
 PAM  SN ES   2   1540  3.72                              37   -0.29 4  214  47 
 PAM  SZ I        1540  5.68        35.7 0.32             37            214  47 
 PRA  HZ EP   4   1539 46.58                              37    2.02 0  270 198 
 PRA  HN ES   4   1540 19.14                              37    3.62 0  270 198 
                                                                                
