 2017 10 2 1609 42.5 L   6.654 -74.080  4.0  RSN  7 0.6 1.3LRSN                1
 GAP=106        1.49       4.1     2.9  7.1 -0.1719E+01  0.5202E+01 -0.3469E+01E
 Epicentro: PUERTO PARRA - SANTANDER                                           3
 ACTION:UPD 17-11-07 19:27 OP:rebc STATUS:               ID:20171002160942 L   I
 OLDACT:REG 17-10-02 20:38 OP:dhb  STATUS:               ID:20171002160743     3
 2017-10-02-1608-00M.COL___435                                                 6
 STAT SP IPHASW D HRMM SECON CODA AMPLIT PERI AZIMU VELO AIN AR TRES W  DIS CAZ7
 BAR2 EZ EP       16 9 58.57                              93    0.1210 99.5  94 
 BAR2 EZ ES       1610 10.11                              93   -0.7610 99.5  94 
 BAR2 EZ I        1610 12.35         8.7 0.76             95           99.5  94 
 ZAR  HN ES       1610 18.16                              92    0.4710  126 317 
 ZAR  HZ I        1610 19.75         5.1 0.10             93            126 317 
 RUS  HZ EP       1610  5.09                              92    0.42 9  139 127 
 RUS  HN ES       1610 22.55                              92    0.62 9  139 127 
 RUS  HZ I        1610 25.06         8.6 0.22             93            139 127 
 NOR  HZ EP       1610  5.96                              92    0.21 9  149 216 
 NOR  HE ES       1610 23.31                              92   -0.55 9  149 216 
 NOR  HZ I        1610 25.88         2.5 0.12             93            149 216 
 HEL  HE ES       1610 28.68                              56   -0.97 9  168 252 
 HEL  HZ I        1610 29.29         7.6 0.28             56            168 252 
 PAM  EZ EP       1610 10.20                              56    0.76 9  170  64 
 PAM  EN ES       1610 29.52                              56   -0.90 9  170  64 
 PAM  EZ I        1610 31.96         2.3 0.16             56            170  64 
 GUY2CHZ EP       1610 15.01                              56    0.06 8  213 222 
 GUY2CHE ES       1610 40.85                              56    0.61 8  213 222 
 GUY2CHZ I        1610 43.82         1.8 0.32                           213 222 
                                                                                
