 2017 11 2 1702 54.9 L   6.975 -73.154144.7  RSN  5 0.4 1.5LRSN                1
 GAP=285        0.98       7.6     6.5  8.1  0.9805E+01  0.1047E+02  0.5662E+01E
 Epicentro: GIRON - SANTANDER                                                  3
 ACTION:UPD 17-12-12 19:51 OP:rebc STATUS:               ID:20171102170254 L   I
 OLDACT:UP  17-11-03 00:33 OP:mg   STATUS:               ID:20171102165735     3
 OLDACT:UP  17-11-03 00:33 OP:mg   STATUS:               ID:20171102165735     3
 OLDACT:REG 17-11-02 20:39 OP:mg   STATUS:               ID:20171102165735     3
 2017-11-02-1658-00M.COL___444                                                 6
 STAT SP IPHASW D HRMM SECON CODA AMPLIT PERI AZIMU VELO AIN AR TRES W  DIS CAZ7
 BAR2 EZ EP       17 3 15.22                             163    0.2410 42.4 184 
 BAR2 EZ ES       17 3 30.95                             163    0.3410 42.4 184 
 BAR2 EZ I        17 3 34.12         5.0 0.27            161           42.4 184 
 RUS  HZ EP       17 3 20.03                             139   -0.0410  120 176 
 RUS  HN ES       17 3 39.09                             139   -0.5910  120 176 
 RUS  HZ I        17 3 39.99         4.9 0.34            138            120 176 
 PTB  HZ EP       17 3 22.41                             131    0.22 9  152 252 
 PTB  HN ES       17 3 43.08                             131   -0.37 9  152 252 
 PTB  HZ I        17 3 45.83         4.0 0.24            131            152 252 
 NOR  HN ES   1   17 4  0.69                             117    0.14 6  246 231 
 NOR  HZ I        17 4  3.42         3.9 0.14            118            246 231 
 CHI  HZ EP       17 3 34.02                             115   -0.59 8  267 194 
 CHI  HN ES       17 4  6.30                             115    0.75 8  267 194 
 CHI  HZ I        17 4 10.24         1.4 0.29            116            267 194 
                                                                                
