 2013  2 2 1711 18.6 L   6.767 -73.108145.4  RSN  7 0.2 1.7LRSN                1
 GAP=143        0.57       2.6     2.9  4.6 -0.4672E+00  0.3127E+01  0.3082E+01E
 Epicentro: LOS SANTOS - SANTANDER                                             3
 ACTION:UPD 13-03-12 09:29 OP:ep   STATUS:               ID:20130202171118 L   I
 2013-02-02-1710-00M.COL___241                                                 6
 STAT SP IPHASW D HRMM SECON CODA AMPLIT PERI AZIMU VELO AIN AR TRES W  DIS CAZ7
 BRR  HZ EP       1711 40.13                             151    0.1010 76.6 299 
 BRR  HE ES       1711 56.90                             151    0.1710 76.6 299 
 BRR  HE I        1712  1.40        22.1 0.16            150           76.6 299 
 PAM  SZ EP       1711 41.02                             151    0.2210 77.7  35 
 PAM  SN ES       1711 57.83                             151   -0.2910 77.7  35 
 PAM  SZ I        1712  0.24         9.4 0.41            155           77.7  35 
 RUS  HZ EP   1   1711 42.25                             145    0.20 7 96.8 178 
 RUS  HN ES       1712  0.33                             145    0.0010 96.8 178 
 RUS  HN I        1712  1.87         7.5 0.22            147           96.8 178 
 PTB  HZ EP       1711 45.32                             131   -0.53 9  151 260 
 PTB  HE ES   1   1712  7.23                             131    0.12 7  151 260 
 PTB  HZ I        1712  8.70         6.5 0.13            132            151 260 
 ZAR  HE ES   1   1712 17.48                             122    0.21 6  209 293 
 ZAR  HZ I        1712 22.22         4.5 0.19            123            209 293 
 NOR  HZ EP   1   1711 54.57                             118    0.11 6  236 236 
 NOR  HN ES   1   1712 22.07                             118   -0.35 6  236 236 
 NOR  HZ I        1712 27.91         3.2 0.38            120            236 236 
 CHI  HZ EP   1   1711 56.14                             117    0.11 6  246 196 
 CHI  HE ES   1   1712 25.35                             117    0.14 6  246 196 
 CHI  HZ I        1712 29.11         1.8 0.40            119            246 196 
                                                                                
