 2015 12 2 1015  4.7 L   6.785 -73.167144.3  RSN  8 0.4 2.0LRSN                1
 GAP=190        0.96       3.3     5.9  6.7 -0.1406E+01  0.6308E+01  0.3334E+01E
 Epicentro: LOS SANTOS - SANTANDER                                             3
 ACTION:UPD 16-02-04 15:02 OP:cam  STATUS:               ID:20151202101504 L   I
 OLDACT:REG 15-12-02 19:52 OP:drio STATUS:               ID:20151202100748     3
 2015-12-02-1007-48M.COL___306                                                 6
 STAT SP IPHASW D HRMM SECON CODA AMPLIT PERI AZIMU VELO AIN AR TRES W  DIS CAZ7
 BAR2 EZ EP       1015 24.15                             171    0.0110 21.4 184 
 BAR2 EZ ES       1015 38.74                             171   -0.5410 21.4 184 
 BAR2 EZ I        1015 41.91        18.6 0.26            170           21.4 184 
 BRR  HZ EP       1015 25.95                             153    0.3010 70.0 301 
 BRR  HN ES       1015 42.50                             153    0.5410 70.0 301 
 PTB  HZ EP       1015 31.00                             132   -0.33 9  145 259 
 PTB  HN ES       1015 51.44                             132   -0.64 9  145 259 
 PTB  HZ I        1015 58.97         5.4 0.22            130            145 259 
 SPBC HZ EP       1015 33.17                             129    0.32 9  160 219 
 SPBC HN ES       1015 55.35                             129    0.57 9  160 219 
 SPBC HZ I        1016  2.85         9.9 0.28            129            160 219 
 OCA  HN ES       1015 55.13                             129   -0.02 9  162 354 
 OCA  HZ I        1016  2.39        19.0 0.46            128            162 354 
 ZAR  HZ EP   4   1015 38.42                             122    1.51 0  202 293 
 ZAR  HN ES       1016  2.22                             122    0.20 9  202 293 
 ZAR  HZ I        1016  7.33         6.9 0.26            121            202 293 
 SML  HZ EP   4   1015 40.35                             117   -0.98 0  244 336 
 SML  HN ES       1016  9.58                             117   -0.30 8  244 336 
 SML  HZ I        1016 18.80         9.5 0.10            117            244 336 
 PRA  HZ EP       1015 57.83                             106   -0.06 6  389 209 
 PRA  HN ES       1016 39.00                             106   -0.35 6  389 209 
 PRA  HZ I        1016 46.38         4.2 0.42            107            389 209 
 SJC  HZ EP   4   1015 58.15                             105   -2.10 0  409 327 
 SJC  HE ES   4   1016 39.01                             105   -4.56 0  409 327 
                                                                                
