 2011  7 2 1327  3.0 L   6.758 -73.135148.0  RSN  5 0.4 1.4LRSN                1
 GAP=157        0.69      13.0    14.8 11.6  0.1143E+03 -0.9345E+02 -0.6131E+02E
 Epicentro: LOS SANTOS - SANTANDER                                             3
 ACTION:UPD 12-07-25 13:57 OP:epov STATUS:               ID:20110702132702 L   I
 2011-07-02-1324-52S.COL___140                                                 6
 STAT SP IPHASW D HRMM SECON CODA AMPLIT PERI AZIMU VELO AIN AR TRES W  DIS CAZ7
 BAR2 SZ EP       1327 22.64                             172   -0.1910 19.0 196 
 BAR2 SZ I        1327 23.19         4.3 0.32                          19.0 196 
 BAR2 SZ ES   2   1327 38.81                             172    0.52 5 19.0 196 
 BTL  SZ EP       1327 23.26                             171    0.3610 23.1 320 
 BRR  HZ EP       1327 24.65                             152    0.0610 74.6 301 
 BRR  HZ I        1327 27.47         8.7 0.54                          74.6 301 
 BRR  HN ES   1   1327 41.14                             152   -0.29 7 74.6 301 
 RUS  HN ES   3   1327 43.85                             146   -1.23 2 95.8 177 
 RUS  HZ I        1327 48.62         2.0 0.50                          95.8 177 
 BRI  SZ EP   2   1327 26.92                             141   -0.49 5  112  19 
                                                                                
