 2010  9 2 1507 58.7 L   6.779 -73.095143.9  RSN  5 0.2 1.9LRSN                1
 GAP=165        0.38       2.4     4.4  4.3 -0.3025E+01 -0.4192E+01  0.1519E+01E
 Epicentro: LOS SANTOS - SANTANDER                                             3
 ACTION:UP  11-02-18 10:59 OP:tino STATUS:               ID:20100902150758 L   I
 2010-09-02-1505-01S.COL___120                                                 6
 STAT SP IPHASW D HRMM SECON CODA AMPLIT PERI AZIMU VELO SNR AR TRES W  DIS CAZ7
 BAR2 SZ EP   1   15 8 17.96                             171    -0.2 7   23 205 
 BAR2 SZ ES   2   15 8 33.08                             171    -0.2 5   23 205 
 BAR2 SZ I        15 8 35.68        14.5 0.21                            23 205 
 BRR  HZ IP     C 15 8 19.93                             150    -0.110   77 298 
 BRR  HE ES   1   15 8 36.80                             150     0.1 7   77 298 
 BRR  HZ I        15 8 37.45        12.2 0.17                            77 298 
 RUS  HZ EP   1   15 8 22.25                             144     0.1 7   98 179 
 RUS  HN ES   2   15 8 40.52                             144     0.1 5   98 179 
 RUS  HZ I        15 8 41.85         9.2 0.29                            98 179 
 GRA  SZ IP       15 8 23.93                             136     0.110  126  15 
 GRA  SZ ES   1   15 8 43.54                             136     0.1 7  126  15 
 GRA  SZ I        15 8 44.80        10.6 0.23                           126  15 
 PRA  HZ EP   2   15 8 52.08                             106    -0.2 3  393 210 
 PRA  HE ES   2   15 9 34.50                             106     0.4 3  393 210 
 PRA  HZ I        15 9 40.74         3.2 0.51                           393 210 
                                                                                
