 2017  5 2 1547 58.7 L   6.778 -73.139152.5  RSN  6 0.3 1.8LRSN                1
 GAP=138        0.73       3.5     3.2  5.7 -0.7279E+00  0.4605E+01  0.9453E+00E
 Epicentro: LOS SANTOS - SANTANDER                                             3
 ACTION:UPD 17-06-16 13:32 OP:jn   STATUS:               ID:20170502154758 L   I
 OLDACT:REG 17-05-02 20:43 OP:ar   STATUS:               ID:20170502153746     3
 2017-05-02-1538-00M.COL___370                                                 6
 STAT SP IPHASW D HRMM SECON CODA AMPLIT PERI AZIMU VELO AIN AR TRES W  DIS CAZ7
 BRR  HZ EP       1548 21.13                             153    0.4110 73.1 300 
 BRR  HE ES       1548 38.20                             153    0.3410 73.1 300 
 BRR  HZ I        1548 41.89        15.7 0.28            153           73.1 300 
 PAM  EZ EP       1548 22.03                             152    0.2710 78.8  38 
 PAM  EE ES       1548 39.31                             152   -0.4010 78.8  38 
 PAM  EZ I        1548 41.27        18.6 0.44            153           78.8  38 
 RUS  HZ EP       1548 22.98                             146   -0.0110 98.1 176 
 RUS  HN ES       1548 41.83                             146   -0.0610 98.1 176 
 RUS  HZ I        1548 42.93         8.6 0.34            150           98.1 176 
 PTB  HZ EP       1548 25.86                             133   -0.43 9  148 260 
 PTB  HN ES       1548 47.83                             133    0.05 9  148 260 
 PTB  HZ I        1548 48.80         4.5 0.40            135            148 260 
 ZAR  HZ EP       1548 31.80                             124   -0.00 8  206 293 
 ZAR  HN ES       1548 57.24                             124   -0.34 8  206 293 
 ZAR  HZ I        1549  2.25         6.6 0.26            125            206 293 
 NOR  HE ES       1549  2.95                             120    0.05 8  234 235 
                                                                                
