 2011 12 2 1401 11.5 L   6.794 -73.123149.5  RSN  7 0.4 1.9LRSN                1
 GAP=140        0.90       4.8     6.1  7.5 -0.4513E+01  0.9626E+01  0.6300E+01E
 Epicentro: LOS SANTOS - SANTANDER                                             3
 ACTION:UPD 12-07-13 16:13 OP:ep   STATUS:               ID:20111202140112 L   I
 2011-12-02-1400-00M.COL___180                                                 6
 STAT SP IPHASW D HRMM SECON CODA AMPLIT PERI AZIMU VELO AIN AR TRES W  DIS CAZ7
 BAR2 SZ EP       14 1 31.44                             171   -0.1110 23.2 196 
 BAR2 SZ ES   1   14 1 46.48                             171   -0.73 7 23.2 196 
 GIR2 SZ EP       14 1 31.72                             167    0.1010 32.5 346 
 BRR  HZ EP       14 1 33.47                             152    0.3010 73.7 298 
 BRR  HN ES   1   14 1 50.80                             152    0.71 7 73.7 298 
 BRR  HZ I        14 1 53.54        11.3 0.12                          73.7 298 
 PAM  SZ EP       14 1 34.10                             152    0.0710 76.4  38 
 PAM  SN ES   1   14 1 51.06                             152   -0.56 7 76.4  38 
 PAM  SZ I        14 1 53.37        12.8 0.61                          76.4  38 
 RUS  HZ EP       14 1 35.77                             145    0.2410 99.7 177 
 RUS  HN ES   1   14 1 54.41                             145    0.11 7 99.7 177 
 RUS  HZ I        14 1 55.76        10.3 0.34                          99.7 177 
 CHI  HZ EP   1   14 1 49.54                             118    0.16 6  249 196 
 CHI  HN ES   1   14 2 19.16                             118    0.21 6  249 196 
 CHI  HZ I        14 2 22.32         4.6 0.44                           249 196 
 HEL  HZ EP   1   14 1 50.95                             115   -1.18 6  274 256 
 HEL  HN ES   1   14 2 23.59                             115   -0.25 6  274 256 
 HEL  HZ I        14 2 31.15         6.9 0.31                           274 256 
                                                                                
