 2017  3 2 1648  7.5 L   6.814 -73.148138.5  RSN  4 0.2 1.4LRSN                1
 GAP=244        0.50       5.1     3.8  4.8  0.1270E+02  0.2157E+01 -0.4084E+01E
 Epicentro: LOS SANTOS - SANTANDER                                             3
 ACTION:UPD 17-05-25 18:35 OP:jn   STATUS:               ID:20170302164807 L   I
 OLDACT:DUP 17-03-03 01:06 OP:lv   STATUS:               ID:20170302163733d    3
 2017-03-02-1638-00M.COL___388                                                 6
 STAT SP IPHASW D HRMM SECON CODA AMPLIT PERI AZIMU VELO AIN AR TRES W  DIS CAZ7
 BAR2 EZ EP       1648 26.35                             169    0.0210 24.8 189 
 BAR2 EZ ES       1648 40.83                             169   -0.1510 24.8 189 
 BAR2 EZ I        1648 42.75         8.9 0.32            166           24.8 189 
 RUS  HZ EP       1648 30.67                             142   -0.0310  102 176 
 RUS  HN ES       1648 48.99                             142    0.2310  102 176 
 RUS  HZ I        1648 50.00         2.7 0.18            142            102 176 
 PTB  HZ EP       1648 33.75                             130   -0.18 9  148 258 
 PTB  HN ES       1648 54.36                             130   -0.15 9  148 258 
 PTB  HZ I        1648 58.18         2.8 0.24            130            148 258 
 ZAR  HE ES       1649  4.62                             121    0.30 9  203 292 
                                                                                
