 2017  9 2 1430 39.1 L   6.625 -73.389131.7  RSN  5 0.3 1.5LRSN                1
 GAP=133        0.77       3.9     4.9  6.1  0.8566E+01  0.1245E+02  0.4432E+01E
 Epicentro: GALAN - SANTANDER                                                  3
 ACTION:UPD 17-10-05 19:08 OP:rebc STATUS:               ID:20170902143039 L   I
 OLDACT:REG 17-09-02 20:44 OP:dhb  STATUS:               ID:20170902142740     3
 2017-09-02-1428-00M.COL___411                                                 6
 STAT SP IPHASW D HRMM SECON CODA AMPLIT PERI AZIMU VELO AIN AR TRES W  DIS CAZ7
 BAR2 EZ EP       1430 56.72                             170   -0.2710 23.1  99 
 BAR2 EZ ES       1431 10.65                             170   -0.3310 23.1  99 
 BAR2 EZ I        1431 11.88         7.2 0.30            178           23.1  99 
 BRR  HN ES       1431 13.68                             152    0.4010 64.1 326 
 BRR  HZ I        1431 22.63        14.5 0.41            152           64.1 326 
 RUS  HZ EP       1431  0.38                             145   -0.1210 87.8 157 
 RUS  HE ES       1431 17.60                             145    0.3710 87.8 157 
 RUS  HZ I        1431 19.53         3.6 0.22            152           87.8 157 
 SPBC HZ EP       1431  3.63                             132    0.1210  132 215 
 SPBC HN ES       1431 22.43                             132   -0.1510  132 215 
 SPBC HZ I        1431 26.82         5.6 0.05            136            132 215 
 ZAR  HZ EP       1431  9.33                             121    0.34 9  189 301 
 ZAR  HN ES       1431 31.97                             121   -0.36 9  189 301 
 ZAR  HZ I        1431 37.01         2.1 0.16            124            189 301 
                                                                                
