 2016  1 2 1745 12.5 L   6.770 -73.166144.0  RSN 11 0.6 2.0LRSN                1
 GAP=233        1.08       5.9     8.5  8.6  0.2136E+02  0.3044E+02  0.1814E+02E
 Epicentro: LOS SANTOS - SANTANDER                                             3
 ACTION:UPD 16-03-09 23:22 OP:cam  STATUS:               ID:20160102174512 L   I
 OLDACT:REG 16-01-02 20:58 OP:dnl  STATUS:               ID:20160102173750     3
 2016-01-02-1737-50M.COL___313                                                 6
 STAT SP IPHASW D HRMM SECON CODA AMPLIT PERI AZIMU VELO AIN AR TRES W  DIS CAZ7
 BAR2 EZ EP   2   1745 31.82                             172   -0.03 5 19.7 185 
 BAR2 EZ ES       1745 46.37                             172   -0.5710 19.7 185 
 BAR2 EZ I        1745 48.72        13.6 0.25            164           19.7 185 
 BRR  HZ EP       1745 33.65                             152    0.2110 70.9 302 
 BRR  HE ES       1745 50.83                             152    1.0610 70.9 302 
 BRR  HZ I        1745 55.85        13.5 0.21            148           70.9 302 
 RUS  HZ EP   2   1745 35.45                             145   -0.40 5 97.4 175 
 RUS  HE ES   2   1745 54.01                             145   -0.06 5 97.4 175 
 RUS  HZ I        1745 55.76         7.1 0.39            144           97.4 175 
 PTB  HZ EP       1745 38.41                             132   -0.65 9  145 260 
 PTB  HN ES   2   1745 59.60                             132   -0.18 5  145 260 
 PTB  HZ I        1746  3.32         9.1 0.20            129            145 260 
 SPBC HZ EP   4   1745 40.94                             130    0.46 0  159 219 
 SPBC HN ES   2   1746  1.51                             130   -0.80 5  159 219 
 SPBC HZ I        1746 10.97        20.4 0.16            127            159 219 
 ZAR  HZ EP   2   1745 44.55                             122   -0.20 4  203 293 
 ZAR  HE ES       1746  9.42                             122   -0.48 9  203 293 
 ZAR  HZ I        1746 16.03        13.4 0.16            122            203 293 
 NOR  HZ EP   2   1745 47.94                             119    0.22 4  231 235 
 NOR  HN ES   2   1746 15.75                             119    0.56 4  231 235 
 NOR  HZ I        1746 23.16         9.4 0.18            118            231 235 
 CHI  HZ EP   2   1745 49.54                             117   -0.15 4  245 195 
 CHI  HE ES       1746 19.44                             117    0.75 8  245 195 
 CHI  HZ I        1746 25.13         4.6 0.29            118            245 195 
 SML  HZ I        1746 21.52        21.9 0.08            119            246 336 
 GUY2CHZ EP   2   1745 56.49                             112    0.89 4  297 235 
 GUY2CHE ES   2   1746 28.62                             112   -0.60 4  297 235 
 GUY2CHZ I        1746 40.67         4.5 0.53                           297 235 
 PRA  HZ EP   2   1746  5.25                             107   -0.24 3  388 210 
 PRA  HN ES   4   1746 41.95                             107   -4.87 0  388 210 
 PRA  HZ I        1746 53.60         5.1 0.28            107            388 210 
                                                                                
