 2011 11 2 1007  1.8 L   6.763 -73.083136.6  RSN  4 0.2 1.2LRSN                1
 GAP=146        0.48       4.6     5.6  6.4  0.5175E+00 -0.1299E+02 -0.6358E+01E
 Epicentro: LOS SANTOS - SANTANDER                                             3
 ACTION:UPD 12-07-13 16:07 OP:ep   STATUS:               ID:20111102100701 L   I
 2011-11-02-1004-13S.COL___176                                                 6
 STAT SP IPHASW D HRMM SECON CODA AMPLIT PERI AZIMU VELO AIN AR TRES W  DIS CAZ7
 BAR2 SZ EP       10 7 20.26                             170   -0.0110 21.9 210 
 BAR2 SZ ES   1   10 7 34.38                             170   -0.32 7 21.9 210 
 BAR2 SZ I        10 7 37.66         4.3 0.28                          21.9 210 
 PAM  SZ EP       10 7 23.04                             149    0.0710 76.5  34 
 PAM  SE ES   2   10 7 39.51                             149    0.01 5 76.5  34 
 BRR  HZ EP   2   10 7 22.03                             148   -0.41 5 79.2 299 
 BRR  HN ES   1   10 7 38.76                             148    0.21 7 79.2 299 
 RUS  HN ES   2   10 7 42.30                             143    0.40 5 96.3 180 
                                                                                
