 2016  1 2 1033 35.1 L   6.805 -73.133150.2  RSN 18 0.5 2.1LRSN                1
 GAP=138        0.84       3.1     3.9  4.9 -0.1402E+01  0.5855E+01  0.3275E+01E
 Epicentro: LOS SANTOS - SANTANDER                                             3
 ACTION:UPD 16-03-09 23:22 OP:cam  STATUS:               ID:20160102103335 L   I
 OLDACT:REG 16-01-02 20:33 OP:dnl  STATUS:               ID:20160102102749     3
 2016-01-02-1027-49M.COL___313                                                 6
 STAT SP IPHASW D HRMM SECON CODA AMPLIT PERI AZIMU VELO AIN AR TRES W  DIS CAZ7
 BAR2 EZ EP     D 1033 55.35                             170    0.0310 24.2 193 
 BAR2 EZ ES       1034 10.65                             170   -0.4110 24.2 193 
 BAR2 EZ I        1034 13.31        16.0 0.25            166           24.2 193 
 BRR  HZ EP     D 1033 57.25                             153    0.4210 72.2 298 
 BRR  HN ES       1034 14.61                             153    0.8710 72.2 298 
 BRR  HZ I        1034 17.08        17.5 0.15            149           72.2 298 
 PAM  EZ EP       1033 58.12                             152    0.3710 76.0  39 
 PAM  EN ES       1034 14.72                             152   -0.6610 76.0  39 
 PAM  EZ I        1034 17.61        17.4 0.46            158           76.0  39 
 RUS  HZ EP   2   1033 59.28                             144   -0.09 5  101 177 
 RUS  HE ES   2   1034 18.11                             144   -0.15 5  101 177 
 RUS  HZ I        1034 19.64         9.7 0.39            145            101 177 
 PTB  HZ EP       1034  2.07                             132   -0.54 9  149 259 
 PTB  HN ES   2   1034 23.26                             132   -0.78 5  149 259 
 PTB  HZ I        1034 26.90        15.0 0.12            131            149 259 
 SPBC HZ EP       1034  4.31                             130    0.20 9  165 219 
 SPBC HE ES       1034 26.95                             130    0.24 9  165 219 
 SPBC HZ I        1034 33.62        24.3 0.27            129            165 219 
 ZAR  HZ EP       1034  7.85                             123   -0.15 9  205 292 
 ZAR  HE ES       1034 33.35                             123   -0.27 9  205 292 
 ZAR  HZ I        1034 40.10        17.6 0.23            123            205 292 
 NOR  HZ EP   2   1034 11.38                             119    0.09 4  236 235 
 NOR  HE ES   2   1034 39.00                             119   -0.49 4  236 235 
 NOR  HZ I        1034 41.84         9.0 0.28            119            236 235 
 SML  HZ EP   2   1034 11.85                             118   -0.18 4  244 335 
 SML  HE ES   2   1034 40.16                             118   -0.64 4  244 335 
 SML  HZ I        1034 43.37        14.6 0.06            119            244 335 
 CHI  HZ EP       1034 13.42                             118    0.23 8  250 195 
 CHI  HE ES       1034 42.79                             118   -0.08 8  250 195 
 CHI  HZ I        1034 46.80         4.3 0.30            119            250 195 
 HEL  HZ EP   2   1034 16.04                             115    0.28 4  274 256 
 HEL  HE ES   2   1034 47.32                             115   -0.11 4  274 256 
 HEL  HZ I        1034 54.32         6.1 0.48            115            274 256 
 URE  HZ EP   3   1034 14.23                             114   -2.33 2  285 292 
 URE  HE ES   4   1034 46.24                             114   -2.62 0  285 292 
 URE  HZ I        1034 55.03         8.2 0.25            114            285 292 
 GUY2CHZ EP       1034 19.63                             113    0.50 7  303 235 
 GUY2CHN ES   2   1034 53.07                             113   -0.37 4  303 235 
 GUY2CHZ I        1035  2.39         6.4 0.39                           303 235 
 ELA  HZ EP   4   1034 24.12                             111    1.77 0  331 230 
 ELA  HN ES   2   1034 59.57                             111    0.39 3  331 230 
 ELA  HZ I        1035  6.21         4.3 0.49            111            331 230 
 ANIL HZ EP   4   1034 29.75                             109    4.46 0  359 225 
 ANIL HN ES   4   1035  2.47                             109   -1.93 0  359 225 
 ANIL HZ I        1035 11.92        12.3 0.31            110            359 225 
 PRA  HZ EP   2   1034 28.89                             107   -0.07 3  393 210 
 PRA  HN ES   2   1035 10.65                             107   -0.29 3  393 210 
 PRA  HZ I        1035 14.60         3.6 0.20            108            393 210 
 ORTC HE ES   2   1035 10.89                             107   -0.78 3  397 216 
 ORTC HZ I        1035 17.00         3.2 0.28            108            397 216 
 PAL  HZ EP   3   1034 30.67                             106    0.04 1  407 239 
 PAL  HE ES   4   1035 10.37                             106   -3.54 0  407 239 
 PAL  HZ I        1035 21.37         1.6 0.29            107            407 239 
                                                                                
