 2016 10 2 1941 37.6 L   6.804 -73.220155.2  RSN  5 0.2 1.4LRSN                1
 GAP=127        0.64       7.4     5.4  9.2 -0.1622E+02 -0.2883E+02  0.3559E+02E
 Epicentro: ZAPATOCA - SANTANDER                                               3
 ACTION:UPD 16-11-09 19:15 OP:rebc STATUS:               ID:20161002194137 L   I
 OLDACT:UP  16-10-03 01:52 OP:dani STATUS:               ID:20161002193743     3
 OLDACT:UP  16-10-03 01:52 OP:dani STATUS:               ID:20161002193743     3
 OLDACT:REG 16-10-02 21:27 OP:dani STATUS:               ID:20161002193743     3
 2016-10-02-1938-00M.COL___375                                                 6
 STAT SP IPHASW D HRMM SECON CODA AMPLIT PERI AZIMU VELO AIN AR TRES W  DIS CAZ7
 BAR2 EZ I        1942 13.60         7.2 0.31            149           23.8 170 
 BRR  HZ EP       1941 59.74                             156    0.3510 63.8 302 
 BRR  HN ES       1942 16.51                             156    0.1110 63.8 302 
 BRR  HZ I        1942 18.40         7.2 0.24            161           63.8 302 
 PAM  EZ EP       1942  0.79                             151   -0.3310 82.5  44 
 RUS  HZ EP       1942  2.48                             145    0.1010  102 171 
 RUS  HZ I        1942 21.67         1.8 0.47            129            102 171 
 PTB  HZ EP       1942  4.65                             136   -0.01 9  140 258 
 PTB  HN ES       1942 25.51                             136   -0.26 9  140 258 
 PTB  HZ I        1942 28.13         3.1 0.22            130            140 258 
 ZAR  HN ES   4   1942 37.60                             126    2.52 0  196 293 
                                                                                
