 2010  8 2 1307 37.4 L   6.759 -73.060147.2  RSN  9 0.4 2.5LRSN                1
 GAP=166        0.78       4.5     8.6  7.1 -0.1242E+02  0.4746E+01  0.1001E+00E
 Epicentro: LOS SANTOS - SANTANDER                                             3
 ACTION:UP  10-09-07 10:51 OP:vdl  STATUS:               ID:20100802130737 L   I
 2010-08-02-1305-47S.COL___122                                                 6
 STAT SP IPHASW D HRMM SECON CODA AMPLIT PERI AZIMU VELO SNR AR TRES W  DIS CAZ7
 BAR2 SZ EP   1   13 7 57.27                             171     0.0 7   23 217 
 BAR2 SZ ES   2   13 8 11.75                             171    -0.9 5   23 217 
 BAR2 SZ I        13 8 13.48        76.3 0.41                            23 217 
 GIR2 SZ EP   1   13 7 57.34                             165    -0.1 7   38 337 
 GIR2 SZ ES   2   13 8 13.46                             165     0.3 5   38 337 
 BRR  HZ IP     C 13 7 59.12                             149    -0.210   82 298 
 BRR  HZ I        13 7 59.40       140.3 0.14                            82 298 
 BRR  HE ES   2   13 8 16.64                             149     0.2 5   82 298 
 RUS  HZ EP   1   13 8  1.10                             145     0.1 7   96 182 
 RUS  HN ES   2   13 8 19.72                             145     0.4 5   96 182 
 RUS  HZ I        13 8 21.11        27.7 0.27                            96 182 
 BRI  SZ EP   1   13 8  1.82                             141     0.2 7  110  15 
 GRA  SZ IP     C 13 8  3.04                             137     0.110  128  13 
 GRA  SZ ES   2   13 8 23.46                             137     0.6 5  128  13 
 OCA  SZ EP   1   13 8  5.79                             129    -0.6 7  166 350 
 OCA  SZ ES   2   13 8 29.14                             129     0.1 5  166 350 
 OCA  SZ I        13 8 34.12        31.2 0.32                           166 350 
 HEL  HZ EP   1   13 8 19.47                             114     0.8 6  280 257 
 HEL  HZ I        13 8 55.86        14.2 0.27                           280 257 
 PRA  HZ EP   1   13 8 30.68                             107    -0.4 4  393 211 
 PRA  HE ES   2   13 9 13.09                             107     0.1 3  393 211 
 PRA  HZ I        13 9 18.98        13.0 0.32                           393 211 
                                                                                
