 2015  6 2 1903 54.6 L   6.835 -73.134127.3  RSN  9 0.5 2.2LRSN                1
 GAP=184        1.27       3.6     6.6  7.6  0.1018E+01  0.1548E+02 -0.9750E+00E
 Epicentro: LOS SANTOS - SANTANDER                                             3
 ACTION:UPD 15-09-10 22:09 OP:cam  STATUS:               ID:20150602190354 L   I
 OLDACT:DUP 15-06-03 00:56 OP:stll STATUS:               ID:20150602185749d    3
 2015-06-02-1857-48M.COL___291                                                 6
 STAT SP IPHASW D HRMM SECON CODA AMPLIT PERI AZIMU VELO AIN AR TRES W  DIS CAZ7
 BAR2 EZ EP       19 4 12.63                             167    0.5010 27.4 191 
 BAR2 EZ ES       19 4 25.08                             167   -0.7010 27.4 191 
 BAR2 EZ I        19 4 28.94        32.2 0.22            166           27.4 191 
 BRR  HZ EP       19 4 14.35                             149    0.5910 70.6 295 
 BRR  HE ES       19 4 29.37                             149    0.6810 70.6 295 
 BRR  HZ I        19 4 35.52        23.7 0.14            147           70.6 295 
 RUS  HZ EP       19 4 16.98                             139    0.0810  104 177 
 RUS  HN ES       19 4 34.56                             139    0.2810  104 177 
 OCA  HZ EP       19 4 20.40                             126   -0.79 9  157 353 
 OCA  HE ES       19 4 41.91                             126   -0.01 9  157 353 
 OCA  HZ I        19 4 46.69        50.3 0.16            129            157 353 
 SPBC HZ EP       19 4 21.65                             124   -0.50 9  167 219 
 SPBC HN ES       19 4 43.15                             124   -0.48 9  167 219 
 SPBC HZ I        19 4 46.11        18.9 0.10            127            167 219 
 ZAR  HZ EP       19 4 26.65                             118    0.74 9  204 291 
 ZAR  HN ES       19 4 49.91                             118   -0.40 9  204 291 
 ZAR  HZ I        19 4 56.61        15.8 0.38            120            204 291 
 NOR  HZ EP       19 4 29.17                             114   -0.54 8  238 234 
 NOR  HE ES   2   19 4 56.37                             114   -0.72 4  238 234 
 NOR  HZ I        19 5  3.60         9.1 0.26            117            238 234 
 SML  HZ EP   4   19 4 28.64                             114   -1.31 0  241 335 
 SML  HE ES       19 4 57.17                             114   -0.33 8  241 335 
 SML  HZ I        19 4 59.22        37.0 0.26            116            241 335 
 GUY2CHZ EP       19 4 38.47                             108    0.65 7  304 234 
 GUY2CHE ES       19 5 11.85                             108    0.33 7  304 234 
 GUY2CHZ I        19 5 20.59         6.2 0.64                           304 234 
                                                                                
