 2014 10 2 1255 23.9 L   6.775 -73.141140.0  RSN 16 0.4 2.2LRSN                1
 GAP=138        0.89       3.0     3.8  5.3 -0.3483E+00  0.4144E+01  0.3603E+01E
 Epicentro: LOS SANTOS - SANTANDER                                             3
 ACTION:UPD 14-11-29 23:46 OP:nd   STATUS:               ID:20141002125523 L   I
 OLDACT:REG 14-10-02 21:28 OP:stll STATUS:               ID:20141002124748     3
 2014-10-02-1247-48M.COL___292                                                 6
 STAT SP IPHASW D HRMM SECON CODA AMPLIT PERI AZIMU VELO AIN AR TRES W  DIS CAZ7
 BAR2 SZ EP     D 1255 42.60                             171   -0.1710 20.7 193 
 BAR2 SZ ES   1   1255 57.33                             171   -0.17 7 20.7 193 
 BAR2 SZ I        1255 58.63        76.6 0.16            170           20.7 193 
 BRR  HZ IP     C 1255 44.51                             151   -0.0110 73.0 300 
 BRR  HN ES       1256  1.53                             151    0.9110 73.0 300 
 BRR  HZ I        1256  4.62        39.4 0.14            150           73.0 300 
 PAM  SZ EP     C 1255 45.59                             149   -0.0210 79.2  38 
 PAM  SE ES   1   1256  2.37                             149   -0.18 7 79.2  38 
 PAM  SZ I        1256  4.93        35.7 0.46            152           79.2  38 
 RUS  HZ EP   1   1255 46.69                             144   -0.18 7 97.8 176 
 RUS  HN ES   1   1256  4.98                             144    0.18 7 97.8 176 
 RUS  HZ I        1256  6.10        19.6 0.34            144           97.8 176 
 PTB  HZ EP       1255 49.69                             131   -0.70 9  148 260 
 PTB  HE ES       1256 10.37                             131   -0.69 9  148 260 
 PTB  HZ I        1256 12.24        23.7 0.27            131            148 260 
 SPBC HZ EP       1255 51.60                             128   -0.18 9  161 220 
 SPBC HN ES       1256 13.42                             128   -0.11 9  161 220 
 SPBC HZ I        1256 18.90        29.1 0.26            128            161 220 
 OCA  HN ES   4   1256 12.50                             128   -1.47 0  163 353 
 OCA  HZ I        1256 16.06        19.2 0.30            129            163 353 
 ZAR  HZ EP       1255 56.54                             121    0.42 8  206 293 
 ZAR  HN ES       1256 21.26                             121   -0.00 8  206 293 
 ZAR  HZ I        1256 23.74        22.4 0.22            121            206 293 
 SML  HZ EP   4   1255 59.19                             116   -1.31 0  246 335 
 SML  HE ES   1   1256 29.07                             116    0.02 6  246 335 
 SML  HZ I        1256 35.82        16.8 0.10            117            246 335 
 CHI  HZ EP       1256  1.11                             116    0.11 8  246 195 
 CHI  HE ES   1   1256 30.45                             116    0.51 6  246 195 
 CHI  HZ I        1256 34.11         4.7 0.58            117            246 195 
 GUY2CHZ EP   1   1256  7.59                             111    0.49 5  300 235 
 GUY2CHE ES   1   1256 40.71                             111   -0.10 5  300 235 
 GUY2CHZ I        1256 49.27        11.0 0.46                           300 235 
 DBB  SZ EP   1   1256 11.17                             108   -0.05 5  340 275 
 DBB  SZ ES   4   1256 46.51                             108   -1.63 0  340 275 
 TOL  SE ES   4   1256 51.43                             108    2.38 0  342 225 
 TOL  SZ I        1256 53.64         9.0 0.22            109            342 225 
 ANIL HN ES   4   1256 53.11                             108    1.29 0  356 225 
 PRA  HZ EP       1256 16.68                             106   -0.28 6  390 210 
 PRA  HN ES       1256 59.06                             106    0.70 6  390 210 
 PRA  HZ I        1257  5.78         5.1 0.32            106            390 210 
 ORTC HE ES   1   1256 59.77                             106    0.65 4  394 216 
 ORTC HZ I        1257  6.15         4.0 0.18            106            394 216 
 SJC  HZ EP   4   1256 17.41                             105   -2.16 0  412 327 
 SJC  HN ES   4   1256 57.59                             105   -5.41 0  412 327 
 SJC  HZ I        1257  0.34         1.9 0.44            105            412 327 
                                                                                
