 2015  4 2 1722 58.1 L   6.820 -73.185139.4  RSN  9 0.5 1.6LRSN                1
 GAP=131        1.19       4.0     4.6  6.8 -0.1954E+01  0.1134E+02 -0.7453E+00E
 Epicentro: ZAPATOCA - SANTANDER                                               3
 ACTION:UPD 15-06-03 16:51 OP:cam  STATUS:               ID:20150402172258 L   I
 OLDACT:REG 15-04-02 21:59 OP:fm   STATUS:               ID:20150402171749     3
 2015-04-02-1717-49M.COL___280                                                 6
 STAT SP IPHASW D HRMM SECON CODA AMPLIT PERI AZIMU VELO AIN AR TRES W  DIS CAZ7
 BAR2 EZ EP       1723 16.98                             169   -0.0510 25.2 179 
 BAR2 EZ ES       1723 32.73                             169    0.9510 25.2 179 
 BAR2 EZ I        1723 33.26        14.8 0.30            171           25.2 179 
 BRR  HZ IP     C 1723 18.80                             153    0.4910 66.3 299 
 BRR  HN ES       1723 34.33                             153    0.2710 66.3 299 
 BRR  HZ I        1723 38.61         7.0 0.14            152           66.3 299 
 PAM  SZ EP       1723 20.07                             149    0.3310 78.6  43 
 PAM  SN ES       1723 36.07                             149   -0.5410 78.6  43 
 PAM  SZ I        1723 39.41        10.9 0.80            152           78.6  43 
 RUS  HZ EP       1723 21.44                             142   -0.0110  103 174 
 RUS  HN ES       1723 38.99                             142   -0.6610  103 174 
 RUS  HZ I        1723 41.54         3.4 0.20            145            103 174 
 PTB  HZ EP       1723 23.74                             131   -0.49 9  144 258 
 PTB  HE ES       1723 44.30                             131   -0.29 9  144 258 
 PTB  HZ I        1723 48.01         3.5 0.20            133            144 258 
 ZAR  HZ EP   1   1723 30.20                             122    0.54 6  199 292 
 ZAR  HN ES       1723 54.35                             122    0.10 9  199 292 
 ZAR  HZ I        1723 57.40         4.5 0.28            123            199 292 
 NOR  HZ EP       1723 33.40                             117    0.15 8  232 233 
 NOR  HE ES       1723 59.92                             117   -0.73 8  232 233 
 NOR  HZ I        1724  6.09         2.1 0.18            119            232 233 
 SML  HZ EP       1723 33.71                             117   -0.28 8  240 336 
 SML  HE ES       1724  1.39                             117   -0.57 8  240 336 
 SML  HZ I        1724  6.19         8.7 0.26            118            240 336 
 GUY2CHZ EP       1723 42.00                             111    0.81 7  299 234 
 GUY2CHE ES       1724 15.02                             111    0.24 7  299 234 
 GUY2CHZ I        1724 23.84         1.7 0.28                           299 234 
                                                                                
