 2011  2 2 1553 56.3 L   6.812 -73.109142.0  RSN 16 0.5 3.5LRSN                1
 GAP=105        1.00       3.0     5.1  6.7 -0.4510E+01  0.7957E+01  0.8547E+00E
 Epicentro: LOS SANTOS - SANTANDER                                             3
 ACTION:UP  11-03-28 15:05 OP:jfem STATUS:               ID:20110202155356 L   I
 2011-02-02-1551-44S.COL___135                                                 6
 STAT SP IPHASW D HRMM SECON CODA AMPLIT PERI AZIMU VELO SNR AR TRES W  DIS CAZ7
 BAR2 SZ IP       1554 15.65                             169     0.110   26 199 
 BAR2 SZ ES   1   1554 30.18                             169    -0.3 7   26 199 
 BAR2 SZ I        1554 32.01       933.0 0.28                            26 199 
 RUS  HZ IP     D 1554 19.69                             143    -0.110  102 178 
 RUS  HE ES   1   1554 37.87                             143    -0.2 7  102 178 
 RUS  HZ I        1554 39.92       352.0 0.33                           102 178 
 GUE  SZ EP   2   1554 20.42                             139    -0.1 5  114  10 
 GRA  SZ IP       1554 21.29                             137     0.310  123  16 
 GRA  SZ I        1554 22.43       584.5 0.27                           123  16 
 GRA  SZ ES   1   1554 40.77                             137     0.5 7  123  16 
 OCA  SZ IP       1554 23.81                             129    -0.4 9  160 352 
 OCA  SZ ES   1   1554 46.01                             129     0.0 7  160 352 
 OCA  SZ I        1554 50.16       593.6 0.14                           160 352 
 YOP  SZ IP       1554 26.51                             125     0.5 9  178 155 
 YOP  SZ I        1554 27.15       200.7 0.13                           178 155 
 YOP  SE ES   1   1554 48.99                             125    -0.2 7  178 155 
 NOR  SZ EP   1   1554 31.61                             117    -0.7 6  239 235 
 NOR  SE ES   1   1554 59.80                             117    -0.5 6  239 235 
 CHI  HZ EP   1   1554 33.89                             116    -0.2 6  251 196 
 CHI  HE ES   1   1555  3.35                             116    -0.1 6  251 196 
 CHI  HZ I        1555 10.38       159.5 0.67                           251 196 
 ROSC BZ IP     D 1554 35.62                             115     1.1 8  256 212 
 ROSC BE ES   1   1555  4.69                             115     0.3 6  256 212 
 ROSC BZ I        1555 12.40       262.1 0.55                           256 212 
 HEL  HZ EP   1   1554 37.37                             113     0.6 6  276 256 
 HEL  HE ES   2   1555  8.13                             113    -0.3 4  276 256 
 HEL  HZ I        1555 14.59       126.0 0.55                           276 256 
 VIL  SZ EP   1   1554 39.08                             111    -0.5 5  304 191 
 VIL  SN ES   1   1555 13.16                             111    -0.2 5  304 191 
 RREF HZ EP   1   1554 43.49                             110     0.8 5  326 230 
 RREF HN ES   1   1555 18.99                             110     0.0 5  326 230 
 RREF HZ I        1555 26.14       119.2 0.34                           326 230 
 DBB  SZ EP   1   1554 43.61                             108    -0.5 5  343 274 
 TOL  SZ EP   1   1554 44.95                             108     0.1 5  347 225 
 SDV  BZ EP       1554 44.90                             108    -0.8 6  356  50 
 SDV  BZ I        1555 24.29        58.2 0.38                           356  50 
 SJA  SZ EP   1   1554 49.92                             105    -1.1 4  402 193 
 SJA  SZ I        1555 38.96       298.4 0.44                           402 193 
                                                                                
