 2017 11 2 1644 14.5 L   6.777 -73.172134.0  RSN  5 0.3 1.2LRSN                1
 GAP=134        0.60       3.3     4.1  6.5 -0.3844E+01  0.8618E+01 -0.2593E+01E
 Epicentro: LOS SANTOS - SANTANDER                                             3
 ACTION:UPD 17-12-12 19:51 OP:rebc STATUS:               ID:20171102164414 L   I
 OLDACT:UP  17-11-03 00:19 OP:mg   STATUS:               ID:20171102163740     3
 OLDACT:UP  17-11-03 00:19 OP:mg   STATUS:               ID:20171102163740     3
 OLDACT:REG 17-11-02 20:36 OP:mg   STATUS:               ID:20171102163740     3
 2017-11-02-1638-00M.COL___444                                                 6
 STAT SP IPHASW D HRMM SECON CODA AMPLIT PERI AZIMU VELO AIN AR TRES W  DIS CAZ7
 BAR2 EZ EP       1644 32.62                             171   -0.0210 20.5 183 
 BAR2 EZ ES   2   1644 47.09                             171    0.29 5 20.5 183 
 BAR2 EZ I        1644 51.05         3.0 0.34            175           20.5 183 
 BRR  HZ EP       1644 34.74                             151    0.4510 69.9 301 
 PAM  EZ EP     C 1644 35.47                             147   -0.2310 81.2  40 
 PAM  EN ES       1644 52.20                             147   -0.0510 81.2  40 
 PAM  EZ I        1644 57.27         3.0 0.26            152           81.2  40 
 RUS  HZ EP       1644 36.83                             142   -0.0910 98.3 174 
 RUS  HN ES       1644 54.46                             142    0.0410 98.3 174 
 RUS  HZ I        1644 56.15         2.0 0.30            149           98.3 174 
 PTB  HZ EP   2   1644 40.44                             130    0.24 5  144 260 
 PTB  HN ES   1   1644 59.81                             130   -0.45 7  144 260 
 PTB  HZ I        1645  2.71         2.8 0.20            136            144 260 
                                                                                
