 2012  1 2 1908 45.6 L   6.765 -73.165143.9  RSN 11 0.5 2.6LRSN                1
 GAP=136        1.34       5.2     6.8 10.4 -0.2601E+01  0.1964E+02  0.7279E+01E
 Epicentro: LOS SANTOS - SANTANDER                                             3
 ACTION:UP  12-02-03 08:13 OP:REBC STATUS:               ID:20120102190845 L   I
 2012-01-02-1900-00M.COL___187                                                 6
 STAT SP IPHASW D HRMM SECON CODA AMPLIT PERI AZIMU VELO SNR AR TRES W  DIS CAZ7
 BAR2 SZ IP       19 9  4.80                             172    -0.110   19 186 
 BAR2 SZ I        19 9 21.46       203.8 0.20                            19 186 
 BRR  HZ EP       19 9  6.62                             152     0.110   71 302 
 BRR  HN ES   1   19 9 23.77                             152     0.9 7   71 302 
 BRR  HZ I        19 9 27.79        81.9 0.58                            71 302 
 PAM  SZ IP       19 9  7.60                             149    -0.310   82  39 
 PAM  SN ES   1   19 9 24.84                             149    -0.4 7   82  39 
 RUS  HZ IP     D 19 9  8.68                             144    -0.210   97 175 
 RUS  HN ES   1   19 9 27.00                             144    -0.1 7   97 175 
 RUS  HZ I        19 9 28.51        42.5 0.42                            97 175 
 PTB  HZ EP       19 9 11.59                             132    -0.6 9  145 260 
 PTB  HE ES   2   19 9 32.99                             132     0.1 5  145 260 
 PTB  HZ I        19 9 35.76        31.6 0.18                           145 260 
 OCA  SZ EP       19 9 15.30                             129     1.2 9  164 354 
 OCA  SZ I        19 9 44.28        44.9 0.30                           164 354 
 ZAR  HZ EP       19 9 17.17                             122    -0.7 9  204 293 
 ZAR  HE ES   1   19 9 42.67                             122    -0.4 6  204 293 
 ZAR  HZ I        19 9 48.75        37.6 0.32                           204 293 
 NOR  SZ EP       19 9 20.69                             119    -0.1 8  231 235 
 NOR  SN ES   1   19 9 48.05                             119    -0.2 6  231 235 
 CHI  HZ EP       19 9 22.80                             117     0.1 8  244 195 
 CHI  HZ I        19 9 23.40        15.5 0.40                           244 195 
 CHI  HN ES       19 9 52.36                             117     0.7 8  244 195 
 HEL  HZ EP   2   19 9 26.02                             115     0.6 4  269 256 
 GUY  SZ EP   1   19 9 29.78                             112     0.8 5  300 235 
                                                                                
