 2014 12 2 1018 19.4 L   6.806 -73.137140.9  RSN 19 0.4 2.2LRSN                1
 GAP= 71        0.96       2.8     2.8  5.1 -0.1332E+01  0.3049E+01  0.3103E+01E
 Epicentro: LOS SANTOS - SANTANDER                                             3
 ACTION:UPD 15-02-10 16:59 OP:nd   STATUS:               ID:20141202101819 L   I
 OLDACT:UP  14-12-02 23:15 OP:spq  STATUS:               ID:20141202101745     3
 OLDACT:REG 14-12-02 20:34 OP:spq  STATUS:               ID:20141202101745     3
 2014-12-02-1017-45M.COL___300                                                 6
 STAT SP IPHASW D HRMM SECON CODA AMPLIT PERI AZIMU VELO AIN AR TRES W  DIS CAZ7
 BAR2 SZ EP       1018 38.32                             170   -0.1410 24.1 192 
 BAR2 SZ ES   1   1018 52.77                             170   -0.55 7 24.1 192 
 BAR2 SZ I        1018 54.38        26.4 0.16            168           24.1 192 
 BRR  HZ EP     D 1018 40.37                             151    0.3210 71.7 298 
 BRR  HN ES       1018 57.14                             151    0.9810 71.7 298 
 BRR  HZ I        1019  1.51        25.4 0.12            151           71.7 298 
 PAM  SZ EP     C 1018 41.39                             150    0.3610 76.3  39 
 PAM  SN ES       1018 57.91                             150    0.0110 76.3  39 
 PAM  SZ I        1019  0.20        54.4 0.54            155           76.3  39 
 RUS  HZ EP       1018 42.79                             143    0.0710  101 177 
 RUS  HE ES   1   1019  0.80                             143   -0.10 7  101 177 
 RUS  HZ I        1019  1.86        17.6 0.40            144            101 177 
 PTB  HZ EP       1018 46.41                             131    0.34 9  149 259 
 PTB  HN ES       1019  6.67                             131   -0.20 9  149 259 
 PTB  HZ I        1019  9.38        18.0 0.16            131            149 259 
 TAM  HZ EP     D 1018 46.76                             130    0.14 9  154 105 
 TAM  HN ES   1   1019  8.06                             130    0.20 7  154 105 
 TAM  HZ I        1019  9.31         7.8 0.22            134            154 105 
 OCA  HZ EP       1018 46.77                             129   -0.52 9  160 353 
 OCA  HN ES       1019  8.32                             129   -0.71 9  160 353 
 OCA  HZ I        1019 12.22        23.3 0.50            132            160 353 
 SPBC HZ EP       1018 47.43                             128   -0.21 9  164 219 
 SPBC HN ES       1019  8.77                             128   -0.89 9  164 219 
 SPBC HZ I        1019 14.94        23.3 0.26            129            164 219 
 ZAR  HZ EP       1018 51.44                             121   -0.16 9  205 292 
 ZAR  HN ES       1019 17.02                             121    0.31 9  205 292 
 ZAR  HZ I        1019 22.40        22.0 0.34            123            205 292 
 NOR  HZ EP       1018 54.98                             117    0.00 8  236 234 
 NOR  HE ES       1019 22.43                             117   -0.29 8  236 234 
 NOR  HZ I        1019 27.55        10.0 0.34            119            236 234 
 CHI  HZ EP   1   1018 56.58                             116   -0.35 6  250 195 
 CHI  HE ES   1   1019 26.45                             116    0.25 6  250 195 
 CHI  HZ I        1019 30.04         5.1 0.26            118            250 195 
 HEL  HZ EP       1019  0.00                             114    0.51 8  273 256 
 HEL  HE ES   1   1019 30.45                             114   -0.31 6  273 256 
 HEL  HZ I        1019 37.35         6.0 0.36            115            273 256 
 GUY2CHN ES   1   1019 37.57                             111    0.71 5  302 235 
 GUY2CHZ I        1019 46.00         6.9 0.60                           302 235 
 RREF HZ EP   4   1019  6.87                             110    1.40 0  323 229 
 RREF HN ES   1   1019 42.20                             110    0.80 5  323 229 
 RREF HZ I        1019 51.19         4.9 0.54            111            323 229 
 DBB  SZ EP   1   1019  6.07                             108   -0.72 5  340 274 
 DBB  SZ ES   1   1019 43.26                             108   -0.49 5  340 274 
 TOL  SZ EP   1   1019  8.12                             108    0.52 5  345 225 
 TOL  SN ES   1   1019 44.92                             108   -0.27 5  345 225 
 TOL  SZ I        1019 50.66         9.4 0.28            110            345 225 
 MON  HZ EP   4   1019  6.25                             108   -2.01 0  354 308 
 MON  HE ES   4   1019 44.57                             108   -1.80 0  354 308 
 MON  HZ I        1019 45.53         6.8 0.18            109            354 308 
 ORTC HZ EP       1019 13.36                             105    0.07 6  397 216 
 ORTC HE ES       1019 55.60                             105    0.29 6  397 216 
 ORTC HZ I        1020  1.54         4.2 0.66            107            397 216 
 SJC  HZ EP   4   1019 12.74                             105   -2.07 0  409 327 
 SJC  HN ES   4   1019 53.68                             105   -4.34 0  409 327 
 SJC  HZ I        1019 58.40         3.5 0.34            107            409 327 
                                                                                
