 2017 12 2 1132 49.7 L   6.780 -73.123144.5  RSN  4 0.4 1.1LRSN                1
 GAP=140        1.09       6.6     6.6  9.1 -0.1358E+02  0.1607E+02 -0.5238E+01E
 Epicentro: LOS SANTOS - SANTANDER                                             3
 ACTION:UPD 18-01-04 13:16 OP:rebc STATUS:               ID:20171202113249 L   I
 OLDACT:UP  17-12-02 22:24 OP:dani STATUS:               ID:20171202112705     3
 OLDACT:REG 17-12-02 21:24 OP:dani STATUS:               ID:20171202112705     3
 2017-12-02-1128-00M.COL___477                                                 6
 STAT SP IPHASW D HRMM SECON CODA AMPLIT PERI AZIMU VELO AIN AR TRES W  DIS CAZ7
 BAR2 EZ EP       1133  8.83                             171   -0.3610 21.8 198 
 BAR2 EZ ES       1133 24.34                             171   -0.0210 21.8 198 
 BAR2 EZ I        1133 26.59         4.1 0.28            171           21.8 198 
 PAM  EZ EP       1133 11.77                             151   -0.0610 77.6  37 
 PAM  EN ES       1133 29.21                             151    0.1410 77.6  37 
 RUS  HZ EP       1133 12.71                             144   -0.4810 98.2 177 
 RUS  HN ES       1133 31.87                             144    0.3810 98.2 177 
 RUS  HZ I        1133 32.69         1.8 0.34            145           98.2 177 
 PTB  HZ EP       1133 17.67                             131    0.88 9  150 260 
 PTB  HE ES       1133 37.48                             131   -0.42 9  150 260 
 PTB  HZ I        1133 38.19         1.5 0.42            133            150 260 
                                                                                
