 2014  8 2 1238 26.9 L   6.793 -73.115154.8  RSN  7 0.4 1.8LRSN                1
 GAP=203        0.72       4.0     5.5  7.6  0.5176E+01  0.4115E+01 -0.1152E+02E
 Epicentro: LOS SANTOS - SANTANDER                                             3
 ACTION:UPD 14-09-15 21:46 OP:nd   STATUS:               ID:20140802123826 L   I
 OLDACT:UP  14-08-02 22:07 OP:mh   STATUS:               ID:20140802122820     3
 OLDACT:REG 14-08-02 19:57 OP:mh   STATUS:               ID:20140802122820     3
 2014-08-02-1228-20M.COL___251                                                 6
 STAT SP IPHASW D HRMM SECON CODA AMPLIT PERI AZIMU VELO AIN AR TRES W  DIS CAZ7
 RUS  HZ EP   1   1238 51.43                             146   -0.10 7 99.7 178 
 RUS  HN ES       1239 10.76                             146    0.0510 99.7 178 
 PTB  HZ EP   1   1238 54.36                             133   -0.58 7  151 259 
 PTB  HZ I        1238 57.69         2.8 0.10            133            151 259 
 PTB  HN ES   1   1239 16.45                             133   -0.33 7  151 259 
 SPBC HZ EP   1   1238 57.01                             131    0.72 7  165 220 
 SPBC HN ES   1   1239 19.22                             131    0.03 7  165 220 
 SPBC HZ I        1239 22.47         6.3 0.16            132            165 220 
 ZAR  HZ EP   1   1239  0.74                             124    0.41 6  207 292 
 ZAR  HN ES   1   1239 27.09                             124    0.71 6  207 292 
 ZAR  HZ I        1239 32.95         7.0 0.26            124            207 292 
 NOR  HZ EP       1239  3.22                             120   -0.23 8  237 235 
 NOR  HZ IPg  1   1239  3.26                             120   -0.19 6  237 235 
 NOR  HN ES   1   1239 31.83                             120   -0.10 6  237 235 
 NOR  HZ I        1239 37.88         3.3 0.21            121            237 235 
 SML  HZ EP   1   1239  4.50                             119    0.19 6  246 335 
 SML  HN ES   1   1239 32.97                             119   -0.49 6  246 335 
 SML  HZ I        1239 40.36         8.8 0.24            120            246 335 
 GUY2CHZ EP   4   1239 13.15                             114    1.91 0  304 235 
 GUY2CHN ES   4   1239 46.47                             114    0.68 0  304 235 
 GUY2CHZ I        1239 54.00         2.4 0.42                           304 235 
                                                                                
