 2014  8 2 1454 37.3 L   6.778 -73.188144.0  RSN  4 0.5 1.4LRSN                1
 GAP=142        0.99       6.1     7.2 11.6 -0.1509E+02  0.2589E+02 -0.4931E+01E
 Epicentro: LOS SANTOS - SANTANDER                                             3
 ACTION:UPD 14-09-15 21:46 OP:nd   STATUS:               ID:20140802145437 L   I
 OLDACT:REG 14-08-02 20:02 OP:mh   STATUS:               ID:20140802144819     3
 2014-08-02-1448-19M.COL___257                                                 6
 STAT SP IPHASW D HRMM SECON CODA AMPLIT PERI AZIMU VELO AIN AR TRES W  DIS CAZ7
 BAR2 SZ EP   1   1454 57.12                             171    0.47 7 20.5 178 
 PAM  SZ EP       1454 59.66                             149    0.0410 82.3  41 
 PAM  SN ES       1455 16.93                             149   -0.1110 82.3  41 
 PAM  SZ I        1455 17.89         3.0 0.20            152           82.3  41 
 RUS  HZ EP       1455  1.11                             144    0.3910 98.6 173 
 RUS  HN ES       1455 18.66                             144   -0.3410 98.6 173 
 RUS  HZ I        1455 20.77         5.1 0.17            146           98.6 173 
 PTB  HZ EP   1   1455  2.69                             132   -0.96 7  143 259 
 PTB  HN ES   1   1455 24.69                             132    0.47 7  143 259 
 PTB  HZ I        1455 27.11         4.7 0.38            133            143 259 
                                                                                
