 2012  7 2 1529 53.3 L   6.683 -73.220130.7  RSN  5 0.4 1.5LRSN                1
 GAP=207        0.87       7.7     7.5  8.4  0.3370E+02  0.1357E+02 -0.3302E+01E
 Epicentro: BARICHARA - SANTANDER                                              3
 ACTION:UPD 12-08-14 11:42 OP:ep   STATUS:               ID:20120702152953 L   I
 2012-07-02-1530-00M.COL___201                                                 6
 STAT SP IPHASW D HRMM SECON CODA AMPLIT PERI AZIMU VELO AIN AR TRES W  DIS CAZ7
 BAR2 SZ EP   1   1530 11.19                             175     0.3 7   11 157 
 BAR2 SZ ES   1   1530 25.17                             175     0.5 7   11 157 
 BAR2 SZ I        1530 27.67        14.7 0.12            167             11 157 
 BRR  HZ EP       1530 12.95                             149     0.110   72 311 
 BRR  HE ES   1   1530 27.58                             149    -0.5 7   72 311 
 BRR  HZ I        1530 32.13        14.9 0.13            147             72 311 
 RUS  HZ EP   1   1530 14.64                             144    -0.1 7   89 170 
 RUS  HE ES   1   1530 30.83                             144    -0.6 7   89 170 
 RUS  HZ I        1530 34.74         3.0 0.23            145             89 170 
 PTB  HZ EP   1   1530 18.19                             130     0.1 7  138 263 
 PTB  HN ES   1   1530 37.88                             130     0.4 7  138 263 
 PTB  HZ I        1530 44.42         3.0 0.16            129            138 263 
 ZAR  HZ EP   1   1530 24.39                             119    -0.2 6  202 296 
 ZAR  HN ES   1   1530 48.72                             119    -0.2 6  202 296 
 ZAR  HZ I        1530 56.09         4.3 0.29            121            202 296 
