 2017 11 2 1307 38.4 L   6.781 -73.117145.5  RSN  4 0.1 1.3LRSN                1
 GAP=141        0.37       2.0     3.0  3.5 -0.1163E+00 -0.6054E+00  0.8029E+00E
 Epicentro: LOS SANTOS - SANTANDER                                             3
 ACTION:UPD 17-12-12 19:51 OP:rebc STATUS:               ID:20171102130738 L   I
 OLDACT:UP  17-11-02 22:34 OP:mg   STATUS:               ID:20171102125737     3
 OLDACT:UP  17-11-02 22:33 OP:mg   STATUS:               ID:20171102125737     3
 OLDACT:REG 17-11-02 20:05 OP:mg   STATUS:               ID:20171102125737     3
 2017-11-02-1258-00M.COL___435                                                 6
 STAT SP IPHASW D HRMM SECON CODA AMPLIT PERI AZIMU VELO AIN AR TRES W  DIS CAZ7
 BAR2 EZ EP       13 7 57.86                             171   -0.0910 22.1 199 
 BAR2 EZ ES   2   13 8 13.22                             171    0.00 5 22.1 199 
 BAR2 EZ I        13 8 15.21         4.5 0.17            172           22.1 199 
 BRR  HZ EP       13 7 59.62                             151   -0.0910 75.0 299 
 BRR  HN ES       13 8 16.42                             151    0.0710 75.0 299 
 BRR  HZ I        13 8 18.04         4.6 0.28            154           75.0 299 
 PAM  EZ EP     D 13 8  0.76                             151    0.2210 77.0  37 
 PAM  EN ES       13 8 17.72                             151   -0.1110 77.0  37 
 PAM  EZ I        13 8 20.00         3.2 0.24            153           77.0  37 
 RUS  HZ EP       13 8  1.88                             144   -0.0610 98.4 178 
 RUS  HN ES       13 8 20.38                             144    0.0610 98.4 178 
 RUS  HZ I        13 8 21.88         2.5 0.22            147           98.4 178 
                                                                                
