 2012  2 2 1834 17.8 L   6.420 -73.768 92.5  RSN  4 0.2 1.7LRSN                1
 GAP=152        0.52       4.1     2.9  8.0  0.8865E+00 -0.8715E+01  0.9458E+01E
 ACTION:UP  12-03-07 16:27 OP:epov STATUS:               ID:20120202183417 L   I
 2012-02-02-1830-00M.COL___188                                                 6
 STAT SP IPHASW D HRMM SECON CODA AMPLIT PERI AZIMU VELO SNR AR TRES W  DIS CAZ7
 BAR2 SZ EP       1834 33.83                             142    0.2810 67.5  74 
 BRR  HZ EP   1   1834 33.48                             138   -0.44 7 76.2   5 
 BRR  HE ES   1   1834 46.53                             138    0.02 7 76.2   5 
 BRR  HZ I        1835  0.62        14.0 0.54                          76.2   5 
 PTB  HZ EP       1834 34.01                             137   -0.0210 77.3 280 
 PTB  HN ES       1834 46.74                             137    0.0310 77.3 280 
 RUS  HZ EP   1   1834 36.32                             131    0.01 7 95.6 128 
 RUS  HE ES   2   1834 50.49                             131   -0.27 5 95.6 128 
                                                                                
