 2014  6 2 1628  7.0 L   6.752 -73.160157.2  RSN  8 0.4 1.9LRSN                1
 GAP=181        0.89       5.4     6.7  8.4  0.1259E+02 -0.6784E+00 -0.5517E+01E
 Epicentro: LOS SANTOS - SANTANDER                                             3
 OLDACT:DUP 14-06-03 00:42 OP:fm   STATUS:               ID:20140602161820d    3
 ACTION:UPD 14-07-01 22:49 OP:nd   STATUS:               ID:20140602162807 L   I
 OLDACT:UP  14-06-03 00:48 OP:fm   STATUS:               ID:20140602161820d    3
 2014-06-02-1618-18M.COL___256                                                 6
 STAT SP IPHASW D HRMM SECON CODA AMPLIT PERI AZIMU VELO AIN AR TRES W  DIS CAZ7
 BAR2 SZ EP       1628 27.52                             173   -0.4010 17.8 188 
 BAR2 SZ ES   1   1628 43.56                             173   -0.67 7 17.8 188 
 BAR2 SZ I        1628 45.10        10.4 0.26            176           17.8 188 
 BRR  HE ES   1   1628 47.20                             154    0.21 7 72.5 303 
 RUS  HZ EP       1628 32.07                             147    0.5210 95.4 175 
 RUS  HN ES   1   1628 50.78                             147    0.08 7 95.4 175 
 RUS  SZ I        1628 51.33         6.2 0.20            140           95.4 175 
 PTB  HZ EP   1   1628 34.54                             135   -0.16 7  145 261 
 PTB  HN ES   1   1628 56.75                             135    0.44 7  145 261 
 PTB  SZ I        1629  0.71         5.9 1.34            122            145 261 
 OCA  HN ES   1   1629  0.41                             131    0.56 7  165 354 
 ZAR  HN ES   1   1629  5.83                             125   -0.40 6  205 294 
 SML  HZ EP   1   1628 44.34                             119   -0.40 6  248 336 
 SML  SZ I        1629 15.35         9.0 0.08            105            248 336 
 GUY2CHZ EP   4   1628 52.18                             115    1.50 0  297 235 
 GUY2CSZ I        1629 28.96         5.8 1.64                           297 235 
 GUY2CHN ES   4   1629 29.83                             115    5.09 0  297 235 
                                                                                
