 2010  1 2 1422 19.0 L   6.835 -73.021142.7  RSN 12 0.5 2.9LRSN                1
 GAP=196        0.77       4.0     8.4  7.2 -0.1071E+02  0.3392E+02  0.4931E+00E
 Epicentro: CEPITA - SANTANDER                                                 3
 ACTION:UP  10-08-24 09:42 OP:vdl  STATUS:               ID:20100102142218 L   I
 2010-01-02-1420-35S.COL___096                                                 6
 STAT SP IPHASW D HRMM SECON CODA AMPLIT PERI AZIMU VELO AIN AR TRES W  DIS CAZ7
 BAR2 SZ IP       1422 38.68                             167     0.210   32 214 
 BAR2 SZ ES   2   1422 52.93                             167    -0.7 5   32 214 
 GIR2 SZ IP       1422 38.72                             166     0.410   33 325 
 GIR2 SZ ES   2   1422 53.52                             166     0.1 5   33 325 
 RUS  BZ EP   1   1422 42.73                             142     0.0 7  104 184 
 RUS  BE ES   2   1423  1.16                             142    -0.1 5  104 184 
 RUS  BZ I        1423  2.82        86.4 0.30                           104 184 
 OCA  SZ EP       1422 46.85                             129    -0.1 9  159 348 
 OCA  SZ ES   2   1423  8.35                             129    -0.4 5  159 348 
 CHI  HZ EP   1   1422 57.09                             116    -0.3 6  256 198 
 CHI  HN ES   2   1423 26.68                             116    -0.6 4  256 198 
 CHI  HZ I        1423 29.83        34.5 0.41                           256 198 
 HEL  HZ EP   1   1423  0.62                             113     0.0 6  286 256 
 HEL  HZ I        1423 37.30        27.5 0.44                           286 256 
 GUY  HZ EP   1   1423  4.50                             111     0.5 5  315 236 
 GUY  HN ES   2   1423 40.01                             111     0.9 3  315 236 
 RREF BZ EP   1   1423  5.94                             109    -0.6 5  335 230 
 RREF BN ES   2   1423 44.12                             109     0.6 3  335 230 
 RREF BZ I        1423 51.07        43.3 0.19                           335 230 
 DBB  SZ IP       1423  7.16                             108    -0.8 6  353 273 
 TOL  SZ EP       1423  8.56                             108     0.0 6  356 226 
 TOL  SZ ES   2   1423 46.88                             108    -0.4 3  356 226 
 ANIL BZ IP       1423 11.05                             107     0.9 6  370 226 
 ANIL BN ES   2   1423 50.11                             107     0.1 3  370 226 
 PRA  HZ EP   1   1423 13.05                             105    -0.6 4  402 211 
 PRA  HE ES   2   1423 55.28                             105    -0.9 3  402 211 
 PRA  HZ I        1424  0.61        53.9 0.66                           402 211 
                                                                                
