 2017 12 2 1144 17.3 L   6.846 -73.150145.5  RSN 23 0.7 2.7LRSN                1
 GAP= 62        1.43       2.8     3.3  6.2 -0.1127E+01  0.5269E+01  0.5438E+00E
 Epicentro: LOS SANTOS - SANTANDER                                             3
 ACTION:UPD 18-01-04 13:16 OP:rebc STATUS:               ID:20171202114417 L   I
 OLDACT:REG 17-12-02 21:24 OP:dani STATUS:               ID:20171202113740     3
 2017-12-02-1138-00M.COL___471                                                 6
 STAT SP IPHASW D HRMM SECON CODA AMPLIT PERI AZIMU VELO AIN AR TRES W  DIS CAZ7
 BAR2 EZ EP     C 1144 37.00                             168    0.0210 28.3 187 
 BAR2 EZ ES       1144 52.18                             168   -0.1710 28.3 187 
 BAR2 EZ I        1144 53.23       192.1 0.28            167           28.3 187 
 PAM  EZ EP     D 1144 39.78                             152    0.5210 73.9  42 
 PAM  EN ES       1144 56.83                             152    0.4310 73.9  42 
 PAM  EZ I        1144 59.14       125.5 0.52            154           73.9  42 
 RUS  HZ IP     C 1144 40.92                             142   -0.4510  106 176 
 RUS  HN ES       1144 59.94                             142   -0.2310  106 176 
 RUS  HZ I        1145  1.30        44.3 0.42            142            106 176 
 PTB  HZ EP       1144 43.50                             132   -0.77 9  148 257 
 PTB  HN ES       1145  4.63                             132   -0.69 9  148 257 
 PTB  HZ I        1145  9.25        42.1 0.22            130            148 257 
 OCA  HZ EP       1144 45.05                             131   -0.04 9  155 353 
 OCA  HN ES       1145  7.00                             131    0.22 9  155 353 
 OCA  HZ I        1145 13.43       154.6 0.28            130            155 353 
 TAM  HZ IP     C 1144 45.41                             130    0.30 9  157 107 
 TAM  HE ES       1145  7.04                             130    0.23 9  157 107 
 TAM  HZ I        1145  8.58        37.4 0.48            132            157 107 
 SPBC HZ EP       1144 45.81                             128   -0.29 9  167 218 
 SPBC HN ES       1145  7.82                             128   -0.76 9  167 218 
 SPBC HZ I        1145 15.16        68.2 0.22            127            167 218 
 YPLC HZ EP     C 1144 47.47                             126   -0.05 9  182 152 
 YPLC HN ES       1145 11.73                             126    0.63 9  182 152 
 YPLC HZ I        1145 16.99        19.6 0.38            126            182 152 
 ZAR  HZ EP       1144 49.57                             123    0.11 9  202 291 
 ZAR  HN ES       1145 14.97                             123    0.41 9  202 291 
 ZAR  HZ I        1145 21.21        66.6 0.24            121            202 291 
 NOR  HZ EP       1144 52.93                             118   -0.33 8  237 233 
 NOR  HN ES       1145 21.29                             118   -0.04 8  237 233 
 NOR  HZ I        1145 28.92        34.1 0.22            117            237 233 
 CHI  HZ EP       1144 55.18                             117   -0.30 8  253 195 
 CHI  HN ES       1145 24.42                             117   -0.86 8  253 195 
 CHI  HZ I        1145 28.10        47.9 0.60            116            253 195 
 ROSC BZ EP       1144 57.11                             116    1.28 8  257 210 
 ROSC BN ES       1145 27.39                             116    1.49 8  257 210 
 ROSC BZ I        1145 31.55        99.5 0.40            116            257 210 
 CVER HZ EP       1144 58.35                             114    0.23 7  277 202 
 CVER HN ES       1145 29.93                             114   -0.05 7  277 202 
 CVER HZ I        1145 37.09        39.8 0.42            114            277 202 
 URE  HZ EP       1144 57.62                             114   -0.45 7  281 291 
 URE  HZ ES       1145 28.36                             114   -1.53 7  281 291 
 URE  HZ I        1145 39.12        32.0 0.18            113            281 291 
 DRL03HZ EP       1144 58.43                             113    0.13 7  284 353 
 DRL03HN ES       1145 31.24                             113    0.95 7  284 353 
 GUY2CHZ EP       1145  1.14                             112   -0.02 7  304 234 
 GUY2CHN ES       1145 37.20                             112    1.82 7  304 234 
 GUY2CHZ I        1145 43.45        32.2 0.58                           304 234 
 VIL  EZ EP       1145  0.81                             112   -0.42 7  308 191 
 VIL  EN ES       1145 35.02                             112   -0.50 7  308 191 
 VIL  EZ I        1145 37.84        71.3 0.38            111            308 191 
 CBOC HZ EP       1145  5.23                             110    0.93 7  335 251 
 CBOC HN ES       1145 41.98                             110    1.00 7  335 251 
 CBOC HZ I        1145 53.49        10.7 0.46            109            335 251 
 DBB  HZ EP       1145  5.25                             109    0.61 7  339 273 
 DBB  HN ES       1145 40.90                             109   -0.68 7  339 273 
 DBB  HZ I        1145 41.75        15.5 0.24            109            339 273 
 SDV  BZ EP       1145  6.64                             108   -0.34 6  358  51 
 SDV  B1 ES       1145 44.27                             108   -1.48 6  358  51 
 SDV  BZ I        1145 47.20         8.3 0.50            109            358  51 
 PRA  HZ EP       1145 10.47                             106   -0.81 6  396 209 
 PRA  HN ES       1145 52.85                             106   -0.54 6  396 209 
 PRA  HZ I        1145 57.34        33.3 0.32            106            396 209 
 ORTC HZ EP       1145 11.41                             106   -0.22 6  399 216 
 ORTC HN ES       1145 54.79                             106    0.76 6  399 216 
 ORTC HZ I        1145 58.42        18.5 0.28            106            399 216 
 PAL  HZ EP       1145 12.57                             106   -0.11 6  408 238 
 PAL  HZ I        1146  0.68         6.7 0.74            105            408 238 
                                                                                
