 2013  9 2 1914 39.5 L   6.800 -73.165143.3  RSN 12 0.4 2.6LRSN                1
 GAP=134        0.81       3.0     4.7  5.7 -0.2007E+01  0.4965E+01  0.5076E+00E
 Epicentro: LOS SANTOS - SANTANDER                                             3
 ACTION:UPD 13-10-22 09:19 OP:ep   STATUS:               ID:20130902191439 L   I
 OLDACT:REG 13-09-02 17:10 OP:mh   STATUS:               ID:20130902190959     3
 2013-09-02-1909-59M.COL___269                                                 6
 STAT SP IPHASW D HRMM SECON CODA AMPLIT PERI AZIMU VELO AIN AR TRES W  DIS CAZ7
 BAR2 SZ EP   1   1914 58.85                             170    0.06 7 23.1 185 
 BAR2 SZ ES   1   1915 13.47                             170   -0.39 7 23.1 185 
 BAR2 SZ I        1915 14.91        48.9 0.22            167           23.1 185 
 BRR  HZ EP       1915  0.72                             153    0.4810 69.3 299 
 BRR  HN ES   1   1915 17.14                             153    0.70 7 69.3 299 
 BRR  HN I        1915 18.36       167.7 0.18            151           69.3 299 
 PAM  SZ EP   1   1915  1.76                             150    0.26 7 78.7  41 
 PAM  SN ES   2   1915 18.57                             150   -0.11 5 78.7  41 
 PAM  SZ I        1915 20.84        66.7 0.44            155           78.7  41 
 RUS  HZ EP   1   1915  2.83                             143   -0.16 7  101 175 
 RUS  HN ES   2   1915 21.19                             143   -0.14 5  101 175 
 RUS  HZ I        1915 22.61        42.6 0.30            143            101 175 
 PTB  HZ EP   1   1915  5.42                             132   -0.62 7  146 259 
 PTB  HN ES   2   1915 26.40                             132   -0.37 5  146 259 
 PTB  HN I        1915 31.91        56.4 0.52            131            146 259 
 SPBC HZ EP   1   1915  7.95                             129    0.30 7  162 218 
 SPBC HN ES       1915 29.47                             129   -0.16 9  162 218 
 SPBC HZ I        1915 32.15        46.7 0.30            128            162 218 
 ZAR  HZ EP   1   1915 12.43                             122    0.89 6  202 292 
 ZAR  HN ES   2   1915 36.96                             122    0.40 4  202 292 
 ZAR  HZ I        1915 38.20        16.4 0.50            122            202 292 
 NOR  HZ EP   1   1915 15.06                             118    0.20 6  233 234 
 NOR  HN ES       1915 42.26                             118   -0.22 8  233 234 
 NOR  HN I        1915 52.73        66.7 0.18            118            233 234 
 SML  HZ EP   1   1915 15.15                             117   -0.70 6  243 336 
 SML  HN ES       1915 43.51                             117   -0.72 8  243 336 
 SML  HZ I        1915 45.70        33.8 0.28            119            243 336 
 CHI  HZ EP   1   1915 17.08                             117    0.11 6  248 195 
 CHI  HN ES   2   1915 46.09                             117   -0.13 4  248 195 
 CHI  HZ I        1915 49.76        13.5 0.54            117            248 195 
 URE  HZ EP   4   1915 19.01                             113   -1.18 0  282 292 
 GUY2CHZ EP   4   1915 24.26                             112    1.50 0  299 235 
 GUY2CHE ES   4   1915 58.23                             112    1.69 0  299 235 
 GUY2CHZ I        1916  4.92        13.0 0.30                           299 235 
 PRA  HZ EP       1915 32.94                             106    0.16 6  391 209 
 PRA  HN ES   2   1916 13.88                             106   -0.49 3  391 209 
 PRA  HN I        1916 20.92        11.6 0.46            107            391 209 
 SJC  HZ EP   4   1915 33.12                             105   -1.68 0  408 327 
 SJC  HN ES   4   1916 12.48                             105   -5.49 0  408 327 
                                                                                
