 2014 10 2 1237  3.8 L   6.794 -73.164143.5  RSN  9 0.6 2.2LRSN                1
 GAP=135        1.63       4.6     8.0  9.1 -0.1832E+01  0.1323E+02  0.3907E+00E
 Epicentro: LOS SANTOS - SANTANDER                                             3
 ACTION:UPD 14-11-29 23:46 OP:nd   STATUS:               ID:20141002123703 L   I
 OLDACT:REG 14-10-02 21:27 OP:stll STATUS:               ID:20141002122748     3
 2014-10-02-1227-48M.COL___292                                                 6
 STAT SP IPHASW D HRMM SECON CODA AMPLIT PERI AZIMU VELO AIN AR TRES W  DIS CAZ7
 BAR2 SZ EP       1237 23.51                             171    0.4110 22.4 185 
 BAR2 SZ ES       1237 37.89                             171   -0.3010 22.4 185 
 BAR2 SZ I        1237 41.16        82.1 0.22            170           22.4 185 
 BRR  HZ IP     C 1237 25.44                             152    0.8610 69.7 300 
 BRR  HN ES       1237 41.59                             152    0.7710 69.7 300 
 BRR  HZ I        1237 44.96        17.8 0.34            150           69.7 300 
 PAM  SZ EP       1237 26.29                             150    0.4510 79.2  40 
 PAM  SN ES       1237 43.59                             150    0.5210 79.2  40 
 RUS  HZ EP       1237 27.23                             143   -0.0210  100 175 
 RUS  HN ES       1237 44.17                             143   -1.4110  100 175 
 RUS  HZ I        1237 47.25        24.5 0.24            146            100 175 
 PTB  HZ EP       1237 30.21                             132   -0.14 9  146 259 
 PTB  HN ES       1237 50.89                             132   -0.20 9  146 259 
 PTB  HZ I        1237 58.62        19.4 0.42            131            146 259 
 OCA  HZ EP       1237 30.73                             129   -1.20 9  161 354 
 OCA  HN ES       1237 53.72                             129   -0.19 9  161 354 
 OCA  HZ I        1237 58.21        19.9 0.30            130            161 354 
 SPBC HZ EP       1237 32.39                             129    0.47 9  161 219 
 SML  HZ EP       1237 40.19                             117   -0.04 8  243 336 
 SML  HN ES       1238  7.75                             117   -0.93 8  243 336 
 SML  HZ I        1238 12.61        21.6 0.10            118            243 336 
 CHI  HZ EP       1237 41.53                             117    0.32 8  247 195 
 CHI  HZ I        1237 44.11         7.8 0.44            118            247 195 
 CHI  HN ES       1238 10.74                             117    0.32 8  247 195 
                                                                                
