 2011  4 2 1314  6.3 L   6.763 -73.042143.9  RSN  7 0.3 1.7LRSN                1
 GAP=186        0.40       4.0     8.9  6.6 -0.3988E+01 -0.1322E+02  0.9975E+01E
 Epicentro: LOS SANTOS - SANTANDER                                             3
 ACTION:UP  11-06-22 15:28 OP:REBC STATUS:               ID:20110402131406 L   I
 2011-04-02-1311-36S.COL___138                                                 6
 STAT SP IPHASW D HRMM SECON CODA AMPLIT PERI AZIMU VELO SNR AR TRES W  DIS CAZ7
 BAR2 SZ EP       1314 25.74                             170     0.010   24 219 
 BAR2 SZ ES   2   1314 40.89                             170     0.0 5   24 219 
 BAR2 SZ I        1314 42.21        12.7 0.21                            24 219 
 BTL  SZ EP       1314 25.96                             168     0.110   30 305 
 GIR2 SZ EP   3   1314 26.13                             164     0.1 2   39 334 
 GIR2 SZ ES   3   1314 41.59                             164     0.2 2   39 334 
 BRR  HZ EP   2   1314 27.54                             149    -0.5 5   83 297 
 BRR  HZ I        1314 29.45        15.0 0.42                            83 297 
 BRR  HN ES   2   1314 44.87                             149     0.0 5   83 297 
 GRA  SZ ES   3   1314 50.84                             136    -0.3 2  127  12 
 OCA  SZ ES   3   1314 58.54                             128     1.1 2  166 349 
 CHI  HZ EP   2   1314 43.98                             117     0.1 4  248 198 
 CHI  HN ES   2   1315 13.30                             117     0.2 4  248 198 
 CHI  HZ I        1315 18.70         2.2 0.24                           248 198 
                                                                                
