 2017  3 2 1609 13.1 L   6.771 -73.150140.0  RSN 17 0.4 2.4LRSN                1
 GAP=137        0.95       3.1     3.5  4.7 -0.4360E+00  0.5808E+01  0.2773E+01E
 Epicentro: LOS SANTOS - SANTANDER                                             3
 ACTION:UPD 17-05-25 18:35 OP:jn   STATUS:               ID:20170302160913 L   I
 OLDACT:REG 17-03-02 20:33 OP:lv   STATUS:               ID:20170302160746     3
 2017-03-02-1608-00M.COL___385                                                 6
 STAT SP IPHASW D HRMM SECON CODA AMPLIT PERI AZIMU VELO AIN AR TRES W  DIS CAZ7
 BAR2 EZ IP     C 16 9 31.97                             171   -0.0310 20.1 190 
 BAR2 EZ ES       16 9 46.57                             171   -0.1510 20.1 190 
 BAR2 EZ I        16 9 48.96        78.0 0.36            167           20.1 190 
 BRR  HZ IP     C 16 9 33.88                             151    0.1610 72.3 301 
 BRR  HN ES       16 9 50.60                             151    0.8210 72.3 301 
 BRR  HZ I        16 9 54.73        64.4 0.28            150           72.3 301 
 PAM  EZ EP       16 9 35.02                             149    0.1210 80.2  38 
 PAM  EN ES       16 9 51.68                             149   -0.2110 80.2  38 
 PAM  EZ I        16 9 52.38        34.8 0.36            156           80.2  38 
 RUS  HZ EP       16 9 35.99                             144   -0.0910 97.5 176 
 RUS  HN ES       16 9 54.05                             144    0.0610 97.5 176 
 RUS  HZ I        16 9 55.20        35.9 0.24            143           97.5 176 
 PTB  HZ EP       16 9 38.62                             131   -0.91 9  147 260 
 PTB  HN ES       16 9 59.69                             131   -0.43 9  147 260 
 PTB  HZ I        1610  1.95        36.2 0.18            130            147 260 
 ZAR  HZ EP       16 9 45.37                             121    0.09 9  205 293 
 ZAR  HN ES       1610 10.94                             121    0.58 9  205 293 
 ZAR  HZ I        1610 16.09        26.7 0.26            122            205 293 
 NOR  HZ EP       16 9 48.10                             118   -0.18 8  232 235 
 NOR  HN ES       1610 15.49                             118   -0.22 8  232 235 
 NOR  HZ I        1610 21.61        20.2 0.26            118            232 235 
 CHI  HZ EP       16 9 50.45                             116    0.29 8  245 195 
 CHI  HN ES       1610 18.96                             116   -0.09 8  245 195 
 CHI  HZ I        1610 23.65        10.0 0.30            117            245 195 
 ROSC BZ EP   9   16 9 53.81                             116    3.20 0  250 211 
 ROSC BN ES       1610 23.19                                    0.14 8  250 211 
 ROSC BZ I        1610 28.29        34.2 0.45            116            250 211 
 HEL  HZ EP   4   16 9 54.50                             114    1.59 0  271 256 
 HEL  HN ES       1610 23.73                             114   -0.21 8  271 256 
 HEL  HZ I        1610 31.14        17.2 0.29            114            271 256 
 URE  HZ EP       16 9 53.21                             112   -0.79 7  285 293 
 URE  HN ES   4   1610 24.82                             112   -1.07 0  285 293 
 URE  HZ I        1610 26.19        16.4 0.26            114            285 293 
 ELA  HZ EP   4   1610  0.83                             109    1.37 0  327 230 
 ELA  HN ES   4   1610 37.13                             109    1.53 0  327 230 
 ELA  HZ I        1610 43.05        10.9 0.52            110            327 230 
 CBOC HZ EP       1610  0.24                             109    0.60 7  332 253 
 CBOC HN ES   4   1610 34.10                             109   -1.82 0  332 253 
 CBOC HZ I        1610 39.77         5.5 0.33            110            332 253 
 DBB  EZ EP       16 9 59.92                             109   -0.42 7  339 275 
 DBB  EN ES   4   1610 34.96                             109   -2.21 0  339 275 
 DBB  EZ I        1610 38.58        10.2 0.34            109            339 275 
 ANIL HZ EP   4   1610  3.72                             108    1.31 0  355 225 
 ANIL HN ES   4   1610 39.83                             108   -1.02 0  355 225 
 ANIL HZ I        1610 48.15        27.2 0.38            108            355 225 
 PRA  HZ EP       1610  6.55                             106    0.45 6  389 210 
 PRA  HE ES       1610 48.07                             106    0.65 6  389 210 
 PRA  HZ I        1610 50.86         9.8 0.05            107            389 210 
 ORTC HZ EP       1610  7.11                             106    0.59 6  393 216 
 ORTC HN ES       1610 48.27                             106    0.11 6  393 216 
 ORTC HZ I        1610 54.01         8.7 0.17            107            393 216 
 SJC  HZ EP   4   1610  6.65                             105   -2.13 0  412 327 
 SJC  HN ES   4   1610 47.96                             105   -4.24 0  412 327 
                                                                                
