 2016  2 2 1655 32.9 L   6.831 -73.134142.1  RSN 15 0.4 2.8LRSN                1
 GAP=136        0.98       2.5     3.6  5.5 -0.5225E+00  0.8471E+01  0.6428E+00E
 Epicentro: LOS SANTOS - SANTANDER                                             3
 ACTION:UPD 16-03-04 21:22 OP:rebc STATUS:               ID:20160202165532 L   I
 OLDACT:REG 16-02-02 20:58 OP:cara STATUS:               ID:20160202164759     3
 2016-02-02-1647-59S.COL___202                                                 6
 STAT SP IPHASW D HRMM SECON CODA AMPLIT PERI AZIMU VELO AIN AR TRES W  DIS CAZ7
 BAR2 EZ EP       1655 52.22                             169    0.0510 27.0 192 
 BAR2 EZ ES       1656  7.14                             169   -0.0710 27.0 192 
 BAR2 EZ I        1656  8.29       139.0 0.34            168           27.0 192 
 PAM  EZ EP     D 1655 55.03                             151    0.5110 73.9  40 
 PAM  EN ES       1656 11.98                             151    0.6010 73.9  40 
 PAM  EZ I        1656 14.32       152.3 0.58            154           73.9  40 
 RUS  HZ EP       1655 56.13                             142   -0.4110  104 177 
 RUS  HN ES       1656 14.66                             142   -0.3310  104 177 
 RUS  HZ I        1656 15.22        74.7 0.42            144            104 177 
 PTB  HZ EP       1655 59.39                             131   -0.37 9  150 258 
 PTB  HN ES       1656 19.94                             131   -0.77 9  150 258 
 PTB  HZ I        1656 23.07        67.3 0.20            130            150 258 
 OCA  HN ES       1656 22.01                             129   -0.23 9  157 353 
 OCA  HZ I        1656 25.90       217.2 0.32            130            157 353 
 SPBC HZ EP       1656  1.23                             127   -0.23 9  167 219 
 SPBC HN ES       1656 23.41                             127   -0.33 9  167 219 
 SPBC HZ I        1656 27.00        72.8 0.18            128            167 219 
 ZAR  HZ EP   4   1656  5.76                             121    0.65 0  204 291 
 ZAR  HN ES       1656 31.02                             121    0.79 9  204 291 
 ZAR  HZ I        1656 36.39       110.4 0.66            122            204 291 
 NOR  HZ IP     C 1656  8.88                             117    0.12 8  238 234 
 NOR  HN ES       1656 37.16                             117    0.44 8  238 234 
 NOR  HZ I        1656 41.42        54.4 0.22            118            238 234 
 SML  HZ EP       1656  8.92                             117   -0.12 8  241 335 
 SML  HN ES       1656 36.79                             117   -0.45 8  241 335 
 SML  HZ I        1656 42.59        41.8 0.22            118            241 335 
 CHI  HZ EP       1656 10.45                             116   -0.35 8  252 195 
 CHI  HE ES       1656 41.00                             116    0.63 8  252 195 
 CHI  HZ I        1656 43.90        18.5 0.26            117            252 195 
 HEL  HZ EP   4   1656 14.06                             114    0.89 0  274 255 
 HEL  HN ES       1656 45.31                             114    0.73 8  274 255 
 HEL  HZ I        1656 51.72        32.5 0.42            114            274 255 
 GUY2CHZ EP       1656 16.88                             111    0.19 7  304 234 
 GUY2CHN ES   4   1656 54.21                             111    3.36 0  304 234 
 GUY2CHZ I        1656 59.54        32.6 0.46                           304 234 
 DBB  EZ IP       1656 20.45                             109    0.09 7  341 274 
 DBB  EZ ES       1656 57.28                             109   -0.09 7  341 274 
 DBB  EZ I        1657  3.10        21.7 0.46            109            341 274 
 MON  HZ EP   4   1656 20.16                             108   -1.48 0  353 308 
 MON  HE ES       1656 59.30                             108   -0.35 6  353 308 
 MON  HZ I        1657  0.90        15.2 0.22            109            353 308 
 ORTC HZ EP       1656 27.24                             105    0.12 6  399 216 
 ORTC HN ES       1657  9.82                             105    0.41 6  399 216 
 ORTC HZ I        1657 17.08        22.6 0.48            106            399 216 
                                                                                
