 2012  5 2 1654 12.1 L   6.779 -73.157146.3  RSN  5 0.4 1.6LRSN                1
 GAP=235        0.81       9.4     9.4  9.1  0.6332E+02  0.8434E+01 -0.8817E+00E
 Epicentro: LOS SANTOS - SANTANDER                                             3
 ACTION:UP  12-07-05 12:01 OP:pat  STATUS:               ID:20120502165412 L   I
 2012-05-02-1650-00M.COL___186                                                 6
 STAT SP IPHASW D HRMM SECON CODA AMPLIT PERI AZIMU VELO SNR AR TRES W  DIS CAZ7
 BAR2 SZ EP   1   1654 31.59                             171    -0.1 7   21 188 
 BAR2 SZ ES   1   1654 46.61                             171    -0.4 7   21 188 
 BAR2 SZ I        1654 49.21         9.8 0.37                            21 188 
 BRR  HZ EP   1   1654 33.39                             153     0.1 7   71 301 
 BRR  HZ I        1654 33.74         8.0 0.14                            71 301 
 BRR  HE ES   1   1654 50.27                             153     0.4 7   71 301 
 RUS  HZ EP   1   1654 36.19                             144     0.5 7   98 175 
 RUS  HN ES   1   1654 54.16                             144     0.0 7   98 175 
 RUS  HZ I        1654 56.22         6.6 0.31                            98 175 
 PTB  HZ EP   2   1654 38.25                             132    -0.7 5  146 260 
 PTB  HN ES   2   1655  0.20                             132     0.3 5  146 260 
 PTB  HZ I        1655  4.62         3.8 0.41                           146 260 
 ZAR  HE ES   1   1655  9.57                             122    -0.3 6  204 293 
 ZAR  HZ I        1655 15.23         6.5 0.48                           204 293 
                                                                                
