 2013 12 2 1426 48.2 L   6.774 -73.135148.9  RSN  8 0.6 2.0LRSN                1
 GAP=157        1.26       7.9     6.0  8.7 -0.1461E+02  0.1430E+02 -0.1792E+02E
 Epicentro: LOS SANTOS - SANTANDER                                             3
 ACTION:UPD 14-01-13 10:15 OP:ep   STATUS:               ID:20131202142648 L   I
 OLDACT:UP  13-12-02 16:23 OP:cam  STATUS:               ID:20131202142000     3
 OLDACT:REG 13-12-02 14:28 OP:cam  STATUS:               ID:20131202142000     3
 2013-12-02-1420-00M.COL___282                                                 6
 STAT SP IPHASW D HRMM SECON CODA AMPLIT PERI AZIMU VELO AIN AR TRES W  DIS CAZ7
 BAR2 SZ EP       1427  8.37                             172    0.2310 20.8 194 
 BAR2 SZ ES       1427 23.03                             172   -0.6810 20.8 194 
 BAR2 SZ I        1427 24.06        36.8 0.24            172           20.8 194 
 BRR  HZ EP       1427 10.27                             152    0.4710 73.6 300 
 BRR  HE ES       1427 27.30                             152    0.6310 73.6 300 
 BRR  HZ I        1427 28.84        10.4 0.28            149           73.6 300 
 PAM  SZ EP       1427 11.30                             150    0.4910 78.9  38 
 PAM  SN ES       1427 28.20                             150   -0.2810 78.9  38 
 PAM  SZ I        1427 30.53        24.5 0.58            151           78.9  38 
 PTB  HZ EP   1   1427 15.48                             132    0.03 7  148 260 
 PTB  HN ES       1427 35.81                             132   -0.92 9  148 260 
 PTB  HZ I        1427 38.81        16.0 0.14            132            148 260 
 ZAR  HZ EP   4   1427 22.99                             122    1.95 0  206 293 
 ZAR  HN ES       1427 47.31                             122    0.63 8  206 293 
 ZAR  HZ I        1427 52.61         7.1 0.34            122            206 293 
 NOR  HZ EP   4   1427 25.89                             119    1.88 0  234 235 
 NOR  HN ES   1   1427 51.99                             119    0.03 6  234 235 
 NOR  HZ I        1427 55.47         5.1 0.26            119            234 235 
 SML  HZ EP       1427 25.08                             117   -0.23 8  247 335 
 SML  HE ES   2   1427 53.31                             117   -0.96 4  247 335 
 SML  HZ I        1427 56.66         7.9 0.12            117            247 335 
 SJC  HZ EP       1427 43.35                             106   -0.84 6  412 327 
                                                                                
