 2011 12 2 1345 38.5 L   6.778 -73.124140.6  RSN  5 0.2 1.9LRSN                1
 GAP=140        0.52       3.9     5.5  5.3  0.1885E+01 -0.6357E+01  0.3128E+00E
 Epicentro: LOS SANTOS - SANTANDER                                             3
 ACTION:UPD 12-07-13 16:13 OP:ep   STATUS:               ID:20111202134538 L   I
 2011-12-02-1340-00M.COL___180                                                 6
 STAT SP IPHASW D HRMM SECON CODA AMPLIT PERI AZIMU VELO AIN AR TRES W  DIS CAZ7
 BAR2 SZ EP       1345 57.38                             171   -0.0810 21.5 197 
 BAR2 SZ ES   1   1346 12.07                             171   -0.19 7 21.5 197 
 GIR2 SZ EP       1345 57.55                             166   -0.0810 34.2 347 
 GIR2 SZ ES   3   1346 12.49                             166   -0.07 2 34.2 347 
 BRR  HZ EP       1345 58.94                             151   -0.3410 74.5 299 
 BRR  HN ES   1   1346 15.88                             151    0.39 7 74.5 299 
 BRR  HZ I        1346 20.71        23.2 0.44                          74.5 299 
 PAM  SZ EP       1346  0.38                             150    0.1910 77.9  37 
 PAM  SN ES   2   1346 17.09                             150   -0.02 5 77.9  37 
 RUS  HZ EP       1346  1.76                             143    0.2210 98.0 177 
 RUS  HN ES   2   1346 19.46                             143   -0.07 5 98.0 177 
 RUS  HZ I        1346 21.10         8.4 0.28                          98.0 177 
                                                                                
