 2011 10 2 1106 16.8 L   6.836 -73.028142.5  RSN  4 0.2 1.4LRSN                1
 GAP=252        0.38       4.3     9.4  5.7  0.2858E+02 -0.7202E+01 -0.4551E+01E
 Epicentro: CEPITA - SANTANDER                                                 3
 ACTION:UPD 12-07-13 16:01 OP:ep   STATUS:               ID:20111002110616 L   I
 2011-10-02-1102-08S.COL___168                                                 6
 STAT SP IPHASW D HRMM SECON CODA AMPLIT PERI AZIMU VELO AIN AR TRES W  DIS CAZ7
 BAR2 SZ EP   2   11 6 36.62                             167    0.37 5 31.9 212 
 BAR2 SZ ES   2   11 6 51.49                             167    0.07 5 31.9 212 
 BAR2 SZ I        11 6 52.50         5.2 0.15                          31.9 212 
 BRR  HZ EP       11 6 38.10                             149   -0.1110 81.3 292 
 BRR  HZ I        11 6 38.60         9.5 0.13                          81.3 292 
 BRR  HE ES   1   11 6 54.98                             149    0.07 7 81.3 292 
 RUS  HE ES   1   11 6 58.93                             142   -0.10 7  105 183 
 RUS  HZ I        11 7  1.62         2.6 0.35                           105 183 
 CHI  HE ES   2   11 7 25.15                             116    0.10 4  256 198 
 CHI  HZ I        11 7 26.69         1.6 0.24                           256 198 
                                                                                
