 2010  3 2 1322 13.2 L   6.181 -73.488122.0  RSN  4 0.3 1.9LRSN                1
 GAP=167        0.50       6.5     9.5  9.5 -0.3308E+02  0.5861E+02  0.4618E+01E
 Epicentro: AGUADA - SANTANDER                                                 3
 ACTION:UP  10-08-24 09:51 OP:vdl  STATUS:               ID:20100302132213 L   I
 2010-03-02-1320-27S.COL___093                                                 6
 STAT SP IPHASW D HRMM SECON CODA AMPLIT PERI AZIMU VELO SNR AR TRES W  DIS CAZ7
 RUS  BZ EP   2   1322 31.33                             155    -0.3 5   55 125 
 RUS  BE ES   2   1322 45.90                             155    -0.1 5   55 125 
 BAR2 SZ EP   1   1322 31.15                             154    -0.2 7   57  37 
 BAR2 SZ ES   1   1322 45.67                             154     0.2 7   57  37 
 TOL  SZ EP   1   1322 52.13                             110     0.2 6  269 229 
 TOL  SZ ES   2   1323 21.49                             110    -0.7 4  269 229 
 PRA  HZ EP   2   1322 57.06                             107     0.3 3  314 210 
 PRA  HE ES   2   1323 31.35                             107     0.6 3  314 210 
 PRA  HZ I        1323 34.60         3.9 0.52                           314 210 
                                                                                
