 2015  9 2 1555 16.3 L   6.811 -73.153143.3  RSN 22 0.5 2.8LRSN                1
 GAP=135        1.15       2.4     3.6  5.1 -0.1613E+01  0.5790E+01  0.2780E+00E
 Epicentro: LOS SANTOS - SANTANDER                                             3
 ACTION:UPD 15-10-28 16:23 OP:cam  STATUS:               ID:20150902155516 L   I
 OLDACT:REG 15-09-02 21:38 OP:ak   STATUS:               ID:20150902154750     3
 2015-09-02-1547-50M.COL___343                                                 6
 STAT SP IPHASW D HRMM SECON CODA AMPLIT PERI AZIMU VELO AIN AR TRES W  DIS CAZ7
 BAR2 EZ IP     D 1555 35.65                             170    0.0310 24.4 188 
 BAR2 EZ ES       1555 50.31                             170   -0.4010 24.4 188 
 BAR2 EZ I        1555 52.34       123.3 0.22            169           24.4 188 
 BRR  HZ IP     C 1555 37.43                             153    0.3610 69.9 298 
 BRR  HN ES       1555 54.28                             153    0.9810 69.9 298 
 BRR  HZ I        1555 58.43       112.0 0.46            150           69.9 298 
 PAM  EZ EP       1555 38.57                             150    0.3810 77.0  41 
 PAM  EN ES       1555 55.48                             150    0.1910 77.0  41 
 PAM  EZ I        1555 57.80       141.8 0.50            155           77.0  41 
 RUS  HZ EP       1555 39.60                             143   -0.2610  102 176 
 RUS  HE ES       1555 58.16                             143   -0.1110  102 176 
 RUS  HZ I        1555 59.40        35.4 0.28            146            102 176 
 PTB  HZ EP       1555 42.74                             132   -0.23 9  147 258 
 PTB  HN ES       1556  3.39                             132   -0.42 9  147 258 
 PTB  HZ I        1556 10.62        42.8 0.25            131            147 258 
 OCA  HZ EP       1555 43.35                             129   -0.90 9  159 353 
 OCA  HN ES       1556  5.64                             129   -0.45 9  159 353 
 OCA  HZ I        1556 11.17        83.6 0.14            131            159 353 
 SPBC HZ EP       1555 44.57                             128   -0.04 9  164 218 
 SPBC HN ES       1556  6.37                             128   -0.36 9  164 218 
 SPBC HZ I        1556 11.02        60.0 0.22            130            164 218 
 ZAR  HZ EP       1555 48.44                             122    0.02 9  203 292 
 ZAR  HN ES       1556 13.71                             122    0.21 9  203 292 
 ZAR  HZ I        1556 20.40        56.3 0.31            123            203 292 
 NOR  HZ EP       1555 51.81                             118   -0.04 8  235 234 
 NOR  HN ES       1556 18.96                             118   -0.65 8  235 234 
 NOR  HZ I        1556 25.57        30.6 0.22            119            235 234 
 SML  HZ EP       1555 51.77                             117   -0.82 8  242 335 
 SML  HN ES       1556 21.87                             117    0.95 8  242 335 
 SML  HZ I        1556 23.68        74.0 0.11            119            242 335 
 CHI  HZ EP       1555 53.61                             116   -0.32 8  250 195 
 CHI  HN ES       1556 23.35                             116    0.04 8  250 195 
 CHI  HZ I        1556 26.73        35.9 0.38            119            250 195 
 ROSC BZ EP       1555 55.14                             116    0.83 8  253 211 
 ROSC BN ES       1556 23.40                             116   -0.60 8  253 211 
 ROSC BZ I        1556 29.36        60.4 0.45            118            253 211 
 HEL  HZ EP   1   1555 56.46                             114    0.17 6  272 256 
 HEL  HN ES       1556 27.95                             114    0.43 8  272 256 
 HEL  HZ I        1556 34.63        16.4 0.38            115            272 256 
 URE  HZ EP       1555 56.20                             113   -0.87 7  283 292 
 URE  HE ES       1556 28.76                             113   -0.14 7  283 292 
 URE  HZ I        1556 38.36        32.4 0.20            114            283 292 
 GUY2CHZ EP   1   1556  0.21                             112    0.45 5  301 234 
 GUY2CHE ES       1556 33.75                             112    0.06 7  301 234 
 GUY2CHZ I        1556 39.86        17.9 0.34                           301 234 
 LL2C HZ EP       1556  0.45                             111    0.87 7  305 354 
 LL2C HN ES       1556 33.29                             111   -0.08 7  305 354 
 LL2C HZ I        1556 37.92        72.9 0.32            113            305 354 
 DBB  SZ EP       1556  3.14                             109   -0.39 7  339 274 
 DBB  SZ ES       1556 39.90                             109   -0.50 7  339 274 
 DBB  SZ I        1556 41.22        47.7 0.28            110            339 274 
 TOL  SZ EP       1556  5.27                             109    0.82 7  344 224 
 TOL  SE ES       1556 43.02                             109    0.98 7  344 224 
 TOL  SZ I        1556 49.35        21.8 0.26            110            344 224 
 PRA  HZ EP       1556 10.07                             106    0.30 6  393 209 
 PRA  HE ES       1556 52.33                             106    0.82 6  393 209 
 PRA  HZ I        1556 56.89        27.7 0.28            108            393 209 
 ORTC HZ EP   4   1556  2.20                             106   -7.95 0  396 216 
 ORTC HN ES       1556 52.31                             106    0.12 6  396 216 
 ORTC HZ I        1556 57.02        18.8 0.30            107            396 216 
 SJC  HZ EP   4   1556  9.95                             105   -1.61 0  408 327 
 SJC  HN ES   4   1556 50.97                             105   -3.73 0  408 327 
 SJC  HZ I        1556 57.44        10.0 0.50            107            408 327 
 CRJC HZ EP   4   1556 15.71                             103   -2.84 0  466   4 
 CRJC HN ES   4   1557  4.70                             103   -2.44 0  466   4 
 CRJC HZ I        1557 10.80        16.9 0.36            105            466   4 
                                                                                
