 2017  8 2 1848 32.9 L   6.734 -72.979141.9  RSN  6 0.5 1.5LRSN                1
 GAP=162        1.00       6.0     7.5  7.3 -0.1854E+02  0.1286E+02 -0.5110E+01E
 Epicentro: CEPITA - SANTANDER                                                 3
 ACTION:UPD 17-09-04 20:15 OP:rebc STATUS:               ID:20170802184832 L   I
 OLDACT:REG 17-08-02 21:57 OP:dhb  STATUS:               ID:20170802184740     3
 2017-08-02-1848-00M.COL___398                                                 6
 STAT SP IPHASW D HRMM SECON CODA AMPLIT PERI AZIMU VELO AIN AR TRES W  DIS CAZ7
 BAR2 EZ IP     C 1848 51.67                             169   -0.4710 27.4 235 
 BAR2 EZ ES       1849  6.81                             169   -0.3510 27.4 235 
 BAR2 EZ I        1849  7.75         6.6 0.15            169           27.4 235 
 PAM  HZ IP     D 1848 54.66                             151    0.1910 73.7  25 
 PAM  EN ES       1849 11.29                             151   -0.0210 73.7  25 
 PAM  HZ I        1849 11.94         7.1 0.32            151           73.7  25 
 RUS  HZ EP   3   1848 55.07                             144   -0.70 2 93.8 187 
 RUS  HN ES       1849 13.99                             144    0.3710 93.8 187 
 RUS  HZ I        1849 15.81         5.2 0.24            144           93.8 187 
 PTB  HZ EP   9   1848 58.87                             127   -2.27 0  165 263 
 PTB  HN ES       1849 20.06                                   -0.85 9  165 263 
 PTB  HZ I        1849 22.09         3.1 0.06            128            165 263 
 ZAR  HZ EP   2   1849  8.11                             118    0.94 4  224 292 
 ZAR  HN ES   2   1849 34.62                             118    0.72 4  224 292 
 ZAR  HZ I        1849 35.68         4.7 0.30            119            224 292 
 GUY2CHZ EP       1849 17.42                             110   -0.18 7  312 238 
 GUY2CHE ES   2   1849 53.49                             110    1.02 3  312 238 
 GUY2CHZ I        1849 58.60         1.4 0.60                           312 238 
                                                                                
