 2015 12 2 1327 16.2 L   6.600 -73.208146.4  RSN  5 0.2 2.1LRSN                1
 GAP=160        0.52       5.8     3.7  4.7  0.7547E+01  0.5173E+01  0.3513E+01E
 Epicentro: CABRERA - SANTANDER                                                3
 ACTION:UPD 16-02-04 15:02 OP:cam  STATUS:               ID:20151202132716 L   I
 OLDACT:REG 15-12-02 19:57 OP:drio STATUS:               ID:20151202131750     3
 2015-12-02-1317-50M.COL___315                                                 6
 STAT SP IPHASW D HRMM SECON CODA AMPLIT PERI AZIMU VELO AIN AR TRES W  DIS CAZ7
 BAR2 EZ EP       1327 35.71                             179    0.0510 3.02 107 
 BAR2 EZ ES       1327 50.65                             179   -0.1910 3.02 107 
 BAR2 EZ I        1327 51.90        18.1 0.24            174           3.02 107 
 BRR  HZ EP     C 1327 37.75                             150   -0.1110 79.0 315 
 BRR  HN ES       1327 55.05                             150    0.2910 79.0 315 
 BRR  HZ I        1327 56.65        20.3 0.14            148           79.0 315 
 PTB  HZ EP       1327 42.51                             134    0.16 9  138 267 
 PTB  HN ES       1328  2.76                             134    0.00 9  138 267 
 PTB  HZ I        1328  8.46         8.3 0.22            132            138 267 
 ZAR  HZ EP   4   1327 51.55                             122    2.55 0  207 299 
 ZAR  HN ES       1328 14.33                             122   -0.26 8  207 299 
 ZAR  HZ I        1328 19.64        10.5 0.32            122            207 299 
 SML  HZ EP   4   1327 52.47                             116   -2.30 0  261 339 
 SML  HE ES   4   1328 21.03                             116   -3.83 0  261 339 
 SML  HZ I        1328 25.54        18.0 0.10            117            261 339 
                                                                                
