 2015  3 2 1429 16.6 L   6.809 -73.108147.6  RSN 13 0.5 2.4LRSN                1
 GAP=141        1.15       3.5     5.9  6.0 -0.5343E+01  0.1254E+02  0.2456E+01E
 Epicentro: LOS SANTOS - SANTANDER                                             3
 ACTION:UPD 15-04-30 16:22 OP:nd   STATUS:               ID:20150302142916 L   I
 OLDACT:UP  15-03-02 23:22 OP:carl STATUS:               ID:20150302142747     3
 OLDACT:REG 15-03-02 22:19 OP:carl STATUS:               ID:20150302142747     3
 2015-03-02-1427-47M.COL___293                                                 6
 STAT SP IPHASW D HRMM SECON CODA AMPLIT PERI AZIMU VELO AIN AR TRES W  DIS CAZ7
 BAR2 EZ IP     C 1429 36.48                             170   -0.0610 25.3 199 
 BAR2 EZ ES       1429 51.76                             170   -0.3010 25.3 199 
 BAR2 EZ I        1429 54.60        31.6 0.36            165           25.3 199 
 PAM  SZ EP       1429 39.35                             152    0.4910 74.0  38 
 PAM  SN ES       1429 56.48                             152    0.2910 74.0  38 
 PAM  SZ I        1429 57.99        15.3 0.26            157           74.0  38 
 BRR  HZ IP     C 1429 38.26                             152    0.0810 74.5 296 
 BRR  HN ES       1429 55.65                             152    0.6710 74.5 296 
 BRR  HZ I        1429 59.03        40.2 0.42            147           74.5 296 
 RUS  HZ EP       1429 40.52                             144   -0.1110  101 178 
 RUS  HN ES       1429 59.21                             144   -0.1310  101 178 
 RUS  HZ I        1430  0.13        33.2 0.24            146            101 178 
 PTB  HZ EP   4   1429 42.98                             132   -1.17 0  152 259 
 PTB  HN ES   4   1430  4.40                             132   -1.21 0  152 259 
 PTB  HZ I        1430 11.58        33.4 0.32            130            152 259 
 SPBC HZ EP       1429 45.41                             129   -0.20 9  167 220 
 SPBC HN ES       1430  7.34                             129   -0.86 9  167 220 
 SPBC HZ I        1430 13.67        47.3 0.32            129            167 220 
 NOR  HZ EP       1429 52.45                             118   -0.46 8  239 235 
 NOR  HN ES       1430 21.45                             118    0.26 8  239 235 
 NOR  HZ I        1430 28.25        24.0 0.16            119            239 235 
 SML  HZ EP       1429 52.72                             118   -0.75 8  245 334 
 SML  HN ES       1430 21.39                             118   -0.81 8  245 334 
 SML  HZ I        1430 28.54        23.7 0.30            119            245 334 
 CHI  HZ EP       1429 54.66                             117   -0.01 8  251 196 
 CHI  HN ES       1430 24.11                             117   -0.22 8  251 196 
 CHI  HZ I        1430 27.72        10.6 0.72            119            251 196 
 GUY2CHZ EP       1430  1.64                             112    0.85 7  305 235 
 GUY2CHN ES   4   1430 36.80                             112    1.58 0  305 235 
 GUY2CHZ I        1430 44.96        17.2 0.50                           305 235 
 RREF HZ EP       1430  4.33                             111    1.03 7  326 230 
 RREF HN ES   4   1430 40.88                             111    1.18 0  326 230 
 RREF HZ I        1430 45.88        16.4 0.22            112            326 230 
 TOL  SZ EP       1430  6.07                             109    0.68 6  347 225 
 TOL  SN ES       1430 44.03                             109    0.61 6  347 225 
 TOL  SZ I        1430 49.88        12.6 0.48            110            347 225 
 PRA  HZ EP       1430  9.94                             107   -0.63 6  395 210 
 PRA  HN ES       1430 52.50                             107   -0.13 6  395 210 
 PRA  HZ I        1430 59.99        11.5 0.28            108            395 210 
                                                                                
