 2011  7 2 1626  1.1 L   6.832 -73.103142.8  RSN  8 0.2 1.8LRSN                1
 GAP=140        0.55       2.6     5.5  4.1 -0.4111E+01 -0.6864E+01  0.1069E+01E
 Epicentro: LOS SANTOS - SANTANDER                                             3
 ACTION:UPD 12-07-25 13:57 OP:epov STATUS:               ID:20110702162601 L   I
 2011-07-02-1622-56S.COL___140                                                 6
 STAT SP IPHASW D HRMM SECON CODA AMPLIT PERI AZIMU VELO AIN AR TRES W  DIS CAZ7
 BTL  SZ EP       1626 20.30                             172   -0.0110 20.6 298 
 BTL  SZ ES   1   1626 35.65                             172    0.35 7 20.6 298 
 BAR2 SZ EP       1626 20.25                             168   -0.2110 28.0 198 
 BAR2 SZ ES   1   1626 35.09                             168   -0.49 7 28.0 198 
 BAR2 SZ I        1626 37.28        14.2 0.34                          28.0 198 
 PAM  SZ EP       1626 22.94                             152    0.3010 71.6  38 
 BRR  HZ EP       1626 21.88                             151   -0.1910 73.9 294 
 BRR  HN ES   1   1626 38.65                             151    0.21 7 73.9 294 
 BRR  HZ I        1626 41.89        16.1 0.18                          73.9 294 
 BRI  SZ EP       1626 24.42                             142    0.1110  103  19 
 RUS  HZ EP       1626 24.75                             142   -0.0410  104 179 
 RUS  HN ES   1   1626 43.53                             142    0.24 7  104 179 
 RUS  HZ I        1626 45.28         7.0 0.36                           104 179 
 GRA  SZ EP       1626 25.61                             137   -0.0510  121  16 
 GRA  SZ ES   1   1626 44.59                             137   -0.25 7  121  16 
 GRA  SZ I        1626 46.15        13.5 0.46                           121  16 
 CHI  HZ EP       1626 39.23                             116    0.09 8  253 196 
 CHI  HZ I        1626 41.64         2.9 0.14                           253 196 
                                                                                
