 2013  5 2 1811 55.6 L   6.756 -73.169139.8  RSN  9 0.3 2.3LRSN                1
 GAP=136        0.71       3.3     3.9  5.5 -0.1472E+01  0.3951E+01  0.2959E+01E
 Epicentro: LOS SANTOS - SANTANDER                                             3
 ACTION:UPD 13-06-20 09:47 OP:ep   STATUS:               ID:20130502181155 L   I
 2013-05-02-1810-00M.COL___254                                                 6
 STAT SP IPHASW D HRMM SECON CODA AMPLIT PERI AZIMU VELO AIN AR TRES W  DIS CAZ7
 BAR2 SZ IP     D 1812 14.48                             172    0.1110 18.1 185 
 BAR2 SZ ES   1   1812 28.89                             172   -0.15 7 18.1 185 
 BAR2 SZ I        1812 31.27        24.5 0.12            171           18.1 185 
 GIR2 SZ EP   1   1812 14.48                             165   -0.17 7 35.8 356 
 BRR  HZ IP     C 1812 16.28                             151    0.2010 71.5 303 
 BRR  HN ES       1812 32.54                             151    0.4610 71.5 303 
 BRR  HN I        1812 36.79        86.5 0.16            150           71.5 303 
 PAM  SZ EP   1   1812 17.22                             148   -0.26 7 82.8  39 
 PAM  SN ES   1   1812 34.13                             148   -0.45 7 82.8  39 
 PAM  SZ I        1812 35.89        19.0 0.16            153           82.8  39 
 RUS  HZ EP       1812 18.53                             144    0.1510 95.9 174 
 RUS  HN ES       1812 36.25                             144    0.0710 95.9 174 
 RUS  HN I        1812 37.86        26.8 0.18            146           95.9 174 
 PTB  HZ EP   1   1812 21.12                             131   -0.61 7  144 261 
 PTB  HN ES   1   1812 41.76                             131   -0.38 7  144 261 
 PTB  HN I        1812 47.24        42.2 0.30            131            144 261 
 OCA  HN ES   2   1812 46.06                             127    0.14 5  165 354 
 OCA  HN I        1812 47.28        80.2 0.22            130            165 354 
 NOR  HZ EP   1   1812 30.91                             118    0.50 6  230 235 
 NOR  HN ES   1   1812 57.01                             118   -0.59 6  230 235 
 NOR  HZ I        1813  0.37        13.4 0.22            119            230 235 
 PRA  HN ES   1   1813 29.67                             106    0.37 4  386 210 
 PRA  HN I        1813 35.01         6.2 0.24            107            386 210 
                                                                                
