 2012  5 2 1652 18.5 L   6.737 -73.166144.0  RSN  9 0.4 2.2LRSN                1
 GAP=230        0.87       5.3     6.1  7.4  0.1245E+02  0.1729E+02  0.8959E+01E
 Epicentro: VILLANUEVA - SANTANDER                                             3
 ACTION:UP  12-07-05 12:01 OP:pat  STATUS:               ID:20120502165218 L   I
 2012-05-02-1650-00M.COL___186                                                 6
 STAT SP IPHASW D HRMM SECON CODA AMPLIT PERI AZIMU VELO SNR AR TRES W  DIS CAZ7
 BAR2 SZ EP   1   1652 37.43                             173    -0.4 7   16 186 
 BAR2 SZ ES   1   1652 52.95                             173     0.1 7   16 186 
 BAR2 SZ I        1652 53.53        44.4 0.18                            16 186 
 BRR  HZ EP   1   1652 39.46                             152    -0.1 7   73 304 
 BRR  HE ES   1   1652 56.59                             152     0.6 7   73 304 
 BRR  HZ I        1652 57.83        61.9 0.21                            73 304 
 RUS  HZ EP   1   1652 41.38                             145    -0.2 7   94 174 
 RUS  HN ES   1   1652 59.93                             145     0.3 7   94 174 
 RUS  HZ I        1653  1.23        17.5 0.25                            94 174 
 PTB  HZ EP   1   1652 44.54                             132    -0.5 7  144 261 
 PTB  HZ I        1652 45.44        18.7 0.15                           144 261 
 PTB  HN ES   1   1653  5.00                             132    -0.7 7  144 261 
 ZAR  HZ EP   1   1652 51.25                             122     0.3 6  205 294 
 ZAR  HN ES   1   1653 16.03                             122    -0.2 6  205 294 
 ZAR  HZ I        1653 22.30        22.9 0.27                           205 294 
 CHI  HN ES   1   1653 24.04                             118     0.0 6  241 195 
 CHI  HZ I        1653 28.08         3.2 0.22                           241 195 
 HEL  HZ EP   1   1652 58.78                             115     0.6 6  268 257 
 HEL  HN ES   1   1653 29.71                             115     0.5 6  268 257 
 HEL  HZ I        1653 36.00         9.0 0.28                           268 257 
 RREF HN ES   2   1653 39.05                             111    -0.2 3  316 230 
 RREF HZ I        1653 48.54        10.0 0.26                           316 230 
 PRA  HZ EP   1   1653 11.77                             107     0.6 4  385 210 
 PRA  HE ES   2   1653 52.17                             107     0.0 3  385 210 
                                                                                
