 2016 10 2 1417  1.5 L   6.764 -73.159152.1  RSN  4 0.2 1.3LRSN                1
 GAP=233        0.55       4.4     4.2  4.4  0.9186E+01  0.1277E+01  0.4612E-02E
 Epicentro: LOS SANTOS - SANTANDER                                             3
 ACTION:UPD 16-11-09 19:15 OP:rebc STATUS:               ID:20161002141701 L   I
 OLDACT:REG 16-10-02 20:53 OP:dani STATUS:               ID:20161002140740     3
 2016-10-02-1408-00M.COL___381                                                 6
 STAT SP IPHASW D HRMM SECON CODA AMPLIT PERI AZIMU VELO AIN AR TRES W  DIS CAZ7
 BAR2 EZ EP       1417 21.64                             172   -0.1710 19.1 188 
 BAR2 EZ ES       1417 37.52                             172   -0.1310 19.1 188 
 BAR2 EZ I        1417 38.90         4.0 0.30            170           19.1 188 
 BRR  HZ EP       1417 23.24                             153   -0.1310 72.0 302 
 BRR  HE ES       1417 40.68                             153    0.2510 72.0 302 
 BRR  HZ I        1417 44.72        11.1 0.31            152           72.0 302 
 RUS  HZ EP       1417 25.97                             146    0.3710 96.7 175 
 RUS  HN ES       1417 44.34                             146   -0.0610 96.7 175 
 RUS  HZ I        1417 46.68         1.2 0.23            148           96.7 175 
 PTB  HZ EP       1417 28.66                             134   -0.13 9  146 260 
 PTB  HE ES       1417 50.07                             134   -0.02 9  146 260 
 PTB  HZ I        1417 54.29         2.0 0.21            134            146 260 
                                                                                
