 2017 10 2 1219 18.5 L   6.860 -73.130150.0  RSN 23 0.7 2.5LRSN                1
 GAP= 66        1.23       3.2     3.4  5.7 -0.1201E+01  0.7204E+01 -0.3836E+00E
 Epicentro: LOS SANTOS - SANTANDER                                             3
 ACTION:UPD 17-11-07 19:27 OP:rebc STATUS:               ID:20171002121918 L   I
 OLDACT:UP  17-10-02 22:34 OP:dhb  STATUS:               ID:20171002121223     3
 OLDACT:UP  17-10-02 22:33 OP:dhb  STATUS:               ID:20171002121223     3
 OLDACT:REG 17-10-02 20:17 OP:dhb  STATUS:               ID:20171002121223     3
 2017-10-02-1218-00M.COL___413                                                 6
 STAT SP IPHASW D HRMM SECON CODA AMPLIT PERI AZIMU VELO AIN AR TRES W  DIS CAZ7
 BAR2 EZ IP     C 1219 38.68                             168   -0.0910 30.1 191 
 BAR2 EZ ES       1219 54.02                             168   -0.5810 30.1 191 
 BAR2 EZ I        1219 56.36        80.3 0.34            167           30.1 191 
 PAM  EZ IP     C 1219 41.57                             153    0.7610 71.3  42 
 PAM  EE ES       1219 58.65                             153    0.4310 71.3  42 
 PAM  EZ I        1220  0.80        28.2 0.56            158           71.3  42 
 RUS  HZ IP     C 1219 42.63                             143   -0.4910  107 177 
 RUS  HN ES       1220  1.62                             143   -0.7110  107 177 
 RUS  HZ I        1220  2.51        48.0 0.31            145            107 177 
 TAM  HZ EP       1219 46.93                             131    0.41 9  155 107 
 TAM  HE ES       1220  8.82                             131    0.44 9  155 107 
 SPBC HZ EP   9   1219 49.73                             129    1.84 0  169 218 
 SPBC HN ES       1220 12.33                                   -0.34 9  169 218 
 SPBC HZ I        1220 15.77        63.2 0.18            129            169 218 
 YPLC HZ IP     C 1219 48.97                             127   -0.11 9  182 153 
 YPLC HE ES       1220 12.54                             127   -0.40 9  182 153 
 YPLC HZ I        1220 13.78        29.1 0.28            130            182 153 
 ZAR  HZ EP       1219 51.51                             123    0.38 9  203 290 
 ZAR  HN ES       1220 17.26                             123    0.67 9  203 290 
 ZAR  HZ I        1220 22.94        16.9 0.14            123            203 290 
 TABC EZ EP       1219 56.15                             119    0.97 8  236 210 
 TABC EZ ES   3   1220 22.74                             119   -1.06 2  236 210 
 TABC EZ I        1220 27.84        17.0 0.56            120            236 210 
 NOR  HZ IP     D 1219 55.01                             119   -0.01 8  240 233 
 NOR  HE ES       1220 23.55                             119    0.03 8  240 233 
 NOR  HZ I        1220 28.26        32.4 0.27            119            240 233 
 CHI  HZ IP     C 1219 56.83                             117   -0.32 8  255 195 
 CHI  HE ES       1220 26.58                             117   -0.74 8  255 195 
 CHI  HZ I        1220 30.31         7.3 0.39            119            255 195 
 ROSC BZ EP       1219 58.33                             117    0.78 8  259 211 
 ROSC BE ES       1220 27.80                             117   -0.21 8  259 211 
 ROSC BZ I        1220 34.54        29.6 0.35            118            259 211 
 HEL  HZ EP       1219 58.88                             115   -0.40 7  275 255 
 HEL  HE ES       1220 31.29                             115    0.19 7  275 255 
 HEL  HZ I        1220 39.36        17.2 0.27            116            275 255 
 URE  HZ EP       1219 59.19                             114   -0.48 7  283 291 
 URE  HE ES   3   1220 30.59                             114   -1.21 2  283 291 
 URE  HZ I        1220 38.23        15.9 0.08            115            283 291 
 GUY2CHZ EP       1220  2.86                             113   -0.02 7  306 234 
 GUY2CHE ES       1220 37.76                             113    0.26 7  306 234 
 GUY2CHZ I        1220 45.05        17.9 0.30                           306 234 
 VIL  EZ EP       1220  2.22                             112   -0.64 7  310 192 
 VIL  EE ES       1220 38.76                             112    1.28 7  310 192 
 VIL  EZ I        1220 39.19        15.3 0.48            114            310 192 
 ELA  HZ EP   9   1220  9.10                             111    2.95 0  335 229 
 ELA  HE ES       1220 45.86                                   -0.42 7  335 229 
 ELA  HZ I        1220 51.32        11.3 0.38            111            335 229 
 DBB  EZ EP       1220  6.64                             110    0.36 7  341 273 
 DBB  EN ES   2   1220 45.20                             110    1.64 3  341 273 
 DBB  EZ I        1220 46.96         6.1 0.24            111            341 273 
 ANIL HZ EP   2   1220  8.10                             109   -1.03 3  363 224 
 ANIL HE ES   2   1220 50.49                             109    1.85 3  363 224 
 ANIL HZ I        1220 54.87        27.1 0.18            110            363 224 
 PRA  HZ EP       1220 12.35                             107   -0.57 6  399 209 
 PRA  HE ES       1220 54.85                             107   -0.53 6  399 209 
 PRA  HZ I        1221  0.98        12.8 0.26            108            399 209 
 ORTC HZ EP       1220 13.66                             107    0.37 6  402 216 
 ORTC HE ES       1220 54.80                             107   -1.24 6  402 216 
 ORTC HZ I        1221  1.92         9.9 0.52            108            402 216 
 SJC  HZ EP       1220 12.55                             106   -1.10 6  405 326 
 SJC  HE ES   4   1220 54.20                             106   -2.48 0  405 326 
 SJC  HZ I        1221  2.02         4.7 0.69            108            405 326 
 PAL  HZ EP       1220 15.10                             106    0.74 6  411 238 
 PAL  HE ES   2   1220 59.55                             106    1.61 3  411 238 
 PAL  HZ I        1221  3.26         7.6 0.46            107            411 238 
 CRJC HZ EP       1220 19.03                             104   -1.28 5  461   3 
 CRJC HE ES       1221  7.60                             104   -0.94 5  461   3 
                                                                                
