 2010  4 2 1012 58.0 L   6.831 -72.985138.4  RSN  6 0.4 1.8LRSN                1
 GAP=212        0.71       4.8    13.3  8.2 -0.1565E+02 -0.6249E+01  0.1277E+02E
 Epicentro: CEPITA - SANTANDER                                                 3
 ACTION:UPD 10-08-24 09:57 OP:vdl  STATUS:               ID:20100402101257 L   I
 2010-04-02-1011-11S.COL___098                                                 6
 STAT SP IPHASW D HRMM SECON CODA AMPLIT PERI AZIMU VELO AIN AR TRES W  DIS CAZ7
 BAR2 SZ IP       1013 16.85                             165    -0.210   34 220 
 BAR2 SZ ES   2   1013 31.73                             165    -0.2 5   34 220 
 BRR  HZ I        1013 19.84        12.0 0.39                            86 291 
 BRR  HE ES   2   1013 35.91                             146     0.0 5   86 291 
 OCA  SZ EP   1   1013 25.83                             128     0.1 7  160 347 
 OCA  SZ ES   2   1013 47.96                             128     0.6 5  160 347 
 OCA  SZ I        1013 51.77        10.7 0.24                           160 347 
 CHI  HZ EP   1   1013 36.74                             115     0.5 6  257 199 
 CHI  HN ES   2   1014  6.99                             115     0.9 4  257 199 
 CHI  HZ I        1014 14.56         1.9 0.83                           257 199 
 RREF BZ EP   1   1013 45.16                             108    -0.5 5  338 231 
 RREF BZ I        1014 16.04         3.2 0.28                           338 231 
 PRA  HZ EP   1   1013 52.33                             105    -0.4 4  404 212 
 PRA  HE ES   2   1014 35.73                             105     0.3 3  404 212 
 PRA  HZ I        1014 37.33         2.1 0.35                           404 212 
                                                                                
