 2013  1 2 1904 36.8 L   6.497 -73.610107.2  RSN  5 0.5 1.4LRSN                1
 GAP=134        0.92       8.1     5.7 11.0  0.2389E+02  0.1903E+02 -0.1077E+02E
 Epicentro: SANTA HELENA DEL OPON - SANTANDER                                  3
 ACTION:UPD 13-02-15 09:11 OP:ep   STATUS:               ID:20130102190436 L   I
 2013-01-02-1900-00M.COL___242                                                 6
 STAT SP IPHASW D HRMM SECON CODA AMPLIT PERI AZIMU VELO AIN AR TRES W  DIS CAZ7
 BAR2 SZ EP   1   19 4 52.51                             154   -0.32 7 48.5  77 
 BAR2 SZ ES   1   19 5  5.26                             154   -0.09 7 48.5  77 
 BRR  HZ EP   1   19 4 53.45                             145   -0.27 7 68.4 351 
 RUS  HZ EP   1   19 4 55.66                             138   -0.30 7 88.7 139 
 RUS  HN ES   1   19 5 11.67                             138    0.74 7 88.7 139 
 RUS  HZ I        19 5 12.63         2.3 0.24            141           88.7 139 
 PTB  HZ EP       19 4 55.35                             136   -0.3810 93.7 273 
 PTB  HN ES   1   19 5 10.35                             136   -0.16 7 93.7 273 
 PTB  HZ I        19 5 11.69         7.1 0.18            137           93.7 273 
 ZAR  HZ EP   1   19 5  4.84                             116    0.86 7  176 309 
 ZAR  HN ES   1   19 5 25.67                             116    0.48 7  176 309 
 ZAR  HZ I        19 5 28.72         5.1 0.58            118            176 309 
                                                                                
