 2017  3 2 1613 56.3 L   6.749 -73.174141.7  RSN  5 0.3 1.7LRSN                1
 GAP=135        0.74       5.3     3.9  6.9  0.6295E+01  0.9316E+00 -0.1351E+02E
 Epicentro: LOS SANTOS - SANTANDER                                             3
 ACTION:UPD 17-05-25 18:35 OP:jn   STATUS:               ID:20170302161356 L   I
 OLDACT:DUP 17-03-03 00:40 OP:lv   STATUS:               ID:20170302160747d    3
 2017-03-02-1608-00M.COL___385                                                 6
 STAT SP IPHASW D HRMM SECON CODA AMPLIT PERI AZIMU VELO AIN AR TRES W  DIS CAZ7
 BAR2 EZ EP       1614 15.32                             173   -0.0310 17.4 183 
 BAR2 EZ ES       1614 29.94                             173   -0.2610 17.4 183 
 BAR2 EZ I        1614 31.16        11.3 0.17            169           17.4 183 
 PAM  EZ EP       1614 18.51                             148    0.0110 83.8  39 
 PAM  EZ I        1614 37.52         8.7 0.52            133           83.8  39 
 RUS  HZ EP       1614 19.35                             144    0.0610 95.2 174 
 RUS  HN ES       1614 37.56                             144    0.3610 95.2 174 
 RUS  HZ I        1614 40.10         4.3 0.47            146           95.2 174 
 PTB  HZ EP       1614 22.22                             132   -0.36 9  144 261 
 PTB  HN ES       1614 42.82                             132   -0.25 9  144 261 
 PTB  HZ I        1614 45.35         9.7 0.17            132            144 261 
 ZAR  HE ES       1614 54.02                             121    0.55 9  203 294 
 ZAR  HZ I        1614 57.61         5.4 0.27            117            203 294 
                                                                                
