 2016 12 2 1234  1.9 L   6.757 -73.147138.9  RSN 14 0.5 2.3LRSN                1
 GAP=155        1.09       5.1     4.2  6.3 -0.3093E+01  0.9033E+01  0.9246E+01E
 Epicentro: LOS SANTOS - SANTANDER                                             3
 ACTION:UPD 17-01-11 20:11 OP:rebc STATUS:               ID:20161202123401 L   I
 OLDACT:REG 16-12-02 20:51 OP:lv   STATUS:               ID:20161202122746     3
 2016-12-02-1228-00M.COL___328                                                 6
 STAT SP IPHASW D HRMM SECON CODA AMPLIT PERI AZIMU VELO AIN AR TRES W  DIS CAZ7
 BAR2 EZ IP     C 1234 20.66                             172    0.0810 18.6 192 
 BAR2 EZ ES       1234 34.96                             172   -0.2210 18.6 192 
 BAR2 EZ I        1234 36.39        33.7 0.30            169           18.6 192 
 BRR  HZ IP     C 1234 22.57                             150    0.1610 73.5 302 
 BRR  HN ES       1234 39.33                             150    0.9010 73.5 302 
 BRR  HZ I        1234 43.63        62.3 0.12            150           73.5 302 
 PAM  EZ EP       1234 23.53                             148   -0.0610 81.2  37 
 PAM  EN ES       1234 40.36                             148   -0.1810 81.2  37 
 PAM  EZ I        1234 42.98        32.3 0.28            154           81.2  37 
 PTB  HZ EP       1234 27.34                             131   -0.85 9  147 261 
 PTB  HN ES       1234 47.92                             131   -0.80 9  147 261 
 PTB  HZ I        1234 51.15        27.2 0.17            130            147 261 
 ZAR  HZ EP       1234 34.04                             121   -0.01 8  206 293 
 ZAR  HN ISg      1234 59.60                             121    0.45 8  206 293 
 ZAR  HZ I        1235  4.77        27.8 0.33            122            206 293 
 NOR  HZ EP       1234 36.73                             117   -0.16 8  232 235 
 NOR  HN ES       1235  4.50                             117    0.28 8  232 235 
 NOR  HZ I        1235  7.44        17.1 0.23            118            232 235 
 CHI  HZ EP       1234 38.77                             116    0.09 8  244 195 
 CHI  HN ES   4   1235  9.46                             116    2.06 0  244 195 
 CHI  HZ I        1235 15.00         6.8 0.28            117            244 195 
 URE  HZ EP       1234 43.01                             112    0.22 7  286 293 
 URE  HN ES       1235 13.94                             112   -0.78 7  286 293 
 URE  HZ I        1235 25.73        16.2 0.14            113            286 293 
 ELA  HZ EP   4   1234 50.21                             109    2.15 0  326 230 
 ELA  HN ES   4   1235 23.08                             109   -1.02 0  326 230 
 ELA  HZ I        1235 31.77         9.1 0.49            110            326 230 
 CBOC HZ EP       1234 48.76                             109    0.44 7  332 253 
 CBOC HN ES       1235 24.52                             109   -0.04 7  332 253 
 CBOC HZ I        1235 28.46         3.9 0.22            110            332 253 
 PRA  HZ EP   4   1234 52.66                             105   -2.00 0  388 210 
 PRA  HN ES   4   1235 32.88                             105   -2.96 0  388 210 
 PRA  HZ I        1235 36.68         7.8 0.26            107            388 210 
 ORTC HZ EP       1234 55.81                             105    0.72 6  392 217 
 ORTC HN ES   4   1235 38.36                             105    1.74 0  392 217 
 ORTC HZ I        1235 43.73         6.5 0.44            106            392 217 
 PAL  HN ES       1235 39.65                             105    0.53 6  403 240 
 SJC  HZ EP   4   1234 55.85                             104   -1.82 0  413 327 
 SJC  HE ES   4   1235 36.49                             104   -4.70 0  413 327 
 SJC  HZ I        1235 40.25         5.9 0.34            106            413 327 
 CRJC HZ EP   4   1235  1.43                             102   -3.31 0  472   4 
 CRJC HE ES   4   1235 49.50                             102   -4.28 0  472   4 
                                                                                
