 2012  9 2 1803  8.7 L   7.379 -73.151 10.2  RSN  5 0.1 1.6LRSN                1
 GAP=181        0.37       2.6     1.4  3.2 -0.1797E+01  0.2894E+01 -0.4663E+01E
 Epicentro: RIONEGRO - SANTANDER                                               3
 ACTION:UPD 12-10-22 14:16 OP:ep   STATUS:               ID:20120902180308 L   I
 2012-09-02-1800-00M.COL___218                                                 6
 STAT SP IPHASW D HRMM SECON CODA AMPLIT PERI AZIMU VELO AIN AR TRES W  DIS CAZ7
 GIR2 SZ EP       18 3 14.42                             102   -0.1910 33.5 188 
 GIR2 SZ ES   1   18 3 19.23                             102    0.01 7 33.5 188 
 PAM  SZ EP   1   18 3 17.45                              98    0.01 7 50.0  95 
 PAM  SN ES   1   18 3 24.36                              98    0.10 7 50.0  95 
 PAM  SZ I        18 3 24.78        32.7 0.23                          50.0  95 
 BRR  HZ EP   1   18 3 19.81                              95    0.04 7 68.9 244 
 BRR  HN ES   1   18 3 28.56                              95    0.15 7 68.9 244 
 PTB  HE ES   1   18 3 55.49                              56    0.18 7  172 237 
 ZAR  HN ES   1   18 3 58.99                              56   -0.16 7  189 274 
 ZAR  HZ I        18 4  0.63         6.2 0.31                           189 274 
                                                                                
