 2016 12 2 1042 49.5 L   7.103 -73.327122.8  RSN  4 0.4 1.1LRSN                1
 GAP=145        0.89       6.7     4.6 10.0 -0.4202E+01  0.2904E+02 -0.1631E+02E
 Epicentro: LEBRIJA - SANTANDER                                                3
 ACTION:UPD 17-01-11 20:11 OP:rebc STATUS:               ID:20161202104249 L   I
 OLDACT:REG 16-12-02 20:36 OP:lv   STATUS:               ID:20161202103743     3
 2016-12-02-1038-00M.COL___337                                                 6
 STAT SP IPHASW D HRMM SECON CODA AMPLIT PERI AZIMU VELO AIN AR TRES W  DIS CAZ7
 BAR2 EZ EP       1043  8.18                             153    0.4110 58.8 164 
 BAR2 EZ ES       1043 22.04                             153   -0.0110 58.8 164 
 PAM  EE ES       1043 24.21                             147   -0.1410 74.1  69 
 PAM  EZ I        1043 25.42         3.1 0.14            152           74.1  69 
 PTB  HZ EP       1043 13.13                             128   -0.73 9  140 244 
 PTB  HE ES       1043 33.01                             128    0.13 9  140 244 
 PTB  HZ I        1043 35.71         2.0 0.10            130            140 244 
 ZAR  HZ EP       1043 17.72                             121    0.36 9  174 284 
 ZAR  HE ES       1043 39.10                             121   -0.02 9  174 284 
 ZAR  HZ I        1043 44.13         1.5 0.08            123            174 284 
                                                                                
