 2015  1 2 1439 20.7 L   6.783 -73.137147.3  RSN  9 0.5 2.1LRSN                1
 GAP=201        1.18       4.2     5.9  6.9  0.4837E+01  0.5330E+01 -0.3528E+01E
 Epicentro: LOS SANTOS - SANTANDER                                             3
 ACTION:UPD 15-03-02 15:36 OP:nd   STATUS:               ID:20150102143920 L   I
 OLDACT:UP  15-01-02 23:56 OP:cam  STATUS:               ID:20150102143818     3
 OLDACT:REG 15-01-02 20:20 OP:cam  STATUS:               ID:20150102143818     3
 2015-01-02-1438-18M.COL___277                                                 6
 STAT SP IPHASW D HRMM SECON CODA AMPLIT PERI AZIMU VELO AIN AR TRES W  DIS CAZ7
 BAR2 EZ EP     D 1439 40.55                             171    0.0710 21.7 193 
 BAR2 EZ ES       1439 55.66                             171   -0.2510 21.7 193 
 BAR2 EZ I        1439 57.12        29.2 0.16            168           21.7 193 
 BRR  HZ EP       1439 42.39                             152    0.2810 72.9 299 
 BRR  HN ES       1439 59.85                             152    1.0410 72.9 299 
 BRR  HN I        1440  0.20        46.3 0.48            149           72.9 299 
 RUS  HZ EP       1439 44.42                             145   -0.0410 98.7 177 
 RUS  HE ES       1440  2.77                             145   -0.2310 98.7 177 
 RUS  HZ I        1440  4.19        16.5 0.26            145           98.7 177 
 PTB  HZ EP       1439 47.61                             132   -0.24 9  148 260 
 PTB  HN ES       1440  8.51                             132   -0.51 9  148 260 
 PTB  HZ I        1440 15.22         8.8 0.72            130            148 260 
 SPBC HN ES       1440 11.38                             130   -0.12 9  162 220 
 SPBC HZ I        1440 14.14        21.9 0.28            129            162 220 
 ZAR  HZ EP       1439 54.38                             122    0.97 8  206 293 
 ZAR  HE ES       1440 18.56                             122   -0.36 8  206 293 
 ZAR  HZ I        1440 24.16         9.2 0.26            122            206 293 
 NOR  HZ EP       1439 56.85                             119    0.36 8  234 235 
 NOR  HN ES       1440 24.41                             119    0.01 8  234 235 
 NOR  HZ I        1440 30.13         6.8 0.18            118            234 235 
 SML  HZ EP       1439 57.30                             118   -0.33 8  246 335 
 SML  HN ES       1440 25.55                             118   -0.89 8  246 335 
 SML  HZ I        1440 29.73        13.6 0.10            118            246 335 
 CHI  HZ EP       1439 58.25                             118   -0.07 8  247 195 
                                                                                
