 2015  2 2 1507 12.4 L   6.821 -73.136142.1  RSN  7 0.3 1.7LRSN                1
 GAP=137        0.70       2.5     3.4  5.1 -0.2201E+00  0.7032E+01 -0.2119E+01E
 Epicentro: LOS SANTOS - SANTANDER                                             3
 ACTION:UPD 15-04-30 21:20 OP:nd   STATUS:               ID:20150202150712 L   I
 OLDACT:REG 15-02-02 22:54 OP:y    STATUS:               ID:20150202145816     3
 2015-02-02-1458-16M.COL___265                                                 6
 STAT SP IPHASW D HRMM SECON CODA AMPLIT PERI AZIMU VELO AIN AR TRES W  DIS CAZ7
 BAR2 EZ EP       15 7 31.74                             169    0.1410 25.8 191 
 BAR2 EZ ES       15 7 46.66                             169    0.0510 25.8 191 
 BAR2 EZ I        15 7 48.59         9.3 0.28            167           25.8 191 
 PAM  SN ES       15 7 51.01                             151    0.0710 74.9  40 
 PAM  SN I        15 7 52.88        11.9 0.24            157           74.9  40 
 RUS  HZ EP       15 7 36.28                             142    0.3610  103 177 
 RUS  HN ES       15 7 53.78                             142   -0.5110  103 177 
 RUS  HZ I        15 7 57.39         4.3 0.34            144            103 177 
 PTB  HZ EP       15 7 38.68                             131   -0.49 9  149 258 
 PTB  HN ES       15 8  0.04                             131   -0.03 9  149 258 
 PTB  HZ I        15 8  5.87         8.7 0.40            132            149 258 
 SPBC HZ EP       15 7 40.88                             128    0.06 9  166 219 
 SPBC HE ES       15 8  3.38                             128    0.37 9  166 219 
 SPBC HZ I        15 8 10.04        12.6 0.38            129            166 219 
 ZAR  HE ES       15 8  9.78                             121    0.08 9  204 291 
 SML  HZ EP       15 7 48.48                             117   -0.12 8  242 335 
 SML  HN ES       15 8 16.86                             117    0.00 8  242 335 
                                                                                
