 2010  2 2 1620 55.1 L   6.849 -73.185146.3  RSN  6 0.3 2.5LRSN                1
 GAP=123        0.64       5.5     8.4  7.0  0.1823E+02  0.1387E+02 -0.4592E+01E
 Epicentro: LOS SANTOS - SANTANDER                                             3
 ACTION:UP  10-08-24 09:47 OP:vdl  STATUS:               ID:20100202162055 L   I
 2010-02-02-1620-00S.COL___094                                                 6
 STAT SP IPHASW D HRMM SECON CODA AMPLIT PERI AZIMU VELO SNR AR TRES W  DIS CAZ7
 BAR2 SZ IP       1621 15.27                             169     0.410   29 180 
 BAR2 SZ ES   1   1621 30.32                             169     0.0 7   29 180 
 RUS  BZ IP       1621 19.23                             142    -0.110  106 174 
 RUS  BZ I        1621 20.37        24.6 0.19                           106 174 
 RUS  BN ES   1   1621 37.80                             142    -0.4 7  106 174 
 CHI  HE ES   2   1622  3.16                             117     0.1 4  253 194 
 CHI  HZ I        1622  9.94        22.6 0.44                           253 194 
 MON  HN ES   1   1622 20.58                             109    -0.3 5  346 308 
 MON  HZ I        1622 36.13         7.2 0.64                           346 308 
 SDV  BZ EP   2   1621 44.76                             108    -0.4 3  360  51 
 PRA  HZ EP   1   1621 49.01                             106     0.1 4  395 209 
 PRA  HZ I        1622 35.70        26.7 0.75                           395 209 
                                                                                
