 2017 11 2 1938 51.8 L   6.762 -73.193156.8  RSN  5 0.6 1.9LRSN                1
 GAP=132        1.01       6.7     6.4  9.1  0.1171E+02 -0.8355E+01 -0.1571E+02E
 Epicentro: LOS SANTOS - SANTANDER                                             3
 ACTION:UPD 17-12-12 19:51 OP:rebc STATUS:               ID:20171102193851 L   I
 OLDACT:UP  17-11-03 00:50 OP:dani STATUS:               ID:20171102192742     3
 OLDACT:UP  17-11-03 00:46 OP:dani STATUS:               ID:20171102192742     3
 OLDACT:UP  17-11-03 00:45 OP:dani STATUS:               ID:20171102192742     3
 OLDACT:UP  17-11-03 00:45 OP:dani STATUS:               ID:20171102192742     3
 OLDACT:UP  17-11-03 00:44 OP:dani STATUS:               ID:20171102192742     3
 OLDACT:UP  17-11-03 00:43 OP:dani STATUS:               ID:20171102192742     3
 OLDACT:REG 17-11-02 20:58 OP:mg   STATUS:               ID:20171102192742     3
 2017-11-02-1928-00M.COL___444                                                 6
 STAT SP IPHASW D HRMM SECON CODA AMPLIT PERI AZIMU VELO AIN AR TRES W  DIS CAZ7
 BRR  HZ EP       1939 14.59                             155    0.5910 68.8 304 
 BRR  HE ES       1939 31.51                             155    0.1710 68.8 304 
 BRR  HZ I        1939 36.99        24.6 0.25            151           68.8 304 
 PAM  HZ EP       1939 15.60                             150    0.0410 84.0  41 
 PAM  EE ES   3   1939 32.41                             150   -1.69 2 84.0  41 
 PAM  HZ I        1939 34.57        15.7 0.46            153           84.0  41 
 RUS  HZ EP       1939 16.76                             147    0.3810 97.0 173 
 RUS  HN ES       1939 35.23                             147   -0.3410 97.0 173 
 PTB  HZ EP   1   1939 18.40                             136   -0.75 7  142 260 
 PTB  HN ES       1939 40.58                             136    0.08 9  142 260 
 PTB  HZ I        1939 45.38         4.2 0.10            135            142 260 
 ZAR  HZ EP       1939 24.14                             125   -0.50 9  201 294 
 ZAR  HE ES   3   1939 48.66                             125   -1.61 2  201 294 
 ZAR  HZ I        1939 57.04         9.7 0.46            125            201 294 
                                                                                
