 2013  4 2 1002 42.8 L   6.804 -73.175152.2  RSN  6 0.4 1.4LRSN                1
 GAP=133        0.80       4.9     5.3  7.0 -0.1423E+01  0.4090E+01 -0.6929E+01E
 Epicentro: LOS SANTOS - SANTANDER                                             3
 ACTION:UPD 13-05-22 14:35 OP:EP   STATUS:               ID:20130402100242 L   I
 2013-04-02-0959-51M.COL___212                                                 6
 STAT SP IPHASW D HRMM SECON CODA AMPLIT PERI AZIMU VELO AIN AR TRES W  DIS CAZ7
 BAR2 SZ EP   1   10 3  3.29                             171    0.08 7 23.4 182 
 BAR2 SZ ES   1   10 3 18.95                             171   -0.17 7 23.4 182 
 BAR2 SZ I        10 3 19.81        11.3 0.28            171           23.4 182 
 BRR  HZ EP   1   10 3  4.55                             155    0.06 7 68.1 300 
 BRR  HN ES   1   10 3 22.24                             155    0.84 7 68.1 300 
 PAM  SZ IP     C 10 3  6.21                             151    0.4010 79.2  42 
 PAM  SE ES   1   10 3 23.06                             151   -0.70 7 79.2  42 
 PAM  SZ I        10 3 25.20         3.7 0.44            155           79.2  42 
 RUS  HZ EP   1   10 3  7.36                             145    0.12 7  101 174 
 RUS  HE ES   1   10 3 26.23                             145   -0.07 7  101 174 
 RUS  HZ I        10 3 27.00         3.5 0.22            147            101 174 
 PTB  HZ EP   1   10 3  9.69                             134   -0.34 7  145 258 
 PTB  HN ES   1   10 3 30.88                             134   -0.38 7  145 258 
 PTB  HZ I        10 3 36.63         2.7 0.26            133            145 258 
 SML  HZ EP   1   10 3 19.42                             119   -0.20 6  242 336 
 SML  HN ES   2   10 3 47.98                             119   -0.35 4  242 336 
                                                                                
