 2010  8 2 1151 59.1 L   6.753 -73.090151.1  RSN  6 0.4 2.0LRSN                1
 GAP=171        0.86       6.4    14.1 11.2  0.1733E+02 -0.2728E+02 -0.2141E+02E
 Epicentro: LOS SANTOS - SANTANDER                                             3
 ACTION:UP  10-09-07 10:51 OP:vdl  STATUS:               ID:20100802115159 L   I
 2010-08-02-1148-59S.COL___123                                                 6
 STAT SP IPHASW D HRMM SECON CODA AMPLIT PERI AZIMU VELO SNR AR TRES W  DIS CAZ7
 BAR2 SZ IP       1152 19.48                             173     0.210   21 210 
 BAR2 SZ ES   2   1152 34.76                             173    -0.3 5   21 210 
 BRR  HZ EP   1   1152 21.56                             152     0.3 7   79 300 
 BRR  HN ES   2   1152 39.02                             152     0.4 5   79 300 
 BRR  HZ I        1152 39.79        27.5 0.10                            79 300 
 RUS  HZ EP   1   1152 23.25                             147     0.2 7   95 180 
 RUS  HE ES   2   1152 41.40                             147    -0.3 5   95 180 
 RUS  HZ I        1152 43.24         8.3 0.23                            95 180 
 GUE  SZ EP   1   1152 23.95                             139    -0.7 7  121   9 
 OCA  SZ EP   1   1152 28.81                             130     0.4 7  166 351 
 OCA  SZ ES   2   1152 50.84                             130    -0.4 5  166 351 
 OCA  SZ I        1152 55.74        12.5 0.35                           166 351 
 HEL  HZ EP   2   1152 39.05                             116    -1.1 4  277 257 
 HEL  HZ I        1153 18.49         4.6 0.34                           277 257 
                                                                                
