 2016  8 2 1828  3.3 L   6.753 -73.178148.5  RSN  4 0.2 1.6LRSN                1
 GAP=240        0.57       5.5     4.8  7.4  0.1779E+02 -0.9386E+01 -0.1854E+02E
 Epicentro: LOS SANTOS - SANTANDER                                             3
 ACTION:UPD 16-10-29 15:31 OP:rebc STATUS:               ID:20160802182803 L   I
 OLDACT:DUP 16-08-02 23:40 OP:dani STATUS:               ID:20160802181760d    3
 2016-08-02-1817-59S.COL___340                                                 6
 STAT SP IPHASW D HRMM SECON CODA AMPLIT PERI AZIMU VELO AIN AR TRES W  DIS CAZ7
 RUS  HZ EP       1828 26.81                             146   -0.1810 95.8 174 
 RUS  HE ES       1828 45.56                             146    0.1010 95.8 174 
 RUS  HZ I        1828 46.58         4.8 0.34                          95.8 174 
 PTB  HZ EP       1828 30.12                             134    0.02 9  143 261 
 PTB  HE ES       1828 51.25                             134    0.25 9  143 261 
 PTB  HZ I        1828 52.51         3.9 0.14                           143 261 
 SPBC HZ EP       1828 31.72                             131    0.29 9  157 219 
 SPBC HN ES       1828 53.06                             131   -0.31 9  157 219 
 SPBC HZ I        1828 56.49        10.2 0.24                           157 219 
 ZAR  HN ES       1829  0.95                             123   -0.19 9  203 294 
                                                                                
