 2015  4 2 1036 53.9 L   6.821 -73.185137.6  RSN 12 0.4 1.9LRSN                1
 GAP=131        0.98       2.6     3.7  5.3 -0.5924E+00  0.5037E+01 -0.1716E+01E
 Epicentro: ZAPATOCA - SANTANDER                                               3
 ACTION:UPD 15-06-03 16:51 OP:cam  STATUS:               ID:20150402103653 L   I
 OLDACT:DUP 15-04-02 22:25 OP:fm   STATUS:               ID:20150402102744d    3
 2015-04-02-1027-43M.COL___277                                                 6
 STAT SP IPHASW D HRMM SECON CODA AMPLIT PERI AZIMU VELO AIN AR TRES W  DIS CAZ7
 BAR2 EZ EP       1037 12.72                             169    0.1010 25.3 179 
 BAR2 EZ ES       1037 27.25                             169    0.0510 25.3 179 
 BAR2 EZ I        1037 28.59        14.9 0.30            169           25.3 179 
 BRR  HZ EP       1037 14.52                             153    0.6010 66.3 299 
 BRR  HN ES       1037 30.18                             153    0.6710 66.3 299 
 BRR  HZ I        1037 35.79        13.8 0.38            149           66.3 299 
 PAM  SZ EP       1037 15.57                             149    0.2210 78.5  43 
 RUS  HZ EP       1037 16.86                             141   -0.2410  103 174 
 RUS  HN ES       1037 34.67                             141   -0.4910  103 174 
 RUS  HZ I        1037 37.20         9.4 0.40            146            103 174 
 PTB  HZ EP       1037 19.32                             131   -0.58 9  144 258 
 PTB  HE ES       1037 39.74                             131   -0.41 9  144 258 
 PTB  HZ I        1037 44.03        11.4 0.12            131            144 258 
 OCA  HZ EP   1   1037 21.77                             128    0.42 7  157 355 
 OCA  HN ES       1037 42.07                             128   -0.66 9  157 355 
 OCA  HZ I        1037 45.81        16.8 0.24            130            157 355 
 SPBC HZ EP       1037 21.78                             127    0.04 9  162 217 
 SPBC HE ES       1037 43.43                             127    0.01 9  162 217 
 SPBC HZ I        1037 48.80        14.9 0.22            129            162 217 
 ZAR  HZ EP       1037 25.71                             121    0.37 9  199 292 
 ZAR  HN ES       1037 49.97                             121    0.13 9  199 292 
 ZAR  HZ I        1037 59.91         9.5 0.32            122            199 292 
 NOR  HZ EP       1037 29.44                             117    0.47 8  233 233 
 NOR  HE ES       1037 56.38                             117    0.08 8  233 233 
 NOR  HZ I        1037 59.56         4.9 0.70            119            233 233 
 SML  HZ EP       1037 29.75                             116    0.07 8  240 336 
 SML  HE ES       1037 57.35                             116   -0.21 8  240 336 
 SML  HZ I        1038  0.87         7.2 0.10            118            240 336 
 URE  HZ EP       1037 34.02                             112   -0.04 7  279 292 
 URE  HN ES       1038  4.65                             112   -0.71 7  279 292 
 URE  HZ I        1038 16.92         5.2 0.16            114            279 292 
 GUY2CHZ EP       1037 36.48                             111   -0.45 7  299 234 
 GUY2CHE ES       1038 11.01                             111    0.54 7  299 234 
 GUY2CHZ I        1038 18.92         3.0 0.68                           299 234 
                                                                                
