 2012  3 2 1640 41.6 L   6.745 -73.157150.0  RSN  4 0.3 1.7LRSN                1
 GAP=232        0.70       8.6    10.4  9.5  0.5090E+02 -0.7807E+01 -0.2450E+02E
 ACTION:UP  12-03-31 23:16 OP:EP   STATUS:               ID:20120302164041 L   I
 2012-03-02-1640-00M.COL___191                                                 6
 STAT SP IPHASW D HRMM SECON CODA AMPLIT PERI AZIMU VELO SNR AR TRES W  DIS CAZ7
 BAR2 SZ EP   1   1641  1.54                             173    -0.1 7   17 189 
 BAR2 SZ I        1641  1.83         9.8 0.10                            17 189 
 BAR2 SZ ES   1   1641 16.87                             173    -0.4 7   17 189 
 BRR  HZ EP       1641  3.39                             152     0.010   73 303 
 BRR  HZ I        1641  3.64        25.5 0.16                            73 303 
 BRR  HE ES   1   1641 20.63                             152     0.3 7   73 303 
 RUS  HE ES   1   1641 24.23                             146     0.3 7   95 175 
 RUS  HZ I        1641 25.43         3.7 0.32                            95 175 
 PTB  HN ES   2   1641 29.49                             133    -0.4 5  145 261 
                                                                                
