 2011 12 2 1438  0.3 L   6.743 -73.131140.8  RSN  5 0.2 1.7LRSN                1
 GAP=141        0.59       4.5     7.5  6.7  0.1290E+02 -0.2071E+02 -0.9911E+01E
 Epicentro: JORDAN - SANTANDER                                                 3
 ACTION:UPD 12-07-13 16:13 OP:ep   STATUS:               ID:20111202143800 L   I
 2011-12-02-1430-00M.COL___180                                                 6
 STAT SP IPHASW D HRMM SECON CODA AMPLIT PERI AZIMU VELO AIN AR TRES W  DIS CAZ7
 BAR2 SZ EP       1438 19.40                             173    0.2110 17.7 199 
 BAR2 SZ ES   1   1438 33.64                             173   -0.31 7 17.7 199 
 BAR2 SZ I        1438 35.07        12.3 0.28                          17.7 199 
 GIR2 SZ EP       1438 19.41                             164   -0.1310 37.7 349 
 BRR  HZ EP       1438 21.24                             150    0.1010 75.7 302 
 BRR  HZ I        1438 21.52        22.8 0.26                          75.7 302 
 BRR  HN ES   1   1438 37.41                             150   -0.02 7 75.7 302 
 PAM  SZ EP       1438 22.31                             148    0.1210 81.3  36 
 PAM  SZ I        1438 41.80         4.7 0.48                          81.3  36 
 RUS  HZ EP       1438 22.73                             145   -0.3310 94.2 177 
 RUS  HN ES   1   1438 41.24                             145    0.39 7 94.2 177 
                                                                                
