 2015  9 2 1345 13.6 L   6.832 -73.136143.8  RSN 11 0.4 1.8LRSN                1
 GAP=202        0.90       2.7     4.4  5.0  0.1823E+01  0.4661E+01  0.8373E+00E
 Epicentro: LOS SANTOS - SANTANDER                                             3
 ACTION:UPD 15-10-28 16:23 OP:cam  STATUS:               ID:20150902134513 L   I
 OLDACT:REG 15-09-02 21:28 OP:ak   STATUS:               ID:20150902133746     3
 2015-09-02-1337-46M.COL___334                                                 6
 STAT SP IPHASW D HRMM SECON CODA AMPLIT PERI AZIMU VELO AIN AR TRES W  DIS CAZ7
 BAR2 EZ EP       1345 33.46                             169    0.3610 27.0 191 
 BAR2 EZ ES       1345 47.80                             169   -0.4910 27.0 191 
 BAR2 EZ I        1345 49.76        28.4 0.22            165           27.0 191 
 BRR  HZ EP       1345 35.32                             152    0.8010 70.5 296 
 BRR  HN ES       1345 51.31                             152    0.4910 70.5 296 
 BRR  HZ I        1345 55.84        16.3 0.25            150           70.5 296 
 RUS  HZ EP       1345 37.39                             142   -0.0510  104 177 
 RUS  HN ES       1345 55.98                             142   -0.0410  104 177 
 RUS  HZ I        1345 59.01         3.4 0.16            144            104 177 
 PTB  HZ EP       1345 40.41                             131   -0.18 9  150 258 
 PTB  HN ES       1346  1.30                             131   -0.33 9  150 258 
 PTB  HZ I        1346  8.72         8.0 0.32            131            150 258 
 SPBC HZ EP       1345 42.39                             128    0.09 9  167 218 
 SPBC HN ES       1346  4.45                             128   -0.22 9  167 218 
 SPBC HZ I        1346 14.52        10.1 0.07            129            167 218 
 ZAR  HZ EP       1345 45.74                             122   -0.17 9  204 291 
 ZAR  HE ES       1346 10.66                             122   -0.43 9  204 291 
 ZAR  HZ I        1346 16.76         5.9 0.24            123            204 291 
 SML  HZ EP       1345 49.57                             117   -0.27 8  241 335 
 SML  HN ES       1346 18.06                             117   -0.02 8  241 335 
 CHI  HZ EP   1   1345 51.48                             116   -0.14 6  252 195 
 CHI  HN ES       1346 21.14                             116   -0.12 8  252 195 
 CHI  HZ I        1346 23.44         2.6 0.08            119            252 195 
 GUY2CHZ EP   1   1345 57.02                             112   -0.45 5  304 234 
 GUY2CHN ES       1346 31.93                             112    0.25 7  304 234 
 GUY2CHZ I        1346 39.45         2.5 0.38                           304 234 
 TOL  SN ES       1346 40.66                             109    0.61 6  347 224 
 PRA  HZ EP       1346  6.71                             106   -0.79 6  396 209 
 PRA  HE ES       1346 50.18                             106    0.65 6  396 209 
 PRA  HZ I        1346 52.35         3.0 0.54            108            396 209 
                                                                                
