 2011  5 2 1743 52.8 L   6.793 -73.130147.4  RSN 14 0.4 2.6LRSN                1
 GAP=116        0.97       3.2     5.1  6.3 -0.2542E+01  0.7214E+01  0.4785E+01E
 Epicentro: LOS SANTOS - SANTANDER                                             3
 ACTION:UP  11-06-29 08:50 OP:tino STATUS:               ID:20110502174352 L   I
 2011-05-02-1741-23S.COL___133                                                 6
 STAT SP IPHASW D HRMM SECON CODA AMPLIT PERI AZIMU VELO SNR AR TRES W  DIS CAZ7
 BAR2 SZ IP       1744 12.47                             171    -0.210   23 195 
 BAR2 SZ ES   1   1744 27.54                             171    -0.5 7   23 195 
 BAR2 SZ I        1744 29.30       124.2 0.29                            23 195 
 GIR2 SZ EP       1744 12.69                             167     0.010   32 347 
 BRR  HZ EP       1744 14.37                             152     0.110   73 298 
 BRR  HN ES   1   1744 31.81                             152     0.9 7   73 298 
 BRR  HZ I        1744 33.50       134.9 0.16                            73 298 
 PAM  SZ EP   1   1744 15.28                             151     0.1 7   77  38 
 PAM  SN ES   1   1744 32.61                             151     0.0 7   77  38 
 RUS  HZ EP       1744 16.30                             144    -0.410  100 177 
 RUS  HN ES   1   1744 35.04                             144    -0.2 7  100 177 
 RUS  HZ I        1744 36.73        22.2 0.16                           100 177 
 BRI  SZ EP       1744 17.02                             142     0.210  109  20 
 BRI  SZ ES   1   1744 35.33                             142    -0.3 7  109  20 
 BRI  SZ I        1744 38.96        36.2 0.48                           109  20 
 GRA  SZ IP       1744 18.28                             137     0.110  126  17 
 GRA  SZ ES   1   1744 38.27                             137     0.2 7  126  17 
 GRA  SZ I        1744 43.93        44.9 0.23                           126  17 
 OCA  SZ EP   1   1744 20.75                             130    -0.6 7  161 353 
 OCA  SZ ES   1   1744 43.61                             130     0.0 7  161 353 
 OCA  SZ I        1744 47.38        67.7 0.48                           161 353 
 YOP  SZ EP       1744 22.80                             127     0.0 9  177 154 
 YOP  SN ES   1   1744 47.06                             127     0.8 7  177 154 
 YOP  SZ I        1744 50.95        15.8 0.62                           177 154 
 NOR  SZ EP       1744 28.32                             119    -0.4 8  236 235 
 HEL  HE ES   1   1745  4.31                             115    -0.5 6  274 256 
 RREF HZ EP   1   1744 40.24                             111     1.1 5  323 230 
 RREF HZ I        1745 25.01        40.1 0.43                           323 230 
 TOL  SZ EP   1   1744 41.97                             109     0.8 5  344 225 
 PRA  HZ EP   1   1744 45.91                             107    -0.5 4  392 210 
 PRA  HN ES   1   1745 28.75                             107     0.5 4  392 210 
                                                                                
