 2011 12 2 1430 45.7 L   6.789 -73.085150.9  RSN  5 0.4 1.6LRSN                1
 GAP=145        0.84       6.2     8.5  8.4 -0.3125E+01 -0.2429E+01 -0.7941E+01E
 Epicentro: LOS SANTOS - SANTANDER                                             3
 ACTION:UPD 12-07-13 16:13 OP:ep   STATUS:               ID:20111202143045 L   I
 2011-12-02-1430-00M.COL___180                                                 6
 STAT SP IPHASW D HRMM SECON CODA AMPLIT PERI AZIMU VELO AIN AR TRES W  DIS CAZ7
 BAR2 SZ EP       1431  6.15                             171    0.1610 24.3 206 
 BAR2 SZ ES   1   1431 21.19                             171   -0.60 7 24.3 206 
 BAR2 SZ I        1431 22.42         8.6 0.40                          24.3 206 
 GIR2 SZ EP       1431  5.53                             167   -0.5510 34.2 339 
 PAM  SZ EP       1431  8.48                             153    0.1710 74.3  35 
 PAM  SN ES   1   1431 26.18                             153    0.25 7 74.3  35 
 BRR  HZ EP       1431  7.69                             151   -0.1110 77.7 297 
 BRR  HZ I        1431  8.23        14.3 0.16                          77.7 297 
 BRR  HN ES   1   1431 25.55                             151    0.53 7 77.7 297 
 RUS  HZ EP   2   1431 10.44                             145    0.56 5 99.1 180 
 RUS  HN ES   1   1431 28.87                             145    0.15 7 99.1 180 
 RUS  HZ I        1431 30.33         2.7 0.38                          99.1 180 
                                                                                
