 2010 12 2 1751 15.0 L   7.244 -73.718 19.1  RSN  6 0.2 1.7LRSN                1
 GAP=204        0.41       1.5     5.1  2.3 -0.3403E+01 -0.6910E+01  0.8204E+00E
 Epicentro: PUERTO WILCHES - SANTANDER                                         3
 ACTION:UP  11-01-14 15:22 OP:pat  STATUS:               ID:20101202175115 L   I
 2010-12-02-1747-32S.COL___132                                                 6
 STAT SP IPHASW D HRMM SECON CODA AMPLIT PERI AZIMU VELO SNR AR TRES W  DIS CAZ7
 BRR  HZ IP     C 1751 18.90                             140    -0.110   15 178 
 BRR  HE ES   1   1751 22.22                             140     0.1 7   15 178 
 BRR  HZ I        1751 22.44       167.2 0.06                            15 178 
 GIR2 SZ EP   1   1751 25.43                             105     0.2 7   61 107 
 BAR2 SZ EP   2   1751 29.83                             100    -0.4 5   93 141 
 BAR2 SZ I        1751 45.27        11.6 0.33                            93 141 
 GUE  SZ EP   1   1751 32.59                              98     0.0 7  109  53 
 OCA  SZ EP   1   1751 33.96                              98     0.1 7  119  22 
 OCA  SZ ES   1   1751 48.57                              98     0.0 7  119  22 
 OCA  SZ I        1751 51.18        30.9 0.39                           119  22 
 RUS  HZ EP   1   1751 40.47                              56     0.2 7  165 155 
 RUS  HE ES   1   1751 59.76                              56    -0.1 7  165 155 
 RUS  HZ I        1752  3.34         5.2 0.08                           165 155 
                                                                                
