 2011  3 2 1047 30.1 L   6.816 -73.459132.0  RSN  6 0.3 1.9LRSN                1
 GAP=161        0.65       3.5    15.1  8.9 -0.2747E+02  0.8632E+02 -0.1500E+02E
 Epicentro: SAN VICENTE DE CHUCURI - SANTANDER                                 3
 ACTION:UP  11-06-16 14:31 OP:jfem STATUS:               ID:20110302104729 L   I
 2011-03-02-1044-22S.COL___136                                                 6
 STAT SP IPHASW D HRMM SECON CODA AMPLIT PERI AZIMU VELO SNR AR TRES W  DIS CAZ7
 BAR2 SZ EP       1047 48.58                             163     0.010   39 129 
 BAR2 SZ ES   1   1048  3.18                             163     0.2 7   39 129 
 BAR2 SZ I        1048  6.64        22.2 0.42                            39 129 
 RUS  HZ EP   1   1047 52.79                             138    -0.5 7  110 158 
 RUS  HN ES   1   1048 11.34                             138     0.0 7  110 158 
 RUS  HZ I        1048 12.44         9.1 0.21                           110 158 
 GRA  SZ IP       1047 55.33                             131     0.0 9  139  31 
 GRA  SZ I        1047 56.52        15.8 0.32                           139  31 
 GRA  SZ ES   1   1048 15.30                             131     0.3 7  139  31 
 OCA  SZ EP   1   1047 56.77                             127    -0.4 7  158   6 
 OCA  SZ ES   2   1048 18.30                             127     0.0 5  158   6 
 OCA  SZ I        1048 25.04        11.6 0.31                           158   6 
 CHI  HZ EP   3   1048  6.62                             115     0.1 2  244 187 
 CHI  HE ES   2   1048 35.13                             115     0.2 4  244 187 
 PRA  HZ EP   2   1048 22.65                             105     1.2 3  378 205 
                                                                                
