 2012  5 2 1335  4.3 L   6.179 -73.678107.4  RSN  7 0.5 1.7LRSN                1
 GAP=132        1.05       4.7     6.0 13.1  0.1226E+01  0.2401E+02  0.3549E+02E
 Epicentro: LA PAZ - SANTANDER                                                 3
 ACTION:UP  12-07-05 12:01 OP:pat  STATUS:               ID:20120502133504 L   I
 2012-05-02-1330-00M.COL___189                                                 6
 STAT SP IPHASW D HRMM SECON CODA AMPLIT PERI AZIMU VELO SNR AR TRES W  DIS CAZ7
 BAR2 SZ EP   1   1335 21.61                             144    -0.2 7   71  50 
 BAR2 SZ ES   1   1335 35.55                             144     0.1 7   71  50 
 BAR2 SZ I        1335 36.64        41.8 0.17                            71  50 
 PTB  HZ EP   1   1335 24.06                             135     0.7 7   95 295 
 PTB  HN ES   1   1335 37.31                             135    -0.9 7   95 295 
 PTB  HZ I        1335 40.21         4.6 0.11                            95 295 
 BRR  HZ EP   1   1335 23.53                             132    -0.5 7  103 358 
 BRR  HZ I        1335 36.25        10.2 0.12                           103 358 
 BRR  HN ES   1   1335 39.96                             132     0.6 7  103 358 
 CHI  HZ EP   1   1335 31.00                             117    -0.5 7  171 182 
 CHI  HN ES   1   1335 52.97                             117     0.3 7  171 182 
 ZAR  HN ES   1   1335 56.81                             113     0.4 6  195 318 
 ZAR  HZ I        1335 58.17         7.9 0.31                           195 318 
 RREF HZ EP   1   1335 38.42                             109    -0.2 6  233 233 
 RREF HN ES   1   1336  5.54                             109     0.1 6  233 233 
 RREF HZ I        1336  9.33         3.5 0.31                           233 233 
 PRA  HZ EP   1   1335 45.92                             103    -0.3 5  304 206 
 PRA  HN ES   1   1336 19.45                             103     0.6 5  304 206 
                                                                                
