 2010  9 2 1240 18.7 L   6.744 -73.150139.8  RSN  4 0.2 1.8LRSN                1
 GAP=159        0.57       4.1     7.7  6.5 -0.6952E+01 -0.2291E+01 -0.7126E+01E
 Epicentro: JORDAN - SANTANDER                                                 3
 ACTION:UP  11-02-18 10:59 OP:tino STATUS:               ID:20100902124018 L   I
 2010-09-02-1238-09S.COL___120                                                 6
 STAT SP IPHASW D HRMM SECON CODA AMPLIT PERI AZIMU VELO SNR AR TRES W  DIS CAZ7
 BAR2 SZ IP       1240 37.38                             173    -0.210   17 192 
 BAR2 SZ ES   1   1240 51.99                             173    -0.2 7   17 192 
 BAR2 SZ I        1240 54.83        18.4 0.37                            17 192 
 BRR  HZ IP     C 1240 39.29                             151    -0.110   74 303 
 BRR  HN ES   2   1240 55.88                             151     0.3 5   74 303 
 BRR  HZ I        1241  0.37        13.4 0.09                            74 303 
 RUS  HZ EP   2   1240 41.40                             144    -0.1 5   94 176 
 RUS  HN ES   2   1240 59.70                             144     0.5 5   94 176 
 RUS  HZ I        1241  0.99         9.7 0.26                            94 176 
 GRA  SZ IP       1240 44.21                             134     0.210  132  17 
 GRA  SZ ES   1   1241  3.68                             134     0.0 7  132  17 
 GRA  SZ I        1241  5.11         9.0 0.25                           132  17 
                                                                                
