 2017  8 2 1139 40.1 L   7.534 -73.173128.4  RSN  8 0.6 1.7LRSN                1
 GAP=240        1.12       6.9     5.8  7.2 -0.7081E+01  0.1052E+02  0.7535E+01E
 Epicentro: EL PLAYON - SANTANDER                                              3
 ACTION:UPD 17-09-04 20:15 OP:rebc STATUS:               ID:20170802113940 L   I
 OLDACT:REG 17-08-02 21:04 OP:dhb  STATUS:               ID:20170802113739     3
 2017-08-02-1138-00M.COL___389                                                 6
 STAT SP IPHASW D HRMM SECON CODA AMPLIT PERI AZIMU VELO AIN AR TRES W  DIS CAZ7
 PAM  EZ IP     C 1139 59.76                             155    0.5410 56.5 112 
 PAM  EE ES       1140 14.50                             155    0.3310 56.5 112 
 PAM  EZ I        1140 18.15        13.0 0.46            148           56.5 112 
 BRR  HZ IP     C 1139 59.58                             148   -0.0810 75.9 232 
 BRR  HN ES       1140 15.03                             148    0.0810 75.9 232 
 BRR  HZ I        1140 16.04        16.5 0.14            142           75.9 232 
 BAR2 EZ IP     D 1140  1.87                             139   -0.2010  104 181 
 BAR2 EZ ES       1140 18.84                             139   -0.4010  104 181 
 BAR2 EZ I        1140 20.09         9.9 0.16            132            104 181 
 PTB  HZ EP   1   1140  7.95                             122   -0.89 7  179 232 
 PTB  HN ES       1140 30.85                             122   -0.44 9  179 232 
 PTB  HZ I        1140 33.08         2.9 0.06            120            179 232 
 RUS  HZ EP       1140  9.25                             122   -0.46 9  182 177 
 RUS  HN ES       1140 32.67                             122   -0.17 9  182 177 
 RUS  HZ I        1140 37.57         2.3 0.21            118            182 177 
 NOR  HZ EP       1140 21.65                             110    0.84 7  288 221 
 NOR  HN ES   2   1140 54.24                             110    1.64 4  288 221 
 NOR  HZ I        1140 58.28         6.6 0.28            109            288 221 
 CHI  HZ EP       1140 25.41                             107   -0.44 7  327 191 
 CHI  HN ES       1141  2.55                             107    0.99 7  327 191 
 CHI  HZ I        1141 16.37         2.1 0.27            106            327 191 
 GUY2CHZ EP       1140 28.95                             105    0.09 6  352 224 
 GUY2CHN ES   4   1141 10.58                             105    3.65 0  352 224 
 GUY2CHZ I        1141 16.53         2.3 0.62                           352 224 
                                                                                
