 2012  2 2 1554 34.2 L   6.774 -73.154146.0  RSN 11 0.2 2.4LRSN                1
 GAP=137        0.55       2.2     2.5  3.3 -0.3411E+00  0.2259E+01  0.1713E+01E
 ACTION:UP  12-03-07 16:26 OP:epov STATUS:               ID:20120202155434 L   I
 2012-02-02-1550-00M.COL___187                                                 6
 STAT SP IPHASW D HRMM SECON CODA AMPLIT PERI AZIMU VELO SNR AR TRES W  DIS CAZ7
 BAR2 SZ EP       1554 53.78                             172   -0.0110 20.3 189 
 BAR2 SZ ES       1555  8.90                             172   -0.1810 20.3 189 
 BAR2 SZ I        1555 10.93        56.7 0.35                          20.3 189 
 GIR2 SZ EP       1554 53.92                             166   -0.0410 34.0 353 
 BRR  HZ EP       1554 55.68                             152    0.2810 71.9 301 
 BRR  HN ES       1555 12.48                             152    0.5410 71.9 301 
 BRR  HZ I        1555 16.25        51.3 0.10                          71.9 301 
 PAM  SZ EP       1554 56.60                             150    0.0010 80.2  39 
 PAM  SN ES       1555 13.81                             150   -0.2710 80.2  39 
 RUS  HZ EP       1554 57.74                             145   -0.0210 97.7 175 
 RUS  HN ES       1555 16.19                             145    0.0510 97.7 175 
 RUS  HZ I        1555 18.21        32.9 0.47                          97.7 175 
 PTB  HZ EP   1   1555  0.73                             132   -0.32 7  146 260 
 PTB  HE ES   1   1555 21.57                             132   -0.42 7  146 260 
 ZAR  HZ EP   1   1555  6.48                             122   -0.20 6  204 293 
 ZAR  HE ES   1   1555 31.73                             122   -0.29 6  204 293 
 ZAR  HZ I        1555 37.50        34.4 0.41                           204 293 
 NOR  SZ EP       1555  9.81                             119    0.14 8  232 235 
 NOR  SN ES   1   1555 37.28                             119   -0.07 6  232 235 
 CHI  HZ EP       1555 11.82                             117    0.25 8  246 195 
 CHI  HN ES   1   1555 40.72                             117   -0.01 6  246 195 
 CHI  HZ I        1555 47.13        14.7 0.58                           246 195 
 HEL  HZ EP   2   1555 14.33                             115    0.09 4  271 256 
 HEL  HZ I        1555 52.00        15.2 0.28                           271 256 
 PRA  HZ EP   1   1555 27.51                             107    0.14 4  389 210 
 PRA  HE ES   1   1556  8.60                             107   -0.25 4  389 210 
                                                                                
