 2015  5 2 1859  3.3 L   5.898 -73.788106.9  RSN  9 0.5 1.7LRSN                1
 GAP= 87        1.23       3.5     3.7  8.0 -0.2897E+01  0.1095E+02 -0.3583E+01E
 Epicentro: SUCRE - SANTANDER                                                  3
 ACTION:UPD 15-09-10 22:00 OP:cam  STATUS:               ID:20150502185903 L   I
 OLDACT:REG 15-05-02 21:09 OP:ak   STATUS:               ID:20150502185749     3
 2015-05-02-1857-49M.COL___264                                                 6
 STAT SP IPHASW D HRMM SECON CODA AMPLIT PERI AZIMU VELO AIN AR TRES W  DIS CAZ7
 SPBC HZ EP       1859 19.07                             157    0.3010 41.5 229 
 SPBC HN ES       1859 30.90                             157    0.0810 41.5 229 
 SPBC HZ I        1859 33.32        28.2 0.15            155           41.5 229 
 RUS  HZ EP       1859 21.72                             142    0.0810 78.1  90 
 RUS  HN ES       1859 36.05                             142    0.1210 78.1  90 
 RUS  HZ I        1859 37.70         5.1 0.25            145           78.1  90 
 BAR2 EZ IP     D 1859 23.48                             133    0.2110  102  41 
 BAR2 EZ ES       1859 38.59                             133   -0.2410  102  41 
 NOR  HZ EP     C 1859 25.19                             126   -0.0310  125 253 
 NOR  HN ES       1859 42.58                             126    0.2910  125 253 
 NOR  HZ I        1859 44.32        25.1 0.16            127            125 253 
 BRR  HZ EP   2   1859 26.80                             124    0.79 5  134   4 
 BRR  HN ES       1859 43.74                             124    0.0310  134   4 
 CHI  HZ EP       1859 27.82                             123    0.61 9  140 177 
 CHI  HN ES       1859 45.01                             123   -0.82 9  140 177 
 CHI  HZ I        1859 51.20         4.1 0.22            124            140 177 
 HEL  HZ EP       1859 33.56                             114    0.50 9  195 280 
 HEL  HN ES       1859 57.16                             114    0.90 9  195 280 
 HEL  HZ I        19 0  0.98        11.2 0.26            115            195 280 
 RREF HZ EP       1859 34.33                             113   -0.14 9  205 238 
 RREF HN ES       1859 57.98                             113   -0.79 9  205 238 
 RREF HZ I        19 0  4.79         2.9 0.30            114            205 238 
 ZAR  HZ EP       1859 33.82                             111   -0.69 8  212 326 
 ZAR  HN ES       1859 57.85                             111   -0.99 8  212 326 
                                                                                
