 2016  8 2 1454 16.7 L   7.364 -73.453117.9  RSN  5 0.2 1.6LRSN                1
 GAP=176        0.53       4.2     2.4  4.8  0.2389E+01 -0.2414E+00 -0.8083E+01E
 Epicentro: SABANA DE TORRES - SANTANDER                                       3
 ACTION:UPD 16-10-29 15:31 OP:rebc STATUS:               ID:20160802145416 L   I
 OLDACT:UP  16-08-02 22:46 OP:dani STATUS:               ID:20160802144759     3
 OLDACT:REG 16-08-02 20:08 OP:dani STATUS:               ID:20160802144759     3
 2016-08-02-1447-59S.COL___337                                                 6
 STAT SP IPHASW D HRMM SECON CODA AMPLIT PERI AZIMU VELO AIN AR TRES W  DIS CAZ7
 BRR  HZ EP       1454 33.09                             160   -0.1510 40.2 225 
 BRR  HN ES       1454 46.06                             160   -0.0610 40.2 225 
 BRR  HZ I        1454 50.63        28.6 0.48                          40.2 225 
 PAM  EZ EP       1454 36.30                             143   -0.2010 83.3  92 
 BAR2 EZ EP       1454 37.03                             140    0.3410 90.4 161 
 BAR2 EZ ES       1454 52.38                             140    0.1310 90.4 161 
 BAR2 EZ I        1454 53.20         3.8 0.36                          90.4 161 
 PTB  HZ EP       1454 41.04                             126   -0.13 9  143 231 
 PTB  HE ES       1455  0.02                             126   -0.20 9  143 231 
 PTB  HZ I        1455  3.83         3.9 0.18                           143 231 
 ZAR  HZ EP       1454 42.43                             123    0.04 9  156 275 
 ZAR  HE ES       1455  2.63                             123    0.23 9  156 275 
 ZAR  HZ I        1455  4.19         7.4 0.30                           156 275 
                                                                                
