 2010  8 2 1725 48.0 L   6.764 -73.081138.9  RSN  9 0.3 2.1LRSN                1
 GAP=166        0.61       3.5     7.2  5.6 -0.5565E+01  0.3952E+01 -0.4886E+00E
 Epicentro: LOS SANTOS - SANTANDER                                             3
 ACTION:UP  10-09-07 10:51 OP:vdl  STATUS:               ID:20100802172548 L   I
 2010-08-02-1723-46S.COL___123                                                 6
 STAT SP IPHASW D HRMM SECON CODA AMPLIT PERI AZIMU VELO SNR AR TRES W  DIS CAZ7
 BAR2 SZ EP   1   1726  6.90                             171     0.1 7   22 211 
 BAR2 SZ ES   2   1726 20.60                             171    -0.9 5   22 211 
 BAR2 SZ I        1726 22.62        38.5 0.25                            22 211 
 GIR2 SZ EP   1   1726  6.99                             164    -0.1 7   37 340 
 GIR2 SZ ES   2   1726 22.05                                     0.1 5   37 340 
 BRR  HZ EP   1   1726  8.78                             148    -0.2 7   79 299 
 BRR  HZ I        1726  9.89        33.6 0.14                            79 299 
 BRR  HE ES   2   1726 25.48                             148     0.2 5   79 299 
 RUS  HZ EP   1   1726 11.01                             144     0.2 7   96 180 
 RUS  HN ES   2   1726 29.09                             144     0.5 5   96 180 
 RUS  HZ I        1726 31.11        18.5 0.27                            96 180 
 GUE  SZ EP   1   1726 12.04                             137    -0.3 7  119   8 
 GRA  SZ EP   1   1726 12.69                             135    -0.2 7  128  14 
 GRA  SZ ES   2   1726 32.45                             135     0.3 5  128  14 
 GRA  SZ I        1726 33.09        13.4 0.25                           128  14 
 OCA  SZ EP   1   1726 16.64                             127     0.3 7  165 351 
 OCA  SZ ES   2   1726 38.53                             127     0.2 5  165 351 
 OCA  SZ I        1726 45.27        10.0 0.38                           165 351 
 HEL  HZ EP   1   1726 28.67                             113     0.1 6  278 257 
 HEL  HZ I        1727  5.31         6.9 0.63                           278 257 
 PRA  HZ EP   1   1726 41.03                             105    -0.3 4  392 211 
 PRA  HZ I        1727 29.62         4.1 0.26                           392 211 
                                                                                
