 2010  3 2 1802 52.2 L   6.825 -73.032139.2  RSN  5 0.2 1.7LRSN                1
 GAP=251        0.52       4.8     8.2  5.1  0.1595E+02  0.7034E+01  0.5050E+01E
 Epicentro: CEPITA - SANTANDER                                                 3
 ACTION:UP  10-08-24 09:51 OP:vdl  STATUS:               ID:20100302180252 L   I
 2010-03-02-1759-32S.COL___094                                                 6
 STAT SP IPHASW D HRMM SECON CODA AMPLIT PERI AZIMU VELO SNR AR TRES W  DIS CAZ7
 BAR2 SZ ES       18 3 25.85                             167    -0.210   31 213 
 BRR  HZ EP       18 3 13.08                             148    -0.210   81 293 
 BRR  HE ES   2   18 3 30.11                             148     0.4 5   81 293 
 RUS  BZ EP       18 3 15.75                             141     0.310  103 183 
 RUS  BN ES   2   18 3 33.67                             141     0.0 5  103 183 
 RUS  BZ I        18 3 34.77         5.6 0.34                           103 183 
 CHI  HZ EP   2   18 3 30.04                             115    -0.2 4  255 198 
 CHI  HN ES   2   18 3 59.86                             115     0.0 4  255 198 
 CHI  HZ I        18 4  9.64         3.4 0.51                           255 198 
 RREF BN ES   2   18 4 15.95                             109    -0.2 3  333 230 
 RREF BZ I        18 4 20.91         3.6 0.25                           333 230 
                                                                                
