 2013  4 2 1636 46.7 L   6.794 -73.152142.2  RSN  9 0.5 1.9LRSN                1
 GAP=136        0.86       4.3     4.5  6.7 -0.1975E+01  0.8216E+01  0.4670E+01E
 Epicentro: LOS SANTOS - SANTANDER                                             3
 ACTION:UPD 13-05-22 14:35 OP:EP   STATUS:               ID:20130402163646 L   I
 2013-04-02-1630-00M.COL___245                                                 6
 STAT SP IPHASW D HRMM SECON CODA AMPLIT PERI AZIMU VELO AIN AR TRES W  DIS CAZ7
 BAR2 SZ EP   1   1637  5.56                             171   -0.32 7 22.5 189 
 BAR2 SZ ES   1   1637 21.02                             171    0.18 7 22.5 189 
 BAR2 SZ I        1637 22.71        42.2 0.22            170           22.5 189 
 BRR  HZ EP   1   1637  7.64                             152    0.20 7 71.0 299 
 BRR  HN ES   1   1637 24.40                             152    0.77 7 71.0 299 
 BRR  HZ I        1637 28.71        18.9 0.46            149           71.0 299 
 PAM  SZ IP     C 1637  8.64                             150    0.0510 78.3  40 
 PAM  SN ES   1   1637 25.40                             150   -0.27 7 78.3  40 
 PAM  SZ I        1637 27.46        13.8 0.46            154           78.3  40 
 RUS  HZ EP   1   1637 10.30                             143    0.25 7 99.9 176 
 RUS  HN ES   1   1637 27.92                             143   -0.34 7 99.9 176 
 RUS  HZ I        1637 29.98        12.0 0.36            146           99.9 176 
 PTB  HZ EP   1   1637 12.66                             131   -0.64 7  147 259 
 PTB  HN ES   1   1637 33.03                             131   -1.02 7  147 259 
 PTB  HZ I        1637 36.82         8.7 0.40            131            147 259 
 ZAR  HZ EP   1   1637 19.04                             122    0.17 6  204 292 
 ZAR  HE ES   1   1637 44.26                             122    0.29 6  204 292 
 ZAR  HZ I        1637 51.58         7.9 0.38            122            204 292 
 NOR  HZ EP   1   1637 22.21                             118    0.10 6  234 235 
 NOR  HN ES   1   1637 49.75                             118    0.01 6  234 235 
 NOR  HZ I        1637 52.76         5.5 0.16            119            234 235 
 CHI  HN ES   2   1637 54.40                             116    1.12 4  248 195 
 PRA  HZ EP   1   1637 39.71                             106   -0.27 4  391 210 
 PRA  HN ES   1   1638 22.34                             106    0.80 4  391 210 
 PRA  HZ I        1638 27.56         2.6 0.18            108            391 210 
                                                                                
