 2014  9 2 1800 20.1 L   6.184 -73.582107.9  RSN  4 0.3 1.5LRSN                1
 GAP=188        0.71       6.3     3.9  9.9  0.6387E+01  0.1805E+02  0.2417E+02E
 Epicentro: LA PAZ - SANTANDER                                                 3
 ACTION:UPD 14-10-03 23:01 OP:nd   STATUS:               ID:20140902180020 L   I
 OLDACT:DUP 14-09-03 01:44 OP:fm   STATUS:               ID:20140902175818d    3
 2014-09-02-1758-17M.COL___257                                                 6
 STAT SP IPHASW D HRMM SECON CODA AMPLIT PERI AZIMU VELO AIN AR TRES W  DIS CAZ7
 RUS  HZ EP   1   18 0 37.62                             147    0.14 8 64.0 120 
 RUS  HN ES   1   18 0 51.01                             147   -0.05 8 64.0 120 
 RUS  HZ I        18 0 55.81         3.6 0.52            152           64.0 120 
 PTB  HZ EP   1   18 0 39.37                             132   -0.64 7  104 292 
 PTB  HN ES       18 0 55.80                             132    0.2310  104 292 
 PTB  HZ I        18 0 58.16         8.1 0.12            140            104 292 
 NOR  HN ES   1   18 1  4.81                             120   -0.34 7  158 244 
 NOR  HZ I        18 1  7.50         6.9 0.14            126            158 244 
 GUY2CHZ EP   1   18 0 53.80                             111    0.56 6  224 242 
 GUY2CHN ES       18 1 19.17                             111    0.05 8  224 242 
 GUY2CHZ I        18 1 24.10         2.9 0.66                           224 242 
                                                                                
