 2011  7 2 1227 39.7 L   6.305 -73.695100.9  RSN  9 0.4 1.8LRSN                1
 GAP= 92        0.74       4.0     3.5  7.2 -0.5750E+01  0.1127E+02 -0.3174E+01E
 Epicentro: SANTA HELENA DEL OPON - SANTANDER                                  3
 ACTION:UPD 12-07-25 13:57 OP:epov STATUS:               ID:20110702122739 L   I
 2011-07-02-1224-15S.COL___140                                                 6
 STAT SP IPHASW D HRMM SECON CODA AMPLIT PERI AZIMU VELO AIN AR TRES W  DIS CAZ7
 BAR2 SZ EP       1227 56.45                             144    0.3410 65.0  61 
 BAR2 SZ ES   1   1228  8.46                             144   -0.46 7 65.0  61 
 BAR2 SZ I        1228 10.45        35.3 0.20                          65.0  61 
 RUS  HZ EP       1227 57.78                             138    0.0410 81.7 124 
 RUS  HN ES   2   1228 11.69                             138   -0.12 5 81.7 124 
 BTL  SZ IP       1227 57.69                             137    0.2210 82.7  35 
 BTL  SZ ES   2   1228 11.59                             137    0.26 5 82.7  35 
 BRR  HZ EP       1227 57.45                             135   -0.1910 88.7 359 
 BRR  HN ES   2   1228 11.65                             135    0.00 5 88.7 359 
 BRR  HZ I        1228 16.78        18.2 0.12                          88.7 359 
 NOR  SZ EP       1228  3.69                             118   -0.44 9  154 238 
 NOR  SN ES   2   1228 24.02                             118    0.83 5  154 238 
 BRI  SZ EP       1228  8.24                             113    0.51 9  185  32 
 CHI  HN ES   3   1228 30.54                             113    0.33 2  185 181 
 GRA  SZ EP       1228  8.96                             111   -0.50 9  201  29 
 GRA  SZ I        1228 41.60         4.9 0.34                           201  29 
 HEL  HZ EP       1228 10.11                             111    0.06 9  203 267 
 HEL  HN ES   1   1228 33.56                             111   -0.17 6  203 267 
 HEL  HZ I        1228 36.99         5.0 0.34                           203 267 
                                                                                
