 2015 11 2 1541 46.1 L   6.892 -73.304120.8  RSN 19 0.5 2.6LRSN                1
 GAP=104        1.06       2.6     4.3  5.5 -0.4370E+00  0.8808E+01  0.9615E+00E
 Epicentro: BETULIA - SANTANDER                                                3
 ACTION:UPD 15-12-28 16:08 OP:cam  STATUS:               ID:20151102154146 L   I
 OLDACT:UP  15-11-03 03:46 OP:mh   STATUS:               ID:20151102153748     3
 OLDACT:UP  15-11-03 03:43 OP:mh   STATUS:               ID:20151102153748     3
 OLDACT:UP  15-11-03 03:43 OP:mh   STATUS:               ID:20151102153748     3
 OLDACT:UP  15-11-03 03:42 OP:mh   STATUS:               ID:20151102153748     3
 OLDACT:UP  15-11-03 03:40 OP:mh   STATUS:               ID:20151102153748     3
 OLDACT:UP  15-11-03 03:40 OP:mh   STATUS:               ID:20151102153748     3
 OLDACT:REG 15-11-02 21:22 OP:cara STATUS:               ID:20151102153748     3
 2015-11-02-1537-48M.COL___310                                                 6
 STAT SP IPHASW D HRMM SECON CODA AMPLIT PERI AZIMU VELO AIN AR TRES W  DIS CAZ7
 BAR2 EZ EP     C 1542  3.34                             163    0.2710 35.8 158 
 BAR2 EZ ES       1542 16.13                             163   -0.2110 35.8 158 
 BRR  HZ EP     C 1542  3.68                             156    0.3010 51.0 298 
 BRR  HN ES       1542 17.55                             156    0.6510 51.0 298 
 BRR  HZ I        1542 18.87        87.9 0.18            155           51.0 298 
 PAM  EZ EP   1   1542  6.69                             144    0.60 7 83.1  53 
 PAM  EZ I        1542 24.77       103.1 0.22            139           83.1  53 
 RUS  HZ EP       1542  8.43                             134   -0.0810  113 168 
 RUS  HN ES   1   1542 25.59                             134   -0.43 7  113 168 
 RUS  HZ I        1542 26.52        41.4 0.24            132            113 168 
 OCA  HZ EP   1   1542 10.84                             126   -0.58 7  149 359 
 OCA  HN ES       1542 30.91                             126   -0.29 9  149 359 
 OCA  HZ I        1542 36.53       158.7 0.22            122            149 359 
 SPBC HZ EP       1542 12.42                             123   -0.16 9  161 212 
 SPBC HN ES       1542 33.10                             123   -0.16 9  161 212 
 SPBC HZ I        1542 34.63        50.5 0.16            121            161 212 
 ZAR  HZ EP       1542 14.97                             119    0.13 9  184 291 
 ZAR  HN ES   1   1542 37.83                             119    0.53 7  184 291 
 ZAR  HZ I        1542 39.84        63.0 0.20            117            184 291 
 SML  HZ EP       1542 18.80                             113   -0.78 8  227 338 
 SML  HN ES       1542 45.18                             113   -0.55 8  227 338 
 SML  HZ I        1542 51.51        45.9 0.30            111            227 338 
 NOR  HZ EP   1   1542 19.28                             114   -0.34 6  227 230 
 NOR  HN ES       1542 45.45                             114   -0.34 8  227 230 
 NOR  HZ I        1542 54.10        28.5 0.20            112            227 230 
 ROSC BZ EP   1   1542 23.77                             111    0.77 6  253 206 
 ROSC BN ES   4   1542 53.68                             111    1.87 0  253 206 
 ROSC BZ I        1542 58.75        13.7 0.40            109            253 206 
 CHI  HZ EP       1542 23.24                             111    0.06 8  255 191 
 CHI  HN ES       1542 51.80                             111   -0.34 8  255 191 
 CHI  HZ I        1542 58.84        10.9 0.28            109            255 191 
 HEL  HZ EP       1542 24.37                             111    0.86 8  258 253 
 HEL  HN ES   1   1542 52.38                             111   -0.34 6  258 253 
 HEL  HZ I        1542 56.86        22.6 0.40            109            258 253 
 URE  HZ EP   4   1542 22.94                             110   -0.79 0  264 291 
 URE  HN ES   4   1542 51.35                             110   -1.76 0  264 291 
 URE  HZ I        1543  2.62        31.2 0.20            108            264 291 
 GUY2CHZ EP       1542 28.28                             108    0.56 7  293 231 
 GUY2CHN ES   4   1542 57.40                             108   -2.82 0  293 231 
 GUY2CHZ I        1543  6.79        26.0 0.40                           293 231 
 CBOC HZ EP       1542 31.12                             106    0.61 7  320 249 
 CBOC HN ES       1543  3.96                             106   -1.22 7  320 249 
 CBOC HZ I        1543  7.57        14.4 0.30            104            320 249 
 DBB  SZ EP       1542 31.04                             106    0.53 7  321 273 
 DBB  SZ ES   4   1543  4.66                             106   -0.52 0  321 273 
 MON  HZ EP   4   1542 30.31                             105   -1.53 0  334 309 
 MON  HN ES   4   1543  6.36                             105   -1.19 0  334 309 
 MON  HZ I        1543  8.40        15.0 0.26            103            334 309 
 SJC  HZ EP   4   1542 37.30                             102   -1.46 0  391 328 
 SJC  HN ES   4   1543 16.62                             102   -3.25 0  391 328 
 SJC  HZ I        1543 22.05         7.5 0.30            100            391 328 
 PAL  HZ EP       1542 39.16                             102   -0.21 6  396 236 
 PAL  HN ES   4   1543 18.83                             102   -2.13 0  396 236 
 PAL  HZ I        1543 29.77         9.9 0.38            100            396 236 
                                                                                
