 2017  5 2 1818 25.8 L   6.807 -73.141146.6  RSN  9 0.4 2.0LRSN                1
 GAP=112        1.00       3.6     3.9  7.2 -0.8851E+00  0.5680E+01  0.3662E+01E
 Epicentro: LOS SANTOS - SANTANDER                                             3
 ACTION:UPD 17-06-16 13:32 OP:jn   STATUS:               ID:20170502181825 L   I
 OLDACT:UP  17-05-02 23:11 OP:ar   STATUS:               ID:20170502181739d    3
 OLDACT:DUP 17-05-02 23:08 OP:ar   STATUS:               ID:20170502181739d    3
 2017-05-02-1818-00M.COL___371                                                 6
 STAT SP IPHASW D HRMM SECON CODA AMPLIT PERI AZIMU VELO AIN AR TRES W  DIS CAZ7
 BRR  HZ EP       1818 47.34                             153    0.3110 71.2 298 
 PAM  EZ EP       1818 48.25                             151    0.2110 76.5  40 
 PAM  EE ES       1819  5.45                             151    0.0610 76.5  40 
 PAM  EZ I        1819  7.57        13.7 0.22            158           76.5  40 
 RUS  HZ EP       1818 49.42                             144   -0.2510  101 176 
 RUS  HN ES       1819  7.78                             144   -0.5310  101 176 
 RUS  HZ I        1819  9.50         6.9 0.30            148            101 176 
 PTB  HZ EP       1818 52.27                             132   -0.60 9  148 259 
 PTB  HN ES       1819 13.62                             132   -0.39 9  148 259 
 PTB  HZ I        1819 22.18        15.9 0.20            134            148 259 
 SPBC HZ EP       1818 54.54                             129    0.11 9  164 219 
 SPBC HN ES       1819 17.39                             129    0.61 9  164 219 
 SPBC HZ I        1819 24.36        20.1 0.22            132            164 219 
 YPLC HZ EP       1818 55.74                             127    0.06 9  177 152 
 ZAR  HZ EP       1818 58.26                             122   -0.04 9  204 292 
 ZAR  HN ES       1819 24.14                             122    0.48 9  204 292 
 ZAR  HZ I        1819 28.89        13.3 0.56            125            204 292 
 NOR  HZ EP       1819  1.17                             118   -0.48 8  236 234 
 NOR  HN ES       1819 29.32                             118   -0.31 8  236 234 
 NOR  HZ I        1819 33.56         6.4 0.28            121            236 234 
 CHI  HZ EP       1819  3.70                             117    0.08 8  250 195 
 CHI  HN ES       1819 34.04                             117    0.90 8  250 195 
                                                                                
