 2010  7 2 1505 22.3 L   6.750 -73.100146.3  RSN  7 0.3 2.0LRSN                1
 GAP=162        0.64       3.4     7.5  6.3  0.4409E-01 -0.1672E+02 -0.6603E+01E
 Epicentro: LOS SANTOS - SANTANDER                                             3
 ACTION:UPD 10-12-01 15:14 OP:pat  STATUS:               ID:20100702150522 L   I
 2010-07-02-1500-48S.COL___118                                                 6
 STAT SP IPHASW D HRMM SECON CODA AMPLIT PERI AZIMU VELO AIN AR TRES W  DIS CAZ7
 BAR2 SZ EP   1   15 5 41.82                             172    -0.1 7   20 208 
 BAR2 SZ ES   1   15 5 56.76                             172    -0.5 7   20 208 
 BRR  HZ IP     D 15 5 43.89                             150    -0.110   78 300 
 BRR  HZ I        15 5 44.30        32.8 0.08                            78 300 
 BRR  HN ES   1   15 6  1.00                             150     0.2 7   78 300 
 RUS  HZ EP   1   15 5 46.12                             145     0.4 7   95 179 
 RUS  HN ES   1   15 6  4.13                             145     0.2 7   95 179 
 RUS  HZ I        15 6  5.38         7.4 0.43                            95 179 
 BRI  SZ IP       15 5 46.67                             141     0.110  112  17 
 GUE  SZ EP   1   15 5 47.00                             138    -0.4 7  121   9 
 GUE  SZ ES   1   15 6  7.30                             138     0.3 7  121   9 
 GRA  SZ IP       15 5 47.89                             136     0.010  130  15 
 OCA  SZ EP   2   15 5 50.86                             129    -0.4 5  166 352 
 OCA  SZ ES   2   15 6 14.21                             129     0.4 5  166 352 
 OCA  SZ I        15 6 19.59        15.5 0.44                           166 352 
                                                                                
