 2010 12 2 1403 14.3 L   6.763 -73.066150.0  RSN  4 0.3 1.6LRSN                1
 GAP=168        0.70       7.6    13.9 12.3  0.6195E+02 -0.1068E+03 -0.5695E+02E
 Epicentro: LOS SANTOS - SANTANDER                                             3
 ACTION:UP  11-01-14 15:22 OP:pat  STATUS:               ID:20101202140314 L   I
 2010-12-02-1359-52S.COL___132                                                 6
 STAT SP IPHASW D HRMM SECON CODA AMPLIT PERI AZIMU VELO SNR AR TRES W  DIS CAZ7
 BAR2 SZ EP   1   14 3 34.18                             171    -0.2 7   23 214 
 BAR2 SZ ES   2   14 3 49.99                             171    -0.1 5   23 214 
 BRR  HZ EP   1   14 3 36.08                             150    -0.4 7   81 298 
 BRR  HN ES   1   14 3 54.00                             150     0.3 7   81 298 
 BRR  HZ I        14 3 55.76         9.8 0.14                            81 298 
 RUS  HZ EP   2   14 3 38.95                             146     0.8 5   96 181 
 RUS  HN ES   1   14 3 56.69                             146    -0.1 7   96 181 
 RUS  HZ I        14 3 57.96         3.1 0.13                            96 181 
 GRA  SZ EP   1   14 3 40.14                             138     0.1 7  127  13 
 GRA  SZ I        14 3 41.40         6.2 0.28                           127  13 
                                                                                
