 2016  9 2 1915 40.9 L   6.753 -73.117145.5  RSN  4 0.1 1.6LRSN                1
 GAP=142        0.42       2.4     2.5  4.6 -0.2717E+01  0.3313E+01 -0.1238E+01E
 Epicentro: LOS SANTOS - SANTANDER                                             3
 ACTION:UPD 17-08-17 21:05 OP:lp   STATUS:               ID:20160902191540 L   I
 OLDACT:REG 16-09-02 21:49 OP:edw  STATUS:               ID:20160902190738     3
 2016-09-02-1908-00M.COL___347                                                 6
 STAT SP IPHASW D HRMM SECON CODA AMPLIT PERI AZIMU VELO AIN AR TRES W  DIS CAZ7
 PAM  EZ EP       1916  3.05                             150   -0.1210 79.6  35 
 PAM  HE ES       1916 20.61                             150    0.0310 79.6  35 
 PAM  EZ I        1916 22.18         9.2 0.36            151           79.6  35 
 RUS  HZ EP       1916  4.43                             145    0.2410 95.2 178 
 RUS  HN ES       1916 22.35                             145   -0.0510 95.2 178 
 RUS  HZ I        1916 23.24         3.7 0.24            148           95.2 178 
 PTB  HZ EP       1916  7.90                             131   -0.09 9  150 261 
 PTB  HE ES       1916 29.30                             131    0.13 9  150 261 
 PTB  HZ I        1916 30.91         5.2 0.44            133            150 261 
 SPBC HN ES       1916 31.06                             129   -0.15 9  161 221 
                                                                                
