 2014  6 2 1516  6.3 L   6.822 -73.145148.2  RSN 20 0.5 2.5LRSN                1
 GAP=136        1.18       2.7     4.4  6.0 -0.1461E+01  0.4966E+01  0.2305E+01E
 Epicentro: LOS SANTOS - SANTANDER                                             3
 OLDACT:DUP 14-06-03 00:24 OP:fm   STATUS:               ID:20140602150811d    3
 ACTION:UPD 14-07-01 22:49 OP:nd   STATUS:               ID:20140602151606 L   I
 OLDACT:UP  14-06-03 00:34 OP:fm   STATUS:               ID:20140602150811d    3
 2014-06-02-1508-10M.COL___256                                                 6
 STAT SP IPHASW D HRMM SECON CODA AMPLIT PERI AZIMU VELO AIN AR TRES W  DIS CAZ7
 BAR2 SZ EP       1516 26.20                             170   -0.0710 25.8 189 
 BAR2 SZ ES   1   1516 41.43                             170   -0.41 7 25.8 189 
 BAR2 SZ I        1516 42.20        46.9 0.30            166           25.8 189 
 BRR  HZ EP       1516 27.97                             153    0.3210 70.2 297 
 BRR  HN ES       1516 45.20                             153    0.9010 70.2 297 
 BRR  SZ I        1516 48.10        37.2 0.34            144           70.2 297 
 PAM  SZ EP       1516 29.21                             152    0.5510 75.4  41 
 PAM  SE ES   1   1516 46.27                             152    0.18 7 75.4  41 
 PAM  SZ I        1516 48.15        79.7 0.46            151           75.4  41 
 RUS  HZ EP       1516 30.66                             144    0.2010  103 176 
 RUS  HN ES       1516 49.17                             144   -0.1410  103 176 
 RUS  SZ I        1516 49.91        37.1 0.24            141            103 176 
 PTB  HZ EP       1516 32.88                             132   -0.64 9  148 258 
 PTB  HN ES       1516 53.85                             132   -0.89 9  148 258 
 PTB  SZ I        1517  0.53        26.9 0.36            125            148 258 
 OCA  HZ EP       1516 33.93                             131   -0.64 9  158 353 
 OCA  HN ES       1516 56.22                             131   -0.40 9  158 353 
 OCA  SZ I        1517  3.39        24.1 0.32            125            158 353 
 SPBC HZ EP       1516 35.45                             129    0.28 9  165 218 
 SPBC HN ES       1516 56.98                             129   -0.71 9  165 218 
 SPBC SZ I        1516 59.59        51.6 0.26            124            165 218 
 ZAR  HZ EP       1516 38.31                             123   -0.51 9  203 291 
 ZAR  HE ES       1517  3.73                             123   -0.45 9  203 291 
 ZAR  SZ I        1517 12.78        19.5 0.12            117            203 291 
 NOR  HZ EP       1516 42.36                             119    0.03 8  236 234 
 NOR  HN ES       1517 10.84                             119    0.41 8  236 234 
 NOR  SZ I        1517 16.10        22.8 0.18            114            236 234 
 SML  HZ EP       1516 42.64                             118   -0.18 8  242 335 
 SML  HN ES       1517 12.27                             118    0.96 8  242 335 
 SML  SZ I        1517 14.61        44.9 0.08            113            242 335 
 CHI  HZ EP       1516 44.42                             117    0.03 8  251 195 
 CHI  HN ES       1517 13.57                             117   -0.53 8  251 195 
 CHI  SZ I        1517 17.08        25.8 0.52            114            251 195 
 ROSC BZ EP   4   1516 46.36                             117    1.58 0  255 211 
 ROSC BN ES       1517 15.74                             117    0.94 8  255 211 
 ROSC SZ I        1517 19.71        32.4 0.40            113            255 211 
 URE  HZ EP   4   1516 46.08                             114   -1.32 0  283 291 
 URE  SZ I        1517 28.84        22.1 0.16            109            283 291 
 GUY2CHZ EP       1516 50.37                             113    0.18 7  303 234 
 GUY2CHE ES   4   1517 26.98                             113    2.56 0  303 234 
 GUY2CSZ I        1517 32.46        11.4 0.32                           303 234 
 VIL  SZ EP   1   1516 49.46                             112   -0.64 5  306 191 
 VIL  SE ES       1517 24.32                             112    0.06 7  306 191 
 VIL  SZ I        1517 38.26        12.6 0.46            109            306 191 
 RREF HZ EP   4   1516 54.01                             111    1.27 0  323 229 
 RREF HN ES   4   1517 31.98                             111    3.02 0  323 229 
 RREF SZ I        1517 38.27        11.7 0.28            107            323 229 
 CBOC HZ EP   1   1516 53.78                             110    0.37 5  334 252 
 CBOC HN ES       1517 30.76                             110    0.60 7  334 252 
 CBOC SZ I        1517 44.25         5.7 0.72            106            334 252 
 TOL  SN ES   4   1517 34.70                             110    1.96 0  345 224 
 ANIL HE ES   4   1517 37.13                             109    1.64 0  359 224 
 PRA  HZ EP       1517  0.07                             107   -0.09 6  394 209 
 PRA  HN ES       1517 42.78                             107    0.61 6  394 209 
 PRA  SZ I        1517 50.35         8.4 0.28            104            394 209 
 ORTC HN ES   1   1517 43.36                             107    0.51 4  397 216 
 SJC  HZ EP   4   1517  0.39                             106   -1.32 0  407 327 
 SJC  HN ES   4   1517 38.67                             106   -6.25 0  407 327 
 SJC  SZ I        1517 47.28        13.4 3.24            103            407 327 
                                                                                
