 2012  1 2 1831 38.0 L   6.783 -73.135145.0  RSN  6 0.2 1.9LRSN                1
 GAP=184        0.36       2.5     4.1  4.7  0.2218E+01 -0.5673E+01 -0.1832E+01E
 Epicentro: LOS SANTOS - SANTANDER                                             3
 ACTION:UP  12-02-03 08:13 OP:REBC STATUS:               ID:20120102183138 L   I
 2012-01-02-1830-00M.COL___186                                                 6
 STAT SP IPHASW D HRMM SECON CODA AMPLIT PERI AZIMU VELO SNR AR TRES W  DIS CAZ7
 BAR2 SZ EP       1831 57.41                             171    -0.110   22 194 
 BAR2 SZ I        1831 57.76        13.7 0.36                            22 194 
 BRR  HZ EP       1831 59.17                             152     0.010   73 299 
 BRR  HZ I        1832  0.67        23.7 0.14                            73 299 
 BRR  HE ES   1   1832 15.69                             152     0.0 7   73 299 
 RUS  HZ EP       1832  1.49                             144     0.010   99 177 
 RUS  HN ES   2   1832 19.82                             144     0.0 5   99 177 
 OCA  SZ EP       1832  6.43                             129     0.0 9  162 353 
 OCA  SZ I        1832 34.38         7.8 0.27                           162 353 
 ZAR  HN ES   3   1832 34.85                             122    -1.1 2  206 292 
 NOR  SZ EP   2   1832 13.68                             118     0.0 4  235 235 
 NOR  SE ES   2   1832 41.65                             118     0.2 4  235 235 
                                                                                
