 2012 11 2 1745  4.1 L   6.764 -73.132141.1  RSN  5 0.3 2.1LRSN                1
 GAP=140        0.69       4.5     4.6  6.3  0.3762E+01  0.5264E+01 -0.3053E+01E
 Epicentro: LOS SANTOS - SANTANDER                                             3
 ACTION:UPD 12-12-05 15:31 OP:}ep  STATUS:               ID:20121102174504 L   I
 2012-11-02-1740-00M.COL___234                                                 6
 STAT SP IPHASW D HRMM SECON CODA AMPLIT PERI AZIMU VELO AIN AR TRES W  DIS CAZ7
 BAR2 SZ EP       1745 22.95                             172   -0.1510 19.8 196 
 BAR2 SZ ES   1   1745 38.12                             172    0.19 7 19.8 196 
 BAR2 SZ I        1745 38.96        21.6 0.44                          19.8 196 
 BRR  HZ EP       1745 24.95                             151    0.0110 74.5 301 
 BRR  HN ES   1   1745 41.65                             151    0.45 7 74.5 301 
 BRR  HN I        1745 46.76        22.8 0.14                          74.5 301 
 PAM  SZ IP     C 1745 25.95                             149   -0.0110 79.6  37 
 PAM  SN ES   1   1745 42.84                             149   -0.17 7 79.6  37 
 PAM  SN I        1745 43.95        36.5 0.48                          79.6  37 
 RUS  HZ EP   1   1745 27.15                             144    0.05 7 96.5 177 
 RUS  HN ES   1   1745 44.87                             144   -0.17 7 96.5 177 
 RUS  HN I        1745 47.06        15.8 0.42                          96.5 177 
 ZAR  HZ EP   1   1745 37.21                             121    0.66 6  207 293 
 ZAR  HN ES   1   1746  1.09                             121   -0.77 6  207 293 
 ZAR  HN I        1746  3.24        14.6 0.10                           207 293 
                                                                                
