 2013  9 2 1740 21.5 L   6.798 -73.208139.1  RSN  5 0.3 1.5LRSN                1
 GAP=129        0.64       4.0     5.9  9.2 -0.4820E+01  0.2780E+02 -0.1104E+02E
 Epicentro: ZAPATOCA - SANTANDER                                               3
 ACTION:UPD 13-10-22 09:19 OP:ep   STATUS:               ID:20130902174021 L   I
 OLDACT:REG 13-09-02 15:21 OP:mh   STATUS:               ID:20130902173959     3
 2013-09-02-1739-59M.COL___269                                                 6
 STAT SP IPHASW D HRMM SECON CODA AMPLIT PERI AZIMU VELO AIN AR TRES W  DIS CAZ7
 BAR2 SZ EP   1   1740 40.43                             170    0.15 7 22.9 173 
 PAM  SZ EP   1   1740 43.53                             148    0.27 7 82.1  43 
 PAM  SN ES   1   1741  0.36                             148    0.09 7 82.1  43 
 PAM  SZ I        1741  2.29         7.8 0.50            150           82.1  43 
 RUS  HZ EP   1   1740 44.59                             142   -0.00 7  101 172 
 RUS  HN ES   1   1741  2.21                             142   -0.43 7  101 172 
 RUS  HZ I        1741  4.47         3.5 0.40            144            101 172 
 PTB  HZ EP   1   1740 47.75                             132    0.49 7  141 258 
 PTB  HN ES   2   1741  7.39                             132   -0.00 5  141 258 
 SML  HZ EP   1   1740 56.74                             116   -0.69 6  241 337 
 SML  HN ES   2   1741 25.24                             116   -0.25 4  241 337 
                                                                                
