 2016  4 2 1756  7.1 L   6.833 -73.111140.6  RSN 19 0.4 2.4LRSN                1
 GAP= 72        0.94       3.0     2.9  5.1 -0.1428E+01  0.5788E+01  0.9402E+00E
 Epicentro: LOS SANTOS - SANTANDER                                             3
 ACTION:UPD 16-05-05 14:18 OP:rebc STATUS:               ID:20160402175607 L   I
 OLDACT:UP  16-04-03 01:28 OP:mh   STATUS:               ID:20160402174746     3
 OLDACT:UP  16-04-03 01:18 OP:mh   STATUS:               ID:20160402174746     3
 OLDACT:UP  16-04-03 01:17 OP:mh   STATUS:               ID:20160402174746     3
 OLDACT:REG 16-04-02 20:44 OP:mh   STATUS:               ID:20160402174746     3
 2016-04-02-1747-46M.COL___318                                                 6
 STAT SP IPHASW D HRMM SECON CODA AMPLIT PERI AZIMU VELO AIN AR TRES W  DIS CAZ7
 BAR2 EZ EP       1756 26.33                             168    0.0710 27.8 197 
 BAR2 EZ ES       1756 41.44                             168    0.2710 27.8 197 
 BAR2 EZ I        1756 43.16        34.1 0.17            167           27.8 197 
 PAM  EZ EP       1756 28.87                             152    0.3710 72.1  39 
 PAM  EN ES       1756 45.71                             152    0.5510 72.1  39 
 PAM  EZ I        1756 48.10        20.4 0.46            154           72.1  39 
 RUS  HZ EP       1756 30.42                             142   -0.2310  104 178 
 RUS  HN ES       1756 48.77                             142   -0.2210  104 178 
 TAM  HZ EP   1   1756 34.37                             130    0.21 7  152 107 
 TAM  HN ES       1756 54.65                             130   -0.59 9  152 107 
 TAM  HZ I        1757  1.23        20.4 0.67            132            152 107 
 PTB  HZ EP       1756 33.69                             130   -0.43 9  152 258 
 PTB  HN ES       1756 54.87                             130   -0.29 9  152 258 
 PTB  HZ I        1756 55.67        31.0 0.13            131            152 258 
 OCA  HZ EP       1756 34.99                             129    0.23 9  157 352 
 OCA  HN ES       1756 55.73                             129   -0.58 9  157 352 
 OCA  HZ I        1756 59.56        36.1 0.24            131            157 352 
 SPBC HZ EP       1756 35.31                             127   -0.46 9  168 219 
 SPBC HN ES   1   1756 58.39                             127    0.30 7  168 219 
 SPBC HZ I        1757  5.01        41.9 0.32            128            168 219 
 ZAR  HZ EP   1   1756 39.24                             121   -0.26 6  206 291 
 ZAR  HN ES   1   1757  4.39                             121   -0.34 6  206 291 
 ZAR  HZ I        1757  9.38        31.5 0.42            122            206 291 
 NOR  HZ EP   1   1756 42.82                             117   -0.34 6  240 234 
 NOR  HN ES       1757 11.24                             117   -0.00 8  240 234 
 NOR  HZ I        1757 15.51        19.9 0.24            118            240 234 
 CHI  HZ EP   2   1756 44.66                             115   -0.41 4  253 196 
 CHI  HN ES   2   1757 14.64                             115   -0.00 4  253 196 
 CHI  HZ I        1757 20.29        13.3 0.08            117            253 196 
 ROSC BZ EP       1756 46.36                             115    0.80 8  258 211 
 ROSC BE ES   4   1757 18.72                             115    3.20 0  258 211 
 HEL  HZ EP       1756 48.57                             113    0.95 7  277 255 
 HEL  HN ES       1757 19.37                             113    0.17 7  277 255 
 HEL  HZ I        1757 24.83        20.5 0.32            114            277 255 
 URE  HZ EP   4   1756 46.07                             112   -2.16 0  286 291 
 URE  HN ES   4   1757 19.23                             112   -1.04 0  286 291 
 URE  HZ I        1757 28.74        14.1 0.40            113            286 291 
 SOCV BZ EP   4   1756 47.69                             111   -1.67 0  296  57 
 SOCV BN ES   4   1757 19.20                             111   -3.09 0  296  57 
 SOCV BZ I        1757 23.94        26.6 0.09            113            296  57 
 GUY2CHZ EP       1756 51.78                             111    0.66 7  306 235 
 GUY2CHN ES   4   1757 29.94                             111    4.52 0  306 235 
 GUY2CHZ I        1757 34.65        21.7 0.46                           306 235 
 ELA  HZ EP   4   1756 56.90                             109    2.50 0  334 229 
 ELA  HN ES   4   1757 34.59                             109    3.33 0  334 229 
 ELA  HZ I        1757 38.31         7.2 0.28            110            334 229 
 CBOC HZ EP       1756 54.06                             109   -0.35 7  338 252 
 CBOC HN ES   1   1757 31.45                             109    0.17 5  338 252 
 MON  HZ EP   4   1756 53.02                             108   -3.03 0  354 308 
 MON  HN ES   4   1757 30.67                             108   -3.52 0  354 308 
 MON  HZ I        1757 32.02         6.0 0.40            109            354 308 
 ANIL HZ EP   1   1756 56.73                             107   -0.65 5  363 225 
 ANIL HE ES   4   1757 37.88                             107    1.32 0  363 225 
                                                                                
