 2011  3 2 1059 56.2 L   7.590 -73.615 98.7  RSN  4 0.1 1.8LRSN                1
 GAP=222        0.33       1.8     6.7  6.0  0.1351E+01  0.1727E+02  0.4509E+01E
 Epicentro: SABANA DE TORRES - SANTANDER                                       3
 ACTION:UP  11-06-16 14:31 OP:jfem STATUS:               ID:20110302105956 L   I
 2011-03-02-1058-19S.COL___136                                                 6
 STAT SP IPHASW D HRMM SECON CODA AMPLIT PERI AZIMU VELO SNR AR TRES W  DIS CAZ7
 OCA  SZ EP   1   11 0 13.48                             139     0.1 7   79  24 
 OCA  SZ ES   1   11 0 26.70                             139     0.0 7   79  24 
 OCA  SZ I        11 0 30.25        22.6 0.42                            79  24 
 GRA  SZ EP   1   11 0 14.81                             133     0.0 7   95  70 
 GRA  SZ ES   2   11 0 29.28                             133     0.0 5   95  70 
 GRA  SZ I        11 0 30.53        51.9 0.26                            95  70 
 BAR2 SZ ES   1   11 0 33.67                             126     0.0 7  120 157 
 BAR2 SZ I        11 0 34.31        12.9 0.22                           120 157 
 RUS  HZ I        11 0 24.82         1.5 0.60                           197 163 
 RUS  HZ EP   1   11 0 25.77                             113    -0.1 6  197 163 
 RUS  HN ES   2   11 0 49.26                             113     0.2 4  197 163 
                                                                                
