 2011  6 2 1416 34.2 L   7.362 -72.907 32.0  RSN  4 0.3 1.4LRSN                1
 GAP=146        0.70       5.5    10.6 21.8 -0.4408E+02  0.2123E+03 -0.8728E+02E
 Epicentro: CALIFORNIA - SANTANDER                                             3
 ACTION:UP  11-07-14 19:02 OP:ep   STATUS:               ID:20110602141634 L   I
 2011-06-02-1411-16S.COL___132                                                 6
 STAT SP IPHASW D HRMM SECON CODA AMPLIT PERI AZIMU VELO SNR AR TRES W  DIS CAZ7
 PAM  SZ EP       1416 41.05                             136    -0.110   23  96 
 PAM  SN ES   1   1416 46.46                             136    -0.1 7   23  96 
 BRI  SZ EP       1416 43.01                             118     0.410   41  17 
 BRI  SZ ES   3   1416 49.37                             118     0.2 2   41  17 
 GIR2 SZ EP       1416 42.92                             116     0.010   44 225 
 GRA  SZ ES   2   1416 52.05                             107    -0.8 5   59  11 
 GRA  SZ I        1416 53.90        17.7 0.31                            59  11 
                                                                                
