 2014  6 2 1442 49.6 L   7.453 -73.167131.8  RSN  6 0.5 2.2LRSN                1
 GAP=192        1.12       4.4     8.1 10.1  0.1087E+01  0.2469E+02 -0.9064E+01E
 Epicentro: EL PLAYON - SANTANDER                                              3
 OLDACT:REG 14-06-02 22:15 OP:fm   STATUS:               ID:20140602143815     3
 ACTION:UPD 14-07-01 22:49 OP:nd   STATUS:               ID:20140602144249 L   I
 OLDACT:UP  14-06-03 00:08 OP:fm   STATUS:               ID:20140602143815     3
 2014-06-02-1438-15M.COL___256                                                 6
 STAT SP IPHASW D HRMM SECON CODA AMPLIT PERI AZIMU VELO AIN AR TRES W  DIS CAZ7
 BRR  HZ EP       1443  9.39                             150    0.1410 71.3 238 
 BRR  HE ES       1443 24.78                             150    0.2010 71.3 238 
 BRR  HZ I        1443 25.28        22.4 0.14            151           71.3 238 
 OCA  HZ EP   1   1443 11.45                             144    0.84 7 88.4 349 
 OCA  HN ES       1443 27.42                             144    0.4110 88.4 349 
 OCA  HZ I        1443 31.60        19.8 0.36            144           88.4 349 
 BAR2 SZ ES       1443 27.52                             142   -0.5910 95.3 181 
 BAR2 HZ I        1443 28.62        32.8 0.36            146           95.3 181 
 SML  HZ EP   1   1443 18.15                             123   -0.40 7  179 326 
 SML  HN ES       1443 40.24                             123   -0.90 9  179 326 
 SML  HZ I        1443 42.62        30.4 0.08            124            179 326 
 ZAR  HZ EP       1443 19.34                             122    0.01 9  187 271 
 ZAR  HN ES       1443 42.76                             122    0.23 9  187 271 
 ZAR  HZ I        1443 47.18        15.4 0.14            123            187 271 
 SPBC HN ES   2   1443 49.98                             117    0.38 4  223 207 
 SJC  HN ES   4   1444 13.47                             106   -1.68 0  349 321 
                                                                                
