 2010  8 2 1526  1.6 L   7.066 -73.263119.9  RSN  8 0.5 1.6LRSN                1
 GAP= 91        0.84       4.4     9.2  8.3 -0.9113E+01  0.3569E+01 -0.1101E+01E
 Epicentro: LEBRIJA - SANTANDER                                                3
 ACTION:UP  10-09-07 10:51 OP:vdl  STATUS:               ID:20100802152601 L   I
 2010-08-02-1523-17S.COL___123                                                 6
 STAT SP IPHASW D HRMM SECON CODA AMPLIT PERI AZIMU VELO SNR AR TRES W  DIS CAZ7
 GIR2 SZ EP   1   1526 17.83                             177     0.1 7    8  79 
 GIR2 SZ ES   2   1526 30.54                             177     0.2 5    8  79 
 BRR  HZ EP   1   1526 18.52                             155    -0.3 7   50 275 
 BRR  HE ES   2   1526 31.92                             155    -0.2 5   50 275 
 BRR  HZ I        1526 33.01        23.7 0.14                            50 275 
 BAR2 SZ EP   1   1526 19.72                             155     0.4 7   53 170 
 BAR2 SZ ES   2   1526 33.43                             155     0.3 5   53 170 
 GUE  SZ EP   1   1526 21.83                             140    -0.2 7   92  24 
 GUE  SZ ES   2   1526 37.01                             140    -0.9 5   92  24 
 GUE  SZ I        1526 38.63         6.4 0.11                            92  24 
 GRA  SZ EP   1   1526 23.22                             136     0.5 7  104  29 
 GRA  SZ ES   2   1526 39.78                             136     0.6 5  104  29 
 GRA  SZ I        1526 40.76        10.2 0.21                           104  29 
 OCA  SZ EP   1   1526 24.80                             129    -0.2 7  130 357 
 OCA  SZ ES   2   1526 43.30                             129     0.0 5  130 357 
 OCA  SZ I        1526 44.81        15.3 0.14                           130 357 
 RUS  HZ EP   1   1526 25.01                             129    -0.6 7  131 171 
 RUS  HN ES   2   1526 44.19                             129    -0.2 5  131 171 
 RUS  HZ I        1526 48.24         2.2 0.68                           131 171 
 HEL  HZ EP   2   1526 41.25                             109     1.0 4  269 249 
                                                                                
