 2012  5 2 1511  3.2 L   6.792 -73.089144.9  RSN  7 0.3 1.9LRSN                1
 GAP=243        0.64       4.9     6.6  6.0  0.1744E+02  0.1641E+02  0.7787E+01E
 Epicentro: LOS SANTOS - SANTANDER                                             3
 ACTION:UP  12-07-05 12:01 OP:pat  STATUS:               ID:20120502151103 L   I
 2012-05-02-1510-00M.COL___186                                                 6
 STAT SP IPHASW D HRMM SECON CODA AMPLIT PERI AZIMU VELO SNR AR TRES W  DIS CAZ7
 BAR2 SZ EP   1   1511 22.78                             170     0.1 7   24 205 
 BAR2 SZ ES   1   1511 37.87                             170    -0.1 7   24 205 
 BAR2 SZ I        1511 38.71        14.6 0.28                            24 205 
 BRR  HZ EP   1   1511 24.83                             150     0.2 7   77 297 
 BRR  HN ES   1   1511 41.58                             150     0.3 7   77 297 
 BRR  HZ I        1511 43.33        16.1 0.15                            77 297 
 RUS  HZ EP   1   1511 26.76                             144     0.0 7   99 180 
 RUS  HN ES   1   1511 45.02                             144    -0.1 7   99 180 
 RUS  HZ I        1511 46.69         8.1 0.25                            99 180 
 PTB  HZ EP   1   1511 29.94                             131    -0.7 7  154 260 
 ZAR  HZ EP   1   1511 36.53                             121     0.3 6  210 292 
 ZAR  HN ES   1   1512  1.65                             121    -0.3 6  210 292 
 ZAR  HZ I        1512  7.35        11.3 0.31                           210 292 
 RREF HN ES   2   1512 26.51                             110     0.4 3  326 230 
 PRA  HZ EP   1   1511 57.35                             106     0.4 4  394 210 
 PRA  HN ES   1   1512 39.04                             106     0.2 4  394 210 
                                                                                
