 2017  8 2 1411 54.3 L   7.311 -73.434 96.9  RSN  5 0.1 1.2LRSN                1
 GAP=170        0.40       2.2     1.6  3.9  0.2966E+00  0.1233E+01 -0.5255E+00E
 Epicentro: SABANA DE TORRES - SANTANDER                                       3
 ACTION:UPD 17-09-04 20:15 OP:rebc STATUS:               ID:20170802141154 L   I
 OLDACT:UP  17-08-03 00:11 OP:dhb  STATUS:               ID:20170802140738     3
 OLDACT:REG 17-08-02 21:19 OP:dhb  STATUS:               ID:20170802140738     3
 2017-08-02-1408-00M.COL___392                                                 6
 STAT SP IPHASW D HRMM SECON CODA AMPLIT PERI AZIMU VELO AIN AR TRES W  DIS CAZ7
 PAM  EZ EP       1412 11.84                             138   -0.0610 81.1  88 
 PAM  EN ES       1412 25.80                             138    0.1510 81.1  88 
 PAM  EZ I        1412 28.02         4.1 0.26            138           81.1  88 
 BAR2 EZ IP     C 1412 11.67                             137   -0.1510 84.2 161 
 BAR2 EZ ES       1412 25.39                             137   -0.1110 84.2 161 
 BAR2 EZ I        1412 26.94         5.7 0.02            135           84.2 161 
 PTB  HZ EP   9   1412 15.12                             121   -2.01 0  142 233 
 PTB  HE ES       1412 33.13                             119    0.18 9  142 233 
 PTB  HZ I        1412 36.43         2.0 0.19            120            142 233 
 ZAR  HN ES       1412 38.25                             118    0.05 9  159 277 
 RUS  HZ EP       1412 19.98                             117    0.07 9  162 166 
 RUS  HN ES   1   1412 40.06                             117    0.16 7  162 166 
 RUS  HZ I        1412 44.65         2.1 0.43            116            162 166 
                                                                                
