 2013  1 2 1407 23.7 L   6.697 -73.187146.5  RSN  5 0.3 1.4LRSN                1
 GAP=225        0.64       6.9     5.9  7.0  0.2599E+02  0.8092E+01  0.4877E+01E
 Epicentro: VILLANUEVA - SANTANDER                                             3
 ACTION:UPD 13-02-15 09:11 OP:ep   STATUS:               ID:20130102140723 L   I
 2013-01-02-1400-00M.COL___242                                                 6
 STAT SP IPHASW D HRMM SECON CODA AMPLIT PERI AZIMU VELO AIN AR TRES W  DIS CAZ7
 BAR2 SZ EP       14 7 43.16                             175   -0.1210 11.6 178 
 BAR2 SZ ES   1   14 7 58.01                             175   -0.51 7 11.6 178 
 BAR2 SZ I        14 8  0.91         9.8 0.30            165           11.6 178 
 BRR  HN ES   1   14 8  2.26                             152    0.49 7 73.6 308 
 RUS  HZ EP   1   14 7 47.05                             147    0.24 7 89.7 173 
 RUS  HE ES   1   14 8  5.10                             147    0.30 7 89.7 173 
 RUS  HZ I        14 8  6.25         1.7 0.24            145           89.7 173 
 PTB  HZ EP   1   14 7 49.99                             133   -0.21 7  141 263 
 PTB  HN ES   1   14 8 10.67                             133   -0.17 7  141 263 
 PTB  HZ I        14 8 18.49         3.6 0.36            129            141 263 
 ZAR  HN ES   1   14 8 21.70                             122    0.04 6  205 296 
 ZAR  HZ I        14 8 28.41         2.3 0.14            121            205 296 
                                                                                
