 2010  8 2 1530 52.1 L   6.544 -73.518113.3  RSN  4 0.2 1.8LRSN                1
 GAP=195        0.42       5.8    10.5  6.8  0.4621E+02  0.1888E+02  0.8743E+01E
 Epicentro: EL CARMEN DE CHUCURI - SANTANDER                                   3
 ACTION:UP  10-09-07 10:51 OP:vdl  STATUS:               ID:20100802153052 L   I
 2010-08-02-1527-17S.COL___123                                                 6
 STAT SP IPHASW D HRMM SECON CODA AMPLIT PERI AZIMU VELO SNR AR TRES W  DIS CAZ7
 BAR2 SZ IP     D 1531  8.48                             160     0.110   37  82 
 BAR2 SZ ES   2   1531 20.74                             160    -0.3 5   37  82 
 BAR2 SZ I        1531 22.18        36.5 0.23                            37  82 
 BRR  HZ EP   1   1531  9.29                             147    -0.2 7   66 341 
 BRR  HN ES   2   1531 23.36                             147     0.3 5   66 341 
 BRR  HZ I        1531 33.51         9.2 0.62                            66 341 
 GIR2 SZ EP   1   1531 10.01                             146     0.0 7   69  31 
 RUS  HZ EP   1   1531 11.75                             140     0.0 7   87 146 
 RUS  HE ES   2   1531 26.95                             140    -0.1 5   87 146 
                                                                                
