 2012  2 2 1206 32.4 L   6.743 -73.144139.2  RSN  9 0.4 2.1LRSN                1
 GAP=139        0.94       4.1     4.6  6.1  0.1888E+00  0.6106E+01  0.5531E+01E
 ACTION:UP  12-03-07 16:26 OP:epov STATUS:               ID:20120202120632 L   I
 2012-02-02-1200-00M.COL___187                                                 6
 STAT SP IPHASW D HRMM SECON CODA AMPLIT PERI AZIMU VELO SNR AR TRES W  DIS CAZ7
 BAR2 SZ EP       12 6 51.31                             173    0.2210 17.2 194 
 BAR2 SZ I        12 6 51.60        23.9 0.27                          17.2 194 
 BAR2 SZ ES       12 7  5.28                             173   -0.4210 17.2 194 
 GIR2 SZ EP       12 6 51.43                             164   -0.0210 37.5 352 
 BRR  HZ EP       12 6 53.25                             150    0.2410 74.5 303 
 BRR  HE ES       12 7  9.93                             150    0.8210 74.5 303 
 BRR  HZ I        12 7 14.30        29.7 0.11                          74.5 303 
 PAM  SZ EP       12 6 54.08                             148   -0.1210 82.3  37 
 PAM  SN ES       12 7 10.98                             148   -0.2410 82.3  37 
 RUS  HZ EP       12 6 55.35                             144    0.3310 94.3 176 
 RUS  HE ES   1   12 7 12.66                             144   -0.03 7 94.3 176 
 RUS  HZ I        12 7 14.96        18.9 0.40                          94.3 176 
 PTB  HZ EP       12 6 58.17                             131   -0.55 9  147 261 
 PTB  HE ES   1   12 7 18.57                             131   -0.70 7  147 261 
 ZAR  HZ EP   1   12 7  4.09                             120   -0.57 6  207 294 
 ZAR  HN ES   1   12 7 29.98                             120    0.13 6  207 294 
 ZAR  HZ I        12 7 35.46        12.1 0.31                           207 294 
 CHI  HZ EP   1   12 7  9.34                             116    0.29 6  243 196 
 CHI  HN ES   1   12 7 37.67                             116    0.01 6  243 196 
 PRA  HZ EP   1   12 7 25.55                             106    0.52 4  387 210 
                                                                                
