 2016 11 2 1531  4.0 L   6.789 -73.155147.4  RSN 15 0.5 2.5LRSN                1
 GAP=100        0.99       3.5     2.9  5.2 -0.4843E+00  0.2672E+01  0.3759E+01E
 Epicentro: LOS SANTOS - SANTANDER                                             3
 ACTION:UPD 17-10-26 21:04 OP:lp   STATUS:               ID:20161102153104 L   I
 OLDACT:REG 16-11-03 00:44 OP:cog  STATUS:               ID:20161102151255     3
 2016-11-02-1525-00M.COL___352                                                 6
 STAT SP IPHASW D HRMM SECON CODA AMPLIT PERI AZIMU VELO AIN AR TRES W  DIS CAZ7
 BAR2 EZ EP       1531 23.72                             171   -0.1010 21.9 188 
 BAR2 EZ ES       1531 38.87                             171   -0.4010 21.9 188 
 BAR2 EZ I        1531 41.51        83.7 0.32            166           21.9 188 
 BRR  HZ EP       1531 25.49                             153    0.1610 70.9 300 
 BRR  HE ES       1531 42.83                             153    0.8710 70.9 300 
 BRR  HZ I        1531 45.74        27.2 0.14            152           70.9 300 
 PAM  EZ EP       1531 26.60                             151    0.1010 79.0  40 
 PAM  EN ES       1531 43.90                             151   -0.1410 79.0  40 
 PAM  EZ I        1531 46.15        51.4 0.58            158           79.0  40 
 RUS  HZ EP       1531 27.50                             144   -0.3510 99.4 175 
 RUS  HN ES       1531 46.68                             144    0.2510 99.4 175 
 RUS  HZ I        1531 49.23        41.0 0.42            144           99.4 175 
 PTB  HZ EP       1531 30.33                             133   -0.68 9  147 259 
 PTB  HN ES       1531 51.46                             133   -0.61 9  147 259 
 PTB  HZ I        1531 58.97        47.2 0.34            132            147 259 
 TAM  HZ EP       1531 31.51                             131   -0.38 9  156 104 
 TAM  HE ES       1531 53.76                             131    0.14 9  156 104 
 SPBC HZ EP       1531 32.59                             130    0.10 9  162 219 
 SPBC HN ES       1531 54.87                             130    0.17 9  162 219 
 SPBC HZ I        1532  0.61        58.2 0.22            129            162 219 
 ZAR  HZ EP       1531 36.27                             123   -0.26 9  204 293 
 ZAR  HE ES       1532  2.24                             123    0.36 9  204 293 
 ZAR  HZ I        1532  9.04        25.1 0.14            124            204 293 
 NOR  HZ EP       1531 39.87                             119    0.19 8  233 235 
 NOR  HE ES       1532  7.09                             119   -0.40 8  233 235 
 NOR  HZ I        1532 11.54        25.3 0.26            119            233 235 
 CHI  HZ EP       1531 41.97                             118    0.32 8  247 195 
 CHI  HN ES       1532 11.27                             118    0.27 8  247 195 
 CHI  HZ I        1532 21.01        12.9 0.74            118            247 195 
 ROSC BZ EP       1531 42.68                             117    0.62 8  251 211 
 ROSC BE ES   3   1532 13.02                             117    1.30 2  251 211 
 ROSC BZ I        1532 19.64        29.3 0.40            118            251 211 
 HEL  HZ EP   2   1531 45.35                             115    1.17 4  271 256 
 HEL  HN ES   2   1532 14.07                             115   -1.43 4  271 256 
 HEL  HZ I        1532 22.23        18.6 0.28            116            271 256 
 GUY2CHZ EP   4   1531 48.67                             113    1.14 0  300 235 
 GUY2CHE ES   4   1532 24.73                             113    3.26 0  300 235 
 GUY2CHZ I        1532 27.98        16.5 0.28                           300 235 
 ELA  HZ EP   4   1531 53.19                             111    2.43 0  328 230 
 ELA  HN ES   4   1532 29.83                             111    2.61 0  328 230 
 ELA  HZ I        1532 35.30        12.5 0.34            111            328 230 
 ORTC HZ EP   3   1531 58.69                             107    0.88 1  394 216 
 ORTC HN ES   4   1532 41.45                             107    1.69 0  394 216 
 ORTC HZ I        1532 47.42         8.9 0.50            108            394 216 
                                                                                
