 2010  3 2 1755 42.0 L   6.795 -73.093138.7  RSN  7 0.3 2.1LRSN                1
 GAP=243        0.49       3.7     4.9  5.4 -0.1465E+00  0.1128E+02  0.6222E+01E
 Epicentro: LOS SANTOS - SANTANDER                                             3
 ACTION:UP  10-08-24 09:51 OP:vdl  STATUS:               ID:20100302175542 L   I
 2010-03-02-1752-42S.COL___094                                                 6
 STAT SP IPHASW D HRMM SECON CODA AMPLIT PERI AZIMU VELO SNR AR TRES W  DIS CAZ7
 BAR2 SZ EP       1756  0.80                             169     0.010   25 204 
 BAR2 SZ ES   2   1756 15.43                             169     0.0 5   25 204 
 BRR  HZ IP       1756  2.61                             149    -0.110   77 297 
 BRR  HZ I        1756  3.02        54.8 0.11                            77 297 
 BRR  HN ES   2   1756 19.08                             149     0.2 5   77 297 
 RUS  BZ EP       1756  4.85                             142    -0.110  100 179 
 RUS  BN ES   2   1756 23.03                             142     0.1 5  100 179 
 RUS  BZ I        1756 24.71        10.2 0.21                           100 179 
 CHI  HZ EP   2   1756 19.22                             115    -0.2 4  250 197 
 CHI  HE ES   2   1756 48.72                             115     0.1 4  250 197 
 CHI  HZ I        1756 54.90         4.5 0.74                           250 197 
 RREF BZ EP       1756 28.44                             109     0.1 7  326 230 
 RREF BN ES   2   1757  4.38                             109     0.0 3  326 230 
 RREF BZ I        1757 10.12         8.8 0.21                           326 230 
 DBB  SZ EP   2   1756 29.23                             108    -0.6 3  345 274 
 TOL  SZ EP       1756 30.99                             108     0.6 6  347 225 
 TOL  SZ ES       1757  7.87                             108    -0.3 6  347 225 
                                                                                
