 2015 10 2 1047  8.4 L   6.799 -73.156142.6  RSN 10 0.4 1.8LRSN                1
 GAP=135        1.02       3.2     4.2  6.4 -0.1944E+01  0.6482E+01 -0.3602E+00E
 Epicentro: LOS SANTOS - SANTANDER                                             3
 ACTION:UPD 15-12-22 20:36 OP:cam  STATUS:               ID:20151002104708 L   I
 OLDACT:REG 15-10-02 20:10 OP:spq  STATUS:               ID:20151002103748     3
 2015-10-02-1037-48M.COL___354                                                 6
 STAT SP IPHASW D HRMM SECON CODA AMPLIT PERI AZIMU VELO AIN AR TRES W  DIS CAZ7
 BAR2 EZ EP       1047 27.43                             170   -0.2010 23.1 187 
 BAR2 EZ ES   1   1047 42.72                             170    0.08 7 23.1 187 
 BAR2 EZ I        1047 43.79        11.2 0.50            172           23.1 187 
 BRR  HZ EP       1047 29.43                             152    0.2910 70.3 299 
 BRR  HN ES   1   1047 45.83                             152    0.51 7 70.3 299 
 BRR  HZ I        1047 51.08         8.9 0.34            151           70.3 299 
 PAM  EZ EP     C 1047 30.37                             150    0.0610 78.1  40 
 PAM  EE ES       1047 47.42                             150    0.0110 78.1  40 
 PAM  EZ I        1047 49.40         8.3 0.54            153           78.1  40 
 RUS  HZ EP   1   1047 32.18                             143    0.35 7  101 175 
 RUS  HN ES   1   1047 50.09                             143   -0.02 7  101 175 
 RUS  HZ I        1047 51.11         6.9 0.32            148            101 175 
 PTB  HZ EP       1047 34.89                             131   -0.10 9  147 259 
 PTB  HN ES       1047 55.15                             131   -0.60 9  147 259 
 PTB  HZ I        1047 57.54         4.1 0.28            133            147 259 
 OCA  HZ EP       1047 37.02                             129    0.57 9  160 354 
 OCA  HE ES       1047 57.61                             129   -0.72 9  160 354 
 OCA  HZ I        1048  1.68        13.6 0.14            131            160 354 
 ZAR  HZ EP       1047 41.06                             122    0.54 9  203 292 
 ZAR  HN ES       1048  6.25                             122    0.66 9  203 292 
 ZAR  HZ I        1048 12.14         7.8 0.26            123            203 292 
 NOR  HE ES       1048 11.09                             118   -0.39 8  234 234 
 NOR  HZ I        1048 12.84         3.7 0.18            120            234 234 
 SML  HZ EP       1047 43.84                             117   -0.95 8  243 336 
 SML  HE ES   1   1048 13.28                             117    0.09 6  243 336 
 SML  HZ I        1048 17.39         8.6 0.10            119            243 336 
 CHI  HZ EP       1047 45.76                             116   -0.11 8  248 195 
 CHI  HN ES   1   1048 15.30                             116    0.19 6  248 195 
                                                                                
