 2017 10 2 1832 35.6 L   6.781 -73.131141.1  RSN 10 0.3 1.9LRSN                1
 GAP=114        0.74       2.5     3.0  4.4 -0.3335E-01  0.4595E+01  0.2117E+01E
 Epicentro: LOS SANTOS - SANTANDER                                             3
 ACTION:UPD 17-11-07 19:27 OP:rebc STATUS:               ID:20171002183235 L   I
 OLDACT:REG 17-10-02 20:48 OP:dhb  STATUS:               ID:20171002182744     3
 2017-10-02-1828-00M.COL___438                                                 6
 STAT SP IPHASW D HRMM SECON CODA AMPLIT PERI AZIMU VELO AIN AR TRES W  DIS CAZ7
 BAR2 EZ IP     C 1832 54.44                             171   -0.1610 21.7 195 
 BAR2 EZ ES       1833  9.36                             171   -0.0810 21.7 195 
 BAR2 EZ I        1833 10.99        17.5 0.30            168           21.7 195 
 PAM  EZ IP     C 1832 57.37                             150    0.0510 78.0  38 
 PAM  EN ES       1833 14.35                             150    0.0710 78.0  38 
 PAM  EZ I        1833 16.84         7.4 0.56            155           78.0  38 
 RUS  HZ EP       1832 58.63                             143   -0.0710 98.4 177 
 RUS  HN ES       1833 17.18                             143    0.4410 98.4 177 
 RUS  HZ I        1833 18.46        14.0 0.36            144           98.4 177 
 SPBC HZ EP       1833  3.57                             128   -0.08 9  163 220 
 SPBC HE ES       1833 25.90                             128    0.34 9  163 220 
 SPBC HZ I        1833 32.45         9.2 0.10            129            163 220 
 YPLC HZ EP       1833  4.78                             126    0.02 9  174 151 
 YPLC HN ES       1833 27.01                             126   -0.53 9  174 151 
 YPLC HZ I        1833 29.72         9.0 0.30            128            174 151 
 ZAR  HZ EP       1833  8.54                             121    0.59 8  206 293 
 ZAR  HN ES       1833 32.68                             121   -0.52 8  206 293 
 ZAR  HZ I        1833 37.65         6.3 0.36            122            206 293 
 NOR  HN ES       1833 38.28                             117   -0.43 8  235 235 
 NOR  HZ I        1833 41.31         5.5 0.24            118            235 235 
 CHI  HZ EP       1833 12.72                             116   -0.12 8  247 196 
 CHI  HE ES       1833 42.05                             116    0.14 8  247 196 
 CHI  HZ I        1833 48.53         3.0 0.49            118            247 196 
 GUY2CHZ EP       1833 19.42                             111    0.44 7  301 235 
 GUY2CHE ES   4   1833 55.34                             111    2.50 0  301 235 
 GUY2CHZ I        1834  0.64         4.2 0.30                           301 235 
 PRA  HZ EP       1833 28.66                             106   -0.15 6  391 210 
 PRA  HE ES       1834 10.29                             106   -0.05 6  391 210 
 PRA  HZ I        1834 16.65         4.2 0.40            107            391 210 
                                                                                
