 2014 12 2 1050  1.5 L   6.784 -73.158138.9  RSN  6 0.4 1.4LRSN                1
 GAP=235        0.81       5.1     5.7  7.7  0.1175E+02  0.1048E+02  0.5307E+01E
 Epicentro: LOS SANTOS - SANTANDER                                             3
 ACTION:UPD 15-02-10 16:59 OP:nd   STATUS:               ID:20141202105001 L   I
 OLDACT:REG 14-12-02 20:36 OP:spq  STATUS:               ID:20141202104744     3
 2014-12-02-1047-44M.COL___300                                                 6
 STAT SP IPHASW D HRMM SECON CODA AMPLIT PERI AZIMU VELO AIN AR TRES W  DIS CAZ7
 BAR2 SZ EP   1   1050 20.20                             171   -0.12 7 21.4 187 
 BAR2 SZ ES   1   1050 34.23                             171   -0.72 7 21.4 187 
 BAR2 SZ I        1050 37.42         4.7 0.22            170           21.4 187 
 BRR  HZ EP       1050 22.06                             151    0.1210 70.9 300 
 BRR  HN ES       1050 38.34                             151    0.4910 70.9 300 
 BRR  HZ I        1050 39.75         3.7 0.34            151           70.9 300 
 RUS  HE ES   1   1050 42.69                             143    0.27 7 98.9 175 
 RUS  HZ I        1050 44.76         3.8 0.32            144           98.9 175 
 PTB  HE ES       1050 47.91                             131   -0.38 9  146 259 
 PTB  HZ I        1050 50.05         4.7 0.34            131            146 259 
 SPBC HZ EP       1050 29.29                             128   -0.02 9  161 219 
 SPBC HE ES   1   1050 51.31                             128    0.34 7  161 219 
 SPBC HZ I        1050 53.97         5.3 0.20            129            161 219 
 ZAR  HN ES       1050 58.28                             121   -0.13 9  203 293 
 ZAR  HZ I        1051  5.34         2.4 0.30            122            203 293 
                                                                                
