 2015  4 2 1553 53.0 L   6.789 -73.167146.2  RSN 17 0.4 2.4LRSN                1
 GAP=118        0.88       2.1     2.8  4.0 -0.9379E+00  0.3072E+01  0.8598E+00E
 Epicentro: LOS SANTOS - SANTANDER                                             3
 ACTION:UPD 15-06-03 16:51 OP:cam  STATUS:               ID:20150402155353 L   I
 OLDACT:REG 15-04-02 21:56 OP:fm   STATUS:               ID:20150402154749     3
 2015-04-02-1547-49M.COL___283                                                 6
 STAT SP IPHASW D HRMM SECON CODA AMPLIT PERI AZIMU VELO AIN AR TRES W  DIS CAZ7
 BAR2 EZ EP     D 1554 12.87                             171    0.2210 21.9 185 
 BAR2 EZ ES       1554 28.05                             171    0.0710 21.9 185 
 BAR2 EZ I        1554 29.08        49.6 0.26            169           21.9 185 
 BRR  HZ IP     C 1554 14.59                             153    0.4810 69.7 300 
 BRR  HN ES       1554 30.95                             153    0.3710 69.7 300 
 BRR  HZ I        1554 34.92        60.9 0.34            146           69.7 300 
 PAM  SZ IP     C 1554 15.83                             150    0.4310 79.8  40 
 PAM  SN ES       1554 32.53                             150   -0.3410 79.8  40 
 PAM  SZ I        1554 35.65        26.4 0.68            143           79.8  40 
 RUS  HZ EP       1554 16.87                             144    0.1510 99.6 175 
 RUS  HN ES       1554 34.60                             144   -0.6210 99.6 175 
 RUS  HZ I        1554 37.45        12.9 0.18            137           99.6 175 
 PTB  HZ EP       1554 19.38                             133   -0.39 9  145 259 
 PTB  HE ES       1554 40.62                             133   -0.04 9  145 259 
 PTB  HZ I        1554 45.12        24.8 0.10            124            145 259 
 SPBC HZ EP       1554 21.84                             130    0.54 9  161 219 
 SPBC HE ES       1554 43.71                             130    0.33 9  161 219 
 SPBC HZ I        1554 50.80        42.3 0.32            121            161 219 
 OCA  HZ EP       1554 21.08                             129   -0.34 9  161 354 
 OCA  HN ES       1554 43.89                             129    0.30 9  161 354 
 OCA  HZ I        1554 48.17        57.2 0.44            121            161 354 
 ZAR  HZ EP       1554 25.04                             123   -0.25 9  202 293 
 ZAR  HE ES       1554 50.07                             123   -0.41 9  202 293 
 ZAR  HZ I        1554 58.57        29.0 0.14            115            202 293 
 NOR  HZ EP       1554 28.96                             119    0.49 8  232 234 
 NOR  HE ES       1554 55.65                             119   -0.50 8  232 234 
 NOR  HZ I        1555  3.63        16.9 0.18            111            232 234 
 SML  HZ EP       1554 29.46                             117   -0.19 8  244 336 
 SML  HE ES       1554 57.95                             117   -0.30 8  244 336 
 SML  HZ I        1555  4.12        34.9 0.10            110            244 336 
 ROSC BZ EP       1554 31.20                             117    0.30 8  251 211 
 ROSC BE ES       1554 59.83                             117   -0.63 8  251 211 
 ROSC BZ I        1555  9.48        17.1 0.35            110            251 211 
 HEL  HZ EP       1554 32.85                             115   -0.09 8  270 256 
 HEL  HE ES       1555  4.29                             115    0.18 8  270 256 
 HEL  HZ I        1555 13.10        14.0 0.32            108            270 256 
 URE  HZ EP   4   1554 32.62                             114   -1.27 0  282 292 
 URE  HE ES       1555  5.38                             114   -0.41 7  282 292 
 URE  HZ I        1555 13.66        15.3 0.16            107            282 292 
 GUY2CHZ EP       1554 36.48                             113    0.15 7  299 235 
 GUY2CHN ES       1555 10.57                             113    0.44 7  299 235 
 GUY2CHZ I        1555 21.21        12.0 0.56                           299 235 
 PTGC HZ EP       1554 36.16                             112   -0.68 7  308 158 
 PTGC HN ES   4   1555  7.74                             112   -3.30 0  308 158 
 PTGC HZ I        1555 10.90        18.5 0.38            105            308 158 
 RREF HN EP       1554 39.03                             111    0.17 7  319 229 
 RREF HE ES       1555 14.73                             111    0.08 7  319 229 
 RREF HN I        1555 27.13        11.7 0.32            104            319 229 
 ORTC HZ EP       1554 46.62                             106   -0.03 6  393 216 
 ORTC HZ I        1555 33.67         6.2 0.50            100            393 216 
                                                                                
