 2016  4 2 1148 48.1 L   6.799 -73.141139.4  RSN  4 0.4 1.2LRSN                1
 GAP=137        1.08       5.8     6.6  9.7  0.1313E+01  0.2781E+02 -0.1169E+02E
 Epicentro: LOS SANTOS - SANTANDER                                             3
 ACTION:UPD 16-05-05 14:18 OP:rebc STATUS:               ID:20160402114848 L   I
 OLDACT:REG 16-04-02 20:32 OP:mh   STATUS:               ID:20160402114740     3
 2016-04-02-1147-40M.COL___306                                                 6
 STAT SP IPHASW D HRMM SECON CODA AMPLIT PERI AZIMU VELO AIN AR TRES W  DIS CAZ7
 BAR2 EZ EP       1149  6.43                             170   -0.5610 23.3 191 
 BAR2 EZ ES       1149 21.12                             170   -0.5810 23.3 191 
 BAR2 EZ I        1149 23.24         5.2 0.22            171           23.3 191 
 PAM  EZ EP       1149  9.68                             150    0.0310 77.1  39 
 PAM  EN ES       1149 26.76                             150    0.3310 77.1  39 
 PAM  EZ I        1149 29.23         2.7 0.38            153           77.1  39 
 RUS  HZ EP   1   1149 10.93                             142   -0.31 7  100 176 
 RUS  HN ES       1149 29.95                             142    0.6810  100 176 
 RUS  HZ I        1149 31.30         1.8 0.37            146            100 176 
 ZAR  HZ EP       1149 20.44                             121    0.22 9  205 292 
 ZAR  HN ES       1149 45.41                             121    0.15 9  205 292 
 ZAR  HZ I        1149 50.62         2.4 0.50            122            205 292 
                                                                                
