 2015  9 2 1304 58.0 L   6.876 -73.182159.6  RSN  4 0.3 1.6LRSN                1
 GAP=280        0.77       5.4     8.0  7.6 -0.9255E+01 -0.1649E+02 -0.5411E+01E
 Epicentro: BETULIA - SANTANDER                                                3
 ACTION:UPD 15-10-28 16:23 OP:cam  STATUS:               ID:20150902130458 L   I
 OLDACT:UP  15-09-03 00:04 OP:ak   STATUS:               ID:20150902125748     3
 OLDACT:REG 15-09-02 21:24 OP:ak   STATUS:               ID:20150902125748     3
 2015-09-02-1257-48M.COL___358                                                 6
 STAT SP IPHASW D HRMM SECON CODA AMPLIT PERI AZIMU VELO AIN AR TRES W  DIS CAZ7
 BRR  HZ EP       13 5 20.70                             157    0.3710 63.9 294 
 BRR  HN ES       13 5 37.77                             157    0.0510 63.9 294 
 PTB  HZ EP       13 5 25.77                             135   -0.22 9  146 255 
 PTB  HE ES       13 5 47.38                             135   -0.41 9  146 255 
 PTB  HZ I        13 5 54.12         4.1 0.36            127            146 255 
 ZAR  HZ EP   1   13 5 31.11                             126    0.36 6  197 290 
 ZAR  HN ES       13 5 56.70                             126    0.44 9  197 290 
 ZAR  HZ I        13 6  3.89         2.4 0.21            120            197 290 
 SML  HZ EP       13 5 34.32                             121   -0.18 8  234 335 
 SML  HN ES       13 6  2.57                             121   -0.37 8  234 335 
 SML  HZ I        13 6  5.81         3.8 0.07            118            234 335 
                                                                                
