 2017 11 2 1528 38.2 L   6.767 -73.140139.5  RSN 11 0.5 1.8LRSN                1
 GAP=139        1.11       4.4     4.5  7.3 -0.1002E+01  0.8516E+01  0.5516E+01E
 Epicentro: LOS SANTOS - SANTANDER                                             3
 ACTION:UPD 17-12-12 19:51 OP:rebc STATUS:               ID:20171102152838 L   I
 OLDACT:UP  17-11-02 23:42 OP:mg   STATUS:               ID:20171102152741     3
 OLDACT:UP  17-11-02 23:41 OP:mg   STATUS:               ID:20171102152741     3
 OLDACT:REG 17-11-02 20:27 OP:mg   STATUS:               ID:20171102152741     3
 2017-11-02-1528-00M.COL___435                                                 6
 STAT SP IPHASW D HRMM SECON CODA AMPLIT PERI AZIMU VELO AIN AR TRES W  DIS CAZ7
 BAR2 EZ EP     C 1528 56.89                             171   -0.1510 19.9 194 
 BAR2 EZ ES   1   1529 11.31                             171   -0.40 7 19.9 194 
 BAR2 EZ I        1529 12.77        23.7 0.16            169           19.9 194 
 BRR  HZ IP     D 1528 58.87                             151    0.0310 73.6 301 
 BRR  HN ES       1529 15.50                             151    0.5710 73.6 301 
 BRR  HZ I        1529 17.40        20.2 0.25            151           73.6 301 
 PAM  EZ EP     D 1528 59.72                             149   -0.2110 79.8  37 
 PAM  EN ES       1529 16.68                             149   -0.1810 79.8  37 
 PAM  EZ I        1529 19.10        11.5 0.60            153           79.8  37 
 RUS  HZ EP       1529  0.85                             144   -0.2410 96.9 176 
 RUS  HN ES       1529 19.49                             144    0.5610 96.9 176 
 RUS  HZ I        1529 20.28        12.7 0.36            143           96.9 176 
 PTB  HZ EP   2   1529  3.43                             131   -1.26 5  148 260 
 PTB  HN ES       1529 24.46                             131   -0.87 9  148 260 
 PTB  HZ I        1529 26.91         6.5 0.12            130            148 260 
 SPBC HN ES   2   1529 28.71                             128    1.01 5  161 220 
 SPBC HZ I        1529 34.44        12.3 0.09            128            161 220 
 ZAR  HZ EP       1529 11.22                             121    0.74 8  206 293 
 ZAR  HN ES       1529 35.99                             121    0.35 8  206 293 
 ZAR  HZ I        1529 40.85         6.4 0.15            121            206 293 
 NOR  HZ EP   1   1529 13.03                             117   -0.40 6  233 235 
 NOR  HN ES       1529 40.46                             117   -0.43 8  233 235 
 NOR  HZ I        1529 42.82         5.1 0.16            118            233 235 
 CHI  HZ EP   1   1529 15.62                             116    0.41 6  245 196 
 CHI  HE ES   4   1529 46.53                             116    2.46 0  245 196 
 CHI  HZ I        1529 49.03         1.6 0.25            117            245 196 
 GUY2CHZ EP   4   1529 23.51                             111    2.14 0  300 235 
 GUY2CHN ES   4   1529 59.20                             111    4.17 0  300 235 
 GUY2CHZ I        1530  2.32         3.6 0.24                           300 235 
 PRA  HZ EP   2   1529 32.26                             106    1.06 3  389 210 
 PRA  HN ES   1   1530 12.94                             106    0.42 4  389 210 
 PRA  HZ I        1530 17.50         2.1 0.27            106            389 210 
                                                                                
