 2010  8 2 1730 36.3 L   7.106 -73.150125.5  RSN  9 0.3 2.1LRSN                1
 GAP=153        0.68       3.5     7.0  6.3 -0.7677E+01  0.4722E+01  0.7984E+00E
 Epicentro: BUCARAMANGA - SANTANDER                                            3
 ACTION:UP  10-09-07 10:51 OP:vdl  STATUS:               ID:20100802173036 L   I
 2010-08-02-1727-46S.COL___123                                                 6
 STAT SP IPHASW D HRMM SECON CODA AMPLIT PERI AZIMU VELO SNR AR TRES W  DIS CAZ7
 GIR2 SZ EP   1   1730 53.02                             177     0.0 7    6 237 
 GIR2 SZ ES   2   1731  6.23                             177     0.1 5    6 237 
 BAR2 SZ IP     D 1730 54.66                             154    -0.110   57 184 
 BAR2 SZ ES   2   1731  8.99                             154    -0.2 5   57 184 
 BRR  HZ EP   1   1730 54.42                             152    -0.3 7   62 270 
 BRR  HN ES   2   1731  9.12                             152     0.0 5   62 270 
 BRR  HZ I        1731 10.54        31.3 0.14                            62 270 
 GUE  SZ EP   1   1730 56.46                             144    -0.1 7   84  17 
 GRA  SZ IP     D 1730 57.48                             141     0.410   94  24 
 GRA  SZ I        1730 58.74        26.0 0.31                            94  24 
 GRA  SZ ES   2   1731 14.00                             141     0.6 5   94  24 
 OCA  SZ EP   1   1730 59.40                             132    -0.5 7  127 352 
 OCA  SZ ES   2   1731 18.07                             132    -0.2 5  127 352 
 OCA  SZ I        1731 19.99        15.8 0.15                           127 352 
 RUS  HZ EP   1   1731  0.82                             130    -0.2 7  134 177 
 RUS  HZ I        1731  1.07        12.1 0.21                           134 177 
 RUS  HE ES   2   1731 20.49                             130     0.1 5  134 177 
 HEL  HZ EP   1   1731 17.42                             109     0.8 6  282 249 
 HEL  HZ I        1731 57.67         5.9 0.45                           282 249 
 PRA  HZ EP   1   1731 32.35                             102    -0.3 4  422 207 
 PRA  HN ES   2   1732 17.42                             102     0.7 3  422 207 
 PRA  HZ I        1732 23.70         7.6 0.61                           422 207 
                                                                                
