 2013  2 2 1631  4.5 L   6.408 -73.707104.0  RSN  6 0.4 1.4LRSN                1
 GAP=105        0.71       3.6     3.1  7.0  0.1009E-01  0.2644E+01 -0.1241E+01E
 Epicentro: SANTA HELENA DEL OPON - SANTANDER                                  3
 ACTION:UPD 13-03-12 09:29 OP:ep   STATUS:               ID:20130202163104 L   I
 2013-02-02-1630-00M.COL___241                                                 6
 STAT SP IPHASW D HRMM SECON CODA AMPLIT PERI AZIMU VELO AIN AR TRES W  DIS CAZ7
 BAR2 SZ EP       1631 20.77                             147   -0.2010 61.5  71 
 BAR2 SZ ES   1   1631 34.14                             147    0.31 7 61.5  71 
 BAR2 SZ I        1631 35.68        14.9 0.34            152           61.5  71 
 BRR  HZ EP       1631 21.87                             140    0.0910 77.3 360 
 BRR  HN ES   1   1631 35.40                             140    0.13 7 77.3 360 
 BRR  HN I        1631 39.60        10.9 0.38            145           77.3 360 
 PTB  HZ EP   1   1631 21.87                             138   -0.48 7 84.2 280 
 PTB  HN ES   1   1631 36.32                             138    0.03 7 84.2 280 
 PTB  HZ I        1631 36.81         4.2 0.07            142           84.2 280 
 RUS  HZ EP   1   1631 23.14                             137   -0.31 7 89.5 130 
 RUS  HN ES       1631 38.31                             137    0.0710 89.5 130 
 RUS  HN I        1631 41.31         4.1 0.24            141           89.5 130 
 PAM  SZ EP   1   1631 30.19                             120    0.74 7  152  47 
 PAM  SE ES   1   1631 48.35                             120   -0.57 7  152  47 
 PAM  SZ I        1631 49.83         3.6 0.14            125            152  47 
 NOR  HZ EP   2   1631 30.21                             118    0.54 5  159 234 
 NOR  HE ES   2   1631 49.40                             118    0.08 5  159 234 
 NOR  HZ I        1631 52.59         4.7 0.21            123            159 234 
                                                                                
