 2012  1 2 1326 46.8 L   6.776 -73.043145.0  RSN  5 0.1 1.3LRSN                1
 GAP=151        0.35       4.5     7.2  4.8  0.2270E+02 -0.1139E+02 -0.3026E+01E
 Epicentro: LOS SANTOS - SANTANDER                                             3
 ACTION:UP  12-02-03 08:13 OP:REBC STATUS:               ID:20120102132646 L   I
 2012-01-02-1320-00M.COL___187                                                 6
 STAT SP IPHASW D HRMM SECON CODA AMPLIT PERI AZIMU VELO SNR AR TRES W  DIS CAZ7
 BAR2 SZ EP       1327  6.27                             169    -0.110   25 217 
 BAR2 SZ ES   2   1327 21.90                             169     0.2 5   25 217 
 BAR2 SZ I        1327 24.84         4.2 0.52                            25 217 
 PAM  SE ES   3   1327 25.62                             152    -0.1 2   73  31 
 BRR  HZ EP       1327  8.65                             149     0.110   83 296 
 BRR  HZ I        1327  8.69         7.3 0.20                            83 296 
 BRR  HN ES   1   1327 25.39                             149    -0.1 7   83 296 
 RUS  HZ EP       1327 10.27                             144     0.010   98 183 
 RUS  HE ES   2   1327 28.61                             144     0.0 5   98 183 
 RUS  HZ I        1327 30.16         2.3 0.23                            98 183 
 OCA  SZ EP   3   1327 15.67                             129     0.2 2  165 349 
                                                                                
