 2013 12 2 1601 20.4 L   6.737 -73.132144.8  RSN  5 0.5 1.5LRSN                1
 GAP=141        1.04      10.3     6.9  8.7 -0.2285E+02  0.1736E+01  0.1149E+02E
 Epicentro: JORDAN - SANTANDER                                                 3
 ACTION:UPD 14-01-13 10:15 OP:ep   STATUS:               ID:20131202160120 L   I
 OLDACT:UP  13-12-02 16:28 OP:cam  STATUS:               ID:20131202160000     3
 OLDACT:REG 13-12-02 14:31 OP:cam  STATUS:               ID:20131202160000     3
 2013-12-02-1600-00M.COL___282                                                 6
 STAT SP IPHASW D HRMM SECON CODA AMPLIT PERI AZIMU VELO AIN AR TRES W  DIS CAZ7
 BAR2 SZ EP   1   16 1 39.97                             173    0.22 7 16.9 199 
 BAR2 SZ ES       16 1 54.79                             173   -0.0910 16.9 199 
 BAR2 SZ I        16 2  0.57         9.4 0.26            168           16.9 199 
 BRR  HZ EP   1   16 1 42.45                             151    0.77 7 76.1 303 
 BRR  HE ES       16 1 58.77                             151    0.4510 76.1 303 
 PAM  SZ EP       16 1 42.69                             149   -0.0610 82.0  36 
 PAM  SE ES   1   16 1 59.60                             149   -0.61 7 82.0  36 
 PAM  SZ I        16 2  1.47         5.5 0.50            157           82.0  36 
 RUS  HZ EP   2   16 1 44.35                             146    0.85 5 93.5 177 
 PTB  HZ EP       16 1 46.74                             132   -0.53 9  148 262 
 PTB  HN ES   1   16 2  7.72                             132   -0.55 7  148 262 
 PTB  HZ I        16 2 13.01         4.1 0.34            134            148 262 
                                                                                
