 2015  4 2 1309 32.4 L   6.755 -73.157141.3  RSN  6 0.5 1.7LRSN                1
 GAP=199        1.26       6.6     7.9  9.1  0.2272E+02  0.7376E+01 -0.1805E+02E
 Epicentro: LOS SANTOS - SANTANDER                                             3
 ACTION:UPD 15-06-03 16:51 OP:cam  STATUS:               ID:20150402130932 L   I
 OLDACT:REG 15-04-02 21:24 OP:fm   STATUS:               ID:20150402130746     3
 2015-04-02-1307-46M.COL___277                                                 6
 STAT SP IPHASW D HRMM SECON CODA AMPLIT PERI AZIMU VELO AIN AR TRES W  DIS CAZ7
 BAR2 EZ EP       13 9 51.60                             172    0.2210 18.3 189 
 BAR2 EZ ES       1310  6.09                             172   -0.1110 18.3 189 
 BAR2 EZ I        1310  9.70         6.6 0.34            177           18.3 189 
 BRR  HZ EP       13 9 53.48                             151    0.3510 72.7 302 
 BRR  HE ES       1310 10.11                             151    0.7910 72.7 302 
 BRR  HZ I        1310 14.06        18.6 0.46            150           72.7 302 
 RUS  HZ EP   1   13 9 55.86                             144    0.51 7 95.7 175 
 RUS  HN ES       1310 12.63                             144   -0.6310 95.7 175 
 PTB  HZ EP       13 9 58.65                             131   -0.15 9  146 261 
 PTB  HE ES       1310 18.99                             131   -0.41 9  146 261 
 PTB  HZ I        1310 21.20         4.1 0.16            134            146 261 
 ZAR  HZ EP       1310  5.34                             121    0.72 9  205 294 
 ZAR  HN ES       1310 29.62                             121   -0.15 9  205 294 
 ZAR  HZ I        1310 36.21         4.5 0.30            123            205 294 
 SML  HZ EP   1   1310  8.57                             116   -0.63 6  248 336 
 SML  HN ES       1310 36.94                             116   -0.97 8  248 336 
 SML  HZ I        1310 44.57         4.2 0.10            118            248 336 
                                                                                
