 2015  8 2 1846 23.6 L   6.801 -73.138136.4  RSN  9 0.4 1.8LRSN                1
 GAP=137        1.08       3.7     4.4  6.2 -0.2071E+01  0.9394E+01 -0.3561E+00E
 Epicentro: LOS SANTOS - SANTANDER                                             3
 ACTION:UPD 15-09-15 22:59 OP:cam  STATUS:               ID:20150802184623 L   I
 OLDACT:DUP 15-08-03 00:08 OP:stll STATUS:               ID:20150802183750d    3
 2015-08-02-1837-46M.COL___349                                                 6
 STAT SP IPHASW D HRMM SECON CODA AMPLIT PERI AZIMU VELO AIN AR TRES W  DIS CAZ7
 BAR2 EZ EP       1846 42.38                             170    0.2310 23.6 192 
 BAR2 EZ ES       1846 56.37                             170   -0.2110 23.6 192 
 BAR2 EZ I        1846 57.84        20.2 0.30            163           23.6 192 
 BRR  HZ EP     C 1846 44.12                             151    0.3010 71.9 298 
 BRR  HE ES       1847  0.48                             151    0.9210 71.9 298 
 BRR  HZ I        1847  2.62        10.4 0.26            141           71.9 298 
 PAM  EZ EP       1846 45.05                             149    0.2210 76.8  39 
 PAM  EZ I        1846 45.43        16.1 0.18            148           76.8  39 
 PAM  EN ES       1847  1.49                             149    0.1410 76.8  39 
 RUS  HZ EP       1846 46.51                             142    0.0310  101 177 
 RUS  HN ES       1847  3.94                             142   -0.3610  101 177 
 RUS  HZ I        1847  6.27         6.1 0.28            135            101 177 
 CPBEREZ EP       1846 49.38                             130   -0.56 9  149 259 
 CPBEREN ES       1847  9.97                             130   -0.48 9  149 259 
 OCA  HZ EP       1846 51.01                             127   -0.23 9  160 353 
 OCA  HN ES       1847 12.03                             127   -0.73 9  160 353 
 OCA  HZ I        1847 15.88        17.8 0.48            121            160 353 
 ZAR  HZ EP       1846 55.67                             120    0.11 9  205 292 
 ZAR  HN ES       1847 20.27                             120   -0.20 9  205 292 
 ZAR  HZ I        1847 28.65         5.1 0.28            113            205 292 
 HEL  HZ EP       1847  4.33                             113    0.85 8  273 256 
 HEL  HZ I        1847 43.60         3.2 0.30            106            273 256 
 GUY2CHZ EP       1847  6.77                             110   -0.14 7  302 235 
 GUY2CHN ES       1847 40.83                             110    0.17 7  302 235 
 GUY2CHZ I        1847 47.53         2.7 0.24                           302 235 
                                                                                
