 2016  4 2 1208 43.8 L   6.821 -73.126145.9  RSN 17 0.5 2.4LRSN                1
 GAP=120        1.07       3.0     3.8  5.5 -0.3574E+01  0.4451E+01  0.3304E+00E
 Epicentro: LOS SANTOS - SANTANDER                                             3
 ACTION:UPD 16-05-05 14:18 OP:rebc STATUS:               ID:20160402120843 L   I
 OLDACT:UP  16-04-02 23:00 OP:mh   STATUS:               ID:20160402120744     3
 OLDACT:UP  16-04-02 22:59 OP:mh   STATUS:               ID:20160402120744     3
 OLDACT:UP  16-04-02 22:57 OP:mh   STATUS:               ID:20160402120744     3
 OLDACT:REG 16-04-02 20:32 OP:mh   STATUS:               ID:20160402120744     3
 2016-04-02-1207-44M.COL___305                                                 6
 STAT SP IPHASW D HRMM SECON CODA AMPLIT PERI AZIMU VELO AIN AR TRES W  DIS CAZ7
 BAR2 EZ EP       12 9  3.72                             169    0.1910 26.0 194 
 BAR2 EZ ES       12 9 18.91                             169    0.0110 26.0 194 
 BAR2 EZ I        12 9 20.52        58.5 0.30            170           26.0 194 
 PAM  EZ EP       12 9  6.64                             152    0.7710 74.2  39 
 PAM  EN ES       12 9 23.40                             152    0.3310 74.2  39 
 PAM  EZ I        12 9 25.63        29.6 0.52            153           74.2  39 
 RUS  HZ EP       12 9  7.70                             143   -0.0510  103 177 
 RUS  HN ES       12 9 26.04                             143   -0.3610  103 177 
 RUS  HZ I        12 9 27.25        16.8 0.20            148            103 177 
 PTB  HZ EP       12 9 10.34                             132   -0.70 9  150 258 
 PTB  HN ES       12 9 31.42                             132   -0.85 9  150 258 
 PTB  HZ I        12 9 37.81        21.4 0.36            131            150 258 
 OCA  HZ EP       12 9 11.83                             130   -0.13 9  158 352 
 OCA  HN ES       12 9 34.14                             130    0.23 9  158 352 
 OCA  HZ I        12 9 50.43        48.1 0.26            130            158 352 
 SPBC HZ EP       12 9 12.63                             128   -0.01 9  166 219 
 SPBC HN ES       12 9 35.09                             128   -0.01 9  166 219 
 SPBC HZ I        12 9 38.80        37.7 0.38            130            166 219 
 ZAR  HZ EP       12 9 16.53                             122    0.13 8  205 291 
 ZAR  HN ES       12 9 41.64                             122   -0.17 8  205 291 
 ZAR  HZ I        12 9 47.00        24.6 0.12            122            205 291 
 NOR  HZ EP       12 9 19.34                             118   -0.56 8  238 234 
 NOR  HN ES       12 9 48.39                             118    0.36 8  238 234 
 NOR  HZ I        12 9 57.09        15.4 0.44            119            238 234 
 CHI  HZ EP       12 9 21.90                             117    0.07 8  251 196 
 CHI  HN ES       12 9 51.13                             117   -0.35 8  251 196 
 CHI  HZ I        12 9 54.80        13.6 0.39            120            251 196 
 ROSC BN ES       12 9 52.97                             116    0.68 8  256 211 
 HEL  HZ EP   1   12 9 25.11                             115    0.77 6  275 255 
 HEL  HN ES       12 9 55.82                             115   -0.12 8  275 255 
 HEL  HZ I        1210  1.58        13.3 0.30            115            275 255 
 URE  HZ EP   4   12 9 27.23                             113    2.19 0  285 291 
 URE  HN ES   4   12 9 56.70                             113   -0.48 0  285 291 
 URE  HZ I        1210  2.69        11.4 0.14            114            285 291 
 SOCV BZ EP   1   12 9 25.67                             112   -0.87 5  298  57 
 SOCV BN ES   4   12 9 57.26                             112   -2.59 0  298  57 
 GUY2CHZ EP       12 9 28.80                             112    1.01 7  304 235 
 GUY2CHN ES   4   1210  5.65                             112    3.57 0  304 235 
 GUY2CHZ I        1210  9.81        14.0 0.36                           304 235 
 PTGC HZ EP   4   12 9 26.87                             111   -0.97 0  310 159 
 SDV  BZ EP       12 9 33.04                             108   -0.47 6  357  50 
 SDV  BE ES   4   1210 10.81                             108   -1.45 0  357  50 
 ANIL HE ES   4   1210 15.86                             108    2.72 0  360 225 
 ANIL HZ I        1210 18.23        28.6 0.59            110            360 225 
 ORTC HZ EP       12 9 37.53                             106   -0.59 6  399 216 
 ORTC HN ES       1210 21.22                             106    0.76 6  399 216 
 ORTC HZ I        1210 24.71         7.7 0.26            108            399 216 
                                                                                
