 2017 10 2 1616 20.9 L   6.759 -73.121138.0  RSN 12 0.5 2.1LRSN                1
 GAP=116        1.10       3.7     3.9  6.5  0.1475E+00  0.1100E+02  0.2402E+01E
 Epicentro: LOS SANTOS - SANTANDER                                             3
 ACTION:UPD 17-11-07 19:27 OP:rebc STATUS:               ID:20171002161620 L   I
 OLDACT:DUP 17-10-02 23:37 OP:dhb  STATUS:               ID:20171002160744d    3
 OLDACT:REG 17-10-02 20:38 OP:dhb  STATUS:               ID:20171002160743     3
 2017-10-02-1608-00M.COL___435                                                 6
 STAT SP IPHASW D HRMM SECON CODA AMPLIT PERI AZIMU VELO AIN AR TRES W  DIS CAZ7
 BAR2 EZ IP     D 1616 39.26                             171   -0.3110 19.7 200 
 BAR2 EZ ES       1616 54.31                             171    0.2110 19.7 200 
 BAR2 EZ I        1616 56.18        43.3 0.28            169           19.7 200 
 PAM  EZ IP     C 1616 42.55                             149    0.0910 79.3  36 
 PAM  EN ES       1616 59.51                             149    0.2710 79.3  36 
 PAM  EZ I        1617  1.93        32.9 0.46            153           79.3  36 
 RUS  HZ IP     D 1616 43.00                             144   -0.5910 95.9 178 
 RUS  HN ES       1617  1.56                             144    0.3010 95.9 178 
 RUS  HZ I        1617  3.06        25.2 0.34            145           95.9 178 
 SPBC HZ EP       1616 47.95                             128   -0.74 9  161 221 
 SPBC HN ES       1617  9.99                             128   -0.35 9  161 221 
 SPBC HZ I        1617 12.49        18.0 0.19            128            161 221 
 YPLC HZ IP     D 1616 49.27                             126   -0.39 9  172 151 
 YPLC HE ES       1617 12.45                             126    0.40 9  172 151 
 YPLC HZ I        1617 15.59        12.1 0.30            129            172 151 
 ZAR  HZ EP       1616 53.93                             120    0.58 8  208 293 
 ZAR  HN ES       1617 18.02                             120   -0.60 8  208 293 
 ZAR  HZ I        1617 26.89        18.1 0.30            121            208 293 
 NOR  HZ EP       1616 55.41                             117   -0.79 8  234 236 
 NOR  HE ES       1617 23.61                             117   -0.09 8  234 236 
 NOR  HZ I        1617 28.49        10.1 0.28            118            234 236 
 CHI  HZ EP       1616 58.08                             116    0.25 8  245 196 
 CHI  HE ES       1617 26.77                             116    0.18 8  245 196 
 CHI  HZ I        1617 30.69         5.0 0.30            118            245 196 
 HEL  HZ EP       1617  1.07                             113    0.12 8  274 257 
 HEL  HE ES       1617 32.75                             113    0.59 8  274 257 
 HEL  HZ I        1617 38.25         6.2 0.34            114            274 257 
 GUY2CHZ EP   2   1617  5.34                             111    1.17 4  301 236 
 GUY2CHE ES   4   1617 41.79                             111    3.91 0  301 236 
 GUY2CHZ I        1617 45.69         6.6 0.64                           301 236 
 ELA  HZ EP   4   1617 10.11                             109    2.72 0  328 230 
 ELA  HE ES       1617 44.53                             109    0.92 7  328 230 
 ELA  HZ I        1617 54.28         4.0 0.52            110            328 230 
 DBB  EZ EP       1617  9.11                             108    0.63 7  343 275 
 DBB  EN ES   4   1617 43.49                             108   -2.07 0  343 275 
 DBB  EZ I        1617 46.26         4.9 0.16            109            343 275 
                                                                                
