 2016 12 2 1449  9.7 L   6.774 -73.113154.6  RSN  4 0.3 1.4LRSN                1
 GAP=165        0.72       6.6     3.9  6.1 -0.7853E+01  0.9859E+01 -0.7592E+01E
 Epicentro: LOS SANTOS - SANTANDER                                             3
 ACTION:UPD 17-01-11 20:12 OP:rebc STATUS:               ID:20161202144909 L   I
 OLDACT:REG 16-12-02 21:00 OP:lv   STATUS:               ID:20161202144745     3
 2016-12-02-1448-00M.COL___328                                                 6
 STAT SP IPHASW D HRMM SECON CODA AMPLIT PERI AZIMU VELO AIN AR TRES W  DIS CAZ7
 BAR2 EZ EP       1449 30.89                             172    0.4810 21.5 201 
 BAR2 EZ ES       1449 46.43                             172   -0.0910 21.5 201 
 BAR2 EZ I        1449 50.11         5.5 0.26            172           21.5 201 
 PAM  EZ EP       1449 32.69                             152   -0.2210 77.4  36 
 PAM  EN ES       1449 50.98                             152    0.0010 77.4  36 
 PAM  EZ I        1449 52.88         3.0 0.31            154           77.4  36 
 PTB  HZ EP       1449 37.78                             133    0.07 9  151 260 
 PTB  HE ES       1449 59.26                             133   -0.27 9  151 260 
 PTB  HZ I        1450  2.35         4.6 0.16            135            151 260 
 ZAR  HZ EP       1449 42.87                             124   -0.36 8  208 292 
 ZAR  HN ES       1450  9.70                             124    0.36 8  208 292 
 ZAR  HZ I        1450 15.64         2.2 0.11            125            208 292 
                                                                                
