 2013  3 2 1035 31.1 L   6.778 -73.125150.6  RSN  9 0.4 1.9LRSN                1
 GAP=140        0.80       3.9     4.6  6.3 -0.1515E+01  0.9605E+01 -0.3314E+01E
 Epicentro: LOS SANTOS - SANTANDER                                             3
 ACTION:UPD 13-04-09 13:59 OP:ep   STATUS:               ID:20130302103531 L   I
 2013-03-02-1030-00M.COL___228                                                 6
 STAT SP IPHASW D HRMM SECON CODA AMPLIT PERI AZIMU VELO AIN AR TRES W  DIS CAZ7
 BAR2 SZ EP   1   1035 51.42                             171    0.12 7 21.5 197 
 BAR2 SZ ES   1   1036  6.71                             171   -0.33 7 21.5 197 
 BAR2 SZ I        1036  8.13        19.5 0.36            169           21.5 197 
 BRR  HZ EP     C 1035 53.29                             152    0.3210 74.4 299 
 BRR  HN ES   1   1036 10.57                             152    0.55 7 74.4 299 
 BRR  HZ I        1036 14.74        10.9 0.30            149           74.4 299 
 PAM  SE ES   1   1036 11.54                             151   -0.10 7 77.9  37 
 PAM  SZ I        1036 13.61        11.5 0.52            157           77.9  37 
 RUS  HZ EP   1   1035 55.21                             145    0.04 7 98.0 177 
 RUS  HN ES   1   1036 14.27                             145    0.34 7 98.0 177 
 RUS  HZ I        1036 16.19         4.3 0.32            150           98.0 177 
 PTB  HZ EP   1   1035 58.05                             133   -0.60 7  150 260 
 PTB  HN ES   1   1036 19.17                             133   -0.95 7  150 260 
 PTB  HZ I        1036 26.69        17.3 0.28            133            150 260 
 OCA  HZ EP       1036  0.10                             130    0.04 9  163 352 
 OCA  HN ES   1   1036 22.09                             130   -0.55 7  163 352 
 OCA  HZ I        1036 26.32        12.4 0.32            133            163 352 
 ZAR  HZ EP   1   1036  4.10                             123   -0.10 6  207 293 
 ZAR  HN ES   1   1036 30.59                             123    0.59 6  207 293 
 ZAR  HZ I        1036 37.56         9.1 0.44            124            207 293 
 SML  HN ES   2   1036 37.70                             118    0.28 4  247 335 
 HEL  HZ EP   1   1036 11.76                             116    0.00 6  274 256 
 HEL  HN ES   1   1036 43.69                             116    0.23 6  274 256 
 HEL  HZ I        1036 50.61         5.3 0.28            117            274 256 
                                                                                
