 2010 10 2 1645 21.4 L   6.824 -72.982146.0  RSN  6 0.3 2.0LRSN                1
 GAP=255        0.77       5.5     8.3 10.0  0.9798E+01 -0.1489E+02  0.8807E+01E
 Epicentro: CEPITA - SANTANDER                                                 3
 ACTION:UP  11-02-18 11:07 OP:tino STATUS:               ID:20101002164521 L   I
 2010-10-02-1642-57S.COL___125                                                 6
 STAT SP IPHASW D HRMM SECON CODA AMPLIT PERI AZIMU VELO SNR AR TRES W  DIS CAZ7
 BTL  SZ EP       1645 41.66                             167     0.410   33 288 
 BAR2 SZ EP       1645 41.19                             166    -0.110   34 221 
 BAR2 SZ I        1645 59.50        23.6 0.54                            34 221 
 BRR  HZ EP       1645 43.15                             148    -0.410   87 291 
 BRR  HN ES       1646  0.75                             148     0.010   87 291 
 BRR  HZ I        1646  3.50        28.0 0.20                            87 291 
 RUS  HZ EP   1   1645 45.62                             143     0.2 7  104 186 
 RUS  HN ES   1   1646  4.13                             143     0.0 7  104 186 
 RUS  HZ I        1646  4.97         8.2 0.30                           104 186 
 CHI  HN ES   2   1646 29.35                             116    -0.7 4  257 199 
 RREF HN ES   1   1646 47.15                             110     0.4 5  337 231 
 RREF HZ I        1646 52.25         4.6 0.24                           337 231 
                                                                                
