 2015  1 2 1021 37.4 L   6.784 -73.150148.5  RSN 10 0.5 1.8LRSN                1
 GAP=200        1.13       3.7     5.7  6.4  0.4378E+01  0.4789E+01 -0.8794E+00E
 Epicentro: LOS SANTOS - SANTANDER                                             3
 ACTION:UPD 15-03-02 15:36 OP:nd   STATUS:               ID:20150102102137 L   I
 OLDACT:UP  15-01-02 21:28 OP:cam  STATUS:               ID:20150102101818     3
 OLDACT:UP  15-01-02 21:28 OP:cam  STATUS:               ID:20150102101818     3
 OLDACT:REG 15-01-02 19:59 OP:cam  STATUS:               ID:20150102101818     3
 2015-01-02-1018-18M.COL___280                                                 6
 STAT SP IPHASW D HRMM SECON CODA AMPLIT PERI AZIMU VELO AIN AR TRES W  DIS CAZ7
 BAR2 EZ EP       1021 57.37                             171    0.0910 21.5 190 
 BAR2 EZ ES       1022 12.35                             171   -0.4810 21.5 190 
 BAR2 EZ I        1022 13.64        17.5 0.44            166           21.5 190 
 BRR  HZ EP       1021 59.24                             153    0.4110 71.6 300 
 BRR  HN ES       1022 16.47                             153    0.8910 71.6 300 
 BRR  HZ I        1022 17.22         9.7 0.28            149           71.6 300 
 RUS  HZ EP       1022  0.78                             145   -0.4810 98.8 176 
 RUS  HN ES       1022 20.14                             145    0.2410 98.8 176 
 RUS  HZ I        1022 21.50         5.5 0.30            144           98.8 176 
 PTB  HZ EP       1022  4.01                             133   -0.47 9  147 259 
 PTB  HN ES       1022 24.86                             133   -0.77 9  147 259 
 PTB  HZ I        1022 30.93         8.5 0.50            130            147 259 
 SPBC HZ EP       1022  6.24                             130    0.33 9  161 219 
 SPBC HN ES       1022 28.10                             130   -0.08 9  161 219 
 SPBC HZ I        1022 30.09        11.4 0.10            128            161 219 
 ZAR  HZ EP       1022 10.54                             123    0.54 9  204 293 
 ZAR  HE ES       1022 35.74                             123    0.27 9  204 293 
 ZAR  HZ I        1022 42.33         9.2 0.42            122            204 293 
 NOR  HZ EP       1022 13.47                             119    0.38 8  233 235 
 NOR  HN ES       1022 40.75                             119   -0.22 8  233 235 
 NOR  HZ I        1022 48.96         6.2 0.14            118            233 235 
 SML  HZ EP       1022 13.75                             118   -0.54 8  245 336 
 SML  HE ES       1022 42.57                             118   -0.53 8  245 336 
 CHI  HZ EP       1022 15.35                             118    0.34 8  247 195 
 CHI  HE ES       1022 44.34                             118   -0.04 8  247 195 
 CHI  HZ I        1022 50.06         3.0 0.24            118            247 195 
 MON  HZ EP   4   1022 24.79                             109   -1.76 0  354 309 
 MON  HN ES   4   1023  1.86                             109   -3.06 0  354 309 
 MON  HZ I        1023  5.59         1.0 0.26            109            354 309 
                                                                                
