 2014 10 2 1911 18.8 L   6.398 -73.541114.7  RSN 12 0.4 1.9LRSN                1
 GAP= 76        0.91       2.8     3.6  5.4 -0.1839E+01  0.1125E+01  0.2138E+01E
 Epicentro: SANTA HELENA DEL OPON - SANTANDER                                  3
 ACTION:UPD 14-11-29 23:46 OP:nd   STATUS:               ID:20141002191118 L   I
 OLDACT:REG 14-10-02 22:00 OP:stll STATUS:               ID:20141002190750     3
 2014-10-02-1907-50M.COL___292                                                 6
 STAT SP IPHASW D HRMM SECON CODA AMPLIT PERI AZIMU VELO AIN AR TRES W  DIS CAZ7
 BAR2 SZ EP     C 1911 35.65                             157    0.1610 45.1  62 
 BAR2 SZ ES   1   1911 48.38                             157   -0.14 7 45.1  62 
 RUS  HZ EP       1911 37.37                             145   -0.2910 75.4 138 
 RUS  HN ES   1   1911 51.62                             145   -0.77 7 75.4 138 
 BRR  HZ EP       1911 37.56                             142    0.2210 80.7 346 
 BRR  HN ES       1911 52.50                             142    0.6710 80.7 346 
 BRR  HZ I        1911 55.23        15.5 0.31            142           80.7 346 
 SPBC HZ EP       1911 39.20                             135    0.0710  101 216 
 SPBC HN ES       1911 55.30                             135    0.3010  101 216 
 SPBC HZ I        1911 58.62        16.2 0.22            135            101 216 
 PTB  HZ EP       1911 38.48                             135   -0.6410  102 279 
 PTB  HN ES       1911 54.51                             135   -0.4810  102 279 
 PTB  HZ I        1911 57.63        13.0 0.10            134            102 279 
 PAM  SZ EP       1911 43.25                             126    0.03 9  140  42 
 PAM  SE ES   1   1912  2.48                             126    0.19 7  140  42 
 PAM  SZ I        1912  3.15        11.7 0.24            128            140  42 
 CHI  HZ EP       1911 49.32                             116    0.21 9  197 186 
 CHI  HN ES   1   1912 13.12                             116    0.35 6  197 186 
 CHI  HZ I        1912 17.13         3.9 0.22            116            197 186 
 GUY2CHZ EP   1   1911 54.66                             111    0.60 6  240 237 
 GUY2CHE ES   4   1912 20.07                             111   -1.51 0  240 237 
 GUY2CHZ I        1912 28.51         2.9 0.39                           240 237 
 SML  HZ EP   1   1911 56.64                             108   -0.51 6  272 348 
 SML  HE ES   1   1912 26.86                             108   -0.22 6  272 348 
 SML  HZ I        1912 30.60        14.1 0.10            108            272 348 
 TOL  SZ EP   1   1911 59.03                             107    0.41 6  281 225 
 TOL  SN ES   4   1912 30.38                             107    0.68 0  281 225 
 TOL  SZ I        1912 34.14        12.7 0.36            107            281 225 
 PRA  HZ EP       1912  4.17                             103   -0.09 7  332 207 
 PRA  HN ES   4   1912 37.09                             103   -2.65 0  332 207 
 PRA  HZ I        1912 41.95         4.4 0.32            104            332 207 
 MON  HZ EP   4   1912  5.83                             102   -0.79 0  352 318 
 MON  HN ES   4   1912 43.45                             102   -0.48 0  352 318 
 MON  HZ I        1912 47.65         1.3 0.36            103            352 318 
                                                                                
