 2010 12 2 1340 38.0 L   6.779 -73.069142.0  RSN  6 0.4 2.4LRSN                1
 GAP=244        0.89       6.5    13.2  7.9  0.3716E+02  0.2437E+02  0.1668E+02E
 Epicentro: LOS SANTOS - SANTANDER                                             3
 ACTION:UP  11-01-14 15:22 OP:pat  STATUS:               ID:20101202134038 L   I
 2010-12-02-1336-48S.COL___132                                                 6
 STAT SP IPHASW D HRMM SECON CODA AMPLIT PERI AZIMU VELO SNR AR TRES W  DIS CAZ7
 BAR2 SZ IP       1340 57.20                             170     0.010   24 211 
 BAR2 SZ ES   1   1341 12.30                             170     0.1 7   24 211 
 BAR2 SZ I        1341 14.66        57.8 0.25                            24 211 
 BRR  HZ IP     C 1340 58.99                             149    -0.310   80 297 
 BRR  HZ I        1340 59.24       112.0 0.12                            80 297 
 BRR  HN ES   1   1341 16.02                             149     0.1 7   80 297 
 RUS  HZ EP   1   1341  1.20                             144     0.0 7   98 181 
 RUS  HN ES   1   1341 19.68                             144     0.4 7   98 181 
 RUS  HZ I        1341 21.53        15.4 0.39                            98 181 
 CHI  HZ EP   1   1341 15.59                             116     0.1 6  249 197 
 CHI  HN ES   1   1341 43.95                             116    -0.8 6  249 197 
 CHI  HZ I        1341 47.26        10.4 0.35                           249 197 
 RREF HZ EP   1   1341 25.52                             110     0.9 5  327 231 
 RREF HZ I        1342 10.10         7.8 0.33                           327 231 
 PRA  HZ EP   1   1341 31.96                             106     0.3 4  394 211 
 PRA  HZ I        1342 16.21        21.5 0.17                           394 211 
                                                                                
