 2013  9 2 1509 31.7 L   6.804 -73.179140.0  RSN  8 0.4 2.4LRSN                1
 GAP=132        0.84       4.1     4.1  7.8 -0.1740E+01  0.1158E+02 -0.2414E+01E
 Epicentro: LOS SANTOS - SANTANDER                                             3
 ACTION:UPD 13-10-22 09:19 OP:ep   STATUS:               ID:20130902150931 L   I
 OLDACT:UP  13-09-02 22:17 OP:mh   STATUS:               ID:20130902150846     3
 OLDACT:REG 13-09-02 21:58 OP:mh   STATUS:               ID:20130902150846     3
 2013-09-02-1508-46M.COL___208                                                 6
 STAT SP IPHASW D HRMM SECON CODA AMPLIT PERI AZIMU VELO AIN AR TRES W  DIS CAZ7
 BAR2 SZ EP   1   15 9 50.73                             170    0.10 7 23.4 181 
 BAR2 SZ ES   2   1510  5.71                             170    0.31 5 23.4 181 
 BAR2 SZ I        1510  6.44        23.8 0.24            168           23.4 181 
 BRR  HZ IP     C 15 9 52.44                             152    0.4210 67.8 300 
 BRR  HN ES   4   1510 10.21                             152    2.33 0 67.8 300 
 BRR  HN I        1510 13.37        55.2 0.16            150           67.8 300 
 PAM  SZ EP   1   15 9 53.42                             149   -0.00 7 79.4  42 
 PAM  SN ES       1510 10.14                             149   -0.2310 79.4  42 
 PAM  SN I        1510 11.53        71.7 0.42            157           79.4  42 
 RUS  HZ EP   1   15 9 55.34                             142    0.41 7  101 174 
 RUS  HN ES   2   1510 12.77                             142   -0.29 5  101 174 
 RUS  HN I        1510 14.41        20.8 0.20            147            101 174 
 PTB  HZ EP   1   15 9 57.31                             131   -0.56 7  144 258 
 PTB  HN ES       1510 17.70                             131   -0.59 9  144 258 
 PTB  HN I        1510 23.48        31.1 0.62            132            144 258 
 SPBC HZ EP   1   15 9 59.80                             128    0.24 7  161 218 
 SPBC HN ES   2   1510 21.47                             128    0.17 5  161 218 
 SPBC HN I        1510 27.99        24.4 0.10            130            161 218 
 ZAR  HZ EP   1   1510  3.48                             121    0.08 6  201 292 
 ZAR  HN ES       1510 28.65                             121    0.52 9  201 292 
 ZAR  HN I        1510 37.16        27.5 0.26            123            201 292 
 SML  HZ EP   1   1510  6.88                             116   -0.91 6  242 336 
 SML  HN ES   1   1510 36.19                             116    0.23 6  242 336 
 SML  HN I        1510 38.40        49.7 0.10            120            242 336 
 URE  HZ EP   4   1510 13.98                             112    1.89 0  280 292 
 URE  HN ES   4   1510 43.02                             112   -0.58 0  280 292 
                                                                                
