 2014  7 2 1911 59.2 L   6.781 -73.146152.2  RSN  5 0.2 1.7LRSN                1
 GAP=243        0.59       4.2     3.6  5.0  0.6299E+01  0.3126E+01 -0.1925E+01E
 Epicentro: LOS SANTOS - SANTANDER                                             3
 ACTION:UPD 15-03-16 20:40 OP:nd   STATUS:               ID:20140702191159 L   I
 OLDACT:REG 14-07-02 20:59 OP:spq  STATUS:               ID:20140702190819     3
 2014-07-02-1908-19M.COL___253                                                 6
 STAT SP IPHASW D HRMM SECON CODA AMPLIT PERI AZIMU VELO AIN AR TRES W  DIS CAZ7
 BAR2 SZ EP       1912 19.55                             172    0.0210 21.2 191 
 BAR2 SZ ES       1912 35.41                             172   -0.0110 21.2 191 
 BAR2 SZ I        1912 35.99        14.2 0.18            164           21.2 191 
 RUS  HZ EP       1912 23.41                             146    0.0010 98.5 176 
 RUS  HN ES       1912 42.32                             146    0.0010 98.5 176 
 RUS  HZ I        1912 43.22         3.9 0.18            143           98.5 176 
 PTB  HZ EP       1912 26.23                             133   -0.40 9  147 260 
 PTB  HE ES       1912 47.75                             133   -0.30 9  147 260 
 PTB  HZ I        1912 54.67         4.9 0.36            131            147 260 
 SPBC HZ EP       1912 28.23                             131    0.22 9  162 219 
 SPBC HN ES       1912 50.68                             131    0.17 9  162 219 
 SPBC HZ I        1912 56.15         7.0 0.22            128            162 219 
 ZAR  HN ES       1912 58.19                             124    0.37 9  205 293 
                                                                                
