 2017  5 2 1716 26.7 L   6.771 -73.143142.9  RSN  5 0.3 1.5LRSN                1
 GAP=138        0.84       4.2     4.0  6.7  0.2138E+01  0.7574E+01  0.1495E+01E
 Epicentro: LOS SANTOS - SANTANDER                                             3
 ACTION:UPD 17-06-16 13:32 OP:jn   STATUS:               ID:20170502171627 L   I
 OLDACT:UP  17-05-05 20:15 OP:nlst STATUS:               ID:20170502171627 L   3
 OLDACT:REG 17-05-02 20:51 OP:ar   STATUS:               ID:20170502170744     3
 2017-05-02-1708-00M.COL___371                                                 6
 STAT SP IPHASW D HRMM SECON CODA AMPLIT PERI AZIMU VELO AIN AR TRES W  DIS CAZ7
 BRR  HZ EP       1716 47.40                             151   -0.2710 73.1 301 
 BRR  HE ES       1717  4.46                             151    0.4510 73.1 301 
 PAM  EZ EP       1716 48.62                             150   -0.1510 79.7  38 
 PAM  EE ES       1717  5.95                             150   -0.0210 79.7  38 
 PAM  EZ I        1717  7.84         6.9 0.38            153           79.7  38 
 RUS  HZ EP       1716 49.88                             144   -0.0710 97.3 176 
 RUS  HN ES       1717  8.00                             144   -0.0810 97.3 176 
 RUS  HZ I        1717  9.20         3.1 0.48            147           97.3 176 
 PTB  HZ EP       1716 53.94                             131    0.51 9  147 260 
 PTB  HN ES   1   1717 14.05                             131   -0.21 7  147 260 
 PTB  HZ I        1717 19.02         3.8 0.40            132            147 260 
 ZAR  HZ EP       1716 59.49                             122    0.36 8  206 293 
 ZAR  HN ES       1717 23.79                             122   -0.63 8  206 293 
 ZAR  HZ I        1717 30.18         5.0 0.38            122            206 293 
                                                                                
