 2017  2 2 1113 15.0 L   6.867 -73.297138.9  RSN  6 0.2 1.5LRSN                1
 GAP=111        0.57       3.2     2.5  6.1 -0.3673E+00  0.3851E+01 -0.4886E+01E
 Epicentro: BETULIA - SANTANDER                                                3
 ACTION:UPD 17-05-24 15:31 OP:jn   STATUS:               ID:20170202111315 L   I
 OLDACT:UP  17-02-02 22:20 OP:dnl  STATUS:               ID:20170202110728     3
 OLDACT:UP  17-02-02 22:20 OP:dnl  STATUS:               ID:20170202110728     3
 OLDACT:REG 17-02-02 20:13 OP:dnl  STATUS:               ID:20170202110728     3
 2017-02-02-1108-00M.COL___325                                                 6
 STAT SP IPHASW D HRMM SECON CODA AMPLIT PERI AZIMU VELO AIN AR TRES W  DIS CAZ7
 BAR2 EZ EP       1113 34.30                             166    0.2110 32.9 157 
 BAR2 EZ ES       1113 49.25                             166    0.3010 32.9 157 
 BAR2 EZ I        1113 51.28         5.6 0.32            172           32.9 157 
 BRR  HZ EP   2   1113 34.04                             158   -0.46 5 53.0 300 
 BRR  HE ES   4   1113 51.53                             158    1.85 0 53.0 300 
 BRR  HZ I        1113 54.18         8.1 0.32            153           53.0 300 
 PAM  EZ EP       1113 37.14                             147    0.1710 84.2  52 
 PAM  EE ES       1113 53.81                             147   -0.2610 84.2  52 
 PAM  EZ I        1113 56.54         5.6 0.60            152           84.2  52 
 RUS  HZ EP   2   1113 38.82                             140   -0.05 5  110 168 
 RUS  HN ES       1113 57.20                             140   -0.2510  110 168 
 RUS  HZ I        1113 58.42         4.8 0.44            146            110 168 
 PTB  HZ EP   4   1113 36.91                             133   -3.23 0  133 254 
 PTB  HN ES       1113 59.68                             133   -0.0310  133 254 
 PTB  HZ I        1114  5.03         3.4 0.16            134            133 254 
 ZAR  HN ES       1114  8.63                             123   -0.03 9  186 292 
 ZAR  HZ I        1114 18.86         3.6 0.22            124            186 292 
                                                                                
