 2010 10 2 1151 23.8 L   6.820 -73.145155.4  RSN  9 0.3 2.0LRSN                1
 GAP=158        0.69       4.5     6.3 16.1 -0.1951E+02 -0.2517E+02  0.2744E+02E
 Epicentro: LOS SANTOS - SANTANDER                                             3
 ACTION:UP  11-02-18 11:07 OP:tino STATUS:               ID:20101002115123 L   I
 2010-10-02-1151-00S.COL___124                                                 6
 STAT SP IPHASW D HRMM SECON CODA AMPLIT PERI AZIMU VELO SNR AR TRES W  DIS CAZ7
 BRR  HZ EP       1151 46.07                             154     0.110   70 297 
 BRR  HZ I        1152  3.35        22.1 0.24                            70 297 
 RUS  HZ EP   1   1151 48.30                             145    -0.4 7  103 176 
 RUS  HZ I        1152  8.10        11.7 0.50                           103 176 
 GUE  SZ EP       1151 49.16                             142    -0.110  114  12 
 GUE  SZ I        1151 50.53         3.9 0.10                           114  12 
 GRA  SZ EP       1151 49.88                             139     0.110  124  18 
 GRA  SZ I        1152 10.53        11.9 0.60                           124  18 
 NOR  SZ EP   1   1152  0.33                             120     0.1 6  236 234 
 NOR  SN ES       1152 28.74                             120     0.0 8  236 234 
 CHI  HZ EP   1   1152  2.22                             119    -0.1 6  251 195 
 CHI  HN ES   1   1152 32.25                             119     0.0 6  251 195 
 CHI  HZ I        1152 37.89         4.1 0.65                           251 195 
 HEL  HN ES   2   1152 35.52                             116    -0.9 4  273 255 
 HEL  HZ I        1152 43.77         6.3 0.39                           273 255 
 RREF HN ES   2   1152 47.08                             112     0.1 3  323 229 
 RREF HZ I        1152 53.40         6.4 0.34                           323 229 
 PRA  HZ EP   1   1152 17.41                             108    -0.5 4  394 209 
 PRA  HN ES       1153  0.79                             108     0.7 6  394 209 
 PRA  HZ I        1153  4.68        20.5 0.06                           394 209 
                                                                                
