 2017  4 2 1507 57.1 L   7.262 -73.394106.9  RSN  7 0.3 1.7LRSN                1
 GAP=165        0.83       4.2     3.3  5.6  0.3891E+01  0.5090E+01  0.2390E+01E
 Epicentro: SABANA DE TORRES - SANTANDER                                       3
 ACTION:UPD 17-05-30 21:07 OP:jn   STATUS:               ID:20170402150757 L   I
 OLDACT:UP  17-04-02 23:19 OP:dnl  STATUS:               ID:20170402145725     3
 OLDACT:REG 17-04-02 22:10 OP:dnl  STATUS:               ID:20170402145725     3
 2017-04-02-1458-00M.COL___374                                                 6
 STAT SP IPHASW D HRMM SECON CODA AMPLIT PERI AZIMU VELO AIN AR TRES W  DIS CAZ7
 BRR  HZ EP       15 8 11.64                             158   -0.6610 39.0 244 
 BRR  HE ES       15 8 24.03                             158   -0.1210 39.0 244 
 BRR  HZ I        15 8 27.71        14.1 0.32            155           39.0 244 
 PAM  EZ EP       15 8 15.46                             142    0.1210 77.2  84 
 PAM  EN ES       15 8 29.78                             142    0.2110 77.2  84 
 PAM  EZ I        15 8 31.07        19.1 0.26            149           77.2  84 
 BAR2 EZ EP       15 8 15.00                             141   -0.0310 77.7 162 
 BAR2 EZ ES       15 8 28.99                             141   -0.0210 77.7 162 
 BAR2 EZ I        15 8 34.10         9.5 0.22            142           77.7 162 
 PTB  HZ EP   4   15 8 19.22                             122   -1.40 0  142 236 
 PTB  HN ES   4   15 8 37.59                             122   -1.38 0  142 236 
 PTB  HZ I        15 8 43.82         9.6 0.36            124            142 236 
 RUS  HZ EP       15 8 22.67                             120    0.04 9  155 167 
 RUS  HN ES       15 8 42.68                             120    0.14 9  155 167 
 RUS  HZ I        15 8 46.00         2.4 0.32            123            155 167 
 ZAR  HZ EP       15 8 22.50                             118   -0.39 9  164 279 
 ZAR  HE ES       15 8 43.65                             118    0.65 9  164 279 
 ZAR  HZ I        15 8 45.18         8.5 0.30            122            164 279 
 NOR  HZ EP       15 8 32.74                             107    0.20 8  249 221 
 NOR  HE ES   4   15 9  1.39                             107    1.20 0  249 221 
 NOR  HZ I        15 9  4.67         6.1 0.36            110            249 221 
                                                                                
