 2013  6 2 1902 58.5 L   6.776 -73.148149.8  RSN  8 0.4 2.2LRSN                1
 GAP=137        1.04       3.9     5.2  6.3 -0.5096E+01  0.1996E+01  0.1308E+00E
 Epicentro: LOS SANTOS - SANTANDER                                             3
 ACTION:UPD 14-01-08 09:52 OP:ep   STATUS:               ID:20130602190258 L   I
 2013-06-02-1858-50M.COL___224                                                 6
 STAT SP IPHASW D HRMM SECON CODA AMPLIT PERI AZIMU VELO AIN AR TRES W  DIS CAZ7
 BAR2 SZ EP       19 3 18.39                             172   -0.1410 20.7 191 
 BAR2 SZ ES       19 3 33.50                             172   -0.6810 20.7 191 
 BAR2 SZ I        19 3 36.20        17.7 0.20            170           20.7 191 
 GIR2 SZ EP       19 3 18.64                             167   -0.0410 33.8 351 
 GIR2 SZ ES       19 3 34.60                             167    0.1510 33.8 351 
 BRR  HZ IP     C 19 3 20.48                             153    0.3710 72.3 300 
 BRR  HN ES       19 3 37.88                             153    0.8910 72.3 300 
 BRR  HE I        19 3 38.71        28.6 0.28            151           72.3 300 
 PAM  SZ EP       19 3 21.30                             151    0.0610 79.6  38 
 PAM  SE ES       19 3 39.17                             151    0.1710 79.6  38 
 RUS  HZ EP       19 3 22.42                             145   -0.0110 98.0 176 
 RUS  HN ES       19 3 41.26                             145    0.1410 98.0 176 
 RUS  HE I        19 3 42.21        24.2 0.48            146           98.0 176 
 GRA  SZ EP       19 3 24.57                             137    0.2910  128  17 
 GRA  SZ ES       19 3 44.29                             137   -0.1210  128  17 
 PTB  HZ EP       19 3 25.55                             133   -0.15 9  147 260 
 PTB  HN ES       19 3 46.57                             133   -0.37 9  147 260 
 PTB  HE I        19 3 52.24        35.0 0.50            132            147 260 
 OCA  HN ES       19 3 49.10                             130   -0.74 9  163 353 
                                                                                
