 2015  5 2 1119  1.4 L   6.802 -73.134140.9  RSN 12 0.5 2.2LRSN                1
 GAP=138        1.05       3.2     4.2  7.2 -0.3180E+01  0.6713E+01  0.6924E+01E
 Epicentro: LOS SANTOS - SANTANDER                                             3
 ACTION:UPD 15-09-10 22:00 OP:cam  STATUS:               ID:20150502111901 L   I
 OLDACT:REG 15-05-02 20:31 OP:ak   STATUS:               ID:20150502111749     3
 2015-05-02-1117-49M.COL___270                                                 6
 STAT SP IPHASW D HRMM SECON CODA AMPLIT PERI AZIMU VELO AIN AR TRES W  DIS CAZ7
 BRR  HZ IP     D 1119 22.42                             151    0.3510 72.2 298 
 BRR  HN ES       1119 38.49                             151    0.2810 72.2 298 
 BRR  HZ I        1119 40.28        36.3 0.26            154           72.2 298 
 PAM  SZ IP     D 1119 23.52                             150    0.4910 76.4  39 
 PAM  SN ES       1119 39.99                             150    0.0810 76.4  39 
 PAM  SZ I        1119 42.65        45.6 0.62            151           76.4  39 
 RUS  HZ IP     D 1119 24.49                             143   -0.1910  101 177 
 RUS  HZ E      D 1119 24.49                                            101 177 
 RUS  HZ I        1119 44.52        18.0 0.42            142            101 177 
 OCA  HZ EP       1119 29.25                             129   -0.07 9  160 353 
 OCA  HN ES       1119 50.18                             129   -0.92 9  160 353 
 OCA  HZ I        1119 58.21        51.3 0.50            130            160 353 
 ZAR  HZ EP       1119 33.72                             121    0.08 9  205 292 
 ZAR  HN ES       1119 59.19                             121    0.40 9  205 292 
 ZAR  HZ I        1120  5.27        14.8 0.15            123            205 292 
 NOR  HZ IP     C 1119 37.19                             117    0.22 8  236 235 
 NOR  HN ES       1120  4.02                             117   -0.70 8  236 235 
 NOR  HZ I        1120  8.71        10.4 0.18            118            236 235 
 SML  HZ EP       1119 37.16                             116   -0.62 8  244 335 
 SML  HN ES       1120  6.50                             116    0.34 8  244 335 
 SML  HZ I        1120 11.83        24.2 0.10            118            244 335 
 CHI  HZ EP       1119 39.07                             116    0.18 8  249 195 
 CHI  HN ES       1120  7.71                             116   -0.43 8  249 195 
 CHI  HZ I        1120 11.75         4.2 0.29            116            249 195 
 HEL  HZ EP     C 1119 41.61                             114    0.11 8  273 256 
 HEL  HN ES       1120 12.36                             114   -0.43 8  273 256 
 HEL  HZ I        1120 20.04         8.3 0.26            114            273 256 
 GUY2CHZ EP   2   1119 45.72                             111    0.81 4  302 235 
 GUY2CHN ES       1120 19.81                             111    0.95 7  302 235 
 GUY2CHZ I        1120 28.08         5.8 0.56                           302 235 
 RREF HZ EP   2   1119 47.92                             110    0.46 3  323 229 
 RREF HE ES       1120 22.65                             110   -0.74 7  323 229 
 RREF HZ I        1120 30.89         1.9 0.20            110            323 229 
 MON  HZ EP   4   1119 48.48                             108   -1.82 0  355 308 
 MON  HN ES   4   1120 27.30                             108   -1.16 0  355 308 
 MON  HZ I        1120 28.33         3.4 0.20            109            355 308 
                                                                                
