 2017  7 2 1914 42.8 L   6.711 -73.123142.2  RSN  5 0.4 1.5LRSN                1
 GAP=173        0.85       7.0     4.1  6.6 -0.6717E+01  0.6520E+01  0.4992E+00E
 Epicentro: JORDAN - SANTANDER                                                 3
 ACTION:UPD 17-08-30 15:29 OP:rebc STATUS:               ID:20170702191442 L   I
 OLDACT:REG 17-07-02 22:15 OP:osc  STATUS:               ID:20170702190742     3
 2017-07-02-1908-00M.COL___380                                                 6
 STAT SP IPHASW D HRMM SECON CODA AMPLIT PERI AZIMU VELO AIN AR TRES W  DIS CAZ7
 BAR2 EZ EP       1915  2.18                             174    0.3210 14.6 206 
 BAR2 EZ ES       1915 16.72                             174   -0.0010 14.6 206 
 BAR2 EZ I        1915 19.46         6.1 0.18            172           14.6 206 
 BRR  HZ EP       1915  4.14                             149    0.1310 78.4 304 
 BRR  HE ES       1915 20.87                             149    0.3310 78.4 304 
 PAM  EZ EP       1915  5.26                             148    0.2110 83.8  34 
 PAM  EN ES       1915 21.91                             148   -0.4810 83.8  34 
 PAM  EZ I        1915 24.38         4.9 0.33            151           83.8  34 
 PTB  HZ EP       1915  9.45                             131   -0.12 9  149 263 
 PTB  HE ES       1915 30.02                             131   -0.42 9  149 263 
 PTB  HZ I        1915 36.20         2.9 0.20            131            149 263 
 ZAR  HZ EP   2   1915 14.44                             121   -1.23 4  210 294 
 ZAR  HE ES       1915 41.54                             121    0.24 8  210 294 
 ZAR  HZ I        1915 47.03         5.1 0.40            121            210 294 
                                                                                
