 2016  1 2 1142 43.6 L   7.135 -73.358118.2  RSN  8 0.6 1.8LRSN                1
 GAP=185        1.32       5.6     8.1 10.6  0.1004E+02  0.3058E+02 -0.2715E+01E
 Epicentro: LEBRIJA - SANTANDER                                                3
 ACTION:UPD 16-03-09 23:22 OP:cam  STATUS:               ID:20160102114243 L   I
 OLDACT:REG 16-01-02 20:47 OP:dnl  STATUS:               ID:20160102113746     3
 2016-01-02-1137-46M.COL___319                                                 6
 STAT SP IPHASW D HRMM SECON CODA AMPLIT PERI AZIMU VELO AIN AR TRES W  DIS CAZ7
 BRR  HZ EP       1143  0.41                             160    0.3010 39.3 266 
 BRR  HE ES       1143 12.84                             160   -0.1410 39.3 266 
 BRR  HZ I        1143 13.34        11.6 0.11            156           39.3 266 
 BAR2 EZ EP       1143  2.49                             150    0.8110 63.0 162 
 BAR2 EZ ES       1143 15.45                             150   -0.3210 63.0 162 
 BAR2 EZ I        1143 17.34        23.0 0.23            147           63.0 162 
 PTB  HZ EP       1143  6.74                             127   -0.79 9  138 242 
 PTB  HN ES   4   1143 24.78                             127   -1.41 0  138 242 
 PTB  HZ I        1143 27.84         5.3 0.10            122            138 242 
 ZAR  HZ EP   2   1143 11.68                             121    0.89 4  170 284 
 ZAR  HN ES       1143 32.91                             121    0.92 9  170 284 
 ZAR  HZ I        1143 35.61        12.1 0.27            117            170 284 
 SPBC HN ES   2   1143 34.81                             119    0.43 4  182 206 
 SPBC HZ I        1143 41.77        10.4 0.20            115            182 206 
 SML  HZ EP   2   1143 13.87                             116   -0.13 4  200 337 
 SML  HN ES       1143 37.04                             116   -0.67 9  200 337 
 SML  HZ I        1143 44.59        17.0 0.08            113            200 337 
 NOR  HZ EP   2   1143 18.43                             111   -0.20 4  241 224 
 NOR  HN ES       1143 45.30                             111   -0.65 8  241 224 
 NOR  HZ I        1143 51.13         4.8 0.22            108            241 224 
 GUY2CHZ EP   4   1143 28.22                             106    1.50 0  307 227 
 GUY2CHN ES   4   1143 58.70                             106   -1.65 0  307 227 
 GUY2CHZ I        1144  7.38         2.8 0.30                           307 227 
                                                                                
