 2010  6 2 1012 13.6 L   7.398 -73.335127.4  RSN  4 0.4 1.7LRSN                1
 GAP=192        1.00       4.8    16.2 11.3 -0.1790E+02  0.7894E+02 -0.5684E+01E
 Epicentro: EL PLAYON - SANTANDER                                              3
 ACTION:UP  10-08-24 10:08 OP:vdl  STATUS:               ID:20100602101213 L   I
 2010-06-02-1007-16S.COL___109                                                 6
 STAT SP IPHASW D HRMM SECON CODA AMPLIT PERI AZIMU VELO SNR AR TRES W  DIS CAZ7
 GUE  SZ EP       1012 32.50                             151    -0.410   66  43 
 GUE  SZ ES   1   1012 47.27                             151    -0.7 7   66  43 
 GRA  SZ EP       1012 34.09                             146     0.510   80  47 
 GRA  SZ ES   1   1012 49.50                             146     0.4 7   80  47 
 BAR2 SZ EP       1012 34.55                             142     0.110   91 169 
 BAR2 SZ ES       1012 50.78                             142     0.010   91 169 
 OCA  SZ EP       1012 34.27                             142    -0.310   93   1 
 OCA  SZ ES   1   1012 51.32                             142     0.5 7   93   1 
 OCA  SZ I        1012 56.35        11.1 0.30                            93   1 
                                                                                
