 2012  3 2 1041 46.1 L   6.761 -73.153139.2  RSN 11 0.4 1.9LRSN                1
 GAP=137        0.92       4.5     4.8  7.2 -0.6399E-01  0.9067E+01  0.9893E+01E
 ACTION:UP  12-03-31 23:16 OP:EP   STATUS:               ID:20120302104146 L   I
 2012-03-02-1040-00M.COL___190                                                 6
 STAT SP IPHASW D HRMM SECON CODA AMPLIT PERI AZIMU VELO SNR AR TRES W  DIS CAZ7
 BAR2 SZ EP   1   1042  4.91                             172     0.0 7   19 190 
 BAR2 SZ ES   1   1042 19.11                             172    -0.4 7   19 190 
 BAR2 SZ I        1042 22.47        20.5 0.36                            19 190 
 BRR  HZ EP       1042  7.02                             151     0.410   73 302 
 BRR  HN ES   1   1042 23.01                             151     0.3 7   73 302 
 BRR  HZ I        1042 25.46        15.9 0.13                            73 302 
 PAM  SZ EP   1   1042  7.70                             148    -0.2 7   81  38 
 PAM  SZ I        1042  8.16         9.8 0.17                            81  38 
 PAM  SN ES   1   1042 24.75                             148    -0.1 7   81  38 
 RUS  HZ EP   1   1042  9.00                             144     0.1 7   96 175 
 RUS  HN ES   1   1042 27.25                             144     0.5 7   96 175 
 RUS  HZ I        1042 28.78         5.8 0.29                            96 175 
 PTB  HZ EP   1   1042 11.58                             131    -0.8 7  146 260 
 PTB  HN ES   1   1042 32.27                             131    -0.7 7  146 260 
 ZAR  HN ES   1   1042 43.42                             121     0.1 6  205 293 
 NOR  SZ EP   1   1042 21.44                             117     0.3 6  232 235 
 NOR  SN ES   1   1042 49.15                             117     0.7 6  232 235 
 CHI  HZ EP   1   1042 22.89                             116    -0.1 6  244 195 
 CHI  HN ES   1   1042 51.06                             116    -0.7 6  244 195 
 CHI  HZ I        1042 58.41         3.4 0.26                           244 195 
 ROSC BZ EP   2   1042 24.10                             116     0.7 4  249 211 
 HEL  HE ES   2   1042 56.83                             114     0.1 4  270 257 
 PRA  HZ EP   1   1042 38.85                             106    -0.1 4  388 210 
 PRA  HZ I        1043 27.82         7.7 0.30                           388 210 
                                                                                
