 2013 11 2 1706 44.7 L   6.764 -73.145145.7  RSN  6 0.3 1.6LRSN                1
 GAP=138        0.86       4.4     3.9  6.8  0.1734E+01  0.2865E+01 -0.8848E+00E
 Epicentro: LOS SANTOS - SANTANDER                                             3
 ACTION:UPD 14-01-09 16:25 OP:ep   STATUS:               ID:20131102170644 L   I
 OLDACT:REG 13-11-02 17:47 OP:carl STATUS:               ID:20131102165848     3
 2013-11-02-1658-48M.COL___211                                                 6
 STAT SP IPHASW D HRMM SECON CODA AMPLIT PERI AZIMU VELO AIN AR TRES W  DIS CAZ7
 BAR2 SZ EP       17 7  4.30                             172    0.0710 19.4 192 
 BAR2 SZ ES       17 7 19.24                             172   -0.2410 19.4 192 
 BAR2 SZ I        17 7 20.71        18.3 0.26            172           19.4 192 
 BRR  HZ EP       17 7  6.04                             152    0.1010 73.2 301 
 BRR  HN ES       17 7 23.23                             152    0.7110 73.2 301 
 PAM  SZ IP     D 17 7  7.18                             150    0.1010 80.5  38 
 PAM  SN ES       17 7 24.28                             150   -0.2710 80.5  38 
 PAM  SZ I        17 7 26.62         4.9 0.58            150           80.5  38 
 RUS  HZ EP       17 7  8.27                             145    0.1210 96.6 176 
 RUS  HN ES       17 7 26.32                             145   -0.1210 96.6 176 
 RUS  HZ I        17 7 28.26         4.3 0.30            146           96.6 176 
 PTB  HN ES       17 7 32.57                             132    0.01 9  147 260 
 ZAR  HN ES       17 7 42.05                             122   -0.67 8  206 293 
                                                                                
