 2012  4 2 1347 56.9 L   6.837 -73.152145.9  RSN 14 0.5 2.8LRSN                1
 GAP=103        0.94       3.2     3.8  6.0  0.8129E+00  0.4144E+01  0.4121E+01E
 Epicentro: LOS SANTOS - SANTANDER                                             3
 ACTION:UPD 12-07-05 11:49 OP:tino STATUS:               ID:20120402134756 L   I
 2012-04-02-1340-00M.COL___196                                                 6
 STAT SP IPHASW D HRMM SECON CODA AMPLIT PERI AZIMU VELO AIN AR TRES W  DIS CAZ7
 BAR2 SZ IP       1348 16.60                             169     0.010   27 187 
 BAR2 SZ I        1348 16.98       141.9 0.36                            27 187 
 BAR2 SZ ES   2   1348 32.50                             169     0.5 5   27 187 
 BRR  HZ IP     D 1348 18.18                             153     0.310   69 296 
 BRR  HZ I        1348 18.35       167.0 0.32                            69 296 
 BRR  HN ES   1   1348 34.46                             153     0.2 7   69 296 
 PAM  SZ EP       1348 19.20                             152     0.310   75  42 
 PAM  SN ES   1   1348 35.91                             152    -0.2 7   75  42 
 RUS  HZ EP       1348 20.69                             143    -0.210  105 176 
 RUS  HZ I        1348 21.51        50.6 0.38                           105 176 
 RUS  HE ES   2   1348 39.44                             143    -0.3 5  105 176 
 PTB  HZ IP     D 1348 23.14                             132    -0.7 9  148 257 
 PTB  HN ES   2   1348 44.38                             132    -0.5 5  148 257 
 PTB  HZ I        1348 46.58        68.2 0.26                           148 257 
 OCA  SZ EP       1348 24.87                             131     0.1 9  156 353 
 OCA  SZ ES   1   1348 45.95                             131    -0.6 7  156 353 
 YOP  SZ EP       1348 27.55                             126     0.2 9  183 154 
 YOP  SN ES   1   1348 51.54                             126     0.5 7  183 154 
 YOP  SZ I        1348 54.89        33.5 0.48                           183 154 
 ZAR  HZ EP       1348 29.13                             123     0.1 9  202 291 
 ZAR  HN ES   1   1348 54.52                             123     0.3 6  202 291 
 ZAR  HZ I        1349  0.76       130.6 0.32                           202 291 
 NOR  SZ EP       1348 32.66                             118    -0.1 8  236 234 
 NOR  SN ES   2   1349  0.44                             118    -0.4 4  236 234 
 CHI  HZ EP       1348 35.22                             117     0.3 8  252 195 
 CHI  HN ES   1   1349  4.75                             117     0.1 6  252 195 
 CHI  HZ I        1349 11.21        32.9 0.46                           252 195 
 HEL  HZ EP       1348 37.64                             115     0.5 8  272 255 
 HEL  HN ES   2   1349  8.44                             115    -0.1 4  272 255 
 HEL  HZ I        1349 15.38        69.4 0.32                           272 255 
 VIL  SZ EP   1   1348 40.83                             112     0.1 5  307 191 
 VIL  SN ES   2   1349 12.97                             112    -2.0 4  307 191 
 VIL  SZ I        1349 28.28        30.3 0.48                           307 191 
 DBB  SZ EP       1348 44.60                             110     0.4 7  338 274 
 SDV  B2 EP       1348 45.90                             108    -0.8 6  358  51 
                                                                                
