 2015  3 2 1101 54.0 L   6.776 -73.140145.6  RSN 11 0.4 2.2LRSN                1
 GAP=138        1.09       3.0     4.3  5.6 -0.8234E+00  0.6282E+01  0.1585E+01E
 Epicentro: LOS SANTOS - SANTANDER                                             3
 ACTION:UPD 15-04-30 16:22 OP:nd   STATUS:               ID:20150302110154 L   I
 OLDACT:REG 15-03-02 22:12 OP:carl STATUS:               ID:20150302105748     3
 2015-03-02-1057-48M.COL___296                                                 6
 STAT SP IPHASW D HRMM SECON CODA AMPLIT PERI AZIMU VELO AIN AR TRES W  DIS CAZ7
 BAR2 EZ IP     C 11 2 13.59                             171    0.0210 20.8 193 
 BAR2 EZ ES       11 2 28.62                             171   -0.2110 20.8 193 
 BAR2 EZ I        11 2 29.34        60.7 0.16            169           20.8 193 
 BRR  HZ IP     C 11 2 15.52                             152    0.2710 73.0 300 
 BRR  HN ES       11 2 32.27                             152    0.4610 73.0 300 
 BRR  HZ I        11 2 33.23        28.0 0.26            151           73.0 300 
 PAM  SZ EP       11 2 16.50                             150    0.1910 79.1  38 
 PAM  SN ES       11 2 33.54                             150   -0.1710 79.1  38 
 PAM  SZ I        11 2 35.80        28.8 0.58            153           79.1  38 
 RUS  HZ EP       11 2 17.56                             145    0.0110 97.9 176 
 RUS  HN ES       11 2 36.13                             145    0.2110 97.9 176 
 RUS  HZ I        11 2 37.59        22.9 0.40            144           97.9 176 
 PTB  HZ EP       11 2 20.23                             132   -0.74 9  148 260 
 PTB  HN ES       11 2 40.81                             132   -1.19 9  148 260 
 PTB  HZ I        11 2 44.31        32.4 0.14            131            148 260 
 SPBC HZ EP       11 2 22.54                             129    0.20 9  161 220 
 SPBC HN ES       11 2 44.50                             129    0.07 9  161 220 
 SPBC HZ I        11 2 46.87        18.7 0.16            128            161 220 
 ZAR  HZ EP       11 2 27.01                             122    0.41 8  206 293 
 ZAR  HN ES       11 2 53.05                             122    1.02 8  206 293 
 ZAR  HZ I        11 2 59.37        18.3 0.24            122            206 293 
 NOR  HZ EP       11 2 29.54                             119   -0.08 8  234 235 
 NOR  HN ES       11 2 57.54                             119    0.15 8  234 235 
 NOR  HZ I        11 2 59.63         9.5 0.22            118            234 235 
 SML  HZ EP       11 2 30.28                             117   -0.64 8  246 335 
 SML  HN ES       11 2 59.47                             117   -0.23 8  246 335 
 SML  HZ I        11 3  1.80        18.2 0.12            117            246 335 
 CHI  HZ EP       11 2 31.75                             117    0.31 8  246 195 
 CHI  HN ES       11 3  0.51                             117   -0.12 8  246 195 
 CHI  HZ I        11 3 10.53         5.2 0.46            117            246 195 
 PRA  HZ EP       11 2 47.26                             107   -0.03 6  390 210 
 PRA  HN ES       11 3 28.89                             107    0.05 6  390 210 
 PRA  HZ I        11 3 37.99         4.6 0.50            107            390 210 
                                                                                
