 2016 10 2 1955  2.6 L   6.752 -73.172153.1  RSN  6 0.4 1.5LRSN                1
 GAP=231        0.73       4.3     4.9  7.3  0.9781E+01 -0.1116E+01 -0.3258E+01E
 Epicentro: LOS SANTOS - SANTANDER                                             3
 ACTION:UPD 16-11-09 19:15 OP:rebc STATUS:               ID:20161002195502 L   I
 OLDACT:UP  16-10-03 02:08 OP:dani STATUS:               ID:20161002194747d    3
 OLDACT:UP  16-10-03 02:07 OP:dani STATUS:               ID:20161002194747d    3
 OLDACT:DUP 16-10-03 02:03 OP:dani STATUS:               ID:20161002194747d    3
 OLDACT:UP  16-10-03 02:02 OP:dani STATUS:               ID:20161002194746     3
 OLDACT:UP  16-10-03 02:02 OP:dani STATUS:               ID:20161002194746     3
 OLDACT:UP  16-10-03 02:01 OP:dani STATUS:               ID:20161002194746     3
 OLDACT:UP  16-10-03 02:01 OP:dani STATUS:               ID:20161002194746     3
 OLDACT:REG 16-10-02 21:28 OP:dani STATUS:               ID:20161002194746     3
 2016-10-02-1948-00M.COL___375                                                 6
 STAT SP IPHASW D HRMM SECON CODA AMPLIT PERI AZIMU VELO AIN AR TRES W  DIS CAZ7
 BRR  HZ EP       1955 24.91                             154    0.3210 71.5 303 
 BRR  HN ES       1955 41.82                             154    0.1010 71.5 303 
 BRR  HZ I        1955 45.05         9.6 0.36            153           71.5 303 
 RUS  HZ EP       1955 26.34                             147   -0.4210 95.5 174 
 RUS  HN ES       1955 45.67                             147    0.0810 95.5 174 
 RUS  HZ I        1955 46.40         2.4 0.31            149           95.5 174 
 PTB  HZ EP       1955 30.18                             135    0.31 9  144 261 
 PTB  HN ES       1955 50.76                             135   -0.36 9  144 261 
 PTB  HZ I        1955 58.13         4.0 0.43            135            144 261 
 SPBC HE ES       1955 53.45                             132    0.04 9  157 219 
 ZAR  HE ES       1956  0.96                             124   -0.19 9  203 294 
 NOR  HE ES   3   1956  7.52                             121    1.53 2  229 235 
                                                                                
