 2014  5 2 1010 34.4 L   5.908 -73.800112.0  RSN  6 0.5 1.3LRSN                1
 GAP=137        0.95       6.5     4.3  9.2  0.4944E+00  0.9775E+01 -0.2228E+01E
 Epicentro: JESUS MARIA - SANTANDER                                            3
 OLDACT:REG 14-05-02 19:38 OP:spq  STATUS:               ID:20140502101000     3
 OLDACT:DUP 14-05-02 23:05 OP:spq  STATUS:               ID:20140502101001d    3
 OLDACT:UP  14-05-02 23:04 OP:spq  STATUS:               ID:20140502101000     3
 ACTION:UPD 15-03-16 16:54 OP:nd   STATUS:               ID:20140502101034 L   I
 OLDACT:UP  14-05-03 01:36 OP:mh   STATUS:               ID:20140502101034 L   3
 OLDACT:UP  14-05-03 01:19 OP:nlst STATUS:               ID:20140502101034 L   3
 OLDACT:UP  14-05-02 23:15 OP:spq  STATUS:               ID:20140502101001d    3
 2014-05-02-1010-00M.COL___273                                                 6
 STAT SP IPHASW D HRMM SECON CODA AMPLIT PERI AZIMU VELO AIN AR TRES W  DIS CAZ7
 SPBC HZ EP   1   1010 50.97                             158    0.55 8 41.3 227 
 SPBC HE ES   1   1011  2.94                             158    0.03 8 41.3 227 
 SPBC HZ I        1011  4.05         6.9 0.22            153           41.3 227 
 RUS  HZ EP   1   1010 53.33                             143    0.02 8 79.4  91 
 RUS  HN ES   1   1011  7.71                             143   -0.35 8 79.4  91 
 RUS  HZ I        1011  9.27         5.5 4.24            144           79.4  91 
 PTB  HZ EP       1010 53.86                             135   -0.5110  101 314 
 PTB  HN ES       1011 10.43                             135    0.4810  101 314 
 PTB  HZ I        1011 31.19         3.5 1.50            126            101 314 
 NOR  HZ EP   1   1010 57.27                             128    0.69 7  124 252 
 NOR  HE ES   1   1011 13.49                             128   -0.39 7  124 252 
 NOR  HZ I        1011 15.64         4.7 0.20            131            124 252 
 GUY2CHE ES   1   1011 26.83                             116    0.02 7  189 247 
 HEL  HZ EP   1   1011  4.40                             116    0.17 7  194 279 
 HEL  HN ES   1   1011 26.68                             116   -0.82 7  194 279 
 HEL  HZ I        1011 34.17         1.5 0.27            116            194 279 
                                                                                
