 2011  4 2 1635 58.7 L   6.785 -73.134140.0  RSN 11 0.3 2.7LRSN                1
 GAP=115        0.69       3.2     4.8  5.3 -0.2349E+01  0.1656E+01  0.3766E+01E
 Epicentro: LOS SANTOS - SANTANDER                                             3
 ACTION:UP  11-06-22 15:28 OP:REBC STATUS:               ID:20110402163558 L   I
 2011-04-02-1632-33S.COL___138                                                 6
 STAT SP IPHASW D HRMM SECON CODA AMPLIT PERI AZIMU VELO SNR AR TRES W  DIS CAZ7
 BTL  SZ EP       1636 17.69                             171     0.110   21 315 
 BAR2 SZ IP       1636 17.54                             171     0.010   22 194 
 BAR2 SZ ES   2   1636 31.34                             171    -1.0 5   22 194 
 BAR2 SZ I        1636 33.62       141.2 0.29                            22 194 
 GIR2 SZ EP   1   1636 17.63                             166    -0.1 7   33 349 
 GIR2 SZ ES   2   1636 32.55                             166     0.0 5   33 349 
 BRR  HZ EP   1   1636 19.45                             151     0.2 7   73 299 
 BRR  HE ES   1   1636 36.12                             151     0.7 7   73 299 
 BRR  HZ I        1636 40.83       175.4 0.15                            73 299 
 PAM  SZ EP   1   1636 20.44                             150     0.2 7   78  38 
 PAM  SN ES   1   1636 37.21                             150     0.0 7   78  38 
 GRA  SZ IP       1636 23.54                             136     0.010  127  17 
 GRA  SZ I        1636 24.83        85.6 0.20                           127  17 
 GRA  SZ ES   2   1636 42.91                             136     0.0 5  127  17 
 OCA  SZ IP       1636 26.33                             128    -0.4 9  162 353 
 OCA  SZ ES   2   1636 47.94                             128    -0.6 5  162 353 
 OCA  SZ I        1636 54.32        78.8 0.39                           162 353 
 YOP  SZ EP   1   1636 28.29                             126     0.2 7  177 153 
 YOP  SN ES   2   1636 51.37                             126     0.3 4  177 153 
 YOP  SZ I        1636 52.67        34.9 0.29                           177 153 
 NOR  SZ EP   2   1636 34.33                             117     0.3 4  235 235 
 NOR  SN ES   2   1637  1.21                             117    -0.5 4  235 235 
 CHI  HZ EP   1   1636 35.55                             116    -0.4 6  247 196 
 CHI  HN ES   2   1637  4.75                             116    -0.2 4  247 196 
 CHI  HZ I        1637  8.35        18.9 0.43                           247 196 
 DBB  SZ EP   1   1636 45.86                             109    -0.2 5  341 275 
                                                                                
