 2016 10 2 1406 21.1 L   6.822 -73.153143.1  RSN 21 0.4 2.5LRSN                1
 GAP= 70        0.96       2.6     2.7  4.4 -0.7253E+00  0.2717E+01  0.2326E+01E
 Epicentro: LOS SANTOS - SANTANDER                                             3
 ACTION:UPD 16-11-09 19:15 OP:rebc STATUS:               ID:20161002140621 L   I
 OLDACT:UP  16-10-02 23:19 OP:dani STATUS:               ID:20161002135746d    3
 OLDACT:UP  16-10-02 23:18 OP:dani STATUS:               ID:20161002135746d    3
 OLDACT:UP  16-10-02 23:17 OP:dani STATUS:               ID:20161002135746d    3
 OLDACT:UP  16-10-02 23:17 OP:dani STATUS:               ID:20161002135746d    3
 OLDACT:DUP 16-10-02 23:04 OP:dani STATUS:               ID:20161002135746d    3
 2016-10-02-1358-00M.COL___381                                                 6
 STAT SP IPHASW D HRMM SECON CODA AMPLIT PERI AZIMU VELO AIN AR TRES W  DIS CAZ7
 BAR2 EZ IP     C 14 6 40.37                             169   -0.1010 25.6 187 
 BAR2 EZ ES       14 6 55.72                             169    0.1410 25.6 187 
 BAR2 EZ I        14 7  0.47        44.8 0.22            166           25.6 187 
 BRR  HZ IP     C 14 6 42.16                             153    0.2910 69.4 297 
 BRR  HN ES       14 6 58.91                             153    0.8410 69.4 297 
 BRR  HZ I        14 7  2.98        62.5 0.12            148           69.4 297 
 PAM  EZ EP       14 6 43.13                             151    0.1710 76.0  41 
 PAM  HN ES       14 7  0.00                             151   -0.0110 76.0  41 
 PAM  EZ I        14 7  0.75        65.3 0.20            153           76.0  41 
 RUS  HZ EP     C 14 6 44.48                             143   -0.3110  103 176 
 RUS  HN ES       14 7  3.21                             143   -0.0510  103 176 
 RUS  HZ I        14 7  4.81        37.5 0.32            141            103 176 
 PTB  HZ EP       14 6 47.01                             131   -0.83 9  148 258 
 PTB  HN ES       14 7  8.00                             131   -0.69 9  148 258 
 PTB  HZ I        14 7 13.41        43.4 0.18            127            148 258 
 TAM  HZ EP       14 6 48.84                             130    0.13 9  156 106 
 TAM  HE ES       14 7 10.41                             130    0.17 9  156 106 
 TAM  HZ I        14 7 11.09        34.7 0.28            131            156 106 
 OCA  HZ EP       14 6 48.51                             130   -0.47 9  158 353 
 OCA  HN ES       14 7  9.98                             130   -0.74 9  158 353 
 OCA  HZ I        14 7 13.62        83.1 0.26            128            158 353 
 SPBC HZ EP       14 6 49.51                             128   -0.04 9  165 218 
 SPBC HN ES       14 7 11.46                             128   -0.27 9  165 218 
 SPBC HZ I        14 7 15.77        67.8 0.34            125            165 218 
 ZAR  HZ EP       14 6 53.42                             122    0.20 9  202 292 
 ZAR  HE ES       14 7 18.63                             122    0.37 9  202 292 
 ZAR  HZ I        14 7 25.14        66.5 0.38            119            202 292 
 NOR  HZ EP       14 6 57.00                             118    0.22 8  236 234 
 NOR  HE ES       14 7 25.11                             118    0.52 8  236 234 
 NOR  HZ I        14 7 27.29        30.9 0.30            115            236 234 
 CHI  HZ EP       14 6 58.85                             116   -0.05 8  251 195 
 CHI  HN ES       14 7 28.11                             116   -0.27 8  251 195 
 CHI  HZ I        14 7 31.98        10.7 0.24            115            251 195 
 ROSC BZ EP   4   14 7  0.83                             116    1.55 0  254 211 
 HEL  HZ EP       14 7  1.50                             114    0.32 8  272 255 
 HEL  HN ES   4   14 7 34.29                             114    1.86 0  272 255 
 HEL  HZ I        14 7 39.84        15.6 0.27            112            272 255 
 URE  HZ EP   9   14 7  0.60                             113   -1.27 0  282 292 
 URE  HN ES       14 7 32.46                             114    0.07 7  282 292 
 URE  HZ I        14 7 37.77        25.3 0.14            111            282 292 
 GUY2CHZ EP       14 7  5.18                             112    0.49 7  302 234 
 GUY2CHN ES   4   14 7 42.67                             112    3.99 0  302 234 
 GUY2CHZ I        14 7 49.00        16.7 0.61                           302 234 
 PTGC HZ EP   4   14 7  3.49                             111   -1.65 0  311 159 
 PTGC HE ES   4   14 7 37.04                             111   -2.45 0  311 159 
 PTGC HZ I        14 7 39.84        16.5 0.28            110            311 159 
 ELA  HZ EP   4   14 7  9.38                             110    1.41 0  330 229 
 ELA  HN ES       14 7 43.91                             110   -0.61 7  330 229 
 ELA  HZ I        14 7 56.42        15.4 0.34            108            330 229 
 CBOC HZ EP       14 7  8.37                             109    0.45 7  334 252 
 CBOC HZ I        14 7 54.10         5.1 0.20            107            334 252 
 ANIL HZ EP   4   14 7 13.11                             108    2.15 0  359 224 
 ANIL HE ES   4   14 7 52.15                             108    2.31 0  359 224 
 ANIL HZ I        14 7 56.02        33.7 0.31            106            359 224 
 PRA  HZ EP       14 7 15.20                             106    0.45 6  394 209 
 PRA  HN ES       14 7 56.82                             106    0.24 6  394 209 
 PRA  HZ I        14 8  3.25        16.8 0.25            105            394 209 
 PAL  HZ EP       14 7 16.46                             105    0.20 6  406 239 
 SJC  HZ EP   4   14 7 14.66                             105   -1.64 0  407 327 
 SJC  HN ES   4   14 7 56.84                             105   -2.50 0  407 327 
 SJC  HZ I        14 8  0.24         4.6 0.43            104            407 327 
                                                                                
