 2013  2 2 1045  4.9 L   6.750 -73.112144.0  RSN  6 0.4 1.7LRSN                1
 GAP=143        0.87       5.5     4.6  7.9  0.2522E+01  0.5284E+01  0.2037E+01E
 Epicentro: LOS SANTOS - SANTANDER                                             3
 ACTION:UPD 13-03-12 09:29 OP:ep   STATUS:               ID:20130202104504 L   I
 2013-02-02-1040-00M.COL___241                                                 6
 STAT SP IPHASW D HRMM SECON CODA AMPLIT PERI AZIMU VELO AIN AR TRES W  DIS CAZ7
 BAR2 SZ ES   2   1045 38.80                             172   -0.50 5 19.1 204 
 BAR2 SZ I        1045 40.11         9.1 0.15            170           19.1 204 
 BRR  HZ EP       1045 26.46                             150    0.2810 77.1 301 
 BRR  HE ES       1045 43.02                             150    0.2210 77.1 301 
 BRR  HE I        1045 43.63        21.4 0.19            151           77.1 301 
 PAM  SZ EP       1045 27.33                             150    0.2910 79.6  35 
 PAM  SZ I        1045 27.65        10.7 0.22            152           79.6  35 
 PAM  SE ES   1   1045 43.72                             150   -0.60 7 79.6  35 
 RUS  HZ EP   1   1045 28.33                             145    0.28 7 94.9 178 
 RUS  HN ES   1   1045 46.29                             145    0.17 7 94.9 178 
 RUS  HN I        1045 48.43         4.4 0.33            144           94.9 178 
 PTB  HZ EP       1045 31.20                             131   -0.74 9  150 261 
 PTB  HE ES   1   1045 53.05                             131   -0.01 7  150 261 
 PTB  HZ I        1045 55.39         2.8 0.24            131            150 261 
 ZAR  HE ES       1046  3.53                             121    0.08 8  210 293 
 ZAR  HE I        1046  4.45         8.4 0.26            122            210 293 
                                                                                
