 2011  8 2 1231 35.9 L   6.777 -73.093150.7  RSN  7 0.2 1.9LRSN                1
 GAP=144        0.52       3.1     5.1  6.1 -0.3115E+01 -0.5495E+01  0.4107E+01E
 Epicentro: LOS SANTOS - SANTANDER                                             3
 ACTION:UPD 12-07-25 14:05 OP:epov STATUS:               ID:20110802123135 L   I
 2011-08-02-1229-55S.COL___137                                                 6
 STAT SP IPHASW D HRMM SECON CODA AMPLIT PERI AZIMU VELO AIN AR TRES W  DIS CAZ7
 BAR2 SZ IP       1231 55.88                             171   -0.2310 22.7 206 
 BAR2 SZ I        1231 56.42        18.3 0.36                          22.7 206 
 PAM  SZ EP       1231 58.78                             152    0.2310 75.9  35 
 PAM  SN ES   1   1232 16.01                             152   -0.21 7 75.9  35 
 BRR  HZ EP       1231 57.77                             151   -0.1710 77.5 298 
 BRR  HZ I        1231 59.29        28.9 0.12                          77.5 298 
 BRR  HE ES   1   1232 15.37                             151    0.24 7 77.5 298 
 RUS  HZ EP       1231 59.82                             146   -0.1210 97.8 179 
 RUS  HZ I        1232  0.38         7.8 0.18                          97.8 179 
 RUS  HE ES   2   1232 18.93                             146    0.23 5 97.8 179 
 BRI  SZ EP       1232  0.51                             142    0.2110  109  17 
 OCA  SZ ES   2   1232 27.25                             130   -0.27 5  164 351 
 CHI  HE ES   2   1232 43.81                             118    0.48 4  248 197 
 CHI  HZ I        1232 51.56         5.7 0.58                           248 197 
                                                                                
