 2012  8 2 1741 12.2 L   6.777 -73.133150.8  RSN  5 0.4 1.7LRSN                1
 GAP=139        0.78       7.1     6.3  7.5 -0.6310E+01  0.4932E+01  0.1652E+02E
 Epicentro: LOS SANTOS - SANTANDER                                             3
 ACTION:UPD 12-09-10 11:53 OP:ep   STATUS:               ID:20120802174112 L   I
 2012-08-02-1740-00M.COL___215                                                 6
 STAT SP IPHASW D HRMM SECON CODA AMPLIT PERI AZIMU VELO AIN AR TRES W  DIS CAZ7
 BAR2 SZ EP       1741 32.33                             171   -0.0810 21.1 195 
 BAR2 SZ ES   1   1741 47.90                             171   -0.26 7 21.1 195 
 BAR2 SZ I        1741 49.09        12.4 0.36                          21.1 195 
 BRR  HZ EP       1741 34.19                             152    0.1410 73.7 300 
 BRR  HZ I        1741 34.51        24.9 0.26                          73.7 300 
 BRR  HE ES   1   1741 51.71                             152    0.63 7 73.7 300 
 PAM  SZ EP       1741 35.12                             151    0.0810 78.5  38 
 PAM  SZ I        1741 35.32         8.6 0.22                          78.5  38 
 PAM  SE ES   1   1741 52.38                             151   -0.46 7 78.5  38 
 RUS  HZ EP       1741 36.62                             145    0.3410 97.9 177 
 RUS  HZ I        1741 56.52         4.4 0.42                          97.9 177 
 PTB  HZ EP       1741 39.24                             133   -0.44 9  149 260 
 PTB  HE ES   3   1742  0.24                             133   -0.86 2  149 260 
 PTB  HZ I        1742  5.95         5.6 0.52                           149 260 
                                                                                
