 2013  7 2 1059 40.8 L   6.793 -73.234138.1  RSN  9 0.4 1.9LRSN                1
 GAP=121        0.82       4.2     6.3 11.4 -0.3165E+01  0.4324E+02 -0.2954E+01E
 Epicentro: ZAPATOCA - SANTANDER                                               3
 ACTION:UPD 13-08-12 10:34 OP:ep   STATUS:               ID:20130702105940 L   I
 OLDACT:DUP 13-07-02 17:33 OP:jn   STATUS:               ID:20130702105750d    3
 OLDACT:REG 13-07-02 17:24 OP:jn   STATUS:               ID:20130702105749     3
 2013-07-02-1057-49M.COL___226                                                 6
 STAT SP IPHASW D HRMM SECON CODA AMPLIT PERI AZIMU VELO AIN AR TRES W  DIS CAZ7
 BAR2 SZ ES   1   11 0 13.78                             170   -0.33 7 22.9 165 
 BAR2 SZ I        11 0 15.22        19.0 0.18            168           22.9 165 
 GIR2 SZ ES   1   11 0 14.91                             166    0.65 7 32.0   8 
 BRR  HZ EP   1   11 0  0.96                             154    0.26 7 63.2 303 
 BRR  HN ES   4   11 0 18.09                             154    1.89 0 63.2 303 
 BRR  HZ I        11 0 20.98        20.6 0.48            150           63.2 303 
 PAM  SN ES   1   11 0 19.11                             147   -0.63 7 84.5  44 
 PAM  SZ I        11 0 21.15        18.8 0.28            153           84.5  44 
 RUS  HE ES   1   11 0 22.20                             142    0.38 7  101 170 
 RUS  HZ I        11 0 22.96         5.3 0.34            143            101 170 
 PTB  HN ES   1   11 0 25.61                             132   -0.53 7  138 258 
 PTB  HZ I        11 0 33.69         8.6 0.40            130            138 258 
 OCA  HE ES   1   11 0 30.19                             128    0.02 7  160 357 
 ZAR  HE ES   1   11 0 36.36                             122    0.27 6  195 293 
 PRA  HN ES   1   11 1 14.30                             105   -0.20 4  387 208 
 PRA  HZ I        11 1 22.40         3.2 0.22            106            387 208 
                                                                                
