 2013  3 2 1359  5.9 L   6.795 -73.164148.2  RSN  8 0.4 1.8LRSN                1
 GAP=134        0.77       3.7     5.1  6.7  0.6833E+00  0.8414E+01 -0.2931E+00E
 Epicentro: LOS SANTOS - SANTANDER                                             3
 ACTION:UPD 13-04-09 13:59 OP:ep   STATUS:               ID:20130302135905 L   I
 2013-03-02-1356-40M.COL___202                                                 6
 STAT SP IPHASW D HRMM SECON CODA AMPLIT PERI AZIMU VELO AIN AR TRES W  DIS CAZ7
 BAR2 SZ EP       1359 25.90                             171    0.1210 22.5 185 
 BAR2 SZ ES   1   1359 41.16                             171   -0.14 7 22.5 185 
 BAR2 SZ I        1359 46.66        14.3 0.40            168           22.5 185 
 BRR  HZ EP   1   1359 27.82                             153    0.62 7 69.7 300 
 BRR  HN ES   1   1359 44.42                             153    0.59 7 69.7 300 
 BRR  HZ I        1359 45.29        18.7 0.40            140           69.7 300 
 PAM  SZ EP   1   1359 28.82                             151    0.37 7 79.2  40 
 PAM  SN ES   1   1359 45.58                             151   -0.48 7 79.2  40 
 PAM  SZ I        1359 46.19         7.3 0.36            143           79.2  40 
 RUS  HZ EP   1   1359 30.00                             144    0.16 7  100 175 
 RUS  HN ES   1   1359 48.33                             144   -0.19 7  100 175 
 RUS  HZ I        1359 50.06         3.8 0.24            137            100 175 
 PTB  HZ EP   1   1359 32.76                             133   -0.09 7  146 259 
 PTB  HN ES   1   1359 53.75                             133   -0.14 7  146 259 
 PTB  HZ I        1359 56.01         7.4 0.12            121            146 259 
 ZAR  HZ EP   1   1359 38.09                             123   -0.22 6  202 293 
 ZAR  HZ I        14 0  9.47         9.9 0.26            112            202 293 
 SML  HN ES   1   14 0 10.45                             118   -0.80 6  243 336 
 CHI  HN ES   1   14 0 12.55                             118   -0.46 6  248 195 
                                                                                
