 2010  1 2 1000 11.4 L   6.563 -73.505113.5  RSN 10 0.3 1.9LRSN                1
 GAP=107        0.49       2.4     4.0  5.2 -0.2984E+01  0.1212E+02  0.2273E+00E
 Epicentro: EL CARMEN DE CHUCURI - SANTANDER                                   3
 ACTION:UP  10-08-24 09:42 OP:vdl  STATUS:               ID:20100102100011 L   I
 2010-01-02-0958-20S.COL___096                                                 6
 STAT SP IPHASW D HRMM SECON CODA AMPLIT PERI AZIMU VELO AIN AR TRES W  DIS CAZ7
 BAR2 SZ IP       10 0 27.72                             162     0.110   36  85 
 BAR2 SZ ES   2   10 0 39.90                             162    -0.3 5   36  85 
 GIR2 SZ IP       10 0 29.26                             148     0.210   67  31 
 GIR2 SZ ES   2   10 0 42.98                             148     0.1 5   67  31 
 RUS  BZ EP   1   10 0 30.83                             140    -0.3 7   88 148 
 RUS  BN ES   2   10 0 46.35                             140    -0.1 5   88 148 
 RUS  BZ I        10 0 47.23         7.3 0.46                            88 148 
 OCA  SZ EP   1   10 0 40.17                             117    -0.1 7  186   6 
 OCA  SZ ES   2   10 1  2.29                             117    -0.4 4  186   6 
 CHI  HZ EP   1   10 0 43.62                             113    -0.1 6  215 187 
 CHI  HN ES   2   10 1  9.27                             113     0.3 4  215 187 
 CHI  HZ I        10 1 12.11         5.2 0.38                           215 187 
 HEL  HZ EP   1   10 0 45.35                             112     0.3 6  228 260 
 HEL  HE ES   2   10 1 10.74                             112    -0.6 4  228 260 
 HEL  HZ I        10 1 15.77        11.1 0.20                           228 260 
 RREF BZ EP   1   10 0 50.88                             107     0.1 6  275 228 
 RREF BZ I        10 1 27.13         5.8 0.23                           275 228 
 TOL  SZ EP   1   10 0 53.47                             106     0.4 5  297 223 
 PRA  HZ EP   1   10 0 58.58                             102    -0.4 5  350 206 
 PRA  HE ES   2   10 1 36.08                             102    -0.1 3  350 206 
 PRA  HZ I        10 1 39.14         8.1 0.30                           350 206 
 SDV  BZ EP   1   10 1  5.83                             100    -0.3 4  408  51 
                                                                                
