 2013 10 2 1213 21.0 L   6.709 -73.129141.9  RSN  5 0.4 1.7LRSN                1
 GAP=143        0.95       5.4     5.1  7.5 -0.5312E+01  0.8398E+01 -0.5400E+01E
 Epicentro: JORDAN - SANTANDER                                                 3
 ACTION:UPD 13-11-25 09:18 OP:ep   STATUS:               ID:20131002121321 L   I
 OLDACT:UP  13-10-02 19:46 OP:stll STATUS:               ID:20131002120843     3
 OLDACT:REG 13-10-02 13:52 OP:stll STATUS:               ID:20131002120843     3
 2013-10-02-1208-43M.COL___231                                                 6
 STAT SP IPHASW D HRMM SECON CODA AMPLIT PERI AZIMU VELO AIN AR TRES W  DIS CAZ7
 BAR2 SZ EP       1213 40.48                             174    0.5010 14.2 205 
 BAR2 SZ ES       1213 55.38                             174    0.5710 14.2 205 
 BAR2 SZ I        1213 56.28        16.6 0.18            173           14.2 205 
 BRR  HZ EP       1213 42.11                             149    0.0010 78.1 304 
 BRR  HN ES       1213 58.69                             149    0.0910 78.1 304 
 PAM  SZ EP       1213 43.35                             148    0.1410 84.4  34 
 PAM  SN ES       1214  0.03                             148   -0.5310 84.4  34 
 PAM  SZ I        1214  2.38        14.1 0.62            150           84.4  34 
 RUS  HN ES       1214  0.87                             146   -0.4110 90.4 177 
 RUS  HZ I        1214  4.02         4.4 0.24            146           90.4 177 
 PTB  HZ EP       1213 47.50                             131   -0.14 9  148 263 
 PTB  HN ES       1214  8.19                             131   -0.26 9  148 263 
 PTB  HZ I        1214 11.20         5.7 0.28            132            148 263 
                                                                                
