 2015  6 2 1823 49.8 L   6.849 -73.163141.7  RSN 19 0.5 2.4LRSN                1
 GAP=132        1.13       2.7     4.2  5.4 -0.1951E+01  0.8046E+01  0.2465E+01E
 Epicentro: ZAPATOCA - SANTANDER                                               3
 ACTION:UPD 15-09-10 22:09 OP:cam  STATUS:               ID:20150602182349 L   I
 OLDACT:REG 15-06-02 22:13 OP:ar   STATUS:               ID:20150602181746     3
 2015-06-02-1817-46M.COL___291                                                 6
 STAT SP IPHASW D HRMM SECON CODA AMPLIT PERI AZIMU VELO AIN AR TRES W  DIS CAZ7
 BAR2 EZ EP     C 1824  9.08                             168   -0.0310 28.5 184 
 BAR2 EZ ES       1824 24.24                             168    0.1110 28.5 184 
 BAR2 EZ I        1824 25.51        43.6 0.56            154           28.5 184 
 BRR  HZ EP     C 1824 10.84                             153    0.5210 67.0 295 
 BRR  HE ES       1824 27.00                             153    0.7110 67.0 295 
 BRR  HZ I        1824 29.71        36.4 0.12            121           67.0 295 
 PAM  SZ EP     D 1824 11.86                             151    0.3910 74.6  43 
 PAM  SZ I        1824 12.03        44.6 0.14            131           74.6  43 
 PAM  SN ES       1824 28.52                             151    0.1910 74.6  43 
 RUS  HZ EP     D 1824 13.18                             141   -0.4410  106 175 
 RUS  HN ES   1   1824 31.44                             141   -0.72 7  106 175 
 RUS  HZ I        1824 33.42        25.2 0.30            126            106 175 
 OCA  HN ES       1824 38.14                             130   -0.60 9  155 354 
 SPBC HN ES       1824 40.37                             128   -0.18 9  166 217 
 SPBC HZ I        1824 47.36        55.5 0.38            108            166 217 
 ZAR  HZ EP       1824 21.76                             122    0.12 9  200 291 
 ZAR  HN ES       1824 46.39                             122   -0.04 9  200 291 
 ZAR  HZ I        1824 53.43        33.1 0.36            102            200 291 
 NOR  HZ EP     C 1824 25.18                             117   -0.34 8  236 233 
 NOR  HE ES       1824 52.63                             117   -0.71 8  236 233 
 NOR  HZ I        1824 58.07        22.0 0.24            102            236 233 
 SML  HZ EP       1824 25.42                             117   -0.20 8  238 335 
 SML  HE ES       1824 53.19                             117   -0.34 8  238 335 
 SML  HZ I        1824 57.16        26.1 0.10            101            238 335 
 CHI  HZ EP       1824 27.17                             116   -0.67 8  253 194 
 CHI  HN ES       1824 56.98                             116   -0.50 8  253 194 
 CHI  HZ I        1825  2.81        12.0 0.26            102            253 194 
 ROSC BZ EP       1824 29.21                             115    1.06 8  256 210 
 ROSC BZ I        1824 30.66        29.1 0.20            101            256 210 
 ROSC BE ES       1824 58.02                             115   -0.01 8  256 210 
 HEL  HZ EP       1824 29.96                             114    0.16 8  272 255 
 HEL  HN ES       1825  0.58                             114   -0.38 8  272 255 
 HEL  HZ I        1825  9.59        19.1 0.58             99            272 255 
 GUY2CHZ EP       1824 34.35                             111    0.90 7  303 234 
 GUY2CHE ES       1825  7.49                             111    0.03 7  303 234 
 GUY2CHZ I        1825 19.74        16.6 0.56                           303 234 
 CBOC HZ EP   1   1824 36.73                             109    0.15 5  333 251 
 CBOC HZ I        1825 18.10         9.2 0.26             98            333 251 
 TOL  SZ EP       1824 38.54                             108    0.30 6  346 224 
 TOL  SN ES       1825 16.89                             108    0.91 6  346 224 
 TOL  SZ I        1825 23.59        15.1 0.58             98            346 224 
 MON  HZ EP   9   1824 36.21                             108   -1.92 0  349 308 
 MON  HN ES       1825 13.26                                   -0.61 6  349 308 
 MON  HZ I        1825 16.99         5.3 0.68             97            349 308 
 ANIL HZ EP       1824 40.59                             108    0.80 6  360 224 
 ANIL HE ES       1825 18.33                             108   -0.42 6  360 224 
 ANIL HZ I        1825 23.94        25.6 0.30             97            360 224 
 ORTC HZ EP       1824 44.10                             105    0.09 6  399 215 
 ORTC HZ I        1825 32.81         8.4 0.50             97            399 215 
 SJC  HZ EP       1824 43.28                             105   -1.34 6  404 327 
 SJC  HN ES   4   1825 23.82                             105   -3.52 0  404 327 
 SJC  HN E        1825 23.82                                            404 327 
 SJC  HZ I        1825 27.67         4.0 0.36             96            404 327 
                                                                                
