 2012  7 2 1619 30.5 L   6.697 -73.162150.2  RSN  5 0.2 2.1LRSN                1
 GAP=228        0.52       4.6     4.6  4.5  0.9221E+01  0.4537E+01  0.4168E+01E
 Epicentro: VILLANUEVA - SANTANDER                                             3
 ACTION:UPD 12-08-14 11:42 OP:ep   STATUS:               ID:20120702161930 L   I
 2012-07-02-1614-48M.COL___202                                                 6
 STAT SP IPHASW D HRMM SECON CODA AMPLIT PERI AZIMU VELO AIN AR TRES W  DIS CAZ7
 BAR2 SZ EP       1619 50.70                             175     0.210   12 191 
 BAR2 SZ ES   1   1620  5.92                             175    -0.2 7   12 191 
 BAR2 SZ I        1620  7.20        38.9 0.23            173             12 191 
 BRR  HZ EP       1619 52.35                             152     0.010   76 307 
 BRR  HN ES       1620  9.51                             152     0.110   76 307 
 BRR  HZ I        1620 12.88        24.9 0.10            152             76 307 
 RUS  HZ EP   1   1619 53.85                             148    -0.1 7   89 174 
 RUS  HN ES   1   1620 12.16                             148     0.0 7   89 174 
 RUS  HZ I        1620 14.50        15.0 0.35            149             89 174 
 PTB  HZ EP       1619 57.21                             134    -0.3 9  144 263 
 PTB  HE ES   1   1620 18.62                             134     0.0 7  144 263 
 PTB  HZ I        1620 20.99        10.4 0.17            135            144 263 
 NOR  SZ EP   1   1620  5.98                             120     0.3 6  227 237 
