 2012  3 2 1624  2.1 L   6.735 -73.214151.3  RSN  6 0.4 1.8LRSN                1
 GAP=221        0.78       7.7     8.8  8.6  0.3571E+02  0.2265E+02  0.9946E+01E
 ACTION:UP  12-03-31 23:16 OP:EP   STATUS:               ID:20120302162402 L   I
 2012-03-02-1620-00M.COL___192                                                 6
 STAT SP IPHASW D HRMM SECON CODA AMPLIT PERI AZIMU VELO SNR AR TRES W  DIS CAZ7
 BAR2 SZ EP   1   1624 21.98                             173    -0.3 7   16 167 
 BAR2 SZ ES   1   1624 37.45                             173    -0.6 7   16 167 
 BAR2 SZ I        1624 39.94        12.7 0.38                            16 167 
 BRR  HZ EP   1   1624 23.95                             154     0.2 7   69 307 
 BRR  HZ I        1624 27.71        22.8 0.47                            69 307 
 BRR  HE ES   1   1624 41.07                             154     0.5 7   69 307 
 RUS  HZ EP   1   1624 26.04                             147     0.0 7   94 171 
 RUS  HN ES   1   1624 45.07                             147     0.4 7   94 171 
 RUS  HZ I        1624 47.32         6.0 0.39                            94 171 
 PTB  HZ EP   1   1624 28.80                             135     0.0 7  139 261 
 ZAR  HE ES   2   1624 59.45                             124    -0.4 4  200 295 
 NOR  SN ES   2   1625  4.17                             121    -0.2 4  224 235 
                                                                                
