 2017  2 2 1530 40.1 L   6.611 -72.887156.5  RSN  4 0.4 1.4LRSN                1
 GAP=181        0.71       8.8     7.6  6.0 -0.2550E+02  0.5113E+01 -0.1621E+02E
 Epicentro: MOLAGAVITA - SANTANDER                                             3
 ACTION:UPD 17-05-24 15:31 OP:jn   STATUS:               ID:20170202153040 L   I
 OLDACT:REG 17-02-02 20:31 OP:dnl  STATUS:               ID:20170202152744     3
 2017-02-02-1528-00M.COL___333                                                 6
 STAT SP IPHASW D HRMM SECON CODA AMPLIT PERI AZIMU VELO AIN AR TRES W  DIS CAZ7
 BAR2 EZ EP   2   1531  1.99                             167    0.70 5 32.7 266 
 BAR2 EZ ES       1531 17.63                             167   -0.1410 32.7 266 
 BAR2 EZ I        1531 18.44         4.3 0.60            169           32.7 266 
 RUS  HZ EP   9   1531  6.07                             151    2.26 0 82.4 195 
 RUS  HN ES       1531 24.39                                   -0.1410 82.4 195 
 RUS  HZ I        1531 26.09         2.1 0.30            149           82.4 195 
 PAM  EZ EP   2   1531  4.38                             150    0.52 5 83.2  14 
 PAM  EN ES       1531 22.26                             150   -0.0910 83.2  14 
 PAM  EZ I        1531 24.67         3.9 0.66            153           83.2  14 
 BRR  HZ EP       1531  4.30                             143   -0.3810  106 301 
 BRR  HN ES       1531 24.12                             143    0.3010  106 301 
 BRR  HZ I        1531 25.80         8.9 0.42            147            106 301 
                                                                                
