 2015 11 2 1347 25.6 L   6.748 -73.090148.9  RSN  9 0.4 1.9LRSN                1
 GAP=146        1.06       3.4     4.9  7.0 -0.2123E+01  0.1069E+02 -0.4751E+01E
 Epicentro: LOS SANTOS - SANTANDER                                             3
 ACTION:UPD 15-12-28 16:08 OP:cam  STATUS:               ID:20151102134725 L   I
 OLDACT:REG 15-11-02 21:13 OP:cara STATUS:               ID:20151102133748     3
 2015-11-02-1337-48M.COL___310                                                 6
 STAT SP IPHASW D HRMM SECON CODA AMPLIT PERI AZIMU VELO AIN AR TRES W  DIS CAZ7
 BAR2 EZ EP       1347 45.55                             172   -0.0210 20.0 211 
 BAR2 EZ ES       1348  0.61                             172   -0.5210 20.0 211 
 BAR2 EZ I        1348  1.60        12.1 0.22            172           20.0 211 
 PAM  EZ IP     C 1347 48.45                             151    0.2210 78.4  33 
 PAM  EE ES       1348  5.66                             151   -0.2010 78.4  33 
 PAM  EZ I        1348  7.68         5.4 0.46            152           78.4  33 
 BRR  HZ EP       1347 47.48                             150   -0.1010 79.3 300 
 BRR  HN ES       1348  4.37                             150   -0.3410 79.3 300 
 BRR  HZ I        1348  8.78        16.0 0.12            149           79.3 300 
 RUS  HZ EP       1347 49.48                             146    0.2110 94.6 180 
 RUS  HN ES       1348  7.90                             146    0.1910 94.6 180 
 RUS  HZ I        1348  9.23         3.5 0.30            150           94.6 180 
 SPBC HE ES       1348 17.24                             130    0.53 9  163 222 
 OCA  HE ES       1348 18.50                             129    0.96 9  167 351 
 OCA  HZ I        1348 23.25        15.9 0.24            130            167 351 
 ZAR  HZ EP       1347 58.62                             122   -0.46 8  212 293 
 ZAR  HE ES       1348 25.32                             122    0.14 8  212 293 
 ZAR  HZ I        1348 32.34         8.0 0.52            123            212 293 
 NOR  HE ES       1348 29.79                             119   -0.10 8  236 236 
 SML  HZ EP       1348  2.37                             117   -0.90 8  251 335 
 SML  HN ES       1348 32.90                             117    0.27 8  251 335 
 SML  HZ I        1348 33.89        13.1 0.24            118            251 335 
                                                                                
