 2011  8 2 1820 32.3 L   6.792 -73.105140.3  RSN  4 0.3 1.8LRSN                1
 GAP=142        0.47       3.7     5.1  6.7 -0.2090E+01  0.4328E+01  0.7114E+01E
 Epicentro: LOS SANTOS - SANTANDER                                             3
 ACTION:UPD 12-07-25 14:05 OP:epov STATUS:               ID:20110802182032 L   I
 2011-08-02-1817-54S.COL___121                                                 6
 STAT SP IPHASW D HRMM SECON CODA AMPLIT PERI AZIMU VELO AIN AR TRES W  DIS CAZ7
 BAR2 SZ EP   3   1820 52.23                             170    0.97 2 23.7 201 
 PAM  SZ EP       1820 53.70                             151   -0.0810 75.3  36 
 PAM  SE ES   1   1821 10.61                             151    0.05 7 75.3  36 
 BRR  HZ EP       1820 52.97                             150   -0.1310 75.6 297 
 BRR  HN ES   2   1821  9.58                             150    0.24 5 75.6 297 
 BRR  HZ I        1821 13.67        11.8 0.18                          75.6 297 
 RUS  HZ EP       1820 55.57                             143    0.1610 99.5 179 
 RUS  HN ES   2   1821 13.10                             143   -0.36 5 99.5 179 
                                                                                
