 2013  6 2 1225 10.4 L   6.764 -73.209144.0  RSN  5 0.5 1.5LRSN                1
 GAP=168        1.29       7.9     8.2  9.2  0.1755E+02  0.1369E+02  0.1221E+02E
 Epicentro: VILLANUEVA - SANTANDER                                             3
 ACTION:UPD 14-01-08 09:51 OP:ep   STATUS:               ID:20130602122510 L   I
 2013-06-02-1218-50M.COL___220                                                 6
 STAT SP IPHASW D HRMM SECON CODA AMPLIT PERI AZIMU VELO AIN AR TRES W  DIS CAZ7
 BAR2 SZ EP       1225 29.88                             172    0.1110 19.2 171 
 BAR2 SZ ES       1225 44.89                             172    0.0410 19.2 171 
 BAR2 SZ I        1225 46.24         4.2 0.18            167           19.2 171 
 GIR2 SZ EP       1225 29.52                             166   -0.4710 34.9   3 
 GIR2 SZ ES       1225 44.57                             166   -0.6810 34.9   3 
 BRR  HZ EP       1225 31.36                             153    0.1910 67.3 304 
 BRR  HN ES       1225 48.39                             153    1.0510 67.3 304 
 BRR  HE I        1225 49.21        13.1 0.22            151           67.3 304 
 RUS  HZ EP       1225 34.26                             144    0.4910 97.3 172 
 RUS  HN ES       1225 51.90                             144   -0.0710 97.3 172 
 RUS  HE I        1225 54.23         3.4 0.28            143           97.3 172 
 PTB  HZ EP       1225 36.34                             133   -0.22 9  140 260 
 PTB  HN ES       1225 56.43                             133   -0.52 9  140 260 
 PTB  HE I        1226  3.41         3.4 0.34            131            140 260 
                                                                                
