 2014  1 2 1112 41.5 L   6.812 -73.166144.0  RSN  8 0.3 1.5LRSN                1
 GAP=133        0.58       2.5     3.1  4.8 -0.9361E+00  0.3605E+01  0.2167E+00E
 Epicentro: LOS SANTOS - SANTANDER                                             3
 ACTION:UPD 14-03-13 09:50 OP:ep   STATUS:               ID:20140102111241 L   I
 OLDACT:UP  14-01-02 18:04 OP:mher STATUS:               ID:20140102111000     3
 OLDACT:REG 14-01-02 14:50 OP:mh   STATUS:               ID:20140102111000     3
 2014-01-02-1110-00M.COL___285                                                 6
 STAT SP IPHASW D HRMM SECON CODA AMPLIT PERI AZIMU VELO AIN AR TRES W  DIS CAZ7
 BAR2 SZ EP   1   1113  0.86                             170   -0.12 7 24.4 184 
 BAR2 SZ ES   1   1113 16.13                             170   -0.01 7 24.4 184 
 BAR2 SZ I        1113 17.57        10.7 0.21            172           24.4 184 
 PAM  SZ EP       1113  4.03                             150    0.4410 77.8  41 
 PAM  SE ES   1   1113 20.47                             150   -0.32 7 77.8  41 
 PAM  SZ I        1113 23.37         3.8 0.47            150           77.8  41 
 RUS  HZ EP   1   1113  5.18                             143   -0.05 7  102 175 
 RUS  HN ES   1   1113 23.88                             143    0.18 7  102 175 
 RUS  HZ I        1113 25.51         3.5 0.20            146            102 175 
 PTB  HZ EP       1113  7.99                             132   -0.20 9  146 258 
 PTB  HN ES   1   1113 28.92                             132   -0.06 7  146 258 
 PTB  HZ I        1113 30.93         4.2 0.15            131            146 258 
 SPBC HZ EP   1   1113  9.99                             129    0.12 7  163 218 
 SPBC HN ES       1113 31.93                             129   -0.04 9  163 218 
 SPBC HZ I        1113 38.16         3.9 0.20            129            163 218 
 ZAR  HN ES   1   1113 39.11                             122    0.49 6  202 292 
 SML  HN ES   1   1113 45.63                             117   -0.52 6  242 336 
 SML  HZ I        1113 59.25         9.9 0.05            116            242 336 
 CHI  HZ EP       1113 19.22                             117    0.00 8  249 195 
 CHI  HN ES   2   1113 47.96                             117   -0.65 4  249 195 
 CHI  HZ I        1113 52.01         1.4 0.49            118            249 195 
                                                                                
