 2012  2 2 1721 53.6 L   6.755 -73.081144.3  RSN  7 0.3 1.6LRSN                1
 GAP=147        0.69       3.8     5.6  5.4  0.2118E+01  0.2485E+01  0.1647E+01E
 ACTION:UP  12-03-07 16:27 OP:epov STATUS:               ID:20120202172153 L   I
 2012-02-02-1720-00M.COL___187                                                 6
 STAT SP IPHASW D HRMM SECON CODA AMPLIT PERI AZIMU VELO SNR AR TRES W  DIS CAZ7
 BAR2 SZ EP       1722 13.04                             171    0.0410 21.1 212 
 BAR2 SZ ES   1   1722 27.64                             171   -0.50 7 21.1 212 
 BAR2 SZ I        1722 29.30         6.8 0.32                          21.1 212 
 GIR2 SZ EP       1722 13.29                             165    0.0110 37.9 341 
 PAM  SZ EP   1   1722 15.49                             151   -0.15 7 77.2  33 
 PAM  SE ES   1   1722 32.79                             151   -0.05 7 77.2  33 
 BRR  HZ EP       1722 15.26                             149    0.1710 79.8 299 
 BRR  HZ I        1722 18.96        13.2 0.15                          79.8 299 
 BRR  HE ES       1722 32.15                             149    0.2910 79.8 299 
 RUS  HZ EP   1   1722 17.01                             145    0.19 7 95.3 180 
 RUS  HN ES       1722 35.04                             145    0.1010 95.3 180 
 RUS  HZ I        1722 36.44         5.4 0.20                          95.3 180 
 PTB  HZ EP   1   1722 20.15                             130   -0.85 7  154 261 
 CHI  HZ EP   1   1722 31.16                             117    0.26 6  246 197 
 CHI  HZ I        1722 41.98         1.9 0.78                           246 197 
                                                                                
