 2015 10 2 1726  5.7 L   6.915 -73.195158.0  RSN 11 0.4 1.9LRSN                1
 GAP=124        0.98       3.4     4.1  6.5 -0.2703E+01  0.4854E+01  0.4120E+01E
 Epicentro: BETULIA - SANTANDER                                                3
 ACTION:UPD 15-12-22 20:37 OP:cam  STATUS:               ID:20151002172605 L   I
 OLDACT:DUP 15-10-03 02:24 OP:spq  STATUS:               ID:20151002171750d    3
 OLDACT:UP  15-10-03 02:19 OP:spq  STATUS:               ID:20151002171749d    3
 OLDACT:DUP 15-10-03 02:18 OP:spq  STATUS:               ID:20151002171749d    3
 2015-10-02-1717-48M.COL___361                                                 6
 STAT SP IPHASW D HRMM SECON CODA AMPLIT PERI AZIMU VELO AIN AR TRES W  DIS CAZ7
 BAR2 EZ EP       1726 27.14                             167    0.0310 35.7 178 
 BAR2 EZ ES   1   1726 43.64                             167   -0.15 7 35.7 178 
 BAR2 EZ I        1726 44.45         9.9 0.30            167           35.7 178 
 BRR  HZ EP       1726 28.22                             158    0.5310 60.9 290 
 BRR  HN ES       1726 45.83                             158    1.0010 60.9 290 
 BRR  HZ I        1726 47.43        13.2 0.14            156           60.9 290 
 PAM  EZ EP       1726 29.03                             155    0.0710 72.1  49 
 PAM  EN ES       1726 46.62                             155   -0.4710 72.1  49 
 PAM  EZ I        1726 47.53        17.8 0.22            158           72.1  49 
 RUS  HZ EP       1726 31.61                             143   -0.0110  114 174 
 RUS  HE ES   1   1726 51.75                             143   -0.08 7  114 174 
 RUS  HZ I        1726 53.74         3.4 0.20            144            114 174 
 PTB  HZ EP       1726 33.39                             135   -0.12 9  145 253 
 PTB  HN ES       1726 54.65                             135   -0.54 9  145 253 
 PTB  HZ I        1726 57.80         5.8 0.20            135            145 253 
 OCA  HE ES       1726 55.56                             135   -0.21 9  147 355 
 OCA  HZ I        1726 58.77        14.3 0.32            136            147 355 
 SPBC HZ EP       1726 36.00                             130    0.19 9  170 215 
 SPBC HE ES       1726 59.34                             130    0.05 9  170 215 
 SPBC HZ I        1727  3.65         8.8 0.34            131            170 215 
 ZAR  HN ES       1727  3.17                             126   -0.07 9  194 289 
 ZAR  HZ I        1727  9.33         7.3 0.32            126            194 289 
 SML  HZ EP   2   1726 41.55                             122   -0.06 4  230 335 
 SML  HN ES   1   1727  9.16                             122   -0.44 6  230 335 
 SML  HZ I        1727 10.91        12.7 0.10            123            230 335 
 NOR  HZ EP       1726 42.72                             121    0.19 8  238 231 
 NOR  HN ES       1727 10.46                             121   -0.79 8  238 231 
 NOR  HZ I        1727 17.61         4.9 0.18            121            238 231 
 GUY2CHZ EP   4   1726 51.47                             114    1.20 0  304 232 
 GUY2CHN ES   1   1727 25.57                             114    0.55 5  304 232 
 GUY2CHZ I        1727 36.20         2.4 0.80                           304 232 
                                                                                
