 2012  3 2 1926 20.1 L   6.790 -73.125147.7  RSN 11 0.4 2.2LRSN                1
 GAP=140        0.90       5.0     4.7  6.4 -0.1386E+01  0.8162E+01  0.6658E+01E
 ACTION:UP  12-03-31 23:16 OP:EP   STATUS:               ID:20120302192620 L   I
 2012-03-02-1920-00M.COL___191                                                 6
 STAT SP IPHASW D HRMM SECON CODA AMPLIT PERI AZIMU VELO SNR AR TRES W  DIS CAZ7
 BAR2 SZ EP       1926 39.84                             171    -0.110   23 196 
 BAR2 SZ I        1926 40.04        28.7 0.20                            23 196 
 BAR2 SZ ES   1   1926 54.74                             171    -0.6 7   23 196 
 BRR  HZ EP   1   1926 41.78                             152     0.2 7   74 298 
 BRR  HN ES   1   1926 59.12                             152     0.8 7   74 298 
 BRR  HZ I        1927  2.78        50.6 0.12                            74 298 
 PAM  SZ EP       1926 42.75                             151     0.310   77  38 
 PAM  SE ES   1   1926 59.76                             151    -0.1 7   77  38 
 PAM  SZ I        1927  1.98        10.6 0.23                            77  38 
 RUS  HZ EP   1   1926 43.82                             144    -0.1 7   99 177 
 RUS  HN ES   1   1927  2.58                             144     0.1 7   99 177 
 RUS  HZ I        1927  5.79        10.7 0.38                            99 177 
 PTB  HZ EP   1   1926 46.63                             132    -0.7 7  150 259 
 PTB  HE ES   1   1927  8.46                             132    -0.2 7  150 259 
 ZAR  HZ EP   1   1926 52.42                             122    -0.5 6  207 292 
 ZAR  HN ES   1   1927 18.12                             122    -0.4 6  207 292 
 ZAR  HZ I        1927 24.49        24.8 0.35                           207 292 
 NOR  SZ EP   1   1926 55.97                             119    -0.1 6  236 235 
 NOR  SE ES   1   1927 24.75                             119     0.7 6  236 235 
 CHI  HZ EP   1   1926 57.87                             117     0.1 6  248 196 
 CHI  HZ I        1926 59.25         6.2 0.19                           248 196 
 HEL  HZ EP   1   1927  0.95                             115     0.4 6  274 256 
 HEL  HZ I        1927 38.98        19.4 0.41                           274 256 
 TOL  SZ EP   1   1927  8.35                             110    -0.1 5  344 225 
 PRA  HZ EP   1   1927 14.05                             107     0.4 4  392 210 
                                                                                
