 2011  7 2 1237 36.7 L   6.788 -73.125150.8  RSN 23 0.4 3.4LRSN                1
 GAP=104        0.84       2.5     4.0  4.1 -0.3357E+01  0.2803E+01  0.2939E+01E
 Epicentro: LOS SANTOS - SANTANDER                                             3
 ACTION:UPD 12-07-25 13:57 OP:epov STATUS:               ID:20110702123736 L   I
 2011-07-02-1236-26S.COL___140                                                 6
 STAT SP IPHASW D HRMM SECON CODA AMPLIT PERI AZIMU VELO AIN AR TRES W  DIS CAZ7
 BTL  SZ IP       1237 56.99                             172    0.0610 21.4 313 
 BTL  SZ ES   1   1238 12.89                             172    0.21 7 21.4 313 
 BAR2 SZ IP       1237 56.83                             171   -0.1210 22.5 196 
 BAR2 SZ ES   1   1238 12.06                             171   -0.65 7 22.5 196 
 BAR2 SZ I        1238 13.33       508.4 0.66                          22.5 196 
 GIR2 SZ IP       1237 56.93                             167   -0.1210 33.1 347 
 BRR  HZ IP     D 1237 58.75                             152    0.1810 73.8 299 
 BRR  HZ I        1237 59.09       703.8 0.18                          73.8 299 
 BRR  HN ES   1   1238 16.26                             152    0.66 7 73.8 299 
 PAM  SZ EP       1237 59.63                             152    0.1710 77.0  38 
 PAM  SN ES   1   1238 17.04                             152   -0.15 7 77.0  38 
 RUS  HZ IP     D 1238  0.67                             145   -0.2010 99.1 177 
 RUS  HN ES   1   1238 19.49                             145   -0.21 7 99.1 177 
 RUS  HZ I        1238 21.40       271.2 0.82                          99.1 177 
 BRI  SZ IP       1238  1.40                             142    0.2610  109  19 
 BRI  SZ ES   1   1238 20.30                             142    0.13 7  109  19 
 GRA  SZ IP       1238  2.66                             138    0.1810  126  16 
 GRA  SZ ES   1   1238 22.11                             138   -0.45 7  126  16 
 GRA  SZ I        1238 24.33       300.8 0.30                           126  16 
 OCA  SZ EP       1238  5.38                             130   -0.21 9  162 352 
 OCA  SZ ES   1   1238 28.04                             130   -0.05 7  162 352 
 OCA  SZ I        1238 33.18       334.7 0.27                           162 352 
 YOP  SZ IP       1238  7.29                             128    0.37 9  177 154 
 YOP  SN ES   2   1238 31.19                             128    0.72 4  177 154 
 YOP  SZ I        1238 35.10       107.5 0.50                           177 154 
 NOR  SZ EP       1238 12.58                             119   -0.29 8  236 235 
 NOR  SN ES   2   1238 39.68                             119   -1.37 4  236 235 
 CHI  HZ EP       1238 14.81                             118    0.18 8  248 196 
 CHI  HN ES   1   1238 44.15                             118   -0.05 6  248 196 
 CHI  HZ I        1238 49.95       110.7 0.36                           248 196 
 ROSC BZ EP       1238 16.43                             118    1.30 8  253 212 
 ROSC BN ES   2   1238 45.72                             118    0.64 4  253 212 
 ROSC BZ I        1238 50.19       258.1 0.50                           253 212 
 HEL  HZ EP   1   1238 16.66                             116   -0.75 6  274 256 
 HEL  HN ES   2   1238 49.23                             116    0.10 4  274 256 
 HEL  HZ I        1238 55.91       132.5 0.42                           274 256 
 VIL  SZ EP       1238 19.81                             113   -0.47 7  302 192 
 VIL  SN ES   2   1238 53.43                             113   -0.82 4  302 192 
 VIL  SZ I        1239  1.94        59.3 0.28                           302 192 
 GUY  SZ EP   2   1238 21.19                             113    0.23 4  305 236 
 GUY  SN ES   2   1238 55.21                             113   -0.24 4  305 236 
 GUY  SZ I        1239  2.02       184.4 0.52                           305 236 
 RREF HZ EP       1238 22.75                             112   -0.44 7  323 230 
 RREF HZ I        1239  6.51       166.9 0.30                           323 230 
 DBB  SZ EP       1238 24.78                             110    0.10 7  342 274 
 TOL  SZ EP       1238 25.60                             110    0.34 7  344 225 
 SDV  BZ EP       1238 25.95                             109   -0.92 6  360  50 
 SDV  BZ I        1239  5.44        52.4 0.35                           360  50 
 PRA  HZ EP       1238 30.22                             107   -0.20 6  392 210 
 PRA  HN ES   1   1239 12.41                             107    0.11 4  392 210 
 SJA  SZ EP       1238 31.40                             107    0.04 6  399 193 
 SJA  SZ I        1239 25.49       117.6 0.34                           399 193 
 SJC  HZ EP   4   1238 30.63                             106   -2.11 0  412 327 
 SJC  HZ I        1239 16.43        53.2 0.44                           412 327 
                                                                                
