 2017  1 2 1700 54.0 L   6.699 -73.158143.3  RSN  4 0.3 1.3LRSN                1
 GAP=228        0.73       7.8     9.1  6.3  0.5935E+02  0.5777E+01 -0.5574E+00E
 Epicentro: VILLANUEVA - SANTANDER                                             3
 ACTION:UPD 17-05-22 15:54 OP:jn   STATUS:               ID:20170102170054 L   I
 OLDACT:UP  17-04-19 19:05 OP:nlst STATUS:               ID:20170102170054 L   3
 OLDACT:REG 17-01-02 21:24 OP:ndl  STATUS:               ID:20170102165746     3
 2017-01-02-1658-00M.COL___369                                                 6
 STAT SP IPHASW D HRMM SECON CODA AMPLIT PERI AZIMU VELO AIN AR TRES W  DIS CAZ7
 BAR2 EZ EP       17 1 13.03                             175   -0.1110 12.1 193 
 BAR2 EZ ES       17 1 27.79                             175   -0.3010 12.1 193 
 BAR2 EZ I        17 1 29.47         4.8 0.26            163           12.1 193 
 BRR  HZ EP       17 1 14.93                             150   -0.2210 76.1 306 
 BRR  HE ES       17 1 32.17                             150    0.5010 76.1 306 
 BRR  HZ I        17 1 33.72         5.6 0.22            144           76.1 306 
 RUS  HZ EP       17 1 17.05                             146    0.3310 89.5 175 
 RUS  HE ES       17 1 34.42                             146   -0.0310 89.5 175 
 RUS  HZ I        17 1 36.15         1.8 0.54            142           89.5 175 
 ZAR  HZ EP   2   17 1 26.70                             121    0.09 4  207 295 
 ZAR  HE ES       17 1 51.80                             121   -0.25 8  207 295 
 ZAR  HZ I        17 1 59.48         3.0 0.40            119            207 295 
                                                                                
