 2017 12 2 1730 52.3 L   5.880 -73.921103.7  RSN  6 0.3 1.5LRSN                1
 GAP= 82        0.67       2.2     2.1  6.6 -0.1134E+01  0.5224E+01 -0.2501E+01E
 Epicentro: LA BELLEZA - SANTANDER                                             3
 ACTION:UPD 18-01-04 13:16 OP:rebc STATUS:               ID:20171202173052 L   I
 OLDACT:DUP 17-12-02 23:24 OP:mg   STATUS:               ID:20171202172744d    3
 2017-12-02-1728-00M.COL___489                                                 6
 STAT SP IPHASW D HRMM SECON CODA AMPLIT PERI AZIMU VELO AIN AR TRES W  DIS CAZ7
 RUS  HZ EP       1731 11.48                             135   -0.0810 92.8  89 
 RUS  HN ES       1731 26.23                             135   -0.3210 92.8  89 
 RUS  HZ I        1731 27.86         6.0 0.20            139           92.8  89 
 NOR  HZ EP       1731 12.25                             129   -0.3410  111 252 
 NOR  HE ES       1731 28.81                             129    0.4310  111 252 
 NOR  HZ I        1731 30.26         8.8 0.15            132            111 252 
 BAR2 EZ EP       1731 13.22                             129    0.1210  114  46 
 BAR2 EZ ES       1731 29.57                             129    0.2710  114  46 
 BAR2 EZ I        1731 31.09        11.4 0.41            132            114  46 
 CHI  HZ EP       1731 16.19                             122    0.24 9  140 171 
 CHI  HE ES       1731 34.30                             122   -0.07 9  140 171 
 CHI  HZ I        1731 39.94         4.8 0.50            125            140 171 
 GUY2CHZ EP       1731 20.02                             116    0.16 9  176 246 
 GUY2CHE ES       1731 41.03                             116   -0.30 9  176 246 
 GUY2CHZ I        1731 46.93         2.9 0.44                           176 246 
 ZAR  HZ EP       1731 22.81                             111    0.11 8  206 330 
 ZAR  HE ES       1731 46.13                             111   -0.25 8  206 330 
 ZAR  HZ I        1731 50.62         4.8 0.26            114            206 330 
                                                                                
