 2016  9 2 1244 45.7 L   6.809 -73.148149.8  RSN  9 0.3 1.6LRSN                1
 GAP=209        0.85       3.4     4.9  5.0  0.6793E+01  0.2422E+01 -0.1167E+01E
 Epicentro: LOS SANTOS - SANTANDER                                             3
 ACTION:UPD 17-08-17 21:05 OP:lp   STATUS:               ID:20160902124445 L   I
 OLDACT:UP  16-09-03 01:35 OP:edw  STATUS:               ID:20160902123737     3
 OLDACT:UP  16-09-03 01:32 OP:edw  STATUS:               ID:20160902123737     3
 OLDACT:REG 16-09-02 21:03 OP:edw  STATUS:               ID:20160902123737     3
 2016-09-02-1238-00M.COL___358                                                 6
 STAT SP IPHASW D HRMM SECON CODA AMPLIT PERI AZIMU VELO AIN AR TRES W  DIS CAZ7
 BAR2 EZ EP       1245  5.97                             171    0.1310 24.3 189 
 BAR2 EZ ES       1245 21.07                             171   -0.4810 24.3 189 
 BAR2 EZ I        1245 22.28         7.5 0.20            170           24.3 189 
 BRR  HZ EP       1245  7.66                             153    0.4010 70.5 298 
 BRR  HN ES       1245 24.77                             153    0.7110 70.5 298 
 RUS  HZ EP       1245  9.92                             144   -0.0110  102 176 
 RUS  HN ES       1245 28.65                             144   -0.1710  102 176 
 RUS  HZ I        1245 30.00         4.8 0.38            145            102 176 
 PTB  HZ EP       1245 12.50                             133   -0.50 9  148 258 
 PTB  HE ES       1245 34.24                             133   -0.05 9  148 258 
 PTB  HZ I        1245 34.60         4.1 0.17            132            148 258 
 SPBC HZ EP       1245 14.49                             130   -0.09 9  164 219 
 SPBC HN ES       1245 36.83                             130   -0.27 9  164 219 
 SPBC HZ I        1245 39.53         6.0 0.14            130            164 219 
 ZAR  HZ EP       1245 18.48                             123    0.12 9  203 292 
 ZAR  HN ES       1245 43.65                             123   -0.17 9  203 292 
 ZAR  HZ I        1245 49.26         3.2 0.28            123            203 292 
 CHI  HZ EP       1245 24.09                             118    0.36 8  250 195 
 CHI  HN ES       1245 53.80                             118    0.41 8  250 195 
 GUY2CHZ EP   4   1245 31.73                             113    2.18 0  302 235 
 GUY2CHN ES   4   1246  8.20                             113    4.46 0  302 235 
 GUY2CHZ I        1246 10.92         2.2 0.62                           302 235 
 SJC  HZ EP       1245 40.85                             106   -0.44 6  408 327 
 SJC  HN ES       1246 24.32                             106   -0.32 6  408 327 
                                                                                
