 2017  9 2 1406 56.7 L   6.785 -73.128142.1  RSN 10 0.5 1.8LRSN                1
 GAP=114        0.92       3.3     3.5  6.0  0.1549E+01  0.5779E+01  0.5112E+01E
 Epicentro: LOS SANTOS - SANTANDER                                             3
 ACTION:UPD 17-10-05 19:08 OP:rebc STATUS:               ID:20170902140656 L   I
 OLDACT:DUP 17-09-02 22:31 OP:dhb  STATUS:               ID:20170902135742d    3
 OLDACT:UP  17-09-02 22:31 OP:dhb  STATUS:               ID:20170902135741     3
 OLDACT:REG 17-09-02 20:43 OP:dhb  STATUS:               ID:20170902135741     3
 2017-09-02-1358-00M.COL___405                                                 6
 STAT SP IPHASW D HRMM SECON CODA AMPLIT PERI AZIMU VELO AIN AR TRES W  DIS CAZ7
 BAR2 EZ IP     D 14 7 15.67                             171   -0.2410 22.2 196 
 BAR2 EZ I        14 7 31.82        21.8 0.36            171           22.2 196 
 BRR  HZ IP     C 14 7 17.77                             151    0.1310 73.7 299 
 BRR  HN ES       14 7 34.48                             151    0.5310 73.7 299 
 BRR  HZ I        14 7 38.85        12.0 0.29            151           73.7 299 
 PAM  EZ EP       14 7 18.53                             150   -0.0410 77.4  38 
 PAM  EN ES       14 7 35.58                             150   -0.0210 77.4  38 
 PAM  EZ I        14 7 38.14        14.7 0.68            152           77.4  38 
 RUS  HZ EP       14 7 19.90                             144   -0.1110 98.8 177 
 RUS  HN ES       14 7 37.46                             144   -0.7010 98.8 177 
 RUS  HZ I        14 7 39.32         7.1 0.22            146           98.8 177 
 SPBC HZ IP     C 14 7 24.83                             128   -0.13 9  163 220 
 SPBC HN ES       14 7 47.03                             128    0.05 9  163 220 
 SPBC HZ I        14 7 50.61         9.9 0.31            130            163 220 
 YPLC HZ IP       14 7 26.07                             126    0.03 9  174 152 
 YPLC HN ES       14 7 49.58                             126    0.69 9  174 152 
 YPLC HZ I        14 7 50.81         9.3 0.37            128            174 152 
 ZAR  HZ EP       14 7 28.70                             121   -0.50 8  207 292 
 ZAR  HN ES       14 7 54.54                             121    0.01 8  207 292 
 ZAR  HZ I        14 8  0.30         8.6 0.55            122            207 292 
 NOR  HZ EP       14 7 32.04                             118   -0.29 8  235 235 
 NOR  HN ES       14 7 59.89                             118   -0.21 8  235 235 
 NOR  HZ I        14 8  3.16         4.2 0.21            119            235 235 
 GUY2CHZ EP       14 7 41.06                             112    0.80 7  302 235 
 GUY2CHN ES   3   14 8 16.20                             112    1.99 2  302 235 
 GUY2CHZ I        14 8 18.21         2.0 0.64                           302 235 
 PRA  HZ EP       14 7 50.34                             106    0.25 6  392 210 
 PRA  HE ES   3   14 8 34.25                             106    2.55 1  392 210 
 PRA  HZ I        14 8 37.50         2.2 0.35            107            392 210 
                                                                                
