 2013  6 2 1651 39.0 L   6.752 -73.111143.3  RSN  4 0.1 2.1LRSN                1
 GAP=218        0.32       7.3     3.6  4.6  0.5167E+01  0.3547E+01  0.2681E+02E
 Epicentro: LOS SANTOS - SANTANDER                                             3
 ACTION:UPD 14-01-08 09:51 OP:ep   STATUS:               ID:20130602165139 L   I
 2013-06-02-1648-50M.COL___224                                                 6
 STAT SP IPHASW D HRMM SECON CODA AMPLIT PERI AZIMU VELO AIN AR TRES W  DIS CAZ7
 BAR2 SZ EP       1651 58.33                             172    0.0410 19.3 204 
 BAR2 SZ I        1652 14.87        24.2 0.16            116           19.3 204 
 GIR2 SZ EP       1651 58.62                             165    0.0310 37.3 346 
 GIR2 SZ ES       1652 13.77                             165   -0.0710 37.3 346 
 BRR  HZ EP       1652  0.25                             150   -0.0110 77.2 301 
 BRR  HN ES       1652 16.89                             150    0.0610 77.2 301 
 BRR  HN I        1652 17.92        24.8 0.32            126           77.2 301 
 PTB  HZ EP       1652  6.00                             131   -0.06 9  151 261 
                                                                                
