 2013 12 2 1236 38.8 L   6.788 -73.144146.0  RSN  8 0.5 2.0LRSN                1
 GAP=152        0.99       5.2     5.1  7.0 -0.1140E+02  0.8702E+01  0.6079E+00E
 Epicentro: LOS SANTOS - SANTANDER                                             3
 ACTION:UPD 14-01-13 10:15 OP:ep   STATUS:               ID:20131202123638 L   I
 OLDACT:UP  13-12-02 16:18 OP:cam  STATUS:               ID:20131202123000     3
 OLDACT:REG 13-12-02 14:26 OP:cam  STATUS:               ID:20131202123000     3
 2013-12-02-1230-00M.COL___282                                                 6
 STAT SP IPHASW D HRMM SECON CODA AMPLIT PERI AZIMU VELO AIN AR TRES W  DIS CAZ7
 BAR2 SZ EP       1236 58.49                             171    0.0710 22.1 191 
 BAR2 SZ ES       1237 13.34                             171   -0.3910 22.1 191 
 BAR2 SZ I        1237 14.12        42.6 0.22            169           22.1 191 
 BRR  HZ EP       1237  0.33                             152    0.3310 72.0 299 
 BRR  HN ES       1237 17.13                             152    0.5810 72.0 299 
 PAM  SZ EP       1237  1.45                             150    0.3710 78.3  39 
 PAM  SN ES       1237 18.34                             150   -0.1210 78.3  39 
 PAM  SZ I        1237 20.54        25.7 0.58            153           78.3  39 
 PTB  HZ EP       1237  5.31                             132   -0.46 9  148 259 
 PTB  HN ES       1237 25.97                             132   -0.84 9  148 259 
 PTB  HZ I        1237 28.37        14.1 0.16            131            148 259 
 SPBC HZ EP   2   1237  7.37                             129    0.15 5  162 219 
 SPBC HN ES   1   1237 29.56                             129    0.16 7  162 219 
 SPBC HZ I        1237 35.92         6.7 0.38            129            162 219 
 ZAR  HZ EP   4   1237 12.83                             122    1.51 0  205 292 
 ZAR  HN ES   2   1237 37.55                             122    0.87 4  205 292 
 ZAR  HZ I        1237 40.63        10.5 0.28            122            205 292 
 NOR  HZ EP   1   1237 14.21                             118   -0.26 6  234 235 
 NOR  HE ES       1237 42.80                             118    0.51 8  234 235 
 NOR  HZ I        1237 46.07         5.7 0.26            118            234 235 
 SML  HZ EP   2   1237 14.94                             117   -0.62 4  245 335 
 SML  HN ES   1   1237 43.92                             117   -0.32 6  245 335 
 GUY2CHZ EP   4   1237 25.68                             112    3.34 0  301 235 
 SJC  HZ EP   4   1237 33.45                             106   -1.05 0  410 327 
                                                                                
