 2016 11 2 1428 26.7 L   6.905 -73.060151.4  RSN  4 0.4 1.4LRSN                1
 GAP=253        1.01      10.6     8.2  9.5  0.5723E+02 -0.5790E+01 -0.4132E+02E
 Epicentro: PIEDECUESTA - SANTANDER                                            3
 ACTION:UPD 17-10-26 21:04 OP:lp   STATUS:               ID:20161102142826 L   I
 OLDACT:REG 16-11-02 20:49 OP:cog  STATUS:               ID:20161102142746     3
 2016-11-02-1428-00M.COL___352                                                 6
 STAT SP IPHASW D HRMM SECON CODA AMPLIT PERI AZIMU VELO AIN AR TRES W  DIS CAZ7
 BAR2 EZ EP       1428 47.87                             166    0.4810 37.1 201 
 BAR2 EZ ES       1429  3.29                             166   -0.2010 37.1 201 
 BAR2 EZ I        1429  4.86         6.4 0.17            165           37.1 201 
 RUS  HZ EP       1428 52.32                             142    0.4510  112 181 
 RUS  HN ES       1429 11.10                             142   -0.3710  112 181 
 RUS  HZ I        1429 11.80         2.8 0.18            143            112 181 
 PTB  HZ EP       1428 54.77                             131   -0.47 9  160 255 
 PTB  HN ES       1429 17.83                             131    0.36 9  160 255 
 PTB  HZ I        1429 19.45         2.3 0.20            131            160 255 
 ZAR  HZ EP       1428 59.50                             123   -0.56 8  209 288 
 ZAR  HN ES       1429 26.23                             123    0.19 8  209 288 
                                                                                
