 2016 10 2 1420 49.3 L   6.795 -73.302126.0  RSN  4 0.3 1.1LRSN                1
 GAP=202        0.54       5.4     3.7  5.2  0.6822E+01  0.8065E+00  0.8913E+01E
 Epicentro: ZAPATOCA - SANTANDER                                               3
 ACTION:UPD 16-11-09 19:15 OP:rebc STATUS:               ID:20161002142049 L   I
 OLDACT:UP  16-10-02 23:44 OP:dani STATUS:               ID:20161002141747     3
 OLDACT:UP  16-10-02 23:43 OP:dani STATUS:               ID:20161002141747     3
 OLDACT:REG 16-10-02 20:54 OP:dani STATUS:               ID:20161002141747     3
 2016-10-02-1418-00M.COL___381                                                 6
 STAT SP IPHASW D HRMM SECON CODA AMPLIT PERI AZIMU VELO AIN AR TRES W  DIS CAZ7
 BAR2 EZ EP       1421  6.74                             168    0.1310 26.0 149 
 BAR2 EZ ES       1421 19.89                             168   -0.2410 26.0 149 
 BAR2 EZ I        1421 22.41         2.7 0.19            151           26.0 149 
 BRR  HZ EP       1421  7.37                             154   -0.1310 56.9 307 
 BRR  HE ES       1421 21.86                             154    0.1510 56.9 307 
 BRR  HZ I        1421 24.66         6.0 0.42            158           56.9 307 
 RUS  HZ EP       1421 11.48                             138    0.1610  103 166 
 RUS  HZ I        1421 31.34         0.9 0.50            124            103 166 
 PTB  HZ EP   3   1421 11.78                             131   -1.32 2  131 258 
 PTB  HE ES       1421 31.67                             131   -0.0010  131 258 
 PTB  HZ I        1421 34.31         3.1 0.28            124            131 258 
                                                                                
