 2011  8 2 1759 11.6 L   6.780 -73.108143.8  RSN  4 0.2 1.7LRSN                1
 GAP=142        0.51       3.3     4.9  4.9 -0.3383E+00 -0.1623E+01  0.5669E+00E
 Epicentro: LOS SANTOS - SANTANDER                                             3
 ACTION:UPD 12-07-25 14:05 OP:epov STATUS:               ID:20110802175911 L   I
 2011-08-02-1757-54S.COL___128                                                 6
 STAT SP IPHASW D HRMM SECON CODA AMPLIT PERI AZIMU VELO AIN AR TRES W  DIS CAZ7
 BAR2 SZ EP       1759 30.85                             171   -0.1710 22.4 202 
 BAR2 SZ ES   1   1759 45.78                             171   -0.35 7 22.4 202 
 BAR2 SZ I        1759 48.31        11.7 0.30                          22.4 202 
 BRR  HZ EP       1759 32.73                             151   -0.1310 75.9 298 
 BRR  HE ES   1   1759 49.67                             151    0.27 7 75.9 298 
 BRR  HZ I        1759 53.00        12.5 0.42                          75.9 298 
 PAM  SZ EP       1759 33.76                             151    0.1610 76.5  36 
 PAM  SN ES   1   1759 50.71                             151   -0.01 7 76.5  36 
 RUS  HZ EP       1759 35.04                             144    0.0110 98.2 178 
 RUS  HE ES   1   1759 53.57                             144    0.30 7 98.2 178 
 RUS  HZ I        1759 54.31         5.7 0.24                          98.2 178 
                                                                                
