 2017  5 2 1401 31.0 L   6.802 -73.139145.9  RSN  8 0.4 1.8LRSN                1
 GAP=112        1.10       4.4     4.2  7.3 -0.7838E+00  0.3997E+01  0.6344E+01E
 Epicentro: LOS SANTOS - SANTANDER                                             3
 ACTION:UPD 17-06-16 13:32 OP:jn   STATUS:               ID:20170502140131 L   I
 OLDACT:REG 17-05-02 20:39 OP:ar   STATUS:               ID:20170502135736     3
 2017-05-02-1358-00M.COL___377                                                 6
 STAT SP IPHASW D HRMM SECON CODA AMPLIT PERI AZIMU VELO AIN AR TRES W  DIS CAZ7
 BRR  HZ EP       14 1 52.25                             152    0.0310 71.7 298 
 BRR  HE ES       14 2  9.33                             152    0.5810 71.7 298 
 BRR  HZ I        14 2  9.92        14.2 0.26            152           71.7 298 
 PAM  EZ EP       14 1 53.31                             151    0.0910 76.8  39 
 PAM  EE ES       14 2 10.24                             151   -0.3010 76.8  39 
 PAM  EZ I        14 2 12.23        10.0 0.54            155           76.8  39 
 RUS  HZ EP       14 1 54.59                             144   -0.2110  101 176 
 RUS  HE ES       14 2 13.49                             144    0.1410  101 176 
 RUS  HZ I        14 2 14.79         7.9 0.18            145            101 176 
 PTB  HZ EP       14 1 57.28                             132   -0.79 9  148 259 
 PTB  HN ES       14 2 18.33                             132   -0.84 9  148 259 
 PTB  HZ I        14 2 20.62         6.8 0.22            132            148 259 
 SPBC HZ EP       14 1 59.91                             129    0.32 9  164 219 
 SPBC HE ES       14 2 21.75                             129   -0.13 9  164 219 
 SPBC HZ I        14 2 28.61        11.6 0.16            130            164 219 
 YPLC HZ EP       14 2  1.01                             127    0.19 9  177 152 
 ZAR  HZ EP       14 2  4.12                             122    0.58 9  205 292 
 ZAR  HE ES       14 2 28.98                             122    0.08 9  205 292 
 ZAR  HZ I        14 2 35.13         5.7 0.12            123            205 292 
 NOR  HZ EP       14 2  6.55                             118   -0.29 8  235 235 
 NOR  HE ES       14 2 35.52                             118    0.75 8  235 235 
 NOR  HZ I        14 2 38.33         3.2 0.26            119            235 235 
                                                                                
