 2010 10 2 1918 17.0 L   7.022 -73.178127.7  RSN  6 0.3 2.0LRSN                1
 GAP=157        0.68       4.9     6.4  6.6 -0.2014E+02  0.7074E+00 -0.2225E+01E
 Epicentro: GIRON - SANTANDER                                                  3
 ACTION:UP  11-02-18 11:07 OP:tino STATUS:               ID:20101002191817 L   I
 2010-10-02-1914-38S.COL___124                                                 6
 STAT SP IPHASW D HRMM SECON CODA AMPLIT PERI AZIMU VELO SNR AR TRES W  DIS CAZ7
 BTL  SZ IP       1918 34.62                             173     0.310   15 221 
 BAR2 SZ IP       1918 35.20                             158    -0.110   48 181 
 BAR2 SZ ES   1   1918 49.61                             158     0.0 7   48 181 
 BAR2 SZ I        1918 50.84        45.1 0.35                            48 181 
 BRR  HZ EP       1918 35.44                             153    -0.110   60 279 
 BRR  HZ I        1918 35.76        15.7 0.25                            60 279 
 BRR  HN ES   1   1918 50.38                             153     0.3 7   60 279 
 GUE  SZ EP       1918 38.22                             142    -0.110   94  17 
 GRA  SZ EP       1918 39.11                             138     0.210  104  23 
 GRA  SZ ES   1   1918 55.44                             138    -0.5 7  104  23 
 GRA  SZ I        1918 58.94        11.9 0.38                           104  23 
 NOR  SZ EP   2   1918 53.54                             113     0.4 4  247 229 
 NOR  SN ES   1   1919 20.87                             113    -0.5 6  247 229 
                                                                                
