 2014  1 2 1908 22.6 L   6.353 -73.579114.0  RSN 11 0.4 1.9LRSN                1
 GAP= 74        0.78       2.5     3.4  5.8 -0.2677E+01 -0.3197E+01  0.3722E+00E
 Epicentro: SANTA HELENA DEL OPON - SANTANDER                                  3
 ACTION:UPD 14-03-13 09:50 OP:ep   STATUS:               ID:20140102190822 L   I
 OLDACT:UP  14-01-02 20:39 OP:mh   STATUS:               ID:20140102190750     3
 OLDACT:UP  14-01-02 20:38 OP:mh   STATUS:               ID:20140102190750     3
 OLDACT:REG 14-01-02 20:00 OP:mh   STATUS:               ID:20140102190750     3
 2014-01-02-1907-50M.COL___249                                                 6
 STAT SP IPHASW D HRMM SECON CODA AMPLIT PERI AZIMU VELO AIN AR TRES W  DIS CAZ7
 BAR2 SZ IP     C 19 8 39.75                             154    0.2310 51.2  59 
 BAR2 SZ I        19 8 54.68        28.5 0.16            150           51.2  59 
 RUS  HZ EP       19 8 41.22                             145   -0.1410 74.9 133 
 RUS  HZ I        19 8 57.39        13.2 0.19            141           74.9 133 
 BRR  HZ EP     D 19 8 41.48                             141    0.0910 84.6 350 
 BRR  HN ES       19 8 56.57                             141    0.5210 84.6 350 
 SPBC HZ EP   1   19 8 42.12                             137   -0.21 7 94.8 215 
 SPBC HN ES       19 8 57.86                             137    0.1310 94.8 215 
 PTB  HZ IP     D 19 8 42.28                             136   -0.3110 99.2 282 
 PTB  HN ES   1   19 8 57.76                             136   -0.44 7 99.2 282 
 PTB  HZ I        19 9  0.63        16.1 0.11            141           99.2 282 
 PAM  SZ EP       19 8 47.56                             124   -0.07 9  146  42 
 PAM  SN ES   1   19 9  6.41                             124   -0.75 7  146  42 
 PAM  SZ I        19 9 10.74         6.2 0.25            124            146  42 
 NOR  HZ EP       19 8 49.25                             120   -0.01 9  167 239 
 NOR  HN ES   1   19 9  9.57                             120   -0.50 7  167 239 
 NOR  HZ I        19 9 12.56         7.2 0.27            123            167 239 
 ZAR  HZ EP   1   19 8 51.91                             117    0.35 7  189 312 
 ZAR  HN ES   2   19 9 15.09                             117    0.94 4  189 312 
 ZAR  HZ I        19 9 20.17        15.2 0.16            119            189 312 
 CHI  HZ EP       19 8 52.80                             116    0.50 9  191 185 
 CHI  HN ES   2   19 9 15.38                             116   -0.10 4  191 185 
 CHI  HZ I        19 9 20.41         3.7 0.29            117            191 185 
 OCA  HZ EP   1   19 8 54.42                             114    0.34 6  210   8 
 OCA  HN ES   2   19 9 18.03                             114   -0.62 4  210   8 
 GUY2CHZ EP   4   19 8 58.60                             111    1.47 0  234 238 
 GUY2CHN ES   4   19 9 27.95                             111    3.87 0  234 238 
 SML  HZ EP       19 9  1.17                             107   -0.22 7  276 349 
 SML  HN ES   2   19 9 31.14                             107   -0.52 4  276 349 
 SML  HZ I        19 9 40.16        13.2 0.12            108            276 349 
                                                                                
