 2011  7 2 1308 30.7 L   6.156 -73.630111.3  RSN  5 0.3 2.0LRSN                1
 GAP=171        0.61       2.7     9.0  9.2 -0.1583E+00  0.5572E+02  0.6686E+01E
 Epicentro: LA PAZ - SANTANDER                                                 3
 ACTION:UPD 12-07-25 13:57 OP:epov STATUS:               ID:20110702130830 L   I
 2011-07-02-1307-08S.COL___140                                                 6
 STAT SP IPHASW D HRMM SECON CODA AMPLIT PERI AZIMU VELO AIN AR TRES W  DIS CAZ7
 RUS  HZ EP       13 8 48.51                             147   -0.1410 67.2 116 
 RUS  HZ I        13 8 48.79         9.3 0.22                          67.2 116 
 RUS  HN ES   2   13 9  1.95                             147   -0.73 5 67.2 116 
 BAR2 SZ EP       13 8 48.49                             146    0.0710 69.2  46 
 BAR2 SZ ES   1   13 9  2.28                             146    0.01 7 69.2  46 
 BAR2 SZ I        13 9  3.86        75.0 0.34                          69.2  46 
 BTL  SZ EP       13 8 50.47                             137    0.2110 93.4  25 
 BTL  SZ ES   1   13 9  5.97                             137    0.42 7 93.4  25 
 BRR  HZ EP       13 8 50.64                             133   -0.3410  106 355 
 BRR  HZ I        13 8 50.98        27.8 0.10                           106 355 
 BRR  HN ES   2   13 9  6.68                             133   -0.15 5  106 355 
 CHI  HZ EP       13 8 57.89                             119    0.05 9  169 184 
 CHI  HN ES   1   13 9 19.31                             119    0.28 7  169 184 
                                                                                
