 2010  4 2 1846 57.9 L   6.764 -73.084149.8  RSN  4 0.2 2.4LRSN                1
 GAP=206        0.48       3.4    11.2  6.5 -0.1146E+01 -0.1705E+02  0.3365E+01E
 Epicentro: LOS SANTOS - SANTANDER                                             3
 ACTION:UPD 10-08-24 09:57 OP:vdl  STATUS:               ID:20100402184657 L   I
 2010-04-02-1844-30S.COL___098                                                 6
 STAT SP IPHASW D HRMM SECON CODA AMPLIT PERI AZIMU VELO AIN AR TRES W  DIS CAZ7
 BAR2 SZ IP       1847 17.85                             171    -0.110   22 210 
 BAR2 SZ ES   2   1847 33.73                             171     0.1 5   22 210 
 BRR  HZ EP   1   1847 19.91                             151     0.0 7   79 299 
 BRR  HZ I        1847 20.19        52.2 0.15                            79 299 
 BRR  HN ES   2   1847 37.02                             151    -0.1 5   79 299 
 OCA  SZ EP   1   1847 26.74                             130    -0.2 7  165 351 
 OCA  SZ ES   2   1847 50.02                             130     0.4 5  165 351 
 OCA  SZ I        1847 53.00        49.5 0.28                           165 351 
 CHI  HZ EP   1   1847 35.98                             118     0.4 6  247 197 
 CHI  HE ES   2   1848  4.61                             118    -0.4 4  247 197 
 CHI  HZ I        1848 14.09         6.3 0.58                           247 197 
                                                                                
