 2011  7 2 1343 27.3 L   6.776 -73.060133.5  RSN  7 0.3 1.9LRSN                1
 GAP=166        0.70       2.8     6.5  5.9 -0.2805E+01 -0.7106E+01 -0.2535E+01E
 Epicentro: LOS SANTOS - SANTANDER                                             3
 ACTION:UPD 12-07-25 13:57 OP:epov STATUS:               ID:20110702134327 L   I
 2011-07-02-1341-07S.COL___140                                                 6
 STAT SP IPHASW D HRMM SECON CODA AMPLIT PERI AZIMU VELO AIN AR TRES W  DIS CAZ7
 BAR2 SZ EP       1343 45.40                             169   -0.0810 24.4 214 
 BAR2 SZ ES   1   1343 59.72                             169    0.06 7 24.4 214 
 BAR2 SZ I        1344  1.38        14.8 0.22                          24.4 214 
 BTL  SZ EP       1343 45.55                             168   -0.0210 27.8 305 
 BRR  HZ EP       1343 47.60                             147   -0.1510 80.8 297 
 BRR  HZ I        1343 49.48        21.4 0.12                          80.8 297 
 BRR  HN ES   1   1344  4.04                             147    0.35 7 80.8 297 
 RUS  HZ EP       1343 49.60                             142   -0.0510 97.7 182 
 RUS  HN ES   1   1344  6.95                             142   -0.12 7 97.7 182 
 RUS  HZ I        1344  8.87         7.8 0.38                          97.7 182 
 BRI  SZ EP       1343 50.11                             139    0.1010  108  16 
 BRI  SZ ES   1   1344  7.75                             139    0.03 7  108  16 
 GRA  SZ EP       1343 51.41                             134   -0.0710  126  13 
 GRA  SZ ES   1   1344 10.59                             134    0.25 7  126  13 
 GRA  SZ I        1344 11.62        13.9 0.26                           126  13 
 OCA  SZ EP       1343 55.58                             126    0.50 9  164 350 
 OCA  SZ ES   1   1344 15.76                             126   -0.99 7  164 350 
 OCA  SZ I        1344 17.05        11.7 0.33                           164 350 
                                                                                
