 2011  4 2 1519  9.5 L   7.406 -73.196131.4  RSN  7 0.2 2.0LRSN                1
 GAP=112        0.41       2.9     4.0  4.4 -0.4560E+01  0.6083E-01  0.5595E+00E
 Epicentro: EL PLAYON - SANTANDER                                              3
 ACTION:UP  11-06-22 15:28 OP:REBC STATUS:               ID:20110402151909 L   I
 2011-04-02-1517-48S.COL___138                                                 6
 STAT SP IPHASW D HRMM SECON CODA AMPLIT PERI AZIMU VELO SNR AR TRES W  DIS CAZ7
 GIR2 SZ EP   1   1519 27.63                             164     0.0 7   36 180 
 BTL  SZ EP   1   1519 28.46                             156    -0.1 7   54 188 
 PAM  SZ EP   2   1519 29.07                             156     0.1 5   55  98 
 PAM  SE ES   2   1519 44.49                             156     0.3 5   55  98 
 BRR  HZ EP   1   1519 28.81                             152     0.0 7   66 240 
 BRR  HN ES   1   1519 44.11                             152     0.2 7   66 240 
 BRR  HZ I        1519 45.22        15.2 0.10                            66 240 
 GRA  SZ EP       1519 29.37                             151     0.110   68  39 
 GRA  SZ ES   1   1519 44.41                             151    -0.2 7   68  39 
 GRA  SZ I        1519 46.40        59.4 0.31                            68  39 
 BAR2 SZ EP   1   1519 30.64                             144    -0.1 7   90 179 
 BAR2 SZ ES   2   1519 47.10                             144    -0.2 5   90 179 
 BAR2 SZ I        1519 50.70        15.6 0.51                            90 179 
 OCA  SZ EP   1   1519 30.98                             142     0.1 7   93 352 
 OCA  SZ ES   2   1519 47.18                             142    -0.3 5   93 352 
 OCA  SZ I        1519 49.34        15.1 0.33                            93 352 
                                                                                
