 2014  9 2 1109 32.8 L   6.796 -73.125148.5  RSN 19 0.5 2.4LRSN                1
 GAP=139        1.02       2.7     4.2  5.9 -0.2044E+01  0.3729E+01  0.4212E+01E
 Epicentro: LOS SANTOS - SANTANDER                                             3
 ACTION:UPD 14-10-03 23:01 OP:nd   STATUS:               ID:20140902110932 L   I
 OLDACT:REG 14-09-02 20:13 OP:fm   STATUS:               ID:20140902110817     3
 2014-09-02-1108-17M.COL___263                                                 6
 STAT SP IPHASW D HRMM SECON CODA AMPLIT PERI AZIMU VELO AIN AR TRES W  DIS CAZ7
 BRR  HZ EP       11 9 54.78                             152    0.3610 73.4 298 
 BRR  HE ES       1110 11.79                             152    0.5510 73.4 298 
 BRR  HZ I        1110 15.25        37.8 0.46            150           73.4 298 
 PAM  SZ EP       11 9 55.63                             152    0.3410 76.3  38 
 PAM  SN ES       1110 12.74                             152   -0.0610 76.3  38 
 PAM  SZ I        1110 14.65        44.3 0.62            159           76.3  38 
 RUS  HZ EP       11 9 56.74                             145   -0.0910  100 177 
 RUS  HN ES   1   1110 14.99                             145   -0.55 7  100 177 
 RUS  HZ I        1110 18.29        14.1 0.46            146            100 177 
 PTB  HZ EP       11 9 59.46                             132   -0.77 9  150 259 
 PTB  HN ES       1110 20.85                             132   -0.74 9  150 259 
 PTB  HZ I        1110 28.05        56.6 0.40            132            150 259 
 OCA  HZ EP   1   1110  1.24                             130   -0.20 7  161 352 
 OCA  HN ES       1110 23.39                             130   -0.35 9  161 352 
 OCA  HZ I        1110 26.13        22.4 0.30            134            161 352 
 SPBC HZ EP       1110  1.74                             129    0.08 9  164 220 
 SPBC HE ES   1   1110 24.47                             129    0.33 7  164 220 
 SPBC HZ I        1110 31.43        39.6 0.16            130            164 220 
 ZAR  HZ EP   1   1110  5.00                             123   -0.70 6  206 292 
 ZAR  HN ES       1110 31.66                             123    0.33 8  206 292 
 ZAR  HZ I        1110 36.95        46.6 0.28            124            206 292 
 NOR  HZ EP       1110  9.16                             119    0.25 8  236 235 
 NOR  HN ES       1110 36.80                             119   -0.23 8  236 235 
 NOR  HZ I        1110 40.74        19.1 0.22            120            236 235 
 SML  HZ EP       1110  9.13                             118   -0.64 8  245 335 
 SML  HE ES       1110 39.19                             118    0.62 8  245 335 
 SML  HZ I        1110 42.80        32.1 0.22            120            245 335 
 CHI  HZ EP       1110 10.91                             118    0.19 8  249 196 
 CHI  HN ES       1110 39.99                             118   -0.27 8  249 196 
 CHI  HZ I        1110 49.97        10.3 0.32            120            249 196 
 ROSC BZ EP   1   1110 12.05                             117    0.85 6  254 212 
 ROSC BN ES   1   1110 41.91                             117    0.79 6  254 212 
 ROSC BZ I        1110 46.17        22.5 0.50            119            254 212 
 URE  HZ EP   4   1110 12.44                             114   -1.86 0  286 292 
 URE  HE ES   4   1110 43.91                             114   -2.73 0  286 292 
 URE  HZ I        1110 56.82        19.4 0.16            115            286 292 
 GUY2CHZ EP       1110 17.72                             113    0.96 7  303 235 
 GUY2CHN ES   4   1110 53.90                             113    2.88 0  303 235 
 GUY2CHZ I        1111  1.63        13.5 0.56                           303 235 
 CBOC HZ EP   1   1110 19.48                             110   -0.63 5  336 252 
 CBOC HN ES   4   1110 52.85                             110   -4.12 0  336 252 
 CBOC HZ I        1111  5.02         5.2 0.40            112            336 252 
 TOL  SZ EP   4   1110 22.63                             110    1.27 0  345 225 
 TOL  SN ES   1   1110 59.67                             110    0.47 5  345 225 
 ANIL HZ EP   1   1110 22.54                             109   -0.36 5  359 225 
 ANIL HN ES   4   1111  2.92                             109    0.97 0  359 225 
 ANIL HZ I        1111  8.79         3.1 0.44            110            359 225 
 PRA  HZ EP   1   1110 26.63                             107    0.08 4  393 210 
 PRA  HN ES   1   1111  7.87                             107   -0.57 4  393 210 
 PRA  HZ I        1111 12.40        12.8 0.54            109            393 210 
 ORTC HZ EP   1   1110 26.73                             107   -0.25 4  396 216 
 ORTC HN ES   4   1111  7.99                             107   -1.21 0  396 216 
 ORTC HZ I        1111 15.82         8.0 0.48            108            396 216 
 SJC  HZ EP   4   1110 26.46                             106   -2.23 0  411 327 
 SJC  HN ES   4   1111  7.46                             106   -4.78 0  411 327 
 SJC  HZ I        1111 12.52         6.5 0.48            108            411 327 
                                                                                
