 2016 10 2 1244 38.7 L   6.813 -73.159149.1  RSN 23 0.4 2.9LRSN                1
 GAP= 70        0.95       2.3     2.4  4.0 -0.5069E+00  0.2415E+01  0.9947E+00E
 Epicentro: LOS SANTOS - SANTANDER                                             3
 ACTION:UPD 16-11-09 19:15 OP:rebc STATUS:               ID:20161002124438 L   I
 OLDACT:UP  16-10-02 22:31 OP:dani STATUS:               ID:20161002123743     3
 OLDACT:REG 16-10-02 20:40 OP:dani STATUS:               ID:20161002123743     3
 2016-10-02-1238-00M.COL___381                                                 6
 STAT SP IPHASW D HRMM SECON CODA AMPLIT PERI AZIMU VELO AIN AR TRES W  DIS CAZ7
 BAR2 EZ EP     D 1244 58.78                             170    0.0110 24.5 186 
 BAR2 HN ES       1245 14.11                             170   -0.3010 24.5 186 
 BAR2 EZ I        1245 15.39       284.7 0.22            166           24.5 186 
 BRR  HZ IP     C 1245  0.53                             154    0.4110 69.2 298 
 BRR  HN ES       1245 17.78                             154    0.9710 69.2 298 
 BRR  HZ I        1245 21.65       129.5 0.26            148           69.2 298 
 PAM  EZ EP     C 1245  1.52                             151    0.2410 77.3  41 
 PAM  EN ES       1245 18.98                             151    0.1010 77.3  41 
 PAM  EZ I        1245 21.29        62.4 0.44            151           77.3  41 
 RUS  HZ EP     D 1245  2.69                             144   -0.2210  102 175 
 RUS  HE ES       1245 21.22                             144   -0.5510  102 175 
 RUS  HZ I        1245 22.82       100.8 0.32            139            102 175 
 PTB  HZ EP     D 1245  5.37                             133   -0.49 9  147 258 
 PTB  HN ES       1245 26.55                             133   -0.47 9  147 258 
 PTB  HZ I        1245 33.17        66.2 0.42            127            147 258 
 TAM  HZ EP       1245  7.08                             131    0.25 9  157 105 
 TAM  HN ES       1245 28.90                             131    0.15 9  157 105 
 TAM  HZ I        1245 30.23        45.5 0.52            128            157 105 
 OCA  HZ EP       1245  6.64                             131   -0.51 9  159 354 
 OCA  HN ES       1245 28.92                             131   -0.40 9  159 354 
 OCA  HZ I        1245 32.20       145.6 0.22            127            159 354 
 SPBC HZ EP       1245  7.73                             130    0.24 9  163 218 
 SPBC HN ES       1245 29.64                             130   -0.29 9  163 218 
 SPBC HZ I        1245 34.50       109.7 0.20            124            163 218 
 ZAR  HZ EP       1245 11.20                             123    0.01 9  202 292 
 ZAR  HE ES       1245 36.84                             123    0.32 9  202 292 
 ZAR  HZ I        1245 41.99        99.0 0.26            118            202 292 
 NOR  HZ EP       1245 14.85                             119    0.25 8  234 234 
 NOR  HE ES       1245 42.57                             119   -0.02 8  234 234 
 NOR  HZ I        1245 48.32        40.4 0.18            114            234 234 
 CHI  HZ EP       1245 16.91                             118    0.20 8  250 195 
 CHI  HN ES       1245 46.18                             118   -0.16 8  250 195 
 CHI  HZ I        1245 49.71        42.6 0.70            113            250 195 
 ROSC BZ EP   9   1245 18.52                             117    1.45 0  253 211 
 ROSC BE ES       1245 48.86                             117    0.43 8  253 211 
 ROSC BZ I        1245 53.68       129.6 0.46            113            253 211 
 HEL  HZ EP       1245 19.26                             115    0.28 8  271 255 
 HEL  HN ES       1245 50.88                             115    0.49 8  271 255 
 HEL  HZ I        1245 56.85        24.6 0.32            111            271 255 
 GUY2CHZ EP       1245 23.08                             113    0.64 7  301 234 
 GUY2CHN ES       1245 56.23                             113   -0.31 7  301 234 
 GUY2CHZ I        1246  5.00        49.5 0.32                           301 234 
 VIL  EZ EP       1245 22.46                             113    0.05 7  304 191 
 VIL  EN ES       1245 56.70                             113    0.21 7  304 191 
 VIL  EZ I        1246  6.48        72.8 0.34            109            304 191 
 PTGC HZ EP   4 D 1245 21.82                             112   -1.11 0  311 158 
 PTGC HN ES   4   1245 55.19                             112   -2.23 0  311 158 
 ELA  HZ EP   9   1245 27.53                             111    1.84 0  329 229 
 ELA  HN ES       1246  4.23                             111    0.07 7  329 229 
 ELA  HZ I        1246 15.36        34.1 0.40            107            329 229 
 DBB  HZ EP       1245 27.17                             110    1.02 7  338 274 
 DBB  HN ES       1246  2.52                             110   -0.63 7  338 274 
 DBB  HN ISg      1246  2.75                             110   -0.40 7  338 274 
 ANIL HZ EP   4   1245 30.67                             109    2.02 0  357 224 
 ANIL HE ES   4   1246 10.72                             109    3.13 0  357 224 
 ANIL HZ I        1246 12.87       111.2 0.30            105            357 224 
 PRA  HZ EP       1245 32.47                             107    0.06 6  392 209 
 PRA  HE ES       1246 13.98                             107   -0.31 6  392 209 
 PRA  HZ I        1246 20.98        61.8 0.38            104            392 209 
 PAL  HZ EP       1245 34.28                             106    0.35 6  405 239 
 PAL  HZ I        1246 23.43        10.6 0.38            103            405 239 
 SJC  HZ EP       1245 32.94                             106   -1.22 6  407 327 
 SJC  HE ES   4   1246 14.24                             106   -3.16 0  407 327 
 SJC  HZ I        1246 29.09        13.8 0.35            103            407 327 
 YOT  HZ EP       1245 41.40                             104   -0.44 5  472 229 
 YOT  HZ I        1246 45.07         1.8 0.26                           472 229 
 SMAR HZ EP       1245 44.10                             103   -0.38 4  495 346 
 SMAR HE ES   4   1246 32.24                             103   -3.53 0  495 346 
                                                                                
