 2010  1 2 1144 25.1 L   6.801 -73.002146.5  RSN  5 0.4 1.6LRSN                1
 GAP=220        0.66       6.8    20.1  8.2 -0.4973E+02  0.2311E+02  0.1979E+02E
 Epicentro: CEPITA - SANTANDER                                                 3
 ACTION:UP  10-08-24 09:42 OP:vdl  STATUS:               ID:20100102114424 L   I
 2010-01-02-1142-01S.COL___096                                                 6
 STAT SP IPHASW D HRMM SECON CODA AMPLIT PERI AZIMU VELO AIN AR TRES W  DIS CAZ7
 BAR2 SZ EP   1   1144 45.18                             168     0.2 7   31 221 
 BAR2 SZ ES   2   1145  0.21                             168    -0.3 5   31 221 
 GIR2 SZ EP   1   1144 45.31                             166     0.2 7   37 325 
 GIR2 SZ ES   2   1145  0.50                             166    -0.1 5   37 325 
 RUS  BZ EP   1   1144 49.05                             144     0.1 7  101 185 
 RUS  BN ES   2   1145  7.16                             144    -0.4 5  101 185 
 RUS  BZ I        1145  9.76         5.8 0.42                           101 185 
 CHI  HZ EP   1   1145  3.15                             117    -0.2 6  253 199 
 CHI  HN ES   2   1145 34.27                             117     1.1 4  253 199 
 CHI  HZ I        1145 35.96         1.7 0.54                           253 199 
 PRA  HZ EP   1   1145 18.81                             107    -0.8 4  400 212 
 PRA  HN ES   2   1146  2.19                             107     0.1 3  400 212 
 PRA  HZ I        1146  5.46         2.0 0.72                           400 212 
                                                                                
