 2015  2 2 1234  7.4 L   6.807 -73.150147.6  RSN 18 0.4 2.5LRSN                1
 GAP=136        1.03       2.7     3.8  5.1 -0.1386E+01  0.5524E+01  0.1201E+01E
 Epicentro: LOS SANTOS - SANTANDER                                             3
 ACTION:UPD 15-04-30 21:20 OP:nd   STATUS:               ID:20150202123407 L   I
 OLDACT:UP  15-02-02 23:30 OP:cam  STATUS:               ID:20150202122816     3
 OLDACT:UP  15-02-02 23:29 OP:cam  STATUS:               ID:20150202122816     3
 OLDACT:REG 15-02-02 22:49 OP:y    STATUS:               ID:20150202122816     3
 2015-02-02-1228-16M.COL___252                                                 6
 STAT SP IPHASW D HRMM SECON CODA AMPLIT PERI AZIMU VELO AIN AR TRES W  DIS CAZ7
 BAR2 EZ IP     C 1234 27.23                             170   -0.0210 24.0 189 
 BAR2 EZ ES       1234 42.54                             170   -0.2010 24.0 189 
 BAR2 EZ I        1234 43.82        51.5 0.38            168           24.0 189 
 BRR  HZ EP       1234 29.07                             153    0.3810 70.5 298 
 BRR  HN ES       1234 46.45                             153    1.1410 70.5 298 
 BRR  HZ I        1234 47.58        38.9 0.44            148           70.5 298 
 PAM  SZ EP       1234 30.08                             151    0.3010 77.1  40 
 PAM  SN ES       1234 47.31                             151    0.0610 77.1  40 
 PAM  SZ I        1234 49.61        35.3 0.38            154           77.1  40 
 RUS  HZ EP       1234 31.07                             144   -0.3010  101 176 
 RUS  HE ES       1234 49.56                             144   -0.5210  101 176 
 RUS  HZ I        1234 50.90        29.7 0.48            145            101 176 
 PTB  HZ EP       1234 34.04                             132   -0.44 9  147 259 
 PTB  HN ES       1234 55.31                             132   -0.30 9  147 259 
 PTB  HZ I        1234 58.77        49.6 0.12            130            147 259 
 OCA  HZ EP   1   1234 35.86                             130    0.09 7  159 353 
 OCA  HN ES       1234 57.61                             130   -0.30 9  159 353 
 OCA  HZ I        1235  3.34        40.1 0.26            130            159 353 
 SPBC HZ EP       1234 36.14                             129    0.09 9  163 219 
 SPBC HN ES       1234 58.53                             129    0.12 9  163 219 
 SPBC HZ I        1235  5.17        68.3 0.30            128            163 219 
 ZAR  HE ES       1235  4.48                             123   -0.75 9  203 292 
 ZAR  HZ I        1235 10.75        56.9 0.38            121            203 292 
 NOR  HZ EP     D 1234 42.98                             119   -0.25 8  235 234 
 NOR  HN ES       1235 11.65                             119    0.46 8  235 234 
 NOR  HZ I        1235 18.33        32.6 0.20            118            235 234 
 SML  HZ EP       1234 43.79                             118   -0.23 8  243 335 
 SML  HN ES       1235 12.29                             118   -0.31 8  243 335 
 SML  HZ I        1235 18.95        44.0 0.10            117            243 335 
 CHI  HZ EP       1234 45.27                             117    0.02 8  249 195 
 CHI  HN ES       1235 14.74                             117   -0.04 8  249 195 
 CHI  HZ I        1235 20.08        21.2 0.34            118            249 195 
 HEL  HZ EP       1234 48.44                             115    0.77 8  272 256 
 HEL  HN ES       1235 18.68                             115   -0.40 8  272 256 
 HEL  HZ I        1235 27.60        19.7 0.32            114            272 256 
 GUY2CHZ EP       1234 51.56                             113    0.47 7  301 235 
 GUY2CHN ES   4   1235 27.29                             113    2.12 0  301 235 
 GUY2CHZ I        1235 36.96        18.2 0.58                           301 235 
 PTGC HZ EP   4   1234 49.84                             112   -1.58 0  310 159 
 PTGC HN ES   4   1235 23.13                             112   -2.63 0  310 159 
 RREF HZ EP   1   1234 54.27                             111    0.65 5  322 229 
 TOL  SZ EP   4   1234 56.88                             110    1.14 0  344 225 
 TOL  SN ES   4   1235 31.08                             110   -2.38 0  344 225 
 TOL  SZ I        1235 40.36        14.5 0.52            109            344 225 
 MON  HZ EP   4   1234 54.63                             109   -1.74 0  353 308 
 MON  HN ES   4   1235 32.47                             109   -2.10 0  353 308 
 MON  HZ I        1235 48.91        11.1 0.54            108            353 308 
 ANIL HZ EP   4   1234 58.52                             109    1.23 0  358 224 
 ANIL HN ES   4   1235 37.79                             109    1.58 0  358 224 
 ANIL HZ I        1235 43.45         5.4 0.50            109            358 224 
 PAL  HZ EP       1235  2.60                             106   -0.01 6  406 239 
                                                                                
