 2017 10 2 1044 49.9 L   6.844 -73.196131.1  RSN 10 0.4 1.4LRSN                1
 GAP=128        0.91       3.3     4.0  7.0  0.3315E+00  0.1577E+02  0.4859E+01E
 Epicentro: ZAPATOCA - SANTANDER                                               3
 ACTION:UPD 17-11-07 19:27 OP:rebc STATUS:               ID:20171002104449 L   I
 OLDACT:UP  17-10-02 21:49 OP:dhb  STATUS:               ID:20171002103736     3
 OLDACT:REG 17-10-02 20:10 OP:dhb  STATUS:               ID:20171002103736     3
 2017-10-02-1038-00M.COL___386                                                 6
 STAT SP IPHASW D HRMM SECON CODA AMPLIT PERI AZIMU VELO AIN AR TRES W  DIS CAZ7
 BAR2 EZ EP       1045  7.60                             167   -0.2710 27.9 177 
 BAR2 EZ ES       1045 21.97                             167    0.0810 27.9 177 
 BAR2 EZ I        1045 27.05         4.2 0.29            166           27.9 177 
 PAM  EZ IP     C 1045 10.67                             148    0.1010 77.5  45 
 PAM  EN ES       1045 26.98                             148    0.2810 77.5  45 
 PAM  EZ I        1045 29.11         5.0 0.17            155           77.5  45 
 RUS  HZ IP     D 1045 12.25                             139   -0.4010  106 173 
 RUS  HN ES       1045 30.07                             139   -0.3410  106 173 
 RUS  HZ I        1045 34.60         1.6 0.22            141            106 173 
 ZAR  HN ES       1045 45.17                             120    0.48 9  197 291 
 ZAR  HZ I        1045 51.49         4.2 0.15            123            197 291 
 NOR  HZ EP       1045 25.24                             115    0.60 8  233 233 
 NOR  HN ES       1045 51.63                             115   -0.11 8  233 233 
 NOR  HZ I        1045 54.65         2.4 0.20            118            233 233 
 CHI  HN ES       1045 56.63                             114    0.34 8  252 194 
 CHI  HZ I        1046  4.68         0.9 0.18            117            252 194 
 URE  HE ES       1045 59.39                             111   -0.99 7  277 291 
 URE  HZ I        1046  0.12         1.9 0.17            114            277 291 
 GUY2CHZ EP       1045 32.47                             109   -0.20 7  300 233 
 GUY2CHE ES       1046  6.32                             109    0.28 7  300 233 
 GUY2CHZ I        1046 14.01         1.6 0.37                           300 233 
 PRA  HE ES       1046 25.16                             104    0.51 6  394 209 
 PRA  HZ I        1046 30.47         2.1 0.22            106            394 209 
 SJC  HZ EP   9   1045 42.15                             103   -2.01 0  402 327 
 SJC  HE ES       1046 24.77                             104    0.29 6  402 327 
 SJC  HZ I        1046 27.69         1.2 0.28            107            402 327 
                                                                                
