 2013 11 2 1724 50.5 L   6.811 -73.144149.5  RSN 12 0.5 2.3LRSN                1
 GAP=136        1.26       3.4     5.0  6.5 -0.4144E+01  0.9552E+01 -0.2828E+01E
 Epicentro: LOS SANTOS - SANTANDER                                             3
 ACTION:UPD 14-01-09 16:25 OP:ep   STATUS:               ID:20131102172450 L   I
 OLDACT:REG 13-11-02 17:48 OP:carl STATUS:               ID:20131102171850     3
 2013-11-02-1718-50M.COL___211                                                 6
 STAT SP IPHASW D HRMM SECON CODA AMPLIT PERI AZIMU VELO AIN AR TRES W  DIS CAZ7
 BAR2 SZ EP       1725 10.67                             170    0.0510 24.6 190 
 BAR2 SZ ES       1725 25.77                             170   -0.5310 24.6 190 
 BAR2 SZ I        1725 26.95        46.8 0.36            171           24.6 190 
 BRR  HZ EP       1725 12.60                             153    0.5510 70.8 298 
 BRR  HN ES       1725 29.74                             153    0.9010 70.8 298 
 BRR  HZ I        1725 33.00        18.8 0.12            152           70.8 298 
 PAM  SZ EP       1725 13.36                             152    0.2910 76.3  40 
 PAM  SN ES       1725 30.83                             152    0.1810 76.3  40 
 PAM  SZ I        1725 33.06        32.9 0.62            155           76.3  40 
 RUS  HZ EP       1725 14.54                             144   -0.1810  102 176 
 RUS  HN ES       1725 33.58                             144   -0.0210  102 176 
 RUS  HZ I        1725 35.84        18.2 0.48            147            102 176 
 PTB  HZ EP       1725 17.32                             133   -0.51 9  148 258 
 PTB  HN ES       1725 38.76                             133   -0.38 9  148 258 
 PTB  HZ I        1725 40.86        22.2 0.16            133            148 258 
 OCA  HE ES       1725 40.78                             131   -0.45 9  159 353 
 OCA  HE I        1725 44.87        80.2 0.18            132            159 353 
 SPBC HZ EP       1725 19.74                             130    0.33 9  164 219 
 SPBC HN ES       1725 41.69                             130   -0.25 9  164 219 
 SPBC HZ I        1725 46.61        30.5 0.22            131            164 219 
 ZAR  HZ EP       1725 21.94                             123   -1.24 9  204 292 
 ZAR  HN ES       1725 49.25                             123    0.59 9  204 292 
 ZAR  HZ I        1725 55.88        17.8 0.56            124            204 292 
 NOR  HZ EP       1725 26.35                             119   -0.21 8  236 234 
 NOR  HE ES       1725 54.30                             119   -0.37 8  236 234 
 NOR  HZ I        1725 58.76        14.0 0.20            121            236 234 
 SML  HZ EP       1725 26.96                             118   -0.29 8  243 335 
 SML  HN ES       1725 55.59                             118   -0.31 8  243 335 
 SML  HZ I        1725 58.47        30.4 0.10            120            243 335 
 GUY2CHZ EP       1725 35.72                             113    1.32 7  302 235 
 GUY2CHN ES       1726  9.17                             113    0.54 7  302 235 
 GUY2CHZ I        1726 15.97         9.1 0.28                           302 235 
 COD  HZ EP       1725 39.08                             110    0.17 6  347 355 
 COD  HN ES       1726 16.78                             110    0.13 6  347 355 
                                                                                
