 2011 10 2 1252  5.0 L   6.784 -73.129144.0  RSN  6 0.3 1.7LRSN                1
 GAP=139        0.61       3.5     5.4  6.4 -0.2590E+01  0.3391E+01  0.3075E+01E
 Epicentro: LOS SANTOS - SANTANDER                                             3
 ACTION:UPD 12-07-13 16:01 OP:ep   STATUS:               ID:20111002125205 L   I
 2011-10-02-1248-23S.COL___168                                                 6
 STAT SP IPHASW D HRMM SECON CODA AMPLIT PERI AZIMU VELO AIN AR TRES W  DIS CAZ7
 BAR2 SZ EP   1   1252 24.42                             171    0.02 7 22.0 195 
 BAR2 SZ ES   2   1252 39.69                             171    0.16 5 22.0 195 
 BAR2 SZ I        1252 41.36        13.5 0.32                          22.0 195 
 BRR  HZ EP   1   1252 26.50                             151    0.39 7 73.6 299 
 BRR  HZ I        1252 34.61        17.7 0.36                          73.6 299 
 BRR  HE ES   1   1252 42.53                             151   -0.04 7 73.6 299 
 PAM  SZ EP   1   1252 27.34                             150    0.29 7 77.6  38 
 PAM  SN ES   1   1252 43.64                             150   -0.60 7 77.6  38 
 RUS  HZ EP   1   1252 28.24                             144   -0.22 7 98.8 177 
 RUS  HE ES       1252 46.98                             144    0.2410 98.8 177 
 RUS  HZ I        1252 48.10         3.9 0.32                          98.8 177 
 NOR  SN ES   2   1253  7.89                             118   -0.63 4  235 235 
 CHI  HZ EP   2   1252 42.37                             117   -0.11 4  247 196 
 CHI  HE ES   2   1253 11.31                             117   -0.40 4  247 196 
 CHI  HZ I        1253 16.19         2.2 0.44                           247 196 
                                                                                
