 2015  6 2 1609 49.6 L   6.799 -73.137145.4  RSN 12 0.5 2.4LRSN                1
 GAP=138        1.20       3.4     5.0  6.4 -0.3135E+01  0.1326E+02 -0.1921E+01E
 Epicentro: LOS SANTOS - SANTANDER                                             3
 ACTION:UPD 15-09-10 22:09 OP:cam  STATUS:               ID:20150602160949 L   I
 OLDACT:REG 15-06-02 21:42 OP:ar   STATUS:               ID:20150602160748     3
 2015-06-02-1607-48M.COL___291                                                 6
 STAT SP IPHASW D HRMM SECON CODA AMPLIT PERI AZIMU VELO AIN AR TRES W  DIS CAZ7
 BAR2 EZ EP     D 1610  9.14                             170   -0.0610 23.4 192 
 BAR2 EZ ES       1610 23.61                             170   -0.8610 23.4 192 
 BAR2 EZ I        1610 26.96        43.2 0.44            159           23.4 192 
 BRR  HZ EP       1610 10.94                             152    0.1710 72.1 298 
 BRR  HN ES       1610 27.99                             152    0.7110 72.1 298 
 BRR  HZ I        1610 31.37        21.3 0.12            132           72.1 298 
 PAM  SZ EP       1610 12.01                             151    0.2510 76.9  39 
 PAM  SE ES       1610 28.96                             151   -0.0710 76.9  39 
 PAM  SZ I        1610 30.64        20.1 0.40            139           76.9  39 
 RUS  HZ EP       1610 12.90                             144   -0.4110  100 177 
 RUS  HN ES       1610 31.93                             144    0.1310  100 177 
 RUS  HZ I        1610 34.55        22.9 0.38            147            100 177 
 OCA  HZ EP       1610 18.69                             129    0.77 9  161 353 
 OCA  HN ES       1610 39.87                             129   -0.13 9  161 353 
 OCA  HZ I        1610 44.52        62.3 0.48            116            161 353 
 SPBC HZ EP       1610 18.12                             129   -0.01 9  164 219 
 SPBC HN ES       1610 40.70                             129    0.32 9  164 219 
 SPBC HZ I        1610 45.78        46.4 0.14            122            164 219 
 ZAR  HZ EP       1610 21.65                             122   -0.48 9  205 292 
 ZAR  HN ES       1610 46.82                             122   -0.68 9  205 292 
 ZAR  HZ I        1610 53.52        29.9 0.32            111            205 292 
 NOR  HZ EP       1610 24.95                             118   -0.45 8  235 235 
 NOR  HE ES       1610 54.13                             118    0.82 8  235 235 
 NOR  HZ I        1610 56.74        33.2 0.18            111            235 235 
 SML  HZ EP       1610 26.09                             117   -0.19 8  244 335 
 SML  HN ES       1610 55.32                             117    0.45 8  244 335 
 SML  HZ I        1610 56.95        41.4 0.10            107            244 335 
 URE  HZ EP       1610 29.83                             113   -0.94 7  285 292 
 URE  HN ES   4   1611  0.70                             113   -2.18 0  285 292 
 URE  HZ I        1611  4.58        12.2 0.12            105            285 292 
 GUY2CHZ EP       1610 34.10                             112    0.81 7  302 235 
 GUY2CHN ES   4   1611  9.86                             112    2.51 0  302 235 
 GUY2CHZ I        1611 15.95        21.2 0.76                           302 235 
 CBOC HZ EP       1610 36.61                             110   -0.01 7  335 252 
 CBOC HE ES       1611 13.02                             110   -0.26 7  335 252 
 CBOC HZ I        1611 27.04         5.8 0.66            103            335 252 
                                                                                
