 2012  1 2 1113 24.0 L   6.799 -73.141146.5  RSN 12 0.4 2.2LRSN                1
 GAP=137        1.02       4.6     6.0  8.1 -0.4843E+01  0.1507E+02  0.8100E+01E
 Epicentro: LOS SANTOS - SANTANDER                                             3
 ACTION:UP  12-02-03 08:13 OP:REBC STATUS:               ID:20120102111324 L   I
 2012-01-02-1110-00M.COL___185                                                 6
 STAT SP IPHASW D HRMM SECON CODA AMPLIT PERI AZIMU VELO SNR AR TRES W  DIS CAZ7
 BAR2 SZ IP       1113 43.61                             171    -0.110   23 191 
 BAR2 SZ I        1114  0.93        38.1 0.18                            23 191 
 BRR  HZ IP     C 1113 45.42                             152     0.210   72 298 
 BRR  HZ I        1113 45.68        35.4 0.17                            72 298 
 BRR  HN ES   1   1114  2.18                             152     0.4 7   72 298 
 PAM  SZ IP       1113 46.46                             151     0.210   77  39 
 PAM  SN ES   1   1114  3.46                             151    -0.2 7   77  39 
 RUS  HZ EP       1113 47.57                             144    -0.210  100 176 
 RUS  HE ES   1   1114  6.41                             144     0.1 7  100 176 
 RUS  HZ I        1114  7.34        16.9 0.18                           100 176 
 PTB  HZ EP       1113 50.08                             132    -1.0 9  148 259 
 PTB  HZ I        1114 14.62        16.7 0.38                           148 259 
 OCA  SZ EP       1113 52.28                             130    -0.1 9  160 353 
 OCA  SZ I        1114 17.56        16.4 0.38                           160 353 
 ZAR  HN ES   2   1114 21.76                             122    -0.1 4  205 292 
 ZAR  HZ I        1114 27.36        18.4 0.56                           205 292 
 NOR  SZ EP       1114  0.26                             119     0.5 8  235 235 
 NOR  SN ES   1   1114 27.12                             119    -0.6 6  235 235 
 CHI  HZ EP       1114  1.89                             117     0.2 8  249 195 
 CHI  HN ES   2   1114 31.93                             117     0.8 4  249 195 
 CHI  HZ I        1114 38.19         6.9 0.44                           249 195 
 HEL  HZ EP       1114  5.09                             115     0.8 8  273 256 
 HEL  HN ES   3   1114 35.96                             115     0.3 2  273 256 
 HEL  HZ I        1114 43.36         8.1 0.50                           273 256 
 RREF HZ EP   2   1114 10.38                             111     0.2 3  322 229 
 RREF HN ES   3   1114 46.23                             111     0.0 2  322 229 
 RREF HZ I        1114 57.64        10.5 0.36                           322 229 
 PRA  HZ EP       1114 17.07                             107    -0.5 6  392 210 
 PRA  HN ES   2   1114 59.70                             107     0.4 3  392 210 
                                                                                
