 2014 12 2 1502 26.6 L   6.668 -73.467118.1  RSN  4 0.3 1.5LRSN                1
 GAP=158        0.73       6.4     4.4  6.4  0.5610E+01  0.9797E+01  0.1919E+01E
 Epicentro: EL CARMEN - SANTANDER                                              3
 ACTION:UPD 15-02-10 16:59 OP:nd   STATUS:               ID:20141202150226 L   I
 OLDACT:DUP 14-12-03 01:56 OP:spq  STATUS:               ID:20141202145746d    3
 2014-12-02-1457-45M.COL___303                                                 6
 STAT SP IPHASW D HRMM SECON CODA AMPLIT PERI AZIMU VELO AIN AR TRES W  DIS CAZ7
 BAR2 SZ EP   1   15 2 43.60                             164    0.45 7 32.6 105 
 BAR2 SZ ES   1   15 2 56.33                             164    0.24 7 32.6 105 
 BAR2 SZ I        15 2 57.75        11.8 0.40            169           32.6 105 
 BRR  HZ EP       15 2 43.38                             153   -0.4610 55.6 331 
 BRR  HN ES       15 2 57.17                             153   -0.1410 55.6 331 
 BRR  HZ I        15 2 58.97        12.2 0.41            155           55.6 331 
 PTB  HZ EP       15 2 47.69                             134   -0.2010  110 263 
 PTB  HE ES       15 3  4.50                             134   -0.0210  110 263 
 PTB  HZ I        15 3  8.53         2.6 0.34            134            110 263 
 ZAR  HZ EP       15 2 54.76                             119    0.14 9  179 301 
 ZAR  HN ES       15 3 16.91                             119    0.41 9  179 301 
 ZAR  HZ I        15 3 19.58         3.8 0.31            122            179 301 
                                                                                
