 2011 12 2 1236 48.6 L   6.774 -73.082145.5  RSN 21 0.4 2.8LRSN                1
 GAP=106        0.76       2.7     4.2  4.1 -0.1738E+01  0.3786E+01  0.2148E+01E
 Epicentro: LOS SANTOS - SANTANDER                                             3
 ACTION:UPD 12-07-13 16:13 OP:ep   STATUS:               ID:20111202123648 L   I
 2011-12-02-1230-00M.COL___180                                                 6
 STAT SP IPHASW D HRMM SECON CODA AMPLIT PERI AZIMU VELO AIN AR TRES W  DIS CAZ7
 BAR2 SZ IP       1237  8.13                             171   -0.0410 22.9 209 
 BAR2 SZ ES   2   1237 23.05                             171   -0.39 5 22.9 209 
 BAR2 SZ I        1237 24.23       102.0 0.20                          22.9 209 
 GIR2 SZ EP       1237  8.37                             165    0.0210 35.8 340 
 GIR2 SZ ES   1   1237 23.31                             165   -0.46 7 35.8 340 
 PAM  SZ IP       1237 11.15                             151    0.5010 75.5  34 
 PAM  SN ES   1   1237 27.88                             151    0.01 7 75.5  34 
 BRR  HZ IP     C 1237 10.14                             150    0.0010 78.7 298 
 BRR  HN ES   1   1237 27.43                             150    0.48 7 78.7 298 
 BRR  HZ I        1237 28.42        83.3 0.18                          78.7 298 
 RUS  HZ IP     C 1237 11.89                             145   -0.1910 97.5 180 
 RUS  HN ES   1   1237 30.07                             145   -0.34 7 97.5 180 
 OCA  SZ EP       1237 17.19                             129   -0.03 9  164 351 
 OCA  SZ I        1237 47.10        50.1 0.23                           164 351 
 YOP  SZ EP       1237 18.44                             127    0.39 9  173 155 
 YOP  SN ES   2   1237 41.29                             127    0.25 4  173 155 
 CTAU SZ EP       1237 21.81                             123    0.17 9  204 212 
 CTAB SZ EP       1237 25.20                             119    0.76 8  231 213 
 NOR  EZ EP   3   1237 24.28                             118   -0.45 2  239 236 
 NOR  EE ES   3   1237 52.12                             118   -0.81 2  239 236 
 NOR  EZ I        1237 59.68        67.3 0.23                           239 236 
 CHI  HZ EP       1237 25.89                             117   -0.28 8  248 197 
 CHI  HZ I        1237 28.46        22.4 0.46                           248 197 
 CHI  HN ES   1   1237 55.01                             117   -0.48 6  248 197 
 ROSC BZ EP       1237 27.09                             116    0.27 8  254 213 
 ROSC BZ I        1238  5.52        51.3 0.45                           254 213 
 HEL  HZ EP       1237 29.21                             114   -0.24 7  278 257 
 HEL  HZ I        1238  7.08        25.7 0.32                           278 257 
 VIL  SZ EP   3   1237 31.76                             112   -0.07 2  302 193 
 GUY  SZ EP   2   1237 32.86                             112   -0.05 4  308 236 
 GUY  SZ I        1238 12.64        48.1 0.42                           308 236 
 RREF HZ EP       1237 35.23                             110    0.12 7  325 231 
 RREF HZ I        1238 17.44        32.5 0.24                           325 231 
 DBB  SZ EP       1237 37.25                             109    0.38 6  347 275 
 COD  HZ EP       1237 36.47                             109   -0.88 6  352 354 
 COD  HZ I        1238 25.22        26.2 0.62                           352 354 
 SDV  BZ EP       1237 37.88                             108   -0.32 6  357  49 
 ANIL HZ EP   2   1237 38.25                             108   -0.46 3  360 226 
 ANIL HZ I        1238 24.34        78.4 0.32                           360 226 
 PRA  HZ EP       1237 41.31                             106   -0.90 6  393 211 
                                                                                
