 2015  1 2 1156  9.3 L   6.539 -73.174138.8  RSN  4 0.4 1.4LRSN                1
 GAP=279        1.04      12.8     8.1  8.4  0.9000E+01  0.1919E+02  0.8544E+01E
 Epicentro: PINCHOTE - SANTANDER                                               3
 ACTION:UPD 15-03-02 15:36 OP:nd   STATUS:               ID:20150102115609 L   I
 OLDACT:UP  15-01-02 22:36 OP:cam  STATUS:               ID:20150102114821d    3
 OLDACT:DUP 15-01-02 22:02 OP:cam  STATUS:               ID:20150102114821d    3
 OLDACT:UP  15-01-02 22:02 OP:cam  STATUS:               ID:20150102114820     3
 OLDACT:REG 15-01-02 20:12 OP:cam  STATUS:               ID:20150102114820     3
 2015-01-02-1148-20M.COL___280                                                 6
 STAT SP IPHASW D HRMM SECON CODA AMPLIT PERI AZIMU VELO AIN AR TRES W  DIS CAZ7
 BAR2 EZ EP       1156 28.43                             178    0.5910 5.95 351 
 BAR2 EZ ES       1156 42.15                             178   -0.1710 5.95 351 
 BAR2 EZ I        1156 44.53         4.6 0.20            173           5.95 351 
 BRR  HZ EP       1156 30.25                             146   -0.4010 86.5 317 
 BRR  HE ES       1156 47.33                             146    0.0010 86.5 317 
 BRR  HE I        1156 47.91        10.5 0.22            131           86.5 317 
 PTB  HZ EP       1156 34.51                             132   -0.63 9  142 270 
 PTB  HN ES       1156 55.58                             132    0.26 9  142 270 
 PTB  HZ I        1157  3.53         1.8 0.50            117            142 270 
 ZAR  HZ EP       1156 42.77                             119    0.45 8  214 300 
 ZAR  HZ I        1157 13.39         2.4 0.32            108            214 300 
                                                                                
