 2017  2 2 1600 31.9 L   6.763 -73.291122.8  RSN  6 0.2 1.6LRSN                1
 GAP=198        0.53       2.9     2.7  4.5  0.3250E+01  0.4313E+01  0.3008E+01E
 Epicentro: ZAPATOCA - SANTANDER                                               3
 ACTION:UPD 17-05-24 15:31 OP:jn   STATUS:               ID:20170202160031 L   I
 OLDACT:UP  17-02-02 23:24 OP:dnl  STATUS:               ID:20170202155746     3
 OLDACT:UP  17-02-02 23:23 OP:dnl  STATUS:               ID:20170202155746     3
 OLDACT:REG 17-02-02 20:32 OP:dnl  STATUS:               ID:20170202155746     3
 2017-02-02-1558-00M.COL___337                                                 6
 STAT SP IPHASW D HRMM SECON CODA AMPLIT PERI AZIMU VELO AIN AR TRES W  DIS CAZ7
 BAR2 EZ EP       16 0 49.04                             169    0.3210 22.4 147 
 BAR2 EZ ES       16 1  1.94                             169    0.0810 22.4 147 
 BAR2 EZ I        16 1  3.32        19.7 0.30            175           22.4 147 
 BRR  HZ IP     D 16 0 49.70                             152   -0.2010 60.1 309 
 BRR  HN ES       16 1  4.09                             152    0.1210 60.1 309 
 BRR  HZ I        16 1 17.17        10.0 0.26            153           60.1 309 
 RUS  HZ EP       16 0 53.34                             139    0.0310 99.0 167 
 RUS  HN ES       16 1  9.71                             139   -0.3210 99.0 167 
 RUS  HZ I        16 1 12.25         3.3 0.32            148           99.0 167 
 PTB  HZ EP   4   16 0 53.97                             130   -1.50 0  131 259 
 PTB  HE ES       16 1 13.88                             130   -0.0010  131 259 
 PTB  HZ I        16 1 16.72         5.4 0.18            134            131 259 
 ZAR  HZ EP   4   16 0 59.81                             119   -1.70 0  191 295 
 ZAR  HE ES       16 1 24.40                             119   -0.23 9  191 295 
 ZAR  HZ I        16 1 26.86         5.7 0.54            123            191 295 
 NOR  HZ EP   2   16 1  4.70                             115    0.04 4  219 233 
 NOR  HN ES       16 1 30.44                             115    0.20 8  219 233 
 NOR  HZ I        16 1 34.02         2.7 0.18            121            219 233 
                                                                                
