 2016  4 2 1718 18.0 L   6.783 -73.141145.1  RSN 12 0.4 2.1LRSN                1
 GAP=138        0.96       3.0     4.1  6.0 -0.2431E+01  0.8715E+01 -0.5841E+00E
 Epicentro: LOS SANTOS - SANTANDER                                             3
 ACTION:UPD 16-05-05 14:18 OP:rebc STATUS:               ID:20160402171818 L   I
 OLDACT:UP  16-04-03 00:44 OP:mh   STATUS:               ID:20160402170747d    3
 OLDACT:UP  16-04-03 00:42 OP:mh   STATUS:               ID:20160402170747d    3
 OLDACT:UP  16-04-03 00:34 OP:mh   STATUS:               ID:20160402170747d    3
 OLDACT:DUP 16-04-03 00:14 OP:mh   STATUS:               ID:20160402170747d    3
 2016-04-02-1707-45M.COL___317                                                 6
 STAT SP IPHASW D HRMM SECON CODA AMPLIT PERI AZIMU VELO AIN AR TRES W  DIS CAZ7
 BAR2 EZ EP     C 1718 37.59                             171    0.1310 21.6 192 
 BAR2 EZ ES       1718 52.50                             171   -0.1810 21.6 192 
 BAR2 EZ I        1718 53.53        30.8 0.28            170           21.6 192 
 PAM  EZ EP       1718 40.44                             150    0.2810 78.5  38 
 PAM  EN ES       1718 57.14                             150   -0.3310 78.5  38 
 PAM  EZ I        1718 59.75        48.1 0.48            153           78.5  38 
 RUS  HZ EP       1718 41.56                             144    0.0610 98.7 176 
 RUS  HE ES       1719  0.20                             144    0.3410 98.7 176 
 RUS  HZ I        1719  1.76        15.7 0.38            146           98.7 176 
 PTB  HZ EP       1718 44.34                             132   -0.54 9  148 260 
 PTB  HN ES       1719  5.34                             132   -0.54 9  148 260 
 PTB  HZ I        1719  8.65        13.0 0.19            132            148 260 
 OCA  HZ EP       1718 45.89                             129   -0.49 9  162 353 
 OCA  HN ES       1719  8.84                             129    0.28 9  162 353 
 OCA  HZ I        1719 11.65        39.5 0.22            131            162 353 
 SPBC HN ES   1   1719  8.85                             129    0.45 7  162 220 
 ZAR  HZ EP       1718 50.99                             122    0.52 8  205 293 
 ZAR  HN ES       1719 16.47                             122    0.63 8  205 293 
 ZAR  HZ I        1719 24.04        14.6 0.39            123            205 293 
 NOR  HZ EP   1   1718 54.08                             118    0.51 6  234 235 
 NOR  HN ES       1719 21.27                             118   -0.09 8  234 235 
 NOR  HZ I        1719 26.56         5.8 0.26            119            234 235 
 CHI  HZ EP   1   1718 55.80                             117    0.37 6  247 195 
 CHI  HN ES       1719 24.60                             117   -0.07 8  247 195 
 CHI  HZ I        1719 29.91         2.9 0.17            119            247 195 
 URE  HZ EP   4   1719  1.07                             113    1.95 0  285 292 
 URE  HN ES   4   1719 30.38                             113   -0.85 0  285 292 
 URE  HZ I        1719 30.97        11.7 0.13            114            285 292 
 GUY2CHZ EP       1719  0.63                             112   -0.83 7  301 235 
 GUY2CHN ES   4   1719 38.33                             112    2.94 0  301 235 
 GUY2CHZ I        1719 42.60         6.3 0.18                           301 235 
 SOCV BZ EP   4   1718 59.50                             112   -1.53 0  302  56 
 SOCV BN ES   4   1719 31.02                             112   -3.61 0  302  56 
 SJC  HZ EP   4   1719 11.18                             105   -2.53 0  411 327 
 SJC  HN ES   4   1719 53.65                             105   -3.54 0  411 327 
 SJC  HZ I        1719 57.29         5.5 0.40            107            411 327 
                                                                                
