 2010 11 2 1007 26.2 L   6.784 -73.124143.2  RSN 17 0.4 3.1LRSN                1
 GAP=138        0.88       3.1     5.0  5.9 -0.4768E+01  0.3065E+01  0.4437E+01E
 Epicentro: LOS SANTOS - SANTANDER                                             3
 ACTION:UP  10-12-17 16:49 OP:REBC STATUS:               ID:20101102100726 L   I
 2010-11-02-1006-03S.COL___126                                                 6
 STAT SP IPHASW D HRMM SECON CODA AMPLIT PERI AZIMU VELO SNR AR TRES W  DIS CAZ7
 BAR2 SZ IP       10 7 45.53                             171     0.110   22 197 
 BAR2 SZ ES   1   10 7 59.91                             171    -0.6 7   22 197 
 BAR2 SZ I        10 8  2.09       315.7 0.25                            22 197 
 BRR  HZ EP       10 7 47.39                             151     0.210   74 299 
 BRR  HE ES   1   10 8  4.43                             151     0.8 7   74 299 
 BRR  HZ I        10 8  6.13       161.5 0.15                            74 299 
 RUS  HZ EP       10 7 49.37                             144    -0.210   99 177 
 RUS  HN ES   1   10 8  8.18                             144     0.4 7   99 177 
 RUS  HZ I        10 8  9.91       130.1 0.55                            99 177 
 GUE  SZ EP   1   10 7 50.62                             139    -0.1 7  118  11 
 GRA  SZ IP       10 7 51.34                             136     0.110  127  16 
 GRA  SZ ES   1   10 8 10.42                             136    -0.4 7  127  16 
 GRA  SZ I        10 8 12.64       121.5 0.45                           127  16 
 OCA  SZ EP   1   10 7 53.85                             129    -0.6 7  162 352 
 OCA  SZ ES   1   10 8 16.67                             129     0.1 7  162 352 
 OCA  SZ I        10 8 20.68       138.2 0.15                           162 352 
 YOP  SZ EP       10 7 56.01                             126     0.2 9  176 154 
 NOR  SZ EP   1   10 8  1.12                             118    -0.7 6  236 235 
 NOR  SE ES   1   10 8 28.97                             118    -0.7 6  236 235 
 ROSC BZ EP   1   10 8  4.75                             116     0.6 6  252 212 
 ROSC BE ES   2   10 8 33.38                             116    -0.3 4  252 212 
 ROSC BZ I        10 8 37.73        53.0 0.39                           252 212 
 CVER SZ EP   2   10 8  6.86                             114     0.5 4  271 203 
 CVER SZ I        10 8  8.08        53.2 0.29                           271 203 
 HEL  HZ EP   2   10 8  6.51                             114     0.1 4  274 256 
 HEL  HN ES   2   10 8 38.08                             114     0.2 4  274 256 
 HEL  HZ I        10 8 43.50        52.2 0.38                           274 256 
 VIL  SZ EP   2   10 8  9.04                             112    -0.1 4  300 190 
 VIL  SN ES   2   10 8 42.12                             112    -0.5 4  300 190 
 VIL  SZ I        10 8 53.11        32.6 0.49                           300 190 
 GUY  SZ EP   2   10 8  9.96                             112     0.2 4  302 235 
 GUY  SZ I        10 8 52.95       117.7 0.29                           302 235 
 RREF HZ EP   2   10 8 12.10                             110    -0.2 3  322 230 
 RREF HE ES   2   10 8 47.58                             110    -0.7 3  322 230 
 RREF HZ I        10 8 57.49        67.2 0.75                           322 230 
 TOL  SZ EP   1   10 8 14.90                             109     0.5 5  344 225 
 ANIL HZ EP   1   10 8 16.68                             108     0.8 5  358 225 
 ANIL HN ES   2   10 8 55.25                             108     0.5 3  358 225 
 ANIL HZ I        10 8 59.31       122.6 0.39                           358 225 
 PRA  HZ EP   1   10 8 19.00                             106    -0.6 4  392 210 
 PRA  HE ES   1   10 9  0.79                             106    -0.4 4  392 210 
                                                                                
