 2013  8 2 1727 44.1 L   6.827 -73.150151.8  RSN 18 0.5 2.9LRSN 3.3WRSN        1
 SPEC AVERAGE  MO 14.0 ST 44.0 OM  2.6 f0 5.86 R0.3532 AL 0.00 WI 28.2 MW  3.3 3
 SPEC SD       MO  0.1 ST 49.3 OM  0.4 f0 2.84 R0.2017 AL      WI      MW  0.1 3
 GAP=111        1.02       2.6     3.1  5.0 -0.4611E-01  0.1605E+01  0.9691E+00E
 Epicentro: LOS SANTOS - SANTANDER                                             3
 SPEC PRA HH N MO 13.9 ST 12.1 OM  1.9 f0 4.99 R0.3114 AL 0.00 WI 25.8 MW  3.2 3
 SPEC PRA HH N T172917 K 0.000 GD  422 VS 4.20 DE 3.20 Q0300.0 QA 0.60 VS 4.20 3
 SPEC HEL HH N MO 13.9 ST  7.0 OM  2.0 f0 4.26 R0.3648 AL 0.00 WI 23.5 MW  3.2 3
 SPEC HEL HH N T172854 K 0.000 GD  311 VS 4.20 DE 3.20 Q0300.0 QA 0.60 VS 4.20 3
 SPEC ZAR HH N MO 14.1 ST146.8 OM  2.3 f0 10.0 R0.1554 AL 0.00 WI 35.2 MW  3.3 3
 SPEC ZAR HH N T172840 K 0.000 GD  252 VS 4.20 DE 3.20 Q0300.0 QA 0.60 VS 4.20 3
 SPEC OCA HH N MO 14.3 ST 50.1 OM  2.6 f0 5.83 R0.2666 AL 0.00 WI 34.1 MW  3.5 3
 SPEC OCA HH N T172833 K 0.000 GD  218 VS 4.20 DE 3.20 Q0300.0 QA 0.60 VS 4.20 3
 SPEC TAM HH N MO 14.0 ST  1.2 OM  2.3 f0 2.09 R0.7435 AL 0.00 WI 21.7 MW  3.3 3
 SPEC TAM HH N T172831 K 0.000 GD  217 VS 4.20 DE 3.20 Q0300.0 QA 0.60 VS 4.20 3
 SPEC PTB HH N MO 13.9 ST 36.1 OM  2.2 f0 7.17 R0.2167 AL 0.00 WI 28.2 MW  3.2 3
 SPEC PTB HH N T172831 K 0.000 GD  212 VS 4.20 DE 3.20 Q0300.0 QA 0.60 VS 4.20 3
 SPEC RUS HH E MO 14.1 ST  2.2 OM  2.4 f0 2.54 R0.6118 AL 0.00 WI 24.1 MW  3.3 3
 SPEC RUS HH E T172824 K 0.000 GD  184 VS 4.20 DE 3.20 Q0300.0 QA 0.60 VS 4.20 3
 SPEC BRR HH N MO 13.9 ST 96.9 OM  2.3 f0 10.0 R0.1554 AL 0.00 WI 32.9 MW  3.2 3
 SPEC BRR HH N T172823 K 0.000 GD  166 VS 4.20 DE 3.20 Q0300.0 QA 0.60 VS 4.20 3
 ACTION:UPD 14-01-14 08:58 OP:ep   STATUS:               ID:20130802172744 L   I
 OLDACT:UP  13-08-02 16:04 OP:cam  STATUS:               ID:20130802171959     3
 OLDACT:UP  13-08-02 16:03 OP:cam  STATUS:               ID:20130802171959     3
 OLDACT:REG 13-08-02 15:02 OP:cam  STATUS:               ID:20130802171959     3
 2013-08-02-1719-59M.COL___269                                                 6
 STAT SP IPHASW D HRMM SECON CODA AMPLIT PERI AZIMU VELO AIN AR TRES W  DIS CAZ7
 BAR2 SZ EP     C 1728  4.38                             170   -0.1310 26.2 188 
 BAR2 SZ I        1728 20.62       204.6 0.26            170           26.2 188 
 GIR2 SZ EP       1728  4.49                             169    0.0910 28.2 350 
 GIR2 SZ ES       1728 20.46                             169    0.2110 28.2 350 
 GIR2 SZ I        1728 20.89       166.1 0.12            168           28.2 350 
 BRR  HZ IP     C 1728  6.20                             154    0.4010 69.4 297 
 BRR  HN ES       1728 23.49                             154    0.7710 69.4 297 
 BRR  HZ I        1728 26.53       112.5 0.28            153           69.4 297 
 RUS  HZ EP       1728  8.32                             144   -0.3310  104 176 
 RUS  HE ES       1728 27.30                             144   -0.5110  104 176 
 RUS  HZ I        1728 27.95        99.9 0.28            145            104 176 
 PTB  HZ EP       1728 10.78                             133   -0.79 9  148 258 
 PTB  HN ES       1728 32.13                             133   -0.87 9  148 258 
 PTB  HZ I        1728 34.03        99.5 0.40            133            148 258 
 TAM  HZ IP     D 1728 12.81                             132    0.44 9  156 106 
 TAM  HZ I        1728 12.98        92.1 0.20            133            156 106 
 TAM  HN ES       1728 34.64                             132    0.22 9  156 106 
 OCA  HZ EP       1728 12.58                             132   -0.01 9  157 353 
 OCA  HN ES       1728 34.51                             132   -0.32 9  157 353 
 OCA  HZ I        1728 42.76        79.1 0.26            132            157 353 
 SPBC HZ EP       1728 13.29                             130    0.04 9  165 218 
 SPBC HN ES       1728 36.02                             130    0.03 9  165 218 
 SPBC HZ I        1728 39.81       125.8 0.22            130            165 218 
 ZAR  HZ EP   1   1728 17.13                             124    0.35 6  202 291 
 ZAR  HN ES       1728 42.32                             124    0.05 9  202 291 
 ZAR  HZ I        1728 46.50        60.3 0.16            124            202 291 
 NOR  HZ EP       1728 20.24                             120   -0.08 8  236 234 
 NOR  HN ES   1   1728 49.23                             120    0.65 6  236 234 
 NOR  HZ I        1728 57.81        62.9 0.42            120            236 234 
 SML  HZ EP   1   1728 21.04                             119    0.29 6  241 335 
 SML  HN ES       1728 48.88                             119   -0.46 8  241 335 
 SML  HZ I        1728 54.44        69.9 0.24            119            241 335 
 CHI  HZ EP       1728 22.63                             118    0.20 8  251 195 
 CHI  HN ES       1728 51.94                             118   -0.39 8  251 195 
 CHI  HZ I        1728 57.07        49.9 0.40            119            251 195 
 HEL  HN ES       1728 56.91                             116    0.63 8  272 255 
 GUY2CHZ EP   1   1728 28.77                             113    0.63 5  303 234 
 RREF HZ EP   1   1728 31.84                             112    1.16 5  323 229 
 COD  HZ EP       1728 32.42                             110    0.06 7  345 355 
 PRA  HZ EP   1   1728 38.26                             107    0.16 4  394 209 
 PRA  HN ES       1729 20.03                             107   -0.20 6  394 209 
 PRA  HZ I        1729 26.92        45.8 0.24            108            394 209 
 SJC  HZ EP     C 1728 38.64                             107   -0.89 6  406 327 
                                                                                
