 2017  9 2 1825  5.0 L   6.549 -73.517108.2  RSN 17 0.4 2.1LRSN                1
 GAP= 65        0.92       2.1     2.3  4.6  0.5833E+00  0.4888E+01  0.2148E+01E
 Epicentro: EL CARMEN - SANTANDER                                              3
 ACTION:UPD 17-10-05 19:08 OP:rebc STATUS:               ID:20170902182505 L   I
 OLDACT:REG 17-09-02 21:06 OP:dhb  STATUS:               ID:20170902181742     3
 2017-09-02-1818-00M.COL___411                                                 6
 STAT SP IPHASW D HRMM SECON CODA AMPLIT PERI AZIMU VELO AIN AR TRES W  DIS CAZ7
 BAR2 EZ IP     D 1825 20.80                             159    0.2010 37.3  83 
 BAR2 EZ ES       1825 32.26                             159   -0.5310 37.3  83 
 BAR2 EZ I        1825 34.63       141.8 0.36            166           37.3  83 
 BRR  HZ IP     C 1825 21.59                             146   -0.2310 65.4 341 
 BRR  HE ES       1825 35.32                             146    0.3710 65.4 341 
 BRR  HZ I        1825 41.23        34.0 0.13            150           65.4 341 
 RUS  HZ EP       1825 23.84                             138   -0.2810 87.0 147 
 RUS  HN ES       1825 39.31                             138    0.2610 87.0 147 
 RUS  HZ I        1825 41.31        18.3 0.30            143           87.0 147 
 SPBC HZ EP       1825 25.87                             129   -0.3210  117 212 
 SPBC HN ES       1825 42.67                             129   -0.0610  117 212 
 SPBC HZ I        1825 48.08                             132            117 212 
 PAM  EZ EP       1825 28.48                             127    0.8910  126  46 
 PAM  EN ES       1825 45.21                             127   -0.0110  126  46 
 PAM  EZ I        1825 46.68        17.8 0.28            133            126  46 
 YPLC HZ EP       1825 32.59                             116   -0.02 9  179 135 
 YPLC HN ES       1825 54.05                             116   -0.11 9  179 135 
 YPLC HZ I        1825 57.13        23.0 0.35            121            179 135 
 ZAR  HZ EP       1825 33.03                             116    0.27 9  181 305 
 ZAR  HE ES       1825 54.67                             116    0.24 9  181 305 
 ZAR  HZ I        1825 59.38        32.2 0.20            120            181 305 
 NOR  HZ IP     D 1825 32.52                             115   -0.73 9  185 234 
 NOR  HN ES       1825 55.10                             115   -0.20 9  185 234 
 NOR  HZ I        1825 56.92        21.8 0.13            118            185 234 
 CHI  HZ EP       1825 37.11                             112    0.23 8  214 186 
 CHI  HE ES       1826  2.02                             112    0.25 8  214 186 
 CHI  HZ I        1826  5.53         4.4 0.13            115            214 186 
 HEL  HZ EP       1825 38.45                             110    0.20 8  226 260 
 HEL  HE ES       1826  4.41                             110    0.20 8  226 260 
 HEL  HZ I        1826  9.15         9.7 0.16            113            226 260 
 GUY2CHZ EP       1825 41.64                             108    0.30 8  252 235 
 GUY2CHN ES   3   1826 11.34                             108    1.64 2  252 235 
 GUY2CHZ I        1826 14.82         7.7 0.19                           252 235 
 URE  HZ EP       1825 40.82                             107   -0.84 8  259 301 
 URE  HE ES       1826 10.13                             107   -0.14 8  259 301 
 URE  HZ I        1826 11.56        19.9 0.06            110            259 301 
 ELA  HZ EP   9   1825 46.16                             105    1.45 0  280 228 
 ELA  HE ES       1826 17.05                                   -0.10 7  280 228 
 ELA  HZ I        1826 21.22         6.3 0.76            109            280 228 
 DBB  EZ EP       1825 46.01                             104   -0.77 7  302 280 
 DBB  EE ES       1826 19.18                             104   -0.20 7  302 280 
 DBB  EZ I        1826 22.60         4.5 0.25            107            302 280 
 PRA  HZ EP       1825 52.13                             101   -0.09 6  348 206 
 PRA  HE ES       1826 28.56                             101   -0.51 6  348 206 
 PRA  HZ I        1826 34.26         5.6 0.13            104            348 206 
 ORTC HZ EP       1825 53.15                             101    0.82 6  349 213 
 ORTC HN ES   3   1826 30.72                             101    1.46 2  349 213 
 ORTC HZ I        1826 35.96         3.9 0.23            104            349 213 
 PAL  HZ EP       1825 53.29                             100    0.08 6  356 239 
 PAL  HN ES       1826 31.40                             100    0.57 6  356 239 
 PAL  HZ I        1826 33.65         2.9 0.18            104            356 239 
 SJC  HZ EP   4   1825 57.71                              98   -2.33 0  413 334 
 SJC  HN ES   4   1826 38.59                              98   -4.40 0  413 334 
                                                                                
