 2015  5 2 1748 34.9 L   6.729 -73.102142.5  RSN  4 0.2 1.6LRSN                1
 GAP=237        0.54       3.4     4.2  4.3  0.3182E+01  0.5412E+01  0.3148E+01E
 Epicentro: JORDAN - SANTANDER                                                 3
 ACTION:UPD 15-09-10 22:00 OP:cam  STATUS:               ID:20150502174834 L   I
 OLDACT:REG 15-05-02 21:04 OP:ak   STATUS:               ID:20150502174750     3
 2015-05-02-1747-50M.COL___270                                                 6
 STAT SP IPHASW D HRMM SECON CODA AMPLIT PERI AZIMU VELO AIN AR TRES W  DIS CAZ7
 BAR2 EZ EP       1748 54.14                             173    0.0810 17.5 211 
 BAR2 EZ ES       1749  8.60                             173   -0.3810 17.5 211 
 BAR2 EZ I        1749 10.28         8.9 0.16            170           17.5 211 
 BRR  HZ EP       1748 56.18                             149   -0.0310 79.4 302 
 BRR  HN ES       1749 13.02                             149    0.2110 79.4 302 
 RUS  HN EP       1748 57.85                             145    0.0710 92.5 179 
 RUS  HE ES       1749 15.79                             145    0.1910 92.5 179 
 RUS  HN I        1749 18.28         8.2 0.24            145           92.5 179 
 NOR  HZ EP       1749 10.17                             118   -0.25 8  234 237 
 NOR  HN ES       1749 38.12                             118    0.02 8  234 237 
 NOR  HZ I        1749 39.61         3.4 0.16            119            234 237 
                                                                                
