 2015  6 2 1339 10.0 L   6.802 -73.123142.3  RSN  7 0.6 2.4LRSN                1
 GAP=139        1.53       5.6     8.0  9.7  0.8646E+01  0.1551E+02 -0.1313E+02E
 Epicentro: LOS SANTOS - SANTANDER                                             3
 ACTION:UPD 15-09-10 22:09 OP:cam  STATUS:               ID:20150602133910 L   I
 OLDACT:REG 15-06-02 21:28 OP:ar   STATUS:               ID:20150602133748     3
 2015-06-02-1337-48M.COL___294                                                 6
 STAT SP IPHASW D HRMM SECON CODA AMPLIT PERI AZIMU VELO AIN AR TRES W  DIS CAZ7
 BAR2 EZ EP       1339 29.52                             170    0.2810 24.1 196 
 BAR2 EZ ES       1339 43.29                             170   -0.9410 24.1 196 
 BAR2 EZ I        1339 45.38        41.1 0.18            170           24.1 196 
 BRR  HZ EP       1339 31.58                             151    0.6710 73.3 297 
 BRR  HN ES       1339 48.14                             151    0.9310 73.3 297 
 BRR  HZ I        1339 52.64        49.4 0.12            149           73.3 297 
 PAM  SZ EP       1339 32.37                             151    0.6210 75.6  38 
 PAM  SE ES       1339 49.25                             151    0.5410 75.6  38 
 PAM  SN I        1339 50.55        70.6 0.54            153           75.6  38 
 RUS  HZ EP       1339 32.84                             143   -0.5910  101 177 
 RUS  HN ES       1339 51.50                             143   -0.1910  101 177 
 RUS  HZ I        1339 52.72        19.7 0.50            147            101 177 
 OCA  HZ EP       1339 37.81                             129   -0.25 9  160 352 
 OCA  HE ES       1339 59.05                             129   -0.89 9  160 352 
 OCA  HZ I        1340  3.81        51.6 0.32            130            160 352 
 ZAR  HZ EP       1339 42.69                             121    0.22 8  206 292 
 ZAR  HN ES       1340  7.69                             121   -0.09 8  206 292 
 ZAR  HZ I        1340 13.98        27.6 0.70            122            206 292 
 SML  HZ EP       1339 46.62                             117    0.08 8  245 335 
 SML  HN ES       1340 14.21                             117   -0.82 8  245 335 
 SML  HZ I        1340 21.09        29.0 0.10            118            245 335 
                                                                                
