 2013  5 2 1018 59.6 L   6.786 -73.147141.7  RSN  8 0.4 2.0LRSN                1
 GAP=137        0.66       3.2     3.7  5.6 -0.5489E+00  0.3576E+01  0.5522E+00E
 Epicentro: LOS SANTOS - SANTANDER                                             3
 ACTION:UPD 13-06-20 09:47 OP:ep   STATUS:               ID:20130502101859 L   I
 2013-05-02-1017-47M.COL___223                                                 6
 STAT SP IPHASW D HRMM SECON CODA AMPLIT PERI AZIMU VELO AIN AR TRES W  DIS CAZ7
 BAR2 SZ EP       1019 18.78                             171    0.0710 21.8 190 
 BAR2 SZ I        1019 35.02        10.5 0.18            169           21.8 190 
 BRR  HZ EP   1   1019 20.64                             152    0.29 7 71.9 300 
 BRR  HN ES       1019 36.77                             152    0.2410 71.9 300 
 BRR  HN I        1019 40.05        16.4 0.18            153           71.9 300 
 PAM  SZ EP   1   1019 21.70                             150    0.24 7 78.7  39 
 PAM  SN ES   1   1019 38.18                             150   -0.33 7 78.7  39 
 PAM  SN I        1019 40.63        15.1 0.56            151           78.7  39 
 RUS  HZ EP   1   1019 22.85                             143    0.01 7 99.0 176 
 RUS  HE ES   1   1019 40.86                             143   -0.10 7 99.0 176 
 PTB  HZ EP   1   1019 25.46                             131   -0.74 7  147 259 
 PTB  HN ES   1   1019 46.55                             131   -0.40 7  147 259 
 PTB  HN I        1019 51.55        14.0 0.22            132            147 259 
 ZAR  HZ EP   2   1019 32.64                             121    0.81 4  205 293 
 ZAR  HN ES   2   1019 56.60                             121   -0.37 4  205 293 
 ZAR  HZ I        1020  2.37         5.8 0.40            122            205 293 
 ZAR  HN I        1020  3.01        11.8 0.48                           205 293 
 NOR  HZ EP   1   1019 35.26                             118    0.27 6  234 235 
 NOR  HN ES   1   1020  2.88                             118    0.29 6  234 235 
 NOR  HN I        1020  5.89        10.6 0.18            118            234 235 
 SML  HZ EP   1   1019 35.69                             116   -0.46 6  245 335 
 SML  HN ES   1   1020  4.83                             116    0.17 6  245 335 
 SML  HN I        1020  6.57        16.2 0.10            118            245 335 
                                                                                
