 2010  9 2 1215 55.1 L   7.401 -73.162128.5  RSN  5 0.2 1.9LRSN                1
 GAP=145        0.60       4.0     6.5  6.9 -0.1149E+02 -0.4986E+01 -0.2514E+01E
 Epicentro: EL PLAYON - SANTANDER                                              3
 ACTION:UP  11-02-18 10:59 OP:tino STATUS:               ID:20100902121555 L   I
 2010-09-02-1211-59S.COL___120                                                 6
 STAT SP IPHASW D HRMM SECON CODA AMPLIT PERI AZIMU VELO SNR AR TRES W  DIS CAZ7
 GUE  SZ EP       1216 13.83                             156    -0.110   54  29 
 GUE  SZ I        1216 14.40        25.3 0.07                            54  29 
 GRA  SZ IP       1216 14.66                             151     0.310   67  36 
 GRA  SZ I        1216 15.60        21.5 0.24                            67  36 
 GRA  SZ ES   1   1216 29.18                             151    -0.2 7   67  36 
 BRR  HZ EP   1   1216 13.94                             150    -0.3 7   69 242 
 BRR  HE ES   1   1216 29.44                             150     0.2 7   69 242 
 BRR  HZ I        1216 30.27        29.5 0.14                            69 242 
 BAR2 SZ EP   1   1216 15.80                             143    -0.2 7   90 182 
 BAR2 SZ ES   1   1216 32.32                             143     0.0 7   90 182 
 BAR2 SZ I        1216 33.46        14.4 0.39                            90 182 
 OCA  SZ EP   1   1216 16.34                             141     0.1 7   94 349 
 OCA  SZ ES   2   1216 32.41                             141    -0.3 5   94 349 
 OCA  SZ I        1216 38.14        10.4 0.44                            94 349 
                                                                                
