 2017  7 2 1505 42.2 L   7.227 -73.184108.9  RSN  7 0.3 2.0LRSN                1
 GAP=237        1.09       5.9     5.3  6.8  0.1507E+02 -0.1142E+01  0.1571E+01E
 Epicentro: RIONEGRO - SANTANDER                                               3
 ACTION:UPD 17-08-30 15:29 OP:rebc STATUS:               ID:20170702150542 L   I
 OLDACT:UP  17-07-03 00:52 OP:ar   STATUS:               ID:20170702145745     3
 OLDACT:REG 17-07-02 21:46 OP:osc  STATUS:               ID:20170702145745     3
 2017-07-02-1458-00M.COL___380                                                 6
 STAT SP IPHASW D HRMM SECON CODA AMPLIT PERI AZIMU VELO AIN AR TRES W  DIS CAZ7
 BRR  HZ IP     D 15 5 58.44                             150   -0.2610 59.8 257 
 BRR  HN ES       15 6 12.03                             150    0.4310 59.8 257 
 BAR2 EZ EP       15 5 59.68                             146   -0.0510 70.2 180 
 BAR2 EZ ES       15 6 13.59                             146    0.1610 70.2 180 
 BAR2 EZ I        15 6 14.45        91.7 0.34            138           70.2 180 
 PTB  HZ EP   9   15 6  4.89                             120   -2.78 0  160 242 
 PTB  HE ES       15 6 23.60                             122   -1.20 9  160 242 
 PTB  HZ I        15 6 30.67         5.0 0.28            115            160 242 
 ZAR  HZ EP       15 6 11.01                             115    0.39 9  187 279 
 ZAR  HN ES       15 6 32.35                             115   -0.48 9  187 279 
 ZAR  HZ I        15 6 37.76         7.1 0.26            112            187 279 
 SPBC HZ EP       15 6 12.09                             114   -0.05 9  200 210 
 SPBC HE ES       15 6 35.19                             114   -0.35 9  200 210 
 SPBC HZ I        15 6 44.59        21.4 0.20            110            200 210 
 YPLC HZ EP       15 6 14.13                             111   -0.38 8  221 156 
 YPLC HE ES       15 6 39.66                             111   -0.08 8  221 156 
 YPLC HZ I        15 6 41.05        10.4 0.38            109            221 156 
 GUY2CHZ EP       15 6 27.90                             102    0.43 7  328 228 
 GUY2CHE ES       15 7  3.25                             102    0.43 7  328 228 
 GUY2CHZ I        15 7 10.21         3.3 0.40                           328 228 
                                                                                
