 2017 12 2 1103 23.0 L   6.782 -73.160142.0  RSN  5 0.3 1.3LRSN                1
 GAP=136        0.81       4.2     3.8  6.3 -0.1724E+00  0.8986E+01 -0.4279E+01E
 Epicentro: LOS SANTOS - SANTANDER                                             3
 ACTION:UPD 18-01-04 13:16 OP:rebc STATUS:               ID:20171202110323 L   I
 OLDACT:DUP 17-12-02 22:16 OP:dani STATUS:               ID:20171202105741d    3
 OLDACT:REG 17-12-02 21:22 OP:dani STATUS:               ID:20171202105740     3
 2017-12-02-1058-00M.COL___465                                                 6
 STAT SP IPHASW D HRMM SECON CODA AMPLIT PERI AZIMU VELO AIN AR TRES W  DIS CAZ7
 BAR2 EZ EP       11 3 41.90                             171   -0.2110 21.1 187 
 BAR2 EZ ES       11 3 57.01                             171   -0.0210 21.1 187 
 BAR2 EZ I        11 3 59.62         3.0 0.22            171           21.1 187 
 PAM  EZ EP       11 3 44.89                             149   -0.0510 79.9  39 
 PAM  EE ES       11 4  2.03                             149   -0.0510 79.9  39 
 RUS  HZ EP       11 3 46.21                             144   -0.0110 98.7 175 
 RUS  HN ES       11 4  4.72                             144    0.3710 98.7 175 
 RUS  HZ I        11 4  5.53         2.9 0.22            147           98.7 175 
 PTB  HZ EP       11 3 48.93                             131   -0.53 9  146 259 
 PTB  HN ES       11 4  9.83                             131   -0.29 9  146 259 
 PTB  HZ I        11 4 12.90         1.7 0.24            132            146 259 
 ZAR  HZ EP       11 3 55.77                             122    0.66 9  203 293 
 ZAR  HN ES       11 4 20.44                             122    0.27 9  203 293 
 ZAR  HZ I        11 4 25.84         3.4 0.46            123            203 293 
                                                                                
