 2012  7 2 1357 25.4 L   6.743 -73.169144.6  RSN  9 0.4 2.3LRSN                1
 GAP= 72        1.08       6.9     5.6  7.4  0.1245E+02 -0.6909E+01 -0.1416E+02E
 Epicentro: VILLANUEVA - SANTANDER                                             3
 ACTION:UPD 12-08-14 11:42 OP:ep   STATUS:               ID:20120702135725 L   I
 2012-07-02-1350-00M.COL___201                                                 6
 STAT SP IPHASW D HRMM SECON CODA AMPLIT PERI AZIMU VELO AIN AR TRES W  DIS CAZ7
 BAR2 SZ EP       1357 45.09                             173     0.310   17 185 
 BAR2 SZ ES       1357 59.33                             173    -0.610   17 185 
 BAR2 SZ I        1358  1.12        44.7 0.27            167             17 185 
 BRR  HZ EP       1357 46.95                             152     0.410   72 304 
 BRR  HE ES       1358  3.61                             152     0.610   72 304 
 BRR  HZ I        1358  5.24        60.8 0.26            131             72 304 
 PAM  SZ EP   1   1357 47.88                             149    -0.1 7   84  38 
 RUS  HZ EP   1   1357 48.75                             145     0.1 7   94 174 
 RUS  HE ES   1   1358  6.61                             145    -0.1 7   94 174 
 PTB  HZ EP   1   1357 52.04                             132     0.1 7  144 261 
 PTB  HN ES   1   1358 12.51                             132    -0.2 7  144 261 
 PTB  HZ I        1358 15.08        16.5 0.15            114            144 261 
 TAM  HZ EP       1357 53.37                             130     0.3 9  156 102 
 OCA  HZ EP       1357 53.53                             128    -0.7 9  166 354 
 OCA  HZ I        1358 18.64        32.7 0.37            112            166 354 
 ZAR  HZ EP   1   1357 57.56                             122    -0.3 6  204 294 
 ZAR  HE ES   1   1358 22.89                             122    -0.2 6  204 294 
 ZAR  HZ I        1358 30.02        16.0 0.17            107            204 294 
 HEL  HZ EP   1   1358  5.00                             115    -0.2 6  268 257 
 HEL  HZ I        1358 46.12         8.4 0.25            103            268 257 
