 2014  7 2 1341 10.5 L   6.653 -73.608 97.3  RSN  4 0.2 1.2LRSN                1
 GAP=117        0.54       3.1     2.5  7.5  0.1579E+01  0.3002E+01 -0.1233E+02E
 Epicentro: EL CARMEN - SANTANDER                                              3
 ACTION:UPD 15-03-16 20:40 OP:nd   STATUS:               ID:20140702134110 L   I
 OLDACT:REG 14-07-02 20:26 OP:spq  STATUS:               ID:20140702133813     3
 2014-07-02-1338-13M.COL___250                                                 6
 STAT SP IPHASW D HRMM SECON CODA AMPLIT PERI AZIMU VELO AIN AR TRES W  DIS CAZ7
 BAR2 SZ EP       1341 25.69                             152    0.3210 47.5  98 
 BAR2 SZ ES   1   1341 37.04                             152    0.04 7 47.5  98 
 BAR2 SZ I        1341 39.86         6.1 0.24            154           47.5  98 
 PTB  HZ IP     D 1341 28.70                             132    0.0510 94.7 262 
 PTB  HN ES       1341 42.85                             132    0.0010 94.7 262 
 PTB  HZ I        1341 44.57         2.8 0.18            137           94.7 262 
 RUS  HN ES       1341 44.96                             131   -0.2510  102 145 
 RUS  HZ I        1341 47.92         3.0 0.40            134            102 145 
 SML  HN ES       1342 11.40                             107   -0.21 8  243 348 
 SML  HZ I        1342 13.17         2.3 0.08            109            243 348 
                                                                                
