 2012  1 2 1658  5.2 L   6.777 -73.095138.8  RSN  4 0.2 1.6LRSN                1
 GAP=144        0.62       3.9     5.8  6.0 -0.5526E+00 -0.2470E+01  0.8426E+00E
 Epicentro: LOS SANTOS - SANTANDER                                             3
 ACTION:UP  12-02-03 08:13 OP:REBC STATUS:               ID:20120102165805 L   I
 2012-01-02-1650-00M.COL___187                                                 6
 STAT SP IPHASW D HRMM SECON CODA AMPLIT PERI AZIMU VELO SNR AR TRES W  DIS CAZ7
 BAR2 SZ IP       1658 23.89                             170    -0.110   23 205 
 BAR2 SZ ES   1   1658 38.26                             170    -0.4 7   23 205 
 BAR2 SZ I        1658 40.72        11.6 0.32                            23 205 
 PAM  SZ EP       1658 26.80                             150     0.210   76  35 
 PAM  SE ES   1   1658 43.30                             150     0.0 7   76  35 
 BRR  HZ EP       1658 25.89                             149    -0.110   77 298 
 BRR  HE ES   1   1658 42.48                             149     0.3 7   77 298 
 BRR  HZ I        1658 46.77        11.3 0.12                            77 298 
 RUS  HZ EP       1658 28.01                             143    -0.110   98 179 
 RUS  HN ES   1   1658 46.32                             143     0.4 7   98 179 
 RUS  HZ I        1658 47.84         5.2 0.40                            98 179 
                                                                                
