 2012  3 2 1100 51.8 L   6.696 -73.141148.5  RSN  4 0.2 1.6LRSN                1
 GAP=256        0.55       9.4     5.8  9.8  0.1057E+02 -0.4910E+01  0.3079E+02E
 ACTION:UP  12-03-31 23:16 OP:EP   STATUS:               ID:20120302110051 L   I
 2012-03-02-1100-00M.COL___190                                                 6
 STAT SP IPHASW D HRMM SECON CODA AMPLIT PERI AZIMU VELO SNR AR TRES W  DIS CAZ7
 BAR2 SZ EP   1   11 1 11.30                             175    -0.3 7   12 201 
 BRR  HZ EP   1   11 1 13.94                             151     0.3 7   78 306 
 BRR  HZ I        11 1 18.64        10.9 0.49                            78 306 
 BRR  HE ES   1   11 1 30.76                             151     0.1 7   78 306 
 PTB  HZ EP   1   11 1 19.06                             133     0.2 7  146 263 
 PTB  HN ES   1   11 1 40.04                             133     0.0 7  146 263 
 ZAR  HE ES   1   11 1 50.52                             122    -0.3 6  209 295 
 ZAR  HZ I        11 1 55.41         2.4 0.28                           209 295 
                                                                                
