 2013 12 2 1720 47.6 L   6.774 -73.130144.9  RSN  5 0.4 1.5LRSN                1
 GAP=159        0.92      10.5     6.0  7.5 -0.3458E+02  0.4938E+01  0.9079E+01E
 Epicentro: LOS SANTOS - SANTANDER                                             3
 ACTION:UPD 14-01-13 10:15 OP:ep   STATUS:               ID:20131202172047 L   I
 OLDACT:UP  13-12-02 16:35 OP:cam  STATUS:               ID:20131202172000     3
 OLDACT:REG 13-12-02 14:32 OP:cam  STATUS:               ID:20131202172000     3
 2013-12-02-1720-00M.COL___282                                                 6
 STAT SP IPHASW D HRMM SECON CODA AMPLIT PERI AZIMU VELO AIN AR TRES W  DIS CAZ7
 BAR2 SZ EP   1   1721  7.52                             171    0.43 7 20.9 196 
 BAR2 SZ ES   1   1721 22.65                             171    0.37 7 20.9 196 
 BAR2 SZ I        1721 29.76        10.3 0.50            161           20.9 196 
 BRR  HZ EP       1721  8.84                             151    0.0110 74.1 300 
 BRR  HN ES       1721 25.65                             151    0.2710 74.1 300 
 BRR  HZ I        1721 26.27         8.0 0.14            159           74.1 300 
 PAM  SZ EP       1721  9.89                             150    0.0910 78.6  37 
 PAM  SE ES       1721 26.69                             150   -0.4310 78.6  37 
 PAM  SZ I        1721 27.30         2.9 0.38            158           78.6  37 
 PTB  HZ EP       1721 14.08                             132   -0.53 9  149 260 
 PTB  HN ES       1721 35.35                             132   -0.32 9  149 260 
 PTB  HZ I        1721 37.94         5.7 0.24            134            149 260 
 ZAR  HZ EP   1   1721 21.11                             122    0.84 6  207 293 
                                                                                
