 2017 10 2 1315 29.1 L   6.841 -73.193140.8  RSN  4 0.3 1.2LRSN                1
 GAP=172        0.82       5.7     7.3  7.3 -0.2663E+02  0.2670E+02 -0.8393E+01E
 Epicentro: ZAPATOCA - SANTANDER                                               3
 ACTION:UPD 17-11-07 19:27 OP:rebc STATUS:               ID:20171002131529 L   I
 OLDACT:REG 17-10-02 20:21 OP:dhb  STATUS:               ID:20171002130742     3
 2017-10-02-1308-00M.COL___428                                                 6
 STAT SP IPHASW D HRMM SECON CODA AMPLIT PERI AZIMU VELO AIN AR TRES W  DIS CAZ7
 BAR2 EZ EP       1315 47.71                             168   -0.5610 27.5 178 
 BAR2 EZ ES       1316  2.95                             168   -0.2410 27.5 178 
 BAR2 EZ I        1316  4.25         2.9 0.17            170           27.5 178 
 PAM  EZ IP     C 1315 51.23                             150    0.3910 77.5  45 
 PAM  EN ES       1316  7.88                             150    0.1110 77.5  45 
 PAM  EZ I        1316 10.45         3.8 0.36            151           77.5  45 
 RUS  HZ EP       1315 52.63                             141   -0.1510  106 173 
 RUS  HN ES       1316 11.53                             141    0.3110  106 173 
 RUS  HZ I        1316 12.66         2.8 0.44            144            106 173 
 NOR  HZ EP       1316  4.33                             118   -0.10 8  233 233 
 NOR  HE ES       1316 32.27                             118    0.33 8  233 233 
 NOR  HZ I        1316 33.83         1.1 0.19            119            233 233 
                                                                                
