 2010 10 2 1728 27.4 L   6.756 -73.124146.0  RSN 14 0.6 2.8LRSN                1
 GAP=162        1.45       6.6     8.8  7.9 -0.1923E+02  0.6763E+01  0.1477E+02E
 Epicentro: LOS SANTOS - SANTANDER                                             3
 ACTION:UP  11-02-18 11:07 OP:tino STATUS:               ID:20101002172827 L   I
 2010-10-02-1725-05S.COL___125                                                 6
 STAT SP IPHASW D HRMM SECON CODA AMPLIT PERI AZIMU VELO SNR AR TRES W  DIS CAZ7
 BAR2 SZ EP       1728 46.96                             172     0.010   19 200 
 BAR2 SZ I        1728 47.44       135.6 0.10                            19 200 
 BAR2 SZ ES   2   1729  1.73                             172    -0.5 5   19 200 
 BTL  SZ EP       1728 47.30                             170     0.210   24 319 
 BTL  SZ ES   1   1729  1.05                             170    -1.4 7   24 319 
 GIR2 SZ EP       1728 47.15                             165    -0.110   37 348 
 GIR2 SZ ES   1   1729  3.16                             165     0.4 7   37 348 
 URB  SZ ES   1   1729  5.82                             157     1.7 7   58 336 
 BRR  HZ EP       1728 48.81                             151     0.010   76 301 
 BRR  HN ES       1729  5.63                             151     0.110   76 301 
 BRR  HZ I        1729  8.20       117.3 0.16                            76 301 
 RUS  HZ EP       1728 50.84                             145     0.010   96 177 
 RUS  HN ES   1   1729  9.31                             145     0.2 7   96 177 
 RUS  HZ I        1729 10.89        51.1 0.43                            96 177 
 GUE  SZ EP       1728 52.02                             139    -0.510  121  10 
 GUE  SZ I        1729 12.46        11.5 0.32                           121  10 
 GRA  SZ EP       1728 52.74                             136    -0.310  130  16 
 GRA  SZ I        1729 13.54       106.1 0.53                           130  16 
 NOR  SZ EP       1729  2.84                             119    -0.2 8  234 236 
 NOR  SN ES       1729 30.22                             119    -0.7 8  234 236 
 CVER SZ EP   1   1729  7.97                             115     0.6 6  269 203 
 HEL  HZ EP   1   1729  8.85                             115     1.1 6  273 257 
 HEL  HZ I        1729 45.84        31.8 0.10                           273 257 
 RREF HZ EP       1729 13.97                             111     0.6 7  320 230 
 RREF HZ I        1729 58.25        57.6 0.46                           320 230 
 DBB  SZ EP       1729 14.68                             109    -0.5 7  342 275 
 PRA  HZ EP       1729 20.54                             107     0.0 6  389 210 
 PRA  HN ES   1   1730  2.30                             107     0.3 4  389 210 
 PRA  HZ I        1730  7.90       126.8 0.34                           389 210 
                                                                                
