 2017 11 2 1240 32.3 L   6.781 -73.167144.2  RSN  9 0.5 1.6LRSN                1
 GAP=110        1.01       4.9     4.5  7.8  0.2316E+01 -0.5804E+00  0.8288E+01E
 Epicentro: LOS SANTOS - SANTANDER                                             3
 ACTION:UPD 17-12-12 19:51 OP:rebc STATUS:               ID:20171102124032 L   I
 OLDACT:UP  17-11-02 22:29 OP:mg   STATUS:               ID:20171102123740d    3
 OLDACT:UP  17-11-02 22:29 OP:mg   STATUS:               ID:20171102123740d    3
 OLDACT:DUP 17-11-02 22:21 OP:mg   STATUS:               ID:20171102123740d    3
 OLDACT:UP  17-11-02 22:21 OP:mg   STATUS:               ID:20171102123739     3
 OLDACT:UP  17-11-02 22:20 OP:mg   STATUS:               ID:20171102123739     3
 OLDACT:UP  17-11-02 22:16 OP:mg   STATUS:               ID:20171102123739     3
 OLDACT:REG 17-11-02 20:03 OP:mg   STATUS:               ID:20171102123739     3
 2017-11-02-1238-00M.COL___438                                                 6
 STAT SP IPHASW D HRMM SECON CODA AMPLIT PERI AZIMU VELO AIN AR TRES W  DIS CAZ7
 BAR2 EZ EP     D 1240 51.61                             171   -0.1010 20.9 185 
 BAR2 EZ ES   2   1241  6.09                             171   -0.74 5 20.9 185 
 BAR2 EZ I        1241  7.89         9.9 0.18            170           20.9 185 
 BRR  HZ EP       1240 53.52                             153    0.2910 70.2 301 
 BRR  HN ES       1241 10.34                             153    0.7910 70.2 301 
 BRR  HZ I        1241 12.33        13.2 0.45            151           70.2 301 
 PAM  EZ EP       1240 54.58                             149    0.0310 80.5  40 
 PAM  EN ES       1241 11.45                             149   -0.4410 80.5  40 
 PAM  EZ I        1241 13.43        10.5 0.46            153           80.5  40 
 RUS  HZ EP       1240 55.72                             144   -0.0510 98.7 175 
 RUS  HN ES       1241 14.24                             144    0.1710 98.7 175 
 RUS  HZ I        1241 16.04         5.7 0.34            145           98.7 175 
 PTB  HZ EP   1   1240 58.48                             132   -0.42 7  145 259 
 PTB  HN ES       1241 18.92                             132   -0.72 9  145 259 
 PTB  HZ I        1241 22.78         2.3 0.20            131            145 259 
 YPLC HZ EP       1241  2.18                             126    0.25 9  176 150 
 ZAR  HZ EP   3   1241  3.24                             122   -1.27 2  203 293 
 ZAR  HN ES   1   1241 29.92                             122    0.30 6  203 293 
 ZAR  HZ I        1241 35.91         4.9 0.30            122            203 293 
 CHI  HN ES   3   1241 40.47                             117    1.72 2  246 195 
 CHI  HZ I        1241 42.76         1.7 0.33            118            246 195 
 GUY2CHZ EP   4   1241 17.21                             112    1.72 0  298 235 
 GUY2CHE ES   4   1241 53.77                             112    4.60 0  298 235 
 GUY2CHZ I        1241 58.63         1.5 0.35                           298 235 
                                                                                
