 2011  9 2 1948  4.2 L   6.766 -73.117139.2  RSN  7 0.3 1.9LRSN                1
 GAP=142        0.61       3.7     4.1  5.4  0.1300E+01  0.5044E+01  0.1463E+01E
 Epicentro: LOS SANTOS - SANTANDER                                             3
 ACTION:UPD 12-07-13 15:55 OP:ep   STATUS:               ID:20110902194804 L   I
 2011-09-02-1945-14S.COL___170                                                 6
 STAT SP IPHASW D HRMM SECON CODA AMPLIT PERI AZIMU VELO AIN AR TRES W  DIS CAZ7
 BAR2 SZ EP   1   1948 22.85                             171   -0.11 7 20.5 201 
 BAR2 SZ ES   1   1948 37.24                             171   -0.37 7 20.5 201 
 BAR2 SZ I        1948 39.85        19.5 0.31                          20.5 201 
 GIR2 SZ EP   1   1948 23.02                             165   -0.18 7 35.6 346 
 GIR2 SZ ES   1   1948 38.43                             165    0.40 7 35.6 346 
 BRR  HZ EP   1   1948 24.91                             150    0.01 7 75.8 300 
 BRR  HZ I        1948 25.24        24.6 0.11                          75.8 300 
 BRR  HE ES   1   1948 41.30                             150    0.25 7 75.8 300 
 PAM  SZ EP   1   1948 25.91                             149    0.15 7 78.4  36 
 PAM  SN ES   1   1948 42.23                             149   -0.37 7 78.4  36 
 RUS  HZ EP   1   1948 26.85                             144   -0.15 7 96.6 178 
 RUS  HE ES   1   1948 45.22                             144    0.43 7 96.6 178 
 RUS  HZ I        1948 47.48         7.3 0.41                          96.6 178 
 ZAR  HZ EP   2   1948 37.44                             120    0.78 4  208 293 
 ZAR  HN ES   1   1949  1.80                             120   -0.20 6  208 293 
 ZAR  HZ I        1949  4.19         5.6 0.16                           208 293 
 NOR  SN ES   2   1949  6.65                             117   -0.54 4  235 236 
                                                                                
