 2012 10 2 1144 49.0 L   6.773 -73.093146.0  RSN  6 0.2 2.1LRSN                1
 GAP=145        0.36       2.2     3.5  3.2 -0.5740E+00 -0.1671E+00  0.2679E+01E
 Epicentro: LOS SANTOS - SANTANDER                                             3
 ACTION:UPD 12-11-22 17:01 OP:ep   STATUS:               ID:20121002114449 L   I
 2012-10-02-1140-00M.COL___223                                                 6
 STAT SP IPHASW D HRMM SECON CODA AMPLIT PERI AZIMU VELO AIN AR TRES W  DIS CAZ7
 BAR2 SZ EP       1145  8.63                             171   -0.0510 22.3 206 
 BAR2 SZ ES   3   1145 23.35                             171   -0.64 2 22.3 206 
 BAR2 SZ I        1145 25.29        42.5 0.44                          22.3 206 
 GIR2 SZ EP       1145  8.69                             166   -0.1710 35.6 342 
 GIR2 SZ ES   1   1145 24.46                             166    0.14 7 35.6 342 
 PAM  SZ EP       1145 11.30                             151    0.0910 76.2  35 
 PAM  SZ I        1145 11.75        21.6 0.22                          76.2  35 
 PAM  SN ES   1   1145 28.54                             151    0.03 7 76.2  35 
 BRR  HZ EP       1145 10.47                             150   -0.1210 77.7 298 
 BRR  HZ I        1145 13.81        22.9 0.46                          77.7 298 
 BRR  HN ES   1   1145 27.58                             150    0.17 7 77.7 298 
 RUS  HZ EP       1145 12.63                             145    0.0410 97.4 179 
 RUS  HN ES   1   1145 30.89                             145   -0.06 7 97.4 179 
 RUS  HN I        1145 33.00        14.2 0.38                          97.4 179 
 CHI  HZ EP       1145 26.76                             117    0.15 8  247 197 
 CHI  HZ I        1145 27.52         5.2 0.28                           247 197 
                                                                                
