 2010 10 2 1525 19.6 L   6.795 -73.084142.1  RSN 16 0.5 2.9LRSN                1
 GAP=166        1.19       3.7     6.6  5.8 -0.9042E+01  0.9151E+01  0.2928E+01E
 Epicentro: LOS SANTOS - SANTANDER                                             3
 ACTION:UP  11-02-18 11:07 OP:tino STATUS:               ID:20101002152519 L   I
 2010-10-02-1522-32S.COL___124                                                 6
 STAT SP IPHASW D HRMM SECON CODA AMPLIT PERI AZIMU VELO SNR AR TRES W  DIS CAZ7
 BAR2 SZ EP       1525 38.94                             170     0.110   25 206 
 BAR2 SZ ES       1525 53.24                             170    -0.610   25 206 
 BAR2 SZ I        1525 54.93       199.2 0.08                            25 206 
 GIR2 SZ EP       1525 39.05                             166     0.210   34 339 
 GIR2 SZ ES   1   1525 53.95                             166     0.0 7   34 339 
 BRR  HZ EP       1525 40.91                             150     0.210   78 296 
 BRR  HN ES       1525 57.95                             150     0.810   78 296 
 BRR  HZ I        1525 58.85       220.5 0.03                            78 296 
 RUS  HZ EP       1525 42.93                             143     0.010  100 180 
 RUS  HN ES       1526  1.12                             143     0.010  100 180 
 RUS  HZ I        1526  2.43       106.8 0.14                           100 180 
 GUE  SZ EP       1525 43.99                             139     0.110  116   9 
 GUE  SZ I        1525 45.17        31.2 0.08                           116   9 
 GRA  SZ EP       1525 44.84                             136     0.410  124  14 
 GRA  SZ ES   1   1526  3.37                             136    -0.4 7  124  14 
 GRA  SZ I        1526  5.47        72.8 0.32                           124  14 
 OCA  SZ EP       1525 47.14                             128    -0.6 9  162 351 
 OCA  SZ ES   2   1526  8.97                             128    -0.8 5  162 351 
 OCA  SZ I        1526 13.19        66.4 0.16                           162 351 
 NOR  SZ EP       1525 54.92                             117    -0.8 8  240 236 
 CHI  HZ EP       1525 57.19                             116     0.0 8  250 197 
 CHI  HN ES   1   1526 26.42                             116    -0.2 6  250 197 
 CHI  HZ I        1526 30.56        32.3 0.59                           250 197 
 ROSC BZ EP       1525 59.02                             116     1.2 8  256 212 
 ROSC BN ES   1   1526 27.25                             116    -0.4 6  256 212 
 ROSC BZ I        1526 34.68        42.1 0.26                           256 212 
 HEL  HZ EP   1   1526  0.55                             113     0.2 6  279 256 
 HEL  HN ES   1   1526 31.36                             113    -0.8 6  279 256 
 HEL  HZ I        1526 37.68        42.0 0.34                           279 256 
 RREF HZ EP       1526  5.59                             110    -0.5 7  327 230 
 RREF HN ES       1526 42.81                             110     0.4 7  327 230 
 RREF HZ I        1526 47.92        36.0 0.36                           327 230 
 DBB  SZ EP   1   1526  7.25                             108    -0.5 5  346 274 
 TOL  SZ EP       1526  8.60                             108     0.4 6  348 226 
 ANIL HZ EP   1   1526  9.55                             107    -0.2 5  362 225 
 ANIL HZ I        1526 54.35        60.5 0.08                           362 225 
 PRA  HZ EP       1526 13.18                             106    -0.1 6  395 210 
 PRA  HN ES       1526 55.28                             106     0.0 6  395 210 
 PRA  HZ I        1526 58.47        87.3 0.13                           395 210 
                                                                                
