 2015 12 2 1049  0.3 L   6.800 -73.146143.0  RSN  5 0.5 1.9LRSN                1
 GAP=215        1.14       4.5     9.0  8.9  0.2942E+01  0.2652E+02 -0.4204E+01E
 Epicentro: LOS SANTOS - SANTANDER                                             3
 ACTION:UPD 16-02-04 15:02 OP:cam  STATUS:               ID:20151202104900 L   I
 OLDACT:DUP 15-12-02 21:52 OP:drio STATUS:               ID:20151202104749d    3
 2015-12-02-1047-48M.COL___306                                                 6
 STAT SP IPHASW D HRMM SECON CODA AMPLIT PERI AZIMU VELO AIN AR TRES W  DIS CAZ7
 BAR2 EZ EP       1049 19.78                             170    0.1410 23.4 190 
 BAR2 EZ ES       1049 35.00                             170    0.3110 23.4 190 
 BAR2 EZ I        1049 37.46         8.3 0.26            167           23.4 190 
 SPBC HZ EP       1049 28.53                             128   -0.10 9  163 219 
 SPBC HE ES       1049 49.80                             128   -0.90 9  163 219 
 SPBC HZ I        1049 56.62        10.7 0.24            128            163 219 
 ZAR  HZ EP       1049 33.36                             122    0.75 9  204 292 
 ZAR  HN ES       1049 58.11                             122    0.34 9  204 292 
 SML  HZ EP       1049 36.09                             117   -0.72 8  244 335 
 SML  HE ES       1050  4.87                             117   -0.38 8  244 335 
 SML  HZ I        1050  7.74        11.0 0.10            119            244 335 
 PRA  HZ EP       1049 54.19                             106    0.42 6  392 210 
 PRA  HN ES       1050 35.85                             106    0.40 6  392 210 
 PRA  HZ I        1050 42.38         2.6 0.24            107            392 210 
                                                                                
