 2010  5 2 1948 29.8 L   6.802 -73.085143.4  RSN 12 0.4 2.6LRSN                1
 GAP=147        0.95       4.3     7.4  6.9 -0.1777E+02 -0.1108E+02  0.9032E+01E
 Epicentro: LOS SANTOS - SANTANDER                                             3
 ACTION:UP  10-08-24 10:02 OP:vdl  STATUS:               ID:20100502194829 L   I
 2010-05-02-1945-24S.COL___105                                                 6
 STAT SP IPHASW D HRMM SECON CODA AMPLIT PERI AZIMU VELO SNR AR TRES W  DIS CAZ7
 BAR2 SZ IP       1948 49.06                             169    -0.110   26 205 
 BAR2 SZ ES   1   1949  3.87                             169    -0.4 7   26 205 
 BRR  HZ IP     C 1948 51.47                             150     0.510   77 296 
 BRR  HE ES   1   1949  8.00                             150     0.4 7   77 296 
 BRR  HZ I        1949 11.71        72.5 0.15                            77 296 
 BRI  SZ IP       1948 53.68                             142     0.410  106  17 
 BRI  SZ ES   2   1949 11.35                             142    -0.2 5  106  17 
 GUE  SZ EP   1   1948 53.81                             139    -0.3 7  115   9 
 GUE  SZ ES   2   1949 13.11                             139    -0.1 5  115   9 
 GRA  SZ IP       1948 54.89                             137     0.310  124  15 
 GRA  SZ ES   1   1949 14.55                             137     0.5 7  124  15 
 OCA  SZ IP       1948 57.51                             129    -0.5 9  161 351 
 OCA  SZ ES   1   1949 19.03                             129    -0.9 7  161 351 
 OCA  SZ I        1949 23.86        39.8 0.37                           161 351 
 CHI  HZ EP   1   1949  7.46                             116    -0.1 6  251 197 
 CHI  HE ES   1   1949 36.52                             116    -0.5 6  251 197 
 CHI  HZ I        1949 40.03        18.4 0.43                           251 197 
 ROSC BZ EP   2   1949  8.83                             116     0.7 4  256 212 
 ROSC BZ I        1949 42.98        23.9 0.49                           256 212 
 HEL  HZ EP   2   1949 10.61                             114     0.0 4  279 256 
 HEL  HN ES   2   1949 41.72                             114    -0.7 4  279 256 
 HEL  HZ I        1949 47.76        19.2 0.45                           279 256 
 SDV  BZ IP       1949 18.78                             108    -0.3 6  355  50 
 SDV  BZ I        1950  0.95        11.3 0.53                           355  50 
 ANIL BZ EP   2   1949 20.92                             108     0.9 3  362 225 
 ANIL BZ I        1950  6.38        31.6 0.25                           362 225 
 PRA  HZ EP   1   1949 23.52                             106    -0.1 4  396 210 
 PRA  HE ES   1   1950  5.78                             106     0.2 4  396 210 
 PRA  HZ I        1950 11.82        22.2 0.28                           396 210 
                                                                                
