 2011  9 2 1324 48.6 L   6.783 -73.123144.0  RSN 10 0.4 2.2LRSN                1
 GAP=185        0.70       3.3     6.2  5.5 -0.2388E+01  0.9047E+01  0.2529E+01E
 Epicentro: LOS SANTOS - SANTANDER                                             3
 ACTION:UPD 12-07-13 15:55 OP:ep   STATUS:               ID:20110902132448 L   I
 2011-09-02-1322-00S.COL___171                                                 6
 STAT SP IPHASW D HRMM SECON CODA AMPLIT PERI AZIMU VELO AIN AR TRES W  DIS CAZ7
 BAR2 SZ EP   1   1325  7.90                             171   -0.13 7 22.1 197 
 BAR2 SZ ES   1   1325 23.01                             171   -0.14 7 22.1 197 
 BAR2 SZ I        1325 24.59        61.6 0.21                          22.1 197 
 GIR2 SZ EP   1   1325  8.36                             166    0.20 7 33.6 347 
 BRR  HZ EP   1   1325  9.78                             151    0.01 7 74.3 299 
 BRR  HE ES   1   1325 26.95                             151    0.69 7 74.3 299 
 BRR  HZ I        1325 28.98        25.1 0.15                          74.3 299 
 RUS  HZ EP   1   1325 11.81                             144   -0.26 7 98.6 177 
 RUS  HN ES   1   1325 30.48                             144    0.14 7 98.6 177 
 RUS  HZ I        1325 31.32        17.6 0.78                          98.6 177 
 OCA  SZ EP   1   1325 17.29                             129    0.28 7  162 352 
 OCA  SZ ES   1   1325 38.57                             129   -0.58 7  162 352 
 OCA  SZ I        1325 42.69        15.0 0.27                           162 352 
 NOR  SZ EP   1   1325 23.79                             118   -0.57 6  236 235 
 NOR  SN ES   1   1325 51.56                             118   -0.67 6  236 235 
 CHI  HZ EP   1   1325 26.10                             117   -0.01 6  247 196 
 CHI  HZ I        1326  1.18         6.4 0.45                           247 196 
 HEL  HZ EP   1   1325 29.21                             114    0.24 6  274 256 
 HEL  HZ I        1326  6.95         8.0 0.33                           274 256 
 RREF HZ EP   2   1325 34.64                             111   -0.14 3  322 230 
 RREF HZ I        1326 19.40        10.0 0.30                           322 230 
 PRA  HZ EP   1   1325 42.79                             106    0.74 4  392 210 
 PRA  HN ES   1   1326 24.26                             106    0.55 4  392 210 
                                                                                
