 2017  7 2 1107 44.3 L   6.688 -73.112142.6  RSN  6 0.4 1.5LRSN                1
 GAP=184        0.90       7.5     5.0  7.1 -0.5293E+01  0.1488E+02  0.1489E+01E
 Epicentro: JORDAN - SANTANDER                                                 3
 ACTION:UPD 17-08-30 15:29 OP:rebc STATUS:               ID:20170702110744 L   I
 OLDACT:UP  17-07-02 22:34 OP:ar   STATUS:               ID:20170702110413d    3
 OLDACT:DUP 17-07-02 22:24 OP:ar   STATUS:               ID:20170702110413d    3
 2017-07-02-1108-00M.COL___374                                                 6
 STAT SP IPHASW D HRMM SECON CODA AMPLIT PERI AZIMU VELO AIN AR TRES W  DIS CAZ7
 BAR2 EZ EP       11 8  3.70                             174    0.3510 13.1 216 
 BAR2 EZ ES       11 8 18.47                             174    0.2410 13.1 216 
 BRR  HZ EP       11 8  5.75                             149    0.0910 80.9 305 
 BRR  HE ES       11 8 22.69                             149    0.3510 80.9 305 
 BRR  HZ I        11 8 26.59         6.0 0.14            148           80.9 305 
 PAM  EN ES       11 8 23.60                             148   -0.5010 85.3  32 
 PTB  HZ EP       11 8 10.73                             131   -0.41 9  150 264 
 PTB  HN ES       11 8 31.59                             131   -0.51 9  150 264 
 ZAR  HE ES       11 8 43.29                             121    0.09 8  212 295 
 URE  HZ EP       11 8 26.49                             112    0.38 7  292 294 
                                                                                
