 2015 10 2 1021 36.1 L   6.808 -73.156145.6  RSN 10 0.4 1.4LRSN                1
 GAP=135        0.99       3.6     4.5  6.8 -0.5404E+00  0.3005E+01 -0.1335E+01E
 Epicentro: LOS SANTOS - SANTANDER                                             3
 ACTION:UPD 15-12-22 20:36 OP:cam  STATUS:               ID:20151002102136 L   I
 OLDACT:REG 15-10-02 20:07 OP:spq  STATUS:               ID:20151002101750     3
 2015-10-02-1017-50M.COL___354                                                 6
 STAT SP IPHASW D HRMM SECON CODA AMPLIT PERI AZIMU VELO AIN AR TRES W  DIS CAZ7
 BAR2 EZ EP       1021 55.66                             170   -0.1010 24.1 187 
 BAR2 EZ ES   1   1022 10.47                             170   -0.60 7 24.1 187 
 BAR2 EZ I        1022 11.44         4.8 0.16            170           24.1 187 
 BRR  HZ EP       1021 57.53                             153    0.3510 69.8 298 
 BRR  HE ES       1022 14.34                             153    0.7410 69.8 298 
 BRR  HZ I        1022 17.99         5.3 0.46            150           69.8 298 
 PAM  EZ EP       1021 58.56                             151    0.2310 77.4  41 
 PAM  EN ES   1   1022 15.27                             151   -0.38 7 77.4  41 
 PAM  EZ I        1022 17.35         6.0 0.40            154           77.4  41 
 RUS  HZ EP   1   1022  0.13                             144    0.19 7  102 175 
 RUS  HN ES   1   1022 18.70                             144    0.19 7  102 175 
 RUS  HZ I        1022 19.97         3.0 0.32            146            102 175 
 PTB  HZ EP       1022  2.59                             132   -0.41 9  147 258 
 PTB  HN ES       1022 23.23                             132   -0.73 9  147 258 
 PTB  HZ I        1022 28.74         3.2 0.42            132            147 258 
 SPBC HZ EP       1022  4.93                             129    0.31 9  163 218 
 SPBC HE ES       1022 26.58                             129   -0.26 9  163 218 
 SPBC HZ I        1022 32.41         4.0 0.38            130            163 218 
 ZAR  HZ EP   4   1022  9.96                             123    1.54 0  203 292 
 ZAR  HE ES       1022 33.99                             123    0.38 9  203 292 
 ZAR  HZ I        1022 39.54         3.8 0.44            123            203 292 
 SML  HZ EP       1022 12.18                             118   -0.42 8  242 335 
 SML  HE ES   1   1022 40.79                             118   -0.26 6  242 335 
 SML  HZ I        1022 46.60         2.4 0.10            119            242 335 
 CHI  HE ES   1   1022 43.77                             117    0.44 6  249 195 
 CHI  HZ I        1022 44.35         0.9 0.36            119            249 195 
 GUY2CHZ EP   4   1022 21.39                             112    1.70 0  301 235 
 GUY2CHN ES   4   1022 55.29                             112    1.63 0  301 235 
 GUY2CHZ I        1023  6.31         1.2 0.76                           301 235 
                                                                                
