 2011 10 2 1026 52.8 L   6.749 -73.106147.4  RSN  8 0.3 1.7LRSN                1
 GAP=144        0.47       2.8     4.7  4.1  0.2671E+01  0.1638E+01 -0.1445E+01E
 Epicentro: LOS SANTOS - SANTANDER                                             3
 ACTION:UPD 12-07-13 16:01 OP:ep   STATUS:               ID:20111002102652 L   I
 2011-10-02-1025-25S.COL___168                                                 6
 STAT SP IPHASW D HRMM SECON CODA AMPLIT PERI AZIMU VELO AIN AR TRES W  DIS CAZ7
 BAR2 SZ EP       1027 12.61                             172    0.0310 19.3 206 
 BAR2 SZ ES   1   1027 28.16                             172    0.17 7 19.3 206 
 BAR2 SZ I        1027 29.64         9.8 0.35                          19.3 206 
 BRR  HZ EP       1027 14.64                             151    0.1010 77.8 301 
 BRR  HE ES   1   1027 31.70                             151    0.23 7 77.8 301 
 BRR  HZ I        1027 34.40        21.0 0.15                          77.8 301 
 PAM  SE ES   2   1027 32.35                             151   -0.53 5 79.3  35 
 RUS  HZ EP   1   1027 16.23                             146   -0.10 7 94.7 178 
 RUS  HN ES   1   1027 34.46                             146   -0.20 7 94.7 178 
 RUS  HZ I        1027 36.42         4.2 0.39                          94.7 178 
 OCA  SZ EP       1027 21.93                             129    0.08 9  166 352 
 ZAR  HE ES   2   1027 51.15                             122   -0.76 4  210 293 
 ZAR  HZ I        1027 56.25         7.5 0.44                           210 293 
 CHI  HZ EP   2   1027 30.00                             118   -0.16 4  244 197 
 CHI  HE ES   2   1027 59.70                             118    0.42 4  244 197 
 CHI  HZ I        1028  9.72         3.5 0.46                           244 197 
 HEL  HZ EP   2   1027 33.24                             115   -0.21 4  275 257 
 HEL  HZ I        1028 13.43         2.9 0.24                           275 257 
                                                                                
