 2014 11 2 1050 24.2 L   7.031 -73.510105.8  RSN  9 0.5 2.0LRSN                1
 GAP= 78        1.32       3.9     4.3  7.5 -0.5147E+01  0.9876E+01  0.1906E+01E
 Epicentro: SAN VICENTE DE CHUCURI - SANTANDER                                 3
 ACTION:UPD 14-12-19 15:38 OP:nd   STATUS:               ID:20141102105024 L   I
 OLDACT:REG 14-11-02 23:03 OP:carl STATUS:               ID:20141102104750     3
 2014-11-02-1047-50M.COL___277                                                 6
 STAT SP IPHASW D HRMM SECON CODA AMPLIT PERI AZIMU VELO AIN AR TRES W  DIS CAZ7
 BRR  HZ IP     D 1050 38.96                             166    0.2810 23.9 291 
 BRR  HN ES       1050 50.69                             166    0.7010 23.9 291 
 BRR  HZ I        1050 51.27        85.9 0.12            165           23.9 291 
 BAR2 SZ IP     D 1050 41.44                             148    0.6610 60.5 143 
 BAR2 SZ ES       1050 54.14                             148    0.4010 60.5 143 
 BAR2 SZ I        1050 55.64        50.9 0.22            151           60.5 143 
 PAM  SZ EP       1050 43.81                             135   -0.0210 95.8  69 
 PAM  SE ES       1050 58.87                             135   -0.2910 95.8  69 
 PAM  SZ I        1051  0.91        23.5 0.18            138           95.8  69 
 PTB  HZ EP       1050 44.64                             128   -0.5710  118 243 
 PTB  HN ES       1051  0.72                             128   -0.9010  118 243 
 PTB  HZ I        1051  5.00        22.5 0.46            129            118 243 
 RUS  HZ EP       1050 47.45                             124   -0.0310  134 159 
 RUS  HE ES       1051  5.31                             124   -0.3510  134 159 
 RUS  HZ I        1051  7.24         7.8 0.22            126            134 159 
 OCA  HZ EP       1050 46.91                             124   -0.21 9  135   9 
 OCA  HN ES       1051  4.61                             124   -0.40 9  135   9 
 OCA  HZ I        1051  8.84        19.4 0.24            126            135   9 
 SPBC HZ EP       1050 49.72                             118   -0.40 9  165 202 
 SPBC HN ES       1051  9.69                             118   -0.67 9  165 202 
 SPBC HZ I        1051 16.14        16.4 0.42            119            165 202 
 HEL  HZ EP       1050 59.90                             108    0.74 8  242 248 
 HEL  HN ES       1051 26.63                             108    0.18 8  242 248 
 HEL  HZ I        1051 32.48         5.2 0.22            109            242 248 
 GUY2CHZ EP       1051  5.55                             104    1.02 7  286 226 
 GUY2CHN ES       1051 36.57                             104    0.57 7  286 226 
 GUY2CHZ I        1051 47.31         5.3 0.56                           286 226 
 SJC  HZ EP   4   1051 12.49                              99   -1.07 0  366 330 
 SJC  HN ES   4   1051 49.26                              99   -2.82 0  366 330 
                                                                                
