 2017  8 2 1648 39.3 L   6.778 -73.156135.1  RSN  7 0.5 1.6LRSN                1
 GAP=136        1.11       4.8     4.5  7.4 -0.8916E+00  0.1092E+02  0.3158E+00E
 Epicentro: LOS SANTOS - SANTANDER                                             3
 ACTION:UPD 17-09-04 20:15 OP:rebc STATUS:               ID:20170802164839 L   I
 OLDACT:REG 17-08-02 21:40 OP:dhb  STATUS:               ID:20170802163741     3
 2017-08-02-1638-00M.COL___398                                                 6
 STAT SP IPHASW D HRMM SECON CODA AMPLIT PERI AZIMU VELO AIN AR TRES W  DIS CAZ7
 BAR2 EZ IP       1648 57.30                             171   -0.3110 20.8 188 
 BAR2 EZ ES       1649 11.38                             171   -0.5010 20.8 188 
 BAR2 EZ I        1649 15.67         8.2 0.24            171           20.8 188 
 BRR  HZ EP       1648 59.53                             151    0.2010 71.4 301 
 BRR  HN ES       1649 15.31                             151    0.3710 71.4 301 
 BRR  HZ I        1649 16.87        16.8 0.28            150           71.4 301 
 PAM  EZ IP     C 1649  0.28                             148   -0.2910 80.0  39 
 PAM  EE ES       1649 17.46                             148    0.3110 80.0  39 
 PAM  EZ I        1649 19.64         5.5 0.36            152           80.0  39 
 RUS  HZ EP       1649  1.90                             142    0.0510 98.2 175 
 RUS  HN ES       1649 19.94                             142    0.5110 98.2 175 
 RUS  HZ I        1649 20.96         4.4 0.32            145           98.2 175 
 PTB  HZ EP       1649  4.39                             130   -0.89 9  146 260 
 PTB  HN ES       1649 25.03                             130   -0.51 9  146 260 
 PTB  HZ I        1649 27.77         2.9 0.09            131            146 260 
 ZAR  HZ EP       1649 11.25                             120    0.18 9  204 293 
 ZAR  HE ES       1649 36.23                             120    0.38 9  204 293 
 ZAR  HZ I        1649 42.19         6.8 0.26            122            204 293 
 NOR  HZ EP   2   1649 15.38                             117    1.19 4  232 235 
 NOR  HN ES       1649 41.82                             117    0.43 8  232 235 
 NOR  HZ I        1649 46.23         2.3 0.13            118            232 235 
                                                                                
