 2011 12 2 1455 52.6 L   6.784 -73.111139.9  RSN  7 0.3 1.8LRSN                1
 GAP=142        0.64       3.3     4.4  5.8 -0.2430E+01  0.3284E+01  0.2307E+01E
 Epicentro: LOS SANTOS - SANTANDER                                             3
 ACTION:UPD 12-07-13 16:13 OP:ep   STATUS:               ID:20111202145552 L   I
 2011-12-02-1450-00M.COL___180                                                 6
 STAT SP IPHASW D HRMM SECON CODA AMPLIT PERI AZIMU VELO AIN AR TRES W  DIS CAZ7
 BAR2 SZ EP       1456 11.29                             170   -0.2210 22.6 201 
 BAR2 SZ ES   1   1456 25.69                             170   -0.56 7 22.6 201 
 BAR2 SZ I        1456 27.66        13.3 0.22                          22.6 201 
 GIR2 SZ EP       1456 11.40                             166   -0.2510 33.9 344 
 BRR  HZ EP       1456 13.26                             150   -0.1110 75.5 298 
 BRR  HZ I        1456 28.29        19.3 0.32                          75.5 298 
 BRR  HE ES   1   1456 30.07                             150    0.50 7 75.5 298 
 PAM  SZ EP       1456 14.27                             150    0.1410 76.4  36 
 PAM  SN ES   1   1456 31.20                             150    0.27 7 76.4  36 
 RUS  HZ EP       1456 15.77                             143    0.1410 98.6 178 
 RUS  HN ES   1   1456 33.78                             143    0.19 7 98.6 178 
 RUS  HZ I        1456 34.74         5.7 0.18                          98.6 178 
 CHI  HE ES   1   1456 59.24                             116    0.24 6  248 196 
 HEL  HE ES   1   1457  4.28                             113   -0.04 6  275 256 
 HEL  HZ I        1457 10.14         4.9 0.45                           275 256 
                                                                                
