 2011  8 2 1334 15.7 L   6.780 -73.052148.0  RSN  6 0.3 1.8LRSN                1
 GAP=246        0.58       4.6     5.5  5.8  0.6302E+00  0.4636E+01  0.1100E+02E
 Epicentro: LOS SANTOS - SANTANDER                                             3
 ACTION:UPD 12-07-25 14:05 OP:epov STATUS:               ID:20110802133416 L   I
 2011-08-02-1332-06S.COL___137                                                 6
 STAT SP IPHASW D HRMM SECON CODA AMPLIT PERI AZIMU VELO AIN AR TRES W  DIS CAZ7
 BAR2 SZ EP       1334 35.70                             170    0.0310 25.3 215 
 BAR2 SZ I        1334 35.97        10.7 0.36                          25.3 215 
 BAR2 SZ ES   1   1334 50.61                             170   -0.61 7 25.3 215 
 BRR  HZ EP       1334 37.73                             149    0.0110 81.4 296 
 BRR  HZ I        1334 45.34        12.1 0.10                          81.4 296 
 BRR  HE ES   1   1334 55.07                             149    0.20 7 81.4 296 
 RUS  HZ EP       1334 39.70                             145    0.1710 98.2 182 
 RUS  HZ I        1334 41.84         3.5 0.34                          98.2 182 
 RUS  HE ES   2   1334 58.63                             145    0.53 5 98.2 182 
 CHI  HZ EP   2   1334 53.60                             117   -0.04 4  249 198 
 RREF HN ES       1335 39.41                             111    0.04 7  328 231 
 PRA  HZ EP   1   1335  9.11                             107   -0.61 4  395 211 
 PRA  HN ES   2   1335 51.65                             107   -0.18 3  395 211 
 PRA  HZ I        1335 56.68         9.1 0.20                           395 211 
                                                                                
