 2015  2 2 1829 42.5 L   6.801 -73.185139.7  RSN  8 0.5 1.9LRSN                1
 GAP=132        1.09       3.9     5.1  7.2 -0.7859E+01  0.1732E+02 -0.5868E+01E
 Epicentro: ZAPATOCA - SANTANDER                                               3
 ACTION:UPD 15-04-30 21:20 OP:nd   STATUS:               ID:20150202182942 L   I
 OLDACT:REG 15-02-02 23:00 OP:y    STATUS:               ID:20150202182818     3
 2015-02-02-1828-18M.COL___268                                                 6
 STAT SP IPHASW D HRMM SECON CODA AMPLIT PERI AZIMU VELO AIN AR TRES W  DIS CAZ7
 BAR2 EZ EP       1830  1.63                             170    0.2110 23.1 179 
 BAR2 EZ ES       1830 16.41                             170    0.2610 23.1 179 
 BAR2 EZ I        1830 17.72        23.3 0.14            171           23.1 179 
 PAM  SZ IP     C 1830  4.54                             149    0.2710 80.1  42 
 PAM  SN ES       1830 21.53                             149    0.3110 80.1  42 
 PAM  SN I        1830 22.46        18.9 0.48            152           80.1  42 
 RUS  HZ EP       1830  5.48                             142   -0.2410  101 174 
 RUS  HN ES       1830 23.51                             142   -0.3010  101 174 
 RUS  HZ I        1830 24.71         7.4 0.54            145            101 174 
 PTB  HZ EP       1830  8.46                             131   -0.15 9  144 258 
 PTB  HN ES       1830 28.87                             131   -0.09 9  144 258 
 PTB  HZ I        1830 31.92         7.7 0.16            132            144 258 
 SPBC HZ EP       1830  9.96                             128   -0.35 9  161 218 
 SPBC HN ES       1830 31.16                             128   -0.82 9  161 218 
 SPBC HZ I        1830 37.83         9.5 0.22            130            161 218 
 NOR  HZ EP       1830 18.01                             118    0.48 8  231 234 
 NOR  HN ES       1830 45.37                             118    0.53 8  231 234 
 NOR  HZ I        1830 49.29         4.8 0.54            119            231 234 
 SML  HZ EP       1830 17.73                             116   -0.88 8  242 336 
 SML  HE ES       1830 46.58                             116   -0.18 8  242 336 
 SML  HZ I        1830 51.25        15.8 0.22            118            242 336 
 GUY2CHZ EP       1830 26.48                             111    1.02 7  298 234 
 GUY2CHN ES       1830 59.28                             111    0.32 7  298 234 
 GUY2CHZ I        1831  8.06         3.8 0.46                           298 234 
                                                                                
