 2016 11 2 1113 58.7 L   6.610 -73.330133.2  RSN 10 0.5 2.0LRSN                1
 GAP= 78        1.22       4.1     4.2  7.4 -0.2555E+00  0.9882E+01  0.5770E+01E
 Epicentro: GALAN - SANTANDER                                                  3
 ACTION:UPD 17-10-26 21:04 OP:lp   STATUS:               ID:20161102111358 L   I
 OLDACT:REG 16-11-02 20:05 OP:cog  STATUS:               ID:20161102110741     3
 2016-11-02-1108-00M.COL___340                                                 6
 STAT SP IPHASW D HRMM SECON CODA AMPLIT PERI AZIMU VELO AIN AR TRES W  DIS CAZ7
 BAR2 EZ EP       1114 16.48                             173   -0.1610 16.4  97 
 BAR2 HE ES       1114 30.42                             173   -0.2510 16.4  97 
 BAR2 EZ I        1114 31.99        25.5 0.18            173           16.4  97 
 BRR  HZ EP       1114 18.69                             151    0.3510 69.4 322 
 BRR  HN ES       1114 34.63                             151    0.9210 69.4 322 
 BRR  HZ I        1114 36.25        22.5 0.28            148           69.4 322 
 RUS  HZ EP       1114 19.67                             146   -0.3010 83.9 161 
 RUS  HN ES       1114 35.91                             146   -0.7010 83.9 161 
 RUS  HZ I        1114 38.08        13.4 0.36            141           83.9 161 
 PAM  EZ EP       1114 21.71                             139    0.0610  107  41 
 PAM  EN ES       1114 39.73                             139    0.1410  107  41 
 PAM  EZ I        1114 40.94        14.1 0.20            137            107  41 
 PTB  HZ EP       1114 21.88                             134   -0.6510  125 267 
 PTB  HE ES       1114 41.40                             134    0.2510  125 267 
 PTB  HZ I        1114 44.60        19.7 0.19            129            125 267 
 ZAR  HZ EP       1114 29.30                             121   -0.06 9  195 300 
 ZAR  HN ES       1114 52.66                             121   -0.65 9  195 300 
 ZAR  HZ I        1114 59.74        13.8 0.18            117            195 300 
 NOR  HZ EP       1114 31.12                             119    0.55 8  206 236 
 NOR  HN ES       1114 55.46                             119   -0.01 8  206 236 
 NOR  HZ I        1114 59.98        12.7 0.20            115            206 236 
 CHI  HZ EP       1114 33.10                             117    0.18 8  223 192 
 CHI  HZ I        1114 54.36         2.8 0.18            113            223 192 
 CHI  HN ES       1115  0.62                             117    0.98 8  223 192 
 HEL  HZ EP   3   1114 36.96                             114    1.44 2  248 259 
 HEL  HN ES       1115  3.67                             114   -0.61 8  248 259 
 HEL  HZ I        1115 12.61         5.8 0.26            110            248 259 
 GUY2CHZ EP   4   1114 39.96                             112    1.52 0  272 236 
 GUY2CHN ES   4   1115 12.43                             112    2.96 0  272 236 
 GUY2CHZ I        1115 20.13        10.6 0.54                           272 236 
                                                                                
