 2014  3 2 1914 57.8 L   6.734 -73.110151.9  RSN  5 0.3 1.9LRSN                1
 GAP=236        0.67       4.4     5.9  5.6  0.2970E+01  0.1370E+02  0.4292E+01E
 Epicentro: JORDAN - SANTANDER                                                 3
 ACTION:UPD 14-04-09 23:14 OP:nd   STATUS:               ID:20140302191457 L   I
 OLDACT:DUP 14-03-02 18:24 OP:cam  STATUS:               ID:20140302190818d    3
 OLDACT:UP  14-03-02 18:24 OP:cam  STATUS:               ID:20140302190817     3
 OLDACT:REG 14-03-02 16:58 OP:cam  STATUS:               ID:20140302190817     3
 2014-03-02-1908-17M.COL___237                                                 6
 STAT SP IPHASW D HRMM SECON CODA AMPLIT PERI AZIMU VELO AIN AR TRES W  DIS CAZ7
 BAR2 SZ EP       1915 17.81                             173   -0.3010 17.6 207 
 BAR2 SZ ES       1915 34.23                             173    0.3110 17.6 207 
 BAR2 SZ I        1915 34.40        19.0 0.48            162           17.6 207 
 BRR  HZ EP       1915 19.91                             151   -0.1410 78.2 302 
 BRR  HN ES       1915 37.36                             151   -0.0110 78.2 302 
 RUS  HN ES       1915 40.15                             147   -0.1410 93.1 178 
 RUS  HZ I        1915 41.87         6.2 0.26            130           93.1 178 
 SPBC HZ EP   1   1915 26.87                             131    0.34 7  160 222 
 SPBC HZ I        1915 56.63         9.5 0.36            116            160 222 
 NOR  HZ EP       1915 34.29                             120    0.46 8  234 236 
 NOR  HN ES       1916  1.62                             120   -0.29 8  234 236 
 NOR  HZ I        1916  8.47         6.6 0.22            108            234 236 
                                                                                
