 2016  1 2 1050 16.5 L   6.801 -73.145141.6  RSN 22 0.6 2.4LRSN                1
 GAP= 65        1.16       3.2     3.5  5.9 -0.2014E+01  0.5456E+01  0.3432E+01E
 Epicentro: LOS SANTOS - SANTANDER                                             3
 ACTION:UPD 16-03-09 23:22 OP:cam  STATUS:               ID:20160102105016 L   I
 OLDACT:REG 16-01-02 20:35 OP:dnl  STATUS:               ID:20160102104746     3
 2016-01-02-1047-46M.COL___316                                                 6
 STAT SP IPHASW D HRMM SECON CODA AMPLIT PERI AZIMU VELO AIN AR TRES W  DIS CAZ7
 BAR2 EZ EP     C 1050 36.02                             170    0.4110 23.5 190 
 BAR2 EZ ES       1050 50.12                             170   -0.4110 23.5 190 
 BAR2 EZ I        1050 52.27        41.5 0.17            167           23.5 190 
 BRR  HZ EP       1050 37.75                             152    0.5710 71.2 298 
 BRR  HN ES       1050 53.45                             152    0.1310 71.2 298 
 BRR  HZ I        1050 58.68        47.9 0.12            152           71.2 298 
 PAM  EZ EP       1050 38.95                             150    0.7110 77.2  40 
 PAM  EN ES       1050 55.91                             150    0.6910 77.2  40 
 PAM  EZ I        1050 58.07        22.9 0.34            156           77.2  40 
 RUS  HZ EP       1050 40.33                             143    0.5010  101 176 
 RUS  HE ES   2   1050 58.28                             143    0.23 5  101 176 
 RUS  HZ I        1050 59.79        35.6 0.22            143            101 176 
 PTB  HZ EP     C 1050 42.49                             131   -0.63 9  148 259 
 PTB  HE ES   2   1051  3.57                             131   -0.33 5  148 259 
 PTB  HZ I        1051 11.28        36.6 0.30            131            148 259 
 TAM  HZ EP   2   1050 44.24                             130    0.41 5  155 105 
 TAM  HE ES       1051  4.12                             130   -1.04 9  155 105 
 TAM  HZ I        1051  6.62        12.6 0.13            134            155 105 
 OCA  HZ EP       1050 44.17                             129   -0.29 9  160 353 
 OCA  HN ES       1051  5.86                             129   -0.42 9  160 353 
 OCA  HZ I        1051 12.90        52.4 0.23            133            160 353 
 SPBC HZ EP       1050 44.85                             128    0.17 9  163 219 
 SPBC HE ES       1051  6.05                             128   -0.62 9  163 219 
 SPBC HZ I        1051 11.32        40.0 0.12            129            163 219 
 ZAR  HZ EP   2   1050 48.60                             121   -0.06 4  204 292 
 ZAR  HN ES       1051 13.43                             121   -0.33 9  204 292 
 ZAR  HZ I        1051 19.90        41.8 0.43            123            204 292 
 NOR  HZ EP       1050 51.70                             118   -0.29 8  235 234 
 NOR  HN ES       1051 19.50                             118   -0.18 8  235 234 
 NOR  HZ I        1051 28.07        25.0 0.15            119            235 234 
 SML  HZ EP       1050 52.32                             117   -0.55 8  244 335 
 SML  HE ES   2   1051 21.60                             117    0.36 4  244 335 
 CHI  HE ES   2   1051 23.32                             116    0.11 4  249 195 
 CHI  HZ I        1051 33.56         9.3 0.21            118            249 195 
 ROSC BZ EP   2   1050 55.76                             116    1.37 4  253 211 
 ROSC BN ES       1051 24.97                             116    1.01 8  253 211 
 ROSC BZ I        1051 29.41        28.5 0.33            117            253 211 
 HEL  HZ EP   2   1050 57.65                             114    1.15 4  272 256 
 HEL  HN ES   2   1051 26.76                             114   -0.95 4  272 256 
 HEL  HZ I        1051 35.45        19.9 0.25            115            272 256 
 URE  HZ EP   4   1050 56.02                             113   -1.33 0  284 292 
 URE  HN ES   4   1051 26.39                             113   -2.84 0  284 292 
 URE  HZ I        1051 28.93        25.6 0.17            115            284 292 
 GUY2CHZ EP   4   1051  1.01                             111    1.09 0  301 235 
 GUY2CHN ES   2   1051 33.29                             111   -0.50 4  301 235 
 GUY2CHZ I        1051 44.70        19.5 0.29                           301 235 
 SOCV BZ EP   4   1050 57.78                             111   -1.54 0  301  57 
 SOCV BE ES   4   1051 28.02                             111   -4.72 0  301  57 
 PTGC HZ EP       1050 59.04                             111   -1.12 7  309 159 
 PTGC HN ES   4   1051 29.30                             111   -4.94 0  309 159 
 PTGC HZ I        1051 44.02        12.7 0.48            113            309 159 
 ELA  HZ EP   4   1051  4.63                             109    1.45 0  329 229 
 ELA  HN ES       1051 40.08                             109    0.48 7  329 229 
 ELA  HZ I        1051 49.71        11.8 0.25            111            329 229 
 CBOC HZ EP       1051  3.85                             109    0.61 7  334 252 
 CBOC HN ES   2   1051 39.05                             109   -0.66 3  334 252 
 CBOC HZ I        1051 46.62         3.9 0.40            110            334 252 
 ANIL HZ EP   4   1051  7.52                             108    1.37 0  357 225 
 ANIL HE ES   3   1051 45.82                             108    0.94 2  357 225 
 ANIL HZ I        1051 50.52        34.5 0.33            109            357 225 
 PRA  HZ EP   2   1051  9.43                             106   -0.45 3  392 210 
 PRA  HE ES   2   1051 52.17                             106    0.64 3  392 210 
 PRA  HZ I        1051 57.15        12.7 0.52            107            392 210 
 PAL  HZ EP       1051 11.70                             105    0.18 6  406 239 
 PAL  HE ES       1051 53.80                             105   -0.65 6  406 239 
 PAL  HZ I        1051 58.79         6.2 0.27            107            406 239 
                                                                                
