 2014 12 2 1721 18.7 L   6.761 -73.147146.0  RSN  6 0.3 1.9LRSN                1
 GAP=234        0.83       3.9     6.0  5.6  0.1114E+02  0.8293E+01  0.3911E+01E
 Epicentro: LOS SANTOS - SANTANDER                                             3
 ACTION:UPD 15-02-10 16:59 OP:nd   STATUS:               ID:20141202172118 L   I
 OLDACT:REG 14-12-02 21:31 OP:spq  STATUS:               ID:20141202171746     3
 2014-12-02-1717-46M.COL___306                                                 6
 STAT SP IPHASW D HRMM SECON CODA AMPLIT PERI AZIMU VELO AIN AR TRES W  DIS CAZ7
 BAR2 SZ EP   1   1721 38.27                             172   -0.06 7 19.1 192 
 BAR2 SZ ES       1721 53.30                             172   -0.3010 19.1 192 
 BAR2 SZ I        1721 54.87        23.3 0.00            165           19.1 192 
 BRR  HZ EP       1721 39.90                             152   -0.1410 73.3 302 
 BRR  HN ES       1721 57.29                             152    0.6410 73.3 302 
 BRR  HZ I        1722  0.46         9.3 1.80            149           73.3 302 
 RUS  HZ EP       1721 41.81                             145   -0.4110 96.3 176 
 RUS  HN ES       1722  0.76                             145    0.2410 96.3 176 
 RUS  HZ I        1722  1.79        11.4 0.36            143           96.3 176 
 SPBC HZ EP   1   1721 47.14                             130    0.20 7  160 220 
 SPBC HN ES       1722  8.64                             130   -0.30 9  160 220 
 SPBC HZ I        1722 15.28        15.4 0.30            128            160 220 
 ZAR  HZ EP       1721 51.59                             122    0.22 8  206 293 
 ZAR  HN ES       1722 16.37                             122   -0.44 8  206 293 
 CHI  HZ EP       1721 56.25                             118    0.24 8  244 195 
 CHI  HN ES       1722 25.33                             118    0.26 8  244 195 
 CHI  HZ I        1722 32.21         3.6 0.54            118            244 195 
                                                                                
