 2017 11 2 1725 27.2 L   6.815 -73.141148.0  RSN 11 0.5 1.8LRSN                1
 GAP=136        0.98       3.5     4.0  6.2 -0.1006E+01  0.4985E+01  0.4859E+01E
 Epicentro: LOS SANTOS - SANTANDER                                             3
 ACTION:UPD 17-12-12 19:51 OP:rebc STATUS:               ID:20171102172527 L   I
 OLDACT:UP  17-11-03 00:51 OP:mg   STATUS:               ID:20171102171746d    3
 OLDACT:DUP 17-11-03 00:45 OP:mg   STATUS:               ID:20171102171746d    3
 2017-11-02-1718-00M.COL___442                                                 6
 STAT SP IPHASW D HRMM SECON CODA AMPLIT PERI AZIMU VELO AIN AR TRES W  DIS CAZ7
 BAR2 EZ EP       1725 47.03                             170   -0.1110 25.1 191 
 BAR2 EZ ES   2   1726  2.18                             170   -0.51 5 25.1 191 
 BAR2 EZ I        1726  3.01        14.5 0.28            168           25.1 191 
 BRR  HZ EP       1725 48.86                             153    0.2810 70.9 297 
 BRR  HN ES       1726  5.94                             153    0.6910 70.9 297 
 BRR  HZ I        1726  9.08        17.6 0.40            151           70.9 297 
 PAM  EZ EP       1725 49.74                             152    0.1810 75.7  40 
 PAM  EN ES       1726  6.86                             152   -0.1410 75.7  40 
 PAM  EZ I        1726  9.00        11.6 0.48            157           75.7  40 
 RUS  HZ EP       1725 51.04                             144   -0.2610  102 176 
 RUS  HN ES       1726 10.31                             144    0.2310  102 176 
 RUS  HZ I        1726 11.35        13.2 0.32            145            102 176 
 PTB  HZ EP       1725 53.84                             133   -0.60 9  149 258 
 PTB  HN ES       1726 14.82                             133   -0.85 9  149 258 
 PTB  HZ I        1726 20.67         5.1 0.27            132            149 258 
 SPBC HZ EP   2   1725 56.34                             129    0.31 5  165 219 
 SPBC HN ES       1726 18.66                             129    0.14 9  165 219 
 SPBC HZ I        1726 23.02         8.1 0.09            130            165 219 
 ZAR  HZ EP       1726  0.09                             123    0.30 9  204 292 
 ZAR  HN ES       1726 24.95                             123   -0.25 9  204 292 
 ZAR  HZ I        1726 31.21         9.0 0.16            123            204 292 
 NOR  HZ EP       1726  3.32                             119    0.10 8  236 234 
 NOR  HN ES       1726 31.87                             119    0.56 8  236 234 
 NOR  HZ I        1726 36.85         3.9 0.19            119            236 234 
 CHI  HZ EP       1726  4.42                             118   -0.80 8  250 195 
 CHI  HN ES       1726 34.98                             118    0.11 8  250 195 
 CHI  HZ I        1726 39.10         2.7 0.38            119            250 195 
 GUY2CHZ EP   3   1726 12.26                             113    1.18 2  303 235 
 GUY2CHN ES   3   1726 47.29                             113    1.99 2  303 235 
 GUY2CHZ I        1726 54.14         2.2 0.32                           303 235 
 PRA  HZ EP   1   1726 21.57                             107    0.56 4  394 210 
 PRA  HN ES   2   1727  3.98                             107    1.01 3  394 210 
 PRA  HZ I        1727  9.41         3.4 0.28            108            394 210 
                                                                                
