 2017  9 2 1946  8.6 L   6.860 -73.297147.3  RSN  5 0.3 1.5LRSN                1
 GAP=110        0.68       3.7     5.3  5.5 -0.5156E+00 -0.1336E+01  0.1304E+01E
 Epicentro: BETULIA - SANTANDER                                                3
 ACTION:UPD 17-10-05 19:08 OP:rebc STATUS:               ID:20170902194608 L   I
 OLDACT:REG 17-09-02 21:16 OP:dhb  STATUS:               ID:20170902193741     3
 2017-09-02-1938-00M.COL___414                                                 6
 STAT SP IPHASW D HRMM SECON CODA AMPLIT PERI AZIMU VELO AIN AR TRES W  DIS CAZ7
 BAR2 EZ EP       1946 28.87                             167    0.2610 32.2 157 
 BAR2 EZ ES       1946 44.62                             167    0.3910 32.2 157 
 BAR2 EZ I        1946 45.93         4.0 0.17            169           32.2 157 
 BRR  HZ EP       1946 28.88                             159   -0.1310 53.4 301 
 BRR  HN ES       1946 44.81                             159   -0.1310 53.4 301 
 BRR  HZ I        1946 49.51         9.5 0.16            156           53.4 301 
 PAM  EZ EP       1946 31.30                             149   -0.1110 84.7  51 
 PAM  EE ES       1946 49.28                             149    0.0710 84.7  51 
 PAM  EZ I        1946 50.15         3.3 0.23            153           84.7  51 
 RUS  HZ EP       1946 33.22                             142    0.0710  110 168 
 RUS  HN ES       1946 51.82                             142   -0.4910  110 168 
 RUS  HZ I        1946 52.88         3.3 0.18            145            110 168 
 SPBC HN ES   3   1946 59.49                             130    0.71 2  159 213 
 SPBC HZ I        1947  1.68         5.8 0.07            131            159 213 
                                                                                
