 2011 10 2 1105 41.8 L   6.767 -73.164143.4  RSN  5 0.4 1.5LRSN                1
 GAP=233        0.73       6.5     8.7  7.1  0.3916E+02  0.1101E+02  0.1016E+02E
 Epicentro: LOS SANTOS - SANTANDER                                             3
 ACTION:UPD 12-07-13 16:01 OP:ep   STATUS:               ID:20111002110541 L   I
 2011-10-02-1102-08S.COL___168                                                 6
 STAT SP IPHASW D HRMM SECON CODA AMPLIT PERI AZIMU VELO AIN AR TRES W  DIS CAZ7
 BAR2 SZ EP       11 6  1.04                             172   -0.0610 19.4 186 
 BAR2 SZ ES   1   11 6 16.09                             172   -0.03 7 19.4 186 
 BAR2 SZ I        11 6 17.65         9.8 0.15                          19.4 186 
 BRR  HZ EP       11 6  2.95                             152    0.2310 71.3 302 
 BRR  HZ I        11 6 11.23         7.8 0.34                          71.3 302 
 BRR  HN ES   1   11 6 19.56                             152    0.54 7 71.3 302 
 RUS  HZ EP       11 6  4.93                             144   -0.1610 97.1 175 
 RUS  HZ I        11 6  6.00         3.0 0.15                          97.1 175 
 RUS  HE ES   1   11 6 22.83                             144   -0.41 7 97.1 175 
 ZAR  HN ES   1   11 6 38.56                             122   -0.66 6  204 293 
 ZAR  HZ I        11 6 45.45         3.4 0.34                           204 293 
 CHI  HZ EP   1   11 6 19.19                             117    0.24 6  245 195 
 CHI  HZ I        11 6 19.91         1.8 0.20                           245 195 
 CHI  HN ES   2   11 6 48.67                             117    0.77 4  245 195 
                                                                                
