 2015  8 2 1802 56.6 L   6.747 -73.128135.0  RSN  4 0.4 1.3LRSN                1
 GAP=141        0.95       6.6    10.9  9.2  0.3659E+02 -0.4443E+02 -0.2143E+02E
 Epicentro: LOS SANTOS - SANTANDER                                             3
 ACTION:UPD 15-09-15 22:59 OP:cam  STATUS:               ID:20150802180256 L   I
 OLDACT:DUP 15-08-02 23:55 OP:stll STATUS:               ID:20150802175752d    3
 2015-08-02-1757-51M.COL___349                                                 6
 STAT SP IPHASW D HRMM SECON CODA AMPLIT PERI AZIMU VELO AIN AR TRES W  DIS CAZ7
 BAR2 EZ EP       18 3 14.76                             172   -0.0710 18.2 199 
 BAR2 EZ ES       18 3 29.57                             172    0.5110 18.2 199 
 BAR2 EZ I        18 3 30.82         4.8 0.40            169           18.2 199 
 BRR  HZ EP       18 3 16.90                             149    0.0210 75.8 302 
 BRR  HN ES       18 3 32.52                             149   -0.1810 75.8 302 
 BRR  HZ I        18 3 38.29         5.4 0.12            148           75.8 302 
 PAM  EZ EP       18 3 17.66                             148   -0.2310 80.8  36 
 PAM  EZ I        18 3 18.00         6.5 0.24            153           80.8  36 
 RUS  HZ EP       18 3 19.35                             143    0.4910 94.7 177 
 RUS  HE ES       18 3 35.68                             143   -0.5510 94.7 177 
 RUS  HZ I        18 3 40.03         1.8 0.40            145           94.7 177 
                                                                                
