 2014  3 2 1402 33.4 L   7.457 -73.414109.0  RSN 16 0.5 2.4LRSN                1
 GAP= 66        1.08       2.7     5.1  7.7  0.6303E+00  0.2327E+02  0.1806E+01E
 Epicentro: SABANA DE TORRES - SANTANDER                                       3
 ACTION:UPD 14-04-09 23:14 OP:nd   STATUS:               ID:20140302140233 L   I
 OLDACT:UP  14-03-02 17:55 OP:cam  STATUS:               ID:20140302135819     3
 OLDACT:REG 14-03-02 16:49 OP:cam  STATUS:               ID:20140302135819     3
 2014-03-02-1358-19M.COL___235                                                 6
 STAT SP IPHASW D HRMM SECON CODA AMPLIT PERI AZIMU VELO AIN AR TRES W  DIS CAZ7
 PAM  SZ EP       14 2 52.23                             141    0.2010 79.9  99 
 PAM  SN ES       14 3  6.86                             141    0.2810 79.9  99 
 PAM  SZ I        14 3  7.82        49.3 0.16            146           79.9  99 
 OCA  HZ EP     C 14 2 52.28                             138    0.1510 87.1   7 
 OCA  HN ES       14 3  7.40                             138    0.6510 87.1   7 
 OCA  HZ I        14 3 11.34        57.0 0.26            137           87.1   7 
 BAR2 SZ IP     D 14 2 52.98                             134   -0.2610 99.0 165 
 BAR2 SZ ES       14 3  7.95                             134   -0.7810 99.0 165 
 BAR2 SZ I        14 3  9.27       239.0 0.44            133           99.0 165 
 PTB  HZ EP       14 2 57.57                             121   -0.66 9  153 229 
 PTB  HN ES   4   14 3 16.53                             121   -1.08 0  153 229 
 PTB  HZ I        14 3 19.56        30.8 0.38            117            153 229 
 ZAR  HZ EP       14 2 59.52                             120    0.68 9  159 272 
 ZAR  HN ES   4   14 3 20.69                             120    1.98 0  159 272 
 SML  HZ EP       14 2 59.07                             119   -0.39 9  165 334 
 SML  HE ES       14 3 19.06                             119   -0.74 9  165 334 
 SML  HZ I        14 3 23.15        50.4 0.10            116            165 334 
 RUS  HZ EP   4   14 3  0.14                             117   -1.19 0  177 168 
 RUS  HN ES   4   14 3 21.66                             117   -1.48 0  177 168 
 RUS  HZ I        14 3 22.92         9.0 0.20            116            177 168 
 SPBC HZ EP   1   14 3  4.46                             112   -0.32 6  212 200 
 SPBC HN ES       14 3 29.77                             112    0.50 8  212 200 
 SPBC HZ I        14 3 37.14        33.9 0.24            110            212 200 
 URE  HZ EP   4   14 3  6.15                             109   -1.23 0  236 278 
 URE  HN ES   4   14 3 32.91                             109   -0.99 0  236 278 
 URE  HZ I    4   14 3 34.75        28.4 0.16            107            236 278 
 NOR  HZ EP       14 3 11.03                             107    0.35 8  264 218 
 NOR  HN ES   4   14 3 39.18                             107   -0.59 0  264 218 
 NOR  HZ I        14 3 46.58        22.3 0.36            106            264 218 
 HEL  HZ EP       14 3 12.17                             106    0.12 8  272 239 
 HEL  HZ I        14 3 54.56         9.0 0.22            105            272 239 
 COD  HZ EP   1   14 3 11.95                             106    0.17 6  274 359 
 COD  HN ES   1   14 3 41.64                             106   -0.09 6  274 359 
 COD  HZ I        14 3 48.38         5.5 0.56            106            274 359 
 CHI  HZ EP       14 3 17.46                             103    0.38 7  315 186 
 GUY2CHZ EP   4 C 14 3 20.41                             102    1.67 0  328 221 
 GUY2CHZ I        14 4  4.65        12.2 0.62                           328 221 
 SJC  HZ EP       14 3 18.50                             102   -0.27 7  333 324 
 CBOC HZ EP       14 3 19.88                             102    0.44 7  337 239 
 SDV  BZ EP       14 3 20.18                             101   -0.24 7  345  63 
 SDV  BN ES   4   14 3 54.83                             101   -2.28 0  345  63 
 SDV  BZ I        14 3 57.40        10.8 0.45            103            345  63 
 ORTC HZ EP   4   14 3 33.37                              97    1.49 0  442 207 
                                                                                
