 2010  5 2 1838  1.1 L   6.763 -72.997147.3  RSN  4 0.4 2.0LRSN                1
 GAP=216        0.64      16.1    12.8 12.6 -0.1502E+03 -0.1043E+03  0.9964E+02E
 Epicentro: CEPITA - SANTANDER                                                 3
 ACTION:UP  10-08-24 10:02 OP:vdl  STATUS:               ID:20100502183801 L   I
 2010-05-02-1835-03S.COL___105                                                 6
 STAT SP IPHASW D HRMM SECON CODA AMPLIT PERI AZIMU VELO SNR AR TRES W  DIS CAZ7
 BAR2 SZ EP   3   1838 20.53                             169    -0.5 2   28 227 
 BAR2 SZ ES   3   1838 36.58                             169     0.1 2   28 227 
 BRR  HZ IP     C 1838 23.31                             148    -0.110   88 296 
 BRR  HZ I        1838 23.55        16.4 0.16                            88 296 
 BRR  HE ES   1   1838 40.85                             148     0.1 7   88 296 
 BRI  SZ IP       1838 25.40                             142     0.410  108  12 
 BRI  SZ ES   2   1838 43.41                             142    -0.3 5  108  12 
 GUE  SZ EP   2   1838 25.26                             139    -0.8 5  118   4 
                                                                                
