 2017  5 2 1434 40.6 L   6.730 -73.139146.4  RSN  5 0.5 1.8LRSN                1
 GAP=140        1.15       7.0     5.9  9.9 -0.1237E+02  0.4293E+01  0.2358E+02E
 Epicentro: JORDAN - SANTANDER                                                 3
 ACTION:UPD 17-06-16 13:32 OP:jn   STATUS:               ID:20170502143440 L   I
 OLDACT:UP  17-05-05 20:15 OP:nlst STATUS:               ID:20170502143440 L   3
 OLDACT:REG 17-05-02 20:41 OP:ar   STATUS:               ID:20170502142740     3
 2017-05-02-1428-00M.COL___377                                                 6
 STAT SP IPHASW D HRMM SECON CODA AMPLIT PERI AZIMU VELO AIN AR TRES W  DIS CAZ7
 BRR  HZ EP       1435  2.09                             151    0.0310 75.8 303 
 BRR  HE ES       1435 19.51                             151    0.6910 75.8 303 
 BRR  HZ I        1435 22.57        12.4 0.16            151           75.8 303 
 PAM  EZ EP       1435  3.21                             149   -0.0010 83.1  36 
 PAM  EE ES       1435 20.67                             149   -0.1910 83.1  36 
 PAM  EZ I        1435 22.39        15.5 0.44            154           83.1  36 
 RUS  HZ EP       1435  3.72                             146   -0.1310 92.8 176 
 RUS  HN ES   1   1435 22.04                             146    0.04 7 92.8 176 
 RUS  HZ I        1435 23.73         7.6 0.34            149           92.8 176 
 PTB  HZ EP     D 1435  7.01                             132   -0.54 9  147 262 
 PTB  HN ES       1435 27.85                             132   -0.73 9  147 262 
 PTB  HZ I        1435 33.74         6.7 0.64            133            147 262 
 NOR  HZ EP       1435 16.90                             119    0.96 8  231 236 
 NOR  HE ES   1   1435 43.68                             119    0.16 6  231 236 
 NOR  HZ I        1435 47.67         3.4 0.12            121            231 236 
                                                                                
