 2016 10 2 1805 39.1 L   6.786 -73.119152.3  RSN  6 0.3 1.4LRSN                1
 GAP=141        0.72       3.9     5.1  5.1 -0.1642E+01  0.6777E+01  0.2622E+01E
 Epicentro: LOS SANTOS - SANTANDER                                             3
 ACTION:UPD 16-11-09 19:15 OP:rebc STATUS:               ID:20161002180539 L   I
 OLDACT:UP  16-10-03 01:33 OP:dani STATUS:               ID:20161002175743     3
 OLDACT:UP  16-10-03 01:29 OP:dani STATUS:               ID:20161002175743     3
 OLDACT:UP  16-10-03 01:28 OP:dani STATUS:               ID:20161002175743     3
 OLDACT:REG 16-10-02 21:18 OP:dani STATUS:               ID:20161002175743     3
 2016-10-02-1758-00M.COL___369                                                 6
 STAT SP IPHASW D HRMM SECON CODA AMPLIT PERI AZIMU VELO AIN AR TRES W  DIS CAZ7
 BAR2 EZ ES       18 6 15.42                             171    0.0310 22.6 198 
 BAR2 EZ I        18 6 16.72         5.6 0.12            165           22.6 198 
 BRR  HZ EP       18 6  1.21                             152    0.0910 74.5 298 
 BRR  HN ES       18 6 18.59                             152    0.2810 74.5 298 
 BRR  HZ I        18 6 21.75         5.5 0.37            145           74.5 298 
 PAM  EZ EP       18 6  2.12                             152    0.1610 76.8  37 
 PAM  EE ES       18 6 19.49                             152   -0.3110 76.8  37 
 PAM  EZ I        18 6 22.17         2.3 0.44            150           76.8  37 
 RUS  HZ EP       18 6  3.74                             146    0.3810 98.9 178 
 RUS  HE ES       18 6 22.14                             146   -0.1610 98.9 178 
 RUS  HZ I        18 6 22.88         2.0 0.23            138           98.9 178 
 PTB  HZ EP       18 6  6.30                             133   -0.52 9  150 260 
 PTB  HN ES   4   18 6 25.71                             133   -2.74 0  150 260 
 PTB  HZ I        18 6 29.98         3.0 0.13            124            150 260 
 SPBC HZ EP       18 6  8.13                             130   -0.02 9  164 220 
 SPBC HZ I        18 6 32.37         6.3 0.11            122            164 220 
                                                                                
