 2013  3 2 1547 42.8 L   7.218 -73.107148.5  RSN  9 0.4 2.2LRSN                1
 GAP=106        0.68       2.8     4.1  5.5  0.1744E+01  0.4435E+01  0.2067E+01E
 Epicentro: RIONEGRO - SANTANDER                                               3
 ACTION:UPD 13-04-09 13:59 OP:ep   STATUS:               ID:20130302154742 L   I
 2013-03-02-1540-00M.COL___228                                                 6
 STAT SP IPHASW D HRMM SECON CODA AMPLIT PERI AZIMU VELO AIN AR TRES W  DIS CAZ7
 PAM  SZ EP   1   1548  3.81                             162   -0.03 7 46.9  73 
 PAM  SE ES   1   1548 20.10                             162   -0.14 7 46.9  73 
 PAM  SZ I        1548 21.11        22.3 0.26            167           46.9  73 
 BRR  HZ EP   1   1548  4.19                             154    0.10 7 67.9 260 
 BRR  HE ES   1   1548 20.73                             154    0.05 7 67.9 260 
 BRR  HZ I        1548 23.77        18.6 0.12            152           67.9 260 
 BAR2 SZ EP   1   1548  4.48                             154   -0.05 7 69.7 187 
 BAR2 SZ ES   1   1548 21.65                             154    0.19 7 69.7 187 
 BAR2 SZ I        1548 22.28        89.1 0.26            154           69.7 187 
 OCA  HN ES   1   1548 27.20                             140    0.51 7  115 348 
 RUS  HZ EP   1   1548 11.04                             133    0.49 7  147 179 
 RUS  HN ES   1   1548 31.48                             133   -0.70 7  147 179 
 RUS  HZ I        1548 33.81         8.2 0.56            135            147 179 
 PTB  HZ EP   1   1548 11.31                             129   -0.47 7  167 243 
 PTB  HN ES   1   1548 34.22                             129   -0.16 7  167 243 
 PTB  HZ I        1548 39.74        13.9 0.12            129            167 243 
 ZAR  HE ES   1   1548 39.74                             124    0.36 6  196 279 
 SML  HZ EP   1   1548 15.37                             123   -0.13 6  205 329 
 SML  HN ES   1   1548 40.40                             123   -0.60 6  205 329 
 SML  HZ I        1548 44.18        28.3 0.10            124            205 329 
 CHI  HZ EP   1   1548 25.92                             113    0.21 5  294 194 
 CHI  HN ES   1   1548 59.65                             113    0.47 5  294 194 
                                                                                
