 2017  2 2 1834 24.5 L   6.775 -73.120148.5  RSN 18 0.5 2.5LRSN                1
 GAP= 97        1.07       3.3     2.9  5.2  0.1045E+01  0.3902E+01  0.4220E+01E
 Epicentro: LOS SANTOS - SANTANDER                                             3
 ACTION:UPD 17-05-24 15:32 OP:jn   STATUS:               ID:20170202183424 L   I
 OLDACT:REG 17-02-02 20:46 OP:dnl  STATUS:               ID:20170202182750     3
 2017-02-02-1828-00M.COL___337                                                 6
 STAT SP IPHASW D HRMM SECON CODA AMPLIT PERI AZIMU VELO AIN AR TRES W  DIS CAZ7
 BAR2 EZ IP     C 1834 44.44                             172    0.0610 21.3 199 
 BAR2 EZ ES       1834 59.45                             172   -0.4710 21.3 199 
 BAR2 EZ I        1835  2.48        77.7 0.31            167           21.3 199 
 BRR  HZ EP       1834 46.44                             152    0.3210 75.0 299 
 BRR  HN ES       1835  3.85                             152    0.8310 75.0 299 
 BRR  HZ I        1835  8.14        53.0 0.22            150           75.0 299 
 PAM  EZ EP       1834 47.19                             151    0.1910 77.9  37 
 PAM  EN ES       1835  4.59                             151    0.0110 77.9  37 
 PAM  EZ I        1835  7.03        57.6 0.67            157           77.9  37 
 RUS  HZ EP       1834 48.38                             145    0.1110 97.6 178 
 RUS  HN ES       1835  7.14                             145    0.2910 97.6 178 
 RUS  HZ I        1835  8.27        30.5 0.35            145           97.6 178 
 PTB  HZ EP       1834 51.45                             132   -0.40 9  150 260 
 PTB  HN ES       1835 12.40                             132   -0.82 9  150 260 
 PTB  HZ I        1835 15.42        38.2 0.16            131            150 260 
 TAM  HZ EP       1834 52.66                             132    0.62 9  152 104 
 TAM  HN ES       1835 12.95                             132   -0.61 9  152 104 
 TAM  HZ I        1835 13.46        23.0 0.32            136            152 104 
 ZAR  HZ EP       1834 57.42                             122   -0.04 8  208 293 
 ZAR  HN ES       1835 23.14                             122   -0.06 8  208 293 
 ZAR  HZ I        1835 28.82        46.8 0.26            123            208 293 
 NOR  HZ EP       1835  0.34                             119   -0.08 8  235 235 
 NOR  HE ES       1835 28.78                             119    0.31 8  235 235 
 NOR  HZ I        1835 32.12        39.3 0.28            119            235 235 
 CHI  HZ EP       1835  2.51                             118    0.41 8  247 196 
 CHI  HN ES       1835 31.89                             118    0.43 8  247 196 
 CHI  HZ I        1835 37.38        13.3 0.38            119            247 196 
 ROSC BZ EP   4   1835  4.52                             117    1.89 0  252 212 
 ROSC BN ES       1835 32.43                             117    0.03 8  252 212 
 ROSC BZ I        1835 42.18        42.0 0.41            118            252 212 
 URE  HZ EP       1835  5.31                             114   -0.76 7  287 292 
 URE  HN ES   4   1835 35.88                             114   -2.65 0  287 292 
 URE  HZ I        1835 46.91        18.9 0.32            115            287 292 
 PTGC HZ EP       1835  7.32                             112   -0.71 7  305 159 
 PTGC HN ES       1835 41.26                             112   -0.75 7  305 159 
 ELA  HZ EP   4   1835 14.25                             111    2.79 0  329 230 
 ELA  HN ES       1835 48.05                             111   -0.08 7  329 230 
 ELA  HZ I        1836  4.24        18.6 0.24            111            329 230 
 CBOC HZ EP   4   1835 12.99                             110    1.29 0  335 253 
 CBOC HN ES   4   1835 45.56                             110   -2.98 0  335 253 
 CBOC HZ I        1835 52.59         8.3 0.22            111            335 253 
 DBB  EZ EP       1835 12.49                             110    0.10 7  342 275 
 DBB  EN ES       1835 49.29                             110   -0.49 7  342 275 
 DBB  EZ I        1835 54.14         8.3 0.16            111            342 275 
 ORTC HZ EP       1835 19.28                             107    0.88 6  395 217 
 ORTC HN ES   4   1836  2.00                             107    1.52 0  395 217 
 ORTC HZ I        1836  7.44        13.8 0.31            108            395 217 
 PAL  HZ EP       1835 20.26                             106    0.44 6  407 240 
 PAL  HN ES   4   1835 59.07                             106   -3.94 0  407 240 
 PAL  HZ I        1836  9.26         9.1 0.38            107            407 240 
 SJC  HZ EP   4   1835 18.18                             106   -2.39 0  413 327 
 SJC  HN ES   4   1835 56.72                             106   -7.61 0  413 327 
 SJC  HZ I        1836  1.46         8.1 0.09            107            413 327 
                                                                                
