 2017 11 2 1952 32.1 L   6.831 -73.167146.4  RSN  9 0.5 1.8LRSN                1
 GAP=109        1.17       4.1     4.4  6.5  0.4454E+01  0.4555E+01 -0.3308E+00E
 Epicentro: LOS SANTOS - SANTANDER                                             3
 ACTION:UPD 17-12-12 19:51 OP:rebc STATUS:               ID:20171102195232 L   I
 OLDACT:REG 17-11-02 21:05 OP:mg   STATUS:               ID:20171102194740     3
 2017-11-02-1948-00M.COL___444                                                 6
 STAT SP IPHASW D HRMM SECON CODA AMPLIT PERI AZIMU VELO AIN AR TRES W  DIS CAZ7
 BAR2 EZ ES       1953  7.38                             169    0.1310 26.5 184 
 BRR  HE ES       1953  8.75                             154   -0.7110 67.5 297 
 PAM  EZ EP       1952 54.74                             151    0.4710 76.3  43 
 PAM  EN ES       1953 12.10                             151    0.5010 76.3  43 
 PAM  EZ I        1953 14.18         9.1 0.50            156           76.3  43 
 RUS  HZ EP       1952 55.90                             143   -0.2310  104 175 
 RUS  HN ES       1953 14.44                             143   -0.4710  104 175 
 RUS  HZ I        1953 17.71         5.0 0.22            143            104 175 
 PTB  HZ EP       1952 58.69                             133   -0.24 9  146 257 
 PTB  HN ES       1953 19.75                             133   -0.15 9  146 257 
 PTB  HZ I        1953 27.24        11.0 0.40            132            146 257 
 SPBC HZ EP       1953  0.97                             129    0.25 9  164 218 
 SPBC HN ES       1953 23.36                             129    0.27 9  164 218 
 SPBC HZ I        1953 29.53        11.1 0.19            129            164 218 
 YPLC HZ EP       1953  2.24                             126   -0.06 9  181 151 
 YPLC HE ES       1953 25.82                             126   -0.08 9  181 151 
 YPLC HZ I        1953 32.85         5.8 0.30            128            181 151 
 ZAR  HZ EP       1953  4.55                             123    0.36 9  201 291 
 ZAR  HE ES       1953 30.23                             123    0.98 9  201 291 
 ZAR  HZ I        1953 40.27         9.1 0.31            124            201 291 
 SJC  HZ EP       1953 26.32                             106   -0.83 6  405 327 
 SJC  HE ES       1954  8.88                             106   -1.24 6  405 327 
                                                                                
