 2012  9 2 1404 12.1 L   6.810 -73.112148.0  RSN  9 0.3 2.0LRSN                1
 GAP=140        0.64       2.9     4.0  5.0  0.1981E+01  0.8593E+01  0.4000E+01E
 Epicentro: LOS SANTOS - SANTANDER                                             3
 ACTION:UPD 12-10-22 14:16 OP:ep   STATUS:               ID:20120902140412 L   I
 2012-09-02-1400-00M.COL___218                                                 6
 STAT SP IPHASW D HRMM SECON CODA AMPLIT PERI AZIMU VELO AIN AR TRES W  DIS CAZ7
 BAR2 SZ EP       14 4 32.14                             170    0.1210 25.3 198 
 BAR2 SZ I        14 4 32.46        41.2 0.10                          25.3 198 
 BAR2 SZ ES   1   14 4 47.46                             170   -0.11 7 25.3 198 
 GIR2 SZ EP       14 4 32.14                             168    0.1310 31.0 343 
 GIR2 SZ ES   2   14 4 47.58                             168    0.02 5 31.0 343 
 BRR  HZ EP       14 4 33.94                             152    0.3110 74.0 296 
 BRR  HZ I        14 4 34.20        41.7 0.17                          74.0 296 
 BRR  HE ES   1   14 4 50.85                             152    0.42 7 74.0 296 
 PAM  SN ES   1   14 4 51.83                             152    0.11 7 74.2  38 
 RUS  HZ EP       14 4 36.25                             144    0.1310  102 178 
 RUS  HN ES   1   14 4 54.47                             144   -0.40 7  102 178 
 RUS  HZ I        14 4 56.36         8.8 0.29                           102 178 
 OCA  HN ES   1   14 5  1.87                             130   -0.81 7  160 352 
 ZAR  HZ EP   1   14 4 44.96                             122   -0.02 6  207 291 
 ZAR  HN ES   1   14 5 10.22                             122   -0.42 6  207 291 
 ZAR  HZ I        14 5 15.83        12.5 0.26                           207 291 
 CHI  HZ EP   1   14 4 49.67                             117   -0.46 6  251 196 
 CHI  HN ES   1   14 5 19.56                             117   -0.24 6  251 196 
 CHI  HZ I        14 5 22.56         3.6 0.37                           251 196 
 HEL  HZ EP       14 4 52.97                             115    0.14 7  276 256 
 HEL  HN ES   1   14 5 24.70                             115    0.08 6  276 256 
 HEL  HZ I        14 5 30.45         5.2 0.31                           276 256 
                                                                                
