 2012  8 2 1612  3.4 L   6.769 -73.148141.4  RSN  6 0.3 1.7LRSN                1
 GAP=138        0.68       4.1     3.9  6.2  0.2184E+01  0.6046E+01  0.1174E+01E
 Epicentro: LOS SANTOS - SANTANDER                                             3
 ACTION:UPD 12-09-10 11:53 OP:ep   STATUS:               ID:20120802161203 L   I
 2012-08-02-1610-00M.COL___215                                                 6
 STAT SP IPHASW D HRMM SECON CODA AMPLIT PERI AZIMU VELO AIN AR TRES W  DIS CAZ7
 BAR2 SZ EP       1612 22.49                             172    0.0910 19.9 191 
 BAR2 SZ I        1612 22.62         9.6 0.18                          19.9 191 
 BAR2 SZ ES   2   1612 37.05                             172   -0.20 5 19.9 191 
 BRR  HZ EP       1612 24.30                             151    0.1810 72.7 301 
 BRR  HZ I        1612 28.08        14.9 0.10                          72.7 301 
 BRR  HN ES   1   1612 40.74                             151    0.42 7 72.7 301 
 PAM  SZ EP       1612 25.42                             149    0.1310 80.3  38 
 PAM  SZ I        1612 25.65        11.0 0.18                          80.3  38 
 PAM  SN ES   1   1612 41.86                             149   -0.54 7 80.3  38 
 RUS  HZ EP       1612 26.54                             144    0.1010 97.1 176 
 RUS  HN ES   1   1612 44.56                             144    0.13 7 97.1 176 
 RUS  HZ I        1612 46.88         6.2 0.34                          97.1 176 
 PTB  HZ EP       1612 29.47                             131   -0.42 9  147 260 
 PTB  HN ES   2   1612 49.72                             131   -0.86 5  147 260 
 PTB  HZ I        1612 53.44         4.5 0.46                           147 260 
 ZAR  HZ EP   1   1612 35.58                             121   -0.06 6  205 293 
 ZAR  HN ES   1   1613  1.11                             121    0.30 6  205 293 
 ZAR  HZ I        1613  7.53         8.8 0.37                           205 293 
                                                                                
