 2010 11 2 1228 58.8 L   6.785 -73.157152.6  RSN  5 0.2 1.7LRSN                1
 GAP=158        0.43       3.3     5.9  5.5  0.1517E+00 -0.1332E+02 -0.3214E+01E
 Epicentro: LOS SANTOS - SANTANDER                                             3
 ACTION:UP  10-12-17 16:49 OP:REBC STATUS:               ID:20101102122858 L   I
 2010-11-02-1224-46S.COL___126                                                 6
 STAT SP IPHASW D HRMM SECON CODA AMPLIT PERI AZIMU VELO SNR AR TRES W  DIS CAZ7
 BAR2 SZ ES   2   1229 35.00                             172    -0.2 5   22 188 
 BAR2 SZ I        1229 36.67        10.0 0.35                            22 188 
 BRR  HZ EP       1229 20.75                             154     0.010   71 300 
 BRR  HZ I        1229 27.01        24.7 0.54                            71 300 
 BRR  HN ES   1   1229 37.79                             154     0.0 7   71 300 
 RUS  HZ EP   1   1229 23.17                             146     0.0 7   99 175 
 RUS  HE ES   2   1229 42.21                                     0.1 5   99 175 
 RUS  HZ I        1229 43.65         4.5 0.19                            99 175 
 GUE  SZ EP   2   1229 24.83                             140     0.5 5  118  12 
 GRA  SZ EP       1229 24.69                             138    -0.210  128  18 
 GRA  SZ I        1229 25.83         6.0 0.26                           128  18 
 GRA  SZ ES   2   1229 45.25                             138     0.1 5  128  18 
                                                                                
