 2010  7 2 1625  7.2 L   6.784 -73.074154.4  RSN  5 0.4 2.2LRSN                1
 GAP=164        0.93       8.9    12.2 10.7 -0.1750E+02 -0.4719E+02 -0.1286E+02E
 Epicentro: LOS SANTOS - SANTANDER                                             3
 ACTION:UPD 10-12-01 15:14 OP:pat  STATUS:               ID:20100702162507 L   I
 2010-07-02-1623-27S.COL___118                                                 6
 STAT SP IPHASW D HRMM SECON CODA AMPLIT PERI AZIMU VELO AIN AR TRES W  DIS CAZ7
 BAR2 SZ IP       1625 27.79                             171    -0.110   24 210 
 BAR2 SZ ES   1   1625 43.86                             171    -0.2 7   24 210 
 BRR  HZ IP     C 1625 29.77                             151     0.010   79 297 
 BRR  HZ I        1625 31.27        27.5 0.09                            79 297 
 BRR  HE ES   1   1625 47.37                             151     0.1 7   79 297 
 RUS  HZ EP   2   1625 32.00                             146     0.3 5   99 181 
 BRI  SZ IP       1625 32.40                             143     0.510  108  17 
 BRI  SZ ES   2   1625 51.21                             143     0.1 5  108  17 
 GUE  SZ EP   1   1625 31.77                             141    -1.0 7  117   8 
                                                                                
