 2013  2 2 1302 14.9 L   6.794 -73.142149.7  RSN  8 0.4 1.9LRSN                1
 GAP=137        1.03       3.6     5.0  6.3  0.2264E+01  0.6539E+01  0.1341E+01E
 Epicentro: LOS SANTOS - SANTANDER                                             3
 ACTION:UPD 13-03-12 09:29 OP:ep   STATUS:               ID:20130202130214 L   I
 2013-02-02-1300-00M.COL___241                                                 6
 STAT SP IPHASW D HRMM SECON CODA AMPLIT PERI AZIMU VELO AIN AR TRES W  DIS CAZ7
 BAR2 SZ EP       13 2 34.86                             171   -0.1210 22.8 191 
 BAR2 SZ ES       13 2 50.33                             171   -0.3210 22.8 191 
 BAR2 SZ I        13 2 51.98        22.2 0.41            170           22.8 191 
 BRR  HZ EP       13 2 36.78                             153    0.2810 71.9 299 
 BRR  HE ES       13 2 54.28                             153    0.9310 71.9 299 
 BRR  HE I        13 2 55.34        31.3 0.38            152           71.9 299 
 PAM  SZ EP       13 2 37.70                             151    0.1710 77.6  39 
 PAM  SN ES       13 2 54.98                             151   -0.2210 77.6  39 
 PAM  SZ I        13 2 57.47         6.3 0.53            154           77.6  39 
 RUS  HZ EP       13 2 38.95                             145   -0.0310 99.9 176 
 RUS  HE ES       13 2 57.47                             145   -0.3010 99.9 176 
 RUS  HE I        13 2 59.58        15.2 0.51            146           99.9 176 
 PTB  HZ EP       13 2 41.67                             133   -0.53 9  148 259 
 PTB  HE ES   1   13 3  2.90                             133   -0.61 7  148 259 
 PTB  HZ I        13 3  5.18         7.5 0.22            133            148 259 
 ZAR  HE ES       13 3 12.92                             123   -0.29 9  205 292 
 ZAR  HZ I        13 3 19.05         8.8 0.22            124            205 292 
 SML  HZ EP       13 2 51.91                             118    0.10 8  244 335 
 SML  HN ES   1   13 3 20.52                             118   -0.10 6  244 335 
 CHI  HZ EP       13 2 52.76                             118    0.01 8  248 195 
 CHI  HN ES       13 3 23.13                             118    0.85 8  248 195 
 CHI  HZ I        13 3 26.31         2.7 0.42            119            248 195 
                                                                                
