 2015 11 2 1616  6.8 L   6.769 -73.056142.0  RSN  7 0.4 1.8LRSN                1
 GAP=150        0.95       4.3     4.8  6.5  0.4480E+00  0.1120E+02  0.1588E+01E
 Epicentro: LOS SANTOS - SANTANDER                                             3
 ACTION:UPD 15-12-28 16:08 OP:cam  STATUS:               ID:20151102161606 L   I
 OLDACT:REG 15-11-02 21:26 OP:cara STATUS:               ID:20151102160749     3
 2015-11-02-1607-49M.COL___310                                                 6
 STAT SP IPHASW D HRMM SECON CODA AMPLIT PERI AZIMU VELO AIN AR TRES W  DIS CAZ7
 BAR2 EZ EP       1616 25.94                             170   -0.0910 24.0 216 
 BAR2 EZ ES       1616 41.11                             170    0.1110 24.0 216 
 BAR2 EZ I        1616 41.61        13.3 0.16            171           24.0 216 
 PAM  EZ EP       1616 28.31                             151   -0.1610 74.3  32 
 PAM  EN ES       1616 45.55                             151    0.2110 74.3  32 
 PAM  EZ I        1616 47.84        10.1 0.46            152           74.3  32 
 BRR  HZ EP       1616 28.04                             148   -0.1710 81.6 297 
 BRR  HN ES       1616 45.02                             148    0.1410 81.6 297 
 BRR  HZ I        1616 49.27         8.5 0.35            147           81.6 297 
 RUS  HZ EP       1616 29.62                             144   -0.3410 97.0 182 
 RUS  HN ES       1616 48.01                             144    0.0210 97.0 182 
 RUS  HZ I        1616 48.74         6.6 0.20            148           97.0 182 
 ZAR  HZ EP       1616 41.10                             120    0.96 8  215 292 
 ZAR  HN ES       1617  5.32                             120   -0.79 8  215 292 
 ZAR  HZ I        1617  9.66         6.2 0.28            121            215 292 
 SML  HZ EP   4   1616 42.35                             116   -1.71 0  251 334 
 SML  HN ES   4   1617 10.34                             116   -2.75 0  251 334 
 SML  HZ I        1617 16.34         8.6 0.26            117            251 334 
 GUY2CHZ EP   1   1616 50.73                             111   -0.25 5  307 236 
 GUY2CHN ES       1617 25.87                             111    0.45 7  307 236 
 GUY2CHZ I        1617 32.98         2.8 0.58                           307 236 
                                                                                
