 2014  9 2 1537  1.5 L   6.785 -73.149153.3  RSN 10 0.4 1.9LRSN                1
 GAP=200        0.81       3.4     4.7  6.2  0.8077E+00  0.4689E+01  0.7106E+00E
 Epicentro: LOS SANTOS - SANTANDER                                             3
 ACTION:UPD 14-10-03 23:01 OP:nd   STATUS:               ID:20140902153701 L   I
 OLDACT:REG 14-09-02 20:25 OP:fm   STATUS:               ID:20140902152813     3
 2014-09-02-1528-13M.COL___260                                                 6
 STAT SP IPHASW D HRMM SECON CODA AMPLIT PERI AZIMU VELO AIN AR TRES W  DIS CAZ7
 BAR2 SZ EP       1537 21.82                             172   -0.1410 21.6 190 
 BAR2 SZ ES   1   1537 37.64                             172   -0.32 7 21.6 190 
 BAR2 SZ I        1537 38.54         6.7 0.68            169           21.6 190 
 BRR  HZ EP   1   1537 23.32                             154   -0.14 7 71.7 300 
 BRR  HN ES       1537 41.02                             154    0.4110 71.7 300 
 BRR  HZ I        1537 43.94        15.3 0.44            148           71.7 300 
 RUS  HZ EP   1   1537 26.26                             146    0.42 7 98.9 176 
 RUS  HN ES   1   1537 44.76                             146   -0.10 7 98.9 176 
 RUS  HZ I        1537 46.22         7.0 0.44            146           98.9 176 
 PTB  HZ EP   1   1537 28.43                             134   -0.56 7  147 259 
 PTB  HN ES       1537 50.40                             134   -0.07 9  147 259 
 PTB  HZ I        1537 52.14        10.6 0.12            130            147 259 
 ZAR  HN ES   1   1537 59.43                             124   -0.74 6  204 293 
 ZAR  HZ I        1538 11.02         5.3 0.32            121            204 293 
 NOR  HZ EP   4   1537 33.98                             120   -3.52 0  233 235 
 NOR  HN ES   1   1538  5.46                             120   -0.16 6  233 235 
 NOR  HZ I        1538  8.40         5.1 0.56            118            233 235 
 SML  HZ EP   1   1537 38.11                             119   -0.56 6  245 336 
 SML  HN ES       1538  8.26                             119    0.57 8  245 336 
 SML  HZ I        1538 11.78         9.5 0.20            118            245 336 
 GUY2CHZ EP   4   1537 47.18                             114    1.89 0  300 235 
 GUY2CHE ES       1538 19.80                             114    0.33 7  300 235 
 GUY2CHZ I        1538 28.70         4.2 0.72                           300 235 
 TOL  SN ES   4   1538 29.36                             111    1.74 0  342 225 
 TOL  SZ I        1538 34.24         6.7 0.38            110            342 225 
 PRA  HZ EP   1   1537 55.05                             108   -0.01 4  390 210 
 PRA  HE ES   1   1538 37.81                             108    0.95 4  390 210 
 PRA  HZ I        1538 43.17         2.3 0.26            107            390 210 
                                                                                
