 2012  3 2 1445 25.8 L   6.784 -73.096135.8  RSN  5 0.4 1.8LRSN                1
 GAP=144        0.84       5.5     6.0  8.1  0.6976E+01  0.1198E+02 -0.2231E+01E
 ACTION:UP  12-03-31 23:16 OP:EP   STATUS:               ID:20120302144525 L   I
 2012-03-02-1440-00M.COL___192                                                 6
 STAT SP IPHASW D HRMM SECON CODA AMPLIT PERI AZIMU VELO SNR AR TRES W  DIS CAZ7
 BAR2 SZ EP   1   1445 43.91                             170    -0.3 7   23 204 
 BAR2 SZ ES   1   1445 58.28                             170    -0.3 7   23 204 
 BAR2 SZ I        1445 59.82        18.8 0.23                            23 204 
 PAM  SZ EP   1   1445 46.99                             150     0.2 7   75  35 
 PAM  SZ I        1445 47.21         9.3 0.20                            75  35 
 PAM  SE ES   1   1446  3.22                             150     0.0 7   75  35 
 BRR  HZ EP   1   1445 45.93                             149    -0.3 7   77 298 
 BRR  HE ES   1   1446  2.57                             149     0.4 7   77 298 
 RUS  HZ EP   1   1445 48.11                             142    -0.3 7   99 179 
 RUS  HN ES   1   1446  6.48                             142     0.4 7   99 179 
 RUS  HZ I        1446  8.52         7.7 0.28                            99 179 
 ZAR  HZ EP   1   1445 58.86                             119     0.7 6  210 292 
 ZAR  HE ES   1   1446 23.00                             119    -0.5 6  210 292 
 ZAR  HZ I        1446 24.20         6.0 0.07                           210 292 
                                                                                
