 2017 11 2 1502 35.7 L   6.778 -73.160146.0  RSN  9 0.4 1.8LRSN                1
 GAP=234        0.80       4.0     4.7  6.1  0.6305E+01  0.4741E+01  0.6620E+01E
 Epicentro: LOS SANTOS - SANTANDER                                             3
 ACTION:UPD 17-12-12 19:51 OP:rebc STATUS:               ID:20171102150235 L   I
 OLDACT:UP  17-11-02 23:23 OP:mg   STATUS:               ID:20171102145739     3
 OLDACT:UP  17-11-02 23:23 OP:mg   STATUS:               ID:20171102145739     3
 OLDACT:REG 17-11-02 20:25 OP:mg   STATUS:               ID:20171102145739     3
 2017-11-02-1458-00M.COL___435                                                 6
 STAT SP IPHASW D HRMM SECON CODA AMPLIT PERI AZIMU VELO AIN AR TRES W  DIS CAZ7
 BAR2 EZ EP     D 15 2 55.03                             171   -0.2910 20.7 187 
 BAR2 EZ ES   2   15 3 10.07                             171   -0.54 5 20.7 187 
 BAR2 EZ I        15 3 11.39        27.2 0.20            167           20.7 187 
 BRR  HZ EP   1   15 2 56.87                             153    0.00 7 71.0 301 
 BRR  HN ES       15 3 14.08                             153    0.7110 71.0 301 
 BRR  HZ I        15 3 16.47        12.2 0.23            150           71.0 301 
 RUS  HZ EP   1   15 2 58.90                             145   -0.42 7 98.3 175 
 RUS  HN ES       15 3 17.89                             145    0.1510 98.3 175 
 RUS  HZ I        15 3 18.75         7.9 0.22            143           98.3 175 
 PTB  HZ EP   2   15 3  1.62                             133   -0.89 5  146 260 
 PTB  HN ES       15 3 22.88                             133   -0.53 9  146 260 
 PTB  HZ I        15 3 24.76         5.6 0.18            130            146 260 
 ZAR  HZ EP   1   15 3  8.09                             123   -0.02 6  203 293 
 ZAR  HN ES   1   15 3 33.51                             123    0.13 6  203 293 
 ZAR  HZ I        15 3 39.84         6.9 0.32            122            203 293 
 NOR  HZ EP   1   15 3 11.20                             119    0.04 6  232 235 
 NOR  HN ES       15 3 38.82                             119    0.01 8  232 235 
 NOR  HZ I        15 3 42.54         3.8 0.20            118            232 235 
 CHI  HZ EP       15 3 13.17                             118    0.05 8  246 195 
 CHI  HN ES       15 3 42.75                             118    0.44 8  246 195 
 CHI  HZ I        15 3 50.89         2.2 0.45            117            246 195 
 GUY2CHZ EP   3   15 3 20.47                             113    1.45 2  298 235 
 GUY2CHN ES   4   15 3 56.74                             113    3.93 0  298 235 
 GUY2CHZ I        15 4  2.17         3.3 0.36                           298 235 
 PRA  HZ EP   2   15 3 29.44                             107    0.54 3  389 210 
 PRA  HN ES   2   15 4 10.35                             107   -0.04 3  389 210 
 PRA  HZ I        15 4 16.83         2.9 0.46            106            389 210 
                                                                                
