 2011 12 2 1611  7.9 L   6.768 -73.106141.7  RSN  5 0.2 1.6LRSN                1
 GAP=143        0.51       4.0     4.9  6.7 -0.1473E+01 -0.3199E+01  0.9323E+01E
 Epicentro: LOS SANTOS - SANTANDER                                             3
 ACTION:UPD 12-07-13 16:13 OP:ep   STATUS:               ID:20111202161107 L   I
 2011-12-02-1610-00M.COL___180                                                 6
 STAT SP IPHASW D HRMM SECON CODA AMPLIT PERI AZIMU VELO AIN AR TRES W  DIS CAZ7
 BAR2 SZ EP       1611 26.81                             171   -0.1710 21.2 204 
 BAR2 SZ I        1611 43.07         8.1 0.38                          21.2 204 
 GIR2 SZ EP   3   1611 26.91                             165   -0.30 2 35.7 344 
 BRR  HZ EP       1611 28.69                             150   -0.2410 76.8 299 
 BRR  HZ I        1611 37.90        21.4 0.40                          76.8 299 
 BRR  HN ES   1   1611 45.57                             150    0.23 7 76.8 299 
 PAM  SZ EP       1611 29.73                             150    0.0510 77.5  35 
 PAM  SE ES   1   1611 46.67                             150   -0.01 7 77.5  35 
 RUS  HZ EP       1611 31.28                             144    0.3210 96.8 179 
 RUS  HZ I        1611 31.56         2.9 0.30                          96.8 179 
 RUS  HN ES   2   1611 48.73                             144   -0.24 5 96.8 179 
                                                                                
