 2017  1 2 1512  3.8 L   6.803 -73.143144.8  RSN 15 0.5 2.5LRSN                1
 GAP=137        1.13       3.9     4.7  6.4  0.1009E+01  0.1028E+02  0.7750E+01E
 Epicentro: LOS SANTOS - SANTANDER                                             3
 ACTION:UPD 17-05-22 15:54 OP:jn   STATUS:               ID:20170102151203 L   I
 OLDACT:UP  17-01-02 23:13 OP:dnl  STATUS:               ID:20170102150745     3
 OLDACT:UP  17-01-02 23:13 OP:dnl  STATUS:               ID:20170102150745     3
 OLDACT:REG 17-01-02 21:19 OP:ndl  STATUS:               ID:20170102150745     3
 2017-01-02-1508-00M.COL___369                                                 6
 STAT SP IPHASW D HRMM SECON CODA AMPLIT PERI AZIMU VELO AIN AR TRES W  DIS CAZ7
 BAR2 EZ IP     C 1512 23.17                             170   -0.1510 23.7 191 
 BAR2 EZ ES       1512 37.96                             170   -0.5810 23.7 191 
 BAR2 EZ I        1512 39.48        68.1 0.54            164           23.7 191 
 BRR  HZ IP     C 1512 24.96                             152    0.1110 71.3 298 
 BRR  HE ES       1512 42.19                             152    0.9310 71.3 298 
 BRR  HZ I        1512 45.79        53.1 0.32            147           71.3 298 
 PAM  EZ EP       1512 26.14                             151    0.2610 77.0  40 
 PAM  EE ES       1512 43.18                             151    0.0710 77.0  40 
 PAM  EZ I        1512 45.40        40.6 0.48            158           77.0  40 
 RUS  HZ IP     C 1512 27.13                             143   -0.3410  101 176 
 RUS  HN ES       1512 46.08                             143    0.1410  101 176 
 RUS  HZ I        1512 46.92        35.2 0.24            143            101 176 
 PTB  HZ EP   4   1512 29.54                             132   -1.18 0  148 259 
 PTB  HE ES       1512 51.47                             132   -0.24 9  148 259 
 PTB  HZ I        1512 57.89        43.0 0.42            128            148 259 
 ZAR  HZ EP       1512 35.46                             122   -0.74 9  204 292 
 ZAR  HE ES       1513  0.87                             122   -0.59 9  204 292 
 ZAR  HZ I        1513 11.45        36.3 0.42            121            204 292 
 CHI  HZ EP       1512 41.36                             117   -0.12 8  249 195 
 CHI  HN ES       1513 10.42                             117   -0.46 8  249 195 
 CHI  HZ I        1513 13.96        19.3 0.36            117            249 195 
 ROSC BZ EP   2   1512 42.86                             116    0.95 4  253 211 
 ROSC BN ES   4   1513 14.07                             116    2.43 0  253 211 
 ROSC BZ I        1513 18.51        28.9 0.25            116            253 211 
 GUY2CHZ EP       1512 48.24                             112    0.83 7  302 235 
 GUY2CHE ES   4   1513 23.22                             112    1.80 0  302 235 
 GUY2CHZ  IAML    1513 28.38        13.9 0.24                           302 235 
 VIL  EZ EP   2   1512 46.55                             112   -0.66 4  304 192 
 VIL  EE ES       1513 21.34                             112    0.26 7  304 192 
 VIL  EZ I        1513 27.67        20.0 0.60            112            304 192 
 ELA  HZ EP   4   1512 52.09                             110    1.43 0  330 229 
 ELA  HN ES   4   1513 30.15                             110    2.95 0  330 229 
 ELA  HZ I        1513 42.62        11.9 0.44            110            330 229 
 CBOC HZ EP       1512 51.53                             110    0.81 7  334 252 
 CBOC HN ES   4   1513 25.95                             110   -1.36 0  334 252 
 CBOC HZ I        1513 43.89         6.8 0.72            109            334 252 
 DBB  EZ EP   2   1512 50.60                             109   -0.67 3  340 274 
 DBB  EN ES   4   1513 25.14                             109   -3.15 0  340 274 
 DBB  EZ I        1513 29.10        10.0 0.16            109            340 274 
 ANIL HZ EP   4   1512 54.71                             108    1.09 0  358 225 
 ANIL HN ES       1513 33.49                             108    1.02 6  358 225 
 ANIL HZ I        1513 40.04        36.7 0.32            108            358 225 
 PAL  HZ EP   2   1512 58.69                             106   -0.28 3  406 239 
 PAL  HN ES       1513 41.38                             106   -0.63 6  406 239 
 PAL  HZ I        1513 45.08         5.9 0.40            106            406 239 
                                                                                
