 2013  6 2 1833 16.2 L   6.761 -73.181150.6  RSN  5 0.2 1.6LRSN                1
 GAP=134        0.57       3.8     3.8  5.2  0.3740E+01 -0.4542E+01 -0.4186E+01E
 Epicentro: VILLANUEVA - SANTANDER                                             3
 ACTION:UPD 14-01-08 09:51 OP:ep   STATUS:               ID:20130602183316 L   I
 2013-06-02-1828-50M.COL___224                                                 6
 STAT SP IPHASW D HRMM SECON CODA AMPLIT PERI AZIMU VELO AIN AR TRES W  DIS CAZ7
 BAR2 SZ ES       1833 51.98                             173   -0.0210 18.6 180 
 BAR2 SZ I        1833 53.91         6.1 0.46            174           18.6 180 
 BRR  HZ EP       1833 38.19                             154    0.4110 70.0 303 
 BRR  HN ES       1833 54.64                             154   -0.0010 70.0 303 
 BRR  HE I        1833 55.84         9.6 0.44            155           70.0 303 
 PAM  SZ EP       1833 39.03                             150   -0.2210 83.2  40 
 RUS  HZ EP       1833 40.03                             146   -0.1010 96.6 174 
 RUS  HN ES       1833 58.92                             146    0.1110 96.6 174 
 PTB  HN ES       1834  3.96                             134   -0.19 9  143 260 
                                                                                
