 2010  1 2 1016 33.0 L   6.792 -72.916143.0  RSN  6 0.4 1.1LRSN                1
 GAP=206        0.64       3.9    18.1  6.8 -0.1711E+02  0.1032E+02  0.4137E+01E
 Epicentro: CEPITA - SANTANDER                                                 3
 ACTION:UP  10-08-24 09:42 OP:vdl  STATUS:               ID:20100102101632 L   I
 2010-01-02-1014-39S.COL___096                                                 6
 STAT SP IPHASW D HRMM SECON CODA AMPLIT PERI AZIMU VELO AIN AR TRES W  DIS CAZ7
 BAR2 SZ EP   1   1016 53.30                             165     0.6 7   37 233 
 BAR2 SZ ES   2   1017  7.62                             165    -0.4 5   37 233 
 GIR2 SZ EP   1   1016 52.59                             162    -0.2 7   44 316 
 GIR2 SZ ES   2   1017  8.00                             162    -0.2 5   44 316 
 RUS  BZ EP   1   1016 56.85                             143     0.3 7  101 191 
 RUS  BN ES   2   1017 14.59                             143    -0.3 5  101 191 
 OCA  SZ EP   1   1017  1.48                             128    -0.2 7  166 344 
 OCA  SZ ES   2   1017 24.20                             128     0.2 5  166 344 
 CHI  HZ EP   1   1017 10.78                             116    -0.5 6  256 201 
 CHI  HE ES   2   1017 41.59                             116     0.4 4  256 201 
 CHI  HZ I        1017 42.92         0.8 0.52                           256 201 
 PRA  HZ EP   1   1017 27.41                             106    -0.5 4  404 213 
 PRA  HE ES   2   1018 11.14                             106     0.4 3  404 213 
                                                                                
