 2013 11 2 1211  8.0 L   6.808 -73.151147.0  RSN 13 0.5 2.6LRSN 2.9WRSN        1
 SPEC AVERAGE  MO 13.4 ST 47.6 OM  1.8 f0 9.03 R0.2817 AL 0.00 WI 20.0 MW  2.9 3
 SPEC SD       MO  0.2 ST101.8 OM  0.4 f0 6.47 R0.1626 AL      WI      MW  0.2 3
 GAP=136        1.22       3.2     4.7  6.1 -0.3229E+01  0.8447E+01 -0.1418E+01E
 Epicentro: LOS SANTOS - SANTANDER                                             3
 SPEC BAR2SH Z MO 13.7 ST  4.4 OM  2.1 f0 4.33 R0.3589 AL-0.00 WI 20.0 MW  3.1 3
 SPEC BAR2SH Z T121141 K 0.000 GD  148 VS 4.20 DE 3.20 Q0300.0 QA 0.60 VS 4.20 3
 SPEC BRR HH Z MO 13.3 ST  6.1 OM  1.7 f0 6.35 R0.2447 AL-0.00 WI 20.0 MW  2.8 3
 SPEC BRR HH Z T121145 K 0.000 GD  162 VS 4.20 DE 3.20 Q0300.0 QA 0.60 VS 4.20 3
 SPEC PAM SH Z MO 13.5 ST0.578 OM  1.9 f0 2.47 R0.6291 AL-0.00 WI 20.0 MW  3.0 3
 SPEC PAM SH Z T121146 K 0.000 GD  165 VS 4.20 DE 3.20 Q0300.0 QA 0.60 VS 4.20 3
 SPEC RUS HH Z MO 13.2 ST0.901 OM  1.6 f0 3.52 R0.4415 AL-0.00 WI 20.0 MW  2.8 3
 SPEC RUS HH Z T121148 K 0.000 GD  178 VS 4.20 DE 3.20 Q0300.0 QA 0.60 VS 4.20 3
 SPEC PTB HH Z MO 13.0 ST 86.8 OM  1.3 f0 19.3 R0.0805 AL-0.00 WI 20.0 MW  2.6 3
 SPEC PTB HH Z T121154 K 0.000 GD  207 VS 4.20 DE 3.20 Q0300.0 QA 0.60 VS 4.20 3
 SPEC SPBCHH Z MO 13.5 ST 14.1 OM  1.8 f0 7.04 R0.2207 AL-0.00 WI 20.0 MW  3.0 3
 SPEC SPBCHH Z T121157 K 0.000 GD  220 VS 4.20 DE 3.20 Q0300.0 QA 0.60 VS 4.20 3
 SPEC ZAR HH Z MO 13.3 ST 18.0 OM  1.5 f0 9.21 R0.1687 AL-0.00 WI 20.0 MW  2.8 3
 SPEC ZAR HH Z T1212 3 K 0.000 GD  250 VS 4.20 DE 3.20 Q0300.0 QA 0.60 VS 4.20 3
 SPEC NOR HH Z MO 13.2 ST 12.4 OM  1.4 f0 8.49 R0.1830 AL-0.00 WI 20.0 MW  2.8 3
 SPEC NOR HH Z T1212 9 K 0.000 GD  277 VS 4.20 DE 3.20 Q0300.0 QA 0.60 VS 4.20 3
 SPEC SML HH Z MO 13.3 ST361.4 OM  1.5 f0 24.0 R0.0647 AL-0.00 WI 20.0 MW  2.8 3
 SPEC SML HH Z T121210 K 0.000 GD  284 VS 4.20 DE 3.20 Q0300.0 QA 0.60 VS 4.20 3
 SPECGUY2CHH Z MO 13.6 ST  0.8 OM  1.7 f0 2.52 R 0.616 AL-0.00 WI 20.0 MW  3.0 3
 SPECGUY2CHH Z T121223 K       GD335.0 VS 4.20 DE 3.20 Q0300.0 QA 0.60 VS 4.20 3
 SPEC COD HH Z MO 12.9 ST 14.7 OM  0.9 f0 11.9 R0.1306 AL-0.00 WI 20.0 MW  2.5 3
 SPEC COD HH Z T121231 K 0.000 GD  376 VS 4.20 DE 3.20 Q0300.0 QA 0.60 VS 4.20 3
 SPEC ANILHH Z MO 14.3 ST  4.4 OM  2.3 f0 2.70 R0.5756 AL-0.00 WI 20.0 MW  3.5 3
 SPEC ANILHH Z T121235 K 0.000 GD  387 VS 4.20 DE 3.20 Q0300.0 QA 0.60 VS 4.20 3
 OLDACT:REG 13-11-02 17:42 OP:carl STATUS:               ID:20131102120847     3
 ACTION:UPD 14-01-09 16:25 OP:ep   STATUS:               ID:20131102121108 L   I
 OLDACT:UP  13-11-02 18:47 OP:carl STATUS:               ID:20131102120847     3
 2013-11-02-1208-47M.COL___211                                                 6
 STAT SP IPHASW D HRMM SECON CODA AMPLIT PERI AZIMU VELO AIN AR TRES W  DIS CAZ7
 BAR2 SZ IP     C 1211 27.89                             170    0.1410 24.1 188 
 BAR2 SZ ES       1211 42.66                             170   -0.5210 24.1 188 
 BAR2 SZ I        1211 44.64       171.4 0.20            171           24.1 188 
 BRR  HZ EP       1211 29.80                             153    0.6110 70.3 298 
 BRR  HN ES       1211 47.04                             153    1.3010 70.3 298 
 BRR  SZ I        1211 47.50        69.7 0.12            151           70.3 298 
 BRR  HZ I        1211 50.63        62.3 0.36                          70.3 298 
 PAM  SZ IP     D 1211 30.80                             151    0.5210 77.1  40 
 PAM  SN ES       1211 47.77                             151    0.0810 77.1  40 
 PAM  SZ I        1211 49.65        82.1 0.68            153           77.1  40 
 RUS  HZ EP       1211 31.81                             144   -0.0810  101 176 
 RUS  HN ES       1211 50.00                             144   -0.5610  101 176 
 RUS  SZ I        1211 52.02        60.9 0.30            146            101 176 
 PTB  HZ EP       1211 34.58                             132   -0.41 9  147 258 
 PTB  HN ES       1211 55.58                             132   -0.50 9  147 258 
 PTB  SZ I        1211 57.41        36.1 0.40            132            147 258 
 PTB  HZ I        1211 57.65        31.7 0.16                           147 258 
 SPBC HZ EP       1211 36.88                             129    0.30 9  164 219 
 SPBC HN ES       1211 59.02                             129    0.12 9  164 219 
 SPBC SZ I        1212  1.16        78.2 0.30            130            164 219 
 ZAR  HZ EP       1211 40.48                             123    0.08 9  203 292 
 ZAR  HN ES       1212  5.36                             123   -0.34 9  203 292 
 ZAR  SZ I        1212 12.40        18.2 0.12            123            203 292 
 NOR  HZ EP       1211 44.02                             119    0.26 8  235 234 
 NOR  HE ES       1212 11.44                             119   -0.25 8  235 234 
 NOR  HZ I        1212 15.18        21.6 0.22            119            235 234 
 NOR  SZ I        1212 16.87        22.9 0.18                           235 234 
 SML  HZ EP       1211 44.17                             118   -0.37 8  243 335 
 SML  HN ES       1212 12.39                             118   -0.69 8  243 335 
 SML  HZ I        1212 15.34        68.7 0.10            118            243 335 
 SML  SZ I        1212 17.14        67.9 0.08                           243 335 
 GUY2CHZ EP       1211 52.52                             113    0.89 7  301 235 
 GUY2CHN ES       1212 25.30                             113   -0.39 7  301 235 
 GUY2CSZ I        1212 33.95        20.3 0.32                           301 235 
 GUY2CHZ I        1212 34.13        17.5 0.32                           301 235 
 VIL  SN ES       1212 24.85                             112   -0.64 7  304 191 
 COD  HZ EP       1211 55.90                             109   -0.37 6  347 355 
 COD  HN ES       1212 33.40                             109   -0.56 6  347 355 
 COD  HZ I        1212 38.41         6.2 0.60            110            347 355 
 COD  SZ I        1212 46.55         7.1 1.04                           347 355 
 ANIL HZ EP   1   1211 58.10                             109    0.26 5  358 224 
 ANIL HN ES       1212 37.25                             109    0.51 6  358 224 
 ANIL HZ I        1212 42.33        48.0 0.36            109            358 224 
 ANIL SZ I        1212 46.38        44.3 0.50                           358 224 
                                                                                
