 2017  1 2 1606 10.0 L   6.790 -73.124143.4  RSN  7 0.4 1.9LRSN                1
 GAP=140        0.94       4.3     4.0  6.3 -0.3361E+00  0.8211E+01  0.4629E+00E
 Epicentro: LOS SANTOS - SANTANDER                                             3
 ACTION:UPD 17-05-22 15:54 OP:jn   STATUS:               ID:20170102160610 L   I
 OLDACT:REG 17-01-02 21:22 OP:ndl  STATUS:               ID:20170102155749     3
 2017-01-02-1558-00M.COL___369                                                 6
 STAT SP IPHASW D HRMM SECON CODA AMPLIT PERI AZIMU VELO AIN AR TRES W  DIS CAZ7
 BAR2 EZ EP       16 6 29.40                             171    0.0610 22.8 196 
 BAR2 EZ ES       16 6 43.98                             171   -0.4410 22.8 196 
 BAR2 EZ I        16 6 45.15        29.1 0.30            171           22.8 196 
 BRR  HZ IP     C 16 6 31.19                             151    0.1410 73.8 298 
 BRR  HE ES       16 6 48.10                             151    0.6310 73.8 298 
 BRR  HZ I        16 6 50.07        15.4 0.30            150           73.8 298 
 PAM  EZ EP       16 6 32.20                             150    0.2710 76.8  38 
 PAM  EN ES       16 6 48.95                             150   -0.0910 76.8  38 
 PAM  EZ I        16 6 51.23         4.8 0.68            152           76.8  38 
 RUS  HZ EP       16 6 33.48                             144    0.0510 99.3 177 
 RUS  HE ES       16 6 51.80                             144    0.0910 99.3 177 
 RUS  HZ I        16 6 53.35         8.3 0.30            146           99.3 177 
 PTB  HZ EP       16 6 36.39                             131   -0.59 9  150 259 
 PTB  HE ES       16 6 57.53                             131   -0.49 9  150 259 
 PTB  HZ I        16 7  1.47        10.0 0.16            132            150 259 
 ZAR  HZ EP       16 6 42.39                             121   -0.18 8  207 292 
 ZAR  HN ES       16 7  7.91                             121   -0.06 8  207 292 
 ZAR  HZ I        16 7 12.92        12.7 0.42            122            207 292 
 GUY2CHZ EP   4   16 6 55.28                             112    1.63 0  302 235 
 GUY2CHE ES       16 7 28.50                             112    0.80 7  302 235 
 GUY2CHZ  IAML    16 7 34.72         4.9 0.30                           302 235 
                                                                                
