 2014  8 2 1350 36.0 L   5.963 -73.582123.2  RSN 14 0.5 2.2LRSN                1
 GAP= 88        1.06       2.9     3.5  5.9 -0.3836E+01  0.6921E+01 -0.5573E+00E
 Epicentro: BARBOSA - SANTANDER                                                3
 ACTION:UPD 14-09-15 21:46 OP:nd   STATUS:               ID:20140802135036 L   I
 OLDACT:UP  14-08-02 23:26 OP:mh   STATUS:               ID:20140802134818     3
 OLDACT:REG 14-08-02 20:00 OP:mh   STATUS:               ID:20140802134818     3
 2014-08-02-1348-18M.COL___257                                                 6
 STAT SP IPHASW D HRMM SECON CODA AMPLIT PERI AZIMU VELO AIN AR TRES W  DIS CAZ7
 RUS  HZ IPg      1350 54.81                             154    0.2610 55.8  98 
 RUS  HZ EP       1350 54.84                             154    0.2910 55.8  98 
 RUS  HN ESg      1351  8.82                             154   -0.2110 55.8  98 
 SPBC HZ EP       1350 54.53                             151    0.0810 64.3 238 
 SPBC HN ES       1351  8.46                             151   -0.3810 64.3 238 
 BAR2 SZ EP   1   1350 56.24                             144    0.38 7 82.4  32 
 BAR2 SZ ES       1351 11.83                             144    0.4810 82.4  32 
 PTB  HZ EP       1350 57.39                             134   -0.8510  116 303 
 PTB  HN ES   4   1351 13.94                             134   -1.65 0  116 303 
 BRR  HZ EP   1   1350 59.38                             131    0.13 7  127 354 
 BRR  HN ES   1   1351 17.04                             131   -0.35 7  127 354 
 BRR  HZ I        1351 21.25        26.4 0.24            134            127 354 
 CHI  HZ EP       1351  1.84                             126    0.03 9  148 186 
 CHI  HN ES       1351 22.19                             126    0.25 9  148 186 
 CHI  HZ I        1351 26.82        17.7 0.34            127            148 186 
 NOR  HZ EP   1   1351  1.55                             126    0.13 7  149 253 
 NOR  HN ES       1351 20.85                             126   -0.40 9  149 253 
 NOR  HZ I        1351 25.76        26.3 0.23            126            149 253 
 ROSC BZ EP   4   1351  1.58                             126   -0.23 0  149 213 
 ROSC BN ES   4   1351 23.00                             126    1.05 0  149 213 
 PAM  SZ EP       1351  5.88                             120    0.67 9  181  33 
 PAM  SN ES       1351 27.22                             120   -0.78 9  181  33 
 GUY2CHZ EP       1351  8.53                             116   -0.21 8  214 248 
 GUY2CHN ES   1   1351 35.23                             116    0.95 6  214 248 
 ZAR  HZ EP       1351  8.46                             115   -0.40 8  220 320 
 ZAR  HN ES       1351 35.26                             115    0.77 8  220 320 
 RREF HZ EP       1351 10.92                             114    0.39 8  228 239 
 RREF HN ES   1   1351 38.21                             114    0.74 6  228 239 
 RREF HZ I        1351 42.99        10.5 0.23            115            228 239 
 TOL  SZ EP   1   1351 11.91                             112   -0.20 6  246 232 
 TOL  SN ES   4   1351 39.52                             112   -0.76 0  246 232 
 TOL  SZ I        1351 45.71        23.5 0.08            113            246 232 
 PRA  HZ EP       1351 16.03                             108   -0.52 7  288 210 
 PRA  HN ES   1   1351 47.98                             108   -0.21 5  288 210 
 PRA  HZ I        1351 55.53         9.0 0.26            110            288 210 
 ORTC HZ EP   1   1351 16.39                             108   -0.73 5  293 219 
 ORTC HN ES   2   1351 48.78                             108   -0.42 4  293 219 
 SJC  HZ EP   4   1351 35.78                              99   -2.34 0  469 338 
 SJC  HN ES   4   1352 21.63                              99   -4.94 0  469 338 
                                                                                
