 2012  4 2 1106  8.8 L   6.746 -73.127142.0  RSN  5 0.5 1.5LRSN                1
 GAP=141        0.89       9.5     7.4 10.6 -0.2183E+02  0.4012E+01  0.4216E+01E
 Epicentro: JORDAN - SANTANDER                                                 3
 ACTION:UPD 12-07-05 11:49 OP:tino STATUS:               ID:20120402110608 L   I
 2012-04-02-1100-00M.COL___196                                                 6
 STAT SP IPHASW D HRMM SECON CODA AMPLIT PERI AZIMU VELO AIN AR TRES W  DIS CAZ7
 BAR2 SZ ES   3   11 6 41.43                             172    -1.3 2   18 200 
 BRR  HZ EP       11 6 30.06                             151     0.310   76 302 
 BRR  HZ I        11 6 30.42         8.7 0.32                            76 302 
 BRR  HN ES   1   11 6 46.72                             151     0.5 7   76 302 
 PAM  SZ EP       11 6 30.71                             149    -0.110   81  36 
 PAM  SE ES   2   11 6 47.50                             149    -0.5 5   81  36 
 RUS  HN ES   2   11 6 50.24                             145     0.6 5   95 177 
 PTB  HZ EP       11 6 35.24                             131    -0.3 9  149 261 
 PTB  HN ES   2   11 6 55.61                             131    -0.8 5  149 261 
 PTB  HZ I        11 6 58.61         2.4 0.14                           149 261 
                                                                                
