 2014 10 2 1848 59.1 L   6.792 -73.123141.7  RSN 10 0.4 1.8LRSN                1
 GAP=140        0.82       3.3     4.1  6.2 -0.1116E+01  0.7396E+01 -0.8115E+00E
 Epicentro: LOS SANTOS - SANTANDER                                             3
 ACTION:UPD 14-11-29 23:46 OP:nd   STATUS:               ID:20141002184859 L   I
 OLDACT:REG 14-10-02 21:45 OP:stll STATUS:               ID:20141002184750     3
 2014-10-02-1847-50M.COL___290                                                 6
 STAT SP IPHASW D HRMM SECON CODA AMPLIT PERI AZIMU VELO AIN AR TRES W  DIS CAZ7
 BAR2 SZ EP       1849 18.38                             170    0.1810 23.0 197 
 BAR2 SZ ES   1   1849 33.15                             170    0.03 7 23.0 197 
 BAR2 SZ I        1849 34.59        19.2 0.20            170           23.0 197 
 BRR  HZ EP   1   1849 20.45                             151    0.52 7 73.9 298 
 PAM  SZ EP   1   1849 21.34                             150    0.55 7 76.5  38 
 PAM  SN ES   1   1849 37.68                             150   -0.06 7 76.5  38 
 PAM  SZ I        1849 40.59         8.9 0.50            153           76.5  38 
 RUS  HZ EP   1   1849 22.05                             143   -0.29 7 99.5 177 
 RUS  HN ES   1   1849 39.96                             143   -0.53 7 99.5 177 
 RUS  HZ I        1849 42.13         5.0 0.44            145           99.5 177 
 PTB  HZ EP       1849 25.50                             131   -0.42 9  150 259 
 PTB  HN ES       1849 46.51                             131   -0.35 9  150 259 
 PTB  HZ I        1849 47.92         4.8 0.28            131            150 259 
 SPBC HZ EP       1849 27.41                             128    0.07 9  164 220 
 SPBC HN ES       1849 49.76                             128    0.37 9  164 220 
 SPBC HZ I        1849 55.42         7.7 0.20            129            164 220 
 ZAR  HN ES       1849 57.36                             121    0.51 8  207 292 
 ZAR  HZ I        1850  3.02        10.6 0.72            122            207 292 
 SML  HZ EP   1   1849 35.03                             116   -0.64 6  246 335 
 SML  HN ES   1   1850  3.58                             116   -0.65 6  246 335 
 SML  HZ I        1850  7.56         8.7 0.10            118            246 335 
 GUY2CHZ EP   1   1849 42.98                             111    0.32 5  303 235 
 GUY2CHN ES   4   1850 19.00                             111    2.33 0  303 235 
 GUY2CHZ I        1850 23.70         3.4 0.34                           303 235 
 PRA  HZ EP   1   1849 52.80                             106    0.30 4  392 210 
 PRA  HN ES   1   1850 33.78                             106   -0.40 4  392 210 
 PRA  HZ I        1850 40.60         3.2 0.38            107            392 210 
                                                                                
