 2013  7 2 1828 32.9 L   6.764 -73.160144.1  RSN  9 0.5 1.9LRSN                1
 GAP=136        1.12       5.3     5.5  7.8 -0.7952E+01  0.4308E+01  0.1083E+02E
 Epicentro: LOS SANTOS - SANTANDER                                             3
 ACTION:UPD 13-08-12 10:34 OP:ep   STATUS:               ID:20130702182832 L   I
 OLDACT:REG 13-07-02 18:47 OP:jn   STATUS:               ID:20130702182749     3
 2013-07-02-1827-49M.COL___233                                                 6
 STAT SP IPHASW D HRMM SECON CODA AMPLIT PERI AZIMU VELO AIN AR TRES W  DIS CAZ7
 BAR2 SZ EP       1828 52.26                             172   -0.0210 19.1 187 
 BAR2 SZ ES       1829  6.73                             172   -0.6410 19.1 187 
 BAR2 SZ I        1829  8.97        16.9 0.20            169           19.1 187 
 GIR2 SZ EP       1828 52.73                             166    0.2210 35.0 354 
 BRR  HZ EP       1828 54.07                             152    0.1310 71.9 302 
 BRR  HN ES       1829 11.34                             152    1.0210 71.9 302 
 BRR  HZ I        1829 14.43        15.2 0.26            153           71.9 302 
 PAM  SZ EP       1828 55.18                             149   -0.0410 81.5  39 
 PAM  SN ES       1829 12.38                             149   -0.2210 81.5  39 
 PAM  SZ I        1829 15.00         7.3 0.20            153           81.5  39 
 RUS  HZ EP       1828 56.26                             145    0.0210 96.7 175 
 RUS  HN ES   1   1829 14.81                             145    0.39 7 96.7 175 
 RUS  HZ I        1829 15.91         7.5 0.24            144           96.7 175 
 PTB  HZ EP       1828 59.04                             132   -0.52 9  145 260 
 PTB  HN ES       1829 19.59                             132   -0.73 9  145 260 
 PTB  HZ I        1829 21.99        11.1 0.40            132            145 260 
 NOR  HE ES   1   1829 36.04                             118    0.37 6  231 235 
 CHI  HN ES   1   1829 39.58                             117    0.54 6  244 195 
 CHI  HZ I        1829 44.97         5.8 0.38            118            244 195 
 PRA  HZ EP   1   1829 26.39                             106    0.49 4  388 210 
 PRA  HN ES   1   1830  7.07                             106   -0.14 4  388 210 
 PRA  HZ I        1830 17.05         4.5 0.34            107            388 210 
                                                                                
