 2016  2 2 1732 54.8 L   6.813 -73.174146.4  RSN 11 0.3 2.2LRSN                1
 GAP=132        0.75       2.0     3.0  4.4 -0.9725E+00  0.4347E+01 -0.6843E+00E
 Epicentro: LOS SANTOS - SANTANDER                                             3
 ACTION:UPD 16-03-04 21:22 OP:rebc STATUS:               ID:20160202173254 L   I
 OLDACT:REG 16-02-02 21:03 OP:cara STATUS:               ID:20160202172759     3
 2016-02-02-1727-59S.COL___198                                                 6
 STAT SP IPHASW D HRMM SECON CODA AMPLIT PERI AZIMU VELO AIN AR TRES W  DIS CAZ7
 BAR2 EZ IP     C 1733 14.25                             170   -0.2710 24.4 182 
 BAR2 EZ ES       1733 29.67                             170   -0.2410 24.4 182 
 BAR2 EZ I        1733 30.79        31.0 0.18            170           24.4 182 
 PAM  EZ IP     C 1733 17.30                             151    0.1710 78.3  42 
 PAM  EN ES       1733 34.53                             151   -0.0210 78.3  42 
 PAM  EZ I        1733 36.48        18.5 0.50            154           78.3  42 
 RUS  HZ EP       1733 18.53                             143   -0.1910  102 174 
 RUS  HN ES       1733 37.59                             143    0.1910  102 174 
 RUS  HZ I        1733 38.11        15.7 0.36            146            102 174 
 PTB  HZ EP       1733 21.19                             133   -0.37 9  145 258 
 PTB  HN ES       1733 42.04                             133   -0.40 9  145 258 
 PTB  HZ I        1733 44.15        21.1 0.60            132            145 258 
 OCA  HZ EP       1733 22.71                             130   -0.27 9  158 354 
 OCA  HN ES       1733 45.48                             130    0.51 9  158 354 
 OCA  HZ I        1733 50.92        30.2 0.32            132            158 354 
 SPBC HZ EP       1733 23.24                             129   -0.02 9  162 218 
 SPBC HN ES       1733 45.83                             129    0.36 9  162 218 
 SPBC HZ I        1733 51.50        29.2 0.24            130            162 218 
 ZAR  HZ EP       1733 27.35                             123    0.43 9  201 292 
 ZAR  HE ES       1733 52.32                             123    0.34 9  201 292 
 ZAR  HZ I        1733 57.58        13.4 0.42            123            201 292 
 NOR  HZ EP       1733 30.68                             119    0.31 8  233 234 
 NOR  HE ES       1733 57.77                             119   -0.36 8  233 234 
 NOR  HZ I        1734  6.13        15.1 0.18            120            233 234 
 SML  HZ EP       1733 30.79                             118   -0.37 8  241 336 
 SML  HE ES       1733 59.50                             118   -0.04 8  241 336 
 SML  HZ I        1734  2.60        21.5 0.26            119            241 336 
 CHI  HZ EP       1733 32.56                             117   -0.02 8  249 194 
 CHI  HN ES       1734  2.53                             117    0.46 8  249 194 
 CHI  HZ I        1734  5.12         9.8 0.32            119            249 194 
 GUY2CHZ EP   4   1733 39.78                             113    1.55 0  299 234 
 GUY2CHE ES   4   1734 14.74                             113    2.62 0  299 234 
 GUY2CHZ I        1734 22.19         9.3 0.74                           299 234 
                                                                                
