 2010  3 2 1656 45.8 L   6.805 -73.061147.5  RSN 10 0.3 2.5LRSN                1
 GAP=132        0.61       2.9     4.8  5.0 -0.3652E+01  0.1847E+01  0.1090E+01E
 Epicentro: LOS SANTOS - SANTANDER                                             3
 ACTION:UP  10-08-24 09:51 OP:vdl  STATUS:               ID:20100302165645 L   I
 2010-03-02-1655-13S.COL___094                                                 6
 STAT SP IPHASW D HRMM SECON CODA AMPLIT PERI AZIMU VELO SNR AR TRES W  DIS CAZ7
 BAR2 SZ EP       1657  5.77                             169     0.010   27 210 
 BAR2 SZ ES   2   1657 20.66                             169    -0.6 5   27 210 
 BRR  HZ EP       1657  7.61                             150     0.010   79 295 
 BRR  HN ES   2   1657 25.18                             150     0.5 5   79 295 
 BRR  HZ I        1657 27.53        35.2 0.11                            79 295 
 RUS  BZ EP       1657  9.89                             144     0.110  101 181 
 RUS  BN ES   2   1657 28.85                             144     0.4 5  101 181 
 RUS  BZ I        1657 30.39        35.1 0.40                           101 181 
 OCA  SZ EP       1657 14.02                             130    -0.3 9  161 350 
 OCA  SZ ES   2   1657 37.01                             130     0.4 5  161 350 
 CHI  HZ EP       1657 23.98                             117     0.0 8  252 197 
 CHI  HN ES   2   1657 52.89                             117    -0.8 4  252 197 
 CHI  HZ I        1657 56.61        12.3 0.49                           252 197 
 RREF BZ EP       1657 33.35                             111     0.4 7  329 230 
 RREF BN ES   2   1658  9.47                             111    -0.2 3  329 230 
 RREF BZ I        1658 18.06        20.4 0.33                           329 230 
 DBB  SZ EP       1657 34.25                             109    -0.2 6  349 274 
 TOL  SZ EP   2   1657 35.09                             109     0.1 3  351 226 
 TOL  SZ ES   2   1658 13.74                             109     0.4 3  351 226 
 SDV  BZ EP       1657 35.35                             109     0.3 6  353  49 
 SDV  BZ I        1657 36.27        15.0 0.13                           353  49 
 PRA  HZ EP       1657 39.76                             107    -0.3 6  397 211 
 PRA  HN ES   2   1658 22.33                             107     0.0 3  397 211 
 PRA  HZ I        1658 26.07        14.7 0.58                           397 211 
                                                                                
