 2016  5 2 1655 44.7 L   6.809 -73.140148.0  RSN 11 0.5 2.3LRSN                1
 GAP=137        1.14       3.4     4.6  6.9 -0.2461E+01  0.4619E+01  0.4250E+01E
 Epicentro: LOS SANTOS - SANTANDER                                             3
 ACTION:UPD 16-08-18 17:41 OP:cam  STATUS:               ID:20160502165544 L   I
 OLDACT:UP  16-05-03 00:18 OP:dani STATUS:               ID:20160502164750     3
 OLDACT:REG 16-05-02 21:18 OP:dnl  STATUS:               ID:20160502164750     3
 2016-05-02-1647-50M.COL___298                                                 6
 STAT SP IPHASW D HRMM SECON CODA AMPLIT PERI AZIMU VELO AIN AR TRES W  DIS CAZ7
 BAR2 EZ EP     C 1656  4.55                             170   -0.0310 24.4 191 
 BAR2 EZ I        1656 20.81        31.9 0.34            171           24.4 191 
 BRR  HZ EP       1656  6.59                             153    0.5310 71.3 298 
 BRR  HE ES       1656 23.72                             153    0.9710 71.3 298 
 BRR  HZ I        1656 27.36        21.1 0.27            152           71.3 298 
 PAM  EZ EP       1656  7.23                             152    0.1810 76.2  40 
 PAM  EE ES       1656 24.34                             152   -0.1710 76.2  40 
 PAM  EZ I        1656 26.92        57.7 0.64            154           76.2  40 
 RUS  HZ EP       1656  8.48                             144   -0.2210  101 176 
 RUS  HE ES       1656 27.63                             144    0.1910  101 176 
 RUS  HZ I        1656 28.87        12.4 0.32            146            101 176 
 PTB  HZ EP       1656 11.24                             132   -0.65 9  149 259 
 PTB  HN ES       1656 32.69                             132   -0.43 9  149 259 
 PTB  HZ I        1656 38.22        17.0 0.20            133            149 259 
 OCA  HZ EP       1656 12.37                             130   -0.69 9  159 353 
 OCA  HE ES       1656 34.80                             130   -0.42 9  159 353 
 OCA  HZ I        1656 38.65        75.7 0.20            132            159 353 
 SPBC HZ EP       1656 13.59                             129    0.15 9  164 219 
 SPBC HE ES       1656 35.03                             129   -0.86 9  164 219 
 ZAR  HZ EP       1656 17.71                             123    0.43 9  204 292 
 ZAR  HE ES       1656 42.81                             123    0.09 9  204 292 
 ZAR  HZ I        1656 49.74        17.0 0.27            124            204 292 
 NOR  HZ EP       1656 21.12                             119    0.48 8  236 234 
 NOR  HE ES       1656 48.62                             119   -0.08 8  236 234 
 NOR  HZ I        1656 57.15        15.8 0.20            120            236 234 
 CHI  HZ EP       1656 22.92                             118    0.32 8  250 195 
 CHI  HE ES       1656 52.31                             118    0.12 8  250 195 
 URE  HZ EP   4   1656 28.71                             114    2.84 0  284 292 
 URE  HE ES   4   1656 56.23                             114   -1.78 0  284 292 
 ORTC HZ EP       1656 39.02                             107    0.23 6  397 216 
 ORTC HN ES   4   1657 22.33                             107    1.32 0  397 216 
 SJC  HZ EP   4   1656 38.65                             106   -1.60 0  409 327 
 SJC  HN ES   4   1657 20.17                             106   -3.43 0  409 327 
                                                                                
