 2012  4 2 1016 46.4 L   7.388 -73.197127.6  RSN  7 0.4 1.6LRSN                1
 GAP=104        0.76       4.1     4.2  6.9 -0.8192E+00  0.7355E+01 -0.2368E+01E
 Epicentro: EL PLAYON - SANTANDER                                              3
 ACTION:UPD 12-07-05 11:49 OP:tino STATUS:               ID:20120402101646 L   I
 2012-04-02-1010-00M.COL___196                                                 6
 STAT SP IPHASW D HRMM SECON CODA AMPLIT PERI AZIMU VELO AIN AR TRES W  DIS CAZ7
 PAM  SZ EP       1017  5.56                             155     0.110   55  96 
 PAM  SN ES   1   1017 20.04                             155    -0.2 7   55  96 
 BRR  HZ EP   2   1017  5.17                             151    -0.1 5   65 241 
 BRR  HE ES   1   1017 20.26                             151     0.3 7   65 241 
 BRR  HZ I        1017 21.36        18.8 0.12                            65 241 
 BAR2 SZ EP       1017  7.08                             143     0.010   88 179 
 BAR2 SZ ES   1   1017 23.33                             143     0.1 7   88 179 
 BAR2 SZ I        1017 24.56        18.6 0.12                            88 179 
 OCA  SZ EP       1017  7.56                             141     0.010   95 352 
 OCA  SZ ES   2   1017 23.30                             141    -0.7 5   95 352 
 RUS  HZ EP   2   1017 14.08                             124    -0.3 5  166 176 
 RUS  HZ I        1017 14.54         1.6 0.22                           166 176 
 RUS  HN ES   2   1017 35.78                             124    -0.4 5  166 176 
 PTB  HZ EP       1017 14.29                             123     0.3 9  168 236 
 PTB  HE ES   2   1017 34.14                             123    -1.3 5  168 236 
 PTB  HZ I        1017 39.34         2.9 0.18                           168 236 
 ZAR  HZ EP   2   1017 15.19                             121    -0.4 4  184 274 
 ZAR  HN ES   1   1017 38.63                             121     0.3 7  184 274 
 ZAR  HZ I        1017 40.98         5.5 0.10                           184 274 
                                                                                
