 2014  7 2 1706 19.3 L   6.774 -73.160143.5  RSN  6 0.4 1.7LRSN                1
 GAP=199        0.89       4.6     5.5  6.7  0.1204E+02 -0.1597E+01 -0.1041E+02E
 Epicentro: LOS SANTOS - SANTANDER                                             3
 ACTION:UPD 15-03-16 20:40 OP:nd   STATUS:               ID:20140702170619 L   I
 OLDACT:REG 14-07-02 20:46 OP:spq  STATUS:               ID:20140702165818     3
 2014-07-02-1658-18M.COL___253                                                 6
 STAT SP IPHASW D HRMM SECON CODA AMPLIT PERI AZIMU VELO AIN AR TRES W  DIS CAZ7
 BAR2 SZ EP       17 6 38.18                             172   -0.4410 20.2 187 
 BAR2 SZ ES   1   17 6 53.39                             172   -0.28 7 20.2 187 
 BAR2 SZ I        17 6 54.73         9.0 0.16            173           20.2 187 
 BRR  HZ EP       17 6 40.88                             152    0.6510 71.2 301 
 BRR  HN ES       17 6 56.78                             152    0.2410 71.2 301 
 BRR  HZ I        17 7  1.69         7.3 0.22            150           71.2 301 
 RUS  HZ EP       17 6 43.06                             144    0.4110 97.8 175 
 RUS  HN ES       17 7  0.73                             144   -0.1210 97.8 175 
 RUS  HZ I        17 7  2.20         4.5 0.40            149           97.8 175 
 PTB  HZ EP       17 6 46.03                             132    0.11 9  146 260 
 PTB  HN ES       17 7  6.37                             132   -0.28 9  146 260 
 PTB  HZ I        17 7  9.74         5.4 0.14            133            146 260 
 ZAR  HZ EP       17 6 51.51                             122   -0.08 9  204 293 
 ZAR  HN ES       17 7 16.71                             122   -0.04 9  204 293 
 ZAR  HZ I        17 7 24.96         4.6 0.30            123            204 293 
 SML  HZ EP       17 6 55.36                             117   -0.69 8  246 336 
 SML  HN ES     D 17 7 24.82                             117    0.14 8  246 336 
 SML  HZ I        17 7 29.66         8.9 0.11            118            246 336 
                                                                                
