 2012  1 2 1050 58.6 L   6.745 -73.136144.0  RSN  9 0.5 1.9LRSN                1
 GAP=140        1.10       6.6     7.0  8.8 -0.4067E+01  0.1021E+02 -0.2636E+01E
 Epicentro: JORDAN - SANTANDER                                                 3
 ACTION:UP  12-02-03 08:13 OP:REBC STATUS:               ID:20120102105058 L   I
 2012-01-02-1050-00M.COL___186                                                 6
 STAT SP IPHASW D HRMM SECON CODA AMPLIT PERI AZIMU VELO SNR AR TRES W  DIS CAZ7
 BAR2 SZ IP       1051 18.24                             173     0.310   18 197 
 BAR2 SZ ES   1   1051 32.45                             173    -0.6 7   18 197 
 BAR2 SZ I        1051 33.88        28.4 0.26                            18 197 
 BRR  HZ IP     C 1051 20.13                             151     0.310   75 302 
 BRR  HZ I        1051 20.49        36.6 0.12                            75 302 
 BRR  HN ES   1   1051 36.97                             151     0.6 7   75 302 
 PAM  SZ IP       1051 21.30                             149     0.410   82  36 
 PAM  SN ES   1   1051 37.84                             149    -0.5 7   82  36 
 PAM  SZ I        1051 40.24        10.1 0.60                            82  36 
 RUS  HZ EP       1051 21.87                             145     0.110   95 176 
 RUS  HN ES   2   1051 40.27                             145     0.4 5   95 176 
 RUS  HZ I        1051 42.71         7.7 0.30                            95 176 
 PTB  HZ EP       1051 24.78                             132    -0.7 9  148 261 
 PTB  HN ES   2   1051 45.66                             132    -0.7 5  148 261 
 PTB  HZ I        1051 48.66         6.9 0.16                           148 261 
 OCA  SZ EP       1051 26.94                             128    -0.5 9  166 353 
 ZAR  HZ EP   3   1051 31.13                             122    -0.2 2  207 294 
 ZAR  HE ES   2   1051 57.49                             122     0.7 4  207 294 
 ZAR  HZ I        1051 59.14         6.7 0.09                           207 294 
 CHI  HN ES   3   1052  4.56                             117     0.1 2  243 196 
 HEL  HZ EP   2   1051 39.00                             114     0.3 4  272 257 
 HEL  HZ I        1052 17.14         3.5 0.26                           272 257 
                                                                                
