 2011  2 2 1616 58.8 L   6.833 -73.149143.7  RSN 11 0.4 2.7LRSN                1
 GAP=104        0.80       3.9     5.0  6.1 -0.7620E+01  0.8835E+01 -0.3764E+01E
 Epicentro: LOS SANTOS - SANTANDER                                             3
 ACTION:UP  11-03-28 15:05 OP:jfem STATUS:               ID:20110202161658 L   I
 2011-02-02-1612-21S.COL___135                                                 6
 STAT SP IPHASW D HRMM SECON CODA AMPLIT PERI AZIMU VELO SNR AR TRES W  DIS CAZ7
 BAR2 SZ IP       1617 18.28                             169     0.010   27 188 
 BAR2 SZ I        1617 18.71        73.0 0.19                            27 188 
 BAR2 SZ ES   1   1617 33.50                             169     0.0 7   27 188 
 RUS  HZ EP   1   1617 22.35                             142    -0.3 7  104 176 
 RUS  HZ I        1617 23.58        39.0 0.15                           104 176 
 RUS  HN ES   1   1617 40.89                             142    -0.3 7  104 176 
 GRA  SZ IP       1617 23.92                             137     0.310  122  18 
 GRA  SZ ES   1   1617 42.98                             137     0.1 7  122  18 
 GRA  SZ I        1617 44.70        87.1 0.27                           122  18 
 YOP  SZ EP   1   1617 28.94                             125    -0.1 7  182 154 
 YOP  SZ I        1617 29.74        21.5 0.38                           182 154 
 YOP  SN ES   2   1617 53.61                             125     1.0 4  182 154 
 NOR  SZ EP   1   1617 34.57                             118    -0.1 6  237 234 
 NOR  SE ES   1   1618  2.15                             118    -0.4 6  237 234 
 ROSC BZ EP   2   1617 37.28                             116     0.1 4  256 211 
 ROSC BN ES   2   1618  7.34                             116     0.3 4  256 211 
 ROSC BZ I        1618 12.57        49.1 0.33                           256 211 
 HEL  HZ EP   2   1617 39.78                             114     0.8 4  273 255 
 HEL  HE ES   2   1618  9.84                             114    -0.5 4  273 255 
 HEL  HZ I        1618 17.72        35.4 0.37                           273 255 
 DBB  SZ IP       1617 46.28                             109     0.1 7  339 274 
 TOL  SZ EP   1   1617 47.97                             109     0.7 5  346 224 
 SDV  BZ IP     C 1617 47.66                             108    -0.9 6  358  51 
 SDV  BZ I        1617 48.54        16.7 0.18                           358  51 
 SJA  SZ EP   2   1617 53.73                             106     0.0 3  404 193 
 SJA  SZ I        1618 45.28        26.3 0.37                           404 193 
                                                                                
