 2015  2 2 1759 32.9 L   6.804 -73.127151.3  RSN 10 0.4 2.2LRSN                1
 GAP=139        1.10       4.2     4.5  6.1 -0.4061E+01  0.8239E+01  0.1504E+00E
 Epicentro: LOS SANTOS - SANTANDER                                             3
 ACTION:UPD 15-04-30 21:20 OP:nd   STATUS:               ID:20150202175932 L   I
 OLDACT:UP  15-02-02 23:58 OP:cam  STATUS:               ID:20150202175817     3
 OLDACT:UP  15-02-02 23:58 OP:cam  STATUS:               ID:20150202175817     3
 OLDACT:REG 15-02-02 23:00 OP:y    STATUS:               ID:20150202175817     3
 2015-02-02-1758-17M.COL___268                                                 6
 STAT SP IPHASW D HRMM SECON CODA AMPLIT PERI AZIMU VELO AIN AR TRES W  DIS CAZ7
 BAR2 EZ EP     D 1759 53.15                             171   -0.0310 24.2 195 
 BAR2 EZ ES       18 0  8.56                             171   -0.4710 24.2 195 
 BAR2 EZ I        18 0 10.87        19.9 0.28            171           24.2 195 
 BRR  HZ EP       1759 54.99                             153    0.2810 72.9 297 
 BRR  HN I        18 0 12.66        41.9 0.26            152           72.9 297 
 BRR  HN ES       18 0 12.83                             153    1.0810 72.9 297 
 PAM  SZ EP     C 1759 55.99                             152    0.4110 75.7  39 
 PAM  SN ES       18 0 13.34                             152    0.0410 75.7  39 
 PAM  SZ I        18 0 15.15        18.3 0.20            153           75.7  39 
 RUS  HZ EP       1759 57.07                             145   -0.1210  101 177 
 RUS  HE ES       18 0 15.80                             145   -0.3610  101 177 
 RUS  HZ I        18 0 20.33         6.8 0.28            145            101 177 
 PTB  HZ EP       18 0  0.17                             133   -0.31 9  150 259 
 PTB  HN ES       18 0 21.42                             133   -0.61 9  150 259 
 PTB  HN I        18 0 26.63        38.2 0.26            132            150 259 
 SPBC HZ EP       18 0  2.15                             130    0.20 9  165 219 
 SPBC HN ES       18 0 24.81                             130    0.17 9  165 219 
 SPBC HZ I        18 0 31.18        24.3 0.36            130            165 219 
 ZAR  HZ EP   1   18 0  5.89                             123    0.03 6  206 292 
 ZAR  HN ES       18 0 30.99                             123   -0.61 8  206 292 
 NOR  HZ EP       18 0  9.17                             119    0.04 8  237 235 
 NOR  HN ES       18 0 37.40                             119   -0.02 8  237 235 
 NOR  HZ I        18 0 40.89         8.4 0.24            119            237 235 
 SML  HZ EP       18 0  9.18                             118   -0.68 8  244 335 
 SML  HN ES   4   18 0 36.96                             118   -1.76 0  244 335 
 GUY2CHZ EP       18 0 17.39                             113    0.43 7  303 235 
 GUY2CHN ES       18 0 51.94                             113    0.59 7  303 235 
 GUY2CHN I        18 1  2.17        11.3 0.60                           303 235 
 RREF HZ EP   4   18 0 21.40                             112    1.93 0  324 230 
                                                                                
