 2016 10 2 1545 45.2 L   7.338 -73.265122.1  RSN  6 0.4 1.5LRSN                1
 GAP=174        0.92       6.5     3.7  6.9 -0.4434E+00  0.5415E+01  0.2725E+01E
 Epicentro: RIONEGRO - SANTANDER                                               3
 ACTION:UPD 16-11-09 19:15 OP:rebc STATUS:               ID:20161002154545 L   I
 OLDACT:UP  16-10-03 00:12 OP:dani STATUS:               ID:20161002153743     3
 OLDACT:REG 16-10-02 21:03 OP:dani STATUS:               ID:20161002153743     3
 2016-10-02-1538-00M.COL___381                                                 6
 STAT SP IPHASW D HRMM SECON CODA AMPLIT PERI AZIMU VELO AIN AR TRES W  DIS CAZ7
 BRR  HZ EP       1546  2.49                             154   -0.4010 55.6 243 
 BRR  HN ES       1546 16.43                             154   -0.2710 55.6 243 
 BRR  HZ I        1546 16.97        15.6 0.10            137           55.6 243 
 PAM  EZ EP       1546  4.11                             151    0.1310 62.4  90 
 PAM  EE ES       1546 18.86                             151    0.2110 62.4  90 
 PAM  EZ I        1546 20.77         6.8 0.19            128           62.4  90 
 BAR2 EZ EP       1546  5.01                             144    0.0510 82.9 174 
 BAR2 EZ ES       1546 20.22                             144   -0.1810 82.9 174 
 BAR2 EZ I        1546 21.57        16.7 0.42            119           82.9 174 
 PTB  HZ EP       1546 10.73                             124   -0.67 9  159 236 
 PTB  HE ES       1546 32.44                             124    0.58 9  159 236 
 PTB  HZ I        1546 33.78         3.9 0.11            108            159 236 
 RUS  HZ EP       1546 12.63                             124    0.35 9  161 173 
 RUS  HZ I        1546 40.77         1.0 0.18            106            161 173 
 ZAR  HE ES       1546 35.49                             121    0.30 9  177 276 
                                                                                
