 2015  4 2 1714 37.9 L   5.937 -73.855104.6  RSN  6 0.5 1.3LRSN                1
 GAP=157        1.20       5.4     4.0 10.5 -0.4124E+01  0.8594E+01 -0.1456E+01E
 Epicentro: SUCRE - SANTANDER                                                  3
 ACTION:UPD 15-06-03 16:51 OP:cam  STATUS:               ID:20150402171437 L   I
 OLDACT:REG 15-04-02 21:59 OP:fm   STATUS:               ID:20150402170749     3
 2015-04-02-1707-49M.COL___286                                                 6
 STAT SP IPHASW D HRMM SECON CODA AMPLIT PERI AZIMU VELO AIN AR TRES W  DIS CAZ7
 RUS  HZ EP       1714 56.51                             138   -0.0710 85.6  93 
 RUS  HN ES       1715 10.54                             138   -0.6210 85.6  93 
 RUS  HZ I        1715 14.64         1.5 0.32            144           85.6  93 
 PTB  HZ EP       1714 55.91                             134   -0.7310 94.1 315 
 PTB  HN ES       1715 11.45                             134    0.1710 94.1 315 
 PTB  HZ I        1715 14.63         3.7 0.12            140           94.1 315 
 BAR2 EZ EP       1714 58.58                             132    0.7710  104  46 
 BAR2 EZ ES       1715 13.92                             132    0.5610  104  46 
 BAR2 EZ I        1715 16.33        14.4 0.26            137            104  46 
 NOR  HZ EP       1714 59.11                             127    0.0610  120 250 
 NOR  HN ES       1715 15.88                             127    0.3110  120 250 
 NOR  HZ I        1715 17.95         6.5 0.18            133            120 250 
 BRR  HZ EP       1715  0.24                             124    0.2010  130   7 
 BRR  HN ES       1715 16.92                             124   -0.4110  130   7 
 BRR  HZ I        1715 20.78         3.0 0.28            130            130   7 
 ZAR  HZ EP       1715  7.79                             111   -0.30 9  205 327 
                                                                                
