 2017 11 2 1618 40.5 L   6.824 -73.132144.1  RSN 15 0.5 2.1LRSN                1
 GAP=112        0.88       3.3     3.2  5.8  0.1128E+01  0.5234E+01  0.4543E+01E
 Epicentro: LOS SANTOS - SANTANDER                                             3
 ACTION:UPD 17-12-12 19:51 OP:rebc STATUS:               ID:20171102161840 L   I
 OLDACT:UP  17-11-03 00:00 OP:mg   STATUS:               ID:20171102161746     3
 OLDACT:REG 17-11-02 20:33 OP:mg   STATUS:               ID:20171102161746     3
 2017-11-02-1618-00M.COL___444                                                 6
 STAT SP IPHASW D HRMM SECON CODA AMPLIT PERI AZIMU VELO AIN AR TRES W  DIS CAZ7
 BAR2 EZ IP     C 1618 59.86                             169   -0.1110 26.2 192 
 BAR2 EZ ES   2   1619 15.01                             169   -0.16 5 26.2 192 
 BAR2 EZ I        1619 16.45        32.1 0.24            167           26.2 192 
 PAM  EZ IP     D 1619  2.43                             151    0.1010 74.4  40 
 PAM  EN ES       1619 19.57                             151    0.1910 74.4  40 
 PAM  EZ I        1619 22.19        10.5 0.54            154           74.4  40 
 RUS  HZ EP       1619  3.84                             143   -0.4110  103 177 
 RUS  HN ES       1619 22.80                             143    0.0110  103 177 
 RUS  HZ I        1619 24.03        20.4 0.30            142            103 177 
 PTB  HZ EP       1619  6.58                             131   -0.91 9  150 258 
 PTB  HN ES       1619 27.91                             131   -0.65 9  150 258 
 PTB  HZ I        1619 30.05        11.3 0.14            130            150 258 
 SPBC HZ EP       1619  9.06                             128   -0.07 9  166 219 
 SPBC HN ES   1   1619 31.65                             128    0.16 7  166 219 
 SPBC HZ I        1619 33.47        19.6 0.12            127            166 219 
 YPLC HZ EP       1619 10.28                             126   -0.03 9  178 152 
 YPLC HE ES   1   1619 34.13                             126    0.55 7  178 152 
 YPLC HZ I        1619 37.49         8.1 0.04            126            178 152 
 ZAR  HZ EP       1619 13.53                             122    0.68 9  204 291 
 ZAR  HN ES       1619 38.40                             122    0.29 9  204 291 
 ZAR  HZ I        1619 43.63        12.7 0.30            121            204 291 
 TABC EZ EP   4   1619 18.45                             118    2.00 0  233 211 
 TABC EZ ES   4   1619 48.18                             118    3.67 0  233 211 
 TABC EZ I    4   1619 49.65        11.6 0.36            118            233 211 
 NOR  HZ EP       1619 16.46                             118    0.06 8  237 234 
 NOR  HE ES       1619 45.00                             118    0.57 8  237 234 
 NOR  HZ I        1619 47.51         8.6 0.16            117            237 234 
 CHI  HZ EP   1   1619 18.24                             116   -0.16 6  252 195 
 CHI  HN ES   2   1619 48.18                             116    0.19 4  252 195 
 CHI  HZ I        1619 55.85         3.6 0.54            116            252 195 
 GUY2CHZ EP   1   1619 25.14                             112    0.82 5  304 235 
 GUY2CHN ES   4   1620  0.90                             112    2.38 0  304 235 
 GUY2CHZ I        1620  6.65         7.6 0.38                           304 235 
 PTGC HZ EP   3   1619 22.94                             111   -1.53 2  311 159 
 PTGC HN ES   1   1619 58.77                             111   -0.03 5  311 159 
 ELA  HZ EP   4   1619 30.30                             110    2.72 0  332 229 
 ELA  HN ES   4   1620  8.40                             110    4.07 0  332 229 
 ELA  HZ I        1620 13.77         4.6 0.21            109            332 229 
 PRA  HZ EP       1619 34.03                             106   -0.26 6  395 210 
 PRA  HN ES   2   1620 17.29                             106    1.02 3  395 210 
 PRA  HZ I        1620 22.81         5.9 0.26            106            395 210 
 ORTC HZ EP   1   1619 35.08                             106    0.39 4  398 216 
 ORTC HN ES   3   1620 18.90                             106    1.92 1  398 216 
 ORTC HZ I        1620 24.85         4.1 0.28            106            398 216 
 SJC  HZ EP   4   1619 33.90                             105   -1.91 0  408 327 
 SJC  HN ES   4   1620 15.09                             105   -3.89 0  408 327 
 SJC  HZ I        1620 25.63         2.6 0.62            106            408 327 
                                                                                
