 2011  4 2 1806 40.6 L   6.793 -73.124141.6  RSN 13 0.4 3.0LRSN                1
 GAP=116        0.78       3.7     4.1  5.3 -0.5329E+01  0.1117E+01  0.6945E+01E
 Epicentro: LOS SANTOS - SANTANDER                                             3
 ACTION:UP  11-06-22 15:28 OP:REBC STATUS:               ID:20110402180640 L   I
 2011-04-02-1804-58S.COL___138                                                 6
 STAT SP IPHASW D HRMM SECON CODA AMPLIT PERI AZIMU VELO SNR AR TRES W  DIS CAZ7
 BTL  SZ IP       18 6 59.95                             171     0.210   21 311 
 BAR2 SZ IP       18 6 59.70                             170     0.010   23 196 
 BAR2 SZ ES   1   18 7 14.20                             170    -0.5 7   23 196 
 BAR2 SZ I        18 7 17.46       279.8 0.30                            23 196 
 GIR2 SZ IP       18 6 59.71                             166    -0.110   33 346 
 GIR2 SZ ES   1   18 7 14.77                             166     0.0 7   33 346 
 BRR  HZ IP     C 18 7  1.44                             151     0.010   74 298 
 BRR  HE ES   1   18 7 18.49                             151     0.8 7   74 298 
 BRR  HZ I        18 7 22.45       212.7 0.35                            74 298 
 PAM  SZ EP   1   18 7  2.65                             150     0.3 7   77  38 
 PAM  SN ES   2   18 7 19.22                             150    -0.1 5   77  38 
 GRA  SZ EP       18 7  5.36                             136    -0.110  126  16 
 GRA  SZ I        18 7  6.60       168.6 0.30                           126  16 
 GRA  SZ ES   1   18 7 25.10                             136     0.2 7  126  16 
 OCA  SZ EP   1   18 7  8.06                             128    -0.7 7  161 352 
 OCA  SZ ES   2   18 7 29.93                             128    -0.7 5  161 352 
 OCA  SZ I        18 7 38.46       126.4 0.21                           161 352 
 YOP  SZ IP       18 7 10.49                             126     0.3 9  177 154 
 YOP  SZ I        18 7 11.11        52.4 0.16                           177 154 
 NOR  SZ EP   1   18 7 15.90                             117    -0.4 6  236 235 
 NOR  SN ES   2   18 7 43.44                             117    -0.6 4  236 235 
 CHI  HZ EP   1   18 7 17.93                             116    -0.1 6  248 196 
 CHI  HE ES   2   18 7 46.66                             116    -0.6 4  248 196 
 CHI  HZ I        18 7 50.98        87.2 0.55                           248 196 
 HEL  HZ EP   1   18 7 21.32                             114     0.5 6  274 256 
 HEL  HN ES       18 7 52.08                             114    -0.2 8  274 256 
 HEL  HZ I        18 7 57.91        31.1 0.23                           274 256 
 RREF HZ EP   2   18 7 27.35                             110     0.6 3  323 230 
 RREF HE ES   2   18 8  3.01                             110     0.3 3  323 230 
 RREF HZ I        18 8  9.27        53.0 0.26                           323 230 
 TOL  SZ EP   1   18 7 29.26                             108     0.4 5  345 225 
                                                                                
