 2012  3 2 1128 52.2 L   6.797 -73.161142.8  RSN  8 0.4 1.9LRSN                1
 GAP=135        0.83       4.9     4.7  7.1 -0.1347E+01  0.1048E+02  0.1685E+01E
 ACTION:UP  12-03-31 23:16 OP:EP   STATUS:               ID:20120302112852 L   I
 2012-03-02-1127-59S.COL___193                                                 6
 STAT SP IPHASW D HRMM SECON CODA AMPLIT PERI AZIMU VELO SNR AR TRES W  DIS CAZ7
 BAR2 SZ EP   1   1129 11.43                             171     0.0 7   23 186 
 BAR2 SZ ES   1   1129 26.09                             171    -0.4 7   23 186 
 BAR2 SZ I        1129 27.74        19.1 0.18                            23 186 
 BRR  HZ EP   1   1129 13.17                             152     0.2 7   70 299 
 BRR  HN ES   1   1129 29.53                             152     0.4 7   70 299 
 BRR  HZ I        1129 30.96        21.6 0.09                            70 299 
 PAM  SZ EP   1   1129 14.38                             150     0.2 7   79  40 
 PAM  SZ I        1129 14.56        17.3 0.14                            79  40 
 PAM  SN ES   1   1129 31.01                             150    -0.3 7   79  40 
 RUS  HN ES   1   1129 34.32                             143     0.4 7  100 175 
 RUS  HZ I        1129 35.18         7.5 0.27                           100 175 
 PTB  HZ EP   1   1129 18.10                             132    -0.6 7  146 259 
 PTB  HN ES   1   1129 38.84                             132    -0.6 7  146 259 
 ZAR  HZ EP   1   1129 24.34                             122     0.1 6  203 292 
 ZAR  HN ES   1   1129 49.63                             122     0.3 6  203 292 
 ZAR  HZ I        1129 55.86         6.9 0.16                           203 292 
 NOR  SN ES   1   1129 55.48                             118     0.3 6  233 234 
 CHI  HZ EP   1   1129 29.49                             117    -0.1 6  248 195 
                                                                                
