 2015 10 2 1426 41.8 L   6.754 -73.121149.0  RSN  5 0.4 1.7LRSN                1
 GAP=226        0.81       4.9     7.8  9.7 -0.1126E+02  0.2678E+02 -0.1673E+02E
 Epicentro: LOS SANTOS - SANTANDER                                             3
 ACTION:UPD 15-12-22 20:36 OP:cam  STATUS:               ID:20151002142641 L   I
 OLDACT:REG 15-10-02 20:48 OP:spq  STATUS:               ID:20151002141735     3
 2015-10-02-1417-35M.COL___357                                                 6
 STAT SP IPHASW D HRMM SECON CODA AMPLIT PERI AZIMU VELO AIN AR TRES W  DIS CAZ7
 BAR2 EZ ES   1   1427 17.37                             172    0.04 8 19.1 201 
 BAR2 EZ I        1427 17.72         8.5 0.36            167           19.1 201 
 PTB  HZ EP       1427  9.26                             132    0.0310  150 261 
 PTB  HN ES   1   1427 29.86                             132   -0.74 7  150 261 
 PTB  HZ I        1427 32.41         3.7 0.18            129            150 261 
 ZAR  HN ES       1427 40.80                             122    0.02 9  209 293 
 ZAR  HZ I        1427 46.28         5.2 0.58            121            209 293 
 NOR  HN ES       1427 46.07                             119    0.42 9  234 236 
 NOR  HZ I        1427 53.32         2.4 0.32            117            234 236 
 SML  HZ EP   1   1427 18.63                             117   -0.64 6  249 335 
 SML  HN ES       1427 48.86                             117    0.40 8  249 335 
 SML  HZ I        1427 49.80         5.4 0.12            117            249 335 
                                                                                
