 2013  1 2 1646 53.7 L   6.835 -73.140141.0  RSN  6 0.4 1.7LRSN                1
 GAP=241        0.76       5.5     6.6  6.7  0.2095E+02  0.8858E+01  0.5588E+01E
 Epicentro: LOS SANTOS - SANTANDER                                             3
 ACTION:UPD 13-02-15 09:11 OP:ep   STATUS:               ID:20130102164653 L   I
 2013-01-02-1640-00M.COL___242                                                 6
 STAT SP IPHASW D HRMM SECON CODA AMPLIT PERI AZIMU VELO AIN AR TRES W  DIS CAZ7
 BAR2 SZ EP   1   1647 12.93                             169    0.10 7 27.3 190 
 BAR2 SZ ES   1   1647 27.09                             169   -0.67 7 27.3 190 
 BAR2 SZ I        1647 30.98        12.3 0.62            169           27.3 190 
 BRR  HZ EP   1   1647 14.41                             152    0.16 7 70.0 295 
 BRR  HN ES   1   1647 30.76                             152    0.47 7 70.0 295 
 RUS  HZ EP   1   1647 17.48                             142    0.22 7  104 177 
 RUS  HN ES   1   1647 35.89                             142    0.25 7  104 177 
 RUS  HZ I        1647 37.57         5.3 0.18            145            104 177 
 PTB  HZ EP   1   1647 19.63                             131   -0.77 7  149 257 
 PTB  HN ES   1   1647 40.95                             131   -0.29 7  149 257 
 PTB  HZ I        1647 43.27         7.8 0.20            132            149 257 
 ZAR  HZ EP   1   1647 25.54                             121   -0.19 6  203 291 
 ZAR  HN ES   1   1647 51.18                             121    0.45 6  203 291 
 ZAR  HZ I        1647 56.02         3.9 0.18            123            203 291 
 CHI  HZ EP   1   1647 31.56                             116    0.01 6  253 195 
 CHI  HN ES   1   1648  1.41                             116    0.32 6  253 195 
                                                                                
