 2014  8 2 1944 30.3 L   6.869 -73.168137.1  RSN 16 0.5 2.7LRSN                1
 GAP=130        0.96       2.8     3.7  5.1 -0.1450E+01  0.7185E+01  0.4106E+00E
 Epicentro: ZAPATOCA - SANTANDER                                               3
 ACTION:UPD 14-09-15 21:46 OP:nd   STATUS:               ID:20140802194430 L   I
 OLDACT:UP  14-08-03 01:07 OP:mh   STATUS:               ID:20140802193819     3
 OLDACT:UP  14-08-03 01:07 OP:mh   STATUS:               ID:20140802193819     3
 OLDACT:UP  14-08-03 01:07 OP:mh   STATUS:               ID:20140802193819     3
 OLDACT:REG 14-08-02 21:31 OP:mh   STATUS:               ID:20140802193819     3
 2014-08-02-1938-19M.COL___251                                                 6
 STAT SP IPHASW D HRMM SECON CODA AMPLIT PERI AZIMU VELO AIN AR TRES W  DIS CAZ7
 BAR2 SZ EP       1944 48.90                             167   -0.1910 30.6 183 
 BAR2 SZ ES       1945  3.69                             167   -0.0410 30.6 183 
 BAR2 SZ I    1   1945  5.11       103.8 0.19            165           30.6 183 
 BRR  HZ IP     C 1944 50.56                             153    0.3410 65.6 294 
 BRR  HN ES   1   1945  5.64                             153   -0.10 7 65.6 294 
 BRR  HZ I        1945  9.13       128.4 0.50            150           65.6 294 
 PAM  SZ EP   1   1944 51.46                             151    0.08 7 73.4  45 
 PAM  SN ES       1945  8.24                             151    0.4410 73.4  45 
 PAM  SZ I        1945 10.45       190.1 0.29            156           73.4  45 
 RUS  HZ EP       1944 53.74                             140   -0.0910  108 175 
 RUS  HN ES       1945 12.08                             140   -0.0910  108 175 
 RUS  HZ I        1945 13.81        24.6 0.30            141            108 175 
 PTB  HZ EP   1   1944 55.67                             130   -0.86 7  147 256 
 PTB  HN ES       1945 16.92                             130   -0.05 9  147 256 
 PTB  HZ I        1945 19.16       114.5 0.20            129            147 256 
 OCA  HZ EP       1944 56.39                             129   -0.84 9  152 354 
 OCA  HN ES       1945 17.90                             129   -0.31 9  152 354 
 OCA  HZ I        1945 21.72        45.7 0.16            131            152 354 
 SPBC HZ EP   1   1944 58.67                             126    0.06 7  168 217 
 SPBC HN ES   1   1945 21.12                             126    0.44 7  168 217 
 SPBC HZ I        1945 28.98        48.6 0.18            126            168 217 
 ZAR  HZ EP       1945  1.67                             121   -0.02 9  199 290 
 ZAR  HN ES       1945 26.42                             121    0.27 9  199 290 
 ZAR  HZ I        1945 32.54       125.7 0.12            121            199 290 
 SML  HZ EP       1945  6.08                             116    0.47 8  236 335 
 SML  HN ES   4   1945 31.72                             116   -1.41 0  236 335 
 SML  HZ I        1945 38.31        53.5 0.10            118            236 335 
 CHI  HZ EP       1945  8.30                             115   -0.01 8  255 194 
 CHI  HN ES   1   1945 37.29                             115   -0.64 6  255 194 
 CHI  HZ I        1945 41.92         9.9 0.22            116            255 194 
 HEL  HZ EP       1945 11.03                             113    0.97 8  272 254 
 HEL  HN ES   1   1945 41.47                             113    0.41 6  272 254 
 HEL  HZ I        1945 48.66        30.1 0.60            114            272 254 
 URE  HZ EP   4   1945  9.05                             112   -1.37 0  279 291 
 URE  HN ES   4   1945 38.80                             112   -2.88 0  279 291 
 URE  HZ I        1945 42.73        70.4 0.26            113            279 291 
 GUY2CHZ EP       1945 14.30                             110    0.47 7  304 233 
 GUY2CHN ES       1945 47.74                             110   -0.02 7  304 233 
 GUY2CHZ I        1945 58.28        21.6 0.32                           304 233 
 RREF HZ EP   4   1945 17.64                             109    1.17 0  325 228 
 RREF HN ES   4   1945 54.52                             109    2.06 0  325 228 
 RREF HZ I        1946  0.38        11.9 0.36            110            325 228 
 CBOC HZ EP       1945 16.53                             108   -0.38 7  334 251 
 CBOC HN ES   1   1945 51.92                             108   -1.31 5  334 251 
 CBOC HZ I        1946  1.81         9.6 0.61            109            334 251 
 TOL  SZ EP   1   1945 19.44                             107    0.76 5  347 223 
 TOL  SN ES   4   1945 57.44                             107    1.04 0  347 223 
 TOL  SZ I        1946  4.79        40.8 0.60            108            347 223 
                                                                                
