 2011  8 2 1427 52.5 L   7.383 -73.198130.1  RSN  6 0.4 2.2LRSN                1
 GAP=110        0.95       4.8     7.5  8.0 -0.8221E+01  0.9925E+01 -0.2553E+00E
 Epicentro: EL PLAYON - SANTANDER                                              3
 ACTION:UPD 12-07-25 14:05 OP:epov STATUS:               ID:20110802142752 L   I
 2011-08-02-1424-12S.COL___137                                                 6
 STAT SP IPHASW D HRMM SECON CODA AMPLIT PERI AZIMU VELO AIN AR TRES W  DIS CAZ7
 PAM  SZ EP       1428 11.88                             156    0.1010 55.3  95 
 PAM  SN ES   1   1428 27.17                             156    0.33 7 55.3  95 
 BRI  SZ EP       1428 11.87                             155    0.4210 57.6  50 
 BRI  SZ ES   1   1428 25.69                             155   -0.55 7 57.6  50 
 BRR  HZ EP       1428 11.62                             152    0.0610 64.4 242 
 BRR  HN ES   1   1428 26.54                             152    0.10 7 64.4 242 
 BRR  HZ I        1428 27.61        56.9 0.12                          64.4 242 
 BAR2 SZ EP       1428 13.51                             144    0.1210 87.4 179 
 BAR2 SZ ES   1   1428 30.10                             144    0.40 7 87.4 179 
 BAR2 SZ I        1428 31.11        24.9 0.12                          87.4 179 
 OCA  SZ EP       1428 13.43                             142   -0.4510 95.6 352 
 RUS  HZ EP       1428 20.73                             125    0.16 9  165 176 
 RUS  HN ES   1   1428 41.34                             125   -1.14 7  165 176 
                                                                                
