 2013  3 2 1048 40.3 L   6.775 -73.164144.7  RSN  9 0.4 1.9LRSN                1
 GAP=135        0.79       3.6     5.2  6.5  0.4638E+01  0.3615E+01  0.2971E+01E
 Epicentro: LOS SANTOS - SANTANDER                                             3
 ACTION:UPD 13-04-09 13:59 OP:ep   STATUS:               ID:20130302104840 L   I
 2013-03-02-1047-51M.COL___196                                                 6
 STAT SP IPHASW D HRMM SECON CODA AMPLIT PERI AZIMU VELO AIN AR TRES W  DIS CAZ7
 BAR2 SZ EP   1   1048 59.82                             172    0.05 7 20.4 186 
 BAR2 SZ ES   1   1049 14.23                             172   -0.70 7 20.4 186 
 BAR2 SZ I        1049 16.45        50.8 0.28            173           20.4 186 
 BRR  HZ EP     C 1049  1.61                             152    0.2710 70.8 301 
 BRR  HN ES   1   1049 18.72                             152    1.00 7 70.8 301 
 BRR  HZ I        1049 22.72        13.3 0.28            149           70.8 301 
 PAM  SZ EP   1   1049  2.78                             149    0.15 7 80.7  39 
 PAM  SZ I        1049 22.00         8.0 0.56            139           80.7  39 
 RUS  HZ EP   1   1049  3.76                             144   -0.03 7 98.0 175 
 RUS  HN ES   1   1049 22.01                             144   -0.07 7 98.0 175 
 RUS  HZ I        1049 23.88        14.0 0.36            142           98.0 175 
 PTB  HZ EP   1   1049  6.50                             132   -0.48 7  145 260 
 PTB  HN ES   1   1049 27.48                             132   -0.29 7  145 260 
 PTB  HZ I        1049 34.80        10.0 0.42            130            145 260 
 ZAR  HE ES   1   1049 37.61                             122   -0.20 6  203 293 
 ZAR  HZ I        1049 43.60         8.3 0.20            118            203 293 
 CHI  HZ EP   1   1049 17.74                             117    0.12 6  245 195 
 CHI  HN ES   1   1049 46.80                             117    0.09 6  245 195 
 CHI  HZ I        1049 57.20         4.4 0.42            114            245 195 
 SML  HN ES   1   1049 45.20                             117   -0.53 6  245 336 
 PRA  HZ EP   1   1049 33.50                             106    0.08 4  389 210 
 PRA  HN ES   1   1050 15.14                             106    0.31 4  389 210 
                                                                                
