 2015 12 2 1236 23.6 L   6.818 -73.156149.4  RSN 23 0.4 2.7LRSN                1
 GAP=118        0.92       2.1     3.4  4.2 -0.2127E+01  0.3081E+01 -0.9940E-02E
 Epicentro: LOS SANTOS - SANTANDER                                             3
 ACTION:UPD 16-02-04 15:02 OP:cam  STATUS:               ID:20151202123623 L   I
 OLDACT:REG 15-12-02 19:56 OP:drio STATUS:               ID:20151202122747     3
 2015-12-02-1227-47M.COL___315                                                 6
 STAT SP IPHASW D HRMM SECON CODA AMPLIT PERI AZIMU VELO AIN AR TRES W  DIS CAZ7
 BAR2 EZ IP     D 1236 43.86                             170    0.1410 25.1 187 
 BAR2 EZ ES       1236 59.00                             170   -0.4010 25.1 187 
 BAR2 EZ I        1237  0.56       122.2 0.20            168           25.1 187 
 BRR  HZ IP     D 1236 45.75                             154    0.6910 69.3 298 
 BRR  HN ES       1237  2.17                             154    0.3910 69.3 298 
 BRR  HZ I        1237  6.64       128.3 0.48            150           69.3 298 
 PAM  EZ EP       1236 46.85                             152    0.6810 76.6  41 
 PAM  EN ES       1237  3.93                             152    0.1610 76.6  41 
 PAM  EZ I        1237  6.03       160.4 0.50            157           76.6  41 
 RUS  HZ EP       1236 47.89                             144    0.0210  103 176 
 RUS  HE ES       1237  6.29                             144   -0.5010  103 176 
 RUS  HZ I        1237  7.57        40.2 0.28            145            103 176 
 PTB  HZ EP       1236 50.61                             133   -0.21 9  147 258 
 PTB  HN ES       1237 11.68                             133   -0.36 9  147 258 
 PTB  HZ I        1237 18.60        39.8 0.44            131            147 258 
 OCA  HZ EP       1236 51.96                             131   -0.06 9  158 353 
 OCA  HN ES       1237 13.79                             131   -0.38 9  158 353 
 OCA  HZ I        1237 18.95        85.2 0.26            132            158 353 
 SPBC HZ EP       1236 52.76                             130    0.29 9  164 218 
 SPBC HE ES       1237 15.03                             130    0.05 9  164 218 
 SPBC HZ I        1237 18.11        68.3 0.10            129            164 218 
 ZAR  HZ EP       1236 56.41                             123    0.29 9  202 292 
 ZAR  HE ES   4   1237 20.56                             123   -0.92 0  202 292 
 ZAR  HZ I        1237 27.94        60.8 0.28            123            202 292 
 NOR  HZ EP       1237  0.03                             119    0.44 8  235 234 
 NOR  HN ES       1237 27.38                             119   -0.26 8  235 234 
 NOR  HZ I        1237 36.14        20.6 0.14            119            235 234 
 SML  HZ EP       1237  0.11                             118   -0.10 8  241 335 
 SML  HE ES       1237 28.94                             118    0.19 8  241 335 
 SML  HZ I        1237 32.15        70.2 0.28            119            241 335 
 ROSC BZ EP   4   1237  5.24                             117    3.18 0  254 211 
 ROSC BE ES       1237 32.39                             117    0.35 8  254 211 
 ROSC BZ I        1237 37.56        56.8 0.40            118            254 211 
 HEL  HZ EP   4   1237  5.57                             115    1.62 0  272 255 
 HEL  HN ES       1237 35.12                             115   -0.30 8  272 255 
 HEL  HZ I        1237 44.74        12.1 0.18            116            272 255 
 GUY2CHZ EP   4   1237  9.20                             113    1.78 0  301 234 
 GUY2CHN ES   4   1237 43.25                             113    1.66 0  301 234 
 GUY2CHZ I        1237 48.06        12.8 0.36                           301 234 
 SOCV BZ EP   4   1237  5.79                             113   -1.02 0  301  57 
 SOCV BE ES   4   1237 37.62                             113   -2.89 0  301  57 
 VIL  SZ EP   4   1237  9.16                             112    1.77 0  305 191 
 VIL  SE ES       1237 41.63                             112    0.09 7  305 191 
 PTGC HZ EP       1237  7.04                             112   -0.85 7  311 159 
 PTGC HE ES   4   1237 40.29                             112   -2.13 0  311 159 
 PTGC HZ I        1237 45.47        36.0 0.60            114            311 159 
 LL6C HZ EP       1237  8.50                             111   -0.75 7  323 358 
 LL6C HE ES       1237 44.47                             111   -0.37 7  323 358 
 ELA  HZ EP   4   1237 14.58                             111    3.91 0  330 229 
 ELA  HN ES   4   1237 43.35                             111   -4.03 0  330 229 
 ELA  HZ I        1237 56.30        15.2 0.56            111            330 229 
 DBB  SZ EP   4   1237 10.10                             110   -1.00 0  338 274 
 DBB  SZ ES   4   1237 47.40                             110   -0.74 0  338 274 
 DBB  SZ I        1237 53.04        38.3 0.32            110            338 274 
 MON  HZ EP   4   1237 11.55                             109   -0.97 0  352 308 
 MON  HN ES   4   1237 49.74                             109   -0.93 0  352 308 
 MON  HZ I        1237 51.28        12.4 0.24            110            352 308 
 ANIL HZ EP   4   1237 16.20                             109    2.57 0  358 224 
 ANIL HN ES       1237 52.37                             109   -0.28 6  358 224 
 ANIL HZ I        1237 58.46        60.5 0.42            110            358 224 
 PRA  HZ EP       1237 17.68                             107    0.28 6  393 209 
 PRA  HN ES       1237 58.93                             107   -0.42 6  393 209 
 PRA  HZ I        1238  2.79        21.1 0.30            108            393 209 
 ORTC HZ EP       1237 18.14                             107    0.37 6  396 216 
 ORTC HE ES       1238  0.51                             107    0.50 6  396 216 
 ORTC HZ I        1238  5.37        16.9 0.60            108            396 216 
 SJC  HZ EP       1237 18.20                             106   -0.84 6  407 327 
 SJC  HN ES   4   1237 59.19                             106   -3.08 0  407 327 
 SJC  HZ I        1238  3.63         8.4 0.50            107            407 327 
                                                                                
