 2017 10 2 1707 34.6 L   6.821 -73.172142.9  RSN 11 0.4 2.2LRSN                1
 GAP=110        0.81       2.8     3.5  5.2  0.1044E+01  0.7507E+01  0.3297E+01E
 Epicentro: LOS SANTOS - SANTANDER                                             3
 ACTION:UPD 17-11-07 19:27 OP:rebc STATUS:               ID:20171002170734 L   I
 OLDACT:UP  17-10-03 00:08 OP:dhb  STATUS:               ID:20171002165740d    3
 OLDACT:DUP 17-10-03 00:04 OP:dhb  STATUS:               ID:20171002165740d    3
 2017-10-02-1658-00M.COL___435                                                 6
 STAT SP IPHASW D HRMM SECON CODA AMPLIT PERI AZIMU VELO AIN AR TRES W  DIS CAZ7
 BAR2 EZ IP     D 17 7 53.75                             170   -0.1910 25.3 183 
 BAR2 EZ ES       17 8  8.81                             170   -0.2110 25.3 183 
 BAR2 EZ I        17 8 10.38        31.5 0.14            165           25.3 183 
 PAM  EZ IP     D 17 7 56.77                             150    0.2410 77.6  42 
 PAM  EN ES       17 8 13.94                             150    0.3110 77.6  42 
 PAM  EZ I        17 8 16.22        16.0 0.64            155           77.6  42 
 RUS  HZ EP       17 7 57.94                             142   -0.3310  103 175 
 RUS  HN ES       17 8 16.92                             142    0.2010  103 175 
 RUS  HZ I        17 8 17.58        21.0 0.24            139            103 175 
 YPLC HZ EP       17 8  4.19                             125   -0.35 9  180 151 
 YPLC HN ES       17 8 28.10                             125    0.23 9  180 151 
 YPLC HZ I        17 8 29.20        21.8 0.28            124            180 151 
 ZAR  HZ EP       17 8  6.23                             122   -0.28 9  201 292 
 ZAR  HE ES       17 8 31.44                             122    0.06 9  201 292 
 ZAR  HZ I        17 8 37.28        15.9 0.42            121            201 292 
 NOR  HZ IP     C 17 8  9.95                             118   -0.12 8  234 234 
 NOR  HE ES       17 8 37.17                             118   -0.55 8  234 234 
 NOR  HZ I        17 8 45.64        10.8 0.18            116            234 234 
 CHI  HZ EP       17 8 12.39                             116    0.08 8  250 194 
 CHI  HE ES       17 8 42.01                             116    0.29 8  250 194 
 CHI  HZ I        17 8 46.93         5.1 0.36            115            250 194 
 GUY2CHZ EP   2   17 8 19.45                             112    1.48 4  300 234 
 GUY2CHE ES   4   17 8 55.14                             112    3.35 0  300 234 
 GUY2CHZ I        17 8 59.01         6.1 0.25                           300 234 
 PTGC HZ EP   9   17 8 17.12                             111   -1.58 0  312 158 
 PTGC HE ES       17 8 50.70                                   -0.81 7  312 158 
 PTGC HZ I        17 9  9.00        18.3 0.40            110            312 158 
 ELA  HE ES   3   17 8 59.93                             110    2.28 2  328 229 
 ELA  HZ I        17 9 13.29         5.2 0.46            108            328 229 
 PRA  HZ EP       17 8 28.25                             106    0.15 6  393 209 
 PRA  HE ES       17 9 10.25                             106    0.43 6  393 209 
 PRA  HZ I        17 9 17.77         4.1 0.62            105            393 209 
                                                                                
