 2011 12 2 1132 33.6 L   6.796 -73.157143.4  RSN  4 0.2 1.2LRSN                1
 GAP=135        0.47       3.6     5.2  4.9 -0.2917E+01  0.1698E+01  0.1382E+01E
 Epicentro: LOS SANTOS - SANTANDER                                             3
 ACTION:UPD 12-07-13 16:13 OP:ep   STATUS:               ID:20111202113233 L   I
 2011-12-02-1130-00M.COL___180                                                 6
 STAT SP IPHASW D HRMM SECON CODA AMPLIT PERI AZIMU VELO AIN AR TRES W  DIS CAZ7
 BAR2 SZ EP       1132 52.76                             171   -0.1710 22.7 187 
 BAR2 SZ ES   1   1133  8.01                             171    0.00 7 22.7 187 
 BAR2 SZ I        1133 10.47         7.1 0.26                          22.7 187 
 BRR  HZ EP       1132 54.72                             152    0.2810 70.3 299 
 BRR  HN ES   2   1133 10.24                             152   -0.46 5 70.3 299 
 PAM  SZ EP       1132 55.68                             150    0.0510 78.5  40 
 PAM  SE ES   1   1133 12.82                             150    0.00 7 78.5  40 
 RUS  HZ EP       1132 56.99                             143   -0.1010  100 175 
 RUS  HN ES   2   1133 15.70                             143    0.28 5  100 175 
 RUS  HZ I        1133 18.86         1.6 0.62                           100 175 
                                                                                
