 2010  1 2 1452 42.2 L   6.799 -73.032142.7  RSN 11 0.5 2.4LRSN                1
 GAP=213        0.69       5.7     8.7  7.4 -0.2569E+01  0.3621E+02  0.1078E+02E
 Epicentro: CEPITA - SANTANDER                                                 3
 ACTION:UP  10-08-24 09:42 OP:vdl  STATUS:               ID:20100102145242 L   I
 2010-01-02-1450-32S.COL___096                                                 6
 STAT SP IPHASW D HRMM SECON CODA AMPLIT PERI AZIMU VELO AIN AR TRES W  DIS CAZ7
 BAR2 SZ EP   1   1453  1.57                             168     0.0 7   28 216 
 BAR2 SZ ES   2   1453 16.26                             168    -0.4 5   28 216 
 GIR2 SZ EP   1   1453  1.68                             165     0.1 7   36 330 
 GIR2 SZ ES   2   1453 16.99                             165     0.2 5   36 330 
 RUS  BZ EP   1   1453  5.54                             143    -0.1 7  100 183 
 RUS  BE ES   2   1453 24.10                             143     0.2 5  100 183 
 RUS  BZ I        1453 25.56        41.2 0.37                           100 183 
 CHI  HZ EP   1   1453 19.82                             116    -0.3 6  252 198 
 CHI  HN ES   2   1453 49.32                             116    -0.3 4  252 198 
 CHI  HZ I        1453 52.44        10.3 0.45                           252 198 
 ROSC BZ EP   1   1453 21.80                             115     0.9 6  259 213 
 HEL  HZ EP   1   1453 23.71                             113     0.1 6  284 256 
 HEL  HZ I        1454  0.80        14.3 0.59                           284 256 
 GUY  HZ EP   1   1453 27.05                             111     0.2 5  312 236 
 GUY  HN ES   2   1454  1.29                             111    -0.4 3  312 236 
 RREF BZ EP   1   1453 29.59                             110     0.3 5  331 231 
 RREF BN ES   2   1454  6.88                             110     0.8 3  331 231 
 RREF BZ I        1454 12.32         9.4 0.24                           331 231 
 DBB  SZ EP   1   1453 30.17                             108    -0.8 5  352 274 
 TOL  SZ EP   1   1453 31.58                             108     0.2 5  352 226 
 PRA  HZ EP   1   1453 35.55                             106    -0.8 4  398 211 
 PRA  HE ES   2   1454 17.81                             106    -0.8 3  398 211 
 PRA  HZ I        1454 23.59        10.5 0.24                           398 211 
                                                                                
