 2015  5 2 1020 41.9 L   6.814 -73.111146.5  RSN 18 0.4 2.2LRSN                1
 GAP=140        0.95       2.2     3.7  4.9 -0.2169E+01  0.6123E+01 -0.9974E+00E
 Epicentro: LOS SANTOS - SANTANDER                                             3
 ACTION:UPD 15-09-10 22:00 OP:cam  STATUS:               ID:20150502102041 L   I
 OLDACT:REG 15-05-02 20:13 OP:ak   STATUS:               ID:20150502101750     3
 2015-05-02-1017-50M.COL___273                                                 6
 STAT SP IPHASW D HRMM SECON CODA AMPLIT PERI AZIMU VELO AIN AR TRES W  DIS CAZ7
 BAR2 EZ IP     D 1021  1.66                             170   -0.0310 25.7 198 
 BAR2 EZ ES       1021 17.00                             170   -0.1110 25.7 198 
 BAR2 EZ I        1021 18.00        24.4 0.30            169           25.7 198 
 PAM  SZ IP     D 1021  4.58                             152    0.5710 73.8  38 
 PAM  SN ES       1021 21.40                             152    0.1710 73.8  38 
 PAM  SZ I        1021 23.84        48.2 0.56            155           73.8  38 
 BRR  HZ IP     C 1021  3.57                             152    0.2610 73.9 296 
 BRR  HN ES       1021 20.27                             152    0.2910 73.9 296 
 BRR  HZ I        1021 23.96        19.5 0.14            150           73.9 296 
 RUS  HZ EP       1021  5.55                             144   -0.2910  102 178 
 RUS  HN ES       1021 24.69                             144    0.2010  102 178 
 RUS  HZ I        1021 26.14         9.7 0.22            146            102 178 
 OCA  HN ES       1021 32.26                             130    0.01 9  159 352 
 OCA  HZ I        1021 36.92        33.2 0.22            131            159 352 
 SPBC HZ EP       1021 10.66                             129   -0.16 9  167 220 
 SPBC HN ES       1021 32.72                             129   -0.64 9  167 220 
 SPBC HZ I        1021 37.83        21.6 0.17            130            167 220 
 ZAR  HZ EP       1021 15.00                             122    0.27 8  207 291 
 ZAR  HN ES       1021 39.84                             122   -0.48 8  207 291 
 ZAR  HZ I        1021 44.60         8.9 0.38            123            207 291 
 NOR  HN ES       1021 45.38                             118   -0.98 8  239 235 
 SML  HZ EP       1021 18.00                             118   -0.62 8  244 334 
 SML  HN ES       1021 46.84                             118   -0.41 8  244 334 
 SML  HZ I        1021 49.88        30.2 0.10            119            244 334 
 CHI  HZ EP       1021 19.90                             117   -0.03 8  251 196 
 CHI  HN ES       1021 49.42                             117   -0.16 8  251 196 
 CHI  HZ I        1021 55.46         4.9 0.32            119            251 196 
 HEL  HZ EP       1021 23.12                             115    0.49 7  276 256 
 HEL  HN ES       1021 54.80                             115    0.42 7  276 256 
 HEL  HZ I        1022  0.56         4.7 0.32            115            276 256 
 URE  HZ EP   2   1021 24.13                             113    0.76 4  287 291 
 URE  HE ES   4   1021 53.38                             113   -2.31 0  287 291 
 URE  HZ I        1022  6.05         7.7 0.25            114            287 291 
 LL2C HZ EP       1021 25.10                             112   -0.32 7  305 353 
 LL2C HN ES       1021 59.92                             112    0.58 7  305 353 
 GUY2CHZ EP   2   1021 26.29                             112    0.27 4  305 235 
 GUY2CHN ES   1   1022  1.15                             112    0.74 5  305 235 
 GUY2CHZ I        1022  8.59         7.2 0.42                           305 235 
 RREF HN ES       1022  5.13                             111    0.22 7  326 230 
 TOL  SN ES       1022  9.33                             109    0.68 6  347 225 
 MON  HZ EP   4   1021 29.33                             109   -1.87 0  356 308 
 MON  HN ES   4   1022  7.79                             109   -1.84 0  356 308 
 SJC  HZ EP   4 C 1021 35.89                             106   -1.72 0  410 326 
 SJC  HE ES   4   1022 14.17                             106   -6.88 0  410 326 
 SJC  HZ I        1022 21.56         4.0 0.35            107            410 326 
 CRJC HZ EP   4   1021 42.12                             103   -2.12 0  466   3 
 CRJC HN ES       1022 31.87                             103   -0.98 5  466   3 
                                                                                
