 2011  4 2 1510 28.7 L   6.775 -73.073144.5  RSN  5 0.3 1.7LRSN                1
 GAP=184        0.66       6.1    12.3 10.2 -0.1874E+02 -0.1495E+02  0.2926E+02E
 Epicentro: LOS SANTOS - SANTANDER                                             3
 ACTION:UP  11-06-22 15:28 OP:REBC STATUS:               ID:20110402151028 L   I
 2011-04-02-1506-58S.COL___138                                                 6
 STAT SP IPHASW D HRMM SECON CODA AMPLIT PERI AZIMU VELO SNR AR TRES W  DIS CAZ7
 BAR2 SZ IP       1510 48.14                             170    -0.110   24 211 
 BAR2 SZ I        1510 48.51        11.6 0.39                            24 211 
 BAR2 SZ ES   2   1511  2.95                             170    -0.5 5   24 211 
 BTL  SZ EP       1510 48.50                             169     0.210   27 306 
 BRR  HZ EP   1   1510 49.98                             149    -0.3 7   80 298 
 BRR  HE ES   2   1511  7.24                             149     0.2 5   80 298 
 BRR  HZ I        1511  9.76        12.3 0.13                            80 298 
 GRA  SZ ES   2   1511 13.79                             137     0.2 5  126  14 
 GRA  SZ I        1511 14.74         8.4 0.37                           126  14 
 CHI  HZ EP   1   1511  6.07                             117    -0.3 6  248 197 
 CHI  HN ES   2   1511 36.45                             117     0.8 4  248 197 
 CHI  HZ I        1511 39.61         2.2 0.38                           248 197 
                                                                                
