 2015  2 2 1745 50.5 L   6.777 -73.140144.0  RSN 10 0.4 2.2LRSN                1
 GAP= 98        0.89       3.9     3.2  4.9 -0.3626E+00  0.3449E+01  0.2152E+01E
 Epicentro: LOS SANTOS - SANTANDER                                             3
 ACTION:UPD 15-04-30 21:20 OP:nd   STATUS:               ID:20150202174550 L   I
 OLDACT:REG 15-02-02 22:59 OP:y    STATUS:               ID:20150202173816     3
 2015-02-02-1738-16M.COL___268                                                 6
 STAT SP IPHASW D HRMM SECON CODA AMPLIT PERI AZIMU VELO AIN AR TRES W  DIS CAZ7
 BAR2 EZ EP       1746  9.73                             171   -0.1010 20.9 193 
 BAR2 EZ ES       1746 24.98                             171    0.0410 20.9 193 
 BAR2 EZ I        1746 25.73        30.2 0.20            171           20.9 193 
 BRR  HZ EP     C 1746 11.65                             152    0.1210 73.0 300 
 BRR  HN ES       1746 28.68                             152    0.7210 73.0 300 
 BRR  HZ I        1746 30.09        30.0 0.14            150           73.0 300 
 PAM  SZ EP     D 1746 12.58                             150   -0.0110 79.0  38 
 PAM  SN ES       1746 29.71                             150   -0.1310 79.0  38 
 PAM  SN I        1746 30.66        56.6 0.48            152           79.0  38 
 RUS  HZ EP       1746 13.65                             144   -0.2010 98.0 176 
 RUS  HE ES       1746 32.10                             144    0.0010 98.0 176 
 RUS  HZ I        1746 33.70        10.4 0.50            146           98.0 176 
 PTB  HZ EP       1746 16.77                             132   -0.53 9  148 260 
 PTB  HN ES       1746 37.52                             132   -0.72 9  148 260 
 PTB  HZ I        1746 40.50        19.3 0.14            131            148 260 
 TAM  HZ EP       1746 17.95                             130    0.07 9  154 104 
 ZAR  HZ EP       1746 23.10                             122    0.14 8  206 293 
 ZAR  HN ES       1746 48.04                             122   -0.27 8  206 293 
 ZAR  HZ I        1746 54.50        13.1 0.26            122            206 293 
 NOR  HZ EP   1   1746 25.81                             118   -0.18 6  234 235 
 NOR  HN ES       1746 54.28                             118    0.58 8  234 235 
 NOR  HZ I        1746 57.08        13.5 0.20            119            234 235 
 HEL  HZ EP       1746 30.72                             114    0.13 8  272 256 
 GUY2CHZ EP       1746 34.45                             112    0.56 7  300 235 
                                                                                
