 2013 11 2 1131 56.9 L   6.539 -73.495117.8  RSN  9 0.5 1.9LRSN                1
 GAP= 67        1.23       3.6     4.5  7.7 -0.2815E+01  0.1452E+02 -0.4945E+01E
 Epicentro: EL CARMEN DE CHUCURI - SANTANDER                                   3
 ACTION:UPD 14-01-09 16:25 OP:ep   STATUS:               ID:20131102113156 L   I
 OLDACT:REG 13-11-02 17:42 OP:carl STATUS:               ID:20131102112848     3
 2013-11-02-1128-48M.COL___213                                                 6
 STAT SP IPHASW D HRMM SECON CODA AMPLIT PERI AZIMU VELO AIN AR TRES W  DIS CAZ7
 BAR2 SZ IP     C 1132 13.90                             162    0.3910 35.1  80 
 BAR2 SZ ES       1132 26.71                             162    0.2110 35.1  80 
 BAR2 SZ I        1132 28.02       110.9 0.42            166           35.1  80 
 BRR  HE ES       1132 28.62                             148   -0.1910 67.2 339 
 BRR  HZ I        1132 39.45        10.7 0.18            149           67.2 339 
 RUS  HZ EP       1132 17.01                             142    0.2710 84.8 147 
 RUS  HE ES       1132 32.47                             142    0.2310 84.8 147 
 RUS  HZ I        1132 34.08        10.2 0.38            150           84.8 147 
 PTB  HZ IP     C 1132 16.73                             135   -1.0910  106 270 
 PTB  HE ES   4   1132 31.94                             135   -2.22 0  106 270 
 PTB  HZ I        1132 35.09        15.1 0.14            138            106 270 
 SPBC HZ EP       1132 18.29                             132   -0.5810  117 213 
 SPBC HN ES       1132 35.73                             132   -0.3110  117 213 
 PAM  SZ EP       1132 20.54                             130    0.4210  125  45 
 PAM  SN ES       1132 37.72                             130   -0.5310  125  45 
 PAM  SZ I        1132 42.76         5.8 0.20            135            125  45 
 ZAR  HZ EP       1132 25.75                             118    0.29 9  184 305 
 ZAR  HN ES       1132 48.58                             118    0.82 9  184 305 
 ZAR  HZ I        1132 50.36        15.5 0.36            122            184 305 
 NOR  HZ EP       1132 25.86                             118    0.06 9  186 235 
 NOR  HE ES       1132 48.80                             118    0.43 9  186 235 
 NOR  HZ I        1132 51.42        11.3 0.12            123            186 235 
 SML  HZ EP       1132 34.00                             110    0.26 8  258 346 
 SML  HE ES       1133  2.03                             110   -0.47 8  258 346 
 SML  HZ I        1133  7.14        10.3 0.10            113            258 346 
                                                                                
