 2016  4 2 1718 18.4 L   6.785 -73.144141.5  RSN 10 0.4 2.2LRSN                1
 GAP=137        1.02       3.5     4.4  6.9 -0.4468E+01  0.1199E+02 -0.4637E+01E
 Epicentro: LOS SANTOS - SANTANDER                                             3
 ACTION:UPD 16-05-05 14:18 OP:rebc STATUS:               ID:20160402171819dL   I
 OLDACT:UP  16-04-03 00:58 OP:mh   STATUS:               ID:20160402171742     3
 OLDACT:UP  16-04-03 00:58 OP:mh   STATUS:               ID:20160402171742     3
 OLDACT:UP  16-04-03 00:52 OP:mh   STATUS:               ID:20160402171742     3
 OLDACT:REG 16-04-02 20:43 OP:mh   STATUS:               ID:20160402171742     3
 2016-04-02-1717-42M.COL___318                                                 6
 STAT SP IPHASW D HRMM SECON CODA AMPLIT PERI AZIMU VELO AIN AR TRES W  DIS CAZ7
 BAR2 EZ EP     C 1718 37.59                             171    0.0710 21.7 191 
 BAR2 EZ ES       1718 52.22                             171   -0.1810 21.7 191 
 BAR2 EZ I        1718 53.92        28.3 0.16            169           21.7 191 
 PAM  EZ EP       1718 40.49                             150    0.2210 78.5  39 
 PAM  EN ES       1718 57.24                             150   -0.0510 78.5  39 
 PAM  EZ I        1718 59.25        21.3 0.54            155           78.5  39 
 RUS  HZ EP       1718 41.59                             143   -0.0510 98.9 176 
 RUS  HN ES       1719  0.04                             143    0.3010 98.9 176 
 RUS  HZ I        1719  1.50        15.8 0.34            147           98.9 176 
 PTB  HZ EP       1718 44.34                             131   -0.71 9  148 259 
 PTB  HN ES       1719  5.10                             131   -0.70 9  148 259 
 PTB  HZ I        1719 12.35        12.3 0.26            131            148 259 
 OCA  HZ EP       1718 45.88                             128   -0.70 9  162 353 
 OCA  HN ES       1719  8.86                             128    0.33 9  162 353 
 OCA  HZ I        1719 11.49        38.9 0.22            131            162 353 
 SPBC HN ES       1719  8.51                             128    0.13 9  162 219 
 SPBC HZ I        1719 11.81                             130            162 219 
 ZAR  HZ EP       1718 51.02                             121    0.33 9  205 293 
 ZAR  HN ES       1719 16.50                             121    0.65 9  205 293 
 ZAR  HZ I        1719 23.25        14.0 0.12            122            205 293 
 NOR  HZ EP       1718 54.28                             118    0.45 8  234 235 
 NOR  HN ES       1719 21.61                             118    0.17 8  234 235 
 NOR  HZ I        1719 28.55         9.5 0.18            119            234 235 
 URE  HZ EP   4   1718 57.36                             113   -2.03 0  285 292 
 URE  HN ES   4   1719 29.85                             113   -1.49 0  285 292 
 GUY2CHZ EP   4   1719  3.23                             111    1.47 0  300 235 
 GUY2CHN ES   4   1719 38.14                             111    2.59 0  300 235 
 GUY2CHZ I        1719 42.26         6.3 0.24                           300 235 
 SOCV BZ EP   4   1718 59.59                             111   -1.78 0  302  57 
 SOCV BN ES   4   1719 31.25                             111   -3.61 0  302  57 
 SJC  HZ EP   4   1719 12.50                             105   -1.54 0  411 327 
 SJC  HN ES   4   1719 53.67                             105   -3.74 0  411 327 
 SJC  HZ I        1719 57.21         5.7 0.40            107            411 327 
                                                                                
