 2011  6 2 1502 18.0 L   7.093 -73.303116.2  RSN  7 0.3 1.9LRSN                1
 GAP=102        0.65       3.8     5.5  6.8 -0.5880E+01  0.2791E+01 -0.8687E+01E
 Epicentro: LEBRIJA - SANTANDER                                                3
 ACTION:UP  11-07-14 19:02 OP:ep   STATUS:               ID:20110602150218 L   I
 2011-06-02-1500-00M.COL___116                                                 6
 STAT SP IPHASW D HRMM SECON CODA AMPLIT PERI AZIMU VELO SNR AR TRES W  DIS CAZ7
 BRR  HZ EP       15 2 34.27                             157    -0.210   45 272 
 BRR  HZ I        15 2 34.50        38.4 0.12                            45 272 
 BRR  HN ES   2   15 2 47.66                             157     0.3 5   45 272 
 BAR2 SZ EP       15 2 35.46                             152     0.010   57 166 
 BAR2 SZ ES   1   15 2 49.06                             152     0.0 7   57 166 
 PAM  SZ EP       15 2 36.83                             146     0.110   72  68 
 PAM  SN ES   2   15 2 51.85                             146     0.4 5   72  68 
 BRI  SZ EP       15 2 37.73                             140     0.210   89  39 
 GRA  SZ EP       15 2 38.79                             135     0.110  104  32 
 GRA  SZ ES   1   15 2 54.18                             135    -0.7 7  104  32 
 OCA  SZ EP       15 2 40.96                             129     0.110  127 359 
 OCA  SZ ES   2   15 2 58.84                             129     0.2 5  127 359 
 OCA  SZ I        15 3  0.52        28.2 0.25                           127 359 
 RUS  HZ EP   3   15 2 41.43                             127    -0.6 2  135 170 
 RUS  HZ I        15 3  1.56         4.3 0.31                           135 170 
                                                                                
