 2010  1 2 1056 56.5 L   6.805 -73.053147.6  RSN  6 0.2 1.8LRSN                1
 GAP=192        0.36       2.2    10.0  3.9 -0.5894E+01  0.1152E+02  0.8203E+00E
 Epicentro: LOS SANTOS - SANTANDER                                             3
 ACTION:UP  10-08-24 09:42 OP:vdl  STATUS:               ID:20100102105656 L   I
 2010-01-02-1055-16S.COL___096                                                 6
 STAT SP IPHASW D HRMM SECON CODA AMPLIT PERI AZIMU VELO AIN AR TRES W  DIS CAZ7
 BAR2 SZ EP   1   1057 16.51                             169     0.1 7   28 211 
 BAR2 SZ ES   2   1057 31.64                             169    -0.4 5   28 211 
 GIR2 SZ IP       1057 16.59                             166     0.110   34 333 
 GIR2 SZ ES   2   1057 32.28                             166     0.2 5   34 333 
 RUS  BZ EP   1   1057 20.31                             144    -0.2 7  101 182 
 RUS  BN ES   2   1057 39.31                             144     0.2 5  101 182 
 RUS  BZ I        1057 40.09         6.2 0.26                           101 182 
 OCA  SZ EP   1   1057 25.05                             130     0.0 7  161 350 
 OCA  SZ ES   2   1057 47.03                             130    -0.3 5  161 350 
 CHI  HZ EP   1   1057 34.72                             117     0.0 6  252 197 
 CHI  HN ES   2   1058  4.28                             117    -0.2 4  252 197 
 CHI  HZ I        1058  7.75         3.4 0.58                           252 197 
 PRA  HZ EP   1   1057 50.68                             106    -0.1 4  398 211 
 PRA  HE ES   2   1058 33.27                             106     0.2 3  398 211 
 PRA  HZ I        1058 37.86         3.4 0.39                           398 211 
                                                                                
