 2016  4 2 1011 59.1 L   6.821 -73.112145.9  RSN 16 0.5 2.1LRSN                1
 GAP= 72        1.05       3.1     2.9  5.2 -0.1965E+01  0.2388E+01  0.4489E+00E
 Epicentro: LOS SANTOS - SANTANDER                                             3
 ACTION:UPD 16-05-05 14:18 OP:rebc STATUS:               ID:20160402101159 L   I
 OLDACT:UP  16-04-02 21:44 OP:mh   STATUS:               ID:20160402100749     3
 OLDACT:UP  16-04-02 21:42 OP:mh   STATUS:               ID:20160402100749     3
 OLDACT:REG 16-04-02 20:25 OP:mh   STATUS:               ID:20160402100749     3
 2016-04-02-1007-49M.COL___302                                                 6
 STAT SP IPHASW D HRMM SECON CODA AMPLIT PERI AZIMU VELO AIN AR TRES W  DIS CAZ7
 BAR2 EZ IP     D 1012 19.11                             169    0.2510 26.5 197 
 BAR2 EZ ES       1012 34.23                             169   -0.0110 26.5 197 
 BAR2 EZ I        1012 35.93        24.6 0.23            170           26.5 197 
 PAM  EZ EP     C 1012 21.86                             152    0.7310 73.2  38 
 PAM  EN ES       1012 38.59                             152    0.3010 73.2  38 
 PAM  EZ I        1012 41.17        26.9 0.52            153           73.2  38 
 RUS  HZ EP       1012 22.96                             143   -0.1110  103 178 
 RUS  HN ES       1012 41.60                             143   -0.1210  103 178 
 RUS  HZ I        1012 42.67         7.1 0.34            145            103 178 
 TAM  HZ EP       1012 27.17                             131    0.61 9  152 106 
 TAM  HN ES       1012 47.81                             131   -0.13 9  152 106 
 TAM  HZ I        1012 50.53        14.6 0.42            133            152 106 
 PTB  HZ EP       1012 25.69                             131   -0.81 9  152 258 
 PTB  HN ES       1012 47.15                             131   -0.69 9  152 258 
 PTB  HZ I        1012 52.63        16.4 0.54            131            152 258 
 OCA  HZ EP   1   1012 27.26                             130   -0.04 7  158 352 
 OCA  HN ES       1012 49.02                             130   -0.24 9  158 352 
 OCA  HZ I        1012 54.69        25.4 0.32            130            158 352 
 SPBC HZ EP       1012 27.98                             128   -0.07 9  167 219 
 SPBC HE ES       1012 50.89                             128    0.29 9  167 219 
 SPBC HZ I        1012 52.12        27.8 0.22            129            167 219 
 ZAR  HZ EP   1   1012 31.90                             122    0.03 6  207 291 
 ZAR  HE ES       1012 57.33                             122   -0.06 8  207 291 
 ZAR  HZ I        1013  3.13        14.0 0.32            122            207 291 
 NOR  HZ EP       1012 35.24                             118   -0.11 8  239 235 
 NOR  HN ES       1013  3.25                             118   -0.35 8  239 235 
 NOR  HZ I        1013  6.07         8.0 0.16            119            239 235 
 CHI  HZ EP       1012 37.01                             117   -0.19 8  252 196 
 CHI  HN ES       1013  6.47                             117   -0.42 8  252 196 
 CHI  HZ I        1013  8.68         4.3 0.24            118            252 196 
 ROSC BZ EP       1012 38.11                             116    0.41 8  257 211 
 ROSC BN ES   4   1013 11.24                             116    3.47 0  257 211 
 ROSC BZ I        1013 16.60        14.4 0.30            117            257 211 
 HEL  HN EP       1012 40.54                             114    0.71 7  276 256 
 HEL  HZ ES       1013 12.37                             114    0.81 7  276 256 
 HEL  HN I        1013 19.50         7.5 0.26            115            276 256 
 SOCV BZ EP       1012 40.65                             112   -1.05 7  297  57 
 SOCV BN ES   4   1013 12.18                             112   -2.72 0  297  57 
 GUY2CHZ EP   1   1012 43.70                             112    0.44 5  306 235 
 GUY2CHN ES   4   1013 22.20                             112    4.54 0  306 235 
 GUY2CHZ I        1013 25.78        10.4 0.74                           306 235 
 MON  HZ EP   4   1012 44.69                             108   -3.64 0  355 308 
 MON  HN ES   4   1013 24.61                             108   -2.08 0  355 308 
 MON  HZ I        1013 27.09         2.5 0.38            109            355 308 
 SDV  BZ EP       1012 48.43                             108   -0.26 6  356  50 
 SDV  BE ES   4   1013 26.20                             108   -1.13 0  356  50 
 SDV  BZ I        1013 35.56         1.4 0.40            109            356  50 
 ANIL HZ EP   4   1012 52.61                             108    3.16 0  362 225 
 ANIL HE ES   4   1013 30.54                             108    1.85 0  362 225 
                                                                                
