 2017  2 2 1138 20.5 L   6.863 -73.159145.2  RSN  4 0.2 1.3LRSN                1
 GAP=242        0.52       4.9     4.4  4.5  0.1254E+02  0.3683E+01  0.3895E+01E
 Epicentro: ZAPATOCA - SANTANDER                                               3
 ACTION:UPD 17-05-24 15:31 OP:jn   STATUS:               ID:20170202113820 L   I
 OLDACT:REG 17-02-02 20:14 OP:dnl  STATUS:               ID:20170202112743     3
 2017-02-02-1128-00M.COL___322                                                 6
 STAT SP IPHASW D HRMM SECON CODA AMPLIT PERI AZIMU VELO AIN AR TRES W  DIS CAZ7
 BAR2 EZ EP   2   1138 40.37                             168    0.18 5 30.0 185 
 BAR2 EZ ES       1138 55.80                             168    0.2310 30.0 185 
 BAR2 EZ I        1138 56.64         7.4 0.16            167           30.0 185 
 BRR  HZ EP   2   1138 41.80                             154    0.48 5 66.8 294 
 BRR  HN ES       1138 57.31                             154   -0.2610 66.8 294 
 BRR  HZ I        1138 59.22         9.7 0.32            153           66.8 294 
 RUS  HZ EP       1138 44.49                             142   -0.2110  108 175 
 RUS  HN ES       1139  3.52                             142   -0.0610  108 175 
 RUS  HZ I        1139  3.98         1.0 0.20            143            108 175 
 PTB  HZ EP       1138 47.50                             132    0.10 9  148 256 
 PTB  HN ES       1139  8.45                             132    0.05 9  148 256 
 PTB  HZ I        1139 10.96         2.1 0.46            132            148 256 
                                                                                
