 2010 10 2 1346 42.6 L   6.734 -73.206151.9  RSN  5 0.2 1.9LRSN                1
 GAP=225        0.55       4.2     4.9  6.4  0.3024E+01  0.7255E+01  0.9020E+01E
 Epicentro: VILLANUEVA - SANTANDER                                             3
 ACTION:UP  11-02-18 11:07 OP:tino STATUS:               ID:20101002134642 L   I
 2010-10-02-1343-01S.COL___124                                                 6
 STAT SP IPHASW D HRMM SECON CODA AMPLIT PERI AZIMU VELO SNR AR TRES W  DIS CAZ7
 BRR  HZ EP       1347  4.18                             154    -0.210   70 306 
 BRR  HZ I        1347  4.48        30.7 0.04                            70 306 
 BRR  HN ES       1347 21.45                             154     0.110   70 306 
 RUS  HZ EP   1   1347  6.63                             147     0.1 7   94 172 
 RUS  HN ES   1   1347 25.09                             147    -0.1 7   94 172 
 RUS  HZ I        1347 26.77         5.8 0.50                            94 172 
 NOR  SZ EP   1   1347 18.13                             121     0.4 6  225 235 
 NOR  SN ES   1   1347 45.02                             121    -0.1 6  225 235 
 HEL  HN ES   2   1347 52.62                             117    -0.6 4  264 257 
 HEL  HZ I        1348  1.98         5.7 0.27                           264 257 
 RREF HN ES   2   1348  3.64                             113     0.3 3  312 230 
 RREF HZ I        1348 11.72         4.4 0.33                           312 230 
                                                                                
