 2014  3 2 1843 38.1 L   6.795 -73.145147.9  RSN  5 0.2 1.6LRSN                1
 GAP=137        0.52       2.8     2.6  5.0 -0.1715E+01  0.4748E+01  0.8011E+00E
 Epicentro: LOS SANTOS - SANTANDER                                             3
 ACTION:UPD 14-04-09 23:14 OP:nd   STATUS:               ID:20140302184338 L   I
 OLDACT:UP  14-03-02 18:14 OP:cam  STATUS:               ID:20140302183821     3
 OLDACT:REG 14-03-02 16:57 OP:cam  STATUS:               ID:20140302183821     3
 2014-03-02-1838-21M.COL___238                                                 6
 STAT SP IPHASW D HRMM SECON CODA AMPLIT PERI AZIMU VELO AIN AR TRES W  DIS CAZ7
 PAM  SZ EP       1844  0.81                             151    0.2710 77.8  39 
 PAM  SN ES       1844 17.96                             151   -0.1010 77.8  39 
 PAM  SZ I        1844 19.94        10.4 0.56            157           77.8  39 
 RUS  HZ EP       1844  1.71                             144   -0.2910  100 176 
 RUS  HN ES       1844 20.80                             144    0.1510  100 176 
 RUS  HZ I        1844 23.29         3.5 0.40            148            100 176 
 PTB  HZ EP       1844  5.23                             132    0.02 9  148 259 
 PTB  HN ES       1844 26.15                             132   -0.23 9  148 259 
 PTB  HZ I        1844 33.33         4.5 0.30            135            148 259 
 ZAR  HN ES   1   1844 36.26                             123    0.14 6  204 292 
 NOR  HZ EP       1844 13.81                             119   -0.09 8  234 235 
 NOR  HN ES       1844 42.08                             119    0.24 8  234 235 
 NOR  HZ I        1844 44.47         3.6 0.30            122            234 235 
                                                                                
