 2012  4 2 1818 30.6 L   6.781 -73.134142.0  RSN  5 0.2 1.9LRSN                1
 GAP=139        0.59       3.7     4.8  5.1  0.1789E+01  0.5586E+01 -0.1065E+01E
 Epicentro: LOS SANTOS - SANTANDER                                             3
 ACTION:UPD 12-07-05 11:49 OP:tino STATUS:               ID:20120402181830 L   I
 2012-04-02-1810-00M.COL___196                                                 6
 STAT SP IPHASW D HRMM SECON CODA AMPLIT PERI AZIMU VELO AIN AR TRES W  DIS CAZ7
 BAR2 SZ EP       1818 49.65                             171    -0.110   22 194 
 BAR2 SZ ES   1   1819  4.40                             171    -0.3 7   22 194 
 BAR2 SZ I        1819  6.09        13.8 0.32                            22 194 
 BRR  HZ EP       1818 51.55                             151     0.110   73 300 
 BRR  HE ES   1   1819  8.10                             151     0.4 7   73 300 
 BRR  HZ I        1819  9.77        16.4 0.12                            73 300 
 PAM  SZ IP       1818 52.56                             150     0.110   78  38 
 PAM  SN ES   1   1819  9.35                             150    -0.2 7   78  38 
 RUS  HZ EP       1818 54.01                             144     0.210   98 177 
 RUS  HN ES   1   1819 11.80                             144    -0.1 7   98 177 
 ZAR  HZ EP       1819  2.65                             121    -0.3 8  206 293 
 ZAR  HZ I        1819 33.95         6.8 0.42                           206 293 
                                                                                
