 2013  3 2 1435 24.0 L   6.803 -73.153149.6  RSN  9 0.4 2.1LRSN                1
 GAP= 71        0.85       3.9     4.4  6.8  0.4386E+01 -0.5622E+01 -0.3368E+01E
 Epicentro: LOS SANTOS - SANTANDER                                             3
 ACTION:UPD 13-04-09 13:59 OP:ep   STATUS:               ID:20130302143524 L   I
 2013-03-02-1430-00M.COL___228                                                 6
 STAT SP IPHASW D HRMM SECON CODA AMPLIT PERI AZIMU VELO AIN AR TRES W  DIS CAZ7
 BAR2 SZ EP   1   1435 44.04                             171   -0.02 7 23.5 188 
 BAR2 SZ ES   1   1435 59.71                             171   -0.03 7 23.5 188 
 BAR2 SZ I        1436  1.79        45.3 0.28            178           23.5 188 
 BRR  HZ EP     C 1435 45.92                             154    0.4410 70.4 299 
 BRR  HN ES   1   1436  2.76                             154    0.49 7 70.4 299 
 BRR  HZ I        1436  9.11        20.2 0.46            152           70.4 299 
 PAM  SZ EP       1435 46.84                             151    0.2410 77.6  40 
 PAM  SN I        1436  5.40        25.0 0.68            147           77.6  40 
 PAM  SZ I        1436  6.25        25.7 0.56                          77.6  40 
 RUS  HZ EP       1435 47.78                             145   -0.3410  101 176 
 RUS  HN ES   1   1436  6.35                             145   -0.62 7  101 176 
 RUS  HZ I        1436  7.88         9.1 0.28            150            101 176 
 PTB  HZ EP       1435 51.03                             133   -0.15 9  147 259 
 PTB  HN ES   1   1436 11.95                             133   -0.47 7  147 259 
 PTB  HZ I        1436 17.76        23.4 0.36            135            147 259 
 TAM  HZ EP       1435 52.20                             131    0.18 9  156 105 
 ZAR  HN ES   1   1436 22.30                             123    0.29 6  203 292 
 ZAR  HZ I        1436 29.31        13.9 0.28            124            203 292 
 SML  HZ EP   1   1435 59.83                             118   -0.91 6  243 335 
 SML  HN ES   1   1436 28.99                             118   -0.44 6  243 335 
 CHI  HZ EP   1   1436  2.34                             118    0.45 6  249 195 
 CHI  HN ES   1   1436 31.99                             118    0.52 6  249 195 
 CHI  HZ I        1436 33.84         4.2 0.38            121            249 195 
                                                                                
