 2013  5 2 1656 34.1 L   6.799 -73.157150.7  RSN  4 0.4 1.7LRSN                1
 GAP=135        0.75       5.8     5.4  9.2 -0.4437E+01  0.1948E+01  0.1086E+02E
 Epicentro: LOS SANTOS - SANTANDER                                             3
 ACTION:UPD 13-06-20 09:47 OP:ep   STATUS:               ID:20130502165634 L   I
 2013-05-02-1650-00M.COL___253                                                 6
 STAT SP IPHASW D HRMM SECON CODA AMPLIT PERI AZIMU VELO AIN AR TRES W  DIS CAZ7
 BRR  HN ES   1   1657 13.20                             154    0.65 7 70.1 299 
 BRR  HN I        1657 16.07        13.7 0.22            151           70.1 299 
 PAM  SZ EP   1   1656 56.81                             151   -0.04 7 78.3  40 
 PAM  SN ES   1   1657 14.28                             151   -0.35 7 78.3  40 
 PAM  SN I        1657 16.13         6.0 0.52            155           78.3  40 
 RUS  HZ EP   1   1656 58.66                             145    0.37 7  101 175 
 RUS  HN ES   1   1657 17.11                             145   -0.09 7  101 175 
 RUS  HE I        1657 17.84         4.1 0.46            148            101 175 
 PTB  HZ EP   1   1657  1.23                             133   -0.08 7  146 259 
 PTB  HN ES   1   1657 22.05                             133   -0.53 7  146 259 
 PTB  HN I        1657 27.48         8.0 0.28            134            146 259 
                                                                                
