 2010  2 2 1955 54.9 L   6.826 -73.178144.0  RSN  6 0.5 1.9LRSN                1
 GAP=155        0.64       4.2    10.5  9.6 -0.2350E+01  0.4480E+02  0.2889E+00E
 Epicentro: LOS SANTOS - SANTANDER                                             3
 ACTION:UP  10-08-24 09:47 OP:vdl  STATUS:               ID:20100202195554 L   I
 2010-02-02-1939-50S.COL___091                                                 6
 STAT SP IPHASW D HRMM SECON CODA AMPLIT PERI AZIMU VELO SNR AR TRES W  DIS CAZ7
 BAR2 SZ EP   2   1956 14.02                             169    -0.3 5   26 181 
 GIR2 SZ EP   2   1956 14.13                             168    -0.1 5   28 357 
 GIR2 SZ ES   2   1956 29.59                             168     0.2 5   28 357 
 RUS  HZ EP   1   1956 18.26                             143    -0.4 7  104 174 
 RUS  HZ I        1956 19.09         5.6 0.33                           104 174 
 RUS  HN ES   1   1956 37.27                             143     0.0 7  104 174 
 GRA  SZ EP   2   1956 20.33                             137     0.5 5  124  19 
 GRA  SZ ES   2   1956 39.46                             137     0.2 5  124  19 
 MON  HN ES   2   1957 20.34                             109    -0.6 3  348 308 
 PRA  HZ EP   2   1956 48.67                             106     0.3 3  393 209 
 PRA  HN ES   2   1957 31.65                             106     1.5 3  393 209 
 PRA  HZ I        1957 35.28         5.5 0.40                           393 209 
                                                                                
