 2017  9 2 1353 17.3 L   6.865 -73.135143.9  RSN  6 0.3 1.8LRSN                1
 GAP=223        0.71       4.1     3.6  5.1  0.6696E+01  0.3980E+01 -0.9501E+00E
 Epicentro: LOS SANTOS - SANTANDER                                             3
 ACTION:UPD 17-10-05 19:08 OP:rebc STATUS:               ID:20170902135317 L   I
 OLDACT:REG 17-09-02 20:40 OP:dhb  STATUS:               ID:20170902134739     3
 2017-09-02-1348-00M.COL___405                                                 6
 STAT SP IPHASW D HRMM SECON CODA AMPLIT PERI AZIMU VELO AIN AR TRES W  DIS CAZ7
 BAR2 EZ IP     C 1353 37.09                             168    0.1810 30.6 190 
 BAR2 EZ ES       1353 52.43                             168    0.2510 30.6 190 
 BAR2 EZ I        1353 53.42        15.0 0.23            169           30.6 190 
 RUS  HZ EP       1353 41.63                             142    0.2010  108 177 
 RUS  HN ES       1354  0.01                             142   -0.2210  108 177 
 RUS  HZ I        1354  1.13        15.8 0.25            144            108 177 
 SPBC HZ IP       1353 46.15                             128   -0.15 9  170 218 
 SPBC HE ES       1354  8.42                             128   -0.48 9  170 218 
 SPBC HZ I        1354 10.75        10.6 0.21            129            170 218 
 YPLC HZ EP       1353 47.66                             125    0.10 9  183 153 
 YPLC HN ES       1354 11.03                             125   -0.11 9  183 153 
 YPLC HZ I        1354 14.98         5.5 0.17            127            183 153 
 ZAR  HZ EP       1353 49.09                             122   -0.42 9  203 290 
 ZAR  HN ES       1354 14.64                             122    0.04 9  203 290 
 ZAR  HZ I        1354 21.83         3.4 0.26            123            203 290 
 GUY2CHZ EP       1354  1.55                             112    0.11 7  306 234 
 GUY2CHN ES       1354 36.54                             112    0.70 7  306 234 
 GUY2CHZ I        1354 45.27         2.3 0.64                           306 234 
                                                                                
