 2017  9 2 1122  1.0 L   6.947 -73.279114.8  RSN  6 0.4 1.7LRSN                1
 GAP=234        0.96       7.0     7.3  6.0  0.3889E+02  0.1042E+02  0.7290E+01E
 Epicentro: BETULIA - SANTANDER                                                3
 ACTION:UPD 17-10-05 19:08 OP:rebc STATUS:               ID:20170902112201 L   I
 OLDACT:REG 17-09-02 20:21 OP:dhb  STATUS:               ID:20170902111737     3
 2017-09-02-1118-00M.COL___405                                                 6
 STAT SP IPHASW D HRMM SECON CODA AMPLIT PERI AZIMU VELO AIN AR TRES W  DIS CAZ7
 BAR2 EZ IP     D 1122 17.82                             160    0.3310 40.6 165 
 BAR2 EZ ES       1122 30.50                             160    0.1210 40.6 165 
 BAR2 EZ I        1122 31.99        24.8 0.18            158           40.6 165 
 BRR  HZ IP     D 1122 17.56                             154   -0.0810 51.1 290 
 BRR  HN ISg      1122 30.64                             154   -0.0110 51.1 290 
 BRR  HN ES       1122 30.64                             154   -0.0110 51.1 290 
 BRR  HZ I        1122 31.62        10.8 0.11            152           51.1 290 
 RUS  HZ EP       1122 23.62                             131    0.2110  119 169 
 RUS  HN ES       1122 40.39                             131   -0.5310  119 169 
 RUS  HZ I        1122 41.70         4.3 0.10            131            119 169 
 ZAR  HZ EP       1122 28.69                             117   -0.78 9  185 289 
 ZAR  HN ES       1122 51.79                             117    0.09 9  185 289 
 ZAR  HZ I        1122 54.48         6.7 0.14            117            185 289 
 HEL  HZ EP       1122 39.49                             109    0.79 8  263 252 
 HEL  HN ES   4   1123  5.15                             109   -2.98 0  263 252 
 HEL  HZ I        1123 10.33         8.1 0.48            108            263 252 
 GUY2CHZ EP   9   1122 43.95                             106    0.83 0  299 231 
 GUY2CHN ES       1123 16.39                                   -0.44 7  299 231 
 GUY2CHZ I        1123 22.86         2.3 0.06                           299 231 
                                                                                
