 2014  1 2 1255 46.7 L   6.786 -73.129148.7  RSN  8 0.5 1.7LRSN                1
 GAP=202        0.92       4.4     6.2  7.1  0.8751E+01  0.4652E+00  0.2307E+01E
 Epicentro: LOS SANTOS - SANTANDER                                             3
 ACTION:UPD 14-03-13 09:50 OP:ep   STATUS:               ID:20140102125546 L   I
 OLDACT:UP  14-01-02 18:15 OP:mher STATUS:               ID:20140102125001d    3
 OLDACT:DUP 14-01-02 18:11 OP:mher STATUS:               ID:20140102125001d    3
 OLDACT:UP  14-01-02 18:10 OP:mher STATUS:               ID:20140102125000     3
 OLDACT:UP  14-01-02 18:10 OP:mher STATUS:               ID:20140102125000     3
 OLDACT:REG 14-01-02 14:54 OP:mh   STATUS:               ID:20140102125000     3
 2014-01-02-1250-00M.COL___285                                                 6
 STAT SP IPHASW D HRMM SECON CODA AMPLIT PERI AZIMU VELO AIN AR TRES W  DIS CAZ7
 BAR2 SZ EP       1256  6.87                             171    0.1810 22.3 195 
 BAR2 SZ ES   1   1256 21.62                             171   -0.64 7 22.3 195 
 BAR2 SZ I        1256 23.21        19.5 0.15            175           22.3 195 
 BRR  HZ EP   1   1256  9.03                             152    0.70 7 73.6 299 
 BRR  HN ES   1   1256 25.86                             152    0.68 7 73.6 299 
 BRR  HZ I        1256 26.63         6.6 0.11            149           73.6 299 
 RUS  HZ EP   1   1256 10.87                             145    0.21 7 99.0 177 
 RUS  HN ES   1   1256 29.00                             145   -0.32 7 99.0 177 
 RUS  HZ I        1256 30.74         2.4 0.33            148           99.0 177 
 PTB  HZ EP   1   1256 13.85                             132   -0.23 7  149 260 
 PTB  HN ES       1256 34.92                             132   -0.49 9  149 260 
 PTB  HZ I        1256 37.10         5.5 0.11            132            149 260 
 SPBC HZ EP       1256 15.92                             130    0.46 9  163 220 
 SPBC HN ES   2   1256 38.35                             130    0.49 5  163 220 
 ZAR  HN ES   1   1256 45.24                             123   -0.01 6  206 292 
 ZAR  HN I        1256 51.03         8.7 0.19            122            206 292 
 SML  HZ EP   1   1256 23.45                             118   -0.31 6  246 335 
 SML  HN ES   2   1256 52.15                             118   -0.49 4  246 335 
 SML  HZ I        1257  0.15         6.8 0.09            117            246 335 
 CHI  HZ EP       1256 23.83                             118   -0.66 8  248 196 
 CHI  HN ES       1256 54.14                             118    0.20 8  248 196 
                                                                                
