 2012  2 2 1808 33.2 L   6.749 -73.127146.0  RSN 10 0.3 2.2LRSN                1
 GAP=141        0.73       3.7     3.7  5.1 -0.4846E+00  0.3212E+01  0.1697E+01E
 ACTION:UP  12-03-07 16:27 OP:epov STATUS:               ID:20120202180833 L   I
 2012-02-02-1800-00M.COL___187                                                 6
 STAT SP IPHASW D HRMM SECON CODA AMPLIT PERI AZIMU VELO SNR AR TRES W  DIS CAZ7
 BAR2 SZ EP       18 8 52.79                             172    0.0710 18.4 199 
 BAR2 SZ ES   1   18 9  7.88                             172   -0.10 7 18.4 199 
 BAR2 SZ I        18 9 10.51        26.0 0.38                          18.4 199 
 GIR2 SZ EP   1   18 8 52.97                             165   -0.05 7 37.1 349 
 BRR  HZ EP       18 8 54.75                             151    0.1610 75.7 302 
 BRR  HE ES       18 9 11.87                             151    0.5610 75.7 302 
 BRR  HZ I        18 9 13.91        33.0 0.09                          75.7 302 
 PAM  SZ EP   1   18 8 55.53                             150   -0.05 7 80.6  36 
 PAM  SN ES   1   18 9 12.37                             150   -0.71 7 80.6  36 
 RUS  HZ EP       18 8 56.56                             146    0.0410 94.9 177 
 RUS  HE ES   1   18 9 14.95                             146    0.20 7 94.9 177 
 PTB  HZ EP   1   18 8 59.70                             132   -0.53 7  149 261 
 PTB  HE ES   1   18 9 20.87                             132   -0.48 7  149 261 
 OCA  SZ EP   1   18 9  2.51                             129    0.48 7  166 353 
 ZAR  HZ EP   1   18 9  6.00                             122   -0.03 6  208 293 
 ZAR  HE ES   1   18 9 31.36                             122   -0.31 6  208 293 
 ZAR  HZ I        18 9 41.76        14.8 0.43                           208 293 
 NOR  SZ EP   1   18 9  8.38                             119   -0.35 6  233 236 
 NOR  SN ES   1   18 9 36.50                             119    0.02 6  233 236 
 PRA  HZ EP   1   18 9 26.74                             107    0.51 4  388 210 
                                                                                
