 2012  2 2 1903  8.0 L   6.724 -73.134145.0  RSN  9 0.3 2.2LRSN                1
 GAP=141        0.68       4.1     4.1  4.7  0.4979E+01  0.3260E+01  0.4203E+01E
 ACTION:UP  12-03-07 16:27 OP:epov STATUS:               ID:20120202190308 L   I
 2012-02-02-1900-00M.COL___188                                                 6
 STAT SP IPHASW D HRMM SECON CODA AMPLIT PERI AZIMU VELO SNR AR TRES W  DIS CAZ7
 BAR2 SZ EP       19 3 27.54                             174    0.1610 15.5 200 
 BAR2 SZ I        19 3 27.86        27.5 0.18                          15.5 200 
 BAR2 SZ ES   1   19 3 42.23                             174   -0.29 7 15.5 200 
 GIR2 SZ EP       19 3 27.65                             164   -0.1710 39.7 351 
 GIR2 SZ ES   1   19 3 43.27                             164   -0.02 7 39.7 351 
 BRR  HZ EP       19 3 29.52                             151    0.1610 76.6 304 
 BRR  HZ I        19 3 29.92        55.7 0.08                          76.6 304 
 BRR  HN ES       19 3 46.52                             151    0.4810 76.6 304 
 PAM  SZ EP   1   19 3 30.22                             149   -0.26 7 83.3  35 
 RUS  HZ EP       19 3 31.28                             146    0.2210 92.1 176 
 RUS  HN ES   1   19 3 48.70                             146   -0.37 7 92.1 176 
 RUS  HZ I        19 3 51.03        14.2 0.45                          92.1 176 
 PTB  HZ EP       19 3 34.48                             132   -0.39 9  148 262 
 PTB  HE ES   1   19 3 55.65                             132   -0.19 7  148 262 
 ZAR  HZ EP   1   19 3 40.51                             122   -0.32 6  208 294 
 ZAR  HE ES   1   19 4  6.30                             122   -0.16 6  208 294 
 ZAR  HZ I        19 4 11.93        30.0 0.36                           208 294 
 NOR  SZ EP   1   19 3 43.44                             119    0.18 6  231 236 
 CHI  HZ EP   1   19 3 45.44                             118    0.65 6  241 196 
 CHI  HZ I        19 4 18.15         4.6 0.32                           241 196 
                                                                                
