 2010  7 2 1624  7.2 L   6.849 -73.038136.9  RSN  5 0.5 1.6LRSN                1
 GAP=167        1.39      15.1    18.7 17.7 -0.9455E+02 -0.1502E+03  0.5257E+02E
 Epicentro: CEPITA - SANTANDER                                                 3
 ACTION:UPD 10-12-01 15:14 OP:pat  STATUS:               ID:20100702162407 L   I
 2010-07-02-1621-27S.COL___118                                                 6
 STAT SP IPHASW D HRMM SECON CODA AMPLIT PERI AZIMU VELO AIN AR TRES W  DIS CAZ7
 BAR2 SZ ES   2   1624 40.91                             166     0.2 5   33 209 
 BTN  SZ IP       1624 27.28                             150    -0.810   75 355 
 BTN  SZ ES   1   1624 44.08                             150    -0.3 7   75 355 
 BRR  HZ IP     C 1624 28.00                             148     0.010   80 291 
 BRR  HZ I        1624 28.10        15.7 0.13                            80 291 
 BRR  HE ES   1   1624 44.45                             148     0.3 7   80 291 
 BRI  SZ EP       1624 30.48                             142     0.910  100  16 
 RUS  HZ EP   2   1624 30.36                             140    -0.2 5  106 183 
 RUS  HZ I        1624 49.78         3.8 0.23                           106 183 
                                                                                
