 2017 11 2 1833 43.8 L   6.791 -73.159145.2  RSN 11 0.3 1.7LRSN                1
 GAP=111        0.84       3.0     3.2  4.9  0.1925E+01  0.3714E+01  0.4202E+01E
 Epicentro: LOS SANTOS - SANTANDER                                             3
 ACTION:UPD 17-12-12 19:51 OP:rebc STATUS:               ID:20171102183343 L   I
 OLDACT:UP  17-11-03 01:04 OP:mg   STATUS:               ID:20171102182740     3
 OLDACT:UP  17-11-03 01:03 OP:mg   STATUS:               ID:20171102182740     3
 OLDACT:REG 17-11-02 20:51 OP:mg   STATUS:               ID:20171102182740     3
 2017-11-02-1828-00M.COL___444                                                 6
 STAT SP IPHASW D HRMM SECON CODA AMPLIT PERI AZIMU VELO AIN AR TRES W  DIS CAZ7
 BAR2 EZ EP       1834  3.09                             171   -0.2010 22.1 187 
 BAR2 EZ ES       1834 18.49                             171   -0.0410 22.1 187 
 BAR2 EZ I        1834 20.92        19.2 0.30            169           22.1 187 
 BRR  HZ EP       1834  4.96                             153    0.1610 70.4 300 
 BRR  HN ES       1834 21.60                             153    0.3910 70.4 300 
 BRR  HZ I        1834 24.39        24.1 0.39            153           70.4 300 
 PAM  EZ EP       1834  6.07                             150    0.0510 79.1  40 
 PAM  EN ES       1834 23.06                             150   -0.3210 79.1  40 
 PAM  EZ I        1834 26.19         6.7 0.24            154           79.1  40 
 RUS  HZ EP       1834  7.11                             144   -0.2810 99.7 175 
 RUS  HN ES       1834 25.94                             144    0.1210 99.7 175 
 RUS  HZ I        1834 27.04         9.6 0.36            145           99.7 175 
 PTB  HZ EP       1834  9.92                             132   -0.61 9  146 259 
 PTB  HN ES   1   1834 30.84                             132   -0.57 7  146 259 
 PTB  HZ I        1834 33.53         4.6 0.14            133            146 259 
 YPLC HZ EP       1834 13.49                             127   -0.01 9  177 151 
 YPLC HE ES       1834 37.33                             127    0.64 9  177 151 
 YPLC HZ I        1834 38.66         9.4 0.28            129            177 151 
 ZAR  HZ EP   1   1834 16.72                             122    0.66 6  203 293 
 ZAR  HN ES       1834 41.43                             122    0.17 9  203 293 
 ZAR  HZ I        1834 46.90         6.0 0.28            124            203 293 
 NOR  HZ EP       1834 19.31                             119    0.05 8  233 234 
 NOR  HN ES       1834 47.31                             119    0.36 8  233 234 
 NOR  HZ I        1834 52.63         3.3 0.28            120            233 234 
 CHI  HZ EP       1834 21.35                             117    0.07 8  247 195 
 CHI  HN ES       1834 50.06                             117   -0.48 8  247 195 
 CHI  HZ I        1834 55.98         3.0 0.28            119            247 195 
 GUY2CHZ EP   4   1834 30.75                             112    3.61 0  299 235 
 GUY2CHN ES   4   1835  4.95                             112    3.98 0  299 235 
 GUY2CHZ I        1835  9.50         3.0 0.64                           299 235 
 SJC  HZ EP   4   1834 37.33                             106   -1.97 0  409 327 
 SJC  HN ES   4   1835 18.76                             106   -3.87 0  409 327 
 SJC  HZ I        1835 21.78         0.7 0.31            107            409 327 
                                                                                
