 2012  5 2 1713 53.2 L   6.743 -73.183147.6  RSN  4 0.3 1.7LRSN                1
 GAP=229        0.74       7.8     7.4  7.9  0.2816E+02  0.5935E+01  0.1728E+01E
 Epicentro: VILLANUEVA - SANTANDER                                             3
 ACTION:UP  12-07-05 12:01 OP:pat  STATUS:               ID:20120502171353 L   I
 2012-05-02-1710-00M.COL___186                                                 6
 STAT SP IPHASW D HRMM SECON CODA AMPLIT PERI AZIMU VELO SNR AR TRES W  DIS CAZ7
 BAR2 SZ EP   1   1714 12.69                             173    -0.2 7   17 180 
 BAR2 SZ ES   1   1714 27.91                             173    -0.4 7   17 180 
 BAR2 SZ I        1714 28.76        13.7 0.34                            17 180 
 BRR  HZ EP   1   1714 14.59                             153     0.1 7   71 305 
 BRR  HZ I        1714 14.73        22.5 0.12                            71 305 
 BRR  HN ES   1   1714 31.56                             153     0.4 7   71 305 
 RUS  HZ EP   1   1714 17.12                             146     0.4 7   95 173 
 RUS  HN ES   1   1714 35.19                             146     0.1 7   95 173 
 RUS  HZ I        1714 36.55         4.3 0.28                            95 173 
 PTB  HZ EP   1   1714 19.49                             133    -0.4 7  143 261 
 PTB  HN ES   1   1714 40.62                             133     0.0 7  143 261 
 PTB  HZ I        1714 43.16         3.9 0.11                           143 261 
                                                                                
