 2010  9 2 1042 20.3 L   6.813 -72.961147.7  RSN  6 0.3 2.0LRSN                1
 GAP=202        0.63       3.6     8.2  6.0 -0.8518E+00 -0.5569E+00  0.1162E+01E
 Epicentro: CEPITA - SANTANDER                                                 3
 ACTION:UP  11-02-18 10:59 OP:tino STATUS:               ID:20100902104220 L   I
 2010-09-02-1038-15S.COL___120                                                 6
 STAT SP IPHASW D HRMM SECON CODA AMPLIT PERI AZIMU VELO SNR AR TRES W  DIS CAZ7
 BAR2 SZ IP       1042 40.43                             166     0.010   35 225 
 BAR2 SZ ES   1   1042 56.29                             166     0.2 7   35 225 
 BAR2 SZ I        1042 57.21        14.6 0.68                            35 225 
 BRR  HZ IP     C 1042 42.38                             147    -0.310   89 291 
 BRR  HN ES   1   1042 59.99                             147    -0.2 7   89 291 
 BRR  HZ I        1043  5.93        23.4 0.41                            89 291 
 RUS  HZ EP   2   1042 44.11                             143    -0.2 5  103 188 
 RUS  HN ES   2   1043  3.33                             143     0.2 5  103 188 
 OCA  SZ EP   1   1042 49.40                             130     0.5 7  163 346 
 OCA  SZ ES   1   1043 11.39                             130     0.1 7  163 346 
 OCA  SZ I        1043 16.73         9.9 0.34                           163 346 
 RREF HZ EP   2   1043  9.16                             110     0.8 3  338 231 
 RREF HE ES   2   1043 46.59                             110     0.7 3  338 231 
 RREF HZ I        1043 52.66         3.4 0.41                           338 231 
 PRA  HZ EP   1   1043 14.90                             106    -0.3 4  404 212 
 PRA  HN ES   2   1043 58.35                             106     0.3 3  404 212 
 PRA  HZ I        1044  1.71         3.3 0.30                           404 212 
                                                                                
