 2012  8 2 1730 38.1 L   6.760 -73.161146.0  RSN  5 0.4 1.1LRSN                1
 GAP=136        0.48       8.1     6.5 10.6 -0.2671E+02  0.3093E+02 -0.2044E+02E
 Epicentro: LOS SANTOS - SANTANDER                                             3
 ACTION:UPD 12-09-10 11:53 OP:ep   STATUS:               ID:20120802173038 L   I
 2012-08-02-1730-00M.COL___215                                                 6
 STAT SP IPHASW D HRMM SECON CODA AMPLIT PERI AZIMU VELO AIN AR TRES W  DIS CAZ7
 BAR2 SZ EP       1730 57.79                             173    0.0810 18.7 187 
 BAR2 SZ I        1730 58.30         3.4 0.16                          18.7 187 
 BAR2 SZ ES   3   1731 12.69                             173   -0.28 2 18.7 187 
 BRR  HZ EP   2   1730 59.81                             152    0.46 5 71.9 302 
 BRR  HN ES   3   1731 16.83                             152    0.93 2 71.9 302 
 PAM  SZ EP       1731  0.60                             150   -0.0510 81.9  39 
 PAM  SZ I        1731  1.01         2.5 0.50                          81.9  39 
 PAM  SN ES   3   1731 17.39                             150   -0.82 2 81.9  39 
 RUS  HZ EP   3   1731  2.26                             146    0.66 2 96.3 175 
 RUS  HN ES   3   1731 19.78                             146   -0.13 2 96.3 175 
 RUS  HZ I        1731 23.43         1.3 0.36                          96.3 175 
 PTB  HZ EP       1731  4.69                             133   -0.20 9  145 260 
 PTB  HZ I        1731 26.75         1.4 0.54                           145 260 
                                                                                
