 2015 10 2 1632 19.9 L   6.788 -73.151150.0  RSN 11 0.4 2.0LRSN                1
 GAP=136        0.92       3.3     3.7  5.7 -0.1195E+01  0.3810E+01  0.3628E+01E
 Epicentro: LOS SANTOS - SANTANDER                                             3
 ACTION:UPD 15-12-22 20:37 OP:cam  STATUS:               ID:20151002163219 L   I
 OLDACT:DUP 15-10-03 01:59 OP:spq  STATUS:               ID:20151002162749d    3
 2015-10-02-1627-48M.COL___361                                                 6
 STAT SP IPHASW D HRMM SECON CODA AMPLIT PERI AZIMU VELO AIN AR TRES W  DIS CAZ7
 BAR2 EZ EP       1632 39.84                             171   -0.1510 21.9 189 
 BAR2 EZ ES   1   1632 55.43                             171   -0.25 7 21.9 189 
 BAR2 EZ I        1632 56.90        18.5 0.18            170           21.9 189 
 BRR  HZ EP       1632 41.73                             153    0.2410 71.4 300 
 BRR  HN ES       1632 59.24                             153    0.8910 71.4 300 
 BRR  HZ I        1633  0.03        13.5 0.14            152           71.4 300 
 PAM  EZ EP     C 1632 42.73                             151    0.1110 78.8  39 
 PAM  EN ES       1632 59.96                             151   -0.4110 78.8  39 
 PAM  EZ I        1633  2.36        10.2 0.45            154           78.8  39 
 RUS  HZ EP       1632 43.92                             145   -0.0310 99.3 176 
 RUS  HE ES       1633  2.81                             145    0.0810 99.3 176 
 RUS  HZ I        1633  5.08         9.9 0.46            146           99.3 176 
 PTB  HZ EP       1632 46.40                             133   -0.72 9  147 259 
 PTB  HN ES       1633  7.89                             133   -0.48 9  147 259 
 PTB  HZ I        1633  9.50        14.0 0.18            133            147 259 
 SPBC HZ EP       1632 48.75                             130    0.18 9  162 219 
 SPBC HN ES       1633 10.93                             130   -0.02 9  162 219 
 SPBC HZ I        1633 16.42        15.9 0.42            130            162 219 
 ZAR  HZ EP   4   1632 54.09                             123    1.49 0  204 293 
 ZAR  HE ES       1633 18.24                             123    0.11 9  204 293 
 ZAR  HZ I        1633 24.75        14.5 0.38            124            204 293 
 NOR  HZ EP       1632 56.12                             119    0.40 8  233 235 
 NOR  HE ES       1633 23.36                             119   -0.32 8  233 235 
 NOR  HZ I        1633 28.11         9.8 0.20            120            233 235 
 SML  HZ EP   2   1632 56.82                             118   -0.03 4  245 336 
 SML  HE ES   2   1633 25.12                             118   -0.57 4  245 336 
 SML  HZ I        1633 27.77         9.8 0.10            119            245 336 
 CHI  HZ EP       1632 58.11                             118    0.46 8  247 195 
 CHI  HE ES   1   1633 27.16                             118    0.04 6  247 195 
 CHI  HZ I        1633 32.32         4.2 0.56            119            247 195 
 GUY2CHZ EP   4   1633  4.76                             113    1.22 0  300 235 
 GUY2CHN ES   4   1633 39.42                             113    1.81 0  300 235 
 GUY2CHZ I        1633 46.50         4.4 0.28                           300 235 
                                                                                
