 2011  8 2 1858 33.4 L   6.757 -73.117146.5  RSN  6 0.2 2.3LRSN                1
 GAP=142        0.42       2.1     3.9  3.3 -0.2383E+01 -0.6203E+00  0.1216E+01E
 Epicentro: LOS SANTOS - SANTANDER                                             3
 ACTION:UPD 12-07-25 14:05 OP:epov STATUS:               ID:20110802185833 L   I
 2011-08-02-1855-02S.COL___126                                                 6
 STAT SP IPHASW D HRMM SECON CODA AMPLIT PERI AZIMU VELO AIN AR TRES W  DIS CAZ7
 BAR2 SZ IP       1858 52.93                             172   -0.1510 19.6 202 
 BAR2 SZ I        1858 53.04        44.8 0.38                          19.6 202 
 BAR2 SZ ES   1   1859  8.45                             172    0.05 7 19.6 202 
 BRR  HZ IP     C 1858 54.92                             151   -0.0310 76.3 301 
 BRR  HZ I        1858 55.17        71.0 0.28                          76.3 301 
 BRR  HN ES   1   1859 11.75                             151    0.01 7 76.3 301 
 PAM  SZ EP       1858 56.02                             150    0.1910 79.2  36 
 PAM  SE ES   1   1859 13.11                             150   -0.20 7 79.2  36 
 RUS  HZ EP       1858 56.73                             145   -0.1710 95.6 178 
 RUS  HE ES   1   1859 15.32                             145    0.11 7 95.6 178 
 RUS  HZ I        1859 16.04        17.2 0.36                          95.6 178 
 BRI  SZ EP       1858 57.82                             141    0.1710  112  18 
 BRI  SZ ES   2   1859 16.51                             141   -0.04 5  112  18 
 CHI  HZ EP       1859 10.66                             118   -0.10 8  245 196 
 CHI  HN ES   2   1859 40.54                             118    0.66 4  245 196 
                                                                                
