 2016 11 2 1021 12.6 L   6.768 -73.093150.5  RSN 15 0.6 2.4LRSN                1
 GAP=125        1.20       3.7     4.5  6.1 -0.3773E+00  0.6734E+01  0.7193E+01E
 Epicentro: LOS SANTOS - SANTANDER                                             3
 ACTION:UPD 17-10-26 21:04 OP:lp   STATUS:               ID:20161102102112 L   I
 OLDACT:REG 16-11-02 19:55 OP:cog  STATUS:               ID:20161102101745     3
 2016-11-02-1018-00M.COL___343                                                 6
 STAT SP IPHASW D HRMM SECON CODA AMPLIT PERI AZIMU VELO AIN AR TRES W  DIS CAZ7
 BAR2 EZ IP       1021 32.84                             171    0.0810 21.8 207 
 BAR2 EZ ES       1021 48.33                             171   -0.1710 21.8 207 
 BAR2 EZ I        1021 49.69        53.3 0.22            168           21.8 207 
 PAM  EZ EP       1021 35.71                             152    0.4410 76.7  35 
 PAM  EE ES       1021 52.92                             152   -0.0410 76.7  35 
 PAM  EZ I        1021 55.73        46.1 0.81            152           76.7  35 
 BRR  HZ IP     C 1021 34.72                             151    0.0810 78.0 299 
 BRR  HN ES       1021 52.31                             151    0.4710 78.0 299 
 BRR  HZ I        1021 56.00        50.5 0.12            145           78.0 299 
 RUS  HZ EP       1021 36.60                             146    0.0510 96.8 179 
 RUS  HE ES       1021 55.75                             146    0.5110 96.8 179 
 RUS  HZ I        1021 57.95        13.3 0.18            144           96.8 179 
 PTB  HZ EP       1021 39.43                             132   -0.98 9  153 261 
 PTB  HN ES   3   1022  1.22                             132   -0.89 2  153 261 
 PTB  HZ I        1022  6.77        53.9 0.30            127            153 261 
 SPBC HZ EP       1021 41.76                             130    0.20 9  164 221 
 SPBC HE ES       1022  3.80                             130   -0.35 9  164 221 
 SPBC HZ I        1022  8.79        36.3 0.10            126            164 221 
 ZAR  HZ EP       1021 45.48                             123   -0.56 8  211 292 
 ZAR  HE ES       1022 11.18                             123   -0.95 8  211 292 
 ZAR  HZ I        1022 16.59        28.7 0.32            119            211 292 
 NOR  HZ EP       1021 48.35                             119   -0.55 8  237 236 
 NOR  HN ES       1022 17.48                             119    0.27 8  237 236 
 NOR  HZ I        1022 24.57        14.5 0.16            116            237 236 
 CHI  HZ EP       1021 50.72                             118    0.36 8  247 197 
 CHI  HE ES       1022 19.13                             118   -0.70 8  247 197 
 CHI  HZ I        1022 27.94        12.3 0.51            116            247 197 
 ROSC BZ EP   3   1021 52.69                             118    1.71 2  253 213 
 ROSC BZ ES       1022 21.03                             118    0.10 8  253 213 
 HEL  HZ EP       1021 54.85                             115    1.27 7  277 257 
 HEL  HZ I        1022 31.27        14.6 0.36            112            277 257 
 PTGC HZ EP       1021 55.72                             113   -0.34 7  303 159 
 PTGC HN ES       1022 29.02                             113   -0.94 7  303 159 
 PTGC HZ I        1022 31.59        10.9 0.34            112            303 159 
 GUY2CHZ EP   4   1021 57.56                             113    0.82 0  304 236 
 GUY2CHN ES       1022 31.94                             113    0.77 7  304 236 
 GUY2CHZ I        1022 39.95        10.5 0.28                           304 236 
 PRA  HZ EP       1022  6.44                             107    0.18 6  392 211 
 PRA  HE ES       1022 48.09                             107   -0.04 6  392 211 
 PRA  HZ I        1022 52.08        12.5 0.60            105            392 211 
 ORTC HZ EP       1022  7.22                             107    0.47 6  396 217 
 ORTC HN ES       1022 49.81                             107    0.81 6  396 217 
 ORTC HZ I        1022 56.43         7.6 0.34            105            396 217 
                                                                                
