 2010  6 2 1907 47.6 L   6.816 -73.221123.6  RSN  6 0.3 2.0LRSN                1
 GAP=149        0.59       3.3     8.1  6.3 -0.1769E+02  0.3018E+02 -0.5784E+01E
 Epicentro: ZAPATOCA - SANTANDER                                               3
 ACTION:UP  10-08-24 10:08 OP:vdl  STATUS:               ID:20100602190747 L   I
 2010-06-02-1903-04S.COL___109                                                 6
 STAT SP IPHASW D HRMM SECON CODA AMPLIT PERI AZIMU VELO SNR AR TRES W  DIS CAZ7
 BAR2 SZ IP       19 8  4.56                             168    -0.110   25 171 
 BAR2 SZ ES   1   19 8 17.79                             168    -0.1 7   25 171 
 GUE  SZ EP       19 8 10.48                             134     0.110  117  16 
 GUE  SZ ES   1   19 8 28.68                             134     0.5 7  117  16 
 GRA  SZ ES   2   19 8 29.07                             131    -0.3 5  127  21 
 OCA  SZ EP       19 8 13.71                             125    -0.3 9  158 356 
 OCA  SZ ES       19 8 34.64                             125     0.0 9  158 356 
 OCA  SZ I        19 8 36.12        18.4 0.22                           158 356 
 RREF BZ EP       19 8 32.29                             107     0.0 7  317 228 
 RREF BN ES   1   19 9  7.19                             107     0.0 5  317 228 
 RREF BZ I        19 9 13.64         4.1 0.05                           317 228 
 TOL  SZ EP   1   19 8 35.08                             105     0.5 5  339 223 
                                                                                
