 2010  1 2 1523 51.6 L   6.841 -72.857150.2  RSN  5 0.5 1.8LRSN                1
 GAP=321        0.84      13.0    17.7 10.9 -0.6907E+02  0.5303E+02  0.1814E+02E
 Epicentro: SAN ANDRES - SANTANDER                                             3
 ACTION:UP  10-08-24 09:42 OP:vdl  STATUS:               ID:20100102152351 L   I
 2010-01-02-1522-22S.COL___097                                                 6
 STAT SP IPHASW D HRMM SECON CODA AMPLIT PERI AZIMU VELO AIN AR TRES W  DIS CAZ7
 BAR2 SZ EP   1   1524 12.70                             162     0.3 7   45 233 
 BAR2 SZ ES   2   1524 27.69                             162    -0.9 5   45 233 
 RUS  BZ EP   1   1524 16.67                             143     0.3 7  108 193 
 RUS  BN ES   2   1524 35.88                             143     0.3 5  108 193 
 RUS  BZ I        1524 36.94         7.3 0.26                           108 193 
 CHI  HZ EP   1   1524 30.94                             117    -0.2 6  263 202 
 CHI  HE ES   2   1525  1.89                             117     0.0 4  263 202 
 CHI  HZ I        1525  8.80         2.4 0.69                           263 202 
 RREF BZ EP   1   1524 41.10                             110     0.0 5  349 232 
 RREF BE ES   2   1525 20.35                             110     0.7 3  349 232 
 RREF BZ I        1525 23.68         3.5 0.51                           349 232 
 PRA  HZ EP   1   1524 46.51                             107    -1.2 4  412 213 
                                                                                
