 2012  7 2 1447  3.3 L   6.701 -73.144141.0  RSN  4 0.4 1.5LRSN                1
 GAP=254        0.89      12.2     8.3  8.9  0.3212E+02  0.1862E+02 -0.1347E+01E
 Epicentro: VILLANUEVA - SANTANDER                                             3
 ACTION:UPD 12-08-14 11:42 OP:ep   STATUS:               ID:20120702144703 L   I
 2012-07-02-1440-00M.COL___201                                                 6
 STAT SP IPHASW D HRMM SECON CODA AMPLIT PERI AZIMU VELO AIN AR TRES W  DIS CAZ7
 BAR2 SZ EP   1   1447 22.45                             175     0.3 7   13 200 
 BAR2 SZ ES   1   1447 36.39                             175    -0.5 7   13 200 
 BAR2 SZ I        1447 38.42         5.6 0.22            177             13 200 
 BRR  HZ EP       1447 24.62                             150     0.310   77 306 
 BRR  HZ I        1447 31.49        14.2 0.44            148             77 306 
 BRR  HN ES   1   1447 40.86                             150     0.2 7   77 306 
 PTB  HZ EP       1447 29.53                             131    -0.2 9  146 263 
 PTB  HN ES   1   1447 50.79                             131     0.4 7  146 263 
 PTB  HZ I        1447 53.30         2.3 0.15            130            146 263 
 ZAR  HZ EP   1   1447 35.50                             121    -0.4 6  209 295 
 ZAR  HZ I        1447 38.99         2.5 0.08            119            209 295 
 ZAR  HN ES   1   1448  0.94                             121    -0.4 6  209 295 
