 2010  3 2 1424 52.0 L   6.863 -72.909146.2  RSN  5 0.3 1.9LRSN                1
 GAP=263        0.65       5.9     9.0  7.8  0.1834E+02 -0.9418E+01  0.1177E+02E
 Epicentro: GUACA - SANTANDER                                                  3
 ACTION:UP  10-08-24 09:51 OP:vdl  STATUS:               ID:20100302142452 L   I
 2010-03-02-1424-33S.COL___093                                                 6
 STAT SP IPHASW D HRMM SECON CODA AMPLIT PERI AZIMU VELO SNR AR TRES W  DIS CAZ7
 BAR2 SZ EP       1425 12.59                             163     0.310   43 225 
 BAR2 SZ ES   2   1425 27.69                             163    -0.3 5   43 225 
 BRR  HZ EP       1425 14.45                             146    -0.110   93 287 
 BRR  HN ES   1   1425 32.14                             146     0.0 7   93 287 
 BRR  HZ I        1425 33.66        15.1 0.19                            93 287 
 RUS  BZ EP       1425 16.51                             142     0.110  109 190 
 RUS  BN ES   2   1425 35.30                             142    -0.2 5  109 190 
 RUS  BZ I        1425 36.32         8.9 0.35                           109 190 
 CHI  HZ EP   1   1425 30.65                             116    -0.7 6  263 200 
 CHI  HN ES   2   1426  2.52                             116     0.5 4  263 200 
 CHI  HZ I        1426  8.36         4.5 0.52                           263 200 
 RREF BZ EP   2   1425 41.29                             109     0.3 3  346 231 
 RREF BN ES   2   1426 19.48                             109     0.3 3  346 231 
 RREF BZ I        1426 20.66         5.4 0.48                           346 231 
                                                                                
