 2012  6 2 1222 22.5 L   6.826 -73.149145.0  RSN  5 0.4 1.8LRSN                1
 GAP=135        0.77       5.4     4.7  7.9  0.8982E+00  0.1126E+02  0.6863E+00E
 Epicentro: LOS SANTOS - SANTANDER                                             3
 ACTION:UPD 12-08-06 17:46 OP:ep   STATUS:               ID:20120602122221 L   I
 2012-06-02-1220-00M.COL___200                                                 6
 STAT SP IPHASW D HRMM SECON CODA AMPLIT PERI AZIMU VELO AIN AR TRES W  DIS CAZ7
 BAR2 SZ EP       1222 42.35                             169    0.2910 26.1 188 
 BAR2 SZ ES   1   1222 57.77                             169    0.43 7 26.1 188 
 BAR2 SZ I        1222 59.17        17.9 0.16            168           26.1 188 
 PAM  SZ EP   1   1222 44.97                             151    0.49 7 75.5  41 
 PAM  SN ES   1   1223  1.04                             151   -0.62 7 75.5  41 
 RUS  HZ EP       1222 45.97                             143   -0.3810  103 176 
 RUS  HN ES   1   1223  5.02                             143    0.05 7  103 176 
 PTB  HZ EP       1222 49.39                             132    0.00 9  148 258 
 PTB  HE ES   1   1223 10.09                             132   -0.29 7  148 258 
 PTB  HZ I        1223 16.22         4.9 0.21            130            148 258 
 ZAR  HE ES   1   1223 19.94                             122    0.07 6  203 291 
 ZAR  HZ I        1223 27.65         5.0 0.41            122            203 291 
                                                                                
