 2011  1 2 1337 51.9 L   6.802 -73.149139.4  RSN  7 0.4 1.7LRSN                1
 GAP=158        0.68       4.0     8.1  7.0 -0.1407E+02  0.1993E+02  0.1768E+01E
 Epicentro: LOS SANTOS - SANTANDER                                             3
 ACTION:UP  11-02-08 08:37 OP:pat  STATUS:               ID:20110102133751 L   I
 2011-01-02-1320-00M.COL___137                                                 6
 STAT SP IPHASW D HRMM SECON CODA AMPLIT PERI AZIMU VELO SNR AR TRES W  DIS CAZ7
 BTL  SZ EP   1   1338 10.64                             172    -0.110   18 315 
 BTL  SZ ES   2   1338 24.43                             172    -0.9 6   18 315 
 BAR2 SZ EP   1   1338 10.84                             170     0.110   24 189 
 BAR2 SZ ES   2   1338 25.88                             170     0.4 6   24 189 
 BAR2 SZ I        1338 26.86        12.1 0.31                            24 189 
 RUS  HZ EP   1   1338 14.92                             142    -0.110  101 176 
 RUS  HN ES   2   1338 33.79                             142     0.7 6  101 176 
 RUS  HZ I        1338 35.21         3.9 0.53                           101 176 
 GRA  SZ EP   1   1338 16.62                             136     0.0 9  126  18 
 GRA  SZ ES   2   1338 36.16                             136     0.3 6  126  18 
 GRA  SZ I        1338 37.12         7.4 0.38                           126  18 
 NOR  SZ EP   1   1338 26.88                             117    -0.4 8  235 234 
 NOR  SN ES   2   1338 55.25                             117     0.4 5  235 234 
 CHI  HZ EP       1338 29.20                             116    -0.110  249 195 
 CHI  HE ES       1338 58.32                             116    -0.110  249 195 
 CHI  HZ I        1339  2.12         5.6 0.48                           249 195 
 HEL  HZ EP   1   1338 32.28                             113     0.5 7  272 256 
 HEL  HZ I        1339  8.89         3.2 0.57                           272 256 
                                                                                
