 2011  3 2 1115 37.8 L   6.761 -73.272142.7  RSN  5 0.3 1.7LRSN                1
 GAP=130        0.63       4.0     7.6  8.1 -0.1197E+02  0.2789E+02 -0.5386E+01E
 Epicentro: ZAPATOCA - SANTANDER                                               3
 ACTION:UP  11-06-16 14:31 OP:jfem STATUS:               ID:20110302111537 L   I
 2011-03-02-1114-21S.COL___136                                                 6
 STAT SP IPHASW D HRMM SECON CODA AMPLIT PERI AZIMU VELO SNR AR TRES W  DIS CAZ7
 BAR2 SZ EP   1   1115 56.75                             171    -0.3 7   21 152 
 BAR2 SZ ES   2   1116 11.65                             171    -0.4 5   21 152 
 BAR2 SZ I        1116 14.23        12.6 0.32                            21 152 
 RUS  HZ EP   1   1116  0.70                             144    -0.4 7   98 168 
 RUS  HN ES   1   1116 19.62                             144     0.4 7   98 168 
 RUS  HZ I        1116 20.43         6.3 0.31                            98 168 
 GRA  SZ EP   1   1116  3.57                             134     0.0 7  135  23 
 GRA  SZ ES   1   1116 23.82                             134     0.2 7  135  23 
 GRA  SZ I        1116 26.27         5.9 0.25                           135  23 
 CHI  HZ EP   1   1116 14.95                             117     0.4 6  241 192 
 CHI  HE ES   3   1116 42.31                             117    -0.8 2  241 192 
 HEL  HZ EP   2   1116 16.21                             116     0.0 4  257 256 
 HEL  HE ES   2   1116 46.41                             116     0.2 4  257 256 
 HEL  HZ I        1116 55.72         3.7 0.31                           257 256 
                                                                                
