 2013  4 2 1551 41.0 L   6.840 -73.098163.1  RSN  8 0.5 2.1LRSN                1
 GAP=141        0.87       5.2     5.1  7.6 -0.4558E+00  0.9627E+01 -0.4886E+00E
 Epicentro: LOS SANTOS - SANTANDER                                             3
 ACTION:UPD 13-05-22 14:35 OP:EP   STATUS:               ID:20130402155141 L   I
 2013-04-02-1550-00M.COL___245                                                 6
 STAT SP IPHASW D HRMM SECON CODA AMPLIT PERI AZIMU VELO AIN AR TRES W  DIS CAZ7
 BAR2 SZ EP       1552  2.81                             169    0.0310 28.9 199 
 BAR2 SZ ES   1   1552 19.21                             169   -0.60 7 28.9 199 
 BAR2 SZ I        1552 21.11        48.6 0.22            170           28.9 199 
 PAM  SZ EP   1   1552  4.66                             156   -0.02 7 70.6  39 
 PAM  SN ES   1   1552 22.66                             156   -0.53 7 70.6  39 
 PAM  SZ I        1552 24.62        28.6 0.46            158           70.6  39 
 BRR  HZ IP     D 1552  4.52                             154    0.3810 74.0 294 
 BRR  HN ES   1   1552 22.91                             154    0.68 7 74.0 294 
 BRR  HZ I        1552 25.23        14.7 0.16            152           74.0 294 
 RUS  HZ EP   1   1552  7.15                             146    0.42 7  105 179 
 RUS  HE ES   1   1552 27.06                             146    0.23 7  105 179 
 RUS  HZ I        1552 28.61         8.5 0.44            149            105 179 
 PTB  HZ EP       1552  9.79                             134   -0.11 9  154 258 
 PTB  HE ES   1   1552 32.53                             134    0.05 7  154 258 
 PTB  HZ I        1552 34.00        10.5 0.14            135            154 258 
 ZAR  HZ EP   2   1552 14.30                             125   -0.61 4  207 290 
 ZAR  HN ES   1   1552 41.72                             125    0.33 6  207 290 
 ZAR  HZ I        1552 48.53        14.5 0.24            126            207 290 
 NOR  HN ES   1   1552 46.83                             121   -0.88 6  242 234 
 SML  HN ES   2   1552 46.79                             121   -0.86 4  242 334 
                                                                                
