 2014  2 2 1009 53.2 L   6.524 -73.628 96.0  RSN  5 0.6 1.1LRSN                1
 GAP=208        1.34       9.6     8.0 15.6  0.5185E+00  0.8583E+02  0.4920E+02E
 Epicentro: SANTA HELENA DEL OPON - SANTANDER                                  3
 ACTION:UPD 14-03-10 08:07 OP:ep   STATUS:               ID:20140202100953 L   I
 OLDACT:REG 14-02-02 15:31 OP:stll STATUS:               ID:20140202100810     3
 2014-02-02-1008-10M.COL___240                                                 6
 STAT SP IPHASW D HRMM SECON CODA AMPLIT PERI AZIMU VELO AIN AR TRES W  DIS CAZ7
 BAR2 SZ ES       1010 19.93                             150    0.1510 49.8  81 
 BAR2 SZ I        1010 21.66         9.1 0.28            151           49.8  81 
 RUS  HZ EP       1010 11.69                             133   -0.0610 92.2 139 
 RUS  HN ES       1010 25.98                             133   -0.2110 92.2 139 
 RUS  HZ I        1010 27.87         1.7 0.40            133           92.2 139 
 NOR  HZ EP       1010 19.42                             114   -0.18 9  174 232 
 NOR  HE ES       1010 39.66                             114   -0.51 9  174 232 
 CHI  HZ EP   1   1010 22.87                             110   -1.31 6  210 183 
 CHI  HN ES       1010 49.02                             110    0.71 8  210 183 
 CHI  HZ I        1010 51.15         0.8 0.38            110            210 183 
 GUY2CHZ EP       1010 28.88                             107    1.08 8  240 233 
 GUY2CHZ I        1010 31.73         1.1 0.50                           240 233 
                                                                                
