 2017  3 2 1001 24.3 L   6.792 -73.153143.4  RSN 12 0.4 1.9LRSN                1
 GAP=136        0.86       3.1     3.3  4.8  0.1577E+00  0.4768E+01  0.3322E+01E
 Epicentro: LOS SANTOS - SANTANDER                                             3
 ACTION:UPD 17-05-25 18:34 OP:jn   STATUS:               ID:20170302100124 L   I
 OLDACT:REG 17-03-02 20:09 OP:lv   STATUS:               ID:20170302095700     3
 2017-03-02-0958-00M.COL___384                                                 6
 STAT SP IPHASW D HRMM SECON CODA AMPLIT PERI AZIMU VELO AIN AR TRES W  DIS CAZ7
 BAR2 EZ EP       10 1 43.40                             171   -0.2310 22.3 188 
 BAR2 EZ ES       10 1 58.47                             171   -0.2410 22.3 188 
 BAR2 EZ I        10 1 59.60        25.1 0.24            169           22.3 188 
 BRR  HZ EP       10 1 45.31                             152    0.1210 71.0 299 
 BRR  HN ES       10 2  2.06                             152    0.5910 71.0 299 
 BRR  HZ I        10 2  7.53        12.2 0.15            147           71.0 299 
 PAM  EZ EP       10 1 46.37                             150    0.0310 78.6  40 
 PAM  EN ES       10 2  3.61                             150    0.0810 78.6  40 
 PAM  EZ I        10 2  6.34         9.3 0.32            153           78.6  40 
 RUS  HZ EP       10 1 47.58                             144   -0.1810 99.7 176 
 RUS  HN ES       10 2  6.03                             144   -0.0310 99.7 176 
 RUS  HZ I        10 2  6.85         8.3 0.24            146           99.7 176 
 PTB  HZ EP       10 1 50.31                             132   -0.69 9  147 259 
 PTB  HN ES       10 2 11.19                             132   -0.63 9  147 259 
 PTB  HZ I        10 2 14.85         7.9 0.13            129            147 259 
 ZAR  HZ EP       10 1 56.23                             122   -0.33 9  204 292 
 ZAR  HN ES       10 2 22.07                             122    0.35 9  204 292 
 ZAR  HZ I        10 2 27.64        14.4 0.16            120            204 292 
 NOR  HZ EP       10 1 59.93                             118    0.16 8  234 235 
 NOR  HN ES       10 2 27.70                             118    0.26 8  234 235 
 NOR  HZ I        10 2 29.66         6.9 0.29            118            234 235 
 CHI  HZ EP       10 2  2.36                             117    0.61 8  248 195 
 CHI  HN ES       10 2 31.39                             117    0.43 8  248 195 
 CHI  HZ I        10 2 34.06         2.8 0.30            117            248 195 
 URE  HZ EP   9   10 2  3.60                             113   -1.62 0  283 292 
 URE  HN ES       10 2 35.56                                    0.05 7  283 292 
 URE  HZ I        10 2 47.52         7.5 0.18            112            283 292 
 PTGC HZ EP   4   10 2  6.46                             111   -1.53 0  308 158 
 PTGC HN ES   4   10 2 40.18                             111   -1.88 0  308 158 
 CBOC HZ EP   4   10 2 12.27                             109    1.27 0  333 252 
 CBOC HN ES   4   10 2 46.03                             109   -1.40 0  333 252 
 CBOC HZ I        10 3  0.22         1.7 0.56            109            333 252 
 DBB  EZ EP       10 2 11.84                             109    0.23 7  339 274 
 DBB  EN ES   4   10 2 46.96                             109   -1.54 0  339 274 
 DBB  EZ I        10 2 55.64         2.8 0.18            109            339 274 
 ORTC HN ES       10 2 59.78                             106   -0.11 6  394 216 
 ORTC HZ I        10 3  6.52         1.9 0.22            106            394 216 
 SJC  HZ EP   4   10 2 18.00                             105   -1.83 0  410 327 
 SJC  HN ES   4   10 3  0.36                             105   -2.78 0  410 327 
                                                                                
