 2017  5 2 1744 22.7 L   6.763 -73.145140.9  RSN  5 0.4 1.6LRSN                1
 GAP=138        0.98       4.9     4.4  7.8  0.1681E+01  0.8449E+01  0.1038E+01E
 Epicentro: LOS SANTOS - SANTANDER                                             3
 ACTION:UPD 17-06-16 13:32 OP:jn   STATUS:               ID:20170502174422 L   I
 OLDACT:DUP 17-05-02 22:59 OP:ar   STATUS:               ID:20170502173742d    3
 2017-05-02-1738-00M.COL___371                                                 6
 STAT SP IPHASW D HRMM SECON CODA AMPLIT PERI AZIMU VELO AIN AR TRES W  DIS CAZ7
 BRR  HZ EP       1744 43.35                             151   -0.0510 73.3 301 
 BRR  HN ES       1745  0.19                             151    0.6110 73.3 301 
 BRR  HZ I        1745  4.63        14.1 0.12            150           73.3 301 
 PAM  EZ EP       1744 44.38                             149   -0.1710 80.6  38 
 PAM  EN ES       1745  1.38                             149   -0.2510 80.6  38 
 PAM  EZ I        1745  3.44         4.2 0.52            152           80.6  38 
 RUS  HZ EP       1744 46.00                             144    0.3710 96.5 176 
 RUS  HE ES       1745  3.46                             144   -0.0910 96.5 176 
 RUS  HZ I        1745  4.63         4.7 0.22            149           96.5 176 
 PTB  HZ EP       1744 49.56                             131    0.39 9  147 260 
 PTB  HN ES       1745  9.09                             131   -0.75 9  147 260 
 PTB  HZ I        1745 12.67         3.8 0.40            133            147 260 
 ZAR  HZ EP       1744 54.64                             121   -0.32 8  206 293 
 ZAR  HN ES       1745 20.33                             121    0.18 8  206 293 
 ZAR  HZ I        1745 25.97         6.5 0.26            123            206 293 
                                                                                
