 2012  2 2 1032 53.6 L   6.799 -73.134143.1  RSN  8 0.3 1.6LRSN                1
 GAP=138        0.72       3.9     4.4  6.0  0.4178E+01  0.6037E+01  0.8056E+01E
 ACTION:UP  12-03-07 16:26 OP:epov STATUS:               ID:20120202103253 L   I
 2012-02-02-1030-00M.COL___187                                                 6
 STAT SP IPHASW D HRMM SECON CODA AMPLIT PERI AZIMU VELO SNR AR TRES W  DIS CAZ7
 BAR2 SZ EP   1   1033 12.83                             170   -0.09 7 23.5 193 
 BAR2 SZ ES   1   1033 28.03                             170    0.05 7 23.5 193 
 BAR2 SZ I        1033 31.11         7.4 0.28                          23.5 193 
 GIR2 SZ EP   1   1033 12.98                             167    0.01 7 31.6 348 
 BRR  HZ EP       1033 15.01                             152    0.4810 72.3 298 
 BRR  HN ES       1033 31.09                             152    0.2410 72.3 298 
 BRR  HZ I        1033 35.60        11.5 0.15                          72.3 298 
 PAM  SN ES   1   1033 32.09                             151   -0.47 7 76.6  39 
 RUS  HZ EP       1033 17.39                             143    0.3110  100 177 
 RUS  HE ES   1   1033 35.12                             143   -0.27 7  100 177 
 RUS  HZ I        1033 36.82         4.1 0.32                           100 177 
 PTB  HZ EP       1033 19.89                             131   -0.58 9  149 259 
 PTB  HE ES   1   1033 41.24                             131   -0.18 7  149 259 
 ZAR  HE ES   1   1033 51.15                             122   -0.12 6  205 292 
 ZAR  HZ I        1033 56.56         6.9 0.54                           205 292 
 CHI  HZ EP   1   1033 31.05                             116   -0.13 6  249 195 
 CHI  HN ES   1   1034  0.70                             116    0.20 6  249 195 
 CHI  HZ I        1034  6.43         2.1 0.37                           249 195 
                                                                                
