 2012  6 2 1031 13.7 L   6.780 -73.160146.1  RSN  8 0.2 1.8LRSN                1
 GAP=136        0.58       2.5     2.7  4.5 -0.1374E+01  0.5348E+01 -0.1699E+00E
 Epicentro: LOS SANTOS - SANTANDER                                             3
 ACTION:UPD 12-08-06 17:46 OP:ep   STATUS:               ID:20120602103111 L   I
 2012-06-02-1030-00M.COL___200                                                 6
 STAT SP IPHASW D HRMM SECON CODA AMPLIT PERI AZIMU VELO AIN AR TRES W  DIS CAZ7
 BAR2 SZ EP       1031 33.61                             171    0.2910 20.9 187 
 BAR2 SZ ES   1   1031 48.65                             171    0.02 7 20.9 187 
 BAR2 SZ I        1031 50.29        10.8 0.39            172           20.9 187 
 PAM  SZ EP       1031 36.44                             150    0.3210 80.2  39 
 PAM  SN ES       1031 53.63                             150    0.0310 80.2  39 
 RUS  HZ EP       1031 37.11                             144   -0.2210 98.5 175 
 RUS  HN ES   1   1031 55.57                             144   -0.19 7 98.5 175 
 RUS  HZ I        1031 57.45         4.1 0.46            150           98.5 175 
 PTB  HZ EP       1031 40.07                             132   -0.44 9  146 260 
 PTB  HN ES   1   1032  1.42                             132    0.00 7  146 260 
 PTB  HZ I        1032  7.48         8.6 0.24            134            146 260 
 OCA  HZ EP   1   1031 42.08                             129   -0.15 7  162 354 
 OCA  HN ES   1   1032  4.19                             129   -0.29 7  162 354 
 OCA  HZ I        1032  9.59        19.5 0.26            131            162 354 
 ZAR  HZ EP       1031 46.08                             123   -0.02 9  203 293 
 ZAR  HE ES       1032 11.39                             123    0.02 9  203 293 
 ZAR  HZ I        1032 18.07         9.5 0.22            124            203 293 
 NOR  SZ EP       1031 49.06                             119   -0.10 8  232 235 
 NOR  SN ES       1032 17.04                             119    0.21 8  232 235 
 HEL  HZ EP   1   1031 54.29                             115    0.60 6  270 256 
                                                                                
