 2016 12 2 1149 58.3 L   6.348 -73.551110.4  RSN  7 0.5 1.5LRSN                1
 GAP=151        1.24       5.2     4.5  9.1 -0.8849E+01  0.5973E+01  0.1270E+02E
 Epicentro: SANTA HELENA DEL OPON - SANTANDER                                  3
 ACTION:UPD 17-01-11 20:11 OP:rebc STATUS:               ID:20161202114958 L   I
 OLDACT:REG 16-12-02 20:47 OP:lv   STATUS:               ID:20161202114437     3
 2016-12-02-1148-00M.COL___325                                                 6
 STAT SP IPHASW D HRMM SECON CODA AMPLIT PERI AZIMU VELO AIN AR TRES W  DIS CAZ7
 BAR2 EZ IP     D 1150 14.99                             154    0.2610 48.9  56 
 BAR2 EZ ES       1150 27.58                             154    0.0410 48.9  56 
 BAR2 EZ I        1150 29.26         7.3 0.12            155           48.9  56 
 BRR  HZ EP       1150 16.88                             139    0.0110 85.8 348 
 BRR  HN ES       1150 31.98                             139    0.6310 85.8 348 
 PTB  HZ EP       1150 17.55                             134   -0.7410  102 282 
 PTB  HE ES       1150 33.05                             134   -0.8210  102 282 
 PTB  HZ I        1150 33.94        11.6 0.15            136            102 282 
 PAM  EZ EP       1150 22.87                             123   -0.08 9  144  41 
 PAM  EE ES       1150 41.86                             123   -0.30 9  144  41 
 PAM  EZ I        1150 43.74         4.9 0.20            124            144  41 
 NOR  HZ EP       1150 24.68                             118   -0.35 9  170 239 
 NOR  HE ES       1150 46.03                             118    0.16 9  170 239 
 NOR  HZ I        1150 47.86         3.8 0.22            119            170 239 
 ZAR  HZ EP       1150 27.48                             115    0.09 9  192 311 
 ZAR  HN ES       1150 50.89                             115    0.81 9  192 311 
 PRA  HN ES       1151 18.81                             103    0.89 7  327 207 
 PRA  HZ I        1151 24.12         1.7 0.42            103            327 207 
                                                                                
