 2014  5 2 1305  6.0 L   6.085 -73.710111.9  RSN 18 0.4 2.6LRSN                1
 GAP= 73        0.85       2.0     2.0  4.4 -0.4829E+00  0.1239E+01 -0.1465E+01E
 Epicentro: BOLIVAR - SANTANDER                                                3
 OLDACT:REG 14-05-02 20:10 OP:spq  STATUS:               ID:20140502130000     3
 ACTION:UPD 15-03-16 16:54 OP:nd   STATUS:               ID:20140502130506 L   I
 OLDACT:UP  14-05-03 00:56 OP:spq  STATUS:               ID:20140502130000     3
 2014-05-02-1300-00M.COL___273                                                 6
 STAT SP IPHASW D HRMM SECON CODA AMPLIT PERI AZIMU VELO AIN AR TRES W  DIS CAZ7
 SPBC HZ EPg      13 5 23.22                             149    0.0910 62.4 220 
 SPBC HE ESg      13 5 36.79                             149    0.2810 62.4 220 
 SPBC HZ I        13 5 38.75       102.4 0.22            148           62.4 220 
 RUS  HZ EPg      13 5 24.46                             145    0.0810 72.6 107 
 RUS  HE ESg      13 5 38.41                             145   -0.3310 72.6 107 
 RUS  HZ I        13 5 40.45        44.0 0.26            151           72.6 107 
 PTB  HZ EP       13 5 24.99                             136   -0.6010 96.7 301 
 PTB  HE ES       13 5 40.98                             136    0.1010 96.7 301 
 PTB  HZ I        13 5 44.50        83.1 0.10            134           96.7 301 
 ROSC BZ EP   1   13 5 32.18                             122    0.69 7  153 206 
 ROSC BN ES   1   13 5 51.37                             122   -0.02 7  153 206 
 ROSC HZ I        13 5 58.27        41.5 0.35            123            153 206 
 CHI  HZ EP       13 5 31.77                             121   -0.54 9  161 181 
 CHI  HE ES       13 5 52.53                             121   -0.32 9  161 181 
 PAM  SZ EP       13 5 34.64                             118    0.40 9  178  39 
 PAM  SN ES       13 5 56.42                             118    0.14 9  178  39 
 PAM  HZ I        13 5 59.89        25.0 0.32            120            178  39 
 ZAR  HZ EP       13 5 35.87                             114   -0.24 9  201 321 
 ZAR  HN ES       13 5 59.69                             114    0.08 9  201 321 
 ZAR  HZ I        13 6  5.18        88.6 0.20            114            201 321 
 HEL  HZ EP       13 5 37.04                             114    0.38 9  202 273 
 HEL  HN ES   1   13 5 59.88                             114   -0.71 6  202 273 
 HEL  HZ I        13 6  8.73        17.5 0.38            114            202 273 
 GUY2CHZ EP       13 5 37.69                             114    0.35 8  207 243 
 GUY2CHN ES       13 6  2.12                             114    0.31 8  207 243 
 GUY2CHZ I        13 6  7.05        37.4 1.20                           207 243 
 TAM  HZ EP       13 5 37.81                             112   -0.03 8  216  80 
 TAM  HE ES   1   13 6  2.96                             112    0.27 6  216  80 
 TAM  HZ I        13 6  4.16        38.7 0.28            115            216  80 
 VIL  SZ EP   1   13 5 38.01                             112   -0.20 6  218 180 
 VIL  SN ES   1   13 6  3.41                             112    0.06 6  218 180 
 VIL  HZ I        13 6  6.42        42.6 0.32            114            218 180 
 CBOC HZ EP       13 5 43.15                             108    0.55 8  256 265 
 CBOC HE ES   1   13 6 10.28                             108   -0.88 6  256 265 
 URE  HZ EP   1   13 5 43.42                             107   -0.96 6  273 313 
 URE  HE ES   4   13 6 12.03                             107   -2.30 0  273 313 
 URE  HZ I        13 6 21.79        30.6 0.14            107            273 313 
 ORTC HZ EP       13 5 46.86                             105   -0.10 7  295 215 
 ORTC HN ES       13 6 19.38                             105    0.46 7  295 215 
 ORTC HZ I        13 6 23.96        34.5 0.56            106            295 215 
 DBB  SZ EP       13 5 46.95                             105   -0.10 7  295 291 
 DBB  SZ ES   2   13 6 18.98                             105   -0.10 4  295 291 
 DBB  HZ I        13 6 42.90        43.9 2.94            106            295 291 
 SML  HZ EP       13 5 47.76                             105   -0.12 7  303 352 
 SML  HE ES   1   13 6 21.52                             105    0.96 5  303 352 
 MACC HZ EP   4   13 6  1.27                              98   -2.53 0  436 182 
 MACC HE ES   4   13 6 44.06                              98   -4.84 0  436 182 
 MACC HZ I        13 6 48.30         5.6 0.62             99            436 182 
 SJC  HN ES   4   13 6 50.47                              98   -1.91 0  452 339 
 SDV  BE ES   1   13 6 53.71                              97   -0.68 4  460  48 
                                                                                
