 2012  1 2 1937 44.3 L   6.777 -73.134142.0  RSN  4 0.4 1.3LRSN                1
 GAP=139        0.54       5.3     7.1  9.3  0.1379E+02 -0.2972E+02 -0.2442E+02E
 Epicentro: LOS SANTOS - SANTANDER                                             3
 ACTION:UP  12-02-03 08:13 OP:REBC STATUS:               ID:20120102193744 L   I
 2012-01-02-1930-00M.COL___186                                                 6
 STAT SP IPHASW D HRMM SECON CODA AMPLIT PERI AZIMU VELO SNR AR TRES W  DIS CAZ7
 BAR2 SZ ES   3   1938 17.14                             172    -1.3 2   21 195 
 BRR  HZ EP       1938  5.04                             152    -0.210   74 300 
 BRR  HZ I        1938  7.11         5.8 0.52                            74 300 
 BRR  HN ES   1   1938 21.76                             152     0.3 7   74 300 
 PAM  SZ EP       1938  6.25                             150     0.010   79  38 
 PAM  SN ES   3   1938 23.71                             150     0.4 2   79  38 
 RUS  HZ EP   3   1938  7.81                             144     0.3 2   98 177 
 RUS  HN ES   1   1938 25.71                             144     0.1 7   98 177 
 RUS  HZ I        1938 27.42         2.1 0.30                            98 177 
                                                                                
