 2017 12 2 1009 28.8 L   6.826 -73.186138.8  RSN  6 0.5 1.3LRSN                1
 GAP=130        1.15       4.7     6.2  8.6 -0.4349E+01  0.1749E+02  0.7016E+01E
 Epicentro: ZAPATOCA - SANTANDER                                               3
 ACTION:UPD 18-01-04 13:16 OP:rebc STATUS:               ID:20171202100928 L   I
 OLDACT:UP  17-12-02 21:59 OP:dani STATUS:               ID:20171202100741     3
 OLDACT:UP  17-12-02 21:59 OP:dani STATUS:               ID:20171202100741     3
 OLDACT:REG 17-12-02 21:18 OP:dani STATUS:               ID:20171202100741     3
 2017-12-02-1008-00M.COL___468                                                 6
 STAT SP IPHASW D HRMM SECON CODA AMPLIT PERI AZIMU VELO AIN AR TRES W  DIS CAZ7
 BAR2 EZ ES       1010  1.86                             169   -0.4510 25.8 179 
 BAR2 EZ I        1010  5.15         7.6 0.32            168           25.8 179 
 PAM  EZ EP       10 9 50.23                             149   -0.0710 78.2  43 
 PAM  EE ES       1010  7.39                             149    0.3010 78.2  43 
 PAM  EZ I        1010 10.07         3.2 0.40            154           78.2  43 
 RUS  HZ EP       10 9 51.64                             141   -0.4410  104 174 
 RUS  HN ES       1010 10.69                             141    0.4210  104 174 
 RUS  HZ I        1010 11.27         2.6 0.36            143            104 174 
 SPBC HZ EP       10 9 56.62                             127   -0.07 9  163 217 
 SPBC HN ES       1010 17.88                             127   -0.59 9  163 217 
 SPBC HZ I        1010 25.43         4.1 0.28            129            163 217 
 ZAR  HN ES       1010 25.16                             121    0.39 9  199 292 
 CHI  HZ EP       1010  6.00                             115   -0.27 8  250 194 
 CHI  HN ES       1010 36.59                             115    1.07 8  250 194 
 CHI  HZ I        1010 40.86         1.0 0.64            117            250 194 
                                                                                
