 2017  9 2 1402 10.8 L   6.805 -73.094146.0  RSN  7 0.5 1.8LRSN                1
 GAP=243        0.99       5.3     7.1  6.4  0.1721E+02  0.1354E+02  0.5552E+01E
 Epicentro: LOS SANTOS - SANTANDER                                             3
 ACTION:UPD 17-10-05 19:08 OP:rebc STATUS:               ID:20170902140210 L   I
 OLDACT:UP  17-09-02 22:31 OP:dhb  STATUS:               ID:20170902135741     3
 OLDACT:REG 17-09-02 20:43 OP:dhb  STATUS:               ID:20170902135741     3
 2017-09-02-1358-00M.COL___405                                                 6
 STAT SP IPHASW D HRMM SECON CODA AMPLIT PERI AZIMU VELO AIN AR TRES W  DIS CAZ7
 BAR2 EZ IP     D 14 2 30.47                             170   -0.0410 25.5 203 
 BAR2 EZ ES       14 2 45.79                             170   -0.0910 25.5 203 
 BAR2 EZ I        14 2 46.93        15.8 0.25            164           25.5 203 
 BRR  HZ EP       14 2 32.54                             151    0.2810 76.1 296 
 BRR  HN ES       14 2 49.68                             151    0.6810 76.1 296 
 BRR  HZ I        14 2 52.86        12.0 0.28            147           76.1 296 
 RUS  HZ EP       14 2 34.35                             144   -0.2610  101 179 
 RUS  HN ES       14 2 53.11                             144   -0.0610  101 179 
 SPBC HZ EP       14 2 39.78                             129    0.06 9  167 220 
 SPBC HN ES       14 3  1.76                             129   -0.50 9  167 220 
 SPBC HZ I        14 3  6.29         6.0 0.09            127            167 220 
 ZAR  HZ EP       14 2 43.35                             122   -0.45 8  209 291 
 ZAR  HN ES       14 3  8.90                             122   -0.64 8  209 291 
 ZAR  HZ I        14 3 15.17         5.1 0.19            121            209 291 
 GUY2CHZ EP       14 2 55.64                             112    0.64 7  306 235 
 GUY2CHN ES   4   14 3 32.09                             112    2.63 0  306 235 
 PRA  HZ EP       14 3  5.27                             106    0.54 6  395 210 
 PRA  HE ES   2   14 3 48.19                             106    1.41 3  395 210 
 PRA  HZ I        14 3 52.28         2.0 0.27            107            395 210 
                                                                                
