 2017  9 2 1337 19.1 L   6.777 -73.120145.7  RSN  7 0.4 1.7LRSN                1
 GAP=238        0.70       3.9     5.1  4.7  0.9581E+01  0.5890E+01  0.1841E+01E
 Epicentro: LOS SANTOS - SANTANDER                                             3
 ACTION:UPD 17-10-05 19:08 OP:rebc STATUS:               ID:20170902133719 L   I
 OLDACT:REG 17-09-02 20:37 OP:dhb  STATUS:               ID:20170902132738     3
 2017-09-02-1328-00M.COL___405                                                 6
 STAT SP IPHASW D HRMM SECON CODA AMPLIT PERI AZIMU VELO AIN AR TRES W  DIS CAZ7
 BAR2 EZ IP     D 1337 38.47                             171   -0.2210 21.6 199 
 BAR2 EZ ES       1337 54.34                             171    0.3710 21.6 199 
 BAR2 EZ I        1337 55.27         9.0 0.20            167           21.6 199 
 BRR  HZ EP       1337 40.61                             151    0.1510 74.9 299 
 BRR  HN ES       1337 57.15                             151    0.0410 74.9 299 
 BRR  HZ I        1337 59.67        13.6 0.38            148           74.9 299 
 RUS  HZ EP       1337 42.34                             145   -0.3210 97.9 178 
 RUS  HN ES       1338  0.97                             145   -0.0610 97.9 178 
 SPBC HZ EP       1337 47.44                             129   -0.15 9  163 220 
 SPBC HN ES       1338  9.80                             129   -0.00 9  163 220 
 ZAR  HZ EP       1337 52.31                             122    0.40 8  208 292 
 ZAR  HN ES       1338 17.05                             122   -0.45 8  208 292 
 ZAR  HZ I        1338 22.13         4.8 0.22            121            208 292 
 GUY2CHZ EP   3   1338  4.53                             112    1.72 2  302 235 
 GUY2CHE ES   4   1338 40.32                             112    3.42 0  302 235 
 GUY2CHZ I        1338 45.16         2.1 0.14                           302 235 
 PRA  HZ EP       1338 13.01                             107    0.48 6  391 210 
 PRA  HE ES   4   1338 57.18                             107    2.97 0  391 210 
 PRA  HZ I        1339  0.46         2.0 0.37            107            391 210 
                                                                                
