 2011  1 2 1224 34.7 L   6.756 -73.093144.0  RSN  7 0.3 2.1LRSN                1
 GAP=165        0.65       4.7     8.6  8.2 -0.1954E+02  0.3208E+02 -0.4402E+01E
 Epicentro: LOS SANTOS - SANTANDER                                             3
 ACTION:UP  11-02-08 08:37 OP:pat  STATUS:               ID:20110102122434 L   I
 2011-01-02-1220-00M.COL___128                                                 6
 STAT SP IPHASW D HRMM SECON CODA AMPLIT PERI AZIMU VELO SNR AR TRES W  DIS CAZ7
 BAR2 SZ IP       1224 53.88                             171    -0.210   21 209 
 BAR2 SZ ES   2   1225  9.13                             171    -0.1 5   21 209 
 BAR2 SZ I        1225  9.92        36.2 0.15                            21 209 
 BTL  SZ EP   1   1224 54.93                             169     0.7 7   26 313 
 RUS  HZ EP   1   1224 57.77                             145    -0.2 7   95 179 
 RUS  HN ES   2   1225 16.02                             145     0.0 5   95 179 
 RUS  HZ I        1225 17.69        26.5 0.27                            95 179 
 GRA  SZ EP   1   1224 59.97                             136    -0.1 7  129  14 
 GRA  SZ ES   2   1225 19.62                             136    -0.2 5  129  14 
 GRA  SZ I        1225 20.91        26.2 0.41                           129  14 
 NOR  SZ EP   1   1225 10.34                             118    -0.2 6  237 236 
 NOR  SE ES   2   1225 38.12                             118    -0.4 4  237 236 
 CHI  HZ EP   1   1225 12.03                             117     0.1 6  246 197 
 CHI  HN ES   2   1225 41.35                             117     0.3 4  246 197 
 CHI  HZ I        1225 49.33         6.0 0.57                           246 197 
 HEL  HZ EP   1   1225 15.61                             114     0.3 6  277 257 
 HEL  HZ I        1225 52.43         6.2 0.64                           277 257 
                                                                                
