 2017 10 2 1642 43.1 L   6.828 -73.236143.1  RSN  8 0.4 1.6LRSN                1
 GAP=114        0.69       2.7     3.0  5.1  0.5064E+00  0.3676E+01  0.3880E+01E
 Epicentro: ZAPATOCA - SANTANDER                                               3
 ACTION:UPD 17-11-07 19:27 OP:rebc STATUS:               ID:20171002164243 L   I
 OLDACT:REG 17-10-02 20:42 OP:dhb  STATUS:               ID:20171002163743     3
 2017-10-02-1638-00M.COL___435                                                 6
 STAT SP IPHASW D HRMM SECON CODA AMPLIT PERI AZIMU VELO AIN AR TRES W  DIS CAZ7
 BAR2 EZ EP       1643  2.49                             169    0.0210 26.7 167 
 BAR2 EZ ES       1643 17.42                             169   -0.1710 26.7 167 
 BAR2 EZ I        1643 18.89         9.1 0.18            167           26.7 167 
 PAM  EZ IP     C 1643  5.42                             149    0.1210 81.9  46 
 PAM  EN ES       1643 22.74                             149    0.1210 81.9  46 
 PAM  EZ I        1643 24.58        10.2 0.52            152           81.9  46 
 RUS  HZ EP       1643  6.76                             142   -0.1310  105 171 
 RUS  HN ES       1643 25.68                             142    0.2310  105 171 
 RUS  HZ I        1643 26.30         6.5 0.30            141            105 171 
 YPLC HZ EP       1643 13.45                             125    0.00 9  184 149 
 YPLC HE ES       1643 37.13                             125    0.00 9  184 149 
 ZAR  HZ I        1643 36.59         5.4 0.30            124            194 292 
 ZAR  HE ES       1643 38.30                             123   -0.33 9  194 292 
 NOR  HN ES       1643 45.90                             119    0.66 8  229 232 
 NOR  HZ I        1643 52.07         3.1 0.22            119            229 232 
 CHI  HZ EP       1643 20.35                             117   -0.35 8  249 193 
 CHI  HN ES       1643 49.67                             117   -0.38 8  249 193 
 CHI  HZ I        1643 55.82         2.1 0.42            117            249 193 
 GUY2CHZ EP   3   1643 27.93                             112    2.06 2  295 233 
 GUY2CHE ES   4   1644  4.70                             112    5.46 0  295 233 
 GUY2CHZ I        1644  8.59         2.3 0.32                           295 233 
                                                                                
