 2013  7 2 1503 31.1 L   6.735 -73.170154.7  RSN  7 0.3 1.6LRSN                1
 GAP=136        0.65       4.4     4.0  5.2  0.5424E+01 -0.1458E+01 -0.6101E+01E
 Epicentro: VILLANUEVA - SANTANDER                                             3
 ACTION:UPD 13-08-12 10:34 OP:ep   STATUS:               ID:20130702150331 L   I
 OLDACT:REG 13-07-02 13:40 OP:j    STATUS:               ID:20130702145959     3
 2013-07-02-1459-59M.COL___267                                                 6
 STAT SP IPHASW D HRMM SECON CODA AMPLIT PERI AZIMU VELO AIN AR TRES W  DIS CAZ7
 BAR2 SZ EP       15 3 51.61                             174   -0.0410 15.9 185 
 BAR2 SZ ES       15 4  7.79                             174    0.0910 15.9 185 
 BAR2 SZ I        15 4  9.43        10.6 0.24            172           15.9 185 
 GIR2 SZ EP       15 3 51.75                             166   -0.2410 38.1 356 
 BRR  HZ EP     D 15 3 53.53                             153    0.2710 72.6 304 
 BRR  HE ES       15 4 10.82                             153    0.2410 72.6 304 
 BRR  HZ I        15 4 15.33         9.1 0.16            151           72.6 304 
 PAM  SZ EP     D 15 3 54.43                             150   -0.2310 84.6  38 
 PAM  SZ I        15 4 13.87         6.1 0.63            140           84.6  38 
 RUS  HZ EP   1   15 3 55.84                             147    0.60 7 93.7 174 
 RUS  HN ES       15 4 13.89                             147   -0.2010 93.7 174 
 RUS  HZ I        15 4 15.84         4.7 0.53            151           93.7 174 
 PTB  HZ EP       15 3 58.52                             135    0.08 9  144 261 
 PTB  HN ES   1   15 4 19.39                             135   -0.39 7  144 261 
 PTB  HZ I        15 4 23.09         6.9 0.16            137            144 261 
 ZAR  HE ES   1   15 4 29.71                             124   -0.23 6  204 294 
                                                                                
