 2017  1 2 1157 12.7 L   6.787 -73.174150.4  RSN  8 0.5 2.1LRSN                1
 GAP=117        1.20       5.9     5.2  7.4  0.6233E+01  0.5828E+01  0.4165E+01E
 Epicentro: LOS SANTOS - SANTANDER                                             3
 ACTION:UPD 17-05-22 15:54 OP:jn   STATUS:               ID:20170102115712 L   I
 OLDACT:UP  17-01-02 22:00 OP:dnl  STATUS:               ID:20170102114745d    3
 OLDACT:UP  17-01-02 21:59 OP:dnl  STATUS:               ID:20170102114745d    3
 OLDACT:DUP 17-01-02 21:55 OP:dnl  STATUS:               ID:20170102114745d    3
 OLDACT:UP  17-01-02 21:55 OP:dnl  STATUS:               ID:20170102114744     3
 OLDACT:UP  17-01-02 21:54 OP:dnl  STATUS:               ID:20170102114744     3
 OLDACT:UP  17-01-02 21:54 OP:dnl  STATUS:               ID:20170102114744     3
 OLDACT:UP  17-01-02 21:53 OP:dnl  STATUS:               ID:20170102114744     3
 OLDACT:UP  17-01-02 21:52 OP:dnl  STATUS:               ID:20170102114744     3
 OLDACT:REG 17-01-02 21:12 OP:ndl  STATUS:               ID:20170102114744     3
 2017-01-02-1148-00M.COL___372                                                 6
 STAT SP IPHASW D HRMM SECON CODA AMPLIT PERI AZIMU VELO AIN AR TRES W  DIS CAZ7
 BAR2 HZ EP       1157 32.86                             171   -0.0110 21.5 182 
 BAR2 HZ ES       1157 47.85                             171   -0.7510 21.5 182 
 BAR2 HZ I        1157 49.96        21.8 0.30            169           21.5 182 
 BRR  HZ EP       1157 34.73                             154    0.4710 69.2 301 
 BRR  HN ES       1157 51.85                             154    0.7810 69.2 301 
 BRR  HZ I        1157 54.87        15.2 0.48            152           69.2 301 
 PAM  EZ EP       1157 35.80                             151    0.1810 80.5  41 
 PAM  EN ES       1157 53.05                             151   -0.4310 80.5  41 
 PAM  EZ I        1157 55.00        24.9 0.52            155           80.5  41 
 RUS  HZ EP       1157 37.15                             145    0.3010 99.4 174 
 RUS  HN ES       1157 56.20                             145    0.5310 99.4 174 
 RUS  HZ I        1157 56.71        15.0 0.30            145           99.4 174 
 PTB  HZ EP       1157 39.61                             134   -0.16 9  144 259 
 PTB  HN ES       1158  0.48                             134   -0.39 9  144 259 
 PTB  HZ I        1158  7.56        14.1 0.80            132            144 259 
 ZAR  HZ EP       1157 45.38                             124    0.15 9  202 293 
 ZAR  HN ES       1158 10.12                             124   -0.47 9  202 293 
 ZAR  HZ I        1158 17.09         7.4 0.34            123            202 293 
 GUY2CHZ EP   4   1157 58.30                             113    2.14 0  298 235 
 GUY2CHE ES   4   1158 33.90                             113    3.85 0  298 235 
 GUY2CHZ  IAML    1158 41.43         5.1 0.42                           298 235 
 PTGC HZ EP       1157 56.02                             112   -0.74 7  308 158 
 PTGC HE ES   4   1158 29.32                             112   -1.80 0  308 158 
 PTGC HZ I        1158 37.93        11.1 0.44            113            308 158 
                                                                                
