 2010  2 2 1558  8.0 L   6.803 -73.235141.1  RSN  4 0.2 1.6LRSN                1
 GAP=198        0.44       4.5    19.5  6.6 -0.6135E+02  0.3964E+01 -0.9085E+00E
 Epicentro: ZAPATOCA - SANTANDER                                               3
 ACTION:UP  10-08-24 09:47 OP:vdl  STATUS:               ID:20100202155808 L   I
 2010-02-02-1539-50S.COL___085                                                 6
 STAT SP IPHASW D HRMM SECON CODA AMPLIT PERI AZIMU VELO SNR AR TRES W  DIS CAZ7
 BAR2 SZ EP   1   1558 27.20                             170     0.1 7   24 166 
 BAR2 SZ ES   2   1558 42.20                             170     0.2 5   24 166 
 GIR2 SZ EP   2   1558 26.67                             167    -0.5 5   31   9 
 GIR2 SZ ES   2   1558 42.04                             167     0.0 5   31   9 
 RUS  HZ EP   2   1558 31.79                             142     0.4 5  102 171 
 RUS  HN ES   2   1558 49.32                             142    -0.4 5  102 171 
 RUS  HZ I        1558 51.28         6.6 0.34                           102 171 
 GRA  SZ EP   2   1558 33.04                             135    -0.1 5  129  22 
 GRA  SZ ES   1   1558 52.71                             135     0.0 7  129  22 
                                                                                
