 2012  5 2 1354 38.9 L   6.783 -73.145146.7  RSN  7 0.4 2.0LRSN                1
 GAP=137        0.77       4.1     4.6  6.7  0.1757E+01  0.6560E+01  0.3681E+01E
 Epicentro: LOS SANTOS - SANTANDER                                             3
 ACTION:UP  12-07-05 12:01 OP:pat  STATUS:               ID:20120502135438 L   I
 2012-05-02-1350-00M.COL___186                                                 6
 STAT SP IPHASW D HRMM SECON CODA AMPLIT PERI AZIMU VELO SNR AR TRES W  DIS CAZ7
 BAR2 SZ EP       1354 58.52                             171    -0.110   22 191 
 BAR2 SZ ES   1   1355 13.94                             171     0.0 7   22 191 
 BAR2 SZ I        1355 15.76        26.0 0.17                            22 191 
 BRR  HZ EP       1355  0.34                             152     0.210   72 300 
 BRR  HN ES   1   1355 17.29                             152     0.5 7   72 300 
 BRR  HZ I        1355 17.94        22.3 0.22                            72 300 
 PAM  SZ EP   1   1355  1.41                             151     0.1 7   79  39 
 PAM  SN ES   1   1355 18.44                             151    -0.3 7   79  39 
 RUS  HZ EP   1   1355  2.39                             145    -0.2 7   99 176 
 RUS  HN ES   1   1355 21.31                             145     0.2 7   99 176 
 PTB  HZ EP   1   1355  5.21                             132    -0.7 7  147 260 
 PTB  HN ES   1   1355 26.36                             132    -0.6 7  147 260 
 PTB  HZ I        1355 33.43        13.3 0.46                           147 260 
 ZAR  HZ EP   2   1355 12.21                             123     0.8 4  205 293 
 ZAR  HN ES   1   1355 37.00                             123     0.1 6  205 293 
 CHI  HZ EP   2   1355 16.61                             118     0.2 4  247 195 
 CHI  HN ES   1   1355 46.11                             118     0.4 6  247 195 
 CHI  HZ I        1355 52.40         5.8 0.52                           247 195 
                                                                                
