 2015 12 2 1012 50.0 L   6.873 -73.042134.8  RSN  4 0.4 1.5LRSN                1
 GAP=235        1.05       9.0     9.8  9.4  0.4512E+02 -0.1234E+02 -0.4603E+02E
 Epicentro: PIEDECUESTA - SANTANDER                                            3
 ACTION:UPD 16-02-04 15:02 OP:cam  STATUS:               ID:20151202101250 L   I
 OLDACT:DUP 15-12-02 21:07 OP:drio STATUS:               ID:20151202100750d    3
 2015-12-02-1007-48M.COL___306                                                 6
 STAT SP IPHASW D HRMM SECON CODA AMPLIT PERI AZIMU VELO AIN AR TRES W  DIS CAZ7
 BAR2 EZ EP       1013  8.31                             165   -0.2710 34.7 207 
 BAR2 EZ ES       1013 22.80                             165   -0.3010 34.7 207 
 BAR2 EZ I        1013 24.44         5.6 0.26            170           34.7 207 
 BRR  HZ EP       1013 10.59                             148    0.2010 78.4 289 
 BRR  HN ES       1013 27.00                             148    0.6810 78.4 289 
 ZAR  HZ EP       1013 22.86                             119    0.30 8  212 289 
 ZAR  HN ES       1013 47.37                             119   -0.61 8  212 289 
 ZAR  HZ I        1013 52.84         3.5 0.32            120            212 289 
 SML  HZ EP       1013 26.13                             115    0.37 8  242 332 
 SML  HN ES       1013 53.17                             115   -0.51 8  242 332 
 SML  HZ I        1014  1.65         2.6 0.10            116            242 332 
                                                                                
