 2013  4 2 1139 38.7 L   6.769 -73.144152.5  RSN  8 0.4 1.9LRSN                1
 GAP=138        0.73       4.0     4.3  6.1  0.1357E+01  0.7109E+01  0.1476E+01E
 Epicentro: LOS SANTOS - SANTANDER                                             3
 ACTION:UPD 13-05-22 14:35 OP:EP   STATUS:               ID:20130402113938 L   I
 2013-04-02-1137-49M.COL___206                                                 6
 STAT SP IPHASW D HRMM SECON CODA AMPLIT PERI AZIMU VELO AIN AR TRES W  DIS CAZ7
 BAR2 SZ IP     C 1139 59.08                             172    0.0010 20.0 192 
 BAR2 SZ ES   1   1140 14.85                             172   -0.12 7 20.0 192 
 BAR2 SZ I        1140 16.74        18.1 0.20            169           20.0 192 
 BRR  HZ IP     D 1140  1.15                             153    0.4710 73.0 301 
 BRR  HN ES   1   1140 18.47                             153    0.65 7 73.0 301 
 BRR  HZ I        1140 22.84        10.4 0.26            151           73.0 301 
 PAM  SZ EP   1   1140  1.65                             151   -0.13 7 79.9  38 
 PAM  SN ES   1   1140 19.33                             151   -0.45 7 79.9  38 
 PAM  SZ I        1140 21.30         8.7 0.20            157           79.9  38 
 RUS  HZ EP   1   1140  2.96                             146    0.08 7 97.2 176 
 RUS  HE ES   1   1140 21.82                             146    0.08 7 97.2 176 
 RUS  HZ I        1140 23.79         4.1 0.28            148           97.2 176 
 PTB  HZ EP   1   1140  6.08                             134   -0.10 7  147 260 
 PTB  HN ES   1   1140 27.18                             134   -0.44 7  147 260 
 PTB  HZ I        1140 32.96        12.6 0.26            133            147 260 
 ZAR  HZ EP   1   1140 11.79                             124    0.05 6  205 293 
 ZAR  HE ES   1   1140 37.34                             124   -0.17 6  205 293 
 ZAR  HZ I        1140 43.55         9.7 0.18            124            205 293 
 SML  HE ES   2   1140 44.27                             118   -0.91 4  247 336 
 PRA  HZ EP   2   1140 32.98                             108    0.85 3  389 210 
 PRA  HN ES   1   1141 13.02                             108   -0.78 4  389 210 
 PRA  HZ I        1141 19.79         3.3 0.52            109            389 210 
                                                                                
