 2010  7 2 1035 20.3 L   6.770 -73.076144.6  RSN 10 0.4 2.2LRSN                1
 GAP=167        0.88       4.0     7.3  6.6 -0.1032E+02  0.5685E+01 -0.8492E-01E
 Epicentro: LOS SANTOS - SANTANDER                                             3
 ACTION:UPD 10-12-01 15:14 OP:pat  STATUS:               ID:20100702103520 L   I
 2010-07-02-1032-35S.COL___118                                                 6
 STAT SP IPHASW D HRMM SECON CODA AMPLIT PERI AZIMU VELO AIN AR TRES W  DIS CAZ7
 BAR2 SZ IP       1035 39.75                             171     0.010   23 211 
 BAR2 SZ ES   1   1035 54.23                             171    -0.8 7   23 211 
 BRR  HZ IP     C 1035 41.63                             150    -0.210   80 298 
 BRR  HZ I        1035 41.93        52.9 0.16                            80 298 
 BRR  HN ES   1   1035 59.19                             150     0.6 7   80 298 
 RUS  HZ EP   1   1035 43.51                             145    -0.2 7   97 180 
 RUS  HN ES   1   1036  2.27                             145     0.3 7   97 180 
 RUS  HZ I        1036  3.62         7.8 0.24                            97 180 
 GUE  SZ EP   1   1035 44.67                             139    -0.4 7  118   8 
 GRA  SZ IP       1035 45.56                             137     0.010  127  14 
 GRA  SZ ES   1   1036  5.82                             137     0.6 7  127  14 
 OCA  SZ EP   1   1035 48.75                             129    -0.2 7  165 351 
 OCA  SZ I        1036 16.03        15.8 0.32                           165 351 
 CHI  HZ EP   2   1035 57.71                             117    -0.1 4  248 197 
 CHI  HN ES   2   1036 27.58                             117     0.5 4  248 197 
 CHI  HZ I        1036 35.01         5.5 0.39                           248 197 
 HEL  HZ EP   2   1036  1.23                             114     0.0 4  279 257 
 HEL  HN ES   2   1036 32.03                             114    -1.1 4  279 257 
 HEL  HZ I        1036 38.48        10.0 0.47                           279 257 
 RREF HZ EP   1   1036  7.35                             110     0.5 5  326 231 
 RREF HZ I        1036 51.96         8.0 0.34                           326 231 
 PRA  HZ EP   1   1036 14.04                             106     0.1 4  393 211 
 PRA  HE ES   1   1036 56.09                             106     0.4 4  393 211 
 PRA  HZ I        1036 59.70         6.8 0.41                           393 211 
                                                                                
