 2014  5 2 1105 27.2 L   6.818 -73.147135.7  RSN 21 0.4 2.7LRSN                1
 GAP= 70        0.84       2.2     2.3  5.3 -0.6988E+00  0.3521E+01 -0.2133E+00E
 Epicentro: LOS SANTOS - SANTANDER                                             3
 OLDACT:UP  14-05-02 23:51 OP:spq  STATUS:               ID:20140502110000     3
 OLDACT:REG 14-05-02 19:47 OP:spq  STATUS:               ID:20140502110000     3
 ACTION:UPD 15-03-16 16:54 OP:nd   STATUS:               ID:20140502110527 L   I
 OLDACT:UP  14-05-03 01:39 OP:mh   STATUS:               ID:20140502110526 L   3
 OLDACT:UP  14-05-03 01:19 OP:nlst STATUS:               ID:20140502110526 L   3
 OLDACT:UP  14-05-02 23:51 OP:spq  STATUS:               ID:20140502110000     3
 2014-05-02-1100-00M.COL___273                                                 6
 STAT SP IPHASW D HRMM SECON CODA AMPLIT PERI AZIMU VELO AIN AR TRES W  DIS CAZ7
 PAM  SZ EPg      11 5 48.90                             149    0.6210 76.0  41 
 PAM  SN ESg      11 6  4.16                             149   -0.5510 76.0  41 
 RUS  HZ EP       11 5 50.31                             141    0.1710  103 176 
 RUS  HN ES   1   11 6  8.02                             141   -0.00 7  103 176 
 PTB  HZ EP       11 5 52.83                             129   -0.57 9  148 258 
 PTB  HN ES       11 6 13.77                             129   -0.05 9  148 258 
 PTB  SZ I        11 6 16.19        53.5 0.12            119            148 258 
 TAM  HZ EP       11 5 54.34                             128    0.16 9  156 106 
 TAM  HE ES       11 6 15.56                             128    0.35 9  156 106 
 SPBC HZ EP       11 5 55.04                             126   -0.06 9  165 219 
 SPBC HE ES       11 6 16.97                             126    0.12 9  165 219 
 SPBC SZ I        11 6 25.38        40.2 0.24            117            165 219 
 ZAR  HZ EP       11 5 59.02                             120    0.09 9  203 292 
 ZAR  HN ES       11 6 24.24                             120    0.58 9  203 292 
 ZAR  SZ I        11 6 31.60        42.5 0.20            111            203 292 
 NOR  HZ EP       11 6  2.52                             116    0.03 8  236 234 
 NOR  HN ES       11 6 29.53                             116   -0.48 8  236 234 
 NOR  SZ I        11 6 33.64        46.1 0.34            107            236 234 
 SML  HZ EP       11 6  2.31                             115   -0.78 8  242 335 
 SML  HN ES       11 6 31.25                             115    0.18 8  242 335 
 SML  SZ I        11 6 37.62        71.7 0.08            107            242 335 
 CHI  HZ EP   1   11 6  4.15                             115   -0.43 6  251 195 
 CHI  HN ES   1   11 6 33.25                             115   -0.48 6  251 195 
 ROSC BZ EP   4   11 6  6.19                             114    1.20 0  254 211 
 ROSC BN ES   1   11 6 34.56                             114    0.12 6  254 211 
 ROSC SZ I        11 6 41.83        32.4 0.40            106            254 211 
 HEL  HZ EP   1   11 6  7.60                             113    0.63 6  272 255 
 HEL  HE ES   1   11 6 37.76                             113   -0.22 6  272 255 
 HEL  SZ I        11 6 45.10        20.2 0.36            104            272 255 
 URE  HZ EP   4   11 6  6.45                             111   -1.26 0  283 292 
 URE  HZ I        11 6 52.76        24.1 0.18            103            283 292 
 GUY2CHZ EP   1   11 6 10.63                             110    0.14 5  302 234 
 GUY2CHN ES   1   11 6 44.82                             110    0.57 5  302 234 
 GUY2CSZ I        11 6 50.90        28.1 0.56                           302 234 
 VIL  SZ EP   1   11 6 10.65                             110    0.24 5  305 191 
 VIL  SN ES   1   11 6 44.34                             110    0.24 5  305 191 
 PTGC HZ EP   4   11 6  9.21                             109   -1.65 0  311 159 
 PTGC HN ES   4   11 6 42.87                             109   -2.03 0  311 159 
 PTGC SZ I        11 7  2.48        27.7 0.48            102            311 159 
 CBOC HZ EP   1   11 6 14.22                             108    0.44 5  334 252 
 CBOC HN ES   1   11 6 49.86                             108   -0.25 5  334 252 
 CBOC SZ I        11 6 54.62        11.0 0.44            100            334 252 
 DBB  SZ EP   1   11 6 14.13                             107   -0.14 5  339 274 
 DBB  SZ ES   2   11 6 50.65                             107   -0.31 3  339 274 
 ARGC HZ EP       11 6 16.89                             106    0.61 6  357 340 
 ARGC HN ES   2   11 6 54.16                             106   -0.39 3  357 340 
 ARGC HZ I        11 7  1.73         9.8 0.11             99            357 340 
 SDV  BZ EP   1   11 6 15.51                             106   -1.25 5  359  50 
 SDV  BE ES   4   11 6 53.19                             106   -2.21 0  359  50 
 SDV  SZ I        11 6 55.74         9.2 0.30             99            359  50 
 ORTC HZ EP   1   11 6 21.42                             104    0.43 4  397 216 
 ORTC HN ES   1   11 7  2.03                             104   -0.90 4  397 216 
 ORTC SZ I        11 7  9.10        13.7 0.34             97            397 216 
 SJC  HZ EP   4   11 6 20.28                             104   -1.98 0  407 327 
 SJC  HN ES   4   11 7  1.03                             104   -4.16 0  407 327 
 SJC  SZ I        11 7  5.37        16.4 0.56             97            407 327 
                                                                                
