 2010  7 2 1851 21.1 L   6.762 -73.103152.0  RSN  5 0.2 1.6LRSN                1
 GAP=161        0.41       4.2     6.7  6.4  0.1013E+02 -0.2452E+02 -0.1249E+02E
 Epicentro: LOS SANTOS - SANTANDER                                             3
 ACTION:UPD 10-12-01 15:14 OP:pat  STATUS:               ID:20100702185121 L   I
 2010-07-02-1847-11S.COL___118                                                 6
 STAT SP IPHASW D HRMM SECON CODA AMPLIT PERI AZIMU VELO AIN AR TRES W  DIS CAZ7
 BAR2 SZ IP       1851 41.24                             172    -0.210   21 205 
 BAR2 SZ ES   2   1851 57.03                             172    -0.2 5   21 205 
 BRR  HZ EP       1851 43.19                             152    -0.110   77 300 
 BRR  HE ES   1   1852  0.67                             152     0.1 7   77 300 
 BRR  HZ I        1852  2.45        14.0 0.11                            77 300 
 RUS  HZ EP   2   1851 45.22                             146     0.1 5   96 179 
 RUS  HZ I        1851 46.56         3.3 0.26                            96 179 
 RUS  HE ES   2   1852  4.28                             146     0.4 5   96 179 
 BRI  SZ EP   1   1851 45.85                             142     0.1 7  111  18 
 GUE  SZ EP   1   1851 46.65                             140     0.0 7  120   9 
                                                                                
