 2010  2 2 1506 12.2 L   6.757 -73.052145.9  RSN  8 0.3 2.1LRSN                1
 GAP=170        0.58       3.8     9.8  5.4 -0.1883E+02  0.2084E+02 -0.2941E+01E
 Epicentro: LOS SANTOS - SANTANDER                                             3
 ACTION:UP  10-08-24 09:47 OP:vdl  STATUS:               ID:20100202150612 L   I
 2010-02-02-1459-50S.COL___085                                                 6
 STAT SP IPHASW D HRMM SECON CODA AMPLIT PERI AZIMU VELO SNR AR TRES W  DIS CAZ7
 BAR2 SZ EP   1   15 6 31.59                             170    -0.2 7   23 219 
 BAR2 SZ ES   1   15 6 47.01                             170    -0.1 7   23 219 
 GIR2 SZ EP   2   15 6 31.73                             164    -0.4 5   39 336 
 GIR2 SZ ES   2   15 6 47.69                             164     0.1 5   39 336 
 RUS  HZ EP   2   15 6 35.42                             145    -0.2 5   96 182 
 RUS  HN ES   1   15 6 54.24                             145     0.4 7   96 182 
 RUS  HZ I        15 6 55.38        13.3 0.29                            96 182 
 GUE  SZ EP   1   15 6 36.98                             139    -0.2 7  119   7 
 GRA  SZ EP   2   15 6 38.36                             137     0.8 5  128  12 
 CHI  HZ EP   1   15 6 49.73                             117     0.0 6  247 198 
 CHI  HE ES   1   15 7 18.55                             117    -0.4 6  247 198 
 CHI  HZ I        15 7 27.02         5.8 0.71                           247 198 
 HEL  HZ EP   1   15 6 53.61                             114     0.2 6  281 257 
 HEL  HZ I        15 7 29.46         7.6 0.54                           281 257 
 PRA  HZ EP   2   15 7  5.79                             106     0.0 3  393 211 
 PRA  HN ES   1   15 7 48.01                             106     0.3 4  393 211 
 PRA  HZ I        15 7 53.24         7.5 0.62                           393 211 
                                                                                
