 2013  9 2 1947 15.1 L   6.794 -73.132151.2  RSN  9 0.4 2.0LRSN                1
 GAP=139        0.73       3.3     4.4  5.7  0.4745E+00  0.3265E+01  0.1733E+01E
 Epicentro: LOS SANTOS - SANTANDER                                             3
 ACTION:UPD 13-10-22 09:19 OP:ep   STATUS:               ID:20130902194715 L   I
 OLDACT:REG 13-09-02 17:11 OP:mh   STATUS:               ID:20130902193959     3
 2013-09-02-1939-59M.COL___269                                                 6
 STAT SP IPHASW D HRMM SECON CODA AMPLIT PERI AZIMU VELO AIN AR TRES W  DIS CAZ7
 BAR2 SZ EP   1   1947 35.29                             171   -0.04 7 23.0 194 
 BAR2 SZ I        1947 53.02        12.3 0.26            166           23.0 194 
 BRR  HZ I        1947 10.12        17.2 0.40            158           72.9 298 
 BRR  HZ EP   1   1947 37.31                             153    0.43 7 72.9 298 
 BRR  HN ES       1947 54.34                             153    0.4310 72.9 298 
 PAM  SZ EP   1   1947 38.23                             152    0.40 7 77.0  38 
 PAM  SN ES   2   1947 55.31                             152   -0.28 5 77.0  38 
 PAM  SZ I        1947 57.41        12.2 0.20            160           77.0  38 
 RUS  HZ EP   1   1947 39.17                             145   -0.12 7 99.8 177 
 RUS  HN ES       1947 57.84                             145   -0.3510 99.8 177 
 RUS  HN I        1948  1.41         8.0 0.26            144           99.8 177 
 PTB  HZ EP       1947 42.20                             133   -0.39 9  149 259 
 PTB  HN ES   2   1948  3.51                             133   -0.56 5  149 259 
 PTB  HN I        1948  8.89        22.4 0.26            136            149 259 
 ZAR  HN ES   2   1948 13.13                             123   -0.62 4  206 292 
 ZAR  HN I        1948 17.29        13.2 0.10            128            206 292 
 NOR  HZ EP   1   1947 51.21                             120    0.02 6  236 235 
 NOR  HN ES       1948 19.69                             120    0.31 8  236 235 
 NOR  HN I        1948 24.19        16.2 0.22            122            236 235 
 SML  HZ EP   1   1947 52.13                             118    0.01 6  245 335 
 SML  HN ES   2   1948 19.87                             118   -1.17 4  245 335 
 CHI  HZ EP       1947 53.28                             118    0.25 8  248 196 
 CHI  HN ES   2   1948 22.58                             118   -0.07 4  248 196 
 CHI  HN I        1948 26.31         7.5 0.22            120            248 196 
                                                                                
