 2010  8 2 1023 25.8 L   6.783 -73.084146.5  RSN  5 0.2 1.5LRSN                1
 GAP=166        0.39       2.9     6.1  4.8 -0.2712E+01 -0.2575E+01  0.8907E+00E
 Epicentro: LOS SANTOS - SANTANDER                                             3
 ACTION:UP  10-09-07 10:51 OP:vdl  STATUS:               ID:20100802102325 L   I
 2010-08-02-1019-11S.COL___123                                                 6
 STAT SP IPHASW D HRMM SECON CODA AMPLIT PERI AZIMU VELO SNR AR TRES W  DIS CAZ7
 BAR2 SZ EP   1   1023 45.33                             170    -0.2 7   24 207 
 BAR2 SZ ES   2   1024  0.64                             170    -0.2 5   24 207 
 BAR2 SZ I        1024  1.73        10.9 0.18                            24 207 
 BRR  HZ EP   1   1023 47.25                             150    -0.1 7   78 297 
 BRR  HZ I        1023 47.41         7.1 0.35                            78 297 
 BRR  HE ES   2   1024  4.51                             150     0.2 5   78 297 
 RUS  HZ EP   1   1023 49.54                             145     0.1 7   98 180 
 RUS  HN ES   2   1024  8.04                             145     0.2 5   98 180 
 RUS  HZ I        1024  8.75         3.3 0.24                            98 180 
 GRA  SZ EP   1   1023 51.05                             137     0.0 7  126  14 
 GRA  SZ ES   2   1024 11.01                             137     0.2 5  126  14 
 GRA  SZ I        1024 11.99         3.1 0.33                           126  14 
 PRA  HZ EP   1   1024 19.60                             107     0.1 4  394 211 
 PRA  HZ I        1025  5.71         1.4 0.37                           394 211 
                                                                                
