 2010  6 2 1120 10.9 L   6.772 -73.130138.2  RSN  6 0.5 2.0LRSN                1
 GAP=180        1.12      10.4    17.3 10.7 -0.1349E+03  0.9707E+02 -0.5882E+02E
 Epicentro: LOS SANTOS - SANTANDER                                             3
 ACTION:UP  10-08-24 10:08 OP:vdl  STATUS:               ID:20100602112010 L   I
 2010-06-02-1115-59S.COL___109                                                 6
 STAT SP IPHASW D HRMM SECON CODA AMPLIT PERI AZIMU VELO SNR AR TRES W  DIS CAZ7
 BAR2 SZ EP       1120 29.55                             171    -0.110   21 197 
 BAR2 SZ ES       1120 44.03                             171    -0.110   21 197 
 GUE  SZ EP       1120 34.84                             137    -0.310  119  11 
 GRA  SZ EP       1120 36.16                             135     0.410  128  16 
 GRA  SZ ES   1   1120 55.85                             135     0.8 7  128  16 
 OCA  SZ EP       1120 38.32                             127    -0.7 9  164 353 
 OCA  SZ I        1121  3.13        16.4 0.07                           164 353 
 HEL  HZ I        1121 20.01         3.8 0.24                           273 257 
 HEL  HN ES   2   1121 22.35                             113     0.3 4  273 257 
 TOL  SZ EP       1120 59.38                             108     0.6 7  343 225 
                                                                                
