 2013 12 2 1907 17.0 L   6.810 -73.161147.9  RSN  6 0.4 1.7LRSN                1
 GAP=145        0.76       6.1     4.5  6.0 -0.1426E+02  0.2764E+01  0.9520E+01E
 Epicentro: LOS SANTOS - SANTANDER                                             3
 ACTION:UPD 14-01-13 10:15 OP:ep   STATUS:               ID:20131202190717 L   I
 OLDACT:UP  13-12-02 16:49 OP:cam  STATUS:               ID:20131202190000     3
 OLDACT:REG 13-12-02 14:34 OP:cam  STATUS:               ID:20131202190000     3
 2013-12-02-1900-00M.COL___282                                                 6
 STAT SP IPHASW D HRMM SECON CODA AMPLIT PERI AZIMU VELO AIN AR TRES W  DIS CAZ7
 BAR2 SZ EP       19 7 36.69                             170   -0.2210 24.2 186 
 BAR2 SZ ES       19 7 52.45                             170    0.0210 24.2 186 
 BAR2 SZ I        19 7 53.16        17.7 0.18            167           24.2 186 
 BRR  HZ EP   1   19 7 38.77                             153    0.50 7 69.2 298 
 BRR  HN ES       19 7 55.13                             153    0.2710 69.2 298 
 BRR  HZ I        19 7 59.55        11.4 0.30            149           69.2 298 
 PAM  SZ EP       19 7 39.57                             151    0.1110 77.7  41 
 PAM  SN ES       19 7 56.78                             151   -0.2010 77.7  41 
 PAM  SZ I        19 7 57.32         6.0 0.20            156           77.7  41 
 PTB  HZ EP   2   19 7 43.28                             133   -0.73 5  146 258 
 PTB  HN ES   1   19 8  4.33                             133   -0.75 7  146 258 
 PTB  HZ I        19 8 11.09         6.9 0.38            131            146 258 
 ZAR  HN ES   2   19 8 14.47                             123   -0.17 4  202 292 
 NOR  HZ EP       19 7 52.79                             119    0.01 8  234 234 
 NOR  HN ES       19 8 21.12                             119    0.44 8  234 234 
 NOR  HZ I        19 8 30.16         2.5 0.14            119            234 234 
                                                                                
