 2011 11 2 1034 12.0 L   6.773 -73.134142.0  RSN  8 0.3 2.0LRSN                1
 GAP=139        0.55       3.1     3.7  4.7 -0.8905E+00  0.5101E+01  0.4038E+01E
 Epicentro: LOS SANTOS - SANTANDER                                             3
 ACTION:UPD 12-07-13 16:07 OP:ep   STATUS:               ID:20111102103412 L   I
 2011-11-02-1031-49S.COL___176                                                 6
 STAT SP IPHASW D HRMM SECON CODA AMPLIT PERI AZIMU VELO AIN AR TRES W  DIS CAZ7
 BAR2 SZ EP       1034 31.03                             171   -0.0910 20.7 195 
 BAR2 SZ ES   2   1034 45.76                             171   -0.28 5 20.7 195 
 BAR2 SZ I        1034 47.52        25.5 0.40                          20.7 195 
 BRR  HZ IP     D 1034 32.73                             151   -0.1610 73.8 300 
 BRR  HN ES   1   1034 49.64                             151    0.46 7 73.8 300 
 BRR  HZ I        1034 53.57        33.3 0.22                          73.8 300 
 PAM  SZ EP       1034 33.90                             150   -0.0110 78.9  37 
 PAM  SE ES   1   1034 51.01                             150    0.01 7 78.9  37 
 RUS  HZ EP       1034 35.00                             144   -0.1610 97.5 177 
 RUS  HN ES   1   1034 53.60                             144    0.38 7 97.5 177 
 RUS  HZ I        1034 54.79         9.9 0.22                          97.5 177 
 ZAR  HZ EP   2   1034 45.27                             121    0.83 4  206 293 
 ZAR  HN ES   2   1035  9.38                             121   -0.36 4  206 293 
 ZAR  HZ I        1035 14.26        13.6 0.24                           206 293 
 NOR  SZ EP       1034 47.27                             118   -0.16 8  234 235 
 NOR  SN ES   2   1035 14.43                             118   -0.65 4  234 235 
 RREF HZ EP   3   1034 58.24                             110    0.37 2  321 230 
 RREF HZ I        1035 42.43         4.5 0.24                           321 230 
 PRA  HZ EP       1035  5.38                             106    0.22 6  390 210 
 PRA  HN ES   2   1035 47.13                             106    0.51 3  390 210 
                                                                                
