 2017  9 2 1447 54.9 L   6.831 -73.115145.2  RSN  4 0.2 1.5LRSN                1
 GAP=243        0.45       5.1     5.7  3.6  0.2435E+02 -0.1892E+00 -0.2625E+01E
 Epicentro: LOS SANTOS - SANTANDER                                             3
 ACTION:UPD 17-10-05 19:08 OP:rebc STATUS:               ID:20170902144754 L   I
 OLDACT:REG 17-09-02 20:45 OP:dhb  STATUS:               ID:20170902143742     3
 2017-09-02-1438-00M.COL___411                                                 6
 STAT SP IPHASW D HRMM SECON CODA AMPLIT PERI AZIMU VELO AIN AR TRES W  DIS CAZ7
 BAR2 EZ EP       1448 14.56                             169   -0.0310 27.4 196 
 BAR2 EZ ES       1448 29.80                             169   -0.1210 27.4 196 
 BAR2 EZ I        1448 32.43         6.8 0.26            171           27.4 196 
 BRR  HZ EP       1448 16.40                             152    0.2910 72.7 295 
 BRR  HN ES       1448 32.61                             152   -0.0210 72.7 295 
 BRR  HZ I        1448 44.38        13.7 0.23            150           72.7 295 
 RUS  HZ EP       1448 18.87                             143   -0.0010  104 178 
 RUS  HN ES     C 1448 37.59                             143    0.0510  104 178 
 RUS  HZ I        1448 38.46         3.1 0.27            151            104 178 
 ZAR  HZ EP       1448 27.25                             122   -0.29 8  206 291 
 ZAR  HN ES       1448 53.05                             122    0.08 8  206 291 
 ZAR  HZ I        1448 58.67         2.3 0.25            125            206 291 
                                                                                
