 2013  8 2 1436 58.7 L   6.704 -73.157154.0  RSN  4 0.3 1.5LRSN                1
 GAP=247        0.66      11.7     6.2  7.6  0.1908E+02  0.1369E+02 -0.2517E+02E
 Epicentro: VILLANUEVA - SANTANDER                                             3
 ACTION:UPD 14-01-14 08:58 OP:ep   STATUS:               ID:20130802143658 L   I
 OLDACT:REG 13-08-02 14:52 OP:cam  STATUS:               ID:20130802142959     3
 2013-08-02-1429-59M.COL___269                                                 6
 STAT SP IPHASW D HRMM SECON CODA AMPLIT PERI AZIMU VELO AIN AR TRES W  DIS CAZ7
 BAR2 SZ EP   1   1437 18.54                             175   -0.59 7 12.6 193 
 BAR2 SZ ES       1437 35.23                             175    0.1410 12.6 193 
 BRR  HZ EP       1437 21.08                             152    0.1110 75.8 306 
 PTB  HZ EP       1437 26.35                             134    0.29 9  145 263 
 PTB  HN ES   1   1437 47.19                             134   -0.23 7  145 263 
 PTB  HZ I        1437 49.27         2.0 0.34            133            145 263 
 PTB  HN I        1437 52.54         3.5 0.62                           145 263 
 ZAR  HN ES   1   1437 57.82                             124   -0.13 6  207 295 
 ZAR  HN I        1438  5.01         5.0 0.42            122            207 295 
                                                                                
