 2010 12 2 1258 58.9 L   6.782 -73.107151.4  RSN 19 0.5 3.5LRSN                1
 GAP=129        1.05       3.9     5.9  7.8 -0.9225E+01  0.7764E+01  0.4038E+01E
 Epicentro: LOS SANTOS - SANTANDER                                             3
 ACTION:UP  11-01-14 15:22 OP:pat  STATUS:               ID:20101202125858 L   I
 2010-12-02-1256-34S.COL___132                                                 6
 STAT SP IPHASW D HRMM SECON CODA AMPLIT PERI AZIMU VELO SNR AR TRES W  DIS CAZ7
 BAR2 SZ IP       1259 18.89                             171    -0.310   23 202 
 BAR2 SZ I        1259 35.76       434.7 0.56                            23 202 
 GIR2 SZ EP   1   1259 18.98                             166    -0.3 7   34 344 
 BRR  HZ IP     D 1259 20.77                             152    -0.110   76 298 
 BRR  HN ES   1   1259 38.11                             152     0.0 7   76 298 
 BRR  HZ I        1259 42.80       320.5 0.13                            76 298 
 RUS  HZ IP     D 1259 22.77                             146    -0.310   98 178 
 RUS  HE ES   1   1259 41.69                             146    -0.2 7   98 178 
 RUS  HZ I        1259 42.84       166.7 0.34                            98 178 
 GUE  SZ EP   1   1259 23.95                             140    -0.3 7  118  10 
 GRA  SZ IP       1259 25.68                             138     1.010  126  15 
 GRA  SZ ES   1   1259 45.23                             138     0.4 7  126  15 
 GRA  SZ I        1259 46.48       433.5 0.30                           126  15 
 OCA  SZ EP   1   1259 27.35                             130    -0.5 7  163 352 
 OCA  SZ I        1259 55.56       263.9 0.23                           163 352 
 NOR  SZ EP   1   1259 34.85                             119    -0.4 6  237 236 
 NOR  SN ES   1   13 0  3.26                             119    -0.3 6  237 236 
 CHI  HZ EP   1   1259 36.64                             118    -0.2 6  248 196 
 CHI  HN ES   1   13 0  7.13                             118     0.7 6  248 196 
 CHI  HZ I        13 0 15.11       115.8 0.22                           248 196 
 ROSC BZ EP   1   1259 38.29                                     0.9 6  253 212 
 ROSC BE ES   2   13 0  7.67                                     0.3 4  253 212 
 ROSC BZ I        13 0 13.49       315.2 0.31                           253 212 
 HEL  HZ EP   1   1259 39.55                             116    -0.2 6  276 256 
 HEL  HN ES   1   13 0 11.95                             116     0.3 6  276 256 
 HEL  HZ I        13 0 17.89       115.8 0.29                           276 256 
 VIL  SZ EP   2   1259 42.03                             113    -0.2 4  300 191 
 VIL  SN ES   1   13 0 15.88                             113    -0.2 5  300 191 
 VIL  SZ I        13 0 24.03        83.8 0.47                           300 191 
 GUY  SZ EP   1   1259 43.91                             113     0.9 5  304 236 
 GUY  SZ I        13 0 26.45       330.6 0.57                           304 236 
 RREF HZ EP   1   1259 45.97                             112     0.5 5  324 230 
 RREF HZ I        13 0 30.58       168.8 0.28                           324 230 
 DBB  SZ IP       1259 46.71                             110    -0.4 7  344 275 
 DBB  SZ I        13 0 25.88        27.9 0.37                           344 275 
 TOL  SZ EP   1   1259 47.58                             110     0.0 5  345 225 
 SDV  BZ EP   1   1259 48.34                             109    -0.6 5  358  49 
 ANIL HE ES   1   13 0 27.37                             109    -0.9 5  359 225 
 ANIL HZ I        13 0 35.69       338.9 0.31                           359 225 
 PRA  HZ EP   1   1259 52.42                             107    -0.2 4  392 210 
 PRA  HN ES   1   13 0 35.22                             107     0.6 4  392 210 
 PRA  HZ I        13 0 40.45       291.0 0.10                           392 210 
                                                                                
