 2015  7 2 2144  6.2 L   6.811 -73.127147.2  RSN  8 0.4 2.0LRSN                1
 GAP=138        0.98       3.2     5.1  6.6  0.6312E+00  0.1896E+02 -0.1236E+01E
 Epicentro: LOS SANTOS - SANTANDER                                             3
 ACTION:UPD 15-09-08 21:46 OP:cam  STATUS:               ID:20150702214406 L   I
 OLDACT:REG 15-07-03 02:48 OP:drio STATUS:               ID:20150702213750     3
 2015-07-02-2137-50M.COL___325                                                 6
 STAT SP IPHASW D HRMM SECON CODA AMPLIT PERI AZIMU VELO AIN AR TRES W  DIS CAZ7
 BAR2 EZ EP       2144 26.09                             170    0.0910 24.9 194 
 BAR2 EZ ES       2144 40.94                             170   -0.5310 24.9 194 
 BAR2 EZ I        2144 41.94        18.1 0.14            171           24.9 194 
 PAM  EZ EP       2144 29.06                             152    0.6610 75.2  39 
 PAM  EN ES       2144 46.02                             152    0.2810 75.2  39 
 PAM  EZ I        2144 48.07        31.3 0.46            153           75.2  39 
 RUS  HZ EP       2144 30.24                             144    0.1110  102 177 
 RUS  HN ES       2144 48.51                             144   -0.3210  102 177 
 RUS  HZ I        2144 49.93        14.5 0.32            145            102 177 
 ZAR  HZ EP       2144 39.02                             122    0.18 8  205 292 
 ZAR  HN ES       2145  5.03                             122    0.69 8  205 292 
 ZAR  HZ I        2145  8.16         6.8 0.36            123            205 292 
 SML  HZ EP       2144 42.51                             118   -0.33 8  243 335 
 SML  HE ES       2145 10.82                             118   -0.63 8  243 335 
 SML  HZ I        2145 14.54        13.9 0.10            118            243 335 
 GUY2CHZ EP       2144 49.87                             112   -0.23 7  304 235 
 GUY2CHE ES       2145 24.91                             112    0.54 7  304 235 
 GUY2CHZ I        2145 31.08         3.5 0.30                           304 235 
 MON  HZ EP       2144 55.33                             109    0.02 6  355 308 
 MON  HE ES       2145 32.96                             109   -0.69 6  355 308 
 MON  HZ I        2145 33.16         3.4 0.18            109            355 308 
 PRA  HZ EP       2144 59.42                             107   -0.55 6  394 210 
 PRA  HN ES       2145 41.91                             107   -0.03 6  394 210 
 PRA  HZ I        2145 44.61         2.6 0.32            108            394 210 
                                                                                
