 2016  1 2 2204 29.3 L   6.825 -73.162138.1  RSN 14 0.4 2.6LRSN                1
 GAP=133        0.92       2.3     3.4  5.1 -0.1657E+01  0.7189E+01 -0.7963E+00E
 Epicentro: LOS SANTOS - SANTANDER                                             3
 ACTION:UPD 16-03-09 23:22 OP:cam  STATUS:               ID:20160102220429 L   I
 OLDACT:DUP 16-01-03 04:11 OP:cara STATUS:               ID:20160102215750d    3
 2016-01-02-2157-49M.COL___314                                                 6
 STAT SP IPHASW D HRMM SECON CODA AMPLIT PERI AZIMU VELO AIN AR TRES W  DIS CAZ7
 BAR2 EZ EP       22 4 47.97                             169   -0.0910 25.9 185 
 BAR2 EZ ES       22 5  2.47                             169   -0.2210 25.9 185 
 BAR2 EZ I        22 5  5.53        87.9 0.42            169           25.9 185 
 BRR  HZ IP     C 22 4 49.85                             152    0.3910 68.3 297 
 BRR  HN ES   4   22 5  6.63                             152    1.45 0 68.3 297 
 BRR  HZ I        22 5  9.20        73.6 0.12            151           68.3 297 
 PAM  EZ EP     D 22 4 50.82                             150    0.1810 76.4  42 
 PAM  EN ES       22 5  7.71                             150    0.4210 76.4  42 
 PAM  EZ I        22 5 10.14        62.6 0.58            155           76.4  42 
 RUS  HZ EP       22 4 52.06                             141   -0.4610  103 175 
 RUS  HN ES       22 5 10.58                             141   -0.0510  103 175 
 RUS  HZ I        22 5 12.87        25.6 0.42            145            103 175 
 PTB  HZ EP       22 4 54.90                             130   -0.64 9  147 258 
 PTB  HN ES       22 5 15.88                             130   -0.13 9  147 258 
 PTB  HZ I        22 5 19.12        37.8 0.20            132            147 258 
 OCA  HZ EP       22 4 57.22                             128    0.48 9  157 354 
 OCA  HN ES       22 5 17.78                             128   -0.36 9  157 354 
 OCA  HZ I        22 5 21.25       129.4 0.26            132            157 354 
 SPBC HZ EP       22 4 57.08                             127   -0.24 9  164 218 
 SPBC HE ES       22 5 19.12                             127   -0.06 9  164 218 
 SPBC HZ I        22 5 27.56        63.6 0.40            130            164 218 
 ZAR  HZ EP       22 5  1.04                             121    0.06 9  201 292 
 ZAR  HN ES       22 5 26.18                             121    0.50 9  201 292 
 ZAR  HZ I        22 5 31.40        44.6 0.46            123            201 292 
 NOR  HZ EP       22 5  4.21                             117   -0.41 8  235 234 
 NOR  HE ES       22 5 32.00                             117   -0.16 8  235 234 
 NOR  HZ I        22 5 34.16        46.5 0.24            119            235 234 
 SML  HZ EP       22 5  4.43                             116   -0.72 8  240 335 
 SML  HE ES       22 5 33.05                             116   -0.06 8  240 335 
 SML  HZ I        22 5 40.84        53.8 0.24            119            240 335 
 CHI  HZ EP       22 5  6.98                             115    0.15 8  251 195 
 CHI  HE ES       22 5 36.58                             115    0.48 8  251 195 
 CHI  HZ I        22 5 42.99        10.8 0.56            119            251 195 
 HEL  HZ EP       22 5  9.56                             113    0.54 8  271 255 
 HEL  HN ES       22 5 39.63                             113   -0.37 8  271 255 
 HEL  HZ I        22 5 46.54        28.7 0.36            116            271 255 
 GUY2CHZ EP       22 5 13.02                             111    0.44 7  301 234 
 GUY2CHN ES       22 5 47.22                             111    0.88 7  301 234 
 GUY2CHZ I        22 5 53.44        30.3 0.30                           301 234 
 DBB  SZ EP       22 5 16.16                             108   -0.09 7  338 274 
 DBB  SZ ES   4   22 5 51.00                             108   -1.87 0  338 274 
                                                                                
