 2015  1 2 2124 28.8 L   6.752 -73.187150.0  RSN 10 0.4 1.9LRSN                1
 GAP=196        0.79       3.1     4.1  5.0  0.3788E+01  0.3289E+01  0.3394E+00E
 Epicentro: VILLANUEVA - SANTANDER                                             3
 ACTION:UPD 15-03-02 15:36 OP:nd   STATUS:               ID:20150102212428 L   I
 OLDACT:REG 15-01-03 03:35 OP:spq  STATUS:               ID:20150102211748     3
 2015-01-02-2117-48M.COL___280                                                 6
 STAT SP IPHASW D HRMM SECON CODA AMPLIT PERI AZIMU VELO AIN AR TRES W  DIS CAZ7
 BAR2 EZ ES   1   2125  4.32                             173   -0.19 7 17.7 178 
 BAR2 EZ I        2125  5.12        13.6 0.12            169           17.7 178 
 BRR  HZ EP       2124 50.39                             154    0.0010 70.0 304 
 BRR  HN ES       2125  7.73                             154    0.5410 70.0 304 
 BRR  HZ I        2125  9.03        17.0 0.42            150           70.0 304 
 RUS  HZ EP       2124 52.56                             146   -0.1110 95.7 173 
 RUS  HE ES       2125 11.16                             146   -0.1010 95.7 173 
 RUS  HZ I        2125 12.53         9.9 0.40            144           95.7 173 
 PTB  HZ EP       2124 55.15                             134   -0.52 9  142 261 
 PTB  HN ES       2125 16.19                             134   -0.41 9  142 261 
 PTB  HZ I        2125 17.96        13.4 0.42            130            142 261 
 ZAR  HZ EP   1   2125  1.86                             124    0.51 6  202 294 
 ZAR  HE ES       2125 26.80                             124    0.10 9  202 294 
 ZAR  HZ I        2125 33.52        11.1 0.26            121            202 294 
 NOR  HZ EP       2125  3.99                             120   -0.10 8  228 235 
 NOR  HN ES       2125 32.19                             120    0.60 8  228 235 
 NOR  HZ I        2125 37.88         7.1 0.18            118            228 235 
 CHI  HZ EP       2125  6.57                             119    0.47 8  242 194 
 CHI  HN ES   1   2125 35.13                             119   -0.03 6  242 194 
 CHI  HZ I        2125 43.84         3.5 0.56            117            242 194 
 SML  HZ EP   1   2125  6.10                             118    0.07 6  247 337 
 SML  HE ES   1   2125 34.65                             118   -0.39 6  247 337 
 SML  HZ I        2125 39.19         9.6 0.24            117            247 337 
 HEL  HN ES   1   2125 39.12                             116   -0.57 6  266 257 
 HEL  HZ I        2125 47.58         6.2 0.40            114            266 257 
 MON  HZ EP   1   2125 17.94                             109   -0.04 5  353 310 
 MON  HN ES   4   2125 54.67                             109   -1.64 0  353 310 
 MON  HZ I        2125 59.79         1.7 0.26            108            353 310 
                                                                                
