 2010  3 2 2227 47.4 L   6.800 -73.015142.6  RSN  8 0.5 2.1LRSN                1
 GAP=196        0.87       4.5    10.5  8.0  0.2037E+01  0.2302E+02  0.5244E+01E
 Epicentro: CEPITA - SANTANDER                                                 3
 ACTION:UP  10-08-24 09:51 OP:vdl  STATUS:               ID:20100302222747 L   I
 2010-03-02-2225-42S.COL___094                                                 6
 STAT SP IPHASW D HRMM SECON CODA AMPLIT PERI AZIMU VELO SNR AR TRES W  DIS CAZ7
 BAR2 SZ EP       2228  6.98                             167     0.210   30 219 
 BAR2 SZ ES   2   2228 21.85                             167    -0.1 5   30 219 
 BRR  HZ IP       2228  8.87                             147    -0.210   84 294 
 BRR  HZ I        2228  9.21        33.1 0.10                            84 294 
 BRR  HE ES   2   2228 25.74                             147    -0.1 5   84 294 
 RUS  BZ EP       2228 10.88                             143     0.010  101 184 
 RUS  BE ES   1   2228 29.33                             143     0.2 7  101 184 
 RUS  BZ I        2228 30.92        14.7 0.35                           101 184 
 OCA  SZ EP   1   2228 15.48                             128    -0.2 7  163 348 
 OCA  SZ ES   2   2228 37.71                             128    -0.1 5  163 348 
 OCA  SZ I        2228 40.88        18.2 0.32                           163 348 
 CHI  HZ IP       2228 25.06                             116    -0.3 8  253 198 
 CHI  HZ I        2228 25.73         4.1 0.14                           253 198 
 CHI  HE ES   2   2228 54.33                             116    -0.7 4  253 198 
 RREF BZ EP       2228 35.89                             109     1.2 7  333 231 
 RREF BE ES   2   2229 11.85                             109     0.3 3  333 231 
 RREF BZ I        2229 14.36         4.6 0.22                           333 231 
 TOL  SZ EP   1   2228 36.40                             108    -0.3 5  354 226 
 PRA  HZ EP   2   2228 41.05                             106    -0.6 3  399 211 
 PRA  HE ES   2   2229 22.83                             106    -1.2 3  399 211 
 PRA  HZ I        2229 28.16         5.2 0.14                           399 211 
                                                                                
