 2010 11 2 2017 28.9 L   6.552 -73.523112.5  RSN 12 0.4 2.5LRSN                1
 GAP= 81        0.79       3.8     5.8  8.1 -0.9702E+01  0.2278E+02 -0.6547E-01E
 Epicentro: EL CARMEN DE CHUCURI - SANTANDER                                   3
 ACTION:UP  10-12-17 16:49 OP:REBC STATUS:               ID:20101102201728 L   I
 2010-11-02-2013-01S.COL___128                                                 6
 STAT SP IPHASW D HRMM SECON CODA AMPLIT PERI AZIMU VELO SNR AR TRES W  DIS CAZ7
 BAR2 SZ EP       2017 45.05                             160     0.010   38  83 
 BAR2 SZ ES   2   2017 57.25                             160    -0.4 5   38  83 
 BTL  SZ EP       2017 45.71                             155     0.110   49  35 
 BRR  HZ EP   1   2017 45.87                             148    -0.3 7   65 341 
 BRR  HN ES   2   2017 59.75                             148     0.2 5   65 341 
 BRR  HZ I        2018  0.45        70.7 0.00                            65 341 
 GIR2 SZ EP   1   2017 47.49                             146     0.9 7   69  32 
 RUS  HZ EP   1   2017 48.11                             140    -0.4 7   88 146 
 RUS  HE ES   2   2018  3.78                             140     0.0 5   88 146 
 RUS  HZ I        2018  5.16        43.0 0.21                            88 146 
 GRA  SZ EP   1   2017 55.35                             119    -0.3 7  167  28 
 GRA  SZ ES   2   2018 16.62                             119     0.2 5  167  28 
 GRA  SZ I        2018 25.73        33.3 0.40                           167  28 
 NOR  SZ EP   1   2017 56.71                             117    -0.7 7  185 234 
 NOR  SE ES   2   2018 19.27                             117    -0.3 4  185 234 
 OCA  SZ EP   1   2017 57.49                             116    -0.3 7  188   7 
 OCA  SZ ES   2   2018 20.35                             116     0.0 4  188   7 
 OCA  SZ I        2018 29.09        55.2 0.49                           188   7 
 ROSC BZ EP   1   2018  0.67                             114     0.2 6  209 205 
 HEL  HZ EP   1   2018  2.30                             112     0.0 6  225 260 
 HEL  HZ I        2018 34.63        22.5 0.30                           225 260 
 RREF HZ EP   1   2018  8.75                             107     0.7 6  272 228 
 RREF HN ES   2   2018 38.71                             107     0.2 4  272 228 
 RREF HZ I        2018 44.44        18.1 0.32                           272 228 
 PRA  HZ EP   1   2018 15.98                             102    -0.3 5  348 206 
 PRA  HE ES   2   2018 53.89                             102     0.7 3  348 206 
 PRA  HZ I        2018 59.59        43.0 0.28                           348 206 
                                                                                
