 2014 12 2 2246  6.5 L   6.809 -73.094140.6  RSN  8 0.5 2.0LRSN                1
 GAP=143        1.17       5.1     4.9  8.5 -0.3088E+01  0.1446E+02 -0.2715E+01E
 Epicentro: LOS SANTOS - SANTANDER                                             3
 ACTION:UPD 15-02-10 17:00 OP:nd   STATUS:               ID:20141202224606 L   I
 OLDACT:UP  14-12-03 06:12 OP:mh   STATUS:               ID:20141202223746d    3
 OLDACT:DUP 14-12-03 06:05 OP:mh   STATUS:               ID:20141202223746d    3
 2014-12-02-2237-45M.COL___306                                                 6
 STAT SP IPHASW D HRMM SECON CODA AMPLIT PERI AZIMU VELO AIN AR TRES W  DIS CAZ7
 BAR2 SZ EP       2246 25.83                             169    0.2510 25.8 202 
 BAR2 SZ ES       2246 40.16                             169   -0.2910 25.8 202 
 BAR2 SZ I        2246 43.55        19.4 0.29            170           25.8 202 
 PAM  SZ EP     C 2246 28.78                             151    0.8510 73.1  37 
 PAM  SN ES       2246 44.08                             151   -0.5510 73.1  37 
 PAM  SZ I        2246 47.81        14.9 0.68            155           73.1  37 
 BRR  HZ EP       2246 26.67                             150   -0.7210 75.8 296 
 BRR  HN ES       2246 44.26                             150    0.6010 75.8 296 
 BRR  HZ I        2246 48.00        23.2 0.12            150           75.8 296 
 RUS  HZ EP   1   2246 29.94                             142    0.12 7  101 179 
 RUS  HN ES       2246 48.10                             142    0.1110  101 179 
 RUS  HZ I        2246 50.08         8.6 0.26            147            101 179 
 PTB  HZ EP   1   2246 32.78                             130   -0.83 7  154 259 
 PTB  HN ES       2246 54.49                             130   -0.24 9  154 259 
 PTB  HZ I        2247  0.21        10.0 0.16            132            154 259 
 SPBC HN ES       2246 57.49                             127    0.19 9  168 220 
 ZAR  HZ EP   1   2246 38.89                             120   -0.26 6  209 291 
 ZAR  HN ES       2247  5.01                             120    0.41 8  209 291 
 ZAR  HZ I        2247  9.49        14.5 0.28            123            209 291 
 HEL  HN ES       2247 18.67                             113   -0.11 7  278 256 
 SJC  HZ EP   4   2246 59.81                             105   -2.38 0  412 326 
 SJC  HN ES   4   2247 41.89                             105   -3.72 0  412 326 
                                                                                
