 2011  8 2 2243 37.4 L   7.472 -73.197134.0  RSN 11 0.5 2.0LRSN                1
 GAP= 71        0.83       3.2     6.4  7.2 -0.1647E+00  0.2626E+02  0.8148E+00E
 Epicentro: EL PLAYON - SANTANDER                                              3
 ACTION:UPD 12-07-25 14:05 OP:epov STATUS:               ID:20110802224337 L   I
 2011-08-02-2240-39S.COL___128                                                 6
 STAT SP IPHASW D HRMM SECON CODA AMPLIT PERI AZIMU VELO AIN AR TRES W  DIS CAZ7
 PAM  SZ EP   1   2243 57.43                             156    0.19 7 56.9 105 
 PAM  SN ES       2244 12.60                             156   -0.0910 56.9 105 
 OCA  SZ EP   1   2243 58.98                             145    0.48 7 85.9 351 
 OCA  SZ ES   1   2244 15.41                             145    0.48 7 85.9 351 
 OCA  SZ I        2244 18.43        29.5 0.24                          85.9 351 
 RUS  HZ EP   1   2244  6.31                             124   -0.47 7  175 176 
 RUS  HN ES   1   2244 29.10                             124   -0.56 7  175 176 
 RUS  HZ I        2244 32.22         5.9 0.23                           175 176 
 COD  HZ EP   2   2244 17.23                             112    0.43 4  274 354 
 COD  HN ES       2244 46.63                             112   -0.87 8  274 354 
 NOR  SE ES   1   2244 48.91                             111   -0.09 6  281 221 
 HEL  HZ EP   1   2244 20.04                             110    0.46 5  294 241 
 CHI  HZ EP   1   2244 23.58                             109    0.99 5  320 191 
 CHI  HZ I        2245  4.49         4.7 0.35                           320 191 
 SDV  BZ EP   1   2244 23.04                             108    0.35 5  323  61 
 SDV  BZ I        2244 57.24         5.8 0.40                           323  61 
 DBB  SZ EP   1   2244 23.84                             107   -0.27 5  336 262 
 SJC  HZ EP   1   2244 25.10                             107   -0.06 5  346 321 
 SJC  HZ I        2244 32.79         3.4 0.20                           346 321 
 PRA  HZ EP   2   2244 37.46                             102   -0.68 2  456 204 
                                                                                
