 2014  9 2 2242 55.1 L   6.762 -73.184138.1  RSN  5 0.5 1.6LRSN                1
 GAP=133        1.32       6.7     6.5  9.7 -0.3807E+01  0.8172E+01  0.2645E+01E
 Epicentro: LOS SANTOS - SANTANDER                                             3
 ACTION:UPD 14-10-03 23:01 OP:nd   STATUS:               ID:20140902224255 L   I
 OLDACT:REG 14-09-03 04:24 OP:stll STATUS:               ID:20140902223819     3
 2014-09-02-2238-19M.COL___264                                                 6
 STAT SP IPHASW D HRMM SECON CODA AMPLIT PERI AZIMU VELO AIN AR TRES W  DIS CAZ7
 BAR2 SZ EP       2243 14.04                             172    0.3010 18.8 179 
 BAR2 SZ ES       2243 28.37                             172    0.1110 18.8 179 
 BAR2 SZ I        2243 30.03        13.4 0.22            170           18.8 179 
 BRR  HZ EP       2243 16.04                             152    0.6910 69.7 303 
 BRR  HE ES       2243 31.83                             152    0.6910 69.7 303 
 PAM  SZ EP       2243 16.84                             147   -0.0610 83.3  40 
 PAM  SZ I        2243 17.12        14.3 0.24            150           83.3  40 
 PAM  SN ES       2243 33.11                             147   -0.7810 83.3  40 
 RUS  HZ EP       2243 17.74                             143   -0.1010 96.8 173 
 RUS  HN ES       2243 35.66                             143    0.0910 96.8 173 
 RUS  HZ I        2243 37.56         4.2 0.26            143           96.8 173 
 PTB  HZ EP       2243 20.87                             131   -0.15 9  143 260 
 PTB  HN ES       2243 40.29                             131   -0.92 9  143 260 
 PTB  HZ I        2243 44.07         4.8 0.42            131            143 260 
                                                                                
