 2014 12 2 2058 10.1 L   6.788 -73.118141.4  RSN 11 0.4 2.3LRSN                1
 GAP=141        1.04       3.8     4.1  6.1 -0.9965E+00  0.8889E+01  0.3323E+01E
 Epicentro: LOS SANTOS - SANTANDER                                             3
 ACTION:UPD 15-02-10 16:59 OP:nd   STATUS:               ID:20141202205810 L   I
 OLDACT:UP  14-12-03 04:48 OP:mh   STATUS:               ID:20141202205744     3
 OLDACT:REG 14-12-03 04:03 OP:mh   STATUS:               ID:20141202205744     3
 2014-12-02-2057-44M.COL___309                                                 6
 STAT SP IPHASW D HRMM SECON CODA AMPLIT PERI AZIMU VELO AIN AR TRES W  DIS CAZ7
 BAR2 SZ EP   1   2058 29.29                             170    0.15 7 22.8 198 
 BAR2 SZ ES       2058 43.08                             170   -0.9510 22.8 198 
 BAR2 SZ I        2058 45.23        51.8 0.28            168           22.8 198 
 BRR  HZ EP       2058 30.56                             151   -0.3610 74.5 298 
 BRR  HN ES       2058 47.69                             151    0.4910 74.5 298 
 BRR  HZ I        2058 52.20        42.2 0.14            150           74.5 298 
 PAM  SZ EP       2058 32.03                             150    0.2810 76.5  37 
 PAM  SN ES       2058 48.85                             150    0.1810 76.5  37 
 PAM  SZ I        2058 50.71        89.8 0.44            154           76.5  37 
 RUS  HZ EP   1   2058 33.44                             143    0.18 7 99.1 178 
 RUS  HN ES       2058 51.66                             143    0.2910 99.1 178 
 RUS  HZ I        2058 53.09        19.4 0.26            144           99.1 178 
 PTB  HZ EP       2058 36.22                             130   -0.70 9  151 260 
 PTB  HN ES       2058 58.34                             130    0.47 9  151 260 
 PTB  HZ I        2058 59.45        25.4 0.14            130            151 260 
 OCA  HZ EP   4   2058 36.15                             128   -2.04 0  162 352 
 OCA  HN ES   4   2058 59.16                             128   -0.97 0  162 352 
 OCA  HZ I        2059  3.35        22.8 0.28            130            162 352 
 SPBC HZ EP   1   2058 38.58                             128    0.27 7  164 220 
 SPBC HN ES   1   2059  1.08                             128    0.74 7  164 220 
 SPBC HZ I        2059  5.41        24.2 0.28            128            164 220 
 ZAR  HZ EP       2058 42.74                             121    0.18 8  207 292 
 ZAR  HN ES       2059  7.43                             121   -0.49 8  207 292 
 ZAR  HZ I        2059 13.89        27.6 0.24            122            207 292 
 NOR  HZ EP       2058 45.86                             117    0.14 8  236 235 
 NOR  HN ES       2059 13.15                             117   -0.38 8  236 235 
 NOR  HZ I        2059 18.84        13.6 0.16            118            236 235 
 CHI  HZ EP   1   2058 47.00                             116   -0.46 6  248 196 
 CHI  HN ES       2059 16.48                             116   -0.16 8  248 196 
 CHI  HZ I        2059 26.84         4.9 0.34            117            248 196 
 HEL  HZ EP   1   2058 50.79                             114    0.45 6  275 256 
 HEL  HN ES       2059 21.97                             114    0.21 8  275 256 
 HEL  HZ I        2059 27.54         8.8 0.50            114            275 256 
 URE  HZ EP   4   2058 52.76                             112    1.48 0  287 292 
                                                                                
