 2011  4 2 2335 22.0 L   6.762 -73.123146.3  RSN  8 0.4 2.1LRSN                1
 GAP=160        0.90       5.1     7.6  7.5 -0.2169E+02 -0.4609E+00  0.6148E+01E
 Epicentro: LOS SANTOS - SANTANDER                                             3
 ACTION:UP  11-06-22 15:28 OP:REBC STATUS:               ID:20110402233522 L   I
 2011-04-02-2332-47S.COL___138                                                 6
 STAT SP IPHASW D HRMM SECON CODA AMPLIT PERI AZIMU VELO SNR AR TRES W  DIS CAZ7
 BAR2 SZ EP       2335 41.49                             172    -0.110   20 199 
 BAR2 SZ ES   1   2335 56.93                             172     0.0 7   20 199 
 BAR2 SZ I        2335 58.26        41.3 0.23                            20 199 
 BTL  SZ EP       2335 41.60                             170    -0.110   24 317 
 BRR  HZ IP     C 2335 43.36                             151     0.010   75 300 
 BRR  HZ I        2335 43.61        56.9 0.13                            75 300 
 BRR  HN ES   1   2336  0.52                             151     0.4 7   75 300 
 PAM  SZ EP   1   2335 44.27                             150    -0.1 7   79  36 
 PAM  SN ES   1   2336  1.83                             150     0.1 7   79  36 
 GRA  SZ EP       2335 48.28                             136     0.810  129  16 
 GRA  SZ ES   1   2336  6.68                             136    -0.8 7  129  16 
 GRA  SZ I        2336 12.69         7.3 0.39                           129  16 
 OCA  SZ EP   1   2335 50.24                             129    -0.5 7  165 352 
 OCA  SZ I        2336 18.48        11.3 0.41                           165 352 
 NOR  SN ES   1   2336 25.37                             118    -0.2 6  234 236 
 CHI  HZ EP   1   2335 59.31                             117     0.0 6  245 196 
 CHI  HE ES   1   2336 28.38                             117    -0.1 6  245 196 
                                                                                
