 2014 12 2 2100 53.3 L   6.795 -73.169139.9  RSN  9 0.5 1.8LRSN                1
 GAP=134        1.08       4.0     4.5  6.9 -0.2274E+00  0.7480E+01  0.7608E+01E
 Epicentro: LOS SANTOS - SANTANDER                                             3
 ACTION:UPD 15-02-10 17:00 OP:nd   STATUS:               ID:20141202210053 L   I
 OLDACT:UP  14-12-03 04:55 OP:mh   STATUS:               ID:20141202205745d    3
 OLDACT:UP  14-12-03 04:55 OP:mh   STATUS:               ID:20141202205745d    3
 OLDACT:UP  14-12-03 04:54 OP:mh   STATUS:               ID:20141202205745d    3
 OLDACT:DUP 14-12-03 04:49 OP:mh   STATUS:               ID:20141202205745d    3
 OLDACT:UP  14-12-03 04:48 OP:mh   STATUS:               ID:20141202205744     3
 OLDACT:REG 14-12-03 04:03 OP:mh   STATUS:               ID:20141202205744     3
 2014-12-02-2057-44M.COL___309                                                 6
 STAT SP IPHASW D HRMM SECON CODA AMPLIT PERI AZIMU VELO AIN AR TRES W  DIS CAZ7
 BAR2 SZ EP   1   21 1 12.16                             170   -0.05 7 22.5 184 
 BAR2 SZ ES   1   21 1 26.51                             170   -0.45 7 22.5 184 
 BAR2 SZ I        21 1 28.36        16.1 0.06            169           22.5 184 
 BRR  HZ EP       21 1 14.27                             152    0.5610 69.2 300 
 BRR  HN ES       21 1 29.72                             152    0.1010 69.2 300 
 PAM  SZ EP   1   21 1 15.15                             149    0.12 7 79.4  41 
 PAM  SN ES       21 1 32.12                             149    0.1510 79.4  41 
 PAM  SZ I        21 1 34.04         9.8 0.50            153           79.4  41 
 RUS  HZ EP       21 1 16.12                             143   -0.3410  100 175 
 RUS  HN ES   1   21 1 34.40                             143   -0.12 7  100 175 
 RUS  HZ I        21 1 36.83         6.7 0.91            143            100 175 
 PTB  HZ EP       21 1 19.13                             131   -0.43 9  145 259 
 PTB  HN ES       21 1 39.64                             131   -0.40 9  145 259 
 PTB  HZ I        21 1 42.35         8.4 0.55            132            145 259 
 SPBC HZ EP   1   21 1 21.20                             128    0.03 7  161 218 
 SPBC HN ES       21 1 43.47                             128    0.58 9  161 218 
 SPBC HZ I        21 1 45.95         8.4 0.22            129            161 218 
 ZAR  HZ EP       21 1 25.93                             121    0.78 9  202 293 
 ZAR  HR ES       21 1 49.25                             121   -0.74 9  202 293 
 ZAR  HN ES       21 1 49.89                              47            202 293 
 ZAR  HZ I        21 1 55.55         7.6 0.32            122            202 293 
 NOR  HZ EP       21 1 28.57                             117    0.13 8  232 234 
 NOR  HN ES   1   21 1 56.62                             117    0.77 6  232 234 
 NOR  HZ I        21 1 59.81         3.7 0.34            118            232 234 
 CHI  HZ EP       21 1 29.64                             116   -0.92 8  247 195 
 CHI  HN ES       21 1 59.94                             116    0.33 8  247 195 
 CHI  HZ I        21 2  4.96         2.9 0.36            117            247 195 
                                                                                
