 2017  5 2 2342 30.3 L   6.766 -73.124143.2  RSN  5 0.5 1.3LRSN                1
 GAP=141        0.63       3.3     3.9  6.3  0.1615E+01  0.1966E+01  0.1821E+01E
 Epicentro: LOS SANTOS - SANTANDER                                             3
 ACTION:UPD 17-06-16 13:32 OP:jn   STATUS:               ID:20170502234229 L   I
 OLDACT:UP  17-05-05 20:15 OP:nlst STATUS:               ID:20170502234229 L   3
 OLDACT:UP  17-05-03 03:58 OP:dani STATUS:               ID:20170502233736     3
 OLDACT:UP  17-05-03 03:57 OP:dani STATUS:               ID:20170502233736     3
 OLDACT:REG 17-05-03 02:46 OP:dani STATUS:               ID:20170502233736     3
 2017-05-02-2338-00M.COL___365                                                 6
 STAT SP IPHASW D HRMM SECON CODA AMPLIT PERI AZIMU VELO AIN AR TRES W  DIS CAZ7
 BRR  HZ EP       2342 51.34                             151   -0.1010 75.2 300 
 BRR  HE ES       2343  8.07                             151    0.1710 75.2 300 
 BRR  HZ I        2343 12.46         6.9 0.42            152           75.2 300 
 PAM  EZ EP       2342 52.35                             150   -0.0210 78.9  36 
 PAM  EN ES       2343  9.48                             150   -0.0810 78.9  36 
 PAM  EZ I        2343 11.61         2.4 0.44            153           78.9  36 
 RUS  HZ EP       2342 53.68                             144    0.1310 96.6 177 
 RUS  HN ES       2343 11.65                             144   -0.0110 96.6 177 
 RUS  HZ I        2343 13.08         2.6 0.32            148           96.6 177 
 PTB  HZ ES   3   2343 15.74                             131   -2.50 2  149 260 
 ZAR  HE ES   1   2343 28.57                             121    0.10 6  208 293 
                                                                                
