 2017 10 2 2053 20.0 L   6.767 -73.065142.0  RSN  5 0.5 1.6LRSN                1
 GAP=149        0.88       5.9    10.9  7.3 -0.3625E+02  0.3159E+02 -0.5989E+01E
 Epicentro: LOS SANTOS - SANTANDER                                             3
 ACTION:UPD 17-11-07 19:27 OP:rebc STATUS:               ID:20171002205320 L   I
 OLDACT:UP  17-10-03 04:40 OP:dani STATUS:               ID:20171002204743     3
 OLDACT:UP  17-10-03 04:39 OP:dani STATUS:               ID:20171002204743     3
 OLDACT:UP  17-10-03 04:39 OP:dani STATUS:               ID:20171002204743     3
 OLDACT:REG 17-10-03 04:17 OP:dani STATUS:               ID:20171002204743     3
 2017-10-02-2048-00M.COL___435                                                 6
 STAT SP IPHASW D HRMM SECON CODA AMPLIT PERI AZIMU VELO AIN AR TRES W  DIS CAZ7
 BAR2 EZ EP       2053 38.81                             170   -0.4110 23.3 214 
 BAR2 EZ ES       2053 54.07                             170   -0.1110 23.3 214 
 BAR2 EZ I        2053 55.31        20.2 0.18            169           23.3 214 
 PAM  EZ EP       2053 41.70                             151   -0.0210 75.1  33 
 PAM  EE ES       2053 58.98                             151    0.3510 75.1  33 
 PAM  EZ I        2054  0.67         4.0 0.76            153           75.1  33 
 RUS  HZ EP       2053 42.76                             144   -0.3910 96.7 181 
 RUS  HN ES       2054  1.41                             144    0.2410 96.7 181 
 RUS  HZ I        2054  2.64         5.8 0.22            147           96.7 181 
 ZAR  HZ EP   4   2053 56.70                             120    3.44 0  214 292 
 ZAR  HE ES   3   2054 17.61                             120   -1.55 2  214 292 
 ZAR  HZ I        2054 22.73         4.1 0.19            120            214 292 
 GUY2CHZ EP       2054  4.82                             111    0.74 7  306 236 
 GUY2CHN ES   3   2054 39.75                             111    1.32 2  306 236 
 GUY2CHZ I        2054 48.75         1.2 0.58                           306 236 
                                                                                
