 2015  2 2 2228 48.1 L   6.553 -73.863 87.7  RSN 17 0.4 2.3LRSN                1
 GAP= 63        0.80       1.9     1.8  5.2 -0.7887E+00  0.3407E+01  0.6086E+00E
 Epicentro: PUERTO PARRA - SANTANDER                                           3
 ACTION:UPD 15-04-30 21:20 OP:nd   STATUS:               ID:20150202222848 L   I
 OLDACT:UP  15-02-03 05:16 OP:spq  STATUS:               ID:20150202222750     3
 OLDACT:UP  15-02-03 05:02 OP:spq  STATUS:               ID:20150202222750     3
 OLDACT:REG 15-02-03 03:42 OP:spq  STATUS:               ID:20150202222750     3
 2015-02-02-2227-50M.COL___265                                                 6
 STAT SP IPHASW D HRMM SECON CODA AMPLIT PERI AZIMU VELO AIN AR TRES W  DIS CAZ7
 BRR  HZ EP     D 2229  2.66                             141   -0.0610 63.5  15 
 BRR  HN ES       2229 14.64                             141    0.4810 63.5  15 
 BRR  HZ I        2229 15.41       121.1 0.12            138           63.5  15 
 PTB  HZ EP   4 D 2229  1.60                             140   -1.31 0 65.6 269 
 PTB  HE ES   4   2229 12.63                             140   -1.86 0 65.6 269 
 PTB  HZ I        2229 13.05        57.4 0.36            136           65.6 269 
 BAR2 EZ EP       2229  4.20                             136    0.1810 75.4  87 
 BAR2 EZ ES   1   2229 16.57                             136    0.09 7 75.4  87 
 BAR2 EZ I        2229 17.93       115.2 0.36            134           75.4  87 
 SPBC HZ EP       2229  6.08                             127   -0.2310  102 193 
 SPBC HE ES       2229 20.11                             127   -0.4510  102 193 
 SPBC HZ I        2229 21.74        65.9 0.18            124            102 193 
 RUS  HZ EP       2229  7.60                             124   -0.3310  113 130 
 RUS  HE ES       2229 23.28                             124   -0.1610  113 130 
 RUS  HZ I        2229 26.08        39.5 0.42            122            113 130 
 ZAR  HZ EP       2229 11.47                             115    0.05 9  151 313 
 ZAR  HN ES       2229 29.84                             115    0.20 9  151 313 
 ZAR  HZ I        2229 33.27        50.9 0.24            112            151 313 
 PAM  SZ EP       2229 12.48                             115    0.00 9  155  56 
 PAM  SE ES       2229 31.19                             115   -0.34 9  155  56 
 PAM  SZ I    1   2229 32.77        36.0 0.52            113            155  56 
 NOR  HZ EP     D 2229 12.12                             114    0.10 9  156 226 
 NOR  HE ES       2229 30.79                             114    0.08 9  156 226 
 NOR  HZ I        2229 35.59        49.8 0.20            112            156 226 
 HEL  HZ EP       2229 15.79                             110   -0.34 9  189 258 
 HEL  HN ES       2229 37.56                             110   -0.46 9  189 258 
 HEL  HZ I        2229 41.76        22.1 0.24            108            189 258 
 OCA  HE ES   1   2229 38.50                             109   -0.56 6  196  18 
 OCA  HZ I        2229 47.98        20.9 0.30            107            196  18 
 GUY2CHZ EP       2229 20.50                             107    0.34 8  222 229 
 GUY2CHN ES   1   2229 45.90                             107    0.70 6  222 229 
 GUY2CHZ I        2229 54.37        16.0 0.50                           222 229 
 URE  HZ EP   1   2229 19.37                             106   -0.84 6  227 306 
 URE  HN ES   4   2229 42.90                             106   -2.38 0  227 306 
 URE  HZ I        2229 51.84        22.7 0.26            104            227 306 
 TAM  HZ EP   1   2229 21.09                             106    0.56 6  230  93 
 TAM  HE ES   1   2229 46.71                             106    0.85 6  230  93 
 TAM  HZ I        2229 48.77        13.8 0.18            104            230  93 
 RREF HZ EP       2229 23.44                             105    0.25 8  246 222 
 RREF HN ES       2229 50.85                             105    0.26 8  246 222 
 RREF HZ I        2229 58.77        16.4 0.28            103            246 222 
 TOL  SZ EP   1   2229 26.26                             103    0.43 6  271 217 
 TOL  SE ES   4   2229 57.38                             103    2.08 0  271 217 
 TOL  SZ I        2229 59.91        14.1 0.40            102            271 217 
 ANIL HZ EP   4   2229 28.73                             103    1.29 0  285 217 
 ANIL HE ES   4   2230  1.00                             103    2.83 0  285 217 
 MON  HE ES   1   2230  4.42                             101    0.10 5  316 321 
 MON  HZ I        2230  4.64         3.2 0.41            100            316 321 
 PAL  HZ EP       2229 31.67                             101   -0.25 7  324 236 
 PAL  HN ES       2230  6.53                             101    0.39 7  324 236 
 PAL  HZ I        2230 11.57         4.6 0.34             99            324 236 
                                                                                
