 2016  5 2 2211 35.7 L   6.790 -73.132141.8  RSN 10 0.4 2.1LRSN                1
 GAP=139        1.09       3.4     4.4  6.1 -0.3383E+01  0.7045E+01 -0.1375E+01E
 Epicentro: LOS SANTOS - SANTANDER                                             3
 ACTION:UPD 16-08-18 17:41 OP:cam  STATUS:               ID:20160502221135 L   I
 OLDACT:UP  16-05-15 07:30 OP:ar   STATUS:               ID:20160502221135 L   3
 OLDACT:REG 16-05-03 02:40 OP:drio STATUS:               ID:20160502220751     3
 2016-05-02-2207-51M.COL___311                                                 6
 STAT SP IPHASW D HRMM SECON CODA AMPLIT PERI AZIMU VELO AIN AR TRES W  DIS CAZ7
 BAR2 EZ EP       2211 54.84                             171    0.0210 22.5 194 
 BAR2 EZ ES       2212  9.12                             171   -0.6210 22.5 194 
 BAR2 EZ I        2212 10.90        30.5 0.22            170           22.5 194 
 BRR  HZ EP       2211 56.87                             151    0.3610 73.1 299 
 BRR  HN ES       2212 13.48                             151    0.7310 73.1 299 
 BRR  HZ I        2212 18.28        23.6 0.12            149           73.1 299 
 PAM  EZ EP     C 2211 57.76                             150    0.2910 77.3  38 
 PAM  EE ES       2212 14.76                             150    0.2910 77.3  38 
 PAM  EZ I        2212 17.04        19.2 0.40            153           77.3  38 
 RUS  HZ EP       2211 58.89                             143   -0.0610 99.3 177 
 RUS  HN ES       2212 17.22                             143    0.1210 99.3 177 
 RUS  HZ I        2212 18.52        10.9 0.28            145           99.3 177 
 PTB  HZ EP       2212  1.82                             131   -0.62 9  149 259 
 PTB  HN ES       2212 22.56                             131   -0.75 9  149 259 
 PTB  HZ I        2212 24.79        20.1 0.24            130            149 259 
 OCA  HZ EP       2212  3.18                             128   -0.63 9  162 353 
 OCA  HE ES       2212 25.28                             128   -0.47 9  162 353 
 OCA  HZ I        2212 32.51        40.5 0.50            129            162 353 
 SPBC HZ EP       2212  4.22                             128    0.34 9  163 220 
 SPBC HE ES       2212 25.92                             128    0.04 9  163 220 
 ZAR  HZ EP       2212  8.18                             121    0.12 8  206 292 
 ZAR  HN ES       2212 33.87                             121    0.56 8  206 292 
 ZAR  HZ I        2212 41.60        22.0 0.50            121            206 292 
 NOR  HZ EP       2212 11.62                             118    0.38 8  235 235 
 NOR  HE ES       2212 38.88                             118   -0.10 8  235 235 
 NOR  HZ I        2212 45.81         7.6 0.24            118            235 235 
 CHI  HZ EP   9   2212 14.74                             116    1.66 0  248 196 
 CHI  HN ES       2212 43.98                             116    0.07 8  248 196 
 CHI  HZ I        2212 52.51         3.3 0.28            117            248 196 
                                                                                
