 2013  9 2 2045  7.5 L   6.512 -73.583110.2  RSN  6 0.5 1.8LRSN                1
 GAP=131        1.25       5.6     5.7  8.6  0.1168E+02  0.1131E+02 -0.8804E+01E
 Epicentro: EL CARMEN DE CHUCURI - SANTANDER                                   3
 ACTION:UPD 13-10-22 09:19 OP:ep   STATUS:               ID:20130902204507 L   I
 OLDACT:REG 13-09-02 23:59 OP:nd   STATUS:               ID:20130902203959     3
 2013-09-02-2039-59M.COL___269                                                 6
 STAT SP IPHASW D HRMM SECON CODA AMPLIT PERI AZIMU VELO AIN AR TRES W  DIS CAZ7
 BAR2 SZ IP     C 2045 23.80                             156    0.1110 45.2  79 
 BAR2 SZ ES       2045 35.65                             156   -0.6810 45.2  79 
 BAR2 SZ I        2045 37.81        25.1 0.40            158           45.2  79 
 BRR  HZ EP       2045 24.62                             146   -0.0310 67.3 348 
 BRR  HN ES       2045 38.83                             146    0.8010 67.3 348 
 BRR  HZ I        2045 48.26        15.0 0.64            146           67.3 348 
 RUS  HZ EP       2045 27.20                             139    0.3110 88.1 141 
 RUS  HN ES       2045 42.29                             139    0.2710 88.1 141 
 RUS  HZ I        2045 43.68         4.2 0.56            148           88.1 141 
 PTB  HZ EP     D 2045 26.67                             136   -0.2710 96.6 272 
 PTB  HN ES       2045 41.57                             136   -0.5410 96.6 272 
 PTB  HZ I        2045 42.78         7.3 0.14            141           96.6 272 
 ZAR  HZ EP       2045 35.68                             117    0.70 9  178 308 
 ZAR  HN ES   2   2045 56.86                             117    0.43 4  178 308 
 ZAR  HZ I        2046  0.52         8.9 0.44            121            178 308 
 SML  HN EP       2045 43.18                             107   -0.95 8  259 348 
 SML  HZ EP       2045 43.52                                            259 348 
 SML  HE ES       2046 12.65                             107   -0.07 8  259 348 
 SML  HN I        2046 15.96        20.6 0.10            111            259 348 
 SML  HZ I        2046 16.72         8.4 0.10                           259 348 
                                                                                
