 2016  7 2 2153 59.9 L   6.726 -73.189153.3  RSN  4 0.4 1.5LRSN                1
 GAP=227        0.62       8.0     5.9  7.8  0.2986E+02 -0.7673E+01 -0.2115E+02E
 Epicentro: VILLANUEVA - SANTANDER                                             3
 *RUS-PTB-BRR                                                                  3
 ACTION:UPD 17-03-29 16:45 OP:lp   STATUS:               ID:20160702215359 L   I
 OLDACT:REG 16-07-03 02:40 OP:lv   STATUS:               ID:20160702214743     3
 2016-07-02-2147-43M.COL___337                                                 6
 STAT SP IPHASW D HRMM SECON CODA AMPLIT PERI AZIMU VELO AIN AR TRES W  DIS CAZ7
 BAR2 EZ EP   2   2154 19.59                             175   -0.66 5 14.8 177 
 BAR2 EZ ES   3   2154 34.78                             175   -1.38 2 14.8 177 
 BAR2 EZ I        2154 36.93         5.7 0.15            171           14.8 177 
 BRR  HZ EP   2   2154 22.23                             154    0.40 5 71.6 306 
 BRR  HE ES   2   2154 39.59                             154    0.61 5 71.6 306 
 BRR  HZ I        2154 39.90         8.5 0.44            152           71.6 306 
 RUS  HZ EP       2154 23.80                             148   -0.0310 92.9 173 
 RUS  HE ES       2154 42.66                             148    0.1310 92.9 173 
 RUS  HZ I        2154 43.39         4.2 0.24            147           92.9 173 
 PTB  HZ EP       2154 26.90                             135   -0.01 9  142 262 
 PTB  HN ES       2154 47.90                             135   -0.11 9  142 262 
 PTB  HZ I        2154 52.54         3.4 0.16            134            142 262 
                                                                                
