 2015 10 2 2048 51.6 L   6.790 -73.104142.9  RSN  9 0.5 1.7LRSN                1
 GAP=142        1.14       4.1     4.7  6.9 -0.1484E+01  0.1234E+02  0.8103E+00E
 Epicentro: LOS SANTOS - SANTANDER                                             3
 ACTION:UPD 15-12-22 20:37 OP:cam  STATUS:               ID:20151002204851 L   I
 OLDACT:UP  15-10-03 05:32 OP:mh   STATUS:               ID:20151002204748     3
 OLDACT:REG 15-10-03 05:01 OP:mh   STATUS:               ID:20151002204748     3
 2015-10-02-2047-48M.COL___358                                                 6
 STAT SP IPHASW D HRMM SECON CODA AMPLIT PERI AZIMU VELO AIN AR TRES W  DIS CAZ7
 BAR2 EZ EP       2049 11.24                             170    0.3810 23.5 202 
 BAR2 EZ ES       2049 25.71                             170   -0.1910 23.5 202 
 BAR2 EZ I        2049 26.68        13.2 0.12            169           23.5 202 
 PAM  EZ EP       2049 14.16                             151    0.8010 75.4  36 
 PAM  EN ES       2049 30.26                             151   -0.1010 75.4  36 
 PAM  EZ I        2049 32.87         5.7 0.50            153           75.4  36 
 BRR  HZ EP       2049 13.14                             150    0.4610 75.8 298 
 BRR  HN ES       2049 29.37                             150    0.2310 75.8 298 
 RUS  HZ EP       2049 14.18                             144   -0.7610 99.2 179 
 RUS  HE ES       2049 33.08                             144   -0.0910 99.2 179 
 RUS  HZ I        2049 34.64         5.5 0.30            144           99.2 179 
 PTB  HZ EP       2049 17.94                             130   -0.76 9  152 260 
 PTB  HN ES       2049 39.58                             130   -0.28 9  152 260 
 PTB  HZ I        2049 41.16         8.1 0.44            131            152 260 
 ZAR  HZ EP       2049 23.96                             121   -0.36 8  209 292 
 ZAR  HN ES       2049 50.20                             121    0.34 8  209 292 
 ZAR  HZ I        2049 54.34         5.7 0.26            122            209 292 
 NOR  HZ EP   1   2049 27.70                             117    0.23 6  238 235 
 NOR  HN ES       2049 55.70                             117    0.23 8  238 235 
 NOR  HZ I        2050  2.26         3.6 0.18            118            238 235 
 SML  HN ES       2049 56.33                             116   -0.73 8  247 334 
 GUY2CHZ EP       2049 35.64                             111    0.24 7  304 235 
 GUY2CHN ES       2050 10.15                             111    0.56 7  304 235 
 GUY2CHZ I        2050 16.19         1.9 0.36                           304 235 
                                                                                
