 2010  4 2 2211 28.8 L   6.774 -73.007144.5  RSN  5 0.4 1.8LRSN                1
 GAP=211        0.71       4.9    11.7  7.4  0.3770E+01 -0.2144E+02  0.1799E+01E
 Epicentro: CEPITA - SANTANDER                                                 3
 ACTION:UP  10-08-24 09:57 OP:vdl  STATUS:               ID:20100402221128 L   I
 2010-04-02-2209-56S.COL___098                                                 6
 STAT SP IPHASW D HRMM SECON CODA AMPLIT PERI AZIMU VELO AIN AR TRES W  DIS CAZ7
 BAR2 SZ EP   1   2211 48.53                             168     0.2 7   28 224 
 BAR2 SZ ES   1   2212  3.18                             168    -0.4 7   28 224 
 BRR  HZ IP       2211 50.58                             147    -0.110   86 295 
 BRR  HE ES   1   2212  7.93                             147     0.1 7   86 295 
 BRR  HZ I        2212 10.23        15.5 0.10                            86 295 
 OCA  SZ EP   1   2211 57.34                             128    -0.1 7  166 348 
 OCA  SZ ES   2   2212 20.65                             128     0.8 5  166 348 
 CHI  HZ EP   1   2212  6.55                             116     0.0 6  250 199 
 CHI  HN ES   2   2212 36.99                             116     0.9 4  250 199 
 CHI  HZ I        2212 41.30         2.3 0.35                           250 199 
 HEL  HN ES   3   2212 42.09                             113    -1.0 2  286 257 
 HEL  HZ I        2212 47.37         4.3 0.34                           286 257 
                                                                                
