 2014  5 2 2043 34.9 L   6.805 -73.156143.0  RSN  7 0.5 2.0LRSN                1
 GAP=135        1.08       3.5     4.8  8.7  0.9152E-01  0.1393E+02  0.1173E+01E
 Epicentro: LOS SANTOS - SANTANDER                                             3
 ACTION:UPD 15-03-16 16:54 OP:nd   STATUS:               ID:20140502204334 L   I
 OLDACT:REG 14-05-03 06:56 OP:nd   STATUS:               ID:20140502204000     3
 2014-05-02-2040-00M.COL___273                                                 6
 STAT SP IPHASW D HRMM SECON CODA AMPLIT PERI AZIMU VELO AIN AR TRES W  DIS CAZ7
 PAM  SZ EP       2043 57.23                             150    0.4310 77.7  40 
 PAM  SN ES       2044 14.02                             150    0.1110 77.7  40 
 PAM  SZ I        2044 16.91        13.8 0.42            155           77.7  40 
 RUS  HZ EP       2043 58.31                             143   -0.0710  101 175 
 RUS  HN ES       2044 16.60                             143   -0.1310  101 175 
 PTB  HZ EP       2044  1.12                             132   -0.39 9  147 259 
 PTB  HN ES       2044 21.74                             132   -0.56 9  147 259 
 PTB  HZ I        2044 27.49        13.1 0.30            133            147 259 
 ZAR  HZ EP   4   2044  8.89                             122    1.89 0  203 292 
 ZAR  HN ES       2044 33.24                             122    1.17 9  203 292 
 ZAR  HZ I        2044 37.50        13.2 0.24            124            203 292 
 SML  HZ EP       2044 10.84                             117   -0.39 8  243 335 
 SML  HN ES       2044 38.96                             117   -0.64 8  243 335 
 SML  HZ I        2044 41.50        14.4 0.22            120            243 335 
 CHI  HZ EP       2044 12.65                             116    0.22 8  249 195 
 CHI  HN ES       2044 41.81                             116    0.08 8  249 195 
 CHI  HZ I        2044 45.14         4.1 0.32            120            249 195 
 GUY2CHZ EP   1   2044 18.68                             112    0.41 5  301 235 
 GUY2CHN ES   1   2044 52.11                             112   -0.02 5  301 235 
 GUY2CHZ I        2045  0.55         3.5 0.30                           301 235 
                                                                                
