 2013  2 2 2104 11.2 L   6.810 -73.172135.7  RSN  6 0.3 1.4LRSN                1
 GAP=133        0.67       4.1     3.7  7.9 -0.8542E+00  0.6828E+01  0.5731E+01E
 Epicentro: LOS SANTOS - SANTANDER                                             3
 ACTION:UPD 13-03-12 09:30 OP:ep   STATUS:               ID:20130202210411 L   I
 2013-02-02-2100-00M.COL___240                                                 6
 STAT SP IPHASW D HRMM SECON CODA AMPLIT PERI AZIMU VELO AIN AR TRES W  DIS CAZ7
 BRR  HZ EP   1   21 4 31.21                             152    0.16 7 68.2 299 
 BRR  HN ES   1   21 4 46.33                             152   -0.24 7 68.2 299 
 BRR  HZ I        21 4 51.11         6.7 0.56            153           68.2 299 
 PAM  SZ EP   1   21 4 32.37                             148   -0.01 7 78.4  42 
 PAM  SN ES   1   21 4 49.15                             148    0.22 7 78.4  42 
 PAM  SZ I        21 4 51.80         6.1 0.48            155           78.4  42 
 RUS  HZ EP   1   21 4 33.99                             141   -0.05 7  102 174 
 RUS  HN ES   1   21 4 51.91                             141    0.03 7  102 174 
 RUS  HZ I        21 4 53.53         2.0 0.30            147            102 174 
 PTB  HZ EP   1   21 4 36.51                             130   -0.58 7  145 258 
 PTB  HN ES   1   21 4 56.89                             130   -0.42 7  145 258 
 PTB  HZ I        21 5  4.83         4.8 0.20            134            145 258 
 ZAR  HE ES   1   21 5  7.65                             120    0.44 6  201 292 
 NOR  HN ES   1   21 5 14.11                             116    0.68 6  233 234 
                                                                                
