 2013 12 2 2224 28.2 L   6.802 -73.148148.3  RSN 10 0.4 2.1LRSN                1
 GAP=149        1.01       3.7     4.4  7.0 -0.4860E+01  0.3991E+01  0.1600E+01E
 Epicentro: LOS SANTOS - SANTANDER                                             3
 ACTION:UPD 14-01-13 10:15 OP:ep   STATUS:               ID:20131202222428 L   I
 OLDACT:UP  13-12-02 22:50 OP:mh   STATUS:               ID:20131202222000     3
 OLDACT:UP  13-12-02 22:48 OP:mh   STATUS:               ID:20131202222000     3
 OLDACT:UP  13-12-02 22:48 OP:mh   STATUS:               ID:20131202222000     3
 OLDACT:UP  13-12-02 22:48 OP:mh   STATUS:               ID:20131202222000     3
 OLDACT:REG 13-12-02 22:16 OP:mh   STATUS:               ID:20131202222000     3
 2013-12-02-2220-00M.COL___282                                                 6
 STAT SP IPHASW D HRMM SECON CODA AMPLIT PERI AZIMU VELO AIN AR TRES W  DIS CAZ7
 BAR2 SZ EP       2224 48.19                             171    0.0210 23.5 189 
 BRR  HZ EP       2224 50.09                             153    0.4510 70.8 298 
 BRR  HN ES       2225  6.85                             153    0.5210 70.8 298 
 BRR  HZ I        2225  9.73        14.8 0.09            153           70.8 298 
 PAM  SZ EP       2224 50.95                             151    0.2310 77.4  40 
 PAM  SN ES       2225  8.23                             151   -0.0310 77.4  40 
 PAM  SZ I        2225 10.67        21.1 0.57            156           77.4  40 
 PTB  HZ EP       2224 54.83                             133   -0.56 9  148 259 
 PTB  HN ES       2225 16.37                             133   -0.20 9  148 259 
 PTB  HZ I        2225 22.12        11.0 0.15            134            148 259 
 OCA  HZ EP       2224 56.74                             130    0.02 9  160 353 
 OCA  HN ES       2225 18.27                             130   -0.66 9  160 353 
 OCA  HZ I        2225 24.10        20.4 0.29            134            160 353 
 SPBC HN ES   1   2225 19.13                             130   -0.18 7  163 219 
 ZAR  HZ EP       2225  1.61                             123    0.80 9  204 292 
 ZAR  HN ES   1   2225 26.47                             123    0.25 6  204 292 
 ZAR  HZ I        2225 33.22        18.2 0.32            125            204 292 
 SML  HZ EP       2225  4.90                             118   -0.07 8  243 335 
 SML  HN ES       2225 33.04                             118   -0.58 8  243 335 
 SML  HZ I        2225 36.81        31.7 0.11            121            243 335 
 CHI  HZ EP   1   2225  6.48                             118    0.39 6  249 195 
 CHI  HN ES   1   2225 34.65                             118   -0.96 6  249 195 
 CHI  HZ I        2225 45.78         4.2 0.32            120            249 195 
 HEL  HN ES       2225 40.00                             115    0.00 8  272 256 
 GUY2CHZ EP   4   2225 14.53                             113    2.58 0  301 235 
 GUY2CHN ES   4   2225 48.83                             113    2.79 0  301 235 
 SJC  HZ EP   4   2225 22.22                             106   -1.62 0  409 327 
 SJC  HN ES   4   2226  2.58                             106   -4.63 0  409 327 
                                                                                
