 2011 10 2 2022 49.6 L   6.791 -73.138144.0  RSN 13 0.4 2.0LRSN                1
 GAP=138        0.77       3.5     4.7  6.2 -0.3956E+01  0.1019E+02  0.2493E+01E
 Epicentro: LOS SANTOS - SANTANDER                                             3
 ACTION:UPD 12-07-13 16:01 OP:ep   STATUS:               ID:20111002202249 L   I
 2011-10-02-2021-30S.COL___168                                                 6
 STAT SP IPHASW D HRMM SECON CODA AMPLIT PERI AZIMU VELO AIN AR TRES W  DIS CAZ7
 BTL  SZ EP       2023  9.33                             172    0.3810 20.1 315 
 BAR2 SZ EP       2023  8.89                             171   -0.1110 22.5 193 
 BAR2 SZ I        2023  9.08        21.4 0.23                          22.5 193 
 BAR2 SZ ES   2   2023 24.29                             171    0.16 5 22.5 193 
 BRR  HZ EP       2023 10.78                             152    0.1610 72.4 299 
 BRR  HE ES   2   2023 27.63                             152    0.61 5 72.4 299 
 BRR  HZ I        2023 31.81        31.4 0.20                          72.4 299 
 PAM  SZ EP       2023 11.79                             150    0.1510 77.6  39 
 PAM  SN ES   1   2023 28.61                             150   -0.22 7 77.6  39 
 RUS  HZ EP       2023 12.86                             144   -0.2410 99.5 176 
 RUS  HN ES   1   2023 31.21                             144   -0.22 7 99.5 176 
 RUS  HZ I        2023 33.10         6.8 0.40                          99.5 176 
 OCA  SZ EP       2023 17.55                             129   -0.32 9  161 353 
 OCA  SZ I        2023 43.41        27.3 0.20                           161 353 
 ZAR  HZ EP   2   2023 22.11                             122    0.07 4  205 292 
 ZAR  HN ES   2   2023 47.47                             122    0.12 4  205 292 
 ZAR  HZ I        2024  0.11        10.6 0.52                           205 292 
 CTAB SZ EP   2   2023 26.05                             119    0.86 4  229 211 
 NOR  SZ EP       2023 24.34                             118   -0.89 8  235 235 
 NOR  SE ES   1   2023 52.76                             118   -0.27 6  235 235 
 CHI  HZ EP       2023 27.22                             117    0.11 8  248 195 
 CHI  HE ES   2   2023 56.43                             117    0.05 4  248 195 
 CHI  HZ I        2023 59.15         4.9 0.40                           248 195 
 HEL  HZ EP   2   2023 30.15                             114    0.37 4  273 256 
 HEL  HN ES   2   2024  0.38                             114   -0.74 4  273 256 
 HEL  HZ I        2024 10.12         5.7 0.46                           273 256 
 RREF HZ EP   3   2023 36.42                             110    0.76 2  322 230 
 RREF HN ES   2   2024 12.52                             110    0.93 3  322 230 
 PRA  HZ EP       2023 43.95                             106    0.95 6  392 210 
                                                                                
