 2013 12 2 2127  8.6 L   6.707 -73.138151.2  RSN  5 0.5 1.7LRSN                1
 GAP=167        1.13      12.9     6.0 13.3 -0.2215E+02  0.6640E+00  0.8430E+02E
 Epicentro: JORDAN - SANTANDER                                                 3
 ACTION:UPD 14-01-13 10:15 OP:ep   STATUS:               ID:20131202212708 L   I
 OLDACT:REG 13-12-02 22:14 OP:mh   STATUS:               ID:20131202212000     3
 2013-12-02-2120-00M.COL___282                                                 6
 STAT SP IPHASW D HRMM SECON CODA AMPLIT PERI AZIMU VELO AIN AR TRES W  DIS CAZ7
 BAR2 SZ EP       2127 29.22                             175    0.4810 13.6 201 
 BAR2 SZ I        2127 45.89        11.4 0.10            152           13.6 201 
 BRR  HZ EP       2127 31.16                             151    0.4610 77.4 305 
 BRR  HN ES       2127 48.26                             151    0.3310 77.4 305 
 BRR  HZ I        2127 49.43        16.7 0.49            161           77.4 305 
 PAM  SZ EP   1   2127 32.08                             149    0.21 7 85.1  35 
 PAM  SN ES       2127 49.46                             149   -0.5510 85.1  35 
 PAM  SZ I        2127 52.06         6.3 0.38            155           85.1  35 
 PTB  HZ EP       2127 35.15                             133   -0.81 9  147 263 
 PTB  HN ES       2127 57.10                             133   -0.18 9  147 263 
 PTB  HZ I        2128  3.06         6.3 0.21            133            147 263 
 ZAR  HN ES       2128  7.92                             123    0.03 8  209 295 
 NOR  HN ES   4   2128 13.13                             120    1.32 0  230 237 
                                                                                
