 2014  7 2 2013 19.2 L   6.786 -73.166145.3  RSN 16 0.4 2.4LRSN                1
 GAP= 70        1.06       2.6     3.5  4.9 -0.1338E+01  0.3872E+01  0.1533E+01E
 Epicentro: LOS SANTOS - SANTANDER                                             3
 ACTION:UPD 15-03-16 20:40 OP:nd   STATUS:               ID:20140702201319 L   I
 OLDACT:REG 14-07-03 06:38 OP:carl STATUS:               ID:20140702200820     3
 2014-07-02-2008-20M.COL___253                                                 6
 STAT SP IPHASW D HRMM SECON CODA AMPLIT PERI AZIMU VELO AIN AR TRES W  DIS CAZ7
 BAR2 SZ EP     C 2013 38.93                             171    0.2110 21.5 185 
 BAR2 SZ ES       2013 53.57                             171   -0.3910 21.5 185 
 BAR2 SZ I        2013 55.08        64.7 0.20            169           21.5 185 
 BRR  HZ EP     C 2013 40.83                             153    0.6210 70.0 301 
 BRR  HN ES       2013 57.41                             153    0.8010 70.0 301 
 BRR  HZ I        2014  1.82        55.2 0.12            149           70.0 301 
 PAM  SZ EP       2013 41.78                             150    0.2710 80.0  40 
 PAM  SN ES       2013 58.67                             150   -0.2510 80.0  40 
 PAM  SZ I        2014  0.82       115.5 0.50            154           80.0  40 
 RUS  HZ EP       2013 42.95                             144    0.1610 99.2 175 
 RUS  HN ES       2014  1.17                             144   -0.0310 99.2 175 
 RUS  HZ I        2014  2.93        26.5 0.28            146           99.2 175 
 PTB  HZ EP       2013 45.85                             132   -0.03 9  145 259 
 PTB  HN ES       2014  6.02                             132   -0.69 9  145 259 
 PTB  HZ I        2014 13.71        31.1 0.32            131            145 259 
 TAM  HZ EP       2013 47.33                             130    0.34 9  157 104 
 SPBC HZ EP       2013 47.88                             129    0.48 9  161 219 
 SPBC HN ES       2014  9.87                             129    0.47 9  161 219 
 SPBC HZ I        2014 15.54        30.6 0.24            129            161 219 
 OCA  HZ EP       2013 47.27                             129   -0.31 9  162 354 
 OCA  HE ES       2014  8.97                             129   -0.75 9  162 354 
 OCA  HZ I        2014 15.41        45.3 0.50            130            162 354 
 ZAR  HZ EP       2013 52.11                             122    0.67 9  203 293 
 ZAR  HN ES       2014 16.75                             122    0.15 9  203 293 
 ZAR  HZ I        2014 23.13        36.1 0.28            122            203 293 
 SML  HZ EP       2013 55.36                             117   -0.47 8  244 336 
 SML  HN ES       2014 24.21                             117   -0.21 8  244 336 
 SML  HZ I        2014 33.84        35.5 0.10            118            244 336 
 CHI  HZ EP       2013 55.67                             117   -0.96 8  247 195 
 CHI  HE ES       2014 25.15                             117   -0.68 8  247 195 
 CHI  HZ I        2014 30.92         8.3 0.22            119            247 195 
 GUY2CHZ EP       2014  2.48                             112    0.02 7  298 235 
 GUY2CHN ES       2014 36.07                             112   -0.14 7  298 235 
 GUY2CHZ I        2014 46.57        11.7 0.50                           298 235 
 RREF HZ EP   4   2014  8.48                             111    3.49 0  319 229 
 RREF HE ES   4   2014 43.05                             111    2.33 0  319 229 
 RREF HZ I        2014 51.16        10.1 0.24            112            319 229 
 CBOC HZ EP       2014  6.12                             110    0.34 7  331 252 
 CBOC HE ES       2014 41.83                             110   -0.29 7  331 252 
 CBOC HZ I        2014 48.98         3.0 0.16            110            331 252 
 TOL  SZ EP       2014  7.07                             109   -0.04 7  341 225 
 TOL  SN ES       2014 44.32                             109   -0.17 7  341 225 
 TOL  SZ I        2014 53.08        21.5 0.38            110            341 225 
 PRA  HZ EP       2014 12.39                             106   -0.01 6  390 209 
 PRA  HN ES       2014 53.98                             106    0.07 6  390 209 
 PRA  HZ I        2015  2.17        10.4 0.50            108            390 209 
                                                                                
