 2017  4 2 2354  2.7 L   6.768 -73.247146.1  RSN 10 0.5 1.9LRSN                1
 GAP=113        1.04       5.5     4.7  6.5  0.2385E+01  0.7036E+01  0.8687E+00E
 Epicentro: ZAPATOCA - SANTANDER                                               3
 ACTION:UPD 17-05-30 21:07 OP:jn   STATUS:               ID:20170402235402 L   I
 OLDACT:UP  17-04-03 06:53 OP:cog  STATUS:               ID:20170402234742     3
 OLDACT:UP  17-04-03 06:52 OP:cog  STATUS:               ID:20170402234742     3
 OLDACT:REG 17-04-03 06:06 OP:cog  STATUS:               ID:20170402234742     3
 2017-04-02-2348-00M.COL___368                                                 6
 STAT SP IPHASW D HRMM SECON CODA AMPLIT PERI AZIMU VELO AIN AR TRES W  DIS CAZ7
 BAR2 EZ EP       2354 22.05                             172   -0.2210 20.7 160 
 BAR2 EZ ES       2354 37.37                             172   -0.2010 20.7 160 
 BAR2 EZ I        2354 40.30        18.4 0.09            171           20.7 160 
 BRR  HZ EP       2354 23.46                             155    0.0410 63.6 306 
 BRR  HN ES       2354 40.38                             155    0.7510 63.6 306 
 BRR  HZ I        2354 45.20        14.3 0.12            156           63.6 306 
 PAM  EZ EP       2354 25.54                             147    0.0110 87.5  44 
 PAM  EN ES   3   2354 43.03                             147   -0.34 2 87.5  44 
 PAM  EZ I        2354 44.92        16.9 0.34            153           87.5  44 
 RUS  HZ EP       2354 26.27                             145   -0.0210 98.5 169 
 RUS  HN ES       2354 44.79                             145    0.0710 98.5 169 
 RUS  HZ I        2354 45.58         5.0 0.34            147           98.5 169 
 PTB  HZ EP       2354 27.85                             135   -0.76 9  136 259 
 PTB  HN ES       2354 48.02                             135   -0.83 9  136 259 
 PTB  HZ I        2354 49.81        14.1 0.16            136            136 259 
 SPBC HZ EP       2354 30.91                             131    0.64 9  154 217 
 SPBC HN ES   3   2354 52.66                             131    0.85 2  154 217 
 SPBC HZ I        2354 58.88        18.3 0.18            133            154 217 
 ZAR  HZ EP       2354 34.39                             124    0.19 9  195 294 
 ZAR  HN ES   3   2354 57.86                             124   -0.95 2  195 294 
 NOR  HZ EP       2354 37.53                             120    0.32 8  224 234 
 NOR  HN ES   4   2355  2.43                             120   -1.74 0  224 234 
 NOR  HZ I        2355  9.20         6.1 0.19            122            224 234 
 HEL  HZ EP   4   2354 43.42                             116    1.84 0  260 256 
 HEL  HN ES       2355 12.23                             116    0.28 8  260 256 
 PTGC HN ES   3   2355 19.33                             111   -1.62 2  310 156 
 PRA  HZ EP   4   2354 56.00                             107    0.81 0  383 208 
 PRA  HN ES   4   2355 29.72                             107   -6.45 0  383 208 
                                                                                
