 2016 10 2 2049 57.2 L   6.783 -73.142141.0  RSN  6 0.2 1.5LRSN                1
 GAP=138        0.51       2.2     2.8  4.0 -0.1123E+01  0.4062E+01  0.9569E-01E
 Epicentro: LOS SANTOS - SANTANDER                                             3
 ACTION:UPD 16-11-09 19:15 OP:rebc STATUS:               ID:20161002204957 L   I
 OLDACT:UP  16-10-03 07:39 OP:ar   STATUS:               ID:20161002204745     3
 OLDACT:REG 16-10-03 07:22 OP:ar   STATUS:               ID:20161002204745     3
 2016-10-02-2048-00M.COL___381                                                 6
 STAT SP IPHASW D HRMM SECON CODA AMPLIT PERI AZIMU VELO AIN AR TRES W  DIS CAZ7
 BAR2 EZ EP       2050 16.18                             171   -0.0410 21.5 192 
 BAR2 EZ ES       2050 30.78                             171   -0.2810 21.5 192 
 BAR2 EZ I        2050 31.34        19.7 0.48            168           21.5 192 
 PAM  EZ EP       2050 18.98                             150   -0.0110 78.6  38 
 PAM  EN ES       2050 36.24                             150    0.2610 78.6  38 
 PAM  EZ I        2050 37.88         3.4 0.66            153           78.6  38 
 RUS  HZ EP       2050 20.16                             143   -0.1810 98.6 176 
 RUS  HN ES       2050 38.39                             143   -0.0110 98.6 176 
 RUS  HZ I        2050 40.00         3.2 0.28            146           98.6 176 
 SPBC HZ EP       2050 25.11                             128   -0.11 9  162 220 
 SPBC HN ES       2050 47.39                             128    0.31 9  162 220 
 SPBC HZ I        2050 53.98         6.0 0.26            128            162 220 
 ZAR  HZ EP   2   2050 29.09                             121   -0.37 4  205 293 
 ZAR  HN ES       2050 54.67                             121    0.05 9  205 293 
 ZAR  HZ I        2051  3.51         2.6 0.10            120            205 293 
 CHI  HE EP   2   2050 35.04                             116    0.59 4  247 195 
 CHI  HN ES   2   2051  3.79                             116    0.29 4  247 195 
                                                                                
