 2014  6 2 2223 28.8 L   6.803 -73.149150.7  RSN 11 0.4 1.9LRSN                1
 GAP=136        1.05       3.6     4.4  6.1 -0.1532E+01  0.8340E+01 -0.1189E+01E
 Epicentro: LOS SANTOS - SANTANDER                                             3
 ACTION:UPD 14-07-01 22:50 OP:nd   STATUS:               ID:20140602222328 L   I
 OLDACT:UP  14-06-03 03:25 OP:cam  STATUS:               ID:20140602222000     3
 OLDACT:UP  14-06-03 03:24 OP:cam  STATUS:               ID:20140602222000     3
 OLDACT:UP  14-06-03 03:24 OP:cam  STATUS:               ID:20140602222000     3
 OLDACT:UP  14-06-03 03:24 OP:cam  STATUS:               ID:20140602222000     3
 OLDACT:REG 14-06-03 02:39 OP:cam  STATUS:               ID:20140602222000     3
 2014-06-02-2220-00M.COL___276                                                 6
 STAT SP IPHASW D HRMM SECON CODA AMPLIT PERI AZIMU VELO AIN AR TRES W  DIS CAZ7
 BAR2 SZ ES       2224  4.33                             171   -0.5210 23.6 189 
 BAR2 SZ I        2224  5.29        15.5 0.14            169           23.6 189 
 BRR  HZ EP   1   2223 50.80                             154    0.31 7 70.7 298 
 BRR  HN ES       2224  8.15                             154    0.7610 70.7 298 
 BRR  HZ I        2224 11.51         7.5 0.36            150           70.7 298 
 PAM  SZ EP       2223 51.91                             152    0.3310 77.4  40 
 PAM  SE ES       2224  9.26                             152   -0.0610 77.4  40 
 PAM  SN I        2224 10.28        16.5 0.64            155           77.4  40 
 RUS  HZ EP       2223 53.27                             145    0.1710  101 176 
 RUS  HN ES       2224 12.04                             145    0.0110  101 176 
 RUS  HZ I        2224 13.20         8.2 0.26            146            101 176 
 PTB  HZ EP       2223 55.89                             133   -0.29 9  147 259 
 PTB  HN ES       2224 16.98                             133   -0.53 9  147 259 
 PTB  HZ I        2224 18.90        10.1 0.14            131            147 259 
 SPBC HZ EP       2223 58.03                             130    0.31 9  163 219 
 SPBC HN ES       2224 19.84                             130   -0.41 9  163 219 
 SPBC HZ I        2224 22.67        15.1 0.22            130            163 219 
 ZAR  HZ EP       2224  1.57                             123    0.01 9  204 292 
 ZAR  HN ES       2224 27.10                             123    0.02 9  204 292 
 ZAR  HZ I        2224 33.80         5.3 0.30            123            204 292 
 NOR  HZ EP       2224  4.27                             120   -0.57 8  235 234 
 NOR  HE ES       2224 33.87                             120    0.94 8  235 234 
 NOR  HZ I        2224 38.30         5.2 0.22            119            235 234 
 SML  HZ EP   1   2224  5.25                             118   -0.44 6  243 335 
 SML  HE ES       2224 34.17                             118   -0.27 8  243 335 
 SML  HZ I        2224 38.51         7.3 0.28            119            243 335 
 GUY2CHZ EP   4   2224 14.88                             113    2.22 0  301 235 
 GUY2CHE ES   4   2224 43.12                             113   -3.73 0  301 235 
 GUY2CHZ I        2224 52.92         3.6 0.62                           301 235 
 RREF HZ EP   4   2224 16.98                             112    1.79 0  322 229 
 RREF HN ES   4   2224 54.77                             112    3.43 0  322 229 
 RREF HZ I        2225  0.88         3.1 0.26            112            322 229 
 SJC  HZ EP   4   2224 23.28                             106   -1.23 0  409 327 
                                                                                
