 2012  7 2 2037  3.1 L   6.765 -73.184153.5  RSN  5 0.2 1.6LRSN                1
 GAP=133        0.52       4.7     4.5  6.9  0.7740E+00 -0.7248E+01  0.3526E+01E
 Epicentro: VILLANUEVA - SANTANDER                                             3
 ACTION:UPD 12-08-14 11:42 OP:ep   STATUS:               ID:20120702203703 L   I
 2012-07-02-2030-00M.COL___201                                                 6
 STAT SP IPHASW D HRMM SECON CODA AMPLIT PERI AZIMU VELO AIN AR TRES W  DIS CAZ7
 BAR2 SZ EP   3   2037 23.44                             173    -0.2 2   19 180 
 BAR2 SZ I        2037 39.45        10.2 0.28            174             19 180 
 BRR  HZ EP   1   2037 25.31                             154     0.3 7   70 303 
 BRR  HN ES   1   2037 42.25                             154     0.1 7   70 303 
 BRR  HZ I        2037 46.70        11.4 0.52            156             70 303 
 PAM  SZ EP       2037 26.34                             150    -0.210   83  40 
 RUS  HZ EP       2037 27.58                             146     0.210   97 173 
 RUS  HN ES   2   2037 46.09                             146    -0.3 5   97 173 
 RUS  HZ I        2037 48.00         3.8 0.40            149             97 173 
 PTB  HZ EP       2037 30.22                             135    -0.1 9  143 260 
 PTB  HN ES   2   2037 51.18                             135    -0.3 5  143 260 
 PTB  HZ I        2037 54.86         3.9 0.14            139            143 260 
