 2017  8 2 2329 49.9 L   6.775 -73.103142.5  RSN  7 0.2 1.6LRSN                1
 GAP=143        0.52       2.4     2.3  3.5 -0.1939E+00  0.9916E+00  0.1565E+00E
 Epicentro: LOS SANTOS - SANTANDER                                             3
 ACTION:UPD 17-09-04 20:15 OP:rebc STATUS:               ID:20170802232949 L   I
 OLDACT:UP  17-08-03 09:39 OP:and  STATUS:               ID:20170802232253     3
 OLDACT:UP  17-08-03 09:38 OP:and  STATUS:               ID:20170802232253     3
 OLDACT:UP  17-08-03 09:38 OP:and  STATUS:               ID:20170802232253     3
 OLDACT:REG 17-08-03 06:12 OP:mg   STATUS:               ID:20170802232253     3
 2017-08-02-2328-00M.COL___398                                                 6
 STAT SP IPHASW D HRMM SECON CODA AMPLIT PERI AZIMU VELO AIN AR TRES W  DIS CAZ7
 BAR2 EZ EP       2330  8.90                             171   -0.2510 22.0 204 
 BAR2 EZ ES       2330 23.83                             171   -0.3010 22.0 204 
 BAR2 EZ I        2330 25.88         9.5 0.30            174           22.0 204 
 PAM  EN ES       2330 28.79                             150    0.0010 76.7  35 
 PAM  EZ I        2330 33.33         6.6 0.42            143           76.7  35 
 BRR  HZ EP       2330 10.95                             150   -0.1110 76.7 299 
 BRR  HN ES       2330 27.79                             150    0.2610 76.7 299 
 BRR  HZ I        2330 31.75        15.3 0.32            143           76.7 299 
 PAM  EZ IP     C 2330 12.02                             150    0.2510 76.7  35 
 RUS  HZ EP       2330 13.27                             144    0.1210 97.6 179 
 RUS  HN ES       2330 31.37                             144    0.1110 97.6 179 
 RUS  HZ I        2330 32.27         5.0 0.28            144           97.6 179 
 PTB  HZ EP   9   2330 15.63                             130   -1.40 0  152 260 
 PTB  HN ES       2330 36.88                             132    0.12 9  152 260 
 PTB  HZ I        2330 38.94         4.1 0.14            125            152 260 
 ZAR  HZ EP   2   2330 22.31                             121   -0.43 4  209 292 
 ZAR  HN ES       2330 48.24                             121   -0.08 8  209 292 
 ZAR  HZ I        2330 54.82         4.0 0.07            115            209 292 
 NOR  HN ES       2330 53.74                             117    0.10 8  237 236 
 NOR  HZ I        2330 55.52         3.0 0.40            114            237 236 
                                                                                
