 2010  8 2 2032 16.6 L   7.177 -73.059150.2  RSN 12 0.2 2.4LRSN                1
 GAP=155        0.58       2.6     4.2  4.2 -0.3549E+01  0.1803E+01  0.7242E+00E
 Epicentro: BUCARAMANGA - SANTANDER                                            3
 ACTION:UP  10-09-07 10:51 OP:vdl  STATUS:               ID:20100802203216 L   I
 2010-08-02-2029-50S.COL___122                                                 6
 STAT SP IPHASW D HRMM SECON CODA AMPLIT PERI AZIMU VELO SNR AR TRES W  DIS CAZ7
 GIR2 SZ EP   1   2032 36.53                             173     0.0 7   18 234 
 GIR2 SZ ES   2   2032 52.10                                     0.0 5   18 234 
 BAR2 SZ EP       2032 38.23                                    -0.110   66 192 
 BRI  SZ EP   1   2032 38.59                             155     0.3 7   66  26 
 BAR2 SZ ES   1   2032 54.97                             155    -0.3 7   66 192 
 BAR2 SZ I        2032 56.80        83.7 0.21                            66 192 
 BRR  HZ EP       2032 38.35                                     0.010   73 264 
 BRR  HZ I        2032 39.73        63.6 0.08                            73 264 
 BRR  HN ES   1   2032 55.84                             153     0.6 7   73 264 
 GUE  SZ EP       2032 39.07                                     0.210   74  12 
 GRA  SZ IP       2032 39.27                             150     0.110   83  20 
 GRA  SZ ES   1   2032 56.62                             150    -0.2 7   83  20 
 GRA  SZ I        2032 58.13        48.9 0.35                            83  20 
 OCA  SZ EP       2032 41.71                             140    -0.210  121 346 
 OCA  SZ ES   1   2033  1.29                             140    -0.3 7  121 346 
 OCA  SZ I        2033  6.59        24.3 0.20                           121 346 
 RUS  HZ EP   1   2032 44.11                             134     0.0 7  142 181 
 RUS  HE ES   1   2033  5.53                             134     0.0 7  142 181 
 RUS  HZ I        2033  6.73        16.6 0.58                           142 181 
 CHI  HZ EP   2   2032 59.95                             114     0.7 4  291 195 
 CHI  HZ I        2033 36.31         6.1 0.51                           291 195 
 HEL  HZ EP   1   2032 59.15                             114    -0.4 5  294 248 
 HEL  HN ES   1   2033 32.86                             114    -0.1 5  294 248 
 HEL  HZ I        2033 40.97        14.7 0.41                           294 248 
 RREF HZ EP   1   2033  7.05                             109     0.0 5  357 225 
 RREF HZ I        2033 57.89         8.8 0.18                           357 225 
 PRA  HZ EP   1   2033 14.98                             105    -0.2 4  433 208 
 PRA  HZ I        2034  8.82         6.9 0.19                           433 208 
                                                                                
