 2016  7 2 2008 51.2 L   6.795 -73.160144.0  RSN 11 0.4 2.1LRSN                1
 GAP=135        0.93       4.0     3.7  5.5 -0.2030E+01  0.7136E+01  0.3574E+01E
 Epicentro: LOS SANTOS - SANTANDER                                             3
 ACTION:UPD 17-03-29 16:45 OP:lp   STATUS:               ID:20160702200851 L   I
 OLDACT:UP  16-07-03 04:01 OP:lv   STATUS:               ID:20160702200740     3
 OLDACT:REG 16-07-03 02:26 OP:lv   STATUS:               ID:20160702200740     3
 2016-07-02-2007-40M.COL___337                                                 6
 STAT SP IPHASW D HRMM SECON CODA AMPLIT PERI AZIMU VELO AIN AR TRES W  DIS CAZ7
 BAR2 EZ EP       20 9 10.39                             171   -0.2210 22.6 186 
 BAR2 EZ ES       20 9 25.69                             171   -0.0610 22.6 186 
 BAR2 EZ I        20 9 27.12        32.6 0.20            168           22.6 186 
 BRR  HZ IP     C 20 9 12.21                             153    0.1010 70.1 300 
 BRR  HN ES       20 9 28.90                             153    0.5010 70.1 300 
 BRR  HZ I        20 9 32.51        18.2 0.12            151           70.1 300 
 PAM  EZ EP       20 9 13.37                             150    0.0410 78.8  40 
 PAM  EE ES       20 9 30.64                             150    0.0710 78.8  40 
 PAM  EZ I        20 9 32.59        23.3 0.50            156           78.8  40 
 RUS  HZ EP       20 9 14.37                             144   -0.3910  100 175 
 RUS  HN ES       20 9 33.42                             144    0.2910  100 175 
 RUS  HZ I        20 9 34.19        16.5 0.26            145            100 175 
 PTB  HZ IP     D 20 9 17.18                             132   -0.70 9  146 259 
 PTB  HN ES       20 9 38.06                             132   -0.63 9  146 259 
 PTB  HZ I        20 9 40.20        15.7 0.16            132            146 259 
 SPBC HZ EP   2   20 9 19.73                             129    0.29 5  162 219 
 SPBC HE ES   2   20 9 41.57                             129    0.11 5  162 219 
 SPBC HZ I        20 9 45.82        30.5 0.18            129            162 219 
 ZAR  HZ EP   2   20 9 24.02                             122    0.61 4  203 292 
 ZAR  HN ES       20 9 48.44                             122   -0.09 9  203 292 
 ZAR  HZ I        20 9 54.24        11.1 0.07            123            203 292 
 NOR  HZ EP       20 9 26.58                             118   -0.09 8  233 234 
 NOR  HN ES       20 9 55.19                             118    0.87 8  233 234 
 NOR  HZ I        2010  3.77         9.0 0.14            119            233 234 
 ROSC BZ EP   4   20 9 31.24                             117    2.14 0  251 211 
 ROSC BN ES   4   2010  1.54                             117    2.90 0  251 211 
 ROSC BZ I        2010  5.09        22.8 0.40            117            251 211 
 URE  HZ EP   4   20 9 30.82                             113   -1.23 0  283 292 
 URE  HE ES   4   2010  1.73                             113   -2.18 0  283 292 
 GUY2CHZ EP       20 9 34.74                             112    0.18 7  300 235 
 GUY2CHN ES       2010  7.89                             112   -0.48 7  300 235 
 GUY2CHZ I        2010 16.69         8.6 0.32                           300 235 
 CBOC HZ EP       20 9 38.44                             110    0.58 7  332 252 
 CBOC HN ES   2   2010 14.93                             110    0.68 3  332 252 
 CBOC HZ I        2010 18.87         2.4 0.32            111            332 252 
                                                                                
