 2011  4 2 2006 15.8 L   6.822 -73.115140.7  RSN 16 0.5 2.6LRSN                1
 GAP=104        1.05       3.9     4.9  7.1 -0.4690E+01  0.5327E+01  0.7882E+01E
 Epicentro: LOS SANTOS - SANTANDER                                             3
 ACTION:UP  11-06-22 15:28 OP:REBC STATUS:               ID:20110402200615 L   I
 2011-04-02-2004-41S.COL___138                                                 6
 STAT SP IPHASW D HRMM SECON CODA AMPLIT PERI AZIMU VELO SNR AR TRES W  DIS CAZ7
 BTL  SZ EP       20 6 35.07                             172     0.310   20 302 
 BAR2 SZ EP   1   20 6 34.65                             169    -0.3 7   26 196 
 BAR2 SZ ES   1   20 6 49.15                             169    -0.7 7   26 196 
 BAR2 SZ I        20 6 50.99       160.6 0.17                            26 196 
 GIR2 SZ EP       20 6 34.95                             168     0.110   30 343 
 BRR  HZ EP       20 6 36.78                             151     0.210   73 296 
 BRR  HE ES   1   20 6 53.60                             151     0.9 7   73 296 
 BRR  HZ I        20 6 58.11       130.3 0.16                            73 296 
 PAM  SZ EP   1   20 6 37.70                             151     0.4 7   73  39 
 PAM  SE ES   1   20 6 54.23                             151     0.3 7   73  39 
 GRA  SZ IP       20 6 39.78                             137    -0.610  122  16 
 GRA  SZ ES   1   20 6 59.08                             137    -0.4 7  122  16 
 GRA  SZ I        20 7  0.30        62.6 0.27                           122  16 
 OCA  SZ EP   1   20 6 43.78                             129     0.2 7  158 352 
 OCA  SZ ES   1   20 7  4.90                             129    -0.3 7  158 352 
 OCA  SZ I        20 7  8.66        76.9 0.29                           158 352 
 YOP  SZ EP       20 6 45.57                             125     0.0 9  180 155 
 YOP  SN ES   1   20 7  9.03                             125     0.3 7  180 155 
 YOP  SZ I        20 7 11.74        16.8 0.17                           180 155 
 NOR  SZ EP   1   20 6 51.32                             117    -0.4 6  239 234 
 NOR  SN ES   1   20 7 18.76                             117    -0.9 6  239 234 
 HEL  HZ EP   1   20 6 56.82                             113     0.6 6  276 255 
 HEL  HN ES   1   20 7 26.78                             113    -0.9 6  276 255 
 HEL  HZ I        20 7 33.27        21.8 0.54                           276 255 
 VIL  SN ES   1   20 7 33.09                             111    -0.2 5  306 192 
 VIL  SZ I        20 7 36.82        16.4 0.28                           306 192 
 RREF HZ EP   1   20 7  3.03                             110     0.8 5  326 229 
 RREF HN ES   1   20 7 38.41                             110     0.0 5  326 229 
 RREF HZ I        20 7 46.72        19.2 0.27                           326 229 
 DBB  SZ EP   2   20 7  3.64                             108     0.2 3  343 274 
 TOL  SZ EP   1   20 7  4.58                             108     0.2 5  348 225 
 SDV  BZ EP   1   20 7  4.39                             108    -0.8 5  356  50 
 SDV  BZ I        20 7 45.20         5.1 0.76                           356  50 
 ANIL HZ EP   1   20 7  6.51                             107     0.6 5  361 225 
                                                                                
