 2012  7 2 2226 56.7 L   6.774 -73.204146.9  RSN  4 0.4 1.2LRSN                1
 GAP=131        0.91       7.5     8.9 15.0  0.1356E+02 -0.3593E+02 -0.3827E+02E
 Epicentro: ZAPATOCA - SANTANDER                                               3
 ACTION:UPD 12-08-14 11:42 OP:ep   STATUS:               ID:20120702222656 L   I
 2012-07-02-2220-00M.COL___201                                                 6
 STAT SP IPHASW D HRMM SECON CODA AMPLIT PERI AZIMU VELO AIN AR TRES W  DIS CAZ7
 BRR  HZ EP       2227 18.13                             154     0.410   67 303 
 BRR  HZ I        2227 19.28         4.4 0.52            136             67 303 
 BRR  HN ES   2   2227 34.59                             154     0.4 5   67 303 
 PAM  SZ EP       2227 19.02                             149    -0.410   84  42 
 PAM  SZ I        2227 19.08         2.9 0.22            145             84  42 
 RUS  HZ EP       2227 20.59                             144     0.210   98 172 
 RUS  HN ES   1   2227 38.74                             144    -0.1 7   98 172 
 RUS  HZ I        2227 40.45         1.8 0.34            126             98 172 
 PTB  HZ EP   2   2227 22.94                             133    -0.2 5  141 259 
 PTB  HZ I        2227 34.03         1.6 0.18            115            141 259 
 PTB  HN ES   2   2227 43.05                             133    -0.7 5  141 259 
