 2017 11 2 2339 17.0 L   6.760 -73.185145.9  RSN  5 0.4 1.2LRSN                1
 GAP=230        1.10       8.4     7.7  8.8  0.4023E+02  0.9809E+01  0.7854E+00E
 Epicentro: LOS SANTOS - SANTANDER                                             3
 ACTION:UPD 17-12-12 19:51 OP:rebc STATUS:               ID:20171102233917 L   I
 OLDACT:UP  17-11-03 09:38 OP:edw  STATUS:               ID:20171102233740     3
 OLDACT:REG 17-11-03 06:18 OP:edw  STATUS:               ID:20171102233740     3
 2017-11-02-2338-00M.COL___441                                                 6
 STAT SP IPHASW D HRMM SECON CODA AMPLIT PERI AZIMU VELO AIN AR TRES W  DIS CAZ7
 BAR2 EZ EP       2339 36.14                             172   -0.4410 18.5 179 
 BAR2 EZ ES       2339 51.38                             172   -0.4610 18.5 179 
 BAR2 EZ I        2339 52.16         3.6 0.22            171           18.5 179 
 BRR  HZ EP       2339 38.09                             153   -0.0210 69.8 303 
 BRR  HE ES       2339 55.37                             153    0.8110 69.8 303 
 RUS  HZ EP       2339 40.85                             145    0.3510 96.5 173 
 RUS  HN ES       2339 58.83                             145    0.0210 96.5 173 
 RUS  HZ I        2340  0.18         2.1 0.34            144           96.5 173 
 PTB  HZ EP       2339 43.83                             133    0.29 9  143 260 
 PTB  HN ES       2340  4.15                             133   -0.08 9  143 260 
 ZAR  HN ES       2340 13.79                             123   -0.59 9  202 294 
                                                                                
