 2013 11 2 2320 18.8 L   6.769 -73.157146.6  RSN  6 0.4 1.6LRSN                1
 GAP=136        0.88       5.1     4.6  6.7 -0.3418E+01  0.4457E+01  0.4087E-01E
 Epicentro: LOS SANTOS - SANTANDER                                             3
 ACTION:UPD 14-01-09 16:25 OP:ep   STATUS:               ID:20131102232018 L   I
 OLDACT:REG 13-11-02 21:52 OP:cam  STATUS:               ID:20131102232000     3
 2013-11-02-2320-00M.COL___273                                                 6
 STAT SP IPHASW D HRMM SECON CODA AMPLIT PERI AZIMU VELO AIN AR TRES W  DIS CAZ7
 BAR2 SZ EP       2320 38.57                             172    0.1310 19.7 188 
 BAR2 SZ ES       2320 53.60                             172   -0.1810 19.7 188 
 BAR2 SZ I        2320 54.59        15.2 0.16            173           19.7 188 
 BRR  HZ EP       2320 40.31                             152    0.2710 71.8 301 
 BRR  HN ES       2320 57.30                             152    0.6610 71.8 301 
 BRR  HZ I        2320 57.70        12.2 0.36            154           71.8 301 
 PAM  SZ EP       2320 41.28                             150   -0.0110 80.9  39 
 PAM  SN ES       2320 58.51                             150   -0.3410 80.9  39 
 PAM  SZ I        2321  1.46         3.7 0.18            150           80.9  39 
 RUS  HZ EP   1   2320 42.90                             145    0.53 7 97.2 175 
 RUS  HN ES   1   2321  0.66                             145   -0.11 7 97.2 175 
 RUS  HZ I        2321  1.96         3.4 0.34            146           97.2 175 
 PTB  HZ EP       2320 45.25                             133   -0.38 9  146 260 
 PTB  HN ES       2321  6.20                             133   -0.39 9  146 260 
 SML  HN ES   2   2321 23.94                             117   -0.61 4  246 336 
                                                                                
