 2013 11 2 2027 10.5 L   6.781 -73.152147.3  RSN  5 0.4 1.8LRSN                1
 GAP=137        0.95       5.4     5.1  7.3 -0.4411E+01  0.6764E+01 -0.2664E+01E
 Epicentro: LOS SANTOS - SANTANDER                                             3
 ACTION:UPD 14-01-09 16:25 OP:ep   STATUS:               ID:20131102202710 L   I
 OLDACT:UP  13-11-02 22:36 OP:cam  STATUS:               ID:20131102202000     3
 OLDACT:REG 13-11-02 21:44 OP:cam  STATUS:               ID:20131102202000     3
 2013-11-02-2020-00M.COL___273                                                 6
 STAT SP IPHASW D HRMM SECON CODA AMPLIT PERI AZIMU VELO AIN AR TRES W  DIS CAZ7
 BAR2 SZ EP       2027 30.22                             172   -0.0410 21.1 189 
 BAR2 SZ ES       2027 45.40                             172   -0.2810 21.1 189 
 BAR2 SZ I        2027 46.69        22.0 0.40            173           21.1 189 
 BRR  HZ EP       2027 32.12                             153    0.2910 71.7 300 
 BRR  HN ES       2027 49.15                             153    0.6710 71.7 300 
 BRR  HZ I        2027 55.76         4.8 0.42            150           71.7 300 
 PAM  SZ EP       2027 33.17                             150    0.1810 79.4  39 
 PAM  SN ES       2027 50.11                             150   -0.4310 79.4  39 
 PAM  SN I        2027 51.13        18.1 0.48            152           79.4  39 
 RUS  HZ EP   2   2027 34.72                             145    0.48 5 98.5 176 
 RUS  HN ES       2027 52.98                             145    0.2110 98.5 176 
 PTB  HZ EP       2027 36.98                             133   -0.51 9  147 260 
 PTB  HN ES       2027 58.24                             133   -0.31 9  147 260 
 PTB  HZ I        2027 59.85         5.0 0.26            134            147 260 
                                                                                
