 2013  3 2 2017 47.1 L   6.781 -73.168140.4  RSN 10 0.5 2.9LRSN                1
 GAP= 72        1.24       4.6     4.6  6.9 -0.1767E+01  0.5775E+01 -0.3197E+01E
 Epicentro: LOS SANTOS - SANTANDER                                             3
 ACTION:UPD 13-04-09 13:59 OP:ep   STATUS:               ID:20130302201747 L   I
 2013-03-02-2010-00M.COL___228                                                 6
 STAT SP IPHASW D HRMM SECON CODA AMPLIT PERI AZIMU VELO AIN AR TRES W  DIS CAZ7
 BAR2 SZ EP       2018  6.33                             171    0.2710 20.9 184 
 BAR2 SZ ES       2018 20.49                             171   -0.3410 20.9 184 
 BAR2 SZ I        2018 23.90       145.1 0.54            168           20.9 184 
 BRR  HZ EP     C 2018  8.22                             152    0.5910 70.1 301 
 BRR  HN ES       2018 24.52                             152    0.8910 70.1 301 
 BRR  HN I        2018 25.30       286.0 0.22            145           70.1 301 
 PAM  SZ EP       2018  9.14                             149    0.1710 80.6  40 
 PAM  SN ES       2018 26.00                             149   -0.0110 80.6  40 
 PAM  SN I        2018 27.09       181.3 0.48            148           80.6  40 
 RUS  HZ EP       2018 10.30                             143    0.0910 98.7 175 
 RUS  HN ES       2018 27.86                             143   -0.3610 98.7 175 
 RUS  HE I        2018 30.42        97.4 0.24            140           98.7 175 
 PTB  HZ EP       2018 12.91                             131   -0.49 9  145 259 
 PTB  HN ES       2018 33.27                             131   -0.62 9  145 259 
 PTB  HN I        2018 39.07        93.0 0.30            125            145 259 
 TAM  HZ EP       2018 14.69                             129    0.14 9  157 104 
 OCA  HZ EP       2018 15.06                             128   -0.13 9  162 354 
 OCA  HN ES       2018 36.34                             128   -0.75 9  162 354 
 ZAR  HZ EP       2018 19.70                             121    0.63 9  203 293 
 ZAR  HN I        2018 45.96        99.0 0.10            116            203 293 
 HEL  HN ES       2018 58.09                             114    0.45 8  269 256 
 HEL  HN I        2019  4.11        21.8 0.30            110            269 256 
 URE  HZ EP       2018 26.95                             113   -0.82 7  282 292 
                                                                                
