 2017  1 2 2108 56.3 L   6.852 -73.119146.8  RSN 19 0.4 2.6LRSN                1
 GAP= 71        0.95       3.2     2.7  4.8 -0.7423E+00  0.3293E+01  0.3993E+01E
 Epicentro: LOS SANTOS - SANTANDER                                             3
 ACTION:UPD 17-05-22 15:54 OP:jn   STATUS:               ID:20170102210856 L   I
 OLDACT:UP  17-01-03 04:43 OP:edw  STATUS:               ID:20170102210639     3
 OLDACT:UP  17-01-03 04:43 OP:edw  STATUS:               ID:20170102210639     3
 OLDACT:UP  17-01-03 04:42 OP:edw  STATUS:               ID:20170102210639     3
 OLDACT:REG 17-01-03 02:36 OP:edw  STATUS:               ID:20170102210639     3
 2017-01-02-2108-00M.COL___381                                                 6
 STAT SP IPHASW D HRMM SECON CODA AMPLIT PERI AZIMU VELO AIN AR TRES W  DIS CAZ7
 BAR2 EZ IP     C 21 9 15.95                             168   -0.2910 29.6 194 
 BAR2 EZ ES       21 9 31.28                             168   -0.4810 29.6 194 
 BAR2 EZ I        21 9 33.60        80.4 0.44            166           29.6 194 
 PAM  EZ EP     C 21 9 18.68                             153    0.3710 71.0  41 
 PAM  EN ES       21 9 35.50                             153    0.0710 71.0  41 
 PAM  EZ I        21 9 36.38        61.7 0.22            155           71.0  41 
 BRR  HZ IP     C 21 9 17.69                             153    0.0810 71.3 293 
 BRR  HN ES       21 9 34.59                             153    0.3910 71.3 293 
 BRR  HZ I        21 9 35.26       104.8 0.12            149           71.3 293 
 RUS  HZ IP     C 21 9 19.96                             142   -0.6510  106 178 
 RUS  HE ES       21 9 38.99                             142   -0.5410  106 178 
 RUS  HZ I        21 9 40.58        75.9 0.20            141            106 178 
 PTB  HZ EP   9 C 21 9 22.41                             131   -1.36 0  152 257 
 PTB  HN ES       21 9 43.91                             132    0.11 9  152 257 
 PTB  HZ I        21 9 46.50        58.2 0.10            129            152 257 
 TAM  HZ EP     D 21 9 24.35                             131    0.36 9  154 107 
 TAM  HN ES       21 9 46.07                             131    0.52 9  154 107 
 TAM  HZ I        21 9 46.59        42.2 0.28            132            154 107 
 ZAR  HZ EP       21 9 28.35                             122   -0.58 9  205 290 
 ZAR  HN ES       21 9 54.28                             122   -0.06 9  205 290 
 ZAR  HZ I        2110  0.37        61.3 0.22            121            205 290 
 CHI  HZ EP       21 9 34.47                             117   -0.33 8  255 195 
 CHI  HE ES       2110  5.07                             117    0.29 8  255 195 
 CHI  HZ I        2110  8.45        13.6 0.30            116            255 195 
 ROSC BZ EP   4 C 21 9 36.43                             116    1.20 0  259 211 
 ROSC BN ES       2110  6.39                             116    0.83 8  259 211 
 ROSC BZ I        2110 13.78        27.4 0.35            115            259 211 
 URE  HZ EP   2   21 9 36.62                             114   -0.92 4  285 291 
 URE  HN ES   4   2110  7.35                             114   -2.32 0  285 291 
 URE  HZ I        2110 17.33        33.4 0.22            112            285 291 
 GUY2CHZ EP   2   21 9 41.21                             112    0.55 4  307 234 
 GUY2CHE ES       2110 15.48                             112    0.26 7  307 234 
 GUY2CHZ  IAML    2110 24.34        36.3 0.70                           307 234 
 PTGC HZ EP   4   21 9 39.41                             111   -1.33 0  313 160 
 PTGC HN ES   4   2110 12.78                             111   -2.59 0  313 160 
 ELA  HZ EP   4   21 9 46.32                             110    2.39 0  335 229 
 ELA  HN ES       2110 21.17                             110    0.12 7  335 229 
 ELA  HZ I        2110 31.45        21.5 0.44            109            335 229 
 CBOC HZ EP   2   21 9 44.15                             110    0.31 3  338 251 
 CBOC HN ES       2110 21.32                             110    0.44 7  338 251 
 CBOC HZ I        2110 31.95        12.3 0.36            109            338 251 
 DBB  EZ EP   9   21 9 41.82                             109   -2.34 0  342 273 
 DBB  EN ES       2110 19.92                             110    0.80 7  342 273 
 DBB  EZ I        2110 25.08         9.7 0.22            108            342 273 
 APAC HZ EP   4   21 9 46.84                             106   -3.86 0  399 287 
 APAC HN ES   2   2110 33.14                             106    0.05 3  399 287 
 ORTC HZ EP       21 9 51.28                             106    0.22 6  402 216 
 ORTC HN ES       2110 34.21                             106    0.48 6  402 216 
 ORTC HZ I        2110 38.63        13.4 0.34            105            402 216 
 SJC  HZ EP   4   21 9 49.88                             106   -1.69 0  406 326 
 SJC  HN ES   4   2110 31.21                             106   -3.43 0  406 326 
 SJC  HZ I        2110 34.57         8.7 0.12            105            406 326 
 PAL  HZ EP       21 9 52.05                             106   -0.14 6  411 239 
 PAL  HN ES       2110 34.85                             106   -0.90 6  411 239 
 PAL  HZ I        2110 40.33         9.3 0.26            105            411 239 
 CRJC HZ EP   9   21 9 55.71                             104   -2.46 0  462   3 
 CRJC HE ES   2   2110 45.07                             103    1.14 2  462   3 
 CRJC HZ I        2110 49.63         7.6 0.18            103            462   3 
 YOT  HZ EP   4   21 9 57.15                             103   -2.99 0  478 229 
 YOT  HE ES   4   2110 52.96                             103    3.06 0  478 229 
 MACC HZ EP   4   2110  2.53                             102   -3.29 0  527 189 
 MACC HN ES   4   2110 55.32                             102   -4.69 0  527 189 
                                                                                
