 2014  6 2 2013 53.5 L   6.803 -73.123147.6  RSN 10 0.4 1.9LRSN                1
 GAP=139        1.07       3.7     5.1  7.0 -0.5199E+00  0.8844E+01 -0.1580E+01E
 Epicentro: LOS SANTOS - SANTANDER                                             3
 ACTION:UPD 14-07-01 22:50 OP:nd   STATUS:               ID:20140602201353 L   I
 OLDACT:UP  14-06-03 02:57 OP:cam  STATUS:               ID:20140602201000     3
 OLDACT:UP  14-06-03 02:57 OP:cam  STATUS:               ID:20140602201000     3
 OLDACT:REG 14-06-03 02:27 OP:cam  STATUS:               ID:20140602201000     3
 2014-06-02-2010-00M.COL___276                                                 6
 STAT SP IPHASW D HRMM SECON CODA AMPLIT PERI AZIMU VELO AIN AR TRES W  DIS CAZ7
 BAR2 SZ EP       2014 13.31                             170   -0.1110 24.3 196 
 BAR2 SZ ES       2014 28.12                             170   -0.8010 24.3 196 
 BAR2 SZ I        2014 31.78        13.4 0.28            170           24.3 196 
 BRR  HZ EP       2014 15.14                             152    0.1310 73.3 297 
 BRR  HN ES       2014 32.67                             152    0.9110 73.3 297 
 BRR  HZ I        2014 36.92        11.2 0.12            149           73.3 297 
 PAM  SZ EP     D 2014 16.25                             152    0.4010 75.5  38 
 PAM  SN ES   1   2014 33.39                             152    0.14 7 75.5  38 
 PAM  SZ I        2014 35.11         5.3 0.22            154           75.5  38 
 RUS  HZ EP       2014 17.68                             144    0.1910  101 178 
 RUS  HE ES       2014 36.08                             144   -0.1010  101 178 
 RUS  HZ I        2014 36.99         8.1 0.24            148            101 178 
 SPBC HZ EP       2014 22.70                             129    0.34 9  165 220 
 SPBC HE ES       2014 44.50                             129   -0.34 9  165 220 
 SPBC HZ I        2014 47.15        11.0 0.34            131            165 220 
 ZAR  HE ES       2014 51.91                             122   -0.01 8  206 292 
 ZAR  HZ I        2014 57.58        12.9 0.30            123            206 292 
 NOR  HZ EP   1   2014 29.33                             119   -0.29 6  237 235 
 NOR  HN ES       2014 57.96                             119    0.19 8  237 235 
 NOR  HZ I        2015  2.63         6.1 0.36            120            237 235 
 SML  HZ EP   1   2014 29.84                             118   -0.51 6  244 335 
 SML  HN ES       2014 58.25                             118   -0.82 8  244 335 
 SML  HZ I        2015  5.79         9.8 0.24            119            244 335 
 HEL  HZ EP   2   2014 34.01                             115   -0.12 4  275 256 
 GUY2CHZ EP   4   2014 38.87                             112    1.38 0  303 235 
 GUY2CHN ES   4   2015 13.86                             112    2.08 0  303 235 
 GUY2CHZ I        2015 22.15         4.4 0.52                           303 235 
                                                                                
