 2012  8 2 2343 36.4 L   6.769 -73.160142.0  RSN  6 0.3 1.9LRSN                1
 GAP=136        0.51       3.2     2.9  5.1  0.3258E+00  0.3367E+01 -0.9411E+00E
 Epicentro: LOS SANTOS - SANTANDER                                             3
 ACTION:UPD 12-09-10 11:53 OP:ep   STATUS:               ID:20120802234336 L   I
 2012-08-02-2340-00M.COL___215                                                 6
 STAT SP IPHASW D HRMM SECON CODA AMPLIT PERI AZIMU VELO AIN AR TRES W  DIS CAZ7
 BAR2 SZ ES   2   2344 10.12                             172   -0.29 5 19.7 187 
 BAR2 SZ I        2344 12.03        19.3 0.25                          19.7 187 
 BRR  HZ EP   1   2343 57.46                             152    0.30 7 71.5 302 
 BRR  HE ES   2   2344 14.13                             152    0.77 5 71.5 302 
 BRR  HZ I        2344 18.50        35.4 0.13                          71.5 302 
 PAM  SZ EP       2343 58.53                             149    0.0810 81.1  39 
 PAM  SN ES   1   2344 15.33                             149   -0.31 7 81.1  39 
 RUS  HZ EP       2343 59.60                             144    0.0610 97.3 175 
 RUS  HN ES   1   2344 17.62                             144    0.03 7 97.3 175 
 RUS  HZ I        2344 19.67         6.2 0.24                          97.3 175 
 PTB  HZ EP   1   2344  2.64                             131   -0.22 7  146 260 
 PTB  HN ES   1   2344 23.33                             131   -0.17 7  146 260 
 PTB  HZ I        2344 25.39         7.3 0.10                           146 260 
 ZAR  HZ EP   1   2344  8.54                             121   -0.05 6  204 293 
 ZAR  HN ES   1   2344 33.57                             121   -0.12 6  204 293 
 ZAR  HZ I        2344 40.01        11.8 0.29                           204 293 
                                                                                
