 2013  2 2 2215 29.1 L   6.776 -73.147138.3  RSN  7 0.5 1.4LRSN                1
 GAP=137        0.99       6.1     5.7  8.8  0.4004E+01  0.9952E+01  0.9028E+01E
 Epicentro: LOS SANTOS - SANTANDER                                             3
 ACTION:UPD 13-03-12 09:30 OP:ep   STATUS:               ID:20130202221529 L   I
 2013-02-02-2210-00M.COL___240                                                 6
 STAT SP IPHASW D HRMM SECON CODA AMPLIT PERI AZIMU VELO AIN AR TRES W  DIS CAZ7
 BAR2 SZ EP   1   2215 47.23                             171   -0.52 7 20.7 191 
 BAR2 SZ ES   1   2216  2.14                             171   -0.18 7 20.7 191 
 BAR2 SZ I        2216  3.44        10.4 0.16            170           20.7 191 
 BRR  HZ EP   1   2215 49.54                             151    0.05 7 72.4 300 
 BRR  HN ES   1   2216  6.20                             151    0.79 7 72.4 300 
 PAM  SZ EP   1   2215 50.50                             149   -0.13 7 79.5  38 
 PAM  SN ES   1   2216  7.20                             149   -0.24 7 79.5  38 
 RUS  HZ EP   1   2215 52.74                             143    0.83 7 98.0 176 
 RUS  HN ES   1   2216  9.80                             143    0.09 7 98.0 176 
 RUS  HZ I        2216 10.86         2.3 0.20            143           98.0 176 
 PTB  HZ EP   1   2215 54.74                             130   -0.65 7  147 260 
 PTB  HN ES   1   2216 15.14                             130   -0.77 7  147 260 
 PTB  HZ I        2216 17.54         4.9 0.14            131            147 260 
 ZAR  HN ES   1   2216 26.67                             121    0.52 6  205 293 
 CHI  HZ EP   1   2216  6.37                             116    0.28 6  246 195 
                                                                                
