 2014 12 2 2303 14.3 L   6.865 -73.124142.0  RSN  5 0.4 2.0LRSN                1
 GAP=248        0.76       6.1     6.1  8.5  0.2181E+02  0.3883E+00 -0.1296E+02E
 Epicentro: LOS SANTOS - SANTANDER                                             3
 ACTION:UPD 15-02-10 17:00 OP:nd   STATUS:               ID:20141202230314 L   I
 OLDACT:UP  14-12-03 06:16 OP:mh   STATUS:               ID:20141202225745     3
 OLDACT:UP  14-12-03 06:15 OP:mh   STATUS:               ID:20141202225745     3
 OLDACT:REG 14-12-03 04:08 OP:mh   STATUS:               ID:20141202225745     3
 2014-12-02-2257-45M.COL___306                                                 6
 STAT SP IPHASW D HRMM SECON CODA AMPLIT PERI AZIMU VELO AIN AR TRES W  DIS CAZ7
 RUS  HZ EP       23 3 38.17                             141   -0.0610  108 178 
 RUS  HN ES       23 3 57.07                             141    0.1910  108 178 
 RUS  HZ I        23 3 59.95         5.9 0.43            141            108 178 
 PTB  HZ EP   1   23 3 40.93                             130   -0.41 7  152 256 
 PTB  HN ES   1   23 4  2.26                             130   -0.16 7  152 256 
 PTB  HZ I        23 4  8.40         8.6 0.23            129            152 256 
 SPBC HZ EP   1   23 3 43.38                             127    0.16 7  170 218 
 SPBC HN ES   1   23 4  5.26                             127   -0.50 7  170 218 
 SPBC HZ I        23 4 11.55        18.3 0.46            126            170 218 
 ZAR  HZ EP   1   23 3 45.79                             122   -0.70 6  204 290 
 ZAR  HN ES       23 4 12.03                             122    0.45 9  204 290 
 ZAR  HZ I        23 4 18.15         7.9 0.09            122            204 290 
 TOL  SZ EP       23 4  3.82                             108    0.61 6  350 224 
 TOL  SN ES   1   23 4 41.40                             108    0.05 5  350 224 
 TOL  SZ I        23 4 48.20         9.8 0.32            110            350 224 
                                                                                
