 2015 12 2 2231 41.9 L   6.803 -73.164143.9  RSN 16 0.5 2.8LRSN                1
 GAP=134        1.20       3.1     4.2  5.9 -0.1331E+01  0.8996E+01 -0.8780E+00E
 Epicentro: LOS SANTOS - SANTANDER                                             3
 ACTION:UPD 16-02-04 15:02 OP:cam  STATUS:               ID:20151202223141 L   I
 OLDACT:UP  15-12-03 09:13 OP:ak   STATUS:               ID:20151202222749     3
 OLDACT:UP  15-12-03 09:11 OP:ak   STATUS:               ID:20151202222749     3
 OLDACT:REG 15-12-03 05:11 OP:ak   STATUS:               ID:20151202222749     3
 2015-12-02-2227-49M.COL___318                                                 6
 STAT SP IPHASW D HRMM SECON CODA AMPLIT PERI AZIMU VELO AIN AR TRES W  DIS CAZ7
 BAR2 EZ EP       2232  1.38                             170    0.1010 23.4 185 
 BAR2 EZ ES       2232 15.96                             170   -0.4510 23.4 185 
 BRR  HZ IP     C 2232  3.22                             153    0.5110 69.3 299 
 BRR  HE ES       2232 19.87                             153    0.9110 69.3 299 
 BRR  HZ I        2232 23.24        89.6 0.28            151           69.3 299 
 PAM  EZ EP       2232  4.23                             150    0.2810 78.4  41 
 PAM  EN ES       2232 21.04                             150   -0.1310 78.4  41 
 PAM  EZ I        2232 23.60       130.1 0.68            154           78.4  41 
 RUS  HZ EP       2232  5.10                             143   -0.3710  101 175 
 RUS  HN ES       2232 23.83                             143   -0.0510  101 175 
 RUS  HZ I        2232 24.81        38.1 0.24            146            101 175 
 PTB  HZ EP       2232  8.11                             132   -0.40 9  146 259 
 PTB  HN ES       2232 28.83                             132   -0.47 9  146 259 
 PTB  HZ I        2232 31.14        71.0 0.16            132            146 259 
 OCA  HZ EP       2232  9.67                             129   -0.31 9  160 354 
 OCA  HE ES       2232 31.51                             129   -0.40 9  160 354 
 OCA  HZ I        2232 34.84       129.9 0.24            131            160 354 
 SPBC HZ EP       2232 10.28                             129    0.15 9  162 218 
 SPBC HE ES       2232 32.52                             129    0.35 9  162 218 
 SPBC HZ I        2232 34.46        43.4 0.07            130            162 218 
 ZAR  HZ EP       2232 14.88                             122    0.89 9  202 292 
 ZAR  HN ES       2232 39.93                             122    0.88 9  202 292 
 ZAR  HZ I        2232 46.09        68.2 0.32            123            202 292 
 NOR  HZ EP       2232 17.82                             118    0.48 8  233 234 
 NOR  HN ES       2232 44.32                             118   -0.68 8  233 234 
 NOR  HZ I        2232 50.65        27.7 0.18            119            233 234 
 SML  HZ EP       2232 17.67                             117   -0.60 8  243 336 
 SML  HN ES       2232 46.56                             117   -0.10 8  243 336 
 SML  HZ I        2232 50.42        99.3 0.06            118            243 336 
 HEL  HZ EP   4   2232 23.17                             115    1.39 0  270 256 
 HEL  HN ES   4   2232 51.06                             115   -1.85 0  270 256 
 HEL  HZ I        2233  2.13        19.7 0.26            115            270 256 
 URE  HZ EP       2232 21.83                             113   -0.80 7  282 292 
 URE  HN ES       2232 53.86                             113   -0.56 7  282 292 
 URE  HZ I        2232 54.96        29.1 0.12            114            282 292 
 GUY2CHZ EP   2   2232 25.97                             112    0.74 4  300 235 
 GUY2CHN ES   4   2233  0.29                             112    1.24 0  300 235 
 GUY2CHZ I        2233  7.70        17.9 0.38                           300 235 
 PTGC HZ EP   4   2232 24.45                             111   -1.31 0  310 158 
 PTGC HE ES   4   2232 57.71                             111   -2.28 0  310 158 
 DBB  SZ EP       2232 29.52                             109    0.48 7  337 274 
 DBB  SZ ES       2233  5.28                             109   -0.55 7  337 274 
 DBB  SZ I        2233  9.47        73.2 0.50            110            337 274 
 PRA  HZ EP       2232 35.99                             106    0.75 6  391 209 
 PRA  HN ES       2233 16.45                             106   -0.43 6  391 209 
 PRA  HZ I        2233 24.13        13.7 0.48            108            391 209 
 SJC  HZ EP   4   2232 35.80                             105   -1.41 0  408 327 
 SJC  HN ES   4   2233 17.19                             105   -3.19 0  408 327 
 SJC  HZ I        2233 21.31        12.7 0.70            107            408 327 
                                                                                
