 2012 10 2 2157 32.3 L   6.760 -73.058147.4  RSN  6 0.3 2.1LRSN                1
 GAP=150        0.74       3.8     5.3  6.5  0.1311E+01  0.3361E+01  0.4972E+01E
 Epicentro: LOS SANTOS - SANTANDER                                             3
 ACTION:UPD 12-11-22 17:01 OP:ep   STATUS:               ID:20121002215732 L   I
 2012-10-02-2150-00M.COL___223                                                 6
 STAT SP IPHASW D HRMM SECON CODA AMPLIT PERI AZIMU VELO AIN AR TRES W  DIS CAZ7
 BAR2 SZ EP       2157 52.03                             171   -0.0710 23.0 217 
 BAR2 SZ ES   1   2158  6.86                             171   -0.70 7 23.0 217 
 BAR2 SZ I        2158  8.79        20.3 0.36                          23.0 217 
 PAM  SZ EP       2157 54.83                             151    0.2810 75.4  32 
 PAM  SN ES   1   2158 12.15                             151    0.23 7 75.4  32 
 PAM  SN I        2158 12.50        14.1 0.40                          75.4  32 
 BRR  HZ EP       2157 53.85                             149   -0.3810 81.8 298 
 BRR  HE ES   1   2158 11.37                             149    0.01 7 81.8 298 
 BRR  HN I        2158 11.75        38.9 0.20                          81.8 298 
 RUS  HZ EP       2157 55.92                             145    0.0610 95.9 182 
 RUS  HN ES   1   2158 14.66                             145    0.40 7 95.9 182 
 ZAR  HN ES   1   2158 32.61                             121    0.43 6  215 292 
 ZAR  HN I        2158 35.81        14.1 0.24                           215 292 
 CHI  HZ EP   1   2158  9.50                             117   -0.40 6  247 198 
 CHI  HN ES   1   2158 39.60                             117    0.36 6  247 198 
 CHI  HN I        2158 41.93         7.8 0.28                           247 198 
                                                                                
