 2017 12 2 2124 27.5 L   6.789 -73.176141.4  RSN  6 0.3 1.7LRSN                1
 GAP=133        0.69       2.9     3.2  5.2  0.4467E-01  0.6283E+01 -0.3138E+00E
 Epicentro: LOS SANTOS - SANTANDER                                             3
 ACTION:UPD 18-01-04 13:16 OP:rebc STATUS:               ID:20171202212427 L   I
 OLDACT:UP  17-12-03 04:05 OP:edw  STATUS:               ID:20171202211741     3
 OLDACT:UP  17-12-03 04:04 OP:edw  STATUS:               ID:20171202211741     3
 OLDACT:REG 17-12-03 03:28 OP:osc  STATUS:               ID:20171202211741     3
 2017-12-02-2118-00M.COL___495                                                 6
 STAT SP IPHASW D HRMM SECON CODA AMPLIT PERI AZIMU VELO AIN AR TRES W  DIS CAZ7
 BAR2 EZ EP       2124 46.59                             171   -0.0110 21.8 182 
 BAR2 EZ ES       2125  1.48                             171    0.0110 21.8 182 
 BAR2 EZ I        2125  2.41        12.6 0.30            172           21.8 182 
 PAM  EZ EP       2124 49.40                             149   -0.0710 80.5  41 
 PAM  EN ES       2125  6.42                             149   -0.1610 80.5  41 
 PAM  EZ I        2125  8.33        11.6 0.50            151           80.5  41 
 RUS  HZ EP       2124 51.17                             143    0.3910 99.6 174 
 RUS  HN ES       2125  9.09                             143    0.1710 99.6 174 
 RUS  HZ I        2125 11.11         5.3 0.18            146           99.6 174 
 PTB  HZ EP       2124 53.27                             132   -0.55 9  144 259 
 PTB  HN ES       2125 14.32                             132   -0.01 9  144 259 
 PTB  HZ I        2125 16.95         4.7 0.18            132            144 259 
 ZAR  HZ EP       2124 59.79                             122    0.37 9  201 293 
 ZAR  HE ES       2125 24.45                             122    0.15 9  201 293 
 ZAR  HZ I        2125 30.02         5.2 0.28            123            201 293 
 CHI  HN ES       2125 33.47                             116   -0.34 8  247 194 
                                                                                
