 2016  3 2 2358 43.1 L   6.348 -73.690 97.3  RSN 11 0.3 2.0LRSN                1
 GAP= 63        0.83       2.1     2.1  5.3 -0.1362E+01  0.3374E+01 -0.2833E+01E
 Epicentro: SANTA HELENA DEL OPON - SANTANDER                                  3
 ACTION:UPD 16-05-13 21:21 OP:cam  STATUS:               ID:20160302235843 L   I
 OLDACT:REG 16-03-03 03:12 OP:cara STATUS:               ID:20160302235450     3
 2016-03-02-2354-50M.COL___322                                                 6
 STAT SP IPHASW D HRMM SECON CODA AMPLIT PERI AZIMU VELO AIN AR TRES W  DIS CAZ7
 BAR2 EZ IP     D 2358 59.17                             145    0.1910 62.3  64 
 BAR2 EZ ES       2359 11.74                             145    0.3910 62.3  64 
 BAR2 EZ I        2359 13.63        94.4 0.16            151           62.3  64 
 RUS  HZ EP       2359  0.47                             137   -0.5510 83.9 127 
 RUS  HN ES       2359 15.15                             137    0.1710 83.9 127 
 RUS  HZ I        2359 17.68        27.7 0.40            142           83.9 127 
 PTB  HZ EP   4   2358 59.74                             135   -0.92 0 87.4 284 
 PTB  HN ES       2359 13.98                             135   -0.3610 87.4 284 
 PTB  HZ I        2359 17.17        19.9 0.28            137           87.4 284 
 SPBC HZ EP       2359  0.27                             135   -0.5310 87.8 209 
 SPBC HE ES       2359 14.52                             135   -0.0710 87.8 209 
 SPBC HZ I        2359 20.40        31.3 0.10            138           87.8 209 
 PAM  EZ EP       2359  7.59                             118   -0.45 9  155  45 
 PAM  EN ES       2359 27.44                             118   -0.04 9  155  45 
 PAM  EZ I        2359 29.00        12.6 0.14            123            155  45 
 NOR  HN ES       2359 27.06                             118    0.24 9  157 236 
 NOR  HZ I        2359 32.28        14.6 0.12            120            157 236 
 ZAR  HZ EP       2359 10.23                             114   -0.06 9  181 315 
 ZAR  HN ES       2359 31.75                             114    0.27 9  181 315 
 ZAR  HZ I        2359 37.24        21.9 0.32            116            181 315 
 CHI  HZ EP   4   2359 10.76                             113   -1.09 0  190 181 
 CHI  HE ES       2359 34.45                             113    0.19 9  190 181 
 CHI  HZ I        2359 38.33         5.9 0.24            116            190 181 
 HEL  HZ EP       2359 13.73                             111    0.32 9  204 265 
 HEL  HE ES       2359 36.71                             111   -0.33 9  204 265 
 HEL  HZ I        2359 40.06         7.6 0.24            113            204 265 
 OCA  HZ EP       2359 14.29                             110    0.12 8  213  11 
 OCA  HE ES       2359 38.46                             110    0.07 8  213  11 
 GUY2CHZ EP     D 2359 16.43                             109    0.68 8  223 236 
 GUY2CHN ES       2359 41.31                             109    0.10 8  223 236 
 GUY2CHZ I        2359 47.36         8.7 0.56                           223 236 
                                                                                
