 2017 10 2 2155  6.2 L   6.793 -73.132151.9  RSN 12 0.5 2.2LRSN                1
 GAP=121        1.01       3.3     4.4  6.3 -0.2164E+01  0.7224E+01 -0.1890E+01E
 Epicentro: LOS SANTOS - SANTANDER                                             3
 ACTION:UPD 17-11-07 19:27 OP:rebc STATUS:               ID:20171002215506 L   I
 OLDACT:UP  17-10-03 05:09 OP:dani STATUS:               ID:20171002214743     3
 OLDACT:UP  17-10-03 05:09 OP:dani STATUS:               ID:20171002214743     3
 OLDACT:UP  17-10-03 05:08 OP:dani STATUS:               ID:20171002214743     3
 OLDACT:UP  17-10-03 05:08 OP:dani STATUS:               ID:20171002214743     3
 OLDACT:UP  17-10-03 05:07 OP:dani STATUS:               ID:20171002214743     3
 OLDACT:REG 17-10-03 04:21 OP:dani STATUS:               ID:20171002214743     3
 2017-10-02-2148-00M.COL___435                                                 6
 STAT SP IPHASW D HRMM SECON CODA AMPLIT PERI AZIMU VELO AIN AR TRES W  DIS CAZ7
 PAM  EZ EP     D 2155 29.50                             152    0.4610 77.1  38 
 PAM  EE ES       2155 46.96                             152    0.0910 77.1  38 
 PAM  EZ I        2155 49.27        24.7 0.62            156           77.1  38 
 RUS  HZ EP       2155 30.40                             145   -0.0910 99.7 177 
 RUS  HN ES       2155 49.01                             145   -0.4310 99.7 177 
 RUS  HZ I        2155 50.05        17.6 0.32            147           99.7 177 
 SPBC HZ EP       2155 35.45                             130    0.25 9  164 220 
 SPBC HE ES       2155 57.51                             130   -0.31 9  164 220 
 SPBC HZ I        2155 59.83        17.9 0.21            130            164 220 
 ZAR  HZ EP       2155 39.52                             123    0.31 8  206 292 
 ZAR  HN ES       2156  5.11                             123    0.15 8  206 292 
 ZAR  HZ I        2156 12.29        17.8 0.32            123            206 292 
 NOR  HZ EP       2155 42.71                             120    0.35 8  235 235 
 NOR  HN ES       2156 10.11                             120   -0.46 8  235 235 
 NOR  HZ I        2156 15.57         9.2 0.27            120            235 235 
 CHI  HZ EP       2155 44.41                             118    0.21 8  248 196 
 CHI  HN ES       2156 14.50                             118    0.66 8  248 196 
 CHI  HZ I        2156 23.19         3.8 0.46            120            248 196 
 URE  HZ EP       2155 47.27                             115   -0.48 7  285 292 
 URE  HN ES   3   2156 18.68                             115   -1.48 2  285 292 
 URE  HZ I        2156 31.59        12.1 0.34            115            285 292 
 GUY2CHZ EP   9   2155 52.84                             113    2.67 0  302 235 
 GUY2CHN ES       2156 28.10                             113    0.95 7  302 235 
 GUY2CHZ I        2156 33.76         5.5 0.38                           302 235 
 PTGC HZ EP       2155 49.28                             113   -0.91 7  307 159 
 PTGC HN ES   3   2156 22.68                             113   -1.82 2  307 159 
 PTGC HZ I        2156 26.89         8.8 0.32            115            307 159 
 LL6C HZ EP       2155 52.28                             111    0.03 7  326 357 
 PRA  HZ EP       2156  0.72                             107    0.79 6  392 210 
 PRA  HN ES   3   2156 43.10                             107    1.25 1  392 210 
 PRA  HZ I        2156 45.58         7.0 0.30            108            392 210 
 SJC  HZ EP       2156  1.22                             107   -0.91 6  411 327 
                                                                                
