 2012 12 2 2116  4.3 L   6.838 -73.212140.6  RSN  6 0.4 1.5LRSN                1
 GAP=127        0.80       5.4     4.8  7.9  0.2319E+00  0.1197E+02  0.3445E+01E
 Epicentro: ZAPATOCA - SANTANDER                                               3
 ACTION:UPD 13-01-04 14:25 OP:ep   STATUS:               ID:20121202211604 L   I
 2012-12-02-2110-00M.COL___236                                                 6
 STAT SP IPHASW D HRMM SECON CODA AMPLIT PERI AZIMU VELO AIN AR TRES W  DIS CAZ7
 GIR2 SZ ES   1   2116 38.08                             169    0.02 7 26.7   4 
 GIR2 SZ I        2116 39.92         5.4 0.38                          26.7   4 
 BAR2 SZ EP   1   2116 23.24                             168   -0.21 7 27.4 173 
 BAR2 SZ ES   1   2116 38.46                             168    0.11 7 27.4 173 
 BAR2 SZ I        2116 39.91        10.6 0.22                          27.4 173 
 PAM  SZ EP   1   2116 26.17                             149    0.04 7 79.2  46 
 PAM  SE ES   1   2116 42.88                             149   -0.24 7 79.2  46 
 PAM  SZ I        2116 45.27         7.5 0.52                          79.2  46 
 RUS  HZ EP   1   2116 27.94                             141   -0.03 7  106 172 
 RUS  HN ES   1   2116 46.85                             141    0.46 7  106 172 
 RUS  HZ I        2116 47.95         3.2 0.32                           106 172 
 PTB  HZ EP   1   2116 30.31                             132   -0.01 7  141 257 
 PTB  HN ES   1   2116 49.71                             132   -0.87 7  141 257 
 PTB  HZ I        2116 53.85         4.1 0.15                           141 257 
 ZAR  HN ES   1   2117  0.79                             122    0.84 6  196 292 
 ZAR  HZ I        2117  8.12         3.4 0.18                           196 292 
                                                                                
