 2012 12 2 2108 14.7 L   6.824 -73.222135.9  RSN  8 0.3 1.7LRSN                1
 GAP=125        0.58       2.7     3.9  5.0 -0.7406E+00  0.8024E+01 -0.2579E+01E
 Epicentro: ZAPATOCA - SANTANDER                                               3
 ACTION:UPD 13-01-04 14:25 OP:ep   STATUS:               ID:20121202210814 L   I
 2012-12-02-2100-00M.COL___236                                                 6
 STAT SP IPHASW D HRMM SECON CODA AMPLIT PERI AZIMU VELO AIN AR TRES W  DIS CAZ7
 BAR2 SZ EP   1   21 8 33.11                             169   -0.12 7 26.0 170 
 BAR2 SZ ES   1   21 8 47.63                             169   -0.03 7 26.0 170 
 BAR2 SZ I        21 8 48.91        31.9 0.20                          26.0 170 
 GIR2 SZ EP   1   21 8 33.37                             168    0.23 7 28.3   6 
 GIR2 SZ ES   1   21 8 47.68                             168    0.17 7 28.3   6 
 GIR2 SZ I        21 8 50.21         9.3 0.40                          28.3   6 
 PAM  SZ EP   1   21 8 36.29                             148    0.16 7 81.1  45 
 PAM  SN ES   1   21 8 52.94                             148    0.10 7 81.1  45 
 PAM  SZ I        21 8 54.64         5.8 0.18                          81.1  45 
 RUS  HZ EP   1   21 8 37.63                             141   -0.16 7  104 172 
 RUS  HN ES   1   21 8 55.53                             141   -0.25 7  104 172 
 RUS  HZ I        21 8 56.50         6.4 0.24                           104 172 
 PTB  HZ EP   1   21 8 40.07                             131   -0.11 7  140 257 
 PTB  HN ES   1   21 9  0.07                             131    0.02 7  140 257 
 PTB  HZ I        21 9  4.09        10.1 0.16                           140 257 
 OCA  HN ES   1   21 9  3.12                             128   -0.06 7  157 356 
 ZAR  HZ EP   1   21 8 46.41                             121    0.80 6  195 292 
 ZAR  HZ I        21 9 19.86         6.1 0.28                           195 292 
 SML  HZ EP   1   21 8 49.99                             116   -0.17 6  238 337 
 SML  HN ES   1   21 9 17.11                             116   -0.70 6  238 337 
                                                                                
