 2012 12 2 2026  4.4 L   6.826 -73.159142.1  RSN 12 0.4 2.8LRSN                1
 GAP= 69        0.67       2.5     2.5  4.3 -0.1959E+00  0.2944E+01  0.5383E+00E
 Epicentro: LOS SANTOS - SANTANDER                                             3
 ACTION:UPD 13-01-04 14:25 OP:ep   STATUS:               ID:20121202202604 L   I
 2012-12-02-2020-00M.COL___236                                                 6
 STAT SP IPHASW D HRMM SECON CODA AMPLIT PERI AZIMU VELO AIN AR TRES W  DIS CAZ7
 BAR2 SZ IP       2026 23.64                             169    0.0210 26.0 186 
 BAR2 SZ ES   1   2026 38.56                             169   -0.07 7 26.0 186 
 BAR2 SZ I        2026 39.55       252.1 0.28                          26.0 186 
 GIR2 SZ EP     C 2026 23.58                             168    0.0510 28.2 352 
 GIR2 SZ ES   1   2026 38.97                             168    0.50 7 28.2 352 
 GIR2 SZ I        2026 40.41       123.3 0.42                          28.2 352 
 PAM  SZ EP   1   2026 26.37                             150    0.25 7 76.2  42 
 PAM  SE ES   1   2026 43.20                             150    0.11 7 76.2  42 
 PAM  SZ I        2026 45.52       163.2 0.50                          76.2  42 
 RUS  HZ EP   1   2026 27.75                             142   -0.23 7  104 175 
 RUS  HN ES   1   2026 46.10                             142   -0.30 7  104 175 
 RUS  HZ I        2026 48.06        94.6 0.34                           104 175 
 PTB  HZ EP   1   2026 30.52                             131   -0.44 7  147 258 
 PTB  HN ES   1   2026 51.07                             131   -0.63 7  147 258 
 PTB  HZ I        2026 56.23        74.8 0.18                           147 258 
 TAM  HE ES   1   2026 53.69                             129    0.20 7  157 106 
 OCA  HZ EP   1   2026 31.77                             129   -0.34 7  157 354 
 OCA  HE ES   1   2026 53.35                             129   -0.40 7  157 354 
 TAM  HZ IP     C 2026 32.05                             129    0.08 9  157 106 
 OCA  HZ I        2026 56.65        64.1 0.22                           157 354 
 TAM  HZ I        2026 54.29        35.9 0.22                           157 106 
 ZAR  HZ EP   1   2026 36.60                             122    0.28 6  202 292 
 ZAR  HN ES   1   2027  1.71                             122    0.47 6  202 292 
 ZAR  HZ I        2027  7.26       100.1 0.30                           202 292 
 NOR  HZ EP   1   2026 40.12                             118    0.18 6  235 234 
 NOR  HE ES   1   2027  7.59                             118   -0.09 6  235 234 
 NOR  HZ I        2027 14.70        57.9 0.16                           235 234 
 SML  HZ EP   1   2026 40.19                             117   -0.25 6  240 335 
 SML  HE ES   1   2027  8.16                             117   -0.41 6  240 335 
 HEL  HZ EP   1   2026 45.34                             114    1.02 6  271 255 
 HEL  HN ES   1   2027 15.98                             114    0.51 6  271 255 
 HEL  HZ I        2027 21.67        37.3 0.70                           271 255 
 URE  HN ES   4   2027 14.32                             113   -2.35 0  281 291 
 PRA  HZ EP   1   2026 57.73                             106   -0.24 4  394 209 
 PRA  HN ES   1   2027 39.47                             106   -0.31 4  394 209 
 PRA  HZ I        2027 44.49        30.6 0.32                           394 209 
                                                                                
