 2012  1 2 2228 10.7 L   6.750 -73.197148.8  RSN  4 0.3 1.5LRSN                1
 GAP=228        0.55       6.8     9.3  8.0  0.3795E+02 -0.1824E+01  0.1523E+01E
 Epicentro: VILLANUEVA - SANTANDER                                             3
 ACTION:UP  12-02-03 08:13 OP:REBC STATUS:               ID:20120102222810 L   I
 2012-01-02-2220-49S.COL___155                                                 6
 STAT SP IPHASW D HRMM SECON CODA AMPLIT PERI AZIMU VELO SNR AR TRES W  DIS CAZ7
 BRR  HZ EP   1   2228 31.79                             154    -0.3 7   69 305 
 BRR  HZ I        2228 32.10        10.4 0.20                            69 305 
 BRR  HN ES   2   2228 49.17                             154     0.4 5   69 305 
 RUS  HZ EP   2   2228 34.84                             146     0.4 5   96 172 
 RUS  HE ES   1   2228 52.73                             146    -0.2 7   96 172 
 PTB  HN ES   2   2228 58.01                             134    -0.1 5  141 261 
 CHI  HZ EP   1   2228 47.95                             118     0.1 6  242 194 
 CHI  HZ I        2228 48.26         1.1 0.28                           242 194 
                                                                                
