 2014 10 2 2127 51.9 L   6.772 -73.136152.8  RSN 14 0.4 2.2LRSN                1
 GAP=201        0.88       3.3     4.9  5.5  0.2410E+01  0.2024E+01  0.3471E+01E
 Epicentro: LOS SANTOS - SANTANDER                                             3
 ACTION:UPD 14-11-29 23:46 OP:nd   STATUS:               ID:20141002212751 L   I
 OLDACT:UP  14-10-03 11:01 OP:spq  STATUS:               ID:20141002211750     3
 OLDACT:REG 14-10-03 06:28 OP:spq  STATUS:               ID:20141002211750     3
 2014-10-02-2117-50M.COL___292                                                 6
 STAT SP IPHASW D HRMM SECON CODA AMPLIT PERI AZIMU VELO AIN AR TRES W  DIS CAZ7
 BAR2 SZ EP       2128 12.30                             172   -0.0210 20.6 195 
 BAR2 SZ ES   1   2128 28.09                             172   -0.16 7 20.6 195 
 BAR2 SZ I        2128 29.01        26.5 0.28            166           20.6 195 
 BRR  HZ EP       2128 14.12                             153    0.1810 73.6 300 
 BRR  HN ES       2128 31.68                             153    0.5510 73.6 300 
 BRR  HZ I        2128 36.39        15.2 0.24            149           73.6 300 
 RUS  HZ EP   1   2128 16.26                             146    0.13 7 97.5 177 
 RUS  HE ES   1   2128 34.29                             146   -0.74 7 97.5 177 
 PTB  HZ EP       2128 18.91                             133   -0.58 9  148 260 
 PTB  HN ES       2128 40.47                             133   -0.54 9  148 260 
 PTB  HZ I        2128 46.29        16.9 0.36            131            148 260 
 SPBC HZ EP       2128 20.88                             131    0.09 9  162 220 
 SPBC HE ES       2128 43.80                             131    0.48 9  162 220 
 SPBC HZ I        2128 50.45        25.4 0.30            129            162 220 
 ZAR  HN ES       2128 51.15                             124    0.28 8  206 293 
 ZAR  HZ I        2128 56.86        16.9 0.50            123            206 293 
 CHI  HZ EP       2128 30.39                             119    0.68 8  246 196 
 CHI  HN ES   1   2128 59.03                             119   -0.17 6  246 196 
 CHI  HZ I        2129  5.61         4.8 0.30            119            246 196 
 SML  HZ EP   1   2128 28.67                             118   -0.60 6  247 335 
 SML  HE ES   1   2128 58.34                             118   -0.08 6  247 335 
 SML  HZ I        2129  0.20        10.5 0.14            119            247 335 
 GUY2CHZ EP   1   2128 36.10                             114    0.36 5  300 235 
 GUY2CHN ES   4   2129 12.57                             114    2.63 0  300 235 
 GUY2CHZ I        2129 19.14        10.1 0.78                           300 235 
 RREF HZ EP   1   2128 38.02                             112   -0.20 5  321 230 
 RREF HN ES       2129 13.79                             112   -0.57 7  321 230 
 RREF HZ I        2129 16.90         7.2 0.26            112            321 230 
 TOL  SZ EP   4   2128 41.25                             111    0.97 0  342 225 
 TOL  SN ES   4   2129 20.91                             111    2.88 0  342 225 
 TOL  SZ I        2129 25.52        12.8 0.54            111            342 225 
 PRA  HZ EP   1   2128 45.37                             108   -0.05 4  390 210 
 PRA  HN ES   1   2129 27.64                             108    0.47 4  390 210 
 PRA  HZ I        2129 30.37         3.8 0.28            108            390 210 
 ORTC HZ EP   1   2128 45.97                             108    0.12 4  394 217 
 ORTC HE ES   4   2129 27.47                             108   -0.47 0  394 217 
 ORTC HZ I        2129 34.13         3.5 0.28            108            394 217 
 SJC  HZ EP   4   2128 46.53                             107   -1.53 0  412 327 
 SJC  HN ES   4   2129 27.50                             107   -4.37 0  412 327 
 SJC  HZ I        2129 35.75         2.7 0.54            107            412 327 
                                                                                
