 2014  2 2 2343  8.9 L   6.809 -73.123143.9  RSN 19 0.5 2.3LRSN                1
 GAP= 67        1.02       2.6     4.0  5.1 -0.5037E+00  0.4466E+01  0.1340E+01E
 Epicentro: LOS SANTOS - SANTANDER                                             3
 ACTION:UPD 14-03-10 08:07 OP:ep   STATUS:               ID:20140202234308 L   I
 OLDACT:UP  14-02-02 23:11 OP:cam  STATUS:               ID:20140202234000     3
 OLDACT:UP  14-02-02 23:03 OP:cam  STATUS:               ID:20140202234000     3
 OLDACT:UP  14-02-02 23:03 OP:cam  STATUS:               ID:20140202234000     3
 OLDACT:REG 14-02-02 21:36 OP:cam  STATUS:               ID:20140202234000     3
 2014-02-02-2340-00M.COL___288                                                 6
 STAT SP IPHASW D HRMM SECON CODA AMPLIT PERI AZIMU VELO AIN AR TRES W  DIS CAZ7
 BAR2 SZ EP       2343 28.34                             170    0.0410 24.9 195 
 BAR2 SZ ES       2343 43.14                             170   -0.3210 24.9 195 
 BAR2 SZ I        2343 44.14       115.9 0.30            169           24.9 195 
 BRR  HZ IP     C 2343 30.24                             152    0.3210 73.0 297 
 BRR  HN ES       2343 47.10                             152    0.7710 73.0 297 
 BRR  HZ I        2343 49.93        43.9 0.36            145           73.0 297 
 PAM  SZ EP       2343 31.35                             151    0.6110 75.0  39 
 PAM  SN ES       2343 48.09                             151    0.2910 75.0  39 
 PAM  SZ I        2343 50.25        50.9 0.48            148           75.0  39 
 RUS  HZ EP       2343 32.48                             143   -0.0210  101 178 
 RUS  HN ES       2343 50.65                             143   -0.2810  101 178 
 RUS  HZ I        2343 52.79        12.0 0.20            140            101 178 
 PTB  HZ EP       2343 35.43                             131   -0.50 9  150 259 
 PTB  HN ES   4   2343 55.18                             131   -1.86 0  150 259 
 PTB  HZ I        2343 57.62        24.5 0.42            125            150 259 
 TAM  HZ EP   2   2343 36.95                             131    0.76 5  153 106 
 OCA  HN ES       2343 57.98                             129   -0.90 9  160 352 
 SPBC HZ EP       2343 37.50                             128    0.05 9  166 219 
 SPBC HN ES       2343 59.17                             128   -0.58 9  166 219 
 SPBC HZ I        2344  8.87        16.5 0.34            123            166 219 
 ZAR  HZ EP   2   2343 41.80                             122    0.40 4  206 292 
 ZAR  HN ES       2344  6.93                             122    0.16 8  206 292 
 ZAR  HZ I        2344 13.06        25.3 0.32            116            206 292 
 NOR  HZ EP       2343 45.20                             118    0.43 8  237 235 
 NOR  HN ES       2344 12.87                             118    0.09 8  237 235 
 NOR  HZ I        2344 13.97        13.6 0.12            113            237 235 
 SML  HZ EP   1   2343 44.99                             117   -0.41 6  244 335 
 SML  HE ES       2344 13.26                             117   -0.64 8  244 335 
 SML  HZ I        2344 16.73        21.9 0.26            112            244 335 
 CHI  HZ EP       2343 46.88                             117    0.24 8  250 196 
 CHI  HN ES       2344 16.20                             117    0.09 8  250 196 
 CHI  HZ I        2344 23.09         4.5 0.62            113            250 196 
 HEL  HZ EP   4   2343 50.92                             114    1.63 0  275 256 
 HEL  HN ES   2   2344 21.00                             114    0.19 4  275 256 
 HEL  HZ I        2344 27.58         9.4 0.42            110            275 256 
 GUY2CHZ EP   1   2343 53.34                             112    0.65 5  304 235 
 PTGC HZ EP       2343 51.88                             111   -0.76 7  309 159 
 PTGC HN ES   4   2344 25.36                             111   -1.43 0  309 159 
 RREF BZ EP   4   2343 56.85                             110    1.63 0  324 230 
 DBB  SZ EP   1   2343 56.47                             109   -0.08 5  342 274 
 COD  HZ EP   1   2343 56.42                             109   -0.66 5  348 354 
 COD  HE ES   1   2344 35.46                             109    0.77 5  348 354 
 PRA  HZ EP   2   2344  3.04                             106    0.47 3  394 210 
 SJC  HZ EP   4   2344  3.08                             105   -1.35 0  410 327 
 SJC  HZ I        2344 48.16         5.8 0.56            102            410 327 
                                                                                
