 2015  8 2 2028 38.0 L   6.790 -73.140138.2  RSN 16 0.4 2.2LRSN                1
 GAP=138        1.00       2.5     3.6  5.0 -0.1332E+01  0.8063E+01  0.9861E+00E
 Epicentro: LOS SANTOS - SANTANDER                                             3
 ACTION:UPD 15-09-15 22:59 OP:cam  STATUS:               ID:20150802202838 L   I
 OLDACT:UP  15-08-03 03:47 OP:ak   STATUS:               ID:20150802202750     3
 OLDACT:REG 15-08-03 02:14 OP:ak   STATUS:               ID:20150802202750     3
 2015-08-02-2027-50M.COL___349                                                 6
 STAT SP IPHASW D HRMM SECON CODA AMPLIT PERI AZIMU VELO AIN AR TRES W  DIS CAZ7
 BAR2 EZ EP       2028 56.72                             170    0.0510 22.3 192 
 BAR2 EZ ES       2029 10.46                             170   -0.7910 22.3 192 
 BAR2 EZ I        2029 12.46        44.7 0.30            169           22.3 192 
 BRR  HZ EP       2028 58.63                             151    0.2610 72.3 299 
 BRR  HN ES       2029 14.99                             151    0.7110 72.3 299 
 BRR  HZ I        2029 18.56        35.3 0.38            149           72.3 299 
 PAM  EZ EP       2028 59.47                             149    0.0610 77.9  39 
 PAM  EE ES       2029 16.40                             149    0.2610 77.9  39 
 PAM  EZ I        2029 18.54        41.4 0.46            154           77.9  39 
 RUS  HZ EP       2029  0.77                             142   -0.1210 99.4 176 
 RUS  HE ES       2029 18.97                             142    0.2010 99.4 176 
 RUS  HZ I        2029 21.08        32.1 0.30            144           99.4 176 
 OCA  HZ EP       2029  6.16                             128    0.34 9  161 353 
 OCA  HN ES       2029 27.33                             128   -0.21 9  161 353 
 OCA  HZ I        2029 31.43                             130            161 353 
 ZAR  HZ EP   1   2029 10.86                             120    0.82 6  205 292 
 ZAR  HN ES       2029 34.88                             120   -0.18 9  205 292 
 ZAR  HZ I        2029 40.57        27.1 0.50            121            205 292 
 NOR  HZ EP       2029 13.18                             117   -0.08 8  235 235 
 NOR  HN ES       2029 40.34                             117   -0.44 8  235 235 
 NOR  HZ I        2029 42.50        13.5 0.27            118            235 235 
 SML  HZ EP       2029 13.57                             116   -0.76 8  245 335 
 SML  HN ES       2029 41.93                             116   -0.76 8  245 335 
 SML  HZ I        2029 44.79        11.7 0.11            117            245 335 
 CHI  HZ EP       2029 15.21                             116    0.05 8  248 195 
 CHI  HN ES       2029 44.08                             116   -0.08 8  248 195 
 CHI  HZ I        2029 48.80         6.3 0.38            117            248 195 
 HEL  HZ EP       2029 18.58                             113    0.73 8  272 256 
 HEL  HN ES       2029 49.75                             113    0.80 8  272 256 
 HEL  HZ I        2029 54.38         7.4 0.40            114            272 256 
 URE  HZ EP   1   2029 18.71                             112   -0.09 6  285 292 
 URE  HE ES   4   2029 47.84                             112   -2.81 0  285 292 
 GUY2CHZ EP       2029 21.48                             111    0.25 7  301 235 
 GUY2CHN ES       2029 54.45                             111   -0.51 7  301 235 
 GUY2CHZ I        2030  2.07         5.9 0.34                           301 235 
 ELA  HZ EP       2029 24.44                             109   -0.05 7  329 230 
 ELA  HN ES       2030  0.92                             109    0.16 7  329 230 
 ELA  HZ I        2030 12.96         6.8 0.31            110            329 230 
 DBB  SZ EP       2029 24.76                             108   -0.48 7  340 274 
 DBB  SZ ES       2030  2.13                             108    0.03 7  340 274 
 TOL  SZ EP       2029 26.17                             108    0.28 7  343 225 
 TOL  SN ES       2030  2.58                             108   -0.69 7  343 225 
 TOL  SZ I        2030 11.48         5.8 0.40            109            343 225 
 MON  HZ EP   4   2029 24.52                             107   -2.31 0  355 308 
 MON  HN ES   4   2030  1.83                             107   -3.12 0  355 308 
 MON  HZ I        2030  9.58         2.2 0.61            108            355 308 
                                                                                
