 2013  9 2 2014  8.7 L   6.780 -73.180136.0  RSN  4 0.3 1.4LRSN                1
 GAP=133        0.66       3.4     3.1  7.2 -0.2981E+00  0.8247E+01 -0.1381E+01E
 Epicentro: LOS SANTOS - SANTANDER                                             3
 ACTION:UPD 13-10-22 09:19 OP:ep   STATUS:               ID:20130902201408 L   I
 OLDACT:DUP 13-09-03 00:31 OP:nd   STATUS:               ID:20130902200960d    3
 2013-09-02-2009-59M.COL___269                                                 6
 STAT SP IPHASW D HRMM SECON CODA AMPLIT PERI AZIMU VELO AIN AR TRES W  DIS CAZ7
 PAM  SZ EP       2014 30.19                             148    0.0210 81.5  41 
 PAM  SN ES       2014 46.87                             148   -0.0310 81.5  41 
 PAM  SZ I        2014 49.51         3.4 0.50            151           81.5  41 
 RUS  HZ EP       2014 31.78                             142    0.3910 98.7 174 
 RUS  HN ES       2014 48.88                             142   -0.1810 98.7 174 
 RUS  HZ I        2014 50.87         3.3 0.24            147           98.7 174 
 PTB  HZ EP       2014 34.02                             130   -0.50 9  144 259 
 PTB  HN ES       2014 54.85                             130    0.20 9  144 259 
 PTB  HZ I        2014 57.23         2.4 0.42            133            144 259 
 ZAR  HZ EP   2   2014 40.35                             120    0.08 4  201 293 
 ZAR  HN ES       2015  4.94                             120    0.07 9  201 293 
 ZAR  HZ I        2015 10.94         4.6 0.26            123            201 293 
                                                                                
