 2014 11 2 2105 50.2 L   6.817 -73.163144.2  RSN  4 0.2 1.6LRSN                1
 GAP=181        0.45       2.2     3.3  4.8  0.1412E+00  0.3365E+01 -0.2605E+01E
 Epicentro: LOS SANTOS - SANTANDER                                             3
 ACTION:UPD 14-12-19 15:38 OP:nd   STATUS:               ID:20141102210625dL   I
 OLDACT:UP  14-11-05 15:33 OP:mh   STATUS:               ID:20141102210625dL   3
 OLDACT:UP  14-11-05 15:33 OP:mh   STATUS:               ID:20141102210625dL   3
 OLDACT:DUP 14-11-05 15:28 OP:mh   STATUS:               ID:20141102210625dL   3
 OLDACT:UP  14-11-03 06:39 OP:mh   STATUS:               ID:20141102205747     3
 OLDACT:UP  14-11-03 06:39 OP:mh   STATUS:               ID:20141102205747     3
 OLDACT:UP  14-11-03 06:32 OP:mh   STATUS:               ID:20141102205747     3
 OLDACT:UP  14-11-03 06:31 OP:mh   STATUS:               ID:20141102205747     3
 OLDACT:UP  14-11-03 06:19 OP:mh   STATUS:               ID:20141102205747     3
 OLDACT:REG 14-11-03 03:44 OP:mh   STATUS:               ID:20141102205747     3
 2014-11-02-2057-47M.COL___265                                                 6
 STAT SP IPHASW D HRMM SECON CODA AMPLIT PERI AZIMU VELO AIN AR TRES W  DIS CAZ7
 BAR2 SZ EP   1   21 6  9.86                             170    0.23 7 24.9 185 
 BAR2 SZ ES       21 6 24.72                             170   -0.1010 24.9 185 
 BAR2 SZ I        21 6 26.08        11.0 0.10            169           24.9 185 
 RUS  HZ EP   1   21 6 13.79                             143   -0.11 7  103 175 
 RUS  HN ES       21 6 32.49                             143    0.0710  103 175 
 RUS  HZ I        21 6 33.77         3.7 0.34            146            103 175 
 PTB  HZ EP   1   21 6 16.53                             132   -0.33 7  146 258 
 PTB  HE ES       21 6 37.80                             132    0.12 9  146 258 
 PTB  HZ I        21 6 44.26         5.1 0.38            131            146 258 
 OCA  HZ EP   2   21 6 18.61                             130    0.46 5  158 354 
 OCA  HN ES       21 6 39.88                             130   -0.10 9  158 354 
 OCA  HZ I        21 6 44.22         9.2 0.20            130            158 354 
                                                                                
