 2010  9 2 2329 47.7 L   6.828 -73.013150.9  RSN  4 0.2 1.7LRSN                1
 GAP=252        0.38       3.7     6.2  4.8  0.1549E+02 -0.8284E+01 -0.2656E+01E
 Epicentro: CEPITA - SANTANDER                                                 3
 ACTION:UP  11-02-18 10:59 OP:tino STATUS:               ID:20100902232947 L   I
 2010-09-02-2326-50S.COL___120                                                 6
 STAT SP IPHASW D HRMM SECON CODA AMPLIT PERI AZIMU VELO SNR AR TRES W  DIS CAZ7
 BRR  HZ EP       2330 10.15                             149     0.110   83 292 
 BRR  HN ES       2330 27.47                             149    -0.110   83 292 
 BRR  HZ I        2330 28.33         8.9 0.16                            83 292 
 RUS  HZ EP       2330 12.08                             144    -0.110  104 184 
 RUS  HN ES       2330 31.26                             144     0.010  104 184 
 RUS  HZ I        2330 32.45         5.3 0.23                           104 184 
 RREF HE ES   2   2331 13.09                             111     0.2 3  335 231 
 RREF HZ I        2331 16.41         2.3 0.77                           335 231 
 PRA  HN ES   3   2331 24.52                             107    -0.8 1  402 211 
 PRA  HZ I        2331 27.75         2.3 0.54                           402 211 
                                                                                
