 2016  1 2 2023  9.4 L   6.799 -73.174149.7  RSN  7 0.3 1.5LRSN                1
 GAP=133        0.80       3.3     3.6  5.3  0.1467E+01  0.3158E+01 -0.3510E+01E
 Epicentro: LOS SANTOS - SANTANDER                                             3
 ACTION:UPD 16-03-09 23:22 OP:cam  STATUS:               ID:20160102202309 L   I
 OLDACT:REG 16-01-03 03:06 OP:cara STATUS:               ID:20160102201748     3
 2016-01-02-2017-48M.COL___317                                                 6
 STAT SP IPHASW D HRMM SECON CODA AMPLIT PERI AZIMU VELO AIN AR TRES W  DIS CAZ7
 BAR2 EZ EP       2023 29.13                             171   -0.3210 22.9 182 
 BAR2 EZ ES       2023 44.96                             171   -0.1610 22.9 182 
 BAR2 EZ I        2023 46.68         5.6 0.28            171           22.9 182 
 BRR  HZ EP       2023 31.22                             154    0.4310 68.5 300 
 BRR  HN ES       2023 47.99                             154    0.4910 68.5 300 
 BRR  HZ I        2023 54.55         8.8 0.38            151           68.5 300 
 PAM  EZ EP       2023 32.56                             151    0.4410 79.5  41 
 PAM  EN ES       2023 49.52                             151   -0.3510 79.5  41 
 PAM  EZ I        2023 51.21         3.1 0.18            154           79.5  41 
 RUS  HZ EP       2023 33.68                             145    0.1710  101 174 
 RUS  HE ES       2023 52.30                             145   -0.0410  101 174 
 RUS  HZ I        2023 54.62         2.9 0.32            149            101 174 
 PTB  HZ EP       2023 36.23                             133   -0.14 9  145 259 
 PTB  HN ES       2023 57.19                             133   -0.25 9  145 259 
 PTB  HZ I        2024  2.27         3.4 0.24            133            145 259 
 ZAR  HN ES       2024  7.01                             124   -0.04 9  201 293 
 ZAR  HZ I        2024 16.10         3.8 0.58            124            201 293 
 SML  HZ EP       2023 45.67                             118   -0.41 8  243 336 
 SML  HN ES       2024 14.67                             118   -0.05 8  243 336 
 SML  HZ I        2024 21.45         3.6 0.28            120            243 336 
                                                                                
