 2017  1 2 2002 10.0 L   6.805 -73.138146.4  RSN  9 0.4 1.8LRSN                1
 GAP=137        0.96       3.7     4.6  5.5  0.4583E+00  0.5618E+01  0.4293E+01E
 Epicentro: LOS SANTOS - SANTANDER                                             3
 ACTION:UPD 17-05-22 15:54 OP:jn   STATUS:               ID:20170102200210 L   I
 OLDACT:UP  17-01-03 04:25 OP:edw  STATUS:               ID:20170102195747     3
 OLDACT:REG 17-01-03 02:27 OP:edw  STATUS:               ID:20170102195747     3
 2017-01-02-1958-00M.COL___381                                                 6
 STAT SP IPHASW D HRMM SECON CODA AMPLIT PERI AZIMU VELO AIN AR TRES W  DIS CAZ7
 BAR2 EZ EP       20 2 29.46                             170   -0.3010 24.0 192 
 BAR2 EZ ES       20 2 44.70                             170   -0.4410 24.0 192 
 BAR2 EZ I        20 2 45.65        16.9 0.26            169           24.0 192 
 BRR  HZ EP       20 2 31.37                             152    0.0910 71.7 298 
 BRR  HE ES       20 2 48.60                             152    0.7510 71.7 298 
 PAM  EZ EP       20 2 32.50                             151    0.2410 76.4  39 
 PAM  EN ES       20 2 49.44                             151   -0.1610 76.4  39 
 PAM  EZ I        20 2 51.59        18.2 0.54            153           76.4  39 
 RUS  HZ EP   2   20 2 34.07                             144    0.18 5  101 177 
 RUS  HN ES       20 2 52.80                             144    0.3110  101 177 
 RUS  HZ I        20 2 53.20        14.7 0.24            143            101 177 
 PTB  HZ EP   9   20 2 36.23                             132   -0.91 0  149 259 
 PTB  HN ES       20 2 57.12                             132   -0.25 9  149 259 
 PTB  HZ I        20 3  0.13         6.0 0.16            131            149 259 
 ZAR  HZ EP       20 2 42.54                             122   -0.04 9  205 292 
 ZAR  HE ES       20 3  7.38                             122   -0.58 9  205 292 
 ZAR  HZ I        20 3  9.82         4.8 0.24            122            205 292 
 CHI  HZ EP       20 2 47.73                             117   -0.12 8  249 195 
 CHI  HN ES       20 3 16.78                             117   -0.57 8  249 195 
 CHI  HZ I        20 3 20.43         4.0 0.54            117            249 195 
 GUY2CHZ EP   4   20 2 55.10                             112    1.31 0  302 235 
 GUY2CHE ES   4   20 3 30.58                             112    2.67 0  302 235 
 GUY2CHZ  IAML    20 3 35.58         3.2 0.30                           302 235 
 ORTC HZ EP       20 3  4.19                             106    0.10 6  396 216 
 ORTC HN ES       20 3 47.21                             106    0.96 6  396 216 
 ORTC HZ I        20 3 51.80         2.2 0.18            106            396 216 
 SJC  HZ EP   4   20 3  3.59                             106   -2.03 0  409 327 
 SJC  HN ES   4   20 3 44.74                             106   -4.23 0  409 327 
                                                                                
