 2012  5 2 2103 10.7 L   6.726 -72.982125.3  RSN  4 0.4 1.6LRSN                1
 GAP=162        0.89       5.6     8.6  9.9 -0.2505E+01 -0.6567E+01  0.1172E+01E
 Epicentro: CEPITA - SANTANDER                                                 3
 ACTION:UP  12-07-05 12:01 OP:pat  STATUS:               ID:20120502210310 L   I
 2012-05-02-2100-00M.COL___186                                                 6
 STAT SP IPHASW D HRMM SECON CODA AMPLIT PERI AZIMU VELO SNR AR TRES W  DIS CAZ7
 BAR2 SZ EP   1   21 3 27.79                             167    -0.2 7   27 236 
 BAR2 SZ ES   1   21 3 41.52                             167     0.1 7   27 236 
 BAR2 SZ I        21 3 46.19        11.5 0.25                            27 236 
 PAM  SZ EP   1   21 3 31.08                             148     0.5 7   75  25 
 PAM  SZ I        21 3 31.64         6.6 0.19                            75  25 
 PAM  SN ES   1   21 3 45.88                             148    -0.3 7   75  25 
 BRR  HZ EP   1   21 3 30.40                             142    -0.7 7   91 298 
 BRR  HZ I        21 3 40.56        14.0 0.43                            91 298 
 BRR  HN ES   1   21 3 47.35                             142     0.4 7   91 298 
 RUS  HZ EP   1   21 3 32.30                             141     0.4 7   93 187 
 RUS  HN ES   1   21 3 48.23                             141    -0.2 7   93 187 
                                                                                
