 2012  3 2 2244 23.6 L   6.768 -73.152148.0  RSN  9 0.4 2.0LRSN                1
 GAP=137        0.73       4.7     4.9  7.3  0.1252E+01  0.6074E+01  0.9104E+01E
 ACTION:UP  12-03-31 23:16 OP:EP   STATUS:               ID:20120302224423 L   I
 2012-03-02-2240-00M.COL___190                                                 6
 STAT SP IPHASW D HRMM SECON CODA AMPLIT PERI AZIMU VELO SNR AR TRES W  DIS CAZ7
 BAR2 SZ EP   1   2244 43.38                             172     0.0 7   20 190 
 BAR2 SZ ES   2   2244 58.31                             172    -0.5 5   20 190 
 BAR2 SZ I        2245  0.15        18.6 0.26                            20 190 
 BRR  HZ EP   1   2244 45.22                             153     0.2 7   72 301 
 BRR  HE ES   1   2245  2.42                             153     0.7 7   72 301 
 BRR  HZ I        2245  3.41        24.2 0.51                            72 301 
 PAM  SZ EP   2   2244 46.12                             150    -0.1 5   81  38 
 PAM  SN ES   2   2245  3.56                             150    -0.3 5   81  38 
 RUS  HZ EP   1   2244 46.98                             145    -0.3 7   97 175 
 RUS  HE ES   1   2245  6.17                             145     0.4 7   97 175 
 RUS  HZ I        2245  7.91        13.9 0.47                            97 175 
 PTB  HZ EP   2   2244 50.21                             133    -0.4 5  146 260 
 PTB  HE ES   1   2245 11.10                             133    -0.6 7  146 260 
 ZAR  HE ES   2   2245 21.32                             123    -0.4 4  205 293 
 ZAR  HZ I        2245 26.63         6.3 0.08                           205 293 
 NOR  SZ EP   2   2244 59.52                             119     0.4 4  232 235 
 NOR  SN ES   2   2245 26.99                             119     0.1 4  232 235 
 CHI  HZ EP   2   2245  0.63                             118    -0.4 4  245 195 
 CHI  HZ I        2245  4.12         4.4 0.52                           245 195 
 CHI  HN ES   2   2245 30.03                             118    -0.2 4  245 195 
 RREF HZ EP   2   2245 10.12                             112     0.6 3  319 230 
 RREF HN ES   2   2245 45.79                             112     0.5 3  319 230 
 RREF HZ I        2245 55.00         6.7 0.68                           319 230 
                                                                                
