 2017 11 2 2355 55.9 L   6.783 -73.136144.3  RSN  9 0.4 1.4LRSN                1
 GAP=138        0.98       3.5     4.0  6.1 -0.9390E+00  0.6992E+01  0.2750E+01E
 Epicentro: LOS SANTOS - SANTANDER                                             3
 ACTION:UPD 17-12-12 19:51 OP:rebc STATUS:               ID:20171102235555 L   I
 OLDACT:UP  17-11-03 09:48 OP:edw  STATUS:               ID:20171102234746     3
 OLDACT:REG 17-11-03 06:19 OP:edw  STATUS:               ID:20171102234746     3
 2017-11-02-2348-00M.COL___441                                                 6
 STAT SP IPHASW D HRMM SECON CODA AMPLIT PERI AZIMU VELO AIN AR TRES W  DIS CAZ7
 BAR2 EZ EP       2356 15.37                             171    0.0510 21.7 194 
 BAR2 EZ ES       2356 30.20                             171   -0.2710 21.7 194 
 BAR2 EZ I        2356 32.12         5.2 0.30            170           21.7 194 
 BRR  HZ EP       2356 17.09                             152    0.1010 73.0 299 
 BRR  HE ES       2356 34.33                             152    0.8910 73.0 299 
 BRR  HZ I        2356 38.07        10.4 0.40            152           73.0 299 
 PAM  EZ EP     D 2356 18.29                             150    0.2910 78.2  38 
 PAM  EE ES       2356 34.67                             150   -0.5710 78.2  38 
 PAM  EZ I        2356 37.42         4.2 0.46            154           78.2  38 
 RUS  HZ EP       2356 19.56                             144    0.2010 98.7 177 
 RUS  HN ES       2356 37.90                             144    0.2310 98.7 177 
 RUS  HZ I        2356 38.80         2.0 0.32            146           98.7 177 
 PTB  HZ EP       2356 22.10                             131   -0.70 9  148 260 
 PTB  HN ES       2356 43.45                             131   -0.34 9  148 260 
 PTB  HZ I        2356 44.90         2.4 0.60            132            148 260 
 SPBC HZ EP       2356 24.11                             129   -0.10 9  162 220 
 SPBC HE ES       2356 46.12                             129   -0.17 9  162 220 
 SPBC HZ I        2356 51.80         2.8 0.10            130            162 220 
 ZAR  HZ EP       2356 28.84                             122    0.42 8  206 293 
 ZAR  HN ES       2356 53.47                             122   -0.31 8  206 293 
 ZAR  HZ I        2356 58.85         4.4 0.34            123            206 293 
 CHI  HZ EP   2   2356 33.16                             117   -0.19 4  247 196 
 CHI  HE ES       2357  2.59                             117    0.03 8  247 196 
 CHI  HZ I        2357  6.71         1.8 0.32            119            247 196 
 GUY2CHN ES       2357 13.64                             112    0.28 7  301 235 
                                                                                
