 2015  1 2 2101 52.1 L   6.874 -73.364121.6  RSN  9 0.3 1.9LRSN                1
 GAP=145        0.69       2.6     3.7  6.9 -0.2671E+01  0.1198E+02 -0.5195E+01E
 Epicentro: SAN VICENTE DE CHUCURI - SANTANDER                                 3
 ACTION:UPD 15-03-02 15:36 OP:nd   STATUS:               ID:20150102210152 L   I
 OLDACT:REG 15-01-03 03:33 OP:spq  STATUS:               ID:20150102205748     3
 2015-01-02-2057-48M.COL___280                                                 6
 STAT SP IPHASW D HRMM SECON CODA AMPLIT PERI AZIMU VELO AIN AR TRES W  DIS CAZ7
 BAR2 EZ EP       21 2  9.48                             162    0.2010 37.0 147 
 BAR2 EZ ES   1   21 2 22.71                             162    0.05 7 37.0 147 
 BAR2 EZ I        21 2 23.77        39.5 0.28            168           37.0 147 
 BRR  HZ EP       21 2  9.93                             158    0.6110 46.3 304 
 RUS  HZ EP   1   21 2 14.15                             135   -0.47 7  113 164 
 RUS  HE ES   1   21 2 31.96                             135   -0.20 7  113 164 
 PTB  HZ EP       21 2 14.81                             131   -0.3710  126 253 
 PTB  HE ES   1   21 2 32.84                             131   -0.32 7  126 253 
 PTB  HZ I        21 2 36.69        12.9 0.30            131            126 253 
 OCA  HZ EP       21 2 17.71                             125   -0.04 9  151   2 
 OCA  HE ES       21 2 37.53                             125   -0.21 9  151   2 
 OCA  HZ I        21 2 40.27        12.2 0.28            129            151   2 
 ZAR  HZ EP   4   21 2 21.91                             120    1.52 0  179 293 
 ZAR  HE ES   4   21 2 44.58                             120    2.14 0  179 293 
 ZAR  HZ I        21 2 49.85         9.6 0.36            121            179 293 
 NOR  HZ EP   1   21 2 25.25                             114    0.24 6  221 229 
 NOR  HE ES       21 2 50.95                             114    0.28 8  221 229 
 NOR  HZ I        21 2 58.54         3.9 0.40            117            221 229 
 HEL  HZ EP   4   21 2 31.16                             111    2.34 0  251 253 
 HEL  HE ES   1   21 2 57.26                             111   -0.18 6  251 253 
 HEL  HZ I        21 3  2.28         3.9 0.38            113            251 253 
 MON  HZ EP   1   21 2 37.58                             105    0.10 5  330 310 
 MON  HN ES   1   21 3 12.83                             105   -0.03 5  330 310 
 MON  HZ I        21 3 13.20         2.1 0.16            108            330 310 
                                                                                
