 2016  3 2 2137 29.8 L   6.822 -73.199141.5  RSN 14 0.3 2.6LRSN                1
 GAP=129        0.69       2.3     2.3  3.9 -0.3095E+00  0.2824E+01  0.2769E+00E
 Epicentro: ZAPATOCA - SANTANDER                                               3
 ACTION:UPD 16-05-13 21:21 OP:cam  STATUS:               ID:20160302213729 L   I
 OLDACT:REG 16-03-03 01:40 OP:cara STATUS:               ID:20160302212751     3
 2016-03-02-2127-51M.COL___316                                                 6
 STAT SP IPHASW D HRMM SECON CODA AMPLIT PERI AZIMU VELO AIN AR TRES W  DIS CAZ7
 BAR2 EZ IP     C 2137 48.86                             169   -0.1110 25.4 176 
 BAR2 EZ ES       2138  3.41                             169   -0.5110 25.4 176 
 BAR2 EZ I        2138  5.38        75.6 0.18            169           25.4 176 
 PAM  EZ IP     C 2137 51.89                             149    0.1810 79.5  44 
 PAM  EN ES       2138  9.04                             149    0.2610 79.5  44 
 PAM  EZ I        2138 11.02        41.8 0.48            152           79.5  44 
 RUS  HZ EP       2137 53.09                             142   -0.2710  104 173 
 RUS  HN ES       2138 11.92                             142    0.1910  104 173 
 RUS  HZ I        2138 12.60        37.2 0.22            143            104 173 
 PTB  HZ EP       2137 55.68                             132   -0.28 9  143 257 
 PTB  HN ES       2138 16.64                             132    0.30 9  143 257 
 PTB  HZ I        2138 18.36        44.8 0.14            129            143 257 
 SPBC HZ EP       2137 57.74                             128   -0.08 9  161 217 
 SPBC HN ES       2138 19.65                             128   -0.02 9  161 217 
 SPBC HZ I        2138 26.08        68.1 0.24            127            161 217 
 ZAR  HZ EP       2138  1.68                             122    0.35 9  198 292 
 ZAR  HN ES       2138 26.31                             122    0.40 9  198 292 
 ZAR  HZ I        2138 32.16        33.2 0.44            120            198 292 
 NOR  HZ EP       2138  5.02                             118    0.08 8  231 233 
 NOR  HE ES       2138 32.69                             118    0.36 8  231 233 
 NOR  HZ I        2138 39.63        29.6 0.18            117            231 233 
 CHI  HZ EP       2138  7.15                             116   -0.22 8  249 194 
 CHI  HE ES       2138 36.76                             116    0.10 8  249 194 
 CHI  HZ I        2138 38.77        19.6 0.36            116            249 194 
 HEL  HZ EP   4   2138 11.06                             114    1.81 0  267 255 
 HEL  HN ES       2138 39.67                             114   -0.33 8  267 255 
 HEL  HZ I        2138 48.48        19.9 0.44            113            267 255 
 URE  HZ EP   9   2138  8.78                             113   -1.19 0  278 292 
 URE  HN ES       2138 40.21                                    0.11 7  278 292 
 URE  HZ I        2138 49.06        27.9 0.18            112            278 292 
 GUY2CHZ EP   9   2138 14.33                             112    1.49 0  298 234 
 GUY2CHN ES       2138 47.62                                   -0.27 7  298 234 
 GUY2CHZ I        2138 56.81        20.9 0.72                           298 234 
 MON  HZ EP   4   2138 15.81                             108   -2.14 0  348 309 
 MON  HN ES       2138 54.74                             108   -0.75 6  348 309 
 MON  HZ I        2139  9.48        11.8 0.60            107            348 309 
 ANIL HZ EP   9   2138 20.30                             108    1.12 0  355 224 
 ANIL HN ES       2138 58.70                                   -0.11 6  355 224 
 ANIL HZ I        2139  5.75        43.0 0.32            107            355 224 
 ORTC HZ EP       2138 23.58                             106    0.17 6  394 215 
 ORTC HE ES   4   2139  6.68                             106    1.46 0  394 215 
 ORTC HZ I        2139 12.89         8.4 0.18            105            394 215 
                                                                                
