 2010  1 2 2218 51.5 L   6.801 -72.936153.8  RSN  4 0.4 1.5LRSN                1
 GAP=204        0.67       3.8    23.9  8.4 -0.1730E+02  0.8540E+01 -0.2340E+00E
 Epicentro: CEPITA - SANTANDER                                                 3
 ACTION:UP  10-08-24 09:42 OP:vdl  STATUS:               ID:20100102221852 L   I
 2010-01-02-2218-18S.COL___097                                                 6
 STAT SP IPHASW D HRMM SECON CODA AMPLIT PERI AZIMU VELO AIN AR TRES W  DIS CAZ7
 GIR2 SZ EP   1   2219 12.64                             164     0.2 7   42 317 
 GIR2 SZ ES   2   2219 29.23                             164     0.4 5   42 317 
 RUS  BZ EP   1   2219 16.23                             145     0.1 7  102 189 
 RUS  BE ES   1   2219 35.05                             145    -0.3 7  102 189 
 RUS  BZ I        2219 36.21         4.2 0.23                           102 189 
 OCA  SZ EP   1   2219 21.15                             130     0.3 7  165 345 
 OCA  SZ ES   2   2219 42.84                             130    -0.9 5  165 345 
 CHI  HZ EP   1   2219 30.15                             118    -0.3 6  256 200 
 CHI  HN ES   1   2220  0.97                             118     0.2 6  256 200 
 CHI  HZ I        2220  5.16         2.0 0.32                           256 200 
                                                                                
