 2011  7 2 2239 49.1 L   6.774 -73.102149.4  RSN 17 0.3 2.4LRSN                1
 GAP=119        0.49       1.8     2.6  3.7 -0.1211E+01  0.1599E+01  0.2265E+01E
 Epicentro: LOS SANTOS - SANTANDER                                             3
 ACTION:UPD 12-07-25 13:57 OP:epov STATUS:               ID:20110702223949 L   I
 2011-07-02-2237-02S.COL___140                                                 6
 STAT SP IPHASW D HRMM SECON CODA AMPLIT PERI AZIMU VELO AIN AR TRES W  DIS CAZ7
 BAR2 SZ EP   1   2240  8.90                             171   -0.25 7 21.9 204 
 BAR2 SZ ES   2   2240 24.41                             171   -0.37 5 21.9 204 
 BAR2 SZ I        2240 25.72        41.9 0.39                          21.9 204 
 PAM  SZ EP   1   2240 11.81                             152    0.13 7 76.8  35 
 PAM  SN ES   2   2240 28.96                             152   -0.32 5 76.8  35 
 BRR  HZ EP       2240 10.91                             151   -0.0610 76.9 299 
 BRR  HN ES   1   2240 28.36                             151    0.33 7 76.9 299 
 BRR  HZ I        2240 32.79        41.5 0.17                          76.9 299 
 RUS  HZ EP   1   2240 12.79                             145   -0.21 7 97.4 179 
 RUS  HN ES   2   2240 31.26                             145   -0.37 5 97.4 179 
 RUS  HZ I        2240 33.31        17.6 0.58                          97.4 179 
 BRI  SZ EP   1   2240 13.48                             142    0.05 7  110  18 
 BRI  SZ ES   1   2240 33.03                             142    0.62 7  110  18 
 GRA  SZ IP       2240 14.71                             137   -0.0910  127  15 
 GRA  SZ ES   2   2240 34.86                             137    0.02 5  127  15 
 GRA  SZ I        2240 35.51        31.2 0.33                           127  15 
 OCA  SZ EP   2   2240 17.68                             130   -0.35 5  164 352 
 OCA  SZ ES   2   2240 40.03                             130   -0.57 5  164 352 
 OCA  SZ I        2240 45.57        26.4 0.37                           164 352 
 YOP  SZ EP   1   2240 18.65                             128   -0.30 7  174 154 
 YOP  SN ES   2   2240 42.45                             128    0.22 4  174 154 
 NOR  SZ EP   2   2240 25.05                             119   -0.24 4  237 236 
 NOR  SN ES   2   2240 52.96                             119   -0.56 4  237 236 
 CHI  HZ EP   1   2240 27.33                             118    0.48 6  247 196 
 CHI  HE ES   1   2240 56.59                             118    0.30 6  247 196 
 CHI  HZ I        2241  2.34        15.1 0.50                           247 196 
 ROSC BZ EP   2   2240 27.33                             117   -0.10 4  253 212 
 ROSC BE ES   2   2240 57.64                             117    0.31 4  253 212 
 ROSC BZ I        2241  3.52        26.1 0.55                           253 212 
 HEL  HZ EP   2   2240 30.27                             115    0.32 4  276 257 
 HEL  HN ES   2   2241  1.95                             115    0.14 4  276 257 
 HEL  HZ I        2241  7.07        10.4 0.47                           276 257 
 RREF HZ EP   1   2240 35.72                             111    0.11 5  324 230 
 RREF HN ES   2   2241 12.47                             111    0.58 3  324 230 
 RREF HZ I        2241 20.54        17.2 0.49                           324 230 
 TOL  SZ ES   2   2241 15.48                             110   -0.06 3  345 226 
 DBB  SZ EP   2   2240 37.94                             110    0.63 3  345 275 
 DBB  SZ ES   1   2241 14.41                             110   -0.50 5  345 275 
 TOL  SZ EP   2   2240 37.26                             110   -0.41 3  345 226 
 PRA  HZ EP   2   2240 43.03                             107    0.29 3  392 210 
 PRA  HN ES   2   2241 24.52                             107   -0.06 3  392 210 
 SJA  SZ EP   1   2240 43.87                             107    0.29 4  398 194 
 SJA  SZ ES   2   2241 26.22                             107    0.15 3  398 194 
                                                                                
