 2011  7 2 2308 31.2 L   6.719 -73.311145.0  RSN  4 0.2 1.4LRSN                1
 GAP=150        0.40       7.1    13.2  5.4  0.7437E+02  0.1203E+02  0.7947E+01E
 Epicentro: GALAN - SANTANDER                                                  3
 ACTION:UPD 12-07-25 13:57 OP:epov STATUS:               ID:20110702230831 L   I
 2011-07-02-2304-30S.COL___140                                                 6
 STAT SP IPHASW D HRMM SECON CODA AMPLIT PERI AZIMU VELO AIN AR TRES W  DIS CAZ7
 BAR2 SZ EP   2   23 8 50.31                             172   -0.40 5 20.0 134 
 BAR2 SZ ES   2   23 9  5.65                             172   -0.25 5 20.0 134 
 BAR2 SZ I        23 9  6.18         4.1 0.49                          20.0 134 
 BTL  SZ EP   1   23 8 50.90                             171    0.14 7 22.6  12 
 BTL  SZ ES   2   23 9  6.21                             171    0.22 5 22.6  12 
 BRR  HZ EP   1   23 8 51.90                             156    0.11 7 61.7 314 
 BRR  HE ES   2   23 9  7.64                             156   -0.19 5 61.7 314 
 BRR  HZ I        23 9 10.81        11.0 0.25                          61.7 314 
 RUS  HZ EP   1   23 8 54.43                             145   -0.07 7 94.8 165 
 RUS  HE ES   2   23 9 12.89                             145    0.24 5 94.8 165 
 RUS  HZ I        23 9 13.81         2.0 0.41                          94.8 165 
                                                                                
