 2011 10 2 2127 19.4 L   6.056 -73.703113.7  RSN  5 0.2 1.4LRSN                1
 GAP=142        0.43       3.2     3.8  7.5  0.1678E+01  0.8375E+01  0.1286E+01E
 Epicentro: BOLIVAR - SANTANDER                                                3
 ACTION:UPD 12-07-13 16:01 OP:ep   STATUS:               ID:20111002212719 L   I
 2011-10-02-2125-10S.COL___168                                                 6
 STAT SP IPHASW D HRMM SECON CODA AMPLIT PERI AZIMU VELO AIN AR TRES W  DIS CAZ7
 RUS  HZ EP       2127 37.87                             146   -0.0210 71.0 105 
 RUS  HZ I        2127 38.05         3.0 0.32                          71.0 105 
 RUS  HE ES   2   2127 52.60                             146    0.30 5 71.0 105 
 BAR2 SZ ES   2   2127 52.61                             142   -0.55 5 82.6  44 
 BAR2 SZ I        2127 54.19        11.4 0.15                          82.6  44 
 BRR  HZ EP       2127 40.89                             131    0.0010  116 360 
 BRR  HE ES   1   2127 57.83                             131    0.19 7  116 360 
 BRR  HZ I        2128  7.13         4.9 0.34                           116 360 
 NOR  SN ES   2   2128  1.86                             125   -0.02 5  140 247 
 ZAR  HN ES   3   2128 13.42                             114   -0.37 2  204 321 
 ZAR  HZ I        2128 16.30         2.9 0.26                           204 321 
                                                                                
