 2010  5 2 2133 50.0 L   6.788 -72.980142.2  RSN 10 0.4 2.2LRSN                1
 GAP=188        1.14       7.7    11.0 11.6 -0.5151E+02 -0.4769E+02  0.3122E+02E
 Epicentro: CEPITA - SANTANDER                                                 3
 ACTION:UP  10-08-24 10:02 OP:vdl  STATUS:               ID:20100502213350 L   I
 2010-05-02-2132-32S.COL___105                                                 6
 STAT SP IPHASW D HRMM SECON CODA AMPLIT PERI AZIMU VELO SNR AR TRES W  DIS CAZ7
 BAR2 SZ EP       2134  9.13                             167    -0.310   31 226 
 BAR2 SZ ES   2   2134 24.44                             167    -0.1 5   31 226 
 GIR2 SZ EP       2134 10.31                             164     0.810   40 324 
 BRR  HZ EP       2134 11.68                             146    -0.210   88 294 
 BRR  HN ES       2134 28.70                             146    -0.210   88 294 
 BRR  HZ I        2134 30.78        21.8 0.17                            88 294 
 BRI  SZ EP   1   2134 13.66                             142     0.4 7  105  11 
 GUE  SZ EP       2134 14.55                             139     0.310  115   3 
 GRA  SZ ES   2   2134 33.36                             137    -0.6 5  123   9 
 OCA  SZ EP       2134 17.89                             128    -0.6 9  165 347 
 OCA  SZ I        2134 46.33        11.5 0.35                           165 347 
 CHI  HZ EP   1   2134 27.24                             116    -0.7 6  253 199 
 CHI  HZ I        2134 27.63         9.3 0.51                           253 199 
 ROSC BN ES   2   2134 59.12                             115    -0.1 4  262 215 
 ROSC BZ I        2135  4.12        11.9 0.52                           262 215 
 RREF BN ES       2135 15.04                             109     0.5 7  335 232 
 RREF BZ I        2135 19.76         8.5 0.27                           335 232 
                                                                                
