 2012  5 2 2243 50.3 L   6.780 -73.158136.0  RSN  8 0.4 1.8LRSN                1
 GAP=136        0.91       5.4     4.8  7.6 -0.1836E+01  0.1283E+02  0.9086E+01E
 Epicentro: LOS SANTOS - SANTANDER                                             3
 ACTION:UP  12-07-05 12:01 OP:pat  STATUS:               ID:20120502224350 L   I
 2012-05-02-2240-00M.COL___186                                                 6
 STAT SP IPHASW D HRMM SECON CODA AMPLIT PERI AZIMU VELO SNR AR TRES W  DIS CAZ7
 BAR2 SZ EP   1   2244  8.68                             171     0.010   21 187 
 BAR2 SZ ES   1   2244 22.81                             171    -0.210   21 187 
 BAR2 SZ I        2244 26.03        21.4 0.31                            21 187 
 BRR  HZ EP   1   2244 10.45                             151     0.110   71 301 
 BRR  HZ I        2244 13.98        13.7 0.13                            71 301 
 BRR  HN ES   1   2244 26.97                             151     0.910   71 301 
 PAM  SZ EP   1   2244 11.73                             148     0.110   80  39 
 PAM  SN ES   1   2244 27.91                             148    -0.410   80  39 
 RUS  HZ EP   1   2244 12.78                             142    -0.110   98 175 
 RUS  HN ES   1   2244 30.88                             142     0.310   98 175 
 RUS  HZ I        2244 32.96         6.9 0.29                            98 175 
 PTB  HZ EP   1   2244 15.62                             130    -0.7 9  146 260 
 PTB  HN ES   1   2244 36.00                             130    -0.6 9  146 260 
 PTB  HZ I        2244 39.56         7.4 0.14                           146 260 
 ZAR  HN ES   2   2244 46.86                             120     0.0 6  204 293 
 HEL  HZ EP   1   2244 30.48                             113     0.7 7  270 256 
 HEL  HN ES       2245  0.49                             113    -0.110  270 256 
 HEL  HZ I        2245  9.39         3.9 0.32                           270 256 
 PRA  HZ EP   1   2244 43.08                             105    -0.1 6  389 210 
 PRA  HN ES   1   2245 24.84                             105     0.4 6  389 210 
                                                                                
