 2014  5 2 2008 52.8 L   6.852 -73.156144.0  RSN  5 0.3 1.7LRSN                1
 GAP=279        0.55       5.7     3.4  6.2  0.2154E+01  0.2339E+01 -0.1475E+02E
 Epicentro: LOS SANTOS - SANTANDER                                             3
 ACTION:UPD 15-03-16 16:54 OP:nd   STATUS:               ID:20140502200852 L   I
 OLDACT:DUP 14-05-03 07:11 OP:nd   STATUS:               ID:20140502200744d    3
 2014-05-02-2007-43M.COL___216                                                 6
 STAT SP IPHASW D HRMM SECON CODA AMPLIT PERI AZIMU VELO AIN AR TRES W  DIS CAZ7
 RUS  HZ EP       20 9 16.57                             142   -0.2110  106 176 
 RUS  HN ES       20 9 35.75                             142    0.2510  106 176 
 RUS  HZ I        20 9 37.10         3.9 0.40            136            106 176 
 PTB  HZ EP       20 9 19.52                             132   -0.08 9  148 257 
 PTB  HN ES       20 9 40.72                             132    0.19 9  148 257 
 PTB  HZ I        20 9 42.61         6.6 0.16            128            148 257 
 SPBC HZ EP       20 9 21.43                             128   -0.07 9  167 217 
 SPBC HN ES       20 9 43.75                             128   -0.15 9  167 217 
 SPBC HZ I        20 9 51.07         7.2 0.24            124            167 217 
 NOR  HZ EP       20 9 28.64                             118   -0.02 8  237 233 
 NOR  HN ES       20 9 56.49                             118   -0.17 8  237 233 
 NOR  HZ I        2010  4.06         3.9 0.16            116            237 233 
 GUY2CHZ EP   2   20 9 37.77                             112    1.20 4  304 234 
 GUY2CHN ES       2010 10.76                             112    0.03 7  304 234 
 GUY2CHZ I        2010 18.38         2.3 0.26                           304 234 
                                                                                
