 2014 10 2 2010  0.9 L   6.814 -73.152148.2  RSN 23 0.4 2.7LRSN                1
 GAP= 55        0.86       2.1     2.6  4.0 -0.4384E+00  0.8550E+00  0.1865E+01E
 Epicentro: LOS SANTOS - SANTANDER                                             3
 ACTION:UPD 14-11-29 23:46 OP:nd   STATUS:               ID:20141002201000 L   I
 OLDACT:UP  14-10-03 09:29 OP:spq  STATUS:               ID:20141002200748     3
 OLDACT:REG 14-10-03 06:13 OP:spq  STATUS:               ID:20141002200748     3
 2014-10-02-2007-48M.COL___292                                                 6
 STAT SP IPHASW D HRMM SECON CODA AMPLIT PERI AZIMU VELO AIN AR TRES W  DIS CAZ7
 BAR2 SZ EP     C 2010 20.90                             170    0.0610 24.8 188 
 BAR2 SZ ES   1   2010 35.96                             170   -0.44 7 24.8 188 
 BAR2 SZ I        2010 37.14       151.5 0.24            169           24.8 188 
 BRR  HZ EP       2010 22.74                             153    0.5110 69.9 298 
 BRR  HE ES       2010 39.60                             153    0.7310 69.9 298 
 BRR  HZ I        2010 42.91        57.3 0.30            152           69.9 298 
 PAM  SZ EP       2010 23.78                             151    0.4610 76.6  41 
 PAM  SN ES       2010 40.75                             151   -0.0610 76.6  41 
 PAM  SZ I        2010 43.26       117.0 0.38            154           76.6  41 
 RUS  HZ EP   1   2010 24.68                             144   -0.31 7  102 176 
 RUS  HE ES   1   2010 43.79                             144   -0.00 7  102 176 
 RUS  HZ I        2010 44.68        64.1 0.26            144            102 176 
 PTB  HZ EP       2010 27.37                             133   -0.65 9  147 258 
 PTB  HN ES       2010 48.60                             133   -0.59 9  147 258 
 PTB  HZ I        2010 55.64        50.1 0.68            132            147 258 
 TAM  HZ EP       2010 29.29                             131    0.44 9  156 105 
 TAM  HN ES   1   2010 50.75                             131    0.08 7  156 105 
 TAM  HZ I        2010 58.25        18.3 0.38            133            156 105 
 OCA  HZ EP       2010 28.97                             130   -0.27 9  159 353 
 OCA  HN ES       2010 50.86                             130   -0.49 9  159 353 
 OCA  HZ I        2010 55.72        44.6 0.52            131            159 353 
 SPBC HZ EP       2010 29.73                             129    0.08 9  164 218 
 SPBC HE ES       2010 52.09                             129    0.01 9  164 218 
 SPBC HZ I        2010 54.51        76.3 0.34            129            164 218 
 ZAR  HZ EP       2010 33.63                             123    0.26 9  203 292 
 ZAR  HE ES       2010 58.60                             123   -0.10 9  203 292 
 ZAR  HZ I        2011  4.22        32.5 0.44            123            203 292 
 SML  HZ EP       2010 37.40                             118   -0.07 8  242 335 
 SML  HN ES   1   2011  5.95                             118   -0.05 6  242 335 
 SML  HZ I        2011  9.43        28.2 0.07            118            242 335 
 CHI  HZ EP       2010 38.83                             117   -0.03 8  250 195 
 CHI  HN ES       2011  8.35                             117   -0.14 8  250 195 
 CHI  HZ I        2011 11.93        31.5 0.52            118            250 195 
 ROSC BZ EP   4   2010 40.53                             117    1.28 0  254 211 
 ROSC BN ES   4   2011 10.42                             117    1.25 0  254 211 
 ROSC BZ I        2011 15.40        49.5 0.35            117            254 211 
 GUY2CHZ EP       2010 45.12                             113    0.47 7  302 234 
 GUY2CHN ES   4   2011 20.70                             113    1.92 0  302 234 
 GUY2CHZ I        2011 25.13        18.9 0.36                           302 234 
 VIL  SZ EP   1   2010 44.56                             112   -0.01 5  305 191 
 VIL  SN ES   1   2011 18.33                             112   -0.32 5  305 191 
 VIL  SZ I        2011 28.83        36.5 0.48            113            305 191 
 PTGC HZ EP       2010 44.12                             112   -0.92 7  310 159 
 PTGC HN ES   4   2011 17.39                             112   -2.10 0  310 159 
 PTGC HZ I        2011 20.10        32.4 0.50            112            310 159 
 DBB  SZ EP   1   2010 48.41                             110    0.04 5  339 274 
 DBB  SZ ES   1   2011 25.10                             110   -0.31 5  339 274 
 DBB  SZ I        2011 28.63        53.2 0.54            110            339 274 
 TOL  SZ EP       2010 49.84                             110    0.53 7  344 224 
 TOL  SE ES   4   2011 29.19                             110    2.10 0  344 224 
 TOL  SZ I        2011 34.47        48.4 0.52            110            344 224 
 MON  HZ EP   4   2010 47.78                             109   -2.03 0  352 308 
 MON  HN ES   4   2011 26.62                             109   -1.35 0  352 308 
 MON  HZ I        2011 42.90         7.4 0.30            109            352 308 
 ANIL HZ EP   4   2010 52.11                             109    1.25 0  358 224 
 ANIL HE ES   1   2011 30.45                             109    0.61 5  358 224 
 ANIL HZ I        2011 35.41         6.1 0.26            109            358 224 
 SDV  BZ EP       2010 50.54                             109   -0.42 6  360  50 
 SDV  BN ES   4   2011 27.88                             109   -2.14 0  360  50 
 SDV  BZ I        2011 31.09        10.6 0.30            109            360  50 
 PRA  HZ EP       2010 54.94                             107    0.33 6  393 209 
 PRA  HN ES       2011 36.51                             107   -0.01 6  393 209 
 PRA  HZ I        2011 43.40        15.5 0.18            107            393 209 
 ORTC HZ EP       2010 55.21                             107    0.22 6  396 216 
 ORTC HN ES   4   2011 38.50                             107    1.31 0  396 216 
 ORTC HZ I        2011 42.30        16.6 0.28            107            396 216 
 SJC  HZ EP   4 C 2010 55.05                             106   -1.28 0  408 327 
 SJC  HN ES   4   2011 36.06                             106   -3.52 0  408 327 
 SJC  HZ I        2011 43.74         7.0 0.50            106            408 327 
                                                                                
