 2016 11 2 2253 17.4 L   6.791 -73.164142.3  RSN 11 0.3 2.0LRSN                1
 GAP=135        0.67       2.3     2.5  3.8 -0.3345E+00  0.2877E+01  0.1745E+01E
 Epicentro: LOS SANTOS - SANTANDER                                             3
 ACTION:UPD 17-10-26 21:04 OP:lp   STATUS:               ID:20161102225317 L   I
 OLDACT:REG 16-11-03 03:49 OP:cara STATUS:               ID:20161102224746     3
 2016-11-02-2248-00M.COL___346                                                 6
 STAT SP IPHASW D HRMM SECON CODA AMPLIT PERI AZIMU VELO AIN AR TRES W  DIS CAZ7
 BAR2 EZ EP       2253 36.54                             171   -0.0910 22.1 185 
 BAR2 EZ ES       2253 51.24                             171   -0.3610 22.1 185 
 BAR2 EZ I        2253 52.75        27.7 0.24            170           22.1 185 
 BRR  HZ IP       2253 38.34                             152    0.1910 69.9 300 
 BRR  HN ES       2253 54.72                             152    0.4310 69.9 300 
 BRR  HZ I        2254  0.33        17.7 0.20            150           69.9 300 
 PAM  EZ EP       2253 39.57                             150    0.1510 79.4  40 
 PAM  EN ES       2253 56.52                             150   -0.0410 79.4  40 
 PAM  EZ I        2253 58.70        12.0 0.48            155           79.4  40 
 RUS  HZ EP       2253 40.77                             143   -0.0310 99.8 175 
 RUS  HE ES       2253 59.29                             143    0.2810 99.8 175 
 RUS  HZ I        2254  0.29        12.0 0.26            147           99.8 175 
 PTB  HZ EP       2253 43.32                             132   -0.61 9  146 259 
 PTB  HN ES       2254  4.33                             132   -0.27 9  146 259 
 PTB  HZ I        2254 11.12         9.3 0.26            132            146 259 
 SPBC HZ EP       2253 45.67                             129    0.18 9  161 219 
 SPBC HE ES       2254  7.41                             129    0.05 9  161 219 
 SPBC HZ I        2254 11.92        16.3 0.24            130            161 219 
 ZAR  HZ EP       2253 49.32                             122   -0.19 9  203 293 
 ZAR  HE ES       2254 14.36                             122   -0.16 9  203 293 
 ZAR  HZ I        2254 19.90         9.6 0.36            123            203 293 
 NOR  HZ EP   2   2253 52.48                             118   -0.26 4  232 234 
 NOR  HN ES   2   2254 20.11                             118   -0.16 4  232 234 
 NOR  HZ I        2254 25.22         6.6 0.30            120            232 234 
 CHI  HZ EP       2253 54.79                             117   -0.01 8  247 195 
 CHI  HE ES       2254 23.65                             117   -0.28 8  247 195 
 CHI  HZ I        2254 26.21         6.8 0.34            119            247 195 
 HEL  HZ EP   4   2253 58.60                             114    1.36 0  270 256 
 HEL  HN ES       2254 28.69                             114    0.41 8  270 256 
 HEL  HZ I        2254 34.15         5.1 0.34            116            270 256 
 GUY2CHZ EP       2254  1.07                             112    0.42 7  299 235 
 GUY2CHE ES       2254 34.53                             112    0.19 7  299 235 
 GUY2CHZ I        2254 42.69         3.6 0.24                           299 235 
 SJC  HZ EP   4   2254 10.79                             105   -2.07 0  409 327 
 SJC  HE ES   4   2254 49.94                             105   -6.15 0  409 327 
                                                                                
