 2013 10 2 2216 37.1 L   6.780 -73.139145.4  RSN 10 0.5 2.2LRSN                1
 GAP=138        1.10       4.0     4.5  6.3 -0.1530E+01  0.8998E+01  0.1226E-02E
 Epicentro: LOS SANTOS - SANTANDER                                             3
 ACTION:UPD 13-11-25 09:18 OP:ep   STATUS:               ID:20131002221637 L   I
 OLDACT:REG 13-10-02 21:16 OP:jn   STATUS:               ID:20131002220959     3
 2013-10-02-2209-59M.COL___273                                                 6
 STAT SP IPHASW D HRMM SECON CODA AMPLIT PERI AZIMU VELO AIN AR TRES W  DIS CAZ7
 BAR2 SZ EP       2216 56.77                             171    0.1510 21.3 193 
 BAR2 SZ ES       2217 11.66                             171   -0.2010 21.3 193 
 BAR2 SZ I        2217 12.83        78.4 0.20            172           21.3 193 
 BRR  HZ EP       2216 58.60                             152    0.3210 72.9 300 
 BRR  HN ES       2217 15.57                             152    0.7510 72.9 300 
 BRR  HZ I        2217 20.09        31.0 0.14            151           72.9 300 
 PAM  SZ EP       2216 59.58                             150    0.2610 78.6  38 
 PAM  SN ES       2217 16.32                             150   -0.3610 78.6  38 
 PAM  SZ I        2217 21.25        13.5 0.48            153           78.6  38 
 RUS  HZ EP       2217  0.77                             144    0.1510 98.3 176 
 RUS  HN ES       2217 18.75                             144   -0.2410 98.3 176 
 RUS  HZ I        2217 20.51        12.9 0.28            148           98.3 176 
 PTB  HZ EP       2217  3.45                             132   -0.59 9  148 260 
 PTB  HN ES       2217 24.35                             132   -0.72 9  148 260 
 PTB  HZ I        2217 26.17        17.5 0.30            133            148 260 
 SPBC HZ EP       2217  5.63                             129    0.21 9  162 220 
 SPBC HN ES   1   2217 28.21                             129    0.67 7  162 220 
 SPBC HZ I        2217 32.73        20.8 0.22            132            162 220 
 ZAR  HZ EP       2217  9.05                             122   -0.60 8  206 293 
 ZAR  HE ES       2217 35.14                             122    0.08 8  206 293 
 ZAR  HZ I        2217 43.11        19.0 0.16            124            206 293 
 NOR  HZ EP       2217 13.10                             118    0.39 8  234 235 
 NOR  HN ES       2217 40.27                             118   -0.23 8  234 235 
 NOR  HZ I        2217 42.69        14.3 0.56            121            234 235 
 SML  HZ EP   1   2217 12.89                             117   -1.04 6  246 335 
 SML  HE ES   1   2217 43.31                             117    0.64 6  246 335 
 GUY2CHZ EP   1   2217 21.36                             112    0.77 5  301 235 
 GUY2CHZ I        2218  1.36         7.3 0.38                           301 235 
                                                                                
