 2010 10 2 2325 30.5 L   6.903 -72.920135.0  RSN  6 0.4 1.8LRSN                1
 GAP=190        0.90       8.1    13.7 17.4  0.4306E+02 -0.1367E+03 -0.8849E+02E
 Epicentro: GUACA - SANTANDER                                                  3
 ACTION:UP  11-02-18 11:07 OP:tino STATUS:               ID:20101002232530 L   I
 2010-10-02-2322-52S.COL___124                                                 6
 STAT SP IPHASW D HRMM SECON CODA AMPLIT PERI AZIMU VELO SNR AR TRES W  DIS CAZ7
 BTL  SZ IP       2325 49.99                             163     0.710   39 273 
 BAR2 SZ EP   1   2325 49.90                             160     0.3 7   45 220 
 BAR2 SZ ES   2   2326  4.35                             160     0.0 5   45 220 
 BAR2 SZ I        2326  5.91         9.5 0.34                            45 220 
 BRR  HZ IP     D 2325 51.51                             144    -0.310   90 285 
 BRR  HZ I        2325 51.70        18.5 0.14                            90 285 
 BRR  HE ES   1   2326  8.35                             144     0.0 7   90 285 
 GUE  SZ EP       2325 52.82                             141    -0.310  103 360 
 RUS  HZ EP   3   2325 53.91                             138    -0.3 2  113 189 
 RUS  HE ES   1   2326 12.33                             138    -0.4 7  113 189 
 OCA  SZ EP   3   2325 57.80                             128     0.4 2  154 343 
                                                                                
