 2017  6 2 2302 35.0 L   6.764 -73.178145.0  RSN  6 0.3 1.5LRSN                1
 GAP=207        0.68       4.1     3.8  6.1  0.7241E+01 -0.1851E+01  0.1962E+01E
 Epicentro: LOS SANTOS - SANTANDER                                             3
 ACTION:UPD 17-09-14 16:49 OP:jn   STATUS:               ID:20170602230235 L   I
 OLDACT:UP  17-06-03 04:25 OP:dnl  STATUS:               ID:20170602225742     3
 OLDACT:REG 17-06-03 03:41 OP:dnl  STATUS:               ID:20170602225742     3
 2017-06-02-2258-00M.COL___353                                                 6
 STAT SP IPHASW D HRMM SECON CODA AMPLIT PERI AZIMU VELO AIN AR TRES W  DIS CAZ7
 BRR  HZ EP       23 2 55.89                             153   -0.1110 70.2 303 
 BRR  HN ES       23 3 12.72                             153    0.3310 70.2 303 
 BRR  HZ I        23 3 13.96         9.5 0.46            152           70.2 303 
 RUS  HZ EP       23 2 58.56                             145    0.1610 96.9 174 
 RUS  HN ES       23 3 16.45                             145   -0.2210 96.9 174 
 RUS  HZ I        23 3 18.75         1.3 0.38            143           96.9 174 
 PTB  HZ EP   2   23 3  1.00                             133   -0.52 5  144 260 
 PTB  HN ES       23 3 21.71                             133   -0.50 9  144 260 
 PTB  HZ I        23 3 24.17         5.6 0.48            131            144 260 
 YPLC HZ EP       23 3  4.64                             127    0.09 9  175 150 
 YPLC HN ES   4   23 3 25.76                             127   -1.86 0  175 150 
 YPLC HZ I        23 3 31.94         3.7 0.30            126            175 150 
 ZAR  HZ EP   2   23 3  6.89                             122   -0.32 4  202 294 
 ZAR  HN ES       23 3 32.45                             122    0.11 9  202 294 
 ZAR  HZ I        23 3 38.52         3.3 0.18            122            202 294 
 NOR  HZ EP   2   23 3 10.02                             119   -0.10 4  229 235 
 NOR  HE ES       23 3 38.00                             119    0.48 8  229 235 
 NOR  HZ I        23 3 43.84         2.2 0.18            118            229 235 
                                                                                
