 2015  1 2 2019  9.7 L   6.643 -73.389126.4  RSN 14 0.4 2.0LRSN                1
 GAP= 54        0.92       2.6     2.7  5.2 -0.8995E-01  0.2302E+01 -0.6545E+00E
 Epicentro: GALAN - SANTANDER                                                  3
 ACTION:UPD 15-03-02 15:36 OP:nd   STATUS:               ID:20150102201909 L   I
 OLDACT:REG 15-01-03 03:28 OP:spq  STATUS:               ID:20150102201744     3
 2015-01-02-2017-44M.COL___280                                                 6
 STAT SP IPHASW D HRMM SECON CODA AMPLIT PERI AZIMU VELO AIN AR TRES W  DIS CAZ7
 BAR2 EZ EP       2019 26.99                             169    0.0010 23.5 104 
 BAR2 EZ ES   1   2019 40.46                             169   -0.03 7 23.5 104 
 BAR2 EZ I        2019 40.98        69.7 0.14            173           23.5 104 
 BRR  HZ EP   1   2019 28.66                             152    0.41 7 62.5 325 
 BRR  HE ES       2019 43.24                             152    0.5110 62.5 325 
 BRR  HZ I        2019 46.33        27.7 0.28            150           62.5 325 
 RUS  HZ EP       2019 30.78                             143    0.0510 89.6 158 
 RUS  HE ES       2019 47.13                             143   -0.0310 89.6 158 
 RUS  HZ I        2019 48.41        13.7 0.20            143           89.6 158 
 PAM  SZ EP   4   2019 33.37                             137    1.17 0  108  45 
 PAM  SN ES   1   2019 50.33                             137    0.56 7  108  45 
 PAM  SZ I        2019 52.50        16.0 0.36            140            108  45 
 PTB  HZ EP       2019 31.71                             134   -0.7310  119 265 
 PTB  HN ES       2019 49.69                             134   -0.5010  119 265 
 PTB  HZ I        2019 55.08        14.4 0.14            131            119 265 
 OCA  HZ EP       2019 37.99                             122   -0.24 9  177   2 
 OCA  HE ES       2019 59.85                             122   -0.65 9  177   2 
 OCA  HZ I        2020  2.82        19.8 0.30            122            177   2 
 TAM  HZ EP       2019 38.19                             122   -0.05 9  178  97 
 TAM  HN ES       2020  0.28                             122   -0.23 9  178  97 
 TAM  HZ I        2020  1.64        11.1 0.37            123            178  97 
 ZAR  HZ EP       2019 40.11                             120    0.93 9  188 300 
 ZAR  HN ES   4   2020  3.72                             120    1.53 0  188 300 
 ZAR  HZ I        2020  6.86        16.1 0.28            119            188 300 
 NOR  HZ EP       2019 41.10                             118    0.24 9  203 234 
 NOR  HE ES       2020  5.24                             118    0.06 9  203 234 
 NOR  HZ I        2020 12.48        10.4 0.16            116            203 234 
 CHI  HZ EP   1   2019 44.03                             115    0.19 6  226 190 
 CHI  HE ES   1   2020 10.61                             115    0.12 6  226 190 
 CHI  HZ I        2020 20.83         6.1 0.52            114            226 190 
 HEL  HZ EP   4   2019 47.27                             113    1.69 0  242 258 
 HEL  HN ES   1   2020 13.29                             113   -0.29 6  242 258 
 HEL  HZ I        2020 24.51         4.6 0.52            112            242 258 
 SML  HZ EP   1   2019 46.23                             112    0.20 6  250 343 
 SML  HE ES   1   2020 14.12                             112   -0.27 6  250 343 
 SML  HZ I        2020 20.07        12.8 0.10            112            250 343 
 RREF HZ EP   4   2019 52.63                             109    1.25 0  290 228 
 RREF HN ES   4   2020 26.71                             109    2.80 0  290 228 
 RREF HZ I        2020 32.78         6.3 0.26            108            290 228 
 MON  HZ EP   1   2019 56.83                             105   -0.12 5  345 313 
 MON  HN ES   1   2020 34.36                             105    0.55 5  345 313 
 MON  HZ I        2020 38.81         1.8 0.26            105            345 313 
                                                                                
