 2017 11 2 2320 11.4 L   7.404 -73.209130.2  RSN  5 0.3 1.3LRSN                1
 GAP=184        0.61       3.6     3.2  5.9  0.2311E+01  0.8961E+01 -0.4564E-01E
 Epicentro: EL PLAYON - SANTANDER                                              3
 ACTION:UPD 17-12-12 19:51 OP:rebc STATUS:               ID:20171102232011 L   I
 OLDACT:UP  17-11-03 09:33 OP:edw  STATUS:               ID:20171102231737d    3
 OLDACT:DUP 17-11-03 09:30 OP:edw  STATUS:               ID:20171102231737d    3
 2017-11-02-2318-00M.COL___441                                                 6
 STAT SP IPHASW D HRMM SECON CODA AMPLIT PERI AZIMU VELO AIN AR TRES W  DIS CAZ7
 PAM  EZ EP       2320 30.93                             155    0.1610 56.7  97 
 PAM  EN ES       2320 46.01                             155    0.1210 56.7  97 
 PAM  EZ I        2320 48.14         6.0 0.48            100           56.7  97 
 BAR2 EZ ES       2320 48.78                             143   -0.1410 89.8 178 
 BAR2 EZ I        2320 50.10         5.8 0.10             98           89.8 178 
 RUS  HZ I        2321  8.33         1.1 0.46             56            168 175 
 PTB  HZ EP   2   2320 38.85                             124   -0.26 5  168 235 
 PTB  HN ES   2   2321  1.81                             124    1.09 5  168 235 
 PTB  HZ I        2321  4.43         1.6 0.14             56            168 235 
 RUS  HZ EP       2320 39.70                             125   -0.03 9  168 175 
 RUS  HN ES       2321  1.75                             125   -0.08 9  168 175 
 ZAR  HZ EP       2320 40.63                             122    0.04 9  182 273 
 ZAR  HN ES       2321  3.02                             122   -0.33 9  182 273 
 ZAR  HZ I        2321  5.26         2.8 0.28             56            182 273 
                                                                                
