 2017  3 2 2146 31.6 L   6.783 -73.042150.1  RSN  6 0.4 1.7LRSN                1
 GAP=151        1.03       5.4     6.6  8.1 -0.9678E+01  0.1223E+02  0.1072E+02E
 Epicentro: LOS SANTOS - SANTANDER                                             3
 ACTION:UPD 17-05-25 18:35 OP:jn   STATUS:               ID:20170302214631 L   I
 OLDACT:UP  17-03-03 04:46 OP:edw  STATUS:               ID:20170302213745     3
 OLDACT:REG 17-03-03 03:19 OP:edw  STATUS:               ID:20170302213745     3
 2017-03-02-2138-00M.COL___397                                                 6
 STAT SP IPHASW D HRMM SECON CODA AMPLIT PERI AZIMU VELO AIN AR TRES W  DIS CAZ7
 BAR2 EZ EP       2146 51.31                             170   -0.5310 26.2 216 
 BAR2 EZ ES       2147  7.52                             170   -0.0910 26.2 216 
 PAM  EN ES       2147 11.30                             153   -0.1810 72.2  32 
 BRR  HZ EP       2146 54.25                             150    0.3510 82.3 296 
 BRR  HZ I        2147 10.06        16.0 0.32            139           82.3 296 
 BRR  HN ES       2147 11.47                             150    0.2010 82.3 296 
 RUS  HZ EP       2146 56.01                             145    0.3410 98.5 183 
 RUS  HN ES       2147 14.90                             145    0.4810 98.5 183 
 RUS  HZ I        2147 15.33         2.5 0.30            143           98.5 183 
 SPBC HZ EP       2147  0.81                             129   -0.23 9  169 222 
 SPBC HN ES       2147 23.20                             129   -0.77 9  169 222 
 SPBC HZ I        2147 30.23         7.7 0.26            123            169 222 
 NOR  HZ EP   4   2147  4.70                             118   -3.81 0  243 236 
 NOR  HN ES       2147 37.67                             118    0.39 8  243 236 
 NOR  HZ I        2147 39.82         3.6 0.16            112            243 236 
                                                                                
