 2012  4 2 2104 15.1 L   6.781 -73.129142.1  RSN  7 0.4 2.1LRSN                1
 GAP=140        0.84       4.0     5.2  7.0 -0.1843E+01  0.1182E+02 -0.1416E+01E
 Epicentro: LOS SANTOS - SANTANDER                                             3
 ACTION:UPD 12-07-05 11:49 OP:tino STATUS:               ID:20120402210415 L   I
 2012-04-02-2100-00M.COL___196                                                 6
 STAT SP IPHASW D HRMM SECON CODA AMPLIT PERI AZIMU VELO AIN AR TRES W  DIS CAZ7
 BAR2 SZ EP   1   21 4 34.15                             171    -0.1 7   22 196 
 BAR2 SZ I        21 4 34.68        27.9 0.09                            22 196 
 BAR2 SZ ES   1   21 4 49.01                             171    -0.2 7   22 196 
 BRR  HZ EP   1   21 4 36.29                             151     0.3 7   74 299 
 BRR  HZ I        21 4 36.63        38.1 0.09                            74 299 
 BRR  HE ES   1   21 4 53.09                             151     0.8 7   74 299 
 PAM  SZ EP   1   21 4 37.42                             150     0.5 7   78  38 
 PAM  SN ES   1   21 4 53.97                             150     0.0 7   78  38 
 RUS  HZ EP   1   21 4 38.42                             144     0.1 7   98 177 
 RUS  HN ES   1   21 4 56.05                             144    -0.4 7   98 177 
 RUS  HZ I        21 4 57.47        11.8 0.24                            98 177 
 OCA  SZ EP   1   21 4 43.01                             128    -0.3 7  163 353 
 OCA  SZ ES   1   21 5  4.70                             128    -0.7 7  163 353 
 ZAR  HZ EP   1   21 4 47.55                             121     0.0 6  207 293 
 ZAR  HN ES   1   21 5 12.59                             121    -0.3 6  207 293 
 ZAR  HZ I        21 5 18.25        13.6 0.36                           207 293 
 NOR  SZ EP   1   21 4 50.91                             118     0.3 6  235 235 
 NOR  SE ES   1   21 5 17.97                             118    -0.4 6  235 235 
                                                                                
