 2014  9 2 2202  6.0 L   6.798 -73.134138.9  RSN  4 0.3 1.3LRSN                1
 GAP=138        0.72       3.8     5.7  6.1 -0.1257E+01 -0.4696E+01  0.1943E+01E
 Epicentro: LOS SANTOS - SANTANDER                                             3
 ACTION:UPD 14-10-03 23:01 OP:nd   STATUS:               ID:20140902220206 L   I
 OLDACT:REG 14-09-03 04:21 OP:stll STATUS:               ID:20140902215817     3
 2014-09-02-2158-17M.COL___270                                                 6
 STAT SP IPHASW D HRMM SECON CODA AMPLIT PERI AZIMU VELO AIN AR TRES W  DIS CAZ7
 BAR2 SZ EP       22 2 24.99                             170    0.2110 23.4 193 
 BAR2 SZ ES       22 2 39.57                             170    0.1210 23.4 193 
 BAR2 SZ I        22 2 41.63         6.1 0.18            170           23.4 193 
 BRR  HZ EP   1   22 2 25.72                             151   -0.73 7 72.5 298 
 BRR  HN ES       22 2 42.58                             151    0.1410 72.5 298 
 PAM  SZ IP     C 22 2 27.62                             150    0.2010 76.7  39 
 PAM  SN ES       22 2 43.96                             150   -0.1910 76.7  39 
 PAM  SZ I        22 2 46.45         5.2 0.22            151           76.7  39 
 RUS  HZ EP       22 2 29.20                             142    0.1710  100 177 
 RUS  HE ES       22 2 46.77                             142   -0.2510  100 177 
 RUS  HZ I        22 2 49.15         1.6 0.42            144            100 177 
                                                                                
