 2016  6 2 2248 53.3 L   6.757 -73.147140.3  RSN  5 0.3 1.4LRSN                1
 GAP=275        0.84       6.7     4.9  6.5 -0.1684E+01  0.1086E+02 -0.3116E+01E
 Epicentro: LOS SANTOS - SANTANDER                                             3
 ACTION:UPD 16-07-21 22:14 OP:rebc STATUS:               ID:20160602224853 L   I
 OLDACT:REG 16-06-03 04:09 OP:mh   STATUS:               ID:20160602224744     3
 2016-06-02-2247-44M.COL___328                                                 6
 STAT SP IPHASW D HRMM SECON CODA AMPLIT PERI AZIMU VELO AIN AR TRES W  DIS CAZ7
 BAR2 EZ EP       2249 12.28                             172    0.1310 18.7 192 
 BAR2 EZ ES       2249 26.90                             172    0.0110 18.7 192 
 BAR2 EZ I        2249 28.94         6.7 0.22                          18.7 192 
 RUS  HZ EP       2249 16.20                             144    0.0610 95.9 176 
 RUS  HE ES       2249 34.05                             144    0.0610 95.9 176 
 RUS  HZ I        2249 35.89         1.3 0.15                          95.9 176 
 PTB  HZ EP       2249 19.18                             131   -0.52 9  147 261 
 PTB  HN ES       2249 40.49                             131    0.17 9  147 261 
 PTB  HZ I        2249 43.21         3.6 0.16                           147 261 
 SPBC HZ EP       2249 21.22                             128    0.23 9  159 220 
 SPBC HN ES       2249 41.94                             128   -0.68 9  159 220 
 NOR  HZ EP       2249 28.41                             118    0.03 8  232 235 
 NOR  HE ES       2249 56.36                             118    0.60 8  232 235 
 NOR  HZ I        2250  1.83         3.3 0.26                           232 235 
                                                                                
