 2017  6 2 2144  8.4 L   6.390 -73.335166.0  RSN  5 0.3 1.7LRSN                1
 GAP=181        0.87       7.2     6.3  7.3  0.2144E+02 -0.3241E+01 -0.1743E+02E
 Epicentro: PALMAS DEL SOCORRO - SANTANDER                                     3
 ACTION:UPD 17-09-14 16:49 OP:jn   STATUS:               ID:20170602214408 L   I
 OLDACT:UP  17-06-03 03:53 OP:dnl  STATUS:               ID:20170602213737     3
 OLDACT:UP  17-06-03 03:53 OP:dnl  STATUS:               ID:20170602213737     3
 OLDACT:UP  17-06-03 03:53 OP:dnl  STATUS:               ID:20170602213737     3
 OLDACT:REG 17-06-03 03:16 OP:dnl  STATUS:               ID:20170602213737     3
 2017-06-02-2138-00M.COL___362                                                 6
 STAT SP IPHASW D HRMM SECON CODA AMPLIT PERI AZIMU VELO AIN AR TRES W  DIS CAZ7
 RUS  HZ EP   2   2144 32.17                             159    0.15 5 61.7 153 
 RUS  HN ES       2144 50.61                             159    0.1510 61.7 153 
 RUS  HZ I        2144 52.36         3.7 0.22            153           61.7 153 
 BRR  HZ EP       2144 32.36                             150   -0.4110 89.6 332 
 BRR  HE ES       2144 52.07                             150    0.2810 89.6 332 
 BRR  HZ I        2144 54.06        12.5 0.18            151           89.6 332 
 PTB  HZ EP       2144 35.04                             141   -0.2010  125 278 
 PTB  HN ES       2144 55.82                             141   -0.3810  125 278 
 PTB  HZ I        2145  1.02         4.7 0.20            136            125 278 
 NOR  HZ EP   9   2144 44.37                             129    3.17 0  193 242 
 NOR  HN ES       2145 10.48                             125    0.51 9  193 242 
 NOR  HZ I        2145 17.40         4.8 0.36            124            193 242 
 ZAR  HZ EP       2144 43.23                             126    0.64 8  208 306 
 ZAR  HN ES       2145  9.30                             126    0.03 8  208 306 
 ZAR  HZ I        2145 10.97        10.2 0.30            126            208 306 
                                                                                
