 2010  8 2 2131 51.8 L   6.717 -73.468108.6  RSN  9 0.2 1.9LRSN                1
 GAP= 84        0.60       2.6     4.4  4.6 -0.6094E+00  0.5561E+01  0.6976E+00E
 Epicentro: EL CARMEN DE CHUCURI - SANTANDER                                   3
 ACTION:UP  10-09-07 10:51 OP:vdl  STATUS:               ID:20100802213151 L   I
 2010-08-02-2130-03S.COL___122                                                 6
 STAT SP IPHASW D HRMM SECON CODA AMPLIT PERI AZIMU VELO SNR AR TRES W  DIS CAZ7
 BAR2 SZ IP       2132  7.59                             161     0.210   34 114 
 BAR2 SZ ES   1   2132 19.74                             161     0.3 7   34 114 
 BAR2 SZ I        2132 21.13        51.2 0.22                            34 114 
 BRR  HZ EP       2132  7.42                             153    -0.410   51 328 
 BRR  HN ES   1   2132 20.26                             153     0.0 7   51 328 
 BRR  HZ I        2132 20.88        29.8 0.13                            51 328 
 RUS  HZ EP   1   2132 11.95                             134    -0.2 7  101 155 
 RUS  HN ES   1   2132 27.76                             134    -0.2 7  101 155 
 RUS  HZ I        2132 29.22        22.9 0.32                           101 155 
 GUE  SZ EP   1   2132 15.04                             124    -0.3 7  137  26 
 GRA  SZ EP       2132 16.41                             122     0.1 9  149  30 
 GRA  SZ ES   2   2132 35.64                             122     0.2 5  149  30 
 GRA  SZ I        2132 42.03        10.6 0.30                           149  30 
 CHI  HZ EP   1   2132 26.13                             110     0.2 6  233 187 
 CHI  HN ES   2   2132 52.13                             110    -0.4 4  233 187 
 CHI  HZ I        2132 59.11         3.7 0.36                           233 187 
 HEL  HZ EP   1   2132 26.29                             109     0.2 6  235 256 
 HEL  HZ I        2132 27.91         4.0 0.37                           235 256 
 RREF HZ EP   1   2132 33.02                             105     0.3 5  289 226 
 RREF HZ I        2133 10.42         4.0 0.25                           289 226 
 PRA  HZ EP   2   2132 41.36                             100     0.0 3  367 205 
 PRA  HZ I        2133 27.88         3.9 0.11                           367 205 
                                                                                
