 2011  9 2 2248 17.2 L   6.787 -73.125143.6  RSN 10 0.4 2.2LRSN                1
 GAP=140        0.69       3.0     4.2  4.9 -0.6343E+00  0.6575E+01  0.3562E+01E
 Epicentro: LOS SANTOS - SANTANDER                                             3
 ACTION:UPD 12-07-13 15:55 OP:ep   STATUS:               ID:20110902224817 L   I
 2011-09-02-2246-25S.COL___169                                                 6
 STAT SP IPHASW D HRMM SECON CODA AMPLIT PERI AZIMU VELO AIN AR TRES W  DIS CAZ7
 BAR2 SZ IP       2248 36.48                             171   -0.0310 22.5 196 
 BAR2 SZ ES   1   2248 51.37                             171   -0.23 7 22.5 196 
 BAR2 SZ I        2248 52.69        36.0 0.29                          22.5 196 
 GIR2 SZ EP   1   2248 36.60                             166   -0.02 7 33.1 347 
 GIR2 SZ ES   1   2248 52.17                             166    0.37 7 33.1 347 
 BRR  HZ EP   1   2248 38.34                             151    0.11 7 73.8 299 
 BRR  HE ES   1   2248 55.15                             151    0.50 7 73.8 299 
 BRR  HZ I        2249  0.01        30.5 0.14                          73.8 299 
 PAM  SZ EP   1   2248 39.47                             150    0.34 7 77.1  38 
 PAM  SE ES   1   2248 56.28                             150    0.02 7 77.1  38 
 RUS  HZ EP   1   2248 40.48                             144   -0.11 7 99.0 177 
 RUS  HZ I        2248 41.64        15.1 0.10                          99.0 177 
 RUS  HN ES   1   2248 58.50                             144   -0.36 7 99.0 177 
 OCA  SZ EP   2   2248 45.08                             129   -0.38 5  162 352 
 OCA  SZ ES   1   2249  6.91                             129   -0.62 7  162 352 
 OCA  SZ I        2249 11.46        31.5 0.22                           162 352 
 ZAR  HZ EP   1   2248 50.50                             121    0.77 6  207 292 
 ZAR  HE ES   1   2249 14.46                             121   -0.68 6  207 292 
 ZAR  HZ I        2249 22.10        11.9 0.13                           207 292 
 NOR  SZ EP   1   2248 53.03                             118    0.16 6  236 235 
 NOR  SE ES   1   2249 20.60                             118   -0.13 6  236 235 
 CHI  HZ EP   1   2248 54.80                             117    0.14 6  248 196 
 CHI  HZ I        2249 27.37         7.2 0.30                           248 196 
 PRA  HZ EP   1   2249  9.92                             106   -0.67 4  392 210 
 PRA  HN ES   1   2249 52.70                             106    0.43 4  392 210 
                                                                                
