 2015 10 2 2347 28.2 L   6.863 -73.313122.0  RSN 14 0.5 2.0LRSN                1
 GAP=102        1.12       2.7     3.7  5.8 -0.2146E+01  0.7985E+01 -0.2242E+00E
 Epicentro: BETULIA - SANTANDER                                                3
 ACTION:UPD 15-12-22 20:37 OP:cam  STATUS:               ID:20151002234728 L   I
 OLDACT:UP  15-10-03 05:52 OP:mh   STATUS:               ID:20151002233747d    3
 OLDACT:UP  15-10-03 05:50 OP:mh   STATUS:               ID:20151002233747d    3
 OLDACT:DUP 15-10-03 05:50 OP:mh   STATUS:               ID:20151002233747d    3
 2015-10-02-2337-46M.COL___358                                                 6
 STAT SP IPHASW D HRMM SECON CODA AMPLIT PERI AZIMU VELO AIN AR TRES W  DIS CAZ7
 BAR2 EZ EP       2347 45.39                             164    0.1610 33.3 154 
 BAR2 EZ ES       2347 58.45                             164   -0.1010 33.3 154 
 BAR2 EZ I        2347 59.36       112.6 0.32            166           33.3 154 
 BRR  HZ EP       2347 45.86                             156    0.1910 51.7 301 
 BRR  HN ES       2347 59.58                             156    0.2610 51.7 301 
 BRR  HZ I        2348  0.45        27.2 0.10            154           51.7 301 
 PAM  EZ EP       2347 48.61                             143    0.1010 85.8  52 
 PAM  EN ES       2348  4.76                             143    0.3810 85.8  52 
 PAM  EZ I        2348  7.03         7.5 0.24            145           85.8  52 
 RUS  HN ES       2348  7.64                             135   -0.2410  110 167 
 RUS  HZ I        2348  9.60         6.1 0.34            137            110 167 
 PTB  HZ IP     C 2347 50.74                             130   -0.9910  131 254 
 PTB  HN ES       2348  9.94                             130   -0.1710  131 254 
 PTB  HZ I        2348 12.59        20.2 0.40            129            131 254 
 OCA  HZ EP       2347 53.39                             125   -0.53 9  152 360 
 OCA  HN ES       2348 13.40                             125   -0.61 9  152 360 
 OCA  HZ I        2348 14.20        25.1 0.32            126            152 360 
 SPBC HZ EP       2347 54.52                             124    0.07 9  158 212 
 SPBC HN ES       2348 14.86                             124   -0.08 9  158 212 
 SPBC HZ I        2348 16.29        17.7 0.16            125            158 212 
 ZAR  HZ EP   1   2347 57.87                             119    0.81 7  184 292 
 ZAR  HN ES       2348 20.46                             119    0.87 9  184 292 
 ZAR  HZ I        2348 24.23        13.9 0.14            120            184 292 
 NOR  HZ EP       2348  0.89                             114   -0.59 8  224 230 
 NOR  HN ES       2348 26.74                             114   -0.72 8  224 230 
 NOR  HZ I        2348 29.10         6.0 0.58            115            224 230 
 SML  HZ EP       2348  1.83                             114   -0.21 8  230 339 
 SML  HN ES       2348 28.59                             114    0.13 8  230 339 
 SML  HZ I        2348 33.14        24.5 0.10            114            230 339 
 CHI  HZ EP   1   2348  5.49                             112    0.52 6  251 191 
 CHI  HN ES       2348 34.44                             112    0.76 8  251 191 
 CHI  HZ I        2348 36.89         3.6 0.38            112            251 191 
 HEL  HZ EP       2348  5.78                             111    0.32 8  256 253 
 HEL  HN ES       2348 34.67                             111    0.12 8  256 253 
 HEL  HZ I        2348 41.10         4.7 0.28            111            256 253 
 GUY2CHZ EP       2348 10.28                             108    0.72 7  291 232 
 GUY2CHN ES       2348 41.68                             108   -0.17 7  291 232 
 GUY2CHZ I        2348 48.85         4.0 0.54                           291 232 
 SJC  HZ EP   4   2348 20.03                             102   -1.13 0  393 329 
 SJC  HN ES   4   2348 57.97                             102   -4.53 0  393 329 
 SJC  HZ I        2349  5.50         1.7 0.58            103            393 329 
                                                                                
