 2010 10 2 2329 29.8 L   6.751 -73.160144.0  RSN  4 0.4 1.2LRSN                1
 GAP=158        0.98      15.3    20.8 23.7 -0.5522E+02 -0.3832E+03 -0.2718E+02E
 Epicentro: LOS SANTOS - SANTANDER                                             3
 ACTION:UP  11-02-18 11:07 OP:tino STATUS:               ID:20101002232929 L   I
 2010-10-02-2328-25S.COL___124                                                 6
 STAT SP IPHASW D HRMM SECON CODA AMPLIT PERI AZIMU VELO SNR AR TRES W  DIS CAZ7
 BRR  HZ EP       2329 50.81                             152    -0.110   73 303 
 BRR  HE ES   1   2330  7.26                             152     0.0 7   73 303 
 RUS  HZ EP   3   2329 53.29                             145     0.3 2   95 175 
 RUS  HN ES   3   2330 11.07                             145     0.0 2   95 175 
 RUS  HZ I        2330 12.77         1.7 0.33                            95 175 
 GUE  SZ EP       2329 55.42                             138     0.610  122  12 
 GRA  SZ EP       2329 54.82                             135    -0.610  131  17 
 GRA  SZ I        2329 55.96         3.7 0.33                           131  17 
                                                                                
