 2017 12 2 2119 57.3 L   6.818 -73.258148.1  RSN  4 0.4 1.4LRSN                1
 GAP=150        0.92       5.8     5.2  7.8 -0.9222E+01  0.1055E+02 -0.4874E+01E
 Epicentro: ZAPATOCA - SANTANDER                                               3
 ACTION:UPD 18-01-04 13:16 OP:rebc STATUS:               ID:20171202211957 L   I
 OLDACT:DUP 17-12-03 04:06 OP:edw  STATUS:               ID:20171202211742d    3
 OLDACT:UP  17-12-03 04:05 OP:edw  STATUS:               ID:20171202211741     3
 OLDACT:UP  17-12-03 04:04 OP:edw  STATUS:               ID:20171202211741     3
 OLDACT:REG 17-12-03 03:28 OP:osc  STATUS:               ID:20171202211741     3
 2017-12-02-2118-00M.COL___495                                                 6
 STAT SP IPHASW D HRMM SECON CODA AMPLIT PERI AZIMU VELO AIN AR TRES W  DIS CAZ7
 BAR2 EZ EP       2120 17.36                             169    0.1410 26.4 161 
 BAR2 EZ ES       2120 32.81                             169    0.0010 26.4 161 
 BAR2 EZ I        2120 33.25         6.9 0.22            172           26.4 161 
 PAM  EZ EP       2120 20.48                             149    0.3410 84.5  47 
 PAM  EN ES       2120 37.77                             149   -0.2310 84.5  47 
 PAM  EZ I        2120 39.38         4.3 0.42            153           84.5  47 
 RUS  HZ EP       2120 21.76                             143    0.2710  104 169 
 RUS  HN ES       2120 40.21                             143   -0.1910  104 169 
 RUS  HZ I        2120 41.55         3.9 0.40            147            104 169 
 PTB  HZ EP       2120 22.62                             135   -0.75 9  136 257 
 PTB  HN ES       2120 44.14                             135    0.39 9  136 257 
 PTB  HZ I        2120 50.28         2.7 0.10            134            136 257 
                                                                                
