 2010  7 2 2028  0.5 L   6.778 -73.117149.6  RSN  8 0.5 2.0LRSN                1
 GAP=159        0.90       5.1    13.7  9.8 -0.2429E+02 -0.1370E+02  0.2966E+01E
 Epicentro: LOS SANTOS - SANTANDER                                             3
 ACTION:UPD 10-12-01 15:14 OP:pat  STATUS:               ID:20100702202800 L   I
 2010-07-02-2024-37S.COL___118                                                 6
 STAT SP IPHASW D HRMM SECON CODA AMPLIT PERI AZIMU VELO AIN AR TRES W  DIS CAZ7
 BAR2 SZ EP   1   2028 20.37                             171    -0.2 7   22 200 
 BAR2 SZ ES   2   2028 35.63                             171    -0.6 5   22 200 
 BRR  HZ EP   1   2028 22.35                             152     0.0 7   75 299 
 BRR  HE ES   2   2028 39.77                             152     0.5 5   75 299 
 BRR  HZ I        2028 44.00        27.8 0.06                            75 299 
 RUS  HZ EP   1   2028 24.54                             145     0.1 7   98 178 
 RUS  HE ES   2   2028 43.15                             145     0.0 5   98 178 
 RUS  HZ I        2028 44.08        11.0 0.16                            98 178 
 BRI  SZ EP   1   2028 25.67                             142     0.8 7  110  19 
 GUE  SZ EP   1   2028 25.23                             140    -0.5 7  118  10 
 GUE  SZ ES   2   2028 46.28                             140     0.9 5  118  10 
 GRA  SZ EP   2   2028 26.29                             138     0.1 5  127  16 
 GRA  SZ ES   2   2028 46.07                             138    -0.2 5  127  16 
 OCA  SZ EP   1   2028 28.62                             130    -0.8 7  163 352 
 OCA  SZ I        2028 54.13        14.9 0.22                           163 352 
 CHI  HZ EP   1   2028 38.65                             118     0.4 6  247 196 
 CHI  HE ES   2   2029  7.87                             118     0.1 4  247 196 
 CHI  HZ I        2029 14.21         5.2 0.88                           247 196 
                                                                                
