 2015 11 2 2038 32.3 L   6.798 -73.124143.3  RSN  8 0.3 1.7LRSN                1
 GAP=139        0.83       3.8     4.0  5.6 -0.3973E+00  0.7485E+01  0.3963E+01E
 Epicentro: LOS SANTOS - SANTANDER                                             3
 ACTION:UPD 15-12-28 16:08 OP:cam  STATUS:               ID:20151102203832 L   I
 OLDACT:UP  15-11-03 05:59 OP:mh   STATUS:               ID:20151102203748     3
 OLDACT:UP  15-11-03 05:59 OP:mh   STATUS:               ID:20151102203748     3
 OLDACT:REG 15-11-03 03:51 OP:mh   STATUS:               ID:20151102203748     3
 2015-11-02-2037-48M.COL___313                                                 6
 STAT SP IPHASW D HRMM SECON CODA AMPLIT PERI AZIMU VELO AIN AR TRES W  DIS CAZ7
 BAR2 EZ EP       2038 51.31                             170   -0.3610 23.7 196 
 BAR2 EZ ES       2039  6.32                             170   -0.4410 23.7 196 
 BAR2 EZ I        2039  9.13                             169           23.7 196 
 BRR  HZ EP       2038 52.83                             151   -0.5110 73.4 298 
 BRR  HN ES       2039  9.93                             151    0.2010 73.4 298 
 BRR  HZ I        2039 21.21        12.2 0.30            148           73.4 298 
 PAM  EZ EP       2038 54.51                             151    0.3110 76.0  38 
 PAM  EN ES       2039 11.48                             151    0.2110 76.0  38 
 PAM  EZ I        2039 13.38        12.4 0.52            154           76.0  38 
 RUS  HZ EP       2038 55.67                             143   -0.1510  100 177 
 RUS  HN ES       2039 14.56                             143    0.4310  100 177 
 RUS  HZ I        2039 15.26         4.3 0.28            149            100 177 
 ZAR  HN ES       2039 30.40                             121    0.17 8  206 292 
 NOR  HZ EP       2039  7.99                             118   -0.13 8  237 235 
 NOR  HE ES       2039 36.12                             118    0.09 8  237 235 
 NOR  HZ I        2039 40.42         3.2 0.38            120            237 235 
 GUY2CHZ EP       2039 16.47                             112    0.43 7  303 235 
 GUY2CHE ES   4   2039 52.49                             112    2.36 0  303 235 
 GUY2CHZ I        2039 57.85         2.7 0.52                           303 235 
 MON  HZ EP   4   2039 18.84                             108   -2.63 0  356 308 
 MON  HZ I        2039 26.57         1.1 0.46            110            356 308 
 MON  HN ES   4   2039 56.33                             108   -3.47 0  356 308 
                                                                                
