 2016  7 2 2029 18.1 L   6.763 -73.195148.9  RSN  4 0.3 1.3LRSN                1
 GAP=229        0.52       6.9     4.9  6.0  0.2132E+02 -0.9615E+00 -0.7503E+01E
 Epicentro: ZAPATOCA - SANTANDER                                               3
 ACTION:UPD 17-03-29 16:45 OP:lp   STATUS:               ID:20160702202918 L   I
 OLDACT:REG 16-07-03 02:29 OP:lv   STATUS:               ID:20160702202740     3
 2016-07-02-2027-40M.COL___337                                                 6
 STAT SP IPHASW D HRMM SECON CODA AMPLIT PERI AZIMU VELO AIN AR TRES W  DIS CAZ7
 BAR2 EZ EP   2   2029 38.16                             172    0.13 5 18.9 176 
 BAR2 EZ ES   2   2029 52.87                             172   -0.70 5 18.9 176 
 BAR2 EZ I        2029 53.96         4.9 0.22            173           18.9 176 
 BRR  HE ES   2   2029 56.62                             154    0.52 5 68.7 304 
 BRR  HZ I        2030  1.09         9.8 0.38            151           68.7 304 
 RUS  HZ EP       2029 41.90                             145   -0.0110 97.0 173 
 RUS  HE ES       2030  0.59                             145    0.1110 97.0 173 
 RUS  HZ I        2030  1.44         1.5 0.34            150           97.0 173 
 PTB  HZ EP       2029 44.67                             134   -0.12 9  142 260 
 PTB  HN ES       2030  5.61                             134    0.01 9  142 260 
 PTB  HZ I        2030 11.16         2.3 0.16            134            142 260 
                                                                                
