 2017  8 2 2300 36.1 L   6.794 -73.131154.0  RSN  8 0.3 1.6LRSN                1
 GAP=121        0.82       3.6     3.5  5.1  0.1217E+00  0.1321E+01  0.3366E+01E
 Epicentro: LOS SANTOS - SANTANDER                                             3
 ACTION:UPD 17-09-04 20:15 OP:rebc STATUS:               ID:20170802230036 L   I
 OLDACT:UP  17-08-03 09:33 OP:and  STATUS:               ID:20170802225746     3
 OLDACT:REG 17-08-03 06:06 OP:mg   STATUS:               ID:20170802225746     3
 2017-08-02-2258-00M.COL___398                                                 6
 STAT SP IPHASW D HRMM SECON CODA AMPLIT PERI AZIMU VELO AIN AR TRES W  DIS CAZ7
 BAR2 HZ EP       23 0 56.50                             171   -0.2010 23.0 194 
 BAR2 HZ ES       23 1 12.92                             171    0.1410 23.0 194 
 BAR2 HZ I        23 1 18.52         5.1 0.26            171           23.0 194 
 BRR  HZ EP       23 0 58.46                             153    0.2310 72.9 298 
 BRR  HN ES       23 1 15.84                             153    0.3510 72.9 298 
 PAM  EZ EP       23 0 59.39                             152    0.2310 76.9  38 
 PAM  EN ES       23 1 16.71                             152   -0.4410 76.9  38 
 PAM  EZ I        23 1 18.72         7.6 0.46            156           76.9  38 
 RUS  HZ EP       23 1  0.85                             146    0.2410 99.8 177 
 RUS  HN ES       23 1 19.77                             146    0.0410 99.8 177 
 RUS  HZ I        23 1 20.59         4.9 0.30            148           99.8 177 
 PTB  HZ EP       23 1  3.42                             133   -0.45 9  149 259 
 PTB  HN ES       23 1 25.05                             133   -0.48 9  149 259 
 PTB  HZ I        23 1 30.50         4.5 0.19            136            149 259 
 SPBC HZ EP       23 1  5.79                             131    0.51 9  164 220 
 SPBC HN ES       23 1 28.00                             131   -0.05 9  164 220 
 SPBC HZ I        23 1 29.27         8.0 0.12            133            164 220 
 ZAR  HN ES       23 1 35.19                             124    0.06 8  206 292 
 PTGC HZ IP     D 23 1 19.76                             113   -0.43 7  308 159 
                                                                                
