 2011 10 2 2329 19.1 L   6.708 -73.214138.2  RSN  4 0.2 1.1LRSN                1
 GAP=179        0.49       8.2    15.5  7.1  0.1050E+03 -0.1225E+02 -0.5292E+01E
 Epicentro: VILLANUEVA - SANTANDER                                             3
 ACTION:UPD 12-07-13 16:01 OP:ep   STATUS:               ID:20111002232919 L   I
 2011-10-02-2326-56S.COL___168                                                 6
 STAT SP IPHASW D HRMM SECON CODA AMPLIT PERI AZIMU VELO AIN AR TRES W  DIS CAZ7
 BAR2 SZ ES   2   2329 51.85                             174   -0.31 5 13.3 165 
 BTL  SZ EP       2329 38.03                             169    0.1610 24.0 346 
 BRR  HZ EP       2329 39.46                             152    0.0310 70.5 309 
 BRR  HZ I        2329 39.54         6.2 0.46                          70.5 309 
 BRR  HN ES   2   2329 55.07                             152   -0.19 5 70.5 309 
 RUS  HZ EP       2329 41.29                             145   -0.1910 91.4 171 
 RUS  HN ES   2   2329 59.38                             145    0.47 5 91.4 171 
 RUS  HZ I        2330  0.42         1.2 0.48                          91.4 171 
                                                                                
