 2011  7 2 2245 39.6 L   5.896 -73.637127.4  RSN  5 0.3 1.8LRSN                1
 GAP=150        0.50       4.1     4.0  6.7 -0.9064E+01  0.1482E+02 -0.2747E+01E
 Epicentro: PUENTE NACIONAL - SANTANDER                                        3
 ACTION:UPD 12-07-25 13:57 OP:epov STATUS:               ID:20110702224539 L   I
 2011-07-02-2241-47S.COL___140                                                 6
 STAT SP IPHASW D HRMM SECON CODA AMPLIT PERI AZIMU VELO AIN AR TRES W  DIS CAZ7
 RUS  HZ EP   1   2245 59.07                             153    0.12 7 61.3  90 
 RUS  HN ES   1   2246 13.94                             153   -0.09 7 61.3  90 
 RUS  HZ I        2246 16.35         4.3 0.27                          61.3  90 
 BAR2 SZ EP   1   2246  1.00                             142    0.40 7 91.9  33 
 BAR2 SZ ES   1   2246 16.72                             142   -0.24 7 91.9  33 
 BAR2 SZ I        2246 17.94        27.6 0.15                          91.9  33 
 BRR  HZ EP   1   2246  3.85                             130    0.00 7  134 356 
 BRR  HZ I        2246 15.54        16.7 0.47                           134 356 
 BRR  HN ES   2   2246 22.67                             130   -0.08 5  134 356 
 NOR  SZ EP   1   2246  4.71                             129    0.11 7  141 255 
 NOR  SE ES   2   2246 24.36                             129    0.28 5  141 255 
 RREF HZ EP   1   2246 12.84                             116   -0.56 6  219 240 
 RREF HN ES   1   2246 39.78                             116    0.05 6  219 240 
 RREF HZ I        2246 43.12         3.5 0.28                           219 240 
                                                                                
