 2012 12 2 2020 32.4 L   6.742 -73.146144.2  RSN  5 0.3 1.4LRSN                1
 GAP=157        0.62       7.3     4.3  7.7 -0.9573E+01  0.9818E+01 -0.6644E+01E
 Epicentro: JORDAN - SANTANDER                                                 3
 ACTION:UPD 13-01-04 14:25 OP:ep   STATUS:               ID:20121202202032 L   I
 2012-12-02-2020-00M.COL___236                                                 6
 STAT SP IPHASW D HRMM SECON CODA AMPLIT PERI AZIMU VELO AIN AR TRES W  DIS CAZ7
 BAR2 SZ EP   1   2020 51.94                             173    0.25 7 17.0 194 
 BAR2 SZ ES   1   2021  6.33                             173   -0.44 7 17.0 194 
 BAR2 SZ I        2021  9.78         7.6 0.28                          17.0 194 
 GIR2 SZ ES   1   2021  7.87                             165    0.49 7 37.6 352 
 GIR2 SZ I        2021  9.07         3.9 0.17                          37.6 352 
 PAM  SZ EP   1   2020 54.64                             149   -0.08 7 82.5  37 
 PAM  SE ES   1   2021 12.00                             149   -0.16 7 82.5  37 
 PAM  SZ I        2021 14.04         2.8 0.24                          82.5  37 
 PTB  HN ES   1   2021 20.07                             132    0.13 7  147 261 
 PTB  HZ I        2021 22.11         5.7 0.14                           147 261 
 ZAR  HN ES   1   2021 30.12                             122   -0.26 6  206 294 
                                                                                
