 2014  6 2 2323 39.7 L   6.810 -73.158141.1  RSN  7 0.3 1.8LRSN                1
 GAP=200        0.85       3.5     5.4  6.3  0.1120E+01  0.8522E+01 -0.7031E+01E
 Epicentro: LOS SANTOS - SANTANDER                                             3
 ACTION:UPD 14-07-01 22:50 OP:nd   STATUS:               ID:20140602232339 L   I
 OLDACT:UP  14-06-03 03:36 OP:cam  STATUS:               ID:20140602232000     3
 OLDACT:UP  14-06-03 03:36 OP:cam  STATUS:               ID:20140602232000     3
 OLDACT:UP  14-06-03 03:35 OP:cam  STATUS:               ID:20140602232000     3
 OLDACT:REG 14-06-03 02:46 OP:cam  STATUS:               ID:20140602232000     3
 2014-06-02-2320-00M.COL___276                                                 6
 STAT SP IPHASW D HRMM SECON CODA AMPLIT PERI AZIMU VELO AIN AR TRES W  DIS CAZ7
 BAR2 SZ EP       2323 59.00                             170    0.2210 24.2 186 
 BAR2 SZ ES       2324 13.46                             170   -0.2110 24.2 186 
 BAR2 SZ I        2324 18.24         8.0 0.22            169           24.2 186 
 BRR  HZ EP     D 2324  0.85                             152    0.6110 69.5 298 
 BRR  HE ES   4   2324 18.20                             152    1.94 0 69.5 298 
 BRR  HZ I        2324 24.22         6.7 0.18            149           69.5 298 
 RUS  HZ EP       2324  2.89                             142   -0.1910  102 175 
 RUS  HE ES       2324 21.42                             142    0.1010  102 175 
 RUS  HZ I        2324 24.69         5.5 0.86            150            102 175 
 PTB  HZ EP       2324  5.71                             131   -0.47 9  147 258 
 PTB  HN ES       2324 27.24                             131    0.40 9  147 258 
 PTB  HZ I        2324 31.61        11.1 0.16            133            147 258 
 SPBC HZ EP       2324  7.99                             128    0.15 9  163 218 
 SPBC HN ES       2324 29.33                             128   -0.46 9  163 218 
 SPBC HZ I        2324 37.32         7.4 0.54            132            163 218 
 NOR  HZ EP       2324 15.18                             118    0.07 8  234 234 
 NOR  HN ES   4   2324 44.22                             118    1.49 0  234 234 
 NOR  HZ I        2324 49.08         5.8 0.14            122            234 234 
 SML  HZ EP       2324 15.88                             117   -0.01 8  242 335 
 SML  HN ES       2324 43.71                             117   -0.41 8  242 335 
 SML  HZ I        2324 54.18         8.4 0.26            120            242 335 
 GUY2CHZ EP   4   2324 24.55                             111    1.51 0  301 234 
                                                                                
