 2015  8 2 2342 16.4 L   6.544 -73.505114.1  RSN 17 0.4 2.0LRSN                1
 GAP= 66        0.97       2.2     2.8  5.4 -0.1188E+01  0.7890E+01  0.3059E-01E
 Epicentro: EL CARMEN - SANTANDER                                              3
 ACTION:UPD 15-09-15 22:59 OP:cam  STATUS:               ID:20150802234216 L   I
 OLDACT:REG 15-08-03 02:59 OP:ak   STATUS:               ID:20150802233750     3
 2015-08-02-2337-50M.COL___349                                                 6
 STAT SP IPHASW D HRMM SECON CODA AMPLIT PERI AZIMU VELO AIN AR TRES W  DIS CAZ7
 BAR2 EZ EP       2342 33.08                             161    0.4410 36.0  81 
 BAR2 EZ ES       2342 45.51                             161    0.1910 36.0  81 
 BRR  HZ EP       2342 33.81                             148   -0.0910 66.4 340 
 BRR  HE ES       2342 47.64                             148    0.0810 66.4 340 
 BRR  HZ I        2342 53.51        20.1 0.16            148           66.4 340 
 RUS  HZ EP       2342 36.57                             141    0.5910 85.8 147 
 RUS  HE ES       2342 51.05                             141   -0.2110 85.8 147 
 RUS  HZ I        2342 53.29        13.0 0.32            146           85.8 147 
 PAM  EZ EP       2342 39.38                             129   -0.0110  125  45 
 PAM  EN ES       2342 56.84                             129   -0.4910  125  45 
 PAM  EZ I        2342 59.14         7.9 0.25            133            125  45 
 ZAR  HZ EP       2342 45.41                             117    0.76 9  183 305 
 ZAR  HN ES       2343  7.49                             117    0.80 9  183 305 
 ZAR  HZ I        2343  9.70        28.1 0.20            119            183 305 
 NOR  HZ EP       2342 44.79                             117   -0.27 9  186 234 
 NOR  HE ES       2343  7.01                             117   -0.41 9  186 234 
 NOR  HZ I        2343 10.23        16.9 0.16            119            186 234 
 OCA  HZ EP   1   2342 45.51                             117    0.03 7  189   6 
 OCA  HN ES       2343  7.73                             117   -0.43 9  189   6 
 OCA  HZ I        2343 16.50        21.6 0.30            119            189   6 
 CHI  HZ EP       2342 48.65                             113    0.12 8  213 187 
 CHI  HN ES       2343 13.19                             113   -0.40 8  213 187 
 CHI  HZ I        2343 16.38         3.2 0.32            117            213 187 
 HEL  HZ EP       2342 50.43                             112    0.36 8  227 260 
 HEL  HN ES       2343 16.18                             112   -0.15 8  227 260 
 HEL  HZ I        2343 21.30         8.7 0.24            114            227 260 
 GUY2CHZ EP       2342 53.22                             109    0.15 8  252 235 
 GUY2CHE ES       2343 21.33                             109   -0.34 8  252 235 
 GUY2CHZ I        2343 31.37         7.8 0.38                           252 235 
 SML  HZ EP       2342 52.95                             109   -0.08 8  257 346 
 SML  HE ES       2343 20.97                             109   -0.63 8  257 346 
 SML  HZ I        2343 26.36        19.5 0.10            111            257 346 
 URE  HE ES   4   2343 20.84                             108   -1.52 0  261 301 
 URE  HZ I        2343 24.02         9.6 0.12            111            261 301 
 ELA  HZ EP   4   2342 53.02                             107   -3.38 0  281 229 
 ELA  HE ES       2343 27.34                             107   -0.26 7  281 229 
 ELA  HZ I        2343 32.72         6.7 0.38            109            281 229 
 CBOC HZ EP       2342 57.09                             106    0.33 7  288 255 
 CBOC HN ES       2343 28.68                             106    0.43 7  288 255 
 CBOC HZ I        2343 32.36         3.0 0.37            109            288 255 
 TOL  SZ EP   4   2343  0.17                             106    2.26 0  296 223 
 TOL  SN ES   4   2343 32.09                             106    1.80 0  296 223 
 TOL  SZ I        2343 35.64         4.3 0.35            108            296 223 
 DBB  SZ EP   1   2342 58.01                             105   -0.53 5  304 280 
 DBB  SZ ES       2343 30.59                             105   -0.82 7  304 280 
 DBB  SZ I        2343 35.94        15.2 0.43            107            304 280 
 MON  HZ EP   4   2343  0.32                             103   -2.81 0  343 316 
 MON  HN ES   4   2343 36.59                             103   -3.00 0  343 316 
 MON  HZ I        2343 39.98         4.8 0.22            105            343 316 
                                                                                
