 2011  5 2 2105 40.9 L   6.803 -73.137140.4  RSN 10 0.4 2.2LRSN                1
 GAP=115        0.80       2.9     4.5  5.6 -0.3831E+01  0.4718E+01  0.2503E+01E
 Epicentro: LOS SANTOS - SANTANDER                                             3
 ACTION:UP  11-06-29 08:50 OP:tino STATUS:               ID:20110502210540 L   I
 2011-05-02-2102-37S.COL___131                                                 6
 STAT SP IPHASW D HRMM SECON CODA AMPLIT PERI AZIMU VELO SNR AR TRES W  DIS CAZ7
 BAR2 SZ EP   1   21 5 59.60                             170    -0.3 8   24 192 
 BAR2 SZ ES   1   21 6 14.39                             170    -0.3 8   24 192 
 BAR2 SZ I        21 6 15.85        37.5 0.19                            24 192 
 BRR  HZ EP   1   21 6  1.45                             151    -0.1 8   72 298 
 BRR  HZ I        21 6  1.70        76.1 0.11                            72 298 
 BRR  HE ES   1   21 6 18.04                             151     0.4 8   72 298 
 PAM  SZ EP   1   21 6  2.69                             150     0.2 8   77  39 
 PAM  SE ES   1   21 6 19.42                             150     0.1 8   77  39 
 RUS  HZ EP   1   21 6  3.83                             143    -0.3 8  101 177 
 RUS  HN ES   1   21 6 22.40                             143     0.1 8  101 177 
 RUS  HZ I        21 6 24.04        17.1 0.46                           101 177 
 BRI  SZ EP       21 6  4.25                             140     0.010  108  20 
 BRI  SZ ES       21 6 22.13                             140    -0.310  108  20 
 BRI  SZ I        21 6 28.00        15.3 0.42                           108  20 
 GRA  SZ EP   1   21 6  5.54                             136    -0.1 7  125  17 
 GRA  SZ ES   1   21 6 25.37                             136     0.5 7  125  17 
 GRA  SZ I        21 6 26.42        18.2 0.29                           125  17 
 OCA  SZ EP   1   21 6  8.65                             128    -0.1 7  160 353 
 OCA  SZ ES   2   21 6 30.85                             128     0.3 5  160 353 
 OCA  SZ I        21 6 38.14        27.7 0.28                           160 353 
 YOP  SZ EP   1   21 6 10.43                             125    -0.1 7  179 154 
 YOP  SZ I        21 6 10.64        11.0 0.39                           179 154 
 YOP  SE ES   1   21 6 34.16                             125     0.5 7  179 154 
 NOR  SZ EP   1   21 6 16.13                             117    -0.3 6  236 235 
 NOR  SN ES   1   21 6 43.41                             117    -0.7 6  236 235 
 RREF HZ EP   1   21 6 27.61                             110     0.7 5  323 229 
 RREF HN ES   1   21 7  3.67                             110     0.8 5  323 229 
 RREF HZ I        21 7  9.16        11.2 0.39                           323 229 
                                                                                
