 2014  8 2 2058 48.5 L   6.767 -73.128145.6  RSN 12 0.3 1.9LRSN                1
 GAP=140        0.73       2.4     3.1  4.6 -0.1414E+01  0.3474E+01 -0.2840E+00E
 Epicentro: LOS SANTOS - SANTANDER                                             3
 ACTION:UPD 14-09-15 21:46 OP:nd   STATUS:               ID:20140802205848 L   I
 OLDACT:REG 14-08-03 02:54 OP:fm   STATUS:               ID:20140802204818     3
 2014-08-02-2048-18M.COL___254                                                 6
 STAT SP IPHASW D HRMM SECON CODA AMPLIT PERI AZIMU VELO AIN AR TRES W  DIS CAZ7
 BAR2 SZ EP     C 2059  8.05                             172    0.0310 20.2 197 
 BAR2 SZ ES   1   2059 23.00                             172   -0.27 7 20.2 197 
 BAR2 SZ I        2059 25.80        11.6 0.26            174           20.2 197 
 BRR  HZ EP   1   2059  9.95                             151    0.15 7 74.7 300 
 BRR  HN ES       2059 26.95                             151    0.5110 74.7 300 
 BRR  HZ I        2059 31.12        16.2 0.14            152           74.7 300 
 PAM  SZ EP       2059 10.94                             150    0.1810 79.0  37 
 PAM  SN ES   1   2059 28.22                             150    0.07 7 79.0  37 
 PAM  SZ I        2059 35.36         8.6 0.18            153           79.0  37 
 RUS  HZ EP   1   2059 12.07                             145    0.14 7 96.8 177 
 RUS  HN ES   1   2059 29.78                             145   -0.45 7 96.8 177 
 RUS  HZ I        2059 31.93         7.8 0.30            150           96.8 177 
 PTB  HZ EP       2059 15.04                             132   -0.49 9  149 260 
 PTB  HE ES       2059 36.22                             132   -0.43 9  149 260 
 PTB  HZ I        2059 38.09        10.3 0.18            135            149 260 
 SPBC HZ EP       2059 17.06                             129    0.26 9  162 220 
 SPBC HN ES       2059 38.97                             129    0.06 9  162 220 
 SPBC HZ I        2059 44.91        10.2 0.16            133            162 220 
 OCA  HN ES   1   2059 39.50                             129    0.01 7  164 353 
 OCA  HZ I        2059 43.19        12.2 0.18            132            164 353 
 ZAR  HZ EP       2059 20.76                             122   -0.47 8  207 293 
 ZAR  HN ES       2059 46.58                             122   -0.21 8  207 293 
 ZAR  HZ I        2059 52.07        15.0 0.54            125            207 293 
 NOR  HZ EP   1   2059 24.57                             119    0.44 6  234 235 
 NOR  HN ES       2059 52.19                             119    0.24 8  234 235 
 NOR  HZ I        2059 53.45         7.3 0.18            122            234 235 
 SML  HZ EP   1   2059 25.14                             117   -0.39 6  248 335 
 SML  HN ES       2059 54.58                             117    0.14 8  248 335 
 SML  HZ I        2059 60.00        11.0 0.28            120            248 335 
 HEL  HZ EP   1   2059 28.82                             115    0.04 6  273 257 
 HEL  HN ES   4   21 0  4.08                             115    3.85 0  273 257 
 HEL  HZ I        21 0  6.38         5.0 0.26            118            273 257 
 GUY2CHZ EP   4   2059 33.63                             112    1.62 0  301 236 
 GUY2CHN ES   1   21 0  6.72                             112    0.74 5  301 236 
 GUY2CHZ I        21 0 12.72         3.2 0.26                           301 236 
                                                                                
