 2017  7 2 2151 43.1 L   6.759 -73.188148.2  RSN  4 0.1 1.2LRSN                1
 GAP=138        0.37       4.4     2.5  3.2 -0.2492E+01 -0.3376E+00 -0.1242E+01E
 Epicentro: LOS SANTOS - SANTANDER                                             3
 ACTION:UPD 17-08-30 15:29 OP:rebc STATUS:               ID:20170702215143 L   I
 OLDACT:REG 17-07-03 02:53 OP:lv   STATUS:               ID:20170702214742     3
 2017-07-02-2148-00M.COL___380                                                 6
 STAT SP IPHASW D HRMM SECON CODA AMPLIT PERI AZIMU VELO AIN AR TRES W  DIS CAZ7
 BAR2 EZ EP       2152  2.95                             173    0.0110 18.4 178 
 BAR2 EZ ES       2152 18.45                             173    0.0410 18.4 178 
 BAR2 EZ I        2152 19.89         3.4 0.06            154           18.4 178 
 BRR  HZ EP       2152  4.54                             153    0.1110 69.5 304 
 BRR  HN ES       2152 21.10                             153    0.0410 69.5 304 
 PAM  EZ EP       2152  5.83                             149   -0.1510 83.9  40 
 PAM  EZ I        2152 33.12         2.5 0.14            122           83.9  40 
 PTB  HZ EP       2152  9.90                             134    0.11 9  142 260 
 PTB  HE ES       2152 30.44                             134   -0.16 9  142 260 
                                                                                
