 2017  5 2 2039 37.5 L   6.762 -73.204155.6  RSN  4 0.1 1.2LRSN                1
 GAP=131        0.45       3.1     3.0  4.5  0.2153E+01 -0.3316E+01 -0.2442E+01E
 Epicentro: ZAPATOCA - SANTANDER                                               3
 ACTION:UPD 17-06-16 13:32 OP:jn   STATUS:               ID:20170502203937 L   I
 OLDACT:REG 17-05-03 02:32 OP:dani STATUS:               ID:20170502203052     3
 2017-05-02-2038-00M.COL___371                                                 6
 STAT SP IPHASW D HRMM SECON CODA AMPLIT PERI AZIMU VELO AIN AR TRES W  DIS CAZ7
 BRR  HZ EP       2039 59.78                             155    0.2410 67.9 304 
 BRR  HN ES       2040 16.80                             155    0.0710 67.9 304 
 BRR  HZ I        2040 18.33         5.5 0.27            149           67.9 304 
 PAM  EZ EP       2040  0.97                             150   -0.2210 84.7  41 
 PAM  EZ I        2040 21.30         2.0 0.58            137           84.7  41 
 RUS  HZ EP       2040  2.08                             147    0.1010 97.0 172 
 RUS  HN ES       2040 21.06                             147   -0.0210 97.0 172 
 RUS  HZ I        2040 21.69         2.0 0.28            147           97.0 172 
 PTB  HZ EP       2040  4.62                             136   -0.05 9  141 260 
 PTB  HN ES       2040 25.71                             136   -0.15 9  141 260 
 PTB  HZ I        2040 32.80         2.3 0.28            134            141 260 
                                                                                
