 2010 10 2 2207 56.6 L   6.396 -73.893 88.9  RSN  6 0.2 1.6LRSN                1
 GAP=111        0.42       3.8     3.5  8.1 -0.5185E+01  0.8128E+00  0.1249E+02E
 Epicentro: CIMITARRA - SANTANDER                                              3
 ACTION:UP  11-02-18 11:07 OP:tino STATUS:               ID:20101002220756 L   I
 2010-10-02-2204-26S.COL___124                                                 6
 STAT SP IPHASW D HRMM SECON CODA AMPLIT PERI AZIMU VELO SNR AR TRES W  DIS CAZ7
 BRR  HZ EP       22 8 12.64                             134    -0.210   81  14 
 BAR2 SZ EP   3   22 8 12.52                             134    -0.7 2   81  75 
 BAR2 SZ ES   2   22 8 25.92                             134    -0.2 5   81  75 
 BAR2 SZ I        22 8 27.57        11.8 0.30                            81  75 
 BRR  HN ES   1   22 8 25.65                             134     0.1 7   81  14 
 BRR  HZ I        22 8 26.58        12.2 0.15                            81  14 
 BTL  SZ EP       22 8 14.16                             131     0.210   90  50 
 RUS  HZ EP   2   22 8 15.93                             127     0.1 5  105 122 
 NOR  SZ EP   3   22 8 19.30                             118     0.2 2  142 230 
 NOR  SE ES   2   22 8 36.65                             118     0.0 5  142 230 
 HEL  HZ EP   3   22 8 23.73                             111    -0.3 2  182 263 
 HEL  HE ES   3   22 8 45.57                             111     0.2 2  182 263 
 HEL  HZ I        22 8 47.56         5.1 0.36                           182 263 
                                                                                
