 2017  2 2 2236 54.7 L   6.302 -73.632112.9  RSN  8 0.4 1.1LRSN                1
 GAP= 69        1.09       3.1     3.5  7.2 -0.1911E+00  0.6637E+01  0.3298E+01E
 Epicentro: SANTA HELENA DEL OPON - SANTANDER                                  3
 ACTION:UPD 17-05-24 15:32 OP:jn   STATUS:               ID:20170202223654 L   I
 OLDACT:REG 17-02-03 04:33 OP:cog  STATUS:               ID:20170202222745     3
 2017-02-02-2228-00M.COL___325                                                 6
 STAT SP IPHASW D HRMM SECON CODA AMPLIT PERI AZIMU VELO AIN AR TRES W  DIS CAZ7
 BAR2 EZ ES       2237 25.70                             151    0.2910 59.2  57 
 RUS  HZ EP       2237 12.98                             144   -0.4110 75.8 127 
 RUS  HN ES       2237 27.79                             144   -0.2110 75.8 127 
 RUS  HZ I        2237 28.42         1.9 0.20            134           75.8 127 
 BRR  HZ EP       2237 13.70                             139   -0.0410 89.4 354 
 BRR  HN ES       2237 28.01                             139   -0.6110 89.4 354 
 BRR  HZ I        2237 29.30         5.9 0.36            132           89.4 354 
 PTB  HZ EP       2237 13.29                             137   -0.9210 94.9 286 
 PTB  HN ES       2237 29.91                             137    0.4510 94.9 286 
 PTB  HZ I        2237 31.08         2.1 0.15            129           94.9 286 
 PAM  EZ EP       2237 20.95                             122    0.49 9  154  42 
 PAM  EN ES       2237 40.97                             122    0.39 9  154  42 
 PAM  EZ I        2237 44.02         2.2 0.34            115            154  42 
 NOR  HZ EP       2237 20.54                             121    0.10 9  159 239 
 NOR  HN ES       2237 40.71                             121    0.17 9  159 239 
 NOR  HZ I        2237 44.40         2.3 0.20            113            159 239 
 CHI  HZ EP       2237 23.37                             117   -0.29 9  185 183 
 CHI  HZ I        2237 45.66         0.9 0.38            110            185 183 
 CHI  HN ES       2237 46.78                             117    0.51 9  185 183 
 ZAR  HZ EP       2237 23.66                             116    0.13 9  189 314 
 ZAR  HN ES       2237 46.30                             116    0.26 9  189 314 
 ZAR  HZ I        2237 49.46         2.7 0.34            110            189 314 
                                                                                
