 2013  1 2 2005 26.4 L   6.776 -73.178145.9  RSN  7 0.4 2.0LRSN                1
 GAP=232        0.74       7.1     6.8  6.6  0.3029E+02  0.1278E+02  0.1131E+02E
 Epicentro: LOS SANTOS - SANTANDER                                             3
 ACTION:UPD 13-02-15 09:11 OP:ep   STATUS:               ID:20130102200526 L   I
 2013-01-02-2000-00M.COL___242                                                 6
 STAT SP IPHASW D HRMM SECON CODA AMPLIT PERI AZIMU VELO AIN AR TRES W  DIS CAZ7
 BAR2 SZ EP   1   20 5 45.78                             172   -0.16 7 20.4 181 
 BAR2 SZ ES   1   20 6  0.80                             172   -0.43 7 20.4 181 
 BAR2 SZ I        20 6  2.38        51.8 0.18            156           20.4 181 
 BRR  HZ EP   1   20 5 47.46                             153    0.04 7 69.4 302 
 BRR  HN ES   1   20 6  4.56                             153    0.71 7 69.4 302 
 BRR  HZ I        20 6  8.89        15.9 0.16            130           69.4 302 
 RUS  HZ EP   1   20 5 49.74                             144   -0.21 7 98.3 174 
 RUS  HN ES   1   20 6  8.56                             144    0.20 7 98.3 174 
 RUS  HZ I        20 6 10.08        10.2 0.38            115           98.3 174 
 PTB  HZ EP   1   20 5 52.49                             133   -0.48 7  144 260 
 PTB  HN ES   1   20 6 13.50                             133   -0.23 7  144 260 
 PTB  HZ I        20 6 16.16         9.5 0.12            107            144 260 
 ZAR  HN ES   1   20 6 23.57                             123   -0.13 6  202 293 
 ZAR  HZ I        20 6 28.95        13.0 0.36            101            202 293 
 CHI  HZ EP   1   20 6  4.38                             117    0.70 6  245 195 
 CHI  HZ I        20 6 37.09         8.1 0.36             98            245 195 
 HEL  HZ EP   1   20 6  6.36                             115    0.24 6  268 256 
 HEL  HZ I        20 6 43.87         6.1 0.26             98            268 256 
 MON  HZ EP   4   20 6 12.22                             109   -3.00 0  353 309 
                                                                                
