 2016  4 2 2337  7.4 L   6.828 -73.212133.1  RSN  5 0.3 1.2LRSN                1
 GAP=127        0.70       3.5     3.1  6.1 -0.3599E+00  0.6729E+01 -0.1957E+01E
 Epicentro: ZAPATOCA - SANTANDER                                               3
 ACTION:UPD 16-05-05 14:18 OP:rebc STATUS:               ID:20160402233707 L   I
 OLDACT:DUP 16-04-04 23:13 OP:cara STATUS:               ID:20160402232747d    3
 2016-04-02-2327-46M.COL___310                                                 6
 STAT SP IPHASW D HRMM SECON CODA AMPLIT PERI AZIMU VELO AIN AR TRES W  DIS CAZ7
 BAR2 EZ ES       2337 40.19                             168    0.4810 26.3 173 
 BAR2 EZ I        2337 41.45         2.9 0.16            172           26.3 173 
 PAM  EZ IP       2337 28.42                             147    0.0110 80.1  45 
 PAM  EN ES       2337 44.62                             147   -0.2110 80.1  45 
 PAM  EZ I        2337 46.65         2.7 0.24            149           80.1  45 
 RUS  HZ EP       2337 30.30                             140    0.1210  104 172 
 RUS  HN ES       2337 47.61                             140   -0.3710  104 172 
 RUS  HZ I        2337 48.17         1.1 0.32            145            104 172 
 PTB  HZ EP       2337 32.93                             130    0.22 9  141 257 
 PTB  HN ES       2337 52.29                             130   -0.19 9  141 257 
 PTB  HZ I        2337 55.55        10.3 0.92            130            141 257 
 ZAR  HE ES       2338  2.11                             121   -0.09 9  196 292 
 ZAR  HZ I        2338 11.07         1.9 0.30            120            196 292 
                                                                                
