 2015  9 2 2355 10.3 L   6.956 -73.231128.1  RSN  6 0.4 1.3LRSN                1
 GAP=196        0.83       5.2     5.8  7.4  0.1680E+02  0.2884E+01 -0.2784E+01E
 Epicentro: BETULIA - SANTANDER                                                3
 ACTION:UPD 15-10-28 16:23 OP:cam  STATUS:               ID:20150902235510 L   I
 OLDACT:DUP 15-09-03 09:42 OP:spq  STATUS:               ID:20150902234749d    3
 2015-09-02-2347-48M.COL___355                                                 6
 STAT SP IPHASW D HRMM SECON CODA AMPLIT PERI AZIMU VELO AIN AR TRES W  DIS CAZ7
 BAR2 EZ EP       2355 28.13                             161   -0.2510 40.5 172 
 BAR2 EZ ES   1   2355 42.58                             161    0.12 7 40.5 172 
 BAR2 EZ I        2355 43.26         6.2 0.18            162           40.5 172 
 BRR  HZ EP       2355 28.52                             155   -0.2010 55.7 288 
 BRR  HN ES       2355 43.17                             155    0.1210 55.7 288 
 BRR  HZ I        2355 43.60         6.3 0.12            153           55.7 288 
 RUS  HZ EP   1   2355 33.98                             135    0.09 7  119 172 
 RUS  HN ES   1   2355 52.48                             135    0.21 7  119 172 
 RUS  HZ I        2355 52.62         1.1 0.22            135            119 172 
 PTB  HZ EP       2355 35.86                             129    0.39 9  143 251 
 PTB  HE ES   1   2355 54.09                             129   -0.98 7  143 251 
 PTB  HZ I        2355 57.23         2.1 0.24            127            143 251 
 ZAR  HE ES       2356  3.78                             120    0.44 9  189 288 
 ZAR  HZ I        2356  6.84         3.7 0.34            119            189 288 
 SML  HN ES   1   2356  9.78                             116   -0.23 6  224 336 
 SML  HZ I        2356 12.23         3.9 0.24            115            224 336 
                                                                                
