 2013  2 2 2323 51.6 L   6.808 -73.149148.0  RSN 15 0.4 2.5LRSN                1
 GAP= 71        0.81       2.8     3.2  5.3  0.1194E+01  0.4498E+01  0.2436E+01E
 Epicentro: LOS SANTOS - SANTANDER                                             3
 ACTION:UPD 13-03-12 09:30 OP:ep   STATUS:               ID:20130202232351 L   I
 2013-02-02-2320-00M.COL___240                                                 6
 STAT SP IPHASW D HRMM SECON CODA AMPLIT PERI AZIMU VELO AIN AR TRES W  DIS CAZ7
 BAR2 SZ EP       2324 11.54                             170   -0.0110 24.2 189 
 BAR2 SZ ES   1   2324 27.35                             170    0.26 7 24.2 189 
 BRR  HZ EP   1   2324 13.41                             153    0.42 7 70.4 298 
 BRR  HE ES   1   2324 30.51                             153    0.87 7 70.4 298 
 BRR  HZ I        2324 33.11        46.9 0.16            142           70.4 298 
 PAM  SZ EP   1   2324 14.33                             151    0.27 7 76.9  40 
 PAM  SN ES   1   2324 31.59                             151    0.04 7 76.9  40 
 PAM  SZ I        2324 33.76        59.0 0.48            140           76.9  40 
 RUS  HZ EP     D 2324 15.39                             144   -0.2910  102 176 
 RUS  HE ES   1   2324 34.23                             144   -0.20 7  102 176 
 RUS  HZ I        2324 35.19        26.7 0.38            126            102 176 
 PTB  HZ EP   1   2324 18.16                             133   -0.61 7  148 258 
 PTB  HN ES   1   2324 39.05                             133   -0.89 7  148 258 
 PTB  HZ I        2324 45.44        64.2 0.26            117            148 258 
 TAM  HZ EP   1   2324 19.70                             131    0.16 7  156 105 
 TAM  HZ I        2324 40.55        31.4 0.38            115            156 105 
 TAM  HN ES   1   2324 41.28                             131   -0.03 7  156 105 
 OCA  HN ES   1   2324 41.62                             130   -0.56 7  159 353 
 OCA  HZ I        2324 47.55        43.1 0.16            117            159 353 
 ZAR  HZ EP   1   2324 24.09                             123   -0.07 6  203 292 
 ZAR  HE ES   1   2324 49.68                             123    0.15 6  203 292 
 ZAR  HZ I        2324 55.99        44.6 0.16            110            203 292 
 SML  HZ EP   1   2324 28.50                             118    0.22 6  243 335 
 SML  HN ES   1   2324 56.25                             118   -0.61 6  243 335 
 CHI  HZ EP   1   2324 29.49                             118   -0.06 6  249 195 
 CHI  HN ES   1   2324 58.51                             118   -0.61 6  249 195 
 CHI  HZ I        2325  4.91        14.8 0.50            105            249 195 
 ROSC BZ EP   1   2324 30.16                             117    0.21 6  253 211 
 ROSC BZ I        2325  9.30        42.0 0.45            105            253 211 
 HEL  HZ EP   1   2324 32.47                             115    0.52 6  272 256 
 HEL  HN ES   1   2325  4.03                             115    0.63 6  272 256 
 HEL  HZ I        2325 10.30        17.8 0.34            104            272 256 
 URE  HZ EP   1   2324 32.51                             114   -0.23 6  283 292 
 VIL  SE ES   1   2325  9.58                             112    0.31 5  304 191 
 ANIL HZ EP   1   2324 42.33                             109    0.75 5  358 224 
 ANIL HZ I        2325 25.64        18.3 0.36            100            358 224 
                                                                                
