 2015  2 2 2251 53.7 L   6.795 -73.178145.6  RSN  5 0.3 1.4LRSN                1
 GAP=133        0.63       3.9     3.3  6.6 -0.8927E+00  0.7716E+01 -0.1809E+01E
 Epicentro: LOS SANTOS - SANTANDER                                             3
 ACTION:UPD 15-04-30 21:20 OP:nd   STATUS:               ID:20150202225153 L   I
 OLDACT:REG 15-02-03 03:43 OP:spq  STATUS:               ID:20150202224749     3
 2015-02-02-2247-49M.COL___265                                                 6
 STAT SP IPHASW D HRMM SECON CODA AMPLIT PERI AZIMU VELO AIN AR TRES W  DIS CAZ7
 BAR2 EZ ES   1   2252 28.37                             171   -0.19 7 22.4 181 
 BAR2 EZ I        2252 30.45         6.6 0.28            170           22.4 181 
 PAM  SZ EP       2252 16.20                             150    0.1510 80.1  41 
 PAM  SE ES       2252 33.36                             150   -0.1410 80.1  41 
 PAM  SZ I        2252 33.82         4.4 0.30            154           80.1  41 
 RUS  HZ EP   1   2252 17.45                             144    0.05 7  100 174 
 RUS  HN ES   1   2252 36.23                             144    0.33 7  100 174 
 RUS  HZ I        2252 37.45         2.5 0.50            146            100 174 
 PTB  HZ EP   1   2252 19.71                             133   -0.61 7  144 259 
 PTB  HN ES   1   2252 40.96                             133   -0.13 7  144 259 
 PTB  HZ I        2252 44.08         4.6 0.18            132            144 259 
 ZAR  HN ES       2252 51.20                             123    0.34 9  201 293 
 ZAR  HZ I        2252 56.48         3.9 0.42            123            201 293 
                                                                                
