 2014  2 2 2223 51.4 L   6.796 -73.134151.3  RSN  8 0.3 1.6LRSN                1
 GAP=138        0.78       2.7     3.9  5.4 -0.9151E+00  0.2555E+01  0.1464E+01E
 Epicentro: LOS SANTOS - SANTANDER                                             3
 ACTION:UPD 14-03-10 08:07 OP:ep   STATUS:               ID:20140202222351 L   I
 OLDACT:UP  14-02-02 22:04 OP:cam  STATUS:               ID:20140202222000     3
 OLDACT:REG 14-02-02 21:34 OP:cam  STATUS:               ID:20140202222000     3
 2014-02-02-2220-00M.COL___288                                                 6
 STAT SP IPHASW D HRMM SECON CODA AMPLIT PERI AZIMU VELO AIN AR TRES W  DIS CAZ7
 BRR  HZ EP     C 2224 13.47                             153    0.2810 72.5 298 
 BRR  HN ES       2224 30.81                             153    0.6010 72.5 298 
 BRR  HZ I        2224 35.22         5.9 0.14            154           72.5 298 
 PAM  SZ EP       2224 14.42                             152    0.2710 76.9  39 
 PAM  SN ES       2224 31.78                             152   -0.1410 76.9  39 
 PAM  SZ I        2224 36.24         4.3 0.36            155           76.9  39 
 RUS  HZ EP       2224 15.37                             145   -0.2610  100 177 
 RUS  HE ES       2224 34.28                             145   -0.2810  100 177 
 RUS  HZ I        2224 36.70         3.8 0.30            147            100 177 
 PTB  HZ EP       2224 18.66                             133   -0.24 9  149 259 
 PTB  HN ES       2224 40.01                             133   -0.36 9  149 259 
 PTB  HZ I        2224 41.59         8.6 0.14            135            149 259 
 SPBC HZ EP   1   2224 20.55                             130    0.21 7  164 219 
 SPBC HN ES   1   2224 43.12                             130    0.18 7  164 219 
 SPBC HZ I        2224 48.28         7.3 0.12            133            164 219 
 NOR  HN ES   2   2224 55.81                             120    0.12 4  235 235 
 SML  HZ EP   1   2224 28.54                             118    0.13 6  245 335 
 SML  HN ES       2224 56.73                             118   -0.57 8  245 335 
 SML  HZ I        2225  1.83         7.9 0.10            121            245 335 
 CHI  HZ EP       2224 29.75                             118    0.38 8  249 195 
 CHI  HN ES   1   2224 58.79                             118   -0.22 6  249 195 
 CHI  HZ I        2225  4.87         1.9 0.58            121            249 195 
                                                                                
