 2011 12 2 2310 14.9 L   6.790 -73.144147.3  RSN  4 0.2 1.5LRSN                1
 GAP=186        0.45       4.7     9.0  4.7  0.2596E+02 -0.4238E+01  0.4376E+00E
 Epicentro: LOS SANTOS - SANTANDER                                             3
 ACTION:UPD 12-07-13 16:13 OP:ep   STATUS:               ID:20111202231014 L   I
 2011-12-02-2310-00M.COL___182                                                 6
 STAT SP IPHASW D HRMM SECON CODA AMPLIT PERI AZIMU VELO AIN AR TRES W  DIS CAZ7
 BAR2 SZ EP   1   2310 34.42                             171   -0.29 7 22.3 191 
 BAR2 SZ ES   1   2310 49.98                             171   -0.17 7 22.3 191 
 BAR2 SZ I        2310 52.29         8.2 0.28                          22.3 191 
 GIR2 SZ EP   1   2310 34.67                             167   -0.13 7 32.4 350 
 GIR2 SZ ES   1   2310 50.57                             167    0.26 7 32.4 350 
 BRR  HZ EP   1   2310 36.31                             153    0.04 7 71.9 299 
 BRR  HZ I        2310 39.06        10.5 0.35                          71.9 299 
 BRR  HN ES   1   2310 52.93                             153    0.00 7 71.9 299 
 RUS  HZ EP   1   2310 39.05                             144    0.31 7 99.5 176 
 RUS  HN ES   1   2310 57.32                             144   -0.01 7 99.5 176 
 RUS  HZ I        2310 58.79         2.6 0.26                          99.5 176 
                                                                                
