 2012  6 2 2256  9.5 L   6.443 -73.415138.3  RSN  7 0.2 1.6LRSN                1
 GAP=114        0.48       2.8     2.4  4.7 -0.4340E+00  0.2531E+01 -0.2466E+01E
 Epicentro: SIMACOTA - SANTANDER                                               3
 ACTION:UPD 12-08-06 17:46 OP:ep   STATUS:               ID:20120602225618 L   I
 2012-06-02-2250-00M.COL___201                                                 6
 STAT SP IPHASW D HRMM SECON CODA AMPLIT PERI AZIMU VELO AIN AR TRES W  DIS CAZ7
 BAR2 SZ EP   1   2256 28.14                             167   -0.26 8 30.5  57 
 BAR2 SZ ES   1   2256 43.12                             167   -0.03 8 30.5  57 
 BAR2 SZ I        2256 44.66        14.9 0.31            165           30.5  57 
 RUS  HZ EP   1   2256 30.69                             151    0.15 8 71.1 149 
 RUS  HE ES   1   2256 46.92                             151   -0.04 8 71.1 149 
 RUS  HZ I        2256 48.29         6.1 0.18            129           71.1 149 
 PTB  HZ EP   1   2256 33.00                             138   -0.04 7  116 275 
 PTB  HN ES       2256 51.30                             138   -0.1110  116 275 
 PTB  HZ I        2256 53.57         5.3 0.17            118            116 275 
 PAM  SZ EP   1   2256 34.54                             135   -0.07 7  127  39 
 PAM  SN ES   1   2256 54.66                             135    0.45 7  127  39 
 ZAR  HE ES   1   2257  5.46                             122    0.34 7  197 306 
 OCA  HN ES   1   2257  5.36                             121   -0.40 7  199   3 
 HEL  HZ EP   1   2256 45.45                             117    0.15 6  236 263 
 HEL  HZ I        2257 19.31         3.3 0.30            103            236 263 
                                                                                
