 2010  9 2 2333 18.7 L   6.807 -73.061136.0  RSN  8 0.3 2.0LRSN                1
 GAP=168        0.63       3.2     6.0  6.2 -0.8216E+00 -0.1216E+02 -0.5830E+00E
 Epicentro: LOS SANTOS - SANTANDER                                             3
 ACTION:UP  11-02-18 10:59 OP:tino STATUS:               ID:20100902233318 L   I
 2010-09-02-2331-10S.COL___120                                                 6
 STAT SP IPHASW D HRMM SECON CODA AMPLIT PERI AZIMU VELO SNR AR TRES W  DIS CAZ7
 BAR2 SZ EP   1   2333 37.10                             168    -0.2 7   27 210 
 BAR2 SZ ES   2   2333 51.49                             168    -0.2 5   27 210 
 BAR2 SZ I        2333 53.06        20.5 0.59                            27 210 
 BRR  HZ EP       2333 39.05                             148    -0.310   79 295 
 BRR  HN ES       2333 55.62                             148     0.210   79 295 
 BRR  HZ I        2334  0.03        29.9 0.20                            79 295 
 RUS  HZ EP   1   2333 41.56                             142     0.0 7  101 181 
 RUS  HN ES   1   2333 59.46                             142     0.1 7  101 181 
 RUS  HZ I        2334  2.31         4.2 0.33                           101 181 
 GUE  SZ EP       2333 42.41                             138     0.110  114   8 
 GRA  SZ EP   1   2333 43.18                             136     0.4 7  122  13 
 GRA  SZ I        2334  3.59        16.5 0.71                           122  13 
 OCA  SZ ES   2   2334  7.17                             127    -0.7 5  161 350 
 OCA  SZ I        2334 10.50        23.2 0.86                           161 350 
 RREF HN ES   2   2334 42.05                             109     0.3 3  329 230 
 RREF HZ I        2334 47.56         3.6 0.15                           329 230 
 PRA  HZ EP   1   2334 12.64                             105     0.1 4  397 211 
 PRA  HN ES   2   2334 53.97                             105    -0.6 3  397 211 
 PRA  HZ I        2334 57.79         4.0 0.23                           397 211 
                                                                                
