 2017  1 2 2022 50.1 L   6.610 -73.137153.8  RSN  4 0.3 1.1LRSN                1
 GAP=225        0.76       6.3     6.5  6.3  0.2122E+02  0.8646E+01  0.2963E+01E
 Epicentro: SAN GIL - SANTANDER                                                3
 ACTION:UPD 17-05-22 15:54 OP:jn   STATUS:               ID:20170102202250 L   I
 OLDACT:UP  17-01-03 04:30 OP:edw  STATUS:               ID:20170102201746     3
 OLDACT:REG 17-01-03 02:33 OP:edw  STATUS:               ID:20170102201746     3
 2017-01-02-2018-00M.COL___381                                                 6
 STAT SP IPHASW D HRMM SECON CODA AMPLIT PERI AZIMU VELO AIN AR TRES W  DIS CAZ7
 BAR2 EZ ES       2023 26.21                             178   -0.1510 5.42 249 
 RUS  HZ EP       2023 12.78                             152   -0.4910 79.5 176 
 RUS  HE ES       2023 31.74                             152    0.3710 79.5 176 
 RUS  HZ I        2023 34.46         2.0 0.26            147           79.5 176 
 BRR  HZ EP       2023 13.13                             150    0.2910 84.1 311 
 BRR  HE ES       2023 30.55                             150   -0.0410 84.1 311 
 PTB  HZ EP       2023 17.76                             134    0.20 9  146 267 
 PTB  HN ES       2023 38.84                             134   -0.17 9  146 267 
 PTB  HZ I        2023 44.72         1.5 0.16            131            146 267 
                                                                                
