 2010  9 2 2014 59.2 L   6.800 -73.028145.7  RSN  5 0.3 2.2LRSN                1
 GAP=178        0.75       4.5    11.0  8.6  0.2419E+02 -0.5380E+02 -0.1597E+02E
 Epicentro: CEPITA - SANTANDER                                                 3
 ACTION:UP  11-02-18 10:59 OP:tino STATUS:               ID:20100902201459 L   I
 2010-09-02-2013-21S.COL___120                                                 6
 STAT SP IPHASW D HRMM SECON CODA AMPLIT PERI AZIMU VELO SNR AR TRES W  DIS CAZ7
 BAR2 SZ EP       2015 18.85                             168    -0.110   29 217 
 BAR2 SZ ES   1   2015 34.16                             168    -0.2 7   29 217 
 BAR2 SZ I        2015 35.60        39.2 0.32                            29 217 
 BRR  HZ EP       2015 20.68                             149    -0.410   83 294 
 BRR  HZ I        2015 21.12        67.6 0.31                            83 294 
 BRR  HN ES       2015 38.32                             149     0.210   83 294 
 RUS  HZ EP       2015 23.06                             144     0.110  101 184 
 RUS  HN ES   1   2015 41.68                             144     0.2 7  101 184 
 RUS  HZ I        2015 42.47        13.3 0.25                           101 184 
 GUE  SZ EP   1   2015 23.71                             140    -0.1 7  114   6 
 OCA  SZ EP   1   2015 28.36                             129     0.6 7  162 349 
 OCA  SZ ES   1   2015 49.80                             129    -0.1 7  162 349 
 OCA  SZ I        2015 55.81        19.0 0.61                           162 349 
                                                                                
