 2013  3 2 2121 33.2 L   6.778 -73.181148.9  RSN  7 0.3 2.0LRSN                1
 GAP=133        0.86       3.1     3.8  5.8  0.1005E+01  0.5443E+01  0.3429E+01E
 Epicentro: LOS SANTOS - SANTANDER                                             3
 ACTION:UPD 13-04-09 13:59 OP:ep   STATUS:               ID:20130302212133 L   I
 2013-03-02-2120-00M.COL___228                                                 6
 STAT SP IPHASW D HRMM SECON CODA AMPLIT PERI AZIMU VELO AIN AR TRES W  DIS CAZ7
 BAR2 SZ EP   2   2121 53.04                             172   -0.09 5 20.6 180 
 BAR2 SZ ES       2122  9.30                             172    0.6010 20.6 180 
 BAR2 SZ I        2122  9.55        17.5 0.44            170           20.6 180 
 BRR  HZ EP       2121 54.65                             154    0.1010 69.0 302 
 BRR  HN ES       2122 11.62                             154    0.4110 69.0 302 
 BRR  HN I        2122 16.34        27.7 0.18            150           69.0 302 
 PAM  SZ EP       2121 56.37                             150    0.3810 81.8  41 
 PAM  SN ES       2122 13.09                             150   -0.6910 81.8  41 
 RUS  HZ EP       2121 57.08                             145   -0.0210 98.5 174 
 RUS  HN ES       2122 15.45                             145   -0.3010 98.5 174 
 RUS  HN I        2122 16.03        11.0 0.32            147           98.5 174 
 PTB  HZ EP       2121 59.95                             134   -0.07 9  143 259 
 PTB  HN ES       2122 20.52                             134   -0.43 9  143 259 
 PTB  HN I        2122 26.75         9.1 0.26            132            143 259 
 ZAR  HZ EP   1   2122  5.69                             123    0.14 6  201 293 
 ZAR  HN ES       2122 30.64                             123   -0.16 9  201 293 
 ZAR  HN I        2122 36.95        14.2 0.26            123            201 293 
 CHI  HZ EP   2   2122 10.75                             118    0.06 4  245 194 
 CHI  HN ISg      2122 39.94                             118   -0.01 8  245 194 
 CHI  HN ES       2122 40.03                             118    0.08 8  245 194 
 CHI  HN I        2122 44.29         7.3 0.30            119            245 194 
                                                                                
