 2013  9 2 2226 46.6 L   6.787 -73.171148.7  RSN  5 0.3 1.5LRSN                1
 GAP=198        0.74       3.8     5.4  9.0  0.5270E+01 -0.6970E+01 -0.1881E+02E
 Epicentro: LOS SANTOS - SANTANDER                                             3
 ACTION:UPD 13-10-22 09:19 OP:ep   STATUS:               ID:20130902222646 L   I
 OLDACT:REG 13-09-03 00:17 OP:nd   STATUS:               ID:20130902221959     3
 2013-09-02-2219-59M.COL___269                                                 6
 STAT SP IPHASW D HRMM SECON CODA AMPLIT PERI AZIMU VELO AIN AR TRES W  DIS CAZ7
 RUS  HZ EP       2227 10.64                             145    0.1310 99.4 174 
 RUS  HN ES       2227 29.01                             145   -0.1910 99.4 174 
 RUS  HZ I        2227 30.01         2.2 0.30            149           99.4 174 
 PTB  HZ EP       2227 12.92                             133   -0.58 9  145 259 
 PTB  HN ES       2227 34.42                             133   -0.10 9  145 259 
 PTB  HZ I        2227 40.23         3.6 0.32            133            145 259 
 SPBC HZ EP       2227 15.31                             130    0.29 9  160 219 
 SPBC HN ES       2227 37.55                             130    0.34 9  160 219 
 SPBC HZ I        2227 40.20         4.8 0.30            132            160 219 
 ZAR  HZ EP   4   2227 30.82                             123   11.83 0  202 293 
 ZAR  HN ES   4   2227 45.18                             123    0.89 0  202 293 
 ZAR  HZ I        2227 51.22         4.4 0.38            124            202 293 
 SML  HZ EP       2227 23.28                             118   -0.09 8  244 336 
 SML  HE ES       2227 52.37                             118    0.29 8  244 336 
                                                                                
