 2015  2 2 2317 59.9 L   6.784 -73.154148.5  RSN  6 0.3 1.5LRSN                1
 GAP=136        0.84       4.6     4.4  6.8  0.3117E+00  0.6103E+01  0.1966E+00E
 Epicentro: LOS SANTOS - SANTANDER                                             3
 ACTION:UPD 15-04-30 21:20 OP:nd   STATUS:               ID:20150202231759 L   I
 OLDACT:DUP 15-02-03 05:36 OP:spq  STATUS:               ID:20150202230750d    3
 2015-02-02-2307-49M.COL___265                                                 6
 STAT SP IPHASW D HRMM SECON CODA AMPLIT PERI AZIMU VELO AIN AR TRES W  DIS CAZ7
 BAR2 EZ EP   1   2318 19.78                             171   -0.03 7 21.5 189 
 BAR2 EZ ES   1   2318 35.02                             171   -0.33 7 21.5 189 
 BAR2 EZ I        2318 37.04         7.2 0.26            172           21.5 189 
 BRR  HZ EP       2318 21.53                             153    0.1910 71.3 300 
 BRR  HN ES       2318 38.70                             153    0.6310 71.3 300 
 BRR  HZ I        2318 42.43         9.2 0.64            151           71.3 300 
 PAM  SZ EP       2318 22.60                             151    0.0910 79.3  39 
 PAM  SN ES       2318 39.73                             151   -0.4210 79.3  39 
 PAM  SZ I        2318 41.38         4.0 0.70            153           79.3  39 
 RUS  HZ EP   1   2318 24.15                             145    0.36 7 98.9 175 
 RUS  HE ES       2318 42.54                             145    0.1110 98.9 175 
 RUS  HZ I        2318 43.25         2.9 0.28            149           98.9 175 
 PTB  HZ EP       2318 26.53                             133   -0.44 9  147 259 
 PTB  HE ES   1   2318 47.66                             133   -0.44 7  147 259 
 PTB  HZ I        2318 50.32         3.1 0.16            133            147 259 
 ZAR  HE ES   1   2318 57.91                             123   -0.02 6  204 293 
 ZAR  HZ I        2319  4.31         3.2 0.32            123            204 293 
                                                                                
