 2012 12 2 2257 35.8 L   7.028 -73.388121.2  RSN  6 0.4 1.3LRSN                1
 GAP=174        0.72       3.3     9.4  7.4  0.5455E+01  0.2781E+02 -0.1185E+01E
 Epicentro: SAN VICENTE DE CHUCURI - SANTANDER                                 3
 *COD-URI-SML                                                                  3
 ACTION:UPD 13-01-04 14:25 OP:ep   STATUS:               ID:20121202225736dL   I
 2012-12-02-2250-00M.COL___236                                                 6
 STAT SP IPHASW D HRMM SECON CODA AMPLIT PERI AZIMU VELO AIN AR TRES W  DIS CAZ7
 GIR2 SZ EP   1   2257 52.57                             169    0.27 7 22.2  75 
 GIR2 SZ ES   1   2258  4.83                             169   -0.35 7 22.2  75 
 GIR2 SZ I        2258  7.82         5.6 0.28                          22.2  75 
 BAR2 SZ EP   1   2257 54.33                             155    0.70 7 53.3 155 
 BAR2 SZ ES   1   2258  7.82                             155    0.28 7 53.3 155 
 PAM  SZ EP   1   2257 55.68                             144   -0.21 7 83.5  66 
 PAM  SN ES   1   2258 11.39                             144   -0.17 7 83.5  66 
 PAM  SZ I        2258 12.49         2.9 0.22                          83.5  66 
 RUS  HZ EP   1   2257 59.56                             130   -0.24 7  130 165 
 RUS  HN ES   1   2258 18.14                             130   -0.38 7  130 165 
 RUS  HZ I        2258 20.75         1.2 0.28                           130 165 
 OCA  HZ EP   1   2257 59.78                             129    0.05 7  134   3 
 OCA  HN ES   1   2258 18.72                             129    0.31 7  134   3 
 OCA  HZ I        2258 20.22         9.1 0.32                           134   3 
 SML  HN ES   2   2258 31.22                             115   -0.84 4  210 339 
                                                                                
