 2012  2 2 2256 17.6 L   6.785 -73.129152.0  RSN  8 0.4 1.9LRSN                1
 GAP=139        0.65       6.3     5.1  7.1  0.6213E+01  0.9840E+01  0.2224E+02E
 ACTION:UP  12-03-07 16:27 OP:epov STATUS:               ID:20120202225617 L   I
 2012-02-02-2250-00M.COL___188                                                 6
 STAT SP IPHASW D HRMM SECON CODA AMPLIT PERI AZIMU VELO SNR AR TRES W  DIS CAZ7
 BAR2 SZ EP       2256 37.98                             171   -0.0210 22.1 195 
 BAR2 SZ ES   2   2256 54.14                             171    0.26 5 22.1 195 
 BAR2 SZ I        2256 55.80        13.9 0.24                          22.1 195 
 GIR2 SZ EP       2256 38.14                             167    0.0410 33.2 348 
 GIR2 SZ ES   3   2256 54.43                             167    0.36 2 33.2 348 
 BRR  HZ EP       2256 39.90                             153    0.3110 73.6 299 
 BRR  HN ES   1   2256 57.03                             153    0.31 7 73.6 299 
 BRR  HZ I        2256 59.42        22.7 0.14                          73.6 299 
 PAM  SN ES   2   2256 57.73                             152   -0.65 5 77.5  38 
 RUS  HZ EP       2256 41.82                             146   -0.0710 98.9 177 
 RUS  HN ES   3   2257  0.28                             146   -0.52 2 98.9 177 
 RUS  HZ I        2257  1.45         5.2 0.30                          98.9 177 
 PTB  HZ EP       2256 44.80                             133   -0.45 9  149 260 
 PTB  HN ES   2   2257  6.14                             133   -0.65 5  149 260 
 PTB  HZ I        2257 13.32        11.7 0.30                           149 260 
 ZAR  HZ EP   3   2256 49.80                             123   -0.93 2  206 292 
 ZAR  HE ES   2   2257 16.32                             123   -0.22 4  206 292 
 ZAR  HZ I        2257 20.87         7.3 0.36                           206 292 
 NOR  SZ EP       2256 54.24                             120    0.45 8  235 235 
                                                                                
