 2010  8 2 2211 59.1 L   6.774 -73.035146.0  RSN 13 0.5 2.8LRSN                1
 GAP=135        1.20       4.7     8.1  7.6 -0.1947E+02  0.3654E+01  0.2684E+01E
 Epicentro: CEPITA - SANTANDER                                                 3
 ACTION:UP  10-09-07 10:51 OP:vdl  STATUS:               ID:20100802221158 L   I
 2010-08-02-2210-16S.COL___122                                                 6
 STAT SP IPHASW D HRMM SECON CODA AMPLIT PERI AZIMU VELO SNR AR TRES W  DIS CAZ7
 BAR2 SZ IP       2212 18.81                             171     0.010   26 219 
 BAR2 SZ ES   1   2212 34.02                             171    -0.2 7   26 219 
 BAR2 SZ I        2212 35.41       202.1 0.15                            26 219 
 BRR  HZ IP     D 2212 20.70                             150    -0.310   83 296 
 BRR  HZ I        2212 22.54        99.2 0.13                            83 296 
 BRR  HN ES   1   2212 37.98                             150    -0.1 7   83 296 
 RUS  HZ IP     C 2212 22.77                             145     0.110   98 183 
 RUS  HN ES   1   2212 41.19                             145     0.1 7   98 183 
 RUS  HZ I        2212 42.60        70.5 0.21                            98 183 
 GUE  SZ EP       2212 23.74                             139    -0.210  117   6 
 GRA  SZ IP       2212 24.64                             137     0.310  125  12 
 GRA  SZ ES   1   2212 44.29                             137     0.3 7  125  12 
 GRA  SZ I        2212 45.48        45.2 0.42                           125  12 
 OCA  SZ EP   1   2212 27.78                             129    -0.1 7  165 349 
 OCA  SZ I        2212 53.75        61.6 0.50                           165 349 
 CHI  HZ EP   1   2212 36.98                             118     0.1 6  249 198 
 CHI  HZ I        2212 37.52        35.7 0.14                           249 198 
 CHI  HE ES   1   2213  5.29                             118    -1.1 6  249 198 
 ROSC BZ EP       2212 38.52                                     0.8 8  257 214 
 ROSC BN ES   1   2213  9.39                                     1.6 6  257 214 
 ROSC BZ I        2213 14.06        41.6 0.49                           257 214 
 HEL  HZ EP       2212 40.07                             114    -0.5 7  283 257 
 HEL  HZ I        2213 17.59        42.1 0.44                           283 257 
 GUY  SZ EP   1   2212 44.12                                     0.4 5  310 237 
 GUY  SE ES   1   2213 18.80                                     0.3 5  310 237 
 GUY  SZ I        2213 26.73       149.4 0.49                           310 237 
 RREF HZ EP   1   2212 45.84                             111    -0.3 5  329 231 
 RREF HZ I        2213 30.21        32.1 0.28                           329 231 
 SDV  BZ EP       2212 48.32                             109     0.0 6  353  49 
 SDV  BZ I        2213 29.21         7.6 0.14                           353  49 
 PRA  HZ EP   1   2212 52.15                             107    -0.9 4  396 211 
 PRA  HN ES   1   2213 34.19                             107    -1.0 4  396 211 
 PRA  HZ I        2213 41.01        41.8 0.19                           396 211 
                                                                                
