 2012 11 2 2023 16.2 L   6.739 -73.101141.8  RSN  5 0.1 1.8LRSN                1
 GAP=145        0.35       2.3     2.8  3.9 -0.1846E+01 -0.1127E+01  0.4408E+01E
 Epicentro: JORDAN - SANTANDER                                                 3
 ACTION:UPD 12-12-05 15:31 OP:}ep  STATUS:               ID:20121102202316 L   I
 2012-11-02-2020-00M.COL___232                                                 6
 STAT SP IPHASW D HRMM SECON CODA AMPLIT PERI AZIMU VELO AIN AR TRES W  DIS CAZ7
 BAR2 SZ EP   2   2023 35.36                             172    0.06 5 18.5 209 
 BRR  HZ EP       2023 37.31                             149   -0.1110 78.9 301 
 BRR  HN ES       2023 54.00                             149    0.0610 78.9 301 
 BRR  HZ I        2023 56.22        14.2 0.22                          78.9 301 
 PAM  SZ EP       2023 38.22                             149    0.0310 79.9  34 
 PAM  SE ES       2023 55.26                             149   -0.0410 79.9  34 
 PAM  SZ I        2023 57.24         8.1 0.47                          79.9  34 
 RUS  HN ES   2   2023 57.04                             145    0.11 5 93.6 179 
 RUS  HN I        2023 59.88        10.4 0.37                          93.6 179 
 CHI  HZ EP   1   2023 53.42                             117    0.26 6  243 197 
 CHI  HE ES   1   2024 21.72                             117   -0.23 6  243 197 
                                                                                
