 2011  8 2 2337 12.1 L   6.718 -73.083132.5  RSN  7 0.3 1.9LRSN                1
 GAP=148        0.61       2.9     6.3  7.1 -0.8108E+01  0.2864E+02 -0.5720E+01E
 Epicentro: JORDAN - SANTANDER                                                 3
 ACTION:UPD 12-07-25 14:05 OP:epov STATUS:               ID:20110802233712 L   I
 2011-08-02-2320-39S.COL___131                                                 6
 STAT SP IPHASW D HRMM SECON CODA AMPLIT PERI AZIMU VELO AIN AR TRES W  DIS CAZ7
 PAM  SZ EP   1   2337 33.10                             147   -0.03 7 80.7  32 
 PAM  SN ES   1   2337 49.83                             147    0.29 7 80.7  32 
 RUS  HZ EP   1   2337 34.25                             144    0.39 7 91.3 180 
 RUS  HZ I        2337 35.11        10.6 0.11                          91.3 180 
 RUS  HN ES       2337 50.59                             144   -0.2510 91.3 180 
 OCA  SZ EP   1   2337 39.77                             125   -0.62 7  170 351 
 OCA  SZ ES   1   2338  2.57                             125    0.11 7  170 351 
 OCA  SZ I        2338  6.67        12.2 0.09                           170 351 
 NOR  SZ EP   1   2337 46.74                             115   -0.42 6  235 237 
 NOR  SN ES   1   2338 14.73                             115    0.22 6  235 237 
 CHI  HZ EP   2   2337 48.52                             115    0.19 4  242 197 
 CHI  HZ I        2338 28.28         6.1 0.49                           242 197 
 HEL  HZ EP   1   2337 52.48                             112    0.29 6  277 258 
 PRA  HZ EP   1   2338  5.02                             104    0.35 4  388 211 
                                                                                
