 2012  8 2 2210 29.6 L   6.822 -73.143147.7  RSN  8 0.4 1.9LRSN                1
 GAP=240        0.63       4.3     5.2  6.3  0.9036E+01  0.3710E+01  0.5928E+01E
 Epicentro: LOS SANTOS - SANTANDER                                             3
 ACTION:UPD 12-09-10 11:53 OP:ep   STATUS:               ID:20120802221029 L   I
 2012-08-02-2210-00M.COL___215                                                 6
 STAT SP IPHASW D HRMM SECON CODA AMPLIT PERI AZIMU VELO AIN AR TRES W  DIS CAZ7
 BAR2 SZ EP   2   2210 48.86                             170   -0.62 5 25.7 190 
 BAR2 SZ ES   2   2211  4.63                             170   -0.39 5 25.7 190 
 BAR2 SZ I        2211  6.40        17.2 0.17                          25.7 190 
 BRR  HZ EP   1   2210 50.95                             153    0.07 8 70.3 297 
 BRR  HN ES   1   2211  8.18                             153    0.67 8 70.3 297 
 BRR  HZ I        2211  9.61        22.5 0.11                          70.3 297 
 RUS  HZ EP       2210 53.92                             144    0.2410  103 176 
 RUS  HZ I        2210 55.15         9.7 0.15                           103 176 
 RUS  HE ES   1   2211 12.17                             144   -0.32 7  103 176 
 PTB  HZ EP   1   2210 56.54                             132   -0.22 7  149 258 
 PTB  HZ I        2210 57.67         5.4 0.14                           149 258 
 PTB  HN ES   1   2211 17.45                             132   -0.53 7  149 258 
 ZAR  HZ EP   2   2211  2.07                             123   -0.01 4  203 291 
 ZAR  HN ES   2   2211 27.44                             123    0.01 4  203 291 
 ZAR  HZ I        2211 33.43         8.8 0.34                           203 291 
 NOR  SN ES   2   2211 34.06                             119    0.38 4  236 234 
 CHI  HZ EP   2   2211  7.72                             117    0.09 4  251 195 
 CHI  HN ES   1   2211 37.58                             117    0.26 6  251 195 
 CHI  HZ I        2211 45.83         3.3 0.34                           251 195 
 PRA  HZ EP   2   2211 22.79                             107   -0.62 3  394 209 
 PRA  HN ES   2   2212  5.70                             107    0.29 3  394 209 
                                                                                
