 2013  2 2 2141 19.6 L   6.789 -73.141149.0  RSN  8 0.4 1.7LRSN                1
 GAP=138        0.75       3.0     4.5  6.9  0.8211E+00  0.4685E+01  0.2071E+01E
 Epicentro: LOS SANTOS - SANTANDER                                             3
 ACTION:UPD 13-03-12 09:30 OP:ep   STATUS:               ID:20130202214119 L   I
 2013-02-02-2140-00M.COL___240                                                 6
 STAT SP IPHASW D HRMM SECON CODA AMPLIT PERI AZIMU VELO AIN AR TRES W  DIS CAZ7
 BRR  HZ EP       2141 41.67                             153    0.4910 72.2 299 
 BRR  HN ES   1   2141 58.39                             153    0.40 7 72.2 299 
 BRR  HZ I        2142  6.45        15.6 0.22            154           72.2 299 
 PAM  SZ EP   1   2141 42.52                             151    0.30 7 78.0  39 
 PAM  SN ES   1   2141 59.40                             151   -0.44 7 78.0  39 
 PAM  SZ I        2142  1.83         9.1 0.18            159           78.0  39 
 RUS  HZ EP   1   2141 43.49                             145   -0.12 7 99.4 176 
 RUS  HN ES   1   2142  2.20                             145   -0.11 7 99.4 176 
 RUS  HZ I        2142  3.44         4.4 0.42            147           99.4 176 
 PTB  HZ EP   1   2141 46.54                             133   -0.34 7  148 259 
 PTB  HN ES   1   2142  7.85                             133   -0.28 7  148 259 
 OCA  HN ES   1   2142 10.91                             130    0.24 7  162 353 
 ZAR  HE ES   1   2142 18.05                             123    0.13 6  205 292 
 SML  HZ EP   1   2141 56.56                             118   -0.01 6  245 335 
 SML  HN ES   1   2142 24.40                             118   -0.99 6  245 335 
 CHI  HZ EP   1   2141 57.62                             118    0.23 6  248 195 
 CHI  HN ES   1   2142 26.57                             118   -0.28 6  248 195 
 CHI  HZ I        2142 34.79         3.0 0.68            121            248 195 
                                                                                
