 2013  8 2 2037 58.8 L   6.801 -73.138146.0  RSN 13 0.4 3.0LRSN                1
 GAP= 71        0.80       2.3     2.9  4.7  0.1579E+00  0.2977E+01  0.6554E+00E
 Epicentro: LOS SANTOS - SANTANDER                                             3
 ACTION:UPD 14-01-14 08:58 OP:ep   STATUS:               ID:20130802203758 L   I
 OLDACT:UP  13-08-03 04:13 OP:mh   STATUS:               ID:20130802203750     3
 OLDACT:REG 13-08-03 04:04 OP:mh   STATUS:               ID:20130802203750     3
 2013-08-02-2037-50M.COL___232                                                 6
 STAT SP IPHASW D HRMM SECON CODA AMPLIT PERI AZIMU VELO AIN AR TRES W  DIS CAZ7
 BAR2 SZ EP   1   2038 18.45                             170   -0.03 7 23.6 192 
 BAR2 SZ ES   1   2038 33.65                             170   -0.17 7 23.6 192 
 BAR2 SZ I        2038 34.86        68.9 0.50            169           23.6 192 
 BRR  HZ IP     C 2038 20.28                             152    0.2510 71.9 298 
 BRR  HN ES       2038 37.17                             152    0.6010 71.9 298 
 BRR  HN I        2038 42.13       204.2 0.34            149           71.9 298 
 PAM  SZ EP   1   2038 21.31                             151    0.29 7 76.8  39 
 PAM  SN ES       2038 38.36                             151    0.0210 76.8  39 
 PAM  SN I        2038 39.48       130.6 0.44            154           76.8  39 
 RUS  HZ EP   1   2038 22.69                             144    0.10 7  101 177 
 RUS  HN ES       2038 41.04                             144   -0.1010  101 177 
 RUS  HN I        2038 41.93        77.1 0.24            146            101 177 
 PTB  HZ EP   1   2038 24.98                             132   -0.90 7  149 259 
 PTB  HN ES   1   2038 46.44                             132   -0.54 7  149 259 
 PTB  HN I        2038 51.87        92.6 0.26            131            149 259 
 TAM  HZ EP   1   2038 26.58                             131    0.14 7  154 105 
 TAM  HN ES   1   2038 47.52                             131   -0.47 7  154 105 
 OCA  HZ EP   1   2038 27.44                             130    0.30 7  160 353 
 OCA  HN ES   1   2038 49.38                             130    0.14 7  160 353 
 OCA  HN I        2038 53.08       275.1 0.22            130            160 353 
 SPBC HZ EP   1   2038 27.34                             129   -0.05 7  164 219 
 SPBC HN ES   1   2038 49.55                             129   -0.13 7  164 219 
 SPBC HN I        2038 51.44       128.6 0.22            129            164 219 
 ZAR  HZ EP   1   2038 31.76                             122    0.41 6  205 292 
 ZAR  HN ES       2038 56.60                             122   -0.13 9  205 292 
 ZAR  HN I        2039  1.89       156.4 0.60            122            205 292 
 NOR  HZ EP   1   2038 34.47                             118   -0.17 6  235 235 
 NOR  HN ES   1   2039  2.76                             118    0.18 6  235 235 
 NOR  HN I        2039  9.42       136.4 0.16            119            235 235 
 SML  HZ EP   1   2038 34.77                             118   -0.71 6  244 335 
 SML  HN ES       2039  3.53                             118   -0.55 8  244 335 
 SML  HN I        2039 11.64       140.8 0.10            118            244 335 
 CHI  HZ EP   1   2038 36.69                             117    0.13 6  249 195 
 CHI  HN ES       2039  6.00                             117   -0.00 8  249 195 
 CHI  HN I        2039 10.47        29.6 0.44            119            249 195 
 GUY2CHZ EP   1   2038 43.67                             112    1.15 5  302 235 
 GUY2CHN ES   4   2039 18.90                             112    2.30 0  302 235 
 SJC  HZ EP   4   2038 52.14                             106   -2.29 0  410 327 
 SJC  HN ES   4   2039 34.22                             106   -3.58 0  410 327 
                                                                                
