 2016  9 2 2339 23.2 L   6.782 -73.145141.8  RSN  8 0.3 1.9LRSN                1
 GAP=137        0.88       3.7     3.8  5.6 -0.8047E+00  0.5196E+01  0.2720E+01E
 Epicentro: LOS SANTOS - SANTANDER                                             3
 ACTION:UPD 17-08-17 21:05 OP:lp   STATUS:               ID:20160902233923 L   I
 OLDACT:REG 16-09-03 07:14 OP:and  STATUS:               ID:20160902233736     3
 2016-09-02-2338-00M.COL___350                                                 6
 STAT SP IPHASW D HRMM SECON CODA AMPLIT PERI AZIMU VELO AIN AR TRES W  DIS CAZ7
 BAR2 EZ EP       2339 42.27                             171   -0.0310 21.4 191 
 BAR2 EZ ES       2339 57.14                             171   -0.0610 21.4 191 
 BAR2 EZ I        2339 58.13        17.7 0.44            169           21.4 191 
 BRR  HZ EP       2339 44.23                             151    0.2710 72.2 300 
 BRR  HN ES       2340  0.90                             151    0.7310 72.2 300 
 BRR  HZ I        2340  5.06        10.1 0.46            150           72.2 300 
 PAM  EZ EP       2339 45.16                             150    0.0910 78.9  39 
 PAM  EE ES       2340  1.80                             150   -0.3410 78.9  39 
 PAM  EZ I        2340  4.74         9.8 0.46            154           78.9  39 
 RUS  HZ EP       2339 46.43                             144    0.0310 98.6 176 
 RUS  HN ES       2340  4.37                             144   -0.1410 98.6 176 
 RUS  HZ I        2340  6.78         8.2 0.28            146           98.6 176 
 PTB  HZ EP       2339 49.28                             131   -0.52 9  147 260 
 PTB  HE ES       2340 10.00                             131   -0.56 9  147 260 
 PTB  HZ I        2340 12.05         9.3 0.14            131            147 260 
 SPBC HZ EP       2339 51.37                             128    0.13 9  162 219 
 SPBC HE ES       2340 13.34                             128    0.22 9  162 219 
 SPBC HZ I        2340 19.35        13.7 0.22            129            162 219 
 ZAR  HN ES       2340 20.40                             121   -0.23 9  205 293 
 ZAR  HZ I        2340 26.57         9.5 0.50            122            205 293 
 NOR  HZ EP       2339 58.96                             118    0.39 8  234 235 
 NOR  HE ES   4   2340 23.60                             118   -2.57 0  234 235 
 NOR  HZ I        2340 31.96         7.3 0.18            119            234 235 
                                                                                
