 2013 12 2 2117 15.0 L   6.823 -73.159146.0  RSN  9 0.5 1.9LRSN                1
 GAP=144        1.05       4.5     5.3  6.9 -0.7729E+01  0.1130E+02  0.2791E+01E
 Epicentro: LOS SANTOS - SANTANDER                                             3
 ACTION:UPD 14-01-13 10:15 OP:ep   STATUS:               ID:20131202211715 L   I
 OLDACT:REG 13-12-02 22:14 OP:mh   STATUS:               ID:20131202211000     3
 2013-12-02-2110-00M.COL___282                                                 6
 STAT SP IPHASW D HRMM SECON CODA AMPLIT PERI AZIMU VELO AIN AR TRES W  DIS CAZ7
 BAR2 SZ EP   1   2117 34.23                             170   -0.43 7 25.6 186 
 BAR2 SZ ES       2117 49.58                             170   -0.4610 25.6 186 
 BAR2 SZ I        2117 51.33        26.9 0.20            169           25.6 186 
 BRR  HZ EP   1   2117 36.61                             153    0.62 7 68.7 297 
 BRR  HN ES       2117 53.19                             153    0.7910 68.7 297 
 BRR  HZ I        2117 57.76        11.6 0.24            152           68.7 297 
 PAM  SZ EP       2117 37.44                             151    0.3010 76.4  42 
 PAM  SN ES       2117 54.38                             151   -0.0610 76.4  42 
 PAM  SZ I        2117 56.80        14.4 0.17            156           76.4  42 
 PTB  HZ EP       2117 41.20                             132   -0.66 9  147 258 
 PTB  HN ES   1   2118  2.43                             132   -0.41 7  147 258 
 PTB  HZ I        2118  8.45        12.2 0.25            133            147 258 
 SPBC HZ EP   1   2117 43.43                             129   -0.15 7  164 218 
 SPBC HN ES       2118  6.08                             129    0.18 9  164 218 
 ZAR  HN ES   1   2118 12.09                             123   -0.22 6  202 292 
 NOR  HZ EP       2117 50.73                             118   -0.00 8  235 234 
 NOR  HN ES       2118 18.59                             118   -0.05 8  235 234 
 NOR  HZ I        2118 25.90         6.7 0.26            120            235 234 
 SML  HN ES       2118 19.18                             118   -0.43 8  241 335 
 GUY2CHZ EP       2117 59.43                             112    0.82 7  301 234 
 GUY2CHN ES   4   2118 36.38                             112    3.72 0  301 234 
 SJC  HZ EP   4   2118  8.59                             106   -1.59 0  406 327 
 SJC  HN ES   4   2118 48.03                             106   -5.23 0  406 327 
                                                                                
