 2011  4 2 2326 55.5 L   6.733 -73.097144.1  RSN  5 0.2 1.8LRSN                1
 GAP=164        0.58       5.6     6.1  5.6 -0.6459E+01  0.9703E+00  0.3243E+00E
 Epicentro: JORDAN - SANTANDER                                                 3
 ACTION:UP  11-06-22 15:28 OP:REBC STATUS:               ID:20110402232655 L   I
 2011-04-02-2325-00S.COL___133                                                 6
 STAT SP IPHASW D HRMM SECON CODA AMPLIT PERI AZIMU VELO SNR AR TRES W  DIS CAZ7
 BAR2 SZ EP       2327 15.12                             172     0.210   18 211 
 BAR2 SZ ES   1   2327 29.84                             172    -0.1 7   18 211 
 BAR2 SZ I        2327 31.27        12.6 0.45                            18 211 
 BRR  HZ IP     D 2327 16.92                             149    -0.110   80 301 
 BRR  HZ I        2327 17.09        22.1 0.17                            80 301 
 BRR  HN ES   1   2327 33.84                             149     0.1 7   80 301 
 PAM  SZ EP   1   2327 18.03                             150     0.3 7   80  33 
 PAM  SZ I        2327 18.25         5.7 0.18                            80  33 
 PAM  SN ES   1   2327 34.83                             150    -0.2 7   80  33 
 OCA  SZ EP   1   2327 24.27                             128    -0.2 7  168 352 
 OCA  SZ I        2327 49.33         6.3 0.19                           168 352 
 CHI  HZ EP   2   2327 32.03                             117    -0.5 4  243 197 
                                                                                
