 2015  6 2 2027 36.0 L   6.551 -73.747 93.0  RSN  9 0.4 1.6LRSN                1
 GAP= 82        0.86       3.1     3.6  7.7 -0.1147E+00  0.1337E+02  0.8162E+01E
 Epicentro: SANTA HELENA DEL OPON - SANTANDER                                  3
 ACTION:UPD 15-09-10 22:09 OP:cam  STATUS:               ID:20150602202736 L   I
 OLDACT:REG 15-06-03 02:59 OP:spq  STATUS:               ID:20150602201748     3
 2015-06-02-2017-48M.COL___288                                                 6
 STAT SP IPHASW D HRMM SECON CODA AMPLIT PERI AZIMU VELO AIN AR TRES W  DIS CAZ7
 BRR  HZ EP       2027 50.65                             144   -0.4210 61.7   4 
 BRR  HN ES       2028  2.75                             144   -0.0610 61.7   4 
 BRR  HZ I        2028  4.26        12.4 0.16            149           61.7   4 
 BAR2 EZ EP       2027 51.69                             144    0.2110 62.7  86 
 BAR2 EZ ES   1   2028  3.97                             144    0.43 7 62.7  86 
 BAR2 EZ I        2028  6.49        11.0 0.12            149           62.7  86 
 RUS  HZ EP   1   2027 55.39                             129    0.05 7  103 135 
 SPBC HZ EP       2027 54.93                             128   -0.0910  106 200 
 SPBC HN ES       2028  9.74                             128   -0.0910  106 200 
 SPBC HZ I        2028 11.40        15.2 0.10            129            106 200 
 ZAR  HN ES       2028 20.18                             115    0.14 9  161 310 
 ZAR  HZ I        2028 20.73         8.7 0.42            118            161 310 
 NOR  HZ EP       2028  0.57                             115   -0.73 9  165 229 
 NOR  HE ES   1   2028 20.60                             115   -0.42 7  165 229 
 NOR  HZ I        2028 23.45         8.7 0.16            116            165 229 
 HEL  HZ EP       2028  5.83                             110    0.06 9  201 259 
 HEL  HN ES   1   2028 29.54                             110    0.56 6  201 259 
 HEL  HZ I        2028 33.02         4.4 0.52            111            201 259 
 GUY2CHZ EP       2028 10.12                             108    0.66 8  231 231 
 GUY2CHN ES   4   2028 36.88                             108    1.34 0  231 231 
 GUY2CHZ I        2028 41.41         3.2 0.40                           231 231 
 TOL  SZ EP   4   2028 16.15                             104    1.27 0  279 219 
 TOL  SE ES   1   2028 45.69                             104    0.51 6  279 219 
 TOL  SZ I        2028 53.34         2.4 0.16            104            279 219 
                                                                                
