 2012  8 2 2346 35.3 L   6.393 -73.665102.6  RSN 18 0.5 2.7LRSN 3.2WRSN        1
 SPEC AVERAGE  MO 13.9 ST  9.2 OM  3.2 f0 4.39 R0.3428 AL 1.87 WI 16.6 MW  3.2 3
 SPEC SD       MO  0.2 ST  2.7 OM  1.0 f00.664 R0.0516 AL      WI      MW  0.1 3
 GAP= 50        0.95       2.3     2.5  6.1 -0.3723E+00  0.3664E+01  0.3206E+01E
 Epicentro: SANTA HELENA DEL OPON - SANTANDER                                  3
 SPEC TAM HH N MO 13.9 ST  7.4 OM  2.2 f0 3.98 R0.3693 AL 1.46 WI 13.1 MW  3.2 3
 SPEC TAM HH N T234727 K 0.000 GD  231 VS 4.20 DE 3.00 Q0230.0 QA 0.60 VS 4.20 3
 SPEC RUS HH N MO 14.2 ST  9.8 OM  2.7 f0 3.57 R0.4118 AL 0.68 WI 15.8 MW  3.4 3
 SPEC RUS HH N T2347 6 K 0.000 GD  133 VS 4.20 DE 3.00 Q0230.0 QA 0.60 VS 4.20 3
 SPEC HEL HH N MO 13.6 ST  6.1 OM  1.9 f0 4.70 R0.3128 AL 2.27 WI 19.0 MW  3.0 3
 SPEC HEL HH N T234729 K 0.000 GD  231 VS 4.20 DE 3.00 Q0230.0 QA 0.60 VS 4.20 3
 SPEC CHI HH N MO 13.8 ST 13.3 OM  2.1 f0 5.30 R0.2774 AL 3.06 WI 18.4 MW  3.2 3
 SPEC CHI HH N T234726 K 0.000 GD  220 VS 4.20 DE 3.00 Q0230.0 QA 0.60 VS 4.20 3
 ACTION:UPD 12-09-10 11:53 OP:ep   STATUS:               ID:20120802234635 L   I
 2012-08-02-2340-00M.COL___215                                                 6
 STAT SP IPHASW D HRMM SECON CODA AMPLIT PERI AZIMU VELO AIN AR TRES W  DIS CAZ7
 BAR2 SZ IP       2346 51.72                             148    0.3110 57.7  68 
 BAR2 SZ ES   1   2347  4.56                             148    0.59 7 57.7  68 
 BRR  HZ IP     C 2346 52.72                             139    0.1010 79.2 356 
 BRR  HZ I        2346 53.10       236.8 0.13                          79.2 356 
 BRR  HN ES   2   2347  6.13                             139    0.01 5 79.2 356 
 RUS  HZ IP     D 2346 53.50                             138   -0.2710 84.9 131 
 RUS  HE ES   1   2347  7.86                             138   -0.30 7 84.9 131 
 RUS  HZ I        2347  9.49       105.2 0.24                          84.9 131 
 PTB  HZ EP       2346 52.70                             135   -0.7610 89.1 281 
 PTB  HN ES   1   2347  6.65                             135   -0.97 7 89.1 281 
 PTB  HZ I        2347  7.59        67.8 0.18                          89.1 281 
 PAM  SZ EP       2346 59.85                             120   -0.11 9  149  45 
 PAM  SN ES   1   2347 18.87                             120   -0.32 7  149  45 
 NOR  SZ EP       2347  0.81                             117    0.08 9  162 236 
 NOR  SN ES   1   2347 21.03                             117    0.48 7  162 236 
 YOP  SZ EP       2347  2.72                             114    0.00 9  179 130 
 YOP  SN ES   1   2347 25.04                             114    0.94 7  179 130 
 YOP  SZ I        2347 25.79        59.4 0.26                           179 130 
 ZAR  HZ EP       2347  2.70                             114    0.11 9  179 313 
 ZAR  HN ES   1   2347 24.79                             114    0.92 7  179 313 
 ZAR  HZ I        2347 30.93        71.5 0.27                           179 313 
 ROSC BZ EP   1   2347  4.67                             113    0.80 7  186 203 
 ROSC BN ES   1   2347 26.20                             113    0.06 7  186 203 
 ROSC BZ I        2347 34.39        56.6 0.32                           186 203 
 CHI  HZ EP       2347  4.52                             112   -0.35 9  195 182 
 CHI  HN ES   1   2347 27.78                             112   -0.15 6  195 182 
 CHI  HZ I        2347 31.69        35.6 0.32                           195 182 
 HEL  HZ EP       2347  6.18                             111   -0.04 8  207 264 
 HEL  HN ES   1   2347 30.24                             111   -0.09 6  207 264 
 HEL  HZ I        2347 34.88        39.6 0.38                           207 264 
 TAM  HN ES   2   2347 29.21                             111   -0.35 4  207  89 
 OCA  HZ EP       2347  5.54                             111   -0.43 8  208  11 
 OCA  HN ES   1   2347 30.34                             111    0.46 6  208  11 
 GUY  SZ EP       2347  9.71                             108    0.68 8  231 236 
 GUY  SN ES   1   2347 36.21                             108    0.88 6  231 236 
 GUY  SZ I        2347 41.49        57.6 0.38                           231 236 
 VIL  SZ EP       2347 11.08                             106   -0.02 8  252 181 
 VIL  SN ES   2   2347 38.43                             106   -0.59 4  252 181 
 VIL  SZ I        2347 51.32        34.7 0.37                           252 181 
 URE  HN ES   2   2347 39.50                             106    0.10 4  255 306 
 TOL  SZ EP       2347 13.55                             104   -0.05 8  271 223 
 TOL  SZ ES   2   2347 42.96                             104   -0.51 4  271 223 
 PRA  HZ EP       2347 19.02                             101   -0.70 7  326 205 
 PRA  HN ES   1   2347 54.32                             101   -0.04 5  326 205 
                                                                                
