 2010  2 2 2103  7.5 L   6.797 -72.979147.5  RSN  7 0.3 2.2LRSN                1
 GAP=200        0.74       3.7     8.1  5.5 -0.5459E+01  0.1548E+02  0.5328E+01E
 Epicentro: CEPITA - SANTANDER                                                 3
 ACTION:UP  10-08-24 09:47 OP:vdl  STATUS:               ID:20100202210307 L   I
 2010-02-02-2101-34S.COL___096                                                 6
 STAT SP IPHASW D HRMM SECON CODA AMPLIT PERI AZIMU VELO SNR AR TRES W  DIS CAZ7
 BAR2 SZ EP       21 3 27.39                             167    -0.110   32 225 
 BAR2 SZ ES       21 3 43.11                             167    -0.110   32 225 
 GIR2 SZ EP   1   21 3 28.03                             164     0.4 7   39 323 
 GIR2 SZ ES       21 3 42.95                             164    -0.310   39 323 
 RUS  BZ EP       21 3 31.38                             144     0.010  101 187 
 RUS  BN ES       21 3 50.38                             144     0.310  101 187 
 RUS  BZ I        21 3 51.44        10.1 0.33                           101 187 
 OCA  SZ ES   1   21 3 58.83                             129     0.1 7  164 347 
 RREF BN ES       21 4 33.13                             110     0.5 7  336 231 
 RREF BZ I        21 4 39.79        13.6 0.56                           336 231 
 TOL  SZ EP   1   21 3 57.27                             109     0.0 5  356 227 
 PRA  HZ EP       21 4  2.03                             106    -0.1 6  401 212 
 PRA  HN ES       21 4 43.96                             106    -0.8 6  401 212 
                                                                                
