 2016  9 2 2215  1.3 L   6.824 -73.165159.1  RSN  5 0.6 1.3LRSN                1
 GAP=133        1.41       7.9     8.0 10.2  0.1671E+02  0.1757E+02 -0.2563E+01E
 Epicentro: LOS SANTOS - SANTANDER                                             3
 ACTION:UPD 17-08-17 21:05 OP:lp   STATUS:               ID:20160902221501 L   I
 OLDACT:DUP 16-09-03 10:46 OP:and  STATUS:               ID:20160902220739d    3
 2016-09-02-2208-00M.COL___356                                                 6
 STAT SP IPHASW D HRMM SECON CODA AMPLIT PERI AZIMU VELO AIN AR TRES W  DIS CAZ7
 BAR2 EZ EP       2215 22.97                             170    0.4110 25.7 184 
 BAR2 EZ ES       2215 39.35                             170    0.1910 25.7 184 
 BAR2 EZ I        2215 42.07         5.5 0.26            168           25.7 184 
 BRR  HZ EP       2215 23.43                             156   -0.2910 68.1 297 
 BRR  HN ES       2215 41.81                             156    0.5810 68.1 297 
 PAM  EZ EP       2215 25.52                             153    0.6310 76.7  42 
 PAM  HN ES       2215 42.64                             153   -0.6710 76.7  42 
 PAM  EZ I        2215 43.97         5.1 0.26            156           76.7  42 
 RUS  HZ EP       2215 25.78                             146   -0.7710  103 175 
 RUS  HE ES       2215 46.34                             146    0.0710  103 175 
 RUS  HZ I        2215 50.08         1.3 0.18            145            103 175 
 ZAR  HZ EP       2215 34.93                             126    0.60 9  201 292 
 ZAR  HN ES       2215 59.30                             126   -0.82 9  201 292 
                                                                                
