 2014  8 2 2021 43.2 L   5.954 -73.789112.7  RSN  6 0.4 1.4LRSN                1
 GAP=180        0.96       4.6     5.7  9.5 -0.7629E+01  0.1598E+02 -0.9347E+01E
 Epicentro: SUCRE - SANTANDER                                                  3
 ACTION:UPD 14-09-15 21:46 OP:nd   STATUS:               ID:20140802202143 L   I
 OLDACT:REG 14-08-03 02:53 OP:fm   STATUS:               ID:20140802201813     3
 2014-08-02-2018-13M.COL___257                                                 6
 STAT SP IPHASW D HRMM SECON CODA AMPLIT PERI AZIMU VELO AIN AR TRES W  DIS CAZ7
 SPBC HZ EP       2021 59.23                             156   -0.3110 45.8 223 
 SPBC HN ES       2022 11.84                             156   -0.4110 45.8 223 
 SPBC HZ I        2022 12.75         7.2 0.44            157           45.8 223 
 BAR2 SZ ES   1   2022 19.52                             136    0.61 7 97.4  44 
 BAR2 SZ I        2022 20.58         9.5 0.18            137           97.4  44 
 PTB  HZ EP   1   2022  2.33                             136   -0.71 7 98.2 311 
 PTB  HN ES       2022 18.67                             136    0.1710 98.2 311 
 PTB  HZ I        2022 19.00         3.6 0.16            137           98.2 311 
 NOR  HN ES       2022 23.78                             128    0.4910  127 250 
 NOR  HZ I        2022 24.91         7.5 0.16            129            127 250 
 GUY2CHZ EP   1   2022 13.65                             116    0.58 7  192 245 
 GUY2CHN ES   1   2022 36.34                             116   -0.00 7  192 245 
 GUY2CHZ I        2022 41.33         1.7 0.26                           192 245 
 ZAR  HN ES       2022 38.07                             113   -0.12 8  207 325 
                                                                                
