 2010  8 2 2038 19.8 L   6.781 -73.027145.1  RSN  9 0.3 2.2LRSN                1
 GAP=172        0.67       3.8     7.3  7.1 -0.4853E+01  0.2467E+01  0.6173E+01E
 Epicentro: CEPITA - SANTANDER                                                 3
 ACTION:UP  10-09-07 10:51 OP:vdl  STATUS:               ID:20100802203819 L   I
 2010-08-02-2036-30S.COL___122                                                 6
 STAT SP IPHASW D HRMM SECON CODA AMPLIT PERI AZIMU VELO SNR AR TRES W  DIS CAZ7
 GIR2 SZ EP   1   2038 39.57                             166     0.0 7   38 331 
 BRR  HZ EP       2038 41.37                             149    -0.310   84 296 
 BRR  HE ES   1   2038 58.33                             149    -0.4 7   84 296 
 BRR  HZ I        2039  2.73        27.8 0.19                            84 296 
 RUS  HZ EP   1   2038 43.47                             144     0.1 7   98 184 
 RUS  HE ES   1   2039  2.06                             144     0.4 7   98 184 
 RUS  HZ I        2039  2.96        19.4 0.24                            98 184 
 GUE  SZ EP   1   2038 44.55                             140     0.1 7  117   6 
 GRA  SZ ES   1   2039  4.78                             137     0.3 7  124  11 
 GRA  SZ I        2039  6.29        17.1 0.19                           124  11 
 CHI  HZ EP   2   2038 57.29                             117    -0.4 4  250 198 
 CHI  HZ I        2039 34.89         4.6 0.62                           250 198 
 GUY  SN ES   3   2039 40.80                             112     1.4 2  311 237 
 GUY  SZ I        2039 43.35        16.5 0.37                           311 237 
 RREF HZ EP   1   2039  7.08                             110     0.2 5  331 231 
 RREF HZ I        2039 29.13        16.7 0.52                           331 231 
 PRA  HZ EP   1   2039 13.83                             106     0.0 4  397 211 
 PRA  HZ I        2040  0.81         5.3 0.25                           397 211 
                                                                                
