 2013  4 2 2115 14.9 L   7.034 -73.400114.0  RSN  5 0.4 1.9LRSN                1
 GAP=226        0.93       8.7     6.6  7.6  0.3534E+02  0.1207E+02  0.9950E+01E
 Epicentro: SAN VICENTE DE CHUCURI - SANTANDER                                 3
 ACTION:UPD 13-05-22 14:35 OP:EP   STATUS:               ID:20130402211514 L   I
 2013-04-02-2110-00M.COL___245                                                 6
 STAT SP IPHASW D HRMM SECON CODA AMPLIT PERI AZIMU VELO AIN AR TRES W  DIS CAZ7
 BRR  HZ IP     C 2115 30.45                             162   -0.3610 35.4 283 
 BRR  HN ES       2115 43.03                             162   -0.1510 35.4 283 
 BRR  HN I        2115 43.22        60.1 0.48            158           35.4 283 
 BAR2 SZ EP       2115 32.22                             153    0.1610 54.4 154 
 BAR2 SZ ES       2115 45.61                             153    0.2010 54.4 154 
 BAR2 SZ I        2115 46.75        20.2 0.22            152           54.4 154 
 PTB  HZ EP       2115 36.98                             128   -0.6910  129 245 
 PTB  HN ES   1   2115 55.53                             128    0.14 7  129 245 
 PTB  HN I        2115 57.70         9.7 0.14            126            129 245 
 RUS  HZ EP   1   2115 38.90                             128    0.40 7  131 164 
 RUS  HN ES   2   2115 56.81                             128   -0.06 5  131 164 
 ZAR  HZ EP   2   2115 42.29                             120    0.58 5  169 288 
 ZAR  HN ES   1   2116  3.49                             120    0.90 7  169 288 
 ZAR  HN I        2116  5.42         7.3 0.26            119            169 288 
                                                                                
