 2016 11 2 2151 54.5 L   6.704 -73.148140.3  RSN  8 0.3 1.7LRSN                1
 GAP=140        0.74       3.1     3.1  4.4 -0.1500E+00  0.4614E+01  0.1974E+01E
 Epicentro: VILLANUEVA - SANTANDER                                             3
 ACTION:UPD 17-10-26 21:04 OP:lp   STATUS:               ID:20161102215154 L   I
 OLDACT:DUP 16-11-03 04:29 OP:cara STATUS:               ID:20161102214746d    3
 OLDACT:REG 16-11-03 03:44 OP:cara STATUS:               ID:20161102214745     3
 2016-11-02-2148-00M.COL___346                                                 6
 STAT SP IPHASW D HRMM SECON CODA AMPLIT PERI AZIMU VELO AIN AR TRES W  DIS CAZ7
 BAR2 EZ EP       2152 13.79                             174    0.4810 12.9 197 
 BAR2 EZ ES       2152 28.35                             174    0.3710 12.9 197 
 BAR2 EZ I        2152 29.46        16.3 0.32            171           12.9 197 
 BRR  HZ EP       2152 15.67                             150    0.2710 76.6 306 
 BRR  HN ES       2152 31.90                             150    0.2110 76.6 306 
 PAM  EZ EP       2152 16.68                             147   -0.0210 86.0  35 
 PAM  EN ES       2152 33.48                             147   -0.5210 86.0  35 
 PAM  EZ I        2152 35.53        13.4 0.38            152           86.0  35 
 RUS  HZ EP       2152 16.67                             146   -0.3010 90.0 175 
 RUS  HN ES       2152 34.36                             146   -0.1410 90.0 175 
 RUS  HZ I        2152 38.08         6.3 0.30            146           90.0 175 
 PTB  HZ EP       2152 20.83                             131   -0.03 9  146 263 
 PTB  HN ES       2152 41.13                             131   -0.29 9  146 263 
 PTB  HZ I        2152 46.91         5.9 0.22            131            146 263 
 ZAR  HZ EP       2152 27.26                             121    0.23 8  208 295 
 ZAR  HN ES       2152 52.10                             121   -0.29 8  208 295 
 ZAR  HZ I        2152 57.73         6.0 0.44            121            208 295 
 GUY2CHZ EP       2152 37.28                             112    0.11 7  295 236 
 GUY2CHE ES       2153 10.28                             112   -0.16 7  295 236 
 GUY2CHZ I        2153 24.38         1.2 0.22                           295 236 
 PRA  HZ EP       2152 46.76                             106    0.01 6  383 210 
 PRA  HN ES   4   2153 28.10                             106    0.60 0  383 210 
 PRA  HZ I        2153 36.05         2.1 0.26            107            383 210 
 SJC  HZ EP   4   2152 48.37                             104   -2.57 0  418 328 
 SJC  HN ES   4   2153 28.29                             104   -6.66 0  418 328 
                                                                                
