 2014 10 2 2349 13.3 L   6.718 -73.190141.8  RSN  4 0.2 1.4LRSN                1
 GAP=226        0.54       4.1     3.9  4.3  0.7989E+01  0.2288E+01  0.8907E+00E
 Epicentro: VILLANUEVA - SANTANDER                                             3
 ACTION:UPD 14-11-29 23:46 OP:nd   STATUS:               ID:20141002234913 L   I
 OLDACT:REG 14-10-03 06:37 OP:spq  STATUS:               ID:20141002233749     3
 2014-10-02-2337-49M.COL___289                                                 6
 STAT SP IPHASW D HRMM SECON CODA AMPLIT PERI AZIMU VELO AIN AR TRES W  DIS CAZ7
 BAR2 SZ EP       2349 32.26                             174   -0.0710 14.0 177 
 BAR2 SZ ES       2349 47.09                             174   -0.0510 14.0 177 
 BAR2 SZ I        2349 49.84         7.1 0.22            173           14.0 177 
 BRR  HZ EP       2349 33.98                             152   -0.1210 71.9 307 
 BRR  HE ES       2349 50.43                             152    0.1410 71.9 307 
 RUS  HZ EP       2349 36.47                             145    0.3810 92.1 173 
 RUS  HZ I        2349 36.88         2.0 0.18            146           92.1 173 
 RUS  HE ES       2349 53.68                             145   -0.1610 92.1 173 
 PTB  HZ EP       2349 39.17                             132   -0.23 9  141 262 
 PTB  HN ES       2349 59.83                             132    0.09 9  141 262 
 PTB  HZ I        2350  2.48         5.8 0.40            133            141 262 
                                                                                
