 2016 10 2 2029 46.6 L   6.794 -73.156144.4  RSN 12 0.5 2.2LRSN                1
 GAP=119        1.14       3.5     4.3  6.3 -0.2290E+01  0.3180E+01  0.3004E+01E
 Epicentro: LOS SANTOS - SANTANDER                                             3
 ACTION:UPD 16-11-09 19:15 OP:rebc STATUS:               ID:20161002202946 L   I
 OLDACT:UP  16-10-03 07:35 OP:ar   STATUS:               ID:20161002202745     3
 OLDACT:REG 16-10-03 07:22 OP:ar   STATUS:               ID:20161002202745     3
 2016-10-02-2028-00M.COL___381                                                 6
 STAT SP IPHASW D HRMM SECON CODA AMPLIT PERI AZIMU VELO AIN AR TRES W  DIS CAZ7
 BAR2 EZ EP       2030  6.20                             171    0.1010 22.5 188 
 BAR2 EZ ES       2030 20.83                             171   -0.4410 22.5 188 
 BAR2 EZ I        2030 22.26        41.5 0.36            169           22.5 188 
 BRR  HZ IP     C 2030  8.04                             152    0.4210 70.6 299 
 BRR  HN ES       2030 24.95                             152    0.9810 70.6 299 
 BRR  HZ I        2030 25.81        29.4 0.12            150           70.6 299 
 PAM  EZ IP     C 2030  9.06                             150    0.2610 78.6  40 
 PAM  EN ES       2030 26.29                             150    0.2210 78.6  40 
 PAM  EZ I        2030 28.12        14.8 0.42            153           78.6  40 
 RUS  HZ EP       2030 10.48                             144    0.2610 99.9 175 
 RUS  HN ES       2030 28.25                             144   -0.3610 99.9 175 
 RUS  HZ I        2030 29.78        19.9 0.54            145           99.9 175 
 PTB  HZ EP       2030 13.33                             132   -0.07 9  147 259 
 PTB  HN ES       2030 33.81                             132   -0.45 9  147 259 
 PTB  HZ I        2030 41.35        17.9 0.40            131            147 259 
 OCA  HZ EP       2030 14.52                             129   -0.39 9  161 354 
 OCA  HN ES       2030 36.25                             129   -0.70 9  161 354 
 OCA  HZ I        2030 40.08        53.6 0.18            130            161 354 
 SPBC HZ EP       2030 15.42                             129    0.49 9  162 219 
 SPBC HN ES       2030 36.99                             129    0.01 9  162 219 
 SPBC HZ I        2030 38.46        29.4 0.26            128            162 219 
 ZAR  HZ EP   4   2030 21.98                             122    3.05 0  203 292 
 ZAR  HN ES       2030 43.64                             122   -0.47 9  203 292 
 ZAR  HZ I        2030 50.25        22.0 0.58            122            203 292 
 NOR  HZ EP       2030 22.77                             118    0.61 8  233 234 
 NOR  HE ES       2030 49.64                             118   -0.22 8  233 234 
 NOR  HZ I        2030 56.62         7.9 0.16            118            233 234 
 CHI  HZ EP   2   2030 24.65                             117    0.48 4  248 195 
 CHI  HN ES   2   2030 53.21                             117   -0.22 4  248 195 
 CHI  HZ I        2030 59.91         6.7 0.28            117            248 195 
 GUY2CHZ EP   4   2030 33.14                             112    3.09 0  300 235 
 GUY2CHN ES   4   2031  5.62                             112    1.72 0  300 235 
 GUY2CHZ I        2031 16.95         3.7 0.44                           300 235 
 PTGC HZ EP       2030 29.49                             111   -0.92 7  308 158 
 PTGC HN ES   4   2031  2.75                             111   -1.80 0  308 158 
                                                                                
