 2016 10 2 2356 37.8 L   6.777 -73.145149.1  RSN  9 0.4 2.1LRSN                1
 GAP=138        1.07       4.2     4.6  6.4 -0.9874E+00  0.8273E+01 -0.1938E+01E
 Epicentro: LOS SANTOS - SANTANDER                                             3
 ACTION:UPD 16-11-09 19:15 OP:rebc STATUS:               ID:20161002235637 L   I
 OLDACT:UP  16-10-03 08:35 OP:ar   STATUS:               ID:20161002234747     3
 OLDACT:REG 16-10-03 07:29 OP:ar   STATUS:               ID:20161002234747     3
 2016-10-02-2348-00M.COL___369                                                 6
 STAT SP IPHASW D HRMM SECON CODA AMPLIT PERI AZIMU VELO AIN AR TRES W  DIS CAZ7
 BAR2 EZ EP       2356 57.97                             172    0.1810 20.8 191 
 BAR2 EZ ES       2357 13.21                             172   -0.1710 20.8 191 
 BAR2 EZ I        2357 14.27        36.2 0.38            173           20.8 191 
 BRR  HZ IP     C 2356 59.79                             153    0.4010 72.5 300 
 BRR  HN ES       2357 16.81                             153    0.5910 72.5 300 
 BRR  HZ I        2357 22.87        13.6 0.60            150           72.5 300 
 PAM  EZ IP     C 2357  0.79                             151    0.3010 79.3  38 
 PAM  EN ES       2357 18.02                             151   -0.1710 79.3  38 
 PAM  EZ I        2357 21.00         6.6 0.38            152           79.3  38 
 RUS  HZ EP       2357  1.98                             145    0.2710 98.1 176 
 RUS  HN ES       2357 19.66                             145   -0.6910 98.1 176 
 RUS  HZ I        2357 21.98        19.0 0.40            151           98.1 176 
 PTB  HZ EP       2357  5.00                             133   -0.01 9  147 260 
 PTB  HN ES       2357 25.92                             133   -0.31 9  147 260 
 PTB  HZ I        2357 27.74        12.7 0.16            133            147 260 
 SPBC HZ EP       2357  6.90                             130    0.52 9  161 220 
 SPBC HE ES       2357 28.75                             130    0.08 9  161 220 
 SPBC HZ I        2357 31.64        16.1 0.26            133            161 220 
 OCA  HZ EP   2   2357  6.72                             130    0.11 5  163 353 
 OCA  HE ES   2   2357 28.38                             130   -0.70 5  163 353 
 OCA  HZ I        2357 34.78        30.5 0.32            130            163 353 
 ZAR  HZ EP       2357  9.57                             123   -1.00 9  205 293 
 ZAR  HN ES       2357 36.43                             123    0.30 9  205 293 
 ZAR  HZ I        2357 41.77        16.3 0.18            123            205 293 
 URE  HZ EP       2357 18.56                             114   -0.59 7  285 292 
 URE  HN ES   4   2357 48.65                             114   -2.74 0  285 292 
 URE  HZ I        2357 59.54        11.6 0.18            115            285 292 
                                                                                
