 2010  9 2 2208 14.2 L   6.802 -73.041139.2  RSN 11 0.5 2.7LRSN                1
 GAP=134        1.11       3.8     5.9  6.7 -0.8034E+01 -0.6263E+01 -0.1239E+00E
 Epicentro: LOS SANTOS - SANTANDER                                             3
 ACTION:UP  11-02-18 10:59 OP:tino STATUS:               ID:20100902220814 L   I
 2010-09-02-2205-09S.COL___120                                                 6
 STAT SP IPHASW D HRMM SECON CODA AMPLIT PERI AZIMU VELO SNR AR TRES W  DIS CAZ7
 BAR2 SZ EP       22 8 33.20                             168     0.010   28 214 
 BAR2 SZ ES   1   22 8 47.99                             168     0.1 7   28 214 
 BAR2 SZ I        22 8 49.25       139.5 0.70                            28 214 
 BRR  HZ EP       22 8 35.10                             148    -0.210   82 295 
 BRR  HN ES       22 8 51.92                             148     0.210   82 295 
 BRR  HZ I        22 8 56.35       182.3 0.37                            82 295 
 RUS  HZ EP   1   22 8 37.30                             142     0.0 7  101 183 
 RUS  HN ES       22 8 55.05                             142    -0.310  101 183 
 RUS  HZ I        22 8 56.40        38.1 0.55                           101 183 
 GUE  SZ EP       22 8 38.30                             138     0.210  114   6 
 GUE  SZ I        22 8 39.70        58.0 0.06                           114   6 
 GRA  SZ EP       22 8 39.22                             136     0.610  123  12 
 GRA  SZ I        22 8 40.52       121.5 0.31                           123  12 
 GRA  SZ ES   2   22 8 57.98                             136     0.4 5  123  12 
 OCA  SZ EP       22 8 41.92                             128    -0.2 9  162 349 
 OCA  SZ ES   1   22 9  3.25                             128    -0.7 7  162 349 
 OCA  SZ I        22 9  7.78       114.1 0.14                           162 349 
 CHI  HZ EP   1   22 8 52.86                             115     0.9 6  252 198 
 CHI  HN ES   1   22 9 20.98                             115    -0.4 6  252 198 
 CHI  HZ I        22 9 27.33        10.1 0.54                           252 198 
 HEL  HZ EP   1   22 8 55.45                             112     0.1 6  283 256 
 HEL  HN ES   2   22 9 26.03                             112    -1.4 4  283 256 
 HEL  HZ I        22 9 32.86        22.7 0.41                           283 256 
 RREF HZ EP       22 9  2.00                             109     0.9 7  331 231 
 RREF HN ES   2   22 9 37.09                             109    -0.6 3  331 231 
 RREF HZ I        22 9 45.35        16.9 0.45                           331 231 
 SDV  BZ EP       22 9  3.07                             107     0.1 6  351  49 
 SDV  BN ES       22 9 40.21                             107    -0.8 6  351  49 
 SDV  BZ I        22 9 43.07        19.5 0.29                           351  49 
 PRA  HZ EP       22 9  7.85                             105    -0.4 6  398 211 
 PRA  HN ES   2   22 9 49.58                             105    -0.8 3  398 211 
 PRA  HZ I        22 9 53.90        17.4 0.65                           398 211 
                                                                                
