 2013  9 2 2015 24.1 L   6.523 -73.575115.2  RSN  8 0.5 1.7LRSN                1
 GAP= 76        1.36       5.1     5.1  9.8 -0.5760E+01  0.2298E+01  0.1617E+01E
 Epicentro: EL CARMEN DE CHUCURI - SANTANDER                                   3
 ACTION:UPD 13-10-22 09:19 OP:ep   STATUS:               ID:20130902201524 L   I
 OLDACT:REG 13-09-02 23:41 OP:nd   STATUS:               ID:20130902200959     3
 2013-09-02-2009-59M.COL___269                                                 6
 STAT SP IPHASW D HRMM SECON CODA AMPLIT PERI AZIMU VELO AIN AR TRES W  DIS CAZ7
 BAR2 SZ IP     C 2015 41.33                             158    0.4910 44.1  80 
 BAR2 SZ ES       2015 54.07                             158    0.1810 44.1  80 
 BAR2 SZ I        2015 54.84        14.7 0.18            167           44.1  80 
 BRR  HZ EP       2015 42.20                             148    0.4610 66.3 347 
 BRR  HN ES       2015 56.10                             148    0.6210 66.3 347 
 BRR  HZ I        2016  8.09        14.9 0.32            152           66.3 347 
 RUS  HZ EP       2015 44.21                             140    0.1810 88.5 142 
 RUS  HN ES       2015 59.28                             140   -0.2810 88.5 142 
 RUS  HZ I        2016  1.24         5.9 0.44            149           88.5 142 
 PTB  HZ IP     C 2015 44.07                             137   -0.0210 97.4 271 
 PTB  HN ES       2015 58.86                             137   -0.8110 97.4 271 
 PTB  HZ I        2016  0.31        12.2 0.13            140           97.4 271 
 SPBC HZ EP       2015 44.90                             133   -0.4610  111 210 
 SPBC HN ES       2016  2.34                             133    0.4110  111 210 
 SPBC HZ I        2016 14.90        17.5 0.10            138            111 210 
 PAM  SZ EP       2015 48.11                             128    0.2210  132  47 
 PAM  SN ES       2016  5.36                             128   -1.0710  132  47 
 PAM  SZ I        2016  7.36         8.4 0.18            137            132  47 
 ZAR  HZ EP   4   2015 55.38                             119    3.48 0  178 307 
 ZAR  HN ES   4   2016 15.57                             119    2.00 0  178 307 
 ZAR  HZ I        2016 17.93         7.7 0.38            124            178 307 
 GUY2CHZ EP   4   2016  2.83                             110    2.87 0  245 234 
 GUY2CHN ES   4   2016 31.22                             110    3.30 0  245 234 
 GUY2CHZ I        2016 33.80         2.0 0.26                           245 234 
                                                                                
