 2011 12 2 2156 29.5 L   6.722 -73.116146.6  RSN  5 0.4 1.7LRSN                1
 GAP=190        0.74       7.4    14.6  7.7  0.6602E+02 -0.9838E+01  0.1874E+01E
 Epicentro: JORDAN - SANTANDER                                                 3
 ACTION:UPD 12-07-13 16:13 OP:ep   STATUS:               ID:20111202215629 L   I
 2011-12-02-2150-00M.COL___182                                                 6
 STAT SP IPHASW D HRMM SECON CODA AMPLIT PERI AZIMU VELO AIN AR TRES W  DIS CAZ7
 BAR2 SZ EP   1   2156 49.04                             173   -0.12 7 16.2 207 
 BAR2 SZ ES   1   2157  4.39                             173   -0.07 7 16.2 207 
 BAR2 SZ I        2157  5.65        15.5 0.27                          16.2 207 
 GIR2 SZ EP   1   2156 49.22                             164   -0.38 7 40.4 348 
 GIR2 SZ ES   1   2157  5.39                             164    0.15 7 40.4 348 
 BRR  HZ EP   1   2156 50.90                             150   -0.31 7 78.4 303 
 BRR  HZ I        2156 51.08        18.3 0.13                          78.4 303 
 BRR  HE ES   1   2157  8.37                             150    0.26 7 78.4 303 
 RUS  HZ EP   1   2156 53.60                             146    0.83 7 91.8 178 
 RUS  HN ES   1   2157 10.57                             146   -0.32 7 91.8 178 
 RUS  HZ I        2157 13.11         6.0 0.30                          91.8 178 
 CHI  HZ EP   3   2157  5.93                             118   -0.57 2  241 196 
 CHI  HZ I        2157  8.20         2.5 0.65                           241 196 
                                                                                
