 2016 11 2 2018 53.2 L   6.801 -73.471110.7  RSN  6 0.3 1.3LRSN                1
 GAP=164        0.84       3.8     3.8  6.2  0.6280E+01  0.7309E+01  0.2393E+01E
 Epicentro: SAN VICENTE DE CHUCURI - SANTANDER                                 3
 ACTION:UPD 17-10-26 21:04 OP:lp   STATUS:               ID:20161102201853 L   I
 OLDACT:UP  16-11-03 04:07 OP:edw  STATUS:               ID:20161102201747     3
 OLDACT:UP  16-11-03 04:02 OP:edw  STATUS:               ID:20161102201747     3
 OLDACT:REG 16-11-03 03:35 OP:cara STATUS:               ID:20161102201747     3
 2016-11-02-2018-00M.COL___346                                                 6
 STAT SP IPHASW D HRMM SECON CODA AMPLIT PERI AZIMU VELO AIN AR TRES W  DIS CAZ7
 BAR2 EZ EP       2019  9.04                             159   -0.1310 39.4 126 
 BAR2 EZ ES       2019 21.76                             159    0.1110 39.4 126 
 BAR2 EZ I        2019 22.83         6.3 0.06            164           39.4 126 
 BRR  HZ EP       2019  9.12                             157    0.1410 43.1 322 
 BRR  HN ES       2019 21.11                             157   -0.2110 43.1 322 
 RUS  HZ EP       2019 14.52                             132    0.0910  109 157 
 RUS  HN ES       2019 31.10                             132    0.0810  109 157 
 RUS  HZ I        2019 32.29         2.0 0.18            135            109 157 
 PTB  HZ EP       2019 13.25                             131   -0.8510  113 255 
 PTB  HE ES       2019 30.60                             131    0.1610  113 255 
 PTB  HZ I        2019 34.44         4.4 0.12            131            113 255 
 SPBC HN ES       2019 36.02                             124    0.09 9  143 208 
 ZAR  HZ EP       2019 20.47                             118    0.47 9  171 297 
 ZAR  HN ES       2019 41.09                             118    0.17 9  171 297 
 ZAR  HZ I        2019 47.02         3.6 0.16            119            171 297 
                                                                                
