 2010 11 2 2127 14.3 L   6.803 -73.101144.0  RSN 11 0.5 2.9LRSN                1
 GAP=164        0.93       4.7     8.8  8.7 -0.1864E+02  0.1290E+02  0.6707E+01E
 Epicentro: LOS SANTOS - SANTANDER                                             3
 ACTION:UP  10-12-17 16:49 OP:REBC STATUS:               ID:20101102212714 L   I
 2010-11-02-2124-07S.COL___129                                                 6
 STAT SP IPHASW D HRMM SECON CODA AMPLIT PERI AZIMU VELO SNR AR TRES W  DIS CAZ7
 BAR2 SZ EP       2127 33.66                             170    -0.110   25 201 
 BAR2 SZ ES   2   2127 48.27                             170    -0.7 5   25 201 
 GIR2 SZ EP   1   2127 34.56                             167     0.8 7   32 341 
 BRR  HZ EP   1   2127 35.33                             151    -0.2 7   76 296 
 BRR  HE ES   2   2127 52.54                             151     0.5 5   76 296 
 BRR  HZ I        2127 56.10       115.7 0.11                            76 296 
 RUS  HZ IP     C 2127 37.68                             143    -0.210  101 179 
 RUS  HE ES   2   2127 56.35                             143     0.1 5  101 179 
 RUS  HZ I        2127 58.15        70.2 0.26                           101 179 
 GRA  SZ EP       2127 39.22                             137     0.010  124  15 
 GRA  SZ ES   2   2127 59.26                             137     0.6 5  124  15 
 GRA  SZ I        2128  0.12        74.4 0.33                           124  15 
 OCA  SZ EP   1   2127 42.00                             129    -0.5 7  161 351 
 OCA  SZ ES   2   2128  4.38                             129    -0.1 5  161 351 
 OCA  SZ I        2128  9.30        81.4 0.45                           161 351 
 NOR  SZ EP   1   2127 49.60                             118    -0.8 6  239 235 
 NOR  SE ES   2   2128 17.94                             118    -0.6 4  239 235 
 ROSC BZ EP   1   2127 53.36                             116     0.7 6  256 212 
 ROSC BZ I        2127 55.42        35.4 0.27                           256 212 
 ROSC BE ES   2   2128 22.96                             116     0.4 4  256 212 
 CVER SZ EP   1   2127 55.29                             114     0.5 6  274 203 
 RREF HZ EP   1   2128  1.70                             110     0.9 5  326 230 
 RREF HE ES   2   2128 37.37                             110     0.2 3  326 230 
 RREF HZ I        2128 47.86        34.0 0.39                           326 230 
 PRA  HZ EP   1   2128  7.18                             106    -0.9 4  395 210 
 PRA  HZ I        2128 11.17        77.9 0.20                           395 210 
 PRA  HE ES   2   2128 50.34                             106     0.3 3  395 210 
                                                                                
