 2013 12 2 2233 55.8 L   7.351 -74.217 66.7  RSN  7 0.4 1.6LRSN                1
 GAP= 85        0.83       3.1     2.5  7.4  0.1460E+01 -0.3691E+01 -0.7510E+00E
 Epicentro: PUERTO WILCHES - SANTANDER                                         3
 ACTION:UPD 14-01-13 10:15 OP:ep   STATUS:               ID:20131202223355 L   I
 OLDACT:UP  13-12-02 22:54 OP:mh   STATUS:               ID:20131202223000     3
 OLDACT:REG 13-12-02 22:16 OP:mh   STATUS:               ID:20131202223000     3
 2013-12-02-2230-00M.COL___282                                                 6
 STAT SP IPHASW D HRMM SECON CODA AMPLIT PERI AZIMU VELO AIN AR TRES W  DIS CAZ7
 BRR  HZ EP   1   2234  8.29                             132   -0.20 7 61.9 116 
 BRR  HN ES       2234 18.07                             132   -0.2810 61.9 116 
 BRR  HZ I        2234 21.18        10.8 0.11            139           61.9 116 
 ZAR  HZ EP       2234  9.56                             127    0.0610 72.5 282 
 ZAR  HN ES       2234 20.52                             127    0.3710 72.5 282 
 ZAR  HZ I        2234 23.21        17.9 0.07            134           72.5 282 
 PTB  HZ EP   4   2234  7.93                             119   -3.77 0 93.6 196 
 PTB  HN ES   4   2234 22.12                             119   -1.95 0 93.6 196 
 PTB  HZ I        2234 25.32         5.2 0.15            126           93.6 196 
 BAR2 SZ EP       2234 17.22                             108   -0.23 9  142 126 
 BAR2 SZ ES   1   2234 34.44                             108    0.14 7  142 126 
 BAR2 SZ I        2234 35.75        28.5 0.35            114            142 126 
 SML  HZ EP   1   2234 19.22                             105   -0.21 7  161   6 
 SML  HE ES   1   2234 37.09                             105   -0.74 7  161   6 
 PAM  SZ EP       2234 21.43                             105    0.63 9  168  90 
 PAM  SN ES       2234 40.56                             105    0.29 9  168  90 
 NOR  HN ES       2234 48.22                             101   -0.29 8  210 200 
 SJC  HZ EP   4   2234 35.97                              97   -0.49 0  301 339 
 SJC  HN ES   4   2235  6.94                              97   -1.20 0  301 339 
                                                                                
