 2013  4 2 2112  8.6 L   6.778 -73.111142.8  RSN 10 0.4 2.4LRSN                1
 GAP=142        0.81       3.0     3.4  5.2 -0.1289E+01  0.3822E+01  0.2112E+01E
 Epicentro: LOS SANTOS - SANTANDER                                             3
 ACTION:UPD 13-05-22 14:35 OP:EP   STATUS:               ID:20130402211208 L   I
 2013-04-02-2110-00M.COL___245                                                 6
 STAT SP IPHASW D HRMM SECON CODA AMPLIT PERI AZIMU VELO AIN AR TRES W  DIS CAZ7
 BAR2 SZ ES       2112 42.72                             171   -0.1810 22.0 201 
 BAR2 SZ I        2112 43.90        46.9 0.24            170           22.0 201 
 BRR  HZ EP   1   2112 29.86                             150    0.13 7 75.8 299 
 BRR  HN ES       2112 46.81                             150    0.6210 75.8 299 
 BRR  HN I        2112 50.56        89.0 0.18            148           75.8 299 
 PAM  SZ EP       2112 30.82                             150    0.3110 77.0  36 
 PAM  SN ES       2112 47.72                             150    0.1510 77.0  36 
 PAM  SN I        2112 48.64        44.3 0.78            153           77.0  36 
 RUS  HZ EP       2112 31.94                             144    0.0410 97.9 178 
 RUS  HN ES   1   2112 49.59                             144   -0.46 7 97.9 178 
 RUS  HN I        2112 53.15        18.0 0.32            145           97.9 178 
 PTB  HZ EP   1   2112 35.53                             131   -0.14 7  151 260 
 PTB  HN ES       2112 56.63                             131   -0.13 9  151 260 
 PTB  HN I        2112 58.62        32.4 0.18            130            151 260 
 OCA  HZ EP   1   2112 36.50                             128   -0.49 7  163 352 
 OCA  HN ES   1   2112 58.11                             128   -1.01 7  163 352 
 OCA  HN I        2113  1.50        92.6 0.32            129            163 352 
 ZAR  HZ EP   1   2112 41.34                             121   -0.01 6  209 292 
 ZAR  HN ES       2113  6.93                             121    0.05 8  209 292 
 ZAR  HN I        2113 12.16        31.0 0.36            121            209 292 
 NOR  HZ EP   1   2112 44.81                             118    0.43 6  236 235 
 NOR  HE ES       2113 11.94                             118   -0.32 8  236 235 
 CHI  HZ EP   1   2112 46.41                             117    0.39 6  247 196 
 CHI  HN ES   1   2113 15.21                             117    0.02 6  247 196 
 CHI  HN I        2113 18.55         8.7 0.62            118            247 196 
 HEL  HZ EP   4   2112 50.31                             114    1.26 0  275 256 
 URE  HZ EP   4   2112 48.59                             113   -1.47 0  288 292 
 URE  HE ES   4   2113 19.50                             113   -2.88 0  288 292 
 URE  HE I        2113 30.86        23.6 0.26            113            288 292 
                                                                                
