 2013  8 2 2258 41.5 L   6.949 -73.519 96.6  RSN  6 0.5 1.8LRSN                1
 GAP=119        1.03       6.1     5.3  9.7  0.1746E+02  0.1964E+02  0.1983E+02E
 Epicentro: SAN VICENTE DE CHUCURI - SANTANDER                                 3
 ACTION:UPD 14-01-14 08:58 OP:ep   STATUS:               ID:20130802225841 L   I
 OLDACT:REG 13-08-02 21:57 OP:mh   STATUS:               ID:20130802225747     3
 2013-08-02-2257-47M.COL___235                                                 6
 STAT SP IPHASW D HRMM SECON CODA AMPLIT PERI AZIMU VELO AIN AR TRES W  DIS CAZ7
 BRR  HZ EP       2258 54.84                             163   -0.1710 27.5 309 
 BRR  HN ES   1   2259  6.23                             163    0.66 7 27.5 309 
 BRR  HN I        2259  6.92        75.0 0.50            163           27.5 309 
 GIR2 SZ EP   1   2258 55.26                             157   -0.44 7 38.7  68 
 GIR2 SZ ES   1   2259  6.22                             157   -0.58 7 38.7  68 
 BAR2 SZ EP   1   2258 57.08                             149    0.36 7 54.3 137 
 BAR2 SZ I        2259 14.63         9.0 0.12            140           54.3 137 
 PTB  HZ EP   1   2259  1.14                             127   -0.22 7  113 246 
 PTB  HN ES   1   2259 16.00                             127   -0.88 7  113 246 
 PTB  HN I        2259 20.54        11.1 0.24            123            113 246 
 RUS  HZ EP   1   2259  3.60                             124    0.27 7  126 158 
 RUS  HN ES       2259 20.64                             124    0.2610  126 158 
 RUS  HN I        2259 22.84         6.7 0.28            117            126 158 
 ZAR  HZ EP   1   2259  5.90                             117   -0.34 7  160 292 
 ZAR  HN ES       2259 26.22                             117    0.65 9  160 292 
 ZAR  HN I        2259 29.14        23.3 0.16            113            160 292 
                                                                                
