 2013  8 2 2132 41.6 L   6.205 -73.757 98.0  RSN 11 0.4 2.4LRSN                1
 GAP= 95        1.05       3.6     3.1  7.9 -0.1311E+01  0.6711E+01 -0.5078E+01E
 Epicentro: LANDAZURI - SANTANDER                                              3
 ACTION:UPD 14-01-14 08:58 OP:ep   STATUS:               ID:20130802213241 L   I
 OLDACT:REG 13-08-02 21:43 OP:mh   STATUS:               ID:20130802212959     3
 2013-08-02-2129-59M.COL___268                                                 6
 STAT SP IPHASW D HRMM SECON CODA AMPLIT PERI AZIMU VELO AIN AR TRES W  DIS CAZ7
 SPBC HZ EP   1   2132 58.09                             142    0.20 7 70.4 210 
 SPBC HN ES   1   2133 10.72                             142    0.10 7 70.4 210 
 SPBC HN I        2133 12.20        75.6 0.10            148           70.4 210 
 BAR2 SZ EP       2132 58.95                             139    0.3610 76.7  56 
 BAR2 SZ ES   1   2133 12.45                             139    0.59 7 76.7  56 
 BAR2 SZ I        2133 13.34        97.5 0.26            144           76.7  56 
 RUS  HZ EP   1   2132 59.44                             137    0.04 7 82.2 115 
 RUS  HN ES       2133 12.81                             137   -0.4910 82.2 115 
 RUS  HN I        2133 14.63        43.7 0.16            145           82.2 115 
 PTB  HZ IP     C 2132 58.28                             136   -0.7610 85.7 296 
 PTB  HN ES       2133 12.00                             136   -0.6610 85.7 296 
 PTB  HN I        2133 15.59       194.7 0.16            138           85.7 296 
 BRR  HZ IP     C 2133  0.46                             131    0.1710 99.9   3 
 BRR  HN ES       2133 14.95                             131    0.0710 99.9   3 
 BRR  HN I        2133 22.64        66.7 0.16            133           99.9   3 
 GIR2 SZ EP   1   2133  2.17                             127    0.24 7  115  33 
 NOR  HZ EP   1   2133  4.00                             120   -0.59 7  142 240 
 NOR  HN ES       2133 23.34                             120    0.79 9  142 240 
 NOR  HN I        2133 24.41        98.5 0.14            125            142 240 
 ZAR  HZ EP   1   2133  9.55                             113    0.03 7  187 320 
 ZAR  HN ES       2133 31.69                             113    0.38 9  187 320 
 ZAR  HN I        2133 36.27        52.6 0.14            116            187 320 
 HEL  HZ EP   1   2133 10.86                             112   -0.11 6  196 270 
 HEL  HN ES       2133 34.10                             112    0.20 9  196 270 
 HEL  HN I        2133 36.90        11.8 0.32            115            196 270 
 GUY2CHZ EP   4   2133 13.20                             111    0.67 0  208 239 
 GUY2CHN ES   4   2133 36.98                             111    0.30 0  208 239 
 GUY2CHN I        2133 41.31        11.3 0.40                           208 239 
 SML  HZ EP   1   2133 20.87                             104   -0.56 5  289 353 
                                                                                
