 2016  7 2 2225 20.4 L   6.799 -73.167152.0  RSN  5 0.2 1.6LRSN                1
 GAP=235        0.48       4.1     4.0  4.6  0.1107E+02 -0.1277E+01 -0.2244E+01E
 Epicentro: LOS SANTOS - SANTANDER                                             3
 ACTION:UPD 17-03-29 16:45 OP:lp   STATUS:               ID:20160702222520 L   I
 OLDACT:REG 16-07-03 02:46 OP:lv   STATUS:               ID:20160702221740     3
 2016-07-02-2217-40M.COL___337                                                 6
 STAT SP IPHASW D HRMM SECON CODA AMPLIT PERI AZIMU VELO AIN AR TRES W  DIS CAZ7
 BRR  HZ EP       2225 42.21                             154    0.1110 69.2 300 
 BRR  HN ES       2225 59.01                             154   -0.0310 69.2 300 
 BRR  HZ I        2226  0.74         8.2 0.16            153           69.2 300 
 RUS  HZ EP       2225 44.60                             145   -0.1510  101 175 
 RUS  HN ES       2226  3.91                             145    0.1410  101 175 
 RUS  HZ I        2226  5.38         2.3 0.30            146            101 175 
 PTB  HZ EP       2225 47.38                             134   -0.27 9  145 259 
 PTB  HE ES       2226  9.00                             134    0.07 9  145 259 
 PTB  HZ I        2226 10.69         5.3 0.09            133            145 259 
 ZAR  HZ EP   2   2225 53.63                             124    0.61 4  202 292 
 ZAR  HN ES       2226 18.46                             124   -0.02 9  202 292 
 ZAR  HZ I        2226 24.74         6.7 0.25            124            202 292 
 GMAL HZ EPg    D 2230  2.61                              96   167.8 0  899 278 
                                                                                
