 2010  3 2 2025 39.1 L   6.807 -73.087142.0  RSN  4 0.4 1.7LRSN                1
 GAP=244        0.66       7.7    14.5  7.5  0.8287E+02 -0.2325E+02 -0.3040E+01E
 Epicentro: LOS SANTOS - SANTANDER                                             3
 ACTION:UP  10-08-24 09:51 OP:vdl  STATUS:               ID:20100302202538 L   I
 2010-03-02-2022-49S.COL___094                                                 6
 STAT SP IPHASW D HRMM SECON CODA AMPLIT PERI AZIMU VELO SNR AR TRES W  DIS CAZ7
 BAR2 SZ EP       2025 58.24                             169    -0.110   26 204 
 BAR2 SZ ES   2   2026 12.71                             169    -0.6 5   26 204 
 BRR  HZ EP       2026  0.02                             150    -0.110   77 296 
 BRR  HE ES   1   2026 16.85                             150     0.3 7   77 296 
 BRR  HZ I        2026 17.12        18.2 0.45                            77 296 
 RUS  BZ EP       2026  2.63                             143     0.110  101 180 
 RUS  BE ES   1   2026 21.10                             143     0.3 7  101 180 
 RUS  BZ I        2026 22.09         7.6 0.28                           101 180 
 CHI  HZ EP   1   2026 16.66                             116    -0.2 6  251 197 
 CHI  HN ES   3   2026 44.87                             116    -1.4 2  251 197 
 CHI  HZ I        2026 54.23         2.6 0.41                           251 197 
                                                                                
