 2011  9 2 2227 10.7 L   6.754 -73.086146.0  RSN 10 0.4 2.1LRSN                1
 GAP=146        0.74       4.4     5.4  5.4 -0.4006E+01  0.1004E+02  0.5518E+01E
 Epicentro: LOS SANTOS - SANTANDER                                             3
 ACTION:UPD 12-07-13 15:55 OP:ep   STATUS:               ID:20110902222710 L   I
 2011-09-02-2225-12S.COL___170                                                 6
 STAT SP IPHASW D HRMM SECON CODA AMPLIT PERI AZIMU VELO AIN AR TRES W  DIS CAZ7
 BAR2 SZ EP       2227 30.06                             171   -0.2010 20.8 211 
 BAR2 SZ ES   1   2227 45.25                             171   -0.31 7 20.8 211 
 BAR2 SZ I        2227 46.82        24.1 0.27                          20.8 211 
 GIR2 SZ EP   1   2227 30.54                             165    0.00 7 37.8 342 
 GIR2 SZ ES   1   2227 46.28                             165    0.22 7 37.8 342 
 PAM  SZ EP   1   2227 32.96                             151    0.06 7 77.6  33 
 PAM  SN ES   1   2227 50.07                             151   -0.19 7 77.6  33 
 BRR  HZ EP   1   2227 31.99                             150   -0.32 7 79.4 299 
 BRR  HE ES   1   2227 49.72                             150    0.52 7 79.4 299 
 BRR  HZ I        2227 53.89        26.6 0.14                          79.4 299 
 RUS  HZ EP   1   2227 33.93                             145   -0.12 7 95.2 180 
 RUS  HE ES   1   2227 52.86                             145    0.56 7 95.2 180 
 RUS  HZ I        2227 54.43        11.4 0.63                          95.2 180 
 ZAR  HZ EP   1   2227 44.03                             121    0.09 6  212 293 
 ZAR  HZ I        2228 14.50        18.5 0.38                           212 293 
 NOR  SZ EP   1   2227 46.08                             118   -0.58 6  237 236 
 NOR  SE ES   1   2228 14.05                             118   -0.70 6  237 236 
 CHI  HZ EP   1   2227 48.10                             118    0.07 6  246 197 
 CHI  HZ I        2228 23.40         6.5 0.39                           246 197 
 HEL  HZ EP   1   2227 51.84                             114    0.39 6  277 257 
 HEL  HZ I        2228 28.70         6.0 0.29                           277 257 
 RREF HZ EP   1   2227 57.96                             111    0.95 5  324 231 
 RREF HZ I        2228 41.65         9.0 0.33                           324 231 
                                                                                
