 2014  4 2 2119 17.9 L   6.806 -73.663 81.4  RSN  6 0.4 1.8LRSN                1
 GAP=104        0.88       3.2     2.7 12.3  0.6788E+00 -0.5866E+00 -0.1449E+02E
 Epicentro: EL CARMEN DE CHUCURI - SANTANDER                                   3
 ACTION:UPD 14-05-13 23:05 OP:nd   STATUS:               ID:20140402211917 L   I
 OLDACT:UP  14-04-03 04:54 OP:mh   STATUS:               ID:20140402211811     3
 OLDACT:UP  14-04-03 04:52 OP:mh   STATUS:               ID:20140402211811     3
 OLDACT:REG 14-04-03 02:42 OP:mh   STATUS:               ID:20140402211811     3
 2014-04-02-2118-11M.COL___255                                                 6
 STAT SP IPHASW D HRMM SECON CODA AMPLIT PERI AZIMU VELO AIN AR TRES W  DIS CAZ7
 PTB  HZ EP       2119 34.13                             127   -0.4710 92.6 251 
 PTB  HN ES       2119 47.47                             127   -0.1910 92.6 251 
 PTB  HZ I        2119 47.85        18.4 0.14            137           92.6 251 
 RUS  HZ EP       2119 37.70                             120   -0.3210  120 148 
 RUS  HN ES       2119 54.19                             120    0.4410  120 148 
 RUS  HZ I        2119 56.97         7.5 0.12            128            120 148 
 PAM  SZ EP   1   2119 38.17                             119   -0.06 7  122  61 
 PAM  SN ES       2119 54.12                             119   -0.0010  122  61 
 PAM  SZ I        2119 58.51         8.4 0.18            123            122  61 
 ZAR  HZ EP       2119 41.59                             113    0.56 9  152 300 
 ZAR  HN ES   1   2119 59.72                             113    0.62 7  152 300 
 ZAR  HZ I        2120  3.04        12.1 0.32            119            152 300 
 OCA  HN ES   2   2120  1.33                             111   -0.25 5  163  13 
 OCA  HZ I        2120  9.45         8.6 0.31            115            163  13 
 SML  HN ES       2120 14.07                             105   -0.20 8  225 348 
 SML  HZ I        2120 19.97        15.6 0.09            109            225 348 
                                                                                
