 2012  9 2 2305  5.4 L   6.773 -73.147149.0  RSN 10 0.3 2.4LRSN                1
 GAP=138        0.68       3.3     3.5  4.9 -0.6002E+00  0.4802E+01 -0.1036E+01E
 Epicentro: LOS SANTOS - SANTANDER                                             3
 ACTION:UPD 12-10-22 14:16 OP:ep   STATUS:               ID:20120902230505 L   I
 2012-09-02-2300-00M.COL___218                                                 6
 STAT SP IPHASW D HRMM SECON CODA AMPLIT PERI AZIMU VELO AIN AR TRES W  DIS CAZ7
 BAR2 SZ EP   1   23 5 25.19                             172   -0.18 7 20.4 191 
 BAR2 SZ ES   1   23 5 40.83                             172   -0.11 7 20.4 191 
 BAR2 SZ I        23 5 42.15        70.6 0.31                          20.4 191 
 GIR2 SZ EP       23 5 25.59                             166    0.0510 34.2 351 
 BRR  HZ IP     C 23 5 27.44                             153    0.4610 72.5 301 
 BRR  HZ I        23 5 29.01        80.8 0.12                          72.5 301 
 BRR  HE ES   1   23 5 44.60                             153    0.80 7 72.5 301 
 PAM  SZ EP   1   23 5 28.22                             151    0.11 7 79.8  38 
 PAM  SN ES   1   23 5 45.27                             151   -0.54 7 79.8  38 
 PAM  SZ I        23 5 48.06        44.0 0.51                          79.8  38 
 RUS  HZ EP       23 5 29.25                             145   -0.0210 97.6 176 
 RUS  HE ES       23 5 47.93                             145    0.0510 97.6 176 
 RUS  HZ I        23 5 49.69        21.2 0.25                          97.6 176 
 PTB  HZ EP       23 5 32.22                             133   -0.36 9  147 260 
 PTB  HE ES   1   23 5 53.41                             133   -0.36 7  147 260 
 PTB  HZ I        23 5 59.43        19.1 0.23                           147 260 
 OCA  HZ EP   1   23 5 34.18                             130   -0.06 7  163 353 
 ZAR  HZ EP   1   23 5 38.01                             123   -0.16 6  205 293 
 ZAR  HN ES   1   23 6  3.48                             123   -0.23 6  205 293 
 ZAR  HZ I        23 6 11.51        24.9 0.16                           205 293 
 NOR  SZ EP   1   23 5 41.28                             119    0.15 6  233 235 
 NOR  SN ES   1   23 6  8.96                             119   -0.03 6  233 235 
 NOR  SZ I        23 6 14.55        16.4 0.23                           233 235 
 PRA  HZ EP   1   23 5 59.00                             107    0.27 4  389 210 
 PRA  HZ I        23 6 43.50         5.8 0.24                           389 210 
                                                                                
