 2012  4 2 2216 36.9 L   6.772 -73.123151.9  RSN 10 0.3 2.3LRSN                1
 GAP=141        0.69       2.9     4.2  5.2 -0.1729E+01  0.6795E+01  0.2727E+01E
 Epicentro: LOS SANTOS - SANTANDER                                             3
 ACTION:UPD 12-07-05 11:49 OP:tino STATUS:               ID:20120402221636 L   I
 2012-04-02-2210-00M.COL___196                                                 6
 STAT SP IPHASW D HRMM SECON CODA AMPLIT PERI AZIMU VELO AIN AR TRES W  DIS CAZ7
 BAR2 SZ EP   1   2216 57.30                             172     0.0 7   21 198 
 BAR2 SZ ES   1   2217 12.97                             172    -0.1 7   21 198 
 BAR2 SZ I        2217 14.09        39.8 0.29                            21 198 
 BRR  HZ EP   1   2216 59.19                             152     0.2 7   75 300 
 BRR  HZ I        2216 59.44        34.8 0.13                            75 300 
 BRR  HN ES   1   2217 16.87                             152     0.7 7   75 300 
 PAM  SZ EP   1   2216 59.98                             152     0.1 7   78  37 
 PAM  SN ES   1   2217 17.57                             152    -0.2 7   78  37 
 RUS  HZ EP   1   2217  1.08                             146     0.0 7   97 177 
 RUS  HN ES   1   2217 19.68                             146    -0.2 7   97 177 
 RUS  HZ I        2217 22.57        22.9 0.47                            97 177 
 OCA  SZ EP   1   2217  5.79                             130    -0.2 7  164 352 
 OCA  SZ ES   2   2217 28.61                             130    -0.1 5  164 352 
 ZAR  HZ EP   1   2217  9.67                             123    -0.5 6  208 293 
 ZAR  HN ES   1   2217 35.67                             123    -0.4 6  208 293 
 ZAR  HZ I        2217 42.75        16.4 0.35                           208 293 
 NOR  SZ EP   2   2217 13.16                             120     0.1 4  235 235 
 NOR  SN ES   1   2217 40.71                             120    -0.5 6  235 235 
 CHI  HZ EP   1   2217 15.24                             119     0.5 6  246 196 
 CHI  HZ I        2217 17.25        10.8 0.16                           246 196 
 CHI  HN ES   1   2217 43.84                             119    -0.4 6  246 196 
 RREF HZ EP   1   2217 23.29                             112     0.0 5  322 230 
 RREF HE ES   1   2218  0.09                             112     0.6 5  322 230 
 RREF HZ I        2218  8.81         8.7 0.71                           322 230 
 PRA  HZ EP   1   2217 30.98                             108     0.5 4  391 210 
 PRA  HN ES   1   2218 12.19                             108    -0.1 4  391 210 
                                                                                
