 2016 10 2 2354 13.4 L   7.430 -73.187133.1  RSN  5 0.3 1.8LRSN                1
 GAP=110        0.74       3.7     3.7  6.3 -0.7276E+00  0.8295E+01 -0.5049E+01E
 Epicentro: EL PLAYON - SANTANDER                                              3
 ACTION:UPD 16-11-09 19:15 OP:rebc STATUS:               ID:20161002235413 L   I
 OLDACT:UP  16-10-03 08:38 OP:ar   STATUS:               ID:20161002234748d    3
 OLDACT:DUP 16-10-03 08:36 OP:ar   STATUS:               ID:20161002234748d    3
 OLDACT:UP  16-10-03 08:35 OP:ar   STATUS:               ID:20161002234747     3
 OLDACT:REG 16-10-03 07:29 OP:ar   STATUS:               ID:20161002234747     3
 2016-10-02-2348-00M.COL___369                                                 6
 STAT SP IPHASW D HRMM SECON CODA AMPLIT PERI AZIMU VELO AIN AR TRES W  DIS CAZ7
 PAM  EZ EP       2354 33.19                             157    0.2010 54.7 100 
 PAM  EN ES       2354 48.24                             157   -0.0410 54.7 100 
 PAM  EZ I        2354 49.79        10.4 0.40            161           54.7 100 
 BRR  HZ EP       2354 32.99                             151   -0.0010 68.0 238 
 BRR  HN ES       2354 48.63                             151    0.3510 68.0 238 
 BRR  HZ I        2354 50.14        11.2 0.18            151           68.0 238 
 OCA  HZ EP       2354 35.08                             144    0.3810 90.7 351 
 OCA  HN ES       2354 51.01                             144   -0.3210 90.7 351 
 OCA  HZ I        2354 53.40        25.6 0.42            145           90.7 351 
 BAR2 EZ EP   4   2354 37.39                             143    2.43 0 92.6 180 
 BAR2 EZ ES       2354 51.50                             143   -0.2910 92.6 180 
 BAR2 EZ I        2354 52.51         9.0 0.15            146           92.6 180 
 ZAR  HZ EP       2354 42.55                             122   -0.45 9  185 272 
 ZAR  HN ES       2355  6.19                             122    0.10 9  185 272 
 ZAR  HZ I        2355 10.24         9.1 0.10            123            185 272 
                                                                                
