 2017 12 2 2006 18.1 L   6.812 -73.158140.0  RSN  9 0.4 1.6LRSN                1
 GAP=134        1.07       3.4     4.6  7.2 -0.2478E+01  0.1414E+02  0.1007E+01E
 Epicentro: LOS SANTOS - SANTANDER                                             3
 ACTION:UPD 18-01-04 13:16 OP:rebc STATUS:               ID:20171202200618 L   I
 OLDACT:UP  17-12-03 03:44 OP:edw  STATUS:               ID:20171202195738     3
 OLDACT:REG 17-12-03 03:16 OP:edw  STATUS:               ID:20171202195738     3
 2017-12-02-1958-00M.COL___489                                                 6
 STAT SP IPHASW D HRMM SECON CODA AMPLIT PERI AZIMU VELO AIN AR TRES W  DIS CAZ7
 BAR2 EZ EP       20 6 37.09                             170   -0.0110 24.5 186 
 BAR2 EZ ES       20 6 52.05                             170    0.1610 24.5 186 
 BAR2 EZ I        20 6 53.42        16.4 0.18            170           24.5 186 
 PAM  EZ EP       20 6 39.90                             150    0.1710 77.2  41 
 PAM  EN ES       20 6 57.15                             150    0.5810 77.2  41 
 PAM  EZ I        20 6 59.17         5.6 0.32            153           77.2  41 
 RUS  HZ EP       20 6 41.02                             142   -0.4110  102 175 
 RUS  HN ES       20 6 59.04                             142   -0.5710  102 175 
 RUS  HZ I        20 7  1.43         2.3 0.18            145            102 175 
 PTB  HZ EP       20 6 43.83                             131   -0.72 9  147 258 
 PTB  HN ES       20 7  4.90                             131   -0.24 9  147 258 
 PTB  HZ I        20 7  6.24         3.0 0.30            132            147 258 
 OCA  HE ES       20 7  6.95                             129   -0.54 9  159 354 
 SPBC HZ EP       20 6 46.28                             128    0.06 9  163 218 
 SPBC HE ES       20 7  8.92                             128    0.79 9  163 218 
 SPBC HZ I        20 7 13.00         6.4 0.12            130            163 218 
 ZAR  HZ EP       20 6 50.33                             121    0.30 9  202 292 
 ZAR  HN ES       20 7 15.08                             121    0.17 9  202 292 
 ZAR  HZ I        20 7 21.15         6.8 0.38            123            202 292 
 CHI  HE ES       20 7 24.94                             116    0.07 8  250 195 
 GUY2CHZ EP       20 7  2.14                             111    0.69 7  301 234 
 GUY2CHE ES       20 7 35.10                             111   -0.14 7  301 234 
 GUY2CHZ I        20 7 43.57         2.0 0.56                           301 234 
                                                                                
