 2012  7 2 2155 44.5 L   6.766 -73.167138.3  RSN  5 0.4 1.6LRSN                1
 GAP=135        0.78       9.8     7.9 13.4 -0.2747E+02  0.2308E+02 -0.6309E+02E
 Epicentro: LOS SANTOS - SANTANDER                                             3
 ACTION:UPD 12-08-14 11:42 OP:ep   STATUS:               ID:20120702215544 L   I
 2012-07-02-2150-00M.COL___201                                                 6
 STAT SP IPHASW D HRMM SECON CODA AMPLIT PERI AZIMU VELO AIN AR TRES W  DIS CAZ7
 BAR2 SZ ES   2   2156 17.81                             171     0.1 5   19 185 
 BAR2 SZ I        2156 19.09        16.0 0.24            173             19 185 
 BRR  HZ EP       2156  5.15                             151     0.310   71 302 
 BRR  HZ I        2156  5.41        18.4 0.30            152             71 302 
 BRR  HN ES   3   2156 21.73                             151     1.0 2   71 302 
 PAM  SZ EP       2156  6.15                             148    -0.110   82  39 
 PAM  SN ES   2   2156 22.80                             148    -0.4 5   82  39 
 PAM  SZ I        2156 25.41         5.3 0.62            151             82  39 
 RUS  HN ES   2   2156 25.16                             143     0.1 5   97 175 
 RUS  HZ I        2156 26.52         3.9 0.20            147             97 175 
 PTB  HN ES   2   2156 30.13                             131    -0.9 5  145 260 
 PTB  HZ I        2156 32.91         2.7 0.12            133            145 260 
