 2014 12 2 2242 53.2 L   7.009 -73.373119.0  RSN  5 0.4 1.7LRSN                1
 GAP=227        1.13       7.9     6.7  8.2  0.3467E+02  0.8612E+01  0.5257E+00E
 Epicentro: SAN VICENTE DE CHUCURI - SANTANDER                                 3
 ACTION:UPD 15-02-10 17:00 OP:nd   STATUS:               ID:20141202224253 L   I
 OLDACT:UP  14-12-03 06:12 OP:mh   STATUS:               ID:20141202223745     3
 OLDACT:UP  14-12-03 06:05 OP:mh   STATUS:               ID:20141202223745     3
 OLDACT:REG 14-12-03 04:08 OP:mh   STATUS:               ID:20141202223745     3
 2014-12-02-2237-45M.COL___306                                                 6
 STAT SP IPHASW D HRMM SECON CODA AMPLIT PERI AZIMU VELO AIN AR TRES W  DIS CAZ7
 BRR  HZ EP       2243  9.74                             161   -0.0510 39.0 286 
 BRR  HN ES       2243 22.12                             161   -0.6010 39.0 286 
 BAR2 SZ EP       2243 10.67                             156   -0.0010 50.6 155 
 BAR2 SZ ES       2243 24.69                             156    0.4010 50.6 155 
 BAR2 SZ I        2243 25.75        20.9 0.42            153           50.6 155 
 RUS  HZ EP       2243 16.37                             130   -0.4410  128 165 
 RUS  HN ES       2243 35.71                             130    0.4810  128 165 
 PTB  HZ EP       2243 16.08                             129   -0.3810  131 247 
 PTB  HN ES       2243 34.28                             129   -0.3210  131 247 
 PTB  HZ I        2243 40.49         5.2 0.32            126            131 247 
 ZAR  HZ EP       2243 20.85                             120    0.18 9  173 288 
 ZAR  HN ES       2243 42.97                             120    0.88 9  173 288 
 ZAR  HZ I        2243 44.94         6.0 0.36            120            173 288 
                                                                                
