 2010 10 2 2205 28.0 L   6.796 -73.107142.0  RSN  4 0.2 1.2LRSN                1
 GAP=231        0.48       9.2    16.5 11.8  0.1163E+03 -0.1223E+03 -0.2505E+02E
 Epicentro: LOS SANTOS - SANTANDER                                             3
 ACTION:UP  11-02-18 11:07 OP:tino STATUS:               ID:20101002220528 L   I
 2010-10-02-2204-26S.COL___124                                                 6
 STAT SP IPHASW D HRMM SECON CODA AMPLIT PERI AZIMU VELO SNR AR TRES W  DIS CAZ7
 BTL  SZ EP       22 5 47.23                             171     0.110   22 307 
 BAR2 SZ EP   3   22 5 46.99                             170    -0.2 2   24 201 
 BRR  HZ EP       22 5 48.76                             150    -0.210   75 297 
 BRR  HE ES   1   22 6  5.54                             150     0.2 7   75 297 
 BRR  HZ I        22 6  9.76         5.9 0.24                            75 297 
 RUS  HZ EP       22 5 51.41                             143     0.110  100 179 
 RUS  HE ES   3   22 6  8.97                             143    -0.6 2  100 179 
 RUS  HZ I        22 6 11.40         1.6 0.37                           100 179 
                                                                                
