 2012 10 2 2312  4.1 L   6.779 -73.132140.4  RSN  5 0.3 2.3LRSN                1
 GAP=139        0.69       4.5     4.7  6.3  0.3793E+01  0.5372E+01 -0.3000E+01E
 Epicentro: LOS SANTOS - SANTANDER                                             3
 ACTION:UPD 12-11-22 17:01 OP:ep   STATUS:               ID:20121002231204 L   I
 2012-10-02-2310-00M.COL___223                                                 6
 STAT SP IPHASW D HRMM SECON CODA AMPLIT PERI AZIMU VELO AIN AR TRES W  DIS CAZ7
 BAR2 SZ EP       2312 22.74                             171   -0.2610 21.4 195 
 BAR2 SZ ES   1   2312 37.47                             171   -0.31 7 21.4 195 
 BAR2 SZ I        2312 38.72        37.6 0.22                          21.4 195 
 BRR  HZ EP       2312 24.61                             151   -0.1610 73.7 300 
 BRR  HE ES   1   2312 41.57                             151    0.64 7 73.7 300 
 BRR  HE I        2312 42.61        70.9 0.18                          73.7 300 
 PAM  SZ EP       2312 25.70                             150   -0.0610 78.3  38 
 PAM  SN ES   1   2312 42.80                             150    0.11 7 78.3  38 
 PAM  SN I        2312 43.66        27.2 0.46                          78.3  38 
 RUS  HZ EP   1   2312 27.62                             143    0.52 7 98.1 177 
 RUS  HN ES   1   2312 45.06                             143   -0.02 7 98.1 177 
 ZAR  HZ EP   1   2312 36.66                             121    0.26 6  206 293 
 ZAR  HN ES   1   2313  1.25                             121   -0.38 6  206 293 
 ZAR  HN I        2313  2.75        12.2 0.64                           206 293 
                                                                                
