 2010  8 2 2231  5.6 L   6.559 -73.508115.8  RSN 11 0.3 2.8LRSN                1
 GAP= 63        0.73       2.7     3.6  4.6 -0.8833E+00  0.4396E+01  0.1328E+01E
 Epicentro: EL CARMEN DE CHUCURI - SANTANDER                                   3
 ACTION:UP  10-09-07 10:51 OP:vdl  STATUS:               ID:20100802223105 L   I
 2010-08-02-2228-21S.COL___122                                                 6
 STAT SP IPHASW D HRMM SECON CODA AMPLIT PERI AZIMU VELO SNR AR TRES W  DIS CAZ7
 BAR2 SZ IP       2231 22.32                             162     0.310   36  84 
 BAR2 SZ ES   1   2231 34.52                             162    -0.4 7   36  84 
 BAR2 SZ I        2231 35.85      1065.0 0.46                            36  84 
 BRR  HZ EP       2231 23.12                             149    -0.110   65 340 
 BRR  HZ I        2231 37.15       239.5 0.09                            65 340 
 BRR  HE ES       2231 37.18                             149     0.310   65 340 
 RUS  HZ IP     D 2231 25.23                             141    -0.210   87 147 
 RUS  HZ I        2231 26.76        48.0 0.08                            87 147 
 RUS  HE ES   2   2231 40.50                             141    -0.5 5   87 147 
 GUE  SZ EP       2231 31.44                             123     0.0 9  155  25 
 GRA  SZ IP       2231 32.77                             121     0.4 9  166  28 
 GRA  SZ ES   1   2231 53.06                             121    -0.2 7  166  28 
 GRA  SZ I        2231 59.13        74.7 0.15                           166  28 
 CHI  HZ EP   1   2231 38.35                             114     0.4 6  215 187 
 CHI  HE ES   2   2232  3.49                             114     0.2 4  215 187 
 CHI  HZ I        2232 11.71        22.4 0.79                           215 187 
 HEL  HZ EP       2231 39.44                             112     0.1 8  227 260 
 HEL  HN ES   2   2232  5.32                             112    -0.3 4  227 260 
 HEL  HZ I        2232  9.32        54.0 0.23                           227 260 
 RREF HZ EP   1   2231 45.51                             108     0.5 6  274 228 
 RREF HZ I        2232 22.00        32.9 0.20                           274 228 
 MON  HZ EP       2231 51.63                             103    -0.5 7  341 316 
 MON  HN ES   1   2232 27.96                             103    -0.5 5  341 316 
 MON  HZ I        2232 30.58        19.8 0.10                           341 316 
 PRA  HZ EP   1   2231 52.97                             103    -0.2 5  350 206 
 PRA  HN ES   2   2232 30.09                             103    -0.2 3  350 206 
 SDV  BZ EP       2232  0.17                             100    -0.2 6  408  51 
 SDV  BZ I        2232 45.17        29.4 0.48                           408  51 
                                                                                
