 2010 11 2 2159 58.0 L   6.783 -73.109142.3  RSN 10 0.5 2.4LRSN                1
 GAP=163        0.88       5.2     8.4  8.8 -0.1864E+02  0.1664E+02  0.5262E+01E
 Epicentro: LOS SANTOS - SANTANDER                                             3
 ACTION:UP  10-12-17 16:49 OP:REBC STATUS:               ID:20101102215958 L   I
 2010-11-02-2156-30S.COL___129                                                 6
 STAT SP IPHASW D HRMM SECON CODA AMPLIT PERI AZIMU VELO SNR AR TRES W  DIS CAZ7
 BAR2 SZ EP       22 0 17.04                             171    -0.110   23 201 
 BAR2 SZ ES   2   22 0 31.35                             171    -0.8 5   23 201 
 BAR2 SZ I        22 0 33.24        84.0 0.14                            23 201 
 BTL  SZ EP   1   22 0 17.43                             170     0.3 7   23 311 
 GIR2 SZ EP       22 0 17.71                             166     0.410   34 344 
 BRR  HZ EP   1   22 0 18.91                             150    -0.1 7   76 298 
 BRR  HE ES   2   22 0 35.79                             150     0.4 5   76 298 
 BRR  HZ I        22 0 42.55        38.8 0.33                            76 298 
 RUS  HZ IP     C 22 0 21.02                             144    -0.210   98 178 
 RUS  HZ I        22 0 22.16        24.4 0.13                            98 178 
 RUS  HN ES   2   22 0 39.68                             144     0.3 5   98 178 
 GRA  SZ EP       22 0 22.91                             136     0.010  126  15 
 GRA  SZ ES   2   22 0 42.03                             136    -0.4 5  126  15 
 GRA  SZ I        22 0 43.54        33.0 0.40                           126  15 
 NOR  SZ EP   1   22 0 33.00                             117    -0.7 6  237 236 
 NOR  SN ES   2   22 1  1.16                             117    -0.5 4  237 236 
 ROSC BZ EP   1   22 0 36.90                             116     1.0 6  253 212 
 ROSC BN ES   2   22 1  6.24                             116     0.7 4  253 212 
 ROSC BZ I        22 1 14.77        18.2 0.32                           253 212 
 HEL  HZ EP   1   22 0 38.36                             114     0.0 6  276 256 
 HEL  HZ I        22 1 15.44        20.9 0.37                           276 256 
 PRA  HZ EP   1   22 0 50.54                             106    -0.9 4  392 210 
 PRA  HN ES   2   22 1 33.31                             106     0.2 3  392 210 
                                                                                
