 2011  8 2 2043 26.6 L   6.852 -73.323119.9  RSN  6 0.3 1.8LRSN                1
 GAP=127        0.47       2.2     8.2  8.6 -0.3358E+01  0.5318E+02 -0.2006E+01E
 Epicentro: ZAPATOCA - SANTANDER                                               3
 ACTION:UPD 12-07-25 14:05 OP:epov STATUS:               ID:20110802204326 L   I
 2011-08-02-2040-49S.COL___131                                                 6
 STAT SP IPHASW D HRMM SECON CODA AMPLIT PERI AZIMU VELO AIN AR TRES W  DIS CAZ7
 PAM  SZ EP   1   2043 47.02                             141    0.15 7 87.5  52 
 PAM  SN ES   1   2044  2.48                             141   -0.20 7 87.5  52 
 RUS  HZ EP   2   2043 48.31                             135   -0.34 5  109 166 
 RUS  HE ES   1   2044  5.83                             135   -0.01 7  109 166 
 RUS  HZ I        2044  8.78         7.9 0.27                           109 166 
 OCA  SZ EP   1   2043 52.60                             124    0.26 7  153   0 
 OCA  SZ ES   1   2044 12.44                             124    0.03 7  153   0 
 OCA  SZ I        2044 13.99        19.8 0.31                           153   0 
 NOR  SZ EP   2   2043 59.38                             113   -0.24 4  223 230 
 CHI  HZ EP   1   2044  3.45                             111    0.30 6  250 190 
 CHI  HZ I        2044  4.04         3.6 0.20                           250 190 
 COD  HZ EP   2   2044 12.42                             104   -0.83 3  341 358 
                                                                                
