 2010  4 2 2225  7.5 L   6.772 -73.004145.3  RSN  9 0.4 2.9LRSN                1
 GAP=211        0.89       4.5    10.3  7.1 -0.9338E+01  0.9040E+01  0.1208E+02E
 Epicentro: CEPITA - SANTANDER                                                 3
 ACTION:UPD 10-08-24 09:57 OP:vdl  STATUS:               ID:20100402222507 L   I
 2010-04-02-2222-19S.COL___098                                                 6
 STAT SP IPHASW D HRMM SECON CODA AMPLIT PERI AZIMU VELO AIN AR TRES W  DIS CAZ7
 BAR2 SZ IP       2225 27.36                             169     0.110   28 225 
 BAR2 SZ ES   1   2225 42.27                             169    -0.3 7   28 225 
 BRR  HZ IP       2225 29.41                             148    -0.210   87 295 
 BRR  HN ES   1   2225 46.87                             148     0.1 7   87 295 
 BRR  HZ I        2225 49.81       103.2 0.16                            87 295 
 OCA  SZ EP   1   2225 35.76                             129    -0.6 7  166 348 
 OCA  SZ ES   1   2225 59.50                             129     0.7 7  166 348 
 OCA  SZ I        2226  3.60       253.4 0.31                           166 348 
 CHI  HZ EP       2225 45.28                             117    -0.1 8  250 199 
 CHI  HN ES   1   2226 15.33                             117     0.4 6  250 199 
 CHI  HZ I        2226 22.52        19.7 0.35                           250 199 
 HEL  HZ EP   1   2225 48.66                             114    -0.7 6  287 257 
 HEL  HZ I        2226 27.05        37.2 0.33                           287 257 
 RREF BZ EP       2225 55.48                             110     0.6 7  332 232 
 RREF BN ES   2   2226 31.59                             110    -0.1 3  332 232 
 RREF BZ I        2226 36.36        32.7 0.23                           332 232 
 TOL  SZ EP   1   2225 57.49                             109     0.7 5  353 227 
 ANIL BZ EP   1   2225 57.61                             108    -0.8 5  366 227 
 ANIL BN ES   2   2226 37.94                             108    -0.1 3  366 227 
 ANIL BZ I        2226 44.00        69.2 0.26                           366 227 
 PRA  HZ EP       2226  1.93                             106     0.3 6  397 212 
 PRA  HN ES   2   2226 43.24                             106    -0.7 3  397 212 
 PRA  HZ I        2226 47.83        22.8 0.40                           397 212 
                                                                                
