 2017 11 2 2011 51.3 L   6.966 -73.349116.0  RSN  4 0.3 1.2LRSN                1
 GAP=171        0.85       5.1     4.3  8.3 -0.5060E+01  0.1374E+02  0.6035E+00E
 Epicentro: BETULIA - SANTANDER                                                3
 ACTION:UPD 17-12-12 19:51 OP:rebc STATUS:               ID:20171102201151 L   I
 OLDACT:UP  17-11-03 07:43 OP:edw  STATUS:               ID:20171102200739     3
 OLDACT:REG 17-11-03 04:35 OP:edw  STATUS:               ID:20171102200739     3
 2017-11-02-2008-00M.COL___444                                                 6
 STAT SP IPHASW D HRMM SECON CODA AMPLIT PERI AZIMU VELO AIN AR TRES W  DIS CAZ7
 BAR2 EZ EP       2012  8.67                             157    0.5410 45.3 156 
 BAR2 EZ ES       2012 21.56                             157    0.2810 45.3 156 
 BAR2 EZ I        2012 23.08        10.3 0.24            165           45.3 156 
 PAM  EZ EP   2   2012 10.40                             142   -0.40 5 82.7  60 
 PAM  EN ES       2012 25.80                             142   -0.2410 82.7  60 
 PAM  EZ I        2012 32.05         3.0 0.30            144           82.7  60 
 RUS  HZ EP       2012 14.40                             130    0.2510  122 166 
 RUS  HN ES       2012 31.49                             130   -0.5110  122 166 
 RUS  HZ I        2012 32.43         2.4 0.20            137            122 166 
 PTB  HZ EP       2012 14.20                             128   -0.1510  131 249 
 PTB  HN ES       2012 32.25                             128   -0.1110  131 249 
 PTB  HZ I        2012 35.96         1.8 0.40            132            131 249 
                                                                                
