 2013  2 2 2150 26.3 L   6.723 -73.130140.8  RSN  5 0.4 1.5LRSN                1
 GAP=142        0.76       5.2     5.2  7.4 -0.2438E+01  0.5092E+01  0.1076E+01E
 Epicentro: JORDAN - SANTANDER                                                 3
 ACTION:UPD 13-03-12 09:30 OP:ep   STATUS:               ID:20130202215026 L   I
 2013-02-02-2150-00M.COL___240                                                 6
 STAT SP IPHASW D HRMM SECON CODA AMPLIT PERI AZIMU VELO AIN AR TRES W  DIS CAZ7
 BAR2 SZ EP   1   2150 45.27                             173    0.09 7 15.6 202 
 BAR2 SZ ES   1   2150 59.85                             173   -0.07 7 15.6 202 
 BAR2 SZ I        2151  1.29        12.5 0.12            174           15.6 202 
 BRR  HZ EP   1   2150 47.37                             150    0.12 7 77.1 303 
 BRR  HN ES   1   2151  4.09                             150    0.49 7 77.1 303 
 PAM  SZ EP   1   2150 48.34                             148    0.00 7 83.1  35 
 PAM  SE ES   1   2151  5.22                             148   -0.31 7 83.1  35 
 PAM  SZ I        2151  7.50         5.8 0.60            149           83.1  35 
 RUS  HZ EP   1   2150 48.53                             145   -0.41 7 92.0 177 
 RUS  HN ES   1   2151  6.94                             145    0.34 7 92.0 177 
 RUS  HZ I        2151  8.22         3.5 0.46            146           92.0 177 
 PTB  HZ EP   1   2150 53.37                             131    0.49 7  148 262 
 PTB  HN ES   1   2151 12.86                             131   -0.77 7  148 262 
                                                                                
