 2016  3 2 2009 12.0 L   6.705 -73.494  4.0  RSN  4 0.3 1.4LRSN                1
 GAP=151        0.69       1.9     1.7  4.5 -0.1066E+01 -0.2109E+00  0.1225E+01E
 Epicentro: EL CARMEN - SANTANDER                                              3
 ACTION:UPD 16-05-13 21:21 OP:cam  STATUS:               ID:20160302200912 L   I
 OLDACT:REG 16-03-03 00:48 OP:cara STATUS:               ID:20160302200748     3
 2016-03-02-2007-48M.COL___319                                                 6
 STAT SP IPHASW D HRMM SECON CODA AMPLIT PERI AZIMU VELO AIN AR TRES W  DIS CAZ7
 RUS  HZ IP     C 20 9 28.32                              47    0.0110  101 153 
 RUS  HE ES       20 9 40.73                              47   -0.3510  101 153 
 RUS  HZ I        20 9 41.62         4.8 0.22             47            101 153 
 PTB  HZ EP       20 9 28.67                              47   -0.2510  108 260 
 PTB  HN ES       20 9 41.97                              47   -0.1910  108 260 
 PTB  HZ I        20 9 43.77        10.0 0.16             47            108 260 
 PAM  EZ EP       20 9 30.38                              47    0.3110  112  51 
 PAM  EN ES       20 9 44.12                              47   -0.0910  112  51 
 PAM  EZ I        20 9 45.11        20.0 0.24             47            112  51 
 SPBC HZ EP       20 9 33.01                              47    0.2410  133 209 
 SPBC HE ES       20 9 49.39                              47    0.3810  133 209 
 SPBC HZ I        20 9 51.87         5.8 0.40             47            133 209 
                                                                                
