 2016  8 2 2146 10.2 L   6.822 -73.119146.8  RSN  8 0.5 2.0LRSN                1
 GAP=126        0.98       5.1     4.4  7.2 -0.2407E+01  0.1145E+02 -0.8920E+01E
 Epicentro: LOS SANTOS - SANTANDER                                             3
 ACTION:UPD 16-10-29 15:31 OP:rebc STATUS:               ID:20160802214610 L   I
 OLDACT:REG 16-08-03 03:13 OP:ar   STATUS:               ID:20160802213735     3
 2016-08-02-2138-00M.COL___356                                                 6
 STAT SP IPHASW D HRMM SECON CODA AMPLIT PERI AZIMU VELO AIN AR TRES W  DIS CAZ7
 BAR2 EZ EP       2146 30.15                             170    0.1210 26.3 195 
 BAR2 EZ ES       2146 46.07                             170    0.5710 26.3 195 
 BAR2 EZ I        2146 48.05        17.9 0.23                          26.3 195 
 RUS  HZ EP       2146 34.37                             144    0.1410  103 178 
 RUS  HN ES       2146 52.66                             144   -0.3110  103 178 
 RUS  HZ I        2146 55.62         9.8 0.32                           103 178 
 SPBC HZ EP       2146 39.28                             129    0.13 9  167 219 
 SPBC HZ ES       2147  0.99                             129   -0.73 9  167 219 
 SPBC HZ I        2147  3.89        26.4 0.34                           167 219 
 ZAR  HZ EP       2146 43.11                             122    0.19 8  206 291 
 ZAR  HN ES       2147  8.27                             122   -0.16 8  206 291 
 ZAR  HZ I        2147 15.24         9.8 0.14                           206 291 
 NOR  HZ EP       2146 47.06                             118    0.65 8  238 234 
 NOR  HN ES       2147 15.07                             118    0.43 8  238 234 
 HEL  HZ EP   2   2146 50.55                             115   -0.31 4  276 255 
 HEL  HN ES       2147 22.05                             115   -0.52 7  276 255 
 HEL  HZ I        2147 33.18         5.1 0.24                           276 255 
 SOCV BZ EP   2   2146 52.76                             113   -0.12 4  297  57 
 SOCV BN ES   2   2147 24.82                             113   -1.34 4  297  57 
 GUY2CHZ EP   2   2146 55.10                             112    0.80 4  305 235 
 GUY2CHE ES       2147 28.01                             112   -0.67 7  305 235 
 GUY2CHZ I        2147 38.44         5.0 0.38                           305 235 
                                                                                
