 2015  4 2 2026 18.7 L   6.781 -73.153147.1  RSN  7 0.6 1.4LRSN                1
 GAP=136        1.40       5.2     6.3 11.0  0.1594E+01  0.1697E+02 -0.2076E+01E
 Epicentro: LOS SANTOS - SANTANDER                                             3
 ACTION:UPD 15-06-03 16:52 OP:cam  STATUS:               ID:20150402202618 L   I
 OLDACT:REG 15-04-03 03:03 OP:stll STATUS:               ID:20150402201748     3
 2015-04-02-2017-48M.COL___286                                                 6
 STAT SP IPHASW D HRMM SECON CODA AMPLIT PERI AZIMU VELO AIN AR TRES W  DIS CAZ7
 BRR  HZ EP       2026 40.65                             153    0.6410 71.5 300 
 BRR  HN ES       2026 57.80                             153    1.1710 71.5 300 
 PAM  SZ IP     D 2026 41.45                             150    0.2710 79.5  39 
 PAM  SZ I        2026 41.61         5.6 0.22            155           79.5  39 
 PAM  SN ES       2026 58.51                             150   -0.2110 79.5  39 
 RUS  HZ EP       2026 42.55                             145    0.1110 98.6 175 
 RUS  HN ES       2027  0.46                             145   -0.4910 98.6 175 
 RUS  HZ I        2027  2.71         1.3 0.20            145           98.6 175 
 PTB  HZ EP       2026 45.60                             133   -0.07 9  147 260 
 PTB  HN ES       2027  5.87                             133   -0.83 9  147 260 
 PTB  HZ I        2027 13.92         3.8 0.38            131            147 260 
 OCA  HN ES       2027  8.97                             130   -0.63 9  162 354 
 ZAR  HZ EP       2026 51.42                             123    0.19 9  204 293 
 ZAR  HE ES       2027 16.62                             123    0.01 9  204 293 
 ZAR  HZ I        2027 22.30         3.2 0.26            123            204 293 
 SML  HN ES       2027 23.78                             118   -0.54 8  245 336 
                                                                                
