 2011 12 2 2102  3.7 L   6.750 -73.120146.8  RSN 11 0.3 2.3LRSN                1
 GAP=142        0.57       2.5     4.1  3.7 -0.3897E+01  0.2739E+01  0.1378E+01E
 Epicentro: LOS SANTOS - SANTANDER                                             3
 ACTION:UPD 12-07-13 16:13 OP:ep   STATUS:               ID:20111202210203 L   I
 2011-12-02-2100-00M.COL___182                                                 6
 STAT SP IPHASW D HRMM SECON CODA AMPLIT PERI AZIMU VELO AIN AR TRES W  DIS CAZ7
 BAR2 SZ EP       21 2 23.35                             172   -0.0310 18.7 202 
 BAR2 SZ ES   1   21 2 38.33                             172   -0.39 7 18.7 202 
 BAR2 SZ I        21 2 40.14        37.8 0.33                          18.7 202 
 GIR2 SZ EP   1   21 2 23.45                             165   -0.23 7 37.3 347 
 GIR2 SZ ES   1   21 2 39.33                             165    0.08 7 37.3 347 
 BRR  HZ EP       21 2 25.26                             151   -0.0110 76.4 301 
 BRR  HZ I        21 2 25.54        94.9 0.16                          76.4 301 
 BRR  HE ES   1   21 2 42.70                             151    0.61 7 76.4 301 
 PAM  SZ EP   1   21 2 26.18                             150   -0.01 7 80.1  35 
 PAM  SZ I        21 2 26.40        16.2 0.21                          80.1  35 
 PAM  SN ES   1   21 2 43.50                             150   -0.23 7 80.1  35 
 RUS  HZ EP   1   21 2 27.48                             146    0.32 7 94.9 178 
 RUS  HN ES   1   21 2 45.73                             146    0.28 7 94.9 178 
 RUS  HZ I        21 2 47.24        19.8 0.39                          94.9 178 
 BRI  SZ EP       21 2 27.98                             141   -0.0410  113  18 
 BRI  SZ ES   1   21 2 46.95                             141   -0.04 7  113  18 
 OCA  SZ EP   1   21 2 32.77                             129    0.12 7  166 352 
 OCA  SZ ES   1   21 2 55.24                             129    0.01 7  166 352 
 OCA  SZ I        21 3  0.30        40.0 0.26                           166 352 
 NOR  SZ EP   1   21 2 39.24                             119   -0.17 6  234 236 
 NOR  SE ES   1   21 3  6.90                             119   -0.35 6  234 236 
 CHI  HZ EP   1   21 2 40.98                             118    0.01 6  244 196 
 CHI  HZ I        21 3 20.52         8.2 0.35                           244 196 
 RREF HZ EP   1   21 2 49.11                             111   -0.62 5  320 230 
 RREF HZ I        21 3 33.38        12.1 0.28                           320 230 
 PRA  HZ EP   1   21 2 57.68                             107    0.81 4  389 210 
                                                                                
