 2014 10 2 2233  9.3 L   7.416 -73.187132.9  RSN 18 0.4 2.4LRSN                1
 GAP=108        0.84       2.6     3.0  4.7  0.1738E+00  0.4017E+01  0.2322E+01E
 Epicentro: EL PLAYON - SANTANDER                                              3
 ACTION:UPD 14-11-29 23:46 OP:nd   STATUS:               ID:20141002223309 L   I
 OLDACT:UP  14-10-03 11:38 OP:spq  STATUS:               ID:20141002222750     3
 OLDACT:REG 14-10-03 06:33 OP:spq  STATUS:               ID:20141002222750     3
 2014-10-02-2227-50M.COL___292                                                 6
 STAT SP IPHASW D HRMM SECON CODA AMPLIT PERI AZIMU VELO AIN AR TRES W  DIS CAZ7
 PAM  SZ EP       2233 29.22                             157    0.3710 54.4  99 
 PAM  SE ES       2233 43.87                             157   -0.2410 54.4  99 
 PAM  SZ I        2233 45.84        35.3 0.36            157           54.4  99 
 BRR  HZ EP       2233 28.85                             151    0.0310 67.3 240 
 BRR  HE ES       2233 44.25                             151    0.1910 67.3 240 
 BRR  HZ I        2233 45.89        43.4 0.20            148           67.3 240 
 BAR2 SZ EP       2233 30.53                             144   -0.2010 91.1 180 
 BAR2 SZ ES   1   2233 47.07                             144   -0.38 7 91.1 180 
 BAR2 SZ I        2233 48.29       120.6 0.12            140           91.1 180 
 OCA  HZ EP       2233 30.65                             143   -0.0410 92.2 351 
 OCA  HN ES       2233 47.74                             143    0.3610 92.2 351 
 OCA  HZ I        2233 49.35        32.4 0.17            147           92.2 351 
 RUS  HZ EP       2233 37.65                             125   -0.27 9  169 176 
 RUS  HE ES   1   2233 59.58                             125   -0.68 7  169 176 
 RUS  HZ I        2234  7.22         9.2 0.32            123            169 176 
 PTB  HZ EP       2233 37.24                             125   -0.22 9  171 235 
 PTB  HN ES       2233 59.04                             125   -0.40 9  171 235 
 PTB  HZ I        2234  2.96        33.2 0.22            123            171 235 
 SML  HZ EP       2233 37.91                             123   -0.65 9  182 328 
 SML  HN ES   4   2233 59.76                             123   -1.63 0  182 328 
 SML  HZ I        2234  1.19        52.1 0.10            124            182 328 
 ZAR  HZ EP       2233 38.76                             122   -0.13 9  185 273 
 ZAR  HN ES       2234  2.26                             122    0.27 9  185 273 
 ZAR  HZ I        2234  3.46        42.9 0.18            122            185 273 
 TAM  HN ES   1   2234  3.15                             122    0.38 7  188 125 
 TAM  HZ I        2234  4.32        29.2 0.22            121            188 125 
 SPBC HZ EP       2233 43.11                             118    0.56 8  218 207 
 SPBC HN ES       2234  9.37                             118    0.87 8  218 207 
 SPBC HZ I        2234 12.19        25.8 0.35            116            218 207 
 MON  HZ EP   4   2233 50.95                             109   -2.01 0  312 299 
 MON  HN ES   4   2234 23.40                             109   -3.63 0  312 299 
 MON  HZ I        2234 27.32         3.8 0.36            109            312 299 
 CHI  HZ EP   1   2233 53.94                             109    0.22 5  314 191 
 CHI  HE ES   1   2234 28.31                             109   -0.07 5  314 191 
 CHI  HZ I        2234 36.15         7.1 0.54            108            314 191 
 DBB  SZ EP       2233 55.69                             107   -0.26 7  337 263 
 DBB  SZ ES   4   2234 30.03                             107   -2.33 0  337 263 
 GUY2CHZ EP   1   2233 57.78                             107    0.75 5  342 225 
 GUY2CHN ES   1   2234 34.05                             107   -0.22 5  342 225 
 GUY2CHZ I        2234 46.61        16.4 0.38                           342 225 
 TOL  SZ EP   4   2234  5.67                             104    2.90 0  392 217 
 TOL  SE ES   4   2234 47.22                             104    2.74 0  392 217 
 TOL  SZ I        2234 53.51        25.7 0.46            104            392 217 
 ANIL HN ES   4   2234 51.58                             104    4.27 0  406 217 
 ANIL HZ I        2234 58.26         3.6 0.32            103            406 217 
 ORTC HZ EP   4   2234 11.80                             102    2.53 0  450 211 
 ORTC HE ES   4   2234 58.52                             102    2.47 0  450 211 
 ORTC HZ I        2235  5.29         6.2 0.40            102            450 211 
 PRA  HZ EP   1   2234  9.52                             102    0.17 4  451 205 
 PRA  HE ES   1   2234 55.89                             102   -0.31 4  451 205 
 PRA  HZ I        2235  7.67         6.7 0.29            101            451 205 
                                                                                
