 2017 12 2 2345 42.3 L   6.424 -73.727103.5  RSN  4 0.3 1.1LRSN                1
 GAP=154        0.69       4.8     4.2  8.8 -0.7702E+01  0.1441E+02 -0.1196E+02E
 Epicentro: SANTA HELENA DEL OPON - SANTANDER                                  3
 ACTION:UPD 18-01-04 13:16 OP:rebc STATUS:               ID:20171202234542 L   I
 OLDACT:REG 17-12-03 03:46 OP:osc  STATUS:               ID:20171202233741     3
 2017-12-02-2338-00M.COL___495                                                 6
 STAT SP IPHASW D HRMM SECON CODA AMPLIT PERI AZIMU VELO AIN AR TRES W  DIS CAZ7
 BAR2 EZ EP       2345 59.10                             146    0.2410 63.1  73 
 BAR2 EZ ES       2346 11.83                             146    0.0710 63.1  73 
 BAR2 EZ I        2346 12.80         7.6 0.36            146           63.1  73 
 PTB  HZ EP       2345 59.62                             139   -0.3110 81.6 279 
 PTB  HZ I        2346 15.71         2.8 0.32            125           81.6 279 
 RUS  HZ EP       2346  1.61                             135    0.1310 92.4 129 
 RUS  HN ES   1   2346 15.89                             135   -0.55 7 92.4 129 
 RUS  HZ I        2346 17.47         2.3 0.34            140           92.4 129 
 SPBC HN ES       2346 15.81                             134    0.1810 93.5 204 
                                                                                
