 2014  9 2 2057 37.3 L   6.872 -73.428106.2  RSN  6 0.5 1.8LRSN                1
 GAP=108        1.34       5.6     4.5  9.0  0.3750E+01  0.9757E+01  0.2376E-01E
 Epicentro: SAN VICENTE DE CHUCURI - SANTANDER                                 3
 ACTION:UPD 14-10-03 23:01 OP:nd   STATUS:               ID:20140902205737 L   I
 OLDACT:UP  14-09-03 06:05 OP:stll STATUS:               ID:20140902204816     3
 OLDACT:REG 14-09-03 04:19 OP:stll STATUS:               ID:20140902204816     3
 2014-09-02-2048-16M.COL___272                                                 6
 STAT SP IPHASW D HRMM SECON CODA AMPLIT PERI AZIMU VELO AIN AR TRES W  DIS CAZ7
 BRR  HZ EP       2057 52.94                             157    0.4210 40.7 310 
 BRR  HZ I        2057 53.11        25.4 0.16            157           40.7 310 
 BRR  HE ES       2058  4.64                             157    0.2610 40.7 310 
 BAR2 SZ IP     C 2057 53.32                             157    0.4210 41.2 139 
 BAR2 SZ I        2057 53.40        34.1 0.20            157           41.2 139 
 BAR2 SZ ES       2058  5.36                             157    0.3210 41.2 139 
 PAM  SZ EP       2057 56.89                             135   -0.1210 95.7  57 
 PAM  SZ I        2057 57.81        10.0 0.14            137           95.7  57 
 PAM  SN ES       2058 11.58                             135   -0.7810 95.7  57 
 RUS  HZ EP       2057 58.63                             129   -0.1110  115 161 
 RUS  HN ES       2058 15.73                             129    0.2810  115 161 
 RUS  HZ I        2058 17.58         5.0 0.30            129            115 161 
 PTB  HZ EP       2057 57.88                             128   -0.6710  119 252 
 PTB  HE ES       2058 14.16                             128   -0.9410  119 252 
 PTB  HZ I        2058 19.35        11.1 0.10            127            119 252 
 ZAR  HZ EP       2058  4.70                             117    0.70 9  172 294 
 ZAR  HZ I        2058  5.16        12.6 0.28            117            172 294 
 ZAR  HN ES       2058 25.16                             117    0.35 9  172 294 
                                                                                
