 2010  3 2 2209 12.4 L   6.799 -73.104140.4  RSN 12 0.4 2.8LRSN                1
 GAP=187        0.65       2.7     4.9  4.8 -0.2619E+01  0.1056E+02  0.4246E+00E
 Epicentro: LOS SANTOS - SANTANDER                                             3
 ACTION:UP  10-08-24 09:51 OP:vdl  STATUS:               ID:20100302220912 L   I
 2010-03-02-2207-34S.COL___094                                                 6
 STAT SP IPHASW D HRMM SECON CODA AMPLIT PERI AZIMU VELO SNR AR TRES W  DIS CAZ7
 BAR2 SZ IP       22 9 31.60                             170     0.210   25 201 
 BAR2 SZ ES   1   22 9 46.43                             170     0.2 7   25 201 
 BRR  HZ IP       22 9 33.45                             150     0.210   75 297 
 BRR  HZ I        22 9 33.76       166.6 0.19                            75 297 
 BRR  HE ES   2   22 9 49.33                             150    -0.1 5   75 297 
 RUS  BZ EP       22 9 35.59                             143     0.010  100 179 
 RUS  BE ES   1   22 9 53.42                             143    -0.3 7  100 179 
 RUS  BZ I        22 9 55.21        38.1 0.24                           100 179 
 OCA  SZ IP       22 9 40.09                             128    -0.3 9  161 352 
 OCA  SZ ES   2   2210  2.11                             128    -0.1 5  161 352 
 OCA  SZ I        2210  5.34       131.4 0.18                           161 352 
 CHI  HZ EP       22 9 50.01                             116     0.1 8  250 196 
 CHI  HE ES   1   2210 18.95                             116    -0.3 6  250 196 
 CHI  HZ I        2210 26.50        26.3 0.53                           250 196 
 HEL  HZ EP   2   22 9 53.49                             113     0.6 4  276 256 
 HEL  HN ES   3   2210 23.71                             113    -0.7 2  276 256 
 HEL  HZ I        2210 32.07        25.5 0.40                           276 256 
 GUY  HZ EP       22 9 56.85                             111     0.6 7  305 235 
 GUY  HN ES   1   2210 30.71                             111     0.3 5  305 235 
 RREF BZ EP       22 9 58.75                             110     0.0 7  325 230 
 RREF BN ES   1   2210 34.70                             110    -0.1 5  325 230 
 RREF BZ I        2210 43.19        25.7 0.42                           325 230 
 DBB  SZ IP       22 9 59.66                             108    -0.5 7  344 274 
 TOL  SZ EP   2   2210  0.43                             108    -0.4 3  347 225 
 TOL  SZ ES   2   2210 37.90                             108    -0.7 3  347 225 
 ANIL BZ EP   2   2210  3.16                             107     0.8 3  360 225 
 ANIL BE ES   1   2210 41.58                             107     0.2 5  360 225 
 ANIL BZ I        2210 53.17        46.6 0.44                           360 225 
 PRA  HZ EP       2210  5.64                             106    -0.4 6  394 210 
 PRA  HE ES   2   2210 47.09                             106    -0.7 3  394 210 
 PRA  HZ I        2210 54.86        27.9 0.48                           394 210 
                                                                                
