 2011  7 2 2024 14.4 L   6.785 -73.071150.4  RSN  7 0.1 1.6LRSN                1
 GAP=167        0.28       2.0     3.7  3.2 -0.4526E+00 -0.5624E-01 -0.2088E+00E
 Epicentro: LOS SANTOS - SANTANDER                                             3
 ACTION:UPD 12-07-25 13:57 OP:epov STATUS:               ID:20110702202414 L   I
 2011-07-02-2020-38S.COL___140                                                 6
 STAT SP IPHASW D HRMM SECON CODA AMPLIT PERI AZIMU VELO AIN AR TRES W  DIS CAZ7
 BAR2 SZ EP   2   2024 34.27                             170   -0.33 5 24.6 210 
 BAR2 SZ ES   2   2024 50.41                             170    0.04 5 24.6 210 
 BAR2 SZ I        2024 52.12        10.1 0.31                          24.6 210 
 BTL  SZ ES   2   2024 50.49                             170    0.06 5 26.3 304 
 BRR  HZ EP   1   2024 36.52                             151    0.02 7 79.3 297 
 BRR  HZ I        2024 41.08        16.9 0.44                          79.3 297 
 BRR  HN ES   2   2024 53.80                             151    0.05 5 79.3 297 
 RUS  HZ EP   1   2024 38.42                             145   -0.04 7 98.7 181 
 RUS  HE ES   2   2024 57.33                             145    0.08 5 98.7 181 
 RUS  HZ I        2025  0.25         2.5 0.22                          98.7 181 
 GRA  SZ EP   2   2024 40.21                             138    0.22 5  125  14 
 GRA  SZ I        2025  2.77         3.3 0.32                           125  14 
 OCA  SZ EP   2   2024 43.42                             130    0.10 5  163 350 
 OCA  SZ ES   2   2025  5.68                             130   -0.21 5  163 350 
 OCA  SZ I        2025  9.05         9.0 0.51                           163 350 
 NOR  SZ EP   2   2024 51.12                             119    0.11 4  241 236 
 NOR  SN ES   2   2025 19.53                             119   -0.05 4  241 236 
                                                                                
