 2010 12 2 2148 43.2 L   6.764 -73.066149.5  RSN  7 0.3 2.1LRSN                1
 GAP=207        0.51       3.5     6.1  5.6 -0.6183E+01 -0.1532E+01  0.6440E+01E
 Epicentro: LOS SANTOS - SANTANDER                                             3
 ACTION:UP  11-01-14 15:22 OP:pat  STATUS:               ID:20101202214843 L   I
 2010-12-02-2144-54S.COL___132                                                 6
 STAT SP IPHASW D HRMM SECON CODA AMPLIT PERI AZIMU VELO SNR AR TRES W  DIS CAZ7
 BAR2 SZ EP   1   2149  2.90                             171    -0.3 7   23 214 
 BAR2 SZ I        2149  3.50        14.9 0.12                            23 214 
 BAR2 SZ ES   2   2149 18.91                             171     0.0 5   23 214 
 BRR  HZ IP     C 2149  5.20                             150    -0.110   81 298 
 BRR  HZ I        2149  6.74        31.7 0.08                            81 298 
 BRR  HE ES   1   2149 22.63                             150     0.1 7   81 298 
 OCA  SZ EP   1   2149 12.26                             129     0.0 7  166 350 
 OCA  SZ ES   2   2149 35.43                             129     0.5 5  166 350 
 OCA  SZ I        2149 38.58        20.2 0.23                           166 350 
 CHI  HZ EP   2   2149 21.30                             118     0.4 4  247 197 
 CHI  HE ES   2   2149 50.21                             118    -0.1 4  247 197 
 CHI  HZ I        2149 58.43         3.7 0.28                           247 197 
 HEL  HZ EP   2   2149 24.01                             115    -0.4 4  280 257 
 HEL  HE ES   2   2149 56.14                             115    -0.4 4  280 257 
 HEL  HZ I        2150  2.91         6.0 0.31                           280 257 
 RREF HZ EP   2   2149 29.95                             111     0.0 3  326 231 
 RREF HE ES   2   2150  6.45                             111     0.0 3  326 231 
 RREF HZ I        2150 11.70         6.5 0.30                           326 231 
 PRA  HZ EP   1   2149 37.32                             107     0.4 4  393 211 
 PRA  HZ I        2149 38.90        11.3 0.20                           393 211 
 PRA  HE ES   2   2150 19.74                             107     0.9 3  393 211 
                                                                                
