 2012  9 2 2154  2.3 L   6.800 -73.744 96.9  RSN  8 0.3 1.8LRSN                1
 GAP=106        0.63       3.4     2.5  4.7  0.2523E+01  0.1945E+01  0.3736E+01E
 Epicentro: EL CARMEN DE CHUCURI - SANTANDER                                   3
 ACTION:UPD 12-10-22 14:16 OP:ep   STATUS:               ID:20120902215402 L   I
 2012-09-02-2150-00M.COL___218                                                 6
 STAT SP IPHASW D HRMM SECON CODA AMPLIT PERI AZIMU VELO AIN AR TRES W  DIS CAZ7
 BRR  HZ IP     C 2154 16.15                             159    0.0410 34.2   6 
 BRR  HN ES       2154 27.00                             159    0.1010 34.2   6 
 BRR  HZ I        2154 29.17        44.1 0.09                          34.2   6 
 BAR2 SZ EP   1   2154 18.66                             143    0.29 7 66.2 110 
 BAR2 SZ I        2154 19.74        31.7 0.16                          66.2 110 
 BAR2 SZ ES   1   2154 30.56                             143   -0.37 7 66.2 110 
 GIR2 SZ EP       2154 18.25                             142   -0.1310 68.2  63 
 PTB  HZ IP     C 2154 19.29                             136   -0.1810 83.8 250 
 PTB  HE ES   1   2154 32.60                             136   -0.28 7 83.8 250 
 PTB  HZ I        2154 33.26        14.5 0.07                          83.8 250 
 RUS  HZ EP       2154 24.23                             125    0.3110  124 144 
 RUS  HN ES   1   2154 41.09                             125    0.29 7  124 144 
 RUS  HZ I        2154 43.28         5.7 0.19                           124 144 
 PAM  SZ EP   1   2154 24.08                             123   -0.43 7  130  63 
 PAM  SZ I        2154 43.78         6.4 0.21                           130  63 
 ZAR  HZ EP   1   2154 25.56                             120    0.10 7  145 302 
 ZAR  HE ES   1   2154 44.05                             120    0.50 7  145 302 
 ZAR  HZ I        2154 47.46        15.1 0.07                           145 302 
 HEL  HZ EP   1   2154 32.68                             111   -0.37 6  209 251 
 HEL  HZ I        2155  1.05         3.8 0.22                           209 251 
                                                                                
