 2017  3 2 2100 52.8 L   6.780 -73.122149.6  RSN  5 0.3 1.6LRSN                1
 GAP=238        0.69       4.5     5.1  5.5  0.6501E+01  0.8262E+01  0.4968E+01E
 Epicentro: LOS SANTOS - SANTANDER                                             3
 ACTION:UPD 17-05-25 18:35 OP:jn   STATUS:               ID:20170302210052 L   I
 OLDACT:REG 17-03-03 03:16 OP:edw  STATUS:               ID:20170302205745     3
 2017-03-02-2058-00M.COL___397                                                 6
 STAT SP IPHASW D HRMM SECON CODA AMPLIT PERI AZIMU VELO AIN AR TRES W  DIS CAZ7
 BAR2 EZ EP       21 1 12.69                             171   -0.2010 21.8 198 
 BAR2 EZ ES       21 1 28.06                             171   -0.4710 21.8 198 
 BAR2 EZ I        21 1 28.82        11.2 0.16            167           21.8 198 
 BRR  HZ EP       21 1 14.83                             152    0.2510 74.6 299 
 BRR  HN ES       21 1 31.73                             152    0.1810 74.6 299 
 RUS  HZ EP       21 1 16.83                             145    0.0410 98.2 178 
 RUS  HN ES       21 1 35.87                             145    0.3910 98.2 178 
 RUS  HZ I        21 1 36.31         5.2 0.32            143           98.2 178 
 ZAR  HN ES   2   21 1 51.73                             123    0.10 4  207 292 
 NOR  HZ EP       21 1 28.64                             119   -0.23 8  236 235 
 NOR  HN ES       21 1 56.90                             119   -0.09 8  236 235 
 NOR  HZ I        21 2  1.79         3.2 0.66            118            236 235 
                                                                                
