 2016  3 2 2052 54.5 L   6.811 -73.188143.2  RSN  7 0.2 2.0LRSN                1
 GAP=145        0.58       2.7     3.1  3.8 -0.3195E+01  0.3241E+01  0.1085E+01E
 Epicentro: ZAPATOCA - SANTANDER                                               3
 ACTION:UPD 16-05-13 21:21 OP:cam  STATUS:               ID:20160302205254 L   I
 OLDACT:REG 16-03-03 01:29 OP:cara STATUS:               ID:20160302204750     3
 2016-03-02-2047-50M.COL___319                                                 6
 STAT SP IPHASW D HRMM SECON CODA AMPLIT PERI AZIMU VELO AIN AR TRES W  DIS CAZ7
 BAR2 EZ EP       2053 13.78                             170   -0.1010 24.2 179 
 BAR2 EZ ES       2053 28.68                             170   -0.2810 24.2 179 
 BAR2 EZ I        2053 30.91        21.7 0.28            169           24.2 179 
 PAM  EZ EP       2053 16.68                             150    0.0710 79.5  43 
 PAM  EE ES       2053 34.10                             150    0.2810 79.5  43 
 PAM  EZ I        2053 36.01        26.3 0.48            155           79.5  43 
 RUS  HZ EP       2053 18.00                             143   -0.1610  102 174 
 RUS  HN ES       2053 36.63                             143    0.0410  102 174 
 RUS  HZ I        2053 37.75        17.9 0.34            145            102 174 
 PTB  HZ EP       2053 20.50                             132   -0.41 9  143 258 
 PTB  HN ES       2053 41.59                             132    0.12 9  143 258 
 PTB  HZ I        2053 48.91         9.0 0.42            132            143 258 
 SPBC HZ EP       2053 22.52                             129   -0.14 9  161 217 
 SPBC HE ES       2053 44.86                             129    0.26 9  161 217 
 SPBC HZ I        2053 47.40        25.8 0.36            130            161 217 
 CHI  HZ IP       2053 32.16                             117    0.06 8  249 194 
 CHI  HE ES       2054  1.48                             117    0.08 8  249 194 
 CHI  HZ I        2054  7.60         4.7 0.30            119            249 194 
 GUY2CHZ EP       2053 38.11                             112    0.42 7  298 234 
 GUY2CHN ES   4   2054 12.77                             112    1.43 0  298 234 
 GUY2CHZ I        2054 19.87         5.3 0.32                           298 234 
                                                                                
