 2013  3 2 2029 13.6 L   6.758 -73.152153.9  RSN  6 0.3 2.1LRSN                1
 GAP=138        0.76       4.1     3.7  5.5  0.2741E+00  0.4162E+01 -0.3784E+00E
 Epicentro: LOS SANTOS - SANTANDER                                             3
 ACTION:UPD 13-04-09 13:59 OP:ep   STATUS:               ID:20130302202913 L   I
 2013-03-02-2028-39M.COL___202                                                 6
 STAT SP IPHASW D HRMM SECON CODA AMPLIT PERI AZIMU VELO AIN AR TRES W  DIS CAZ7
 BAR2 SZ ES       2029 50.10                             173   -0.0810 18.7 191 
 BRR  HZ EP       2029 36.01                             153    0.2510 73.0 302 
 BRR  HE ES       2029 53.60                             153    0.5810 73.0 302 
 BRR  HE I        2029 54.26        25.0 0.32            150           73.0 302 
 PAM  SZ EP       2029 37.12                             151    0.1710 81.4  38 
 PAM  SN ES       2029 54.68                             151   -0.4610 81.4  38 
 PAM  SN I        2029 56.36        20.8 0.56            153           81.4  38 
 RUS  HZ EP       2029 38.01                             147    0.1310 96.0 175 
 RUS  HN ES       2029 56.77                             147   -0.0310 96.0 175 
 RUS  HN I        2029 58.39         9.2 0.16            148           96.0 175 
 PTB  HZ EP       2029 40.85                             134   -0.29 9  146 261 
 PTB  HN ES       2030  2.43                             134   -0.18 9  146 261 
 PTB  HN I        2030  7.72        34.4 0.34            133            146 261 
 ZAR  HZ EP   2   2029 46.89                             124    0.15 4  205 293 
 ZAR  HN ES   1   2030 12.12                             124   -0.44 6  205 293 
 ZAR  HN I        2030 19.03        13.3 0.16            123            205 293 
                                                                                
