 2014 10 2 2333 20.7 L   6.798 -73.179142.2  RSN 17 0.6 2.7LRSN                1
 GAP=132        1.37       3.1     5.2  6.4 -0.1349E+01  0.9418E+01  0.3150E+01E
 Epicentro: LOS SANTOS - SANTANDER                                             3
 ACTION:UPD 14-11-29 23:46 OP:nd   STATUS:               ID:20141002233320 L   I
 OLDACT:REG 14-10-03 06:36 OP:spq  STATUS:               ID:20141002232750     3
 2014-10-02-2327-50M.COL___286                                                 6
 STAT SP IPHASW D HRMM SECON CODA AMPLIT PERI AZIMU VELO AIN AR TRES W  DIS CAZ7
 BAR2 SZ EP       2333 40.18                             170    0.2710 22.7 181 
 BAR2 SZ ES       2333 54.66                             170   -0.2210 22.7 181 
 BAR2 SZ I        2333 57.97       182.3 0.28            166           22.7 181 
 BRR  HZ EP     C 2333 42.00                             153    0.6910 68.1 300 
 BRR  HN ES       2333 58.65                             153    1.2810 68.1 300 
 BRR  HZ I        2334  3.04        64.6 0.28            145           68.1 300 
 PAM  SZ EP     C 2333 42.98                             149    0.2610 80.0  41 
 PAM  SZ I        2333 43.34       170.7 0.18            151           80.0  41 
 PAM  SN ES       2333 59.62                             149   -0.2610 80.0  41 
 RUS  HZ EP       2333 44.16                             143    0.0310  101 174 
 RUS  HN ES       2334  2.35                             143   -0.0410  101 174 
 PTB  HZ EP       2333 46.72                             132   -0.34 9  144 259 
 PTB  HN ES       2334  7.27                             132   -0.34 9  144 259 
 PTB  HZ I        2334 10.50        32.9 0.16            126            144 259 
 OCA  HZ EP       2333 48.08                             129   -0.66 9  160 354 
 OCA  HN ES       2334  9.84                             129   -0.76 9  160 354 
 OCA  HZ I        2334 13.68        34.2 0.18            126            160 354 
 SPBC HZ EP       2333 48.98                             129    0.27 9  161 218 
 SPBC HN ES       2334  9.96                             129   -0.58 9  161 218 
 SPBC HZ I        2334 15.91        54.1 0.22            124            161 218 
 ZAR  HZ EP       2333 53.43                             122    0.84 9  201 293 
 ZAR  HE ES       2334 17.62                             122    0.18 9  201 293 
 ZAR  HZ I        2334 23.30        46.5 0.28            117            201 293 
 SML  HZ EP       2333 56.36                             117   -0.64 8  242 336 
 SML  HN ES       2334 24.71                             117   -0.60 8  242 336 
 SML  HZ I        2334 28.44        36.4 0.12            114            242 336 
 CHI  HZ EP       2333 58.41                             116    0.32 8  247 194 
 CHI  HN ES       2334 27.19                             116   -0.05 8  247 194 
 CHI  HZ I        2334 31.14        22.0 0.66            114            247 194 
 GUY2CHZ EP       2334  3.86                             112    0.06 7  298 234 
 GUY2CHZ I        2334 46.47        23.8 0.62                           298 234 
 VIL  SN ES       2334 37.14                             111   -0.38 7  302 191 
 VIL  SZ I        2334 47.89        34.8 0.46            109            302 191 
 DBB  SZ EP       2334  7.55                             109   -0.08 7  336 274 
 DBB  SZ I        2334 47.77        49.0 0.48            106            336 274 
 MON  HZ EP   9   2334  7.38                             108   -1.88 0  351 309 
 MON  HN ES       2334 44.90                                   -0.35 6  351 309 
 MON  HZ I        2335  0.88        10.1 0.40            105            351 309 
 ANIL HZ EP       2334 12.22                             108    2.15 6  355 224 
 ANIL HN ES       2334 47.96                             108   -0.60 6  355 224 
 ANIL HZ I        2335  0.19         5.8 0.34            105            355 224 
 PRA  HZ EP       2334 13.96                             106    0.08 6  390 209 
 PRA  HN ES       2334 54.79                             106   -0.55 6  390 209 
 PRA  HZ I        2335  2.20        27.0 0.72            104            390 209 
 ORTC HZ EP       2334 14.11                             106   -0.13 6  393 216 
 ORTC HN ES       2334 55.01                             106   -0.97 6  393 216 
 ORTC HZ I        2335  1.42        13.4 0.24            104            393 216 
                                                                                
