 2015  3 2 2013 12.0 L   6.847 -73.224144.4  RSN  4 0.4 1.7LRSN                1
 GAP=124        0.85       6.8     5.4 10.1 -0.1767E+02  0.1988E+02 -0.1079E+02E
 Epicentro: ZAPATOCA - SANTANDER                                               3
 ACTION:UPD 15-04-30 16:22 OP:nd   STATUS:               ID:20150302201312 L   I
 OLDACT:UP  15-03-03 05:20 OP:mh   STATUS:               ID:20150302200748     3
 OLDACT:REG 15-03-03 03:36 OP:mh   STATUS:               ID:20150302200748     3
 2015-03-02-2007-48M.COL___296                                                 6
 STAT SP IPHASW D HRMM SECON CODA AMPLIT PERI AZIMU VELO AIN AR TRES W  DIS CAZ7
 BAR2 EZ EP   1   2013 31.69                             168    0.08 7 28.6 171 
 BAR2 EZ I        2013 47.95        13.7 0.30            163           28.6 171 
 PAM  SZ EP       2013 34.50                             150    0.2810 79.5  47 
 PAM  SN ES       2013 51.32                             150   -0.2210 79.5  47 
 PAM  SZ I        2013 55.31         4.0 0.11            146           79.5  47 
 PTB  HZ EP       2013 38.48                             133    0.26 9  140 256 
 PTB  HN ES       2013 58.49                             133   -0.16 9  140 256 
 SML  HZ EP   1   2013 46.64                             118   -1.04 6  235 337 
 SML  HN ES   1   2014 16.01                             118    0.52 6  235 337 
 SML  HZ I        2014 23.57         7.3 0.10            116            235 337 
 ORTC HZ EP   4   2013 36.57                             106   -29.2 0  395 215 
 ORTC HN ES   4   2013 50.75                             106   -57.0 0  395 215 
                                                                                
