 2017  7 2 2138 48.8 L   6.799 -73.108144.1  RSN  6 0.4 1.8LRSN                1
 GAP=163        1.04       5.6     5.1  6.7 -0.6458E+01  0.4635E+01  0.2062E+01E
 Epicentro: LOS SANTOS - SANTANDER                                             3
 ACTION:UPD 17-08-30 15:29 OP:rebc STATUS:               ID:20170702213848 L   I
 OLDACT:REG 17-07-03 02:53 OP:lv   STATUS:               ID:20170702213744     3
 2017-07-02-2138-00M.COL___380                                                 6
 STAT SP IPHASW D HRMM SECON CODA AMPLIT PERI AZIMU VELO AIN AR TRES W  DIS CAZ7
 BAR2 EZ EP       2139  8.38                             170    0.0910 24.3 200 
 BAR2 EZ ES       2139 23.57                             170    0.1110 24.3 200 
 BAR2 EZ I        2139 24.23        29.1 0.26            167           24.3 200 
 PAM  EZ EP       2139 11.07                             151    0.3410 74.9  37 
 PAM  EN ES       2139 27.11                             151   -0.6910 74.9  37 
 PAM  EZ I        2139 30.50        10.9 0.35            156           74.9  37 
 BRR  HZ EP       2139 10.04                             151    0.0110 75.0 297 
 BRR  HE ES       2139 27.26                             151    0.7110 75.0 297 
 PTB  HZ EP   9   2139 14.81                             131   -1.24 0  152 259 
 PTB  HN ES       2139 36.13                                    0.10 9  152 259 
 PTB  HZ I        2139 42.50         2.9 0.15            130            152 259 
 SPBC HZ EP       2139 17.28                             128   -0.18 9  166 220 
 SPBC HN ES       2139 39.50                             128   -0.28 9  166 220 
 SPBC HZ I        2139 46.19        13.9 0.06            128            166 220 
 ZAR  HZ EP       2139 21.96                             121    0.37 8  208 292 
 ZAR  HE ES       2139 46.47                             121   -0.66 8  208 292 
 ZAR  HZ I        2139 49.35         5.7 0.20            122            208 292 
                                                                                
