 2012 10 2 2148 50.8 L   6.818 -72.966140.0  RSN  4 0.5 1.8LRSN                1
 GAP=160        0.93       6.4     9.3  9.9 -0.1523E+01  0.1870E+01 -0.3287E+00E
 Epicentro: CEPITA - SANTANDER                                                 3
 ACTION:UPD 12-11-22 17:01 OP:ep   STATUS:               ID:20121002214850 L   I
 2012-10-02-2140-00M.COL___222                                                 6
 STAT SP IPHASW D HRMM SECON CODA AMPLIT PERI AZIMU VELO AIN AR TRES W  DIS CAZ7
 BAR2 SZ ES   1   2149 24.40                             165   -0.59 7 34.6 224 
 BAR2 SZ I        2149 27.43        10.2 0.28                          34.6 224 
 PAM  SZ EP   1   2149 10.84                             154   -0.80 7 64.7  27 
 PAM  SN ES   1   2149 28.52                             154    0.59 7 64.7  27 
 PAM  SN I        2149 31.61         9.0 0.68                          64.7  27 
 BRR  HZ EP       2149 12.57                             146    0.1810 88.4 291 
 BRR  HN ES   1   2149 29.27                             146    0.02 7 88.4 291 
 BRR  HN I        2149 33.52        32.5 0.16                          88.4 291 
 RUS  HZ EP   1   2149 14.44                             142    0.29 7  103 187 
 RUS  HN ES   1   2149 32.56                             142    0.17 7  103 187 
                                                                                
