 2010 10 2 2144 17.5 L   6.754 -73.105148.0  RSN  6 0.3 1.4LRSN                1
 GAP=164        0.57       7.7    11.7 14.5  0.2561E+02 -0.9917E+02 -0.7440E+02E
 Epicentro: LOS SANTOS - SANTANDER                                             3
 ACTION:UP  11-02-18 11:07 OP:tino STATUS:               ID:20101002214417 L   I
 2010-10-02-2142-23S.COL___124                                                 6
 STAT SP IPHASW D HRMM SECON CODA AMPLIT PERI AZIMU VELO SNR AR TRES W  DIS CAZ7
 BAR2 SZ ES   3   2144 52.39                             172    -0.4 2   20 206 
 BAR2 SZ I        2144 53.98         9.2 0.29                            20 206 
 BTL  SZ EP       2144 37.57                             170     0.110   26 315 
 BRR  HZ EP   1   2144 39.07                             151    -0.2 7   78 300 
 BRR  HE ES   2   2144 56.37                             151     0.1 5   78 300 
 RUS  HZ EP   3   2144 41.26                             146     0.1 2   95 179 
 RUS  HN ES   2   2144 59.51                             146     0.0 5   95 179 
 RUS  HZ I        2145  1.05         2.6 0.29                            95 179 
 GUE  SZ EP   1   2144 43.26                             139     0.5 7  121   9 
 GRA  SZ EP       2144 42.98                             137    -0.310  129  15 
                                                                                
