 2017 12 2 2123  2.0 L   6.690 -72.899130.2  RSN  4 0.3 1.0LRSN                1
 GAP=176        0.71       4.4     8.3  5.9 -0.1887E+02  0.1240E+02 -0.2706E+01E
 Epicentro: MOLAGAVITA - SANTANDER                                             3
 ACTION:UPD 18-01-04 13:16 OP:rebc STATUS:               ID:20171202212302 L   I
 OLDACT:UP  17-12-03 04:12 OP:edw  STATUS:               ID:20171202211743d    3
 OLDACT:DUP 17-12-03 04:09 OP:edw  STATUS:               ID:20171202211743d    3
 OLDACT:DUP 17-12-03 04:06 OP:edw  STATUS:               ID:20171202211742d    3
 OLDACT:UP  17-12-03 04:05 OP:edw  STATUS:               ID:20171202211741     3
 OLDACT:UP  17-12-03 04:04 OP:edw  STATUS:               ID:20171202211741     3
 OLDACT:REG 17-12-03 03:28 OP:osc  STATUS:               ID:20171202211741     3
 2017-12-02-2118-00M.COL___495                                                 6
 STAT SP IPHASW D HRMM SECON CODA AMPLIT PERI AZIMU VELO AIN AR TRES W  DIS CAZ7
 BAR2 EZ ES       2123 33.77                             165   -0.2910 33.1 251 
 PAM  EZ EP       2123 22.03                             148   -0.3910 75.2  17 
 PAM  EE ES       2123 38.71                             148    0.3510 75.2  17 
 PAM  EZ I        2123 41.18         2.7 0.56            150           75.2  17 
 RUS  HZ EP       2123 23.51                             143    0.0410 90.5 193 
 RUS  HN ES       2123 40.35                             143    0.1210 90.5 193 
 RUS  HZ I        2123 43.32         1.7 0.36            145           90.5 193 
 PTB  HZ EP       2123 30.42                             123    0.19 9  173 265 
                                                                                
