 2013  1 3 0332 23.9 L   6.784 -73.160141.4  RSN  6 0.3 1.9LRSN                1
 GAP=235        0.87       4.6     5.6  5.8  0.1463E+02  0.7403E+01  0.4619E+01E
 Epicentro: LOS SANTOS - SANTANDER                                             3
 ACTION:UPD 13-02-15 09:11 OP:ep   STATUS:               ID:20130103033223 L   I
 2013-01-03-0329-38M.COL___202                                                 6
 STAT SP IPHASW D HRMM SECON CODA AMPLIT PERI AZIMU VELO AIN AR TRES W  DIS CAZ7
 BAR2 SZ EP        332 42.89                             171   -0.0710 21.3 187 
 BAR2 SZ ES        332 57.53                             171   -0.3010 21.3 187 
 BAR2 SZ I         332 59.07        22.2 0.24            165           21.3 187 
 BRR  HZ EP        332 44.67                             152    0.1310 70.7 300 
 BRR  HN ES        333  1.12                             152    0.4710 70.7 300 
 BRR  HN I         333  1.93        37.2 0.34            148           70.7 300 
 RUS  HZ EP        332 46.89                             143   -0.2110 98.9 175 
 RUS  HZ I         332 48.04         4.2 0.16            142           98.9 175 
 RUS  HN ES        333  5.37                             143    0.1810 98.9 175 
 PTB  HZ EP        332 49.63                             131   -0.70 9  146 259 
 PTB  HN ES        333 10.56                             131   -0.39 9  146 259 
 PTB  HN I         333 17.49         9.0 0.24            128            146 259 
 ZAR  HZ EP        332 56.27                             122    0.30 9  203 293 
 ZAR  HN ES        333 21.16                             122    0.17 9  203 293 
 ZAR  HN I         333 26.95        10.9 0.12            120            203 293 
 CHI  HZ EP        333  1.28                             116    0.16 8  246 195 
 CHI  HE ES        333 30.65                             116    0.50 8  246 195 
 CHI  HN I         333 33.24         4.6 0.42            116            246 195 
                                                                                
