 2014 11 3 0113 16.2 L   6.315 -73.636118.3  RSN  5 0.5 1.3LRSN                1
 GAP= 86        1.38       5.9     6.0 11.3  0.9184E+00  0.1045E+02  0.1882E+01E
 Epicentro: SANTA HELENA DEL OPON - SANTANDER                                  3
 ACTION:UPD 14-12-19 15:39 OP:nd   STATUS:               ID:20141103011316 L   I
 OLDACT:REG 14-11-03 12:52 OP:carl STATUS:               ID:20141103010743     3
 2014-11-03-0107-43M.COL___265                                                 6
 STAT SP IPHASW D HRMM SECON CODA AMPLIT PERI AZIMU VELO AIN AR TRES W  DIS CAZ7
 BAR2 SZ EP        113 34.34                             152    0.3310 58.8  59 
 BAR2 SZ ES        113 47.61                             152   -0.3010 58.8  59 
 RUS  HZ EP        113 35.55                             145    0.0210 77.0 127 
 RUS  HN ES        113 50.23                             145   -0.3910 77.0 127 
 RUS  HZ I         113 51.97         2.2 0.24            149           77.0 127 
 SPBC HZ EP        113 35.10                             141   -0.6510 87.7 213 
 SPBC HN ES        113 52.06                             141    1.0410 87.7 213 
 SPBC HZ I         113 53.84         5.8 0.10            142           87.7 213 
 BRR  HZ EP        113 35.98                             141    0.3310 88.0 355 
 BRR  HN ES        113 51.26                             141    0.4210 88.0 355 
 PTB  HZ EP        113 36.09                             139   -0.0610 94.1 285 
 PTB  HN ES        113 50.99                             139   -0.7410 94.1 285 
 PTB  HZ I         113 55.61         5.3 0.10            140           94.1 285 
                                                                                
