 2013  3 3 0215  3.5 L   6.760 -73.150143.4  RSN  9 0.5 2.1LRSN                1
 GAP=138        1.13       4.5     4.5  7.1  0.1365E+01  0.8099E+01  0.9174E+01E
 Epicentro: LOS SANTOS - SANTANDER                                             3
 ACTION:UPD 13-04-09 13:59 OP:ep   STATUS:               ID:20130303021503 L   I
 2013-03-03-0208-48M.COL___193                                                 6
 STAT SP IPHASW D HRMM SECON CODA AMPLIT PERI AZIMU VELO AIN AR TRES W  DIS CAZ7
 BAR2 SZ EP        215 22.75                             172   -0.0110 18.9 191 
 BAR2 SZ ES        215 37.67                             172   -0.1110 18.9 191 
 BAR2 SZ I         215 40.32        24.7 0.38            172           18.9 191 
 BRR  HZ EP        215 24.65                             152    0.1510 73.0 302 
 BRR  HN ES        215 41.52                             152    0.6510 73.0 302 
 BRR  HN I         215 42.04        29.2 0.20            152           73.0 302 
 PAM  SZ EP        215 25.60                             149   -0.0910 81.1  38 
 PAM  SN ES        215 42.75                             149   -0.2510 81.1  38 
 RUS  HZ EP        215 26.66                             145   -0.0410 96.2 176 
 RUS  HN ES        215 45.22                             145    0.4310 96.2 176 
 PTB  HZ EP        215 29.55                             132   -0.61 9  147 261 
 PTB  HN ES        215 49.92                             132   -1.03 9  147 261 
 OCA  HN ES   4    215 52.55                             128   -1.75 0  165 353 
 ZAR  HN ES        216  1.38                             122    0.16 8  205 293 
 ZAR  HN I         216  2.56        10.3 0.14            123            205 293 
 CHI  HZ EP        215 40.88                             117    0.29 8  244 195 
 CHI  HN ES        216  9.14                             117   -0.37 8  244 195 
 HEL  HN ES        216 15.31                             114    0.74 8  271 257 
 PRA  HZ EP        215 57.08                             106    0.62 6  388 210 
                                                                                
