 2015  1 3 0837 51.0 L   6.037 -74.102 25.7  RSN  8 0.5 1.4LRSN                1
 GAP= 68        1.37       2.6     3.2  5.4  0.7995E+00 -0.4911E+01 -0.2694E+01E
 Epicentro: LA BELLEZA - SANTANDER                                             3
 ACTION:UPD 15-03-02 15:36 OP:nd   STATUS:               ID:20150103083751 L   I
 OLDACT:DUP 15-01-03 18:12 OP:stll STATUS:               ID:20150103082736d    3
 2015-01-03-0827-35M.COL___274                                                 6
 STAT SP IPHASW D HRMM SECON CODA AMPLIT PERI AZIMU VELO AIN AR TRES W  DIS CAZ7
 SPBC HZ IP     C  837 59.21                             113    0.2410 42.7 176 
 SPBC HN ES        838  4.85                             113   -0.3710 42.7 176 
 PTB  HZ EP        838  2.44                              97    0.0610 68.0 325 
 PTB  HN ES        838 11.15                              97   -0.1510 68.0 325 
 PTB  HZ I         838 12.87        27.6 0.16            106           68.0 325 
 RUS  HZ EP        838  9.08                              61   -0.1210  114  98 
 RUS  HE ES        838 22.24                              61   -1.1810  114  98 
 RUS  HZ I         838 25.65         5.2 0.44             56            114  98 
 BAR2 EZ EP        838 10.31                              61    0.8110  119  59 
 BAR2 EZ ES        838 24.12                              61    0.1510  119  59 
 BAR2 EZ I         838 26.85         5.6 0.28             56            119  59 
 BRR  HZ EP        838 10.24                              61    0.1410  126  20 
 BRR  HE ES        838 25.22                              61    0.1810  126  20 
 BRR  HZ I         838 32.45         3.9 0.48             56            126  20 
 HEL  HZ EP        838 14.65                              61   -0.02 9  159 276 
 HEL  HE ES        838 32.28                              61   -0.89 9  159 276 
 HEL  HZ I         838 33.27         9.4 0.20             56            159 276 
 CHI  HZ EP        838 15.72                              61    0.73 9  161 165 
 CHI  HN ES        838 33.55                              61   -0.19 9  161 165 
 ORTC HZ EP        838 27.75                              60   -0.08 8  267 208 
 ORTC HZ I         838 29.23         1.4 0.18             56            267 208 
 ORTC HN ES        838 57.67                              60    1.08 8  267 208 
                                                                                
