 2015  5 3 0710  8.9 L   6.770 -73.207141.4  RSN  5 0.4 1.2LRSN                1
 GAP=130        0.96       6.7     6.8  7.3  0.2729E+02 -0.2648E+01 -0.1261E+02E
 Epicentro: ZAPATOCA - SANTANDER                                               3
 ACTION:UPD 15-09-10 22:01 OP:cam  STATUS:               ID:20150503071008 L   I
 OLDACT:REG 15-05-03 13:56 OP:stll STATUS:               ID:20150503070740     3
 2015-05-03-0707-40M.COL___273                                                 6
 STAT SP IPHASW D HRMM SECON CODA AMPLIT PERI AZIMU VELO AIN AR TRES W  DIS CAZ7
 BAR2 EZ EP        710 28.43                             172    0.4810 19.8 172 
 BAR2 EZ ES        710 42.27                             172   -0.5210 19.8 172 
 BAR2 EZ I         710 43.75         3.9 0.56            170           19.8 172 
 BRR  HZ EP        710 29.73                             153    0.3710 67.2 304 
 BRR  HN ES        710 45.78                             153    0.4710 67.2 304 
 PAM  SZ EP        710 30.78                             148   -0.3210 84.3  42 
 PAM  SZ I         710 31.01         6.2 0.18            151           84.3  42 
 RUS  HZ EP        710 32.10                             144    0.0610 97.9 172 
 RUS  HZ I         710 32.99         1.3 0.10            143           97.9 172 
 RUS  HN ES        710 50.04                             144   -0.0410 97.9 172 
 ZAR  HZ EP        710 40.27                             122   -0.30 9  199 294 
 ZAR  HN ES        711  4.88                             122   -0.38 9  199 294 
 ZAR  HZ I         711 11.89         2.0 0.34            120            199 294 
                                                                                
