 2014  8 3 0717 47.3 L   6.802 -73.170149.4  RSN  9 0.5 1.7LRSN                1
 GAP=142        1.19       3.8     5.4  7.7 -0.3841E+01  0.8311E+01  0.1733E+00E
 Epicentro: LOS SANTOS - SANTANDER                                             3
 ACTION:UPD 14-09-15 21:46 OP:nd   STATUS:               ID:20140803071747 L   I
 OLDACT:DUP 14-08-03 14:38 OP:carl STATUS:               ID:20140803070819d    3
 2014-08-03-0708-18M.COL___227                                                 6
 STAT SP IPHASW D HRMM SECON CODA AMPLIT PERI AZIMU VELO AIN AR TRES W  DIS CAZ7
 BAR2 SZ EP        718  7.48                             171    0.1310 23.3 183 
 BAR2 SZ ES        718 22.83                             171   -0.1710 23.3 183 
 BAR2 SZ I         718 23.93        10.6 0.28            169           23.3 183 
 BRR  HZ EP        718  9.26                             154    0.5710 68.8 299 
 BRR  HN ES        718 26.21                             154    0.8210 68.8 299 
 BRR  HZ I         718 30.35         8.6 0.30            152           68.8 299 
 PAM  SZ EP        718 10.24                             151    0.2610 78.9  41 
 PAM  SN ES        718 27.20                             151   -0.4810 78.9  41 
 PAM  SZ I         718 28.06         4.5 0.24            155           78.9  41 
 PTB  HZ EP        718 14.20                             133   -0.12 9  145 259 
 PTB  HN ES        718 34.61                             133   -0.80 9  145 259 
 PTB  HZ I         718 37.83         5.1 0.10            132            145 259 
 OCA  HN ES        718 37.97                             130   -0.12 9  160 354 
 SPBC HZ EP        718 16.52                             130    0.60 9  162 218 
 SPBC HN ES        718 38.50                             130    0.23 9  162 218 
 SPBC HZ I         718 43.22         6.3 0.36            130            162 218 
 ZAR  HN ES        718 45.13                             123    0.13 9  201 292 
 ZAR  HZ I         718 50.51         5.3 0.24            123            201 292 
 SML  HZ EP        718 23.62                             118   -0.35 8  242 336 
 SML  HE ES        718 52.10                             118   -0.49 8  242 336 
 SML  HZ I         718 56.77         8.5 0.10            119            242 336 
 CHI  HN ES        718 53.90                             118   -0.76 8  248 195 
 CHI  HZ I         718 59.35         2.2 0.36            119            248 195 
                                                                                
