 2014 11 3 0644 33.1 L   6.965 -73.445 24.9  RSN  6 0.3 1.3LRSN                1
 GAP=139        0.68       1.6     2.0  1.8  0.1055E+01  0.2286E+00  0.3501E+00E
 Epicentro: SAN VICENTE DE CHUCURI - SANTANDER                                 3
 ACTION:UPD 14-12-19 15:39 OP:nd   STATUS:               ID:20141103064433 L   I
 OLDACT:REG 14-11-03 13:21 OP:carl STATUS:               ID:20141103063748     3
 2014-11-03-0637-48M.COL___259                                                 6
 STAT SP IPHASW D HRMM SECON CODA AMPLIT PERI AZIMU VELO AIN AR TRES W  DIS CAZ7
 BRR  HZ EP        644 39.87                             125    0.0810 33.4 298 
 BRR  HN IS        644 45.15                             125    0.1710 33.4 298 
 BRR  HZ I         644 47.67        10.1 0.12            121           33.4 298 
 BAR2 SZ EP        644 42.18                             115   -0.1510 50.5 145 
 BAR2 SZ ES        644 49.43                             115   -0.0710 50.5 145 
 BAR2 SZ I         644 49.89        22.4 0.20            114           50.5 145 
 PTB  HZ EP        644 51.56                              56   -0.2310  121 247 
 PTB  HN ES        645  6.01                              56   -0.3310  121 247 
 PTB  HZ I         645  6.91        12.0 0.14             56            121 247 
 RUS  HZ EP        644 53.15                              56    0.2910  125 161 
 RUS  HN ES        645  8.21                              56   -0.0310  125 161 
 RUS  HZ I         645  9.49         5.9 0.48             56            125 161 
 OCA  HZ EP        644 54.10                              56   -0.39 9  142   6 
 OCA  HN ES        645 11.42                              56    0.28 9  142   6 
 OCA  HZ I         645 12.98         7.8 0.24             56            142   6 
 SPBC HZ EP   4    644 58.31                              56    1.47 0  161 206 
 SPBC HN ES        645 15.75                              56    0.43 9  161 206 
 SPBC HZ I         645 21.11         3.0 0.44             56            161 206 
                                                                                
