 2017  2 3 0545 33.3 L   6.737 -73.153138.9  RSN  5 0.4 1.1LRSN                1
 GAP=138        0.74       5.6     5.4  7.0  0.1353E+02  0.1541E+01  0.3349E+01E
 Epicentro: LOS SANTOS - SANTANDER                                             3
 ACTION:UPD 17-05-24 15:32 OP:jn   STATUS:               ID:20170203054533 L   I
 OLDACT:DUP 17-02-03 15:18 OP:dnl  STATUS:               ID:20170203053744d    3
 OLDACT:REG 17-02-03 12:40 OP:dnl  STATUS:               ID:20170203053743     3
 2017-02-03-0538-00M.COL___325                                                 6
 STAT SP IPHASW D HRMM SECON CODA AMPLIT PERI AZIMU VELO AIN AR TRES W  DIS CAZ7
 BAR2 EZ EP   2    545 52.14                             173    0.19 5 16.3 191 
 BAR2 EZ ES        546  6.38                             173   -0.1410 16.3 191 
 BAR2 EZ I         546  8.47         2.6 0.58            163           16.3 191 
 BRR  HZ EP   2    545 53.81                             150   -0.04 5 74.1 304 
 BRR  HN ES        546 10.24                             150    0.3310 74.1 304 
 BRR  HZ I         546 19.94         4.1 0.34            140           74.1 304 
 PAM  EZ EP   2    545 54.17                             147   -0.97 5 83.3  37 
 PAM  EZ I         546 14.57         2.0 0.58            128           83.3  37 
 RUS  HZ EP        545 56.27                             144    0.4210 93.7 175 
 RUS  HN ES        546 13.34                             144   -0.1310 93.7 175 
 RUS  HZ I         546 16.30         1.5 0.38            150           93.7 175 
 PTB  HZ EP   2    545 59.54                             131    0.04 5  146 261 
 PTB  HN ES        546 19.64                             131   -0.32 9  146 261 
 PTB  HZ I         546 22.04         2.1 0.52            131            146 261 
                                                                                
