 2010  4 3 0222 51.6 L   6.802 -73.074143.4  RSN 12 0.5 2.9LRSN                1
 GAP=125        0.88       4.0     6.5  6.1 -0.5670E+01  0.5961E+01  0.6339E+01E
 Epicentro: LOS SANTOS - SANTANDER                                             3
 ACTION:UPD 10-08-24 09:57 OP:vdl  STATUS:               ID:20100403022251 L   I
 2010-04-03-0220-17S.COL___098                                                 6
 STAT SP IPHASW D HRMM SECON CODA AMPLIT PERI AZIMU VELO AIN AR TRES W  DIS CAZ7
 BAR2 SZ IP        223 11.12                             169     0.110   26 208 
 BAR2 SZ ES   1    223 25.84                             169    -0.3 7   26 208 
 BRR  HZ IP        223 13.24                             150     0.310   78 296 
 BRR  HZ I         223 29.81       153.4 0.08                            78 296 
 BRR  HN ES   1    223 29.81                             150     0.3 7   78 296 
 OCA  SZ IP        223 19.56                             129    -0.3 9  161 350 
 OCA  SZ ES   2    223 41.73                             129    -0.1 5  161 350 
 OCA  SZ I         223 46.08       171.2 0.17                           161 350 
 CHI  HZ EP        223 29.14                             116    -0.3 8  251 197 
 CHI  HE ES   1    223 58.25                             116    -0.7 6  251 197 
 CHI  HZ I         224  6.82        27.6 0.63                           251 197 
 ROSC BZ EP        223 31.11                             116     1.0 8  257 213 
 ROSC BN ES   2    223 59.88                             116    -0.2 4  257 213 
 ROSC BZ I         224  8.97        55.9 0.24                           257 213 
 HEL  HZ EP        223 32.36                             114    -0.2 7  280 256 
 HEL  HN ES   2    224  3.84                             114    -0.7 4  280 256 
 HEL  HZ I         224 10.04        31.8 0.30                           280 256 
 RREF BZ EP        223 38.60                             110     0.2 7  328 230 
 RREF BN ES   2    224 15.69                             110     0.9 3  328 230 
 RREF BZ I         224 22.73        43.4 0.43                           328 230 
 DBB  SZ EP        223 39.82                             109    -0.1 6  347 274 
 DBB  SZ ES   2    224 16.36                             109    -1.2 3  347 274 
 TOL  SZ EP        223 40.98                             108     0.5 6  349 226 
 TOL  SZ ES   2    224 18.20                             108    -0.3 3  349 226 
 SDV  BZ EP   2    223 40.67                             108    -0.2 3  354  49 
 SDV  BZ ES   3    224 18.66                             108    -0.6 2  354  49 
 PRA  HZ EP        223 44.91                             106    -0.6 6  396 211 
 PRA  HN ES   2    224 27.32                             106    -0.3 3  396 211 
 PRA  HZ I         224 31.71        34.2 0.56                           396 211 
 GUA  SZ EP   3    223 55.20                             103     0.6 1  473 174 
                                                                                
