 2014  2 3 0652 34.1 L   6.823 -73.183134.4  RSN  6 0.3 1.4LRSN                1
 GAP=131        0.74       3.2     7.1  5.9 -0.8041E+01  0.2631E+02 -0.4079E+01E
 Epicentro: ZAPATOCA - SANTANDER                                               3
 ACTION:UPD 14-03-10 08:07 OP:ep   STATUS:               ID:20140203065234 L   I
 OLDACT:REG 14-02-03 07:54 OP:nd   STATUS:               ID:20140203065000     3
 2014-02-03-0650-00M.COL___288                                                 6
 STAT SP IPHASW D HRMM SECON CODA AMPLIT PERI AZIMU VELO AIN AR TRES W  DIS CAZ7
 BAR2 SZ EP        652 52.57                             169    0.1810 25.5 180 
 BAR2 SZ ES        653  6.16                             169   -0.5110 25.5 180 
 BAR2 SZ I         653  9.09        11.1 0.20            168           25.5 180 
 PAM  SZ EP        652 55.31                             148    0.1710 78.2  43 
 PAM  SN ES        653 11.93                             148    0.3610 78.2  43 
 PAM  SZ I         653 14.01         2.9 0.16            153           78.2  43 
 RUS  HZ EP        652 56.52                             140   -0.4310  103 174 
 RUS  HN ES        653 15.05                             140    0.2610  103 174 
 RUS  HZ I         653 17.05         3.2 0.32            143            103 174 
 SML  HZ EP        653  9.53                             115   -0.12 8  240 336 
 SML  HN ES   2    653 36.96                             115   -0.43 4  240 336 
 SML  HZ I         653 42.96         3.5 0.32            117            240 336 
 CHI  HZ EP        653 11.08                             114   -0.25 8  250 194 
 CHI  HN ES   2    653 40.69                             114    0.31 4  250 194 
 CHI  HZ I         653 47.17         1.7 0.52            116            250 194 
 GUY2CHZ EP        653 17.30                             110    0.33 7  299 234 
 GUY2CHN ES   2    653 50.77                             110    0.34 4  299 234 
 GUY2CHZ I         653 58.63         1.5 0.68                           299 234 
                                                                                
