 2014 12 3 0300 59.1 L   6.781 -73.128140.3  RSN 12 0.3 1.7LRSN                1
 GAP=140        0.84       2.7     3.3  4.7 -0.1983E+01  0.6692E+01 -0.5590E-01E
 Epicentro: LOS SANTOS - SANTANDER                                             3
 ACTION:UPD 15-02-10 17:00 OP:nd   STATUS:               ID:20141203030059 L   I
 OLDACT:REG 14-12-03 12:43 OP:fm   STATUS:               ID:20141203025750     3
 2014-12-03-0257-50M.COL___306                                                 6
 STAT SP IPHASW D HRMM SECON CODA AMPLIT PERI AZIMU VELO AIN AR TRES W  DIS CAZ7
 BAR2 SZ EP        3 1 18.23                             171    0.2110 21.8 196 
 BAR2 SZ ES        3 1 32.95                             171    0.1510 21.8 196 
 BAR2 SZ I         3 1 33.92        12.7 0.20            170           21.8 196 
 BRR  HZ EP        3 1 20.19                             151    0.3910 73.9 299 
 BRR  HN ES        3 1 36.47                             151    0.5010 73.9 299 
 BRR  HZ I         3 1 40.55        10.9 0.30            150           73.9 299 
 PAM  SZ EP     D  3 1 21.27                             150    0.5310 77.7  37 
 PAM  SN ES        3 1 37.51                             150   -0.1210 77.7  37 
 PAM  SZ I         3 1 40.26        15.1 0.58            154           77.7  37 
 RUS  HN ES        3 1 39.85                             143   -0.2710 98.4 177 
 RUS  HZ I         3 1 44.02         2.6 0.14            146           98.4 177 
 PTB  HZ EP        3 1 25.47                             130   -0.29 9  149 260 
 PTB  HE ES        3 1 45.98                             130   -0.58 9  149 260 
 PTB  HZ I         3 1 51.41         8.4 0.28            131            149 260 
 OCA  HZ EP        3 1 26.68                             128   -0.51 9  163 353 
 OCA  HE ES        3 1 48.69                             128   -0.43 9  163 353 
 OCA  HZ I         3 1 53.38        12.0 0.62            131            163 353 
 ZAR  HZ EP        3 1 31.22                             121   -0.23 8  207 292 
 ZAR  HN ES        3 1 56.78                             121    0.08 8  207 292 
 ZAR  HZ I         3 2  5.00         8.3 0.46            122            207 292 
 CHI  HN ES        3 2  4.97                             116   -0.40 8  247 196 
 CHI  HZ I         3 2 10.06         1.8 0.54            119            247 196 
 HEL  HZ EP        3 1 39.49                             114    0.31 8  274 256 
 HEL  HN ES        3 2 10.61                             114    0.15 8  274 256 
 HEL  HZ I         3 2 18.81         3.1 0.32            115            274 256 
 GUY2CHZ EP        3 1 42.70                             111    0.21 7  302 235 
 GUY2CHE ES        3 2 16.52                             111    0.16 7  302 235 
 GUY2CHZ I         3 2 25.89         2.6 0.52                           302 235 
 CBOC HZ EP        3 1 46.12                             109    0.20 7  335 253 
 CBOC HE ES        3 2 22.41                             109   -0.05 7  335 253 
 CBOC HZ I         3 2 25.03         1.0 0.42            111            335 253 
 TOL  SE ES   4    3 2 21.42                             108   -3.16 0  343 225 
 MON  HZ EP   4    3 1 45.71                             107   -2.50 0  357 308 
 MON  HE ES   4    3 2 22.90                             107   -3.62 0  357 308 
 MON  HZ I         3 2 25.43         2.8 0.20            109            357 308 
                                                                                
