 2016  5 3 0401 39.6 L   6.820 -73.145145.4  RSN 10 0.3 1.9LRSN                1
 GAP=136        0.81       2.5     3.2  5.1 -0.1784E+01  0.5405E+01  0.4618E+00E
 Epicentro: LOS SANTOS - SANTANDER                                             3
 ACTION:UPD 16-08-18 17:41 OP:cam  STATUS:               ID:20160503040139 L   I
 OLDACT:UP  16-05-15 07:30 OP:ar   STATUS:               ID:20160503040139 L   3
 OLDACT:REG 16-05-03 13:48 OP:edw  STATUS:               ID:20160503035748     3
 2016-05-03-0357-48M.COL___306                                                 6
 STAT SP IPHASW D HRMM SECON CODA AMPLIT PERI AZIMU VELO AIN AR TRES W  DIS CAZ7
 BAR2 EZ EP        4 1 59.21                             170    0.0210 25.5 189 
 BAR2 EZ ES        4 2 14.44                             170   -0.0610 25.5 189 
 BAR2 EZ I         4 2 15.77        25.7 0.28            170           25.5 189 
 PAM  EZ EP        4 2  2.03                             151    0.4010 75.6  41 
 PAM  EN ES        4 2 19.30                             151    0.4510 75.6  41 
 PAM  EZ I         4 2 21.38         7.0 0.48            155           75.6  41 
 RUS  HZ EP        4 2  3.18                             143   -0.2510  103 176 
 RUS  HE ES        4 2 21.74                             143   -0.3110  103 176 
 RUS  HZ I         4 2 23.29         5.9 0.24            146            103 176 
 PTB  HZ EP        4 2  6.30                             132   -0.25 9  148 258 
 PTB  HN ES        4 2 27.23                             132   -0.36 9  148 258 
 PTB  HZ I         4 2 34.22         7.6 0.44            133            148 258 
 OCA  HZ EP        4 2  7.04                             130   -0.60 9  158 353 
 OCA  HN ES        4 2 29.39                             130   -0.15 9  158 353 
 OCA  HZ I         4 2 32.50        15.3 0.26            132            158 353 
 SPBC HZ EP        4 2  8.15                             129   -0.05 9  165 219 
 SPBC HN ES        4 2 31.07                             129    0.54 9  165 219 
 SPBC HZ I         4 2 35.07        14.5 0.20            130            165 219 
 ZAR  HN ES        4 2 37.20                             122    0.06 9  203 292 
 NOR  HE ES        4 2 43.36                             118   -0.02 8  236 234 
 CHI  HZ EP        4 2 17.49                             117    0.02 8  251 195 
 CHI  HN ES        4 2 46.96                             117   -0.07 8  251 195 
 CHI  HZ I         4 2 50.52         4.5 0.48            119            251 195 
 CBOC HZ EP        4 2 27.25                             110    0.70 7  334 252 
 CBOC HN ES        4 3  3.62                             110    0.42 7  334 252 
                                                                                
