 2017 12 3 0745 21.0 L   6.798 -73.166145.1  RSN  9 0.3 1.7LRSN                1
 GAP=157        0.81       2.4     3.4  4.8  0.1230E+01  0.1380E+01 -0.4815E+00E
 Epicentro: LOS SANTOS - SANTANDER                                             3
 ACTION:UPD 18-01-04 13:16 OP:rebc STATUS:               ID:20171203074521 L   I
 OLDACT:UP  17-12-03 15:46 OP:dani STATUS:               ID:20171203073742     3
 OLDACT:UP  17-12-03 15:41 OP:dani STATUS:               ID:20171203073742     3
 OLDACT:UP  17-12-03 15:38 OP:dani STATUS:               ID:20171203073742     3
 OLDACT:REG 17-12-03 13:30 OP:dhb  STATUS:               ID:20171203073742     3
 2017-12-03-0738-00M.COL___483                                                 6
 STAT SP IPHASW D HRMM SECON CODA AMPLIT PERI AZIMU VELO AIN AR TRES W  DIS CAZ7
 BAR2 EZ EP        745 40.24                             171   -0.3210 22.9 184 
 BAR2 EZ ES        745 55.47                             171   -0.3310 22.9 184 
 BAR2 EZ I         745 58.07        11.3 0.26            168           22.9 184 
 RUS  HZ EP        745 44.56                             144   -0.1410  101 175 
 RUS  HN ES        746  3.50                             144    0.3210  101 175 
 RUS  HZ I         746  4.97         4.5 0.34            144            101 175 
 PTB  HZ EP   9    745 46.62                             132   -1.10 0  145 259 
 PTB  HN ES        746  7.70                             131    0.25 9  145 259 
 PTB  HZ I         746 10.29         3.3 0.14            132            145 259 
 OCA  HZ EP        745 49.49                             129    0.22 9  160 354 
 OCA  HN ES        746 11.91                             129    0.61 9  160 354 
 OCA  HZ I         746 14.17        10.2 0.18            132            160 354 
 SPBC HZ EP        745 49.48                             129    0.16 9  162 218 
 SPBC HN ES        746 11.20                             129   -0.19 9  162 218 
 SPBC HZ I         746 16.08         7.9 0.22            129            162 218 
 YPLC HZ EP        745 50.66                             126   -0.19 9  178 151 
 YPLC HN ES        746 14.10                             126   -0.03 9  178 151 
 YPLC HZ I         746 15.72         7.3 0.24            127            178 151 
 ZAR  HZ EP        745 52.45                             122   -0.76 9  202 292 
 ZAR  HE ES        746 18.21                             122   -0.11 9  202 292 
 NOR  HZ EP     D  745 56.77                             119    0.27 8  233 234 
 NOR  HN ES        746 24.42                             119    0.25 8  233 234 
 NOR  HZ I         746 29.41         3.2 0.32            119            233 234 
 CHI  HZ EP        745 58.57                             117   -0.02 8  248 195 
 CHI  HN ES        746 28.33                             117    0.42 8  248 195 
 CHI  HZ I         746 37.82         1.7 0.60            118            248 195 
 GUY2CHN ES   4    746 42.89                             112    4.70 0  299 235 
                                                                                
