 2013  4 3 0608 48.3 L   6.798 -73.152149.8  RSN 14 0.4 2.4LRSN                1
 GAP= 71        0.74       2.4     2.7  4.8 -0.2998E+00  0.2954E+01  0.6602E+00E
 Epicentro: LOS SANTOS - SANTANDER                                             3
 ACTION:UPD 13-05-22 14:35 OP:EP   STATUS:               ID:20130403060848 L   I
 2013-04-03-0607-35M.COL___212                                                 6
 STAT SP IPHASW D HRMM SECON CODA AMPLIT PERI AZIMU VELO AIN AR TRES W  DIS CAZ7
 BAR2 SZ EP        6 9  8.31                             171   -0.1110 23.0 188 
 BAR2 SZ ES   1    6 9 23.96                             171   -0.14 7 23.0 188 
 BAR2 SZ I         6 9 26.32        65.5 0.32            169           23.0 188 
 BRR  HZ IP     C  6 9 10.30                             153    0.4310 70.7 299 
 BRR  HE ES   2    6 9 27.16                             153    0.48 5 70.7 299 
 BRR  HZ I         6 9 34.62        25.1 0.56            151           70.7 299 
 PAM  SZ IP     C  6 9 11.21                             151    0.2210 78.0  40 
 PAM  SN ES   1    6 9 28.47                             151   -0.21 7 78.0  40 
 PAM  SZ I         6 9 30.42        18.3 0.24            158           78.0  40 
 RUS  HZ EP        6 9 12.17                             145   -0.2710  100 176 
 RUS  HN ES   1    6 9 31.05                             145   -0.22 7  100 176 
 RUS  HZ I         6 9 31.99        22.1 0.26            148            100 176 
 PTB  HZ EP   1    6 9 14.92                             133   -0.62 7  147 259 
 PTB  HN ES   1    6 9 36.45                             133   -0.34 7  147 259 
 PTB  HZ I         6 9 42.21        37.4 0.42            133            147 259 
 TAM  HZ EP        6 9 16.49                             131    0.13 9  156 105 
 TAM  HN ES   1    6 9 38.53                             131    0.29 7  156 105 
 OCA  HZ EP   1    6 9 17.16                             130    0.21 7  160 353 
 OCA  HN ES   1    6 9 39.71                             130    0.42 7  160 353 
 OCA  HZ I         6 9 45.76        17.6 0.50            134            160 353 
 ZAR  HZ EP   1    6 9 20.82                             123   -0.14 6  204 292 
 ZAR  HN ES   1    6 9 46.30                             123   -0.13 6  204 292 
 ZAR  HZ I         6 9 53.23        26.5 0.28            125            204 292 
 NOR  HZ EP        6 9 24.16                             119   -0.04 8  234 234 
 NOR  HN ES   1    6 9 52.26                             119    0.06 6  234 234 
 NOR  HZ I         6 9 56.60        26.0 0.20            121            234 234 
 SML  HZ EP        6 9 24.74                             118   -0.41 8  244 335 
 SML  HN ES   1    6 9 53.08                             118   -0.81 6  244 335 
 SML  HZ I         6 9 58.18        19.9 0.18            121            244 335 
 CHI  HZ EP   1    6 9 26.32                             118    0.13 6  248 195 
 CHI  HN ES   1    6 9 55.67                             118   -0.07 6  248 195 
 CHI  HZ I         610  3.58         9.7 0.52            121            248 195 
 ROSC BN ES   2    6 9 56.58                             117    0.13 4  252 211 
 ROSC BZ I         610  5.97        20.6 0.35            120            252 211 
 HEL  HZ EP   1    6 9 29.11                             116    0.46 6  271 256 
 HEL  HN ES   1    610  1.45                             116    1.33 6  271 256 
 HEL  HZ I         610  7.52        14.6 0.30            117            271 256 
 URE  HZ EP   4    6 9 28.37                             114   -1.14 0  283 292 
 URE  HN ES   4    610  3.77                             114    2.11 0  283 292 
 PRA  HZ EP   1    6 9 41.68                             107   -0.23 4  391 209 
 PRA  HN ES   1    610 23.43                             107   -0.28 4  391 209 
 PRA  HZ I         610 27.75        10.4 0.62            109            391 209 
 SJC  HZ EP   4    6 9 42.01                             106   -1.97 0  409 327 
 SJC  HN ES   4    610 23.51                             106   -3.90 0  409 327 
                                                                                
