 2015  6 3 0418 36.2 L   6.747 -73.152140.0  RSN 11 0.4 1.8LRSN                1
 GAP=233        0.87       3.5     4.2  5.1  0.1813E+01  0.9154E+01  0.3954E+01E
 Epicentro: LOS SANTOS - SANTANDER                                             3
 ACTION:UPD 15-09-10 22:09 OP:cam  STATUS:               ID:20150603041836 L   I
 OLDACT:DUP 15-06-03 15:45 OP:ak   STATUS:               ID:20150603040749d    3
 2015-06-03-0407-48M.COL___294                                                 6
 STAT SP IPHASW D HRMM SECON CODA AMPLIT PERI AZIMU VELO AIN AR TRES W  DIS CAZ7
 BAR2 EZ IP     D  418 54.80                             173   -0.1910 17.5 191 
 BAR2 EZ ES        419  9.77                             173    0.1010 17.5 191 
 BAR2 EZ I         419 11.24        21.2 0.14            166           17.5 191 
 BRR  HZ EP        418 56.66                             151   -0.1710 73.5 303 
 BRR  HN ES        419 13.46                             151    0.5210 73.5 303 
 BRR  HZ I         419 17.85         7.8 0.25            148           73.5 303 
 RUS  HZ EP        418 58.71                             144   -0.2210 94.8 175 
 RUS  HN ES        419 16.69                             144   -0.0010 94.8 175 
 RUS  HZ I         419 18.46         3.8 0.36            144           94.8 175 
 SPBC HZ EP        419  3.64                             129   -0.11 9  158 220 
 SPBC HN ES        419 25.03                             129   -0.24 9  158 220 
 SPBC HZ I         419 31.89        11.6 0.32            128            158 220 
 ZAR  HZ EP        419  7.65                             121   -0.76 8  206 294 
 ZAR  HN ES        419 33.29                             121   -0.26 8  206 294 
 ZAR  HZ I    4    419 38.32         5.3 0.10            121            206 294 
 NOR  HZ EP        419 11.19                             118    0.05 8  231 236 
 NOR  HN ES        419 38.27                             118   -0.15 8  231 236 
 NOR  HZ I         419 45.98         5.4 0.20            118            231 236 
 SML  HZ EP   4    419 11.37                             116   -1.65 0  249 336 
 SML  HN ES   4    419 39.21                             116   -2.56 0  249 336 
 SML  HZ I         419 43.79         7.5 0.09            118            249 336 
 HEL  HZ EP        419 16.60                             114    0.74 8  270 257 
 HEL  HZ IP        419 16.60                             114            270 257 
 HEL  HE ES        419 47.03                             114    0.21 8  270 257 
 HEL  HZ I         419 53.21         3.7 0.24            114            270 257 
 GUY2CHZ EP        419 19.80                             111    0.73 7  297 236 
 GUY2CHN ES        419 52.01                             111   -0.52 7  297 236 
 GUY2CHZ I         420  2.90         3.2 0.46                           297 236 
 TOL  SZ EP   1    419 24.13                             108    0.47 5  339 225 
 TOL  SN ES        420  0.79                             108    0.09 7  339 225 
 TOL  SZ I         420 11.54         2.8 0.36            109            339 225 
 PRA  HZ EP        419 29.69                             106    0.83 6  387 210 
 PRA  HN ES        420  9.82                             106   -0.13 6  387 210 
 PRA  HZ I         420 18.18         3.3 0.32            107            387 210 
                                                                                
