 2017 11 3 0729 18.6 L   6.690 -73.599106.4  RSN  5 0.4 0.9LRSN                1
 GAP=118        0.93       4.3     4.2  8.6  0.2685E+01  0.9580E+01  0.9603E+01E
 Epicentro: EL CARMEN - SANTANDER                                              3
 ACTION:UPD 17-12-12 19:51 OP:rebc STATUS:               ID:20171103072918 L   I
 OLDACT:UP  17-11-03 16:55 OP:dnl  STATUS:               ID:20171103072737     3
 OLDACT:REG 17-11-03 13:32 OP:dnl  STATUS:               ID:20171103072737     3
 2017-11-03-0728-00M.COL___435                                                 6
 STAT SP IPHASW D HRMM SECON CODA AMPLIT PERI AZIMU VELO AIN AR TRES W  DIS CAZ7
 BAR2 EZ EP        729 34.46                             154   -0.0410 47.3 103 
 BAR2 EZ ES        729 46.71                             154   -0.1910 47.3 103 
 BAR2 EZ I         729 47.76         3.2 0.18            158           47.3 103 
 BRR  HZ EP        729 34.32                             154    0.1410 47.8 345 
 BRR  HN ES        729 46.77                             154    0.4410 47.8 345 
 BRR  HZ I         729 49.30         2.1 0.48            156           47.8 345 
 PTB  HZ EP        729 37.50                             134   -0.2010 96.2 260 
 PTB  HN ES        729 52.01                             134   -0.5810 96.2 260 
 PTB  HZ I         729 54.77         1.2 0.46            137           96.2 260 
 RUS  HZ EP   2    729 39.18                             132    0.06 5  105 147 
 RUS  HN ES        729 54.85                             132   -0.2910  105 147 
 RUS  HZ I         729 56.14         2.2 0.20            136            105 147 
 SPBC HZ EP   2    729 40.80                             126    0.22 5  126 205 
 SPBC HN ES        729 58.43                             126    0.7010  126 205 
 SPBC HZ I         729 59.61         1.9 0.20            129            126 205 
                                                                                
