 2016  7 3 0534 11.8 L   6.636 -73.150150.0  RSN  4 0.3 1.2LRSN                1
 GAP=266        0.71       8.1     5.3  5.7  0.1522E+02  0.7286E+01 -0.9426E-01E
 Epicentro: VILLANUEVA - SANTANDER                                             3
 ACTION:UPD 17-03-29 16:46 OP:lp   STATUS:               ID:20160703053411 L   I
 OLDACT:REG 16-07-03 12:57 OP:edw  STATUS:               ID:20160703052742     3
 2016-07-03-0527-42M.COL___325                                                 6
 STAT SP IPHASW D HRMM SECON CODA AMPLIT PERI AZIMU VELO AIN AR TRES W  DIS CAZ7
 BAR2 EZ EP        534 31.71                             178   -0.0410 5.99 216 
 BAR2 EZ ES        534 47.01                             178   -0.2710 5.99 216 
 BAR2 EZ I         534 48.78         2.7 0.38            172           5.99 216 
 BRR  HZ IP        534 33.97                             150   -0.0310 81.1 310 
 BRR  HN ES        534 51.74                             150    0.4410 81.1 310 
 BRR  HZ I         534 56.04         2.4 0.40            148           81.1 310 
 PTB  HZ EP        534 39.02                             134    0.14 9  145 266 
 PTB  HN ES        535  0.07                             134    0.09 9  145 266 
 PTB  HZ I         535  5.14         1.5 0.42            133            145 266 
 ZAR  HZ EP        534 45.40                             122    0.13 8  211 297 
 ZAR  HN ES        535 10.80                             122   -0.56 8  211 297 
 ZAR  HZ I         535 16.01         2.4 0.34            123            211 297 
                                                                                
