 2012  7 3 0948 49.9 L   6.734 -73.420113.9  RSN  6 0.2 2.3LRSN                1
 GAP=159        0.56       4.0     3.7  4.4  0.9342E+01  0.7159E+01  0.5640E+01E
 Epicentro: EL CARMEN DE CHUCURI - SANTANDER                                   3
 ACTION:UPD 12-08-14 11:42 OP:ep   STATUS:               ID:20120703094849 L   I
 2012-07-03-0940-00M.COL___200                                                 6
 STAT SP IPHASW D HRMM SECON CODA AMPLIT PERI AZIMU VELO AIN AR TRES W  DIS CAZ7
 BAR2 SZ EP        949  5.98                             164     0.010   31 121 
 BAR2 SZ I         949  6.24       167.0 0.12            168             31 121 
 BAR2 SZ ES        949 18.36                             164    -0.110   31 121 
 BRR  HZ EP        949  6.45                             153    -0.110   52 322 
 BRR  HE ES        949 19.77                             153     0.210   52 322 
 BRR  HZ I         949 21.23        55.2 0.15            151             52 322 
 RUS  HZ EP        949 10.71                             136     0.010  100 158 
 RUS  HN ES   1    949 26.95                             136     0.1 7  100 158 
 PTB  HZ EP   1    949 11.17                             131    -0.3 7  117 259 
 PTB  HZ I         949 13.53        18.5 0.30            129            117 259 
 PTB  HN ES   1    949 28.09                             131    -0.2 7  117 259 
 ZAR  HZ EP   1    949 17.68                             118    -0.2 7  180 298 
 ZAR  HE ES   1    949 39.61                             118     0.0 7  180 298 
 ZAR  HZ I         949 43.76        18.3 0.15            117            180 298 
 HEL  HZ EP   1    949 25.76                             110     0.6 6  241 256 
