 2010  7 3 0850 20.5 L   6.300 -73.083184.9  RSN 13 0.6 2.4LRSN                1
 GAP=169        1.07       4.2     7.0  7.9 -0.7919E+01  0.6083E+01  0.3592E+01E
 Epicentro: COROMORO - SANTANDER                                               3
 ACTION:UPD 10-12-01 15:14 OP:pat  STATUS:               ID:20100703085028 L   I
 2010-07-03-0848-44S.COL___118                                                 6
 STAT SP IPHASW D HRMM SECON CODA AMPLIT PERI AZIMU VELO AIN AR TRES W  DIS CAZ7
 BAR2 SZ IP        850 44.73                             169    -0.310   34 341 
 BAR2 SZ ES   2    851  3.39                             169    -0.8 5   34 341 
 RUS  HZ EP        850 45.67                             166    -0.110   45 180 
 RUS  HZ I         850 46.04        57.6 0.21                            45 180 
 RUS  HN ES   2    851  4.88                             166    -0.5 5   45 180 
 BRR  HZ IP     D  850 48.67                             147     0.310  113 322 
 BRR  HE ES        851 10.67                             147     0.610  113 322 
 BRR  HZ I         851 14.37        21.0 0.17                           113 322 
 BRI  SZ EP        850 52.39                             137     0.3 9  160  11 
 BRI  SZ ES   2    851 16.79                             137     0.0 5  160  11 
 GRA  SZ EP        850 53.67                             134     0.0 9  178  10 
 GRA  SZ ES   2    851 19.22                             134    -0.2 4  178  10 
 CHI  HZ EP        850 56.00                             131     0.2 9  198 201 
 CHI  HE ES   1    851 22.89                             131    -0.4 6  198 201 
 CHI  HZ I         851 25.47        18.4 0.56                           198 201 
 ROSC BZ EP   1    850 58.19                             129     1.2 6  212 220 
 ROSC BN ES   2    851 26.42                             129     0.9 4  212 220 
 ROSC BZ I         851 33.17        23.5 0.45                           212 220 
 OCA  SZ EP   1    850 57.45                             128     0.3 6  216 353 
 OCA  SZ ES   2    851 24.71                             128    -0.9 4  216 353 
 OCA  SZ I         851 31.90        10.7 0.35                           216 353 
 HEL  HZ EP   1    851  3.57                             122     0.7 6  271 268 
 HEL  HN ES   2    851 35.47                             122    -0.4 4  271 268 
 HEL  HZ I         851 46.78        13.8 0.39                           271 268 
 RREF HZ EP        851  4.91                             120    -0.8 7  295 238 
 RREF HE ES   2    851 40.82                             120    -0.1 4  295 238 
 PRA  HZ EP   1    851 10.52                             115    -0.3 5  349 215 
 PRA  HE ES   2    851 48.97                             115    -1.1 3  349 215 
 PRA  HZ I         851 51.80        20.4 0.33                           349 215 
 DBB  SZ EP   2    851 11.48                             115     0.0 3  355 283 
 DBB  SZ ES   2    851 51.85                             115     0.6 3  355 283 
 MON  HZ EP        851 15.05                             112    -0.9 6  395 314 
 MON  HE ES   1    851 58.11                             112    -1.0 4  395 314 
 MON  HZ I         852  6.36         3.2 0.54                           395 314 
                                                                                
