 2017  9 3 0842 60.0 L   6.839 -73.135147.1  RSN 10 0.3 1.7LRSN                1
 GAP=155        0.79       2.8     3.9  4.3  0.3840E+01 -0.1352E-02 -0.2865E-01E
 Epicentro: LOS SANTOS - SANTANDER                                             3
 ACTION:UPD 17-10-05 19:08 OP:rebc STATUS:               ID:20170903084260 L   I
 OLDACT:UP  17-09-03 17:25 OP:dani STATUS:               ID:20170903083744     3
 OLDACT:REG 17-09-03 13:33 OP:dani STATUS:               ID:20170903083744     3
 2017-09-03-0838-00M.COL___393                                                 6
 STAT SP IPHASW D HRMM SECON CODA AMPLIT PERI AZIMU VELO AIN AR TRES W  DIS CAZ7
 BAR2 EZ EP        843 19.60                             169   -0.2410 27.8 191 
 BAR2 EZ ES        843 35.08                             169   -0.2710 27.8 191 
 BAR2 EZ I         843 35.84        11.4 0.58            165           27.8 191 
 BRR  HZ EP     D  843 21.30                             153    0.1010 70.4 295 
 BRR  HN ES        843 38.46                             153    0.6910 70.4 295 
 BRR  HZ I         843 42.27        13.0 0.42            149           70.4 295 
 RUS  HZ EP        843 23.69                             143   -0.4510  105 177 
 RUS  HN ES        843 42.74                             143   -0.2610  105 177 
 RUS  HZ I         843 43.34         3.4 0.20            143            105 177 
 SPBC HZ EP        843 28.80                             129   -0.14 9  167 218 
 SPBC HN ES        843 51.55                             129   -0.00 9  167 218 
 SPBC HZ I         843 57.76         6.2 0.16            127            167 218 
 YPLC HZ EP        843 30.12                             126   -0.04 9  180 152 
 YPLC HN ES        843 54.17                             126    0.45 9  180 152 
 YPLC HZ I         843 56.71         5.1 0.35            128            180 152 
 ZAR  HZ EP        843 32.18                             123   -0.26 9  204 291 
 ZAR  HN ES        843 57.50                             123   -0.28 9  204 291 
 ZAR  HZ I         844  5.51         5.1 0.32            122            204 291 
 CHI  HZ EP        843 38.23                             117    0.02 8  253 195 
 CHI  HN ES        844  8.60                             117    0.55 8  253 195 
 CHI  HZ I         844  9.67         3.8 0.36            117            253 195 
 ROSC BZ EP   9    843 40.25                             117    1.63 0  257 211 
 ROSC BN ES        844 10.56                                    0.16 8  257 211 
 LL6C HZ EP        843 45.63                             111    0.40 7  321 357 
 PRA  HZ EP        843 54.06                             107    0.03 6  396 209 
 PRA  HN ES        844 36.38                             107    0.18 6  396 209 
 PRA  HZ I         844 43.33         2.0 0.53            107            396 209 
                                                                                
