 2014  2 3 0001 18.3 L   6.018 -74.118 86.1  RSN  7 0.5 1.4LRSN                1
 GAP= 73        1.23       3.8     3.1 11.8 -0.1089E+01  0.2095E+01  0.1800E+02E
 Epicentro: LA BELLEZA - SANTANDER                                             3
 ACTION:UPD 14-03-10 08:07 OP:ep   STATUS:               ID:20140203000118 L   I
 OLDACT:REG 14-02-03 07:32 OP:nd   STATUS:               ID:20140203000000     3
 2014-02-03-0000-00M.COL___288                                                 6
 STAT SP IPHASW D HRMM SECON CODA AMPLIT PERI AZIMU VELO AIN AR TRES W  DIS CAZ7
 PTB  HZ EP        0 1 32.67                             138   -0.5910 68.7 327 
 PTB  HN ES        0 1 44.62                             138   -0.3110 68.7 327 
 PTB  HZ I         0 1 45.61         8.0 0.08            142           68.7 327 
 RUS  HZ EP        0 1 38.10                             123   -0.2210  115  97 
 RUS  HN ES        0 1 53.66                             123   -0.2810  115  97 
 RUS  HZ I         0 1 54.28         2.2 0.24            126            115  97 
 BAR2 SZ EP        0 1 38.16                             121   -0.4610  121  58 
 BAR2 SZ ES        0 1 54.60                             121    0.1310  121  58 
 BAR2 SZ I         0 1 59.08        11.8 0.16            124            121  58 
 BRR  HZ EP        0 1 39.03                             119   -0.0410  129  20 
 BRR  HN ES        0 1 56.18                             119    0.9110  129  20 
 BRR  HZ I         0 1 57.37         9.7 0.36            123            129  20 
 HEL  HZ EP        0 1 42.94                             114    0.21 9  157 277 
 HEL  HN ES        0 2  2.42                             114    0.64 9  157 277 
 HEL  HZ I         0 2  6.11         4.4 0.28            117            157 277 
 CHI  HZ EP        0 1 42.86                             114   -0.16 9  159 164 
 CHI  HN ES        0 2  3.18                             114    0.88 9  159 164 
 CHI  HZ I         0 2  6.70         1.7 0.40            116            159 164 
 GUY2CHZ EP        0 1 43.66                             113    0.08 9  164 238 
 GUY2CHN ES        0 2  2.72                             113   -0.58 9  164 238 
 GUY2CHZ I         0 2  6.88         3.7 0.48                           164 238 
                                                                                
