 2017  1 3 0128  7.5 L   6.037 -74.188 24.8  RSN  6 0.4 1.0LRSN                1
 GAP=122        1.00       3.1     2.6  4.9  0.1520E+01 -0.5175E+00  0.9044E+01E
 Epicentro: LA BELLEZA - SANTANDER                                             3
 ACTION:UPD 17-05-22 15:54 OP:jn   STATUS:               ID:20170103012807 L   I
 OLDACT:REG 17-01-03 12:26 OP:lv   STATUS:               ID:20170103011747     3
 2017-01-03-0118-00M.COL___381                                                 6
 STAT SP IPHASW D HRMM SECON CODA AMPLIT PERI AZIMU VELO AIN AR TRES W  DIS CAZ7
 PTB  HZ EP        128 17.84                             109   -0.3210 63.0 332 
 PTB  HN ES        128 26.52                             109    0.0110 63.0 332 
 RUS  HZ EP        128 26.79                              56   -0.1610  123  97 
 RUS  HE ES        128 41.63                              56   -0.5310  123  97 
 RUS  HZ I         128 42.33         2.4 0.35             47            123  97 
 GUY2CHZ EP        128 31.75                              56    0.45 9  158 235 
 GUY2CHN ES        128 49.24                              56   -0.66 9  158 235 
 GUY2CHZ I         128 51.61         3.8 0.28                           158 235 
 CHI  HZ EP        128 32.27                              56    0.38 9  164 162 
 CHI  HN ES        128 51.43                              56    0.48 9  164 162 
 CHI  HZ I         128 57.98         2.0 0.46             47            164 162 
 ZAR  HZ EP        128 33.31                              56    0.22 9  177 335 
 ZAR  HE ES        128 53.55                              56    0.47 9  177 335 
 ZAR  HZ I         128 59.97         1.8 0.21             47            177 335 
 CBOC HZ EP        128 36.78                              56    0.28 9  203 265 
 CBOC HN ES        128 58.70                              56   -0.45 9  203 265 
 CBOC HZ I         129  3.17         0.9 0.35             37            203 265 
                                                                                
