 2017  8 3 0343 25.1 L   6.767 -73.143136.8  RSN 11 0.3 1.5LRSN                1
 GAP=138        0.74       2.8     3.5  4.3  0.6218E+00  0.3945E+00  0.1903E+01E
 Epicentro: LOS SANTOS - SANTANDER                                             3
 ACTION:UPD 17-09-04 20:15 OP:rebc STATUS:               ID:20170803034325 L   I
 OLDACT:UP  17-08-03 17:52 OP:edw  STATUS:               ID:20170803033742d    3
 OLDACT:UP  17-08-03 17:51 OP:edw  STATUS:               ID:20170803033742d    3
 OLDACT:UP  17-08-03 17:50 OP:edw  STATUS:               ID:20170803033742d    3
 OLDACT:DUP 17-08-03 17:44 OP:edw  STATUS:               ID:20170803033742d    3
 2017-08-03-0338-00M.COL___398                                                 6
 STAT SP IPHASW D HRMM SECON CODA AMPLIT PERI AZIMU VELO AIN AR TRES W  DIS CAZ7
 BAR2 EZ EP        343 43.76                             171    0.1810 19.8 193 
 BAR2 EZ ES        343 57.83                             171   -0.1610 19.8 193 
 BAR2 EZ I         343 59.41        10.4 0.26            167           19.8 193 
 BRR  HZ EP        343 45.40                             150   -0.0110 73.3 301 
 BRR  HN ES        344  1.67                             150    0.4210 73.3 301 
 PAM  EZ EP        343 46.06                             148   -0.4810 80.1  38 
 PAM  EN ES   4    344  1.41                             148   -1.85 0 80.1  38 
 PAM  EZ I         344  5.53         3.7 0.54            152           80.1  38 
 RUS  HZ EP        343 47.88                             143    0.1810 96.9 176 
 RUS  HN ES        344  5.42                             143    0.0910 96.9 176 
 RUS  HZ I         344  6.64         6.3 0.42            141           96.9 176 
 PTB  HZ EP   9    343 50.73                             130   -0.58 0  147 260 
 PTB  HN ES        344 10.55                             129   -0.63 9  147 260 
 PTB  HZ I         344 13.83         2.7 0.12            130            147 260 
 SPBC HZ EP        343 52.54                             127   -0.12 9  161 220 
 SPBC HN ES        344 13.89                             127   -0.27 9  161 220 
 SPBC HZ I         344 22.48         4.5 0.24            127            161 220 
 ZAR  HN ES        344 22.15                             120    0.00 8  206 293 
 NOR  HN ES   1    344 27.04                             117   -0.39 6  233 235 
 CHI  HZ EP        344  1.75                             115   -0.18 8  245 195 
 CHI  HN ES        344 30.86                             115    0.20 8  245 195 
 CHI  HZ I         344 36.84         2.0 0.30            115            245 195 
 GUY2CHZ EP        344  8.54                             111    0.45 7  299 235 
 GUY2CHN ES   4    344 43.61                             111    1.99 0  299 235 
 GUY2CHZ I         344 50.09         1.5 0.58                           299 235 
 PRA  HZ EP   2    344 17.99                             105    0.03 3  389 210 
 PRA  HN ES   4    345  1.41                             105    2.22 0  389 210 
 PRA  HZ I         345  6.08         1.7 0.24            105            389 210 
                                                                                
