 2012  8 3 0936 33.1 L   6.754 -73.170153.8  RSN  5 0.3 1.2LRSN                1
 GAP=231        0.63       6.7     6.0  6.7  0.2490E+02  0.4514E+01 -0.6125E+00E
 Epicentro: VILLANUEVA - SANTANDER                                             3
 ACTION:UPD 12-09-10 11:54 OP:ep   STATUS:               ID:20120803093633 L   I
 2012-08-03-0930-00M.COL___215                                                 6
 STAT SP IPHASW D HRMM SECON CODA AMPLIT PERI AZIMU VELO AIN AR TRES W  DIS CAZ7
 BAR2 SZ EP   1    936 53.38                             173   -0.22 7 18.0 184 
 BAR2 SZ ES   1    937  9.41                             173   -0.18 7 18.0 184 
 BAR2 SZ I         937  9.90         4.9 0.18                          18.0 184 
 BRR  HZ EP   1    936 55.22                             154    0.09 7 71.5 303 
 BRR  HZ I         936 55.46         3.8 0.15                          71.5 303 
 BRR  HN ES   1    937 12.25                             154   -0.07 7 71.5 303 
 RUS  HZ EP   1    936 57.35                             147    0.03 7 95.8 174 
 RUS  HZ I         936 58.08         1.3 0.14                          95.8 174 
 RUS  HE ES   1    937 16.65                             147    0.44 7 95.8 174 
 PTB  HZ EP   1    937  0.20                             134   -0.22 7  144 261 
 PTB  HN ES   1    937 21.31                             134   -0.42 7  144 261 
 PTB  HZ I         937 26.59         1.9 0.40                           144 261 
 ZAR  HN ES   1    937 32.36                             124    0.65 6  204 294 
                                                                                
