 2014 10 3 0511 38.2 L   6.807 -73.172137.5  RSN  9 0.5 1.4LRSN                1
 GAP=199        1.22       4.5     6.0  6.8  0.6781E+01  0.8007E+01  0.1443E+01E
 Epicentro: LOS SANTOS - SANTANDER                                             3
 ACTION:UPD 14-11-29 23:46 OP:nd   STATUS:               ID:20141003051138 L   I
 OLDACT:UP  14-10-03 16:02 OP:stll STATUS:               ID:20141003050748     3
 OLDACT:REG 14-10-03 11:43 OP:stll STATUS:               ID:20141003050748     3
 2014-10-03-0507-48M.COL___277                                                 6
 STAT SP IPHASW D HRMM SECON CODA AMPLIT PERI AZIMU VELO AIN AR TRES W  DIS CAZ7
 BAR2 SZ EP        511 56.76                             170   -0.0910 23.8 183 
 BAR2 SZ ES        512 11.64                             170    0.2510 23.8 183 
 BAR2 SZ I         512 13.86         6.9 0.18            165           23.8 183 
 BRR  HZ EP        511 58.88                             152    0.5810 68.3 299 
 BRR  HN ES        512 14.45                             152    0.4810 68.3 299 
 RUS  HZ EP        512  1.46                             142    0.2310  102 174 
 RUS  HZ I         512  2.25         1.8 0.12            141            102 174 
 RUS  HN ES        512 18.74                             142   -0.4510  102 174 
 PTB  HZ EP        512  3.92                             131   -0.34 9  145 258 
 PTB  HN ES        512 24.48                             131   -0.10 9  145 258 
 PTB  HZ I         512 27.90         3.7 0.16            129            145 258 
 SPBC HZ EP        512  6.04                             127    0.07 9  162 218 
 SPBC HN ES        512 26.83                             127   -0.79 9  162 218 
 SPBC HZ I         512 36.47         3.0 0.26            126            162 218 
 ZAR  HZ EP        512 10.55                             121    0.73 9  201 292 
 ZAR  HN ES        512 33.76                             121   -0.71 9  201 292 
 ZAR  HZ I         512 42.68         3.0 0.10            121            201 292 
 SML  HZ EP        512 13.11                             116   -1.06 8  242 336 
 CHI  HZ EP        512 15.68                             115    0.22 8  249 194 
 CHI  HN ES        512 44.41                             115   -0.11 8  249 194 
 CHI  HZ I         512 52.33         1.7 0.70            115            249 194 
 GUY2CHZ EP        512 21.58                             111    0.35 7  299 234 
 GUY2CHE ES        512 55.55                             111    0.77 7  299 234 
 GUY2CHZ I         513  4.63         1.4 0.34                           299 234 
                                                                                
