 2015  5 3 0749 39.7 L   6.797 -73.112136.8  RSN  5 0.4 1.1LRSN                1
 GAP=141        0.92       4.6     5.6  7.4  0.3276E+01  0.2895E+01  0.2173E+00E
 Epicentro: LOS SANTOS - SANTANDER                                             3
 ACTION:UPD 15-09-10 22:01 OP:cam  STATUS:               ID:20150503074939 L   I
 OLDACT:UP  15-05-07 06:55 OP:AK   STATUS:               ID:20150503074939 L   3
 OLDACT:REG 15-05-03 13:59 OP:stll STATUS:               ID:20150503074749     3
 2015-05-03-0747-49M.COL___273                                                 6
 STAT SP IPHASW D HRMM SECON CODA AMPLIT PERI AZIMU VELO AIN AR TRES W  DIS CAZ7
 BAR2 EZ EP        749 58.35                             170    0.0310 24.0 199 
 BAR2 EZ ES        750 12.43                             170   -0.3710 24.0 199 
 BAR2 EZ I         750 16.01         3.0 0.24            168           24.0 199 
 BRR  HZ EP        750  0.03                             150   -0.1110 74.6 297 
 BRR  HN ES        750 16.65                             150    0.6010 74.6 297 
 BRR  HZ I         750 21.27         2.9 0.22            148           74.6 297 
 PAM  SZ EP        750  1.31                             150    0.4210 75.3  37 
 PAM  SZ I         750  1.43         3.5 0.14            154           75.3  37 
 PAM  SN ES        750 17.08                             150   -0.3010 75.3  37 
 RUS  HZ EP        750  2.41                             142   -0.1810  100 178 
 RUS  HN ES        750 20.62                             142    0.2010  100 178 
 RUS  HZ I         750 22.50         1.3 0.44            144            100 178 
 ZAR  HN ES   1    750 36.44                             120   -0.72 6  208 292 
 ZAR  HZ I         750 41.39         1.9 0.34            121            208 292 
                                                                                
