 2014  1 3 0435 52.9 L   6.809 -73.151148.8  RSN 10 0.4 1.7LRSN                1
 GAP= 70        1.13       3.5     3.8  5.9 -0.1040E+01 -0.4828E-01 -0.3015E+00E
 Epicentro: LOS SANTOS - SANTANDER                                             3
 ACTION:UPD 14-03-13 09:50 OP:ep   STATUS:               ID:20140103043552 L   I
 OLDACT:REG 14-01-03 09:06 OP:stll STATUS:               ID:20140103042809     3
 2014-01-03-0428-09M.COL___246                                                 6
 STAT SP IPHASW D HRMM SECON CODA AMPLIT PERI AZIMU VELO AIN AR TRES W  DIS CAZ7
 BAR2 SZ EP        436 12.94                             170    0.0210 24.2 188 
 BAR2 SZ ES        436 28.02                             170   -0.5110 24.2 188 
 BAR2 SZ I         436 30.89        14.2 0.44            169           24.2 188 
 BRR  HZ EP        436 15.14                             153    0.8110 70.2 298 
 BRR  HN ES        436 31.36                             153    0.3210 70.2 298 
 BRR  HZ I         436 34.50         5.2 0.20            152           70.2 298 
 PAM  SZ EP        436 16.03                             151    0.6010 77.0  40 
 PAM  SZ I         436 16.08         6.3 0.22            155           77.0  40 
 PAM  SN ES        436 33.25                             151    0.2610 77.0  40 
 RUS  HZ EP        436 16.64                             144   -0.4010  102 176 
 RUS  HN ES        436 35.41                             144   -0.4410  102 176 
 RUS  HZ I         436 38.43         4.0 0.32            145            102 176 
 PTB  HZ EP        436 19.38                             133   -0.71 9  147 258 
 PTB  HN ES        436 41.02                             133   -0.27 9  147 258 
 PTB  HZ I         436 48.32         8.0 0.48            132            147 258 
 TAM  HZ EP        436 20.67                             131   -0.24 9  156 105 
 TAM  HZ I         436 21.28         4.0 0.34            134            156 105 
 TAM  HN ES        436 42.99                             131    0.24 9  156 105 
 SPBC HZ EP        436 22.03                             130    0.35 9  164 219 
 SPBC HN ES        436 44.63                             130    0.51 9  164 219 
 SPBC HZ I         436 49.82         8.5 0.12            130            164 219 
 SML  HZ EP        436 29.68                             118    0.10 8  243 335 
 SML  HN ES        436 57.53                             118   -0.65 8  243 335 
 SML  HZ I         437  0.92         6.8 0.10            119            243 335 
 CHI  HZ EP        436 31.11                             118    0.24 8  249 195 
 CHI  HZ I         436 33.12         1.8 0.14            119            249 195 
 CHI  HN ES        437  0.45                             118   -0.02 8  249 195 
 SOCV BZ EP        436 35.48                             113   -0.61 7  301  57 
                                                                                
