 2013  3 3 0724 37.8 L   6.818 -73.148144.2  RSN  5 0.5 1.8LRSN                1
 GAP=135        1.18       7.0     6.6 11.2  0.1998E+01  0.1538E+02  0.2213E+02E
 Epicentro: LOS SANTOS - SANTANDER                                             3
 ACTION:UPD 13-04-09 13:59 OP:ep   STATUS:               ID:20130303072437 L   I
 2013-03-03-0718-50M.COL___196                                                 6
 STAT SP IPHASW D HRMM SECON CODA AMPLIT PERI AZIMU VELO AIN AR TRES W  DIS CAZ7
 BAR2 SZ EP        724 57.48                             170    0.1710 25.3 189 
 BAR2 SZ I         724 57.81        13.1 0.32            169           25.3 189 
 BRR  HZ EP        724 59.08                             153    0.3410 70.0 297 
 BRR  HN ES        725 15.80                             153    0.7410 70.0 297 
 BRR  HE I         725 16.43        30.0 0.18            153           70.0 297 
 PAM  SN ES        725 16.33                             151   -0.6010 76.0  41 
 RUS  HZ EP        725  1.77                             143    0.2010  103 176 
 RUS  HN ES        725 20.11                             143    0.0210  103 176 
 RUS  HN I         725 21.22         3.8 0.24            144            103 176 
 PTB  HZ EP        725  4.40                             132   -0.28 9  148 258 
 PTB  HN ES        725 24.91                             132   -0.72 9  148 258 
 PTB  HN I         725 26.60        11.0 0.26            132            148 258 
                                                                                
