 2013  8 3 0225 31.3 L   6.842 -73.123145.5  RSN 18 0.5 2.5LRSN                1
 GAP=183        1.00       2.6     4.4  4.8 -0.1053E+01  0.3780E+01  0.6151E+00E
 Epicentro: LOS SANTOS - SANTANDER                                             3
 ACTION:UPD 14-01-14 08:58 OP:ep   STATUS:               ID:20130803022531 L   I
 OLDACT:REG 13-08-03 07:37 OP:carl STATUS:               ID:20130803021959     3
 2013-08-03-0219-59M.COL___270                                                 6
 STAT SP IPHASW D HRMM SECON CODA AMPLIT PERI AZIMU VELO AIN AR TRES W  DIS CAZ7
 GIR2 SZ EP        225 51.37                             169    0.5210 27.3 343 
 GIR2 SZ ES   1    226  5.87                             169   -0.21 7 27.3 343 
 GIR2 SZ I         226  8.38        88.9 0.32            165           27.3 343 
 BAR2 SZ EP        225 51.33                             168    0.3110 28.4 193 
 BAR2 SZ ES        226  5.90                             168   -0.4910 28.4 193 
 BAR2 SZ I         226  7.34        95.4 0.26            166           28.4 193 
 BRR  HZ EP        225 53.11                             152    0.6710 71.4 294 
 BRR  HN ES        226  9.00                             152    0.0810 71.4 294 
 BRR  HZ I         226 14.02        68.0 0.42            147           71.4 294 
 RUS  HZ EP        225 55.38                             142    0.0110  105 178 
 RUS  HN ES   1    226 14.41                             142    0.28 7  105 178 
 RUS  HN I         226 15.83        41.7 0.52            144            105 178 
 PTB  HZ EP        225 57.83                             131   -0.74 9  151 257 
 PTB  HN ES   1    226 19.07                             131   -0.76 7  151 257 
 PTB  HZ I         226 25.00        27.9 0.28            129            151 257 
 OCA  HZ EP   1    225 59.39                             130    0.20 7  156 352 
 OCA  HN ES        226 21.24                             130    0.30 9  156 352 
 OCA  HZ I         226 26.68        24.6 0.26            131            156 352 
 SPBC HZ EP        226  0.34                             128    0.05 9  168 219 
 SPBC HN ES   1    226 22.27                             128   -0.62 7  168 219 
 SPBC HZ I         226 30.31        30.5 0.42            128            168 219 
 ZAR  HZ EP        226  4.07                             122    0.27 9  205 291 
 ZAR  HE ES        226 28.93                             122   -0.22 9  205 291 
 ZAR  HZ I         226 36.09        26.9 0.16            121            205 291 
 NOR  HZ EP        226  7.21                             118   -0.33 8  239 234 
 NOR  HN ES   1    226 36.31                             118    0.51 6  239 234 
 NOR  HZ I         226 43.95        19.2 0.22            118            239 234 
 SML  HZ EP        226  7.38                             118   -0.20 8  241 334 
 SML  HN ES   1    226 35.93                             118    0.06 6  241 334 
 SML  HZ I         226 39.62        40.6 0.28            118            241 334 
 CHI  HZ EP        226  9.51                             116   -0.05 8  254 195 
 CHI  HN ES   1    226 39.16                             116   -0.23 6  254 195 
 CHI  HZ I         226 42.48        22.7 0.46            117            254 195 
 ROSC BN ES   4    226 41.75                             116    1.58 0  258 211 
 HEL  HZ EP        226 13.05                             114    1.14 7  276 255 
 HEL  HN ES        226 43.92                             114    0.34 7  276 255 
 HEL  HZ I         226 49.59        12.8 0.34            114            276 255 
 GUY2CHZ EP   4    226 16.43                             112    0.98 0  306 234 
 GUY2CHN ES   4    226 52.67                             112    2.80 0  306 234 
 GUY2CHZ I         226 58.86         9.9 0.34                           306 234 
 VIL  SN ES   2    226 48.71                             111   -0.89 4  308 192 
 RREF HZ EP   4    226 19.92                             110    1.91 0  327 229 
 RREF HN ES   4    226 57.07                             110    2.64 0  327 229 
 RREF HZ I         227  0.37        19.3 0.26            111            327 229 
 COD  HZ EP        226 18.51                             109   -0.66 7  344 354 
 COD  HE ES        226 55.46                             109   -1.03 7  344 354 
 COD  HZ I         227  7.82         5.2 0.38            110            344 354 
 PRA  HZ EP        226 25.24                             106   -0.21 6  397 210 
 PRA  HN ES   1    227  7.39                             106   -0.28 4  397 210 
 PRA  HZ I         227 12.51        14.6 0.30            107            397 210 
 ORTC HZ EP   1    226 25.78                             106   -0.06 4  401 216 
 ORTC HN ES   1    227  8.79                             106    0.42 4  401 216 
 ORTC HN I         227 13.86        29.1 0.28            107            401 216 
                                                                                
