 2017  3 3 0159  0.0 L   6.782 -73.131146.9  RSN 14 0.5 2.0LRSN                1
 GAP= 98        1.11       3.8     3.6  5.5 -0.1159E+01  0.2179E+01  0.3776E+01E
 Epicentro: LOS SANTOS - SANTANDER                                             3
 ACTION:UPD 17-05-25 18:35 OP:jn   STATUS:               ID:20170303015900 L   I
 OLDACT:UP  17-03-03 15:21 OP:ar   STATUS:               ID:20170303014747     3
 OLDACT:UP  17-03-03 15:03 OP:ar   STATUS:               ID:20170303014747     3
 OLDACT:UP  17-03-03 15:03 OP:ar   STATUS:               ID:20170303014747     3
 OLDACT:UP  17-03-03 15:01 OP:ar   STATUS:               ID:20170303014747     3
 OLDACT:REG 17-03-03 12:16 OP:ar   STATUS:               ID:20170303014747     3
 2017-03-03-0148-00M.COL___397                                                 6
 STAT SP IPHASW D HRMM SECON CODA AMPLIT PERI AZIMU VELO AIN AR TRES W  DIS CAZ7
 BAR2 EZ EP        159 19.64                             171   -0.1210 21.7 195 
 BAR2 EZ ES        159 34.75                             171   -0.4110 21.7 195 
 BAR2 EZ I         159 37.34        28.7 0.32            164           21.7 195 
 BRR  HZ EP     C  159 21.50                             152    0.0610 73.6 299 
 BRR  HN ES        159 38.84                             152    0.7010 73.6 299 
 BRR  HZ I         159 48.30        18.4 0.48            158           73.6 299 
 PAM  EZ EP        159 22.46                             151    0.0710 77.9  38 
 PAM  EN ES        159 39.72                             151   -0.1210 77.9  38 
 PAM  EZ I         159 41.07        13.2 0.20            154           77.9  38 
 RUS  HZ EP        159 23.55                             145   -0.1910 98.5 177 
 RUS  HN ES        159 42.55                             145    0.3110 98.5 177 
 RUS  HZ I         159 43.15        11.2 0.24            141           98.5 177 
 PTB  HZ EP        159 26.50                             132   -0.70 9  149 260 
 PTB  HN ES        159 47.76                             132   -0.64 9  149 260 
 PTB  HZ I         159 50.41        13.6 0.14            134            149 260 
 TAM  HZ IP     D  159 27.80                             131    0.20 9  153 104 
 SPBC HZ EP        159 28.63                             129    0.06 9  163 220 
 SPBC HN ES        159 51.05                             129    0.22 9  163 220 
 SPBC HZ I         159 53.43        17.6 0.26            129            163 220 
 ZAR  HZ EP        159 33.17                             122    0.39 8  206 292 
 ZAR  HN ES        159 58.13                             122   -0.20 8  206 292 
 ZAR  HZ I         2 0  3.70        14.5 0.38            126            206 292 
 NOR  HZ EP        159 36.40                             119    0.56 8  235 235 
 NOR  HN ES        2 0  4.27                             119    0.49 8  235 235 
 NOR  HZ I         2 0  7.40         8.0 0.17            119            235 235 
 CHI  HZ EP        159 37.86                             117    0.23 8  247 196 
 CHI  HN ES        2 0  7.12                             117    0.17 8  247 196 
 CHI  HZ I         2 0 11.14         2.6 0.48            117            247 196 
 ROSC BZ EP   9    159 40.57                             117    2.45 0  252 212 
 ROSC BN ES        2 0 10.25                             116   -0.03 8  252 212 
 ROSC BZ I         2 0 15.37         8.9 0.40            117            252 212 
 URE  HZ EP   4    159 44.02                             114    2.61 0  286 292 
 URE  HE ES   4    2 0 10.58                             114   -3.11 0  286 292 
 URE  HZ I         2 0 14.60         8.6 0.14            116            286 292 
 PTGC HZ EP        159 42.55                             112   -1.10 7  306 159 
 PTGC HN ES   4    2 0 15.74                             112   -1.94 0  306 159 
 PTGC HZ I         2 1  4.07        12.6 0.42            112            306 159 
 CBOC HZ EP        159 48.05                             110    0.95 7  335 253 
 CBOC HN ES        2 0 22.73                             110   -1.09 7  335 253 
 CBOC HZ I         2 0 27.66         1.9 0.22            111            335 253 
                                                                                
