 2010  9 3 0223 15.2 L   6.772 -73.079144.8  RSN  9 0.6 2.0LRSN                1
 GAP=166        1.30       5.6    12.8 10.2 -0.2600E+02  0.2704E+01  0.2316E+00E
 Epicentro: LOS SANTOS - SANTANDER                                             3
 ACTION:UP  11-02-18 10:59 OP:tino STATUS:               ID:20100903022315 L   I
 2010-09-03-0220-43S.COL___120                                                 6
 STAT SP IPHASW D HRMM SECON CODA AMPLIT PERI AZIMU VELO SNR AR TRES W  DIS CAZ7
 BAR2 SZ IP        223 34.80                             170     0.110   23 210 
 BAR2 SZ ES   1    223 49.28                             170    -0.7 7   23 210 
 BAR2 SZ I         223 51.58        45.5 0.29                            23 210 
 BRR  HZ IP     C  223 36.67                             150    -0.110   79 298 
 BRR  HN ES   1    223 53.95                             150     0.4 7   79 298 
 BRR  HZ I         223 55.44        25.7 0.08                            79 298 
 RUS  HZ EP   1    223 38.65                             144     0.0 7   97 180 
 RUS  HZ I         223 39.86         7.1 0.08                            97 180 
 RUS  HN ES   1    223 57.78                             144     0.9 7   97 180 
 GUE  SZ EP   1    223 40.90                             139     0.9 7  118   8 
 GUE  SZ I         223 42.50         6.9 0.05                           118   8 
 GRA  SZ IP        223 40.61                             137     0.210  127  14 
 GRA  SZ ES   1    223 59.34                             137    -0.8 7  127  14 
 GRA  SZ I         224  1.82        13.2 0.36                           127  14 
 OCA  SZ EP   1    223 43.19                             129    -0.6 7  164 351 
 OCA  SZ I         224  6.30        12.6 0.14                           164 351 
 CHI  HZ EP   2    223 52.93                             117     0.2 4  248 197 
 CHI  HE ES   1    224 21.17                             117    -0.9 6  248 197 
 CHI  HZ I         224 25.78         6.2 0.81                           248 197 
 HEL  HZ EP   2    223 56.70                             114     0.6 4  278 257 
 HEL  HZ I         224 41.54         7.9 0.65                           278 257 
 PRA  HZ EP   1    224  8.46                             106    -0.4 4  393 211 
 PRA  HN ES   1    224 50.46                             106    -0.2 4  393 211 
 PRA  HZ I         224 56.52         5.9 0.38                           393 211 
                                                                                
