 2012  2 3 0735 10.1 L   6.802 -73.122152.0  RSN  9 0.4 1.6LRSN                1
 GAP=185        0.74       4.3     5.5  7.4  0.6024E+01  0.8491E+01  0.8949E+01E
 ACTION:UP  12-03-07 16:27 OP:epov STATUS:               ID:20120203073510 L   I
 2012-02-03-0730-00M.COL___188                                                 6
 STAT SP IPHASW D HRMM SECON CODA AMPLIT PERI AZIMU VELO SNR AR TRES W  DIS CAZ7
 BAR2 SZ EP   1    735 30.36                             171   -0.17 7 24.2 196 
 BAR2 SZ ES   2    735 46.12                             171   -0.31 5 24.2 196 
 GIR2 SZ EP   1    735 30.59                             168    0.04 7 31.6 346 
 GIR2 SZ ES   2    735 46.27                             168   -0.21 5 31.6 346 
 BRR  HZ EP        735 32.25                             153    0.1710 73.4 297 
 BRR  HZ I         735 33.77         9.8 0.14                          73.4 297 
 BRR  HE ES   1    735 49.75                             153    0.56 7 73.4 297 
 RUS  HZ EP   2    735 34.42                             145   -0.09 5  101 178 
 RUS  HN ES   2    735 53.68                             145    0.16 5  101 178 
 RUS  HZ I         735 54.40         3.2 0.30                           101 178 
 PTB  HZ EP        735 37.04                             133   -0.81 9  150 259 
 PTB  HE ES   2    735 58.84                             133   -0.62 5  150 259 
 OCA  SZ ES   2    736  1.73                             132    0.32 5  160 352 
 OCA  SZ I         736  8.01         5.3 0.19                           160 352 
 ZAR  HN ES        736  9.18                             124    0.14 8  206 292 
 ZAR  HZ I         736 13.79         6.6 0.27                           206 292 
 NOR  SZ EP   2    735 46.75                             120    0.28 4  237 235 
 NOR  SN ES   2    736 15.41                             120    0.60 4  237 235 
 CHI  HZ EP   2    735 48.46                             119    0.18 4  250 196 
 CHI  HN ES   1    736 18.59                             119    0.55 6  250 196 
 CHI  HZ I         736 23.54         2.2 0.37                           250 196 
                                                                                
