 2016  2 3 0936 58.2 L   6.780 -73.188138.5  RSN 10 0.4 1.5LRSN                1
 GAP=132        0.73       3.3     4.0  5.8 -0.2269E+01  0.5810E+01 -0.3108E+01E
 Epicentro: ZAPATOCA - SANTANDER                                               3
 ACTION:UPD 16-03-04 21:23 OP:rebc STATUS:               ID:20160203093658 L   I
 OLDACT:REG 16-02-03 13:00 OP:dnl  STATUS:               ID:20160203092749     3
 2016-02-03-0927-49M.COL___301                                                 6
 STAT SP IPHASW D HRMM SECON CODA AMPLIT PERI AZIMU VELO AIN AR TRES W  DIS CAZ7
 BAR2 EZ EP        937 16.90                             171   -0.0110 20.7 178 
 BAR2 EZ ES        937 31.98                             171    0.4810 20.7 178 
 BAR2 EZ I         937 33.24         7.1 0.18            177           20.7 178 
 PAM  EZ EP        937 19.97                             148    0.0210 82.1  41 
 PAM  EN ES   2    937 36.32                             148   -0.59 5 82.1  41 
 PAM  EZ I         937 48.09         3.1 0.33            148           82.1  41 
 RUS  HZ EP   2    937 20.76                             143   -0.36 5 98.8 173 
 RUS  HN ES   2    937 38.51                             143   -0.47 5 98.8 173 
 RUS  HZ I         937 40.66         2.7 0.38            149           98.8 173 
 PTB  HZ EP   2    937 23.77                             131   -0.36 5  143 259 
 PTB  HN ES        937 43.92                             131   -0.43 9  143 259 
 PTB  HZ I         937 45.78         3.4 0.10            136            143 259 
 SPBC HZ EP   2    937 25.69                             128   -0.02 5  159 218 
 SPBC HE ES   2    937 47.20                             128    0.04 5  159 218 
 SPBC HZ I         937 50.01         4.3 0.14            134            159 218 
 OCA  HZ EP   2    937 26.85                             127    0.72 5  162 355 
 OCA  HE ES   4    937 45.32                             127   -2.59 0  162 355 
 OCA  HZ I         937 53.08         5.8 0.13            129            162 355 
 ZAR  HZ EP        937 30.51                             121    0.68 9  201 293 
 ZAR  HN ES   2    937 54.42                             121   -0.08 4  201 293 
 ZAR  HZ I         938  1.00         4.5 0.28            124            201 293 
 SML  HZ EP   2    937 33.78                             116   -0.68 4  244 336 
 SML  HE ES   2    938  2.13                             116   -0.60 4  244 336 
 SML  HZ I         938 10.32         3.4 0.10            118            244 336 
 CHI  HZ EP   2    937 34.90                             116   -0.24 4  245 194 
 CHI  HN ES        938  3.74                             116   -0.21 8  245 194 
 CHI  HZ I         938  9.23         1.0 0.34            121            245 194 
 GUY2CHZ EP   4    937 43.87                             111    2.96 0  296 235 
 GUY2CHE ES   2    938 14.80                             111    0.58 4  296 235 
 GUY2CHZ I         938 23.34         1.9 0.36                           296 235 
                                                                                
