 2017  6 3 0233 32.1 L   6.541 -73.579108.4  RSN  5 0.4 1.2LRSN                1
 GAP=147        0.85       5.1     4.5  9.4  0.1136E+02 -0.4649E+01  0.7678E+00E
 Epicentro: EL CARMEN - SANTANDER                                              3
 ACTION:UPD 17-09-14 16:49 OP:jn   STATUS:               ID:20170603023332 L   I
 OLDACT:UP  17-06-15 15:25 OP:nlst STATUS:               ID:20170603023332 L   3
 OLDACT:UP  17-06-03 17:14 OP:ar   STATUS:               ID:20170603022744     3
 OLDACT:REG 17-06-03 13:24 OP:ar   STATUS:               ID:20170603022744     3
 2017-06-03-0228-00M.COL___359                                                 6
 STAT SP IPHASW D HRMM SECON CODA AMPLIT PERI AZIMU VELO AIN AR TRES W  DIS CAZ7
 BRR  HZ EP        233 49.03                             146    0.1210 64.3 347 
 BRR  HN ES   1    234  2.15                             146    0.15 7 64.3 347 
 BRR  HZ I         234  7.85         6.7 0.34            147           64.3 347 
 RUS  HZ EP        233 52.12                             137    0.5610 90.3 143 
 RUS  HN ES        234  6.24                             137   -0.4710 90.3 143 
 RUS  HZ I         234  7.92         3.1 0.40            144           90.3 143 
 PTB  HZ EP        233 51.03                             135   -0.4410 97.0 270 
 PTB  HN ES        234  6.60                             135    0.0510 97.0 270 
 SPBC HN ES   2    234  9.69                             130    0.49 5  112 209 
 YPLC HZ EP   2    233 59.80                             115   -0.45 4  183 134 
 YPLC HE ES   2    234 22.57                             115    0.40 4  183 134 
                                                                                
