 2011 11 3 0324  7.9 L   6.735 -73.253142.0  RSN  4 0.1 1.2LRSN                1
 GAP=156        0.34       5.7    10.4  4.7  0.4973E+02 -0.2504E+02 -0.1066E+02E
 Epicentro: VILLANUEVA - SANTANDER                                             3
 ACTION:UPD 12-07-13 16:07 OP:ep   STATUS:               ID:20111103032407 L   I
 2011-11-03-0321-19S.COL___175                                                 6
 STAT SP IPHASW D HRMM SECON CODA AMPLIT PERI AZIMU VELO AIN AR TRES W  DIS CAZ7
 BAR2 SZ ES   2    324 41.68                             173   -0.16 5 17.6 154 
 BAR2 SZ I         324 42.33         3.9 0.19                          17.6 154 
 BRR  HZ EP        324 28.19                             154   -0.1210 65.4 309 
 BRR  HE ES        324 44.30                             154    0.0710 65.4 309 
 BRR  HZ I         324 46.22         5.5 0.19                          65.4 309 
 RUS  HZ EP   1    324 30.96                             145    0.09 7 95.0 169 
 RUS  HE ES   2    324 48.81                             145    0.02 5 95.0 169 
 RUS  HZ I         324 50.41         1.2 0.42                          95.0 169 
 OCA  SZ EP   2    324 36.66                             128    0.15 5  167 357 
                                                                                
