 2016  6 3 0610 19.7 L   6.895 -73.164143.2  RSN 13 0.5 2.0LRSN                1
 GAP=129        1.18       3.3     5.1  5.8 -0.4680E+01  0.7695E+01  0.3361E+01E
 Epicentro: BETULIA - SANTANDER                                                3
 ACTION:UPD 16-07-21 22:14 OP:rebc STATUS:               ID:20160603061019 L   I
 OLDACT:UP  16-06-03 17:10 OP:edw  STATUS:               ID:20160603060749d    3
 OLDACT:UP  16-06-03 17:09 OP:edw  STATUS:               ID:20160603060749d    3
 OLDACT:UP  16-06-03 17:06 OP:edw  STATUS:               ID:20160603060749d    3
 OLDACT:DUP 16-06-03 16:59 OP:edw  STATUS:               ID:20160603060749d    3
 OLDACT:DUP 16-06-03 16:55 OP:edw  STATUS:               ID:20160603060748d    3
 OLDACT:UP  16-06-03 16:53 OP:edw  STATUS:               ID:20160603060747     3
 OLDACT:REG 16-06-03 12:02 OP:edw  STATUS:               ID:20160603060747     3
 2016-06-03-0607-47M.COL___319                                                 6
 STAT SP IPHASW D HRMM SECON CODA AMPLIT PERI AZIMU VELO AIN AR TRES W  DIS CAZ7
 BAR2 EZ EP        610 39.35                             166    0.0310 33.6 183 
 BAR2 EZ ES        610 53.99                             166   -0.6010 33.6 183 
 BAR2 EZ I         610 55.24        14.2 0.19                          33.6 183 
 BRR  HZ EP     C  610 40.78                             154    0.5110 64.9 291 
 BRR  HE ES        610 56.87                             154    0.5910 64.9 291 
 BRR  HZ I         611  1.35        19.3 0.20                          64.9 291 
 PAM  EZ EP        610 41.91                             152    0.5910 71.0  46 
 PAM  EN ES        610 58.55                             152    0.4010 71.0  46 
 PAM  EZ I         611  0.73        31.0 0.28                          71.0  46 
 RUS  HZ EP        610 43.56                             140   -0.4910  111 175 
 RUS  HN ES        611  2.39                             140   -0.6210  111 175 
 RUS  HZ I         611  4.41         6.6 0.30                           111 175 
 PTB  HZ EP        610 46.19                             131   -0.35 9  148 255 
 PTB  HN ES        611  6.84                             131   -0.60 9  148 255 
 PTB  HZ I         611  9.94        12.0 0.10                           148 255 
 OCA  HZ EP        610 46.74                             131   -0.12 9  150 353 
 OCA  HN ES        611  7.93                             131   -0.08 9  150 353 
 OCA  HZ I         611 12.70        48.6 0.26                           150 353 
 SPBC HZ EP        610 48.75                             127    0.02 9  170 216 
 SPBC HE ES        611 11.06                             127   -0.28 9  170 216 
 SPBC HZ I         611 15.69        20.7 0.18                           170 216 
 CHI  HZ EP        610 57.63                             115   -0.73 8  258 194 
 CHI  HN ES        611 29.27                             115    0.79 8  258 194 
 CHI  HZ I         611 33.72         5.6 0.44                           258 194 
 ROSC BZ EP        610 58.90                             115    0.29 8  261 209 
 ROSC BN ES        611 29.88                             115    0.95 8  261 209 
 ROSC BZ I         611 36.95        10.4 0.40                           261 209 
 LL6C HZ EP   4    611  3.27                             111   -0.85 0  314 358 
 LL6C HN ES   4    611 37.60                             111   -1.14 0  314 358 
 CBOC HZ EP        611  7.00                             109    0.28 7  335 250 
 CBOC HN ES        611 43.28                             109   -0.08 7  335 250 
 CBOC HZ I         611 51.08         1.8 0.56                           335 250 
 SJC  HZ EP        611 13.10                             106   -0.95 6  399 326 
 SJC  HN ES   4    611 54.09                             106   -2.33 0  399 326 
 PRA  HZ EP        611 14.34                             106    0.20 6  400 209 
 PRA  HN ES        611 57.44                             106    0.88 6  400 209 
 ORTC HZ EP        611 13.80                             105   -0.64 6  403 215 
 ORTC HN ES        611 57.26                             105    0.16 6  403 215 
 ORTC HZ I         612  3.56         4.1 0.40                           403 215 
                                                                                
