 2016 10 3 0400 21.4 L   6.761 -73.212146.3  RSN  4 0.3 1.1LRSN                1
 GAP=227        0.70       5.7     5.7  7.0  0.2175E+02 -0.2814E+00 -0.1837E+01E
 Epicentro: ZAPATOCA - SANTANDER                                               3
 ACTION:UPD 16-11-09 19:15 OP:rebc STATUS:               ID:20161003040021 L   I
 OLDACT:DUP 16-10-03 18:29 OP:dani STATUS:               ID:20161003035747d    3
 2016-10-03-0358-00M.COL___369                                                 6
 STAT SP IPHASW D HRMM SECON CODA AMPLIT PERI AZIMU VELO AIN AR TRES W  DIS CAZ7
 BRR  HZ EP        4 0 42.20                             154   -0.2310 67.2 305 
 BRR  HN ES        4 0 58.75                             154   -0.0510 67.2 305 
 BRR  HZ I         4 1  2.14         2.5 0.32            156           67.2 305 
 RUS  HZ EP        4 0 44.85                             145   -0.1410 97.0 172 
 RUS  HN ES        4 1  3.62                             145    0.2610 97.0 172 
 RUS  HZ I         4 1  4.62         2.1 0.42            149           97.0 172 
 PTB  HZ EP        4 0 47.91                             134    0.18 9  140 260 
 PTB  HN ES        4 1  7.86                             134   -0.38 9  140 260 
 PTB  HZ I         4 1  9.45         1.5 0.13            137            140 260 
 ZAR  HE ES        4 1 18.79                             123    0.46 9  199 294 
                                                                                
