 2013 10 3 0556 15.4 L   6.762 -73.190145.3  RSN  4 0.3 1.2LRSN                1
 GAP=229        0.87       5.3     6.3  7.9  0.1021E+02 -0.2293E+01  0.2048E+01E
 Epicentro: VILLANUEVA - SANTANDER                                             3
 ACTION:UPD 13-11-25 09:18 OP:ep   STATUS:               ID:20131003055615 L   I
 OLDACT:REG 13-10-03 05:43 OP:nd   STATUS:               ID:20131003054959     3
 2013-10-03-0549-59M.COL___273                                                 6
 STAT SP IPHASW D HRMM SECON CODA AMPLIT PERI AZIMU VELO AIN AR TRES W  DIS CAZ7
 BRR  HZ EP        556 36.44                             153    0.0410 69.2 304 
 BRR  HN ES        556 53.08                             153    0.3110 69.2 304 
 BRR  HZ I         556 56.29         2.2 0.12            153           69.2 304 
 RUS  HZ EP        556 38.93                             145    0.0810 96.8 173 
 RUS  HN ES        556 56.76                             145   -0.3710 96.8 173 
 RUS  HZ I         556 58.82         1.5 0.40            145           96.8 173 
 PTB  HZ EP        556 41.46                             133   -0.38 9  142 260 
 PTB  HN ES        557  2.00                             133   -0.45 9  142 260 
 PTB  HZ I         557  5.19         2.1 0.42            133            142 260 
 SPBC HZ EP        556 43.55                             130    0.28 9  157 219 
 SPBC HN ES        557  5.52                             130    0.51 9  157 219 
 SPBC HZ I         557 12.67         3.3 0.28            130            157 219 
                                                                                
