 2010  2 3 0925  3.4 L   6.871 -73.112144.3  RSN  6 0.7 2.0LRSN                1
 GAP=187        1.28       8.2    24.1 16.7 -0.6274E+02  0.2089E+03 -0.1927E+02E
 Epicentro: LOS SANTOS - SANTANDER                                             3
 ACTION:UP  10-08-24 09:47 OP:vdl  STATUS:               ID:20100203092503 L   I
 2010-02-03-0921-21S.COL___097                                                 6
 STAT SP IPHASW D HRMM SECON CODA AMPLIT PERI AZIMU VELO SNR AR TRES W  DIS CAZ7
 BAR2 SZ IP        925 22.95                             167    -0.110   32 194 
 BAR2 SZ ES   2    925 37.45                             167    -0.9 5   32 194 
 RUS  BZ EP   2    925 26.94                             142    -0.6 5  108 178 
 RUS  BZ I         925 46.53        11.9 0.31                           108 178 
 RUS  BN ES   2    925 47.69                             142     1.3 5  108 178 
 OCA  SZ EP        925 30.69                             131    -0.2 9  153 351 
 OCA  SZ ES   2    925 53.23                             131     0.9 5  153 351 
 OCA  SZ I         925 57.95        18.1 0.21                           153 351 
 CHI  HZ EP   1    925 41.33                             116    -0.6 6  257 196 
 CHI  HZ I         926 14.17         3.4 0.31                           257 196 
 RREF BZ EP        925 51.30                             110     1.0 7  330 229 
 RREF BE ES   2    926 26.08                             110    -0.9 3  330 229 
 RREF BZ I         926 30.43         3.5 0.36                           330 229 
 PRA  HZ EP   2    925 57.35                             106    -0.5 3  401 209 
 PRA  HZ I         926 44.67         3.0 0.24                           401 209 
                                                                                
