 2010  8 3 0943  4.4 L   6.807 -73.065139.4  RSN  8 0.3 2.0LRSN                1
 GAP=167        0.65       3.3     5.7  5.3 -0.6923E+01  0.2237E+01 -0.1123E+01E
 Epicentro: LOS SANTOS - SANTANDER                                             3
 ACTION:UP  10-09-07 10:51 OP:vdl  STATUS:               ID:20100803094304 L   I
 2010-08-03-0940-56S.COL___123                                                 6
 STAT SP IPHASW D HRMM SECON CODA AMPLIT PERI AZIMU VELO SNR AR TRES W  DIS CAZ7
 BAR2 SZ EP        943 23.21                             168    -0.210   27 209 
 BAR2 SZ ES   1    943 37.92                             168    -0.3 7   27 209 
 BAR2 SZ I         943 40.72        22.0 0.16                            27 209 
 BRR  HZ EP        943 25.06                             149    -0.310   79 295 
 BRR  HN ES   1    943 41.89                             149     0.2 7   79 295 
 BRR  HZ I         943 44.23        21.3 0.23                            79 295 
 RUS  HZ EP   1    943 27.63                             142     0.0 7  101 181 
 RUS  HE ES   1    943 46.07                             142     0.4 7  101 181 
 RUS  HZ I         943 47.62        15.8 0.24                           101 181 
 GUE  SZ EP        943 28.21                             138    -0.210  114   8 
 GRA  SZ EP        943 29.08                             136     0.210  123  14 
 GRA  SZ ES   1    943 48.26                             136     0.3 7  123  14 
 GRA  SZ I         943 49.70        10.1 0.29                           123  14 
 HEL  HZ EP   2    943 45.64                             113     0.3 4  281 256 
 HEL  HE ES   3    944 17.23                             113     0.0 2  281 256 
 HEL  HZ I         944 20.97         4.6 0.31                           281 256 
 RREF HZ EP   1    943 51.72                             109     0.6 5  329 230 
 RREF HE ES   2    944 27.95                             109     0.4 3  329 230 
 RREF HZ I         944 35.77         4.2 0.30                           329 230 
 PRA  HZ EP   2    943 58.17                             105    -0.2 3  397 211 
 PRA  HE ES   2    944 39.77                             105    -0.6 3  397 211 
 PRA  HZ I         944 46.93         4.1 0.35                           397 211 
                                                                                
