 2011  5 3 0651  3.9 L   6.795 -73.234133.4  RSN  6 0.6 1.5LRSN                1
 GAP=144        0.90       6.1    14.0 10.2  0.5906E+00 -0.3195E+02 -0.7896E+01E
 Epicentro: ZAPATOCA - SANTANDER                                               3
 ACTION:UP  11-06-29 08:50 OP:tino STATUS:               ID:20110503065103 L   I
 2011-05-03-0645-22S.COL___133                                                 6
 STAT SP IPHASW D HRMM SECON CODA AMPLIT PERI AZIMU VELO SNR AR TRES W  DIS CAZ7
 BTL  SZ EP   1    651 22.06                             174     0.1 7   14 345 
 BTL  SZ ES   2    651 36.43                             174     0.5 5   14 345 
 BAR2 SZ EP   1    651 21.91                             169    -0.2 7   23 166 
 BAR2 SZ I         651 28.68         5.8 0.68                            23 166 
 BAR2 SZ ES   2    651 36.77                             169     0.5 5   23 166 
 BRR  HZ EP   1    651 23.72                             153     0.4 7   63 303 
 BRR  HZ I         651 24.19         9.3 0.11                            63 303 
 BRR  HN ES   2    651 37.75                             153    -0.6 5   63 303 
 RUS  HZ EP   1    651 26.54                             141     0.0 7  101 170 
 RUS  HN ES   3    651 42.06                             141    -2.1 2  101 170 
 RUS  HZ I         651 44.57         5.7 0.41                           101 170 
 GRA  SZ EP   1    651 28.88                             133     0.4 7  130  22 
 GRA  SZ ES   2    651 46.95                             133    -0.6 5  130  22 
 GRA  SZ I         651 50.24         4.0 0.37                           130  22 
 OCA  SZ EP   1    651 30.84                             127    -0.5 7  160 357 
 OCA  SZ ES   2    651 52.45                             127    -0.2 5  160 357 
 OCA  SZ I         651 56.79         3.8 0.59                           160 357 
                                                                                
