 2012  7 3 0025 55.9 L   6.761 -73.167146.3  RSN  3 0.3 1.1LRSN                1
 GAP=232        0.79       8.1     8.9 10.5  0.3830E+02 -0.1164E+02 -0.1094E+02E
 Epicentro: LOS SANTOS - SANTANDER                                             3
 ACTION:UPD 12-08-14 11:42 OP:ep   STATUS:               ID:20120703002555 L   I
 2012-07-03-0020-00M.COL___200                                                 6
 STAT SP IPHASW D HRMM SECON CODA AMPLIT PERI AZIMU VELO AIN AR TRES W  DIS CAZ7
 BRR  HZ EP        026 16.92                             153    -0.210   71 302 
 BRR  HN ES   1    026 33.79                             153     0.2 7   71 302 
 BRR  HZ I         026 34.42         4.8 0.26            153             71 302 
 RUS  HZ EP   1    026 19.94                             145     0.6 7   96 174 
 RUS  HN ES   1    026 37.40                             145    -0.3 7   96 174 
 RUS  HZ I         026 39.40         1.5 0.51            144             96 174 
 PTB  HZ EP   1    026 22.28                             133    -0.3 7  145 260 
 PTB  HE ES   1    026 43.63                             133     0.2 7  145 260 
 PTB  HZ I         026 45.70         1.3 0.10            132            145 260 
