 2017 11 3 0243 31.0 L   6.727 -73.197149.4  RSN  4 0.2 1.3LRSN                1
 GAP=226        0.58       4.6     4.6  5.8  0.1075E+02 -0.3047E+01 -0.1976E+01E
 Epicentro: VILLANUEVA - SANTANDER                                             3
 ACTION:UPD 17-12-12 19:51 OP:rebc STATUS:               ID:20171103024331 L   I
 OLDACT:REG 17-11-03 13:09 OP:dnl  STATUS:               ID:20171103023738     3
 2017-11-03-0238-00M.COL___441                                                 6
 STAT SP IPHASW D HRMM SECON CODA AMPLIT PERI AZIMU VELO AIN AR TRES W  DIS CAZ7
 BAR2 EZ EP        243 50.58                             174   -0.3810 14.9 174 
 BAR2 EZ I         244  8.30         8.4 0.40            169           14.9 174 
 BRR  HZ EP        243 52.54                             153   -0.0010 70.8 307 
 BRR  HN ES        244  9.50                             153    0.1710 70.8 307 
 BRR  HZ I         244 10.60         7.0 0.42            152           70.8 307 
 RUS  HZ EP        243 54.75                             147    0.1310 93.1 172 
 RUS  HN ES        244 13.08                             147    0.0610 93.1 172 
 RUS  HZ I         244 14.68         1.5 0.42            145           93.1 172 
 PTB  HZ EP        243 57.91                             134    0.23 9  141 262 
 PTB  HE ES        244 18.25                             134   -0.21 9  141 262 
 PTB  HZ I         244 20.05         1.7 0.40            136            141 262 
                                                                                
