 2017  4 3 0154 22.5 L   6.781 -73.099144.7  RSN 14 0.6 2.0LRSN                1
 GAP=124        1.10       3.7     3.9  5.9  0.1347E+01  0.6561E+01  0.6770E+01E
 Epicentro: LOS SANTOS - SANTANDER                                             3
 ACTION:UPD 17-05-30 21:07 OP:jn   STATUS:               ID:20170403015422 L   I
 OLDACT:UP  17-04-03 14:49 OP:and  STATUS:               ID:20170403014744d    3
 OLDACT:UP  17-04-03 14:48 OP:and  STATUS:               ID:20170403014744d    3
 OLDACT:UP  17-04-03 14:48 OP:and  STATUS:               ID:20170403014744d    3
 OLDACT:UP  17-04-03 14:46 OP:and  STATUS:               ID:20170403014744d    3
 OLDACT:UP  17-04-03 14:46 OP:and  STATUS:               ID:20170403014744d    3
 OLDACT:DUP 17-04-03 14:43 OP:and  STATUS:               ID:20170403014744d    3
 OLDACT:UP  17-04-03 14:42 OP:and  STATUS:               ID:20170403014743     3
 OLDACT:UP  17-04-03 14:36 OP:and  STATUS:               ID:20170403014743     3
 OLDACT:UP  17-04-03 14:35 OP:and  STATUS:               ID:20170403014743     3
 OLDACT:UP  17-04-03 14:34 OP:and  STATUS:               ID:20170403014743     3
 OLDACT:UP  17-04-03 14:30 OP:and  STATUS:               ID:20170403014743     3
 OLDACT:UP  17-04-03 14:29 OP:and  STATUS:               ID:20170403014743     3
 OLDACT:UP  17-04-03 14:29 OP:and  STATUS:               ID:20170403014743     3
 OLDACT:UP  17-04-03 14:27 OP:and  STATUS:               ID:20170403014743     3
 OLDACT:REG 17-04-03 12:31 OP:and  STATUS:               ID:20170403014743     3
 2017-04-03-0148-00M.COL___368                                                 6
 STAT SP IPHASW D HRMM SECON CODA AMPLIT PERI AZIMU VELO AIN AR TRES W  DIS CAZ7
 BAR2 EZ EP        154 42.07                             171    0.1110 22.9 204 
 BAR2 EZ ES        154 56.59                             171   -0.5710 22.9 204 
 BAR2 EZ I         154 58.32        23.5 0.22            169           22.9 204 
 PAM  EZ EP        154 44.36                             151   -0.1210 75.9  36 
 PAM  EN ES        155  1.77                             151    0.1210 75.9  36 
 PAM  EZ I         155  4.25        27.3 0.54            154           75.9  36 
 BRR  HZ EP        154 43.97                             150    0.1410 76.7 298 
 BRR  HN ES        155  1.05                             150    0.5710 76.7 298 
 BRR  HZ I         155  5.05        16.8 0.15            148           76.7 298 
 RUS  HZ EP        154 46.24                             144    0.2910 98.3 179 
 RUS  HN ES        155  4.72                             144    0.4510 98.3 179 
 RUS  HZ I         155  5.97        13.1 0.30            146           98.3 179 
 PTB  HZ EP        154 48.92                             131   -0.86 9  152 260 
 PTB  HN ES   3    155  9.79                             131   -1.29 2  152 260 
 PTB  HZ I         155 15.07         8.9 0.21            131            152 260 
 SPBC HZ EP        154 51.31                             128    0.26 9  165 221 
 SPBC HN ES        155 12.83                             128   -0.52 9  165 221 
 SPBC HZ I         155 14.83        17.8 0.18            129            165 221 
 ZAR  HZ EP   4    154 57.77                             121    2.34 0  210 292 
 ZAR  HN ES        155 20.64                             121   -0.49 8  210 292 
 ZAR  HZ I         155 26.81         6.5 0.10            122            210 292 
 NOR  HZ EP        154 58.62                             118    0.15 8  238 236 
 NOR  HN ES        155 26.55                             118    0.01 8  238 236 
 NOR  HZ I         155 27.42         5.9 0.14            119            238 236 
 CHI  HZ EP        155  0.36                             117    0.31 8  248 196 
 CHI  HN ES        155 29.70                             117    0.34 8  248 196 
 CHI  HZ I         155 33.06         5.1 0.38            119            248 196 
 ROSC BZ EP   3    155  2.56                             116    1.92 2  254 212 
 ROSC BN ES   4    155 32.59                             116    2.18 0  254 212 
 ROSC BZ I         155 34.18         8.4 0.35            118            254 212 
 HEL  HZ EP        155  3.86                             114    0.73 7  277 256 
 HEL  HN ES        155 34.71                             114   -0.14 7  277 256 
 HEL  HZ I         155 41.08         4.1 0.28            115            277 256 
 URE  HZ EP   2    155  2.60                             113   -1.52 4  289 292 
 URE  HE ES   3    155 33.70                             113   -2.89 2  289 292 
 URE  HZ I         155 44.01         6.1 0.26            113            289 292 
 PTGC HZ EP        155  5.23                             112   -0.62 7  305 159 
 PTGC HN ES        155 38.88                             112   -0.81 7  305 159 
 CBOC HZ EP        155 10.60                             109    0.76 7  338 253 
 CBOC HN ES        155 47.14                             109    0.36 7  338 253 
                                                                                
