 2013  8 3 0519 50.1 L   7.507 -73.145135.1  RSN  8 0.5 1.7LRSN                1
 GAP=196        1.06       4.3     6.6  8.5  0.4650E+01  0.1211E+02 -0.5442E+01E
 Epicentro: EL PLAYON - SANTANDER                                              3
 ACTION:UPD 14-01-14 08:58 OP:ep   STATUS:               ID:20130803051950 L   I
 OLDACT:REG 13-08-03 07:48 OP:carl STATUS:               ID:20130803051959     3
 2013-08-03-0519-59M.COL___270                                                 6
 STAT SP IPHASW D HRMM SECON CODA AMPLIT PERI AZIMU VELO AIN AR TRES W  DIS CAZ7
 GIR2 SZ EP   1    520  9.45                             159    0.35 7 47.6 186 
 GIR2 SZ ES        520 23.65                             159   -0.2610 47.6 186 
 GIR2 SZ I         520 25.84         4.3 0.68            153           47.6 186 
 BRR  HZ EP   1    520 10.79                             149    0.34 7 76.6 235 
 BRR  HN ES   1    520 26.97                             149    0.66 7 76.6 235 
 BRR  HN I         520 27.99        37.1 0.14            143           76.6 235 
 OCA  HZ EP   2    520 12.38                             146    1.28 5 83.2 347 
 BAR2 SZ EP   1    520 12.54                             141    0.02 7  101 182 
 BAR2 SZ ES   1    520 29.83                             141   -0.17 7  101 182 
 BAR2 SZ I         520 33.02         4.4 0.30            136            101 182 
 SML  HZ EP   1    520 19.03                             124    0.09 7  176 325 
 SML  HN ES        520 40.67                             124   -0.75 9  176 325 
 PTB  HZ EP   1    520 19.08                             123   -0.32 7  180 234 
 PTB  HN ES        520 41.70                             123   -0.55 9  180 234 
 PTB  HZ I         520 45.92         3.9 0.16            120            180 234 
 ZAR  HZ EP   1    520 20.86                             122    0.55 7  189 270 
 ZAR  HN ES        520 44.41                             122    0.54 9  189 270 
 ZAR  HZ I         520 47.99         7.5 0.46            120            189 270 
 SPBC HZ EP   1    520 23.84                             117   -0.86 6  229 207 
 SPBC HN ES        520 51.80                             117    0.12 8  229 207 
 SPBC HZ I         521  2.63         2.9 0.22            114            229 207 
                                                                                
