 2013  9 3 0225 50.8 L   6.750 -73.184143.9  RSN  5 0.4 1.1LRSN                1
 GAP=229        0.96       8.3     7.5  8.5  0.3628E+02  0.1268E+02  0.8534E+01E
 Epicentro: VILLANUEVA - SANTANDER                                             3
 ACTION:UPD 13-10-22 09:19 OP:ep   STATUS:               ID:20130903022550 L   I
 OLDACT:DUP 13-09-03 09:13 OP:cam  STATUS:               ID:20130903022001d    3
 2013-09-03-0220-00M.COL___269                                                 6
 STAT SP IPHASW D HRMM SECON CODA AMPLIT PERI AZIMU VELO AIN AR TRES W  DIS CAZ7
 BAR2 SZ ES        226 24.56                             173   -0.6410 17.5 179 
 BAR2 SZ I         226 27.11         3.9 0.16            167           17.5 179 
 BRR  HZ EP        226 11.63                             152   -0.1110 70.4 304 
 BRR  HN ES        226 28.59                             152    0.5410 70.4 304 
 RUS  HZ EP        226 14.22                             145    0.1810 95.5 173 
 RUS  HN ES   1    226 32.71                             145    0.57 7 95.5 173 
 RUS  HZ I         226 36.22         1.1 0.18            143           95.5 173 
 PTB  HZ EP   1    226 16.80                             133   -0.38 7  143 261 
 PTB  HN ES        226 37.54                             133   -0.20 9  143 261 
 PTB  HZ I         226 39.98         2.9 0.44            133            143 261 
 ZAR  HN ES   1    226 48.21                             122    0.16 6  202 294 
                                                                                
