 2014  3 3 0656 39.7 L   6.845 -73.195141.6  RSN 18 0.6 2.1LRSN                1
 GAP= 67        1.26       2.5     3.4  6.0 -0.1447E+01  0.6730E+01 -0.1935E+01E
 Epicentro: ZAPATOCA - SANTANDER                                               3
 2014-03-03-0648-16M.COL___232                                                 6
 OLDACT:REG 14-03-03 09:15 OP:stll STATUS:               ID:20140303064816     3
 ACTION:UPD 14-04-09 23:14 OP:nd   STATUS:               ID:20140303065639 L   I
 OLDACT:UP  14-03-03 13:51 OP:stll STATUS:               ID:20140303064816     3
 STAT SP IPHASW D HRMM SECON CODA AMPLIT PERI AZIMU VELO AIN AR TRES W  DIS CAZ7
 BAR2 SZ EP        656 59.14                             168    0.2110 28.0 177 
 BAR2 SZ ES        657 13.70                             168   -0.2310 28.0 177 
 BAR2 HZ I         657 15.67        49.7 0.30            170           28.0 177 
 PAM  SZ EP        657  1.93                             150    0.4610 77.3  45 
 PAM  SN ES        657 18.59                             150    0.1510 77.3  45 
 PAM  HZ I         657 20.83        17.0 0.62            151           77.3  45 
 RUS  HZ EP        657  3.05                             141   -0.4010  106 173 
 RUS  HN ES        657 21.75                             141   -0.2210  106 173 
 RUS  HZ I         657 22.87        13.6 0.72            144            106 173 
 PTB  HZ EP        657  5.83                             132   -0.11 9  144 256 
 PTB  HN ES        657 26.26                             132   -0.15 9  144 256 
 PTB  HZ I         657 33.53        15.2 0.36            132            144 256 
 OCA  HZ EP        657  7.30                             129    0.14 9  155 355 
 OCA  HN ES        657 29.22                             129    0.64 9  155 355 
 OCA  HZ I         657 34.64         9.9 0.38            130            155 355 
 TAM  HZ IP     D  657  7.58                             128   -0.09 9  162 106 
 TAM  HN ES        657 28.90                             128   -0.59 9  162 106 
 TAM  HZ I         657 43.22         7.4 2.56            131            162 106 
 SPBC HZ EP        657  7.67                             128   -0.27 9  164 216 
 SPBC HN ES        657 29.95                             128   -0.02 9  164 216 
 SPBC HZ I         657 34.80        18.6 0.34            129            164 216 
 ZAR  HZ EP        657 11.64                             122    0.48 9  197 291 
 ZAR  HN ES        657 35.69                             122   -0.01 9  197 291 
 ZAR  HZ I         657 42.30        11.6 0.26            123            197 291 
 NOR  HZ EP        657 15.38                             118    0.34 8  233 233 
 NOR  HN ES        657 42.40                             118   -0.20 8  233 233 
 NOR  HZ I         657 52.90         5.9 0.60            119            233 233 
 SML  HZ EP        657 15.65                             117    0.30 8  237 336 
 SML  HN ES        657 43.44                             117    0.28 8  237 336 
 SML  HZ I         657 51.90        11.3 0.08            118            237 336 
 CHI  HZ EP        657 17.16                             116   -0.39 8  252 194 
 CHI  HN ES        657 46.43                             116   -0.64 8  252 194 
 CHI  HZ I         657 52.91         7.3 1.24            117            252 194 
 ROSC BZ EP        657 18.59                             115    0.82 8  254 209 
 ROSC BN ES        657 47.90                             115    0.44 8  254 209 
 ROSC HZ I         657 53.78        15.8 0.40            117            254 209 
 HEL  HZ EP        657 21.13                             114    1.87 8  268 254 
 HEL  HN ES        657 49.84                             114   -0.28 8  268 254 
 HEL  HZ I         657 57.96         4.9 0.52            115            268 254 
 GUY2CHZ EP        657 23.31                             111    0.36 7  300 233 
 GUY2CHN ES        657 56.49                             111   -0.19 7  300 233 
 GUY2CHZ I         658  5.24         6.7 0.32                           300 233 
 COD  HZ EP        657 27.15                             108   -0.13 7  343 355 
 COD  HN ES        658  4.66                             108    0.27 7  343 355 
 COD  HZ I         658 13.06         6.3 1.30            109            343 355 
 ARGC HZ EP        657 28.83                             108    0.39 6  353 341 
 ARGC HE ES        658  4.66                             108   -1.80 6  353 341 
 ARGC HZ I         658 21.01        13.5 2.90            109            353 341 
 ORTC HZ EP        657 33.41                             105   -0.17 6  396 215 
 ORTC HE ES        658 15.33                             105   -0.28 6  396 215 
 ORTC HZ I         658 26.08         4.7 1.54            107            396 215 
 SJC  HZ EP        657 33.22                             105   -1.06 6  402 327 
 SJC  HE ES        658 15.13                             105   -1.73 6  402 327 
 SJC  HZ I         658 29.25        10.8 2.36            106            402 327 
                                                                                
