 2016 10 3 0410 15.7 L   7.090 -73.477117.7  RSN  5 0.1 1.4LRSN                1
 GAP=154        0.31       2.1     2.3  2.5 -0.1298E+01 -0.1295E+01 -0.2521E-01E
 Epicentro: SAN VICENTE DE CHUCURI - SANTANDER                                 3
 ACTION:UPD 16-11-09 19:15 OP:rebc STATUS:               ID:20161003041015 L   I
 OLDACT:UP  16-10-03 18:33 OP:dani STATUS:               ID:20161003040741     3
 OLDACT:UP  16-10-03 18:33 OP:dani STATUS:               ID:20161003040741     3
 OLDACT:REG 16-10-03 15:09 OP:dani STATUS:               ID:20161003040741     3
 2016-10-03-0408-00M.COL___369                                                 6
 STAT SP IPHASW D HRMM SECON CODA AMPLIT PERI AZIMU VELO AIN AR TRES W  DIS CAZ7
 BRR  HZ EP        410 31.78                             167    0.0710 26.0 274 
 BRR  HE ES        410 44.17                             167   -0.0010 26.0 274 
 BRR  HZ I         410 44.75         6.8 0.12            151           26.0 274 
 PTB  HZ EP        410 38.40                             130    0.1210  124 241 
 PTB  HN ES        410 55.82                             130   -0.0610  124 241 
 PTB  HZ I         410 59.04         2.7 0.13            124            124 241 
 OCA  HZ EP        410 38.82                             129   -0.0310  128   8 
 OCA  HZ I         411  2.24         7.2 0.13            112            128   8 
 RUS  HZ EP        410 40.32                             127   -0.05 9  139 162 
 ZAR  HZ EP        410 41.63                             122   -0.06 9  159 286 
 ZAR  HN ES   4    411  4.75                             122    2.82 0  159 286 
 ZAR  HZ I         411  5.77         3.4 0.23            112            159 286 
                                                                                
