 2013  1 3 0652 57.7 L   6.775 -73.137152.2  RSN  5 0.2 1.5LRSN                1
 GAP=236        0.63       5.0     4.6  5.0  0.1435E+02  0.2234E+01 -0.8052E+00E
 Epicentro: LOS SANTOS - SANTANDER                                             3
 ACTION:UPD 13-02-15 09:11 OP:ep   STATUS:               ID:20130103065257 L   I
 2013-01-03-0649-50M.COL___189                                                 6
 STAT SP IPHASW D HRMM SECON CODA AMPLIT PERI AZIMU VELO AIN AR TRES W  DIS CAZ7
 BAR2 SZ EP        653 18.02                             172   -0.0810 20.8 194 
 BAR2 SZ ES        653 33.70                             172   -0.2810 20.8 194 
 BAR2 SZ I         653 34.59         6.3 0.22            166           20.8 194 
 BRR  HZ EP        653 19.95                             153    0.2410 73.4 300 
 BRR  HN ES        653 37.16                             153    0.3210 73.4 300 
 BRR  HN I         653 37.54         8.0 0.32            149           73.4 300 
 RUS  HZ EP        653 22.01                             146    0.0810 97.7 176 
 RUS  HE ES        653 40.77                             146   -0.0310 97.7 176 
 RUS  HE I         653 42.15         2.2 0.18            144           97.7 176 
 PTB  HZ EP        653 25.18                             133   -0.10 9  148 260 
 PTB  HE EP        653 25.34                             133            148 260 
 PTB  HE ES        653 46.96                             133    0.20 9  148 260 
 PTB  HE I         653 51.73         3.5 0.34            130            148 260 
 ZAR  HN ES        653 56.14                             123   -0.46 8  206 293 
 ZAR  HN I         654  2.17         3.6 0.50            122            206 293 
                                                                                
