 2017 11 3 0634  6.7 L   6.811 -73.170146.7  RSN  9 0.4 1.5LRSN                1
 GAP=109        1.03       4.0     3.9  6.4  0.3062E+01  0.4652E+01  0.3266E+01E
 Epicentro: LOS SANTOS - SANTANDER                                             3
 ACTION:UPD 17-12-12 19:51 OP:rebc STATUS:               ID:20171103063406 L   I
 OLDACT:UP  17-11-03 16:35 OP:dnl  STATUS:               ID:20171103062741     3
 OLDACT:REG 17-11-03 13:27 OP:dnl  STATUS:               ID:20171103062741     3
 2017-11-03-0628-00M.COL___435                                                 6
 STAT SP IPHASW D HRMM SECON CODA AMPLIT PERI AZIMU VELO AIN AR TRES W  DIS CAZ7
 BAR2 EZ EP        634 26.35                             170   -0.0910 24.2 183 
 BAR2 EZ ES        634 41.15                             170   -0.7010 24.2 183 
 BAR2 EZ I         634 42.95         5.5 0.12            171           24.2 183 
 BRR  HE ES        634 45.14                             154    0.9210 68.3 299 
 BRR  HN ES        634 45.16                             153           68.3 299 
 BRR  HZ I         634 48.49         5.3 0.34            153           68.3 299 
 PAM  EZ EP        634 29.36                             151    0.3110 78.2  42 
 PAM  EN ES        634 46.23                             151   -0.2610 78.2  42 
 PAM  EZ I         634 48.80         2.9 0.42            153           78.2  42 
 RUS  HZ EP        634 30.49                             144   -0.1410  102 175 
 RUS  HN ES        634 49.35                             144    0.0510  102 175 
 RUS  HZ I         634 51.38         2.3 0.42            146            102 175 
 PTB  HZ EP        634 33.10                             133   -0.41 9  145 258 
 PTB  HN ES        634 53.94                             133   -0.50 9  145 258 
 PTB  HZ I         634 55.16         3.1 0.16            133            145 258 
 SPBC HZ EP        634 35.35                             129    0.16 9  162 218 
 SPBC HN ES        634 57.69                             129    0.27 9  162 218 
 SPBC HZ I         635  1.54         4.4 0.12            131            162 218 
 YPLC HZ EP   2    634 36.90                             126    0.12 4  179 151 
 YPLC HE ES        635  0.71                             126    0.46 9  179 151 
 YPLC HZ I         635  1.75         4.0 0.30            129            179 151 
 ZAR  HZ EP        634 38.96                             123    0.07 9  201 292 
 ZAR  HE ES        635  4.05                             123    0.04 9  201 292 
 ZAR  HZ I         635 10.62         3.5 0.64            124            201 292 
 PTGC HZ EP   2    634 49.82                             111   -1.00 3  311 158 
 PTGC HE ES   4    635 22.92                             111   -2.33 0  311 158 
 PTGC HZ I         635 25.56         2.4 0.40            113            311 158 
                                                                                
