 2010  7 3 0313  0.9 L   6.642 -73.057148.0  RSN  5 0.3 1.7LRSN                1
 GAP=235        0.48       4.8     6.6  5.6 -0.6729E+01 -0.9146E+01 -0.2085E+01E
 Epicentro: CURITI - SANTANDER                                                 3
 ACTION:UPD 10-12-01 15:14 OP:pat  STATUS:               ID:20100703031300 L   I
 2010-07-03-0311-50S.COL___118                                                 6
 STAT SP IPHASW D HRMM SECON CODA AMPLIT PERI AZIMU VELO AIN AR TRES W  DIS CAZ7
 BAR2 SZ EP        313 20.66                             174     0.010   15 248 
 BAR2 SZ ES   1    313 36.03                             174     0.0 7   15 248 
 BRR  HZ EP        313 23.31                             147     0.010   89 305 
 BRR  HZ I         313 23.49         8.6 0.15                            89 305 
 BRR  HN ES   1    313 40.81                             147     0.0 7   89 305 
 BRI  SZ EP   2    313 26.04                             138     0.0 5  122  14 
 GUE  SZ EP   2    313 26.96                             136    -0.1 5  132   6 
 GUE  SZ ES   2    313 48.18                             136     0.7 5  132   6 
 GRA  SZ EP   2    313 27.61                             134     0.1 5  140  11 
 GRA  SZ ES   2    313 47.70                             134    -0.6 5  140  11 
                                                                                
