 2015 12 3 0049 31.9 L   6.817 -73.164144.0  RSN 13 0.5 2.3LRSN                1
 GAP=133        1.10       3.4     4.8  6.2 -0.2208E+01  0.7203E+01  0.8913E+00E
 Epicentro: LOS SANTOS - SANTANDER                                             3
 ACTION:UPD 16-02-04 15:02 OP:cam  STATUS:               ID:20151203004931 L   I
 OLDACT:UP  15-12-03 15:04 OP:mh   STATUS:               ID:20151203004748     3
 OLDACT:REG 15-12-03 12:20 OP:mh   STATUS:               ID:20151203004748     3
 2015-12-03-0047-48M.COL___318                                                 6
 STAT SP IPHASW D HRMM SECON CODA AMPLIT PERI AZIMU VELO AIN AR TRES W  DIS CAZ7
 BAR2 EZ EP        049 51.36                             170    0.0410 25.0 185 
 BAR2 EZ ES        050  6.01                             170   -0.4810 25.0 185 
 BAR2 EZ I         050  7.01        36.8 0.34            169           25.0 185 
 BRR  HZ EP   1    049 52.59                             153   -0.09 7 68.5 298 
 BRR  HN ES        050  9.87                             153    0.9610 68.5 298 
 BRR  HZ I         050 12.81        39.2 0.28            149           68.5 298 
 PAM  EZ EP   1    049 54.17                             151    0.28 7 77.2  42 
 PAM  EN ES   1    050 11.05                             151   -0.01 7 77.2  42 
 PAM  EZ I         050 12.85        53.0 0.48            153           77.2  42 
 RUS  HZ EP   1    049 55.46                             143   -0.14 7  103 175 
 RUS  HN ES   1    050 14.45                             143    0.35 7  103 175 
 PTB  HZ EP   1    049 58.10                             132   -0.45 7  146 258 
 PTB  HN ES        050 18.71                             132   -0.65 9  146 258 
 PTB  HZ I         050 20.19        15.5 0.20            130            146 258 
 OCA  HZ EP        049 59.17                             130   -0.67 9  158 354 
 OCA  HN ES        050 21.96                             130    0.30 9  158 354 
 OCA  HZ I         050 23.89        41.1 0.18            129            158 354 
 ZAR  HZ EP   1    050  4.80                             122    0.86 6  201 292 
 ZAR  HN ES        050 29.25                             122    0.30 9  201 292 
 ZAR  HZ I         050 35.45        24.7 0.44            121            201 292 
 NOR  HZ EP   1    050  7.89                             118    0.45 6  234 234 
 NOR  HN ES        050 34.66                             118   -0.53 8  234 234 
 SML  HZ EP   1    050  8.17                             117    0.05 6  241 336 
 SML  HN ES        050 35.73                             117   -0.66 8  241 336 
 SML  HZ I         050 39.41        27.9 0.10            117            241 336 
 HEL  HZ EP   4    050 16.79                             115    4.96 0  271 255 
 HEL  HN ES   4    050 46.84                             115    3.84 0  271 255 
 HEL  HZ I         050 49.19         8.5 0.36            114            271 255 
 URE  HZ EP   4    050 12.15                             113   -0.42 0  281 292 
 URE  HN ES   4    050 43.14                             113   -1.17 0  281 292 
 URE  HZ I         050 53.38        11.1 0.24            113            281 292 
 GUY2CHZ EP        050 15.82                             112    0.48 7  301 234 
 GUY2CHE ES   4    050 52.46                             112    3.22 0  301 234 
 GUY2CHZ I         050 59.04         4.8 0.68                           301 234 
 PRA  HZ EP        050 25.24                             106   -0.17 6  393 209 
 PRA  HN ES        051  7.72                             106    0.55 6  393 209 
 PRA  HZ I         051 14.49         9.0 0.48            106            393 209 
 SJC  HZ EP   4    050 25.57                             106   -1.49 0  407 327 
 SJC  HN ES   4    051  7.14                             106   -2.97 0  407 327 
                                                                                
