 2012 10 3 0722  2.5 L   6.759 -73.131146.9  RSN  8 0.3 1.8LRSN                1
 GAP=188        0.52       3.8     4.5  4.9  0.7121E+01  0.6008E+01  0.5932E+01E
 Epicentro: LOS SANTOS - SANTANDER                                             3
 ACTION:UPD 12-11-22 17:01 OP:ep   STATUS:               ID:20121003072202 L   I
 2012-10-03-0720-00M.COL___223                                                 6
 STAT SP IPHASW D HRMM SECON CODA AMPLIT PERI AZIMU VELO AIN AR TRES W  DIS CAZ7
 BAR2 SZ EP        722 22.11                             172   -0.1010 19.3 197 
 BAR2 SZ ES   1    722 37.36                             172   -0.20 7 19.3 197 
 BAR2 SZ I         722 38.81        23.8 0.16                          19.3 197 
 GIR2 SZ EP   1    722 22.20                             166   -0.25 7 36.0 349 
 BRR  HZ EP   1    722 24.03                             152    0.04 7 74.9 301 
 BRR  HN ES   1    722 41.24                             152    0.49 7 74.9 301 
 BRR  HN I         722 41.56        46.1 0.17                          74.9 301 
 BRR  HZ I         722 42.38        15.4 0.15                          74.9 301 
 RUS  HZ EP   1    722 26.04                             145   -0.01 7 96.0 177 
 RUS  HZ I         722 28.94         0.6 0.09                          96.0 177 
 RUS  HN ES   1    722 44.53                             145    0.12 7 96.0 177 
 RUS  HN I         722 46.11        10.7 0.19                          96.0 177 
 ZAR  HE ES   1    723  0.92                             122   -0.07 6  207 293 
 ZAR  HN I         723  5.93        11.3 0.18                           207 293 
 CHI  HZ EP   1    722 39.93                             118    0.08 6  245 196 
 HEL  HN ES   2    723 13.38                             115   -0.92 4  273 257 
 HEL  HN I         723 20.57         4.9 0.21                           273 257 
 PRA  HZ EP   1    722 56.21                             107    0.50 4  389 210 
 PRA  HN ES   1    723 37.34                             107    0.14 4  389 210 
 PRA  HZ I         723 41.90         1.6 0.27                           389 210 
                                                                                
