 2014 10 3 0849 37.7 L   6.751 -73.167141.8  RSN  8 0.4 1.6LRSN                1
 GAP=231        0.80       4.1     5.5  6.3  0.8863E+01  0.8362E+01  0.8450E+01E
 Epicentro: LOS SANTOS - SANTANDER                                             3
 ACTION:UPD 14-11-29 23:46 OP:nd   STATUS:               ID:20141003084937 L   I
 OLDACT:REG 14-10-03 11:53 OP:stll STATUS:               ID:20141003084738     3
 2014-10-03-0847-38M.COL___285                                                 6
 STAT SP IPHASW D HRMM SECON CODA AMPLIT PERI AZIMU VELO AIN AR TRES W  DIS CAZ7
 BAR2 SZ EP   1    849 56.86                             173    0.07 7 17.6 186 
 BAR2 SZ ES   1    850 11.50                             173   -0.15 7 17.6 186 
 BAR2 SZ I         850 13.19        20.1 0.18            166           17.6 186 
 BRR  HZ EP        849 58.57                             152    0.0610 72.0 303 
 BRR  HN ES        850 15.11                             152    0.4110 72.0 303 
 BRR  HZ I         850 16.54         6.5 0.36            149           72.0 303 
 RUS  HN ES   1    850 18.24                             145   -0.42 7 95.4 174 
 RUS  HZ I         850 20.62         5.4 0.34            143           95.4 174 
 PTB  HZ EP        850  4.09                             132    0.00 9  144 261 
 PTB  HN ES        850 23.90                             132   -0.74 9  144 261 
 PTB  HZ I         850 28.99         3.6 0.34            129            144 261 
 SPBC HZ EP   1    850  5.36                             129   -0.04 7  158 220 
 SPBC HN ES   1    850 27.75                             129    0.78 7  158 220 
 SPBC HZ I         850 30.44         7.9 0.20            127            158 220 
 ZAR  HN ES        850 35.13                             121    0.10 9  204 294 
 ZAR  HZ I         850 40.84         4.3 0.28            121            204 294 
 ZAR  HZ E         854  2.04                                            204 294 
 CHI  HZ EP   1    850 14.75                             117    0.17 6  243 195 
 CHI  HN ES   1    850 43.49                             117    0.17 6  243 195 
 CHI  HZ I         850 47.74         1.7 0.68            117            243 195 
 PRA  HZ EP   1    850 29.74                             106   -0.70 4  386 210 
 PRA  HN ES   1    851 11.75                             106    0.21 4  386 210 
 PRA  HZ I         851 19.24         1.8 0.34            106            386 210 
                                                                                
