 2012  1 3 0714 56.4 L   6.789 -73.156147.3  RSN  9 0.3 1.7LRSN                1
 GAP=136        0.78       4.8     5.4  6.5 -0.2535E+01  0.4100E+01  0.1016E+02E
 Epicentro: LOS SANTOS - SANTANDER                                             3
 ACTION:UP  12-02-03 08:13 OP:REBC STATUS:               ID:20120103071456 L   I
 2012-01-03-0710-00M.COL___184                                                 6
 STAT SP IPHASW D HRMM SECON CODA AMPLIT PERI AZIMU VELO SNR AR TRES W  DIS CAZ7
 BAR2 SZ EP        715 16.05                             171    -0.110   22 188 
 BAR2 SZ ES   1    715 31.14                             171    -0.5 7   22 188 
 BAR2 SZ I         715 32.96        13.0 0.36                            22 188 
 BRR  HZ EP        715 17.98                             153     0.310   71 300 
 BRR  HE ES   1    715 34.95                             153     0.6 7   71 300 
 BRR  HZ I         715 38.64        10.7 0.18                            71 300 
 PAM  SZ EP        715 18.93                             150     0.010   79  40 
 PAM  SN ES   1    715 36.26                             150    -0.2 7   79  40 
 RUS  HZ EP        715 20.42                             144     0.210   99 175 
 RUS  HE ES   2    715 38.78                             144     0.0 5   99 175 
 RUS  HZ I         715 40.20         7.1 0.42                            99 175 
 PTB  HZ EP        715 22.95                             132    -0.4 9  146 259 
 PTB  HN ES   2    715 43.96                             132    -0.5 5  146 259 
 PTB  HZ I         715 49.70         4.3 0.36                           146 259 
 OCA  SZ EP   3    715 24.41                             130    -0.5 2  161 354 
 OCA  SZ I         715 52.60         7.2 0.43                           161 354 
 ZAR  HN ES   3    715 54.15                             123    -0.1 2  204 293 
 ZAR  HZ I         716  1.60         7.2 0.26                           204 293 
 NOR  SZ EP   3    715 31.30                             119    -0.8 2  233 235 
 CHI  HZ EP        715 34.22                             117     0.2 8  247 195 
 CHI  HN ES   2    716  3.84                             117     0.5 4  247 195 
 CHI  HZ I         716  8.91         3.0 0.84                           247 195 
                                                                                
