 2013  5 3 0737  0.0 L   6.793 -73.134151.5  RSN  5 0.5 1.9LRSN                1
 GAP=138        0.95       5.5     6.2 10.0 -0.2299E+01  0.1960E+01  0.2247E+01E
 Epicentro: LOS SANTOS - SANTANDER                                             3
 ACTION:UPD 13-06-20 09:47 OP:ep   STATUS:               ID:20130503073700 L   I
 2013-05-03-0730-00M.COL___253                                                 6
 STAT SP IPHASW D HRMM SECON CODA AMPLIT PERI AZIMU VELO AIN AR TRES W  DIS CAZ7
 BRR  HZ EP   1    737 22.18                             153    0.32 7 72.7 299 
 BRR  HN ES        737 39.45                             153    0.5510 72.7 299 
 BRR  HZ I         737 42.79        10.4 0.40             47           72.7 299 
 PAM  SZ EP   1    737 23.04                             152    0.22 7 77.2  38 
 PAM  SN ES        737 40.27                             152   -0.3510 77.2  38 
 PAM  SZ I         737 42.28        14.2 0.52             47           77.2  38 
 RUS  HZ EP   1    737 24.56                             145    0.29 7 99.7 177 
 RUS  HN ES        737 43.03                             145   -0.1510 99.7 177 
 PTB  HN ES   1    737 48.33                             133   -0.69 7  149 259 
 SML  HZ EP   2    737 35.99                             118   -1.11 4  245 335 
 SML  HZ I         738 13.16         7.8 0.26             37            245 335 
                                                                                
