 2013  3 3 0451  0.0 L   5.894 -73.689118.9  RSN  5 0.2 1.6LRSN                1
 GAP=128        0.53       3.5     4.6  7.7  0.4679E+01  0.1746E+02  0.1305E+02E
 Epicentro: PUENTE NACIONAL - SANTANDER                                        3
 ACTION:UPD 13-04-09 13:59 OP:ep   STATUS:               ID:20130303045100 L   I
 2013-03-03-0448-50M.COL___196                                                 6
 STAT SP IPHASW D HRMM SECON CODA AMPLIT PERI AZIMU VELO AIN AR TRES W  DIS CAZ7
 RUS  HZ EP   1    451 18.64                             149   -0.12 7 67.0  90 
 RUS  HN ES   2    451 33.23                             149   -0.16 5 67.0  90 
 BAR2 SZ EP        451 20.61                             139    0.1610 95.4  36 
 BAR2 SZ ES        451 36.27                             139   -0.1210 95.4  36 
 BAR2 SZ I         451 37.73        13.8 0.28            140           95.4  36 
 PTB  HZ EP   1 D  451 21.06                             134   -0.40 7  111 310 
 PTB  HZ I         451 22.16         3.0 0.18            135            111 310 
 PTB  HN ES   2    451 38.25                             134    0.06 5  111 310 
 BRR  HZ EP        451 23.41                             128   -0.1610  134 359 
 BRR  HN ES        451 42.25                             128    0.2910  134 359 
 BRR  HN I         451 43.10        12.4 0.20            129            134 359 
 CHI  HZ EP   1    451 25.00                             127    0.31 7  140 182 
                                                                                
