 2015  2 3 0440  8.0 L   6.819 -73.164140.1  RSN  8 0.7 1.5LRSN                1
 GAP=133        1.67       6.8    12.1 11.5 -0.1733E+02 -0.1140E+01  0.1574E+01E
 Epicentro: LOS SANTOS - SANTANDER                                             3
 ACTION:UPD 15-04-30 21:21 OP:nd   STATUS:               ID:20150203044008 L   I
 OLDACT:REG 15-02-03 13:36 OP:stll STATUS:               ID:20150203043748     3
 2015-02-03-0437-48M.COL___262                                                 6
 STAT SP IPHASW D HRMM SECON CODA AMPLIT PERI AZIMU VELO AIN AR TRES W  DIS CAZ7
 BAR2 EZ EP        440 27.00                             169   -0.0310 25.2 185 
 BAR2 EZ ES        440 41.34                             169   -0.5010 25.2 185 
 BAR2 EZ I         440 42.82         6.0 0.14            157           25.2 185 
 BRR  HZ EP        440 28.93                             152    0.5110 68.4 298 
 BRR  HN ES        440 45.49                             152    1.1710 68.4 298 
 BRR  HZ I         440 46.51         6.1 0.48            130           68.4 298 
 PAM  SZ EP        440 30.02                             150    0.3810 77.1  42 
 PAM  SZ I         440 30.26         9.5 0.18            134           77.1  42 
 RUS  HZ EP        440 31.69                             142    0.2810  103 175 
 RUS  HZ I         440 51.09         2.6 0.32                           103 175 
 PTB  HZ EP        440 34.33                             131   -0.08 9  146 258 
 PTB  HZ I         441  0.29         3.2 0.14            110            146 258 
 OCA  HN ES        440 56.16                             129   -1.10 9  158 354 
 SPBC HZ EP        440 36.54                             128    0.39 9  164 218 
 SPBC HE ES        440 56.99                             128   -1.08 9  164 218 
 SPBC HZ I         441  0.17         3.7 0.22            108            164 218 
 SML  HZ EP        440 43.66                             116   -0.39 8  241 336 
 SML  HZ I         441 16.10         3.3 0.26            102            241 336 
                                                                                
