 2013  6 3 0844  3.9 L   6.716 -73.200149.2  RSN  5 0.4 1.7LRSN                1
 GAP=176        1.01       7.5     8.0 12.8 -0.2109E+02 -0.2022E+02  0.2680E+02E
 Epicentro: VILLANUEVA - SANTANDER                                             3
 ACTION:UPD 14-01-08 09:52 OP:ep   STATUS:               ID:20130603084403 L   I
 2013-06-03-0840-00M.COL___257                                                 6
 STAT SP IPHASW D HRMM SECON CODA AMPLIT PERI AZIMU VELO AIN AR TRES W  DIS CAZ7
 BAR2 SZ EP   1    844 23.36                             174   -0.47 7 13.8 172 
 BAR2 SZ I         844 39.86         5.3 0.18            161           13.8 172 
 BRR  HZ EP        844 26.12                             153    0.6610 71.2 307 
 BRR  HN ES        844 42.60                             153    0.3510 71.2 307 
 BRR  HN I         844 43.25         8.6 0.18            162           71.2 307 
 PTB  HZ EP        844 30.52                             134   -0.01 9  140 262 
 PTB  HN ES        844 50.82                             134   -0.45 9  140 262 
 PTB  HN I         844 52.78         4.8 0.20            135            140 262 
 OCA  HN ES        844 55.81                             129   -0.45 9  169 356 
 OCA  HN I         844 59.73         8.3 0.22            127            169 356 
 ZAR  HE ES        845  1.81                             123    0.04 9  202 295 
 ZAR  HE I         845  5.44        12.0 0.16            123            202 295 
                                                                                
