 2014 11 3 0648 12.8 L   6.820 -73.139144.8  RSN  8 0.4 2.1LRSN                1
 GAP=136        1.06       3.4     5.5  6.4 -0.3260E+01  0.5519E+01  0.3180E+01E
 Epicentro: LOS SANTOS - SANTANDER                                             3
 ACTION:UPD 14-12-19 15:39 OP:nd   STATUS:               ID:20141103064812 L   I
 OLDACT:DUP 14-11-03 19:37 OP:carl STATUS:               ID:20141103063751d    3
 2014-11-03-0637-48M.COL___259                                                 6
 STAT SP IPHASW D HRMM SECON CODA AMPLIT PERI AZIMU VELO AIN AR TRES W  DIS CAZ7
 BAR2 SZ EP        648 32.53                             169    0.1410 25.7 191 
 BAR2 SZ ES        648 47.33                             169   -0.3310 25.7 191 
 BAR2 SZ I         648 48.80        22.2 0.22            169           25.7 191 
 BRR  HZ EP        648 34.43                             152    0.5810 70.8 297 
 BRR  HN ES        648 51.08                             152    0.8310 70.8 297 
 BRR  HZ I         648 56.18        20.1 0.14            152           70.8 297 
 PAM  SN ES        648 51.80                             151   -0.1610 75.2  40 
 PAM  SZ I         648 54.25        36.0 0.44            155           75.2  40 
 RUS  HZ EP        648 36.98                             143    0.3310  103 177 
 RUS  HN ES        648 55.40                             143    0.1710  103 177 
 RUS  HZ I         648 56.77        16.7 0.36            145            103 177 
 PTB  HZ EP        648 39.66                             131   -0.16 9  149 258 
 PTB  HN ES        649  0.66                             131   -0.22 9  149 258 
 PTB  HZ I         649  2.91        19.3 0.10            132            149 258 
 OCA  HZ EP        648 40.57                             130   -0.29 9  158 353 
 OCA  HN ES        649  2.11                             130   -0.62 9  158 353 
 OCA  HZ I         649  5.56        14.0 0.34            132            158 353 
 SPBC HZ EP        648 41.61                             128    0.15 9  165 219 
 SPBC HN ES        649  3.26                             128   -0.54 9  165 219 
 SPBC HZ I         649 10.39        14.4 0.30            130            165 219 
 CHI  HZ EP        648 51.03                             117    0.30 8  251 195 
 CHI  HN ES        649 19.76                             117   -0.54 8  251 195 
 CHI  HZ I         649 23.59         4.7 0.62            119            251 195 
                                                                                
