 2013  8 3 0511 58.3 L   6.848 -73.153140.7  RSN 10 0.5 1.8LRSN                1
 GAP=183        1.20       3.8     6.4  8.6 -0.1928E+01  0.1752E+02 -0.2608E+01E
 Epicentro: LOS SANTOS - SANTANDER                                             3
 ACTION:UPD 14-01-14 08:58 OP:ep   STATUS:               ID:20130803051158 L   I
 OLDACT:DUP 13-08-03 10:21 OP:calr STATUS:               ID:20130803050901d    3
 2013-08-03-0509-59M.COL___270                                                 6
 STAT SP IPHASW D HRMM SECON CODA AMPLIT PERI AZIMU VELO AIN AR TRES W  DIS CAZ7
 GIR2 SZ EP   1    512 17.67                             169    0.49 7 25.9 350 
 GIR2 SZ ES   1    512 31.47                             169   -0.48 7 25.9 350 
 GIR2 SZ I         512 34.30         9.3 0.34            166           25.9 350 
 BAR2 SZ EP   1    512 17.65                             168    0.26 7 28.5 186 
 BAR2 SZ ES   1    512 31.63                             168   -0.69 7 28.5 186 
 BAR2 SZ I         512 33.38         9.6 0.28            166           28.5 186 
 BRR  HZ EP   1    512 19.49                             153    0.82 7 68.0 295 
 BRR  HN ES        512 35.48                             153    0.8810 68.0 295 
 BRR  HN I         512 36.81        31.6 0.28            148           68.0 295 
 RUS  HN ES        512 40.48                             141    0.1110  106 176 
 RUS  HZ I         512 42.05         7.3 0.28            142            106 176 
 PTB  HZ EP   1    512 24.59                             131   -0.25 7  148 257 
 PTB  HE ES        512 45.15                             131   -0.42 9  148 257 
 PTB  HZ I         512 50.71         7.1 0.16            128            148 257 
 OCA  HN ES        512 46.97                             130   -0.06 9  155 353 
 SPBC HZ EP   1    512 27.11                             127    0.39 7  167 218 
 SPBC HN ES        512 48.53                             127   -0.40 9  167 218 
 SPBC HZ I         512 54.48         5.4 0.28            126            167 218 
 ZAR  HN ES        512 55.58                             122    0.67 9  201 291 
 ZAR  HN I         513  0.36        12.4 0.52            120            201 291 
 NOR  HZ EP   1    512 34.19                             117    0.23 6  237 233 
 NOR  HN ES        513  1.39                             117   -0.42 8  237 233 
 NOR  HZ I         513  9.21         3.5 0.20            116            237 233 
 SML  HZ EP   1    512 33.42                             117   -0.61 6  238 335 
 SML  HN ES        513  0.98                             117   -0.95 8  238 335 
 SML  HZ I         513 11.73         6.9 0.10            116            238 335 
                                                                                
