 2014 12 3 0520 44.7 L   6.784 -73.134144.2  RSN 10 0.5 1.5LRSN                1
 GAP=184        1.12       4.0     5.6  7.1 -0.1809E+01  0.1619E+02  0.3028E+00E
 Epicentro: LOS SANTOS - SANTANDER                                             3
 ACTION:UPD 15-02-10 17:00 OP:nd   STATUS:               ID:20141203052044 L   I
 OLDACT:REG 14-12-03 12:48 OP:fm   STATUS:               ID:20141203051742     3
 2014-12-03-0517-42M.COL___303                                                 6
 STAT SP IPHASW D HRMM SECON CODA AMPLIT PERI AZIMU VELO AIN AR TRES W  DIS CAZ7
 BAR2 SZ EP        521  4.80                             171    0.6610 21.9 194 
 BAR2 SZ ES        521 18.91                             171   -0.3710 21.9 194 
 BAR2 SZ I         521 20.61         6.5 0.32            169           21.9 194 
 BRR  HZ IP     C  521  6.56                             152    0.7410 73.2 299 
 BRR  HN ES        521 22.50                             152    0.2210 73.2 299 
 BRR  HZ I         521 27.49         8.7 0.12            149           73.2 299 
 RUS  HE ES        521 26.40                             144   -0.0910 98.7 177 
 RUS  HZ I         521 27.64         2.0 0.20            147           98.7 177 
 PTB  HZ EP        521 11.49                             131   -0.16 9  149 260 
 PTB  HE ES        521 32.55                             131   -0.11 9  149 260 
 PTB  HZ I         521 35.11         4.8 0.20            131            149 260 
 OCA  HN ES        521 34.52                             129   -0.70 9  162 353 
 OCA  HZ I         521 37.87         4.4 0.22            131            162 353 
 SPBC HZ EP        521 12.48                             129   -0.57 9  163 220 
 SPBC HN ES        521 35.10                             129   -0.05 9  163 220 
 SPBC HZ I         521 39.57         5.2 0.10            130            163 220 
 ZAR  HZ EP        521 17.67                             122    0.40 8  206 292 
 ZAR  HN ES        521 42.96                             122    0.31 8  206 292 
 ZAR  HZ I         521 48.59         4.3 0.36            122            206 292 
 NOR  HZ EP   4    521 17.95                             118   -2.42 0  235 235 
 NOR  HE ES        521 48.77                             118    0.60 8  235 235 
 NOR  HZ I         521 52.68         3.0 0.30            119            235 235 
 HEL  HZ EP        521 24.40                             114   -0.55 8  273 256 
 HEL  HN ES        521 55.55                             114   -0.78 8  273 256 
 HEL  HZ I         522  4.31         1.6 0.42            115            273 256 
 GUY2CHZ EP        521 28.14                             112   -0.13 7  301 235 
 GUY2CHN ES        522  2.42                             112    0.19 7  301 235 
 GUY2CHZ I         522 11.23         2.0 0.32                           301 235 
                                                                                
