 2010  6 3 0942 32.8 L   6.831 -73.111142.0  RSN  8 0.5 2.1LRSN                1
 GAP=181        0.94       6.0    11.1  8.3 -0.3857E+02  0.2213E+02 -0.5848E+01E
 Epicentro: LOS SANTOS - SANTANDER                                             3
 ACTION:UP  10-08-24 10:08 OP:vdl  STATUS:               ID:20100603094232 L   I
 2010-06-03-0939-23S.COL___109                                                 6
 STAT SP IPHASW D HRMM SECON CODA AMPLIT PERI AZIMU VELO SNR AR TRES W  DIS CAZ7
 BAR2 SZ IP        942 51.71                             168    -0.410   28 197 
 BAR2 SZ ES   1    943  6.99                             168    -0.1 7   28 197 
 GIR2 SZ EP   2    942 51.82                             168    -0.2 5   29 342 
 GIR2 SZ ES   2    943  7.36                             168     0.4 5   29 342 
 GUE  SZ IP        942 56.67                             140    -0.210  112  11 
 GRA  SZ IP        942 57.49                             137     0.110  121  16 
 GRA  SZ ES   1    943 17.31                             137     0.8 7  121  16 
 OCA  SZ IP        943  0.06                             129    -0.5 9  157 352 
 OCA  SZ ES   1    943 22.27                             129     0.1 7  157 352 
 OCA  SZ I         943 26.83        14.1 0.32                           157 352 
 ROSC BZ EP   1    943 12.12                             116     0.8 6  258 211 
 ROSC BZ I         943 48.37         8.8 0.53                           258 211 
 HEL  HE ES   2    943 44.59                             114    -0.4 4  277 255 
 HEL  HZ I         943 50.99         5.6 0.67                           277 255 
 RREF BZ EP   2    943 19.90                             110     0.5 3  327 229 
 RREF BN ES   2    943 56.55                             110     0.8 3  327 229 
 RREF BZ I         944  3.35         4.3 0.26                           327 229 
                                                                                
