 2014  8 3 0709 30.4 L   6.570 -73.471115.7  RSN 20 0.5 2.3LRSN                1
 GAP= 65        1.11       2.1     2.9  4.8 -0.1380E+01  0.5159E+01  0.9203E-01E
 Epicentro: EL CARMEN - SANTANDER                                              3
 ACTION:UPD 14-09-15 21:46 OP:nd   STATUS:               ID:20140803070930 L   I
 OLDACT:REG 14-08-03 13:16 OP:carl STATUS:               ID:20140803070818     3
 2014-08-03-0708-18M.COL___227                                                 6
 STAT SP IPHASW D HRMM SECON CODA AMPLIT PERI AZIMU VELO AIN AR TRES W  DIS CAZ7
 BAR2 SZ EP     D  7 9 46.67                             164   -0.0210 32.0  86 
 BAR2 SZ ES        7 9 59.46                             164    0.0610 32.0  86 
 BAR2 SZ I         710  1.33       125.5 0.24            170           32.0  86 
 BRR  HZ IP     C  7 9 47.99                             149   -0.0010 65.1 336 
 BRR  HN ES        710  2.61                             149    0.9010 65.1 336 
 BRR  HZ I         710 10.89        35.5 0.34            149           65.1 336 
 RUS  HZ EP        7 9 50.01                             141   -0.1810 86.4 150 
 RUS  HN ES        710  5.95                             141    0.3310 86.4 150 
 RUS  HZ I         710  7.06        35.3 0.36            145           86.4 150 
 PTB  HZ IP     C  7 9 50.49                             133   -0.9210  109 268 
 PTB  HN ES        710  7.30                             133   -0.4910  109 268 
 PTB  HZ I         710 10.95        55.9 0.38            134            109 268 
 PAM  SZ EP        7 9 52.68                             131   -0.4110  120  45 
 PAM  SE ES        710 10.15                             131   -0.6310  120  45 
 PAM  SZ I         710 14.72        16.6 0.20            136            120  45 
 SPBC HZ EP     C  7 9 52.59                             130   -0.0410  121 213 
 SPBC HN ES        710  9.58                             130   -0.4010  121 213 
 SPBC HZ I         710 16.44        76.3 0.24            132            121 213 
 ZAR  HZ EP        7 9 59.44                             118    0.54 9  184 304 
 ZAR  HE ES        710 21.44                             118    0.31 9  184 304 
 ZAR  HZ I         710 26.72        31.1 0.24            120            184 304 
 OCA  HZ EP        710  0.02                             118    0.80 9  185   5 
 OCA  HN ES        710 21.88                             118    0.18 9  185   5 
 OCA  HZ I         710 26.47        25.7 0.16            121            185   5 
 NOR  HZ EP        7 9 59.38                             117   -0.29 9  191 234 
 NOR  HN ES        710 22.81                             117    0.31 9  191 234 
 NOR  HZ I         710 25.75        23.4 0.14            119            191 234 
 CHI  HZ EP        710  3.26                             114    0.27 8  217 188 
 CHI  HN ES        710 28.24                             114   -0.17 8  217 188 
 CHI  HZ I         710 34.33         9.2 0.24            116            217 188 
 HEL  HZ EP        710  4.99                             112    0.38 8  231 260 
 HEL  HN ES        710 31.93                             112    0.63 8  231 260 
 HEL  HZ I         710 37.68        17.0 0.22            114            231 260 
 SML  HZ EP        710  5.91                             109   -0.97 8  255 345 
 SML  HN ES        710 35.48                             109    0.14 8  255 345 
 SML  HZ I         710 40.92        43.6 0.22            112            255 345 
 GUY2CHZ EP        710  7.83                             109    0.15 8  257 235 
 GUY2CHN ES        710 36.62                             109   -0.14 8  257 235 
 GUY2CHZ I         710 44.61        13.0 0.30                           257 235 
 URE  HZ EP        710  8.04                             109    0.32 8  263 300 
 URE  HN ES        710 35.31                             109   -1.52 8  263 300 
 URE  HZ I         710 37.41        25.1 0.34            111            263 300 
 RREF HZ EP        710 10.45                             108    0.17 7  278 228 
 RREF HN ES        710 41.70                             108    0.31 7  278 228 
 RREF HZ I         710 51.29        13.8 0.24            110            278 228 
 CBOC HZ EP        710 11.31                             106   -0.02 7  292 255 
 CBOC HN ES        710 42.96                             106   -0.29 7  292 255 
 CBOC HZ I         710 53.94         4.5 0.54            108            292 255 
 TOL  SZ EP        710 12.69                             106    0.18 7  300 223 
 TOL  SN ES        710 45.29                             106   -0.07 7  300 223 
 TOL  SZ I         710 54.48        17.7 0.32            108            300 223 
 PRA  HZ EP        710 18.21                             103   -0.14 6  353 206 
 PRA  HN ES        710 56.00                             103    0.25 6  353 206 
 PRA  HZ I         711  6.57         9.6 0.72            105            353 206 
 ORTC HZ EP        710 18.85                             103    0.35 6  354 214 
 ORTC HN ES        710 56.28                             103    0.26 6  354 214 
 ORTC HZ I         711  6.43         6.6 0.26            105            354 214 
 ARGC HZ EP        710 21.08                             102    0.29 6  373 347 
 ARGC HN ES        711  0.54                             102    0.45 6  373 347 
 ARGC HZ I         711 10.01         6.1 0.28            104            373 347 
                                                                                
