 2012  2 3 0230 12.1 L   6.783 -73.131146.7  RSN  8 0.2 1.7LRSN                1
 GAP=139        0.45       2.6     3.2  5.0  0.1191E+01  0.5804E+01  0.6589E+01E
 ACTION:UP  12-03-07 16:27 OP:epov STATUS:               ID:20120203023012 L   I
 2012-02-03-0230-00M.COL___188                                                 6
 STAT SP IPHASW D HRMM SECON CODA AMPLIT PERI AZIMU VELO SNR AR TRES W  DIS CAZ7
 BAR2 SZ EP   1    230 31.70                             171   -0.09 7 21.9 195 
 BAR2 SZ I         230 48.71        14.5 0.31                          21.9 195 
 BRR  HZ EP   1    230 33.72                             152    0.27 7 73.5 299 
 BRR  HN ES   1    230 50.44                             152    0.32 7 73.5 299 
 BRR  HZ I         230 53.26        12.5 0.14                          73.5 299 
 PAM  SN ES   1    230 51.77                             151   -0.07 7 77.8  38 
 RUS  HZ EP   1    230 35.75                             145   -0.03 7 98.6 177 
 RUS  HN ES   1    230 54.12                             145   -0.15 7 98.6 177 
 RUS  HZ I         230 55.76         6.1 0.31                          98.6 177 
 ZAR  HN ES   1    231  9.85                             122   -0.48 6  206 292 
 NOR  SZ EP   1    230 47.70                             119   -0.19 6  235 235 
 NOR  SN ES   1    231 15.94                             119    0.13 6  235 235 
 CHI  HZ EP   1    230 49.95                             117    0.27 6  247 196 
 CHI  HN ES   1    231 18.78                             117   -0.23 6  247 196 
 CHI  HZ I         231 23.45         3.8 0.43                           247 196 
 PRA  HZ EP   1    231  5.48                             107   -0.06 4  391 210 
 PRA  HN ES   1    231 47.62                             107    0.39 4  391 210 
                                                                                
