 2010 11 3 0714 37.6 L   6.792 -73.090146.1  RSN 11 0.4 1.9LRSN                1
 GAP=165        0.67       3.4     5.5  5.4 -0.6998E+01  0.9890E+00 -0.1029E+01E
 Epicentro: LOS SANTOS - SANTANDER                                             3
 ACTION:DUP 10-12-17 16:50 OP:REBC STATUS:               ID:20101103071438dL   I
 2010-11-03-0709-30S.COL___128                                                 6
 STAT SP IPHASW D HRMM SECON CODA AMPLIT PERI AZIMU VELO SNR AR TRES W  DIS CAZ7
 BTL  SZ EP   1    714 57.43                             170     0.1 7   24 305 
 BAR2 SZ EP        714 57.29                             170     0.010   24 205 
 BAR2 SZ ES   1    715 12.70                             170     0.0 7   24 205 
 BAR2 SZ I         715 14.17        16.4 0.32                            24 205 
 BRR  HZ IP     C  714 59.05                             151    -0.110   77 297 
 BRR  HZ I         714 59.29        22.4 0.13                            77 297 
 BRR  HE ES   1    715 15.79                             151    -0.1 7   77 297 
 RUS  HZ EP   2    715  0.40                             144    -0.9 5  100 180 
 RUS  HE ES   2    715 20.17                             144     0.4 5  100 180 
 RUS  HZ I         715 22.41         9.8 0.33                           100 180 
 GUE  SZ EP   1    715  2.22                             140    -0.1 7  116   9 
 GRA  SZ EP        715  3.12                             137     0.310  125  15 
 GRA  SZ ES   2    715 22.59                             137     0.1 5  125  15 
 GRA  SZ I         715 27.31         5.7 0.24                           125  15 
 OCA  SZ EP        715  5.77                             129    -0.3 9  162 351 
 OCA  SZ ES   1    715 28.60                             129     0.3 7  162 351 
 OCA  SZ I         715 32.03        10.5 0.28                           162 351 
 NOR  SZ EP   2    715 13.18                             118    -0.7 4  239 236 
 NOR  SN ES   2    715 42.12                             118     0.0 4  239 236 
 ROSC BZ EP   2    715 16.29                             116     0.3 4  255 212 
 ROSC BZ I         715 53.96         6.1 0.26                           255 212 
 HEL  HZ EP   2    715 19.47                             114     1.0 4  278 256 
 HEL  HE ES   2    715 50.30                             114    -0.1 4  278 256 
 HEL  HZ I         715 56.59         3.4 0.12                           278 256 
 PRA  HZ EP   2    715 31.94                             106     0.5 3  394 210 
 PRA  HN ES   2    716 14.08                             106     0.7 3  394 210 
                                                                                
