 2012 12 3 0955 50.6 L   6.803 -73.184136.0  RSN  7 0.3 1.7LRSN                1
 GAP=132        0.53       2.7     3.2  4.8 -0.2548E+00  0.5737E+01 -0.6245E+00E
 Epicentro: LOS SANTOS - SANTANDER                                             3
 ACTION:UPD 13-01-04 14:25 OP:ep   STATUS:               ID:20121203095550 L   I
 2012-12-03-0950-00M.COL___236                                                 6
 STAT SP IPHASW D HRMM SECON CODA AMPLIT PERI AZIMU VELO AIN AR TRES W  DIS CAZ7
 BAR2 SZ EP   1    956  8.99                             170   -0.04 7 23.3 179 
 BAR2 SZ ES   1    956 23.38                             170   -0.04 7 23.3 179 
 BAR2 SZ I         956 24.58        21.5 0.32                          23.3 179 
 GIR2 SZ EP   1    956  9.11                             167    0.05 7 30.5 358 
 GIR2 SZ ES   1    956 23.75                             167    0.27 7 30.5 358 
 PAM  SZ EP   1    956 11.98                             148    0.06 7 79.9  42 
 PAM  SN ES   1    956 28.73                             148    0.16 7 79.9  42 
 PAM  SZ I         956 30.36         7.7 0.20                          79.9  42 
 RUS  HZ EP   1    956 13.51                             141    0.08 7  101 174 
 RUS  HN ES   1    956 31.11                             141   -0.15 7  101 174 
 RUS  HZ I         956 32.50         6.3 0.36                           101 174 
 PTB  HZ EP   1    956 16.07                             130   -0.30 7  144 258 
 PTB  HN ES   1    956 36.30                             130   -0.20 7  144 258 
 PTB  HZ I         956 39.05         7.5 0.18                           144 258 
 OCA  HN ES   1    956 38.89                             127   -0.62 7  159 355 
 OCA  HZ I         956 40.27         6.9 0.36                           159 355 
 ZAR  HZ EP   1    956 22.41                             121    0.44 6  200 293 
 ZAR  HN ES   1    956 46.78                             121    0.32 6  200 293 
 ZAR  HZ I         956 55.32         5.1 0.54                           200 293 
                                                                                
