 2015  1 3 0518 44.9 L   6.790 -73.128144.2  RSN  8 0.3 1.6LRSN                1
 GAP=112        0.80       3.1     3.7  5.4  0.3818E+00 -0.1332E+01 -0.3300E+01E
 Epicentro: LOS SANTOS - SANTANDER                                             3
 ACTION:UPD 15-03-02 15:36 OP:nd   STATUS:               ID:20150103051844 L   I
 OLDACT:REG 15-01-03 14:58 OP:stll STATUS:               ID:20150103051745     3
 2015-01-03-0517-45M.COL___277                                                 6
 STAT SP IPHASW D HRMM SECON CODA AMPLIT PERI AZIMU VELO AIN AR TRES W  DIS CAZ7
 BAR2 EZ EP        519  4.28                             171   -0.0510 22.7 195 
 BAR2 EZ ES        519 19.07                             171   -0.4110 22.7 195 
 BAR2 EZ I         519 20.26         5.6 0.18            172           22.7 195 
 BRR  HZ EP        519  6.31                             151    0.3010 73.5 299 
 BRR  HE ES        519 22.79                             151    0.3110 73.5 299 
 PTB  HZ EP        519 12.14                             131    0.24 9  149 259 
 PTB  HN ES        519 32.62                             131   -0.34 9  149 259 
 PTB  HZ I         519 34.15         3.7 0.16            130            149 259 
 TAM  HZ EP        519 12.48                             131    0.23 9  153 105 
 TAM  HZ I         519 12.65         9.4 0.20            132            153 105 
 OCA  HN ES        519 35.44                             129    0.13 9  162 352 
 OCA  HZ I         519 39.58         4.4 0.18            127            162 352 
 SPBC HN ES        519 35.55                             129    0.07 9  164 220 
 SPBC HZ I         519 38.48         3.4 0.26            129            164 220 
 ZAR  HZ EP        519 17.46                             122   -0.02 8  206 292 
 ZAR  HN ES        519 43.12                             122    0.23 8  206 292 
 ZAR  HZ I         519 50.97         3.1 0.44            120            206 292 
 SML  HZ EP        519 20.76                             117   -0.88 8  246 335 
 SML  HN ES        519 50.24                             117   -0.06 8  246 335 
 SML  HZ I         519 59.76         4.1 0.10            115            246 335 
                                                                                
