 2011  6 3 0756 56.8 L   6.279 -73.632107.5  RSN  5 0.2 1.3LRSN                1
 GAP=115        0.49       3.3     3.1  7.1 -0.1866E+01  0.5531E+01  0.2266E+01E
 Epicentro: SANTA HELENA DEL OPON - SANTANDER                                  3
 ACTION:UP  11-07-14 19:02 OP:ep   STATUS:               ID:20110603075656 L   I
 2011-06-03-0754-32S.COL___132                                                 6
 STAT SP IPHASW D HRMM SECON CODA AMPLIT PERI AZIMU VELO SNR AR TRES W  DIS CAZ7
 RUS  HZ EP   1    757 14.74                             143    -0.2 7   74 125 
 RUS  HN ES   2    757 29.33                             143     0.3 5   74 125 
 RUS  HZ I         757 30.24         2.5 0.28                            74 125 
 BRR  HZ EP   1    757 15.29                             136    -0.4 7   92 354 
 BRR  HZ I         757 24.00         8.0 0.14                            92 354 
 BRR  HN ES   1    757 30.40                             136     0.1 7   92 354 
 PAM  SZ EP   1    757 22.64                             120     0.2 7  156  41 
 PAM  SN ES   2    757 42.54                             120     0.0 5  156  41 
 NOR  SN ES   2    757 41.71                             119    -0.2 5  158 240 
 HEL  HZ EP   1    757 28.61                             112     0.3 6  210 267 
 HEL  HN ES   2    757 52.81                             112     0.0 4  210 267 
 HEL  HZ I         757 55.99         2.6 0.33                           210 267 
                                                                                
