 2013  3 3 0944 11.2 L   6.794 -73.144148.0  RSN  7 0.5 1.7LRSN                1
 GAP=137        1.27       5.1     6.6  8.0 -0.3397E+01  0.8276E+01  0.5483E+00E
 Epicentro: LOS SANTOS - SANTANDER                                             3
 ACTION:UPD 13-04-09 13:59 OP:ep   STATUS:               ID:20130303094411 L   I
 2013-03-03-0938-50M.COL___196                                                 6
 STAT SP IPHASW D HRMM SECON CODA AMPLIT PERI AZIMU VELO AIN AR TRES W  DIS CAZ7
 BAR2 SZ EP        944 31.28                             171    0.1910 22.7 191 
 BAR2 SZ ES        944 46.35                             171   -0.2410 22.7 191 
 BAR2 SZ I         944 47.76        10.2 0.32            170           22.7 191 
 BRR  HZ EP        944 33.18                             153    0.5610 71.7 299 
 BRR  HN ES        944 50.07                             153    0.7510 71.7 299 
 BRR  HE I         944 58.97         9.9 0.20            150           71.7 299 
 PAM  SZ EP        944 34.13                             151    0.4510 77.8  39 
 PAM  SZ I         944 34.33         8.6 0.44            155           77.8  39 
 PAM  SN ES        944 50.42                             151   -0.7910 77.8  39 
 RUS  HZ EP        944 35.23                             145    0.1110 99.9 176 
 RUS  HN ES        944 54.08                             145    0.3010 99.9 176 
 RUS  HN I         944 55.63         5.1 0.20            149           99.9 176 
 PTB  HZ EP        944 38.14                             132   -0.21 9  148 259 
 PTB  HN ES        944 59.11                             132   -0.42 9  148 259 
 PTB  HN I         945  4.81        13.2 0.44            133            148 259 
 SML  HZ EP        944 47.29                             118   -0.74 8  244 335 
 CHI  HZ EP   2    944 49.83                             118    0.87 4  248 195 
 CHI  HN ES        945 17.69                             118   -0.71 8  248 195 
                                                                                
