 2012  1 3 0639 21.4 L   6.779 -73.140138.1  RSN  8 0.5 1.8LRSN                1
 GAP=138        1.21       6.0     8.5 11.0  0.7070E-01  0.3686E+02  0.6856E+01E
 Epicentro: LOS SANTOS - SANTANDER                                             3
 ACTION:UP  12-02-03 08:13 OP:REBC STATUS:               ID:20120103063921 L   I
 2012-01-03-0637-59S.COL___184                                                 6
 STAT SP IPHASW D HRMM SECON CODA AMPLIT PERI AZIMU VELO SNR AR TRES W  DIS CAZ7
 BAR2 SZ EP        639 40.20                             171     0.110   21 193 
 BAR2 SZ ES   2    639 54.08                             171    -0.6 5   21 193 
 BAR2 SZ I         639 56.55        12.2 0.22                            21 193 
 BRR  HZ EP        639 42.00                             150     0.110   73 300 
 BRR  HE ES   2    639 58.77                             150     1.0 5   73 300 
 BRR  HZ I         640  2.15        16.9 0.12                            73 300 
 PAM  SZ EP        639 43.09                             149     0.210   79  38 
 PAM  SN ES   1    639 59.56                             149    -0.1 7   79  38 
 RUS  HZ EP        639 44.30                             143     0.010   98 176 
 RUS  HN ES   2    640  1.89                             143    -0.2 5   98 176 
 RUS  HZ I         640  4.39         6.2 0.24                            98 176 
 PTB  HZ EP        639 46.83                             130    -1.0 9  148 260 
 PTB  HZ I         640 12.89         5.5 0.12                           148 260 
 OCA  SZ EP        639 49.05                             127    -0.3 9  163 353 
 OCA  SZ I         640 13.44        10.2 0.17                           163 353 
 ZAR  HZ EP        639 54.34                             120     0.8 8  206 293 
 ZAR  HN ES   2    640 18.21                             120    -0.4 4  206 293 
 ZAR  HZ I         640 25.02         7.3 0.12                           206 293 
 CHI  HZ EP        639 58.73                             116     0.2 8  247 195 
 CHI  HE ES   2    640 27.82                             116     0.4 4  247 195 
 CHI  HZ I         640 35.63         4.3 0.50                           247 195 
                                                                                
