 2013  7 3 0102  3.5 L   6.063 -73.709116.0  RSN 25 0.5 2.9LRSN 3.4WRSN        1
 SPEC AVERAGE  MO 14.1 ST  3.4 OM  2.4 f0 2.67 R0.9225 AL 1.58 WI 32.5 MW  3.4 3
 SPEC SD       MO  0.4 ST  4.3 OM  0.4 f00.966 R0.3505 AL      WI      MW  0.2 3
 GAP= 61        1.23       2.0     2.3  5.6 -0.1414E+01  0.1292E+01 -0.1320E+00E
 Epicentro: BOLIVAR - SANTANDER                                                3
 SPEC OCA HH N MO 14.6 ST  4.3 OM  2.5 f0 2.59 R0.7429 AL 1.28 WI 37.2 MW  3.7 3
 SPEC OCA HH N T 1 3 5 K 0.050 GD  270 VS 5.20 DE 3.20 Q0750.0 QA 1.50 VS 5.20 3
 SPEC RREFHH Z MO 13.7 ST0.559 OM  1.6 f0 2.68 R0.7179 AL 1.32 WI 38.2 MW  3.1 3
 SPEC RREFHH Z T 1 3 3 K 0.050 GD  250 VS 5.20 DE 3.20 Q0750.0 QA 1.50 VS 5.20 3
 SPEC VIL SH N MO 14.6 ST0.451 OM  2.5 f0 1.26 R1.5270 AL 1.47 WI 38.7 MW  3.7 3
 SPEC VIL SH N T 1 3 0 K 0.050 GD  245 VS 5.20 DE 3.20 Q0750.0 QA 1.50 VS 5.20 3
 SPECGUY2CHH N MO 14.1 ST0.261 OM 2.03 f0 1.53 R1.2609 AL 1.86 WI 39.0 MW  3.3 3
 SPECGUY2CHH N T 1 259 K 0.050 GD  235 VS 5.20 DE 3.20 Q0750.0 QA 1.50 VS 5.20 3
 SPEC ZAR HH E MO 14.6 ST 12.4 OM  2.6 f0 3.58 R0.5374 AL 2.12 WI 37.3 MW  3.7 3
 SPEC ZAR HH E T 1 257 K 0.050 GD  233 VS 5.20 DE 3.20 Q0750.0 QA 1.50 VS 5.20 3
 SPEC HEL HH N MO 13.8 ST0.271 OM  1.8 f0 1.85 R1.0400 AL 1.09 WI 35.6 MW  3.2 3
 SPEC HEL HH N T 1 257 K 0.050 GD  232 VS 5.20 DE 3.20 Q0750.0 QA 1.50 VS 5.20 3
 SPEC PAM SH N MO 13.9 ST0.719 OM  1.9 f0 2.44 R0.7885 AL 1.20 WI 35.1 MW  3.2 3
 SPEC PAM SH N T 1 253 K 0.050 GD  214 VS 5.20 DE 3.20 Q0750.0 QA 1.50 VS 5.20 3
 SPEC CHI HH N MO 13.8 ST0.390 OM  1.8 f0 2.21 R0.8706 AL 0.97 WI 34.0 MW  3.1 3
 SPEC CHI HH N T 1 249 K 0.050 GD  196 VS 5.20 DE 3.20 Q0750.0 QA 1.50 VS 5.20 3
 SPEC ROSCBH Z MO 13.6 ST0.328 OM  1.6 f0 2.46 R0.7821 AL 2.04 WI 27.2 MW  3.0 3
 SPEC ROSCBH Z T 1 250 K 0.050 GD  190 VS 5.20 DE 3.20 Q0750.0 QA 1.50 VS 5.20 3
 SPEC NOR HH E MO 14.2 ST 11.5 OM  2.3 f0 4.77 R0.4034 AL 3.06 WI 33.3 MW  3.4 3
 SPEC NOR HH E T 1 245 K 0.050 GD  181 VS 5.20 DE 3.20 Q0750.0 QA 1.50 VS 5.20 3
 SPEC BRR HH N MO 14.3 ST  6.1 OM  2.4 f0 3.71 R0.5186 AL 1.62 WI 36.9 MW  3.5 3
 SPEC BRR HH N T 1 243 K 0.050 GD  163 VS 5.20 DE 3.20 Q0750.0 QA 1.50 VS 5.20 3
 SPEC BAR2SH Z MO 14.1 ST  4.2 OM  2.3 f0 3.70 R0.5200 AL 1.48 WI 10.6 MW  3.4 3
 SPEC BAR2SH Z T 1 237 K 0.050 GD  142 VS 5.20 DE 3.20 Q0750.0 QA 1.50 VS 5.20 3
 SPEC RUS HH E MO 14.5 ST0.079 OM  2.7 f00.734 R2.6213 AL 1.26 WI 25.5 MW  3.6 3
 SPEC RUS HH E T 1 236 K 0.050 GD  136 VS 5.20 DE 3.20 Q0750.0 QA 1.50 VS 5.20 3
 ACTION:UPD 13-08-12 10:34 OP:ep   STATUS:               ID:20130703010203 L   I
 OLDACT:UP  13-07-03 10:30 OP:stll STATUS:               ID:20130703005844     3
 OLDACT:REG 13-07-03 08:21 OP:stll STATUS:               ID:20130703005844     3
 2013-07-03-0058-44M.COL___230                                                 6
 STAT SP IPHASW D HRMM SECON CODA AMPLIT PERI AZIMU VELO AIN AR TRES W  DIS CAZ7
 RUS  HZ IP     D  1 2 22.24                             146   -0.0610 71.8 105 
 RUS  HE ES        1 2 36.11                             146   -0.8310 71.8 105 
 RUS  HE I         1 2 38.10       101.7 0.48            147           71.8 105 
 BAR2 SZ IP     D  1 2 22.99                             142    0.2810 82.6  45 
 BAR2 SZ ES        1 2 37.58                             142   -0.0910 82.6  45 
 BAR2 SZ I         1 2 39.14       384.6 0.28            143           82.6  45 
 PTB  HZ IP     C  1 2 22.72                             137   -0.9010 98.0 303 
 PTB  HE ES        1 2 39.65                             137    0.3610 98.0 303 
 PTB  HE I         1 2 40.24       208.2 0.26            138           98.0 303 
 BRR  HZ IP     C  1 2 25.21                             132    0.0810  115 360 
 BRR  HZ I         1 2 25.52        65.0 0.14            133            115 360 
 BRR  HN ES        1 2 43.21                             132    1.2410  115 360 
 GIR2 SZ EP        1 2 26.61                             129    0.3210  126  27 
 NOR  HZ EP        1 2 26.87                             126   -0.64 9  140 247 
 NOR  HE ES        1 2 45.96                             126   -0.26 9  140 247 
 NOR  HE I         1 2 48.31       240.5 0.18            126            140 247 
 ROSC BZ EP        1 2 29.52                             124    0.42 9  151 207 
 ROSC BN ES        1 2 49.51                             124    0.46 9  151 207 
 CHI  HZ IP     D  1 2 29.64                             122   -0.24 9  159 181 
 CHI  HN ES        1 2 50.29                             122   -0.13 9  159 181 
 YOP  SZ EP        1 2 30.19                             121    0.26 9  163 119 
 YOP  SE ES        1 2 51.17                             121    0.65 9  163 119 
 YOP  SE I         1 2 52.62       104.2 0.24            122            163 119 
 PAM  SZ EP        1 2 32.39                             119    0.16 9  180  38 
 PAM  SN ES        1 2 53.74                             119   -0.87 9  180  38 
 PAM  SN I         1 2 59.22        50.9 0.24            120            180  38 
 HEL  HZ EP        1 2 35.09                             115    0.63 9  202 274 
 HEL  HN ES        1 2 57.86                             115   -0.72 9  202 274 
 ZAR  HZ EP        1 2 33.91                             115   -0.18 9  203 321 
 ZAR  HE ES        1 2 58.02                             115    0.09 9  203 321 
 ZAR  HE I         1 3  0.07       292.9 0.42            116            203 321 
 GUY2CHZ IP     C  1 2 35.54                             115    0.55 8  205 243 
 GUY2CHN ES        1 2 58.85                             115   -0.68 8  205 243 
 GUY2CHN I         1 3  2.70        44.1 0.34                           205 243 
 TAM  HZ EP        1 2 35.63                             113   -0.00 8  216  79 
 TAM  HE ES        1 3  0.38                             113   -0.29 8  216  79 
 TAM  HE I         1 3  2.05        57.9 0.32            114            216  79 
 VIL  SZ EP        1 2 35.50                             113   -0.19 8  216 180 
 VIL  SN ES        1 3  1.03                             113    0.26 8  216 180 
 VIL  SN I         1 3 10.10        99.2 0.40            114            216 180 
 RREF HZ EP        1 2 37.25                             113    0.18 8  222 235 
 RREF HN ES        1 3  3.83                             113    0.60 8  222 235 
 RREF HZ I         1 3  9.98        31.3 0.28            114            222 235 
 GRA  SZ EP        1 2 36.83                             112    0.07 8  225  26 
 GRA  SZ ES        1 3  1.77                             112   -0.90 8  225  26 
 OCA  HZ EP        1 2 39.90                             110    0.93 8  244  10 
 OCA  HN ES        1 3  6.62                             110    0.01 8  244  10 
 OCA  HN I         1 3  9.87       204.1 0.32            111            244  10 
 CAPV BZ IP     C  1 2 40.68                             110    0.76 8  252  38 
 CAPV BZ ES        1 3  8.56                             110    0.27 8  252  38 
 PRA  HZ EP        1 2 43.51                             106   -0.67 7  291 207 
 PRA  HE ES        1 3 15.59                             106   -0.29 7  291 207 
 PRA  HE I         1 3 21.43        54.2 0.44            107            291 207 
 ORTC HZ EP        1 2 44.34                             106   -0.09 7  293 216 
 ORTC HE ES        1 3 16.75                             106    0.43 7  293 216 
 DBB  SZ EP        1 2 44.73                             106   -0.12 7  296 291 
 SML  HN EP        1 2 45.36                             105   -0.49 7  305 353 
 SML  HE ES        1 3 18.83                             105   -0.02 7  305 353 
 SML  HE I         1 3 24.26        83.3 0.28            106            305 353 
 SOCV BZ EP        1 2 56.26                             100   -0.81 6  400  52 
 VIRV BZ EP        1 3 10.17                              97   -0.39 4  512  16 
                                                                                
