 2015  2 3 0505 16.7 L   6.803 -73.169143.5  RSN  8 0.6 2.0LRSN                1
 GAP=134        1.47       5.0     6.1  8.8 -0.2155E+00  0.1384E+02 -0.6658E+01E
 Epicentro: LOS SANTOS - SANTANDER                                             3
 ACTION:UPD 15-04-30 21:21 OP:nd   STATUS:               ID:20150203050516 L   I
 OLDACT:REG 15-02-03 13:40 OP:stll STATUS:               ID:20150203045748     3
 2015-02-03-0457-48M.COL___265                                                 6
 STAT SP IPHASW D HRMM SECON CODA AMPLIT PERI AZIMU VELO AIN AR TRES W  DIS CAZ7
 BAR2 EZ EP        5 5 36.19                             170    0.1410 23.4 184 
 BAR2 EZ ES        5 5 50.83                             170   -0.3210 23.4 184 
 BAR2 EZ I         5 5 53.83        21.3 0.24            172           23.4 184 
 BRR  HZ EP        5 5 37.81                             153    0.3510 68.8 299 
 BRR  HN ES        5 5 54.82                             153    1.1610 68.8 299 
 BRR  HZ I         5 5 58.85        13.0 0.28            152           68.8 299 
 PAM  SZ EP        5 5 38.81                             150    0.0610 78.7  41 
 PAM  SZ I         5 5 39.25        40.7 0.20            153           78.7  41 
 PAM  SN ES        5 5 55.99                             150    0.0410 78.7  41 
 RUS  HZ EP        5 5 40.38                             143    0.1210  101 175 
 RUS  HN ES        5 5 58.01                             143   -0.6410  101 175 
 RUS  HZ I         5 5 59.89        11.3 0.28            147            101 175 
 PTB  HZ EP        5 5 43.04                             132   -0.22 9  145 258 
 PTB  HN ES        5 6  3.32                             132   -0.66 9  145 258 
 PTB  HZ I         5 6  6.40         7.8 0.16            133            145 258 
 SPBC HZ EP        5 5 45.37                             129    0.47 9  162 218 
 SPBC HN ES        5 6  6.57                             129   -0.32 9  162 218 
 SPBC HZ I         5 6  8.74        12.9 0.18            131            162 218 
 ZAR  HZ EP        5 5 49.82                             122    1.08 9  202 292 
 ZAR  HN ES        5 6 13.78                             122    0.05 9  202 292 
 ZAR  HZ I         5 6 19.22         8.7 0.26            124            202 292 
 SML  HZ EP        5 5 52.59                             117   -0.45 8  242 336 
 SML  HN ES        5 6 20.11                             117   -1.28 8  242 336 
 SML  HZ I         5 6 24.35        15.0 0.10            119            242 336 
                                                                                
