 2013  6 3 0556  4.9 L   6.794 -73.143141.0  RSN  6 0.4 2.0LRSN                1
 GAP=183        0.90       4.1     6.0  7.9 -0.2004E+01  0.3510E+01 -0.2293E+01E
 Epicentro: LOS SANTOS - SANTANDER                                             3
 ACTION:UPD 14-01-08 09:52 OP:ep   STATUS:               ID:20130603055604 L   I
 2013-06-03-0550-00M.COL___257                                                 6
 STAT SP IPHASW D HRMM SECON CODA AMPLIT PERI AZIMU VELO AIN AR TRES W  DIS CAZ7
 BAR2 SZ EP        556 24.14                             171    0.1610 22.7 191 
 BAR2 SZ ES   1    556 39.08                             171    0.24 7 22.7 191 
 BAR2 SZ I         556 39.83        11.7 0.16            167           22.7 191 
 BRR  HZ IP     D  556 26.08                             152    0.4710 71.8 299 
 BRR  HN ES   1    556 42.35                             152    0.62 7 71.8 299 
 BRR  HN I         556 46.82        31.1 0.16            148           71.8 299 
 RUS  HZ EP   1    556 28.02                             143   -0.15 7 99.9 176 
 RUS  HN ES   1    556 45.85                             143   -0.44 7 99.9 176 
 RUS  HN I         556 48.05        16.3 0.32            145           99.9 176 
 PTB  HZ EP   1    556 30.91                             131   -0.62 7  148 259 
 PTB  HN ES        556 51.71                             131   -0.57 9  148 259 
 PTB  HN I         556 57.35        11.8 0.14            130            148 259 
 OCA  HZ EP   1    556 33.12                             128    0.17 7  161 353 
 OCA  HN ES        556 54.44                             128   -0.36 9  161 353 
 OCA  HN I         556 57.40        31.5 0.30            130            161 353 
 NOR  HZ EP   1    556 40.70                             118    0.33 6  235 235 
 NOR  HE ES   2    557  8.66                             118    0.65 4  235 235 
 NOR  HZ I         557 14.36         4.4 0.20            118            235 235 
                                                                                
