 2014  3 3 0508 38.0 L   6.812 -73.111146.0  RSN 11 0.5 1.7LRSN                1
 GAP=140        1.21       3.6     4.9  7.2 -0.4271E+01  0.1600E+02 -0.2459E+01E
 Epicentro: LOS SANTOS - SANTANDER                                             3
 OLDACT:REG 14-03-03 09:12 OP:stll STATUS:               ID:20140303050809     3
 ACTION:UPD 14-04-09 23:14 OP:nd   STATUS:               ID:20140303050838 L   I
 OLDACT:UP  14-03-03 13:20 OP:stll STATUS:               ID:20140303050809     3
 2014-03-03-0508-09M.COL___232                                                 6
 STAT SP IPHASW D HRMM SECON CODA AMPLIT PERI AZIMU VELO AIN AR TRES W  DIS CAZ7
 BAR2 SZ EP        5 8 57.96                             170    0.2810 25.5 198 
 BAR2 SZ ES        5 9 13.01                             170   -0.0410 25.5 198 
 BAR2 SZ I         5 9 23.90        16.3 0.84            169           25.5 198 
 PAM  SZ EP        5 8 59.53                             152   -0.4910 74.0  38 
 PAM  SN ES        5 9 17.49                             152    0.2810 74.0  38 
 PAM  SZ I         5 9 21.47         3.2 1.72            161           74.0  38 
 RUS  HZ EP        5 9  1.73                             144   -0.1010  102 178 
 RUS  HN ES        5 9 20.39                             144   -0.0510  102 178 
 RUS  SZ I         5 9 36.35         3.9 2.78            148            102 178 
 PTB  HZ EP        5 9  4.85                             131   -0.48 9  152 259 
 PTB  HN ES        5 9 26.09                             131   -0.57 9  152 259 
 PTB  SZ I         5 9 28.40         4.6 0.68            137            152 259 
 OCA  HN ES        5 9 29.25                             130    0.98 9  159 352 
 SPBC HZ EP        5 9  6.83                             129    0.01 9  167 220 
 SPBC HE ES        5 9 29.27                             129   -0.05 9  167 220 
 SPBC SZ I         5 9 34.92         7.0 0.34            134            167 220 
 ZAR  HZ EP        5 9 10.40                             122   -0.36 8  207 291 
 ZAR  HN ES        5 9 36.96                             122    0.64 8  207 291 
 ZAR  SZ I         5 9 42.66         4.4 0.42            129            207 291 
 NOR  HZ EP        5 9 14.18                             118    0.04 8  239 235 
 NOR  HE ES        5 9 42.11                             118   -0.23 8  239 235 
 NOR  SZ I         5 9 52.96         3.4 0.58            124            239 235 
 SML  HZ EP        5 9 14.00                             117   -0.67 8  244 334 
 SML  HN ES        5 9 42.26                             117   -1.02 8  244 334 
 SML  SZ I         5 9 50.12         5.1 0.08            125            244 334 
 HEL  HZ EP        5 9 19.63                             114    0.98 7  276 256 
 HEL  HE ES        5 9 50.69                             114    0.32 7  276 256 
 HEL  SZ I         5 9 57.00         2.1 0.50            120            276 256 
 GUY2CHZ EP        5 9 23.01                             112    0.97 7  305 235 
 GUY2CHE ES        5 9 56.41                             112    0.01 7  305 235 
 GUY2CSZ I         510  1.46         3.6 1.86                           305 235 
                                                                                
