 2010  1 3 0652 39.9 L   7.452 -73.142131.5  RSN 11 0.6 2.7LRSN                1
 GAP=118        1.07       4.9     7.1  7.5 -0.1345E+02  0.2441E+01  0.1275E+01E
 Epicentro: EL PLAYON - SANTANDER                                              3
 ACTION:UP  10-08-24 09:42 OP:vdl  STATUS:               ID:20100103065239 L   I
 2010-01-03-0650-57S.COL___096                                                 6
 STAT SP IPHASW D HRMM SECON CODA AMPLIT PERI AZIMU VELO SNR AR TRES W  DIS CAZ7
 GIR2 SZ IP        652 58.13                             162    -0.110   42 188 
 GIR2 SZ ES   1    653 12.21                             162    -0.3 7   42 188 
 OCA  SZ IP        653  1.08                             143     0.210   89 347 
 OCA  SZ ES   1    653 18.17                             143     0.8 7   89 347 
 BAR2 SZ EP   1    653  1.32                             142    -0.2 7   95 183 
 BAR2 SZ ES   1    653 17.79                             142    -0.6 7   95 183 
 RUS  BZ EP   2    653  9.68                             124     0.9 4  173 178 
 RUS  BZ I         653 37.26        29.1 0.61                           173 178 
 HEL  HZ EP   1    653 21.68                             110    -0.7 5  298 242 
 HEL  HZ I         654  2.90        29.7 0.60                           298 242 
 CHI  HZ EP   1    653 24.97                             108     0.1 5  319 192 
 CHI  HE ES   1    654  0.84                             108     1.0 5  319 192 
 SDV  BZ IP        653 25.08                             108     0.5 7  319  60 
 SDV  BN ES   1    653 58.40                             108    -1.0 5  319  60 
 CHI  HZ I         654  4.46        18.5 0.67                           319 192 
 DBB  SZ EP        653 26.43                             107    -0.7 7  342 262 
 RREF BN ES   1    654 12.13                             105     0.5 5  373 221 
 RREF BZ I         654 19.09        37.7 0.22                           373 221 
 ANIL BN ES   2    654 19.94                             103     0.8 3  412 218 
 PRA  HZ EP   1    653 39.92                             101    -0.7 4  456 205 
                                                                                
