 2015  9 3 0813 42.5 L   6.787 -73.163144.0  RSN  6 0.2 1.6LRSN                1
 GAP=181        0.54       2.2     3.0  4.2  0.8617E+00  0.3622E+01 -0.1127E+01E
 Epicentro: LOS SANTOS - SANTANDER                                             3
 ACTION:UPD 15-10-28 16:23 OP:cam  STATUS:               ID:20150903081342 L   I
 OLDACT:DUP 15-09-03 18:48 OP:stll STATUS:               ID:20150903080751d    3
 2015-09-03-0807-50M.COL___346                                                 6
 STAT SP IPHASW D HRMM SECON CODA AMPLIT PERI AZIMU VELO AIN AR TRES W  DIS CAZ7
 BAR2 EZ EP        814  1.96                             171    0.0910 21.6 186 
 BAR2 EZ ES        814 17.25                             171    0.2610 21.6 186 
 BAR2 EZ I         814 19.66         8.2 0.24            173           21.6 186 
 RUS  HZ EP        814  5.76                             144   -0.2110 99.3 175 
 RUS  HN ES        814 24.15                             144   -0.1410 99.3 175 
 RUS  HZ I         814 25.59         3.0 0.20            150           99.3 175 
 PTB  HZ EP        814  8.84                             132   -0.27 9  146 259 
 PTB  HN ES        814 29.78                             132   -0.10 9  146 259 
 PTB  HZ I         814 34.99         4.3 0.42            134            146 259 
 SPBC HZ EP        814 10.83                             129    0.20 9  161 219 
 SPBC HN ES        814 32.63                             129    0.05 9  161 219 
 SPBC HZ I         814 35.54         6.3 0.34            133            161 219 
 OCA  HN ES        814 32.70                             129   -0.14 9  161 354 
 OCA  HZ I         814 39.66         6.6 0.52            131            161 354 
 ZAR  HZ EP        814 15.08                             122    0.39 9  203 293 
 ZAR  HE ES        814 39.73                             122   -0.07 9  203 293 
 ZAR  HZ I         814 45.42         3.4 0.32            124            203 293 
                                                                                
