 2013  8 3 0351 33.0 L   6.788 -73.180149.3  RSN  7 0.4 1.4LRSN                1
 GAP=184        1.01       5.1     6.1  8.4 -0.1350E+01  0.5559E+00 -0.8606E+01E
 Epicentro: LOS SANTOS - SANTANDER                                             3
 ACTION:UPD 14-01-14 08:58 OP:ep   STATUS:               ID:20130803035133 L   I
 OLDACT:DUP 13-08-03 10:08 OP:calr STATUS:               ID:20130803034960d    3
 2013-08-03-0349-59M.COL___269                                                 6
 STAT SP IPHASW D HRMM SECON CODA AMPLIT PERI AZIMU VELO AIN AR TRES W  DIS CAZ7
 BAR2 SZ EP        351 53.10                             171    0.0610 21.6 181 
 BAR2 SZ ES   1    352  8.30                             171   -0.35 7 21.6 181 
 BAR2 SZ I         352  9.66         4.3 0.26            169           21.6 181 
 GIR2 SZ EP        351 53.03                             167   -0.1010 32.2 357 
 BRR  HZ EP        351 54.95                             154    0.5510 68.6 301 
 BRR  HN ES        352 11.40                             154    0.3110 68.6 301 
 BRR  HN I         352 14.93         6.5 0.18            149           68.6 301 
 PTB  HZ EP        352  0.10                             134    0.18 9  144 259 
 PTB  HN ES        352 20.19                             134   -0.72 9  144 259 
 PTB  HZ I         352 24.82         1.7 0.10            131            144 259 
 OCA  HE ES        352 24.17                             130    0.12 9  161 355 
 ZAR  HN ES        352 31.20                             124    0.56 9  201 293 
 ZAR  HN I         352 40.80         3.4 0.14            123            201 293 
 SML  HZ EP        352  9.28                             118   -0.52 8  243 336 
 SML  HN ES        352 37.98                             118   -0.52 8  243 336 
 SML  HZ I         352 39.83         3.0 0.24            119            243 336 
                                                                                
