 2010  1 3 0037 24.1 L   6.873 -73.226123.2  RSN  8 0.2 1.6LRSN                1
 GAP=163        0.49       1.9     5.2  4.5 -0.4217E+00  0.1289E+02 -0.5639E-01E
 Epicentro: ZAPATOCA - SANTANDER                                               3
 ACTION:UP  10-08-24 09:42 OP:vdl  STATUS:               ID:20100103003724 L   I
 2010-01-03-0037-10S.COL___097                                                 6
 STAT SP IPHASW D HRMM SECON CODA AMPLIT PERI AZIMU VELO SNR AR TRES W  DIS CAZ7
 GIR2 SZ EP        037 40.99                             169     0.110   23   9 
 GIR2 SZ ES   2    037 53.92                             169     0.0 5   23   9 
 BAR2 SZ IP        037 41.48                             165     0.210   31 171 
 BAR2 SZ ES   1    037 54.47                             165    -0.1 7   31 171 
 RUS  BZ EP   1    037 46.42                             136     0.0 7  110 172 
 RUS  BN ES   1    038  3.63                             136    -0.2 7  110 172 
 RUS  BZ I         038  5.12         5.6 0.28                           110 172 
 OCA  SZ IP        037 49.79                             126    -0.1 9  151 356 
 OCA  SZ ES   1    038  9.89                             126    -0.1 7  151 356 
 CHI  HZ EP        038  1.39                             111     0.1 8  254 193 
 CHI  HN ES   1    038 30.39                             111     0.1 6  254 193 
 CHI  HZ I         038 36.32         2.9 0.56                           254 193 
 HEL  HE ES   2    038 33.14                             110     0.6 4  266 254 
 HEL  HZ I         038 35.91         3.4 0.25                           266 254 
 DBB  SZ EP        038  9.21                             106    -0.4 7  330 273 
 PRA  HN ES   2    038 58.31                             102    -0.4 3  395 208 
                                                                                
