 2016 10 3 0054 29.1 L   6.850 -73.121151.9  RSN 14 0.6 2.0LRSN                1
 GAP=137        1.34       4.1     5.7  8.4 -0.4230E+01  0.8189E+01  0.5052E+01E
 Epicentro: LOS SANTOS - SANTANDER                                             3
 ACTION:UPD 16-11-09 19:15 OP:rebc STATUS:               ID:20161003005429 L   I
 OLDACT:UP  16-10-03 16:53 OP:dani STATUS:               ID:20161003004749     3
 OLDACT:UP  16-10-03 16:51 OP:dani STATUS:               ID:20161003004749     3
 OLDACT:REG 16-10-03 14:47 OP:dani STATUS:               ID:20161003004749     3
 2016-10-03-0048-00M.COL___378                                                 6
 STAT SP IPHASW D HRMM SECON CODA AMPLIT PERI AZIMU VELO AIN AR TRES W  DIS CAZ7
 BRR  HZ EP        054 51.32                             153    0.4110 71.2 294 
 BRR  HN ES        055  8.44                             153    0.5110 71.2 294 
 BRR  HZ I         055 12.28        12.9 0.15             94           71.2 294 
 PAM  EZ EP        054 52.17                             154    0.5410 71.4  41 
 PAM  EE ES        055  9.11                             154   -0.1010 71.4  41 
 PAM  EZ I         055 11.88         9.5 0.54             96           71.4  41 
 RUS  HZ EP        054 53.67                             144   -0.1710  106 178 
 RUS  HN ES        055 12.60                             144   -0.5410  106 178 
 RUS  HZ I         055 13.70         9.3 0.32             37            106 178 
 PTB  HZ EP        054 56.56                             133   -0.35 9  152 257 
 PTB  HN ES        055 18.42                             133   -0.19 9  152 257 
 PTB  HZ I         055 19.74        12.8 0.14             37            152 257 
 OCA  HZ EP        054 57.49                             132    0.07 9  155 352 
 OCA  HN ES        055 19.18                             132   -0.33 9  155 352 
 OCA  HZ I         055 23.50        18.1 0.14             37            155 352 
 SPBC HZ EP        054 58.83                             129    0.19 9  169 219 
 SPBC HE ES        055 21.19                             129   -0.49 9  169 219 
 SPBC HZ I         055 23.63        18.0 0.29             37            169 219 
 ZAR  HZ EP        055  0.39                             124   -1.61 9  205 290 
 ZAR  HN ES        055 28.46                             124    0.79 9  205 290 
 ZAR  HZ I         055 33.36        12.9 0.31             37            205 290 
 NOR  HZ EP        055  6.20                             119    0.43 8  240 234 
 NOR  HE ES        055 34.32                             119   -0.05 8  240 234 
 NOR  HZ I         055 37.28         8.4 0.17             37            240 234 
 CHI  HZ EP   4    055  6.57                             118   -1.22 0  255 195 
 CHI  HN ES        055 38.67                             118    0.69 8  255 195 
 CHI  HZ I         055 45.83         3.5 0.40             37            255 195 
 ROSC BZ EP   4    055  9.82                             117    1.60 0  259 211 
 ROSC BZ I         055 45.99        10.2 0.41             37            259 211 
 HEL  HZ EP   4    055 11.99                             116    1.92 0  276 255 
 HEL  HZ I         055 49.70         6.4 0.42             37            276 255 
 GUY2CHZ EP   4    055 15.59                             113    1.99 0  307 234 
 GUY2CHZ I         055 56.36         5.5 0.41                           307 234 
 ELA  HZ EP   4    055 18.93                             111    2.07 0  335 229 
 ELA  HZ I         056  1.33         3.8 0.45             36            335 229 
 PRA  HZ EP        055 24.15                             107    0.60 6  398 210 
 PRA  HZ I         056 12.50         5.7 0.36             36            398 210 
                                                                                
