 2012  7 3 0533 14.1 L   6.738 -73.204146.5  RSN  9 0.3 2.0LRSN                1
 GAP=225        0.62       3.1     3.5  4.3  0.3518E+01  0.5883E+01  0.3004E+01E
 Epicentro: VILLANUEVA - SANTANDER                                             3
 ACTION:UPD 12-08-14 11:42 OP:ep   STATUS:               ID:20120703053314 L   I
 2012-07-03-0530-00M.COL___200                                                 6
 STAT SP IPHASW D HRMM SECON CODA AMPLIT PERI AZIMU VELO AIN AR TRES W  DIS CAZ7
 BAR2 SZ EP        533 33.54                             173    -0.110   16 171 
 BAR2 SZ ES        533 48.75                             173    -0.210   16 171 
 BAR2 SZ I         533 51.74        22.0 0.35            169             16 171 
 BRR  HZ EP        533 35.41                             153     0.210   69 306 
 BRR  HE ES   1    533 52.00                             153     0.3 7   69 306 
 BRR  HZ I         533 56.96        20.3 0.21            151             69 306 
 RUS  HZ EP        533 37.50                             146     0.010   94 172 
 RUS  HE ES        533 55.78                             146     0.110   94 172 
 RUS  HZ I         533 59.04        13.5 0.52            148             94 172 
 PTB  HZ EP   1    533 40.04                             134    -0.4 7  140 261 
 PTB  HE ES   1    534  1.27                             134     0.3 7  140 261 
 PTB  HZ I         534  9.07        14.3 0.45            133            140 261 
 ZAR  HZ EP   1    533 45.83                             123    -0.4 6  201 295 
 ZAR  HE ES   1    534 11.09                             123    -0.2 6  201 295 
 ZAR  HZ I         534 18.63        12.3 0.27            125            201 295 
 NOR  SZ EP   1    533 48.86                             120     0.0 6  225 235 
 NOR  SN ES   1    534 15.97                             120     0.0 6  225 235 
 CHI  HZ EP   1    533 51.18                             118     0.3 6  240 194 
 CHI  HN ES   1    534 19.20                             118    -0.4 6  240 194 
 CHI  HZ I         534 26.18         5.4 0.34            121            240 194 
 HEL  HZ EP   1    533 53.95                             116     0.5 6  264 257 
 HEL  HN ES   1    534 23.80                             116    -0.4 6  264 257 
 HEL  HZ I         534 31.71         5.6 0.20            118            264 257 
 PRA  HZ EP   1    534  6.66                             107     0.1 4  383 209 
 PRA  HN ES   1    534 47.81                             107     0.3 4  383 209 
