 2010  4 3 0332 46.8 L   6.816 -72.956143.2  RSN  5 0.3 2.0LRSN                1
 GAP=226        0.42       3.6     6.9  5.6 -0.7503E+01 -0.1379E+01 -0.2251E+01E
 Epicentro: CEPITA - SANTANDER                                                 3
 ACTION:UPD 10-08-24 09:57 OP:vdl  STATUS:               ID:20100403033246 L   I
 2010-04-03-0330-49S.COL___098                                                 6
 STAT SP IPHASW D HRMM SECON CODA AMPLIT PERI AZIMU VELO AIN AR TRES W  DIS CAZ7
 BAR2 SZ EP        333  6.58                             165     0.210   35 225 
 BAR2 SZ ES   2    333 21.45                             165    -0.3 5   35 225 
 BRR  HZ EP        333  8.73                             146    -0.110   90 291 
 BRR  HZ I         333  9.01        13.9 0.15                            90 291 
 BRR  HN ES   2    333 26.19                             146     0.2 5   90 291 
 OCA  SZ EP        333 15.03                             129    -0.1 9  162 346 
 OCA  SZ ES   2    333 37.26                             129     0.1 5  162 346 
 OCA  SZ I         333 41.93        14.3 0.30                           162 346 
 RREF BZ EP   2    333 35.27                             109     0.5 3  339 231 
 RREF BN ES   2    334 12.13                             109    -0.1 3  339 231 
 PRA  HE ES   3    334 23.30                             105    -1.2 1  404 212 
 PRA  HZ I         334 26.39         3.1 0.50                           404 212 
                                                                                
