 2016  7 3 0738 19.3 L   6.710 -73.219149.1  RSN  4 0.2 1.0LRSN                1
 GAP=214        0.47       3.7     3.5  3.8  0.6216E+01  0.1610E+01  0.6610E+00E
 Epicentro: VILLANUEVA - SANTANDER                                             3
 ACTION:UPD 17-03-29 16:46 OP:lp   STATUS:               ID:20160703073819 L   I
 OLDACT:REG 16-07-03 13:13 OP:edw  STATUS:               ID:20160703073740     3
 2016-07-03-0737-40M.COL___325                                                 6
 STAT SP IPHASW D HRMM SECON CODA AMPLIT PERI AZIMU VELO AIN AR TRES W  DIS CAZ7
 BAR2 EZ EP        738 39.29                             175    0.0910 13.6 163 
 BAR2 EZ ES        738 54.59                             175   -0.1110 13.6 163 
 BAR2 EZ I         738 55.85         3.1 0.24            177           13.6 163 
 BRR  HZ EP        738 40.68                             153   -0.0810 70.0 309 
 BRR  HN ES        738 57.57                             153    0.0910 70.0 309 
 BRR  HZ I         739  2.27         1.9 0.30            153           70.0 309 
 RUS  HZ EP        738 43.02                             147    0.2410 91.6 171 
 RUS  HE ES        739  0.98                             147   -0.1010 91.6 171 
 RUS  HZ I         739  2.40         1.1 0.50            151           91.6 171 
 PTB  HZ EP        738 45.43                             135   -0.28 9  138 262 
 PTB  HN ES        739  6.43                             135    0.14 9  138 262 
 PTB  HZ I         739  8.22         1.1 0.16            136            138 262 
                                                                                
