 2013  6 3 0644  6.9 L   6.783 -73.135147.1  RSN  8 0.5 1.7LRSN                1
 GAP=237        0.96       5.9     7.2  9.2  0.1749E+02  0.1608E+02  0.1391E+02E
 Epicentro: LOS SANTOS - SANTANDER                                             3
 ACTION:UPD 14-01-08 09:52 OP:ep   STATUS:               ID:20130603064406 L   I
 2013-06-03-0640-00M.COL___257                                                 6
 STAT SP IPHASW D HRMM SECON CODA AMPLIT PERI AZIMU VELO AIN AR TRES W  DIS CAZ7
 BAR2 SZ EP   1    644 26.71                             172    0.09 7 21.8 194 
 BAR2 SZ I         644 43.45         5.8 0.24            173           21.8 194 
 BRR  HZ EP        644 28.46                             152    0.2010 73.2 299 
 BRR  HN ES        644 45.54                             152    0.5910 73.2 299 
 BRR  HN I         644 50.15        12.4 0.24            154           73.2 299 
 RUS  HZ EP   1    644 30.29                             145   -0.32 7 98.7 177 
 RUS  HE ES        644 48.85                             145   -0.2710 98.7 177 
 RUS  HE I         644 51.96         4.4 0.20            145           98.7 177 
 PTB  HZ EP   1    644 33.49                             132   -0.52 7  149 260 
 PTB  HN ES   1    644 54.47                             132   -0.72 7  149 260 
 PTB  HZ I         645  0.60         4.6 0.36            135            149 260 
 ZAR  HN ES   1    645  4.60                             122   -0.50 6  206 292 
 ZAR  HN I         645  6.80        10.0 0.14            122            206 292 
 NOR  HZ EP   1    644 43.10                             119    0.44 6  235 235 
 NOR  HN ES   2    645 10.28                             119   -0.30 4  235 235 
 SML  HZ EP   4    644 42.91                             117   -0.89 0  246 335 
 SML  HN ES   4    645 10.68                             117   -1.93 0  246 335 
 SML  HN I         645 17.68         8.2 0.10            116            246 335 
 PRA  HZ EP   4    645  1.57                             107    1.26 0  391 210 
 PRA  HN ES        645 42.92                             107    0.92 6  391 210 
 PRA  HN I         645 47.32         1.6 0.78            106            391 210 
                                                                                
