 2012  4 3 0453 22.6 L   7.281 -73.392101.9  RSN  5 0.3 1.2LRSN                1
 GAP=167        0.72       7.1     4.3  8.0  0.1025E+02  0.1055E+02 -0.3814E+01E
 Epicentro: SABANA DE TORRES - SANTANDER                                       3
 ACTION:UPD 12-07-05 11:50 OP:tino STATUS:               ID:20120403045322 L   I
 2012-04-03-0450-00M.COL___196                                                 6
 STAT SP IPHASW D HRMM SECON CODA AMPLIT PERI AZIMU VELO AIN AR TRES W  DIS CAZ7
 BRR  HE ES   1    453 48.56                             157    -0.2 7   40 241 
 BRR  HZ I         454  2.93         6.8 0.31                            40 241 
 PAM  SN ES   1    453 54.26                             141     0.1 7   77  85 
 PAM  SZ I         453 56.60         2.9 0.20                            77  85 
 BAR2 SZ EP   1    453 40.01                             139    -0.2 7   80 163 
 BAR2 SZ ES   1    453 53.98                             139     0.0 7   80 163 
 BAR2 SZ I         453 55.33         9.2 0.23                            80 163 
 RUS  HZ EP   2    453 48.49                             118     0.5 5  157 167 
 RUS  HZ I         453 48.91         1.3 0.10                           157 167 
 ZAR  HZ EP   1    453 47.66                             117    -0.4 7  164 278 
 ZAR  HN ES   1    454  8.45                             117     0.5 7  164 278 
 ZAR  HZ I         454  9.70         3.8 0.37                           164 278 
                                                                                
