 2013  2 3 0730 57.1 L   6.826 -73.001145.3  RSN  4 0.2 1.2LRSN                1
 GAP=253        0.43       6.5     9.6  6.2  0.4864E+02 -0.1540E+02 -0.9832E+01E
 Epicentro: CEPITA - SANTANDER                                                 3
 ACTION:UPD 13-03-12 09:30 OP:ep   STATUS:               ID:20130203073057 L   I
 2013-02-03-0730-00M.COL___240                                                 6
 STAT SP IPHASW D HRMM SECON CODA AMPLIT PERI AZIMU VELO AIN AR TRES W  DIS CAZ7
 BAR2 SZ EP   1    731 17.17                             167    0.25 7 32.7 218 
 BAR2 SZ I         731 17.39         3.4 0.15             47           32.7 218 
 BRR  HZ EP   1    731 18.73                             148   -0.29 7 84.5 292 
 BRR  HE ES   1    731 36.16                             148    0.05 7 84.5 292 
 BRR  HE I         731 36.95         5.2 0.31             47           84.5 292 
 RUS  HZ EP   1    731 21.02                             143   -0.02 7  104 185 
 RUS  HN ES   1    731 39.62                             143   -0.08 7  104 185 
 PTB  HZ EP   1    731 25.67                             129    0.11 7  164 259 
 PTB  HZ I         731 52.31         1.4 0.34             37            164 259 
                                                                                
