 2012  3 3 0410 38.6 L   6.738 -73.135146.0  RSN  5 0.4 1.3LRSN                1
 GAP=234        0.94       8.2     9.0  8.4  0.3666E+02  0.4348E+01  0.1313E+02E
 ACTION:UP  12-03-31 23:16 OP:EP   STATUS:               ID:20120303041038 L   I
 2012-03-03-0410-00M.COL___191                                                 6
 STAT SP IPHASW D HRMM SECON CODA AMPLIT PERI AZIMU VELO SNR AR TRES W  DIS CAZ7
 BAR2 SZ EP        410 58.14                             173     0.010   17 198 
 BAR2 SZ ES   1    411 12.75                             173    -0.7 7   17 198 
 BAR2 SZ I         411 14.78         7.1 0.23                            17 198 
 BRR  HZ EP        410 59.97                             151    -0.110   76 303 
 BRR  HN ES        411 17.25                             151     0.510   76 303 
 BRR  HZ I         411 19.61         4.0 0.20                            76 303 
 RUS  HZ EP   1    411  1.91                             146     0.0 7   94 176 
 RUS  HN ES   1    411 20.38                             146     0.3 7   94 176 
 RUS  HZ I         411 21.92         2.1 0.34                            94 176 
 PTB  HZ EP   1    411  5.15                             132    -0.5 7  148 262 
 PTB  HE ES   1    411 26.41                             132    -0.2 7  148 262 
 CHI  HZ EP   1    411 16.14                             118     0.5 6  242 196 
 CHI  HZ I         411 54.06         1.3 0.43                           242 196 
                                                                                
