 2011  5 3 0602  0.6 L   6.776 -73.122148.1  RSN 10 0.4 2.6LRSN                1
 GAP=141        0.71       4.5     5.8  6.0 -0.3950E+01  0.5573E+01  0.2813E+01E
 Epicentro: LOS SANTOS - SANTANDER                                             3
 ACTION:UP  11-06-29 08:50 OP:tino STATUS:               ID:20110503060200 L   I
 2011-05-03-0601-00S.COL___128                                                 6
 STAT SP IPHASW D HRMM SECON CODA AMPLIT PERI AZIMU VELO SNR AR TRES W  DIS CAZ7
 BAR2 SZ EP   2    6 2 20.25                             171    -0.2 5   21 198 
 BAR2 SZ ES   2    6 2 35.28                             171    -0.7 5   21 198 
 BAR2 SZ I         6 2 36.21       100.3 0.24                            21 198 
 BTL  SZ EP   1    6 2 20.77                             171     0.3 7   23 314 
 BTL  SZ ES   2    6 2 36.03                             171     0.0 5   23 314 
 BRR  HZ IP     C  6 2 22.45                             152     0.310   75 299 
 BRR  HN ES   1    6 2 39.37                             152     0.3 7   75 299 
 BRR  HZ I         6 2 40.46       111.6 0.17                            75 299 
 PAM  SZ EP   1    6 2 23.35                             151     0.3 7   78  37 
 RUS  HZ EP   1    6 2 23.92                             145    -0.4 7   98 177 
 RUS  HN ES   2    6 2 42.90                             145     0.0 5   98 177 
 RUS  HZ I         6 2 44.84        20.4 0.28                            98 177 
 OCA  SZ EP   1    6 2 28.84                             130    -0.5 7  163 352 
 OCA  SZ ES   2    6 2 51.34                             130    -0.4 5  163 352 
 OCA  SZ I         6 2 54.09        87.8 0.49                           163 352 
 NOR  SZ EP   1    6 2 36.70                             119     0.2 6  235 235 
 NOR  SN ES   2    6 3  3.92                             119    -0.6 4  235 235 
 HEL  HZ EP   2    6 2 41.18                             115     0.1 4  274 256 
 HEL  HN ES   2    6 3 12.55                             115    -0.2 4  274 256 
 HEL  HZ I         6 3 19.59        13.1 0.22                           274 256 
 DBB  SZ EP   1    6 2 47.96                             110    -0.5 5  342 275 
 PRA  HZ EP   1    6 2 54.75                             107     0.7 4  391 210 
                                                                                
