 2015 12 3 0525  4.2 L   6.792 -73.146148.5  RSN 13 0.6 2.1LRSN                1
 GAP=137        1.27       4.1     4.7  7.0 -0.4761E+01  0.1306E+02 -0.1912E+01E
 Epicentro: LOS SANTOS - SANTANDER                                             3
 ACTION:UPD 16-02-04 15:02 OP:cam  STATUS:               ID:20151203052504 L   I
 OLDACT:REG 15-12-03 12:47 OP:mh   STATUS:               ID:20151203051745     3
 2015-12-03-0517-45M.COL___314                                                 6
 STAT SP IPHASW D HRMM SECON CODA AMPLIT PERI AZIMU VELO AIN AR TRES W  DIS CAZ7
 BAR2 EZ EP        525 24.21                             171    0.1010 22.5 190 
 BAR2 EZ ES        525 39.80                             171    0.1410 22.5 190 
 BAR2 EZ I         525 42.32        19.2 0.22            169           22.5 190 
 BRR  HZ EP        525 26.16                             153    0.5210 71.6 299 
 BRR  HN ES        525 42.85                             153    0.4710 71.6 299 
 BRR  HZ I         525 47.57        16.7 0.28            147           71.6 299 
 PAM  EZ EP        525 26.97                             151    0.2610 78.0  39 
 PAM  EN ES        525 44.48                             151    0.1810 78.0  39 
 PAM  EZ I         525 46.42        16.4 0.46            154           78.0  39 
 RUS  HZ EP        525 27.78                             145   -0.3510 99.7 176 
 RUS  HN ES        525 46.51                             145   -0.3110 99.7 176 
 RUS  HZ I         525 48.26         8.5 0.38            149           99.7 176 
 PTB  HZ EP        525 30.84                             133   -0.51 9  148 259 
 PTB  HN ES        525 51.66                             133   -0.88 9  148 259 
 PTB  HZ I         525 53.68        15.7 0.56            131            148 259 
 OCA  HZ EP   1    525 31.93                             130   -0.84 7  161 353 
 OCA  HN ES        525 55.01                             130   -0.07 9  161 353 
 OCA  HZ I         525 58.73        33.8 0.36            130            161 353 
 ZAR  HZ EP        525 36.76                             123   -0.07 9  204 292 
 ZAR  HN ES        526  2.25                             123   -0.05 9  204 292 
 ZAR  HZ I         526 14.62         9.4 0.60            122            204 292 
 NOR  HZ EP   1    525 39.84                             119   -0.17 6  234 235 
 NOR  HN ES        526  7.94                             119   -0.02 8  234 235 
 NOR  HZ I         526 11.16         9.7 0.16            120            234 235 
 SML  HZ EP        525 40.18                             118   -0.85 8  244 335 
 SML  HN ES   1    526  9.70                             118   -0.09 6  244 335 
 SML  HZ I         526 15.32        24.0 0.10            118            244 335 
 HEL  HZ EP        525 46.14                             115    1.64 8  272 256 
 HEL  HN ES        526 16.53                             115    0.57 8  272 256 
 HEL  HZ I         526 23.81         5.5 0.32            116            272 256 
 URE  HZ EP   4    525 44.63                             114   -0.78 0  284 292 
 URE  HN ES   4    526 15.08                             114   -2.50 0  284 292 
 URE  HZ I         526 28.45         9.4 0.16            114            284 292 
 GUY2CHZ EP   4    525 49.25                             113    1.40 0  301 235 
 GUY2CHN ES        526 22.14                             113    0.22 7  301 235 
 GUY2CHZ I         526 30.38         4.4 0.28                           301 235 
 CBOC HZ EP        525 52.04                             110    0.87 7  333 252 
 CBOC HE ES        526 26.98                             110   -0.85 7  333 252 
 CBOC HZ I         526 44.57         1.9 0.38            111            333 252 
                                                                                
