 2016  2 3 0931 57.1 L   6.815 -73.130128.3  RSN  6 0.5 1.1LRSN                1
 GAP=202        0.69       5.3     8.7 14.1  0.8822E+01 -0.3269E+01 -0.2493E+02E
 Epicentro: LOS SANTOS - SANTANDER                                             3
 ACTION:UPD 16-03-04 21:23 OP:rebc STATUS:               ID:20160203093157 L   I
 OLDACT:DUP 16-02-03 17:58 OP:dnl  STATUS:               ID:20160203092750d    3
 OLDACT:REG 16-02-03 13:00 OP:dnl  STATUS:               ID:20160203092749     3
 2016-02-03-0927-49M.COL___301                                                 6
 STAT SP IPHASW D HRMM SECON CODA AMPLIT PERI AZIMU VELO AIN AR TRES W  DIS CAZ7
 BAR2 EZ EP   2    932 15.56                             168    0.91 5 25.3 193 
 BAR2 EZ I         932 32.87         2.6 0.17            171           25.3 193 
 RUS  HZ EP   2    932 19.72                             139    0.45 5  102 177 
 RUS  HN ES   2    932 35.65                             139   -0.93 5  102 177 
 RUS  HZ I         932 40.08         1.1 0.21            146            102 177 
 PTB  HZ EP   2    932 22.77                             127   -0.09 5  150 258 
 PTB  HE ES   2    932 42.76                             127   -0.22 5  150 258 
 PTB  HZ I         932 46.75         1.9 0.08            137            150 258 
 SPBC HZ EP   2    932 24.14                             124   -0.38 5  166 219 
 SPBC HE ES   2    932 46.72                             124    0.78 5  166 219 
 SPBC HZ I         932 51.82         2.0 0.15            133            166 219 
 SML  HZ EP   2    932 32.30                             113   -0.38 4  243 335 
 SML  HE ES   2    933  0.33                             113   -0.13 4  243 335 
 SML  HZ I         933  8.55         2.0 0.09            116            243 335 
 CHI  HZ EP   2    932 33.99                             113   -0.10 4  251 195 
 CHI  HN ES   2    933  2.79                             113   -0.18 4  251 195 
 CHI  HZ I         933  7.43         1.0 0.42            118            251 195 
                                                                                
