 2012  5 3 0153 38.8 L   6.787 -73.132143.0  RSN 17 0.4 3.0LRSN                1
 GAP=127        0.84       3.2     3.5  5.0 -0.1556E+01  0.4494E+01  0.2833E+01E
 Epicentro: LOS SANTOS - SANTANDER                                             3
 ACTION:UP  12-07-05 12:01 OP:pat  STATUS:               ID:20120503015338 L   I
 2012-05-03-0150-00M.COL___186                                                 6
 STAT SP IPHASW D HRMM SECON CODA AMPLIT PERI AZIMU VELO SNR AR TRES W  DIS CAZ7
 BAR2 SZ IP        153 58.10                             171     0.010   22 194 
 BAR2 SZ ES   1    154 12.69                             171    -0.4 7   22 194 
 BAR2 SZ I         154 15.14       456.9 0.30                            22 194 
 BRR  HZ IP     C  154  0.05                             151     0.310   73 299 
 BRR  HE ES   1    154 16.82                             151     0.7 7   73 299 
 BRR  HZ I         154 18.06       518.6 0.15                            73 299 
 PAM  SZ IP        154  0.99                             150     0.310   78  38 
 PAM  SN ES   1    154 17.86                             150     0.0 7   78  38 
 RUS  HZ EP   1    154  2.08                             144    -0.1 7   99 177 
 RUS  HN ES   1    154 20.28                             144    -0.1 7   99 177 
 RUS  HZ I         154 22.46       124.7 0.34                            99 177 
 PTB  HZ EP   1    154  4.83                             131    -0.8 7  149 259 
 PTB  HN ES   1    154 25.85                             131    -0.7 7  149 259 
 PTB  HZ I         154 28.54       230.1 0.21                           149 259 
 ZAR  HZ EP   1    154 11.19                             121     0.0 6  206 292 
 ZAR  HN ES   1    154 36.38                             121    -0.2 6  206 292 
 ZAR  HZ I         154 42.98       202.4 0.32                           206 292 
 CHI  HZ EP   1    154 16.51                             117     0.3 6  248 196 
 CHI  HE ES   1    154 45.42                             117     0.0 6  248 196 
 CHI  HZ I         154 51.09        29.8 0.62                           248 196 
 HEL  HZ EP   1    154 19.45                             114     0.5 6  273 256 
 HEL  HN ES   1    154 49.79                             114    -0.5 6  273 256 
 HEL  HZ I         154 57.19        64.9 0.23                           273 256 
 VIL  SZ EP   1    154 21.67                             111    -0.3 5  302 192 
 VIL  SN ES   1    154 55.39                             111    -0.2 5  302 192 
 VIL  SZ I         155  4.91        31.0 0.46                           302 192 
 GUY  SZ EP   1    154 23.15                             111     0.6 5  304 235 
 GUY  SN ES   1    154 56.97                             111     0.2 5  304 235 
 GUY  SZ I         155  5.44        71.7 0.36                           304 235 
 RREF HZ EP   1    154 25.31                             110     0.5 5  322 230 
 RREF HN ES   1    155  0.85                             110     0.1 5  322 230 
 RREF HZ I         155 10.25        67.6 0.29                           322 230 
 DBB  SZ EP   1    154 26.85                             109     0.5 5  341 274 
 DBB  SZ ES   1    155  3.20                             109    -0.2 5  341 274 
 TOL  SZ EP   2    154 27.64                             109     0.7 3  344 225 
 TOL  SZ ES   2    155  4.16                             109    -0.3 3  344 225 
 COD  HZ EP   1    154 26.33                             108    -0.9 5  350 354 
 COD  HZ I         155 11.61        30.1 0.58                           350 354 
 SDV  BZ EP   1    154 28.01                             108    -0.7 5  360  50 
 SDV  BZ I         155  8.00         7.9 0.46                           360  50 
 PRA  HZ EP   1    154 32.68                             106     0.5 4  391 210 
 PRA  HN ES   1    155 13.40                             106    -0.4 4  391 210 
 YOT  HZ EP   1    154 41.38                             103    -0.4 4  472 229 
 YOT  HN ES   2    155 30.61                             103    -0.3 2  472 229 
 YOT  HZ I         155 40.76        10.5 0.41                           472 229 
                                                                                
