 2016 12 3 0659 53.9 L   6.326 -73.510134.8  RSN  6 0.4 1.6LRSN                1
 GAP=190        0.99       5.9     4.5  8.0 -0.8541E+01  0.1107E+01  0.1194E+02E
 Epicentro: CONTRATACION - SANTANDER                                           3
 ACTION:UPD 17-01-11 20:12 OP:rebc STATUS:               ID:20161203065953 L   I
 OLDACT:UP  16-12-03 14:52 OP:dani STATUS:               ID:20161203065740     3
 OLDACT:UP  16-12-03 14:52 OP:dani STATUS:               ID:20161203065740     3
 OLDACT:UP  16-12-03 14:52 OP:dani STATUS:               ID:20161203065740     3
 OLDACT:UP  16-12-03 14:51 OP:dani STATUS:               ID:20161203065740     3
 OLDACT:REG 16-12-03 12:52 OP:dnl  STATUS:               ID:20161203065740     3
 2016-12-03-0658-00M.COL___349                                                 6
 STAT SP IPHASW D HRMM SECON CODA AMPLIT PERI AZIMU VELO AIN AR TRES W  DIS CAZ7
 BAR2 EZ EP        7 0 12.26                             160   -0.7110 46.7  51 
 BAR2 EZ ES        7 0 27.77                             160   -0.0710 46.7  51 
 BAR2 EZ I         7 0 28.94        16.2 0.20            161           46.7  51 
 BRR  HZ EP        7 0 15.25                             144    0.1910 89.3 346 
 BRR  HE ES        7 0 31.99                             144    0.4210 89.3 346 
 BRR  HZ I         7 0 32.70         6.6 0.09            143           89.3 346 
 PTB  HZ EP        7 0 16.03                             139   -0.4210  107 283 
 PTB  HE ES        7 0 33.90                             139   -0.1410  107 283 
 PTB  HZ I         7 0 34.30         4.6 0.18            137            107 283 
 PAM  EZ EP        7 0 20.75                             131    0.51 9  144  39 
 NOR  HZ EP        7 0 22.71                             125    0.26 9  172 241 
 NOR  HN ES        7 0 45.07                             125    0.35 9  172 241 
 NOR  HZ I         7 0 47.59         3.0 0.17            124            172 241 
 ZAR  HN ES        7 0 48.83                             121   -0.28 9  197 311 
 ZAR  HZ I         7 0 54.71         3.4 0.11            120            197 311 
                                                                                
