 2017  9 3 0653 35.3 L   6.843 -73.120133.4  RSN  6 0.5 1.3LRSN                1
 GAP=138        1.21       7.2     7.7 10.2  0.2530E+02 -0.2063E+02 -0.2747E+02E
 Epicentro: LOS SANTOS - SANTANDER                                             3
 ACTION:UPD 17-10-05 19:08 OP:rebc STATUS:               ID:20170903065335 L   I
 OLDACT:UP  17-09-03 16:25 OP:dani STATUS:               ID:20170903064744     3
 OLDACT:UP  17-09-03 16:25 OP:dani STATUS:               ID:20170903064744     3
 OLDACT:UP  17-09-03 16:24 OP:dani STATUS:               ID:20170903064744     3
 OLDACT:UP  17-09-03 16:24 OP:dani STATUS:               ID:20170903064744     3
 OLDACT:UP  17-09-03 16:23 OP:dani STATUS:               ID:20170903064744     3
 OLDACT:UP  17-09-03 16:23 OP:dani STATUS:               ID:20170903064744     3
 OLDACT:UP  17-09-03 16:23 OP:dani STATUS:               ID:20170903064744     3
 OLDACT:REG 17-09-03 13:24 OP:dani STATUS:               ID:20170903064744     3
 2017-09-03-0648-00M.COL___393                                                 6
 STAT SP IPHASW D HRMM SECON CODA AMPLIT PERI AZIMU VELO AIN AR TRES W  DIS CAZ7
 BAR2 EZ EP        653 52.92                             167   -0.6710 28.5 194 
 BAR2 EZ ES        654  7.10                             167   -0.7410 28.5 194 
 BAR2 EZ I         654  8.50         6.4 0.30            164           28.5 194 
 BRR  HZ EP        653 55.15                             149   -0.0210 71.6 294 
 BRR  HN ES        654 11.38                             149    0.7310 71.6 294 
 PAM  EZ EP        653 55.85                             150   -0.0510 72.0  40 
 PAM  EN ES   3    654 12.58                             150    0.63 2 72.0  40 
 PAM  EZ I         654 14.75         5.5 0.56            153           72.0  40 
 RUS  HZ EP        653 58.96                             139    0.7310  105 178 
 RUS  HN ES        654 16.32                             139    0.2310  105 178 
 RUS  HZ I         654 17.39         1.5 0.23            138            105 178 
 SPBC HZ EP   9    654  5.53                             124    2.10 0  169 219 
 SPBC HE ES        654 27.33                             124   -0.13 9  169 219 
 SPBC HZ I         654 32.79         2.1 0.08            123            169 219 
 ZAR  HZ EP   3    654  6.17                             119   -0.91 2  205 291 
 ZAR  HN ES        654 31.58                             119   -0.28 9  205 291 
 ZAR  HZ I         654 34.05         2.6 0.13            119            205 291 
                                                                                
