 2013  1 3 0840 57.0 L   6.787 -73.146146.9  RSN  9 0.4 2.4LRSN                1
 GAP=111        1.11       4.0     3.7  6.8  0.3314E+01  0.2745E+01  0.2814E+01E
 Epicentro: LOS SANTOS - SANTANDER                                             3
 ACTION:UPD 13-02-15 09:11 OP:ep   STATUS:               ID:20130103084057 L   I
 2013-01-03-0839-42M.COL___189                                                 6
 STAT SP IPHASW D HRMM SECON CODA AMPLIT PERI AZIMU VELO AIN AR TRES W  DIS CAZ7
 BAR2 SZ IP     D  841 16.88                             171    0.0910 21.9 191 
 BAR2 SZ ES        841 32.12                             171   -0.0710 21.9 191 
 BRR  HZ IP     C  841 18.72                             153    0.3610 71.9 300 
 BRR  HZ I         841 19.04        58.6 0.26            151           71.9 300 
 BRR  HN ES        841 35.97                             153    0.9810 71.9 300 
 RUS  HZ EP        841 20.82                             144    0.0110 99.1 176 
 RUS  HN ES        841 38.96                             144   -0.3810 99.1 176 
 RUS  HN I         841 41.37        36.8 0.24            144           99.1 176 
 PTB  HZ EP        841 23.55                             132   -0.53 9  147 259 
 PTB  HN ES        841 44.36                             132   -0.81 9  147 259 
 PTB  HN I         841 50.38        56.1 0.38            131            147 259 
 TAM  HZ IP        841 25.05                             131    0.27 9  155 104 
 TAM  HZ I         841 25.19        18.7 0.34            132            155 104 
 TAM  HN ES        841 46.40                             131   -0.02 9  155 104 
 OCA  HN ES        841 47.23                             130   -0.62 9  162 353 
 ZAR  HZ EP        841 29.46                             123   -0.17 9  205 293 
 ZAR  HE ES        841 55.22                             123    0.18 9  205 293 
 ZAR  HN I         842  0.86        27.0 0.28            122            205 293 
 CHI  HZ EP        841 34.92                             118    0.26 8  247 195 
 CHI  HZ I         841 37.03         8.1 0.14            117            247 195 
 CHI  HN ES        842  4.12                             118    0.13 8  247 195 
 HEL  HZ EP   4    841 39.95                             115    2.67 0  272 256 
 HEL  HN ES        842  9.06                             115    0.40 8  272 256 
 COD  HZ EP   4    841 44.33                             109   -1.31 0  350 355 
                                                                                
