 2017  2 3 0605 25.1 L   6.096 -73.558125.1  RSN  4 0.2 1.0LRSN                1
 GAP=183        0.48       3.7     2.4  5.4 -0.2619E+00  0.1387E+01 -0.6947E+01E
 Epicentro: SAN BENITO - SANTANDER                                             3
 ACTION:UPD 17-05-24 15:32 OP:jn   STATUS:               ID:20170203060525 L   I
 OLDACT:UP  17-02-03 15:33 OP:dnl  STATUS:               ID:20170203055746     3
 OLDACT:REG 17-02-03 12:40 OP:dnl  STATUS:               ID:20170203055746     3
 2017-02-03-0558-00M.COL___325                                                 6
 STAT SP IPHASW D HRMM SECON CODA AMPLIT PERI AZIMU VELO AIN AR TRES W  DIS CAZ7
 RUS  HZ EP   2    6 5 44.06                             154    0.09 5 57.2 113 
 RUS  HN ES        6 5 58.69                             154    0.0210 57.2 113 
 RUS  HZ I         6 6  0.07         1.6 0.20            157           57.2 113 
 BAR2 EZ EP        6 5 44.44                             149    0.1710 68.8  37 
 BAR2 EZ ES        6 5 58.98                             149   -0.2310 68.8  37 
 BAR2 EZ I         6 6  1.12         5.8 0.44            149           68.8  37 
 PTB  HZ EP   2    6 5 47.06                             135   -0.03 5  111 296 
 PTB  HN ES        6 6  4.24                             135    0.0110  111 296 
 PTB  HZ I         6 6  6.93         1.6 0.10            136            111 296 
 PAM  EZ EP   2    6 5 52.39                             123   -0.65 5  167  35 
 PAM  EE ES        6 6 14.99                             123    0.17 9  167  35 
 PAM  EZ I         6 6 18.38         0.9 0.20            124            167  35 
                                                                                
