 2016  2 3 0525 55.3 L   6.710 -73.082139.5  RSN  4 0.4 1.0LRSN                1
 GAP=277        0.73       8.8     7.0  7.0 -0.1953E+02  0.6457E+01  0.1166E+02E
 Epicentro: JORDAN - SANTANDER                                                 3
 ACTION:UPD 16-03-04 21:22 OP:rebc STATUS:               ID:20160203052555 L   I
 OLDACT:DUP 16-02-03 16:13 OP:dnl  STATUS:               ID:20160203051750d    3
 2016-02-03-0517-48M.COL___310                                                 6
 STAT SP IPHASW D HRMM SECON CODA AMPLIT PERI AZIMU VELO AIN AR TRES W  DIS CAZ7
 BAR2 EZ EP   2    526 14.28                             172    0.23 5 17.1 220 
 BAR2 EZ ES        526 28.77                             172    0.0810 17.1 220 
 BAR2 EZ I         526 30.76         3.3 0.14            161           17.1 220 
 RUS  HZ EP        526 17.81                             145    0.1110 90.4 180 
 RUS  HE ES   2    526 34.23                             145   -0.95 5 90.4 180 
 RUS  HZ I         526 39.32         0.8 0.30            140           90.4 180 
 PTB  HZ EP   2    526 22.22                             129   -0.03 5  153 263 
 PTB  HE ES   2    526 42.53                             129   -0.75 5  153 263 
 PTB  HZ I         526 45.38         1.4 0.20            129            153 263 
 SPBC HZ EP        526 22.83                             128   -0.21 9  160 223 
 SPBC HE ES   2    526 44.39                             128   -0.29 5  160 223 
 SPBC HN ES        526 45.16                             128    0.48 9  160 223 
 SPBC HZ I         526 53.32         1.4 0.26            126            160 223 
                                                                                
