 2013  2 3 0333 35.5 L   6.772 -73.147143.3  RSN  9 0.3 1.8LRSN                1
 GAP= 72        0.74       2.6     3.2  4.3  0.1139E+01  0.9108E+00  0.5233E+00E
 Epicentro: LOS SANTOS - SANTANDER                                             3
 ACTION:UPD 13-03-12 09:30 OP:ep   STATUS:               ID:20130203033335 L   I
 2013-02-03-0330-00M.COL___240                                                 6
 STAT SP IPHASW D HRMM SECON CODA AMPLIT PERI AZIMU VELO AIN AR TRES W  DIS CAZ7
 BAR2 SZ EP        333 54.79                             172    0.0610 20.2 191 
 BAR2 SZ ES        334  9.44                             172   -0.3210 20.2 191 
 BAR2 SZ I         334 11.12        23.8 0.16            161           20.2 191 
 BRR  HZ EP        333 56.69                             152    0.2710 72.6 301 
 BRR  HE ES        334 13.38                             152    0.6110 72.6 301 
 BRR  HE I         334 14.33        26.0 0.25            144           72.6 301 
 PAM  SZ EP        333 57.51                             149   -0.0610 80.0  38 
 PAM  SZ I         333 57.92        13.2 0.20            149           80.0  38 
 PAM  SE ES        334 14.69                             149   -0.1210 80.0  38 
 RUS  HZ EP        333 58.71                             144   -0.0310 97.5 176 
 RUS  HN ES        334 16.81                             144   -0.0910 97.5 176 
 RUS  HN I         334 18.59        17.3 0.24            132           97.5 176 
 PTB  HZ EP        334  1.50                             132   -0.66 9  147 260 
 PTB  HE ES   1    334 22.81                             132   -0.17 7  147 260 
 PTB  HZ I         334 24.77         6.6 0.18            121            147 260 
 TAM  HZ EP        334  3.01                             130    0.12 9  155 104 
 ZAR  HE ES   1    334 32.88                             122   -0.24 6  205 293 
 ZAR  HZ I         334 39.24         4.6 0.16            114            205 293 
 SML  HZ EP   1    334 12.15                             117   -0.10 6  246 336 
 SML  HN ES        334 40.96                             117    0.01 8  246 336 
 CHI  HZ EP        334 13.04                             117    0.35 8  246 195 
 CHI  HN ES   1    334 42.10                             117    0.38 6  246 195 
 CHI  HZ I         334 46.12         2.1 0.44            108            246 195 
                                                                                
