 2010  7 3 0941 30.0 L   6.809 -73.044144.2  RSN  7 0.4 1.8LRSN                1
 GAP=167        0.94       6.2    10.7  9.5 -0.1801E+02 -0.2786E+02 -0.7026E+01E
 Epicentro: LOS SANTOS - SANTANDER                                             3
 ACTION:UPD 10-12-01 15:14 OP:pat  STATUS:               ID:20100703094130 L   I
 2010-07-03-0938-30S.COL___118                                                 6
 STAT SP IPHASW D HRMM SECON CODA AMPLIT PERI AZIMU VELO AIN AR TRES W  DIS CAZ7
 BAR2 SZ EP        941 49.40                             169    -0.210   29 213 
 BAR2 SZ ES   1    942  4.86                             169     0.0 7   29 213 
 BRR  HZ IP     C  941 51.26                             150    -0.310   81 294 
 BRR  HZ I         941 51.54        19.5 0.16                            81 294 
 BRR  HE ES   1    942  8.75                             150     0.3 7   81 294 
 RUS  HZ EP   2    941 53.92                             144     0.2 5  101 182 
 RUS  HE ES   2    942 12.32                             144     0.2 5  101 182 
 RUS  HZ I         942 13.60         5.2 0.39                           101 182 
 BRI  SZ EP        941 53.94                             143     0.510  104  15 
 GUE  SZ EP   1    941 53.40                             140    -1.0 7  114   7 
 GRA  SZ EP   1    941 55.15                             138     0.3 7  122  13 
 GRA  SZ ES   2    942 14.55                             138     0.4 5  122  13 
 PRA  HZ EP   2    942 24.23                             106     0.0 3  399 211 
 PRA  HE ES   2    943  7.29                             106     0.7 3  399 211 
 PRA  HZ I         943  9.46         2.1 0.35                           399 211 
                                                                                
