 2010  6 3 0258 50.8 L   6.780 -73.103149.8  RSN 12 0.4 3.7LRSN                1
 GAP=147        0.99       4.3     8.2  7.3 -0.2207E+02  0.1160E+02  0.4178E+01E
 Epicentro: LOS SANTOS - SANTANDER                                             3
 ACTION:UP  10-08-24 10:08 OP:vdl  STATUS:               ID:20100603025850 L   I
 2010-06-03-0256-41S.COL___109                                                 6
 STAT SP IPHASW D HRMM SECON CODA AMPLIT PERI AZIMU VELO SNR AR TRES W  DIS CAZ7
 BAR2 SZ IP        259 10.96                             171     0.010   23 203 
 BAR2 SZ ES   1    259 26.28                             171    -0.3 7   23 203 
 GUE  SZ EP        259 15.88                             140    -0.110  118  10 
 GUE  SZ ES   1    259 35.89                             140     0.2 7  118  10 
 GRA  SZ IP        259 16.76                             138     0.310  127  15 
 GRA  SZ ES   1    259 36.99                             138     0.5 7  127  15 
 OCA  SZ IP        259 19.36                             130    -0.3 9  163 352 
 OCA  SZ ES   1    259 41.91                             130    -0.3 7  163 352 
 OCA  SZ I         259 45.25       485.3 0.60                           163 352 
 CHI  HZ EP   1    259 28.48                             118    -0.2 6  248 196 
 CHI  HE ES   1    259 57.76                             118    -0.4 6  248 196 
 CHI  HZ I         3 0  4.13       239.8 0.66                           248 196 
 ROSC BZ IP     C  259 30.42                             117     1.2 8  253 212 
 ROSC BN ES   1    259 59.05                             117    -0.1 6  253 212 
 ROSC BZ I         3 0  8.97       426.3 0.57                           253 212 
 CVER SZ IP        259 31.21                             116    -0.1 8  272 203 
 HEL  HZ EP   1    259 32.31                             115     0.6 6  276 256 
 HEL  HZ I         3 0 10.03       248.7 0.39                           276 256 
 RREF BZ EP   1    259 37.17                             111    -0.2 5  324 230 
 RREF BE ES   1    3 0 13.08                             111    -0.6 5  324 230 
 RREF BZ I         3 0 22.91       350.5 0.59                           324 230 
 DBB  SZ EP        259 38.61                             110    -0.4 7  344 275 
 TOL  SZ EP   1    259 39.63                             110     0.2 5  345 225 
 SDV  BZ IP     D  259 40.14                             109    -0.6 6  358  49 
 SDV  BZ I         259 41.63       116.9 0.34                           358  49 
                                                                                
