 2012  9 3 0956 53.1 L   6.894 -72.950142.0  RSN  5 0.2 1.7LRSN                1
 GAP=203        0.51       3.3     9.0  5.8  0.1379E+02 -0.1842E+02 -0.3091E+01E
 Epicentro: GUACA - SANTANDER                                                  3
 ACTION:UPD 12-10-22 14:16 OP:ep   STATUS:               ID:20120903095653 L   I
 2012-09-03-0950-00M.COL___218                                                 6
 STAT SP IPHASW D HRMM SECON CODA AMPLIT PERI AZIMU VELO AIN AR TRES W  DIS CAZ7
 GIR2 SZ EP   1    957 12.75                             166    0.38 7 33.8 307 
 GIR2 SZ ES   1    957 27.61                             166    0.19 7 33.8 307 
 BAR2 SZ EP   1    957 12.89                             163    0.10 7 42.1 218 
 BAR2 SZ I         957 13.16        13.8 0.21                          42.1 218 
 BAR2 SZ ES   1    957 28.19                             163    0.02 7 42.1 218 
 BRR  HZ EP   1    957 14.73                             147   -0.11 7 87.4 286 
 BRR  HN ES   1    957 31.87                             147    0.07 7 87.4 286 
 BRR  HZ I         957 35.24         9.2 0.21                          87.4 286 
 RUS  HZ EP   1    957 17.36                             140    0.05 7  112 188 
 RUS  HN ES   1    957 35.83                             140   -0.37 7  112 188 
 RUS  HZ I         957 36.69         5.3 0.34                           112 188 
 OCA  HN ES   1    957 41.54                             130   -0.39 7  154 345 
                                                                                
