 2017 12 3 0243 28.3 L   6.762 -73.187144.1  RSN  5 0.4 1.4LRSN                1
 GAP=239        0.99       6.4     5.9  7.9  0.1494E+02  0.9164E+01 -0.1011E+02E
 Epicentro: LOS SANTOS - SANTANDER                                             3
 ACTION:UPD 18-01-04 13:16 OP:rebc STATUS:               ID:20171203024328 L   I
 OLDACT:REG 17-12-03 13:02 OP:dhb  STATUS:               ID:20171203023741     3
 2017-12-03-0238-00M.COL___492                                                 6
 STAT SP IPHASW D HRMM SECON CODA AMPLIT PERI AZIMU VELO AIN AR TRES W  DIS CAZ7
 BAR2 EZ EP        243 47.92                             172    0.3210 18.7 178 
 BAR2 EZ ES        244  2.40                             172   -0.3010 18.7 178 
 BAR2 EZ I         244  4.71         6.5 0.56            169           18.7 178 
 RUS  HZ EP        243 51.24                             145   -0.3310 96.8 173 
 RUS  HN ES        244 10.13                             145    0.3710 96.8 173 
 RUS  HZ I         244 10.58         3.0 0.26            147           96.8 173 
 PTB  HZ EP        243 54.05                             133   -0.56 9  142 260 
 PTB  HN ES        244 14.76                             133   -0.41 9  142 260 
 PTB  HZ I         244 22.22         2.1 0.58            132            142 260 
 SPBC HZ EP        243 55.83                             130   -0.22 9  157 219 
 SPBC HN ES        244 18.14                             130    0.42 9  157 219 
 SPBC HZ I         244 21.89         5.4 0.26            130            157 219 
 ZAR  HZ EP        244  0.89                             122    0.56 9  201 294 
 ZAR  HN ES        244 25.65                             122    0.30 9  201 294 
 ZAR  HZ I         244 31.96         4.2 0.42            123            201 294 
                                                                                
