 2011  4 3 0947 52.6 L   6.794 -73.112144.0  RSN  7 0.3 1.5LRSN                1
 GAP=162        0.73       5.7     6.8  5.7 -0.9969E+01 -0.2984E+01 -0.7614E+01E
 Epicentro: LOS SANTOS - SANTANDER                                             3
 ACTION:UP  11-06-22 15:28 OP:REBC STATUS:               ID:20110403094752 L   I
 2011-04-03-0946-20S.COL___138                                                 6
 STAT SP IPHASW D HRMM SECON CODA AMPLIT PERI AZIMU VELO SNR AR TRES W  DIS CAZ7
 BTL  SZ EP        948 12.03                             171     0.110   22 309 
 BTL  SZ ES   1    948 27.11                             171     0.0 7   22 309 
 BAR2 SZ EP        948 11.83                             170    -0.210   24 199 
 BAR2 SZ ES   1    948 26.75                             170    -0.4 7   24 199 
 BAR2 SZ I         948 27.93        14.2 0.30                            24 199 
 GIR2 SZ EP   3    948 12.04                             166     0.0 2   33 344 
 BRR  HZ EP        948 13.72                             151     0.010   75 298 
 BRR  HN ES   1    948 30.69                             151     0.4 7   75 298 
 BRR  HZ I         948 33.58         9.4 0.22                            75 298 
 PAM  SZ EP        948 14.69                             151     0.210   76  37 
 PAM  SN ES   1    948 31.86                             151     0.3 7   76  37 
 PAM  SZ I         948 33.88         3.1 0.73                            76  37 
 GRA  SZ EP        948 17.92                             137     0.310  125  16 
 GRA  SZ ES   2    948 36.41                             137    -0.8 5  125  16 
 GRA  SZ I         948 42.11         3.3 0.60                           125  16 
 OCA  SZ EP        948 20.48                             129    -0.4 9  161 352 
 OCA  SZ ES   2    948 42.81                             129    -0.1 5  161 352 
 OCA  SZ I         948 45.65         5.5 0.74                           161 352 
                                                                                
