 2011  9 3 0202 47.7 L   6.767 -73.096144.0  RSN  9 0.2 2.0LRSN                1
 GAP=144        0.43       3.0     3.6  4.4 -0.1558E+01  0.4292E+01 -0.3283E+01E
 Epicentro: LOS SANTOS - SANTANDER                                             3
 ACTION:UPD 12-07-13 15:55 OP:ep   STATUS:               ID:20110903020247 L   I
 2011-09-03-0158-37S.COL___171                                                 6
 STAT SP IPHASW D HRMM SECON CODA AMPLIT PERI AZIMU VELO AIN AR TRES W  DIS CAZ7
 BAR2 SZ EP   1    2 3  7.17                             171    0.13 7 21.5 206 
 BAR2 SZ ES   1    2 3 21.84                             171   -0.32 7 21.5 206 
 GIR2 SZ EP   1    2 3  7.31                             165    0.05 7 36.1 343 
 PAM  SZ EP   1    2 3  9.96                             150    0.30 7 77.0  35 
 PAM  SE ES   2    2 3 27.02                             150    0.19 5 77.0  35 
 BRR  HZ IP     D  2 3  9.14                             150    0.1410 77.7 299 
 BRR  HZ I         2 3  9.57        34.2 0.15                          77.7 299 
 BRR  HN ES   2    2 3 25.90                             150    0.25 5 77.7 299 
 RUS  HZ EP   2    2 3 10.70                             144   -0.26 5 96.7 179 
 RUS  HN ES   2    2 3 29.02                             144   -0.12 5 96.7 179 
 RUS  HZ I         2 3 30.46         7.9 0.30                          96.7 179 
 OCA  SZ EP   1    2 3 16.03                             128   -0.22 7  165 351 
 OCA  SZ ES   2    2 3 37.96                             128   -0.58 5  165 351 
 OCA  SZ I         2 3 41.80        17.1 0.29                           165 351 
 ZAR  HZ EP   2    2 3 20.53                             121   -0.13 4  210 293 
 ZAR  HN ES   2    2 3 46.47                             121    0.07 4  210 293 
 ZAR  HZ I         2 3 54.15        13.4 0.46                           210 293 
 NOR  SN ES   2    2 3 51.79                             118    0.25 4  237 236 
 HEL  HZ EP   2    2 3 27.96                             114   -0.32 4  277 257 
 HEL  HZ I         2 4  7.97         4.1 0.33                           277 257 
                                                                                
