 2016 11 3 0147 50.7 L   6.784 -73.148150.8  RSN  6 0.3 1.6LRSN                1
 GAP=137        0.91       4.6     4.1  6.1  0.2058E+01  0.6018E+01 -0.1245E+01E
 Epicentro: LOS SANTOS - SANTANDER                                             3
 ACTION:UPD 17-10-26 21:04 OP:lp   STATUS:               ID:20161103014750 L   I
 OLDACT:UP  16-11-03 13:23 OP:dani STATUS:               ID:20161103013745d    3
 OLDACT:DUP 16-11-03 13:19 OP:dani STATUS:               ID:20161103013745d    3
 OLDACT:REG 16-11-03 12:10 OP:dani STATUS:               ID:20161103013744     3
 2016-11-03-0138-00M.COL___346                                                 6
 STAT SP IPHASW D HRMM SECON CODA AMPLIT PERI AZIMU VELO AIN AR TRES W  DIS CAZ7
 BAR2 EZ EP        148 10.92                             172    0.0110 21.5 190 
 BAR2 EZ ES        148 26.48                             172   -0.1910 21.5 190 
 BAR2 EZ I         148 26.99         9.9 0.36            172           21.5 190 
 BRR  HZ EP        148 12.42                             153   -0.0210 71.8 300 
 BRR  HE ES        148 30.12                             153    0.7310 71.8 300 
 BRR  HZ I         148 33.63        10.2 0.19            152           71.8 300 
 PAM  EZ EP        148 13.42                             151   -0.1410 79.0  39 
 PAM  EE ES        148 31.08                             151   -0.3010 79.0  39 
 RUS  HZ EP        148 14.95                             145    0.1110 98.8 176 
 RUS  HE ES        148 33.88                             145    0.2310 98.8 176 
 RUS  HZ I         148 35.59         2.9 0.31            148           98.8 176 
 PTB  HZ EP        148 17.80                             133   -0.24 9  147 259 
 PTB  HN ES        148 38.77                             133   -0.58 9  147 259 
 PTB  HZ I         148 40.72         3.8 0.18            133            147 259 
 ZAR  HZ EP        148 24.08                             123    0.55 9  204 293 
 ZAR  HN ES        148 48.96                             123   -0.17 9  204 293 
 ZAR  HZ I         148 54.10         3.5 0.39            124            204 293 
                                                                                
