 2016  5 3 0921 10.1 L   6.797 -73.155147.3  RSN 18 0.6 2.3LRSN                1
 GAP=135        1.31       3.6     4.6  6.2 -0.3665E+01  0.8336E+01  0.2939E+01E
 Epicentro: LOS SANTOS - SANTANDER                                             3
 ACTION:UPD 16-08-18 17:41 OP:cam  STATUS:               ID:20160503092110 L   I
 OLDACT:REG 16-05-03 14:08 OP:ak   STATUS:               ID:20160503091743     3
 2016-05-03-0917-43M.COL___286                                                 6
 STAT SP IPHASW D HRMM SECON CODA AMPLIT PERI AZIMU VELO AIN AR TRES W  DIS CAZ7
 BAR2 EZ IP     D  921 29.94                             171    0.0210 22.9 188 
 BAR2 EZ ES        921 45.00                             171   -0.3710 22.9 188 
 BAR2 EZ I         921 50.78        16.3 0.32            168           22.9 188 
 BRR  HZ IP     C  921 31.82                             153    0.4310 70.4 299 
 BRR  HN ES        921 48.89                             153    0.9110 70.4 299 
 BRR  HZ I         921 53.04        43.3 0.14            150           70.4 299 
 PAM  EZ IP     C  921 32.73                             151    0.1810 78.3  40 
 PAM  EN ES        921 50.02                             151   -0.0210 78.3  40 
 PAM  EZ I         921 52.21        33.0 0.50            157           78.3  40 
 RUS  HZ EP        921 34.07                             144    0.0710  100 175 
 RUS  HN ES        921 52.56                             144   -0.0710  100 175 
 RUS  HZ I         921 53.77        18.4 0.26            147            100 175 
 PTB  HZ EP        921 36.51                             133   -0.60 9  147 259 
 PTB  HN ES        921 57.78                             133   -0.39 9  147 259 
 PTB  HZ I         922  5.23        21.0 0.16            132            147 259 
 OCA  HZ EP        921 38.17                             130   -0.40 9  160 354 
 OCA  HN ES        922  0.32                             130   -0.43 9  160 354 
 OCA  HZ I         922  5.12        46.1 0.42            132            160 354 
 SPBC HZ IP     D  921 38.82                             130    0.17 9  162 219 
 SPBC HN ES        922  1.12                             130    0.22 9  162 219 
 SPBC HZ I         922  3.21        48.3 0.12            130            162 219 
 ZAR  HZ EP        921 43.17                             123    0.59 9  203 292 
 ZAR  HN ES        922  8.27                             123    0.38 9  203 292 
 ZAR  HZ I         922 15.85        14.0 0.16            123            203 292 
 NOR  HZ EP        921 45.62                             119   -0.21 8  234 234 
 NOR  HN ES        922 13.42                             119   -0.26 8  234 234 
 NOR  HZ I         922 18.07        21.6 0.20            120            234 234 
 CHI  HZ EP        921 47.57                             118   -0.27 8  248 195 
 CHI  HN ES        922 16.92                             118   -0.34 8  248 195 
 CHI  HZ I         922 21.74         8.1 0.24            120            248 195 
 ROSC BZ EP   9    921 49.83                             117    1.60 0  252 211 
 ROSC BN ES        922 20.36                                    0.80 8  252 211 
 ROSC BZ I         922 25.99        21.3 0.55            119            252 211 
 HEL  HZ EP        921 50.26                             115   -0.03 8  271 256 
 HEL  HN ES        922 19.49                             115   -2.13 8  271 256 
 HEL  HZ I         922 28.28         8.2 0.30            116            271 256 
 URE  HZ EP   4    921 54.47                             114    3.30 0  283 292 
 URE  HE ES   4    922 21.90                             114   -1.29 0  283 292 
 URE  HZ I         922 35.02        12.1 0.16            115            283 292 
 CBOC HZ EP        921 57.57                             110    0.60 7  333 252 
 CBOC HE ES        922 34.58                             110    1.06 7  333 252 
 CBOC HZ I         922 36.33         2.8 0.36            111            333 252 
 ANIL HZ EP        921 59.97                             109    0.10 6  356 224 
 ANIL HN ES        922 39.16                             109    0.48 6  356 224 
 ANIL HZ I         922 49.83        24.2 0.34            110            356 224 
 ORTC HZ EP        922  3.76                             107   -0.23 6  395 216 
 ORTC HN ES        922 47.20                             107    1.19 6  395 216 
 ORTC HZ I         922 53.49         9.3 0.44            108            395 216 
 PAL  HZ EP   2    922  5.30                             106    0.09 3  405 239 
 PAL  HN ES   4    922 50.46                             106    2.29 0  405 239 
 PAL  HZ I         922 54.86         2.7 0.21            108            405 239 
 MACC HZ EP   4    922 16.17                             102   -2.64 0  520 189 
 MACC HN ES   4    923  8.39                             102   -4.00 0  520 189 
 MACC HZ I         923 14.25         2.1 0.54            104            520 189 
                                                                                
