 2013  6 3 0408 52.9 L   6.816 -73.194145.5  RSN  4 0.4 1.9LRSN                1
 GAP=197        0.97       5.4     8.2 10.2  0.1789E+02 -0.1635E+02 -0.7062E+01E
 Epicentro: ZAPATOCA - SANTANDER                                               3
 ACTION:UPD 14-01-08 09:52 OP:ep   STATUS:               ID:20130603040852 L   I
 2013-06-03-0407-50M.COL___224                                                 6
 STAT SP IPHASW D HRMM SECON CODA AMPLIT PERI AZIMU VELO AIN AR TRES W  DIS CAZ7
 BRR  HZ EP   1    4 9 14.50                             154    0.78 7 65.7 299 
 BRR  HN ES        4 9 30.31                             154    0.3510 65.7 299 
 BRR  HN I         4 9 34.61        17.6 0.16            153           65.7 299 
 RUS  HZ EP        4 9 16.83                             143    0.0410  103 173 
 RUS  HN ES   1    4 9 34.88                             143   -0.54 7  103 173 
 RUS  HN I         4 9 37.59         5.2 0.58            149            103 173 
 PTB  HZ EP        4 9 19.49                             133    0.09 9  143 258 
 PTB  HN ES        4 9 39.84                             133   -0.24 9  143 258 
 PTB  HN I         4 9 45.67        10.1 0.48            135            143 258 
 SML  HE ES        4 9 56.72                             118   -0.62 8  240 336 
 SML  HE I         410  7.04         9.0 0.10            119            240 336 
                                                                                
