 2012  5 3 0010 23.8 L   6.782 -73.137145.3  RSN 10 0.4 2.0LRSN                1
 GAP=138        0.77       3.9     4.3  6.2 -0.2086E+01  0.6380E+01  0.3651E+01E
 Epicentro: LOS SANTOS - SANTANDER                                             3
 ACTION:UP  12-07-05 12:01 OP:pat  STATUS:               ID:20120503001023 L   I
 2012-05-03-0010-00M.COL___186                                                 6
 STAT SP IPHASW D HRMM SECON CODA AMPLIT PERI AZIMU VELO SNR AR TRES W  DIS CAZ7
 BAR2 SZ EP        010 43.12                             171    -0.210   22 193 
 BAR2 SZ ES   1    010 58.23                             171    -0.3 7   22 193 
 BAR2 SZ I         010 59.15        40.8 0.30                            22 193 
 BRR  HZ EP        010 45.05                             152     0.110   73 300 
 BRR  HN ES   1    011  2.20                             152     0.7 7   73 300 
 BRR  HZ I         011  6.59        26.0 0.18                            73 300 
 PAM  SZ EP        010 46.07                             151     0.110   78  38 
 PAM  SN ES   1    011  3.14                             151    -0.2 7   78  38 
 RUS  HZ EP   1    010 47.15                             144    -0.2 7   99 176 
 RUS  HN ES   1    011  6.19                             144     0.5 7   99 176 
 RUS  HZ I         011  6.89        10.5 0.29                            99 176 
 PTB  HZ EP   1    010 50.19                             132    -0.6 7  148 260 
 PTB  HN ES   1    011 11.20                             132    -0.6 7  148 260 
 PTB  HZ I         011 13.26         9.6 0.18                           148 260 
 ZAR  HZ EP   2    010 57.22                             122     0.9 4  206 293 
 ZAR  HN ES   2    011 21.88                             122     0.1 4  206 293 
 ZAR  HZ I         011 27.80        14.6 0.23                           206 293 
 CHI  HN ES   1    011 30.78                             117     0.3 6  247 195 
 HEL  HZ EP   2    011  4.19                             115     0.2 4  272 256 
 HEL  HN ES   2    011 35.49                             115     0.1 4  272 256 
 HEL  HZ I         011 43.51         4.5 0.27                           272 256 
 RREF HN ES   2    011 45.54                             111    -0.2 3  321 230 
 PRA  HZ EP   1    011 17.17                             107     0.1 4  391 210 
 PRA  HE ES   2    011 58.74                             107     0.0 3  391 210 
                                                                                
