 2015  3 3 0218 56.7 L   6.799 -73.155147.9  RSN 14 0.3 1.8LRSN                1
 GAP= 71        0.62       1.8     2.0  3.4 -0.5349E+00  0.8324E+00  0.1293E+01E
 Epicentro: LOS SANTOS - SANTANDER                                             3
 ACTION:UPD 15-04-30 16:22 OP:nd   STATUS:               ID:20150303021856 L   I
 OLDACT:REG 15-03-03 12:36 OP:spq  STATUS:               ID:20150303021747     3
 2015-03-03-0217-47M.COL___284                                                 6
 STAT SP IPHASW D HRMM SECON CODA AMPLIT PERI AZIMU VELO AIN AR TRES W  DIS CAZ7
 BAR2 EZ ES   1    219 32.16                             171    0.06 7 23.1 188 
 BAR2 EZ I         219 34.20        18.1 0.24            172           23.1 188 
 BRR  HZ EP        219 18.14                             153    0.1010 70.4 299 
 BRR  HN ES        219 35.29                             153    0.6110 70.4 299 
 BRR  HZ I         219 39.35        10.5 0.30            151           70.4 299 
 PAM  SZ EP     C  219 19.20                             151    0.0110 78.1  40 
 PAM  SN ES        219 36.60                             151   -0.1310 78.1  40 
 PAM  SZ I         219 38.82         6.0 0.32            152           78.1  40 
 RUS  HZ EP        219 20.40                             144   -0.2610  101 175 
 RUS  HN ES        219 39.08                             144   -0.2710  101 175 
 RUS  HZ I         219 40.06         4.6 0.28            147            101 175 
 PTB  HZ EP        219 23.48                             133   -0.28 9  147 259 
 PTB  HN ES        219 44.71                             133   -0.14 9  147 259 
 PTB  HZ I         219 46.79         5.7 0.12            132            147 259 
 TAM  HZ EP        219 24.84                             131    0.20 9  156 105 
 TAM  HN ES        219 46.64                             131    0.21 9  156 105 
 TAM  HZ I         219 48.15         6.1 0.30            134            156 105 
 OCA  HN ES        219 47.06                             130   -0.33 9  160 354 
 OCA  HZ I         219 55.00        10.3 0.44            130            160 354 
 SPBC HZ EP        219 25.32                             130    0.02 9  162 219 
 SPBC HN ES        219 47.64                             130    0.04 9  162 219 
 SPBC HZ I         219 51.68        11.0 0.42            130            162 219 
 NOR  HZ EP   1    219 32.60                             119    0.14 6  234 234 
 NOR  HE ES        220  0.26                             119   -0.09 8  234 234 
 NOR  HZ I         220  5.98         4.1 0.05            120            234 234 
 SML  HZ EP   1    219 33.09                             118   -0.33 6  243 336 
 SML  HN ES   1    220  2.07                             118    0.02 6  243 336 
 SML  HZ I         220  5.20         8.5 0.28            118            243 336 
 CHI  HZ EP        219 34.62                             118    0.14 8  248 195 
 CHI  HN ES        220  3.66                             118   -0.29 8  248 195 
 CHI  HZ I         220  7.44         5.0 0.62            119            248 195 
 GUY2CHZ EP   1    219 41.03                             113    0.72 5  300 235 
 GUY2CHN ES   4    220 16.72                             113    2.40 0  300 235 
 GUY2CHZ I         220 22.85         3.8 0.58                           300 235 
 MON  HZ EP   4    219 43.38                             109   -2.33 0  353 308 
 MON  HE ES   4    220 21.74                             109   -2.19 0  353 308 
 MON  HZ I         220 31.85         1.1 0.24            109            353 308 
 PRA  HZ EP        219 50.58                             107    0.35 6  391 209 
 PRA  HN ES   1    220 32.26                             107    0.28 4  391 209 
 PRA  HZ I         220 36.68         4.2 0.46            108            391 209 
                                                                                
