 2015  4 3 0320 35.6 L   6.793 -73.116155.8  RSN  7 0.5 1.8LRSN                1
 GAP=186        1.31       4.4     8.0 10.0  0.4258E+01 -0.6238E+01 -0.9909E+01E
 Epicentro: LOS SANTOS - SANTANDER                                             3
 ACTION:UPD 15-06-03 16:52 OP:cam  STATUS:               ID:20150403032035 L   I
 OLDACT:UP  15-04-03 15:52 OP:mh   STATUS:               ID:20150403031750     3
 OLDACT:UP  15-04-03 14:39 OP:mh   STATUS:               ID:20150403031750     3
 OLDACT:REG 15-04-03 12:53 OP:mh   STATUS:               ID:20150403031750     3
 2015-04-03-0317-50M.COL___283                                                 6
 STAT SP IPHASW D HRMM SECON CODA AMPLIT PERI AZIMU VELO AIN AR TRES W  DIS CAZ7
 BRR  HZ EP        320 58.71                             153    0.7010 74.4 298 
 BRR  HN ES        321 16.42                             153    0.9210 74.4 298 
 BRR  HZ I         321 23.13         8.9 0.60            152           74.4 298 
 RUS  HZ EP        321  0.57                             146    0.2910 99.6 178 
 RUS  HN ES        321 18.86                             146   -0.6710 99.6 178 
 RUS  HZ I         321 22.39         2.9 0.18            152           99.6 178 
 PTB  HZ EP   1    321  3.53                             133   -0.13 7  151 259 
 PTB  HN ES   1    321 24.72                             133   -0.84 7  151 259 
 PTB  HZ I         321 31.92         7.9 0.46            136            151 259 
 OCA  HZ EP        321  4.60                             132   -0.21 9  161 352 
 OCA  HN ES        321 27.39                             132   -0.21 9  161 352 
 OCA  HZ I         321 31.37        13.6 0.36            134            161 352 
 SPBC HZ EP        321  5.60                             131    0.59 9  165 220 
 SPBC HN ES        321 27.48                             131   -0.48 9  165 220 
 SPBC HZ I         321 30.98        11.8 0.10            135            165 220 
 ZAR  HZ EP        321  9.33                             124    0.29 8  207 292 
 ZAR  HN ES        321 35.20                             124    0.06 8  207 292 
 ZAR  HZ I         321 41.21         4.6 0.21            126            207 292 
 SML  HZ EP        321 12.41                             119   -0.61 8  246 335 
 SML  HN ES        321 41.61                             119   -0.61 8  246 335 
 SML  HZ I         321 53.12         7.7 0.20            122            246 335 
                                                                                
