 2013  4 3 0314 53.9 L   6.373 -73.679 98.6  RSN  7 0.5 1.7LRSN                1
 GAP= 69        0.99       4.7     4.5 10.4  0.3853E+01  0.1850E+02  0.9333E+01E
 Epicentro: SANTA HELENA DEL OPON - SANTANDER                                  3
 ACTION:UPD 13-05-22 14:35 OP:EP   STATUS:               ID:20130403031453 L   I
 2013-04-03-0310-00M.COL___245                                                 6
 STAT SP IPHASW D HRMM SECON CODA AMPLIT PERI AZIMU VELO AIN AR TRES W  DIS CAZ7
 BAR2 SZ EP   1    315 10.04                             147    0.32 7 60.0  66 
 BAR2 SZ ES   1    315 22.68                             147    0.60 7 60.0  66 
 BAR2 SZ I         315 24.27        56.1 0.54            157           60.0  66 
 BRR  HZ EP   1    315 10.92                             138   -0.08 7 81.2 357 
 RUS  HZ EP   1    315 11.65                             137   -0.32 7 84.7 129 
 RUS  HN ES   1    315 25.61                             137   -0.46 7 84.7 129 
 PTB  HZ IP     D  315 10.91                             135   -0.6810 87.9 282 
 PTB  HN ES   1    315 25.05                             135   -0.36 7 87.9 282 
 PTB  HZ I         315 30.48         6.9 0.10            139           87.9 282 
 NOR  HZ EP   1    315 19.28                             118    0.48 7  159 236 
 NOR  HE ES   1    315 38.50                             118    0.26 7  159 236 
 NOR  HZ I         315 41.67         6.9 0.12            122            159 236 
 ZAR  HZ EP   1    315 21.19                             114    0.18 7  180 314 
 ZAR  HN ES   2    315 43.49                             114    1.33 4  180 314 
 CHI  HZ EP   1    315 22.68                             113   -0.33 7  193 182 
 CHI  HN ES   1    315 46.43                             113    0.71 7  193 182 
 CHI  HZ I         315 49.64         2.6 0.28            117            193 182 
                                                                                
