 2016  1 3 0252 56.0 L   6.761 -73.161139.8  RSN  6 0.4 1.6LRSN                1
 GAP=136        1.11       5.4     4.8  7.5  0.2605E+01  0.9606E+01 -0.1949E+01E
 Epicentro: LOS SANTOS - SANTANDER                                             3
 ACTION:UPD 16-03-09 23:22 OP:cam  STATUS:               ID:20160103025256 L   I
 OLDACT:REG 16-01-03 12:20 OP:drio STATUS:               ID:20160103024748     3
 2016-01-03-0247-48M.COL___314                                                 6
 STAT SP IPHASW D HRMM SECON CODA AMPLIT PERI AZIMU VELO AIN AR TRES W  DIS CAZ7
 BAR2 EZ EP        253 14.79                             172   -0.0610 18.8 187 
 BAR2 EZ ES        253 29.82                             172    0.2810 18.8 187 
 BAR2 EZ I         253 31.14        12.1 0.20            172           18.8 187 
 BRR  HZ EP        253 16.53                             151   -0.0510 71.9 302 
 BRR  HN ES        253 33.37                             151    0.7610 71.9 302 
 BRR  HZ I         253 37.85         7.2 0.10            150           71.9 302 
 PAM  EZ EP        253 17.65                             148   -0.2410 81.8  39 
 PAM  EN ES        253 34.57                             148   -0.3710 81.8  39 
 PAM  EZ I         253 36.28         8.7 0.72            152           81.8  39 
 RUS  HZ EP        253 19.34                             144    0.4510 96.4 175 
 RUS  HN ES        253 36.40                             144   -0.3210 96.4 175 
 RUS  HZ I         253 38.31         3.1 0.28            148           96.4 175 
 PTB  HZ EP        253 22.13                             131   -0.16 9  145 260 
 PTB  HN ES        253 42.29                             131   -0.48 9  145 260 
 PTB  HZ I         253 47.75         5.3 0.54            132            145 260 
 ZAR  HZ EP        253 28.84                             121    0.74 9  204 293 
 ZAR  HN ES        253 52.53                             121   -0.59 9  204 293 
 ZAR  HZ I         253 58.68         7.4 0.42            122            204 293 
                                                                                
