 2011  1 3 0455 13.3 L   6.789 -73.159140.8  RSN 17 0.5 2.9LRSN                1
 GAP=135        1.23       3.7     6.2  7.6 -0.4895E+01  0.1547E+02  0.5458E+01E
 Epicentro: LOS SANTOS - SANTANDER                                             3
 ACTION:UP  11-02-08 08:38 OP:pat  STATUS:               ID:20110103045513 L   I
 2011-01-03-0450-13S.COL___135                                                 6
 STAT SP IPHASW D HRMM SECON CODA AMPLIT PERI AZIMU VELO SNR AR TRES W  DIS CAZ7
 BTL  SZ IP        455 31.32                                    -0.910   19 320 
 BAR2 SZ IP        455 32.16                             171    -0.110   22 187 
 BAR2 SZ ES   1    455 46.81                             171    -0.3 7   22 187 
 BAR2 SZ I         455 48.22       303.3 0.30                            22 187 
 GIR2 SZ IP        455 32.17                             166    -0.210   32 353 
 GIR2 SZ ES   1    455 47.90                             166     0.6 7   32 353 
 RUS  HZ EP        455 36.08                             143    -0.410   99 175 
 RUS  HN ES   1    455 54.43                             143    -0.1 7   99 175 
 RUS  HZ I         455 56.53        59.0 0.52                            99 175 
 GRA  SZ IP        455 38.93                             135     0.710  127  18 
 GRA  SZ I         455 40.35        89.7 0.21                           127  18 
 GRA  SZ ES   1    455 58.44                             135     0.8 7  127  18 
 OCA  SZ IP        455 40.46                             128    -0.8 9  161 354 
 OCA  SZ ES   1    456  3.25                             128     0.1 7  161 354 
 OCA  SZ I         456  7.17        95.7 0.23                           161 354 
 YOP  SZ IP        455 42.95                             125     0.0 9  179 153 
 YOP  SZ I         455 43.58        36.6 0.16                           179 153 
 YOP  SE ES   1    456  6.53                             125     0.5 7  179 153 
 NOR  SZ EP   1    455 48.23                             118    -0.3 6  233 235 
 NOR  SE ES   1    456 15.65                             118    -0.4 6  233 235 
 CHI  HZ EP   1    455 50.40                             116    -0.1 6  247 195 
 CHI  HE ES   1    456 19.51                             116    -0.1 6  247 195 
 CHI  HZ I         456 23.47        42.5 0.54                           247 195 
 ROSC BZ IP     C  455 52.13                             116     1.2 8  251 211 
 ROSC BE ES   1    456 20.47                             116     0.2 6  251 211 
 ROSC BZ I         456 26.87        71.5 0.40                           251 211 
 HEL  HZ EP   1    455 52.96                             114    -0.1 6  270 256 
 HEL  HN ES   1    456 24.58                             114     0.5 6  270 256 
 HEL  HZ I         456 31.59        35.9 0.45                           270 256 
 VIL  SZ EP   1    455 55.86                             111    -0.2 5  300 190 
 VIL  SN ES   2    456 28.41                             111    -1.1 4  300 190 
 VIL  SZ I         456 33.30        31.1 0.35                           300 190 
 RREF HZ EP   1    455 59.81                             110     0.8 5  320 229 
 RREF HN ES   1    456 34.88                             110     0.3 5  320 229 
 RREF HZ I         456 42.05        37.5 0.29                           320 229 
 DBB  SZ EP   1    455 59.85                             109    -0.5 5  338 274 
 TOL  SZ EP   1    456  1.82                             109     0.7 5  342 225 
 PRA  HZ EP        456  6.27                             106    -0.1 6  390 209 
 PRA  HN ES   1    456 47.85                             106     0.0 4  390 209 
 SJA  SZ EP   2    456  7.20                             105    -0.3 3  399 193 
 SJA  SZ I         456 50.20        65.1 0.34                           399 193 
                                                                                
