 2010  8 3 0244  2.0 L   6.779 -73.027144.6  RSN 11 0.5 2.3LRSN                1
 GAP=172        1.09       4.6     8.7  8.8 -0.7874E+01  0.2605E+01 -0.9908E+00E
 Epicentro: CEPITA - SANTANDER                                                 3
 ACTION:UP  10-09-07 10:51 OP:vdl  STATUS:               ID:20100803024402 L   I
 2010-08-03-0241-21S.COL___123                                                 6
 STAT SP IPHASW D HRMM SECON CODA AMPLIT PERI AZIMU VELO SNR AR TRES W  DIS CAZ7
 BAR2 SZ IP        244 21.63                             169     0.110   27 220 
 BAR2 SZ I         244 21.93        67.2 0.10                            27 220 
 BAR2 SZ ES   2    244 36.40                             169    -0.4 5   27 220 
 GIR2 SZ EP        244 22.69                             165     1.010   38 331 
 BRR  HZ IP     C  244 23.49                             148    -0.310   84 296 
 BRR  HN ES   1    244 40.87                             148     0.1 7   84 296 
 BRR  HZ I         244 42.79        53.9 0.14                            84 296 
 RUS  HZ EP        244 25.48                             144     0.010   98 184 
 RUS  HN ES   1    244 43.42                             144    -0.4 7   98 184 
 RUS  HZ I         244 47.60        13.7 0.11                            98 184 
 GUE  SZ EP        244 26.52                             139    -0.110  117   6 
 GRA  SZ EP        244 27.44                             137     0.410  125  11 
 GRA  SZ I         244 47.94        13.8 0.33                           125  11 
 OCA  SZ EP        244 30.11                             129    -0.5 9  165 349 
 OCA  SZ ES   2    244 52.41                             129    -0.6 5  165 349 
 OCA  SZ I         244 56.73        24.0 0.43                           165 349 
 CHI  HZ EP        244 39.51                             117    -0.3 8  250 198 
 CHI  HN ES   2    245  9.65                             117     0.4 4  250 198 
 CHI  HZ I         245 14.52         5.9 0.28                           250 198 
 HEL  HZ EP        244 43.29                             114    -0.2 7  284 257 
 HEL  HN ES   2    245 17.11                             114     1.2 4  284 257 
 HEL  HZ I         245 20.56        14.0 0.29                           284 257 
 RREF HZ EP   2    244 49.22                             110     0.1 3  330 231 
 RREF HZ I         245 29.23         8.7 0.38                           330 231 
 PRA  HZ EP   2    244 55.29                             106    -0.7 3  397 211 
 PRA  HE ES   2    245 38.00                             106    -0.2 3  397 211 
 PRA  HZ I         245 43.95         7.6 0.45                           397 211 
                                                                                
