 2014  3 3 0830 24.6 L   6.785 -73.185144.0  RSN 15 0.4 2.2LRSN                1
 GAP=132        0.63       2.0     2.6  4.6 -0.9068E+00  0.5205E+01 -0.1550E+01E
 Epicentro: LOS SANTOS - SANTANDER                                             3
 OLDACT:REG 14-03-03 09:23 OP:stll STATUS:               ID:20140303082819     3
 OLDACT:DUP 14-03-03 13:41 OP:fm   STATUS:               ID:20140303082820d    3
 OLDACT:UP  14-03-03 13:40 OP:fm   STATUS:               ID:20140303082819     3
 ACTION:UPD 14-04-09 23:14 OP:nd   STATUS:               ID:20140303083024 L   I
 OLDACT:UP  14-03-03 13:58 OP:fm   STATUS:               ID:20140303082820d    3
 2014-03-03-0828-19M.COL___232                                                 6
 STAT SP IPHASW D HRMM SECON CODA AMPLIT PERI AZIMU VELO AIN AR TRES W  DIS CAZ7
 BAR2 SZ EP     D  830 44.21                             171    0.2510 21.3 179 
 BAR2 SZ ES   1    830 59.03                             171   -0.05 7 21.3 179 
 PAM  SZ EP     C  830 47.12                             149    0.2610 81.4  41 
 PAM  SN ES        831  4.26                             149    0.0310 81.4  41 
 PAM  SZ I         831  6.31        16.4 0.46            153           81.4  41 
 RUS  HZ EP     C  830 48.10                             144    0.0310 99.3 174 
 RUS  HN ES        831  6.15                             144   -0.2410 99.3 174 
 RUS  SZ I         831  8.21        16.9 0.40            146           99.3 174 
 PTB  HZ EP        830 51.10                             132    0.10 9  143 259 
 PTB  HN ES        831 11.32                             132   -0.28 9  143 259 
 PTB  SZ I         831 14.31        27.6 0.38            131            143 259 
 SPBC HE ES   2    831 14.62                             129    0.22 5  159 218 
 OCA  HZ EP   2    830 53.27                             129    0.40 5  161 355 
 OCA  HN ES   1    831 15.01                             129    0.08 7  161 355 
 OCA  SZ I         831 18.02        12.7 0.26            130            161 355 
 ZAR  HZ EP   1    830 56.58                             122    0.01 6  201 293 
 ZAR  HN ES        831 21.90                             122    0.38 9  201 293 
 ZAR  SZ I         831 29.02        18.8 0.30            122            201 293 
 NOR  HN ES   2    831 27.14                             118   -0.01 4  230 234 
 SML  HZ EP        831  0.66                             117   -0.42 8  243 336 
 SML  HE ES        831 28.98                             117   -0.57 8  243 336 
 SML  SZ I         831 33.49        18.7 0.10            118            243 336 
 CHI  HN ES   2    831 30.17                             117   -0.82 4  246 194 
 ROSC BE ES   2    831 31.68                             117    0.12 4  249 210 
 HEL  HN ES   2    831 35.39                             115    0.29 4  267 256 
 URE  HE ES   4    831 35.27                             113   -1.59 0  280 293 
 CBOC HZ EP   1    831 11.59                             110    0.69 5  329 252 
 CBOC HE ES        831 47.27                             110    0.25 7  329 252 
 CBOC SZ I         832  8.16         5.2 1.72            110            329 252 
 COD  HN ES   4    831 49.28                             108   -1.55 0  350 355 
 ORTC HN ES   1    831 59.03                             106   -0.62 4  392 216 
 SJC  HZ EP   2    831 18.94                             105   -1.04 3  408 328 
 SJC  HE ES   4 C  832  0.07                             105   -3.11 0  408 328 
                                                                                
