 2012  7 3 0733 32.0 L   6.729 -73.198149.9  RSN  5 0.2 1.7LRSN                1
 GAP=226        0.59       5.3     5.0  5.0  0.1594E+02  0.3884E+01  0.6172E+00E
 Epicentro: VILLANUEVA - SANTANDER                                             3
 ACTION:UPD 12-08-14 11:42 OP:ep   STATUS:               ID:20120703073332 L   I
 2012-07-03-0730-00M.COL___200                                                 6
 STAT SP IPHASW D HRMM SECON CODA AMPLIT PERI AZIMU VELO AIN AR TRES W  DIS CAZ7
 BAR2 SZ EP        733 51.93                             174    -0.110   15 174 
 BAR2 SZ I         733 52.53        10.1 0.15            169             15 174 
 BAR2 SZ ES   1    734  7.14                             174    -0.5 7   15 174 
 BRR  HZ EP        733 53.66                             153     0.110   71 306 
 BRR  HZ I         733 55.25        14.4 0.15            150             71 306 
 BRR  HN ES        734 10.62                             153     0.210   71 306 
 RUS  HZ EP   1    733 55.80                             147     0.1 7   93 172 
 RUS  HN ES   1    734 14.48                             147     0.3 7   93 172 
 RUS  HZ I         734 16.73         3.6 0.34            145             93 172 
 PTB  HZ EP        733 58.61                             134    -0.1 9  141 261 
 PTB  HN ES   1    734 19.38                             134    -0.2 7  141 261 
 PTB  HZ I         734 23.62         6.7 0.20            131            141 261 
 ZAR  HZ EP   1    734  4.48                             124     0.0 6  202 295 
 ZAR  HE ES   1    734 29.91                             124     0.0 6  202 295 
 ZAR  HZ I         734 36.55         8.2 0.54            122            202 295 
