 2012  5 3 0658 33.5 L   6.759 -73.138146.3  RSN  6 0.3 1.5LRSN                1
 GAP=139        0.59       4.0     4.0  5.4 -0.1462E+00  0.3550E+01 -0.1222E+01E
 Epicentro: LOS SANTOS - SANTANDER                                             3
 ACTION:UP  12-07-05 12:01 OP:pat  STATUS:               ID:20120503065833 L   I
 2012-05-03-0650-00M.COL___186                                                 6
 STAT SP IPHASW D HRMM SECON CODA AMPLIT PERI AZIMU VELO SNR AR TRES W  DIS CAZ7
 BAR2 SZ EP   1    658 53.08                             172    -0.1 7   19 195 
 BAR2 SZ I         658 53.40         7.5 0.11                            19 195 
 BAR2 SZ ES   1    659  8.30                             172    -0.1 7   19 195 
 BRR  HZ EP   1    658 54.98                             152     0.1 7   74 301 
 BRR  HZ I         658 55.36         9.6 0.11                            74 301 
 BRR  HE ES   1    659 12.00                             152     0.4 7   74 301 
 PAM  SZ EP        658 56.06                             150     0.110   80  37 
 PAM  SN ES   1    659 13.18                             150    -0.3 7   80  37 
 RUS  HZ EP   1    658 57.14                             145     0.1 7   96 176 
 RUS  HN ES   1    659 15.49                             145     0.2 7   96 176 
 RUS  HZ I         659 15.87         5.6 0.56                            96 176 
 PTB  HZ EP   1    659  0.29                             132    -0.2 7  148 261 
 PTB  HN ES   2    659 20.89                             132    -0.7 5  148 261 
 PTB  HZ I         659 22.47         3.1 0.29                           148 261 
 ZAR  HZ EP   2    659  6.29                             122     0.0 4  207 293 
 ZAR  HN ES   2    659 32.09                             122     0.3 4  207 293 
 ZAR  HZ I         659 40.77         3.1 0.40                           207 293 
                                                                                
