 2013  2 3 0435 41.4 L   6.771 -73.123145.9  RSN  5 0.2 1.6LRSN                1
 GAP=141        0.51       3.3     3.7  5.0 -0.6925E+00  0.1289E+01  0.4897E+01E
 Epicentro: LOS SANTOS - SANTANDER                                             3
 ACTION:UPD 13-03-12 09:30 OP:ep   STATUS:               ID:20130203043541 L   I
 2013-02-03-0430-00M.COL___240                                                 6
 STAT SP IPHASW D HRMM SECON CODA AMPLIT PERI AZIMU VELO AIN AR TRES W  DIS CAZ7
 BAR2 SZ EP   1    436  0.56                             172   -0.41 7 20.8 198 
 BAR2 SZ I         436 18.77         8.7 0.20            168           20.8 198 
 BRR  HZ EP        436  2.93                             151    0.1810 74.9 300 
 BRR  HE ES        436 19.44                             151    0.0210 74.9 300 
 BRR  HE I         436 23.72        11.3 0.24            149           74.9 300 
 PAM  SZ EP        436  3.89                             150    0.2210 78.4  37 
 PAM  SZ I         436  4.08         5.4 0.19            152           78.4  37 
 PAM  SN ES        436 20.91                             150   -0.1410 78.4  37 
 RUS  HZ EP        436  4.88                             145   -0.0210 97.2 177 
 RUS  HN ES   1    436 23.40                             145    0.15 7 97.2 177 
 RUS  HN I         436 24.80         5.4 0.27            142           97.2 177 
 PTB  HZ EP   1    436  8.30                             132   -0.22 7  150 260 
                                                                                
