 2017 10 3 0015 49.0 L   6.808 -73.180136.0  RSN 11 0.4 1.9LRSN                1
 GAP=110        0.96       3.0     3.5  5.6  0.1504E+01  0.8696E+01  0.2593E+01E
 Epicentro: ZAPATOCA - SANTANDER                                               3
 ACTION:UPD 17-11-07 19:27 OP:rebc STATUS:               ID:20171003001549 L   I
 OLDACT:REG 17-10-03 12:02 OP:dhb  STATUS:               ID:20171003000739     3
 2017-10-03-0008-00M.COL___435                                                 6
 STAT SP IPHASW D HRMM SECON CODA AMPLIT PERI AZIMU VELO AIN AR TRES W  DIS CAZ7
 BAR2 EZ IP     C  016  7.28                             170   -0.1710 23.9 181 
 BAR2 EZ ES        016 21.96                             170    0.1010 23.9 181 
 BAR2 EZ I         016 23.15        35.7 0.20            169           23.9 181 
 PAM  EZ IP     D  016 10.37                             148    0.0910 79.1  42 
 PAM  EN ES        016 27.17                             148    0.2810 79.1  42 
 PAM  EZ I         016 29.49        21.6 0.60            152           79.1  42 
 RUS  HZ EP        016 11.36                             141   -0.5210  102 174 
 RUS  HE ES        016 29.96                             141    0.2210  102 174 
 RUS  HZ I         016 31.46        10.7 0.36            143            102 174 
 SPBC HZ EP        016 16.41                             127   -0.18 9  162 218 
 SPBC HN ES        016 37.67                             127   -0.46 9  162 218 
 SPBC HZ I         016 41.99        13.7 0.22            128            162 218 
 YPLC HZ IP     C  016 17.77                             124   -0.58 9  179 150 
 YPLC HE ES        016 41.02                             124   -0.24 9  179 150 
 YPLC HZ I         016 44.18         7.8 0.26            126            179 150 
 ZAR  HZ EP        016 20.52                             121    0.12 9  200 292 
 ZAR  HN ES        016 45.49                             121    0.58 9  200 292 
 ZAR  HZ I         016 52.28        11.3 0.24            122            200 292 
 NOR  HZ EP        016 24.19                             117    0.30 8  232 234 
 NOR  HN ES        016 50.73                             117   -0.39 8  232 234 
 NOR  HZ I         016 54.19         6.0 0.16            118            232 234 
 CHI  HZ EP        016 26.80                             115    0.65 8  249 194 
 CHI  HE ES        016 55.70                             115    0.56 8  249 194 
 CHI  HZ I         016 58.45         2.1 0.42            116            249 194 
 URE  HZ EP        016 28.86                             112   -0.30 7  280 292 
 URE  HE ES        016 59.68                             112   -0.81 7  280 292 
 URE  HZ I         017  1.42         6.9 0.12            113            280 292 
 GUY2CHZ EP        016 32.17                             111    0.30 7  299 234 
 GUY2CHE ES   4    017  8.47                             111    3.15 0  299 234 
 GUY2CHZ I         017 12.71         3.4 0.27                           299 234 
 PRA  HZ EP        016 42.77                             105    0.71 6  391 209 
 PRA  HN ES        017 24.03                             105    0.57 6  391 209 
 PRA  HZ I         017 31.91         2.0 0.56            106            391 209 
                                                                                
