 2017  1 3 0934 30.5 L   6.761 -73.159137.9  RSN  5 0.2 1.2LRSN                1
 GAP=137        0.58       3.3     2.8  5.0 -0.1589E+01  0.6827E+01 -0.5511E+01E
 Epicentro: LOS SANTOS - SANTANDER                                             3
 ACTION:UPD 17-05-22 15:55 OP:jn   STATUS:               ID:20170103093430 L   I
 OLDACT:REG 17-01-03 12:48 OP:lv   STATUS:               ID:20170103092746     3
 2017-01-03-0928-00M.COL___372                                                 6
 STAT SP IPHASW D HRMM SECON CODA AMPLIT PERI AZIMU VELO AIN AR TRES W  DIS CAZ7
 BAR2 EZ EP        934 49.14                             172   -0.0010 18.8 188 
 BAR2 EZ ES        935  3.58                             172   -0.0710 18.8 188 
 BAR2 EZ I         935  5.23         6.2 0.27            172           18.8 188 
 PAM  EZ EP        934 52.19                             148   -0.0110 81.7  38 
 PAM  EN ES        935  9.04                             148   -0.0510 81.7  38 
 PAM  EZ I         935  9.96         2.2 0.10            151           81.7  38 
 RUS  HN ES        935 11.13                             143    0.2210 96.4 175 
 RUS  HZ I         935 12.32         3.0 0.29            147           96.4 175 
 PTB  HZ EP        934 56.23                             131   -0.44 9  145 260 
 PTB  HN ES        935 16.92                             131   -0.13 9  145 260 
 PTB  HZ I         935 19.08         2.2 0.18            131            145 260 
 ZAR  HZ EP        935  2.87                             120    0.35 9  204 293 
 ZAR  HE ES        935 27.67                             120    0.21 9  204 293 
 ZAR  HZ I         935 35.87         1.5 0.37            121            204 293 
                                                                                
