 2010  1 3 0420  5.7 L   6.801 -73.139139.7  RSN 11 0.4 2.2LRSN                1
 GAP=126        0.65       2.6     4.4  4.3 -0.3305E+01  0.6143E+01 -0.3995E+00E
 Epicentro: LOS SANTOS - SANTANDER                                             3
 ACTION:UP  10-08-24 09:42 OP:vdl  STATUS:               ID:20100103042005 L   I
 2010-01-03-0417-57S.COL___097                                                 6
 STAT SP IPHASW D HRMM SECON CODA AMPLIT PERI AZIMU VELO SNR AR TRES W  DIS CAZ7
 BAR2 SZ IP        420 24.73                             170     0.110   24 192 
 BAR2 SZ ES   1    420 39.26                             170    -0.1 7   24 192 
 GIR2 SZ IP        420 24.85                             167     0.210   31 349 
 GIR2 SZ ES   1    420 39.65                             167     0.2 7   31 349 
 RUS  BZ EP   1    420 29.14                             143     0.3 7  101 176 
 RUS  BE ES   1    420 46.44                             143    -0.5 7  101 176 
 RUS  BZ I         420 48.09        32.8 0.24                           101 176 
 OCA  SZ IP        420 33.36                             128    -0.2 9  160 353 
 OCA  SZ ES   1    420 55.26                             128     0.0 7  160 353 
 CHI  HZ EP   1    420 43.47                             116     0.4 6  249 195 
 CHI  HE ES   1    421 11.96                             116    -0.3 6  249 195 
 CHI  HZ I         421 19.03        10.7 0.61                           249 195 
 HEL  HZ EP   1    420 45.38                             113    -0.3 6  273 256 
 HEL  HE ES   2    421 16.42                             113    -0.4 4  273 256 
 RREF BN ES   1    421 27.23                             110    -0.3 5  322 229 
 DBB  SZ IP        420 53.22                             108     0.2 7  340 274 
 DBB  SZ ES   2    421 29.48                             108    -0.4 3  340 274 
 TOL  SZ EP   1    420 54.63                             108     0.9 5  344 225 
 SDV  BZ EP        420 54.66                             107    -0.8 6  360  50 
 PRA  HZ EP   1    420 59.30                             105     0.3 4  392 210 
 PRA  HN ES   1    421 40.51                             105    -0.2 4  392 210 
                                                                                
