 2010  8 3 0418  8.4 L   6.809 -73.077140.9  RSN  4 0.2 1.4LRSN                1
 GAP=204        0.48       9.3    17.6 11.7  0.1422E+03 -0.1295E+03 -0.7340E+02E
 Epicentro: LOS SANTOS - SANTANDER                                             3
 ACTION:UP  10-09-07 10:51 OP:vdl  STATUS:               ID:20100803041808 L   I
 2010-08-03-0413-41S.COL___123                                                 6
 STAT SP IPHASW D HRMM SECON CODA AMPLIT PERI AZIMU VELO SNR AR TRES W  DIS CAZ7
 BAR2 SZ EP   1    418 27.56                             168     0.0 7   27 206 
 BAR2 SZ I         418 44.16         4.7 0.28                            27 206 
 GIR2 SZ EP   2    418 27.52                             166     0.0 5   32 337 
 BRR  HZ EP        418 29.27                             149    -0.110   78 295 
 BRR  HZ I         418 29.48         6.4 0.07                            78 295 
 BRR  HE ES   2    418 46.10                             149     0.3 5   78 295 
 RUS  HZ EP   1    418 32.02                             142     0.3 7  101 180 
 RUS  HE ES   1    418 49.77                             142    -0.2 7  101 180 
                                                                                
