 2015 11 3 0239  9.9 L   6.791 -73.105149.3  RSN 12 0.3 1.8LRSN                1
 GAP=142        0.68       2.2     3.2  3.9  0.1982E+00  0.3514E+01  0.8815E+00E
 Epicentro: LOS SANTOS - SANTANDER                                             3
 ACTION:UPD 15-12-28 16:08 OP:cam  STATUS:               ID:20151103023909 L   I
 OLDACT:UP  15-11-19 06:49 OP:CARA STATUS:               ID:20151103023909 L   3
 OLDACT:REG 15-11-03 13:41 OP:cara STATUS:               ID:20151103023748     3
 2015-11-03-0237-48M.COL___313                                                 6
 STAT SP IPHASW D HRMM SECON CODA AMPLIT PERI AZIMU VELO AIN AR TRES W  DIS CAZ7
 BAR2 EZ EP        239 29.91                             171   -0.1010 23.6 201 
 BAR2 EZ ES        239 45.61                             171   -0.0510 23.6 201 
 BAR2 EZ I         239 46.59        16.9 0.32            168           23.6 201 
 PAM  EZ EP        239 32.66                             152    0.2310 75.4  36 
 PAM  EE ES        239 50.24                             152    0.2710 75.4  36 
 PAM  EZ I         239 52.07        12.7 0.54            148           75.4  36 
 BRR  HZ EP        239 31.80                             152    0.0610 75.7 298 
 BRR  HN ES        239 48.94                             152    0.2110 75.7 298 
 BRR  HZ I         239 52.70        12.5 0.44            143           75.7 298 
 RUS  HZ EP        239 33.52                             145   -0.4410 99.3 179 
 RUS  HE ES        239 52.62                             145   -0.0810 99.3 179 
 RUS  HZ I         239 53.52         3.8 0.30            142           99.3 179 
 OCA  HZ EP   2    239 38.05                             130   -0.64 5  162 352 
 OCA  HN ES   2    240  0.55                             130   -0.56 5  162 352 
 OCA  HZ I         240  5.52        11.0 0.32            123            162 352 
 SPBC HZ EP        239 38.97                             129    0.05 9  165 220 
 SPBC HN ES        240  1.31                             129   -0.21 9  165 220 
 SPBC HZ I         240  5.40         8.4 0.66            124            165 220 
 ZAR  HZ EP        239 43.76                             122    0.66 8  209 292 
 ZAR  HE ES        240  8.38                             122   -0.58 8  209 292 
 ZAR  HZ I         240 14.66         8.0 0.36            116            209 292 
 SML  HZ EP   2    239 46.53                             118   -0.55 4  247 334 
 SML  HE ES   2    240 15.86                             118   -0.19 4  247 334 
 SML  HZ I         240 18.02        10.5 0.10            112            247 334 
 CHI  HZ EP        239 47.92                             118    0.05 8  249 196 
 CHI  HN ES        240 17.77                             118    0.32 8  249 196 
 CHI  HZ I         240 20.95         3.2 0.50            113            249 196 
 HEL  HZ EP        239 50.81                             115    0.01 7  276 256 
 HEL  HE ES   2    240 23.15                             115    0.48 4  276 256 
 HEL  HZ I         240 28.94         1.9 0.28            110            276 256 
 URE  HZ EP   2    239 52.05                             114    0.34 4  288 292 
 URE  HZ I         240 33.80         3.5 0.20            109            288 292 
 MON  HZ EP   9    239 57.44                             109   -2.13 0  358 308 
 MON  HE ES        240 36.02                             109   -0.13 6  358 308 
 MON  HZ I         240 36.31         1.1 0.16            104            358 308 
                                                                                
