 2014  8 3 0221 39.4 L   6.791 -73.120148.1  RSN 12 0.5 2.0LRSN                1
 GAP=140        1.24       3.6     5.4  6.9 -0.1225E+01  0.1402E+02  0.1662E+01E
 Epicentro: LOS SANTOS - SANTANDER                                             3
 ACTION:UPD 14-09-15 21:46 OP:nd   STATUS:               ID:20140803022139 L   I
 OLDACT:DUP 14-08-03 13:51 OP:carl STATUS:               ID:20140803021819d    3
 2014-08-03-0218-18M.COL___242                                                 6
 STAT SP IPHASW D HRMM SECON CODA AMPLIT PERI AZIMU VELO AIN AR TRES W  DIS CAZ7
 BAR2 SZ EP        221 59.65                             171    0.3810 23.0 197 
 BAR2 SZ ES        222 14.35                             171   -0.4410 23.0 197 
 BAR2 SZ I         222 16.29        12.9 0.24            170           23.0 197 
 BRR  HZ EP     D  222  1.51                             152    0.5710 74.1 298 
 BRR  HN ES        222 18.84                             152    1.0910 74.1 298 
 BRR  HZ I         222 25.14        15.6 0.20            150           74.1 298 
 PAM  SN ES        222 18.86                             152   -0.3910 76.4  37 
 PAM  SZ I         222 21.51         8.9 0.46            154           76.4  37 
 RUS  HZ EP        222  2.48                             145   -0.7910 99.4 178 
 RUS  HN ES        222 22.27                             145    0.3610 99.4 178 
 RUS  HZ I         222 23.23         8.7 0.32            147           99.4 178 
 PTB  HZ EP        222  6.25                             132   -0.51 9  150 259 
 PTB  HN ES        222 27.41                             132   -0.71 9  150 259 
 PTB  HZ I         222 29.70        14.3 0.14            132            150 259 
 SPBC HZ EP        222  8.39                             129    0.25 9  164 220 
 SPBC HN ES        222 30.49                             129   -0.09 9  164 220 
 SPBC HZ I         222 33.45        14.5 0.32            130            164 220 
 ZAR  HZ EP        222 12.77                             122    0.50 8  207 292 
 ZAR  HN ES        222 38.08                             122    0.15 8  207 292 
 ZAR  HZ I         222 43.47        15.2 0.56            123            207 292 
 NOR  HZ EP        222 15.68                             119    0.26 8  236 235 
 NOR  HN ES        222 42.80                             119   -0.73 8  236 235 
 NOR  HZ I         222 49.53         8.3 0.22            120            236 235 
 SML  HZ EP        222 16.15                             118   -0.20 8  246 335 
 SML  HE ES        222 44.74                             118   -0.46 8  246 335 
 SML  HZ I         222 53.53        13.2 0.28            119            246 335 
 CHI  HN ES        222 47.09                             118    0.43 8  248 196 
 CHI  HZ I         222 56.78         5.9 0.38            119            248 196 
 GUY2CHZ EP        222 23.35                             113    0.07 7  303 235 
 GUY2CHN ES        222 57.68                             113    0.15 7  303 235 
 GUY2CHZ I         223  8.30         4.9 0.56                           303 235 
 PRA  HN ES        223 15.01                             107    0.12 6  393 210 
 PRA  HZ I         223 19.06         4.1 0.52            108            393 210 
                                                                                
