 2014  3 3 0336 11.1 L   6.806 -73.149137.6  RSN  7 0.3 1.4LRSN                1
 GAP= 95        0.79       3.0     3.9  6.3 -0.3561E+01 -0.2419E+01  0.7070E+00E
 Epicentro: LOS SANTOS - SANTANDER                                             3
 ACTION:UPD 14-04-09 23:14 OP:nd   STATUS:               ID:20140303033611 L   I
 OLDACT:DUP 14-03-03 13:01 OP:stll STATUS:               ID:20140303032820d    3
 2014-03-03-0328-18M.COL___232                                                 6
 STAT SP IPHASW D HRMM SECON CODA AMPLIT PERI AZIMU VELO AIN AR TRES W  DIS CAZ7
 BAR2 SZ EP        336 29.74                             170    0.0110 23.9 189 
 BAR2 SZ ES        336 44.31                             170    0.0210 23.9 189 
 BAR2 SZ I         336 47.60        10.9 0.62            170           23.9 189 
 PAM  SZ EP        336 32.66                             149    0.2510 77.2  40 
 PAM  SZ I         336 32.84         4.9 0.24            152           77.2  40 
 PAM  SN ES        336 48.73                             149   -0.3310 77.2  40 
 RUS  HZ EP        336 34.01                             142   -0.0710  101 176 
 RUS  HE ES        336 52.25                             142    0.2310  101 176 
 RUS  HZ I         336 54.95         1.9 0.52            145            101 176 
 PTB  HN ES        336 57.32                             130   -0.55 9  147 259 
 PTB  HZ I         337  3.65         4.1 0.46            130            147 259 
 TAM  HZ EP        336 37.85                             128   -0.32 9  156 105 
 TAM  HZ I         336 38.29         5.1 0.42            133            156 105 
 OCA  HN ES        337  0.66                             128    0.41 9  160 353 
 OCA  HZ I         337  5.49         3.3 0.42            129            160 353 
 SPBC HE ES        337  1.11                             127    0.36 9  163 219 
                                                                                
