 2012  8 3 0148 41.1 L   6.827 -73.208138.9  RSN  6 0.3 1.6LRSN                1
 GAP=128        0.69       4.7     4.1  7.7 -0.1793E+00  0.1029E+02 -0.4074E+01E
 Epicentro: ZAPATOCA - SANTANDER                                               3
 ACTION:UPD 12-09-10 11:53 OP:ep   STATUS:               ID:20120803014841 L   I
 2012-08-03-0147-46M.COL___202                                                 6
 STAT SP IPHASW D HRMM SECON CODA AMPLIT PERI AZIMU VELO AIN AR TRES W  DIS CAZ7
 BAR2 SZ EP   1    149  0.21                             169    0.24 7 26.2 174 
 BAR2 SZ ES   1    149 14.91                             169    0.23 7 26.2 174 
 BAR2 SZ I         149 16.53         7.4 0.18                          26.2 174 
 BRR  HZ EP   1    149  1.84                             154    0.75 7 63.7 299 
 BRR  HZ I         149  2.94        14.7 0.11                          63.7 299 
 PAM  SZ EP   1    149  2.48                             149   -0.26 7 79.7  45 
 PAM  SN ES   1    149 19.30                             149   -0.31 7 79.7  45 
 RUS  HZ EP   1    149  4.43                             141   -0.03 7  104 172 
 RUS  HN ES   1    149 22.64                             141   -0.04 7  104 172 
 RUS  HZ I         149 24.51         3.7 0.38                           104 172 
 PTB  HZ EP   1    149  6.61                             132   -0.35 7  142 257 
 PTB  HN ES   1    149 26.74                             132   -0.39 7  142 257 
 PTB  HZ I         149 32.69         5.5 0.28                           142 257 
 ZAR  HN ES   1    149 36.78                             122    0.10 6  197 292 
 ZAR  HZ I         149 42.64         6.3 0.33                           197 292 
                                                                                
