 2017  7 3 0626 38.3 L   6.716 -73.708101.6  RSN  4 0.1 1.1LRSN                1
 GAP=104        0.33       1.8     1.6  3.4 -0.5292E+00  0.8536E+00  0.1545E+01E
 Epicentro: EL CARMEN - SANTANDER                                              3
 ACTION:UPD 17-08-30 15:29 OP:rebc STATUS:               ID:20170703062638 L   I
 OLDACT:DUP 17-07-03 16:52 OP:edw  STATUS:               ID:20170703061628d    3
 OLDACT:UP  17-07-03 16:52 OP:edw  STATUS:               ID:20170703061627     3
 OLDACT:UP  17-07-03 16:52 OP:edw  STATUS:               ID:20170703061627     3
 OLDACT:UP  17-07-03 16:49 OP:edw  STATUS:               ID:20170703061627     3
 OLDACT:REG 17-07-03 13:52 OP:edw  STATUS:               ID:20170703061627     3
 2017-07-03-0618-00M.COL___365                                                 6
 STAT SP IPHASW D HRMM SECON CODA AMPLIT PERI AZIMU VELO AIN AR TRES W  DIS CAZ7
 BRR  HZ EP        626 52.98                             155   -0.1310 43.2 359 
 BRR  HN ES        627  4.75                             155    0.0810 43.2 359 
 BRR  HZ I         627  5.44         2.8 0.14            156           43.2 359 
 BAR2 EZ EP        626 54.51                             147    0.0810 59.7 103 
 BAR2 EZ ES        627  6.95                             147   -0.0510 59.7 103 
 BAR2 EZ I         627  7.31         5.6 0.58            149           59.7 103 
 PTB  HZ IP     C  626 56.08                             137    0.0510 85.1 257 
 PTB  HN ES        627  9.82                             137   -0.0410 85.1 257 
 PTB  HZ I         627 10.80         3.2 0.20            137           85.1 257 
 SPBC HN ES        627 16.54                             125    0.0110  124 199 
                                                                                
