 2014 11 3 0322  6.4 L   6.760 -73.183145.8  RSN  6 0.4 1.7LRSN                1
 GAP=230        1.07       5.3     6.7  7.3  0.7405E+01  0.5577E+01  0.9747E+01E
 Epicentro: LOS SANTOS - SANTANDER                                             3
 ACTION:UPD 14-12-19 15:39 OP:nd   STATUS:               ID:20141103032206 L   I
 OLDACT:REG 14-11-03 13:08 OP:carl STATUS:               ID:20141103031745     3
 2014-11-03-0317-45M.COL___259                                                 6
 STAT SP IPHASW D HRMM SECON CODA AMPLIT PERI AZIMU VELO AIN AR TRES W  DIS CAZ7
 BAR2 SZ EP        322 25.48                             172   -0.4210 18.5 180 
 BAR2 SZ ES        322 40.58                             172   -0.5610 18.5 180 
 BAR2 SZ I         322 41.93        19.0 0.20            167           18.5 180 
 BRR  HZ EP        322 27.92                             153    0.4910 69.9 303 
 BRR  HN ES        322 44.55                             153    0.6810 69.9 303 
 BRR  HZ I         322 48.27         7.5 0.64            150           69.9 303 
 RUS  HZ EP        322 29.58                             145   -0.2410 96.5 173 
 RUS  HN ES        322 48.47                             145    0.3510 96.5 173 
 RUS  HZ I         322 49.35         6.2 0.32            145           96.5 173 
 PTB  HZ EP        322 32.41                             133   -0.47 9  143 260 
 PTB  HN ES        322 53.28                             133   -0.29 9  143 260 
 PTB  HZ I         323  0.48         5.4 0.26            131            143 260 
 SPBC HZ EP        322 34.27                             130   -0.01 9  157 219 
 SPBC HN ES        322 55.88                             130   -0.19 9  157 219 
 SPBC HZ I         322 59.20         8.5 0.20            129            157 219 
 CHI  HZ EP        322 43.93                             118    0.46 8  243 194 
 CHI  HN ES        323 12.80                             118    0.38 8  243 194 
 CHI  HZ I         323 19.11         1.8 0.60            118            243 194 
                                                                                
