 2014  2 3 0200 13.5 L   6.149 -74.161 32.1  RSN  4 0.4 0.9LRSN                1
 GAP=140        1.04       3.2     3.1 13.9  0.2440E+01  0.2430E+01  0.5077E+01E
 Epicentro: CIMITARRA - SANTANDER                                              3
 ACTION:UPD 14-03-10 08:07 OP:ep   STATUS:               ID:20140203020013 L   I
 OLDACT:DUP 14-02-03 09:03 OP:nd   STATUS:               ID:20140203020001d    3
 2014-02-03-0200-00M.COL___288                                                 6
 STAT SP IPHASW D HRMM SECON CODA AMPLIT PERI AZIMU VELO AIN AR TRES W  DIS CAZ7
 PTB  HZ EP        2 0 23.19                              61   -0.0510 54.2 323 
 PTB  HN ES        2 0 30.66                              61   -0.1310 54.2 323 
 PTB  HZ I         2 0 31.44        17.7 0.10            113           54.2 323 
 SPBC HZ EP        2 0 23.71                              61    0.1910 55.8 170 
 SPBC HN ES        2 0 31.09                              61   -0.2210 55.8 170 
 SPBC HZ I         2 0 31.73         6.3 0.24            112           55.8 170 
 NOR  HZ EP        2 0 28.98                              61   -0.2410  102 231 
 NOR  HN ES        2 0 41.61                              61    0.1610  102 231 
 NOR  HZ I         2 0 43.24         3.0 0.36                           102 231 
 RUS  HZ EP        2 0 33.25                              61    0.8910  123 103 
 RUS  HN ES        2 0 46.46                              61   -0.5710  123 103 
 RUS  HZ I         2 0 47.93         0.9 0.38             90            123 103 
                                                                                
