 2010  8 3 0915  1.7 L   6.765 -73.069148.0  RSN  6 0.4 1.7LRSN                1
 GAP=191        0.85       4.7    10.9  8.0  0.8625E+01  0.3222E+01 -0.3561E+01E
 Epicentro: LOS SANTOS - SANTANDER                                             3
 ACTION:UP  10-09-07 10:51 OP:vdl  STATUS:               ID:20100803091501 L   I
 2010-08-03-0912-37S.COL___123                                                 6
 STAT SP IPHASW D HRMM SECON CODA AMPLIT PERI AZIMU VELO SNR AR TRES W  DIS CAZ7
 BAR2 SZ EP   1    915 21.50                             171    -0.1 7   23 214 
 BAR2 SZ ES   1    915 36.92                             171    -0.2 7   23 214 
 BAR2 SZ I         915 37.95        13.8 0.19                            23 214 
 BRR  HZ IP     C  915 23.30                             150    -0.310   81 298 
 BRR  HN ES   1    915 40.60                             150    -0.2 7   81 298 
 BRR  HZ I         915 44.91         8.3 0.04                            81 298 
 RUS  HZ EP   1    915 25.42                             145     0.0 7   97 181 
 RUS  HE ES   1    915 44.17                             145     0.3 7   97 181 
 RUS  HZ I         915 45.24         5.2 0.34                            97 181 
 OCA  SZ EP   1    915 30.34                             129    -0.3 7  165 350 
 OCA  SZ ES   1    915 54.08                             129     0.8 7  165 350 
 OCA  SZ I         915 56.52         5.1 0.31                           165 350 
 RREF HZ EP   2    915 48.94                             111     0.5 3  326 231 
 RREF HE ES   2    916 25.69                             111     0.9 3  326 231 
 RREF HZ I         916 30.75         2.1 0.42                           326 231 
 PRA  HZ EP   2    915 55.25                             107    -0.2 3  393 211 
 PRA  HZ I         916 43.11         2.5 0.34                           393 211 
                                                                                
