 2014  5 3 0334 48.3 L   6.967 -73.399 32.1  RSN  5 0.2 1.5LRSN                1
 GAP=102        0.48       1.6     1.6  7.7  0.1348E-01 -0.8299E+00 -0.3777E+01E
 Epicentro: SAN VICENTE DE CHUCURI - SANTANDER                                 3
 OLDACT:REG 14-05-03 13:23 OP:fm   STATUS:               ID:20140503032813     3
 ACTION:UPD 15-03-16 16:54 OP:nd   STATUS:               ID:20140503033448 L   I
 OLDACT:UP  14-05-03 16:40 OP:fm   STATUS:               ID:20140503032813     3
 2014-05-03-0328-13M.COL___245                                                 6
 STAT SP IPHASW D HRMM SECON CODA AMPLIT PERI AZIMU VELO AIN AR TRES W  DIS CAZ7
 PAM  SZ EP   1    335  2.52                              61   -0.16 7 87.5  62 
 PAM  SE ES        335 13.76                              61   -0.1810 87.5  62 
 PAM  SZ I         335 14.89        24.4 0.40             61           87.5  62 
 RUS  HZ EP        335  7.35                              61    0.1210  124 164 
 RUS  HE ES   1    335 22.06                              61    0.04 7  124 164 
 RUS  SZ I         335 22.98        17.7 0.24             61            124 164 
 OCA  HZ EP   1    335  9.30                              61    0.34 7  141   4 
 OCA  HN ES   1    335 25.29                              61    0.19 7  141   4 
 OCA  SZ I         335 29.10         5.1 0.16             61            141   4 
 SPBC HZ EP   1    335 11.65                              61   -0.04 7  163 207 
 SPBC SZ I         335 37.17         3.4 1.12             61            163 207 
 ZAR  HZ EP   1    335 12.81                              61    0.23 7  171 290 
 ZAR  HN ES        335 31.28                              61   -0.27 9  171 290 
 ZAR  SZ I         335 34.38         3.9 0.58             61            171 290 
                                                                                
