 2013 11 3 0904 31.1 L   6.766 -73.147141.2  RSN 12 0.5 2.0LRSN                1
 GAP=110        1.28       4.3     5.0  7.6  0.6160E+00  0.2932E+00 -0.5116E+01E
 Epicentro: LOS SANTOS - SANTANDER                                             3
 ACTION:UPD 14-01-09 16:25 OP:ep   STATUS:               ID:20131103090431 L   I
 OLDACT:REG 13-11-03 07:39 OP:jn   STATUS:               ID:20131103090000     3
 2013-11-03-0900-00M.COL___273                                                 6
 STAT SP IPHASW D HRMM SECON CODA AMPLIT PERI AZIMU VELO AIN AR TRES W  DIS CAZ7
 BAR2 SZ EP        9 4 50.33                             172    0.1810 19.6 191 
 BAR2 SZ ES        9 5  4.79                             172   -0.1810 19.6 191 
 BAR2 SZ I         9 5  6.11        54.9 0.18            167           19.6 191 
 BRR  HZ EP        9 4 52.23                             151    0.3410 72.9 301 
 BRR  HN ES        9 5  8.78                             151    0.7010 72.9 301 
 BRR  HZ I         9 5 14.11        16.7 0.14            143           72.9 301 
 RUS  HZ EP        9 4 54.31                             144    0.1410 96.8 176 
 RUS  HN ES        9 5 11.97                             144   -0.1610 96.8 176 
 RUS  HZ I         9 5 14.44         8.4 0.28            139           96.8 176 
 PTB  HZ EP        9 4 57.18                             131   -0.48 9  147 260 
 PTB  HN ES        9 5 17.84                             131   -0.50 9  147 260 
 PTB  HZ I         9 5 20.77        17.3 0.16            123            147 260 
 TAM  HZ EP        9 4 58.75                             130    0.36 9  154 104 
 SPBC HZ EP        9 4 59.28                             128    0.28 9  160 220 
 SPBC HN ES        9 5 20.26                             128   -0.46 9  160 220 
 SPBC HZ I         9 5 23.22        10.2 0.68            122            160 220 
 OCA  HZ EP   1    9 5  0.19                             128    0.73 7  164 353 
 OCA  HE ES        9 5 20.55                             128   -0.99 9  164 353 
 OCA  HZ I         9 5 24.62        12.2 0.48            122            164 353 
 ZAR  HZ EP        9 5  3.37                             121   -0.05 8  205 293 
 ZAR  HN ES        9 5 29.64                             121    1.04 8  205 293 
 ZAR  HZ I         9 5 31.88         9.3 0.10            115            205 293 
 NOR  HE ES        9 5 33.78                             118   -0.04 8  232 235 
 NOR  HZ I         9 5 36.21         8.4 0.14            112            232 235 
 SML  HZ EP        9 5  7.02                             116   -0.86 8  247 336 
 HEL  HZ EP   4    9 5 12.32                             114    1.32 0  271 257 
 HEL  HZ I         9 5 49.33         5.1 0.28            108            271 257 
 GUY2CHZ EP   4    9 5 16.18                             112    1.90 0  299 235 
 GUY2CHZ I         9 5 55.72         5.6 0.24                           299 235 
                                                                                
