 2011 12 3 0529 49.9 L   6.792 -73.117140.4  RSN  9 0.3 2.0LRSN                1
 GAP=141        0.64       3.2     4.7  4.8 -0.4342E+01  0.4347E+01  0.2371E+00E
 Epicentro: LOS SANTOS - SANTANDER                                             3
 ACTION:UPD 12-07-13 16:13 OP:ep   STATUS:               ID:20111203052949 L   I
 2011-12-03-0530-00M.COL___182                                                 6
 STAT SP IPHASW D HRMM SECON CODA AMPLIT PERI AZIMU VELO AIN AR TRES W  DIS CAZ7
 BAR2 SZ EP        530  8.74                             170   -0.1610 23.3 198 
 BAR2 SZ ES   1    530 23.36                             170   -0.34 7 23.3 198 
 BAR2 SZ I         530 27.08        32.5 0.54                          23.3 198 
 GIR2 SZ EP        530  8.77                             166   -0.2210 32.8 345 
 BRR  HZ EP        530 10.56                             150   -0.1110 74.4 298 
 BRR  HN ES   1    530 27.12                             150    0.25 7 74.4 298 
 BRR  HZ I         530 29.91        14.3 0.24                          74.4 298 
 PAM  SZ EP        530 11.54                             150    0.0610 76.1  37 
 PAM  SN ES   2    530 28.57                             150    0.27 5 76.1  37 
 RUS  HZ EP        530 12.79                             143   -0.2710 99.5 178 
 RUS  HE ES   1    530 31.73                             143    0.61 7 99.5 178 
 RUS  HZ I         530 32.98        15.8 0.46                          99.5 178 
 OCA  SZ EP        530 18.24                             128    0.31 9  162 352 
 OCA  SZ I         530 43.90        12.9 0.20                           162 352 
 CTAU SZ EP        530 22.73                             122    0.11 9  204 210 
 CTAU SZ I         530 56.27        12.2 0.42                           204 210 
 CTAB SZ EP   2    530 26.29                             118    0.85 4  231 212 
 NOR  SZ EP        530 25.33                             117   -0.23 8  237 235 
 NOR  SE ES   1    530 53.42                             117    0.05 6  237 235 
                                                                                
