 2010  1 3 0928 15.6 L   6.762 -73.113145.0  RSN  6 0.3 2.0LRSN                1
 GAP=204        0.63       3.1     6.2  5.2 -0.5752E+01  0.1003E+02  0.2794E+01E
 Epicentro: LOS SANTOS - SANTANDER                                             3
 ACTION:UP  10-08-24 09:42 OP:vdl  STATUS:               ID:20100103092815 L   I
 2010-01-03-0926-21S.COL___096                                                 6
 STAT SP IPHASW D HRMM SECON CODA AMPLIT PERI AZIMU VELO SNR AR TRES W  DIS CAZ7
 BAR2 SZ IP        928 35.27                             172     0.210   20 203 
 BAR2 SZ ES   1    928 50.28                             172     0.0 7   20 203 
 GIR2 SZ IP        928 35.54                             165     0.210   36 346 
 GIR2 SZ ES   1    928 50.64                             165    -0.1 7   36 346 
 OCA  SZ IP        928 43.90                             129    -0.4 9  165 352 
 OCA  SZ ES   1    929  6.59                             129    -0.1 7  165 352 
 CHI  HZ IP        928 52.95                             117     0.0 8  246 196 
 CHI  HE ES   1    929 21.58                             117    -0.4 6  246 196 
 CHI  HZ I         929 26.49         3.9 0.58                           246 196 
 HEL  HZ EP   1    928 56.74                             114     0.7 6  275 257 
 HEL  HE ES   1    929 27.36                             114    -0.2 6  275 257 
 HEL  HZ I         929 34.14         4.7 0.10                           275 257 
 PRA  HZ EP   1    929  8.49                             106    -0.4 4  390 210 
 PRA  HN ES   1    929 50.39                             106     0.0 4  390 210 
 PRA  HZ I         929 55.45         4.3 0.37                           390 210 
                                                                                
