 2015  6 3 0314 40.6 L   6.800 -73.157146.0  RSN  7 0.5 1.6LRSN                1
 GAP=147        1.10       5.0     5.6  7.1 -0.3073E+01  0.1345E+02  0.2609E+01E
 Epicentro: LOS SANTOS - SANTANDER                                             3
 ACTION:UPD 15-09-10 22:09 OP:cam  STATUS:               ID:20150603031440 L   I
 OLDACT:REG 15-06-03 12:24 OP:ak   STATUS:               ID:20150603030739     3
 2015-06-03-0307-39M.COL___294                                                 6
 STAT SP IPHASW D HRMM SECON CODA AMPLIT PERI AZIMU VELO AIN AR TRES W  DIS CAZ7
 BAR2 EZ EP        315  0.14                             170   -0.1410 23.1 187 
 BAR2 EZ ES        315 15.80                             170    0.1910 23.1 187 
 BAR2 EZ I         315 19.35         5.1 0.31            170           23.1 187 
 BRR  HZ EP        315  2.05                             153    0.3110 70.1 299 
 BRR  HN ES        315 18.35                             153    0.1410 70.1 299 
 BRR  HZ I         315 24.39        10.4 0.33            151           70.1 299 
 PAM  SZ EP        315  2.99                             151    0.0710 78.2  40 
 PAM  SN ES        315 19.96                             151   -0.3410 78.2  40 
 PAM  SZ I         315 22.44         4.6 0.12            155           78.2  40 
 ZAR  HN ES        315 37.39                             123   -0.80 9  203 292 
 ZAR  HZ I         315 45.15         3.2 0.17            124            203 292 
 SML  HZ EP        315 16.52                             118   -0.69 8  243 336 
 SML  HN ES        315 46.61                             118    0.87 8  243 336 
 SML  HZ I         315 48.76         4.9 0.10            120            243 336 
 GUY2CHZ IP        315 25.00                             112    0.87 7  300 235 
 GUY2CHZ EP        315 25.00                             112            300 235 
 GUY2CHE ES        315 57.97                             112   -0.09 7  300 235 
 GUY2CHZ I         316  5.08         2.2 0.44                           300 235 
 PRA  HZ IP        315 33.64                             107   -0.45 6  391 209 
 PRA  HZ EP        315 33.64                             107            391 209 
 PRA  HN ES   4    316 13.80                             107   -1.98 0  391 209 
 PRA  HZ I         316 18.79         1.4 0.19            109            391 209 
                                                                                
