 2012  6 3 0702 35.9 L   6.819 -73.156141.2  RSN  7 0.4 2.0LRSN                1
 GAP=134        0.81       3.7     4.7  7.0 -0.2073E+01  0.1092E+02 -0.1352E+01E
 Epicentro: LOS SANTOS - SANTANDER                                             3
 ACTION:UPD 12-08-06 17:46 OP:ep   STATUS:               ID:20120603070235 L   I
 2012-06-03-0700-00M.COL___201                                                 6
 STAT SP IPHASW D HRMM SECON CODA AMPLIT PERI AZIMU VELO AIN AR TRES W  DIS CAZ7
 BAR2 SZ EP        7 2 55.24                             169    0.1910 25.2 187 
 BAR2 SZ ES   1    7 3  9.66                             169   -0.30 7 25.2 187 
 BAR2 SZ I         7 3 11.32        22.6 0.33            171           25.2 187 
 PAM  SZ EP        7 2 58.07                             150    0.4710 76.5  41 
 PAM  SN ES   1    7 3 14.94                             150    0.43 7 76.5  41 
 RUS  HZ EP   1    7 2 59.16                             142   -0.23 7  103 176 
 RUS  HZ I         7 3  0.48         8.9 0.13            145            103 176 
 RUS  HN ES   1    7 3 17.47                             142   -0.22 7  103 176 
 PTB  HZ EP   1    7 3  2.73                             131    0.27 7  147 258 
 PTB  HN ES   1    7 3 23.05                             131   -0.11 7  147 258 
 PTB  HZ I         7 3 25.33         8.0 0.10            131            147 258 
 OCA  HZ EP   1    7 3  2.88                             129   -0.79 7  158 353 
 OCA  HN ES   1    7 3 24.57                             129   -0.75 7  158 353 
 OCA  HZ I         7 3 29.08        33.8 0.21            129            158 353 
 ZAR  HZ EP   1    7 3  7.93                             122    0.04 6  202 292 
 ZAR  HN ES   1    7 3 33.39                             122    0.57 6  202 292 
 ZAR  HZ I         7 3 38.70         8.9 0.41            121            202 292 
 PRA  HZ EP   1    7 3 29.21                             106   -0.23 4  393 209 
 PRA  HE ES   1    7 4 11.01                             106   -0.18 4  393 209 
                                                                                
