 2017  5 3 0252  0.9 L   6.807 -73.149144.3  RSN  9 0.4 1.5LRSN                1
 GAP=111        1.19       4.5     4.5  7.9 -0.1264E+01  0.3254E+01  0.4042E+01E
 Epicentro: LOS SANTOS - SANTANDER                                             3
 ACTION:UPD 17-06-16 13:32 OP:jn   STATUS:               ID:20170503025200 L   I
 OLDACT:UP  17-05-03 15:29 OP:edw  STATUS:               ID:20170503024739     3
 OLDACT:UP  17-05-03 15:29 OP:edw  STATUS:               ID:20170503024739     3
 OLDACT:REG 17-05-03 11:34 OP:edw  STATUS:               ID:20170503024739     3
 2017-05-03-0248-00M.COL___371                                                 6
 STAT SP IPHASW D HRMM SECON CODA AMPLIT PERI AZIMU VELO AIN AR TRES W  DIS CAZ7
 BRR  HZ EP        252 22.26                             153    0.3710 70.5 298 
 BRR  HN ES        252 39.17                             153    0.9410 70.5 298 
 PAM  EZ EP     C  252 23.27                             151    0.3010 77.1  40 
 PAM  EE ES        252 39.43                             151   -0.7410 77.1  40 
 RUS  HZ EP        252 24.50                             143   -0.0910  101 176 
 RUS  HN ES        252 43.03                             143   -0.0210  101 176 
 RUS  HZ I         252 44.24         4.8 0.34            143            101 176 
 PTB  HZ EP        252 27.39                             132   -0.37 9  148 259 
 PTB  HN ES        252 48.10                             132   -0.59 9  148 259 
 PTB  HZ I         252 55.11         3.2 0.44            130            148 259 
 SPBC HZ EP        252 29.57                             129    0.22 9  164 219 
 SPBC HN ES        252 51.59                             129    0.07 9  164 219 
 SPBC HZ I         252 57.17         4.1 0.24            127            164 219 
 YPLC HZ EP        252 30.75                             126    0.05 9  178 151 
 YPLC HN ES   4    252 54.68                             126    0.76 0  178 151 
 YPLC HZ I         252 55.66         3.8 0.28            127            178 151 
 ZAR  HZ EP        252 33.65                             122    0.43 9  203 292 
 ZAR  HE ES        252 57.88                             122   -0.52 9  203 292 
 ZAR  HZ I         253  5.45         3.3 0.30            122            203 292 
 NOR  HE ES        253  4.19                             118   -0.21 8  235 234 
 NOR  HZ I         253 12.19         2.4 0.14            118            235 234 
 CHI  HZ EP   9    252 37.02                             117   -1.59 0  249 195 
 CHI  HN ES        253  7.19                             116    0.78 8  249 195 
                                                                                
