 2017  5 3 0223 27.8 L   6.759 -73.167155.4  RSN  5 0.3 0.8LRSN                1
 GAP=136        0.76       3.8     4.2  7.5 -0.4586E+01 -0.2848E+01  0.3381E+01E
 Epicentro: LOS SANTOS - SANTANDER                                             3
 ACTION:UPD 17-06-16 13:32 OP:jn   STATUS:               ID:20170503022327 L   I
 OLDACT:DUP 17-05-03 14:24 OP:edw  STATUS:               ID:20170503021741d    3
 OLDACT:UP  17-05-03 14:23 OP:edw  STATUS:               ID:20170503021740     3
 OLDACT:REG 17-05-03 11:31 OP:edw  STATUS:               ID:20170503021740     3
 2017-05-03-0218-00M.COL___371                                                 6
 STAT SP IPHASW D HRMM SECON CODA AMPLIT PERI AZIMU VELO AIN AR TRES W  DIS CAZ7
 BRR  HZ EP        223 50.29                             154    0.2910 71.5 303 
 BRR  HN ES        224  7.70                             154    0.3810 71.5 303 
 PAM  EZ EP        223 51.37                             151    0.0410 82.4  39 
 PAM  EN ES        224  9.28                             151   -0.4010 82.4  39 
 RUS  HZ EP        223 52.10                             147   -0.1010 96.2 174 
 RUS  HN ES        224 11.51                             147    0.2710 96.2 174 
 RUS  HZ I         224 12.03         1.0 0.24            147           96.2 174 
 PTB  HN ES        224 16.37                             135   -0.35 9  145 260 
 SPBC HN ES        224 18.84                             132   -0.20 9  158 219 
                                                                                
