 2015  5 3 0154  0.7 L   6.809 -73.098144.3  RSN  4 0.5 1.1LRSN                1
 GAP=142        1.23       6.8     9.7 12.2 -0.1815E+01 -0.6227E+01  0.1425E+02E
 Epicentro: LOS SANTOS - SANTANDER                                             3
 ACTION:UPD 15-09-10 22:01 OP:cam  STATUS:               ID:20150503015400 L   I
 OLDACT:REG 15-05-03 13:48 OP:stll STATUS:               ID:20150503014737     3
 2015-05-03-0147-37M.COL___273                                                 6
 STAT SP IPHASW D HRMM SECON CODA AMPLIT PERI AZIMU VELO AIN AR TRES W  DIS CAZ7
 BAR2 EZ EP        154 19.10                             169   -1.0710 25.7 201 
 PAM  SZ EP     C  154 22.96                             152    0.4710 73.3  37 
 PAM  SZ I         154 23.11         5.6 0.16            153           73.3  37 
 PAM  SN ES        154 39.40                             152   -0.1110 73.3  37 
 BRR  HZ EP        154 21.91                             151    0.0010 75.5 296 
 BRR  HN ES        154 38.67                             151    0.2010 75.5 296 
 RUS  HZ EP        154 24.69                             143    0.3610  101 179 
 RUS  HN ES        154 42.92                             143    0.1410  101 179 
 RUS  HZ I         154 44.97         1.1 0.26            143            101 179 
                                                                                
