 2010  2 3 0104 33.0 L   6.273 -73.565117.4  RSN  9 0.4 2.0LRSN                1
 GAP= 99        0.73       4.4     6.6  9.4 -0.1104E+02  0.4140E+02  0.2225E+01E
 Epicentro: EL GUACAMAYO - SANTANDER                                           3
 ACTION:UP  10-08-24 09:47 OP:vdl  STATUS:               ID:20100203010433 L   I
 2010-02-03-0100-52S.COL___097                                                 6
 STAT SP IPHASW D HRMM SECON CODA AMPLIT PERI AZIMU VELO SNR AR TRES W  DIS CAZ7
 BAR2 SZ IP        1 4 50.75                             153     0.210   55  50 
 BAR2 SZ ES   1    1 5  3.83                             153    -0.4 7   55  50 
 RUS  BZ EP        1 4 51.69                             148     0.010   68 128 
 RUS  BE ES   2    1 5  5.91                             148    -0.3 5   68 128 
 RUS  BZ I         1 5  7.83        17.2 0.25                            68 128 
 GIR2 SZ EP        1 4 53.67                             137     0.210   98  25 
 CHI  HZ EP        1 5  1.89                             118    -0.1 9  183 186 
 CHI  HZ I         1 5  2.53         7.8 0.24                           183 186 
 CHI  HN ES   2    1 5 25.06                             118     0.4 4  183 186 
 HEL  HZ EP   2    1 5  5.29                             114    -0.5 4  218 268 
 HEL  HZ I         1 5 33.87         8.0 0.65                           218 268 
 RREF BZ EP        1 5  9.96                             110     0.3 8  249 233 
 RREF BN ES   1    1 5 38.39                             110     0.2 6  249 233 
 RREF BZ I         1 5 43.24        13.7 0.29                           249 233 
 TOL  SZ EP   1    1 5 11.76                             108     0.1 6  270 226 
 DBB  SZ EP   2    1 5 14.60                             106    -0.7 4  304 286 
 PRA  HZ EP   1    1 5 16.05                             105    -1.0 5  319 207 
 PRA  HE ES   2    1 5 52.09                             105     0.8 3  319 207 
                                                                                
