 2016  1 3 0817  6.3 L   6.778 -73.156143.0  RSN 13 0.4 2.2LRSN                1
 GAP=119        1.07       3.0     4.0  6.0 -0.5080E+00  0.7812E+01  0.2149E+01E
 Epicentro: LOS SANTOS - SANTANDER                                             3
 ACTION:UPD 16-03-09 23:22 OP:cam  STATUS:               ID:20160103081706 L   I
 OLDACT:UP  16-02-01 09:15 OP:mHER STATUS:               ID:20160103081706 L   3
 OLDACT:DUP 16-01-03 15:08 OP:drio STATUS:               ID:20160103080737d    3
 2016-01-03-0807-35M.COL___314                                                 6
 STAT SP IPHASW D HRMM SECON CODA AMPLIT PERI AZIMU VELO AIN AR TRES W  DIS CAZ7
 BAR2 EZ IP     C  817 25.44                             171   -0.1110 20.8 188 
 BAR2 EZ ES        817 40.71                             171    0.1510 20.8 188 
 BAR2 EZ I         817 43.24        30.2 0.26            169           20.8 188 
 BRR  HZ IP     C  817 27.21                             152    0.0510 71.4 301 
 BRR  HN ES        817 44.42                             152    0.9910 71.4 301 
 BRR  HZ I         817 49.18        22.4 0.18            151           71.4 301 
 PAM  EZ EP        817 28.28                             149   -0.1010 80.0  39 
 PAM  EN ES        817 45.40                             149   -0.2010 80.0  39 
 PAM  EZ I         817 47.63        32.7 0.46            155           80.0  39 
 RUS  HZ EP        817 29.95                             144    0.3410 98.3 175 
 RUS  HE ES        817 47.52                             144   -0.2710 98.3 175 
 PTB  HZ EP        817 32.07                             132   -0.83 9  146 260 
 PTB  HN ES        817 53.07                             132   -0.57 9  146 260 
 PTB  HZ I         817 58.63        13.6 0.44            132            146 260 
 SPBC HZ EP        817 34.61                             129    0.27 9  161 219 
 SPBC HN ES        817 55.83                             129   -0.38 9  161 219 
 SPBC HZ I         817 58.91        32.0 0.28            130            161 219 
 ZAR  HZ EP        817 38.88                             122    0.33 9  204 293 
 ZAR  HE ES        818  3.65                             122   -0.05 9  204 293 
 ZAR  HZ I         818  8.69        18.8 0.24            123            204 293 
 SML  HZ EP   4    817 41.92                             117   -1.04 0  245 336 
 SML  HN ES        818 11.18                             117   -0.37 8  245 336 
 CHI  HZ EP        817 43.56                             117    0.00 8  246 195 
 CHI  HN ES        818 13.06                             117    0.44 8  246 195 
 CHI  HZ I         818 19.20         7.1 0.28            119            246 195 
 ROSC BZ EP   4    817 45.41                             116    1.43 0  250 211 
 ROSC BN ES        818 12.88                             116   -0.48 8  250 211 
 ROSC BZ I         818 20.15        20.6 0.40            118            250 211 
 HEL  HZ EP   4    817 47.14                             114    0.96 0  270 256 
 HEL  HN ES        818 16.99                             114   -0.30 8  270 256 
 HEL  HZ I         818 25.53         4.4 0.22            116            270 256 
 GUY2CHZ EP        817 50.17                             112    0.65 7  299 235 
 GUY2CHN ES        818 23.91                             112    0.69 7  299 235 
 GUY2CHZ I         818 31.15         4.6 0.62                           299 235 
 PTGC HZ EP   9    817 48.61                             111   -1.22 0  307 158 
 PTGC HN ES        818 22.24                             111   -0.32 7  307 158 
 PTGC HZ I         818 24.49        10.9 0.38            114            307 158 
                                                                                
