 2010 12 3 0212  1.8 L   6.782 -73.050148.7  RSN 13 0.4 2.9LRSN                1
 GAP=185        0.82       4.0     8.3  7.0 -0.2069E+02  0.2624E+02 -0.1120E+01E
 Epicentro: LOS SANTOS - SANTANDER                                             3
 ACTION:UP  11-01-14 15:22 OP:pat  STATUS:               ID:20101203021201 L   I
 2010-12-03-0210-28S.COL___132                                                 6
 STAT SP IPHASW D HRMM SECON CODA AMPLIT PERI AZIMU VELO SNR AR TRES W  DIS CAZ7
 BAR2 SZ IP     C  212 21.96                             170     0.210   26 215 
 BAR2 SZ ES   1    212 37.10                             170    -0.3 7   26 215 
 BAR2 SZ I         212 38.74       123.7 0.04                            26 215 
 GIR2 SZ EP        212 22.06                             166     0.110   36 334 
 GUE  SZ EP        212 27.33                             140     0.610  117   7 
 GRA  SZ EP        212 27.02                             138    -0.210  125  13 
 GRA  SZ ES   1    212 46.96                             138    -0.1 7  125  13 
 GRA  SZ I         212 48.62        68.6 0.25                           125  13 
 OCA  SZ EP        212 30.50                             130    -0.1 9  164 350 
 OCA  SZ ES   2    212 53.02                             130    -0.1 5  164 350 
 OCA  SZ I         212 57.06        96.9 0.42                           164 350 
 NOR  SZ EP   1    212 37.44                             118    -1.1 6  242 236 
 CHI  HZ EP        212 39.89                             117     0.1 8  250 198 
 CHI  HN ES   1    213  9.05                             117    -0.3 6  250 198 
 CHI  HZ I         213 17.38        35.1 0.40                           250 198 
 HEL  HZ EP   1    212 43.16                             114    -0.1 6  282 257 
 HEL  HZ I         213 20.02        33.7 0.27                           282 257 
 GUY  SZ EP   1    212 46.37                             112     0.0 5  309 236 
 GUY  SE ES   1    213 22.01                             112     0.8 5  309 236 
 GUY  SZ I         213 27.88        56.7 0.63                           309 236 
 RREF HZ EP        212 48.99                             111     0.2 7  329 231 
 RREF HZ I         213 33.40        43.9 0.36                           329 231 
 TOL  SZ EP        212 50.65                             109    -0.2 6  350 226 
 DBB  SZ EP        212 50.33                             109    -0.3 6  350 274 
 PRA  HZ EP        212 55.62                             107    -0.2 6  396 211 
 PRA  HN ES   1    213 38.47                             107     0.5 4  396 211 
                                                                                
