 2012  8 3 0802 11.9 L   6.736 -73.170147.1  RSN  6 0.4 1.1LRSN                1
 GAP=136        0.79       5.5     5.0  8.3 -0.2062E-01  0.5383E+01  0.2602E+01E
 Epicentro: VILLANUEVA - SANTANDER                                             3
 ACTION:UP  12-09-10 11:54 OP:ep   STATUS:               ID:20120803080211 L   I
 2012-08-03-0800-00M.COL___215                                                 6
 STAT SP IPHASW D HRMM SECON CODA AMPLIT PERI AZIMU VELO AIN AR TRES W  DIS CAZ7
 BAR2 SZ EP   1    8 2 31.77                             174    0.22 7 15.9 185 
 BAR2 SZ ES   2    8 2 47.07                             174    0.18 5 15.9 185 
 BRR  HZ EP   1    8 2 33.69                             152    0.43 7 72.6 304 
 BRR  HZ I         8 2 34.10         5.1 0.10                          72.6 304 
 BRR  HN ES   1    8 2 50.60                             152    0.67 7 72.6 304 
 PAM  SZ EP   1    8 2 34.73                             149    0.04 7 84.6  38 
 PAM  SN ES   1    8 2 51.88                             149   -0.59 7 84.6  38 
 RUS  HZ EP   1    8 2 35.57                             146    0.28 7 93.7 174 
 RUS  HN ES   1    8 2 53.30                             146   -0.24 7 93.7 174 
 RUS  HZ I         8 2 55.63         1.9 0.38                          93.7 174 
 PTB  HZ EP   1    8 2 38.19                             133   -0.43 7  144 261 
 PTB  HN ES   1    8 2 59.17                             133   -0.29 7  144 261 
 PTB  HZ I         8 3  0.03         1.1 0.14                           144 261 
 ZAR  HN ES   2    8 3  9.08                             123   -0.77 4  204 294 
                                                                                
