 2011  1 3 0546 18.3 L   6.779 -73.181138.9  RSN 18 0.5 3.0LRSN                1
 GAP=133        1.02       3.0     5.5  5.8 -0.2938E+01  0.1113E+02  0.3461E+01E
 Epicentro: LOS SANTOS - SANTANDER                                             3
 ACTION:UP  11-02-08 08:38 OP:pat  STATUS:               ID:20110103054618 L   I
 2011-01-03-0541-23S.COL___136                                                 6
 STAT SP IPHASW D HRMM SECON CODA AMPLIT PERI AZIMU VELO SNR AR TRES W  DIS CAZ7
 BTL  SZ IP        546 36.17                             172    -0.810   18 328 
 BTL  SZ ES   1    546 51.36                                    -0.2 7   18 328 
 BAR2 SZ IP        546 37.08                             171     0.110   21 181 
 BAR2 SZ ES   1    546 51.97                             171     0.3 7   21 181 
 BAR2 SZ I         546 53.36       473.5 0.23                            21 181 
 GIR2 SZ IP        546 37.13                             166    -0.110   33 358 
 GIR2 SZ ES   1    546 52.33                             166     0.4 7   33 358 
 RUS  HZ IP     C  546 41.06                             143    -0.210   99 174 
 RUS  HN ES   1    546 58.63                             143    -0.5 7   99 174 
 RUS  HZ I         547  1.03       134.8 0.41                            99 174 
 GRA  SZ IP        546 43.92                             135     0.710  129  19 
 GRA  SZ I         546 45.24       198.0 0.19                           129  19 
 GRA  SZ ES   1    547  3.32                             135     0.7 7  129  19 
 OCA  SZ IP        546 45.49                             128    -0.7 9  162 355 
 OCA  SZ ES   1    547  7.98                             128    -0.1 7  162 355 
 OCA  SZ I         547 11.92       228.1 0.25                           162 355 
 YOP  SZ EP        546 47.77                             125     0.0 9  179 152 
 YOP  SZ I         546 48.44        41.8 0.10                           179 152 
 YOP  SE ES   1    547 10.88                             125     0.0 7  179 152 
 NOR  SZ EP   1    546 53.28                             118     0.1 6  230 234 
 NOR  SN ES   2    547 21.02                             118     0.7 4  230 234 
 CHI  HZ IP     D  546 55.30                             116     0.1 8  245 194 
 CHI  HE ES   1    547 24.51                             116     0.4 6  245 194 
 CHI  HZ I         547 31.82        42.5 0.32                           245 194 
 ROSC BZ EP   1    546 55.77                             116     0.2 6  249 211 
 ROSC BE ES   1    547 25.08                             116     0.4 6  249 211 
 ROSC BZ I         547 32.21        73.4 0.41                           249 211 
 HEL  HZ EP   1    546 57.30                             114    -0.4 6  268 256 
 HEL  HN ES   2    547 28.01                             114    -0.4 4  268 256 
 HEL  HZ I         547 35.69        59.6 0.52                           268 256 
 GUY  SZ EP   2    547  1.90                             111     0.8 4  297 235 
 GUY  SZ I         547 43.75        60.8 0.42                           297 235 
 VIL  SZ EP   2    547  0.43                             111    -0.4 4  299 189 
 VIL  SN ES   1    547 34.36                             111     0.3 5  299 189 
 VIL  SZ I         547 45.87        37.1 0.82                           299 189 
 RREF HZ EP   1    547  4.26                             110     0.7 5  317 229 
 RREF HE ES   1    547 38.35                             110    -0.6 5  317 229 
 RREF HZ I         547 46.96        45.9 0.32                           317 229 
 DBB  SZ IP        547  5.21                             108     0.2 7  336 275 
 TOL  SZ EP   1    547  6.82                             108     1.1 5  339 224 
 PRA  HZ EP   1    547 10.60                             106    -0.5 4  388 209 
 PRA  HN ES   1    547 51.93                             106    -0.4 4  388 209 
 SJA  SZ EP   2    547 11.61                             105    -0.6 3  397 192 
 SJA  SZ I         548  0.83        60.5 0.27                           397 192 
                                                                                
