 2017 10 3 0551 36.6 L   6.657 -74.067  4.0  RSN 13 0.7 2.0LRSN                1
 GAP=107        1.54       2.9     2.7  6.5  0.8100E-01  0.2570E+01  0.2353E+01E
 Epicentro: PUERTO PARRA - SANTANDER                                           3
 ACTION:UPD 17-11-07 19:27 OP:rebc STATUS:               ID:20171003055136 L   I
 OLDACT:REG 17-10-03 12:25 OP:dhb  STATUS:               ID:20171003054735     3
 2017-10-03-0548-00M.COL___435                                                 6
 STAT SP IPHASW D HRMM SECON CODA AMPLIT PERI AZIMU VELO AIN AR TRES W  DIS CAZ7
 BAR2 EZ IP     D  551 52.22                              47   -0.1110 98.1  94 
 BAR2 EZ ES        552  4.00                              47   -0.5810 98.1  94 
 BAR2 EZ I         552 10.44        25.0 0.42             47           98.1  94 
 SPBC HZ EP        551 54.32                              47    0.1710  111 180 
 SPBC HE ES        552  8.12                              47    0.3010  111 180 
 SPBC HZ I         552 12.37        12.6 0.05             47            111 180 
 ZAR  HZ EP        551 56.03                              47   -0.4510  127 317 
 ZAR  HE ES        552 11.44                              47   -0.5310  127 317 
 ZAR  HZ I         552 13.54        36.3 0.30             47            127 317 
 RUS  HZ EP        551 58.94                              47    0.33 9  138 128 
 RUS  HE ES        552 14.71                              47   -1.06 9  138 128 
 RUS  HZ I         552 18.80        47.5 0.20             47            138 128 
 NOR  HZ EP        551 59.91                              47   -0.09 9  150 216 
 NOR  HN ES        552 17.10                              47   -1.13 9  150 216 
 NOR  HZ I         552 21.11         9.0 0.37             47            150 216 
 PAM  EZ EP        552  3.56                              47    0.25 9  169  63 
 PAM  EN ES        552 24.84                              47    0.71 9  169  63 
 PAM  EZ I         552 26.12        45.3 0.48             47            169  63 
 URE  HZ EP        552  7.06                              37   -0.09 9  202 307 
 URE  HN ES        552 31.45                              37    0.49 9  202 307 
 URE  HZ I         552 35.05        19.1 0.24             37            202 307 
 GUY2CHZ EP        552 10.08                              37    0.89 8  214 222 
 GUY2CHE ES        552 33.70                              37   -0.89 8  214 222 
 GUY2CHZ I         552 38.93        12.2 0.60                           214 222 
 CHI  HZ EP        552 11.15                              37    0.36 8  227 171 
 CHI  HE ES   4    552 40.34                              37    2.90 0  227 171 
 CHI  HZ I         552 45.80         3.8 0.60             37            227 171 
 YPLC HN ES   4    552 40.33                              37    2.33 0  233 127 
 YPLC HZ I         552 47.62        13.0 0.30             37            233 127 
 ELA  HZ EP   3    552 15.25                              37    1.80 2  248 217 
 ELA  HE ES        552 42.73                              37    0.55 8  248 217 
 ELA  HZ I         552 49.87        14.8 0.46             37            248 217 
 ORTC HZ EP        552 24.20                              36    0.99 7  331 203 
 ORTC HE ES   4    553  6.70                              36    7.15 0  331 203 
 ORTC HZ I         553 15.34         2.8 0.52             36            331 203 
 PRA  HZ EP   4    552 33.32                              36    9.23 0  338 196 
 PRA  HE ES        553  2.66                              36    1.54 7  338 196 
 PRA  HZ I         553 19.01         3.4 0.66             36            338 196 
                                                                                
