 2014  2 3 0332 30.4 L   6.772 -73.046142.5  RSN  4 0.2 1.0LRSN                1
 GAP=246        0.53       3.3     7.0  4.1  0.1119E+02  0.4175E+00  0.3350E+01E
 Epicentro: LOS SANTOS - SANTANDER                                             3
 ACTION:UPD 14-03-10 08:07 OP:ep   STATUS:               ID:20140203033230 L   I
 OLDACT:REG 14-02-03 07:41 OP:nd   STATUS:               ID:20140203033000     3
 2014-02-03-0330-00M.COL___288                                                 6
 STAT SP IPHASW D HRMM SECON CODA AMPLIT PERI AZIMU VELO AIN AR TRES W  DIS CAZ7
 BAR2 SZ EP        332 49.62                             170   -0.0310 24.9 217 
 BAR2 SZ ES        333  4.75                             170    0.0710 24.9 217 
 BAR2 SZ I         333  5.86         4.9 0.24            166           24.9 217 
 BRR  HZ EP        332 51.60                             148   -0.2610 82.4 297 
 BRR  HN ES        333  8.74                             148    0.1310 82.4 297 
 BRR  HZ I         333  9.76         2.3 0.16            147           82.4 297 
 RUS  HZ EP        332 53.91                             144    0.3410 97.3 182 
 RUS  HN ES        333 11.43                             144   -0.2410 97.3 182 
 RUS  HZ I         333 13.27         1.2 0.36            143           97.3 182 
 CHI  HZ EP        333  7.85                             116   -0.06 8  249 198 
 CHI  HN ES        333 37.25                             116    0.06 8  249 198 
 CHI  HZ I         333 39.79         0.5 0.68            117            249 198 
                                                                                
