 2012  5 3 0536 23.5 L   6.700 -73.169147.4  RSN  4 0.2 1.4LRSN                1
 GAP=227        0.57       6.8     5.8  6.4  0.1708E+02  0.4246E+01  0.6318E+01E
 Epicentro: VILLANUEVA - SANTANDER                                             3
 ACTION:UP  12-07-05 12:01 OP:pat  STATUS:               ID:20120503053623 L   I
 2012-05-03-0530-00M.COL___186                                                 6
 STAT SP IPHASW D HRMM SECON CODA AMPLIT PERI AZIMU VELO SNR AR TRES W  DIS CAZ7
 BAR2 SZ EP   1    536 43.21                             175     0.1 7   12 187 
 BAR2 SZ I         536 45.14         6.7 0.78                            12 187 
 BAR2 SZ ES   1    536 58.07                             175    -0.4 7   12 187 
 BRR  HZ EP   1    536 45.14                             151     0.1 7   75 307 
 BRR  HZ I         536 45.21         5.8 0.22                            75 307 
 BRR  HN ES   1    537  2.07                             151     0.2 7   75 307 
 RUS  HZ EP   1    536 46.75                             147     0.1 7   90 174 
 RUS  HN ES   2    537  5.14                             147     0.4 5   90 174 
 RUS  HZ I         537  5.78         3.9 0.71                            90 174 
 PTB  HZ EP   1    536 49.94                             133    -0.3 7  144 263 
 PTB  HE ES   1    537 11.05                             133     0.0 7  144 263 
 PTB  HZ I         537 13.30         1.6 0.28                           144 263 
                                                                                
