 2010  6 3 0511 40.2 L   6.800 -73.053148.4  RSN 13 0.5 3.3LRSN                1
 GAP=148        0.92       4.2     6.8  5.8 -0.1860E+02 -0.6490E+00  0.5689E+01E
 Epicentro: LOS SANTOS - SANTANDER                                             3
 ACTION:UP  10-08-24 10:08 OP:vdl  STATUS:               ID:20100603051140 L   I
 2010-06-03-0508-12S.COL___109                                                 6
 STAT SP IPHASW D HRMM SECON CODA AMPLIT PERI AZIMU VELO SNR AR TRES W  DIS CAZ7
 BAR2 SZ IP        512  0.27                             169     0.010   27 212 
 BAR2 SZ ES   1    512 15.52                             169    -0.3 7   27 212 
 GIR2 SZ IP        512  0.34                             166     0.110   35 333 
 GIR2 SZ ES   1    512 15.82                             166    -0.1 7   35 333 
 GUE  SZ EP        512  5.03                             140     0.010  115   7 
 GUE  SZ ES   2    512 24.08                             140    -0.3 5  115   7 
 GRA  SZ IP        512  6.07                             138     0.610  123  13 
 GRA  SZ ES   1    512 25.02                             138    -0.1 7  123  13 
 OCA  SZ IP        512  8.63                             130    -0.2 9  162 350 
 OCA  SZ ES   1    512 31.58                             130     0.4 7  162 350 
 OCA  SZ I         512 37.49       217.1 0.24                           162 350 
 CHI  HZ IP     C  512 18.36                             117     0.0 8  251 197 
 CHI  HN ES   2    512 47.79                             117    -0.3 4  251 197 
 CHI  HZ I         512 55.88       120.6 0.45                           251 197 
 ROSC BZ IP     D  512 19.72                             117     0.7 8  258 213 
 ROSC BE ES   1    512 49.26                             117    -0.1 6  258 213 
 ROSC BZ I         512 55.74       198.5 0.42                           258 213 
 CVER SZ EP   1    512 20.48                             115    -0.6 6  276 204 
 HEL  HZ EP   2    512 20.83                             114    -0.8 4  282 256 
 HEL  HZ I         512 57.96        81.5 0.99                           282 256 
 RREF BZ EP   1    512 27.10                             111    -0.2 5  330 231 
 RREF BN ES   1    513  5.21                             111     1.1 5  330 231 
 RREF BZ I         513 11.12       154.9 0.31                           330 231 
 DBB  SZ IP        512 27.99                             109    -1.0 6  350 274 
 TOL  SZ EP   1    512 29.29                             109    -0.1 5  351 226 
 TOL  SZ ES   2    513  7.73                             109     0.0 3  351 226 
 SDV  BZ IP     C  512 29.68                             109     0.3 6  353  49 
 SDV  BZ I         512 30.57        57.9 0.20                           353  49 
 SDV  BE ES   1    513  6.91                             109    -0.9 5  353  49 
                                                                                
