 2013  3 3 0457 20.5 L   6.748 -73.191146.0  RSN  4 0.4 1.5LRSN                1
 GAP=228        0.89      10.6     8.7  8.4  0.5307E+02  0.2141E+02  0.2410E+02E
 Epicentro: VILLANUEVA - SANTANDER                                             3
 ACTION:UPD 13-04-09 13:59 OP:ep   STATUS:               ID:20130303045720 L   I
 2013-03-03-0448-50M.COL___196                                                 6
 STAT SP IPHASW D HRMM SECON CODA AMPLIT PERI AZIMU VELO AIN AR TRES W  DIS CAZ7
 BAR2 SZ EP   1    457 39.67                             173   -0.42 7 17.3 177 
 BAR2 SZ ES        457 54.88                             173   -0.4510 17.3 177 
 BRR  HN ES   1    457 58.79                             153    0.70 7 69.9 305 
 RUS  HZ EP        457 44.27                             145    0.3310 95.4 173 
 RUS  HN ES   1    458  2.53                             145    0.34 7 95.4 173 
 RUS  HN I         458  4.09         5.0 0.30            140           95.4 173 
 PTB  HZ EP        457 46.86                             133   -0.13 9  142 261 
 PTB  HN ES   1    458  7.39                             133   -0.22 7  142 261 
 PTB  HN I         458 13.24         5.3 0.68            128            142 261 
                                                                                
