 2016 11 3 0832 31.8 L   7.344 -73.129  8.5  RSN  6 0.4 1.1LRSN                1
 GAP=175        1.12       3.9     2.9  7.0 -0.3078E+01  0.1199E+02 -0.1059E+02E
 Epicentro: RIONEGRO - SANTANDER                                               3
 ACTION:UPD 17-10-26 21:04 OP:lp   STATUS:               ID:20161103083231 L   I
 OLDACT:REG 16-11-03 12:42 OP:dani STATUS:               ID:20161103082738     3
 2016-11-03-0828-00M.COL___337                                                 6
 STAT SP IPHASW D HRMM SECON CODA AMPLIT PERI AZIMU VELO AIN AR TRES W  DIS CAZ7
 PAM  EZ EP        832 40.07                              97   -0.0810 47.4  91 
 PAM  EN ES        832 46.49                              97   -0.1510 47.4  91 
 PAM  EZ I         832 47.26        17.0 0.18             93           47.4  91 
 BRR  HZ EP        832 43.24                              94    0.2710 69.5 248 
 BRR  HN ES        832 51.42                              94   -0.2510 69.5 248 
 BRR  HZ I         832 52.67         4.8 0.12             92           69.5 248 
 BAR2 EZ ES        832 55.62                              93   -0.2110 83.3 184 
 RUS  HZ EP        832 58.50                              92    1.24 9  161 178 
 RUS  HN ES        833 16.57                              92   -0.54 9  161 178 
 RUS  HZ I         833 17.91         1.0 0.17             91            161 178 
 PTB  HZ EP        832 58.23                              56    0.07 9  172 239 
 PTB  HN ES        833 18.93                              56    0.23 9  172 239 
 PTB  HZ I         833 20.28         2.4 0.27             56            172 239 
 ZAR  HZ EP        833  0.27                              56   -0.39 9  192 275 
 ZAR  HE ES        833 22.99                              56   -0.15 9  192 275 
 ZAR  HZ I         833 24.51         4.2 0.23             56            192 275 
                                                                                
