 2012  1 3 0401 32.4 L   6.748 -73.169148.9  RSN  7 0.5 1.8LRSN                1
 GAP=136        1.20       7.6     8.6  9.9 -0.5040E+01  0.1243E+02  0.2469E+02E
 Epicentro: VILLANUEVA - SANTANDER                                             3
 ACTION:UP  12-02-03 08:13 OP:REBC STATUS:               ID:20120103040132 L   I
 2012-01-03-0400-00M.COL___184                                                 6
 STAT SP IPHASW D HRMM SECON CODA AMPLIT PERI AZIMU VELO SNR AR TRES W  DIS CAZ7
 BAR2 SZ EP        4 1 52.34                             173     0.010   17 185 
 BAR2 SZ ES   1    4 2  7.21                             173    -0.6 7   17 185 
 BAR2 SZ I         4 2  8.48        18.0 0.24                            17 185 
 BRR  HZ EP        4 1 54.27                             153     0.310   72 304 
 BRR  HZ I         4 1 54.50        19.3 0.14                            72 304 
 BRR  HN ES   1    4 2 11.63                             153     0.9 7   72 304 
 PAM  SZ EP        4 1 55.22                             149    -0.110   83  38 
 PAM  SN ES   2    4 2 12.34                             149    -0.8 5   83  38 
 RUS  HZ EP        4 1 56.30                             146     0.210   95 174 
 RUS  HN ES   2    4 2 14.56                             146     0.0 5   95 174 
 RUS  HZ I         4 2 16.41         7.9 0.38                            95 174 
 PTB  HZ EP        4 1 59.01                             133    -0.3 9  144 261 
 PTB  HN ES   2    4 2 19.81                             133    -0.5 5  144 261 
 PTB  HZ I         4 2 22.56         6.5 0.28                           144 261 
 NOR  SZ EP        4 2  6.90                             120    -0.8 8  229 235 
 CHI  HZ EP        4 2 10.16                             118     0.6 8  242 195 
 CHI  HN ES   2    4 2 39.01                             118     0.4 4  242 195 
 CHI  HZ I         4 2 41.94         2.0 0.72                           242 195 
                                                                                
