 2012  1 3 0838 18.3 L   6.866 -72.968152.0  RSN  4 0.5 1.1LRSN                1
 GAP=157        0.88       7.9    11.1 15.5  0.9098E+01 -0.7623E+02  0.1067E+02E
 Epicentro: CEPITA - SANTANDER                                                 3
 ACTION:UP  12-02-03 08:13 OP:REBC STATUS:               ID:20120103083818 L   I
 2012-01-03-0830-00M.COL___184                                                 6
 STAT SP IPHASW D HRMM SECON CODA AMPLIT PERI AZIMU VELO SNR AR TRES W  DIS CAZ7
 BAR2 SZ EP   2    838 38.17                             164    -0.9 5   38 218 
 PAM  SZ EP        838 40.12                             157    -0.210   60  30 
 PAM  SN ES   3    838 58.81                             157     1.4 2   60  30 
 BRR  HZ EP        838 41.28                             147     0.210   86 288 
 BRR  HN ES   1    838 58.56                             147    -0.2 7   86 288 
 BRR  HZ I         839  0.90         4.6 0.12                            86 288 
 RUS  HZ EP        838 43.55                             142     0.310  108 187 
 RUS  HN ES   2    839  2.15                             142    -0.5 5  108 187 
 RUS  HZ I         839  5.59         0.7 0.48                           108 187 
                                                                                
