 2012  2 3 0410 45.2 L   6.454 -73.731 91.9  RSN  8 0.3 1.7LRSN                1
 GAP=101        0.64       2.8     2.8  7.0  0.1581E+00  0.9447E+01  0.7790E+00E
 ACTION:UP  12-03-07 16:27 OP:epov STATUS:               ID:20120203041045 L   I
 2012-02-03-0410-00M.COL___188                                                 6
 STAT SP IPHASW D HRMM SECON CODA AMPLIT PERI AZIMU VELO SNR AR TRES W  DIS CAZ7
 BAR2 SZ EP   1    411  0.30                             143   -0.27 7 62.6  76 
 BAR2 SZ ES   1    411 12.43                             143   -0.11 7 62.6  76 
 BAR2 SZ I         411 14.63        40.5 0.23                          62.6  76 
 BRR  HZ EP   1    411  0.51                             139   -0.48 7 72.3   2 
 BRR  HZ I         411  1.01        16.9 0.14                          72.3   2 
 BRR  HN ES   1    411 13.35                             139    0.07 7 72.3   2 
 GIR2 SZ EP   1    411  3.45                             132    0.62 7 91.2  41 
 RUS  HZ EP   1    411  3.63                             131   -0.01 7 94.8 131 
 RUS  HN ES   1    411 18.15                             131    0.16 7 94.8 131 
 RUS  HZ I         411 20.35         4.8 0.15                          94.8 131 
 NOR  SZ EP   1    411 10.15                             115    0.31 7  160 232 
 NOR  SN ES   1    411 28.89                             115   -0.14 7  160 232 
 ZAR  HZ EP   1    411 11.08                             114    0.23 7  169 313 
 ZAR  HN ES   1    411 31.14                             114    0.31 7  169 313 
 ZAR  HZ I         411 34.38         7.5 0.21                           169 313 
 HEL  HN ES   1    411 37.79                             110   -0.29 6  201 262 
 OCA  SZ EP   1    411 14.35                             110   -0.49 6  203  13 
 OCA  SZ I         411 40.87         5.1 0.36                           203  13 
                                                                                
