 2016  1 3 0743 14.3 L   6.786 -73.132147.5  RSN  7 0.5 1.4LRSN                1
 GAP=157        1.31       7.0     6.2  8.4 -0.1107E+02  0.1265E+02  0.7362E+01E
 Epicentro: LOS SANTOS - SANTANDER                                             3
 ACTION:UPD 16-03-09 23:22 OP:cam  STATUS:               ID:20160103074314 L   I
 OLDACT:REG 16-01-03 12:35 OP:drio STATUS:               ID:20160103073736     3
 2016-01-03-0737-36M.COL___314                                                 6
 STAT SP IPHASW D HRMM SECON CODA AMPLIT PERI AZIMU VELO AIN AR TRES W  DIS CAZ7
 BAR2 EZ EP        743 34.16                             171    0.0710 22.1 195 
 BAR2 EZ ES        743 48.86                             171   -0.6810 22.1 195 
 BAR2 EZ I         743 51.79         3.7 0.22            170           22.1 195 
 BRR  HZ EP        743 36.10                             152    0.3710 73.3 299 
 BRR  HN ES        743 53.31                             152    0.8510 73.3 299 
 BRR  HZ I         743 55.71         2.5 0.32            155           73.3 299 
 PAM  EZ EP        743 37.10                             151    0.4110 77.6  38 
 PAM  EE ES        743 53.96                             151   -0.2110 77.6  38 
 PAM  EZ I         743 56.29         6.3 0.56            155           77.6  38 
 PTB  HZ EP        743 40.62                             132   -0.87 9  149 260 
 PTB  HE ES        744  2.63                             132   -0.09 9  149 260 
 PTB  HZ I         744  4.16         3.3 0.12            134            149 260 
 SPBC HZ EP        743 42.93                             129    0.05 9  163 220 
 SPBC HN ES        744  5.46                             129    0.26 9  163 220 
 SPBC HZ I         744 10.09         4.6 0.34            131            163 220 
 ZAR  HZ EP        743 46.29                             122   -0.75 8  206 292 
 ZAR  HN ES        744 12.41                             122   -0.18 8  206 292 
 GUY2CHZ EP        743 58.86                             113    0.86 7  302 235 
 GUY2CHN ES   4    744 36.16                             113    4.05 0  302 235 
 GUY2CHZ I         744 40.74         1.7 0.72                           302 235 
                                                                                
