 2013  1 3 0507 20.9 L   6.786 -73.167143.7  RSN  5 0.2 1.4LRSN                1
 GAP=234        0.57       3.2     4.0  4.1  0.5180E+01  0.2563E+01  0.3745E+01E
 Epicentro: LOS SANTOS - SANTANDER                                             3
 ACTION:UPD 13-02-15 09:11 OP:ep   STATUS:               ID:20130103050720 L   I
 2013-01-03-0459-50M.COL___199                                                 6
 STAT SP IPHASW D HRMM SECON CODA AMPLIT PERI AZIMU VELO AIN AR TRES W  DIS CAZ7
 BAR2 SZ EP        5 7 40.01                             171   -0.2410 21.5 184 
 BAR2 SZ ES        5 7 55.12                             171   -0.2210 21.5 184 
 BAR2 SZ I         5 7 56.53         6.8 0.52            169           21.5 184 
 BRR  HZ EP        5 7 41.96                             153    0.2110 69.9 301 
 BRR  HZ I         5 7 44.84         3.6 0.34            150           69.9 301 
 BRR  HN ES        5 7 58.28                             153    0.2610 69.9 301 
 RUS  HZ EP        5 7 44.20                             144   -0.1610 99.3 175 
 RUS  HN ES        5 8  2.88                             144    0.2310 99.3 175 
 RUS  HN I         5 8  4.24         5.6 0.42            144           99.3 175 
 PTB  HZ EP        5 7 47.55                             132    0.09 9  145 259 
 PTB  HN ES        5 8  7.88                             132   -0.30 9  145 259 
 PTB  HN I         5 8 13.58         7.0 0.36            130            145 259 
 CHI  HZ EP        5 7 58.28                             117    0.02 8  247 195 
 CHI  HZ I         5 7 59.41         1.0 0.54            117            247 195 
 CHI  HN ES        5 8 27.54                             117    0.14 8  247 195 
                                                                                
