 2013  9 3 0505  9.6 L   6.811 -73.149145.1  RSN 11 0.4 1.9LRSN                1
 GAP=136        0.92       2.7     3.9  5.5 -0.6170E-01  0.4568E+01  0.8441E+00E
 Epicentro: LOS SANTOS - SANTANDER                                             3
 ACTION:UPD 13-10-22 09:19 OP:ep   STATUS:               ID:20130903050509 L   I
 OLDACT:UP  13-09-03 10:16 OP:cam  STATUS:               ID:20130903045959     3
 OLDACT:UP  13-09-03 10:16 OP:cam  STATUS:               ID:20130903045959     3
 OLDACT:REG 13-09-03 08:08 OP:cam  STATUS:               ID:20130903045959     3
 2013-09-03-0459-59M.COL___269                                                 6
 STAT SP IPHASW D HRMM SECON CODA AMPLIT PERI AZIMU VELO AIN AR TRES W  DIS CAZ7
 BAR2 SZ EP        5 5 29.04                             170   -0.1410 24.5 189 
 BAR2 SZ ES        5 5 43.94                             170   -0.5110 24.5 189 
 BAR2 SZ I         5 5 45.56        23.6 0.23            168           24.5 189 
 BRR  HZ EP        5 5 31.07                             153    0.4410 70.3 298 
 BRR  HN ES        5 5 47.81                             153    0.7810 70.3 298 
 BRR  HZ I         5 5 51.88        12.1 0.14            151           70.3 298 
 PAM  SZ EP        5 5 31.98                             151    0.2710 76.6  40 
 PAM  SN ES        5 5 48.99                             151    0.0410 76.6  40 
 PAM  SZ I         5 5 51.33         7.2 0.52            155           76.6  40 
 RUS  HZ EP        5 5 33.08                             143   -0.3110  102 176 
 RUS  HN ES        5 5 51.93                             143   -0.0110  102 176 
 RUS  HZ I         5 5 52.96         6.6 0.24            145            102 176 
 PTB  HZ EP   1    5 5 36.38                             132   -0.13 7  148 258 
 PTB  HN ES        5 5 56.76                             132   -0.74 9  148 258 
 PTB  HZ I         5 6  2.49        10.8 0.14            131            148 258 
 OCA  HN ES   1    5 5 59.61                             130   -0.08 7  159 353 
 SPBC HZ EP        5 5 38.07                             129   -0.06 9  164 219 
 SPBC HN ES        5 6  0.53                             129    0.16 9  164 219 
 SPBC HZ I         5 6  4.96        11.4 0.26            129            164 219 
 ZAR  HZ EP   4    5 5 43.58                             122    1.66 0  203 292 
 ZAR  HN ES        5 6  7.32                             122    0.19 9  203 292 
 ZAR  HZ I         5 6 13.20         9.0 0.64            123            203 292 
 SML  HZ EP   1    5 5 45.47                             117   -0.58 6  242 335 
 SML  HE ES        5 6 14.12                             117   -0.36 8  242 335 
 SML  HN I         5 6 17.08        21.4 0.30            119            242 335 
 CHI  HZ EP   1    5 5 47.64                             117    0.25 6  250 195 
 CHI  HN ES        5 6 17.23                             117    0.37 8  250 195 
 CHI  HZ I         5 6 23.63         4.3 0.46            118            250 195 
 HEL  HZ EP   1    5 5 50.03                             115    0.25 6  272 256 
 GUY2CHZ EP   4    5 5 54.78                             112    1.55 0  302 235 
                                                                                
