 2012 12 3 0615 33.1 L   6.800 -73.156142.1  RSN 10 0.5 2.0LRSN                1
 GAP=135        0.88       3.4     4.5  6.1 -0.1233E+01  0.1120E+02 -0.9746E+00E
 Epicentro: LOS SANTOS - SANTANDER                                             3
 ACTION:UPD 13-01-04 14:25 OP:ep   STATUS:               ID:20121203061533 L   I
 2012-12-03-0610-00M.COL___236                                                 6
 STAT SP IPHASW D HRMM SECON CODA AMPLIT PERI AZIMU VELO AIN AR TRES W  DIS CAZ7
 BAR2 SZ EP        615 52.40                             170    0.1510 23.2 187 
 BAR2 SZ ES   1    616  7.05                             170   -0.17 7 23.2 187 
 BAR2 SZ I         616  8.40        44.3 0.20                          23.2 187 
 GIR2 SZ EP     D  615 52.52                             167    0.2310 31.0 352 
 GIR2 SZ ES   1    616  7.57                             167    0.28 7 31.0 352 
 GIR2 SZ I         616  8.91        17.0 0.20                          31.0 352 
 PAM  SZ EP   1    615 55.27                             150    0.34 7 78.1  40 
 PAM  SN ES   1    616 12.42                             150    0.43 7 78.1  40 
 PAM  SZ I         616 17.02        14.9 0.48                          78.1  40 
 RUS  HZ EP     C  615 56.36                             143   -0.1110  101 175 
 RUS  HN ES   1    616 14.32                             143   -0.40 7  101 175 
 RUS  HZ I         616 16.08         9.0 0.32                           101 175 
 PTB  HZ EP        615 58.95                             131   -0.68 9  147 259 
 PTB  HN ES   1    616 19.74                             131   -0.61 7  147 259 
 PTB  HZ I         616 24.91        15.8 0.10                           147 259 
 OCA  HZ EP   1    616  0.93                             129   -0.14 7  160 354 
 OCA  HN ES   1    616 22.49                             129   -0.43 7  160 354 
 OCA  HZ I         616 25.96        13.5 0.20                           160 354 
 ZAR  HZ EP   1    616  5.21                             122    0.05 6  203 292 
 ZAR  HN ES   1    616 30.88                             122    0.69 6  203 292 
 ZAR  HZ I         616 36.56        13.8 0.56                           203 292 
 SML  HZ EP        616  8.93                             117   -0.50 8  243 336 
 SML  HE ES   1    616 37.66                             117   -0.13 6  243 336 
 HEL  HZ EP   1    616 14.19                             114    1.22 6  271 256 
 HEL  HN ES   1    616 44.51                             114    0.42 6  271 256 
 HEL  HZ I         616 52.13         5.3 0.44                           271 256 
 PRA  HZ EP   1    616 26.99                             106    0.59 4  391 209 
 PRA  HN ES   1    617  8.19                             106    0.19 4  391 209 
 PRA  HZ I         617 16.64         3.7 0.24                           391 209 
                                                                                
