 2017 12 3 0020 38.9 L   7.443 -73.194130.0  RSN  5 0.3 1.5LRSN                1
 GAP=117        0.72       2.7     4.4  6.3 -0.5568E+00  0.1090E+02  0.2597E+01E
 Epicentro: EL PLAYON - SANTANDER                                              3
 ACTION:UPD 18-01-04 13:16 OP:rebc STATUS:               ID:20171203002038 L   I
 OLDACT:REG 17-12-03 12:45 OP:dhb  STATUS:               ID:20171203001737     3
 2017-12-03-0018-00M.COL___495                                                 6
 STAT SP IPHASW D HRMM SECON CODA AMPLIT PERI AZIMU VELO AIN AR TRES W  DIS CAZ7
 PAM  EZ EP        020 58.32                             156    0.1510 55.8 102 
 PAM  EE ES        021 13.32                             156    0.0910 55.8 102 
 PAM  EZ I         021 16.45         2.7 0.50             47           55.8 102 
 OCA  HZ EP        020 59.34                             143   -0.4210 89.1 351 
 OCA  HE ES        021 16.32                             143    0.2710 89.1 351 
 OCA  HZ I         021 21.65        18.4 0.72             47           89.1 351 
 BAR2 EZ EP        021  0.14                             142   -0.1110 94.1 179 
 BAR2 EZ ES        021 16.48                             142   -0.4510 94.1 179 
 BAR2 EZ I         021 17.52        13.6 0.32             47           94.1 179 
 PTB  HZ EP        021  6.82                             124   -0.13 9  172 234 
 PTB  HE ES        021 29.08                             124    0.22 9  172 234 
 PTB  HZ I         021 29.92         2.1 0.46             47            172 234 
 RUS  HZ EP   1    021  8.02                             124    0.41 7  172 176 
 RUS  HN ES        021 30.29                             124    0.26 9  172 176 
 RUS  HZ I         021 32.78         2.4 0.32             47            172 176 
                                                                                
