 2010 11 3 0118 41.2 L   6.798 -73.087145.6  RSN  5 0.2 1.5LRSN                1
 GAP=165        0.41       3.6     6.8  5.3  0.7637E+01 -0.2142E+02 -0.9273E+01E
 Epicentro: LOS SANTOS - SANTANDER                                             3
 ACTION:UP  10-12-17 16:49 OP:REBC STATUS:               ID:20101103011841 L   I
 2010-11-03-0116-24S.COL___128                                                 6
 STAT SP IPHASW D HRMM SECON CODA AMPLIT PERI AZIMU VELO SNR AR TRES W  DIS CAZ7
 BAR2 SZ EP   2    119  0.92                             169     0.0 5   25 205 
 BAR2 SZ ES        119 16.08                             169    -0.110   25 205 
 BAR2 SZ I         119 18.74         9.8 0.14                            25 205 
 BRR  HZ EP   2    119  2.37                             150    -0.3 5   77 296 
 BRR  HE ES   1    119 19.64                             150     0.2 7   77 296 
 BRR  HZ I         119 21.33        10.3 0.47                            77 296 
 RUS  HZ EP   1    119  5.00                             144     0.1 7  100 180 
 RUS  HE ES   2    119 23.60                             144     0.2 5  100 180 
 RUS  HZ I         119 26.25         2.0 0.26                           100 180 
 GUE  SZ EP   2    119  5.75                             139    -0.1 5  116   9 
 GRA  SZ EP        119  6.41                             137     0.110  124  15 
 GRA  SZ I         119  7.70         4.0 0.30                           124  15 
                                                                                
