 2015  7 3 0611 17.5 L   6.798 -73.160139.7  RSN 10 0.5 2.0LRSN                1
 GAP=135        1.05       3.3     5.1  7.4 -0.1901E+01  0.1966E+02  0.2569E+01E
 Epicentro: LOS SANTOS - SANTANDER                                             3
 ACTION:UPD 15-09-08 21:46 OP:cam  STATUS:               ID:20150703061118dL   I
 OLDACT:REG 15-07-03 14:24 OP:ar   STATUS:               ID:20150703060748     3
 2015-07-03-0607-48M.COL___325                                                 6
 STAT SP IPHASW D HRMM SECON CODA AMPLIT PERI AZIMU VELO AIN AR TRES W  DIS CAZ7
 BAR2 EZ EP     C  611 36.44                             170    0.1010 22.9 186 
 BAR2 EZ ES        611 51.28                             170    0.2010 22.9 186 
 BAR2 EZ I         611 52.97        15.6 0.40            169           22.9 186 
 PAM  EZ EP        611 38.99                             149   -0.1110 78.5  40 
 PAM  EE ES        611 56.11                             149    0.1310 78.5  40 
 PAM  EZ I         611 58.12        22.6 0.50            155           78.5  40 
 RUS  HZ EP        611 40.54                             142   -0.0710  101 175 
 RUS  HE ES        611 58.84                             142    0.1710  101 175 
 RUS  HZ I         612  0.94        11.0 0.38            145            101 175 
 OCA  HN ES        612  6.33                             128   -0.68 9  160 354 
 OCA  HZ I         612 11.00        12.7 0.43            131            160 354 
 ZAR  HZ EP        611 48.96                             121   -0.40 9  203 292 
 ZAR  HE ES        612 14.81                             121    0.56 9  203 292 
 ZAR  HZ I         612 21.29        14.5 0.52            122            203 292 
 NOR  HZ EP        611 53.10                             117    0.42 8  233 234 
 NOR  HN ES        612 19.45                             117   -0.71 8  233 234 
 NOR  HZ I         612 23.59        10.3 0.26            119            233 234 
 CHI  HZ EP        611 55.10                             116    0.34 8  248 195 
 CHI  HN ES        612 23.16                             116   -0.69 8  248 195 
 CHI  HZ I         612 32.67         3.2 0.30            118            248 195 
 HEL  HZ EP        611 58.15                             114    0.97 8  270 256 
 HEL  HN ES   4    612 31.82                             114    3.65 0  270 256 
 HEL  HZ I         612 36.36         6.9 0.24            115            270 256 
 GUY2CHZ EP   4    612  2.59                             111    1.96 0  300 235 
 GUY2CHN ES        612 34.07                             111   -0.23 7  300 235 
 GUY2CHZ I         612 43.46         6.5 0.60                           300 235 
 MON  HN ES   4    612 41.96                             107   -2.07 0  353 309 
 MON  HZ I         612 44.35         2.0 0.40            109            353 309 
                                                                                
