 2016  3 3 0643  2.4 L   6.793 -73.158134.0  RSN  4 0.3 1.4LRSN                1
 GAP=135        0.66       3.4     3.1  7.8 -0.3274E+00  0.8484E+01 -0.5862E+00E
 Epicentro: LOS SANTOS - SANTANDER                                             3
 ACTION:UPD 16-05-13 21:21 OP:cam  STATUS:               ID:20160303064302 L   I
 OLDACT:UP  16-03-03 18:22 OP:mh   STATUS:               ID:20160303063751     3
 OLDACT:UP  16-03-03 18:21 OP:mh   STATUS:               ID:20160303063751     3
 OLDACT:REG 16-03-03 13:07 OP:mh   STATUS:               ID:20160303063751     3
 2016-03-03-0637-51M.COL___312                                                 6
 STAT SP IPHASW D HRMM SECON CODA AMPLIT PERI AZIMU VELO AIN AR TRES W  DIS CAZ7
 PAM  EZ EP        643 23.23                             148   -0.2110 78.9  40 
 PAM  EN ES        643 39.90                             148    0.0210 78.9  40 
 PAM  EZ I         643 42.66         4.6 0.52            152           78.9  40 
 RUS  HZ EP        643 25.18                             141    0.2510 99.9 175 
 RUS  HE ES        643 42.58                             141    0.0610 99.9 175 
 RUS  HZ I         643 43.81         1.8 0.28            147           99.9 175 
 PTB  HN EP   1    643 27.97                             129   -0.29 7  146 259 
 PTB  HE ES        643 48.11                             129   -0.34 9  146 259 
 PTB  HN I         643 53.68         3.7 0.48            131            146 259 
 ZAR  HN ES        643 59.06                             120    0.44 9  203 293 
 ZAR  HZ I         644  4.36         5.0 0.20            122            203 293 
                                                                                
