 2012  8 3 0649 34.7 L   6.688 -73.151145.4  RSN  4 0.2 1.1LRSN                1
 GAP=228        0.51       5.3     5.4  6.2  0.1443E+02 -0.1180E+01 -0.1157E+01E
 Epicentro: VILLANUEVA - SANTANDER                                             3
 *RUS-BRR-PTB                                                                  3
 ACTION:UPD 12-09-10 11:54 OP:ep   STATUS:               ID:20120803064934 L   I
 2012-08-03-0647-35M.COL___196                                                 6
 STAT SP IPHASW D HRMM SECON CODA AMPLIT PERI AZIMU VELO AIN AR TRES W  DIS CAZ7
 BAR2 SZ EP   1    649 53.88                             175   -0.19 7 11.1 198 
 BAR2 SZ ES   1    650  8.86                             175   -0.34 7 11.1 198 
 BAR2 SZ I         650  9.79         4.7 0.28                          11.1 198 
 BRR  HZ EP   1    649 56.25                             150    0.11 7 77.4 307 
 BRR  HE ES   1    650 13.17                             150    0.29 7 77.4 307 
 RUS  HZ EP   1    649 57.52                             147   -0.01 7 88.3 175 
 RUS  HN ES   1    650 15.65                             147    0.29 7 88.3 175 
 RUS  HZ I         650 17.13         1.6 0.24                          88.3 175 
 PTB  HN ES   1    650 22.03                             132   -0.18 7  145 264 
                                                                                
