 2010 11 3 0930 19.5 L   6.860 -73.339119.4  RSN  9 0.3 2.1LRSN                1
 GAP= 99        0.65       3.3     5.0  6.4 -0.4837E+01  0.7404E+01 -0.6430E+01E
 Epicentro: BETULIA - SANTANDER                                                3
 ACTION:UP  10-12-17 16:50 OP:REBC STATUS:               ID:20101103093019 L   I
 2010-11-03-0926-37S.COL___129                                                 6
 STAT SP IPHASW D HRMM SECON CODA AMPLIT PERI AZIMU VELO SNR AR TRES W  DIS CAZ7
 BTL  SZ IP        930 35.91                             175     0.210   10  51 
 BAR2 SZ EP        930 36.28                             163     0.010   34 150 
 BAR2 SZ ES   1    930 49.13                             163    -0.2 7   34 150 
 BAR2 SZ I         930 50.66        88.6 0.37                            34 150 
 BRR  HZ IP     D  930 36.65                             156     0.110   50 304 
 BRR  HZ I         930 37.08        36.2 0.10                            50 304 
 BRR  HN ES   2    930 50.14                             156     0.2 5   50 304 
 RUS  HZ EP   1    930 41.27                             135    -0.3 7  111 165 
 RUS  HN ES   2    930 58.79                             135     0.0 5  111 165 
 GUE  SZ EP        930 42.37                             133     0.510  117  23 
 GRA  SZ EP   2    930 42.56                             130    -0.1 5  128  28 
 GRA  SZ ES   2    931  0.60                             130    -0.2 5  128  28 
 GRA  SZ I         931  3.50        14.7 0.36                           128  28 
 OCA  SZ EP        930 44.56                             124    -0.5 9  152   1 
 OCA  SZ ES   2    931  4.77                             124    -0.3 5  152   1 
 OCA  SZ I         931  5.75        18.1 0.20                           152   1 
 NOR  SZ EP   2    930 52.36                             114     0.0 4  222 230 
 NOR  SN ES   2    931 18.10                             114     0.0 4  222 230 
 HEL  HZ EP   3    930 56.72                             111     0.4 2  253 253 
 HEL  HN ES   2    931 24.92                             111    -0.1 4  253 253 
 HEL  HZ I         931 30.34         4.3 0.64                           253 253 
                                                                                
