 2017  2 3 0707 40.3 L   6.778 -73.135138.1  RSN 13 0.5 1.9LRSN                1
 GAP= 98        0.78       3.0     2.7  5.4 -0.4349E+00  0.3232E+01  0.2863E+01E
 Epicentro: LOS SANTOS - SANTANDER                                             3
 ACTION:UPD 17-05-24 15:32 OP:jn   STATUS:               ID:20170203070740 L   I
 OLDACT:UP  17-02-03 16:43 OP:dnl  STATUS:               ID:20170203065746d    3
 OLDACT:UP  17-02-03 16:42 OP:dnl  STATUS:               ID:20170203065746d    3
 OLDACT:UP  17-02-03 16:40 OP:dnl  STATUS:               ID:20170203065746d    3
 OLDACT:UP  17-02-03 16:39 OP:dnl  STATUS:               ID:20170203065746d    3
 OLDACT:UP  17-02-03 16:36 OP:dnl  STATUS:               ID:20170203065746d    3
 OLDACT:UP  17-02-03 16:36 OP:dnl  STATUS:               ID:20170203065746d    3
 OLDACT:UP  17-02-03 16:35 OP:dnl  STATUS:               ID:20170203065746d    3
 OLDACT:UP  17-02-03 16:35 OP:dnl  STATUS:               ID:20170203065746d    3
 OLDACT:UP  17-02-03 16:35 OP:dnl  STATUS:               ID:20170203065746d    3
 OLDACT:UP  17-02-03 16:33 OP:dnl  STATUS:               ID:20170203065746d    3
 OLDACT:UP  17-02-03 16:31 OP:dnl  STATUS:               ID:20170203065746d    3
 OLDACT:DUP 17-02-03 16:28 OP:dnl  STATUS:               ID:20170203065746d    3
 OLDACT:UP  17-02-03 16:26 OP:dnl  STATUS:               ID:20170203065745     3
 OLDACT:UP  17-02-03 16:26 OP:dnl  STATUS:               ID:20170203065745     3
 OLDACT:UP  17-02-03 16:24 OP:dnl  STATUS:               ID:20170203065745     3
 OLDACT:UP  17-02-03 16:21 OP:dnl  STATUS:               ID:20170203065745     3
 OLDACT:UP  17-02-03 16:20 OP:dnl  STATUS:               ID:20170203065745     3
 OLDACT:UP  17-02-03 16:17 OP:dnl  STATUS:               ID:20170203065745     3
 OLDACT:UP  17-02-03 16:15 OP:dnl  STATUS:               ID:20170203065745     3
 OLDACT:UP  17-02-03 16:12 OP:dnl  STATUS:               ID:20170203065745     3
 OLDACT:UP  17-02-03 16:11 OP:dnl  STATUS:               ID:20170203065745     3
 OLDACT:UP  17-02-03 16:09 OP:dnl  STATUS:               ID:20170203065745     3
 OLDACT:UP  17-02-03 16:08 OP:dnl  STATUS:               ID:20170203065745     3
 OLDACT:UP  17-02-03 16:08 OP:dnl  STATUS:               ID:20170203065745     3
 OLDACT:UP  17-02-03 16:06 OP:dnl  STATUS:               ID:20170203065745     3
 OLDACT:UP  17-02-03 16:06 OP:dnl  STATUS:               ID:20170203065745     3
 OLDACT:REG 17-02-03 12:43 OP:dnl  STATUS:               ID:20170203065745     3
 2017-02-03-0658-00M.COL___325                                                 6
 STAT SP IPHASW D HRMM SECON CODA AMPLIT PERI AZIMU VELO AIN AR TRES W  DIS CAZ7
 BAR2 EZ EP     C  7 7 58.59                             171   -0.3310 21.2 194 
 BAR2 EZ ES        7 8 13.31                             171   -0.1610 21.2 194 
 BAR2 EZ I         7 8 14.53        14.9 0.24            170           21.2 194 
 BRR  HZ IP     C  7 8  0.62                             151   -0.0910 73.4 300 
 BRR  HN ES        7 8 17.46                             151    0.8010 73.4 300 
 BRR  HZ I         7 8 21.66        17.6 0.12            148           73.4 300 
 PAM  EZ EP        7 8  1.64                             149   -0.0910 78.6  38 
 PAM  EN ES        7 8 18.41                             149   -0.0710 78.6  38 
 PAM  EZ I         7 8 20.09        15.5 0.20            150           78.6  38 
 RUS  HZ EP        7 8  2.67                             143   -0.4010 98.1 177 
 RUS  HN ES        7 8 20.92                             143    0.0510 98.1 177 
 RUS  HZ I         7 8 22.09        10.9 0.23            143           98.1 177 
 PTB  HZ EP   2    7 8  5.89                             130   -0.78 5  148 260 
 PTB  HN ES        7 8 27.00                             130   -0.27 9  148 260 
 PTB  HZ I         7 8 28.69        15.0 0.12            129            148 260 
 TAM  HE ES        7 8 28.46                             129    0.30 9  153 104 
 TAM  HZ I         7 8 29.17         7.5 0.29            131            153 104 
 ZAR  HZ EP   4    7 8 13.87                             121    1.45 0  206 293 
 ZAR  HN ES   2    7 8 37.56                             121    0.05 4  206 293 
 ZAR  HZ I         7 8 45.59        10.6 0.26            120            206 293 
 NOR  HZ EP   3    7 8 16.23                             117    0.73 2  234 235 
 NOR  HN ES        7 8 42.93                             117   -0.06 8  234 235 
 NOR  HZ I         7 8 44.61         6.8 0.18            116            234 235 
 CHI  HZ EP   3    7 8 18.64                             116    1.33 2  247 196 
 CHI  HN ES        7 8 46.74                             116    0.52 8  247 196 
 CHI  HZ I         7 8 50.56         2.3 0.32            116            247 196 
 URE  HZ EP   4    7 8 23.41                             112    2.23 0  286 292 
 URE  HN ES   4    7 8 51.34                             112   -1.77 0  286 292 
 PTGC HZ EP   9    7 8 22.10                             111   -1.37 0  306 159 
 PTGC HN ES        7 8 55.55                             111   -0.26 7  306 159 
 PTGC HZ I         7 8 57.70         3.8 0.26            111            306 159 
 CBOC HZ EP   3    7 8 27.20                             109    0.30 2  334 253 
 CBOC HN ES   2    7 9  3.41                             109    0.12 3  334 253 
 CBOC HZ I         7 9  6.49         2.4 0.26            108            334 253 
 DBB  EZ EP   2    7 8 28.50                             108    0.92 3  341 275 
 DBB  EE ES   2    7 9  3.68                             108   -0.82 3  341 275 
 DBB  EZ I         7 9  5.10         3.3 0.28            108            341 275 
 ORTC HN ES   3    7 9 17.13                             105    1.62 1  394 217 
 ORTC HZ I         7 9 21.73         2.1 0.56            105            394 217 
 SJC  HZ EP   4    7 8 33.81                             105   -2.08 0  412 327 
                                                                                
