 2010  4 3 0551 39.1 L   6.810 -73.009140.6  RSN  6 0.4 2.0LRSN                1
 GAP=211        0.62       3.9    10.1  6.6 -0.1266E+02  0.4972E+01  0.5984E+01E
 Epicentro: CEPITA - SANTANDER                                                 3
 ACTION:UPD 10-08-24 09:57 OP:vdl  STATUS:               ID:20100403055139 L   I
 2010-04-03-0550-16S.COL___098                                                 6
 STAT SP IPHASW D HRMM SECON CODA AMPLIT PERI AZIMU VELO AIN AR TRES W  DIS CAZ7
 BAR2 SZ EP        551 58.58                             167     0.310   31 219 
 BAR2 SZ ES   2    552 13.07                             167    -0.2 5   31 219 
 BRR  HZ EP        552  0.70                             148     0.210   84 293 
 BRR  HE ES   2    552 17.06                             148    -0.1 5   84 293 
 BRR  HZ I         552 21.64        18.3 0.13                            84 293 
 OCA  SZ EP        552  7.05                             128    -0.1 9  162 348 
 OCA  SZ ES   2    552 28.18                             128    -0.8 5  162 348 
 OCA  SZ I         552 31.91        18.7 0.26                           162 348 
 CHI  HZ EP   2    552 17.07                             116     0.0 4  254 198 
 CHI  HN ES   2    552 46.19                             116    -0.6 4  254 198 
 CHI  HZ I         552 53.42         2.8 0.58                           254 198 
 RREF BZ EP        552 26.26                             109    -0.2 7  334 231 
 RREF BN ES   3    553  4.55                             109     1.2 2  334 231 
 RREF BZ I         553 13.26         2.4 0.44                           334 231 
 PRA  HZ EP        552 33.23                             105    -0.2 6  401 211 
 PRA  HE ES   2    553 15.69                             105    -0.1 3  401 211 
 PRA  HZ I         553 20.93         4.2 0.26                           401 211 
                                                                                
