 2011  7 3 0731 35.5 L   7.065 -73.330110.2  RSN  9 0.3 1.7LRSN                1
 GAP= 84        0.60       2.5     3.7  4.8 -0.2056E+01 -0.2116E+01 -0.9001E+00E
 Epicentro: LEBRIJA - SANTANDER                                                3
 ACTION:UPD 12-07-25 13:57 OP:epov STATUS:               ID:20110703073135 L   I
 2011-07-03-0729-10S.COL___140                                                 6
 STAT SP IPHASW D HRMM SECON CODA AMPLIT PERI AZIMU VELO AIN AR TRES W  DIS CAZ7
 GIR2 SZ EP        731 50.52                             171   -0.0510 15.2  84 
 BTL  SZ EP        731 50.64                             170   -0.1210 17.6 157 
 BRR  HZ EP        731 50.91                             158   -0.3410 42.4 276 
 BRR  HN ES        732  3.72                             158    0.2110 42.4 276 
 BRR  HZ I         732  4.61        17.8 0.14                          42.4 276 
 BAR2 SZ EP   1    731 52.43                             152    0.19 7 54.7 163 
 BAR2 SZ ES   2    732  5.13                             152   -0.16 5 54.7 163 
 BAR2 SZ I         732  6.73        10.1 0.30                          54.7 163 
 BRI  SZ EP   1    731 55.50                             137    0.60 7 93.1  39 
 GRA  SZ EP        731 56.42                             132    0.2710  108  33 
 GRA  SZ ES   1    732 12.24                             132    0.00 7  108  33 
 GRA  SZ I         732 14.81        10.8 0.36                           108  33 
 OCA  SZ EP        731 58.07                             127   -0.1710  130   1 
 OCA  SZ ES   1    732 15.60                             127   -0.35 7  130   1 
 OCA  SZ I         732 17.02        14.8 0.48                           130   1 
 RUS  HZ EP   2    731 58.35                             126   -0.59 5  132 168 
 RUS  HN ES   1    732 17.26                             126    0.05 7  132 168 
 HEL  HZ EP   1    732 13.00                             108    0.03 6  262 248 
 HEL  HN ES   2    732 42.57                             108    0.39 4  262 248 
 HEL  HZ I         732 46.88         2.1 0.24                           262 248 
                                                                                
