 2017  2 3 0816 43.3 L   6.784 -73.144146.7  RSN 10 0.4 1.6LRSN                1
 GAP= 99        0.89       3.5     2.9  5.9  0.1467E+00  0.4999E+01  0.4058E+01E
 Epicentro: LOS SANTOS - SANTANDER                                             3
 ACTION:UPD 17-05-24 15:32 OP:jn   STATUS:               ID:20170203081643 L   I
 OLDACT:REG 17-02-03 12:47 OP:dnl  STATUS:               ID:20170203080741     3
 2017-02-03-0808-00M.COL___325                                                 6
 STAT SP IPHASW D HRMM SECON CODA AMPLIT PERI AZIMU VELO AIN AR TRES W  DIS CAZ7
 BAR2 EZ IP     C  817  2.96                             171   -0.1010 21.6 191 
 BAR2 EZ ES        817 18.15                             171   -0.2810 21.6 191 
 BAR2 EZ I         817 20.59        14.5 0.16            169           21.6 191 
 BRR  HZ EP        817  4.91                             152    0.2510 72.3 300 
 BRR  HN ES        817 21.82                             152    0.5410 72.3 300 
 BRR  HZ I         817 25.38         8.4 0.16            151           72.3 300 
 PAM  EZ EP        817  5.92                             151    0.1810 78.6  39 
 PAM  EN ES        817 23.04                             151   -0.1610 78.6  39 
 PAM  EZ I         817 25.11         5.0 0.48            154           78.6  39 
 RUS  HZ EP        817  6.89                             144   -0.1710 98.8 176 
 RUS  HN ES        817 25.75                             144    0.1910 98.8 176 
 RUS  HZ I         817 26.65         3.0 0.30            145           98.8 176 
 PTB  HZ EP        817  9.65                             132   -0.73 9  148 260 
 PTB  HN ES        817 30.68                             132   -0.79 9  148 260 
 PTB  HZ I         817 36.77         6.6 0.60            131            148 260 
 TAM  HN ES        817 32.73                             131    0.10 9  154 104 
 TAM  HZ I         817 35.83         3.1 0.24            134            154 104 
 ZAR  HZ EP   2    817 15.86                             122   -0.09 4  205 293 
 ZAR  HE ES        817 41.59                             122    0.22 9  205 293 
 ZAR  HZ I         817 48.02         6.4 0.32            122            205 293 
 NOR  HZ EP   2    817 19.36                             119    0.32 4  234 235 
 NOR  HN ES        817 47.19                             119    0.31 8  234 235 
 NOR  HZ I         817 55.38         4.4 0.16            119            234 235 
 CHI  HZ EP   2    817 20.75                             117   -0.17 4  247 195 
 CHI  HN ES        817 50.46                             117    0.24 8  247 195 
 CHI  HZ I         817 54.07         2.0 0.32            118            247 195 
 CBOC HZ EP   4    817 31.68                             110    1.42 0  333 252 
 CBOC HN ES        818  7.43                             110    0.57 7  333 252 
 CBOC HZ I         818 15.16         1.1 0.50            110            333 252 
                                                                                
