 2014  9 3 0304 32.0 L   6.816 -73.143143.4  RSN 17 0.4 2.5LRSN                1
 GAP= 71        0.83       2.5     2.9  4.7 -0.1071E+01  0.3398E+01  0.8049E+00E
 Epicentro: LOS SANTOS - SANTANDER                                             3
 ACTION:UPD 14-10-03 23:01 OP:nd   STATUS:               ID:20140903030432 L   I
 OLDACT:UP  14-09-03 14:29 OP:mh   STATUS:               ID:20140903025818     3
 OLDACT:UP  14-09-03 14:29 OP:mh   STATUS:               ID:20140903025818     3
 OLDACT:REG 14-09-03 12:51 OP:mher STATUS:               ID:20140903025818     3
 2014-09-03-0258-18M.COL___266                                                 6
 STAT SP IPHASW D HRMM SECON CODA AMPLIT PERI AZIMU VELO AIN AR TRES W  DIS CAZ7
 BAR2 SZ IP     C  3 4 51.41                             170   -0.0210 25.2 190 
 BAR2 SZ ES        3 5  6.31                             170   -0.2410 25.2 190 
 BAR2 SZ I         3 5 10.50        31.2 0.24            168           25.2 190 
 BRR  HZ EP   1    3 4 53.02                             152    0.12 7 70.6 297 
 BRR  HN ES   1    3 5  9.19                             152    0.02 7 70.6 297 
 BRR  HZ I         3 5 15.00        23.5 0.46            154           70.6 297 
 PAM  SZ EP     C  3 4 54.34                             151    0.4310 75.8  40 
 PAM  SN ES   1    3 5 11.08                             151    0.11 7 75.8  40 
 PAM  SZ I         3 5 13.36        35.6 0.54            151           75.8  40 
 RUS  HZ EP   1    3 4 55.33                             143   -0.36 7  102 176 
 RUS  HN ES   1    3 5 14.11                             143   -0.03 7  102 176 
 RUS  HZ I         3 5 17.04        11.1 0.26            141            102 176 
 PTB  HZ EP   1    3 4 57.99                             131   -0.89 7  148 258 
 PTB  HN ES   1    3 5 19.45                             131   -0.36 7  148 258 
 PTB  HZ I         3 5 26.25        44.4 0.38            132            148 258 
 TAM  HZ EP   1    3 4 59.56                             130    0.00 7  155 106 
 TAM  HZ I         3 5 20.40        21.6 0.21            129            155 106 
 TAM  HN ES   1    3 5 21.26                             130    0.25 7  155 106 
 OCA  HZ EP        3 4 59.89                             129   -0.11 9  158 353 
 OCA  HN ES   1    3 5 22.22                             129    0.41 7  158 353 
 OCA  HZ I         3 5 26.91        24.5 0.46            130            158 353 
 SPBC HZ EP        3 5  0.30                             128   -0.21 9  165 219 
 SPBC HN ES   1    3 5 22.45                             128   -0.27 7  165 219 
 SPBC HZ I         3 5 29.70        32.7 0.52            128            165 219 
 ZAR  HZ EP   1    3 5  3.99                             122   -0.30 6  204 292 
 ZAR  HN ES        3 5 30.11                             122    0.67 9  204 292 
 ZAR  HZ I         3 5 35.34        32.2 0.26            122            204 292 
 NOR  HZ EP   1    3 5  6.90                             118   -0.87 6  236 234 
 NOR  HN ES        3 5 35.47                             118   -0.17 8  236 234 
 NOR  HZ I         3 5 40.78        23.4 0.28            118            236 234 
 SML  HZ EP   1    3 5  7.77                             117   -0.60 6  242 335 
 SML  HN ES   1    3 5 36.08                             117   -0.63 6  242 335 
 SML  HZ I         3 5 39.97      1372.8 0.07                           242 335 
 ROSC BZ EP   1    3 5 11.20                             116    0.98 6  254 211 
 ROSC BN ES   1    3 5 40.62                             116    0.62 6  254 211 
 ROSC BZ I         3 5 49.15        24.2 0.40            116            254 211 
 HEL  HZ EP   1    3 5 12.82                             114    0.60 6  273 255 
 HEL  HN ES   1    3 5 44.13                             114    0.58 6  273 255 
 HEL  HZ I         3 5 50.19        17.1 0.34            114            273 255 
 URE  HZ EP   4    3 5 11.39                             113   -1.56 0  283 292 
 URE  HN ES   4    3 5 42.15                             113   -2.71 0  283 292 
 GUY2CHZ EP   1    3 5 16.01                             112    0.32 5  302 235 
 GUY2CHN ES   4    3 5 52.17                             112    2.44 0  302 235 
 GUY2CHZ I         3 5 56.68        12.1 0.24                           302 235 
 TOL  SN ES   4    3 5 59.19                             109    1.11 0  345 224 
 PRA  HN ES        3 6  7.75                             106    0.23 6  394 209 
 ORTC HZ EP   1    3 5 25.68                             106   -0.39 4  397 216 
 ORTC HN ES   1    3 6  8.74                             106    0.52 4  397 216 
 ORTC HZ I         3 6 14.37         5.6 0.64            106            397 216 
 SJC  HZ EP   4    3 5 25.16                             105   -2.21 0  408 327 
 SJC  HN ES   4    3 6  6.78                             105   -3.74 0  408 327 
 SJC  HZ I         3 6 11.32         5.3 0.39            106            408 327 
                                                                                
