 2013  6 3 0624 22.2 L   6.861 -73.328123.4  RSN  6 0.4 1.7LRSN                1
 GAP=151        0.89       4.0     5.0  8.1  0.4942E+01  0.7778E+01  0.1209E+01E
 Epicentro: BETULIA - SANTANDER                                                3
 ACTION:UPD 14-01-08 09:52 OP:ep   STATUS:               ID:20130603062422 L   I
 2013-06-03-0620-00M.COL___257                                                 6
 STAT SP IPHASW D HRMM SECON CODA AMPLIT PERI AZIMU VELO AIN AR TRES W  DIS CAZ7
 BAR2 SZ EP   1    624 39.81                             164    0.38 7 33.8 152 
 BAR2 SZ ES   1    624 52.36                             164   -0.53 7 33.8 152 
 BAR2 SZ I         624 54.03        19.4 0.24            163           33.8 152 
 BRR  HZ EP   1    624 40.13                             156    0.36 7 50.4 303 
 BRR  HN ES        624 53.76                             156    0.2610 50.4 303 
 BRR  HN I         624 59.87        16.4 0.18            161           50.4 303 
 RUS  HZ EP   1    624 44.90                             136    0.28 7  110 166 
 RUS  HN ES   1    625  2.41                             136    0.28 7  110 166 
 RUS  HZ I         625 15.08         1.2 0.44            138            110 166 
 PTB  HZ EP        624 45.07                             130   -0.6310  130 254 
 PTB  HN ES   1    625  3.72                             130   -0.32 7  130 254 
 PTB  HN I         625  6.67        11.0 0.24            135            130 254 
 OCA  HN ES        625  7.96                             126   -0.29 9  152   0 
 OCA  HN I         625 15.30        19.5 0.20            129            152   0 
 ZAR  HN ES        625 13.88                             120    0.40 9  183 293 
 ZAR  HN I         625 18.01        10.5 0.22            124            183 293 
 SML  HZ EP   4    624 56.27                             114    0.19 0  230 339 
 SML  HN ES   4    625 23.04                             114    0.52 0  230 339 
                                                                                
