 2017  5 3 0525 23.1 L   6.778 -73.185147.7  RSN  4 0.3 1.1LRSN                1
 GAP=133        0.78       4.3     4.3  7.8 -0.2223E+01 -0.2834E+01  0.4389E+01E
 Epicentro: LOS SANTOS - SANTANDER                                             3
 ACTION:UPD 17-06-16 13:32 OP:jn   STATUS:               ID:20170503052523 L   I
 OLDACT:UP  17-05-03 17:15 OP:edw  STATUS:               ID:20170503051742     3
 OLDACT:REG 17-05-03 11:52 OP:edw  STATUS:               ID:20170503051742     3
 2017-05-03-0518-00M.COL___371                                                 6
 STAT SP IPHASW D HRMM SECON CODA AMPLIT PERI AZIMU VELO AIN AR TRES W  DIS CAZ7
 BRR  HZ EP     C  525 44.51                             154    0.2110 68.6 302 
 BRR  HN ES        526  1.30                             154    0.4510 68.6 302 
 PAM  EZ EP     D  525 45.62                             150   -0.1610 82.1  41 
 PAM  EN ES        526  3.25                             150   -0.2510 82.1  41 
 PAM  EZ I         526  4.85         2.2 0.56            150           82.1  41 
 RUS  HZ EP        525 47.06                             145    0.1810 98.6 173 
 RUS  HN ES        526  5.44                             145   -0.0010 98.6 173 
 RUS  HZ I         526  6.29         1.8 0.30            146           98.6 173 
 PTB  HN ES        526 10.11                             133   -0.50 9  143 259 
                                                                                
