 2014  3 3 0714  1.0 L   6.751 -73.192151.5  RSN  4 0.1 1.2LRSN                1
 GAP=196        0.38       2.3     2.8  3.6  0.2236E+01  0.1448E+01 -0.2318E+01E
 Epicentro: VILLANUEVA - SANTANDER                                             3
 ACTION:UPD 14-04-09 23:14 OP:nd   STATUS:               ID:20140303071401 L   I
 OLDACT:REG 14-03-03 09:16 OP:stll STATUS:               ID:20140303070814     3
 2014-03-03-0708-14M.COL___232                                                 6
 STAT SP IPHASW D HRMM SECON CODA AMPLIT PERI AZIMU VELO AIN AR TRES W  DIS CAZ7
 BAR2 SZ EP        714 21.06                             173   -0.1710 17.6 176 
 BAR2 SZ ES        714 37.08                             173    0.0810 17.6 176 
 BAR2 SZ I         714 37.50        10.4 0.24            175           17.6 176 
 RUS  HZ EP        714 24.97                             146   -0.0210 95.7 173 
 RUS  HN ES        714 43.72                             146    0.0310 95.7 173 
 RUS  HZ I         714 45.29         1.3 0.30            148           95.7 173 
 PTB  HZ EP        714 28.10                             135    0.18 9  142 261 
 PTB  HN ES        714 48.80                             135   -0.11 9  142 261 
 PTB  HZ I         714 51.20         1.4 0.40            135            142 261 
 SML  HE ES        715  7.35                             118    0.02 8  247 337 
 SML  HZ I         715 10.88         1.4 0.10            119            247 337 
                                                                                
