 2016  9 3 0527 29.3 L   6.798 -73.126141.8  RSN 13 0.5 2.0LRSN                1
 GAP= 72        1.11       3.4     3.1  5.9 -0.1659E+01  0.4026E+01  0.1881E+01E
 Epicentro: LOS SANTOS - SANTANDER                                             3
 ACTION:UPD 17-08-17 21:06 OP:lp   STATUS:               ID:20160903052729 L   I
 OLDACT:UP  16-09-03 15:32 OP:drio STATUS:               ID:20160903051740     3
 OLDACT:UP  16-09-03 15:32 OP:drio STATUS:               ID:20160903051740     3
 OLDACT:REG 16-09-03 12:48 OP:drio STATUS:               ID:20160903051740     3
 2016-09-03-0518-00M.COL___349                                                 6
 STAT SP IPHASW D HRMM SECON CODA AMPLIT PERI AZIMU VELO AIN AR TRES W  DIS CAZ7
 BAR2 EZ EP        527 48.53                             170    0.0710 23.6 195 
 BAR2 EZ ES        528  3.27                             170   -0.1310 23.6 195 
 BAR2 EZ I         528  4.68        32.6 0.20            169           23.6 195 
 BRR  HZ EP     C  527 50.36                             151    0.2210 73.2 298 
 BRR  HN ES        528  7.12                             151    0.7310 73.2 298 
 BRR  HZ I         528  7.99        16.9 0.26            150           73.2 298 
 PAM  EZ EP        527 51.42                             150    0.4010 76.2  38 
 PAM  EE ES        528  8.35                             150    0.3910 76.2  38 
 PAM  EZ I         528 10.69        18.9 0.46            154           76.2  38 
 RUS  HZ EP        527 52.59                             143   -0.0510  100 177 
 RUS  HE ES        528 10.90                             143    0.0610  100 177 
 RUS  HZ I         528 13.19         6.8 0.20            144            100 177 
 PTB  HZ EP   4    527 54.83                             131   -1.31 0  150 259 
 PTB  HE ES        528 16.69                             131   -0.38 9  150 259 
 PTB  HZ I         528 22.00        14.4 0.28            131            150 259 
 TAM  HZ EP        527 56.99                             130    0.52 9  153 105 
 TAM  HN ES        528 16.59                             130   -1.06 9  153 105 
 OCA  HZ EP        527 57.54                             129    0.19 9  161 352 
 OCA  HE ES        528 18.41                             129   -0.81 9  161 352 
 SPBC HZ EP        527 57.60                             128   -0.01 9  164 220 
 SPBC HN ES        528 19.80                             128    0.10 9  164 220 
 SPBC HZ I         528 25.79        20.1 0.50            128            164 220 
 ZAR  HZ EP   4    528  2.90                             121    1.20 0  206 292 
 ZAR  HE ES        528 26.59                             121   -0.39 8  206 292 
 ZAR  HZ I         528 33.19        11.9 0.48            122            206 292 
 NOR  HZ EP        528  5.26                             117    0.28 8  236 235 
 NOR  HE ES        528 32.55                             117   -0.26 8  236 235 
 NOR  HZ I         528 35.47        11.9 0.22            118            236 235 
 HEL  HZ EP        528  8.85                             114   -0.69 8  274 256 
 HEL  HN ES        528 40.53                             114   -0.40 8  274 256 
 HEL  HZ I         528 46.84         6.0 0.38            114            274 256 
 GUY2CHZ EP   4    528 13.95                             111    1.03 0  303 235 
 GUY2CHN ES        528 47.33                             111    0.40 7  303 235 
 GUY2CHZ I         528 54.93         4.5 0.40                           303 235 
 CBOC HZ EP        528 16.78                             109    0.50 7  336 252 
 CBOC HN ES   4    528 54.93                             109    2.00 0  336 252 
 CBOC HZ I         528 58.88         1.8 0.42            110            336 252 
                                                                                
