 2011 11 3 0511 44.0 L   6.762 -73.110142.4  RSN  6 0.2 1.7LRSN                1
 GAP=143        0.39       2.2     3.3  3.3  0.4409E+00 -0.1488E+01 -0.5986E+00E
 Epicentro: LOS SANTOS - SANTANDER                                             3
 ACTION:UPD 12-07-13 16:07 OP:ep   STATUS:               ID:20111103051143 L   I
 2011-11-03-0510-10S.COL___176                                                 6
 STAT SP IPHASW D HRMM SECON CODA AMPLIT PERI AZIMU VELO AIN AR TRES W  DIS CAZ7
 BAR2 SZ EP        512  3.01                             171   -0.1110 20.4 203 
 BAR2 SZ ES   1    512 17.87                             171   -0.19 7 20.4 203 
 BAR2 SZ I         512 20.83        12.1 0.35                          20.4 203 
 BRR  HZ EP        512  4.99                             150   -0.0710 76.7 300 
 BRR  HE ES        512 21.69                             150    0.1710 76.7 300 
 BRR  HZ I         512 24.58        11.0 0.25                          76.7 300 
 PAM  SZ EP        512  6.06                             150    0.2010 78.3  35 
 PAM  SN ES   1    512 22.93                             150   -0.02 7 78.3  35 
 RUS  HZ EP   1    512  7.16                             144    0.11 7 96.2 178 
 RUS  HN ES   1    512 25.06                             144   -0.01 7 96.2 178 
 RUS  HZ I         512 27.35         6.8 0.26                          96.2 178 
 OCA  SZ EP   1    512 12.44                             128   -0.01 7  165 352 
 OCA  SZ ES   2    512 34.20                             128   -0.48 5  165 352 
 OCA  SZ I         512 37.56         7.4 0.39                           165 352 
 PRA  HZ EP   2    512 36.89                             106   -0.27 3  390 210 
                                                                                
