 2015  5 3 0933 28.2 L   6.811 -73.149139.6  RSN  8 0.5 1.8LRSN                1
 GAP=103        1.19       4.5     5.5  7.2  0.6877E+01  0.2529E+01 -0.4589E+01E
 Epicentro: LOS SANTOS - SANTANDER                                             3
 ACTION:UPD 15-09-10 22:01 OP:cam  STATUS:               ID:20150503093328 L   I
 OLDACT:UP  15-05-07 16:23 OP:cam  STATUS:               ID:20150503093328 L   3
 OLDACT:UP  15-05-07 06:55 OP:AK   STATUS:               ID:20150503093328 L   3
 OLDACT:REG 15-05-03 14:03 OP:stll STATUS:               ID:20150503092741     3
 2015-05-03-0927-41M.COL___273                                                 6
 STAT SP IPHASW D HRMM SECON CODA AMPLIT PERI AZIMU VELO AIN AR TRES W  DIS CAZ7
 BAR2 EZ EP        933 47.22                             170    0.1010 24.4 189 
 BAR2 EZ ES        934  0.90                             170   -0.9810 24.4 189 
 BAR2 EZ I         934  3.23        11.7 0.16            172           24.4 189 
 BRR  HZ EP        933 48.99                             151    0.3510 70.3 298 
 BRR  HN ES        934  5.41                             151    0.8210 70.3 298 
 PAM  SZ EP        933 50.11                             150    0.3810 76.7  40 
 PAM  SN ES        934  6.56                             150    0.0410 76.7  40 
 PAM  SZ I         934  9.03         7.4 0.52            150           76.7  40 
 RUS  HZ EP        933 51.31                             142   -0.1310  102 176 
 RUS  HN ES        934  9.53                             142   -0.0410  102 176 
 TAM  HZ EP        933 55.49                             129    0.03 9  156 105 
 TAM  HZ I         933 55.82        10.0 0.38            131            156 105 
 OCA  HN ES        934 17.68                             128    0.13 9  159 353 
 ZAR  HZ EP        934  0.55                             121    0.37 9  203 292 
 ZAR  HN ES        934 24.88                             121   -0.24 9  203 292 
 ZAR  HZ I         934 30.90         5.8 0.64            121            203 292 
 SML  HZ EP        934  3.49                             116   -0.87 8  242 335 
 SML  HN ES   1    934 31.92                             116   -0.64 6  242 335 
 SML  HZ I         934 37.94         6.0 0.10            116            242 335 
                                                                                
