 2015 11 3 0606 32.1 L   6.780 -73.111144.3  RSN 13 0.5 1.9LRSN                1
 GAP=142        1.04       3.5     4.0  5.6 -0.8963E+00  0.7494E+01  0.5372E+01E
 Epicentro: LOS SANTOS - SANTANDER                                             3
 ACTION:UPD 15-12-28 16:08 OP:cam  STATUS:               ID:20151103060632 L   I
 OLDACT:UP  15-11-19 06:49 OP:CARA STATUS:               ID:20151103060632 L   3
 OLDACT:REG 15-11-03 14:04 OP:cara STATUS:               ID:20151103055749     3
 2015-11-03-0557-49M.COL___310                                                 6
 STAT SP IPHASW D HRMM SECON CODA AMPLIT PERI AZIMU VELO AIN AR TRES W  DIS CAZ7
 BAR2 EZ EP        6 6 51.20                             171   -0.3310 22.3 201 
 BAR2 EZ ES        6 7  6.36                             171   -0.3310 22.3 201 
 BAR2 EZ I         6 7  7.59        15.5 0.22            169           22.3 201 
 BRR  HZ EP        6 6 53.14                             151   -0.2010 75.6 299 
 BRR  HN ES        6 7 10.36                             151    0.4510 75.6 299 
 BRR  HZ I         6 7 11.30         9.3 0.20            148           75.6 299 
 PAM  EZ IP     D  6 6 54.20                             151    0.0810 76.7  36 
 PAM  EN ES        6 7 11.35                             151    0.0610 76.7  36 
 PAM  EZ I         6 7 13.65        11.4 0.62            153           76.7  36 
 RUS  HZ EP        6 6 55.30                             144   -0.2310 98.2 178 
 RUS  HN ES        6 7 13.95                             144    0.1410 98.2 178 
 RUS  HZ I         6 7 15.24         7.9 0.26            145           98.2 178 
 SPBC HZ IP     D  6 7  0.40                             129   -0.16 9  164 221 
 SPBC HE ES        6 7 22.57                             129   -0.19 9  164 221 
 SPBC HZ I         6 7 24.69        13.2 0.22            128            164 221 
 ZAR  HZ EP        6 7  5.96                             121    1.06 8  208 292 
 ZAR  HN ES        6 7 30.65                             121    0.17 8  208 292 
 ZAR  HZ I         6 7 35.55        10.4 0.50            120            208 292 
 NOR  HZ EP        6 7  7.65                             118   -0.29 8  237 235 
 NOR  HE ES        6 7 35.85                             118   -0.06 8  237 235 
 NOR  HZ I         6 7 41.67         9.0 0.20            117            237 235 
 SML  HZ EP   9    6 7  7.78                             117   -1.25 0  247 335 
 SML  HE ES        6 7 36.66                             117    0.07 8  247 335 
 SML  HZ I         6 7 39.16         8.6 0.10            116            247 335 
 CHI  HZ EP        6 7  9.55                             117   -0.05 8  248 196 
 CHI  HN ES        6 7 39.61                             117    0.76 8  248 196 
 CHI  HZ I         6 7 44.70         3.3 0.24            117            248 196 
 HEL  HZ EP        6 7 12.29                             114   -0.30 8  275 256 
 HEL  HN ES        6 7 42.99                             114   -1.18 8  275 256 
 HEL  HZ I         6 7 50.22         3.9 0.26            113            275 256 
 GUY2CHZ EP        6 7 15.14                             112   -0.71 7  303 236 
 GUY2CHE ES        6 7 50.71                             112    0.73 7  303 236 
 GUY2CHZ I         6 7 57.97         4.6 0.36                           303 236 
 MON  HZ EP   9    6 7 19.44                             108   -2.10 0  358 308 
 MON  HN ES        6 7 57.67                             108   -0.34 6  358 308 
 MON  HZ I         6 8 11.98         1.7 0.56            108            358 308 
 ORTC HZ EP        6 7 26.51                             106    0.48 6  396 217 
 ORTC HN ES        6 8  8.75                             106    0.65 6  396 217 
 ORTC HZ I         6 8 15.41         2.4 0.22            106            396 217 
                                                                                
