 2011 10 3 0334 16.8 L   6.792 -73.098138.1  RSN  5 0.3 1.4LRSN                1
 GAP=188        0.59       3.0     5.8  6.1  0.3794E+00  0.9651E+00 -0.2892E+01E
 Epicentro: LOS SANTOS - SANTANDER                                             3
 ACTION:UPD 12-07-13 16:01 OP:ep   STATUS:               ID:20111003033416 L   I
 2011-10-03-0332-26S.COL___168                                                 6
 STAT SP IPHASW D HRMM SECON CODA AMPLIT PERI AZIMU VELO AIN AR TRES W  DIS CAZ7
 BAR2 SZ EP   1    334 35.34                             170   -0.16 7 24.0 203 
 BAR2 SZ ES   1    334 49.75                             170   -0.36 7 24.0 203 
 BAR2 SZ I         334 53.75         6.7 0.62                          24.0 203 
 BRR  HZ EP   1    334 37.52                             149    0.11 7 76.2 297 
 BRR  HN ES   1    334 53.85                             149    0.35 7 76.2 297 
 RUS  HZ EP   1    334 40.17                             142    0.47 7 99.5 179 
 RUS  HN ES   1    334 57.60                             142    0.02 7 99.5 179 
 RUS  HZ I         334 59.03         2.3 0.28                          99.5 179 
 OCA  SZ EP   1    334 44.29                             127   -0.37 7  162 351 
 OCA  SZ ES   1    335  6.47                             127    0.07 7  162 351 
 OCA  SZ I         335  9.46         3.9 0.32                           162 351 
 NOR  SN ES   1    335 20.06                             116   -0.28 6  238 235 
                                                                                
