 2014  6 3 0717 56.7 L   6.761 -73.097148.6  RSN  5 0.4 1.3LRSN                1
 GAP=145        0.97       6.1     6.0  8.5 -0.1840E+02  0.1015E+02  0.1584E+01E
 Epicentro: LOS SANTOS - SANTANDER                                             3
 ACTION:UPD 14-07-01 22:50 OP:nd   STATUS:               ID:20140603071756 L   I
 OLDACT:REG 14-06-03 13:10 OP:fm   STATUS:               ID:20140603070810     3
 2014-06-03-0708-10M.COL___247                                                 6
 STAT SP IPHASW D HRMM SECON CODA AMPLIT PERI AZIMU VELO AIN AR TRES W  DIS CAZ7
 BAR2 SZ EP        718 16.72                             172    0.1010 20.9 207 
 BAR2 SZ ES   1    718 32.48                             172    0.32 7 20.9 207 
 BAR2 SZ I         718 33.04         5.8 0.24            176           20.9 207 
 PAM  SZ EP        718 19.46                             151    0.2310 77.6  34 
 PAM  SE ES        718 36.52                             151   -0.2810 77.6  34 
 PAM  SZ I         718 49.93         3.1 0.38            152           77.6  34 
 RUS  HZ EP        718 20.77                             146    0.3610 96.0 179 
 RUS  HN ES   1    718 38.40                             146   -0.50 7 96.0 179 
 RUS  HZ I         718 40.26         1.6 0.18            154           96.0 179 
 PTB  HZ EP        718 23.46                             132   -0.85 9  152 261 
 PTB  HN ES        718 46.23                             132    0.38 9  152 261 
 PTB  HZ I         718 48.71         3.3 0.10            137            152 261 
 SPBC HZ EP   1    718 25.85                             130    0.42 7  163 221 
 SPBC HN ES        718 47.72                             130   -0.12 9  163 221 
 SPBC HZ I         718 53.94         3.9 0.26            136            163 221 
                                                                                
