 2013  9 3 0422 51.2 L   6.822 -73.147147.2  RSN 15 0.4 3.0LRSN 3.2WRSN        1
 SPEC AVERAGE  MO 13.9 ST 44.9 OM  2.3 f0 6.49 R0.2951 AL 0.00 WI 45.6 MW  3.2 3
 SPEC SD       MO  0.2 ST 51.2 OM  0.3 f0 2.73 R0.1434 AL      WI      MW  0.1 3
 GAP= 70        0.91       2.4     3.1  4.4 -0.9339E+00  0.2817E+01  0.8644E+00E
 Epicentro: LOS SANTOS - SANTANDER                                             3
 SPEC PRA HH N MO 13.8 ST 20.3 OM  1.8 f0 6.41 R0.2424 AL 0.00 WI 55.2 MW  3.2 3
 SPEC PRA HH N T 42425 K 0.000 GD  420 VS 4.20 DE 3.20 Q0300.0 QA 0.60 VS 4.20 3
 SPEC COD HH N MO 13.6 ST 10.6 OM  1.6 f0 6.24 R0.2490 AL 0.00 WI 47.6 MW  3.0 3
 SPEC COD HH N T 42414 K 0.000 GD  376 VS 4.20 DE 3.20 Q0300.0 QA 0.60 VS 4.20 3
 SPEC HEL HH N MO 13.9 ST 11.4 OM  2.0 f0 5.02 R0.3096 AL 0.00 WI 49.9 MW  3.2 3
 SPEC HEL HH N T 424 1 K 0.000 GD  309 VS 4.20 DE 3.20 Q0300.0 QA 0.60 VS 4.20 3
 SPEC CHI HH N MO 14.1 ST  4.7 OM  2.2 f0 3.28 R0.4738 AL 0.00 WI 69.9 MW  3.3 3
 SPEC CHI HH N T 42356 K 0.000 GD  290 VS 4.20 DE 3.20 Q0300.0 QA 0.60 VS 4.20 3
 SPEC NOR HH E MO 14.0 ST128.3 OM  2.2 f0 10.0 R0.1554 AL 0.00 WI 40.5 MW  3.3 3
 SPEC NOR HH E T 42353 K 0.000 GD  278 VS 4.20 DE 3.20 Q0300.0 QA 0.60 VS 4.20 3
 SPEC SPBCHH E MO 13.9 ST102.0 OM  2.2 f0 10.0 R0.1554 AL 0.00 WI 49.9 MW  3.2 3
 SPEC SPBCHH E T 42338 K 0.000 GD  221 VS 4.20 DE 3.20 Q0300.0 QA 0.60 VS 4.20 3
 SPEC TAM HH N MO 13.9 ST  1.8 OM  2.2 f0 2.62 R0.5931 AL 0.00 WI 39.3 MW  3.2 3
 SPEC TAM HH N T 42338 K 0.000 GD  214 VS 4.20 DE 3.20 Q0300.0 QA 0.60 VS 4.20 3
 SPEC RUS HH N MO 13.6 ST  5.9 OM  2.0 f0 4.83 R0.3217 AL 0.00 WI 36.4 MW  3.0 3
 SPEC RUS HH N T 42334 K 0.000 GD  179 VS 4.20 DE 3.20 Q0300.0 QA 0.60 VS 4.20 3
 SPEC BRR HH N MO 14.0 ST119.1 OM  2.4 f0 10.0 R0.1554 AL 0.00 WI 21.4 MW  3.3 3
 SPEC BRR HH N T 42329 K 0.000 GD  162 VS 4.20 DE 3.20 Q0300.0 QA 0.60 VS 4.20 3
 ACTION:UPD 13-10-22 09:19 OP:ep   STATUS:               ID:20130903042251 L   I
 OLDACT:UP  13-09-03 09:55 OP:cam  STATUS:               ID:20130903041959     3
 OLDACT:UP  13-09-03 09:54 OP:cam  STATUS:               ID:20130903041959     3
 OLDACT:REG 13-09-03 08:06 OP:cam  STATUS:               ID:20130903041959     3
 2013-09-03-0419-59M.COL___269                                                 6
 STAT SP IPHASW D HRMM SECON CODA AMPLIT PERI AZIMU VELO AIN AR TRES W  DIS CAZ7
 BAR2 SZ IP     D  423 10.96                             170   -0.0610 25.7 189 
 BAR2 SZ ES        423 26.08                             170   -0.4210 25.7 189 
 BAR2 SZ I         423 27.67       217.8 0.36            168           25.7 189 
 BRR  HZ EP        423 12.81                             153    0.4110 69.9 297 
 BRR  HN ES        423 29.82                             153    0.8610 69.9 297 
 BRR  HZ I         423 34.44       199.7 0.14            150           69.9 297 
 PAM  SZ IP     C  423 13.76                             152    0.3310 75.7  41 
 PAM  SN ES        423 30.74                             152   -0.0610 75.7  41 
 PAM  SE I         423 32.53       365.8 0.58            155           75.7  41 
 RUS  HZ EP     C  423 14.97                             144   -0.2610  103 176 
 RUS  HN ES        423 33.59                             144   -0.4110  103 176 
 RUS  HZ I         423 35.27        89.4 0.30            145            103 176 
 TAM  HZ IP     C  423 19.33                             131    0.30 9  156 106 
 TAM  HZ I         423 19.35       184.6 0.22            135            156 106 
 TAM  HN ES        423 41.01                             131    0.24 9  156 106 
 OCA  HZ EP        423 19.13                             130   -0.23 9  158 353 
 OCA  HN ES        423 40.91                             130   -0.45 9  158 353 
 OCA  HZ I         423 44.14       124.5 0.24            131            158 353 
 SPBC HZ EP        423 19.96                             129    0.02 9  165 218 
 SPBC HE ES   1    423 42.37                             129   -0.01 7  165 218 
 SPBC HZ I         423 46.83       103.7 0.24            129            165 218 
 ZAR  HZ EP   1    423 23.79                             123    0.20 6  203 292 
 ZAR  HN ES   1    423 49.65                             123    0.76 6  203 292 
 ZAR  HZ I         423 55.48       186.1 0.28            122            203 292 
 NOR  HZ EP        423 27.34                             119    0.23 8  236 234 
 NOR  HE ES        423 54.89                             119   -0.26 8  236 234 
 NOR  HZ I         424  1.14        78.9 0.20            119            236 234 
 CHI  HZ EP        423 29.37                             117    0.18 8  251 195 
 CHI  HN ES        423 58.41                             117   -0.44 8  251 195 
 CHI  HZ I         424  8.05        31.9 0.58            118            251 195 
 HEL  HZ EP   4    423 33.52                             115    2.03 0  272 255 
 HEL  HN ES   2    424  2.23                             115   -0.72 4  272 255 
 HEL  HZ I         424  9.02        63.9 0.34            115            272 255 
 GUY2CHZ EP   4    423 36.66                             112    1.68 0  302 234 
 COD  HZ EP        423 38.85                             109   -0.47 6  346 355 
 COD  HN ES   1    424 16.36                             109   -0.52 5  346 355 
 COD  HZ I         424 22.78         9.5 0.26            110            346 355 
 PRA  HZ EP        423 45.18                             107    0.22 6  394 209 
 PRA  HN ES        424 26.92                             107   -0.01 6  394 209 
 PRA  HZ I         424 30.94        28.1 0.20            107            394 209 
 ORTC HZ EP   1    423 45.89                             106    0.55 4  397 216 
 SJC  HZ EP   1    423 45.10                             106   -1.42 4  407 327 
 SJC  HN ES   4    424 26.51                             106   -3.20 0  407 327 
 SJC  HZ I         424 30.63        21.3 0.46            107            407 327 
                                                                                
