 2017 12 3 0338 39.0 L   6.830 -73.152143.7  RSN 19 0.7 2.1LRSN                1
 GAP= 65        1.48       3.2     3.8  6.9 -0.3666E+00  0.8136E+01  0.1297E+01E
 Epicentro: LOS SANTOS - SANTANDER                                             3
 ACTION:UPD 18-01-04 13:16 OP:rebc STATUS:               ID:20171203033839 L   I
 OLDACT:REG 17-12-03 13:08 OP:dhb  STATUS:               ID:20171203033741     3
 2017-12-03-0338-00M.COL___492                                                 6
 STAT SP IPHASW D HRMM SECON CODA AMPLIT PERI AZIMU VELO AIN AR TRES W  DIS CAZ7
 BAR2 EZ IP     C  338 58.24                             169   -0.1810 26.5 187 
 BAR2 EZ ES        339 13.57                             169   -0.0110 26.5 187 
 BAR2 EZ I         339 16.02        41.1 0.32            168           26.5 187 
 PAM  EZ EP        339  1.07                             151    0.2310 75.3  42 
 PAM  EE ES        339 18.22                             151    0.3310 75.3  42 
 PAM  EZ I         339 21.32         9.9 0.30            156           75.3  42 
 RUS  HZ EP        339  2.15                             142   -0.6110  104 176 
 RUS  HE ES        339 20.94                             142   -0.3810  104 176 
 RUS  HZ I         339 22.31        21.4 0.24            144            104 176 
 PTB  HZ EP        339  5.39                             131   -0.38 9  148 258 
 PTB  HN ES        339 26.70                             131    0.04 9  148 258 
 PTB  HZ I         339 32.28         7.3 0.28            132            148 258 
 OCA  HZ EP        339  6.70                             130   -0.10 9  157 353 
 OCA  HE ES        339 28.87                             130    0.36 9  157 353 
 OCA  HZ I         339 32.18        43.8 0.24            133            157 353 
 TAM  HZ EP        339  6.55                             130   -0.08 9  157 106 
 TAM  HE ES        339 28.28                             130    0.08 9  157 106 
 TAM  HZ I         339 30.75         7.9 0.30            135            157 106 
 SPBC HZ EP        339  7.14                             128   -0.37 9  165 218 
 SPBC HE ES        339 29.30                             128   -0.48 9  165 218 
 SPBC HZ I         339 36.97        21.3 0.26            129            165 218 
 YPLC HZ IP     C  339  8.66                             126   -0.27 9  180 152 
 YPLC HN ES        339 32.86                             126    0.56 9  180 152 
 YPLC HZ I         339 33.69        10.5 0.24            129            180 152 
 ZAR  HZ EP        339 11.22                             122    0.14 9  202 291 
 ZAR  HE ES        339 36.27                             122    0.14 9  202 291 
 ZAR  HZ I         339 41.43        13.1 0.34            124            202 291 
 NOR  HZ EP        339 14.64                             118   -0.08 8  236 234 
 NOR  HE ES        339 42.07                             118   -0.54 8  236 234 
 NOR  HZ I         339 50.03         7.8 0.26            119            236 234 
 CHI  HZ EP        339 16.49                             116   -0.39 8  252 195 
 CHI  HE ES        339 45.57                             116   -0.88 8  252 195 
 CHI  HZ I         339 51.89         5.6 0.32            118            252 195 
 ROSC BZ EP        339 18.47                             116    1.22 8  255 211 
 ROSC BN ES        339 48.89                             116    1.79 8  255 211 
 ROSC BZ I         339 52.87        18.3 0.45            118            255 211 
 URE  HZ EP        339 19.28                             113   -0.45 7  282 291 
 URE  HE ES        339 49.52                             113   -2.00 7  282 291 
 URE  HZ I         340  1.98         7.0 0.38            115            282 291 
 DRL03HZ EP        339 20.27                             113    0.17 7  286 353 
 DRL03HE ES        339 52.90                             113    0.72 7  286 353 
 GUY2CHZ EP        339 23.60                             112    0.97 7  303 234 
 GUY2CHE ES   4    340  0.39                             112    3.70 0  303 234 
 GUY2CHZ I         340  4.44         6.3 0.30                           303 234 
 PTGC HZ EP   2    339 21.42                             111   -1.69 3  312 159 
 PTGC HE ES   3    339 54.82                             111   -2.72 2  312 159 
 PTGC HZ I         339 59.71         6.8 0.38            113            312 159 
 CBOC HZ EP        339 26.49                             109    0.65 7  334 252 
 CBOC HE ES        340  3.29                             109    0.89 7  334 252 
 CBOC HZ I         340 13.07         1.5 0.28            111            334 252 
 PRA  HZ EP        339 31.92                             106   -0.79 6  395 209 
 PRA  HE ES        340 14.69                             106    0.06 6  395 209 
 PRA  HZ I         340 20.47         9.6 0.38            108            395 209 
 ORTC HZ EP        339 32.93                             106   -0.15 6  398 216 
 ORTC HE ES        340 17.05                             106    1.76 6  398 216 
 ORTC HZ I         340 19.53         2.9 0.22            108            398 216 
                                                                                
