 2016  7 3 0506 43.7 L   6.766 -73.149152.1  RSN  6 0.4 1.4LRSN                1
 GAP=234        0.97       5.4     5.8  6.6  0.1261E+02  0.5829E+01 -0.1541E+01E
 Epicentro: LOS SANTOS - SANTANDER                                             3
 ACTION:UPD 17-03-29 16:46 OP:lp   STATUS:               ID:20160703050643 L   I
 OLDACT:DUP 16-07-03 17:41 OP:cara STATUS:               ID:20160703045748d    3
 OLDACT:REG 16-07-03 12:55 OP:edw  STATUS:               ID:20160703045747     3
 2016-07-03-0457-47M.COL___325                                                 6
 STAT SP IPHASW D HRMM SECON CODA AMPLIT PERI AZIMU VELO AIN AR TRES W  DIS CAZ7
 BAR2 EZ EP        5 7  3.83                             172   -0.1710 19.6 191 
 BAR2 EZ ES        5 7 19.34                             172   -0.5110 19.6 191 
 BAR2 EZ I         5 7 20.48         4.4 0.42            171           19.6 191 
 BRR  HZ EP        5 7  5.71                             153    0.1110 72.8 301 
 BRR  HN ES        5 7 23.42                             153    0.7310 72.8 301 
 BRR  HZ I         5 7 27.81         3.2 0.14            151           72.8 301 
 RUS  HZ EP        5 7  7.98                             146    0.1810 96.9 176 
 RUS  HN ES        5 7 26.59                             146   -0.0210 96.9 176 
 RUS  HZ I         5 7 27.31         2.2 0.28            149           96.9 176 
 PTB  HZ EP        5 7 10.71                             134   -0.36 9  147 260 
 PTB  HN ES        5 7 31.83                             134   -0.61 9  147 260 
 PTB  HZ I         5 7 36.42         3.2 0.46            133            147 260 
 SPBC HZ EP        5 7 12.60                             131    0.22 9  160 220 
 SPBC HE ES        5 7 35.24                             131    0.48 9  160 220 
 SPBC HZ I         5 7 37.12         3.8 0.32            132            160 220 
 ZAR  HZ EP        5 7 16.57                             124   -0.08 9  205 293 
 ZAR  HN ES        5 7 42.38                             124    0.01 9  205 293 
 ZAR  HZ I         5 7 47.47         3.9 0.62            124            205 293 
                                                                                
