 2010  6 3 0517 22.8 L   6.823 -73.109141.7  RSN  9 0.4 2.2LRSN                1
 GAP=148        0.73       4.4     8.0  5.2 -0.1945E+02 -0.2605E+01  0.1302E+01E
 Epicentro: LOS SANTOS - SANTANDER                                             3
 ACTION:UP  10-08-24 10:08 OP:vdl  STATUS:               ID:20100603051722 L   I
 2010-06-03-0515-06S.COL___109                                                 6
 STAT SP IPHASW D HRMM SECON CODA AMPLIT PERI AZIMU VELO SNR AR TRES W  DIS CAZ7
 BAR2 SZ IP        517 41.81                             169    -0.210   27 198 
 BAR2 SZ ES   1    517 56.65                             169    -0.4 7   27 198 
 GIR2 SZ EP   1    517 42.00                             167     0.0 7   30 342 
 GIR2 SZ ES   1    517 56.94                             167     0.0 7   30 342 
 GUE  SZ EP   1    517 46.84                             139     0.0 7  113  10 
 GUE  SZ ES   2    518  6.08                             139     0.4 5  113  10 
 GRA  SZ IP        517 47.78                             137     0.410  122  16 
 GRA  SZ ES   1    518  6.71                             137     0.1 7  122  16 
 OCA  SZ IP        517 50.49                             129    -0.1 9  158 352 
 OCA  SZ ES   1    518 12.18                             129    -0.1 7  158 352 
 OCA  SZ I         518 18.50        23.9 0.30                           158 352 
 ROSC BZ EP   1    518  2.18                             115     1.0 6  257 212 
 ROSC BZ I         518 38.79        12.1 0.51                           257 212 
 HEL  HZ EP   3    518  2.78                             113    -0.6 2  277 255 
 HEL  HN ES   3    518 33.74                             113    -1.2 2  277 255 
 HEL  HZ I         518 40.21         6.5 0.37                           277 255 
 RREF BZ EP   2    518  9.27                             109    -0.1 3  327 230 
 RREF BN ES   2    518 45.48                             109    -0.1 3  327 230 
 RREF BZ I         518 49.98         8.5 0.72                           327 230 
 SDV  BZ IP     C  518 11.67                             108    -0.5 6  356  50 
 SDV  BZ I         518 12.37         4.8 0.13                           356  50 
                                                                                
