 2017 12 3 0212 47.8 L   6.679 -73.310124.0  RSN 17 0.7 1.7LRSN                1
 GAP= 56        1.54       3.2     4.1  7.2 -0.2142E+01  0.6845E+01 -0.2864E+01E
 Epicentro: GALAN - SANTANDER                                                  3
 ACTION:UPD 18-01-04 13:16 OP:rebc STATUS:               ID:20171203021247 L   I
 OLDACT:REG 17-12-03 12:58 OP:dhb  STATUS:               ID:20171203020746     3
 2017-12-03-0208-00M.COL___495                                                 6
 STAT SP IPHASW D HRMM SECON CODA AMPLIT PERI AZIMU VELO AIN AR TRES W  DIS CAZ7
 BAR2 EZ EP        213  4.52                             172   -0.2010 17.1 124 
 BAR2 EZ ES        213 18.33                             172    0.4410 17.1 124 
 BAR2 EZ I         213 19.90        13.5 0.16            166           17.1 124 
 RUS  HZ EP        213  8.22                             142   -0.5010 90.5 164 
 RUS  HN ES        213 25.28                             142    0.2610 90.5 164 
 RUS  HZ I         213 28.37         3.9 0.40            132           90.5 164 
 PAM  EZ EP        213  9.22                             139   -0.1910 99.4  43 
 PAM  EE ES        213 26.88                             139    0.6410 99.4  43 
 PAM  EZ I         213 29.30         4.3 0.20            134           99.4  43 
 PTB  HZ EP        213  9.97                             131   -1.2310  128 263 
 PTB  HN ES        213 28.95                             131   -0.4810  128 263 
 PTB  HZ I         213 33.92         7.1 0.44            124            128 263 
 SPBC HZ EP        213 12.18                             128   -0.42 9  141 217 
 SPBC HE ES        213 32.12                             128    0.20 9  141 217 
 SPBC HZ I         213 37.87        11.2 0.24            120            141 217 
 TAM  HZ IP     D  213 15.07                             122   -0.33 9  170  99 
 TAM  HE ES        213 36.49                             122   -0.42 9  170  99 
 TAM  HZ I         213 38.08         5.2 0.36            116            170  99 
 OCA  HZ EP        213 14.91                             122   -0.88 9  172 360 
 OCA  HN ES        213 36.96                             122   -0.64 9  172 360 
 YPLC HZ EP        213 15.50                             121   -0.48 9  175 144 
 YPLC HZ I         213 42.35         3.4 0.44            114            175 144 
 ZAR  HZ EP        213 17.52                             119   -0.26 9  193 298 
 ZAR  HN ES        213 41.29                             119    0.14 9  193 298 
 ZAR  HZ I         213 46.48         9.8 0.36            114            193 298 
 NOR  HZ EP        213 19.47                             116   -0.42 8  212 235 
 NOR  HN ES        213 44.88                             116   -0.02 8  212 235 
 NOR  HZ I         213 50.31         6.9 0.20            110            212 235 
 CHI  HZ EP        213 22.48                             114    0.00 8  231 192 
 CHI  HE ES        213 51.08                             114    1.56 8  231 192 
 CHI  HZ I         213 53.11         1.7 0.38            109            231 192 
 GUY2CHZ EP        213 29.35                             110    1.43 7  279 235 
 GUY2CHE ES   4    214  2.47                             110    3.29 0  279 235 
 GUY2CHZ I         214  6.60         3.2 0.40                           279 235 
 DRL03HZ EP        213 30.53                             108    0.69 7  301 357 
 DRL03HN ES        214  3.74                             108    1.13 7  301 357 
 LL6C HZ EP        213 34.26                             105    0.03 7  338   1 
 LL6C HN ES        214 12.26                             105    1.83 7  338   1 
 LL6C HZ I         214 16.57         3.4 0.36            103            338   1 
 PRA  HZ EP        213 38.47                             103    0.22 6  372 208 
 PRA  HE ES        214 18.27                             103    0.70 6  372 208 
 PRA  HZ I         214 23.05         2.9 0.60            101            372 208 
 ORTC HZ EP        213 38.55                             103    0.01 6  374 215 
 ORTC HZ I         214 30.92         2.5 0.12            101            374 215 
 SJC  HZ EP        213 43.02                             102    0.04 6  411 330 
 SJC  HN ES        214 26.08                             102    0.08 6  411 330 
 SJC  HZ I         214 40.23         1.6 0.58            100            411 330 
                                                                                
