 2012  8 3 0938 36.8 L   6.736 -73.185146.0  RSN  5 0.4 1.3LRSN                1
 GAP=228        0.71       7.3     6.6  7.6  0.2975E+02  0.7833E+01  0.7918E+00E
 Epicentro: VILLANUEVA - SANTANDER                                             3
 ACTION:UPD 12-09-10 11:54 OP:ep   STATUS:               ID:20120803093836 L   I
 2012-08-03-0930-00M.COL___215                                                 6
 STAT SP IPHASW D HRMM SECON CODA AMPLIT PERI AZIMU VELO AIN AR TRES W  DIS CAZ7
 BAR2 SZ EP   1    938 56.37                             174    0.00 7 15.9 179 
 BAR2 SZ ES   1    939 10.92                             174   -0.68 7 15.9 179 
 BAR2 SZ I         939 12.87         4.2 0.15                          15.9 179 
 BRR  HZ EP   1    938 58.06                             152    0.05 7 71.3 305 
 BRR  HZ I         938 58.29         8.9 0.14                          71.3 305 
 BRR  HN ES   1    939 15.12                             152    0.59 7 71.3 305 
 RUS  HZ EP   1    939  0.37                             146    0.23 7 93.9 173 
 RUS  HE ES   1    939 18.53                             146    0.22 7 93.9 173 
 RUS  HZ I         939 20.51         2.4 0.28                          93.9 173 
 PTB  HZ EP   1    939  2.98                             133   -0.35 7  142 261 
 PTB  HN ES   1    939 24.05                             133    0.06 7  142 261 
 PTB  HZ I         939 27.77         1.7 0.52                           142 261 
 ZAR  HN ES   1    939 34.17                             123   -0.23 6  203 294 
                                                                                
