 2017 11 3 0558  1.6 L   6.816 -73.175143.1  RSN  7 0.4 1.3LRSN                1
 GAP=108        1.02       4.5     4.3  7.7  0.5398E+01  0.3609E+01  0.2691E+01E
 Epicentro: ZAPATOCA - SANTANDER                                               3
 ACTION:UPD 17-12-12 19:51 OP:rebc STATUS:               ID:20171103055801 L   I
 OLDACT:UP  17-11-03 16:29 OP:dnl  STATUS:               ID:20171103054738d    3
 OLDACT:DUP 17-11-03 16:24 OP:dnl  STATUS:               ID:20171103054738d    3
 2017-11-03-0548-00M.COL___435                                                 6
 STAT SP IPHASW D HRMM SECON CODA AMPLIT PERI AZIMU VELO AIN AR TRES W  DIS CAZ7
 BAR2 EZ EP   2    558 20.66                             170   -0.26 5 24.7 182 
 BAR2 EZ ES        558 35.82                             170   -0.1910 24.7 182 
 BAR2 EZ I         558 36.63         5.6 0.34            169           24.7 182 
 BRR  HZ EP        558 22.43                             153    0.1910 67.5 299 
 PAM  EZ EP        558 23.64                             150    0.0710 78.2  42 
 PAM  EN ES        558 40.73                             150    0.0210 78.2  42 
 PAM  EZ I         558 41.35         2.0 0.18            151           78.2  42 
 RUS  HZ EP        558 24.89                             143   -0.3310  103 174 
 RUS  HE ES        558 43.19                             143   -0.4710  103 174 
 RUS  HZ I         558 44.84         2.5 0.44            142            103 174 
 PTB  HZ EP   2    558 27.55                             132   -0.53 5  145 258 
 PTB  HE ES        558 48.94                             132    0.20 9  145 258 
 PTB  HZ I         558 50.23         2.4 0.40            131            145 258 
 YPLC HZ EP        558 31.06                             125   -0.44 9  180 151 
 YPLC HN ES        558 55.95                             125    1.13 9  180 151 
 YPLC HZ I         558 57.60         1.8 0.26            126            180 151 
 ZAR  HZ EP   4    558 35.67                             122    2.19 0  200 292 
 ZAR  HE ES        558 58.57                             122    0.22 9  200 292 
 ZAR  HZ I         559  2.82         2.8 0.36            122            200 292 
                                                                                
