 2017 12 3 0218 24.2 L   5.854 -73.889102.8  RSN  7 0.4 0.9LRSN                1
 GAP= 85        0.72       2.5     2.3  5.2 -0.7530E+00 -0.6067E+00  0.4261E+00E
 Epicentro: LA BELLEZA - SANTANDER                                             3
 ACTION:UPD 18-01-04 13:16 OP:rebc STATUS:               ID:20171203021824 L   I
 OLDACT:DUP 17-12-03 14:55 OP:dhb  STATUS:               ID:20171203020747d    3
 OLDACT:REG 17-12-03 12:58 OP:dhb  STATUS:               ID:20171203020746     3
 2017-12-03-0208-00M.COL___495                                                 6
 STAT SP IPHASW D HRMM SECON CODA AMPLIT PERI AZIMU VELO AIN AR TRES W  DIS CAZ7
 SPBC HZ EP        218 38.39                             162   -0.3010 30.2 222 
 SPBC HE ES        218 50.25                             162    0.2510 30.2 222 
 SPBC HZ I         218 50.60         4.0 0.18            164           30.2 222 
 RUS  HZ EP        218 42.94                             136   -0.0910 89.3  87 
 RUS  HN ES        218 57.52                             136   -0.2110 89.3  87 
 RUS  HZ I         219  0.19         1.0 0.46            137           89.3  87 
 PTB  HZ EP        218 43.24                             132    0.0710 98.4 320 
 PTB  HN ES        218 58.18                             132    0.1910 98.4 320 
 PTB  HZ I         218 59.37         1.1 0.14            136           98.4 320 
 NOR  HZ EP        218 44.54                             128   -0.0710  113 254 
 NOR  HN ES        219  0.20                             128   -0.3410  113 254 
 NOR  HZ I         219  2.59         2.9 0.34            131            113 254 
 BAR2 EZ EP        218 44.90                             128    0.0710  113  44 
 BAR2 EZ ES        219  1.07                             128    0.1410  113  44 
 BAR2 EZ I         219  6.57         3.1 0.56            130            113  44 
 CHI  HZ EP        218 47.92                             123    0.52 9  137 173 
 CHI  HE ES        219  5.41                             123   -0.10 9  137 173 
 CHI  HZ I         219 11.02         1.0 0.30            124            137 173 
 PAM  EE ES   3    219 17.77                             110   -2.30 2  210  39 
                                                                                
