 2012  5 3 0604 30.2 L   6.742 -73.200147.6  RSN  7 0.3 1.5LRSN                1
 GAP=132        0.60       4.1     3.7  5.9  0.2155E+01  0.3227E+01 -0.1809E+00E
 Epicentro: VILLANUEVA - SANTANDER                                             3
 ACTION:UP  12-07-05 12:01 OP:pat  STATUS:               ID:20120503060430 L   I
 2012-05-03-0600-00M.COL___186                                                 6
 STAT SP IPHASW D HRMM SECON CODA AMPLIT PERI AZIMU VELO SNR AR TRES W  DIS CAZ7
 BAR2 SZ EP   1    6 4 49.94                             173     0.0 7   17 173 
 BAR2 SZ ES   1    6 5  5.26                             173    -0.1 7   17 173 
 BAR2 SZ I         6 5  6.68        17.8 0.26                            17 173 
 BRR  HZ EP   1    6 4 51.83                             153     0.4 7   70 306 
 BRR  HN ES   1    6 5  8.52                             153     0.5 7   70 306 
 BRR  HZ I         6 5 11.06         7.5 0.18                            70 306 
 PAM  SZ EP   1    6 4 52.96                             148    -0.2 7   86  40 
 PAM  SN ES   2    6 5 10.59                             148    -0.5 5   86  40 
 RUS  HZ EP   1    6 4 53.90                             146     0.2 7   95 172 
 RUS  HZ I         6 4 54.63         2.7 0.31                            95 172 
 RUS  HN ES   1    6 5 12.09                             146     0.0 7   95 172 
 PTB  HZ EP   1    6 4 56.82                             134     0.1 7  141 261 
 PTB  HE ES   1    6 5 17.08                             134    -0.3 7  141 261 
 PTB  HZ I         6 5 21.05         3.0 0.21                           141 261 
 ZAR  HN ES   1    6 5 27.39                             123    -0.3 6  201 294 
 ZAR  HZ I         6 5 33.32         2.7 0.14                           201 294 
 RREF HN ES   2    6 5 50.43                             112    -0.3 3  313 230 
                                                                                
