 2017  3 3 0710 52.2 L   6.340 -73.567122.2  RSN  8 0.5 1.6LRSN                1
 GAP= 84        1.22       4.4     4.5  8.2  0.1710E+01  0.1410E+02 -0.5699E+01E
 Epicentro: SANTA HELENA DEL OPON - SANTANDER                                  3
 ACTION:UPD 17-05-25 18:35 OP:jn   STATUS:               ID:20170303071052 L   I
 OLDACT:UP  17-03-03 17:42 OP:ar   STATUS:               ID:20170303070643     3
 OLDACT:UP  17-03-03 17:41 OP:ar   STATUS:               ID:20170303070643     3
 OLDACT:REG 17-03-03 12:43 OP:ar   STATUS:               ID:20170303070643     3
 2017-03-03-0707-00M.COL___393                                                 6
 STAT SP IPHASW D HRMM SECON CODA AMPLIT PERI AZIMU VELO AIN AR TRES W  DIS CAZ7
 BAR2 EZ IP     C  711 10.44                             156    0.4210 50.8  57 
 BAR2 EZ ES        711 23.95                             156    0.0310 50.8  57 
 BAR2 EZ I         711 24.37        10.6 0.18            154           50.8  57 
 RUS  HZ EP        711 11.81                             147    0.1510 72.9 133 
 RUS  HE ES        711 26.59                             147   -0.2610 72.9 133 
 RUS  HZ I         711 28.58         4.7 0.48            145           72.9 133 
 BRR  HZ EP        711 12.02                             142    0.1210 86.3 349 
 BRR  HN ES        711 27.21                             142   -0.0710 86.3 349 
 BRR  HZ I         711 27.68         7.0 0.12            138           86.3 349 
 SPBC HZ EP        711 12.58                             140   -0.0810 94.5 216 
 SPBC HN ES        711 28.53                             140   -0.0910 94.5 216 
 SPBC HZ I         711 29.08        11.4 0.14            135           94.5 216 
 PTB  HZ EP        711 12.28                             138   -0.7910  101 283 
 PTB  HZ I         711 27.65         7.7 0.66            133            101 283 
 PTB  HN ES        711 29.03                             138   -0.3210  101 283 
 NOR  HZ EP   4    711 23.66                             122    4.23 0  168 239 
 NOR  HN ES        711 41.38                             122    0.71 9  168 239 
 NOR  HZ I         711 42.12         5.5 0.16            118            168 239 
 ZAR  HZ EP        711 22.37                             118    0.53 9  191 312 
 ZAR  HN ES        711 45.98                             118    1.01 9  191 312 
 URE  HZ EP        711 29.71                             110   -0.63 8  267 306 
 URE  HN ES        711 59.27                             110   -0.83 8  267 306 
 URE  HZ I         712  8.29         4.0 0.16            106            267 306 
                                                                                
