 2017  7 3 0126 10.3 L   6.751 -73.425124.0  RSN  4 0.3 1.0LRSN                1
 GAP=162        0.72       7.4     4.5  6.8  0.5979E+01  0.9517E+01  0.7581E+01E
 Epicentro: EL CARMEN - SANTANDER                                              3
 ACTION:UPD 17-08-30 15:29 OP:rebc STATUS:               ID:20170703012610 L   I
 OLDACT:UP  17-07-03 15:04 OP:edw  STATUS:               ID:20170703011739     3
 OLDACT:REG 17-07-03 13:24 OP:edw  STATUS:               ID:20170703011739     3
 2017-07-03-0118-00M.COL___377                                                 6
 STAT SP IPHASW D HRMM SECON CODA AMPLIT PERI AZIMU VELO AIN AR TRES W  DIS CAZ7
 BAR2 EZ EP     C  126 27.62                             165    0.0810 32.0 123 
 BAR2 EZ ES        126 40.61                             165   -0.3910 32.0 123 
 BRR  HZ EP     C  126 27.88                             156   -0.0610 50.6 321 
 BRR  HN ES        126 42.01                             156    0.2910 50.6 321 
 BRR  HZ I         126 43.04         2.8 0.44            156           50.6 321 
 PTB  HZ EP     C  126 32.81                             134    0.1810  116 258 
 PTB  HN ES        126 50.19                             134    0.1210  116 258 
 PTB  HZ I         126 56.02         1.4 0.42            132            116 258 
 ZAR  HN ES   2    126 59.80                             121   -0.99 4  178 297 
                                                                                
