 2012  8 3 0839 29.1 L   6.803 -73.117143.8  RSN  8 0.4 2.0LRSN                1
 GAP=140        0.81       4.1     4.9  6.6 -0.2361E+01  0.1154E+02 -0.2253E+01E
 Epicentro: LOS SANTOS - SANTANDER                                             3
 ACTION:UPD 12-09-10 11:54 OP:ep   STATUS:               ID:20120803083929 L   I
 2012-08-03-0837-48M.COL___193                                                 6
 STAT SP IPHASW D HRMM SECON CODA AMPLIT PERI AZIMU VELO AIN AR TRES W  DIS CAZ7
 BAR2 SZ EP   1    839 48.62                             170    0.14 7 24.4 197 
 BAR2 SZ ES   1    840  3.22                             170   -0.40 7 24.4 197 
 BAR2 SZ I         840  4.88        36.7 0.17                          24.4 197 
 BRR  HZ EP   1    839 50.43                             151    0.27 7 73.9 297 
 BRR  HZ I         839 50.98        21.4 0.11                          73.9 297 
 BRR  HN ES   1    840  6.93                             151    0.32 7 73.9 297 
 PAM  SZ EP   1    839 51.54                             151    0.60 7 75.2  38 
 PAM  SN ES   1    840  8.20                             151    0.20 7 75.2  38 
 RUS  HZ EP   1    839 52.61                             143   -0.02 7  101 178 
 RUS  HN ES   1    840 10.94                             143   -0.07 7  101 178 
 RUS  HZ I         840 13.31         6.8 0.29                           101 178 
 PTB  HZ EP   1    839 55.27                             131   -0.90 7  151 259 
 PTB  HE ES   2    840 16.86                             131   -0.45 5  151 259 
 PTB  HZ I         840 19.69         8.3 0.13                           151 259 
 OCA  HZ EP   1    839 56.49                             129   -0.75 7  160 352 
 OCA  HN ES   1    840 19.04                             129   -0.17 7  160 352 
 ZAR  HZ EP   1    840  1.70                             121    0.02 6  207 292 
 ZAR  HN ES   2    840 27.08                             121   -0.04 4  207 292 
 ZAR  HZ I         840 33.01        15.4 0.24                           207 292 
 HEL  HZ EP   1    840 10.13                             114    0.60 6  275 256 
 HEL  HN ES   1    840 41.72                             114    0.62 6  275 256 
 HEL  HZ I         840 47.84         5.2 0.29                           275 256 
                                                                                
