 2016 11 3 0441 38.3 L   6.739 -73.170154.4  RSN  4 0.3 1.1LRSN                1
 GAP=230        0.69       5.6     5.3  5.5  0.1460E+02  0.2271E+01  0.1775E+00E
 Epicentro: VILLANUEVA - SANTANDER                                             3
 ACTION:UPD 17-10-26 21:04 OP:lp   STATUS:               ID:20161103044138 L   I
 OLDACT:DUP 16-11-03 14:34 OP:dani STATUS:               ID:20161103043746d    3
 2016-11-03-0438-00M.COL___337                                                 6
 STAT SP IPHASW D HRMM SECON CODA AMPLIT PERI AZIMU VELO AIN AR TRES W  DIS CAZ7
 BAR2 EZ EP        441 58.70                             174   -0.1910 16.3 185 
 BAR2 EZ ES        442 14.51                             174   -0.4110 16.3 185 
 BAR2 EZ I         442 15.12         4.1 0.12            169           16.3 185 
 BRR  HZ EP        442  0.58                             154    0.0910 72.4 304 
 BRR  HE ES        442 18.12                             154    0.3610 72.4 304 
 BRR  HZ I         442 21.05         2.1 0.32            151           72.4 304 
 RUS  HZ EP        442  2.50                             147   -0.0110 94.1 174 
 RUS  HN ES        442 21.70                             147    0.3410 94.1 174 
 RUS  HZ I         442 22.50         1.3 0.22            147           94.1 174 
 PTB  HZ EP        442  5.71                             135    0.02 9  144 261 
 PTB  HE ES        442 26.80                             135   -0.22 9  144 261 
 PTB  HZ I         442 32.48         1.0 0.19            132            144 261 
                                                                                
