 2015  5 3 0851 42.2 L   6.556 -73.467109.7  RSN  6 0.3 1.1LRSN                1
 GAP=154        0.77       3.0     3.9  6.3  0.3406E+01  0.9667E+01 -0.1329E+01E
 Epicentro: EL CARMEN - SANTANDER                                              3
 ACTION:UPD 15-09-10 22:01 OP:cam  STATUS:               ID:20150503085142 L   I
 OLDACT:REG 15-05-03 14:01 OP:stll STATUS:               ID:20150503084743     3
 2015-05-03-0847-43M.COL___273                                                 6
 STAT SP IPHASW D HRMM SECON CODA AMPLIT PERI AZIMU VELO AIN AR TRES W  DIS CAZ7
 BAR2 EZ EP     C  851 58.11                             163    0.3110 31.7  83 
 BAR2 EZ ES        852 10.36                             163    0.4110 31.7  83 
 BRR  HZ EP        851 59.06                             146   -0.2410 66.7 336 
 BRR  HN ES        852 12.14                             146   -0.4810 66.7 336 
 BRR  HZ I         852 19.49         4.2 0.40            147           66.7 336 
 RUS  HZ EP        852  1.00                             140   -0.3210 84.8 150 
 RUS  HZ I         852  3.47         1.6 0.10            146           84.8 150 
 RUS  HE ES        852 16.25                             140    0.0310 84.8 150 
 PAM  SN ES        852 21.70                             129   -0.1910  121  44 
 ZAR  HZ EP        852 10.67                             116    0.14 9  185 304 
 ZAR  HN ES        852 32.81                             116    0.20 9  185 304 
 ZAR  HZ I         852 37.18         1.9 0.22            118            185 304 
 OCA  HN ES        852 33.48                             116    0.26 9  187   5 
                                                                                
