 2017  2 3 0031 30.1 L   6.793 -73.146144.5  RSN  7 0.5 1.7LRSN                1
 GAP=137        1.11       4.6     5.0  8.1  0.1569E+01  0.6190E+01  0.6549E+01E
 Epicentro: LOS SANTOS - SANTANDER                                             3
 ACTION:UPD 17-05-24 15:32 OP:jn   STATUS:               ID:20170203003130 L   I
 OLDACT:REG 17-02-03 12:29 OP:dnl  STATUS:               ID:20170203002742     3
 2017-02-03-0028-00M.COL___325                                                 6
 STAT SP IPHASW D HRMM SECON CODA AMPLIT PERI AZIMU VELO AIN AR TRES W  DIS CAZ7
 BAR2 EZ EP        031 49.42                             171   -0.0910 22.6 190 
 BAR2 EZ ES        032  4.36                             171   -0.3310 22.6 190 
 BAR2 EZ I         032  5.68        18.8 0.20            169           22.6 190 
 BRR  HZ EP        031 51.17                             152    0.0910 71.5 299 
 BRR  HE ES        032  8.30                             152    0.8210 71.5 299 
 BRR  HZ I         032 12.92         9.3 0.26            150           71.5 299 
 PAM  EZ EP        031 52.22                             150    0.0510 78.0  39 
 PAM  EN ES        032  9.34                             150   -0.0810 78.0  39 
 PAM  EZ I         032 11.32         6.3 0.54            153           78.0  39 
 RUS  HZ EP        031 53.40                             144   -0.2210 99.8 176 
 RUS  HN ES        032 11.97                             144   -0.0410 99.8 176 
 RUS  HZ I         032 13.36         7.5 0.24            144           99.8 176 
 PTB  HZ EP   2    031 56.14                             132   -0.76 5  148 259 
 PTB  HN ES        032 16.96                             132   -0.88 9  148 259 
 PTB  HZ I         032 18.76         5.1 0.50            131            148 259 
 ZAR  HN ES        032 27.91                             122    0.21 9  204 292 
 ZAR  HZ I         032 33.93         4.7 0.18            122            204 292 
 CHI  HZ EP   2    032  7.77                             117    0.17 4  248 195 
 CHI  HE ES        032 37.78                             117    0.90 8  248 195 
 CHI  HZ I         032 44.05         2.3 0.42            117            248 195 
                                                                                
