 2011  4 3 0814 35.1 L   6.779 -73.119144.0  RSN  4 0.1 1.2LRSN                1
 GAP=213        0.36      33.5    15.1  7.8  0.4120E+03  0.2539E+01  0.9830E+02E
 Epicentro: LOS SANTOS - SANTANDER                                             3
 ACTION:UP  11-06-22 15:28 OP:REBC STATUS:               ID:20110403081434 L   I
 2011-04-03-0810-39S.COL___138                                                 6
 STAT SP IPHASW D HRMM SECON CODA AMPLIT PERI AZIMU VELO SNR AR TRES W  DIS CAZ7
 BAR2 SZ EP   3    814 54.53                             171     0.0 2   22 199 
 BTL  SZ EP        814 54.64                             172     0.110   23 313 
 BTL  SZ ES   3    815  9.39                             172    -0.3 2   23 313 
 GIR2 SZ EP   3    814 54.60                             167    -0.1 2   34 346 
 GIR2 SZ ES   3    815  9.80                                    -0.1 2   34 346 
 BRR  HZ EP        814 56.14                             152    -0.210   75 299 
 BRR  HZ I         814 56.50         3.0 0.12                            75 299 
 BRR  HN ES   1    815 12.96                             152     0.1 7   75 299 
                                                                                
