 2017  5 3 0315 54.4 L   6.773 -73.083147.5  RSN  4 0.3 0.9LRSN                1
 GAP=146        0.89       5.8     5.8  9.2  0.7721E+01 -0.1196E+02 -0.1023E+02E
 Epicentro: LOS SANTOS - SANTANDER                                             3
 ACTION:UPD 17-06-16 13:32 OP:jn   STATUS:               ID:20170503031554 L   I
 OLDACT:DUP 17-05-03 15:55 OP:edw  STATUS:               ID:20170503030742d    3
 OLDACT:REG 17-05-03 11:35 OP:edw  STATUS:               ID:20170503030741     3
 2017-05-03-0308-00M.COL___371                                                 6
 STAT SP IPHASW D HRMM SECON CODA AMPLIT PERI AZIMU VELO AIN AR TRES W  DIS CAZ7
 PAM  EZ EP        316 16.96                             152    0.2910 75.6  34 
 BRR  HZ EP        316 15.92                             150   -0.2310 78.7 298 
 BRR  HN ES        316 32.98                             150   -0.1510 78.7 298 
 RUS  HZ EP        316 18.37                             145    0.3010 97.4 180 
 RUS  HN ES        316 36.32                             145   -0.2310 97.4 180 
 RUS  HZ I         316 38.20         1.3 0.36            145           97.4 180 
 PTB  HZ EP     C  316 21.53                             131   -0.52 9  154 260 
 PTB  HN ES        316 44.18                             131    0.53 9  154 260 
                                                                                
