 2014  8 3 0735 51.5 L   6.345 -73.583113.6  RSN 24 0.5 2.7LRSN                1
 GAP= 51        1.09       2.0     2.2  4.6 -0.1038E+01  0.2624E+01  0.1008E+01E
 Epicentro: SANTA HELENA DEL OPON - SANTANDER                                  3
 ACTION:UPD 14-09-15 21:46 OP:nd   STATUS:               ID:20140803073551 L   I
 OLDACT:REG 14-08-03 13:17 OP:carl STATUS:               ID:20140803072816     3
 2014-08-03-0728-16M.COL___227                                                 6
 STAT SP IPHASW D HRMM SECON CODA AMPLIT PERI AZIMU VELO AIN AR TRES W  DIS CAZ7
 BAR2 SZ IP     C  736  8.78                             154    0.3510 52.0  58 
 BAR2 SZ ES        736 21.79                             154    0.1510 52.0  58 
 BAR2 SZ I         736 23.56       212.0 0.54            151           52.0  58 
 RUS  HZ EP        736 10.08                             145   -0.1310 74.6 132 
 RUS  HN ES        736 24.67                             145   -0.1310 74.6 132 
 RUS  HZ I         736 27.05        66.1 0.40            144           74.6 132 
 BRR  HZ IP     D  736 10.35                             140    0.0310 85.5 350 
 BRR  HE ES        736 25.14                             140    0.1310 85.5 350 
 BRR  HZ I         736 33.60        68.7 0.12            134           85.5 350 
 SPBC HZ IP     C  736 10.85                             137   -0.2710 93.8 215 
 SPBC HN ES        736 26.39                             137   -0.0410 93.8 215 
 SPBC HZ I         736 33.09       112.7 0.22            134           93.8 215 
 PTB  HZ IP     C  736 10.50                             136   -0.9510 99.0 283 
 PTB  HN ES        736 26.88                             136   -0.1410 99.0 283 
 PTB  HZ I         736 28.05       228.4 0.12            130           99.0 283 
 PAM  SZ EP        736 16.76                             124    0.16 9  147  42 
 PAM  SN ES        736 36.92                             124    0.73 9  147  42 
 PAM  SZ I         736 40.11        26.3 0.24            119            147  42 
 NOR  HZ IP     C  736 17.26                             120   -0.80 9  167 239 
 NOR  HN ES        736 38.74                             120   -0.04 9  167 239 
 NOR  HZ I         736 43.73        98.0 0.16            116            167 239 
 ZAR  HZ EP        736 20.28                             116   -0.20 9  190 312 
 ZAR  HE ES        736 43.03                             116   -0.06 9  190 312 
 ZAR  HZ I         736 47.46        92.5 0.44            111            190 312 
 CHI  HZ EP        736 20.77                             116   -0.31 9  190 185 
 CHI  HN ES        736 43.50                             116   -0.67 9  190 185 
 CHI  HZ I         736 51.27        25.0 0.26            113            190 185 
 TAM  HZ IP     D  736 21.56                             115    0.07 9  198  87 
 TAM  HN ES        736 44.28                             115   -0.61 9  198  87 
 TAM  HZ I         736 49.89        20.7 0.52            112            198  87 
 OCA  HZ EP        736 23.18                             113    0.10 8  211   8 
 OCA  HN ES        736 48.52                             113    0.80 8  211   8 
 OCA  HZ I         736 59.98        41.7 0.18            109            211   8 
 HEL  HZ EP        736 23.48                             113   -0.39 8  216 266 
 HEL  HN ES        736 48.67                             113   -0.45 8  216 266 
 HEL  HZ I         736 54.04        46.7 0.28            109            216 266 
 GUY2CHZ EP        736 26.37                             111    0.44 8  233 238 
 GUY2CHN ES        736 52.98                             111    0.19 8  233 238 
 GUY2CHZ I         737  2.96        34.6 0.64                           233 238 
 VIL  SZ EP        736 26.63                             109   -0.48 8  247 183 
 VIL  SN ES        736 55.29                             109    0.39 8  247 183 
 VIL  SZ I         737  3.70        37.8 0.30            106            247 183 
 RREF HZ EP        736 28.61                             109    0.27 8  252 231 
 RREF HN ES        736 57.75                             109    0.66 8  252 231 
 RREF HZ I         737  3.16        44.8 0.32            106            252 231 
 URE  HZ EP   4    736 27.68                             108   -1.42 0  266 306 
 URE  HE ES   4    736 56.88                             108   -1.56 0  266 306 
 URE  HZ I         737  7.68        41.3 0.22            104            266 306 
 TOL  SZ EP        736 30.70                             107    0.26 8  274 225 
 TOL  SN ES        737  2.06                             107    1.24 8  274 225 
 TOL  SZ I         737  4.87        90.3 0.34            104            274 225 
 CBOC HZ EP        736 30.69                             107    0.41 8  274 259 
 CBOC HN ES        736 59.83                             107   -0.70 8  274 259 
 CBOC HZ I         737  4.39        12.9 0.18            103            274 259 
 SML  HZ EP        736 29.76                             107   -0.62 7  277 349 
 SML  HN ES        737  0.73                             107    0.02 7  277 349 
 SML  HZ I         737 14.66        32.6 0.10            103            277 349 
 ANIL HZ EP        736 32.86                             106    0.85 7  288 225 
 ANIL HN ES        737  3.75                             106    0.14 7  288 225 
 ANIL HZ I         737 10.86        97.2 0.24            103            288 225 
 DBB  SZ EP        736 32.74                             105   -0.44 7  300 285 
 DBB  SZ ES        737  5.91                             105    0.22 7  300 285 
 DBB  SZ I         737 11.28        49.6 0.30            101            300 285 
 PRA  HZ EP        736 35.73                             104   -0.35 7  325 206 
 PRA  HN ES        737 11.12                             104    0.26 7  325 206 
 PRA  HZ I         737 18.37        30.0 0.30            100            325 206 
 ORTC HZ EP        736 36.55                             104    0.28 7  326 214 
 ORTC HE ES        737 12.10                             104    0.91 7  326 214 
 ORTC HZ I         737 17.23        21.3 0.22            100            326 214 
 MACC HZ EP   4    736 50.67                              97   -2.23 0  465 184 
 MACC HN ES   4    737 34.70                              97   -6.10 0  465 184 
 MACC HZ I         737 46.59         8.6 0.52             93            465 184 
                                                                                
