 2013  1 3 0724 24.0 L   6.768 -73.204146.3  RSN  6 0.5 1.7LRSN                1
 GAP=177        1.27       4.9     8.2  9.0  0.7153E+01  0.7076E+01  0.8981E+01E
 Epicentro: VILLANUEVA - SANTANDER                                             3
 ACTION:UPD 13-02-15 09:11 OP:ep   STATUS:               ID:20130103072424 L   I
 2013-01-03-0719-50M.COL___189                                                 6
 STAT SP IPHASW D HRMM SECON CODA AMPLIT PERI AZIMU VELO AIN AR TRES W  DIS CAZ7
 BAR2 SZ EP        724 43.50                             172   -0.1510 19.6 173 
 BAR2 SZ ES        724 58.83                             172   -0.1310 19.6 173 
 BAR2 SZ I         724 59.98        12.7 0.20            174           19.6 173 
 BRR  HZ EP        724 45.41                             154    0.3810 67.5 304 
 BRR  HN ES        725  2.42                             154    1.0110 67.5 304 
 BRR  HN I         725  6.63         7.3 0.18            153           67.5 304 
 RUS  HZ EP        724 47.27                             145   -0.3610 97.7 172 
 RUS  HN ES        725  5.78                             145   -0.2510 97.7 172 
 PTB  HZ EP        724 50.44                             134    0.03 9  141 260 
 PTB  HN ES        725 10.07                             134   -0.92 9  141 260 
 OCA  HN ES        725 14.67                             129   -0.31 9  163 356 
 OCA  HN I         725 16.95         5.5 0.14            130            163 356 
 CHI  HZ EP        725  1.52                             118    0.31 8  244 194 
 CHI  HN ES        725 30.77                             118    0.56 8  244 194 
                                                                                
