 2015 12 3 0626 42.7 L   6.818 -73.150133.7  RSN  6 0.3 1.7LRSN                1
 GAP=135        0.85       3.1     4.1  7.2 -0.2363E+01  0.1234E+02 -0.4961E+00E
 Epicentro: LOS SANTOS - SANTANDER                                             3
 ACTION:UPD 16-02-04 15:02 OP:cam  STATUS:               ID:20151203062642 L   I
 OLDACT:UP  15-12-03 18:56 OP:mh   STATUS:               ID:20151203061749d    3
 OLDACT:DUP 15-12-03 18:53 OP:mh   STATUS:               ID:20151203061749d    3
 2015-12-03-0617-47M.COL___311                                                 6
 STAT SP IPHASW D HRMM SECON CODA AMPLIT PERI AZIMU VELO AIN AR TRES W  DIS CAZ7
 PAM  EZ EP        627  4.22                             149    0.6810 76.2  41 
 PAM  EE ES        627 19.55                             149   -0.2710 76.2  41 
 PAM  EZ I         627 23.20        15.1 0.32            152           76.2  41 
 RUS  HN ES        627 23.24                             140    0.0910  103 176 
 RUS  HZ I         627 25.50         5.5 0.24            144            103 176 
 PTB  HZ EP        627  8.35                             129   -0.33 9  148 258 
 PTB  HN ES        627 28.76                             129   -0.20 9  148 258 
 PTB  HZ I         627 30.51         3.6 0.18            131            148 258 
 OCA  HZ EP        627  9.61                             127   -0.27 9  158 353 
 OCA  HE ES        627 30.97                             127   -0.13 9  158 353 
 OCA  HZ I         627 35.34                             129            158 353 
 ZAR  HZ EP        627 14.06                             120   -0.18 9  203 292 
 ZAR  HN ES        627 39.49                             120    0.63 9  203 292 
 ZAR  HZ I         627 45.54         6.2 0.44            122            203 292 
 PRA  HZ EP        627 35.97                             104   -0.01 6  393 209 
 PRA  HN ES        628 17.48                             104   -0.08 6  393 209 
 PRA  HZ I         628 21.95         1.5 0.46            106            393 209 
                                                                                
