 2014  1 3 0106 57.6 L   6.764 -73.188143.4  RSN  6 0.6 1.3LRSN                1
 GAP=230        1.33       6.9     7.6  9.0  0.1200E+02  0.1681E+02  0.2004E+02E
 Epicentro: VILLANUEVA - SANTANDER                                             3
 ACTION:UPD 14-03-13 09:50 OP:ep   STATUS:               ID:20140103010657 L   I
 OLDACT:REG 14-01-03 08:59 OP:stll STATUS:               ID:20140103005819     3
 2014-01-03-0058-19M.COL___249                                                 6
 STAT SP IPHASW D HRMM SECON CODA AMPLIT PERI AZIMU VELO AIN AR TRES W  DIS CAZ7
 BAR2 SZ EP        1 7 16.85                             172    0.0310 19.0 178 
 BAR2 SZ ES        1 7 31.58                             172   -0.2710 19.0 178 
 BAR2 SZ I         1 7 34.31         9.6 0.34            170           19.0 178 
 BRR  HZ EP        1 7 18.56                             153    0.2210 69.2 303 
 BRR  HN ES        1 7 35.26                             153    0.7110 69.2 303 
 BRR  HZ I         1 7 38.61         5.4 0.20            154           69.2 303 
 RUS  HZ EP        1 7 20.44                             144   -0.3810 97.0 173 
 RUS  HN ES        1 7 38.60                             144   -0.3710 97.0 173 
 RUS  HZ I         1 7 40.22         1.9 0.22            145           97.0 173 
 PTB  HZ EP        1 7 23.27                             133   -0.58 9  142 260 
 PTB  HN ES        1 7 44.33                             133   -0.03 9  142 260 
 PTB  HZ I         1 7 46.39         3.3 0.18            133            142 260 
 NOR  HZ EP        1 7 32.81                             119    0.32 8  229 235 
 NOR  HZ I         1 7 34.25         1.1 0.32            120            229 235 
 NOR  HN ES        1 7 58.85                             119   -0.89 8  229 235 
 CHI  HZ EP        1 7 34.78                             117    0.20 8  244 194 
 CHI  HN ES        1 8  4.78                             117    1.33 8  244 194 
 CHI  HZ I         1 8 10.70         1.3 0.64            118            244 194 
                                                                                
