 2015  1 3 0726 15.4 L   6.808 -73.161138.6  RSN 19 0.6 2.1LRSN                1
 GAP= 70        1.41       3.3     4.4  6.5 -0.1620E+01  0.3926E+01  0.2070E+01E
 Epicentro: LOS SANTOS - SANTANDER                                             3
 ACTION:UPD 15-03-02 15:36 OP:nd   STATUS:               ID:20150103072615 L   I
 OLDACT:DUP 15-01-03 17:55 OP:stll STATUS:               ID:20150103071738d    3
 2015-01-03-0717-37M.COL___274                                                 6
 STAT SP IPHASW D HRMM SECON CODA AMPLIT PERI AZIMU VELO AIN AR TRES W  DIS CAZ7
 BAR2 EZ EP        726 34.36                             170    0.1710 24.0 186 
 BAR2 EZ ES        726 48.95                             170    0.1110 24.0 186 
 BAR2 EZ I         726 50.25        52.1 0.16            170           24.0 186 
 BRR  HZ IP     D  726 36.33                             152    0.6610 69.3 299 
 BRR  HN ES        726 52.02                             152    0.5410 69.3 299 
 BRR  HZ I         726 57.23        18.7 0.14            149           69.3 299 
 PAM  SZ EP        726 37.37                             149    0.4810 77.8  41 
 PAM  SZ I         726 37.61        51.3 0.22            151           77.8  41 
 RUS  HZ EP        726 38.41                             142   -0.1210  102 175 
 RUS  HE ES        726 56.22                             142   -0.3510  102 175 
 RUS  HZ I         726 57.78        15.4 0.40            144            102 175 
 PTB  HZ EP        726 40.96                             131   -0.70 9  146 258 
 PTB  HN ES        727  1.35                             131   -0.79 9  146 258 
 PTB  HZ I         727  5.11        22.1 0.14            130            146 258 
 TAM  HZ EP     D  726 42.79                             129    0.09 9  157 105 
 TAM  HZ I         726 42.85        20.3 0.20            132            157 105 
 OCA  HZ EP        726 42.65                             128   -0.41 9  159 354 
 OCA  HN ES        727  4.27                             128   -0.37 9  159 354 
 OCA  HZ I         727  8.45        13.4 0.20            129            159 354 
 SPBC HZ EP        726 43.35                             127    0.02 9  163 218 
 SPBC HZ I         726 43.72        19.1 0.22            128            163 218 
 SPBC HN ES        727  4.82                             127   -0.29 9  163 218 
 ZAR  HZ EP        726 47.43                             121    0.23 9  202 292 
 ZAR  HN ES        727 13.26                             121    1.27 9  202 292 
 ZAR  HZ I         727 18.32        12.9 0.54            121            202 292 
 NOR  HZ EP        726 49.57                             117   -1.07 8  234 234 
 NOR  HE ES        727 17.26                             117   -0.86 8  234 234 
 NOR  HZ I         727 20.56         7.1 0.18            118            234 234 
 SML  HZ EP        726 50.87                             116   -0.60 8  242 336 
 SML  HE ES        727 18.95                             116   -0.66 8  242 336 
 SML  HZ I         727 24.73        13.8 0.10            117            242 336 
 CHI  HZ EP        726 52.65                             116   -0.11 8  249 195 
 CHI  HZ I         726 54.68         4.9 0.74            117            249 195 
 CHI  HN ES        727 21.51                             116   -0.39 8  249 195 
 ROSC BZ EP        726 52.82                             115   -0.31 8  253 211 
 ROSC BZ I         726 56.05         9.2 0.55            116            253 211 
 ROSC BN ES        727 24.24                             115    1.68 8  253 211 
 HEL  HZ EP        726 55.97                             113    0.86 8  271 256 
 HEL  HN ES        727 25.73                             113   -0.34 8  271 256 
 HEL  HZ I         727 33.31         5.6 0.32            114            271 256 
 RREF HZ EP        727  0.75                             110   -0.42 7  321 229 
 RREF HE ES        727 37.05                             110    0.19 7  321 229 
 RREF HZ I         727 46.02         4.7 0.26            110            321 229 
 CBOC HZ EP        727  2.24                             109    0.36 7  332 252 
 CBOC HZ I         727  5.35         3.0 0.16            109            332 252 
 CBOC HE ES        727 37.86                             109   -0.27 7  332 252 
 TOL  SZ EP        727  4.51                             108    1.19 7  343 224 
 MON  HZ EP   9    727  1.94                             107   -1.98 0  352 308 
 MON  HN ES        727 40.54                                    0.76 6  352 308 
 MON  HZ I         727 42.97         1.8 0.28            108            352 308 
 ORTC HZ EP        727  9.38                             105    0.32 6  395 216 
 ORTC HZ I         727 11.14         3.3 0.10            106            395 216 
 ORTC HE ES        727 51.50                             105    0.60 6  395 216 
                                                                                
