 2015  5 3 0900 48.2 L   6.803 -73.137142.8  RSN 29 0.5 2.9LRSN                1
 GAP= 55        1.12       2.1     3.0  4.6 -0.1292E+01  0.3201E+01  0.1293E+00E
 Epicentro: LOS SANTOS - SANTANDER                                             3
      58.0      77.0     -82.0  6.0  5.0 20.0  0.0  0.1           RSN FPFIT    F
 ACTION:UPD 15-09-10 22:01 OP:cam  STATUS:               ID:20150503090048 L   I
 OLDACT:UP  15-05-07 16:12 OP:cam  STATUS:               ID:20150503090048 L   3
 OLDACT:UP  15-05-07 16:12 OP:cam  STATUS:               ID:20150503090048 L   3
 OLDACT:UP  15-05-07 16:12 OP:cam  STATUS:               ID:20150503090048 L   3
 OLDACT:UP  15-05-07 16:11 OP:cam  STATUS:               ID:20150503090048 L   3
 OLDACT:UP  15-05-07 06:55 OP:AK   STATUS:               ID:20150503090048 L   3
 OLDACT:REG 15-05-03 14:01 OP:stll STATUS:               ID:20150503085743     3
 2015-05-03-0857-43M.COL___273                                                 6
 STAT SP IPHASW D HRMM SECON CODA AMPLIT PERI AZIMU VELO AIN AR TRES W  DIS CAZ7
 BAR2 EZ IP     D  9 1  7.53                             170    0.0610 23.9 192 
 BAR2 EZ ES        9 1 22.90                             170    0.3910 23.9 192 
 BAR2 EZ I         9 1 23.80       132.8 0.28            167           23.9 192 
 BRR  HZ IP     C  9 1  9.44                             152    0.3810 71.9 298 
 BRR  HZ I         9 1  9.68       150.0 0.18            146           71.9 298 
 BRR  HE ES        9 1 25.56                             152    0.2310 71.9 298 
 PAM  SZ IP     D  9 1 10.29                             150    0.2610 76.5  39 
 PAM  SN ES        9 1 27.24                             150    0.1710 76.5  39 
 PAM  SZ I         9 1 29.54       173.9 0.54            151           76.5  39 
 RUS  HZ IP     D  9 1 11.34                             143   -0.3310  101 177 
 RUS  HZ I         9 1 12.48        50.2 0.46            142            101 177 
 RUS  HN ES        9 1 29.48                             143   -0.5010  101 177 
 TAM  HZ IP     D  9 1 15.73                             130    0.18 9  154 105 
 TAM  HZ I         9 1 15.92       178.4 0.34            131            154 105 
 TAM  HN ES        9 1 37.08                             130    0.19 9  154 105 
 OCA  HZ EP     C  9 1 15.56                             129   -0.69 9  160 353 
 OCA  HN ES        9 1 38.08                             129   -0.05 9  160 353 
 OCA  HZ I         9 1 43.21       200.1 0.46            126            160 353 
 SPBC HZ EP        9 1 16.50                             128   -0.05 9  164 219 
 SPBC HN ES        9 1 38.38                             128   -0.29 9  164 219 
 SPBC HZ I         9 1 40.98       127.9 0.28            125            164 219 
 ZAR  HZ EP        9 1 19.93                             122   -0.59 9  205 292 
 ZAR  HN ES        9 1 45.61                             122   -0.13 9  205 292 
 ZAR  HZ I         9 1 52.06        71.6 0.44            118            205 292 
 NOR  HZ EP        9 1 23.64                             118   -0.22 8  236 235 
 NOR  HN ES        9 1 50.93                             118   -0.75 8  236 235 
 NOR  HZ I         9 1 56.91        71.7 0.30            115            236 235 
 SML  HZ EP        9 1 23.65                             117   -1.01 8  244 335 
 SML  HE ES   1    9 1 52.75                             117   -0.36 6  244 335 
 SML  HZ I         9 1 55.94        74.1 0.34            114            244 335 
 CHI  HZ EP        9 1 25.52                             116   -0.27 8  249 195 
 CHI  HZ I         9 1 26.82        17.0 0.48            114            249 195 
 CHI  HN ES        9 1 54.55                             116   -0.57 8  249 195 
 ROSC BZ EP     D  9 1 26.96                             116    0.72 8  254 211 
 ROSC BN ES        9 1 56.01                             116    0.10 8  254 211 
 ROSC BZ I         9 2  5.22        64.9 0.40            114            254 211 
 HEL  HZ EP        9 1 28.39                             114    0.02 8  273 256 
 HEL  HN ES        9 2  0.27                             114    0.56 8  273 256 
 HEL  HZ I         9 2  6.86        54.8 0.30            111            273 256 
 URE  HZ EP   9    9 1 27.44                             113   -1.76 0  285 292 
 URE  HN ES        9 1 58.67                                   -0.76 7  285 292 
 URE  HZ I         9 2 13.37        41.3 0.30            110            285 292 
 GUY2CHZ IP     D  9 1 32.72                             112    0.94 7  302 235 
 GUY2CHN ES        9 2  5.96                             112    0.19 7  302 235 
 GUY2CHZ I         9 2 14.73        47.2 0.30                           302 235 
 VIL  SZ EP        9 1 31.21                             111   -0.32 7  304 192 
 VIL  SN ES        9 2  5.72                             111    0.38 7  304 192 
 VIL  SZ I         9 2  9.61        27.0 0.30            110            304 192 
 LL2C HZ EP        9 1 32.27                             111    0.66 7  306 354 
 LL2C HN ES        9 2  6.87                             111    1.39 7  306 354 
 LL2C HZ I         9 2 14.36        74.3 0.22            109            306 354 
 PTGC HZ EP   9 D  9 1 30.46                             111   -1.45 0  309 159 
 PTGC HZ I         9 1 30.87       112.6 0.12            110            309 159 
 PTGC HN ES        9 2  4.14                                   -0.42 7  309 159 
 LL4C HZ EP   2    9 1 33.44                             110   -0.11 3  323 352 
 LL4C HN ES   1    9 2  9.32                             110    0.40 5  323 352 
 RREF HZ EP   2 D  9 1 35.73                             110    1.41 3  323 229 
 RREF HN ES        9 2 10.95                             110    0.66 7  323 229 
 RREF HZ I         9 2 19.49        19.2 0.24            108            323 229 
 LL3C HZ EP        9 1 33.47                             110   -0.26 7  325 355 
 LL3C HN ES        9 2  8.58                             110   -0.68 7  325 355 
 CBOC HZ EP        9 1 34.96                             109   -0.14 7  335 252 
 CBOC HZ I         9 2 23.35        12.8 0.42            107            335 252 
 MON  HZ EP   9    9 1 34.66                             108   -2.48 0  354 308 
 MON  HE ES        9 2 12.23                                   -0.61 6  354 308 
 MON  HZ I         9 2 14.89        17.1 0.38            106            354 308 
 ANIL HZ EP        9 1 38.69                             108    0.70 6  358 225 
 ANIL HN ES        9 2 15.50                             108   -1.33 6  358 225 
 ANIL HZ I         9 2 24.10        62.5 0.36            106            358 225 
 SDV  BZ EP   1    9 1 37.40                             108   -0.60 5  359  50 
 SDV  BE ES   4    9 2 14.57                             108   -2.29 0  359  50 
 SDV  BZ I         9 2 17.08         6.4 0.35            107            359  50 
 ORTC HZ EP        9 1 41.95                             106   -0.16 6  396 216 
 ORTC HN ES        9 2 25.04                             106    0.87 6  396 216 
 ORTC HZ I         9 2 34.13        16.4 0.34            104            396 216 
 SJC  HZ EP   4    9 1 41.29                             105   -2.39 0  409 327 
 SJC  HN ES   4    9 2 21.19                             105   -5.78 0  409 327 
 SJC  HZ I         9 2 27.21        24.1 0.56            103            409 327 
 CRJC HZ EP   4    9 1 47.40                             103   -3.16 0  467   3 
 CRJC HN ES   4    9 2 34.85                             103   -4.35 0  467   3 
 CRJC HZ I         9 2 42.58        12.1 0.16            102            467   3 
 SMAR HZ EP   4    9 1 52.22                             102   -1.75 0  497 346 
 SMAR HN ES   4    9 2 39.70                             102   -5.58 0  497 346 
 SMAR HZ I         9 2 45.22        15.1 0.30            100            497 346 
                                                                                
