 2016  5 3 0529 42.9 L   6.449 -73.756 91.4  RSN  7 0.4 1.1LRSN                1
 GAP= 72        1.11       3.8     3.3  8.8  0.1975E+01  0.1046E+02  0.4167E+01E
 Epicentro: SANTA HELENA DEL OPON - SANTANDER                                  3
 ACTION:UPD 16-08-18 17:41 OP:cam  STATUS:               ID:20160503052942 L   I
 OLDACT:UP  16-05-03 14:48 OP:ak   STATUS:               ID:20160503052742     3
 OLDACT:REG 16-05-03 13:13 OP:ak   STATUS:               ID:20160503052742     3
 2016-05-03-0527-42M.COL___303                                                 6
 STAT SP IPHASW D HRMM SECON CODA AMPLIT PERI AZIMU VELO AIN AR TRES W  DIS CAZ7
 BAR2 EZ EP        529 58.87                             142    0.4810 65.4  76 
 BAR2 EZ ES        530 10.76                             142    0.2810 65.4  76 
 BAR2 EZ I         530 12.73         7.2 0.21            147           65.4  76 
 BRR  HZ EP        529 58.32                             138   -0.3310 72.9   4 
 BRR  HN ES        530 11.08                             138    0.1410 72.9   4 
 BRR  HZ I         530 13.60         2.8 0.42            143           72.9   4 
 PTB  HZ EP        529 58.30                             136   -0.8110 78.1 277 
 PTB  HE ES        530 11.45                             136   -0.3110 78.1 277 
 PTB  HZ I         530 14.51         3.3 0.08            139           78.1 277 
 SPBC HZ EP   1    530  0.34                             130   -0.38 7 94.9 202 
 SPBC HN ES        530 15.03                             130    0.4010 94.9 202 
 SPBC HZ I         530 16.95         4.1 0.17            134           94.9 202 
 RUS  HZ EP        530  1.08                             130   -0.3510 96.6 130 
 RUS  HN ES        530 15.69                             130   -0.1910 96.6 130 
 RUS  HZ I         530 17.43         2.5 0.34            135           96.6 130 
 ZAR  HN ES        530 28.29                             114    0.19 9  168 314 
 HEL  HZ EP        530 13.09                             110    0.85 9  198 262 
 HEL  HN ES        530 35.30                             110    0.17 9  198 262 
 HEL  HZ I         530 38.68                             112            198 262 
                                                                                
