 2013  2 3 0342 14.4 L   7.357 -73.287123.8  RSN  4 0.1 1.6LRSN                1
 GAP=293        0.33       3.6     2.9  3.1  0.4814E+01 -0.1574E+01 -0.1062E+01E
 Epicentro: EL PLAYON - SANTANDER                                              3
 ACTION:UPD 13-03-12 09:30 OP:ep   STATUS:               ID:20130203034214 L   I
 2013-02-03-0340-00M.COL___240                                                 6
 STAT SP IPHASW D HRMM SECON CODA AMPLIT PERI AZIMU VELO AIN AR TRES W  DIS CAZ7
 BRR  HZ EP        342 32.09                             155   -0.1310 54.4 240 
 BRR  HE ES        342 46.15                             155    0.0210 54.4 240 
 BRR  HE I         342 46.59        16.6 0.17            150           54.4 240 
 BAR2 SZ EP        342 34.61                             143    0.1010 85.4 172 
 BAR2 SZ ES   1    342 50.22                             143    0.00 7 85.4 172 
 BAR2 SZ I         342 50.98        15.4 0.13            141           85.4 172 
 PTB  HZ EP        342 40.76                             124    0.12 9  158 235 
 PTB  HN ES   1    343  1.04                             124   -0.07 7  158 235 
 PTB  HZ I         343  3.40         2.3 0.27            123            158 235 
 RUS  HZ EP   1    342 41.73                             124   -0.12 7  164 172 
 RUS  HN ES   1    343  3.26                             124   -0.02 7  164 172 
                                                                                
