 2013  4 3 0621  5.5 L   6.741 -73.152148.1  RSN  9 0.5 1.6LRSN                1
 GAP=138        0.89       4.3     4.9  7.5 -0.1598E+00  0.8303E+01 -0.2709E+01E
 Epicentro: JORDAN - SANTANDER                                                 3
 ACTION:UPD 13-05-22 14:35 OP:EP   STATUS:               ID:20130403062105 L   I
 2013-04-03-0620-00M.COL___245                                                 6
 STAT SP IPHASW D HRMM SECON CODA AMPLIT PERI AZIMU VELO AIN AR TRES W  DIS CAZ7
 BAR2 SZ EP        621 25.29                             173   -0.0110 16.7 191 
 BAR2 SZ ES   2    621 40.06                             173   -0.68 5 16.7 191 
 BAR2 SZ I         621 41.35        12.4 0.24            169           16.7 191 
 BRR  HZ EP        621 27.41                             152    0.3610 73.9 303 
 BRR  HN ES   1    621 44.85                             152    0.98 7 73.9 303 
 BRR  HZ I         621 49.18         6.6 0.44            147           73.9 303 
 PAM  SZ EP   1    621 28.50                             149    0.20 7 83.0  37 
 PAM  SN ES   1    621 45.78                             149   -0.31 7 83.0  37 
 PAM  SZ I         621 47.96         5.4 0.42            155           83.0  37 
 RUS  HZ EP   1    621 28.94                             146   -0.09 7 94.1 175 
 RUS  HN ES   1    621 47.38                             146    0.00 7 94.1 175 
 RUS  HZ I         621 48.64         5.8 0.30            150           94.1 175 
 PTB  HZ EP   2    621 32.59                             133    0.10 5  146 261 
 PTB  HN ES   1    621 52.71                             133   -0.83 7  146 261 
 PTB  HZ I         622  1.22         3.0 0.32            131            146 261 
 ZAR  HZ EP   1    621 38.96                             123    0.67 6  206 294 
 ZAR  HN ES   1    622  3.83                             123   -0.03 6  206 294 
 ZAR  HZ I         622 13.24         3.6 0.26            123            206 294 
 NOR  HE ES   1    622  8.48                             120   -0.03 6  230 236 
 NOR  HZ I         622 14.46         3.3 0.24            120            230 236 
 SML  HZ EP   1    621 42.43                             117   -0.44 6  249 336 
 SML  HN ES   1    622 11.27                             117   -0.75 6  249 336 
 SML  HZ I         622 14.94         5.5 0.10            119            249 336 
 PRA  HZ EP   1    621 57.99                             107   -0.40 4  386 210 
                                                                                
