 2016  9 3 0547  3.2 L   6.227 -73.817 99.3  RSN  4 0.3 0.9LRSN                1
 GAP=124        0.88       4.6     3.3  8.6  0.1933E+00 -0.1213E+01 -0.3404E+01E
 Epicentro: LANDAZURI - SANTANDER                                              3
 ACTION:UPD 17-08-17 21:06 OP:lp   STATUS:               ID:20160903054703 L   I
 OLDACT:DUP 16-09-03 15:33 OP:drio STATUS:               ID:20160903053734d    3
 2016-09-03-0538-00M.COL___349                                                 6
 STAT SP IPHASW D HRMM SECON CODA AMPLIT PERI AZIMU VELO AIN AR TRES W  DIS CAZ7
 SPBC HZ EP        547 19.69                             143    0.1210 69.6 204 
 SPBC HE ES        547 32.70                             143    0.3510 69.6 204 
 SPBC HZ I         547 35.87         3.7 0.22            144           69.6 204 
 PTB  HZ EP        547 19.81                             139   -0.3710 78.7 296 
 PTB  HE ES        547 33.28                             139   -0.1510 78.7 296 
 PTB  HZ I         547 33.69         1.6 0.24            143           78.7 296 
 BAR2 EZ EP        547 21.13                             138    0.4610 81.0  60 
 BAR2 EZ ES        547 34.53                             138    0.2210 81.0  60 
 BAR2 EZ I         547 36.13         6.5 0.44            142           81.0  60 
 RUS  HZ EP        547 21.62                             136   -0.1010 89.3 114 
 RUS  HZ I         547 21.85         0.8 0.10            138           89.3 114 
 RUS  HE ES        547 35.63                             136   -0.5510 89.3 114 
                                                                                
