 2012 10 3 0331 39.6 L   6.788 -73.110144.0  RSN  4 0.2 1.3LRSN                1
 GAP=142        0.48       3.5     5.0  6.3 -0.3824E+00 -0.1740E+01  0.3446E+01E
 Epicentro: LOS SANTOS - SANTANDER                                             3
 ACTION:UPD 12-11-22 17:01 OP:ep   STATUS:               ID:20121003033139 L   I
 2012-10-03-0330-00M.COL___223                                                 6
 STAT SP IPHASW D HRMM SECON CODA AMPLIT PERI AZIMU VELO AIN AR TRES W  DIS CAZ7
 BAR2 SZ EP   1    331 58.83                             170   -0.16 7 23.1 200 
 BRR  HZ EP   1    332  0.45                             151   -0.32 7 75.3 298 
 BRR  HZ I         332 13.73         6.8 0.25                          75.3 298 
 BRR  HN ES   1    332 17.52                             151    0.21 7 75.3 298 
 PAM  SZ EP   1    332  1.69                             151    0.17 7 75.9  37 
 PAM  SZ I         332  1.94         6.6 0.16                          75.9  37 
 PAM  SN ES   1    332 18.56                             151   -0.07 7 75.9  37 
 PAM  SN I         332 19.75        11.6 0.24                          75.9  37 
 RUS  HZ EP   1    332  3.32                             144    0.27 7 99.1 178 
 RUS  HE ES   1    332 21.25                             144   -0.10 7 99.1 178 
 RUS  HZ I         332 23.96         0.8 0.24                          99.1 178 
 RUS  HN I         332 24.92         1.3 0.41                          99.1 178 
                                                                                
