 2010  8 3 0332 34.8 L   7.423 -73.179128.9  RSN  9 0.5 2.5LRSN                1
 GAP=137        1.25       6.5    11.0 10.2 -0.2997E+02  0.1108E+02  0.3971E+01E
 Epicentro: EL PLAYON - SANTANDER                                              3
 ACTION:UP  10-09-07 10:51 OP:vdl  STATUS:               ID:20100803033234 L   I
 2010-08-03-0330-04S.COL___123                                                 6
 STAT SP IPHASW D HRMM SECON CODA AMPLIT PERI AZIMU VELO SNR AR TRES W  DIS CAZ7
 GIR2 SZ IP        332 53.64                             163     0.910   38 182 
 GIR2 SZ ES   2    333  7.06                             163     0.4 5   38 182 
 GUE  SZ IP        332 52.92                             156    -0.710   53  32 
 GUE  SZ I         332 53.29        68.6 0.13                            53  32 
 GUE  SZ ES   2    333  7.72                             156    -0.6 5   53  32 
 GRA  SZ IP        332 54.58                             151     0.510   66  39 
 GRA  SZ ES   1    333  9.54                             151     0.5 7   66  39 
 GRA  SZ I         333 10.94       177.2 0.35                            66  39 
 BRR  HZ IP     D  332 53.94                             150    -0.110   68 239 
 BRR  HE ES   1    333  9.08                             150     0.1 7   68 239 
 BRR  HZ I         333 10.64        81.7 0.12                            68 239 
 BAR2 SZ IP        332 55.83                             142    -0.110   92 180 
 BAR2 SZ ES   1    333 11.53                             142    -0.9 7   92 180 
 BAR2 SZ I         333 13.29        46.9 0.20                            92 180 
 OCA  SZ EP        332 55.47                             143    -0.310   92 350 
 OCA  SZ I         332 56.41        49.0 0.22                            92 350 
 OCA  SZ ES   2    333 11.95                             143    -0.2 5   92 350 
 RUS  HZ EP   1    333  3.06                             124    -0.2 7  170 176 
 HEL  HZ EP   2    333 16.11                             109    -0.5 4  293 242 
 HEL  HE ES   3    333 48.97                             109    -0.3 2  293 242 
 HEL  HZ I         333 57.76        11.5 0.41                           293 242 
 RREF HZ EP   2    333 26.66                             105     1.0 3  368 221 
 RREF HN ES   3    334  6.38                                     1.0 2  368 221 
 RREF HZ I         334 16.00         9.5 0.28                           368 221 
                                                                                
