 2014  3 3 0758 40.3 L   7.143 -74.254 10.7  RSN  5 0.3 1.3LRSN                1
 GAP=143        0.75       2.7     4.0  8.0  0.3106E+01 -0.2719E+02 -0.1698E+01E
 Epicentro: BARRANCABERMEJA - SANTANDER                                        3
 OLDACT:REG 14-03-03 09:22 OP:stll STATUS:               ID:20140303075818     3
 ACTION:UPD 14-04-09 23:14 OP:nd   STATUS:               ID:20140303075841dL   I
 OLDACT:UP  14-03-03 14:05 OP:fm   STATUS:               ID:20140303075818     3
 2014-03-03-0758-18M.COL___232                                                 6
 STAT SP IPHASW D HRMM SECON CODA AMPLIT PERI AZIMU VELO AIN AR TRES W  DIS CAZ7
 PTB  HZ EP   2    758 51.40                              95   -0.23 5 70.3 199 
 PTB  HN ES   1    759  0.11                              95   -0.35 7 70.3 199 
 PTB  HZ I         759  0.84         6.2 0.16             93           70.3 199 
 ZAR  HZ EP        758 52.64                              95    0.0110 77.0 300 
 ZAR  HE ES        759  2.29                              95    0.0410 77.0 300 
 ZAR  HZ I         759  3.08        17.1 0.08             92           77.0 300 
 PAM  SN ES        759 27.76                              56   -0.44 9  173  83 
 HEL  HN ES   2    759 28.34                              56   -0.23 4  176 233 
 RUS  HZ EP        759  9.94                              56    0.68 9  189 137 
 RUS  HN ES        759 31.97                              56    0.12 9  189 137 
 RUS  HZ I         759 33.45         5.1 1.50             56            189 137 
                                                                                
