 2010  7 3 0258  8.6 L   6.367 -73.617111.7  RSN 13 0.4 2.3LRSN                1
 GAP= 69        0.81       2.9     4.3  6.3 -0.2234E+01  0.1585E+02 -0.6482E+00E
 Epicentro: SANTA HELENA DEL OPON - SANTANDER                                  3
 ACTION:UPD 10-12-01 15:14 OP:pat  STATUS:               ID:20100703025808 L   I
 2010-07-03-0256-05S.COL___118                                                 6
 STAT SP IPHASW D HRMM SECON CODA AMPLIT PERI AZIMU VELO AIN AR TRES W  DIS CAZ7
 BAR2 SZ IP        258 25.67                             153     0.210   54  63 
 BAR2 SZ ES        258 38.66                             153     0.110   54  63 
 RUS  HZ EP   1    258 27.00                             143    -0.4 7   79 132 
 RUS  HE ES   1    258 41.69                             143    -0.5 7   79 132 
 RUS  HZ I         258 43.94        31.2 0.49                            79 132 
 BRR  HZ EP        258 27.24                             141     0.210   83 353 
 BRR  HZ I         258 30.56        44.8 0.12                            83 353 
 BRR  HE ES   1    258 41.49                             141     0.1 7   83 353 
 BRI  SZ EP   1    258 35.92                             118    -0.1 7  175  31 
 GUE  SZ EP        258 36.62                             118    -0.1 9  179  25 
 GRA  SZ EP   2    258 38.53                             116     0.8 4  190  28 
 GRA  SZ ES   2    259  0.25                             116    -0.3 4  190  28 
 CHI  HZ EP   2    258 38.26                             116    -0.1 4  193 184 
 CHI  HE ES   1    259  1.64                             116     0.1 7  193 184 
 CHI  HZ I         259  5.06        14.1 0.43                           193 184 
 HEL  HZ EP   1    258 41.28                             113     0.8 6  213 265 
 HEL  HN ES   2    259  5.24                             113    -0.1 4  213 265 
 HEL  HZ I         259 10.81        16.9 0.48                           213 265 
 RREF HZ EP   1    258 45.49                             109     0.3 6  251 230 
 RREF HN ES   2    259 13.32                             109    -0.5 4  251 230 
 RREF HZ I         259 20.10        17.8 0.52                           251 230 
 ANIL HZ EP   2    258 49.87                             106     0.9 4  287 224 
 DBB  SZ EP   2    258 50.28                             105     0.6 4  296 284 
 DBB  SZ ES   2    259 21.15                             105    -0.7 4  296 284 
 PRA  HZ EP   2    258 52.47                             103    -0.7 3  325 206 
 PRA  HE ES   1    259 28.09                             103     0.1 5  325 206 
 PRA  HZ I         259 35.16        14.1 0.36                           325 206 
 MON  HZ EP        258 54.95                             102    -1.0 6  349 320 
 MON  HZ I         258 55.79         7.1 0.13                           349 320 
 MON  HN ES   2    259 33.05                             102     0.1 3  349 320 
                                                                                
