 2017  1 3 0232 59.2 L   6.682 -73.256144.9  RSN  5 0.4 1.2LRSN                1
 GAP=188        1.09       8.0     7.3  7.9  0.3542E+02  0.1162E+02 -0.1365E+01E
 Epicentro: GALAN - SANTANDER                                                  3
 ACTION:UPD 17-05-22 15:54 OP:jn   STATUS:               ID:20170103023259 L   I
 OLDACT:REG 17-01-03 12:29 OP:lv   STATUS:               ID:20170103022742     3
 2017-01-03-0228-00M.COL___381                                                 6
 STAT SP IPHASW D HRMM SECON CODA AMPLIT PERI AZIMU VELO AIN AR TRES W  DIS CAZ7
 BAR2 EZ EP        233 17.99                             175   -0.5210 12.9 141 
 BAR2 EZ ES        233 33.79                             175    0.1810 12.9 141 
 BAR2 EZ I         233 38.01         4.0 0.20            175           12.9 141 
 BRR  HZ EP        233 19.88                             153   -0.2010 68.9 313 
 BRR  HN ES        233 36.43                             153    0.0310 68.9 313 
 RUS  HZ EP        233 21.99                             147   -0.0510 89.4 168 
 RUS  HN ES        233 40.19                             147    0.3010 89.4 168 
 RUS  HZ I         233 41.78         1.6 0.32            150           89.4 168 
 PTB  HZ EP        233 24.38                             135   -0.4210  134 263 
 PTB  HE ES        233 44.68                             135   -0.1210  134 263 
 PTB  HZ I         233 49.39         1.7 0.08            135            134 263 
 ZAR  HZ EP        233 32.13                             123    1.18 9  198 297 
 ZAR  HE ES        233 55.58                             123   -0.17 9  198 297 
 ZAR  HZ I         234  2.01         2.1 0.30            125            198 297 
                                                                                
