 2013  9 3 0141 14.7 L   5.875 -73.961105.8  RSN 11 0.4 1.6LRSN                1
 GAP= 81        1.05       2.6     3.1  6.0 -0.1063E+01  0.3154E+01  0.1069E+01E
 Epicentro: LA BELLEZA - SANTANDER                                             3
 ACTION:UPD 13-10-22 09:19 OP:ep   STATUS:               ID:20130903014114 L   I
 OLDACT:UP  13-09-03 09:08 OP:cam  STATUS:               ID:20130903013959     3
 OLDACT:REG 13-09-03 07:52 OP:cam  STATUS:               ID:20130903013959     3
 2013-09-03-0139-59M.COL___269                                                 6
 STAT SP IPHASW D HRMM SECON CODA AMPLIT PERI AZIMU VELO AIN AR TRES W  DIS CAZ7
 SPBC HZ EP        141 29.47                             164    0.0510 27.5 207 
 SPBC HN ES        141 41.23                             164    0.2910 27.5 207 
 SPBC HZ I         141 41.77        19.0 0.28            160           27.5 207 
 PTB  HZ EP        141 32.53                             136   -0.7910 91.7 323 
 PTB  HN ES        141 47.70                             136   -0.1710 91.7 323 
 PTB  HZ I         141 47.82        15.9 0.22            128           91.7 323 
 RUS  HZ EP   1    141 34.36                             134   -0.09 7 97.2  89 
 RUS  HN ES        141 49.24                             134   -0.6410 97.2  89 
 RUS  HZ I         141 51.57         1.9 0.38            131           97.2  89 
 NOR  HZ EP        141 34.56                             131   -0.1110  106 251 
 NOR  HN ES        141 50.10                             131   -0.1710  106 251 
 NOR  HZ I         141 51.21        15.5 0.34            124            106 251 
 BAR2 SZ EP        141 36.03                             128    0.1010  117  47 
 BAR2 SZ ES        141 53.18                             128    0.6710  117  47 
 BAR2 SZ I         141 53.99        23.9 0.22            123            117  47 
 BRR  HZ EP        141 37.39                             123   -0.40 9  139  11 
 BRR  HN ES        141 56.53                             123    0.70 9  139  11 
 CHI  HZ EP        141 38.39                             123   -0.04 9  140 170 
 CHI  HZ I         141 39.79         2.2 0.22            118            140 170 
 CHI  HN ES        141 56.82                             123   -0.16 9  140 170 
 GUY2CHZ EP        141 41.93                             117    0.10 9  171 245 
 GUY2CHN ES   4    142  5.06                             117    2.03 0  171 245 
 GUY2CHZ I         142  8.32         4.4 0.56                           171 245 
 HEL  HZ EP        141 42.91                             116    0.60 9  177 281 
 HEL  HZ I         142  8.67         3.5 0.56            111            177 281 
 ZAR  HE ES        142  8.26                             112   -0.26 9  205 331 
 ZAR  HZ I         142 10.95         8.2 0.26            108            205 331 
 PRA  HZ EP        141 51.44                             106    0.07 8  260 203 
 PRA  HE ES        142 20.58                             106    0.58 8  260 203 
 PRA  HZ I         142 22.89         3.3 0.20            104            260 203 
                                                                                
