 2014  1 3 0244  8.9 L   6.839 -73.174140.0  RSN  9 0.6 1.6LRSN                1
 GAP=131        1.44       6.5     6.3  8.3 -0.1338E+02  0.1107E+02  0.1298E+02E
 Epicentro: ZAPATOCA - SANTANDER                                               3
 ACTION:UPD 14-03-13 09:50 OP:ep   STATUS:               ID:20140103024408 L   I
 OLDACT:REG 14-01-03 09:03 OP:stll STATUS:               ID:20140103023808     3
 2014-01-03-0238-08M.COL___246                                                 6
 STAT SP IPHASW D HRMM SECON CODA AMPLIT PERI AZIMU VELO AIN AR TRES W  DIS CAZ7
 BAR2 SZ EP        244 27.75                             168   -0.2010 27.3 182 
 BAR2 SZ ES        244 42.53                             168   -0.2610 27.3 182 
 BAR2 SZ I         244 44.69        13.0 0.36            166           27.3 182 
 BRR  HZ IP     C  244 29.31                             153    0.1310 66.4 297 
 BRR  HZ I         244 29.44        13.2 0.84            153           66.4 297 
 BRR  HN ES        244 46.20                             153    1.2210 66.4 297 
 PAM  SZ IP     D  244 30.40                             150   -0.0610 76.3  43 
 PAM  SZ I         244 30.56        11.2 0.16            154           76.3  43 
 PAM  SN ES        244 47.02                             150   -0.2410 76.3  43 
 RUS  HZ EP        244 32.59                             141    0.1410  105 174 
 RUS  HN ES        244 51.06                             141    0.2610  105 174 
 RUS  HZ I         244 51.68         1.9 0.30            141            105 174 
 PTB  HZ EP        244 34.17                             131   -1.05 9  146 257 
 PTB  HN ES        244 54.99                             131   -0.74 9  146 257 
 PTB  HZ I         244 58.78         4.7 0.38            131            146 257 
 SPBC HZ EP        244 36.91                             128   -0.21 9  165 217 
 SPBC HN ES        244 59.25                             128    0.14 9  165 217 
 SPBC HZ I         245  4.99         3.8 0.50            127            165 217 
 NOR  HZ EP        244 44.70                             117    0.38 8  235 233 
 NOR  HN ES        245 11.00                             117   -0.93 8  235 233 
 NOR  HZ I         245 16.66         3.2 0.22            118            235 233 
 CHI  HZ EP        244 46.84                             116    0.17 8  252 194 
 CHI  HZ I         244 48.88         2.0 0.54            116            252 194 
 GUY2CHZ EP        244 52.87                             111    0.61 7  301 234 
 GUY2CHE ES        245 27.22                             111    1.16 7  301 234 
 GUY2CHZ I         245 35.01         2.0 0.54                           301 234 
                                                                                
