 2015  5 3 0855 12.3 L   6.845 -73.048146.6  RSN  6 0.4 1.2LRSN                1
 GAP=147        1.07       5.7     7.6 11.3 -0.3114E+01  0.4533E+02 -0.1677E+02E
 Epicentro: LOS SANTOS - SANTANDER                                             3
 ACTION:UPD 15-09-10 22:01 OP:cam  STATUS:               ID:20150503085509 L   I
 OLDACT:UP  15-05-07 16:03 OP:cam  STATUS:               ID:20150503085509 L   3
 OLDACT:UP  15-05-07 16:03 OP:cam  STATUS:               ID:20150503085509 L   3
 OLDACT:UP  15-05-07 06:55 OP:AK   STATUS:               ID:20150503085509 L   3
 OLDACT:DUP 15-05-03 18:25 OP:stll STATUS:               ID:20150503084744d    3
 2015-05-03-0847-43M.COL___273                                                 6
 STAT SP IPHASW D HRMM SECON CODA AMPLIT PERI AZIMU VELO AIN AR TRES W  DIS CAZ7
 BAR2 EZ ES        855 47.50                             167   -0.2410 31.6 208 
 PAM  SN ES        855 51.44                             154    0.5110 66.9  35 
 PAM  SN I         855 53.05         3.4 0.46            158           66.9  35 
 BRR  HZ EP        855 34.27                             150    0.3010 78.8 292 
 BRR  HN ES        855 51.23                             150    0.3510 78.8 292 
 BRR  HN I         855 54.98        11.8 0.18            149           78.8 292 
 RUS  HE ES   1    855 54.78                             143   -0.55 7  105 182 
 RUS  HZ I         855 56.36         0.6 0.44            145            105 182 
 OCA  HN ES        856  1.43                             130   -0.81 9  157 349 
 ZAR  HZ EP   1    855 45.91                             121    0.27 6  212 290 
 ZAR  HN ES        856 11.59                             121   -0.06 8  212 290 
 ZAR  HZ I         856 16.15         1.7 0.38            123            212 290 
                                                                                
