 2012  3 3 0001 40.2 L   6.819 -73.129142.8  RSN  6 0.4 1.8LRSN                1
 GAP=241        0.89       6.4     6.9  9.0  0.2036E+02  0.1462E+01  0.3562E+01E
 ACTION:UP  12-03-31 23:16 OP:EP   STATUS:               ID:20120303000140 L   I
 2012-03-03-0000-00M.COL___191                                                 6
 STAT SP IPHASW D HRMM SECON CODA AMPLIT PERI AZIMU VELO SNR AR TRES W  DIS CAZ7
 BRR  HZ EP        0 2  1.65                             152     0.610   72 296 
 BRR  HN ES   1    0 2 17.39                             152     0.1 7   72 296 
 BRR  HZ I         0 2 20.77        29.9 0.35                            72 296 
 RUS  HZ EP        0 2  3.56                             143    -0.210  103 177 
 RUS  HZ I         0 2  4.53         3.8 0.30                           103 177 
 RUS  HE ES   1    0 2 21.93                             143    -0.2 7  103 177 
 PTB  HZ EP        0 2  6.61                             131    -0.5 9  150 258 
 PTB  HN ES   1    0 2 27.80                             131    -0.3 7  150 258 
 ZAR  HZ EP   1    0 2 12.47                             121     0.0 6  205 291 
 ZAR  HN ES   1    0 2 37.50                             121    -0.2 6  205 291 
 ZAR  HZ I         0 2 43.04         7.1 0.25                           205 291 
 NOR  SZ EP   2    0 2 16.29                             118     0.3 4  237 234 
 NOR  SN ES   1    0 2 44.50                             118     0.5 6  237 234 
 CHI  HZ EP   1    0 2 18.16                             116     0.2 6  251 195 
 CHI  HZ I         0 2 53.63         2.7 0.34                           251 195 
                                                                                
