 2010  8 3 0337  5.3 L   6.054 -73.577127.2  RSN  4 0.3 1.5LRSN                1
 GAP=245        0.84      11.2    18.9 11.8  0.1251E+03  0.6936E+02 -0.8101E+01E
 Epicentro: GUEPSA - SANTANDER                                                 3
 ACTION:UP  10-09-07 10:51 OP:vdl  STATUS:               ID:20100803033705 L   I
 2010-08-03-0334-31S.COL___123                                                 6
 STAT SP IPHASW D HRMM SECON CODA AMPLIT PERI AZIMU VELO SNR AR TRES W  DIS CAZ7
 RUS  HZ EP   1    337 24.38                             154    -0.1 7   58 108 
 RUS  HZ I         337 24.79         2.4 0.11                            58 108 
 RUS  HN ES   2    337 38.75                             154    -0.6 5   58 108 
 BAR2 SZ EP        337 25.53                             148     0.510   74  36 
 BAR2 SZ ES   2    337 40.45                             148     0.1 5   74  36 
 BAR2 SZ I         337 42.63        14.6 0.35                            74  36 
 BRR  HZ EP        337 27.89                             134    -0.210  117 353 
 BRR  HE ES   2    337 45.73                             134     0.0 5  117 353 
 BRR  HZ I         337 47.99         5.0 0.10                           117 353 
 GUE  SZ EP        337 37.32                             117    -0.3 8  209  20 
 GUE  SZ I         337 47.62         4.8 0.10                           209  20 
                                                                                
