 2013  1 3 0752 26.0 L   6.815 -73.167142.0  RSN  8 0.5 1.7LRSN                1
 GAP=111        1.08       4.0     3.9  7.8  0.3236E+01  0.1963E+01  0.1686E+01E
 Epicentro: LOS SANTOS - SANTANDER                                             3
 ACTION:UPD 13-02-15 09:11 OP:ep   STATUS:               ID:20130103075225 L   I
 2013-01-03-0749-50M.COL___189                                                 6
 STAT SP IPHASW D HRMM SECON CODA AMPLIT PERI AZIMU VELO AIN AR TRES W  DIS CAZ7
 BAR2 SZ EP        752 45.51                             170    0.2710 24.7 184 
 BAR2 SZ I         752 45.78         7.3 0.30            172           24.7 184 
 BAR2 SZ ES        752 59.92                             170   -0.3010 24.7 184 
 BRR  HZ EP        752 47.47                             153    0.8510 68.3 298 
 BRR  HN ES   3    753  4.19                             153    1.52 2 68.3 298 
 BRR  HN I         753  8.46        18.4 0.18            153           68.3 298 
 RUS  HZ EP        752 49.86                             142    0.3110  102 175 
 RUS  HN ES        753  8.24                             142    0.3410  102 175 
 RUS  HN I         753  9.49         5.8 0.30            147            102 175 
 PTB  HE EP        752 52.31                             131   -0.21 9  146 258 
 PTB  HN ES        753 12.59                             131   -0.58 9  146 258 
 PTB  HN I         753 15.69         6.7 0.18            134            146 258 
 TAM  HZ EP        752 53.91                             129    0.23 9  158 105 
 TAM  HZ I         752 53.96         7.3 0.20            133            158 105 
 TAM  HE ES        753 14.78                             129   -0.46 9  158 105 
 OCA  HE ES        753 15.10                             129   -0.49 9  158 354 
 OCA  HE I         753 22.08        13.8 0.20            131            158 354 
 ZAR  HN ES        753 23.08                             122    0.25 9  201 292 
 CHI  HZ EP        753  3.14                             116   -0.49 8  250 195 
 CHI  HN ES        753 32.73                             116   -0.23 8  250 195 
 CHI  HN I         753 36.42         2.8 0.26            119            250 195 
                                                                                
