 2017  9 3 0206 33.9 L   6.811 -73.117146.3  RSN 16 0.5 2.5LRSN                1
 GAP=114        1.00       2.9     3.7  4.9  0.4077E+00  0.4437E+01  0.1811E+01E
 Epicentro: LOS SANTOS - SANTANDER                                             3
 ACTION:UPD 17-10-05 19:08 OP:rebc STATUS:               ID:20170903020633 L   I
 OLDACT:UP  17-09-03 14:22 OP:dani STATUS:               ID:20170903015740     3
 OLDACT:REG 17-09-03 13:10 OP:dani STATUS:               ID:20170903015740     3
 2017-09-03-0158-00M.COL___414                                                 6
 STAT SP IPHASW D HRMM SECON CODA AMPLIT PERI AZIMU VELO AIN AR TRES W  DIS CAZ7
 BAR2 EZ EP     C  2 6 53.60                             170   -0.0310 25.3 197 
 BAR2 EZ ES        2 7  8.24                             170   -0.7810 25.3 197 
 BAR2 EZ I         2 7  9.83       136.6 0.30            168           25.3 197 
 BRR  HZ IP     C  2 6 55.38                             152    0.1610 73.4 296 
 BRR  HN ES        2 7 12.52                             152    0.6610 73.4 296 
 BRR  HZ I         2 7 13.60        42.7 0.34            149           73.4 296 
 PAM  EZ EP     C  2 6 56.44                             151    0.4510 74.4  38 
 PAM  EN ES        2 7 13.72                             151    0.4910 74.4  38 
 PAM  EZ I         2 7 16.09        54.5 0.64            154           74.4  38 
 RUS  HZ EP        2 6 57.58                             144   -0.1910  102 178 
 RUS  HN ES        2 7 16.17                             144   -0.2310  102 178 
 RUS  HZ I         2 7 17.24        34.5 0.46            144            102 178 
 SPBC HZ EP        2 7  2.54                             129   -0.17 9  166 220 
 SPBC HN ES        2 7 24.80                             129   -0.39 9  166 220 
 SPBC HZ I         2 7 27.06        65.2 0.22            128            166 220 
 YPLC HZ IP     D  2 7  4.05                             127    0.36 9  176 152 
 YPLC HN ES        2 7 26.82                             127   -0.11 9  176 152 
 YPLC HZ I         2 7 30.58        28.1 0.36            128            176 152 
 ZAR  HZ EP        2 7  6.18                             122   -0.44 8  207 291 
 ZAR  HE ES        2 7 31.64                             122   -0.52 8  207 291 
 ZAR  HZ I         2 7 38.21        45.5 0.38            121            207 291 
 CHI  HZ EP        2 7 11.99                             117    0.15 8  251 196 
 CHI  HN ES        2 7 41.26                             117   -0.18 8  251 196 
 CHI  HZ I         2 7 46.42        14.5 0.34            117            251 196 
 ROSC BZ EP   9    2 7 13.79                             116    1.45 0  255 211 
 ROSC BN ES        2 7 43.48                             116   -0.30 8  255 211 
 ROSC BZ I         2 7 48.27        47.5 0.35            116            255 211 
 URE  HZ EP   4    2 7 18.51                             113    3.25 0  286 291 
 URE  HE ES   4    2 7 44.95                             113   -2.58 0  286 291 
 URE  HZ I         2 7 57.59        28.8 0.38            113            286 291 
 GUY2CHZ EP        2 7 18.26                             112    0.36 7  304 235 
 GUY2CHN ES        2 7 53.31                             112    1.09 7  304 235 
 GUY2CHZ I         2 7 59.25        10.6 0.50                           304 235 
 PTGC HZ EP   3 D  2 7 16.78                             111   -1.00 2  309 159 
 PTGC HN ES   4    2 7 50.28                             111   -1.73 0  309 159 
 PTGC HZ I         2 7 52.41         9.3 0.24            112            309 159 
 LL6C HZ EP        2 7 19.00                             110   -0.49 7  324 357 
 DBB  EZ EP        2 7 22.21                             109    0.47 7  343 274 
 DBB  EN ES   3    2 7 56.95                             109   -2.11 2  343 274 
 DBB  EZ I         2 8  2.87         7.9 0.18            109            343 274 
 PRA  HZ EP        2 7 27.34                             106   -0.40 6  395 210 
 PRA  HN ES        2 8  9.74                             106   -0.00 6  395 210 
 PRA  HZ I         2 8 13.81        12.3 0.24            106            395 210 
 SJC  HZ EP   3    2 7 27.80                             106   -1.75 1  410 326 
 SJC  HN ES   4    2 8  9.18                             106   -3.78 0  410 326 
 SJC  HZ I         2 8 16.74         6.6 0.28            106            410 326 
                                                                                
