 2014  9 3 0845  6.0 L   6.773 -73.165143.0  RSN 17 0.5 2.2LRSN                1
 GAP=135        1.00       2.9     3.7  5.1 -0.1571E+01  0.4671E+01  0.2186E+01E
 Epicentro: LOS SANTOS - SANTANDER                                             3
 ACTION:UPD 14-10-03 23:01 OP:nd   STATUS:               ID:20140903084506 L   I
 OLDACT:UP  14-09-03 17:21 OP:mh   STATUS:               ID:20140903083808     3
 OLDACT:REG 14-09-03 13:12 OP:mh   STATUS:               ID:20140903083808     3
 2014-09-03-0838-08M.COL___263                                                 6
 STAT SP IPHASW D HRMM SECON CODA AMPLIT PERI AZIMU VELO AIN AR TRES W  DIS CAZ7
 BAR2 SZ EP        845 25.25                             172    0.0510 20.1 185 
 BAR2 SZ ES        845 39.92                             172   -0.2910 20.1 185 
 BAR2 SZ I         845 41.38        56.1 0.20            171           20.1 185 
 BRR  HZ EP     D  845 27.17                             152    0.3810 70.8 301 
 BRR  HN ES        845 43.78                             152    0.7410 70.8 301 
 BRR  HZ I         845 45.82        23.3 0.11            148           70.8 301 
 PAM  SZ EP        845 28.13                             149    0.0210 81.0  39 
 PAM  SN ES        845 45.13                             149   -0.2610 81.0  39 
 PAM  SZ I         845 47.31        22.1 0.17            151           81.0  39 
 RUS  HZ EP   1    845 29.27                             144    0.03 7 97.8 175 
 RUS  HN ES   1    845 47.88                             144    0.48 7 97.8 175 
 RUS  HZ I         845 48.29        23.9 0.30            147           97.8 175 
 PTB  HZ EP        845 31.84                             132   -0.62 9  145 260 
 PTB  HN ES        845 52.33                             132   -0.80 9  145 260 
 PTB  HZ I         845 56.92        18.2 0.12            130            145 260 
 SPBC HZ EP   1    845 34.09                             129    0.19 7  160 219 
 SPBC HN ES   1    845 55.75                             129    0.05 7  160 219 
 SPBC HZ I         846  1.36        21.8 0.28            129            160 219 
 OCA  HZ EP        845 34.54                             128    0.22 9  163 354 
 OCA  HN ES   4    845 56.07                             128   -0.36 0  163 354 
 OCA  HZ I         846  5.89        10.1 0.24            128            163 354 
 ZAR  HZ EP   1    845 38.59                             122    0.45 6  203 293 
 ZAR  HN ES        846  3.80                             122    0.56 9  203 293 
 ZAR  HZ I         846  9.98        19.8 0.38            121            203 293 
 NOR  HZ EP        845 41.32                             118    0.16 8  231 235 
 NOR  HN ES   1    846  8.60                             118   -0.01 6  231 235 
 NOR  HZ I         846 14.17        11.3 0.24            118            231 235 
 CHI  HZ EP        845 43.20                             117    0.06 8  245 195 
 CHI  HN ES        846 12.02                             117   -0.11 8  245 195 
 SML  HZ EP   1    845 41.75                             117   -0.88 6  246 336 
 SML  HN ES        846 10.72                             117   -0.51 8  246 336 
 SML  HZ I         846 18.69        17.0 0.26            117            246 336 
 ROSC BZ EP        845 42.86                             116   -0.67 8  249 211 
 ROSC BN ES   4    846 15.28                             116    2.44 0  249 211 
 ROSC BZ I         846 22.13        11.9 0.37            117            249 211 
 HEL  HZ EP   1    845 46.83                             114    1.11 6  269 256 
 HEL  HN ES        846 16.37                             114   -0.37 8  269 256 
 HEL  HZ I         846 23.72        10.0 0.50            114            269 256 
 GUY2CHZ EP   1    845 49.65                             112    0.60 5  298 235 
 GUY2CHN ES        846 22.43                             112   -0.23 7  298 235 
 GUY2CHZ I         846 30.34         5.7 0.12                           298 235 
 MON  HZ EP   4    845 52.95                             108   -1.93 0  354 309 
 MON  HN ES   4    846 31.40                             108   -1.63 0  354 309 
 MON  HZ I         846 36.61         2.4 0.48            108            354 309 
 PRA  HZ EP        845 59.23                             106    0.27 6  388 210 
 PRA  HN ES   1    846 40.85                             106    0.55 4  388 210 
 PRA  HZ I         846 46.90         5.9 0.32            107            388 210 
 SJC  HZ EP   4    845 59.65                             105   -1.94 0  411 327 
 SJC  HN ES   4    846 39.92                             105   -5.06 0  411 327 
 SJC  HZ I         846 49.84         1.7 0.17            106            411 327 
                                                                                
