 2012  3 3 0322 27.3 L   6.650 -73.527107.1  RSN  4 0.3 1.3LRSN                1
 GAP=122        0.64       5.5     5.0  8.3  0.6670E+01  0.1823E+02  0.1142E+02E
 ACTION:UP  12-03-31 23:16 OP:EP   STATUS:               ID:20120303032227 L   I
 2012-03-03-0320-00M.COL___191                                                 6
 STAT SP IPHASW D HRMM SECON CODA AMPLIT PERI AZIMU VELO SNR AR TRES W  DIS CAZ7
 BAR2 SZ ES   1    322 54.63                             159    -0.4 7   39 100 
 BAR2 SZ I         322 56.38         8.3 0.23                            39 100 
 BRR  HZ EP        322 43.27                             151    -0.110   55 338 
 BRR  HZ I         322 43.56         4.5 0.11                            55 338 
 BRR  HE ES        322 56.07                             151     0.210   55 338 
 RUS  HE ES   2    323  3.31                             135     0.6 5   97 150 
 PTB  HZ EP   1    322 47.18                             132     0.1 7  104 263 
 PTB  HN ES   1    323  2.42                             132    -0.2 7  104 263 
                                                                                
