 2017  7 3 0038 25.3 L   6.825 -73.156138.3  RSN  7 0.3 1.6LRSN                1
 GAP=145        0.74       4.2     3.9  5.9 -0.3551E+01  0.1044E+02 -0.1017E+01E
 Epicentro: LOS SANTOS - SANTANDER                                             3
 ACTION:UPD 17-08-30 15:29 OP:rebc STATUS:               ID:20170703003825 L   I
 OLDACT:UP  17-07-03 14:43 OP:edw  STATUS:               ID:20170703003417     3
 OLDACT:REG 17-07-03 13:19 OP:edw  STATUS:               ID:20170703003417     3
 2017-07-03-0038-00M.COL___377                                                 6
 STAT SP IPHASW D HRMM SECON CODA AMPLIT PERI AZIMU VELO AIN AR TRES W  DIS CAZ7
 BAR2 EZ EP        038 43.82                             169   -0.2710 25.9 186 
 BAR2 EZ ES        038 58.68                             169   -0.0710 25.9 186 
 BAR2 EZ I         038 59.94        10.2 0.20            171           25.9 186 
 BRR  HZ EP     C  038 45.55                             152    0.0410 68.9 297 
 BRR  HN ES        039  1.56                             152    0.2810 68.9 297 
 BRR  HZ I         039  6.07         7.1 0.22            149           68.9 297 
 PAM  EN ES        039  3.31                             150    0.0210 76.0  42 
 PTB  HZ EP        038 51.90                             130    0.29 9  147 258 
 PTB  HN ES        039 11.46                             130   -0.68 9  147 258 
 PTB  HZ I         039 15.21         3.3 0.42            131            147 258 
 SPBC HN ES        039 15.64                             127    0.37 9  165 218 
 ZAR  HZ EP        038 56.88                             121   -0.16 9  202 292 
 ZAR  HN ES        039 21.95                             121    0.14 9  202 292 
 ZAR  HZ I         039 27.49         7.1 0.28            122            202 292 
 HEL  HN ES   2    039 36.42                             113    0.29 4  272 255 
                                                                                
