 2013 10 3 0618 59.2 L   6.816 -73.159146.0  RSN  7 0.5 1.8LRSN                1
 GAP=145        1.19       5.0     5.5  7.9 -0.5588E+01  0.1003E+02 -0.4401E+01E
 Epicentro: LOS SANTOS - SANTANDER                                             3
 ACTION:UPD 13-11-25 09:18 OP:ep   STATUS:               ID:20131003061859 L   I
 OLDACT:REG 13-10-03 05:56 OP:nd   STATUS:               ID:20131003061838     3
 2013-10-03-0618-38M.COL___231                                                 6
 STAT SP IPHASW D HRMM SECON CODA AMPLIT PERI AZIMU VELO AIN AR TRES W  DIS CAZ7
 BAR2 SZ EP        619 19.12                             170    0.1810 24.9 186 
 BAR2 SZ ES        619 33.61                             170   -0.6910 24.9 186 
 BAR2 SZ I         619 36.73        15.9 0.28            168           24.9 186 
 BRR  HZ IP     C  619 20.89                             153    0.5810 69.1 298 
 BRR  HN ES        619 37.43                             153    0.7010 69.1 298 
 BRR  HZ I         619 38.36        14.1 0.32            150           69.1 298 
 PAM  SZ EP        619 21.83                             151    0.3710 76.9  41 
 PAM  SN ES        619 38.69                             151   -0.1010 76.9  41 
 PAM  SZ I         619 41.35         4.2 0.48            156           76.9  41 
 PTB  HZ EP        619 25.79                             132   -0.35 9  147 258 
 PTB  HN ES        619 46.58                             132   -0.54 9  147 258 
 PTB  HZ I         619 55.94         4.4 0.32            131            147 258 
 SPBC HZ EP        619 27.99                             129    0.18 9  164 218 
 SPBC HN ES        619 50.13                             129    0.04 9  164 218 
 SPBC HZ I         619 56.21         7.8 0.20            130            164 218 
 ZAR  HZ EP   4    619 33.40                             123    1.90 0  202 292 
 ZAR  HN ES        619 57.14                             123    0.48 9  202 292 
 ZAR  HZ I         620  4.83         5.8 0.36            123            202 292 
 SML  HZ EP        619 34.99                             118   -0.66 8  241 335 
 SML  HN ES        620  3.44                             118   -0.60 8  241 335 
 SML  HZ I         620  7.73         7.8 0.10            119            241 335 
                                                                                
