 2015  5 3 0916  5.3 L   6.812 -73.072145.9  RSN  7 0.4 1.5LRSN                1
 GAP=146        1.02       3.9     6.3  7.7  0.6782E+01  0.1772E+02 -0.1354E+01E
 Epicentro: LOS SANTOS - SANTANDER                                             3
 ACTION:UPD 15-09-10 22:01 OP:cam  STATUS:               ID:20150503091605 L   I
 OLDACT:DUP 15-05-03 18:39 OP:stll STATUS:               ID:20150503090747d    3
 2015-05-03-0907-46M.COL___273                                                 6
 STAT SP IPHASW D HRMM SECON CODA AMPLIT PERI AZIMU VELO AIN AR TRES W  DIS CAZ7
 BAR2 EZ EP        916 24.99                             169   -0.0610 27.2 207 
 BAR2 EZ ES        916 40.42                             169   -0.0210 27.2 207 
 BAR2 EZ I         916 41.29         4.6 0.46            171           27.2 207 
 PAM  SN ES        916 44.04                             153   -0.2310 71.4  35 
 PAM  SZ I         916 46.30         5.2 0.40            151           71.4  35 
 BRR  HZ EP        916 26.77                             150   -0.1110 77.9 295 
 BRR  HN ES        916 43.54                             150   -0.1510 77.9 295 
 BRR  HZ I         916 44.42         4.3 0.14            149           77.9 295 
 RUS  HZ EP        916 29.05                             144   -0.1210  102 181 
 RUS  HZ I         916 29.66         2.3 0.36            146            102 181 
 RUS  HN ES        916 47.95                             144    0.1910  102 181 
 OCA  HN ES        916 56.68                             130    0.96 9  160 350 
 OCA  HZ I         916 59.66         6.4 0.54            128            160 350 
 ZAR  HZ EP        916 38.81                             121    0.29 8  211 291 
 ZAR  HE ES        917  4.55                             121    0.14 8  211 291 
 ZAR  HZ I         917  8.67         4.1 0.74            121            211 291 
 SML  HN ES        917 10.03                             117   -0.96 8  246 333 
 SML  HZ I         917 15.64         3.1 0.10            116            246 333 
                                                                                
