 2015  3 3 0617 59.3 L   6.816 -73.143151.1  RSN  5 0.4 1.1LRSN                1
 GAP=136        0.92       5.4     5.6  8.5 -0.7087E+01  0.7445E+01  0.1546E+02E
 Epicentro: LOS SANTOS - SANTANDER                                             3
 ACTION:UPD 15-04-30 16:22 OP:nd   STATUS:               ID:20150303061759 L   I
 OLDACT:REG 15-03-03 12:58 OP:spq  STATUS:               ID:20150303060747     3
 2015-03-03-0607-47M.COL___287                                                 6
 STAT SP IPHASW D HRMM SECON CODA AMPLIT PERI AZIMU VELO AIN AR TRES W  DIS CAZ7
 BRR  HZ EP        618 21.28                             154    0.2810 70.6 297 
 BRR  HN ES        618 38.44                             154    0.5210 70.6 297 
 BRR  HZ I         618 41.76         2.1 0.12            154           70.6 297 
 PAM  SE ES        618 39.41                             152   -0.2910 75.8  40 
 PAM  SZ I         618 40.64         2.8 0.30            156           75.8  40 
 RUS  HZ EP   1    618 23.51                             144   -0.19 7  102 176 
 RUS  HE ES   1    618 42.68                             144   -0.05 7  102 176 
 RUS  HZ I         618 43.63         0.6 0.20            147            102 176 
 PTB  HZ EP        618 26.61                             133   -0.15 9  148 258 
 PTB  HN ES        618 47.44                             133   -0.74 9  148 258 
 PTB  HZ I         618 49.26         1.9 0.28            135            148 258 
 SPBC HZ EP        618 28.55                             130    0.19 9  165 219 
 SPBC HN ES        618 51.31                             130    0.29 9  165 219 
 SPBC HZ I         618 54.33         2.3 0.10            132            165 219 
                                                                                
