 2010  1 3 0815 52.5 L   6.786 -73.043146.0  RSN  4 0.2 1.3LRSN                1
 GAP=209        0.39       3.3    22.7  5.2 -0.2916E+02  0.2172E+01  0.4838E+01E
 Epicentro: LOS SANTOS - SANTANDER                                             3
 ACTION:UP  10-08-24 09:42 OP:vdl  STATUS:               ID:20100103081552 L   I
 2010-01-03-0813-43S.COL___096                                                 6
 STAT SP IPHASW D HRMM SECON CODA AMPLIT PERI AZIMU VELO SNR AR TRES W  DIS CAZ7
 BAR2 SZ IP        816 12.23                             169     0.010   27 216 
 BAR2 SZ ES   2    816 27.74                             169     0.1 5   27 216 
 GIR2 SZ ES   2    816 27.81                             165     0.0 5   36 333 
 OCA  SZ EP   2    816 21.58                             129     0.4 5  164 349 
 OCA  SZ ES   2    816 43.29                             129    -0.2 5  164 349 
 CHI  HZ EP   1    816 30.22                             117    -0.2 6  250 198 
 CHI  HN ES   2    817  0.22                             117     0.2 4  250 198 
 CHI  HZ I         817  5.54         1.2 0.45                           250 198 
                                                                                
