 2011  2 3 0015  0.4 L   6.843 -73.157140.0  RSN 12 0.4 2.4LRSN                1
 GAP=103        0.67       3.5     3.9  5.2 -0.1869E+01  0.3822E+01 -0.2444E+01E
 Epicentro: LOS SANTOS - SANTANDER                                             3
 ACTION:UP  11-03-28 15:05 OP:jfem STATUS:               ID:20110203001500 L   I
 2011-02-03-0012-40S.COL___135                                                 6
 STAT SP IPHASW D HRMM SECON CODA AMPLIT PERI AZIMU VELO SNR AR TRES W  DIS CAZ7
 BAR2 SZ EP   2    015 19.69                             169     0.2 5   28 186 
 BAR2 SZ ES   1    015 34.46                             169     0.1 8   28 186 
 BAR2 SZ I         015 36.29        71.6 0.20                            28 186 
 RUS  HZ EP        015 23.84                             141    -0.110  105 176 
 RUS  HE ES   1    015 42.05                                    -0.3 7  105 176 
 RUS  HZ I         015 44.01        27.2 0.26                           105 176 
 OCA  SZ EP   2    015 28.09                                     0.3 5  155 353 
 OCA  SZ ES   2    015 49.02                                    -0.2 5  155 353 
 OCA  SZ I         015 53.42        48.2 0.29                           155 353 
 YOP  SZ EP        015 30.71                                     0.2 9  184 154 
 YOP  SZ I         015 31.10        18.6 0.46                           184 154 
 YOP  SE ES   2    015 54.89                                     0.8 4  184 154 
 NOR  SZ EP   1    015 36.19                             117     0.2 6  237 233 
 NOR  SE ES   1    016  3.45                                    -0.4 6  237 233 
 CHI  HZ EP   1    015 38.17                             115    -0.1 6  253 195 
 CHI  HN ES   2    016  6.86                             115    -1.0 4  253 195 
 CHI  HZ I         016 14.79        13.5 0.54                           253 195 
 ROSC BZ EP        015 39.10                             115     0.5 8  256 210 
 ROSC BZ I         016 14.49        24.9 0.75                           256 210 
 HEL  HN ES   2    016 11.34                                    -0.1 4  272 255 
 HEL  HZ I         016 19.07        14.3 0.53                           272 255 
 RREF HZ EP   2    015 46.65                                     0.1 3  324 229 
 RREF HN ES   2    016 22.37                                    -0.2 3  324 229 
 RREF HZ I         016 34.00        14.4 0.50                           324 229 
 DBB  SZ EP        015 47.74                             108     0.3 7  338 273 
 SDV  BZ EP        015 49.52                                    -0.5 6  358  51 
 SDV  BZ I         015 50.30         9.3 0.30                           358  51 
 SJA  SZ EP   2    015 54.93                                    -0.4 3  404 193 
                                                                                
