 2016 11 3 0350  3.6 L   6.788 -73.129145.7  RSN 20 0.5 2.7LRSN                1
 GAP= 67        1.02       3.4     2.8  5.0 -0.5426E+00  0.2260E+01  0.5336E+01E
 Epicentro: LOS SANTOS - SANTANDER                                             3
 ACTION:UPD 17-10-26 21:04 OP:lp   STATUS:               ID:20161103035003 L   I
 OLDACT:UP  16-11-03 14:05 OP:dani STATUS:               ID:20161103034745     3
 OLDACT:UP  16-11-03 14:05 OP:dani STATUS:               ID:20161103034745     3
 OLDACT:REG 16-11-03 12:22 OP:dani STATUS:               ID:20161103034745     3
 2016-11-03-0348-00M.COL___337                                                 6
 STAT SP IPHASW D HRMM SECON CODA AMPLIT PERI AZIMU VELO AIN AR TRES W  DIS CAZ7
 BAR2 HZ IP     D  350 23.08                             171   -0.1110 22.4 195 
 BAR2 HE ES        350 38.27                             171   -0.2110 22.4 195 
 BAR2 HZ I         350 39.10       147.7 0.16            166           22.4 195 
 BRR  HZ IP     C  350 24.99                             152    0.1310 73.5 299 
 BRR  HN ES        350 41.95                             152    0.5010 73.5 299 
 BRR  HZ I         350 45.02       134.0 0.28            150           73.5 299 
 PAM  HZ EP        350 26.10                             151    0.3210 77.2  38 
 PAM  HE ES        350 43.13                             151    0.0310 77.2  38 
 PAM  HZ I         350 45.39       157.1 0.68            157           77.2  38 
 RUS  HZ EP        350 27.03                             144   -0.2010 99.1 177 
 RUS  HN ES        350 45.33                             144   -0.3310 99.1 177 
 RUS  HZ I         350 46.69        71.5 0.32            143           99.1 177 
 PTB  HZ EP        350 29.87                             132   -0.82 9  149 259 
 PTB  HN ES        350 50.96                             132   -0.87 9  149 259 
 PTB  HZ I         350 53.10       110.3 0.14            130            149 259 
 TAM  HZ EP     D  350 31.42                             131    0.36 9  153 105 
 TAM  HN ES        350 52.63                             131    0.15 9  153 105 
 TAM  HZ I         350 54.14        34.7 0.30            135            153 105 
 SPBC HZ EP        350 32.12                             129    0.03 9  163 220 
 SPBC HE ES        350 54.15                             129   -0.18 9  163 220 
 SPBC HZ I         350 56.90        84.4 0.78            128            163 220 
 ZAR  HZ EP        350 35.80                             122   -0.46 8  206 292 
 ZAR  HE ES        351  2.37                             122    0.63 8  206 292 
 ZAR  HZ I         351  7.59       106.2 0.40            122            206 292 
 NOR  HZ EP        350 39.57                             118    0.18 8  235 235 
 NOR  HE ES        351  7.29                             118   -0.03 8  235 235 
 NOR  HZ I         351 10.76        36.1 0.60            118            235 235 
 CHI  HZ EP        350 41.33                             117    0.13 8  248 196 
 CHI  HE ES        351 11.43                             117    0.90 8  248 196 
 CHI  HZ I         351 16.40        18.3 0.44            117            248 196 
 HEL  HZ EP   4    350 44.96                             114    1.00 0  274 256 
 HEL  HE ES   4    351 13.97                             114   -1.48 0  274 256 
 HEL  HZ I         351 22.27        30.3 0.48            115            274 256 
 URE  HZ EP   9    350 43.31                             113   -1.59 0  286 292 
 URE  HE ES        351 15.16                             113   -0.38 7  286 292 
 URE  HZ I         351 28.42        45.2 0.18            114            286 292 
 PTGC HZ EP        350 46.23                             112   -0.99 7  307 159 
 PTGC HN ES   4    351 19.59                             112   -1.66 0  307 159 
 PTGC HZ I         351 22.07        25.6 0.44            113            307 159 
 LL6C HZ EP   9 D  350 28.62                             110   -20.8 0  326 357 
 LL6C HN ES        351  4.19                                   -0.20 7  326 357 
 LL6C HZ I         351 11.70         9.7 0.34            112            326 357 
 ELA  HZ EP   4    350 51.65                             110    1.15 0  330 230 
 ELA  HN ES        351 27.61                             110    0.52 7  330 230 
 ELA  HZ I         351 34.35        14.1 0.63            111            330 230 
 CBOC HZ EP   4    350 51.43                             110    0.77 0  335 252 
 CBOC HN ES        351 27.67                             110    0.30 7  335 252 
 CBOC HZ I         351 37.80        10.1 0.20            110            335 252 
 PRA  HZ EP        350 56.80                             106   -0.28 6  392 210 
 PRA  HN ES        351 39.54                             106    0.74 6  392 210 
 PRA  HZ I         351 44.88        26.0 0.24            107            392 210 
 ORTC HZ EP        350 58.00                             106    0.49 6  395 217 
 ORTC HE ES   4    351 41.66                             106    2.09 0  395 217 
 ORTC HZ I         351 46.16        18.1 0.36            107            395 217 
 PAL  HZ EP        350 58.70                             106   -0.15 6  407 239 
 PAL  HE ES   4    351 39.99                             106   -1.97 0  407 239 
 PAL  HZ I         351 48.90         8.2 0.40            106            407 239 
 SJC  HZ EP   4    350 57.19                             105   -2.21 0  411 327 
 SJC  HE ES   4    351 39.36                             105   -3.57 0  411 327 
 SJC  HZ I         351 43.09        11.1 0.38            107            411 327 
                                                                                
