 2016 11 3 0541 23.0 L   6.814 -73.165138.7  RSN  4 0.2 0.8LRSN                1
 GAP=143        0.50       5.0     3.4  5.4 -0.2864E+01 -0.2267E+01 -0.5700E+01E
 Epicentro: LOS SANTOS - SANTANDER                                             3
 ACTION:UPD 17-10-26 21:04 OP:lp   STATUS:               ID:20161103054123 L   I
 OLDACT:DUP 16-11-03 15:29 OP:dani STATUS:               ID:20161103053746d    3
 2016-11-03-0538-00M.COL___337                                                 6
 STAT SP IPHASW D HRMM SECON CODA AMPLIT PERI AZIMU VELO AIN AR TRES W  DIS CAZ7
 BAR2 EZ EP        541 41.44                             170   -0.3310 24.5 184 
 BAR2 EZ ES        541 56.44                             170    0.0010 24.5 184 
 PAM  EZ EP        541 44.64                             149    0.1910 77.6  41 
 PAM  EZ I         542  2.97         2.4 0.32            131           77.6  41 
 RUS  HZ EP        541 46.20                             142    0.0510  102 175 
 RUS  HE ES   2    542  4.39                             142    0.15 5  102 175 
 RUS  HZ I         542  6.25         0.6 0.29            143            102 175 
 PTB  HN ES        542  9.72                             131    0.06 9  146 258 
                                                                                
