 2011  2 3 0358 13.2 L   6.759 -73.207140.6  RSN  7 0.3 1.4LRSN                1
 GAP=152        0.52       3.6     4.0  6.8 -0.6657E+01  0.1253E+02 -0.5747E+01E
 Epicentro: VILLANUEVA - SANTANDER                                             3
 ACTION:UP  11-03-28 15:05 OP:jfem STATUS:               ID:20110203035813 L   I
 2011-02-03-0355-32S.COL___135                                                 6
 STAT SP IPHASW D HRMM SECON CODA AMPLIT PERI AZIMU VELO SNR AR TRES W  DIS CAZ7
 BAR2 SZ EP   2    358 31.87                             172    -0.2 7   19 172 
 BAR2 SZ ES   2    358 46.62                             172    -0.2 7   19 172 
 BAR2 SZ I         358 48.64         9.7 0.24                            19 172 
 RUS  HZ EP   2    358 35.72                             144    -0.4 7   97 172 
 RUS  HN ES   2    358 54.18                             144     0.1 7   97 172 
 RUS  HZ I         358 55.95         2.4 0.21                            97 172 
 GRA  SZ EP   1    358 38.77                             134     0.3 9  132  20 
 GRA  SZ ES   2    358 58.65                             134     0.4 6  132  20 
 GRA  SZ I         359  2.72         3.2 0.35                           132  20 
 OCA  SZ EP   2    358 40.81                             128    -0.7 6  164 356 
 OCA  SZ I         359  5.55         3.5 0.15                           164 356 
 NOR  SZ EP   2    358 47.92                             118     0.2 5  227 235 
 NOR  SN ES   2    359 15.17                             118     0.5 5  227 235 
 CHI  HZ EP   2    358 50.13                             117     0.2 5  243 194 
 CHI  HZ I         358 50.91         1.8 0.06                           243 194 
 CHI  HN ES   2    359 18.62                             117     0.0 5  243 194 
 HEL  HZ EP   1    358 52.33                             114     0.1 7  264 256 
 HEL  HE ES        359 22.66                             114    -0.110  264 256 
 HEL  HZ I         359 32.20         2.6 0.53                           264 256 
                                                                                
