 2015  2 3 0032 18.0 L   6.082 -73.723107.5  RSN 10 0.6 1.8LRSN                1
 GAP=113        1.48       4.2     4.8  8.9 -0.5209E+01  0.1322E+02 -0.7899E+01E
 Epicentro: VELEZ - SANTANDER                                                  3
 ACTION:UPD 15-04-30 21:20 OP:nd   STATUS:               ID:20150203003218 L   I
 OLDACT:REG 15-02-03 13:16 OP:stll STATUS:               ID:20150203002744     3
 2015-02-03-0027-44M.COL___264                                                 6
 STAT SP IPHASW D HRMM SECON CODA AMPLIT PERI AZIMU VELO AIN AR TRES W  DIS CAZ7
 SPBC HZ EP        032 34.65                             148    0.0410 61.2 219 
 SPBC HZ I         032 34.92        28.4 0.16            135           61.2 219 
 SPBC HN ES        032 47.64                             148    0.0710 61.2 219 
 RUS  HZ EP        032 35.97                             143   -0.0810 73.9 106 
 RUS  HZ I         032 36.24        10.2 0.28            135           73.9 106 
 RUS  HN ES        032 49.30                             143   -0.8310 73.9 106 
 PTB  HZ EP        032 36.63                             135   -0.5010 95.6 302 
 PTB  HN ES        032 51.84                             135   -0.2210 95.6 302 
 PTB  HZ I         032 54.05        18.1 0.10            123           95.6 302 
 BRR  HZ EP        032 39.16                             130    0.4410  113   1 
 BRR  HN ES        032 56.41                             130    1.5310  113   1 
 NOR  HZ EP        032 41.14                             123   -0.19 9  139 246 
 NOR  HN ES        033  0.08                             123    0.56 9  139 246 
 NOR  HZ I         033  1.83         9.6 0.28            112            139 246 
 ZAR  HZ EP        032 47.74                             113   -0.10 9  200 321 
 ZAR  HN ES        033 10.58                             113   -0.54 9  200 321 
 ZAR  HZ I         033 12.90        12.2 0.30            105            200 321 
 HEL  HZ EP        032 48.95                             113    0.65 9  200 274 
 HEL  HE ES        033 11.27                             113   -0.67 9  200 274 
 HEL  HZ I         033 20.25         4.3 0.42            105            200 274 
 GUY2CHZ EP        032 49.36                             113    0.37 9  205 243 
 GUY2CHZ I         032 50.14         3.6 0.66                           205 243 
 GUY2CHN ES        033 12.58                             113   -0.58 9  205 243 
 RREF HZ EP        032 51.30                             111    0.16 8  222 234 
 RREF HN ES        033 17.57                             111    0.57 8  222 234 
 RREF HZ I         033 26.12         2.9 0.22            103            222 234 
 SML  HZ EP        032 59.83                             103    0.05 7  303 353 
 SML  HN ES        033 31.20                             103   -1.17 7  303 353 
 SML  HZ I         033 34.52         4.7 0.10            100            303 353 
                                                                                
