 2015  9 3 0018  1.6 L   6.808 -73.739 95.8  RSN  5 0.2 1.3LRSN                1
 GAP=116        0.47       2.8     1.6  3.8  0.7403E+00  0.2010E+00  0.3741E+01E
 Epicentro: EL CARMEN - SANTANDER                                              3
 ACTION:UPD 15-10-28 16:23 OP:cam  STATUS:               ID:20150903001801 L   I
 OLDACT:REG 15-09-03 12:37 OP:stll STATUS:               ID:20150903000748     3
 2015-09-03-0007-48M.COL___352                                                 6
 STAT SP IPHASW D HRMM SECON CODA AMPLIT PERI AZIMU VELO AIN AR TRES W  DIS CAZ7
 BRR  HZ EP        018 15.05                             159   -0.1810 33.2   5 
 BRR  HN ES        018 25.85                             159   -0.0410 33.2   5 
 BRR  HZ I         018 27.26        13.4 0.30            161           33.2   5 
 BAR2 EZ EP        018 17.76                             143    0.2210 66.0 111 
 BAR2 EZ ES        018 30.11                             143    0.1110 66.0 111 
 BAR2 EZ I         018 31.45         7.8 0.26            143           66.0 111 
 CPBEREZ EP        018 18.68                             135   -0.0610 84.7 250 
 CPBEREN ES        018 32.33                             135    0.1810 84.7 250 
 PTB  HZ EP        018 18.65                             135   -0.0910 84.7 250 
 PTB  HZ I         018 19.44         6.2 0.18            137           84.7 250 
 PTB  HN ES        018 32.11                             135   -0.0310 84.7 250 
 RUS  HZ EP        018 23.35                             124    0.1710  125 144 
 RUS  HE ES        018 39.76                             124   -0.2810  125 144 
 RUS  HZ I         018 41.95         1.9 0.18            124            125 144 
                                                                                
