 2011 11 3 0908  0.2 L   7.361 -73.198129.0  RSN  6 0.2 1.6LRSN                1
 GAP=100        0.59       2.9     4.0  5.1  0.4056E+00 -0.7544E+00 -0.1560E+01E
 Epicentro: RIONEGRO - SANTANDER                                               3
 ACTION:UPD 12-07-13 16:07 OP:ep   STATUS:               ID:20111103090800 L   I
 2011-11-03-0906-19S.COL___176                                                 6
 STAT SP IPHASW D HRMM SECON CODA AMPLIT PERI AZIMU VELO AIN AR TRES W  DIS CAZ7
 PAM  SZ EP   1    9 8 19.03                             156   -0.36 7 55.1  92 
 PAM  SN ES   1    9 8 34.25                             156   -0.09 7 55.1  92 
 BRR  HZ EP        9 8 19.17                             152    0.0610 63.3 244 
 BRR  HE ES        9 8 33.51                             152   -0.3410 63.3 244 
 BRR  HZ I         9 8 35.43        10.0 0.11                          63.3 244 
 BAR2 SZ EP        9 8 21.12                             145    0.2710 85.0 179 
 BAR2 SZ ES        9 8 37.08                             145    0.1510 85.0 179 
 BAR2 SZ I         9 8 38.68        10.5 0.12                          85.0 179 
 OCA  SZ EP        9 8 21.54                             140   -0.1610 98.0 352 
 OCA  SZ I         9 8 21.84         5.7 0.18                          98.0 352 
 OCA  SZ ES   1    9 8 38.90                             140    0.46 7 98.0 352 
 RUS  HZ EP   1    9 8 27.95                             125   -0.04 7  163 176 
 ZAR  HE ES   2    9 8 52.47                             121    0.15 4  184 275 
 ZAR  HZ I         9 8 55.99         2.6 0.27                           184 275 
                                                                                
