 2011  1 3 0912  0.7 L   6.784 -73.031152.0  RSN  6 0.6 1.7LRSN                1
 GAP=172        1.27       8.5    30.1 12.7 -0.1645E+03  0.1613E+03 -0.3053E+02E
 Epicentro: CEPITA - SANTANDER                                                 3
 ACTION:UP  11-02-08 08:38 OP:pat  STATUS:               ID:20110103091200 L   I
 2011-01-03-0900-00M.COL___136                                                 6
 STAT SP IPHASW D HRMM SECON CODA AMPLIT PERI AZIMU VELO SNR AR TRES W  DIS CAZ7
 BAR2 SZ EP   1    912 20.81                             169    -0.3 7   27 218 
 BAR2 SZ ES   1    912 37.12                             169     0.0 7   27 218 
 BAR2 SZ I         912 37.87        11.7 0.41                            27 218 
 RUS  HZ EP   1    912 24.86                             146     0.0 7   99 183 
 RUS  HN ES   1    912 43.51                             146    -0.3 7   99 183 
 RUS  HZ I         912 44.58         6.3 0.26                            99 183 
 GRA  SZ EP   1    912 26.96                             139     0.6 7  124  12 
 GRA  SZ ES   1    912 46.91                             139     0.5 7  124  12 
 GRA  SZ I         912 48.68         9.0 0.26                           124  12 
 OCA  SZ EP   1    912 28.50                             130    -1.3 7  164 349 
 OCA  SZ I         912 55.44         7.0 0.19                           164 349 
 CHI  HZ EP   1    912 38.92                             118     0.0 6  251 198 
 CHI  HN ES   2    913  9.31                             118     0.6 4  251 198 
 CHI  HZ I         913 14.02         3.6 0.42                           251 198 
 RREF HZ EP   1    912 48.98                             111     0.9 5  330 231 
                                                                                
