 2017 12 3 0157 47.6 L   6.809 -73.133141.8  RSN 21 0.9 2.2LRSN                1
 GAP= 66        1.71       3.5     4.3  7.6 -0.6898E+00  0.8357E+01 -0.1675E+01E
 Epicentro: LOS SANTOS - SANTANDER                                             3
 ACTION:UPD 18-01-04 13:16 OP:rebc STATUS:               ID:20171203015747 L   I
 OLDACT:REG 17-12-03 12:56 OP:dhb  STATUS:               ID:20171203015743     3
 2017-12-03-0158-00M.COL___486                                                 6
 STAT SP IPHASW D HRMM SECON CODA AMPLIT PERI AZIMU VELO AIN AR TRES W  DIS CAZ7
 BAR2 EZ IP     C  158  6.88                             170    0.1110 24.6 193 
 BAR2 EZ ES        158 21.63                             170   -0.1010 24.6 193 
 BAR2 EZ I         158 22.75        28.5 0.36            168           24.6 193 
 PAM  EZ IP     C  158  9.81                             151    0.5310 75.7  39 
 PAM  EN ES        158 26.74                             151    0.5310 75.7  39 
 PAM  EZ I         158 28.76        29.5 0.52            153           75.7  39 
 RUS  HZ EP        158 10.84                             143   -0.1810  101 177 
 RUS  HN ES        158 29.16                             143   -0.1310  101 177 
 RUS  HZ I         158 31.11        25.2 0.38            143            101 177 
 PTB  HZ EP        158 13.67                             131   -0.71 9  149 259 
 PTB  HN ES        158 34.48                             131   -0.80 9  149 259 
 PTB  HZ I         158 37.23        13.9 0.18            131            149 259 
 TAM  HZ IP     C  158 15.19                             130    0.34 9  154 105 
 TAM  HN ES        158 35.82                             130   -0.30 9  154 105 
 TAM  HZ I         158 40.39         7.7 0.30            132            154 105 
 OCA  HZ EP        158 15.38                             129   -0.14 9  159 353 
 OCA  HE ES        158 36.96                             129   -0.34 9  159 353 
 OCA  HZ I         158 41.35        57.4 0.16            130            159 353 
 SPBC HZ EP        158 15.78                             128   -0.16 9  165 219 
 SPBC HN ES        158 37.95                             128   -0.11 9  165 219 
 SPBC HZ I         158 40.46        31.4 0.22            128            165 219 
 YPLC HZ EP        158 17.08                             126   -0.04 9  177 152 
 YPLC HN ES        158 39.48                             126   -0.67 9  177 152 
 YPLC HZ I         158 43.68        19.9 0.24            127            177 152 
 ZAR  HZ EP        158 19.78                             121   -0.09 9  205 292 
 ZAR  HE ES        158 45.55                             121    0.49 9  205 292 
 ZAR  HZ I         158 51.35        18.7 0.38            122            205 292 
 NOR  HZ IP     C  158 23.40                             117    0.13 8  236 234 
 NOR  HE ES        158 51.28                             117    0.17 8  236 234 
 NOR  HZ I         158 52.82        10.6 0.20            118            236 234 
 CHI  HZ EP        158 25.17                             116   -0.04 8  250 195 
 CHI  HN ES        158 55.72                             116    1.16 8  250 195 
 CHI  HZ I         159  1.93         5.2 0.28            117            250 195 
 ROSC BZ EP   9    158 27.09                             116    1.42 0  254 211 
 ROSC BE ES        158 56.98                                    0.19 8  254 211 
 ROSC BZ I         159  2.75        10.1 0.30            116            254 211 
 URE  HZ EP        158 27.05                             113   -1.52 7  285 292 
 URE  HE ES        158 59.18                             113   -1.36 7  285 292 
 URE  HZ I         159 11.18        10.4 0.20            113            285 292 
 DRL03HZ EP        158 29.28                             112    0.36 7  288 353 
 DRL03HE ES        159  2.42                             112    1.26 7  288 353 
 GUY2CHZ EP        158 33.28                             111    2.07 7  303 235 
 GUY2CHE ES   1    159  6.42                             111    1.19 5  303 235 
 GUY2CHZ I         159 11.53         7.4 0.30                           303 235 
 PTGC HZ EP        158 29.95                             111   -1.36 7  309 159 
 PTGC HN ES   3    159  3.33                             111   -2.09 2  309 159 
 PTGC HZ I         159 10.28         9.3 0.32            112            309 159 
 LL6C HZ EP        158 31.86                             110   -1.16 7  324 357 
 LL6C HE ES        159 10.23                             110    1.78 7  324 357 
 CBOC HZ EP        158 35.35                             109    0.82 7  335 252 
 CBOC HE ES        159 10.51                             109   -0.63 7  335 252 
 CBOC HZ I         159 16.06         6.3 0.84            110            335 252 
 PRA  HZ EP        158 41.51                             106    0.36 6  394 210 
 PRA  HE ES        159 24.75                             106    1.81 6  394 210 
 PRA  HZ I         159 28.89         9.4 0.30            106            394 210 
 ORTC HZ EP        158 41.82                             106    0.26 6  397 216 
 ORTC HE ES   4    159 26.96                             106    3.29 0  397 216 
 ORTC HZ I         159 30.06         5.4 0.30            106            397 216 
 SJC  HZ EP        158 41.05                             105   -1.96 6  409 327 
 SJC  HE ES   4    159 22.71                             105   -3.54 0  409 327 
 SJC  HZ I         159 26.88         4.9 0.48            106            409 327 
                                                                                
