 2016  2 3 0310 16.6 L   6.832 -73.175134.0  RSN 15 0.5 2.0LRSN                1
 GAP=199        0.70       2.7     4.1  5.9  0.6097E+00  0.8332E+01 -0.9894E+00E
 Epicentro: ZAPATOCA - SANTANDER                                               3
 ACTION:UPD 16-03-04 21:22 OP:rebc STATUS:               ID:20160203031016 L   I
 OLDACT:REG 16-02-03 12:36 OP:dnl  STATUS:               ID:20160203030741     3
 2016-02-03-0307-41M.COL___313                                                 6
 STAT SP IPHASW D HRMM SECON CODA AMPLIT PERI AZIMU VELO AIN AR TRES W  DIS CAZ7
 BAR2 EZ EP        310 35.04                             168    0.1110 26.5 182 
 BAR2 EZ ES   2    310 47.83                             168   -1.37 5 26.5 182 
 BAR2 EZ I         310 52.49        12.3 0.26            164           26.5 182 
 RUS  HZ EP        310 39.77                             140    0.2210  104 174 
 RUS  HE ES        310 57.46                             140    0.0510  104 174 
 RUS  HZ I         310 59.35         8.1 0.22            144            104 174 
 PTB  HZ EP   2    310 42.48                             129    0.03 5  145 257 
 PTB  HN ES   2    311  3.51                             129    0.93 5  145 257 
 PTB  HZ I         311 11.18        13.1 0.36            127            145 257 
 SPBC HZ EP   2    310 44.68                             126    0.34 5  164 217 
 SPBC HE ES        311  6.03                             126    0.08 9  164 217 
 SPBC HZ ES   2    311  6.18                             126    0.23 5  164 217 
 SPBC HZ I         311  8.82        13.5 0.10            127            164 217 
 SPBC HN I         311 10.67        30.4 0.15                           164 217 
 ZAR  HE ES   2    311 13.36                             120    1.09 4  200 292 
 ZAR  HZ I         311 19.79        12.8 0.25            120            200 292 
 NOR  HZ EP        310 51.75                             116    0.09 8  234 233 
 NOR  HN ES        311 18.64                             116   -0.34 8  234 233 
 NOR  HZ I         311 26.96         8.1 0.18            117            234 233 
 SML  HE ES        311 19.59                             115   -0.23 8  239 336 
 SML  HZ I         311 25.37        13.0 0.08            117            239 336 
 CHI  HZ EP        310 53.68                             114   -0.33 8  251 194 
 CHI  HN ES        311 23.31                             114    0.16 8  251 194 
 CHI  HZ I         311 28.92         4.7 0.27            117            251 194 
 URE  HE ES   4    311 23.67                             111   -4.24 0  280 291 
 URE  HZ I         311 39.76         7.3 0.27            112            280 291 
 GUY2CHZ EP        310 59.95                             110    0.28 7  301 234 
 GUY2CHN ES   2    311 32.83                             110   -0.40 4  301 234 
 GUY2CHZ I         311 44.42         3.9 0.27                           301 234 
 CBOC HZ EP   2    311  2.77                             108   -0.10 3  332 251 
 CBOC HN ES   2    311 37.59                             108   -1.34 3  332 251 
 CBOC HZ I         311 46.12         1.5 0.37            109            332 251 
 ANIL HZ EP   2    311  6.16                             106    0.10 3  358 224 
 PRA  HZ EP   3    311  9.21                             104   -0.75 1  394 209 
 PRA  HE ES   2    311 50.85                             104   -0.70 3  394 209 
 PRA  HZ I         311 55.75         4.0 0.35            107            394 209 
 ORTC HE ES   2    311 51.68                             104   -0.47 3  396 215 
 ORTC HZ I         311 57.59         2.1 0.32            106            396 215 
 PAL  HZ EP   2    311 10.90                             104   -0.43 3  405 238 
 PAL  HE ES   4    311 47.79                             104   -6.19 0  405 238 
 PAL  HZ I         312  0.05         1.6 0.50            105            405 238 
                                                                                
