 2011  1 3 0234  5.5 L   6.825 -73.115145.5  RSN  5 0.3 1.4LRSN                1
 GAP=162        0.68       3.9    10.1  8.1 -0.5625E+01 -0.5999E+00 -0.1271E+02E
 Epicentro: LOS SANTOS - SANTANDER                                             3
 ACTION:UP  11-02-08 08:38 OP:pat  STATUS:               ID:20110103023405 L   I
 2011-01-03-0230-35S.COL___135                                                 6
 STAT SP IPHASW D HRMM SECON CODA AMPLIT PERI AZIMU VELO SNR AR TRES W  DIS CAZ7
 BAR2 SZ EP   1    234 25.12                             169     0.0 8   27 196 
 BAR2 SZ ES   1    234 40.37                             169    -0.1 8   27 196 
 BAR2 SZ I         234 41.19         5.9 0.21                            27 196 
 RUS  HZ EP   1    234 29.63                             143     0.2 8  103 178 
 RUS  HE ES   1    234 48.18                             143     0.1 8  103 178 
 RUS  HZ I         234 49.38         1.7 0.42                           103 178 
 GRA  SZ EP        234 30.03                             138    -0.410  122  16 
 GRA  SZ I         234 31.30         4.8 0.26                           122  16 
 OCA  SZ EP   1    234 33.97                             130     0.4 7  158 352 
 OCA  SZ ES   1    234 55.67                             130     0.2 7  158 352 
 OCA  SZ I         234 58.62         5.8 0.35                           158 352 
 NOR  SE ES   2    235  9.45                             118    -0.5 4  239 234 
                                                                                
