 2014  3 3 0646 50.3 L   6.827 -73.164137.8  RSN  8 0.3 1.7LRSN                1
 GAP=181        0.67       2.1     3.6  4.9 -0.1606E+01  0.6926E+01 -0.2070E+01E
 Epicentro: LOS SANTOS - SANTANDER                                             3
 ACTION:UPD 14-04-09 23:14 OP:nd   STATUS:               ID:20140303064650 L   I
 OLDACT:DUP 14-03-03 13:43 OP:stll STATUS:               ID:20140303063815d    3
 2014-03-03-0638-13M.COL___232                                                 6
 STAT SP IPHASW D HRMM SECON CODA AMPLIT PERI AZIMU VELO AIN AR TRES W  DIS CAZ7
 BAR2 SZ EP        647  9.13                             169    0.0510 26.0 184 
 BAR2 SZ ES        647 23.56                             169   -0.1310 26.0 184 
 BAR2 SZ I         647 29.57        14.2 1.26            167           26.0 184 
 RUS  HZ EP        647 13.74                             141    0.1810  104 175 
 RUS  HN ES        647 31.79                             141    0.1310  104 175 
 RUS  SZ I         647 35.73         3.6 2.22            139            104 175 
 PTB  HZ EP        647 16.48                             130   -0.06 9  146 258 
 PTB  HN ES        647 37.25                             130    0.28 9  146 258 
 PTB  SZ I         647 44.20         6.5 0.54            129            146 258 
 OCA  HN ES        647 38.79                             128   -0.32 9  157 354 
 SPBC HZ EP        647 18.26                             127   -0.08 9  164 218 
 SPBC SZ I         647 38.58         6.3 1.12            125            164 218 
 SPBC HN ES        647 39.97                             127   -0.21 9  164 218 
 NOR  HN ES        647 53.42                             117    0.27 8  235 234 
 SML  HZ EP        647 25.90                             116   -0.25 8  240 335 
 SML  HN ES        647 54.54                             116    0.47 8  240 335 
 SML  SZ I         647 59.60         4.0 0.24            115            240 335 
 GUY2CHZ EP        647 33.89                             111    0.29 7  301 234 
 GUY2CSZ I         648  5.05         2.8 1.48                           301 234 
 GUY2CHN ES        648  6.60                             111   -0.74 7  301 234 
                                                                                
