 2015 10 3 0746 24.2 L   6.791 -73.146145.2  RSN 15 0.6 2.3LRSN                1
 GAP=137        1.33       3.2     4.8  6.5 -0.2674E+01  0.9323E+01  0.1366E+01E
 Epicentro: LOS SANTOS - SANTANDER                                             3
 ACTION:UPD 15-12-22 20:37 OP:cam  STATUS:               ID:20151003074624 L   I
 OLDACT:DUP 15-10-03 18:59 OP:stll STATUS:               ID:20151003073750d    3
 2015-10-03-0737-49M.COL___349                                                 6
 STAT SP IPHASW D HRMM SECON CODA AMPLIT PERI AZIMU VELO AIN AR TRES W  DIS CAZ7
 BAR2 EZ EP     D  746 43.88                             171    0.1510 22.4 190 
 BAR2 EZ ES        746 58.55                             171   -0.4310 22.4 190 
 BAR2 EZ I         747  0.11        87.7 0.22            169           22.4 190 
 BRR  HZ IP     C  746 45.72                             152    0.4210 71.6 299 
 BRR  HZ I         746 45.82        46.6 0.14            150           71.6 299 
 BRR  HN ES        747  2.59                             152    0.8210 71.6 299 
 PAM  EZ EP     C  746 46.64                             150    0.2510 78.2  39 
 PAM  EZ I         746 46.89        33.7 0.26            155           78.2  39 
 PAM  EN ES        747  3.65                             150   -0.0610 78.2  39 
 RUS  HZ EP     D  746 47.79                             144   -0.0310 99.6 176 
 RUS  HZ I         746 48.89        20.3 0.18            145           99.6 176 
 RUS  HN ES        747  6.38                             144    0.1310 99.6 176 
 PTB  HZ EP        746 50.71                             132   -0.38 9  148 259 
 PTB  HN ES        747 11.79                             132   -0.28 9  148 259 
 PTB  HZ I         747 18.98        27.2 0.42            131            148 259 
 OCA  HZ EP        746 51.84                             129   -0.71 9  161 353 
 OCA  HN ES        747 14.66                             129   -0.00 9  161 353 
 OCA  HZ I         747 19.84        25.0 0.56            131            161 353 
 SPBC HZ EP        746 52.70                             129    0.13 9  162 219 
 SPBC HN ES        747 14.83                             129    0.12 9  162 219 
 SPBC HZ I         747 22.54        22.4 0.48            129            162 219 
 ZAR  HZ EP        746 56.31                             122   -0.32 9  204 292 
 ZAR  HE ES        747 21.95                             122    0.02 9  204 292 
 ZAR  HZ I         747 27.12        16.2 0.36            122            204 292 
 SML  HZ EP        747  0.10                             117   -0.77 8  245 335 
 SML  HN ES        747 29.13                             117   -0.36 8  245 335 
 SML  HZ I         747 32.50        22.3 0.10            118            245 335 
 CHI  HZ EP        747  1.97                             117    0.22 8  248 195 
 CHI  HN ES        747 30.85                             117   -0.20 8  248 195 
 CHI  HZ I         747 33.75         7.8 0.30            118            248 195 
 ROSC BZ EP        747  3.55                             117    1.37 8  252 211 
 ROSC BN ES        747 30.38                             117   -1.44 8  252 211 
 ROSC BZ I         747 39.11        14.8 0.55            117            252 211 
 HEL  HZ EP        747  5.33                             115    0.99 8  272 256 
 HEL  HN ES        747 36.37                             115    0.71 8  272 256 
 HEL  HZ I         747 42.67         7.8 0.28            115            272 256 
 GUY2CHZ EP        747  8.33                             112    0.63 7  301 235 
 GUY2CHN ES        747 41.20                             112   -0.44 7  301 235 
 GUY2CHZ I         747 49.80         6.6 0.36                           301 235 
 PTGC HZ EP   4    747  6.74                             112   -1.18 0  308 159 
 PTGC HZ I         747  7.38         9.3 0.42            113            308 159 
 PTGC HN ES   4    747 39.40                             112   -2.63 0  308 159 
 ANIL HN ES        747 51.69                             108   -0.96 6  357 225 
 ANIL HZ I         747 57.82        17.3 0.34            109            357 225 
                                                                                
