 2017  9 3 0308 45.5 L   6.800 -73.131147.9  RSN  5 0.3 1.5LRSN                1
 GAP=239        0.81       4.8     5.9  6.4  0.1327E+02  0.6168E+01  0.3023E+01E
 Epicentro: LOS SANTOS - SANTANDER                                             3
 ACTION:UPD 17-10-05 19:08 OP:rebc STATUS:               ID:20170903030845 L   I
 OLDACT:UP  17-09-03 14:42 OP:dani STATUS:               ID:20170903030742     3
 OLDACT:REG 17-09-03 13:12 OP:dani STATUS:               ID:20170903030742     3
 2017-09-03-0308-00M.COL___414                                                 6
 STAT SP IPHASW D HRMM SECON CODA AMPLIT PERI AZIMU VELO AIN AR TRES W  DIS CAZ7
 BAR2 EZ EP        3 9  5.17                             170   -0.2210 23.6 194 
 BAR2 EZ ES        3 9 20.53                             170   -0.3810 23.6 194 
 BAR2 EZ I         3 9 21.78        10.3 0.19            165           23.6 194 
 BRR  HZ EP        3 9  7.04                             152    0.0810 72.6 298 
 BRR  HN ES        3 9 24.25                             152    0.5510 72.6 298 
 BRR  HZ I         3 9 24.88         6.1 0.12            148           72.6 298 
 RUS  HZ EP        3 9  9.39                             144   -0.0610  100 177 
 RUS  HN ES        3 9 28.27                             144    0.1410  100 177 
 RUS  HZ I         3 9 29.57         2.2 0.20            143            100 177 
 SPBC HZ EP        3 9 14.62                             129    0.37 9  164 219 
 SPBC HN ES        3 9 36.56                             129   -0.12 9  164 219 
 SPBC HZ I         3 9 40.80         5.8 0.43            127            164 219 
 ZAR  HZ EP   4    3 9 20.67                             123    2.44 0  206 292 
 ZAR  HE ES        3 9 43.33                             123   -0.44 8  206 292 
 ZAR  HZ I         3 9 50.77         2.4 0.42            121            206 292 
                                                                                
