 2017 12 3 0206 24.6 L   6.274 -73.685105.9  RSN  8 0.4 1.3LRSN                1
 GAP=102        1.00       3.2     2.8  6.3  0.2221E+01  0.3892E+01  0.2835E+01E
 Epicentro: SANTA HELENA DEL OPON - SANTANDER                                  3
 ACTION:UPD 18-01-04 13:16 OP:rebc STATUS:               ID:20171203020624 L   I
 OLDACT:DUP 17-12-03 14:37 OP:dhb  STATUS:               ID:20171203015744d    3
 OLDACT:REG 17-12-03 12:56 OP:dhb  STATUS:               ID:20171203015743     3
 2017-12-03-0158-00M.COL___486                                                 6
 STAT SP IPHASW D HRMM SECON CODA AMPLIT PERI AZIMU VELO AIN AR TRES W  DIS CAZ7
 BAR2 EZ IP     D  2 6 41.90                             146    0.3110 65.8  58 
 BAR2 EZ ES        2 6 55.26                             146    0.4310 65.8  58 
 BAR2 EZ I         2 6 56.78        10.8 0.42            148           65.8  58 
 RUS  HZ EP        2 6 42.59                             141   -0.3110 78.9 122 
 RUS  HN ES        2 6 56.91                             141   -0.2610 78.9 122 
 RUS  HZ I         2 6 59.12         4.9 0.34            143           78.9 122 
 SPBC HN ES        2 6 56.96                             140    0.4910 81.1 212 
 SPBC HZ I         2 7  0.54         5.2 0.24            141           81.1 212 
 PTB  HZ EP        2 6 43.05                             136   -0.1110 90.2 289 
 PTB  HE ES        2 6 56.69                             136   -0.9310 90.2 289 
 PTB  HZ I         2 6 57.11         3.3 0.12            138           90.2 289 
 YPLC HZ EP        2 6 51.40                             116   -0.18 9  174 124 
 YPLC HN ES        2 7 12.77                             116    0.17 9  174 124 
 YPLC HZ I         2 7 14.64         5.6 0.24            118            174 124 
 CHI  HZ EP        2 6 52.70                             115   -0.18 9  182 182 
 CHI  HN ES        2 7 14.66                             115   -0.25 9  182 182 
 CHI  HZ I         2 7 16.97         1.2 0.32            117            182 182 
 ZAR  HZ EP        2 6 52.96                             114    0.05 9  187 316 
 ZAR  HE ES        2 7 15.27                             114    0.30 9  187 316 
 ZAR  HZ I         2 7 19.83         4.1 0.38            116            187 316 
 GUY2CHZ EP        2 6 57.22                             110    0.06 8  219 238 
 GUY2CHE ES        2 7 23.13                             110    0.60 8  219 238 
 GUY2CHZ I         2 7 25.31         1.0 0.50                           219 238 
                                                                                
