 2014  6 3 0752 40.0 L   6.802 -73.162145.4  RSN  6 0.3 1.4LRSN                1
 GAP=134        0.73       4.1     3.7  7.8 -0.4021E+01  0.7082E+01  0.4129E+01E
 Epicentro: LOS SANTOS - SANTANDER                                             3
 ACTION:UPD 14-07-01 22:50 OP:nd   STATUS:               ID:20140603075240 L   I
 OLDACT:REG 14-06-03 13:11 OP:fm   STATUS:               ID:20140603074805     3
 2014-06-03-0748-05M.COL___247                                                 6
 STAT SP IPHASW D HRMM SECON CODA AMPLIT PERI AZIMU VELO AIN AR TRES W  DIS CAZ7
 PAM  SZ EP        753  2.68                             150    0.4310 78.4  41 
 PAM  SN ES        753 19.40                             150   -0.1910 78.4  41 
 PAM  SZ I         753 20.28         4.5 0.20            155           78.4  41 
 RUS  HZ EP        753  3.88                             143    0.1310  101 175 
 RUS  HN ES   1    753 22.16                             143   -0.11 7  101 175 
 RUS  HZ I         753 23.34         2.1 0.22            144            101 175 
 PTB  HZ EP        753  6.28                             132   -0.51 9  146 259 
 PTB  HN ES        753 27.51                             132   -0.17 9  146 259 
 PTB  HZ I         753 29.32         3.3 0.42            133            146 259 
 SPBC HZ EP   1    753  8.11                             129   -0.28 7  162 218 
 SPBC HN ES   1    753 30.93                             129    0.40 7  162 218 
 SPBC HZ I         753 37.06         4.2 0.12            130            162 218 
 ZAR  HN ES   1    753 37.83                             122    0.43 6  202 292 
 NOR  HN ES   2    753 43.64                             118    0.33 4  233 234 
                                                                                
