 2017  4 3 0046 23.3 L   6.799 -73.139145.3  RSN  8 0.5 1.4LRSN                1
 GAP=120        0.76       4.0     4.9  6.3 -0.2952E+01 -0.3380E+00  0.1049E+01E
 Epicentro: LOS SANTOS - SANTANDER                                             3
 ACTION:UPD 17-05-30 21:07 OP:jn   STATUS:               ID:20170403004623 L   I
 OLDACT:UP  17-04-03 14:00 OP:and  STATUS:               ID:20170403003747d    3
 OLDACT:UP  17-04-03 14:00 OP:and  STATUS:               ID:20170403003747d    3
 OLDACT:UP  17-04-03 13:59 OP:and  STATUS:               ID:20170403003747d    3
 OLDACT:UP  17-04-03 13:59 OP:and  STATUS:               ID:20170403003747d    3
 OLDACT:DUP 17-04-03 13:57 OP:e    STATUS:               ID:20170403003747d    3
 2017-04-03-0038-00M.COL___368                                                 6
 STAT SP IPHASW D HRMM SECON CODA AMPLIT PERI AZIMU VELO AIN AR TRES W  DIS CAZ7
 BAR2 EZ ES   2    046 57.18                             170   -0.95 5 23.4 192 
 BAR2 EZ I         046 58.80         9.2 0.30            165           23.4 192 
 BRR  HZ EP        046 44.43                             152    0.0110 71.9 298 
 BRR  HN ES   2    047  1.68                             152    0.77 5 71.9 298 
 BRR  HZ I         047  4.70         5.5 0.30            147           71.9 298 
 PAM  EZ IP     D  046 45.71                             150    0.2910 77.0  39 
 PAM  EN ES        047  2.43                             150   -0.2710 77.0  39 
 PAM  EZ I         047  3.50         3.8 0.22            156           77.0  39 
 RUS  HZ EP        046 47.18                             143    0.2010  100 176 
 RUS  HN ES        047  5.50                             143    0.0410  100 176 
 RUS  HZ I         047  6.96         2.4 0.25            144            100 176 
 PTB  HZ EP   9    046 49.57                             131   -0.70 0  148 259 
 PTB  HN ES        047 10.43                             132   -0.20 9  148 259 
 PTB  HZ I         047 16.73         3.5 0.26            128            148 259 
 ZAR  HN ES   2    047 20.57                             122   -0.54 4  205 292 
 ZAR  HZ I         047 25.90         3.9 0.30            120            205 292 
 NOR  HN ES   2    047 27.02                             118    0.09 4  235 235 
 NOR  HZ I         047 35.95         2.1 0.16            117            235 235 
 PTGC HZ EP   2    047  5.91                             111   -1.17 4  308 159 
                                                                                
