 2011 11 3 0638 11.8 L   6.755 -73.123146.0  RSN  5 0.2 1.3LRSN                1
 GAP=141        0.43       5.7     6.9  6.7  0.1275E+02 -0.2133E+02 -0.1650E+00E
 Epicentro: LOS SANTOS - SANTANDER                                             3
 ACTION:UPD 12-07-13 16:07 OP:ep   STATUS:               ID:20111103063811 L   I
 2011-11-03-0620-00M.COL___178                                                 6
 STAT SP IPHASW D HRMM SECON CODA AMPLIT PERI AZIMU VELO AIN AR TRES W  DIS CAZ7
 BAR2 SZ EP   2    638 31.11                             172   -0.32 5 19.2 200 
 BAR2 SZ ES   2    638 46.56                             172   -0.14 5 19.2 200 
 BAR2 SZ I         638 47.28         2.7 0.11                          19.2 200 
 GIR2 SZ EP   2    638 31.43                             165   -0.27 5 36.6 348 
 BRR  HZ EP        638 33.17                             151   -0.1210 75.8 301 
 BRR  HZ I         638 33.68         6.2 0.15                          75.8 301 
 BRR  HN ES   1    638 50.22                             151    0.21 7 75.8 301 
 PAM  SZ EP   1    638 34.38                             150    0.15 7 79.8  36 
 RUS  HZ EP   1    638 35.44                             145    0.18 7 95.5 177 
                                                                                
