 2012  9 3 0505 33.0 L   6.695 -73.207148.0  RSN  5 0.3 1.4LRSN                1
 GAP=164        0.63       6.0     5.9  6.6  0.1476E+02  0.8584E+01  0.6609E+01E
 Epicentro: VILLANUEVA - SANTANDER                                             3
 ACTION:UPD 12-10-22 14:16 OP:ep   STATUS:               ID:20120903050533 L   I
 2012-09-03-0500-00M.COL___218                                                 6
 STAT SP IPHASW D HRMM SECON CODA AMPLIT PERI AZIMU VELO AIN AR TRES W  DIS CAZ7
 BAR2 SZ EP   1    5 5 52.62                             175   -0.15 7 11.7 166 
 BAR2 SZ ES   1    5 6  7.95                             175   -0.21 7 11.7 166 
 BAR2 SZ I         5 6  9.33        11.2 0.27                          11.7 166 
 GIR2 SZ ES   2    5 6  8.61                             163   -0.54 5 42.5   2 
 BRR  HZ EP   1    5 5 54.73                             153    0.25 7 72.0 309 
 BRR  HZ I         5 5 55.40         3.5 0.14                          72.0 309 
 BRR  HN ES   1    5 6 11.65                             153    0.45 7 72.0 309 
 RUS  HZ EP   1    5 5 56.05                             147   -0.23 7 89.8 171 
 RUS  HN ES   1    5 6 14.76                             147    0.36 7 89.8 171 
 RUS  HZ I         5 6 16.38         4.2 0.33                          89.8 171 
 PTB  HZ EP   1    5 5 59.59                             134    0.16 7  139 263 
 PTB  HN ES   1    5 6 19.61                             134   -0.41 7  139 263 
 PTB  HZ I         5 6 22.04         1.6 0.14                           139 263 
                                                                                
