 2012  1 3 0306 25.5 L   6.782 -73.088148.4  RSN  4 0.2 1.4LRSN                1
 GAP=145        0.47       4.0     4.7  4.9 -0.2058E+01 -0.2671E+01  0.5075E+01E
 Epicentro: LOS SANTOS - SANTANDER                                             3
 ACTION:UP  12-02-03 08:13 OP:REBC STATUS:               ID:20120103030625 L   I
 2012-01-03-0300-00M.COL___184                                                 6
 STAT SP IPHASW D HRMM SECON CODA AMPLIT PERI AZIMU VELO SNR AR TRES W  DIS CAZ7
 BAR2 SZ EP        3 6 45.20                             171    -0.210   23 206 
 BAR2 SZ I         3 6 45.56         5.2 0.36                            23 206 
 BAR2 SZ ES   1    3 7  1.12                             171     0.1 7   23 206 
 PAM  SZ EP        3 6 47.97                             152     0.110   75  35 
 PAM  SN ES   1    3 7  5.21                             152    -0.1 7   75  35 
 BRR  HZ EP        3 6 47.18                             151    -0.110   78 298 
 BRR  HN ES   1    3 7  4.39                             151     0.1 7   78 298 
 BRR  HZ I         3 7  6.72         8.4 0.16                            78 298 
 RUS  HZ EP        3 6 49.51                             145     0.210   98 180 
 RUS  HN ES   3    3 7  7.59                             145    -0.3 2   98 180 
 RUS  HZ I         3 7  8.75         2.0 0.28                            98 180 
                                                                                
