 2010 12 3 0154 27.5 L   6.797 -73.110140.0  RSN  9 0.4 2.2LRSN                1
 GAP=180        0.86       5.3    10.4 14.8 -0.3375E+02  0.4652E+02 -0.1518E+01E
 Epicentro: LOS SANTOS - SANTANDER                                             3
 ACTION:UP  11-01-14 15:22 OP:pat  STATUS:               ID:20101203015427 L   I
 2010-12-03-0152-47S.COL___132                                                 6
 STAT SP IPHASW D HRMM SECON CODA AMPLIT PERI AZIMU VELO SNR AR TRES W  DIS CAZ7
 BAR2 SZ EP        154 46.50                             170     0.010   24 200 
 BAR2 SZ I         155  2.88        50.5 0.13                            24 200 
 GIR2 SZ EP        154 46.55                             166     0.010   33 343 
 GUE  SZ EP        154 51.84                             138     0.210  116  10 
 GRA  SZ EP        154 52.46                             136     0.310  125  16 
 OCA  SZ EP        154 54.92                             128    -0.5 9  161 352 
 OCA  SZ I         155 20.59        12.4 0.15                           161 352 
 NOR  SE ES   3    155 30.84                             117    -0.3 2  238 235 
 CHI  HZ EP        155  4.45                             116    -0.5 8  249 196 
 CHI  HE ES   1    155 34.18                             116     0.0 6  249 196 
 CHI  HZ I         155 42.08         6.7 0.51                           249 196 
 HEL  HN ES   2    155 38.89                             113    -0.4 4  276 256 
 RREF HZ EP        155 14.35                             110     0.6 7  325 230 
 RREF HN ES   2    155 50.52                             110     0.7 3  325 230 
 RREF HZ I         155 57.26         8.8 0.35                           325 230 
                                                                                
