 2017 10 3 0720  1.4 L   6.828 -73.181130.5  RSN  5 0.3 1.2LRSN                1
 GAP=242        0.73       4.1     4.7  6.4  0.5079E+01  0.1367E+02 -0.1759E+01E
 Epicentro: ZAPATOCA - SANTANDER                                               3
 ACTION:UPD 17-11-07 19:27 OP:rebc STATUS:               ID:20171003072001 L   I
 OLDACT:REG 17-10-03 12:30 OP:dhb  STATUS:               ID:20171003071741     3
 2017-10-03-0718-00M.COL___435                                                 6
 STAT SP IPHASW D HRMM SECON CODA AMPLIT PERI AZIMU VELO AIN AR TRES W  DIS CAZ7
 BAR2 EZ EP        720 19.04                             168   -0.1810 26.1 180 
 BAR2 EZ ES        720 33.06                             168   -0.0910 26.1 180 
 BAR2 EZ I         720 35.14         3.1 0.11            169           26.1 180 
 RUS  HZ EP        720 23.81                             140   -0.0910  104 174 
 RUS  HN ES        720 41.68                             140    0.1810  104 174 
 RUS  HZ I         720 43.40         4.6 0.29            144            104 174 
 SPBC HZ EP        720 28.38                             125   -0.35 9  163 217 
 SPBC HE ES        720 50.52                             125    0.44 9  163 217 
 SPBC HZ I         720 52.54         2.1 0.08            128            163 217 
 ZAR  HZ EP        720 32.85                             120    0.51 9  199 292 
 ZAR  HN ES        720 56.44                             120   -0.06 9  199 292 
 ZAR  HZ I         721  3.06         2.3 0.40            121            199 292 
 GUY2CHZ EP   3    720 45.04                             109    0.90 2  300 234 
 GUY2CHN ES        721 16.99                             109   -0.52 7  300 234 
 GUY2CHZ I         721 29.89         0.7 0.54                           300 234 
                                                                                
