 2017  4 3 0845 30.4 L   6.808 -73.121150.0  RSN 29 0.5 2.5LRSN                1
 GAP=114        0.81       2.1     2.4  3.3 -0.7405E-02  0.1494E+01  0.1192E+01E
 Epicentro: LOS SANTOS - SANTANDER                                             3
 ACTION:UPD 17-05-30 21:08 OP:jn   STATUS:               ID:20170403084530 L   I
 OLDACT:UP  17-04-03 17:13 OP:and  STATUS:               ID:20170403083741     3
 OLDACT:UP  17-04-03 17:12 OP:and  STATUS:               ID:20170403083741     3
 OLDACT:UP  17-04-03 17:11 OP:and  STATUS:               ID:20170403083741     3
 OLDACT:UP  17-04-03 17:10 OP:and  STATUS:               ID:20170403083741     3
 OLDACT:UP  17-04-03 17:09 OP:and  STATUS:               ID:20170403083741     3
 OLDACT:UP  17-04-03 17:09 OP:and  STATUS:               ID:20170403083741     3
 OLDACT:UP  17-04-03 17:06 OP:and  STATUS:               ID:20170403083741     3
 OLDACT:UP  17-04-03 17:06 OP:and  STATUS:               ID:20170403083741     3
 OLDACT:UP  17-04-03 17:05 OP:and  STATUS:               ID:20170403083741     3
 OLDACT:UP  17-04-03 17:04 OP:and  STATUS:               ID:20170403083741     3
 OLDACT:REG 17-04-03 12:56 OP:and  STATUS:               ID:20170403083741     3
 2017-04-03-0838-00M.COL___353                                                 6
 STAT SP IPHASW D HRMM SECON CODA AMPLIT PERI AZIMU VELO AIN AR TRES W  DIS CAZ7
 BAR2 EZ IP     D  845 50.57                             170   -0.0310 24.8 196 
 BAR2 EZ ES        846  5.76                             170   -0.5710 24.8 196 
 BAR2 EZ I         846  7.19       141.9 0.26            164           24.8 196 
 BRR  HZ IP     C  845 52.41                             152    0.2610 73.2 297 
 BRR  HN IS        846  9.50                             152    0.4110 73.2 297 
 BRR  HZ I         846 13.47        82.1 0.28            146           73.2 297 
 PAM  EZ IP     C  845 53.37                             152    0.4210 74.9  38 
 PAM  EN ES        846 10.21                             152   -0.3210 74.9  38 
 PAM  EZ I         846 12.79        34.5 0.50            157           74.9  38 
 RUS  HZ IP     D  845 54.52                             144   -0.1310  101 178 
 RUS  HN ES        846 13.29                             144   -0.2510  101 178 
 RUS  HZ I         846 14.63        59.2 0.34            142            101 178 
 PTB  HZ EP   9    845 57.21                             132   -0.79 0  151 259 
 PTB  HN ES        846 18.51                             130   -0.21 9  151 259 
 PTB  HZ I         846 24.78        21.0 0.17            127            151 259 
 SPBC HZ EP        845 59.50                             129    0.02 9  166 220 
 SPBC HN ES        846 21.81                             129   -0.34 9  166 220 
 SPBC HZ I         846 26.39        74.7 0.22            126            166 220 
 YPLC HZ IP     D  846  1.00                             127    0.52 9  176 152 
 YPLC HN ES        846 24.62                             127    0.69 9  176 152 
 ZAR  HZ EP        846  3.14                             123   -0.24 8  206 292 
 ZAR  HN ES        846 28.95                             123   -0.13 8  206 292 
 ZAR  HZ I         846 33.98        37.1 0.40            120            206 292 
 TABC EZ ES   3    846 36.48                             120    1.55 2  232 211 
 TABC EZ I         846 39.62        47.5 0.66            117            232 211 
 NOR  HZ EP        846  6.64                             119   -0.06 8  237 235 
 NOR  HN ES        846 35.16                             119    0.16 8  237 235 
 NOR  HZ I         846 40.13        16.6 0.22            116            237 235 
 CHI  HZ EP        846  8.86                             118    0.32 8  250 196 
 CHI  HN ES        846 37.94                             118   -0.32 8  250 196 
 CHI  HZ I         846 41.55        18.8 0.62            116            250 196 
 ROSC BZ EP   9    846 10.65                             117    1.63 0  255 211 
 ROSC BN ES        846 40.77                             116    0.02 8  255 211 
 ROSC BZ I         846 45.26        45.7 0.45            115            255 211 
 HEL  HZ EP   3    846 12.55                             115    1.37 2  275 256 
 HEL  HN ES        846 42.69                             115   -0.27 8  275 256 
 HEL  HZ I         846 51.08        10.4 0.48            113            275 256 
 URE  HZ EP   4    846 13.94                             114    1.99 0  286 292 
 URE  HZ I         846 43.21        16.1 0.14            112            286 292 
 VIL  EZ EP        846 13.90                             112   -0.30 7  305 192 
 VIL  EN ES        846 48.53                             112    0.18 7  305 192 
 VIL  EZ I         846 58.23        38.9 0.44            111            305 192 
 PTGC HZ IP     D  846 13.63                             112   -0.83 7  309 159 
 PTGC HN ES   3    846 46.96                             112   -1.84 2  309 159 
 PTGC HZ I         846 50.12         7.1 0.18            112            309 159 
 LL6C HN EP   9    845 56.34                             111   -19.9 0  324 357 
 LL6C HE ES        846 31.37                             112   -0.69 7  324 357 
 LL6C HN I         846 33.85        10.8 0.26            111            324 357 
 ELA  HZ EP   9    846 20.60                             111    2.83 0  332 230 
 ELA  HN ES        846 58.23                             110    0.71 7  332 230 
 ELA  HZ I         847  7.45        15.6 0.46            109            332 230 
 CBOC HZ EP        846 18.36                             110    0.51 7  337 252 
 CBOC HN ES        846 54.99                             110    0.14 7  337 252 
 CBOC HZ I         847  5.37         4.4 0.46            108            337 252 
 DBB  EZ EP        846 18.75                             110    0.36 7  342 274 
 DBB  EN ES   3    846 54.06                             110   -1.74 2  342 274 
 DBB  EZ I         846 55.84         7.3 0.20            108            342 274 
 ARGC HZ EP        846 20.47                             109    0.21 6  359 340 
 ARGC HN ES   4    847  2.27                             109    3.15 0  359 340 
 ARGC HZ I         847  8.89         7.4 0.05            108            359 340 
 ANIL HZ EP   4    846 22.52                             109    1.82 0  360 225 
 ANIL HN ES   4    847  2.57                             109    2.66 0  360 225 
 ANIL HZ I         847  4.66        44.8 0.32            107            360 225 
 PRA  HZ EP        846 24.13                             107   -0.22 6  394 210 
 PRA  HN ES        847  6.32                             107   -0.09 6  394 210 
 PRA  HZ I         847 12.85        27.2 0.32            106            394 210 
 ORTC HZ EP        846 25.28                             107    0.51 6  398 216 
 ORTC HN ES        847  7.01                             107   -0.15 6  398 216 
 ORTC HZ I         847 13.95         9.2 0.44            105            398 216 
 PAL  HZ EP        846 26.14                             106    0.08 6  409 239 
 PAL  HN ES        847  9.77                             106    0.31 6  409 239 
 PAL  HZ I         847 21.29         4.8 0.30            105            409 239 
 SJC  HZ EP   3    846 24.72                             106   -1.50 1  410 327 
 SJC  HN ES   4    847  6.06                             106   -3.68 0  410 327 
 SJC  HZ I         847 17.83         5.7 0.34            105            410 327 
 YOT  HZ EP        846 33.67                             104   -0.24 5  475 229 
 YOT  HN ES   4    847 29.69                             104    6.27 0  475 229 
 SMAR HZ EP        846 36.01                             103   -0.38 4  497 346 
 SMAR HN ES   4    847 24.26                             103   -3.57 0  497 346 
 MACC HZ EP        846 38.29                             102   -1.11 4  522 189 
 MACC HN ES   4    847 29.61                             102   -3.59 0  522 189 
 MACC HZ I         847 40.94         3.5 0.52            101            522 189 
                                                                                
