 2011 11 3 0627 22.8 L   6.748 -73.070146.0  RSN  7 0.3 1.7LRSN                1
 GAP=149        0.53       3.1     4.3  5.1  0.2879E+01  0.1454E+01  0.1780E+01E
 Epicentro: LOS SANTOS - SANTANDER                                             3
 ACTION:UPD 12-07-13 16:07 OP:ep   STATUS:               ID:20111103062722 L   I
 2011-11-03-0620-00M.COL___178                                                 6
 STAT SP IPHASW D HRMM SECON CODA AMPLIT PERI AZIMU VELO AIN AR TRES W  DIS CAZ7
 BAR2 SZ EP   1    627 42.35                             171   -0.09 7 21.2 216 
 BAR2 SZ ES   2    627 57.10                             171   -0.64 5 21.2 216 
 BAR2 SZ I         627 58.45         9.3 0.41                          21.2 216 
 PAM  SZ EP   2    627 44.96                             151   -0.09 5 77.2  32 
 PAM  SN ES   1    628  2.39                             151    0.00 7 77.2  32 
 BRR  HZ EP        627 44.52                             149   -0.0810 81.3 299 
 BRR  HZ I         627 45.51         9.7 0.11                          81.3 299 
 BRR  HN ES        628  1.90                             149    0.3210 81.3 299 
 RUS  HZ EP        627 46.26                             146    0.0810 94.6 181 
 RUS  HZ I         627 47.42         5.9 0.20                          94.6 181 
 RUS  HE ES   1    628  4.42                             146    0.03 7 94.6 181 
 OCA  SZ EP   2    627 52.05                             128    0.25 5  167 351 
 OCA  SZ ES   2    628 14.29                             128   -0.12 5  167 351 
 OCA  SZ I         628 17.71         7.4 0.21                           167 351 
 ZAR  HE ES   2    628 21.50                             121   -0.93 4  214 293 
 ZAR  HZ I         628 26.65         6.6 0.36                           214 293 
 HEL  HZ EP   2    628  4.04                             114    0.24 4  279 257 
 HEL  HZ I         628 41.54         3.3 0.45                           279 257 
                                                                                
