 2011  9 3 0405 27.3 L   6.788 -73.102149.7  RSN 12 0.2 2.3LRSN                1
 GAP=143        0.39       1.9     2.9  2.7 -0.8431E+00  0.1400E+01  0.1126E+01E
 Epicentro: LOS SANTOS - SANTANDER                                             3
 ACTION:UPD 12-07-13 15:55 OP:ep   STATUS:               ID:20110903040527 L   I
 2011-09-03-0401-10S.COL___170                                                 6
 STAT SP IPHASW D HRMM SECON CODA AMPLIT PERI AZIMU VELO AIN AR TRES W  DIS CAZ7
 BAR2 SZ IP        4 5 47.35                             171   -0.0910 23.4 202 
 BAR2 SZ ES   1    4 6  2.96                             171   -0.16 7 23.4 202 
 BAR2 SZ I         4 6  5.39        29.2 0.32                          23.4 202 
 GIR2 SZ EP   1    4 5 47.67                             167    0.13 7 33.7 342 
 GIR2 SZ ES   1    4 6  3.52                             167    0.22 7 33.7 342 
 PAM  SZ EP   1    4 5 50.20                             152    0.34 7 75.4  36 
 PAM  SN ES   2    4 6  7.06                             152   -0.36 5 75.4  36 
 BRR  HZ EP        4 5 49.26                             152    0.0710 76.1 298 
 BRR  HN ES   1    4 6  6.31                             152    0.08 7 76.1 298 
 BRR  HZ I         4 6  9.53        45.6 0.20                          76.1 298 
 RUS  HZ EP   1    4 5 51.23                             145   -0.14 7 99.1 179 
 RUS  HN ES   2    4 6  9.94                             145   -0.17 5 99.1 179 
 RUS  HZ I         4 6 11.04         9.1 0.35                          99.1 179 
 OCA  SZ EP   1    4 5 56.08                             130   -0.05 7  162 351 
 OCA  SZ ES   2    4 6 18.38                             130   -0.22 5  162 351 
 OCA  SZ I         4 6 22.38        19.7 0.45                           162 351 
 ZAR  HZ EP   2    4 6  0.55                             123    0.00 4  209 292 
 ZAR  HN ES   2    4 6 26.39                             123   -0.07 4  209 292 
 ZAR  HZ I         4 6 31.24        25.0 0.37                           209 292 
 NOR  SZ EP   1    4 6  3.20                             119   -0.44 6  238 235 
 NOR  SN ES   2    4 6 31.73                             119   -0.22 4  238 235 
 CHI  HZ EP   1    4 6  5.37                             118    0.11 6  249 196 
 CHI  HN ES   2    4 6 35.36                             118    0.52 4  249 196 
 CHI  HZ I         4 6 42.64         8.8 0.51                           249 196 
 RREF HZ EP   2    4 6 14.48                             111    0.51 3  325 230 
 RREF HN ES   2    4 6 50.66                             111    0.31 3  325 230 
 RREF HZ I         4 6 59.95        11.4 0.33                           325 230 
 COD  HZ EP   2    4 6 15.81                             109   -0.26 3  350 354 
 COD  HZ I         4 6 59.65        18.0 0.38                           350 354 
 PRA  HZ EP   1    4 6 20.90                             107   -0.24 4  393 210 
 PRA  HE ES   2    4 7  3.31                             107    0.20 3  393 210 
                                                                                
