 2012  5 3 0930 12.8 L   6.747 -73.167146.0  RSN  5 0.2 1.2LRSN                1
 GAP=231        0.53       6.2     5.1  5.8  0.1662E+02  0.3999E+01  0.4020E+01E
 Epicentro: VILLANUEVA - SANTANDER                                             3
 ACTION:UP  12-07-05 12:01 OP:pat  STATUS:               ID:20120503093012 L   I
 2012-05-03-0930-00M.COL___186                                                 6
 STAT SP IPHASW D HRMM SECON CODA AMPLIT PERI AZIMU VELO SNR AR TRES W  DIS CAZ7
 BAR2 SZ EP   1    930 32.09                             173    -0.2 7   17 186 
 BAR2 SZ ES   1    930 47.30                             173    -0.3 7   17 186 
 BAR2 SZ I         930 48.59         7.0 0.19                            17 186 
 BRR  HZ EP   1    930 34.19                             152     0.2 7   72 304 
 BRR  HN ES   1    930 50.69                             152     0.1 7   72 304 
 RUS  HZ EP   1    930 36.35                             145     0.2 7   95 174 
 RUS  HN ES   2    930 54.75                             145     0.4 5   95 174 
 RUS  HZ I         930 56.21         3.0 0.26                            95 174 
 PTB  HZ EP   1    930 39.15                             133    -0.3 7  144 261 
 PTB  HN ES   1    931  0.18                             133    -0.1 7  144 261 
 PTB  HZ I         931  5.77         1.2 0.23                           144 261 
 ZAR  HN ES   2    931 10.84                             122     0.3 4  204 294 
                                                                                
