 2012  2 3 0207 43.5 L   6.798 -73.151148.0  RSN  8 0.4 1.8LRSN                1
 GAP=136        0.82       4.3     4.7  6.4  0.2482E+01  0.4945E+01  0.5525E+01E
 ACTION:DUP 12-03-07 16:27 OP:epov STATUS:               ID:20120203020744dL   I
 2012-02-03-0200-00M.COL___188                                                 6
 STAT SP IPHASW D HRMM SECON CODA AMPLIT PERI AZIMU VELO SNR AR TRES W  DIS CAZ7
 BAR2 SZ EP   1    2 8  3.34                             171   -0.03 7 23.0 189 
 BAR2 SZ ES   1    2 8 18.22                             171   -0.66 7 23.0 189 
 BAR2 SZ I         2 8 19.65        17.0 0.28                          23.0 189 
 GIR2 SZ EP   1    2 8  3.65                             167    0.23 7 31.4 351 
 BRR  HZ EP   1    2 8  5.35                             153    0.50 7 70.8 299 
 BRR  HN ES        2 8 22.06                             153    0.5410 70.8 299 
 BRR  HZ I         2 8 24.35        13.2 0.14                          70.8 299 
 PAM  SZ EP   1    2 8  6.06                             151    0.10 7 77.9  40 
 PAM  SN ES   1    2 8 23.21                             151   -0.29 7 77.9  40 
 PAM  SZ I         2 8 25.53        15.8 0.26                          77.9  40 
 RUS  HZ EP   1    2 8  7.33                             144   -0.10 7  100 176 
 RUS  HN ES   1    2 8 26.32                             144    0.20 7  100 176 
 RUS  HZ I         2 8 27.74         4.8 0.18                           100 176 
 PTB  HZ EP   1    2 8  9.91                             133   -0.66 7  147 259 
 PTB  HN ES   1    2 8 31.25                             133   -0.46 7  147 259 
 ZAR  HZ EP   1    2 8 15.46                             123   -0.57 6  204 292 
 ZAR  HN ES   1    2 8 41.54                             123    0.13 6  204 292 
 ZAR  HZ I         2 8 47.18         9.5 0.20                           204 292 
 CHI  HZ EP   1    2 8 21.35                             118    0.09 6  248 195 
 CHI  HN ES   1    2 8 51.23                             118    0.51 6  248 195 
 CHI  HZ I         2 9  0.59         4.2 0.37                           248 195 
                                                                                
