 2011  9 3 0135  5.6 L   6.825 -73.123147.6  RSN 11 0.2 2.1LRSN                1
 GAP=138        0.37       1.8     2.4  2.4 -0.1645E+00  0.1179E+01  0.7912E+00E
 Epicentro: LOS SANTOS - SANTANDER                                             3
 ACTION:UPD 12-07-13 15:55 OP:ep   STATUS:               ID:20110903013505 L   I
 2011-09-03-0131-24S.COL___171                                                 6
 STAT SP IPHASW D HRMM SECON CODA AMPLIT PERI AZIMU VELO AIN AR TRES W  DIS CAZ7
 BAR2 SZ EP   1    135 25.38                             169   -0.16 7 26.6 194 
 BAR2 SZ ES        135 41.18                             169    0.1010 26.6 194 
 BAR2 SZ I         135 46.13        26.6 0.17                          26.6 194 
 GIR2 SZ EP   1    135 25.41                             168   -0.04 7 29.1 344 
 GIR2 SZ ES   2    135 41.25                             168    0.32 5 29.1 344 
 BRR  HZ EP   1    135 27.18                             152    0.16 7 72.2 296 
 BRR  HE ES        135 43.74                             152    0.0210 72.2 296 
 BRR  HZ I         135 47.54        44.9 0.14                          72.2 296 
 PAM  SZ EP   1    135 28.09                             152    0.28 7 73.6  39 
 PAM  SN ES   2    135 44.62                             152   -0.50 5 73.6  39 
 RUS  HZ EP   1    135 29.72                             143   -0.02 7  103 178 
 RUS  HN ES   2    135 48.26                             143   -0.30 5  103 178 
 RUS  HZ I         135 50.72         5.5 0.13                           103 178 
 OCA  SZ EP   1    135 33.67                             131   -0.17 7  158 352 
 OCA  SZ ES   2    135 55.70                             131   -0.16 5  158 352 
 ZAR  HZ EP   1    135 38.28                             123   -0.04 6  205 291 
 ZAR  HN ES   2    136  3.73                             123   -0.10 4  205 291 
 ZAR  HZ I         136  9.59        24.0 0.39                           205 291 
 NOR  SZ EP   2    135 41.76                             118   -0.09 4  238 234 
 NOR  SN ES   2    136  9.65                             118   -0.46 4  238 234 
 CHI  HZ EP   1    135 43.85                             117    0.06 6  252 196 
 CHI  HN ES   2    136 13.85                             117    0.29 4  252 196 
 CHI  HZ I         136 21.07         6.2 0.27                           252 196 
 HEL  HZ EP   1    135 46.66                             115    0.38 6  275 255 
 HEL  HN ES   2    136 17.88                             115   -0.11 4  275 255 
 HEL  HZ I         136 23.90        10.2 0.63                           275 255 
 PRA  HZ EP   1    135 59.32                             107   -0.32 4  396 210 
 PRA  HN ES   2    136 41.84                             107    0.07 3  396 210 
                                                                                
