 2015  9 3 0715 48.0 L   6.772 -73.139150.8  RSN  6 0.4 1.4LRSN                1
 GAP=236        1.08       6.0     6.5  7.4  0.1571E+02  0.7238E+01 -0.1940E+01E
 Epicentro: LOS SANTOS - SANTANDER                                             3
 ACTION:UPD 15-10-28 16:23 OP:cam  STATUS:               ID:20150903071548 L   I
 OLDACT:DUP 15-09-03 18:25 OP:stll STATUS:               ID:20150903070748d    3
 2015-09-03-0707-47M.COL___346                                                 6
 STAT SP IPHASW D HRMM SECON CODA AMPLIT PERI AZIMU VELO AIN AR TRES W  DIS CAZ7
 BAR2 EZ EP        716  7.97                             172   -0.1810 20.4 194 
 BAR2 EZ ES        716 23.45                             172   -0.4410 20.4 194 
 BAR2 EZ I         716 31.27         4.4 0.10            171           20.4 194 
 BRR  HZ EP        716 10.10                             153    0.3210 73.4 300 
 BRR  HZ I         716 10.39         5.7 0.20            152           73.4 300 
 BRR  HN ES        716 27.38                             153    0.5810 73.4 300 
 RUS  HZ EP        716 12.28                             146    0.2810 97.4 176 
 RUS  HZ I         716 13.95         1.2 0.18            149           97.4 176 
 RUS  HN ES        716 30.61                             146   -0.1310 97.4 176 
 PTB  HZ EP        716 15.15                             133   -0.21 9  148 260 
 PTB  HN ES        716 36.13                             133   -0.60 9  148 260 
 PTB  HZ I         716 43.48         4.1 0.30            134            148 260 
 SPBC HZ EP        716 17.08                             130    0.40 9  161 220 
 SPBC HN ES        716 39.38                             130    0.31 9  161 220 
 SPBC HZ I         716 42.57         5.3 0.12            133            161 220 
 ZAR  HZ EP        716 20.11                             123   -0.82 8  206 293 
 ZAR  HN ES        716 47.03                             123    0.38 8  206 293 
 ZAR  HZ I         716 54.41         2.8 0.26            125            206 293 
                                                                                
