 2017  8 3 0319 14.7 L   6.719 -73.270132.9  RSN  5 0.4 1.0LRSN                1
 GAP=141        1.12       7.0     8.3  8.8 -0.1572E+02  0.1547E+02  0.5864E+00E
 Epicentro: GALAN - SANTANDER                                                  3
 ACTION:UPD 17-09-04 20:15 OP:rebc STATUS:               ID:20170803031914 L   I
 OLDACT:UP  17-08-03 17:34 OP:edw  STATUS:               ID:20170803031745     3
 OLDACT:REG 17-08-03 14:41 OP:osc  STATUS:               ID:20170803031745     3
 2017-08-03-0318-00M.COL___398                                                 6
 STAT SP IPHASW D HRMM SECON CODA AMPLIT PERI AZIMU VELO AIN AR TRES W  DIS CAZ7
 BAR2 EZ EP        319 32.57                             172   -0.0710 17.1 145 
 BAR2 EZ ES        319 45.91                             172   -0.7510 17.1 145 
 BAR2 EZ I         319 46.94         2.4 0.54            172           17.1 145 
 PAM  EN ES        319 54.22                             143    0.4810 93.1  43 
 RUS  HZ EP        319 36.59                             143   -0.0810 93.7 167 
 RUS  HN ES        319 54.41                             143    0.5810 93.7 167 
 PTB  HZ EP        319 39.40                             132    0.1710  133 261 
 TAM  HZ EP        319 42.12                             125   -0.37 9  167 101 
                                                                                
