 2014  2 3 0158 23.0 L   6.812 -73.155146.0  RSN 10 0.5 1.7LRSN                1
 GAP=135        1.14       3.5     5.0  6.3 -0.3088E+01  0.7243E+01  0.1066E+01E
 Epicentro: LOS SANTOS - SANTANDER                                             3
 ACTION:UPD 14-03-10 08:07 OP:ep   STATUS:               ID:20140203015823 L   I
 OLDACT:REG 14-02-03 07:36 OP:nd   STATUS:               ID:20140203015000     3
 2014-02-03-0150-00M.COL___288                                                 6
 STAT SP IPHASW D HRMM SECON CODA AMPLIT PERI AZIMU VELO AIN AR TRES W  DIS CAZ7
 BAR2 SZ EP        158 42.73                             170    0.1010 24.5 187 
 BAR2 SZ ES        158 57.68                             170   -0.3010 24.5 187 
 BAR2 SZ I         158 59.51        18.7 0.18            169           24.5 187 
 BRR  HZ EP        158 44.66                             153    0.6210 69.7 298 
 BRR  HN ES        159  1.09                             153    0.6110 69.7 298 
 BRR  HZ I         159  4.96         8.8 0.28            152           69.7 298 
 PAM  SZ EP        158 45.72                             151    0.5510 77.0  41 
 PAM  SN ES        159  2.08                             151   -0.4110 77.0  41 
 PAM  SZ I         159  4.95         9.5 0.50            155           77.0  41 
 RUS  HZ EP        158 46.76                             143   -0.0610  102 176 
 RUS  HN ES        159  5.63                             143    0.1910  102 176 
 RUS  HZ I         159  6.57         5.2 0.26            145            102 176 
 PTB  HZ EP        158 49.64                             132   -0.23 9  147 258 
 PTB  HN ES        159 10.19                             132   -0.67 9  147 258 
 PTB  HZ I         159 13.50         6.4 0.12            133            147 258 
 SPBC HZ EP        158 51.70                             129    0.20 9  164 218 
 SPBC HN ES        159 13.67                             129   -0.10 9  164 218 
 SPBC HZ I         159 18.21         9.2 0.20            130            164 218 
 NOR  HZ EP        158 58.86                             118    0.17 8  235 234 
 NOR  HN ES        159 27.17                             118    0.61 8  235 234 
 NOR  HZ I         159 32.25         3.1 0.18            120            235 234 
 SML  HZ EP        158 58.50                             118   -0.91 8  242 335 
 SML  HN ES        159 27.67                             118   -0.18 8  242 335 
 SML  HZ I         159 29.84         5.8 0.34            119            242 335 
 CHI  HZ EP        159  0.95                             117    0.18 8  250 195 
 CHI  HN ES        159 29.43                             117   -0.84 8  250 195 
 CHI  HZ I         159 34.08         3.7 0.54            119            250 195 
 GUY2CHZ EP   4    159  7.44                             112    0.88 0  301 234 
 GUY2CHN ES   4    159 42.69                             112    2.11 0  301 234 
 GUY2CHZ I         159 49.08         1.9 0.36                           301 234 
                                                                                
