 2014  7 3 0021 21.8 L   6.750 -73.184154.0  RSN  4 0.2 1.5LRSN                1
 GAP=229        0.62       4.6     5.1  7.0  0.9458E+01  0.4655E+01  0.4510E+01E
 Epicentro: VILLANUEVA - SANTANDER                                             3
 ACTION:UPD 15-03-16 20:40 OP:nd   STATUS:               ID:20140703002121 L   I
 OLDACT:DUP 14-07-03 13:46 OP:cam  STATUS:               ID:20140703002002d    3
 OLDACT:UP  14-07-03 13:43 OP:cam  STATUS:               ID:20140703002000     3
 OLDACT:UP  14-07-03 13:41 OP:cam  STATUS:               ID:20140703002000     3
 OLDACT:UP  14-07-03 13:39 OP:cam  STATUS:               ID:20140703002000     3
 OLDACT:REG 14-07-03 12:48 OP:cam  STATUS:               ID:20140703002000     3
 2014-07-03-0020-00M.COL___279                                                 6
 STAT SP IPHASW D HRMM SECON CODA AMPLIT PERI AZIMU VELO AIN AR TRES W  DIS CAZ7
 BRR  HN ES        022  1.12                             154    0.1810 70.5 304 
 RUS  HZ EP   1    021 45.97                             147   -0.01 7 95.5 173 
 RUS  HN ES        022  4.71                             147   -0.1710 95.5 173 
 RUS  HZ I         022  5.71         2.6 0.30            143           95.5 173 
 PTB  HZ EP        021 48.99                             135    0.02 9  143 261 
 PTB  HN ES        022  9.82                             135   -0.37 9  143 261 
 PTB  HZ I         022 17.08         3.0 0.52            130            143 261 
 SPBC HN ES        022 12.86                             132    0.35 9  156 219 
 SPBC HN I         022 19.03        11.1 0.10            127            156 219 
                                                                                
