 2013  3 3 0646 55.6 L   6.753 -73.134147.2  RSN  5 0.3 1.8LRSN                1
 GAP=140        0.79       4.3     4.1  6.2 -0.1708E+01  0.2644E+01  0.1849E+01E
 Epicentro: LOS SANTOS - SANTANDER                                             3
 ACTION:UPD 13-04-09 13:59 OP:ep   STATUS:               ID:20130303064655 L   I
 2013-03-03-0638-50M.COL___196                                                 6
 STAT SP IPHASW D HRMM SECON CODA AMPLIT PERI AZIMU VELO AIN AR TRES W  DIS CAZ7
 BAR2 SZ IP        647 15.39                             172    0.1210 18.6 197 
 BAR2 SZ ES   1    647 30.45                             172   -0.20 7 18.6 197 
 BAR2 SZ I         647 31.52        12.4 0.26            171           18.6 197 
 BRR  HZ IP     D  647 17.44                             152    0.3710 74.9 302 
 BRR  HN ES        647 34.30                             152    0.4510 74.9 302 
 BRR  HN I         647 35.05        22.3 0.30            150           74.9 302 
 PAM  SZ EP        647 18.16                             150    0.0410 80.7  37 
 PAM  SN ES        647 35.33                             150   -0.3910 80.7  37 
 PAM  SN I         647 36.22        11.4 0.20            153           80.7  37 
 RUS  HZ EP        647 19.21                             146    0.1310 95.4 177 
 RUS  HN ES        647 37.50                             146    0.0710 95.4 177 
 RUS  HN I         647 38.64         4.7 0.40            146           95.4 177 
 PTB  HZ EP        647 22.19                             132   -0.48 9  148 261 
 PTB  HN ES        647 43.51                             132   -0.31 9  148 261 
 PTB  HN I         647 48.97        16.6 0.28            132            148 261 
                                                                                
