 2014  1 3 0849 30.7 L   6.821 -73.154142.3  RSN 15 0.7 2.0LRSN                1
 GAP= 70        1.51       3.7     4.2  7.8 -0.1757E+01  0.1079E+02  0.2279E+01E
 Epicentro: LOS SANTOS - SANTANDER                                             3
 ACTION:UPD 14-03-13 09:50 OP:ep   STATUS:               ID:20140103084930 L   I
 OLDACT:REG 14-01-03 09:14 OP:stll STATUS:               ID:20140103084805     3
 2014-01-03-0848-05M.COL___231                                                 6
 STAT SP IPHASW D HRMM SECON CODA AMPLIT PERI AZIMU VELO AIN AR TRES W  DIS CAZ7
 BAR2 SZ EP        849 50.01                             169    0.0710 25.5 187 
 BAR2 SZ ES        850  4.73                             169   -0.2310 25.5 187 
 BAR2 SZ I         850  7.87        31.0 0.44            167           25.5 187 
 PAM  SZ EP        849 52.93                             150    0.4810 76.2  41 
 PAM  SN ES        850 10.17                             150    0.7310 76.2  41 
 PAM  SZ I         850 12.44        15.3 0.66            151           76.2  41 
 RUS  HZ EP        849 54.02                             142   -0.2410  103 176 
 RUS  HN ES        850 12.85                             142    0.1910  103 176 
 RUS  HZ I         850 14.33        10.7 0.22            140            103 176 
 PTB  HZ EP        849 57.00                             131   -0.32 9  147 258 
 PTB  HN ES        850 17.48                             131   -0.63 9  147 258 
 PTB  HZ I         850 20.05        12.5 0.10            128            147 258 
 TAM  HZ EP        849 58.27                             129    0.05 9  157 106 
 TAM  HZ I         849 58.42        13.2 0.20            128            157 106 
 TAM  HN ES        850 19.48                             129   -0.23 9  157 106 
 OCA  HN ES        850 19.64                             129   -0.55 9  158 353 
 SPBC HZ EP        849 59.02                             128   -0.01 9  164 218 
 SPBC HN ES        850 20.94                             128   -0.21 9  164 218 
 SPBC HZ I         850 23.92        23.2 0.18            125            164 218 
 ZAR  HZ EP        850  2.66                             122   -0.06 9  202 292 
 ZAR  HN ES        850 28.65                             122    0.93 9  202 292 
 ZAR  HZ I         850 34.29         9.4 0.30            119            202 292 
 NOR  HZ EP        850  5.82                             118   -0.45 8  235 234 
 NOR  HN ES        850 32.91                             118   -1.13 8  235 234 
 NOR  HZ I         850 37.65        11.7 0.18            115            235 234 
 SML  HZ EP        850  6.54                             117   -0.30 8  241 335 
 SML  HN ES        850 34.79                             117   -0.26 8  241 335 
 CHI  HZ EP        850  8.06                             116   -0.34 8  251 195 
 CHI  HZ I         850 10.85         5.3 0.22            114            251 195 
 CHI  HN ES        850 36.56                             116   -1.27 8  251 195 
 ROSC BZ EP        850  9.89                             116    1.12 8  254 211 
 ROSC BN ES        850 40.38                             116    1.89 8  254 211 
 HEL  HZ EP        850  9.95                             114   -0.73 8  272 255 
 HEL  HN ES        850 42.32                             114    0.44 8  272 255 
 HEL  HZ I         850 50.59         5.9 0.40            112            272 255 
 GUY2CHZ EP        850 15.19                             112    1.00 7  302 234 
 GUY2CHE ES        850 48.66                             112    0.52 7  302 234 
 GUY2CHZ I         850 55.13         5.1 0.46                           302 234 
 ORTC HZ EP        850 24.44                             106   -0.19 6  397 216 
 ORTC HZ I         851 13.41         3.3 0.68            104            397 216 
                                                                                
