 2016 11 3 0955 38.9 L   6.804 -73.154145.9  RSN 12 0.5 1.9LRSN                1
 GAP=102        1.17       4.1     3.9  6.4 -0.1370E+01  0.3850E+01  0.4746E+01E
 Epicentro: LOS SANTOS - SANTANDER                                             3
 ACTION:UPD 17-10-26 21:04 OP:lp   STATUS:               ID:20161103095538 L   I
 OLDACT:UP  16-11-03 16:39 OP:dani STATUS:               ID:20161103094746d    3
 OLDACT:UP  16-11-03 16:37 OP:dani STATUS:               ID:20161103094746d    3
 OLDACT:DUP 16-11-03 16:34 OP:dani STATUS:               ID:20161103094746d    3
 2016-11-03-0948-00M.COL___334                                                 6
 STAT SP IPHASW D HRMM SECON CODA AMPLIT PERI AZIMU VELO AIN AR TRES W  DIS CAZ7
 BAR2 EZ EP        955 58.49                             170   -0.0910 23.6 188 
 BAR2 EZ ES        956 13.55                             170   -0.3610 23.6 188 
 BAR2 EZ I         956 15.62        17.8 0.26            169           23.6 188 
 BRR  HZ EP        956  0.25                             153    0.2210 70.1 299 
 BRR  HN ES        956 17.25                             153    0.7610 70.1 299 
 BRR  HZ I         956 20.74        17.9 0.16            152           70.1 299 
 PAM  EZ EP     D  956  1.34                             151    0.1710 77.7  40 
 PAM  EN ES        956 18.35                             151   -0.1810 77.7  40 
 PAM  EZ I         956 19.95         9.9 0.64            154           77.7  40 
 RUS  HZ EP        956  2.57                             144   -0.1610  101 176 
 RUS  HE ES        956 20.86                             144   -0.4310  101 176 
 RUS  HZ I         956 23.01        12.7 0.14            145            101 176 
 PTB  HZ EP        956  5.07                             132   -0.75 9  147 259 
 PTB  HN ES        956 26.39                             132   -0.42 9  147 259 
 PTB  HZ I         956 28.96        15.3 0.14            132            147 259 
 TAM  HZ EP        956  6.86                             130    0.15 9  156 105 
 SPBC HZ EP        956  7.50                             129    0.09 9  163 219 
 SPBC HE ES        956 30.61                             129    0.98 9  163 219 
 SPBC HZ I         956 33.03        12.7 0.21            130            163 219 
 ZAR  HZ EP        956 11.34                             122    0.07 9  203 292 
 ZAR  HE ES        956 36.54                             122    0.04 9  203 292 
 ZAR  HZ I         956 41.65        10.9 0.24            123            203 292 
 NOR  HZ EP        956 14.72                             119    0.12 8  234 234 
 NOR  HE ES        956 43.07                             119    0.64 8  234 234 
 NOR  HZ I         956 44.06         5.3 0.15            120            234 234 
 CHI  HZ EP        956 17.04                             117    0.39 8  249 195 
 CHI  HN ES        956 45.94                             117   -0.13 8  249 195 
 CHI  HZ I         956 51.06         3.5 0.24            119            249 195 
 HEL  HZ EP   4    956 20.76                             115    1.71 0  271 256 
 HEL  HN ES        956 49.19                             115   -1.16 8  271 256 
 HEL  HZ I         956 57.41         5.5 0.36            116            271 256 
 URE  HN ES   4    956 49.39                             114   -2.44 0  283 292 
 SJC  HZ EP   4    956 32.31                             106   -2.07 0  408 327 
 SJC  HE ES   4    957 13.75                             106   -3.89 0  408 327 
 SJC  HZ I         957 17.28         1.2 0.19            107            408 327 
                                                                                
