 2016  5 3 0312 32.2 L   6.771 -73.129148.8  RSN  6 0.4 1.5LRSN                1
 GAP=140        0.94       5.0     5.3  6.7 -0.7817E+00 -0.4787E+00 -0.1415E+01E
 Epicentro: LOS SANTOS - SANTANDER                                             3
 ACTION:UPD 16-08-18 17:41 OP:cam  STATUS:               ID:20160503031231 L   I
 OLDACT:UP  16-05-15 07:30 OP:ar   STATUS:               ID:20160503031231 L   3
 OLDACT:REG 16-05-03 13:33 OP:edw  STATUS:               ID:20160503030750     3
 2016-05-03-0307-50M.COL___309                                                 6
 STAT SP IPHASW D HRMM SECON CODA AMPLIT PERI AZIMU VELO AIN AR TRES W  DIS CAZ7
 BAR2 EZ EP        312 51.66                             172   -0.4610 20.6 197 
 BAR2 EZ ES        313  7.25                             172   -0.4310 20.6 197 
 BAR2 EZ I         313  8.74         7.3 0.24            168           20.6 197 
 BRR  HZ EP        312 54.05                             152    0.2210 74.4 300 
 BRR  HN ES        313 11.12                             152    0.3910 74.4 300 
 BRR  HZ I         313 13.66         4.7 0.28            149           74.4 300 
 PAM  EZ EP        312 55.08                             151    0.2810 78.8  37 
 RUS  HZ EP        312 55.61                             145   -0.3910 97.3 177 
 RUS  HN ES        313 14.96                             145    0.3910 97.3 177 
 PTB  HZ EP        312 59.36                             132   -0.14 9  149 260 
 PTB  HN ES        313 20.38                             132   -0.44 9  149 260 
 PTB  HZ I         313 26.59         2.9 0.32            131            149 260 
 SPBC HZ EP        313  1.09                             130    0.30 9  162 220 
 SPBC HN ES        313 23.42                             130    0.32 9  162 220 
 SPBC HZ I         313 28.05         4.7 0.14            129            162 220 
                                                                                
