 2012  8 3 0310 50.2 L   6.765 -73.160144.2  RSN  5 0.4 1.3LRSN                1
 GAP=233        0.81       8.3     7.6  8.6  0.3938E+02  0.9219E+01 -0.2593E-01E
 Epicentro: LOS SANTOS - SANTANDER                                             3
 ACTION:UPD 12-09-10 11:54 OP:ep   STATUS:               ID:20120803031050 L   I
 2012-08-03-0310-00M.COL___215                                                 6
 STAT SP IPHASW D HRMM SECON CODA AMPLIT PERI AZIMU VELO AIN AR TRES W  DIS CAZ7
 BAR2 SZ EP   1    311  9.66                             172    0.13 7 19.3 187 
 BAR2 SZ ES   1    311 24.07                             172   -0.57 7 19.3 187 
 BAR2 SZ I         311 25.98         5.2 0.21                          19.3 187 
 BRR  HZ EP   1    311 11.32                             152    0.14 7 71.8 302 
 BRR  HN ES   1    311 28.14                             152    0.57 7 71.8 302 
 BRR  HZ I         311 32.34         7.5 0.12                          71.8 302 
 RUS  HZ EP   1    311 13.79                             145    0.29 7 96.9 175 
 RUS  HN ES   1    311 31.59                             145   -0.10 7 96.9 175 
 RUS  HZ I         311 33.96         2.0 0.29                          96.9 175 
 PTB  HZ EP   1    311 16.38                             132   -0.43 7  146 260 
 PTB  HN ES   1    311 38.02                             132    0.44 7  146 260 
 PTB  HZ I         311 39.91         1.9 0.08                           146 260 
 ZAR  HN ES   1    311 47.10                             122   -0.65 6  204 293 
                                                                                
