 2014  5 3 0109  5.6 L   6.802 -73.165140.0  RSN  6 0.2 1.7LRSN                1
 GAP=134        0.50       2.5     3.5  6.4 -0.2372E+01  0.1126E+02  0.2884E-01E
 Epicentro: LOS SANTOS - SANTANDER                                             3
 OLDACT:REG 14-05-03 13:14 OP:fm   STATUS:               ID:20140503010816     3
 ACTION:UPD 15-03-16 16:54 OP:nd   STATUS:               ID:20140503010905 L   I
 OLDACT:UP  14-05-03 15:12 OP:fm   STATUS:               ID:20140503010816     3
 2014-05-03-0108-16M.COL___248                                                 6
 STAT SP IPHASW D HRMM SECON CODA AMPLIT PERI AZIMU VELO AIN AR TRES W  DIS CAZ7
 PAM  SZ EP   1    1 9 27.17                             149   -0.06 7 78.6  41 
 PAM  SE ES        1 9 43.97                             149   -0.1710 78.6  41 
 PAM  SZ I         1 9 46.32         7.0 0.58            125           78.6  41 
 RUS  HZ EP   1    1 9 29.06                             142    0.30 7  101 175 
 RUS  SZ I         1 9 46.41         4.1 1.10            116            101 175 
 RUS  HE ES   1    1 9 47.18                             142    0.31 7  101 175 
 SPBC HZ EP   2    1 9 33.64                             128    0.14 5  162 218 
 SPBC HN ES        1 9 55.05                             128   -0.24 9  162 218 
 SPBC SZ I         110  1.33         7.2 1.02            108            162 218 
 ZAR  HE ES   1    110  2.44                             121    0.18 6  202 292 
 SML  HE ES   2    110 10.33                             116    0.36 4  243 336 
 GUY2CHZ EP   1    1 9 48.39                             111   -0.32 5  300 235 
 GUY2CHN ES   4    110 25.59                             111    3.22 0  300 235 
 GUY2CSZ I         110 29.34         5.6 2.88                           300 235 
                                                                                
