 2015 11 3 0633 43.0 L   6.861 -73.039144.0  RSN  5 0.3 1.4LRSN                1
 GAP=252        0.84       5.9     6.4  6.7  0.2058E+02  0.1520E+02  0.1039E+02E
 Epicentro: LOS SANTOS - SANTANDER                                             3
 ACTION:UPD 15-12-28 16:08 OP:cam  STATUS:               ID:20151103063343 L   I
 OLDACT:UP  15-11-03 19:40 OP:ak   STATUS:               ID:20151103062749     3
 OLDACT:UP  15-11-03 19:40 OP:ak   STATUS:               ID:20151103062749     3
 OLDACT:REG 15-11-03 14:14 OP:cara STATUS:               ID:20151103062749     3
 2015-11-03-0627-49M.COL___310                                                 6
 STAT SP IPHASW D HRMM SECON CODA AMPLIT PERI AZIMU VELO AIN AR TRES W  DIS CAZ7
 BAR2 EZ EP        634  2.60                             166   -0.1010 33.7 208 
 BAR2 EZ ES        634 17.78                             166   -0.2710 33.7 208 
 BAR2 EZ I         634 19.80         4.8 0.30            165           33.7 208 
 BRR  HZ EP   1    634  4.69                             150    0.22 7 79.2 290 
 BRR  HN ES        634 21.79                             150    0.6010 79.2 290 
 BRR  HZ I         634 25.01         3.0 0.38            149           79.2 290 
 RUS  HZ EP        634  7.09                             142   -0.0110  107 183 
 RUS  HN ES        634 25.79                             142   -0.0810  107 183 
 RUS  HZ I         634 28.83         2.4 0.40            144            107 183 
 ZAR  HN ES        634 41.50                             121   -0.69 8  213 289 
 ZAR  HZ I         634 46.60         5.2 0.62            122            213 289 
 GUY2CHZ EP        634 28.40                             111    0.31 7  315 235 
 GUY2CHN ES        635  3.37                             111    0.13 7  315 235 
 GUY2CHZ I         635 11.71         1.3 0.48                           315 235 
                                                                                
