 2012  8 3 0507 29.3 L   6.831 -73.133149.8  RSN 17 0.4 2.8LRSN 3.2WRSN        1
 SPEC AVERAGE  MO 13.9 ST  9.4 OM  3.2 f0 3.94 R0.3776 AL 2.43 WI 12.6 MW  3.2 3
 SPEC SD       MO  0.3 ST  7.8 OM  1.1 f00.437 R0.0436 AL      WI      MW  0.2 3
 GAP= 57        0.82       3.0     2.9  4.9 -0.3308E+00  0.2694E+01  0.2200E+01E
 Epicentro: LOS SANTOS - SANTANDER                                             3
 SPEC HEL HH Z MO 13.6 ST  3.3 OM  1.7 f0 4.03 R0.3648 AL 2.83 WI 14.8 MW  3.0 3
 SPEC HEL HH Z T 5 842 K 0.000 GD  312 VS 4.20 DE 3.00 Q0230.0 QA 0.60 VS 4.20 3
 SPEC CHI HH N MO 13.9 ST  4.6 OM  2.1 f0 3.37 R0.4362 AL 2.27 WI 12.2 MW  3.2 3
 SPEC CHI HH N T 5 836 K 0.000 GD  293 VS 4.20 DE 3.00 Q0230.0 QA 0.60 VS 4.20 3
 SPEC RUS HH N MO 14.2 ST 20.3 OM  2.6 f0 4.43 R0.3318 AL 2.19 WI 10.8 MW  3.4 3
 SPEC RUS HH N T 5 811 K 0.000 GD  182 VS 4.20 DE 3.00 Q0230.0 QA 0.60 VS 4.20 3
 ACTION:UPD 12-09-10 11:54 OP:ep   STATUS:               ID:20120803050729 L   I
 2012-08-03-0505-39M.COL___196                                                 6
 STAT SP IPHASW D HRMM SECON CODA AMPLIT PERI AZIMU VELO AIN AR TRES W  DIS CAZ7
 BAR2 SZ IP        5 7 49.44                             169   -0.0210 27.0 192 
 BAR2 SZ ES   1    5 8  4.47                             169   -0.74 7 27.0 192 
 BAR2 SZ I         5 8  5.64        97.1 0.28                          27.0 192 
 BRR  HZ IP     C  5 7 51.19                             153    0.3510 70.9 296 
 BRR  HN ES   1    5 8  8.52                             153    0.86 7 70.9 296 
 BRR  HZ I         5 8 12.06       171.2 0.20                          70.9 296 
 PAM  SZ EP        5 7 52.08                             153    0.3710 73.8  40 
 PAM  SN ES   1    5 8  9.23                             153    0.01 7 73.8  40 
 RUS  HZ EP        5 7 53.46                             144   -0.2010  104 177 
 RUS  HN ES   1    5 8 12.19                             144   -0.49 7  104 177 
 RUS  HZ I         5 8 13.45        50.8 0.19                           104 177 
 PTB  HZ EP   1    5 7 56.08                             132   -0.67 7  150 258 
 PTB  HE ES   1    5 8 18.36                             132    0.17 7  150 258 
 PTB  HZ I         5 8 20.32        47.5 0.12                           150 258 
 TAM  HZ EP   1    5 7 57.59                             131    0.36 7  155 106 
 TAM  HZ I         5 7 58.02        81.7 0.25                           155 106 
 TAM  HN ES   1    5 8 19.39                             131    0.35 7  155 106 
 OCA  HZ EP   1    5 7 57.40                             131   -0.20 7  157 352 
 OCA  HN ES   1    5 8 18.93                             131   -0.76 7  157 352 
 YOP  SZ EP   1    5 8  0.15                             127    0.30 7  181 154 
 ZAR  HZ EP   1    5 8  1.99                             123    0.01 6  204 291 
 ZAR  HN ES   1    5 8 27.82                             123    0.32 6  204 291 
 ZAR  HZ I         5 8 33.47       100.5 0.34                           204 291 
 NOR  SZ EP   1    5 8  6.13                             119    0.56 6  238 234 
 NOR  SN ES   1    5 8 33.77                             119   -0.12 6  238 234 
 CHI  HZ EP   1    5 8  7.90                             117    0.31 6  252 195 
 CHI  HN ES   1    5 8 37.29                             117   -0.19 6  252 195 
 CHI  HZ I         5 8 39.56        18.4 0.32                           252 195 
 HEL  HZ EP   1    5 8  9.87                             115   -0.06 6  274 255 
 HEL  HN ES   1    5 8 41.63                             115   -0.02 6  274 255 
 HEL  HZ I         5 8 49.92        34.7 0.27                           274 255 
 URE  HZ EP   1    5 8  9.55                             114   -0.99 6  284 291 
 GUY  SZ EP   1    5 8 14.19                             113    0.51 5  307 235 
 GUY  SZ I         5 8 56.96        54.7 0.48                           307 235 
 DBB  SZ EP   1    5 8 17.14                             110    0.10 5  341 274 
 SDV  BZ EP   1    5 8 18.42                             109   -0.67 5  357  50 
 PRA  HZ EP   1    5 8 23.27                             107   -0.09 4  396 209 
 PRA  HN ES   1    5 9  5.20                             107   -0.35 4  396 209 
                                                                                
