 2014  3 3 0241 37.3 L   6.780 -73.126139.1  RSN  9 0.6 1.6LRSN                1
 GAP=105        1.33       5.7     4.6  8.4 -0.6786E+01  0.5022E+01 -0.8825E+01E
 Epicentro: LOS SANTOS - SANTANDER                                             3
 ACTION:UPD 14-04-09 23:14 OP:nd   STATUS:               ID:20140303024137 L   I
 OLDACT:REG 14-03-03 08:58 OP:stll STATUS:               ID:20140303023818     3
 2014-03-03-0238-18M.COL___226                                                 6
 STAT SP IPHASW D HRMM SECON CODA AMPLIT PERI AZIMU VELO AIN AR TRES W  DIS CAZ7
 BAR2 SZ EP        241 56.13                             171    0.0510 21.7 197 
 BAR2 SZ ES        242 10.59                             171   -0.1510 21.7 197 
 BAR2 SZ I         242 12.76        12.5 0.32            170           21.7 197 
 PAM  SZ EP        241 58.93                             149    0.1110 77.8  37 
 PAM  SN ES        242 15.76                             149    0.1510 77.8  37 
 PAM  SZ I         242 17.85        12.0 0.50            152           77.8  37 
 RUS  HZ EP        242  0.38                             143    0.1710 98.3 177 
 RUS  HE ES        242 18.20                             143    0.1010 98.3 177 
 RUS  HN I         242 20.05         7.7 0.40            143           98.3 177 
 PTB  HZ EP        242  3.30                             130   -0.57 9  149 260 
 PTB  HE ES        242 24.22                             130   -0.39 9  149 260 
 PTB  HZ I         242 26.00         4.7 0.16            131            149 260 
 TAM  HZ EP        242  4.38                             129    0.19 9  152 104 
 SPBC HN ES        242 27.12                             127    0.06 9  163 220 
 ZAR  HZ EP        242 11.25                             120    1.65 8  207 292 
 ZAR  HN ES        242 34.41                             120   -0.39 8  207 292 
 NOR  HE ES        242 40.17                             117   -0.13 8  235 235 
 NOR  HZ I         242 47.21         1.8 0.54            118            235 235 
 SOCV BZ EP        242 18.73                             111   -1.24 7  301  56 
                                                                                
