 2010  1 3 0350  3.5 L   6.826 -73.175142.6  RSN  5 0.3 1.7LRSN                1
 GAP=279        0.59       6.0     6.0  6.9  0.4837E+01  0.1972E+02  0.9058E+01E
 Epicentro: LOS SANTOS - SANTANDER                                             3
 ACTION:UP  10-08-24 09:42 OP:vdl  STATUS:               ID:20100103035003 L   I
 2010-01-03-0340-00S.COL___095                                                 6
 STAT SP IPHASW D HRMM SECON CODA AMPLIT PERI AZIMU VELO SNR AR TRES W  DIS CAZ7
 BAR2 SZ EP   1    350 22.86                             169     0.0 7   26 182 
 BAR2 SZ ES   1    350 37.58                             169    -0.3 7   26 182 
 RUS  BZ EP   1    350 27.57                             142     0.4 7  104 174 
 RUS  BN ES   1    350 45.73                             142     0.1 7  104 174 
 RUS  BZ I         350 46.90         5.8 0.34                           104 174 
 CHI  HZ EP   1    350 41.17                             116    -0.1 6  251 194 
 CHI  HN ES   1    351 10.59                             116    -0.1 6  251 194 
 CHI  HZ I         351 13.03         3.8 0.31                           251 194 
 HEL  HZ EP   2    350 42.42                             114    -0.9 4  270 255 
 HEL  HN ES   1    351 14.77                             114     0.4 6  270 255 
 PRA  HN ES   2    351 38.66                             106    -0.1 3  393 209 
                                                                                
