 2010  9 3 0607 40.0 L   6.817 -73.382112.0  RSN  4 0.2 1.1LRSN                1
 GAP=149        0.63       6.6     9.7  9.0  0.2577E+02 -0.4973E+02 -0.2033E+02E
 Epicentro: SAN VICENTE DE CHUCURI - SANTANDER                                 3
 ACTION:UP  11-02-18 10:59 OP:tino STATUS:               ID:20100903060740 L   I
 2010-09-03-0605-48S.COL___120                                                 6
 STAT SP IPHASW D HRMM SECON CODA AMPLIT PERI AZIMU VELO SNR AR TRES W  DIS CAZ7
 BAR2 SZ EP        6 7 55.86                             163     0.010   33 139 
 BAR2 SZ I         6 7 56.11        11.2 0.12                            33 139 
 BAR2 SZ ES   2    6 8  8.12                             163    -0.2 5   33 139 
 BRR  HZ EP        6 7 55.96                             155    -0.310   49 311 
 BRR  HZ I         6 8  6.49         3.8 0.32                            49 311 
 BRR  HN ES   1    6 8  9.21                             155     0.3 7   49 311 
 RUS  HZ EP   2    6 8  1.60                             134     0.4 5  107 162 
 RUS  HZ I         6 8  1.76         1.2 0.09                           107 162 
 GUE  SZ EP        6 8  2.43                             129     0.010  123  24 
 GUE  SZ I         6 8 20.21         1.3 0.11                           123  24 
                                                                                
