 2017 11 3 0805 10.8 L   6.797 -73.159142.0  RSN  7 0.4 1.2LRSN                1
 GAP=135        0.94       4.0     4.0  6.9 -0.6980E+00  0.4947E+01  0.2976E+00E
 Epicentro: LOS SANTOS - SANTANDER                                             3
 ACTION:UPD 17-12-12 19:51 OP:rebc STATUS:               ID:20171103080510 L   I
 OLDACT:REG 17-11-03 13:33 OP:dnl  STATUS:               ID:20171103075739     3
 2017-11-03-0758-00M.COL___435                                                 6
 STAT SP IPHASW D HRMM SECON CODA AMPLIT PERI AZIMU VELO AIN AR TRES W  DIS CAZ7
 BAR2 EZ EP        8 5 29.85                             170   -0.1210 22.8 187 
 BAR2 EZ ES        8 5 44.65                             170   -0.2710 22.8 187 
 BAR2 EZ I         8 5 47.64         6.5 0.48            171           22.8 187 
 BRR  HZ EP        8 5 31.65                             152    0.1710 70.1 299 
 BRR  HE ES        8 5 47.98                             152    0.3710 70.1 299 
 BRR  HZ I         8 5 52.96         2.6 0.28            147           70.1 299 
 PAM  EZ EP        8 5 32.73                             150    0.0410 78.5  40 
 PAM  EN ES        8 5 49.58                             150   -0.1810 78.5  40 
 PAM  EZ I         8 5 52.04         2.0 0.52            152           78.5  40 
 RUS  HZ EP        8 5 34.31                             143    0.1310  100 175 
 RUS  HE ES        8 5 52.61                             143    0.2110  100 175 
 RUS  HZ I         8 5 53.66         3.1 0.22            149            100 175 
 PTB  HZ EP   2    8 5 36.61                             131   -0.72 5  146 259 
 PTB  HN ES        8 5 57.09                             131   -0.93 9  146 259 
 PTB  HZ I         8 6  2.28         0.7 0.56            130            146 259 
 SPBC HZ EP   2    8 5 38.29                             128   -0.62 5  162 219 
 SPBC HE ES        8 6  1.28                             128    0.45 9  162 219 
 SPBC HZ I         8 6  2.10         4.4 0.26            130            162 219 
 ZAR  HZ EP   2    8 5 42.96                             122    0.08 4  203 292 
 ZAR  HN ES        8 6  8.40                             122    0.51 9  203 292 
 ZAR  HZ I         8 6 22.99         2.5 0.48            121            203 292 
                                                                                
