 2015  4 3 0941 52.4 L   6.828 -73.129142.3  RSN  8 0.5 1.8LRSN                1
 GAP=153        1.17       5.4     5.5  7.3 -0.8935E+01  0.1545E+02 -0.1765E+01E
 Epicentro: LOS SANTOS - SANTANDER                                             3
 ACTION:UPD 15-06-03 16:52 OP:cam  STATUS:               ID:20150403094152 L   I
 OLDACT:UP  15-04-03 15:44 OP:mh   STATUS:               ID:20150403093749     3
 OLDACT:UP  15-04-03 15:43 OP:mh   STATUS:               ID:20150403093749     3
 OLDACT:REG 15-04-03 13:01 OP:mh   STATUS:               ID:20150403093749     3
 2015-04-03-0937-49M.COL___280                                                 6
 STAT SP IPHASW D HRMM SECON CODA AMPLIT PERI AZIMU VELO AIN AR TRES W  DIS CAZ7
 BAR2 EZ EP        942 11.60                             169   -0.0410 26.7 193 
 BAR2 EZ ES        942 25.72                             169   -0.9710 26.7 193 
 BAR2 EZ I         942 27.64        14.3 0.22            169           26.7 193 
 BRR  HZ EP        942 13.46                             152    0.3110 71.5 296 
 BRR  HN ES        942 30.18                             152    0.8210 71.5 296 
 BRR  HZ I         942 34.69        10.2 0.10            148           71.5 296 
 PAM  SZ EP        942 14.37                             151    0.3810 73.8  40 
 PAM  SN ES        942 31.19                             151    0.3210 73.8  40 
 PAM  SZ I         942 32.36         6.7 0.18            155           73.8  40 
 OCA  HZ EP        942 19.69                             129   -0.44 9  157 352 
 OCA  HN ES        942 41.51                             129   -0.29 9  157 352 
 OCA  HZ I         942 44.72        12.5 0.22            130            157 352 
 ZAR  HZ EP        942 24.10                             121   -0.54 9  205 291 
 ZAR  HN ES        942 49.98                             121    0.16 9  205 291 
 ZAR  HZ I         942 55.51         9.8 0.22            122            205 291 
 SML  HZ EP   1    942 28.17                             117   -0.40 6  242 335 
 SML  HN ES   2    942 56.21                             117   -0.61 4  242 335 
 HEL  HZ EP   1    942 33.39                             114    0.71 6  275 255 
 HEL  HN ES        943  4.10                             114   -0.03 8  275 255 
 HEL  HZ I         943 11.36         2.8 0.29            115            275 255 
 GUY2CHZ EP        942 36.74                             111    0.56 7  304 235 
 GUY2CHN ES   1    943  9.78                             111   -0.58 5  304 235 
 GUY2CHZ I         943 18.35         4.2 0.57                           304 235 
                                                                                
