 2017 11 3 0718  1.6 L   6.802 -73.163147.5  RSN 17 0.3 2.2LRSN                1
 GAP=102        0.75       2.4     2.1  3.7  0.5483E+00  0.1262E+01  0.1592E+01E
 Epicentro: LOS SANTOS - SANTANDER                                             3
 ACTION:UPD 17-12-12 19:51 OP:rebc STATUS:               ID:20171103071801 L   I
 OLDACT:UP  17-11-03 16:49 OP:dnl  STATUS:               ID:20171103070643     3
 OLDACT:REG 17-11-03 13:28 OP:dnl  STATUS:               ID:20171103070643     3
 2017-11-03-0707-00M.COL___435                                                 6
 STAT SP IPHASW D HRMM SECON CODA AMPLIT PERI AZIMU VELO AIN AR TRES W  DIS CAZ7
 BAR2 EZ EP        718 21.41                             171   -0.0210 23.3 185 
 BAR2 EZ ES        718 36.62                             171   -0.2910 23.3 185 
 BAR2 EZ I         718 37.45        84.8 0.28            168           23.3 185 
 BRR  HZ IP     D  718 23.16                             153    0.3310 69.4 299 
 BRR  HN ES        718 40.03                             153    0.6310 69.4 299 
 BRR  HZ I         718 44.08        44.9 0.20            153           69.4 299 
 PAM  EZ IP     D  718 24.16                             151    0.1010 78.4  41 
 PAM  EN ES        718 41.41                             151   -0.1710 78.4  41 
 PAM  EZ I         718 43.82        43.3 0.64            155           78.4  41 
 RUS  HZ EP        718 25.35                             144   -0.1910  101 175 
 RUS  HN ES        718 44.16                             144   -0.0610  101 175 
 RUS  HZ I         718 45.46        18.4 0.26            144            101 175 
 PTB  HZ EP        718 27.92                             133   -0.62 9  146 259 
 PTB  HN ES        718 49.13                             133   -0.43 9  146 259 
 PTB  HZ I         718 56.19        20.2 0.68            132            146 259 
 TAM  HZ IP     C  718 29.70                             131    0.12 9  157 105 
 TAM  HN ES        718 51.25                             131   -0.16 9  157 105 
 TAM  HZ I         718 52.26         9.4 0.56            133            157 105 
 SPBC HZ EP        718 30.35                             130    0.22 9  162 218 
 SPBC HE ES        718 52.60                             130    0.21 9  162 218 
 SPBC HZ I         718 54.86        26.0 0.26            129            162 218 
 YPLC HZ IP     C  718 31.82                             127    0.20 9  178 151 
 YPLC HN ES        718 55.02                             127   -0.02 9  178 151 
 YPLC HZ I         719  3.54         9.3 0.26            128            178 151 
 ZAR  HZ EP        718 33.96                             123   -0.00 9  202 292 
 ZAR  HE ES        718 59.51                             123    0.30 9  202 292 
 ZAR  HZ I         719  5.97        30.0 0.38            124            202 292 
 NOR  HZ EP        718 37.47                             119    0.20 8  233 234 
 NOR  HN ES        719  4.85                             119   -0.25 8  233 234 
 NOR  HZ I         719  7.51         7.0 0.30            119            233 234 
 CHI  HZ EP        718 39.63                             117    0.28 8  248 195 
 CHI  HN ES        719  8.93                             117    0.12 8  248 195 
 CHI  HZ I         719 17.19         8.2 0.38            118            248 195 
 ROSC BZ EP   4    718 41.60                             117    1.88 0  252 211 
 ROSC BN ES   4    719 11.71                             117    2.25 0  252 211 
 ROSC BZ I         719 17.63        20.0 0.45            117            252 211 
 URE  HZ EP        718 41.89                             114   -0.65 7  282 292 
 URE  HN ES   4    719 11.98                             114   -2.50 0  282 292 
 URE  HZ I         719 23.23        12.4 0.28            115            282 292 
 GUY2CHZ EP   4    718 46.45                             113    1.33 0  300 235 
 GUY2CHN ES   4    719 17.98                             113   -1.09 0  300 235 
 GUY2CHZ I         719 28.80         4.2 0.26                           300 235 
 VIL  EZ EP        718 45.16                             112    0.09 7  303 191 
 VIL  EN ES   4    719 17.98                             112   -1.00 0  303 191 
 VIL  EZ I         719 24.60        18.7 0.56            113            303 191 
 PTGC HZ EP   4    718 44.48                             112   -1.15 0  310 158 
 PTGC HE ES   4    719 17.97                             112   -2.00 0  310 158 
 PTGC HZ I         719 20.60         7.1 0.46            113            310 158 
 CBOC HZ EP   4    718 49.34                             110    0.96 0  332 252 
 CBOC HE ES   4    719 23.51                             110   -1.36 0  332 252 
 CBOC HZ I         719 27.28         2.0 0.24            111            332 252 
                                                                                
