 2013  1 3 0413 56.0 L   6.808 -73.171142.3  RSN  8 0.5 1.8LRSN                1
 GAP=133        1.33       4.4     5.7  8.2  0.1772E+01  0.1142E+02  0.5750E+01E
 Epicentro: LOS SANTOS - SANTANDER                                             3
 ACTION:UPD 13-02-15 09:11 OP:ep   STATUS:               ID:20130103041356 L   I
 2013-01-03-0409-43M.COL___205                                                 6
 STAT SP IPHASW D HRMM SECON CODA AMPLIT PERI AZIMU VELO AIN AR TRES W  DIS CAZ7
 BAR2 SZ EP        414 15.02                             170   -0.2210 23.9 183 
 BAR2 SZ ES        414 29.65                             170   -0.5910 23.9 183 
 BAR2 SZ I         414 31.15         9.8 0.34            170           23.9 183 
 BRR  HZ EP        414 17.09                             153    0.4710 68.3 299 
 BRR  HN ES        414 34.02                             153    1.3210 68.3 299 
 BRR  HN I         414 37.89        10.0 0.22            149           68.3 299 
 PAM  SZ EP        414 18.19                             150    0.2610 78.5  42 
 PAM  SN ES        414 34.84                             150   -0.1810 78.5  42 
 RUS  HZ EP        414 19.35                             143   -0.1610  102 175 
 RUS  HN ES        414 38.03                             143    0.1910  102 175 
 RUS  HN I         414 39.54         8.3 0.36            146            102 175 
 PTB  HZ EP        414 22.98                             132    0.51 9  145 258 
 PTB  HE ES        414 42.62                             132   -0.48 9  145 258 
 PTB  HN I         414 48.43         7.4 0.24            131            145 258 
 OCA  HN ES        414 45.18                             129   -0.54 9  159 354 
 OCA  HN I         414 49.35        13.6 0.32            130            159 354 
 ZAR  HZ EP        414 27.77                             122   -0.16 9  201 292 
 ZAR  HN ES        414 52.17                             122   -0.66 9  201 292 
 ZAR  HN I         415  1.46         5.5 0.14            122            201 292 
 CHI  HZ EP        414 33.76                             116    0.22 8  249 194 
 CHI  HN ES        415  2.48                             116   -0.33 8  249 194 
                                                                                
