 2012  8 3 0609  8.6 L   6.794 -73.128146.4  RSN  7 0.4 1.7LRSN                1
 GAP=139        0.71       3.7     4.2  6.4 -0.1807E+00  0.3853E+01 -0.2795E+01E
 Epicentro: LOS SANTOS - SANTANDER                                             3
 ACTION:UPD 12-09-10 11:54 OP:ep   STATUS:               ID:20120803060908 L   I
 2012-08-03-0606-40M.COL___196                                                 6
 STAT SP IPHASW D HRMM SECON CODA AMPLIT PERI AZIMU VELO AIN AR TRES W  DIS CAZ7
 BAR2 SZ EP   1    6 9 28.39                             171    0.12 7 23.1 195 
 BAR2 SZ ES   1    6 9 43.84                             171    0.21 7 23.1 195 
 BAR2 SZ I         6 9 44.43        13.2 0.19                          23.1 195 
 BRR  HZ EP   1    6 9 30.20                             152    0.30 7 73.3 298 
 BRR  HE ES   1    6 9 46.69                             152    0.15 7 73.3 298 
 PAM  SZ EP   1    6 9 31.32                             151    0.51 7 76.7  38 
 PAM  SN ES   1    6 9 48.21                             151    0.05 7 76.7  38 
 RUS  HZ EP   1    6 9 32.33                             144    0.01 7 99.8 177 
 RUS  HN ES   1    6 9 50.41                             144   -0.44 7 99.8 177 
 RUS  HZ I         6 9 51.67         5.0 0.26                          99.8 177 
 PTB  HZ EP   1    6 9 35.34                             132   -0.41 7  150 259 
 PTB  HN ES   1    6 9 56.79                             132   -0.16 7  150 259 
 PTB  HZ I         6 9 58.39         6.6 0.17                           150 259 
 OCA  HZ EP   1    6 9 36.94                             130   -0.08 7  161 352 
 OCA  HN ES   1    6 9 58.40                             130   -0.81 7  161 352 
 ZAR  HN ES   1    610  7.24                             122    0.46 6  206 292 
                                                                                
