 2014 11 3 0744 47.4 L   6.816 -73.176145.3  RSN  6 0.5 1.7LRSN                1
 GAP=139        1.29       5.9     7.3  8.7 -0.2084E+02  0.7343E+01  0.1123E+00E
 Epicentro: ZAPATOCA - SANTANDER                                               3
 ACTION:UPD 14-12-19 15:39 OP:nd   STATUS:               ID:20141103074447 L   I
 OLDACT:REG 14-11-03 13:27 OP:carl STATUS:               ID:20141103073744     3
 2014-11-03-0737-44M.COL___262                                                 6
 STAT SP IPHASW D HRMM SECON CODA AMPLIT PERI AZIMU VELO AIN AR TRES W  DIS CAZ7
 BAR2 SZ EP        745  6.98                             170   -0.0710 24.8 182 
 BAR2 SZ ES        745 21.90                             170   -0.4410 24.8 182 
 BAR2 SZ I         745 22.81        11.0 0.32            171           24.8 182 
 BRR  HZ EP        745  8.88                             154    0.5510 67.4 299 
 BRR  HN ES        745 25.62                             154    1.0010 67.4 299 
 BRR  HZ I         745 28.72         6.9 0.32            153           67.4 299 
 PAM  SZ EP        745  9.76                             150    0.1010 78.2  42 
 PAM  SN ES        745 26.97                             150   -0.0210 78.2  42 
 PAM  SZ I         745 28.98        12.0 0.74            153           78.2  42 
 PTB  HZ EP        745 13.92                             132   -0.19 9  145 258 
 PTB  HN ES        745 34.19                             132   -0.71 9  145 258 
 PTB  HZ I         745 36.87         6.3 0.14            133            145 258 
 OCA  HZ EP        745 15.87                             130    0.35 9  158 354 
 OCA  HN ES        745 36.59                             130   -0.82 9  158 354 
 OCA  HZ I         745 39.99         6.1 0.20            132            158 354 
 SPBC HZ EP        745 15.61                             129   -0.23 9  162 218 
 SPBC HN ES        745 38.28                             129    0.29 9  162 218 
 SPBC HZ I         745 42.94         5.2 0.32            130            162 218 
                                                                                
