 2010 11 3 0352  7.8 L   6.816 -73.086150.0  RSN  5 0.2 1.5LRSN                1
 GAP=165        0.41       3.2     6.2  6.4 -0.1918E+00 -0.1396E+02 -0.5719E+00E
 Epicentro: LOS SANTOS - SANTANDER                                             3
 ACTION:UP  10-12-17 16:50 OP:REBC STATUS:               ID:20101103035207 L   I
 2010-11-03-0349-49S.COL___128                                                 6
 STAT SP IPHASW D HRMM SECON CODA AMPLIT PERI AZIMU VELO SNR AR TRES W  DIS CAZ7
 BTL  SZ EP   2    352 28.02                             171     0.1 5   23 299 
 BRR  HZ EP        352 29.69                             152     0.010   76 295 
 BRR  HZ I         352 30.03         8.7 0.10                            76 295 
 BRR  HN ES   1    352 46.90                             152     0.1 7   76 295 
 RUS  HZ EP   2    352 32.00                             144    -0.1 5  102 180 
 RUS  HN ES   2    352 50.89                             144    -0.1 5  102 180 
 RUS  HZ I         352 52.51         2.3 0.50                           102 180 
 GRA  SZ EP   2    352 33.53                             139     0.4 5  122  15 
 GRA  SZ ES   2    352 52.99                             139     0.1 5  122  15 
 GRA  SZ I         352 55.32         4.4 0.40                           122  15 
 OCA  SZ EP   2    352 36.22                             131    -0.2 5  159 351 
 OCA  SZ ES   2    352 58.21                             131    -0.4 5  159 351 
 OCA  SZ I         353  1.67         5.0 0.46                           159 351 
                                                                                
