 2017  8 3 0611 32.9 L   6.765 -73.177123.6  RSN  4 0.4 0.7LRSN                1
 GAP=274        0.93       7.3     5.7  7.9  0.5757E+01  0.1411E+02 -0.1954E+01E
 Epicentro: LOS SANTOS - SANTANDER                                             3
 ACTION:UPD 17-09-04 20:15 OP:rebc STATUS:               ID:20170803061132 L   I
 OLDACT:DUP 17-08-03 18:18 OP:dhb  STATUS:               ID:20170803060745d    3
 OLDACT:REG 17-08-03 14:58 OP:osc  STATUS:               ID:20170803060744     3
 2017-08-03-0608-00M.COL___398                                                 6
 STAT SP IPHASW D HRMM SECON CODA AMPLIT PERI AZIMU VELO AIN AR TRES W  DIS CAZ7
 BAR2 EZ EP        611 49.42                             171   -0.3710 19.1 182 
 BAR2 EZ ES        612  3.38                             171    0.4210 19.1 182 
 BAR2 EZ I         612 12.88         1.0 0.33            172           19.1 182 
 RUS  HZ EP        611 53.98                             140   -0.2910 97.0 174 
 RUS  HN ES        612 10.76                             140   -0.1710 97.0 174 
 RUS  HZ I         612 12.78         0.8 0.23            146           97.0 174 
 PTB  HZ EP        611 58.18                             127    0.41 9  144 260 
 PTB  HE ES        612 16.65                             127   -0.50 9  144 260 
 PTB  HZ I         612 16.86         0.9 0.16            135            144 260 
 SPBC HZ EP        611 59.70                             124    0.42 9  158 219 
 SPBC HE ES        612 20.00                             124    0.15 9  158 219 
 SPBC HZ I         612 25.08         1.0 0.07            132            158 219 
                                                                                
