 2012  2 3 0838 24.7 L   6.804 -73.132146.3  RSN  9 0.3 1.6LRSN                1
 GAP=138        0.46       2.9     3.5  4.3 -0.9728E-01  0.3266E+01  0.3702E+01E
 ACTION:UP  12-03-07 16:27 OP:epov STATUS:               ID:20120203083824 L   I
 2012-02-03-0830-00M.COL___188                                                 6
 STAT SP IPHASW D HRMM SECON CODA AMPLIT PERI AZIMU VELO SNR AR TRES W  DIS CAZ7
 BAR2 SZ EP   1    838 44.33                             170   -0.04 7 24.1 193 
 BAR2 SZ ES   1    838 59.69                             170   -0.05 7 24.1 193 
 BAR2 SZ I         839  2.36        13.8 0.42                          24.1 193 
 GIR2 SZ EP   1    838 44.47                             167    0.08 7 31.2 347 
 GIR2 SZ ES   2    838 59.50                             167   -0.28 5 31.2 347 
 BRR  HZ EP   1    838 46.33                             152    0.40 7 72.4 298 
 BRR  HE ES   2    839  2.68                             152    0.16 5 72.4 298 
 PAM  SZ EP   2    838 46.91                             151    0.06 5 76.1  39 
 PAM  SN ES   2    839  4.16                             151   -0.01 5 76.1  39 
 RUS  HZ EP   1    838 48.38                             144   -0.11 7  101 177 
 RUS  HE ES   2    839  7.32                             144    0.25 5  101 177 
 RUS  HZ I         839  9.69         3.6 0.39                           101 177 
 PTB  HZ EP   1    838 51.39                             132   -0.42 7  149 259 
 PTB  HN ES   2    839 12.38                             132   -0.61 5  149 259 
 ZAR  HN ES   2    839 22.91                             122    0.21 4  205 292 
 ZAR  HZ I         839 33.17         5.8 0.37                           205 292 
 NOR  SN ES   2    839 29.20                             118    0.60 4  236 235 
 CHI  HZ EP   1    839  2.40                             117   -0.07 6  249 195 
 CHI  HE ES   1    839 32.04                             117    0.07 6  249 195 
 CHI  HZ I         839 39.58         2.4 0.33                           249 195 
                                                                                
