 2016  4 3 0700 57.4 L   6.785 -73.169141.1  RSN  7 0.4 1.4LRSN                1
 GAP=134        1.07       3.8     4.8  7.8 -0.2677E+01  0.1393E+02 -0.2641E+01E
 Epicentro: LOS SANTOS - SANTANDER                                             3
 ACTION:UPD 16-05-05 14:18 OP:rebc STATUS:               ID:20160403070057 L   I
 OLDACT:REG 16-04-03 12:35 OP:drio STATUS:               ID:20160403065740     3
 2016-04-03-0657-40M.COL___309                                                 6
 STAT SP IPHASW D HRMM SECON CODA AMPLIT PERI AZIMU VELO AIN AR TRES W  DIS CAZ7
 BAR2 EZ EP        7 1 15.91                             171   -0.5710 21.4 184 
 BAR2 EZ ES        7 1 31.52                             171    0.2010 21.4 184 
 BAR2 EZ I         7 1 33.01         6.9 0.22            170           21.4 184 
 PAM  EZ EP        7 1 19.60                             149    0.2510 80.3  40 
 PAM  EN ES        7 1 36.49                             149    0.0610 80.3  40 
 PAM  EZ I         7 1 38.72         3.1 0.26            154           80.3  40 
 RUS  HZ EP        7 1 20.78                             143    0.1410 99.1 175 
 RUS  HE ES        7 1 38.75                             143    0.0210 99.1 175 
 RUS  HZ I         7 1 40.79         1.9 0.46            147           99.1 175 
 PTB  HZ EP        7 1 23.23                             131   -0.55 9  145 259 
 PTB  HN ES        7 1 43.83                             131   -0.49 9  145 259 
 PTB  HZ I         7 1 51.59         2.6 0.46            132            145 259 
 SPBC HZ EP        7 1 24.96                             128   -0.36 9  160 219 
 SPBC HN ES        7 1 47.57                             128    0.51 9  160 219 
 SPBC HZ I         7 1 51.36         3.7 0.24            131            160 219 
 OCA  HE ES        7 1 47.16                             128   -0.28 9  162 354 
 OCA  HZ I         7 1 49.50         9.6 0.26            131            162 354 
 ZAR  HZ EP        7 1 30.35                             122    0.93 9  202 293 
 ZAR  HE ES        7 1 54.67                             122    0.32 9  202 293 
 ZAR  HZ I         7 2  0.01         3.5 0.54            123            202 293 
                                                                                
