 2016  4 3 0436 39.7 L   6.781 -73.160141.0  RSN  5 0.6 1.2LRSN                1
 GAP=136        1.55       8.0     7.3 12.3 -0.1546E+01  0.3579E+02 -0.1689E+02E
 Epicentro: LOS SANTOS - SANTANDER                                             3
 ACTION:UPD 16-05-05 14:18 OP:rebc STATUS:               ID:20160403043639 L   I
 OLDACT:DUP 16-04-03 14:21 OP:drio STATUS:               ID:20160403042741d    3
 2016-04-03-0427-40M.COL___312                                                 6
 STAT SP IPHASW D HRMM SECON CODA AMPLIT PERI AZIMU VELO AIN AR TRES W  DIS CAZ7
 BAR2 EZ ES        437 12.90                             171   -0.6910 21.0 187 
 BAR2 EZ I         437 14.68         3.5 0.18            173           21.0 187 
 PAM  EZ EP        437  1.83                             149    0.2010 80.0  39 
 PAM  EE ES        437 18.63                             149   -0.0610 80.0  39 
 PAM  EZ I         437 21.06         3.8 0.62            151           80.0  39 
 RUS  HZ EP        437  2.99                             143    0.1010 98.6 175 
 RUS  HE ES        437 21.77                             143    0.8310 98.6 175 
 RUS  HZ I         437 22.53         0.9 0.30            147           98.6 175 
 PTB  HZ EP        437  5.16                             131   -0.99 9  146 260 
 PTB  HN ES        437 26.44                             131   -0.31 9  146 260 
 PTB  HZ I         437 29.35         6.4 0.90            132            146 260 
 ZAR  HZ EP        437 11.70                             121   -0.12 9  203 293 
 ZAR  HE ES        437 37.98                             121    1.14 9  203 293 
 ZAR  HZ I         437 43.63         1.7 0.24            122            203 293 
                                                                                
