 2015  3 3 0420 58.6 L   6.773 -73.133148.0  RSN  4 0.4 1.1LRSN                1
 GAP=139        0.92       6.1     5.7  8.9 -0.2471E+01 -0.1082E+01  0.1123E+02E
 Epicentro: LOS SANTOS - SANTANDER                                             3
 ACTION:UPD 15-04-30 16:22 OP:nd   STATUS:               ID:20150303042058 L   I
 OLDACT:REG 15-03-03 12:46 OP:spq  STATUS:               ID:20150303041742     3
 2015-03-03-0417-42M.COL___287                                                 6
 STAT SP IPHASW D HRMM SECON CODA AMPLIT PERI AZIMU VELO AIN AR TRES W  DIS CAZ7
 BRR  HZ EP        421 20.33                             152    0.2210 73.9 300 
 BRR  HN ES        421 37.31                             152    0.4010 73.9 300 
 BRR  HZ I         421 40.58         3.2 0.52            153           73.9 300 
 PAM  SZ EP        421 21.29                             151    0.1810 78.9  37 
 PAM  SN ES   1    421 37.97                             151   -0.72 7 78.9  37 
 PAM  SZ I         421 40.30         2.8 0.52            155           78.9  37 
 RUS  HZ EP        421 22.60                             145    0.2810 97.5 177 
 RUS  HE ES   1    421 40.74                             145   -0.10 7 97.5 177 
 RUS  HZ I         421 43.27         1.0 0.76            148           97.5 177 
 PTB  HZ EP        421 25.22                             132   -0.57 9  149 260 
 PTB  HE ES   1    421 46.74                             132   -0.28 7  149 260 
 PTB  HZ I         421 50.70         1.6 0.11            135            149 260 
                                                                                
