 2014  2 3 0607 47.9 L   6.799 -73.184139.1  RSN  4 0.1 1.6LRSN                1
 GAP=143        0.41       2.4     2.4  3.5 -0.1793E+01  0.2321E+01 -0.8344E+00E
 Epicentro: LOS SANTOS - SANTANDER                                             3
 ACTION:UPD 14-03-10 08:07 OP:ep   STATUS:               ID:20140203060747 L   I
 OLDACT:REG 14-02-03 07:48 OP:nd   STATUS:               ID:20140203060000     3
 2014-02-03-0600-00M.COL___288                                                 6
 STAT SP IPHASW D HRMM SECON CODA AMPLIT PERI AZIMU VELO AIN AR TRES W  DIS CAZ7
 BAR2 SZ EP        6 8  6.92                             170    0.1610 22.8 180 
 BAR2 SZ ES        6 8 21.51                             170    0.0810 22.8 180 
 BAR2 SZ I         6 8 22.94        15.7 0.16            171           22.8 180 
 PAM  SZ EP        6 8  9.80                             149    0.1710 80.3  42 
 PAM  SN ES        6 8 26.37                             149   -0.1810 80.3  42 
 PAM  SZ I         6 8 29.18         9.0 0.66            151           80.3  42 
 RUS  HZ EP     D  6 8 10.95                             142   -0.1110  101 174 
 RUS  HN ES        6 8 29.06                             142   -0.0310  101 174 
 RUS  HZ I         6 8 31.20         2.4 0.28            145            101 174 
 PTB  HZ EP        6 8 13.84                             131   -0.14 9  144 259 
 PTB  HN ES        6 8 34.33                             131    0.03 9  144 259 
 PTB  HZ I         6 8 36.84         6.2 0.44            133            144 259 
                                                                                
