 2013 12 3 0110 59.2 L   6.640 -73.082140.5  RSN  4 0.5 1.5LRSN                1
 GAP=292        1.10      10.0     9.7  9.5 -0.2271E+02  0.2304E+02  0.3093E+02E
 Epicentro: CURITI - SANTANDER                                                 3
 ACTION:UPD 14-01-13 10:15 OP:ep   STATUS:               ID:20131203011059 L   I
 OLDACT:REG 13-12-03 07:23 OP:carl STATUS:               ID:20131203011000     3
 2013-12-03-0110-00M.COL___282                                                 6
 STAT SP IPHASW D HRMM SECON CODA AMPLIT PERI AZIMU VELO AIN AR TRES W  DIS CAZ7
 BAR2 SZ EP        111 18.64                             175    0.5710 12.3 245 
 BAR2 SZ ES        111 32.28                             175   -0.4710 12.3 245 
 BAR2 SZ I         111 37.08         6.4 0.18            163           12.3 245 
 BRR  HZ EP     C  111 20.51                             146   -0.3010 86.8 307 
 BRR  HN ES        111 38.13                             146    0.5010 86.8 307 
 BRR  HZ I         111 39.10         5.7 0.40            148           86.8 307 
 PTB  HZ EP        111 25.64                             130   -0.59 9  152 266 
 PTB  HN ES   2    111 46.56                             130   -0.71 5  152 266 
 PTB  HZ I         111 52.40         4.3 0.36            129            152 266 
 NOR  HZ EP        111 34.47                             118    0.21 8  231 239 
 NOR  HE ES        112  1.91                             118    0.33 8  231 239 
 NOR  HZ I         112 12.13         1.8 0.16            118            231 239 
                                                                                
