 2017 10 3 0508 30.4 L   6.852 -73.159146.7  RSN 27 0.7 2.6LRSN                1
 GAP= 64        1.27       2.7     3.4  6.0 -0.3274E+00  0.7786E+01 -0.7273E+00E
 Epicentro: LOS SANTOS - SANTANDER                                             3
 ACTION:UPD 17-11-07 19:27 OP:rebc STATUS:               ID:20171003050830 L   I
 OLDACT:UP  17-10-03 15:38 OP:dhb  STATUS:               ID:20171003050743     3
 OLDACT:UP  17-10-03 15:37 OP:dhb  STATUS:               ID:20171003050743     3
 OLDACT:REG 17-10-03 12:22 OP:dhb  STATUS:               ID:20171003050743     3
 2017-10-03-0508-00M.COL___435                                                 6
 STAT SP IPHASW D HRMM SECON CODA AMPLIT PERI AZIMU VELO AIN AR TRES W  DIS CAZ7
 BAR2 EZ IP     D  5 8 50.34                             169    0.0610 28.8 185 
 BAR2 EZ ES        5 9  5.15                             169   -0.6210 28.8 185 
 BAR2 EZ I         5 9  6.68       125.9 0.22            168           28.8 185 
 PAM  EZ IP     D  5 8 53.31                             152    0.7810 74.0  43 
 PAM  EN ES        5 9 10.30                             152    0.5210 74.0  43 
 PAM  EZ I         5 9 12.65       105.8 0.46            155           74.0  43 
 RUS  HZ IP     C  5 8 54.38                             142   -0.3010  106 175 
 RUS  HN ES        5 9 13.21                             142   -0.4010  106 175 
 RUS  HZ I         5 9 14.70       104.6 0.26            144            106 175 
 TAM  HZ IP     D  5 8 58.65                             130    0.21 9  158 107 
 TAM  HN ES        5 9 20.49                             130    0.19 9  158 107 
 SPBC HZ IP     D  5 8 59.38                             128    0.06 9  167 217 
 SPBC HE ES        5 9 21.21                             128   -0.66 9  167 217 
 SPBC HZ I         5 9 25.94        82.7 0.40            129            167 217 
 YPLC HZ IP     C  5 9  0.88                             126    0.04 9  183 152 
 YPLC HN ES        5 9 24.45                             126   -0.12 9  183 152 
 YPLC HZ I         5 9 25.57        22.3 0.32            128            183 152 
 ZAR  HZ EP        5 9  2.94                             123    0.38 9  201 291 
 ZAR  HE ES        5 9 28.37                             123    0.73 9  201 291 
 ZAR  HZ I         5 9 35.09        32.0 0.34            123            201 291 
 TABC EZ EP   3    5 9  7.78                             119    1.12 2  234 210 
 TABC EZ ES        5 9 34.38                             119   -0.56 8  234 210 
 TABC EZ I         5 9 41.37        45.3 0.34            120            234 210 
 NOR  HZ EP        5 9  6.33                             118   -0.10 8  237 233 
 NOR  HN ES        5 9 34.64                             118    0.12 8  237 233 
 NOR  HZ I         5 9 40.06        20.4 0.16            119            237 233 
 CHI  HZ EP     C  5 9  8.42                             117   -0.30 8  254 195 
 CHI  HE ES        5 9 37.73                             117   -0.87 8  254 195 
 CHI  HZ I         5 9 45.97        16.2 0.36            118            254 195 
 ROSC HZ EP        5 9 10.03                             116    0.99 8  257 210 
 ROSC BN ES        5 9 40.71                             116    1.54 8  257 210 
 ROSC HZ I         5 9 44.29        45.6 0.40            117            257 210 
 URE  HZ EP   9    5 9 10.13                             114   -1.01 0  280 291 
 URE  HN ES        5 9 41.71                             114   -0.19 7  280 291 
 URE  HZ I         5 9 51.96        28.1 0.20            114            280 291 
 GUY2CHZ EP        5 9 14.81                             112    0.50 7  303 234 
 GUY2CHZ I         5 9 56.76        17.9 0.19                           303 234 
 VIL  EZ EP        5 9 13.93                             112   -0.54 7  309 191 
 VIL  EE ES        5 9 47.89                             112   -0.95 7  309 191 
 VIL  EZ I         5 9 50.84        27.9 0.38            113            309 191 
 PTGC HZ EP   3    5 9 13.34                             111   -1.63 2  315 159 
 PTGC HE ES   4    5 9 47.47                             111   -2.26 0  315 159 
 PTGC HZ I         5 9 51.78        12.9 0.38            113            315 159 
 LL6C HZ EP        5 9 14.87                             111   -0.62 7  319 358 
 LL6C HE ES   2    5 9 49.64                             111   -1.01 3  319 358 
 LL6C HZ I         5 9 54.27         7.7 0.34            112            319 358 
 ELA  HZ EP   4    5 9 19.87                             110    2.27 0  332 229 
 ELA  HE ES   2    5 9 55.99                             110    1.58 3  332 229 
 ELA  HZ I         510  1.64        19.0 0.34            111            332 229 
 DBB  EZ EP        5 9 17.82                             110    0.11 7  338 273 
 DBB  EN ES        5 9 52.77                             110   -1.84 7  338 273 
 DBB  EZ I         5 9 56.52        10.4 0.16            110            338 273 
 ARGC HZ EP   4    5 9 22.04                             108    2.62 0  353 340 
 ARGC HN ES        5 9 58.43                             108    0.78 6  353 340 
 ANIL HZ EP   2    5 9 21.89                             108    1.28 3  360 224 
 ANIL HE ES        5 9 59.96                             108    0.20 6  360 224 
 APAC HZ EP        5 9 24.25                             106   -0.01 6  395 287 
 APAC HN ES        510  6.72                             106    0.45 6  395 287 
 APAC HZ I         510 11.43         6.1 0.21            107            395 287 
 PRA  HZ EP        5 9 24.10                             106   -0.36 6  396 209 
 PRA  HE ES   2    510  5.66                             106   -0.96 3  396 209 
 PRA  HZ I         510 11.14        16.2 0.34            107            396 209 
 ORTC HZ EP        5 9 24.59                             106   -0.21 6  399 216 
 ORTC HN ES        510  7.90                             106    0.67 6  399 216 
 ORTC HZ I         510 11.22         8.5 0.49            107            399 216 
 SJC  HZ EP   3    5 9 24.51                             106   -0.84 1  404 327 
 SJC  HN ES        510  8.03                             106   -0.17 6  404 327 
 SJC  HZ I         510 13.51         5.6 0.25            107            404 327 
 PAL  HZ EP        5 9 25.72                             106   -0.08 6  407 238 
 PAL  HN ES        510  9.80                             106    0.79 6  407 238 
 PAL  HZ I         510 12.02         5.3 0.13            107            407 238 
 CRJC HZ EP   9    5 9 30.65                             103   -1.62 0  462   4 
 CRJC HE ES        510 18.64                                   -0.26 5  462   4 
 CRJC HZ I         510 24.04        10.3 0.24            105            462   4 
 SMAR HZ EP        5 9 35.77                             102    0.17 4  491 346 
 SMAR HN ES        510 24.20                             102   -2.25 4  491 346 
                                                                                
