 2014  6 3 0518 50.4 L   6.859 -73.288130.0  RSN  8 0.5 1.7LRSN                1
 GAP=108        1.04       4.9     6.3 11.4 -0.1384E+02  0.2494E+02 -0.1638E+02E
 Epicentro: ZAPATOCA - SANTANDER                                               3
 ACTION:UPD 14-07-01 22:50 OP:nd   STATUS:               ID:20140603051850 L   I
 OLDACT:REG 14-06-03 12:58 OP:fm   STATUS:               ID:20140603051816     3
 2014-06-03-0518-16M.COL___247                                                 6
 STAT SP IPHASW D HRMM SECON CODA AMPLIT PERI AZIMU VELO AIN AR TRES W  DIS CAZ7
 BAR2 SZ EP        519  8.64                             166    0.3210 31.7 158 
 BAR2 SZ ES   1    519 21.84                             166   -0.48 7 31.7 158 
 BAR2 SZ I         519 23.20         7.3 0.46            168           31.7 158 
 PAM  SZ EP   1    519 11.97                             146    0.61 7 83.9  51 
 PAM  SN ES   1    519 27.85                             146    0.11 7 83.9  51 
 PAM  SZ I         519 30.33         4.9 0.16            153           83.9  51 
 PTB  HZ EP        519 14.03                             131   -0.7610  134 255 
 PTB  HN ES        519 34.54                             131    0.6910  134 255 
 PTB  HZ I         519 35.89         9.2 0.24            137            134 255 
 OCA  HZ EP   1    519 16.63                             128   -0.11 7  153 359 
 OCA  HN ES        519 37.10                             128   -0.22 9  153 359 
 OCA  HZ I         519 38.05         7.2 0.26            135            153 359 
 SPBC HE ES   1    519 37.98                             126   -0.34 7  159 213 
 SML  HN ES   1    519 51.67                             116    0.01 6  232 338 
 SML  HZ I         519 57.02         6.0 0.20            122            232 338 
 HEL  HN ES   4    519 55.99                             113   -1.90 0  259 254 
 HEL  HZ I         520  1.45         2.2 0.38            118            259 254 
 SJC  HZ EP   4    519 49.13                             104    5.34 0  395 328 
 SJC  HN ES   4    520  4.49                             104   -21.0 0  395 328 
 SJC  HZ I         520  6.77         2.9 0.48            109            395 328 
                                                                                
