 2010  5 3 0031 25.6 L   6.774 -73.054140.0  RSN  8 0.4 2.1LRSN                1
 GAP=182        0.83       4.9     8.9  6.3 -0.2060E+02 -0.1292E+02  0.2075E+01E
 Epicentro: LOS SANTOS - SANTANDER                                             3
 ACTION:UP  10-08-24 10:02 OP:vdl  STATUS:               ID:20100503003125 L   I
 2010-05-03-0029-48S.COL___105                                                 6
 STAT SP IPHASW D HRMM SECON CODA AMPLIT PERI AZIMU VELO SNR AR TRES W  DIS CAZ7
 BAR2 SZ EP        031 44.52                             170    -0.110   25 215 
 BAR2 SZ ES   1    031 59.08                             170    -0.3 7   25 215 
 GIR2 SZ EP   1    031 44.66                             165    -0.1 7   37 335 
 GIR2 SZ ES   1    031 59.64                             165    -0.1 7   37 335 
 BRR  HZ IP        031 47.04                             149     0.210   82 297 
 BRR  HN ES   1    032  3.64                             149     0.3 7   82 297 
 BRR  HZ I         032  8.45        31.0 0.16                            82 297 
 BRI  SZ EP        031 49.21                             141     0.310  108  15 
 BRI  SZ ES   1    032  7.62                             141     0.5 7  108  15 
 GUE  SZ EP        031 49.72                             138    -0.210  118   7 
 GRA  SZ EP        031 50.50                             136     0.110  126  13 
 GRA  SZ ES   1    032  9.92                             136     0.2 7  126  13 
 OCA  SZ EP        031 53.08                             128    -0.9 9  165 350 
 OCA  SZ ES   2    032 16.09                             128     0.1 5  165 350 
 OCA  SZ I         032 21.24        18.6 0.38                           165 350 
 CHI  HZ EP   2    032  3.76                             116     0.7 4  249 198 
 CHI  HE ES   2    032 32.42                             116     0.2 4  249 198 
 CHI  HZ I         032 36.50         4.3 0.57                           249 198 
                                                                                
