 2016  4 3 0219 38.4 L   6.771 -73.172148.0  RSN  5 0.3 1.4LRSN                1
 GAP=135        0.72       3.4     3.3  7.0 -0.1768E+01  0.8132E+01 -0.4838E+01E
 Epicentro: LOS SANTOS - SANTANDER                                             3
 ACTION:UPD 16-05-05 14:18 OP:rebc STATUS:               ID:20160403021938 L   I
 OLDACT:REG 16-04-03 12:22 OP:drio STATUS:               ID:20160403021741     3
 2016-04-03-0217-41M.COL___312                                                 6
 STAT SP IPHASW D HRMM SECON CODA AMPLIT PERI AZIMU VELO AIN AR TRES W  DIS CAZ7
 PAM  EZ EP        220  1.27                             150    0.1810 81.7  40 
 PAM  EN ES        220 18.50                             150   -0.3110 81.7  40 
 PAM  EZ I         220 20.68         5.7 0.62            153           81.7  40 
 RUS  HZ EP        220  2.12                             145   -0.0210 97.7 174 
 RUS  HE ES        220 21.12                             145    0.4410 97.7 174 
 RUS  HZ I         220 22.21         2.0 0.46            149           97.7 174 
 PTB  HZ EP        220  4.93                             133   -0.29 9  144 260 
 PTB  HN ES        220 26.07                             133   -0.09 9  144 260 
 PTB  HZ I         220 31.06         3.2 0.14            135            144 260 
 SPBC HE ES        220 28.34                             130   -0.36 9  159 219 
 ZAR  HZ EP        220 10.92                             123    0.10 9  203 293 
 ZAR  HE ES        220 36.50                             123    0.38 9  203 293 
 ZAR  HZ I         220 39.23         2.9 0.10            125            203 293 
                                                                                
