 2010 11 3 0151  3.0 L   6.776 -73.073138.3  RSN  8 0.4 1.7LRSN                1
 GAP=167        0.72       5.0    10.9  7.8 -0.3388E+01 -0.2394E+02 -0.1325E+02E
 Epicentro: LOS SANTOS - SANTANDER                                             3
 ACTION:UP  10-12-17 16:50 OP:REBC STATUS:               ID:20101103015103 L   I
 2010-11-03-0147-22S.COL___128                                                 6
 STAT SP IPHASW D HRMM SECON CODA AMPLIT PERI AZIMU VELO SNR AR TRES W  DIS CAZ7
 BAR2 SZ EP   2    151 21.71                             170     0.0 5   24 211 
 BAR2 SZ ES   1    151 35.65                             170    -0.7 8   24 211 
 BTL  SZ EP   1    151 22.15                             169     0.3 8   27 306 
 GIR2 SZ EP   2    151 21.95                             165     0.0 5   36 338 
 GIR2 SZ ES   2    151 37.61                             165     0.9 5   36 338 
 BRR  HZ EP   1    151 23.72                             148    -0.1 8   80 297 
 BRR  HZ I         151 24.10        18.1 0.11                            80 297 
 BRR  HE ES   2    151 40.41                             148     0.3 5   80 297 
 RUS  HZ EP   2    151 26.07                             143     0.3 5   98 181 
 RUS  HE ES   2    151 43.62                             143     0.0 5   98 181 
 RUS  HZ I         151 45.78         2.8 0.40                            98 181 
 GUE  SZ EP        151 27.10                             137     0.010  118   8 
 GRA  SZ EP   1    151 27.82                             135     0.2 7  126  14 
 GRA  SZ I         151 29.23         7.8 0.25                           126  14 
 GRA  SZ ES   2    151 46.98                             135     0.2 5  126  14 
 OCA  SZ EP   2    151 30.70                             127    -0.4 5  164 350 
 OCA  SZ ES   2    151 52.47                             127    -0.6 5  164 350 
 OCA  SZ I         151 58.09         6.7 0.35                           164 350 
                                                                                
