 2012  7 3 0553 52.5 L   6.007 -73.724107.5  RSN 12 0.4 2.5LRSN                1
 GAP= 64        0.94       2.7     2.9  6.5  0.8043E+00  0.5333E+01  0.4329E+01E
 Epicentro: BOLIVAR - SANTANDER                                                3
 ACTION:UPD 12-08-14 11:42 OP:ep   STATUS:               ID:20120703055352 L   I
 2012-07-03-0550-00M.COL___200                                                 6
 STAT SP IPHASW D HRMM SECON CODA AMPLIT PERI AZIMU VELO AIN AR TRES W  DIS CAZ7
 RUS  HZ IP     D  554 10.80                             144     0.310   72 100 
 RUS  HE ES        554 23.98                             144    -0.510   72 100 
 RUS  HZ I         554 26.56        65.4 0.24            140             72 100 
 BAR2 SZ IP        554 11.69                             137     0.310   88  43 
 BAR2 SZ ES        554 26.06                             137     0.010   88  43 
 BAR2 SZ I         554 28.53       189.3 0.31            133             88  43 
 PTB  HZ EP        554 11.71                             133    -0.410  100 306 
 PTB  HN ES        554 27.11                             133    -0.210  100 306 
 BRR  HZ IP     C  554 14.02                             127     0.010  122   1 
 BRR  HZ I         554 14.62        44.0 0.16            123            122   1 
 BRR  HE ES        554 31.52                             127     0.710  122   1 
 NOR  SZ EP   1    554 15.78                             124     0.2 7  136 249 
 NOR  SE ES   1    554 33.71                             124     0.2 7  136 249 
 CHI  HZ EP   1    554 17.97                             121     0.3 7  152 180 
 CHI  HN ES   1    554 37.37                             121     0.1 7  152 180 
 YOP  SZ EP   1    554 18.41                             119     0.1 7  161 116 
 YOP  SE ES   1    554 38.26                             119    -0.1 7  161 116 
 YOP  SZ I         554 41.28        26.9 0.15            116            161 116 
 ZAR  HZ EP        554 22.61                             112    -0.5 8  207 323 
 ZAR  HE ES   1    554 46.66                             112    -0.3 6  207 323 
 ZAR  HZ I         554 51.10        26.2 0.14            110            207 323 
 TAM  HZ EP   1    554 23.88                             111    -0.7 6  219  77 
 TOL  SZ EP   1    554 27.67                             109     0.7 6  237 228 
 OCA  HN ES   1    554 56.35                             107     0.0 6  251  10 
 OCA  HZ I         555  5.88        44.5 0.09            105            251  10 
 PRA  HZ EP        554 32.37                             105     0.2 7  284 207 
 PRA  HE ES   1    555  2.41                             105    -0.7 6  284 207 
