 2015  3 3 0526 29.0 L   6.731 -73.182154.8  RSN  6 0.3 1.2LRSN                1
 GAP=228        0.74       5.1     5.4  6.9  0.1162E+02  0.6500E+01  0.5434E+00E
 Epicentro: VILLANUEVA - SANTANDER                                             3
 ACTION:UPD 15-04-30 16:22 OP:nd   STATUS:               ID:20150303052629 L   I
 OLDACT:DUP 15-03-03 17:23 OP:e    STATUS:               ID:20150303051737d    3
 2015-03-03-0517-35M.COL___287                                                 6
 STAT SP IPHASW D HRMM SECON CODA AMPLIT PERI AZIMU VELO AIN AR TRES W  DIS CAZ7
 BAR2 EZ ES   1    527  5.08                             174   -0.58 7 15.4 180 
 BAR2 EZ I         527  6.20         4.1 0.28            172           15.4 180 
 BRR  HZ EP        526 51.19                             154    0.0310 71.8 305 
 BRR  HN ES        527  8.89                             154    0.4410 71.8 305 
 BRR  HZ I         527 12.53         2.2 0.22            152           71.8 305 
 RUS  HZ EP   1    526 53.43                             148    0.26 7 93.4 173 
 RUS  HE ES   1    527 12.09                             148    0.07 7 93.4 173 
 RUS  HZ I         527 12.82         1.3 0.22            149           93.4 173 
 PTB  HZ EP        526 56.00                             135   -0.26 9  142 262 
 PTB  HN ES        527 17.19                             135   -0.33 9  142 262 
 PTB  HZ I         527 20.63         1.3 0.10            134            142 262 
 SPBC HN ES   1    527 20.04                             133    0.42 7  155 220 
 SPBC HZ I         527 23.10         3.0 0.23            133            155 220 
 ZAR  HE ES        527 27.70                             124   -0.00 9  203 295 
 ZAR  HZ I         527 32.95         2.6 0.58            125            203 295 
                                                                                
