 2014  1 3 0957 32.8 L   6.818 -73.151138.9  RSN 13 0.7 2.1LRSN                1
 GAP=119        1.65       4.5     6.5  8.7 -0.1085E+02  0.1730E+02 -0.3509E+00E
 Epicentro: LOS SANTOS - SANTANDER                                             3
 ACTION:UPD 14-03-13 09:51 OP:ep   STATUS:               ID:20140103095732 L   I
 OLDACT:UP  14-01-03 15:08 OP:stll STATUS:               ID:20140103094814d    3
 OLDACT:DUP 14-01-03 14:59 OP:stll STATUS:               ID:20140103094814d    3
 2014-01-03-0948-13M.COL___231                                                 6
 STAT SP IPHASW D HRMM SECON CODA AMPLIT PERI AZIMU VELO AIN AR TRES W  DIS CAZ7
 BAR2 SZ EP        957 52.07                             169    0.4610 25.2 188 
 BAR2 SZ ES        958  5.75                             169   -0.5610 25.2 188 
 BAR2 SZ I         958  8.36       103.5 0.22            167           25.2 188 
 PAM  SZ EP        957 54.87                             150    0.6910 76.3  41 
 PAM  SZ I         957 55.22        48.5 0.24            153           76.3  41 
 PAM  SN ES        958 11.68                             150    0.7910 76.3  41 
 RUS  HZ EP        957 56.00                             142    0.0110  103 176 
 RUS  HN ES        958 14.20                             142    0.0910  103 176 
 RUS  HZ I         958 15.79        17.3 0.48            142            103 176 
 PTB  HZ EP        957 58.67                             131   -0.49 9  148 258 
 PTB  HN ES        958 18.86                             131   -0.88 9  148 258 
 PTB  HZ I         958 21.83        11.7 0.10            130            148 258 
 OCA  HE ES        958 22.32                             128    0.44 9  158 353 
 SPBC HZ EP        958  1.02                             127    0.17 9  164 218 
 SPBC HN ES        958 22.46                             127   -0.30 9  164 218 
 SPBC HZ I         958 27.21        16.0 0.14            127            164 218 
 NOR  HZ EP        958  8.09                             117   -0.08 8  235 234 
 NOR  HN ES        958 34.96                             117   -0.83 8  235 234 
 NOR  HZ I         958 40.51         6.4 0.18            117            235 234 
 SML  HZ EP        958  7.81                             116   -0.98 8  242 335 
 SML  HN ES        958 36.80                             116   -0.09 8  242 335 
 CHI  HZ EP        958 10.10                             115   -0.18 8  250 195 
 CHI  HN ES        958 38.85                             115   -0.69 8  250 195 
 CHI  HZ I         958 42.93         5.8 0.52            116            250 195 
 SOCV BZ EP        958 14.07                             111   -1.37 7  301  57 
 GUY2CHZ EP        958 15.92                             111   -0.21 7  302 234 
 GUY2CHN ES        958 50.79                             111    0.83 7  302 234 
 GUY2CHN I         959  1.14         7.5 0.50                           302 234 
 RREF HZ EP        958 20.54                             109    1.84 7  323 229 
 RREF HN ES        958 56.26                             109    1.72 7  323 229 
 RREF HZ I         959  3.90         5.5 0.52            110            323 229 
 ORTC HZ EP        958 26.53                             105   -0.06 6  397 216 
                                                                                
