 2011 12 3 0405 32.2 L   7.126 -73.047146.5  RSN  5 0.3 1.4LRSN                1
 GAP=150        0.55       5.6     7.2  6.0  0.1105E+02 -0.4833E+01  0.2048E+01E
 Epicentro: BUCARAMANGA - SANTANDER                                            3
 ACTION:UPD 12-07-13 16:13 OP:ep   STATUS:               ID:20111203040532 L   I
 2011-12-03-0400-00M.COL___182                                                 6
 STAT SP IPHASW D HRMM SECON CODA AMPLIT PERI AZIMU VELO AIN AR TRES W  DIS CAZ7
 GIR2 SZ EP        4 5 51.60                             173   -0.0310 16.9 252 
 PAM  SE ES   2    4 6  9.02                             162   -0.03 5 45.1  58 
 BAR2 SZ ES   1    4 6  9.82                             156    0.22 7 60.8 194 
 BRR  HZ EP        4 5 53.33                             152   -0.1910 73.4 268 
 BRR  HZ I         4 6  3.82         4.6 0.32                          73.4 268 
 BRR  HE ES   1    4 6 10.30                             152    0.12 7 73.4 268 
 RUS  HZ EP        4 5 59.07                             135    0.23 9  136 182 
 RUS  HN ES   2    4 6 18.88                             135   -0.76 5  136 182 
                                                                                
