 2013  6 3 0512 57.6 L   6.063 -73.876 89.8  RSN  4 0.2 1.3LRSN                1
 GAP=153        0.45       3.9     2.0  7.1 -0.5110E+00  0.4076E+01 -0.3965E+01E
 Epicentro: EL PEON - SANTANDER                                                3
 ACTION:UPD 14-01-08 09:52 OP:ep   STATUS:               ID:20130603051257 L   I
 2013-06-03-0510-00M.COL___257                                                 6
 STAT SP IPHASW D HRMM SECON CODA AMPLIT PERI AZIMU VELO AIN AR TRES W  DIS CAZ7
 PTB  HZ EP        513 13.96                             134   -0.1310 83.0 309 
 PTB  HN ES   2    513 27.00                             134    0.02 5 83.0 309 
 PTB  HN I         513 30.14         5.4 0.10            138           83.0 309 
 RUS  HZ EP   1    513 15.28                             132   -0.07 7 89.8 102 
 RUS  HN ES   1    513 29.34                             132    0.13 7 89.8 102 
 RUS  HN I         513 30.66         3.5 0.16            142           89.8 102 
 NOR  HZ EP   1    513 17.79                             122   -0.28 7  123 243 
 NOR  HN ES        513 34.06                             122    0.0110  123 243 
 NOR  HN I         513 38.56        11.0 0.14            127            123 243 
 HEL  HZ EP   1    513 25.61                             112    0.45 7  184 274 
 HEL  HN ES   2    513 46.84                             112    0.17 4  184 274 
 HEL  HN I         513 52.24         1.9 0.28            116            184 274 
                                                                                
