 2014  1 3 0631 54.8 L   6.478 -73.551116.0  RSN  6 0.5 1.2LRSN                1
 GAP= 87        1.17       4.4     5.2  8.5  0.2740E+01  0.9223E+01  0.1305E+02E
 Epicentro: SANTA HELENA DEL OPON - SANTANDER                                  3
 ACTION:UPD 14-03-13 09:50 OP:ep   STATUS:               ID:20140103063154 L   I
 OLDACT:REG 14-01-03 09:10 OP:stll STATUS:               ID:20140103062805     3
 2014-01-03-0628-05M.COL___240                                                 6
 STAT SP IPHASW D HRMM SECON CODA AMPLIT PERI AZIMU VELO AIN AR TRES W  DIS CAZ7
 BAR2 SZ EP        632 11.06                             159   -0.4410 42.6  73 
 BAR2 SZ ES        632 24.54                             159   -0.0210 42.6  73 
 BAR2 SZ I         632 25.61         6.3 0.18            163           42.6  73 
 BRR  HZ EP        632 12.62                             146   -0.1910 71.8 346 
 BRR  HN ES        632 26.96                             146    0.0610 71.8 346 
 RUS  HZ EP        632 14.50                             142    0.1910 82.9 141 
 RUS  HN ES        632 29.85                             142    0.2910 82.9 141 
 RUS  HZ I         632 31.25         3.3 0.22            144           82.9 141 
 PTB  HZ EP        632 15.00                             136   -0.0410  100 274 
 PTB  HN ES        632 30.81                             136   -0.0510  100 274 
 PTB  HZ I         632 35.02         4.5 0.12            136            100 274 
 SPBC HZ EP        632 15.94                             134    0.1310  108 212 
 SPBC HZ I         632 19.61         4.2 0.26            134            108 212 
 SPBC HN ES        632 32.61                             134    0.3810  108 212 
 CHI  HZ EP        632 26.98                             115    0.86 8  205 186 
 CHI  HN ES        632 49.30                             115   -1.29 8  205 186 
 CHI  HZ I         632 52.15         1.0 0.38            116            205 186 
                                                                                
