 2013  9 3 0318 39.2 L   6.798 -73.156147.7  RSN  5 0.4 1.3LRSN                1
 GAP=236        0.92       6.2     6.1  7.3  0.5673E+01  0.2388E+01  0.1002E+02E
 Epicentro: LOS SANTOS - SANTANDER                                             3
 ACTION:UPD 13-10-22 09:19 OP:ep   STATUS:               ID:20130903031839 L   I
 OLDACT:UP  13-09-03 09:42 OP:cam  STATUS:               ID:20130903030959     3
 OLDACT:REG 13-09-03 08:03 OP:cam  STATUS:               ID:20130903030959     3
 2013-09-03-0309-59M.COL___269                                                 6
 STAT SP IPHASW D HRMM SECON CODA AMPLIT PERI AZIMU VELO AIN AR TRES W  DIS CAZ7
 BAR2 SZ EP        318 59.15                             171    0.1210 22.9 187 
 BAR2 SZ ES        319 13.98                             171   -0.5410 22.9 187 
 BAR2 SZ I         319 15.28         7.3 0.18            168           22.9 187 
 BRR  HZ EP   1    319  0.04                             153   -0.44 7 70.3 299 
 BRR  HN ES        319 17.78                             153    0.6710 70.3 299 
 RUS  HZ EP        319  3.08                             144   -0.0210  100 175 
 RUS  HN ES   1    319 22.03                             144    0.26 7  100 175 
 RUS  HZ I         319 22.58         2.5 0.20            144            100 175 
 PTB  HZ EP   1    319  5.82                             133   -0.37 7  147 259 
 PTB  HN ES        319 26.98                             133   -0.29 9  147 259 
 PTB  HZ I         319 32.35         2.5 0.32            131            147 259 
 SPBC HZ EP        319  8.10                             130    0.37 9  162 219 
 SPBC HZ I         319  8.82         2.3 0.20            129            162 219 
 SPBC HN ES        319 30.01                             130   -0.00 9  162 219 
                                                                                
