 2010  7 3 0944 47.9 L   6.812 -73.095146.0  RSN  6 0.4 1.7LRSN                1
 GAP=164        0.67       4.8    10.1  8.7 -0.1912E+02  0.2988E+01  0.4227E+01E
 Epicentro: LOS SANTOS - SANTANDER                                             3
 ACTION:UPD 10-12-01 15:14 OP:pat  STATUS:               ID:20100703094447 L   I
 2010-07-03-0941-54S.COL___118                                                 6
 STAT SP IPHASW D HRMM SECON CODA AMPLIT PERI AZIMU VELO AIN AR TRES W  DIS CAZ7
 BAR2 SZ EP   1    945  7.45                             169    -0.1 7   26 202 
 BAR2 SZ ES   2    945 22.12                             169    -0.8 5   26 202 
 BRR  HZ EP   1    945  9.20                             151    -0.1 7   76 296 
 BRR  HE ES   2    945 26.25                             151     0.2 5   76 296 
 BRR  HZ I         945 27.49         9.0 0.07                            76 296 
 RUS  HZ EP   2    945 11.88                             144     0.2 5  102 179 
 RUS  HN ES   2    945 30.80                             144     0.5 5  102 179 
 RUS  HZ I         945 31.34         7.1 0.17                           102 179 
 GUE  SZ EP   2    945 12.09                             140    -0.3 5  114   9 
 GRA  SZ EP   2    945 12.46                             138    -0.4 5  123  15 
 GRA  SZ ES   1    945 32.86                             138     0.4 7  123  15 
 PRA  HZ EP   2    945 41.88                             106     0.0 3  396 210 
 PRA  HN ES   2    946 24.76                             106     0.8 3  396 210 
 PRA  HZ I         946 27.38         1.7 0.26                           396 210 
                                                                                
