 2013  1 3 0819 26.7 L   6.714 -73.203148.3  RSN  5 0.4 1.1LRSN                1
 GAP=223        0.96       8.3     7.9 11.1  0.4085E+02  0.1493E+02 -0.1618E+01E
 Epicentro: VILLANUEVA - SANTANDER                                             3
 ACTION:UPD 13-02-15 09:11 OP:ep   STATUS:               ID:20130103081926 L   I
 2013-01-03-0809-50M.COL___189                                                 6
 STAT SP IPHASW D HRMM SECON CODA AMPLIT PERI AZIMU VELO AIN AR TRES W  DIS CAZ7
 BAR2 SZ EP        819 46.98                             175    0.4610 13.6 170 
 BRR  HN ES        820  4.85                             153   -0.0110 71.1 308 
 RUS  HN ES        820  8.01                             147   -0.3610 91.7 172 
 RUS  HN I         820 10.42         1.8 0.28            143           91.7 172 
 PTB  HZ EP        819 53.00                             134   -0.22 9  140 262 
 PTB  HE ES        820 14.39                             134    0.52 9  140 262 
 PTB  HE I         820 19.99         1.9 0.32            131            140 262 
 ZAR  HN ES        820 23.93                             123   -0.50 9  202 295 
                                                                                
