 2015  1 3 0225 53.5 L   6.144 -73.707109.1  RSN 11 0.5 1.8LRSN                1
 GAP= 69        1.37       3.5     3.8  8.0 -0.6398E+00  0.1233E+02  0.2720E+01E
 Epicentro: CHIPATA - SANTANDER                                                3
 ACTION:UPD 15-03-02 15:36 OP:nd   STATUS:               ID:20150103022553 L   I
 OLDACT:REG 15-01-03 14:43 OP:stll STATUS:               ID:20150103021743     3
 2015-01-03-0217-43M.COL___277                                                 6
 STAT SP IPHASW D HRMM SECON CODA AMPLIT PERI AZIMU VELO AIN AR TRES W  DIS CAZ7
 SPBC HZ EP        226 10.88                             146    0.1510 67.8 217 
 SPBC HZ I         226 11.45        40.0 0.14            147           67.8 217 
 SPBC HN ES        226 25.13                             146    0.9710 67.8 217 
 RUS  HZ EP        226 11.53                             143   -0.2510 74.5 112 
 RUS  HZ I         226 11.84         8.8 0.30            148           74.5 112 
 RUS  HN ES        226 25.24                             143   -0.7810 74.5 112 
 BAR2 EZ EP        226 11.74                             142    0.1910 76.3  50 
 BAR2 EZ I         226 11.98        26.3 0.34            146           76.3  50 
 BAR2 EZ ES        226 26.35                             142    0.7310 76.3  50 
 PTB  HZ EP     C  226 12.18                             136   -0.4510 93.7 298 
 PTB  HN ES        226 26.61                             136   -0.9210 93.7 298 
 PTB  HZ I         226 31.97        10.8 0.18            137           93.7 298 
 BRR  HZ EP        226 13.87                             132    0.1510  106 360 
 BRR  HN ES        226 29.67                             132    0.1910  106 360 
 BRR  HZ I         226 34.33         9.5 0.16            134            106 360 
 NOR  HZ EP        226 17.13                             123   -0.29 9  144 244 
 NOR  HE ES        226 36.50                             123    0.44 9  144 244 
 NOR  HZ I         226 39.64        11.0 0.18            125            144 244 
 CHI  HZ EP        226 19.98                             119   -0.40 9  168 181 
 CHI  HN ES        226 40.86                             119   -0.47 9  168 181 
 CHI  HZ I         226 44.34         5.6 0.30            122            168 181 
 ZAR  HZ EP        226 23.21                             114    0.24 9  196 320 
 ZAR  HE ES        226 45.69                             114   -0.25 9  196 320 
 ZAR  HZ I         226 48.68         9.2 0.26            116            196 320 
 HEL  HZ EP        226 25.13                             113    1.07 9  202 272 
 HEL  HZ I         226 26.61         4.2 0.60            115            202 272 
 HEL  HE ES        226 47.14                             113   -0.75 9  202 272 
 TOL  SZ EP        226 29.27                             108   -0.08 8  248 226 
 TOL  SE ES        226 57.87                             108    0.58 8  248 226 
 CBOC HZ EP        226 30.51                             107    0.36 8  257 263 
 CBOC HZ I         226 32.45         3.2 0.18            109            257 263 
 CBOC HN ES        226 58.50                             107   -0.23 8  257 263 
                                                                                
