 2013 11 3 0707  3.3 L   6.053 -74.105 81.5  RSN  7 0.4 1.3LRSN                1
 GAP= 87        1.09       3.7     3.6  8.6 -0.4016E+01  0.3857E+01 -0.4174E+01E
 Epicentro: LA BELLEZA - SANTANDER                                             3
 ACTION:UPD 14-01-09 16:25 OP:ep   STATUS:               ID:20131103070703 L   I
 OLDACT:DUP 13-11-03 10:23 OP:jn   STATUS:               ID:20131103070001d    3
 OLDACT:REG 13-11-03 07:35 OP:jn   STATUS:               ID:20131103070000     3
 2013-11-03-0700-00M.COL___273                                                 6
 STAT SP IPHASW D HRMM SECON CODA AMPLIT PERI AZIMU VELO AIN AR TRES W  DIS CAZ7
 SPBC HZ EP        7 7 16.33                             149    0.1910 44.4 175 
 SPBC HN ES        7 7 26.57                             149    0.4310 44.4 175 
 SPBC HZ I         7 7 28.12         7.7 0.10            152           44.4 175 
 PTB  HZ EP        7 7 17.26                             137   -0.4110 66.4 324 
 PTB  HN ES        7 7 28.35                             137   -0.5110 66.4 324 
 PTB  HZ I         7 7 30.16         4.8 0.12            140           66.4 324 
 NOR  HZ EP   1    7 7 20.79                             124   -0.13 7  100 237 
 NOR  HE ES   1    7 7 34.43                             124   -0.20 7  100 237 
 NOR  HZ I         7 7 37.33         5.3 0.22            128            100 237 
 RUS  HN ES        7 7 37.51                             121   -0.7410  114  99 
 BAR2 SZ ES   1    7 7 38.82                             120    0.45 7  118  60 
 BAR2 SZ I         7 7 39.60        11.2 0.36            123            118  60 
 BRR  HZ EP        7 7 23.39                             118    0.0110  124  20 
 BRR  HN ES        7 7 39.74                             118    0.7210  124  20 
 BRR  HZ I         7 7 41.57         6.3 0.16            121            124  20 
 GUY2CHZ EP        7 7 28.76                             111   -0.01 9  167 237 
 GUY2CHN ES   1    7 7 49.22                             111    0.61 7  167 237 
 GUY2CHZ I         7 7 54.18         1.5 0.58                           167 237 
                                                                                
