 2017  7 3 0032 48.2 L   6.066 -73.695111.4  RSN 17 0.5 2.1LRSN                1
 GAP= 73        1.15       3.1     2.9  7.0 -0.1752E+01  0.8096E+00 -0.7982E+00E
 Epicentro: VELEZ - SANTANDER                                                  3
 ACTION:UPD 17-08-30 15:29 OP:rebc STATUS:               ID:20170703003248 L   I
 OLDACT:UP  17-07-03 14:36 OP:edw  STATUS:               ID:20170703002747     3
 OLDACT:REG 17-07-03 12:51 OP:edw  STATUS:               ID:20170703002747     3
 2017-07-03-0028-00M.COL___377                                                 6
 STAT SP IPHASW D HRMM SECON CODA AMPLIT PERI AZIMU VELO AIN AR TRES W  DIS CAZ7
 SPBC HZ EP     C  033  5.24                             149    0.0110 62.0 222 
 SPBC HN ES        033 18.43                             149   -0.1110 62.0 222 
 SPBC HZ I         033 20.23        44.8 0.26            149           62.0 222 
 BAR2 EZ IP     C  033  7.04                             141    0.2610 81.2  44 
 BAR2 EZ ES        033 21.70                             141    0.3910 81.2  44 
 PTB  HZ EP   9 C  033  6.82                             135   -1.12 0 99.2 302 
 PTB  HN ES        033 22.40                             137    0.1510 99.2 302 
 PTB  HZ I         033 24.51        19.6 0.34            136           99.2 302 
 BRR  HZ IP     C  033  9.25                             130   -0.0910  115 359 
 BRR  HN ES   4    033 28.58                             130    2.71 0  115 359 
 BRR  HZ I         033 29.38        19.4 0.10            132            115 359 
 TABC EZ EP   2    033 12.00                             127    0.66 5  130 206 
 NOR  HZ EP        033 12.26                             124    0.29 9  141 247 
 NOR  HN ES        033 30.21                             124   -0.34 9  141 247 
 NOR  HZ I         033 33.34        21.6 0.36            125            141 247 
 ROSC BN ES   2    033 33.54                             122    0.23 5  152 207 
 YPLC HZ EP        033 14.52                             120    0.25 9  163 117 
 YPLC HN ES        033 33.76                             120   -0.87 9  163 117 
 YPLC HZ I         033 38.90        21.4 0.30            121            163 117 
 PAM  EZ EP        033 16.14                             117   -0.30 9  179  38 
 PAM  EN ES        033 39.08                             117    0.57 9  179  38 
 PAM  EZ I         033 42.02         8.5 0.34            119            179  38 
 ZAR  HZ EP        033 18.20                             114   -0.36 9  204 321 
 ZAR  HN ES        033 41.90                             114   -0.38 9  204 321 
 ZAR  HZ I         033 43.45        24.4 0.30            115            204 321 
 HEL  HZ EP   4 C  033 20.02                             114    1.00 0  204 274 
 HEL  HN ES        033 42.09                             114   -1.00 9  204 274 
 HEL  HZ I         033 48.14         7.3 0.18            115            204 274 
 GUY2CHZ EP        033 19.90                             113    0.34 8  207 243 
 GUY2CHN ES   1    033 45.64                             113    1.58 6  207 243 
 GUY2CHZ I         033 50.68         9.1 0.72                           207 243 
 VIL  HN ES        033 45.17                             112    0.10 8  216 180 
 CBOC HZ EP   3    033 25.05                             108    0.12 2  258 265 
 CBOC HN ES   4    033 51.94                             108   -1.68 0  258 265 
 PTGC HZ EP   9    033 25.01                             107   -1.08 0  269 140 
 PTGC HN ES        033 53.58                             109   -1.02 8  269 140 
 PTGC HZ I         033 56.70         7.1 0.30            108            269 140 
 ORTC HZ EP   2    033 29.00                             105   -0.04 4  294 216 
 ORTC HN ES   2    034  0.91                             105   -0.02 4  294 216 
 ORTC HZ I         034  7.95         4.8 0.66            106            294 216 
 SJC  HZ EP   4    033 46.57                              97   -1.66 0  454 339 
 SJC  HN ES   4    034 30.01                              97   -5.08 0  454 339 
 SJC  HZ I         034 34.59         2.9 0.76             98            454 339 
                                                                                
