 2015 12 3 0616 56.6 L   6.828 -73.195142.0  RSN 13 0.5 2.3LRSN                1
 GAP=129        1.04       3.1     4.3  5.3 -0.3911E+01  0.7723E+01  0.1639E+01E
 Epicentro: ZAPATOCA - SANTANDER                                               3
 ACTION:UPD 16-02-04 15:02 OP:cam  STATUS:               ID:20151203061657dL   I
 OLDACT:DUP 15-12-03 18:04 OP:mh   STATUS:               ID:20151203060750d    3
 OLDACT:REG 15-12-03 12:49 OP:mh   STATUS:               ID:20151203060748     3
 2015-12-03-0607-48M.COL___311                                                 6
 STAT SP IPHASW D HRMM SECON CODA AMPLIT PERI AZIMU VELO AIN AR TRES W  DIS CAZ7
 BAR2 EZ EP   1    617 15.86                             169    0.04 7 26.1 177 
 BAR2 EZ ES        617 30.33                             169   -0.5010 26.1 177 
 BAR2 EZ I         617 31.84        49.6 0.20            170           26.1 177 
 BRR  HZ IP     C  617 17.75                             154    0.7810 64.9 298 
 BRR  HN ES        617 33.55                             154    0.6710 64.9 298 
 BRR  HZ I         617 38.93        36.4 0.12            151           64.9 298 
 PAM  EZ IP     C  617 18.87                             150    0.3910 78.7  44 
 PAM  EN ES        617 35.69                             150    0.1310 78.7  44 
 PAM  EZ I         617 37.97        78.2 0.60            153           78.7  44 
 RUS  HZ EP        617 20.59                             142    0.3610  104 173 
 RUS  HN ES   1    617 37.71                             142   -0.97 7  104 173 
 RUS  HZ I         617 39.55        13.2 0.32            145            104 173 
 PTB  HZ EP        617 22.59                             132   -0.22 9  143 257 
 PTB  HN ES        617 43.21                             132   -0.06 9  143 257 
 PTB  HZ I         617 46.15        37.3 0.14            132            143 257 
 OCA  HZ EP        617 23.86                             129   -0.40 9  157 355 
 OCA  HN ES        617 45.79                             129   -0.05 9  157 355 
 OCA  HZ I         617 49.37        69.8 0.50            130            157 355 
 NOR  HZ EP   1    617 32.13                             118    0.31 6  232 233 
 NOR  HN ES   1    617 59.61                             118    0.31 6  232 233 
 NOR  HZ I         618  1.73        13.5 0.16            119            232 233 
 SML  HZ EP        617 32.09                             117   -0.36 8  239 336 
 SML  HN ES        617 59.63                             117   -0.79 8  239 336 
 SML  HZ I         618  7.82        32.8 0.10            118            239 336 
 HEL  HZ EP        617 35.71                             114   -0.39 8  268 255 
 HEL  HN ES        618  7.18                             114    0.25 8  268 255 
 HEL  HZ I         618 14.68         9.4 0.30            115            268 255 
 GUY2CHZ EP        617 39.31                             112   -0.41 7  299 234 
 GUY2CHN ES   4    618 16.97                             112    3.61 0  299 234 
 GUY2CHZ I         618 20.98         9.0 0.28                           299 234 
 SOCV BZ EP   4    617 37.85                             111   -1.94 0  304  58 
 SOCV BN ES   4    618  8.92                             111   -4.58 0  304  58 
 PRA  HZ EP   1    617 49.99                             106    0.01 4  392 209 
 PRA  HN ES        618 31.78                             106    0.15 6  392 209 
 PRA  HZ I         618 36.30         7.7 0.26            107            392 209 
 ORTC HZ EP        617 50.75                             106    0.46 6  395 215 
 ORTC HN ES        618 31.50                             106   -0.69 6  395 215 
 ORTC HZ I         618 39.03         5.4 0.80            107            395 215 
 PAL  HZ EP        617 52.04                             105    0.78 6  403 238 
 PAL  HN ES        618 33.58                             105   -0.32 6  403 238 
 PAL  HZ I         618 37.14         3.4 0.22            106            403 238 
                                                                                
