 2012 10 3 0918 58.1 L   7.386 -73.196132.4  RSN  5 0.2 1.8LRSN                1
 GAP=214        0.40       5.9     4.9  4.8  0.4189E+01 -0.2749E+01  0.1617E+01E
 Epicentro: EL PLAYON - SANTANDER                                              3
 ACTION:UPD 12-11-22 17:01 OP:ep   STATUS:               ID:20121003091858 L   I
 2012-10-03-0910-00M.COL___223                                                 6
 STAT SP IPHASW D HRMM SECON CODA AMPLIT PERI AZIMU VELO AIN AR TRES W  DIS CAZ7
 GIR2 SZ EP   2    919 15.85                             165   -0.44 5 34.0 180 
 PAM  SE ES   2    919 32.96                             156    0.06 5 55.0  95 
 PAM  SE I         919 34.45        21.3 0.41                          55.0  95 
 BRR  HZ EP   1    919 17.62                             152    0.15 7 64.8 242 
 BRR  HE ES   1    919 32.48                             152   -0.08 7 64.8 242 
 BRR  HZ I         919 34.17        11.6 0.12                          64.8 242 
 BAR2 SZ EP   1    919 19.47                             145    0.19 7 87.8 179 
 BAR2 SZ ES   1    919 35.79                             145    0.01 7 87.8 179 
 BAR2 SZ I         919 36.84         8.6 0.19                          87.8 179 
 RUS  HZ EP   1    919 26.29                             126   -0.12 7  166 176 
                                                                                
