 2017  2 3 0112 59.3 L   6.777 -73.132144.1  RSN  7 0.3 1.7LRSN                1
 GAP=139        0.72       3.0     3.3  5.4  0.3545E+00  0.4415E+01  0.1458E+01E
 Epicentro: LOS SANTOS - SANTANDER                                             3
 ACTION:UPD 17-05-24 15:32 OP:jn   STATUS:               ID:20170203011259 L   I
 OLDACT:REG 17-02-03 12:31 OP:dnl  STATUS:               ID:20170203010746     3
 2017-02-03-0108-00M.COL___325                                                 6
 STAT SP IPHASW D HRMM SECON CODA AMPLIT PERI AZIMU VELO AIN AR TRES W  DIS CAZ7
 BAR2 EZ EP   2    113 18.57                             171   -0.13 5 21.2 195 
 BAR2 EZ ES        113 33.80                             171   -0.0310 21.2 195 
 BAR2 EZ I         113 35.79        12.1 0.26            170           21.2 195 
 BRR  HZ EP        113 20.61                             151    0.1810 73.7 300 
 BRR  HE ES        113 37.47                             151    0.5710 73.7 300 
 BRR  HZ I         113 40.12        14.9 0.24            150           73.7 300 
 PAM  EZ IP     D  113 21.60                             150    0.1910 78.4  38 
 PAM  EN ES        113 38.35                             150   -0.3010 78.4  38 
 PAM  EZ I         113 40.69        15.2 0.66            152           78.4  38 
 RUS  HZ EP   2    113 22.69                             144   -0.02 5 98.0 177 
 RUS  HE ES        113 40.75                             144   -0.2110 98.0 177 
 RUS  HZ I         113 42.25         5.4 0.26            144           98.0 177 
 PTB  HZ EP   2    113 25.57                             131   -0.67 5  149 260 
 PTB  HE ES        113 47.22                             131   -0.02 9  149 260 
 PTB  HZ I         113 49.11         5.7 0.14            131            149 260 
 ZAR  HZ EP   2    113 32.35                             122    0.46 4  206 293 
 ZAR  HN ES        113 56.73                             122   -0.58 8  206 293 
 ZAR  HZ I         114  2.87         5.8 0.36            121            206 293 
 CHI  HZ EP   2    113 36.86                             117    0.16 4  247 196 
 CHI  HE ES        114  6.04                             117    0.18 8  247 196 
 CHI  HZ I         114 12.05         1.3 0.44            117            247 196 
                                                                                
