 2016  8 3 0315 38.1 L   6.741 -73.166147.6  RSN  5 0.2 1.3LRSN                1
 GAP=231        0.53       3.0     3.8  4.2  0.5102E+01  0.3154E+01  0.1426E+01E
 Epicentro: LOS SANTOS - SANTANDER                                             3
 ACTION:UPD 16-10-29 15:31 OP:rebc STATUS:               ID:20160803031538 L   I
 OLDACT:UP  16-08-03 14:56 OP:edw  STATUS:               ID:20160803030733     3
 OLDACT:REG 16-08-03 12:48 OP:edw  STATUS:               ID:20160803030733     3
 2016-08-03-0308-00M.COL___356                                                 6
 STAT SP IPHASW D HRMM SECON CODA AMPLIT PERI AZIMU VELO AIN AR TRES W  DIS CAZ7
 BAR2 EZ EP        315 57.59                             173   -0.2610 16.5 186 
 BAR2 EZ ES        316 13.09                             173   -0.1610 16.5 186 
 BRR  HZ EP        315 59.71                             152    0.1610 72.7 304 
 BRR  HN ES        316 16.53                             152    0.2610 72.7 304 
 RUS  HZ EP        316  1.82                             146    0.2110 94.2 174 
 RUS  HN ES        316 19.87                             146   -0.0610 94.2 174 
 RUS  HZ I         316 21.23         2.2 0.32                          94.2 174 
 SPBC HZ EP        316  6.12                             131   -0.04 9  157 220 
 SPBC HN ES        316 28.10                             131    0.08 9  157 220 
 SPBC HZ I         316 31.11         3.3 0.24                           157 220 
 ZAR  HZ EP   4    316  7.50                             123   -3.24 0  205 294 
 ZAR  HN ES        316 35.92                             123   -0.26 9  205 294 
 SOCV BZ EP   4    316 20.91                             112   -0.96 0  307  56 
 SOCV BN ES   4    316 47.46                             112   -8.53 0  307  56 
                                                                                
