 2016  4 3 0131  6.2 L   6.777 -73.167138.0  RSN  6 0.4 1.5LRSN                1
 GAP=135        0.90       4.5     4.2  6.5 -0.3579E+00  0.1141E+02 -0.2226E+01E
 Epicentro: LOS SANTOS - SANTANDER                                             3
 ACTION:UPD 16-05-05 14:18 OP:rebc STATUS:               ID:20160403013106 L   I
 OLDACT:REG 16-04-03 12:21 OP:drio STATUS:               ID:20160403012745     3
 2016-04-03-0127-45M.COL___312                                                 6
 STAT SP IPHASW D HRMM SECON CODA AMPLIT PERI AZIMU VELO AIN AR TRES W  DIS CAZ7
 BAR2 EZ EP        131 24.69                             171   -0.1310 20.4 185 
 BAR2 EZ ES        131 39.68                             171    0.3210 20.4 185 
 BAR2 EZ I         131 41.14         7.0 0.14            171           20.4 185 
 PAM  EZ EP        131 27.76                             148   -0.0410 80.9  40 
 PAM  EN ES        131 44.55                             148   -0.1110 80.9  40 
 PAM  EZ I         131 46.88         7.7 0.32            153           80.9  40 
 RUS  HZ EP        131 28.73                             143   -0.2710 98.2 175 
 RUS  HE ES        131 47.06                             143    0.2710 98.2 175 
 RUS  HZ I         131 49.16         4.2 0.30            147           98.2 175 
 PTB  HZ EP        131 31.57                             131   -0.69 9  145 260 
 PTB  HE ES        131 52.27                             131   -0.34 9  145 260 
 PTB  HZ I         131 59.93         4.1 0.44            132            145 260 
 ZAR  HZ EP        131 38.62                             121    0.61 9  203 293 
 ZAR  HE ES        132  3.07                             121    0.24 9  203 293 
 ZAR  HZ I         132  8.83         5.7 0.38            123            203 293 
 GUY2CHZ EP        131 49.50                             111    0.45 7  298 235 
 GUY2CHN ES   4    132 24.87                             111    2.38 0  298 235 
 GUY2CHZ I         132 32.52         1.8 0.58                           298 235 
                                                                                
