 2017  8 3 0557 32.0 L   6.761 -73.136144.0  RSN  8 0.4 1.3LRSN                1
 GAP=140        0.89       3.8     3.8  6.4 -0.1199E+01  0.5379E+01  0.2917E+00E
 Epicentro: LOS SANTOS - SANTANDER                                             3
 ACTION:UPD 17-09-04 20:15 OP:rebc STATUS:               ID:20170803055732 L   I
 OLDACT:REG 17-08-03 14:57 OP:osc  STATUS:               ID:20170803054741     3
 2017-08-03-0548-00M.COL___398                                                 6
 STAT SP IPHASW D HRMM SECON CODA AMPLIT PERI AZIMU VELO AIN AR TRES W  DIS CAZ7
 BAR2 EZ EP        557 51.26                             172   -0.1210 19.4 195 
 BAR2 EZ ES        558  6.31                             172   -0.1610 19.4 195 
 BAR2 EZ I         558  7.31         7.6 0.26            173           19.4 195 
 BRR  HZ EP        557 53.36                             151    0.1910 74.3 301 
 BRR  HN ES        558 10.02                             151    0.3610 74.3 301 
 BRR  HZ I         558 13.30         3.5 0.38            151           74.3 301 
 PAM  EZ EP        557 54.23                             150    0.0010 80.0  37 
 PAM  EN ES        558 11.11                             150   -0.4210 80.0  37 
 PAM  EZ I         558 13.06         2.3 0.64            151           80.0  37 
 RUS  HZ EP        557 55.31                             144    0.0110 96.2 177 
 RUS  HN ES        558 13.83                             144    0.3810 96.2 177 
 PTB  HZ EP        557 59.23                             131    0.34 9  148 261 
 PTB  HE ES        558 19.31                             131   -0.53 9  148 261 
 PTB  HZ I         558 21.81         1.8 0.16            133            148 261 
 SPBC HN ES        558 22.09                             129    0.00 9  161 220 
 ZAR  HN ES        558 30.31                             121    0.23 8  207 293 
 GUY2CHN ES   2    558 47.31                             112   -1.90 4  300 236 
                                                                                
