 2015  3 3 0659 34.6 L   6.804 -73.163148.0  RSN 14 0.4 1.8LRSN                1
 GAP= 70        0.84       2.4     3.2  4.7 -0.6884E+00  0.6497E+00  0.2035E+01E
 Epicentro: LOS SANTOS - SANTANDER                                             3
 ACTION:UPD 15-04-30 16:22 OP:nd   STATUS:               ID:20150303065934 L   I
 OLDACT:REG 15-03-03 13:01 OP:spq  STATUS:               ID:20150303065748     3
 2015-03-03-0657-48M.COL___287                                                 6
 STAT SP IPHASW D HRMM SECON CODA AMPLIT PERI AZIMU VELO AIN AR TRES W  DIS CAZ7
 BAR2 EZ EP        659 54.35                             171   -0.1810 23.5 185 
 BAR2 EZ ES   1    7 0  9.74                             171   -0.32 7 23.5 185 
 BAR2 EZ I         7 0 11.00         8.7 0.12            170           23.5 185 
 BRR  HZ EP   1    659 56.32                             154    0.40 7 69.3 299 
 BRR  HE ES        7 0 13.48                             154    0.9610 69.3 299 
 BRR  HZ I         7 0 17.28         7.1 0.14            152           69.3 299 
 PAM  SZ EP        659 57.33                             151    0.1910 78.3  41 
 PAM  SN ES        7 0 14.39                             151   -0.3110 78.3  41 
 PAM  SZ I         7 0 16.52        14.6 0.46            153           78.3  41 
 RUS  HZ EP        659 58.54                             144   -0.1010  101 175 
 RUS  HN ES        7 0 17.64                             144    0.2710  101 175 
 RUS  HZ I         7 0 18.21         8.0 0.32            145            101 175 
 PTB  HZ EP        7 0  1.18                             133   -0.44 9  146 259 
 PTB  HN ES        7 0 22.19                             133   -0.48 9  146 259 
 PTB  HZ I         7 0 24.68         5.3 0.08            132            146 259 
 TAM  HZ EP     D  7 0  2.76                             131    0.09 9  157 105 
 OCA  HZ EP   1    7 0  2.76                             130   -0.30 7  160 354 
 OCA  HN ES        7 0 25.08                             130   -0.15 9  160 354 
 OCA  HZ I         7 0 28.47         5.4 0.19            131            160 354 
 SPBC HZ EP        7 0  3.31                             130    0.09 9  162 218 
 SPBC HN ES        7 0 25.11                             130   -0.40 9  162 218 
 SPBC HZ I         7 0 27.91        12.0 0.40            129            162 218 
 ZAR  HN ES        7 0 32.32                             123    0.03 9  202 292 
 ZAR  HZ I         7 0 38.56         4.6 0.28            123            202 292 
 SML  HZ EP   1    7 0 10.87                             118   -0.39 6  243 336 
 SML  HE ES   1    7 0 40.12                             118    0.30 6  243 336 
 SML  HZ I         7 0 42.78         9.7 0.14            118            243 336 
 CHI  HZ EP        7 0 12.54                             118    0.10 8  249 195 
 CHI  HE ES   1    7 0 41.95                             118    0.02 6  249 195 
 CHI  HZ I         7 0 45.38         2.5 0.38            118            249 195 
 PTGC HZ EP   4    7 0 17.60                             112   -1.11 0  310 158 
 PTGC HN ES   4    7 0 50.81                             112   -2.28 0  310 158 
 PTGC HZ I         7 0 55.93         4.1 0.26            113            310 158 
 PRA  HZ EP   1    7 0 28.35                             107    0.19 4  391 209 
 PRA  HN ES   1    7 1  9.81                             107   -0.10 4  391 209 
 PRA  HZ I         7 1 16.19         1.7 0.18            107            391 209 
 ORTC HZ EP   1    7 0 29.35                             107    0.82 4  395 216 
 ORTC HN ES   1    7 1 11.36                             107    0.79 4  395 216 
 ORTC HZ I         7 1 17.52         1.8 0.36            107            395 216 
                                                                                
