 2017 12 3 0900 44.8 L   6.519 -73.544106.0  RSN  4 0.5 1.1LRSN                1
 GAP=132        0.84       9.4     4.5  8.8  0.1101E+02  0.1625E+02 -0.1997E+02E
 Epicentro: EL CARMEN - SANTANDER                                              3
 ACTION:UPD 18-01-04 13:16 OP:rebc STATUS:               ID:20171203090044 L   I
 OLDACT:UP  17-12-03 14:58 OP:dani STATUS:               ID:20171203085740     3
 OLDACT:UP  17-12-03 14:57 OP:dani STATUS:               ID:20171203085740     3
 OLDACT:UP  17-12-03 14:55 OP:dani STATUS:               ID:20171203085740     3
 OLDACT:UP  17-12-03 14:46 OP:dani STATUS:               ID:20171203085740     3
 OLDACT:REG 17-12-03 13:47 OP:dhb  STATUS:               ID:20171203085740     3
 2017-12-03-0858-00M.COL___473                                                 6
 STAT SP IPHASW D HRMM SECON CODA AMPLIT PERI AZIMU VELO AIN AR TRES W  DIS CAZ7
 BAR2 HZ EP        9 0 59.88                             157   -0.4210 40.8  78 
 BAR2 HZ ES        9 1 12.45                             157    0.0410 40.8  78 
 BAR2 HZ I         9 1 14.16         8.6 0.48            159           40.8  78 
 RUS  HN ES   3    9 1 20.64                             138    2.31 2 86.0 144 
 RUS  HZ E         9 1 33.04                                           86.0 144 
 PTB  HZ EP        9 1  4.24                             133   -0.0110  101 271 
 PTB  HN ES        9 1 19.30                             133   -0.1410  101 271 
 PTB  HZ I         9 1 20.61         1.0 0.26            135            101 271 
 ZAR  HZ EP        9 1 12.43                             115    0.05 9  181 307 
 ZAR  HE ES        9 1 34.35                             115    0.44 9  181 307 
 ZAR  HZ I         9 1 35.99         2.2 0.34            117            181 307 
                                                                                
