 2012 11 3 0059 16.3 L   6.774 -73.106145.8  RSN 10 0.4 2.3LRSN                1
 GAP=143        0.72       3.2     4.0  5.1 -0.1057E+01  0.6254E+01  0.4813E+01E
 Epicentro: LOS SANTOS - SANTANDER                                             3
 ACTION:UPD 12-12-05 15:31 OP:}ep  STATUS:               ID:20121103005916 L   I
 2012-11-03-0057-39M.COL___192                                                 6
 STAT SP IPHASW D HRMM SECON CODA AMPLIT PERI AZIMU VELO AIN AR TRES W  DIS CAZ7
 BAR2 SZ IP     D  059 35.88                             171   -0.0410 21.9 203 
 BAR2 SZ ES   1    059 50.96                             171   -0.25 7 21.9 203 
 BAR2 SZ I         059 52.50       114.6 0.20                          21.9 203 
 GIR2 SZ EP        059 35.94                             166   -0.1610 35.0 344 
 GIR2 SZ ES   1    059 51.69                             166    0.16 7 35.0 344 
 BRR  HZ IP     C  059 37.73                             151   -0.0410 76.4 299 
 BRR  HN ES   1    059 55.11                             151    0.60 7 76.4 299 
 BRR  HN I         059 55.99        60.7 0.24                          76.4 299 
 PAM  SZ EP        059 38.68                             151    0.1710 76.9  36 
 PAM  SN ES   1    059 55.86                             151    0.04 7 76.9  36 
 PAM  SN I         059 58.74        10.9 0.28                          76.9  36 
 RUS  HZ EP   1    059 39.80                             145   -0.05 7 97.5 179 
 RUS  HN ES   1    059 58.09                             145   -0.12 7 97.5 179 
 RUS  HN I         1 0  0.42        36.1 0.36                          97.5 179 
 ZAR  HZ EP   1    059 49.09                             122   -0.20 6  209 292 
 ZAR  HN ES   1    1 0 13.99                             122   -1.03 6  209 292 
 ZAR  HN I         1 0 21.75        25.7 0.18                           209 292 
 CHI  HZ EP   1    059 53.93                             117    0.08 6  247 196 
 CHI  HN ES   1    1 0 22.78                             117   -0.35 6  247 196 
 CHI  HN I         1 0 30.98        12.8 0.50                           247 196 
 HEL  HN ES   1    1 0 29.21                             114    0.60 6  276 257 
 HEL  HN I         1 0 35.01         5.3 0.58                           276 257 
 RREF HZ EP   1    1 0  3.73                             111    1.10 5  323 230 
 RREF HN ES   1    1 0 38.76                             111    0.00 5  323 230 
 RREF HZ I         1 0 44.94         5.8 0.22                           323 230 
 PRA  HZ EP   1    1 0  9.47                             106   -0.33 4  392 210 
 PRA  HN ES   1    1 0 51.67                             106    0.14 4  392 210 
 PRA  HN I         1 0 55.66         6.1 0.70                           392 210 
                                                                                
