 2017  4 3 0848  9.3 L   6.816 -73.156153.0  RSN  8 0.4 1.5LRSN                1
 GAP=118        0.94       4.5     4.7  5.7 -0.2535E+00  0.8663E+00  0.1011E+01E
 Epicentro: LOS SANTOS - SANTANDER                                             3
 ACTION:UPD 17-05-30 21:08 OP:jn   STATUS:               ID:20170403084809 L   I
 OLDACT:UP  17-04-03 17:19 OP:and  STATUS:               ID:20170403084741     3
 OLDACT:UP  17-04-03 17:17 OP:and  STATUS:               ID:20170403084741     3
 OLDACT:REG 17-04-03 12:57 OP:and  STATUS:               ID:20170403084741     3
 2017-04-03-0848-00M.COL___353                                                 6
 STAT SP IPHASW D HRMM SECON CODA AMPLIT PERI AZIMU VELO AIN AR TRES W  DIS CAZ7
 BAR2 EZ EP        848 29.89                             170    0.0610 25.0 187 
 BAR2 EZ ES        848 45.45                             170   -0.3910 25.0 187 
 BRR  HZ EP        848 31.04                             154   -0.0910 69.4 298 
 BRR  HE ES        848 48.61                             154    0.4510 69.4 298 
 BRR  HZ I         848 51.85         6.7 0.26            154           69.4 298 
 PAM  EZ IP     C  848 32.73                             152    0.4810 76.7  41 
 PAM  EN ES        848 49.91                             152   -0.2410 76.7  41 
 PAM  EZ I         848 51.73         3.1 0.32            155           76.7  41 
 RUS  HZ EP        848 34.37                             145    0.4710  102 176 
 RUS  HN ES        848 52.80                             145   -0.2810  102 176 
 RUS  HZ I         848 55.13         2.6 0.40            146            102 176 
 PTB  HZ EP        848 36.87                             134    0.07 9  147 258 
 PTB  HN ES        848 58.15                             134   -0.10 9  147 258 
 PTB  HZ I         849  1.48         4.4 0.17            134            147 258 
 PTGC HZ EP        848 53.42                             113   -0.30 7  311 159 
 PRA  HZ EP   9    849  4.64                             108    1.45 0  393 209 
 PRA  HN ES        849 47.56                             107    0.88 6  393 209 
 PRA  HZ I         849 48.95         1.4 0.30            108            393 209 
 SJC  HZ EP        849  3.95                             107   -0.90 6  407 327 
 SJC  HN ES   4    849 45.25                             107   -2.94 0  407 327 
                                                                                
