 2012  2 3 0902  2.3 L   6.775 -73.125149.5  RSN 17 0.4 2.6LRSN                1
 GAP=140        0.81       2.9     3.7  4.5 -0.1432E+01  0.4800E+01  0.2126E+01E
 ACTION:UP  12-03-07 16:27 OP:epov STATUS:               ID:20120203090202 L   I
 2012-02-03-0900-00M.COL___188                                                 6
 STAT SP IPHASW D HRMM SECON CODA AMPLIT PERI AZIMU VELO SNR AR TRES W  DIS CAZ7
 BAR2 SZ IP        9 2 22.34                             172    0.0210 21.2 197 
 BAR2 SZ I         9 2 22.89        76.6 0.37                          21.2 197 
 BAR2 SZ ES   1    9 2 37.47                             172   -0.48 7 21.2 197 
 GIR2 SZ EP        9 2 22.52                             166    0.0410 34.4 347 
 GIR2 SZ ES   1    9 2 38.76                             166    0.52 7 34.4 347 
 BRR  HZ IP     C  9 2 24.25                             152    0.2310 74.5 300 
 BRR  HZ I         9 2 24.72       113.2 0.12                          74.5 300 
 BRR  HN ES   1    9 2 41.91                             152    0.93 7 74.5 300 
 PAM  SZ EP        9 2 25.08                             151    0.1410 78.1  37 
 PAM  SE ES   1    9 2 42.12                             151   -0.48 7 78.1  37 
 RUS  HZ IP     C  9 2 26.09                             145   -0.1110 97.7 177 
 RUS  HN ES   1    9 2 45.00                             145    0.14 7 97.7 177 
 RUS  HZ I         9 2 46.38        23.6 0.28                          97.7 177 
 PTB  HZ EP        9 2 28.85                             133   -0.86 9  150 260 
 PTB  HN ES   1    9 2 50.23                             133   -0.88 7  150 260 
 OCA  SZ EP   1    9 2 31.15                             130   -0.01 7  163 352 
 OCA  SZ ES   2    9 2 54.19                             130    0.50 5  163 352 
 OCA  SZ I         9 2 58.84        48.6 0.32                           163 352 
 ZAR  HZ EP        9 2 34.87                             123   -0.43 8  207 293 
 ZAR  HN ES   1    9 3  0.63                             123   -0.42 6  207 293 
 ZAR  HZ I         9 3  6.99        76.5 0.45                           207 293 
 NOR  SZ EP        9 2 38.24                             119   -0.03 8  235 235 
 NOR  SN ES   2    9 3  6.78                             119    0.45 4  235 235 
 CHI  HZ EP   1    9 2 40.21                             118    0.24 6  247 196 
 CHI  HN ES   2    9 3  9.45                             118    0.08 4  247 196 
 CHI  HZ I         9 3 18.12        16.6 0.38                           247 196 
 ROSC BZ EP   2    9 2 40.88                             118    0.39 4  252 212 
 ROSC BE ES   2    9 3 10.40                             118    0.12 4  252 212 
 ROSC BZ I         9 3 17.47        41.7 0.49                           252 212 
 HEL  HZ EP   1    9 2 43.40                             115    0.54 6  274 256 
 HEL  HN ES   1    9 3 14.76                             115    0.25 6  274 256 
 HEL  HZ I         9 3 22.18        24.3 0.39                           274 256 
 VIL  SZ EP   1    9 2 45.66                             113    0.03 5  301 192 
 VIL  SE ES   2    9 3 19.24                             113   -0.19 4  301 192 
 VIL  SZ I         9 3 28.08        13.9 0.46                           301 192 
 RREF HZ EP   1    9 2 49.07                             111    0.48 5  322 230 
 RREF HN ES   2    9 3 24.71                             111    0.00 3  322 230 
 RREF HZ I         9 3 34.05        22.0 0.53                           322 230 
 DBB  SZ EP   1    9 2 51.17                             110    0.97 5  342 275 
 COD  HZ EP   1    9 2 51.23                             109    0.08 5  351 354 
 COD  HN ES   2    9 3 28.86                             109   -0.40 3  351 354 
 PRA  HZ EP   1    9 2 55.98                             107    0.19 4  391 210 
 PRA  HE ES   2    9 3 37.88                             107    0.35 3  391 210 
                                                                                
