 2016 12 3 0425 14.7 L   6.704 -73.146151.6  RSN  5 0.4 1.7LRSN                1
 GAP=163        0.68       6.7     4.0  4.9 -0.1154E+02  0.4288E+01 -0.5319E+00E
 Epicentro: VILLANUEVA - SANTANDER                                             3
 ACTION:UPD 17-01-11 20:12 OP:rebc STATUS:               ID:20161203042514 L   I
 OLDACT:UP  16-12-03 14:05 OP:dani STATUS:               ID:20161203041741     3
 OLDACT:REG 16-12-03 12:45 OP:dnl  STATUS:               ID:20161203041741     3
 2016-12-03-0418-00M.COL___352                                                 6
 STAT SP IPHASW D HRMM SECON CODA AMPLIT PERI AZIMU VELO AIN AR TRES W  DIS CAZ7
 BAR2 EZ EP        425 35.07                             175    0.2510 13.0 198 
 BAR2 EZ ES        425 50.48                             175   -0.0810 13.0 198 
 BAR2 EZ I         425 51.97        13.5 0.40            170           13.0 198 
 BRR  HZ EP        425 36.93                             152    0.1810 76.8 305 
 BRR  HN ES        425 54.33                             152    0.3510 76.8 305 
 BRR  HZ I         425 58.80         6.3 0.06            146           76.8 305 
 PAM  EZ EP        425 37.96                             149   -0.0310 85.8  35 
 PAM  EN ES        425 55.86                             149   -0.3410 85.8  35 
 PAM  EZ I         425 57.92         5.0 0.38            150           85.8  35 
 PTB  HZ EP        425 41.76                             134   -0.19 9  146 263 
 PTB  HN ES        426  2.99                             134   -0.25 9  146 263 
 PTB  HZ I         426 10.35         6.5 0.35            132            146 263 
 ZAR  HZ EP        425 48.09                             123    0.18 8  208 295 
 ZAR  HN ES   3    426 12.06                             123   -1.79 2  208 295 
 ZAR  HZ I         426 20.18         7.8 0.33            122            208 295 
                                                                                
