 2012  8 3 0402 59.1 L   6.783 -73.131151.3  RSN  4 0.1 1.1LRSN                1
 GAP=238        0.39       5.2     4.2  5.5  0.8389E+01 -0.1514E+01 -0.9798E+01E
 Epicentro: LOS SANTOS - SANTANDER                                             3
 ACTION:UPD 12-09-10 11:54 OP:ep   STATUS:               ID:20120803040259 L   I
 2012-08-03-0400-00M.COL___215                                                 6
 STAT SP IPHASW D HRMM SECON CODA AMPLIT PERI AZIMU VELO AIN AR TRES W  DIS CAZ7
 BAR2 SZ EP   1    4 3 19.26                             171   -0.06 7 21.8 195 
 BAR2 SZ ES   1    4 3 35.03                             171   -0.10 7 21.8 195 
 BAR2 SZ I         4 3 37.02         3.9 0.36                          21.8 195 
 BRR  HZ EP   1    4 3 21.13                             153    0.20 7 73.5 299 
 BRR  HZ I         4 3 21.45         3.2 0.09                          73.5 299 
 RUS  HZ EP   1    4 3 23.06                             145   -0.16 7 98.6 177 
 RUS  HN ES   1    4 3 42.24                             145    0.18 7 98.6 177 
 RUS  HZ I         4 3 43.94         0.8 0.29                          98.6 177 
 PTB  HE ES   1    4 3 48.01                             133   -0.06 7  149 260 
 PTB  HZ I         4 3 49.41         1.7 0.17                           149 260 
                                                                                
