 2011  8 3 0429  3.6 L   7.247 -74.062 65.8  RSN 10 0.4 2.3LRSN                1
 GAP=133        0.71       3.6     4.0  7.1 -0.3759E+01  0.1053E+02 -0.2072E+00E
 Epicentro: PUERTO WILCHES - SANTANDER                                         3
 ACTION:UPD 12-07-25 14:05 OP:epov STATUS:               ID:20110803042903 L   I
 2011-08-03-0426-53S.COL___119                                                 6
 STAT SP IPHASW D HRMM SECON CODA AMPLIT PERI AZIMU VELO AIN AR TRES W  DIS CAZ7
 BRR  HZ IP     D  429 13.87                             144   -0.6410 41.6 112 
 BRR  HN ES   1    429 23.46                             144    0.47 7 41.6 112 
 BRR  HZ I         429 24.43       149.0 0.13                          41.6 112 
 BAR2 SZ EP        429 22.54                             111   -0.2710  121 127 
 BAR2 SZ ES   1    429 38.08                             111    0.31 7  121 127 
 BAR2 SZ I         429 39.51        96.3 0.46                           121 127 
 OCA  SZ EP   1    429 24.84                             108    0.32 7  137  37 
 OCA  SZ ES   2    429 40.63                             108   -0.18 5  137  37 
 PAM  SZ EP   1    429 26.86                             107    0.29 7  151  86 
 PAM  SE ES   2    429 44.79                             107    0.33 5  151  86 
 RUS  HZ EP   2    429 29.99                             103   -0.65 4  185 144 
 RUS  HE ES   2    429 51.45                             103   -0.25 4  185 144 
 RUS  HZ I         429 53.25        15.8 0.29                           185 144 
 HEL  HN ES   2    429 55.02                             102    0.35 4  200 234 
 NOR  SN ES   2    429 55.07                             101   -0.34 4  207 206 
 DBB  SZ EP   2    429 36.99                              99    0.33 4  239 264 
 CHI  HZ EP   1    429 44.03                              97    0.47 5  292 173 
 CHI  HE ES   2    430 15.32                              97    0.62 4  292 173 
 CHI  HZ I         430 24.56         6.8 0.68                           292 173 
 RREF HZ EP   1    429 44.47                              97    0.13 5  296 209 
                                                                                
