 2013  4 3 0233 56.2 L   6.806 -73.142143.7  RSN  9 0.5 1.8LRSN                1
 GAP=137        0.93       4.2     5.0  7.4 -0.1497E+01  0.8268E+01 -0.7513E+01E
 Epicentro: LOS SANTOS - SANTANDER                                             3
 ACTION:UPD 13-05-22 14:35 OP:EP   STATUS:               ID:20130403023356 L   I
 2013-04-03-0230-00M.COL___245                                                 6
 STAT SP IPHASW D HRMM SECON CODA AMPLIT PERI AZIMU VELO AIN AR TRES W  DIS CAZ7
 BAR2 SZ ES   1    234 30.42                             170   -0.35 7 24.1 191 
 BAR2 SZ I         234 31.28        16.6 0.30            169           24.1 191 
 BRR  HZ EP        234 17.64                             152    0.4710 71.2 298 
 BRR  HE ES   1    234 34.10                             152    0.60 7 71.2 298 
 PAM  SZ IP     C  234 18.68                             150    0.4910 76.6  40 
 PAM  SN ES   1    234 35.54                             150    0.23 7 76.6  40 
 PAM  SZ I         234 37.55        17.7 0.44            153           76.6  40 
 RUS  HZ EP   1    234 19.77                             143   -0.07 7  101 176 
 RUS  HN ES   1    234 37.79                             143   -0.45 7  101 176 
 RUS  HZ I         234 39.12         3.4 0.40            146            101 176 
 PTB  HZ EP   1    234 22.92                             131   -0.17 7  148 259 
 PTB  HN ES   1    234 43.32                             131   -0.71 7  148 259 
 PTB  HZ I         234 46.61         7.5 0.14            130            148 259 
 OCA  HZ EP   1    234 23.84                             129   -0.50 7  160 353 
 OCA  HE ES   1    234 45.39                             129   -0.86 7  160 353 
 OCA  HZ I         234 50.49         7.9 0.30            129            160 353 
 ZAR  HZ EP   1    234 28.94                             122    0.37 6  204 292 
 ZAR  HN ES   1    234 54.17                             122    0.39 6  204 292 
 ZAR  HZ I         235  2.44         7.4 0.28            121            204 292 
 NOR  HN ES   2    235  0.10                             118    0.33 4  235 234 
 NOR  HZ I         235  6.41         2.6 0.20            118            235 234 
 SML  HZ EP   1    234 32.14                             117   -0.57 6  243 335 
 SML  HN ES   1    235  1.10                             117   -0.05 6  243 335 
 SML  HZ I         235  6.95         7.5 0.26            117            243 335 
                                                                                
