 2017  5 3 0910 55.8 L   6.793 -73.149143.3  RSN  6 0.1 1.4LRSN                1
 GAP=136        0.31       1.5     1.7  4.9 -0.3642E+00  0.3814E+01 -0.4112E+00E
 Epicentro: LOS SANTOS - SANTANDER                                             3
 ACTION:UPD 17-06-16 13:32 OP:jn   STATUS:               ID:20170503091058 L   I
 OLDACT:UP  17-05-04 19:08 OP:nlst STATUS:               ID:20170503091058 L   3
 OLDACT:UP  17-05-03 18:57 OP:edw  STATUS:               ID:20170503090748     3
 OLDACT:UP  17-05-03 18:56 OP:edw  STATUS:               ID:20170503090748     3
 OLDACT:UP  17-05-03 18:55 OP:edw  STATUS:               ID:20170503090748     3
 OLDACT:REG 17-05-03 12:07 OP:edw  STATUS:               ID:20170503090748     3
 2017-05-03-0908-00M.COL___365                                                 6
 STAT SP IPHASW D HRMM SECON CODA AMPLIT PERI AZIMU VELO AIN AR TRES W  DIS CAZ7
 BRR  HN ES   1    911 32.85                             152   -0.08 7 71.2 299 
 PAM  EZ EP   1    911 17.68                             150   -0.08 7 78.2  39 
 PAM  EN ES        911 34.98                             150    0.0610 78.2  39 
 RUS  HZ EP   4    911 18.99                             143   -0.22 0 99.9 176 
 RUS  HN ES        911 37.49                             143   -0.0210 99.9 176 
 RUS  HZ I         911 38.43         3.0 0.36            142           99.9 176 
 PTB  HN ES        911 43.24                             131   -0.07 9  147 259 
 SPBC HN ES        911 46.08                             129    0.07 9  162 219 
 ZAR  HZ EP   4    911 30.97                             122    2.94 0  204 292 
 ZAR  HN ES        911 53.28                             122    0.07 9  204 292 
 ZAR  HZ I         911 59.19         2.6 0.28            118            204 292 
                                                                                
