 2015  2 3 0232 34.7 L   6.832 -73.152141.8  RSN 24 0.7 2.7LRSN                1
 GAP=108        1.78       3.7     5.1  7.5 -0.1239E+01  0.1133E+02  0.5374E+01E
 Epicentro: LOS SANTOS - SANTANDER                                             3
 ACTION:UPD 15-04-30 21:21 OP:nd   STATUS:               ID:20150203023234 L   I
 OLDACT:REG 15-02-03 13:29 OP:stll STATUS:               ID:20150203022744     3
 2015-02-03-0227-44M.COL___265                                                 6
 STAT SP IPHASW D HRMM SECON CODA AMPLIT PERI AZIMU VELO AIN AR TRES W  DIS CAZ7
 BAR2 EZ IP     C  232 54.31                             169    0.3510 26.7 187 
 BAR2 EZ I         232 54.37       145.1 0.40            168           26.7 187 
 BAR2 EZ ES        233  9.06                             169    0.1010 26.7 187 
 BRR  HZ IP     C  232 56.13                             153    0.8010 68.9 296 
 BRR  HN ES        233 11.49                             153    0.1010 68.9 296 
 BRR  HZ I         233 16.64       119.7 0.16            146           68.9 296 
 PAM  SZ EP     C  232 57.05                             151    0.6510 75.2  42 
 PAM  SZ I         232 57.39       124.5 0.24            150           75.2  42 
 PAM  SN ES        233 13.78                             151    0.4910 75.2  42 
 RUS  HZ EP        232 58.25                             142   -0.1110  104 176 
 RUS  HZ I         232 59.24        52.3 0.12            141            104 176 
 RUS  HN ES        233 16.67                             142   -0.1210  104 176 
 PTB  HZ EP        233  0.88                             131   -0.50 9  148 257 
 PTB  HN ES        233 21.74                             131   -0.43 9  148 257 
 PTB  HZ I         233 22.94        58.8 0.30            126            148 257 
 OCA  HZ EP        233  2.25                             129   -0.15 9  157 353 
 OCA  HN ES        233 23.75                             129   -0.23 9  157 353 
 OCA  HZ I         233 28.91        38.3 0.16            126            157 353 
 SPBC HZ EP        233  3.24                             128    0.09 9  165 218 
 SPBC HE ES        233 25.23                             128   -0.09 9  165 218 
 SPBC HZ I         233 31.10        75.0 0.34            125            165 218 
 ZAR  HZ EP        233  6.97                             122    0.25 9  202 291 
 ZAR  HN ES        233 32.10                             122    0.43 9  202 291 
 ZAR  HZ I         233 38.21        95.9 0.40            118            202 291 
 NOR  HZ EP        233 10.75                             117    0.35 8  236 234 
 NOR  HN ES        233 38.08                             117   -0.13 8  236 234 
 NOR  HZ I         233 43.42        36.7 0.22            114            236 234 
 SML  HZ EP        233 10.75                             117   -0.01 8  240 335 
 SML  HN ES        233 38.09                             117   -0.77 8  240 335 
 SML  HZ I         233 49.45        63.6 0.10            114            240 335 
 CHI  HZ EP        233 12.69                             116    0.12 8  252 195 
 CHI  HN ES        233 41.70                             116   -0.37 8  252 195 
 CHI  HZ I         233 47.09        16.8 0.22            114            252 195 
 ROSC BZ EP        233 14.18                             115    1.25 8  255 210 
 ROSC BN ES        233 43.03                             115    0.31 8  255 210 
 ROSC BZ I         233 48.16        34.4 0.50            113            255 210 
 HEL  HZ EP        233 15.33                             114    0.56 8  272 255 
 HEL  HN ES        233 45.74                             114   -0.25 8  272 255 
 HEL  HZ I         233 52.54        40.9 0.34            111            272 255 
 URE  HZ EP        233 15.15                             113   -0.24 7  282 291 
 URE  HN ES        233 44.45                             113   -2.66 7  282 291 
 URE  HZ I         233 49.87        37.5 0.16            110            282 291 
 GUY2CHZ EP        233 18.61                             111    0.28 7  303 234 
 GUY2CHN ES        233 52.58                             111    0.25 7  303 234 
 GUY2CHZ I         234  3.37        20.3 0.42                           303 234 
 PTGC HZ EP        233 17.44                             110   -1.38 7  312 159 
 PTGC HZ I         233 18.72        20.5 0.22            109            312 159 
 PTGC HN ES        233 50.43                             110   -2.77 7  312 159 
 RREF HZ EP        233 21.14                             110    0.23 7  324 229 
 RREF HN ES        233 57.10                             110    0.18 7  324 229 
 RREF HZ I         234  8.56        22.8 0.30            108            324 229 
 CBOC HZ EP        233 22.23                             109    0.69 7  334 251 
 CBOC HZ I         233 23.38        13.1 0.22            107            334 251 
 CBOC HE ES        233 58.10                             109    0.06 7  334 251 
 DBB  SZ EP        233 22.03                             109    0.09 7  339 274 
 DBB  SZ I         234 10.56        53.0 0.48            106            339 274 
 TOL  SZ EP        233 23.90                             108    0.83 6  345 224 
 TOL  SN ES        233 59.82                             108   -0.94 6  345 224 
 TOL  SZ I         234  8.65        23.0 0.42            106            345 224 
 ANIL HZ EP        233 24.98                             107    0.36 6  359 224 
 ANIL HN ES        234  3.67                             107    0.14 6  359 224 
 SDV  BZ IP   9 C  233 23.92                             108   -0.51 0  359  51 
 SDV  BZ I         233 24.41        13.5 0.20            106            359  51 
 SDV  BN ES        234  0.32                                   -2.36 6  359  51 
 ORTC HZ EP        233 29.29                             105    0.48 6  398 216 
 ORTC HN ES        234 11.69                             105    0.71 6  398 216 
 ORTC HZ I         234 16.92        14.9 0.32            104            398 216 
 CRJC HZ EP   9    233 34.78                             103   -1.94 0  464   4 
 CRJC HN ES        234 19.65                                   -3.47 5  464   4 
 CRJC HZ I         234 32.31         8.5 0.20            101            464   4 
                                                                                
