 2011  2 3 0253 43.3 L   5.873 -73.660136.7  RSN  4 0.4 1.2LRSN                1
 GAP=138        0.60       6.7     6.4 12.1 -0.1030E+02  0.2262E+02  0.2777E+02E
 Epicentro: PUENTE NACIONAL - SANTANDER                                        3
 ACTION:UP  11-03-28 15:05 OP:jfem STATUS:               ID:20110203025343 L   I
 2011-02-03-0249-34S.COL___135                                                 6
 STAT SP IPHASW D HRMM SECON CODA AMPLIT PERI AZIMU VELO SNR AR TRES W  DIS CAZ7
 RUS  HZ EP   2    254  3.98                             154     0.2 5   64  88 
 RUS  HE ES   2    254 19.29                             154    -0.4 5   64  88 
 RUS  HZ I         254 21.80         1.9 0.44                            64  88 
 BAR2 SZ ES   2    254 22.86                             143     0.2 5   95  34 
 BAR2 SZ I         254 23.81         7.8 0.46                            95  34 
 CHI  HZ EP   1    254  9.33                             132     0.2 7  138 183 
 CHI  HZ I         254 10.00         1.9 0.19                           138 183 
 CHI  HN ES   2    254 29.30                             132     0.0 5  138 183 
 NOR  SZ EP   2    254  8.02                             132    -0.7 5  139 256 
 NOR  SN ES   2    254 28.89                             132     0.3 5  139 256 
                                                                                
