 2012  1 3 0242 33.1 L   7.240 -73.113134.0  RSN  5 0.2 1.4LRSN                1
 GAP=158        0.40       4.6     3.4  5.1 -0.2665E+01  0.4033E+00  0.5439E+01E
 Epicentro: RIONEGRO - SANTANDER                                               3
 ACTION:UP  12-02-03 08:13 OP:REBC STATUS:               ID:20120103024233 L   I
 2012-01-03-0240-00M.COL___185                                                 6
 STAT SP IPHASW D HRMM SECON CODA AMPLIT PERI AZIMU VELO SNR AR TRES W  DIS CAZ7
 PAM  SZ EP        242 52.46                             160     0.010   47  76 
 PAM  SN ES   1    243  7.43                             160    -0.1 7   47  76 
 BRR  HZ EP        242 52.61                             152    -0.110   68 258 
 BRR  HE ES   1    243  8.26                             152     0.2 7   68 258 
 BRR  HZ I         243 10.07         6.4 0.54                            68 258 
 BAR2 SZ EP        242 53.45                             150     0.110   72 186 
 BAR2 SZ I         243 11.89         7.5 0.22                            72 186 
 RUS  HZ EP   3    243  0.24                             129     0.4 2  149 179 
 RUS  HZ I         243  0.34         1.5 0.13                           149 179 
 RUS  HN ES   2    243 20.50                             129    -0.3 5  149 179 
 ZAR  HN ES   3    243 27.37                             121    -0.4 2  195 278 
 ZAR  HZ I         243 32.52         3.9 0.26                           195 278 
                                                                                
