 2011  5 3 0927 22.3 L   6.792 -73.103144.2  RSN 13 0.3 2.8LRSN                1
 GAP=142        0.57       2.9     4.0  4.2 -0.5940E+01  0.3963E+00  0.4780E+01E
 Epicentro: LOS SANTOS - SANTANDER                                             3
 ACTION:UP  11-06-29 08:50 OP:tino STATUS:               ID:20110503092722 L   I
 2011-05-03-0924-28S.COL___133                                                 6
 STAT SP IPHASW D HRMM SECON CODA AMPLIT PERI AZIMU VELO SNR AR TRES W  DIS CAZ7
 BTL  SZ EP   1    927 42.07                             171     0.3 7   23 308 
 GIR2 SZ IP        927 41.85                             166     0.010   33 343 
 GIR2 SZ ES   1    927 56.69                             166    -0.4 7   33 343 
 PAM  SZ EP   1    927 44.39                             151     0.2 7   75  36 
 PAM  SN ES   1    928  1.37                             151     0.1 7   75  36 
 BRR  HZ IP     D  927 43.56                             151     0.010   76 297 
 BRR  HE ES   1    928  0.44                             151     0.3 7   76 297 
 BRR  HZ I         928  5.99       141.9 0.07                            76 297 
 RUS  HZ EP   1    927 45.80                             144     0.0 7   99 179 
 RUS  HN ES   2    928  4.10                             144    -0.1 5   99 179 
 RUS  HZ I         928  6.12        74.0 0.32                            99 179 
 BRI  SZ IP        927 46.09                             141     0.110  108  18 
 BRI  SZ ES   2    928  4.83                             141     0.4 5  108  18 
 BRI  SZ I         928  9.32        92.8 0.44                           108  18 
 GRA  SZ IP        927 47.33                             137     0.010  125  15 
 GRA  SZ ES   1    928  6.77                             137    -0.1 7  125  15 
 GRA  SZ I         928  7.94        97.9 0.36                           125  15 
 OCA  SZ EP   2    927 49.88                             129    -0.8 5  162 352 
 OCA  SZ ES   2    928 12.38                             129    -0.4 5  162 352 
 OCA  SZ I         928 16.85       100.1 0.40                           162 352 
 NOR  SZ EP   1    927 58.52                             118     0.2 6  238 235 
 NOR  SN ES   1    928 25.92                             118    -0.5 6  238 235 
 HEL  HZ EP   1    928  3.26                             114     0.3 6  276 256 
 HEL  HZ I         928 41.99        44.9 0.36                           276 256 
 VIL  SZ EP        928  5.16                             112    -0.5 7  303 192 
 VIL  SN ES   2    928 39.88                             112     0.4 4  303 192 
 VIL  SZ I         928 50.84        21.3 0.43                           303 192 
 RREF HZ EP   1    928  9.05                             110     0.3 5  325 230 
 RREF HN ES   2    928 44.93                             110     0.0 3  325 230 
 RREF HZ I         928 53.74        38.7 0.55                           325 230 
 PRA  HZ EP   1    928 16.03                             106     0.1 4  394 210 
 PRA  HN ES   2    928 58.13                             106     0.3 3  394 210 
                                                                                
