 2016  7 3 0848 47.4 L   6.800 -73.204134.0  RSN  6 0.2 1.4LRSN                1
 GAP=231        0.66       3.5     4.0  5.2  0.4611E+01  0.6813E+01 -0.2208E+01E
 Epicentro: ZAPATOCA - SANTANDER                                               3
 ACTION:UPD 17-03-29 16:46 OP:lp   STATUS:               ID:20160703084847 L   I
 OLDACT:REG 16-07-03 13:19 OP:edw  STATUS:               ID:20160703084746     3
 2016-07-03-0847-46M.COL___319                                                 6
 STAT SP IPHASW D HRMM SECON CODA AMPLIT PERI AZIMU VELO AIN AR TRES W  DIS CAZ7
 BAR2 EZ IP        849  5.39                             170   -0.2310 23.1 174 
 BAR2 EZ ES        849 20.22                             170    0.4010 23.1 174 
 BAR2 EZ I         849 21.67         6.0 0.24            170           23.1 174 
 BRR  HZ EP        849  7.08                             152    0.1110 65.6 301 
 BRR  HN ES        849 21.96                             152   -0.2710 65.6 301 
 BRR  HZ I         849 27.29         6.5 0.14            151           65.6 301 
 RUS  HE ES        849 27.58                             141   -0.1610  101 172 
 RUS  HZ I         849 29.32         5.0 0.22            145            101 172 
 PTB  HZ EP        849 12.54                             131   -0.31 9  141 258 
 PTB  HN ES        849 32.67                             131   -0.02 9  141 258 
 PTB  HZ I         849 35.08         2.0 0.12            131            141 258 
 SPBC HN ES        849 36.04                             127    0.16 9  159 217 
 SPBC HZ I         849 40.01         5.6 0.36            129            159 217 
 ZAR  HZ EP        849 18.89                             120    0.40 9  198 293 
 ZAR  HN ES        849 42.74                             120    0.01 9  198 293 
 ZAR  HZ I         849 49.73         3.6 0.22            122            198 293 
                                                                                
