 2017  9 3 0127 47.0 L   6.336 -73.560116.0  RSN  6 0.2 1.3LRSN                1
 GAP= 84        0.46       1.8     2.0  4.5 -0.1973E+00  0.3729E+01 -0.1017E+01E
 Epicentro: SANTA HELENA DEL OPON - SANTANDER                                  3
 ACTION:UPD 17-10-05 19:08 OP:rebc STATUS:               ID:20170903012747 L   I
 OLDACT:UP  17-09-03 14:14 OP:dani STATUS:               ID:20170903011742     3
 OLDACT:REG 17-09-03 13:08 OP:dani STATUS:               ID:20170903011742     3
 2017-09-03-0118-00M.COL___414                                                 6
 STAT SP IPHASW D HRMM SECON CODA AMPLIT PERI AZIMU VELO AIN AR TRES W  DIS CAZ7
 BAR2 EZ EP        128  4.40                             155    0.2610 50.4  56 
 BAR2 EZ ES        128 17.67                             155    0.1710 50.4  56 
 BAR2 EZ I         128 18.83        11.9 0.34            156           50.4  56 
 RUS  HZ EP        128  5.74                             146   -0.0610 72.0 133 
 RUS  HN ES        128 20.25                             146   -0.2010 72.0 133 
 RUS  HZ I         128 22.56         1.5 0.34            148           72.0 133 
 BRR  HZ EP        128  6.07                             140   -0.1210 86.9 349 
 BRR  HE ES        128 20.98                             140   -0.1610 86.9 349 
 BRR  HZ I         128 22.50         5.2 0.37            142           86.9 349 
 SPBC HN ES        128 22.59                             138    0.1310 94.6 217 
 NOR  HN ES        128 34.82                             120   -0.07 9  168 240 
 ZAR  HN ES        128 39.40                             117    0.06 9  192 312 
                                                                                
