 2010 12 3 0822 53.8 L   6.762 -72.934145.4  RSN  5 0.3 1.8LRSN                1
 GAP=247        0.75       7.0    13.6  9.5 -0.5526E+02  0.4451E+02 -0.1454E+02E
 Epicentro: CEPITA - SANTANDER                                                 3
 ACTION:UP  11-01-14 15:22 OP:pat  STATUS:               ID:20101203082253 L   I
 2010-12-03-0820-44S.COL___133                                                 6
 STAT SP IPHASW D HRMM SECON CODA AMPLIT PERI AZIMU VELO SNR AR TRES W  DIS CAZ7
 BAR2 SZ EP        823 14.05                             167     0.510   33 236 
 BAR2 SZ ES   2    823 28.50                             167    -0.6 5   33 236 
 BAR2 SZ I         823 30.33        16.1 0.17                            33 236 
 GIR2 SZ EP   3    823 13.77                             163    -0.1 2   45 321 
 GIR2 SZ ES   2    823 29.67                             163     0.2 5   45 321 
 BRR  HZ EP        823 16.00                             147    -0.310   94 294 
 BRR  HZ I         823 36.31        11.9 0.15                            94 294 
 OCA  SZ EP        823 22.69                             128    -0.2 9  169 345 
 OCA  SZ ES   2    823 46.03                             128     0.5 5  169 345 
 OCA  SZ I         823 50.06         5.9 0.21                           169 345 
 RREF HZ EP   2    823 41.75                             110     0.1 3  337 233 
 RREF HN ES   1    824 18.99                             110     0.0 5  337 233 
 RREF HZ I         824 24.97         3.0 0.26                           337 233 
                                                                                
