 2017  5 3 0005 37.8 L   6.700 -73.213150.6  RSN  4 0.3 1.2LRSN                1
 GAP=222        0.73       6.0     6.0  7.7  0.2418E+02 -0.1847E+01 -0.4352E+01E
 Epicentro: VILLANUEVA - SANTANDER                                             3
 ACTION:UPD 17-06-16 13:32 OP:jn   STATUS:               ID:20170503000538 L   I
 OLDACT:UP  17-05-04 19:07 OP:nlst STATUS:               ID:20170503000538 L   3
 OLDACT:UP  17-05-03 12:14 OP:edw  STATUS:               ID:20170502235958     3
 OLDACT:REG 17-05-03 11:19 OP:edw  STATUS:               ID:20170502235958     3
 2017-05-03-0000-15M.COL___371                                                 6
 STAT SP IPHASW D HRMM SECON CODA AMPLIT PERI AZIMU VELO AIN AR TRES W  DIS CAZ7
 BRR  HZ EP        0 5 59.61                             153    0.1810 71.2 309 
 BRR  HN ES        0 6 16.51                             153    0.1810 71.2 309 
 RUS  HZ EP        0 6  1.17                             148   -0.1210 90.4 171 
 RUS  HN ES        0 6 19.46                             148   -0.1910 90.4 171 
 RUS  HZ I         0 6 20.56         1.8 0.54            146           90.4 171 
 PTB  HZ EP   1    0 6  4.72                             135    0.40 7  139 263 
 PTB  HN ES        0 6 25.25                             135    0.21 9  139 263 
 PTB  HZ I         0 6 27.52         2.4 0.42            134            139 263 
 ZAR  HN ES        0 6 35.07                             124   -0.60 9  202 296 
                                                                                
