 2016  6 3 0048 26.2 L   6.709 -73.146139.2  RSN  5 0.4 1.4LRSN                1
 GAP=140        1.06       5.4     5.3  7.8 -0.2515E+01  0.5542E+01  0.9655E+00E
 Epicentro: VILLANUEVA - SANTANDER                                             3
 ACTION:UPD 16-07-21 22:14 OP:rebc STATUS:               ID:20160603004826 L   I
 OLDACT:REG 16-06-03 11:47 OP:edw  STATUS:               ID:20160603004743     3
 2016-06-03-0047-43M.COL___325                                                 6
 STAT SP IPHASW D HRMM SECON CODA AMPLIT PERI AZIMU VELO AIN AR TRES W  DIS CAZ7
 BAR2 EZ EP        048 45.07                             174    0.1710 13.5 197 
 BAR2 EZ ES        048 59.77                             174    0.3110 13.5 197 
 BAR2 EZ I         049  0.98         8.9 0.12                          13.5 197 
 BRR  HZ EP        048 47.27                             149    0.2810 76.5 305 
 BRR  HE ES        049  3.77                             149    0.5910 76.5 305 
 PAM  EZ EP     D  048 48.23                             147   -0.0310 85.4  35 
 PAM  EE ES        049  4.82                             147   -0.6210 85.4  35 
 PAM  EZ I         049  7.32         4.9 0.62                          85.4  35 
 RUS  HZ EP        048 48.93                             145    0.3210 90.5 176 
 RUS  HN ES        049  5.82                             145   -0.2510 90.5 176 
 RUS  HZ I         049  9.30         4.3 0.30                          90.5 176 
 PTB  HZ EP        048 52.31                             131   -0.20 9  146 263 
 PTB  HE ES        049 12.33                             131   -0.69 9  146 263 
 PTB  HZ I         049 15.12         3.2 0.24                           146 263 
                                                                                
