 2017 11 3 0841 14.9 L   6.790 -73.149139.6  RSN  6 0.7 1.2LRSN                1
 GAP=137        1.51       8.1     7.5 12.8  0.7096E+01  0.3766E+02  0.3130E+01E
 Epicentro: LOS SANTOS - SANTANDER                                             3
 ACTION:UPD 17-12-12 19:51 OP:rebc STATUS:               ID:20171103084114 L   I
 OLDACT:REG 17-11-03 13:36 OP:dnl  STATUS:               ID:20171103083741     3
 2017-11-03-0838-00M.COL___423                                                 6
 STAT SP IPHASW D HRMM SECON CODA AMPLIT PERI AZIMU VELO AIN AR TRES W  DIS CAZ7
 BAR2 EZ EP        841 34.20                             170    0.4210 22.2 189 
 BAR2 EZ ES        841 47.28                             170   -1.2110 22.2 189 
 BAR2 EZ I         841 50.05         4.1 0.66            177           22.2 189 
 BRR  HZ EP   3    841 33.76                             151   -1.65 2 71.4 299 
 BRR  HN ES        841 52.46                             151    1.0710 71.4 299 
 BRR  HZ I         841 56.21         7.1 0.86            151           71.4 299 
 PAM  EN EP   2    841 37.12                             149    0.57 5 78.5  39 
 PAM  EE ES        841 53.13                             149   -0.2910 78.5  39 
 PAM  EN I         842  7.92         3.5 0.42            144           78.5  39 
 RUS  HZ EP   2    841 38.42                             143    0.43 5 99.5 176 
 RUS  HN ES        841 56.56                             143    0.5810 99.5 176 
 RUS  HZ I         841 58.24         1.3 0.62            151           99.5 176 
 PTB  HZ EP        841 40.80                             130   -0.53 9  147 259 
 PTB  HE ES        842  1.77                             130   -0.16 9  147 259 
 PTB  HZ I         842  4.28         1.3 0.10            136            147 259 
 ZAR  HZ EP   2    841 46.29                             121   -0.68 4  204 292 
 ZAR  HN ES        842 11.99                             121    0.02 9  204 292 
 ZAR  HZ I         842 17.58         2.5 0.30            123            204 292 
                                                                                
