 2015 10 3 0729 16.8 L   6.828 -73.116143.8  RSN 21 0.6 2.4LRSN                1
 GAP= 72        1.24       2.9     3.9  5.4 -0.1831E+01  0.5925E+01  0.1859E+01E
 Epicentro: LOS SANTOS - SANTANDER                                             3
 ACTION:UPD 15-12-22 20:37 OP:cam  STATUS:               ID:20151003072916 L   I
 OLDACT:DUP 15-10-03 18:50 OP:stll STATUS:               ID:20151003072749d    3
 2015-10-03-0727-47M.COL___349                                                 6
 STAT SP IPHASW D HRMM SECON CODA AMPLIT PERI AZIMU VELO AIN AR TRES W  DIS CAZ7
 BAR2 EZ IP     D  729 36.34                             169    0.0610 27.1 196 
 BAR2 EZ ES        729 51.31                             169   -0.1610 27.1 196 
 BAR2 EZ I         729 52.61        41.6 0.12            167           27.1 196 
 BRR  HZ EP        729 38.14                             152    0.3110 72.7 295 
 BRR  HN ES        729 54.98                             152    0.7610 72.7 295 
 BRR  HZ I         729 59.09        22.6 0.14            149           72.7 295 
 PAM  EZ IP     D  729 39.23                             152    0.6910 72.9  39 
 PAM  EN ES        729 55.60                             152    0.1010 72.9  39 
 PAM  EZ I         729 58.24        31.7 0.54            155           72.9  39 
 RUS  HZ EP        729 40.25                             143   -0.3310  104 178 
 RUS  HN ES        729 58.91                             143   -0.2210  104 178 
 RUS  HZ I         729 59.93        21.6 0.30            145            104 178 
 PTB  HZ EP        729 43.28                             131   -0.68 9  152 258 
 PTB  HN ES        730  4.22                             131   -0.93 9  152 258 
 PTB  HZ I         730  8.72        20.9 0.18            130            152 258 
 TAM  HZ IP     D  729 44.57                             130    0.46 9  153 106 
 TAM  HZ I         729 44.69        28.0 0.20            135            153 106 
 OCA  HZ EP        729 44.45                             130   -0.26 9  158 352 
 OCA  HN ES        730  6.41                             130   -0.06 9  158 352 
 OCA  HZ I         730 10.41        61.5 0.22            131            158 352 
 SPBC HZ EP        729 45.21                             128   -0.37 9  168 219 
 SPBC HN ES        730  7.35                             128   -0.68 9  168 219 
 SPBC HZ I         730 13.62        28.9 0.16            128            168 219 
 ZAR  HZ EP        729 48.97                             122   -0.35 8  206 291 
 ZAR  HN ES        730 15.35                             122    0.67 8  206 291 
 ZAR  HZ I         730 20.29        14.1 0.56            122            206 291 
 SML  HZ EP        729 52.74                             117   -0.42 8  242 334 
 SML  HE ES        730 21.37                             117   -0.15 8  242 334 
 SML  HZ I         730 25.34        19.1 0.10            118            242 334 
 CHI  HZ EP        729 54.41                             116   -0.41 8  253 196 
 CHI  HZ I         729 55.20         6.7 0.12            118            253 196 
 CHI  HN ES        730 23.65                             116   -0.82 8  253 196 
 ROSC BZ EP        729 56.06                             116    0.76 8  257 211 
 ROSC BE ES        730 25.68                             116    0.36 8  257 211 
 ROSC BZ I         730 28.35        18.7 0.40            117            257 211 
 HEL  HZ EP        729 57.55                             114    0.19 7  276 255 
 HEL  HN ES        730 28.79                             114   -0.20 7  276 255 
 HEL  HZ I         730 35.24        14.5 0.50            114            276 255 
 URE  HZ EP        729 57.10                             113   -0.89 7  286 291 
 URE  HN ES   4    730 28.64                             113   -1.48 0  286 291 
 URE  HZ I         730 37.73        12.1 0.24            113            286 291 
 GUY2CHZ EP        730  1.13                             112    0.30 7  306 235 
 GUY2CHN ES        730 35.85                             112    0.68 7  306 235 
 GUY2CHZ I         730 42.59        10.5 0.28                           306 235 
 PTGC HZ EP   4    729 59.32                             111   -1.45 0  310 159 
 PTGC HZ I         729 59.78        12.8 0.24            113            310 159 
 PTGC HN ES   4    730 32.03                             111   -3.04 0  310 159 
 ELA  HZ EP        730  5.18                             110    1.09 7  334 229 
 ELA  HN ES        730 41.95                             110    0.97 7  334 229 
 ELA  HZ I         730 47.65         7.8 0.28            110            334 229 
 CBOC HZ EP        730  4.42                             109    0.31 7  338 252 
 CBOC HN ES   4    730 39.21                             109   -1.79 0  338 252 
 CBOC HZ I         730 46.36         5.6 0.80            110            338 252 
 DBB  SZ EP        730  3.64                             109   -0.91 7  343 274 
 DBB  SZ ES   4    730 38.15                             109   -3.64 0  343 274 
 DBB  SZ I         730 47.65        23.8 0.52            110            343 274 
 ANIL HZ EP        730  7.56                             108    0.50 6  362 225 
 ANIL HN ES        730 46.87                             108    0.61 6  362 225 
 ANIL HZ I         730 54.00        20.1 0.30            109            362 225 
 ORTC HZ EP        730 10.53                             106   -0.65 6  400 216 
 ORTC HN ES        730 54.26                             106    0.67 6  400 216 
 ORTC HZ I         731  0.87         5.2 0.44            107            400 216 
                                                                                
