 2016  9 3 0024 59.5 L   6.781 -73.168141.4  RSN  5 0.1 1.4LRSN                1
 GAP=135        0.38       2.2     2.2  3.2 -0.1293E+01  0.2232E+01 -0.1090E+01E
 Epicentro: LOS SANTOS - SANTANDER                                             3
 ACTION:UPD 17-08-17 21:05 OP:lp   STATUS:               ID:20160903002459 L   I
 OLDACT:UP  16-09-03 13:27 OP:drio STATUS:               ID:20160903001733     3
 OLDACT:REG 16-09-03 12:35 OP:drio STATUS:               ID:20160903001733     3
 2016-09-03-0018-00M.COL___356                                                 6
 STAT SP IPHASW D HRMM SECON CODA AMPLIT PERI AZIMU VELO AIN AR TRES W  DIS CAZ7
 BAR2 EZ EP        025 18.31                             171   -0.2810 20.9 184 
 BAR2 EZ ES        025 33.52                             171    0.0610 20.9 184 
 BAR2 EZ I         025 35.25         5.5 0.32            172           20.9 184 
 BRR  HZ EP        025 20.20                             152    0.0510 70.1 301 
 BRR  HN ES   4    025 40.02                             152    3.79 0 70.1 301 
 PAM  EZ EP        025 21.56                             149    0.0810 80.6  40 
 PAM  EN ES        025 38.59                             149   -0.0110 80.6  40 
 PAM  EZ I         025 39.87         5.9 0.18            152           80.6  40 
 RUS  HZ EP        025 22.71                             143   -0.0110 98.7 175 
 RUS  HN ES        025 40.86                             143    0.0610 98.7 175 
 RUS  HZ I         025 42.15         2.5 0.30            146           98.7 175 
 PTB  HZ EP        025 26.03                             132    0.14 9  145 259 
 PTB  HE ES        025 46.38                             132   -0.07 9  145 259 
 PTB  HZ I         025 49.62         3.3 0.16            133            145 259 
                                                                                
