 2011  1 3 0533 18.4 L   6.809 -73.132139.7  RSN  7 0.5 1.6LRSN                1
 GAP=160        1.07       4.4    12.1 10.2 -0.1858E+02  0.5016E+02 -0.6979E+01E
 Epicentro: LOS SANTOS - SANTANDER                                             3
 ACTION:UP  11-02-08 08:38 OP:pat  STATUS:               ID:20110103053318 L   I
 2011-01-03-0528-33S.COL___135                                                 6
 STAT SP IPHASW D HRMM SECON CODA AMPLIT PERI AZIMU VELO SNR AR TRES W  DIS CAZ7
 BAR2 SZ EP   1    533 37.15                             170    -0.2 8   25 193 
 BAR2 SZ ES   1    533 52.39                             170     0.3 8   25 193 
 BAR2 SZ I         533 53.64         9.1 0.27                            25 193 
 RUS  HZ EP   1    533 41.57                             142     0.0 8  101 177 
 RUS  HN ES   1    533 59.34                             142    -0.4 8  101 177 
 RUS  HZ I         534  1.77         4.1 0.34                           101 177 
 GRA  SZ EP   1    533 43.97                             136     1.0 8  124  17 
 GRA  SZ ES   1    534  2.64                             136     0.5 8  124  17 
 GRA  SZ I         534  4.57         6.0 0.38                           124  17 
 OCA  SZ EP        533 45.72                             128    -0.410  159 353 
 OCA  SZ ES   1    534  7.12                             128    -0.7 7  159 353 
 OCA  SZ I         534 12.66         5.5 0.33                           159 353 
 CHI  HZ EP   1    533 55.67                             116    -0.2 6  250 195 
 CHI  HE ES   1    534 25.36                             116     0.2 6  250 195 
 CHI  HZ I         534 31.06         1.7 0.64                           250 195 
 HEL  HZ EP   2    533 58.99                             113     0.5 4  274 256 
 HEL  HE ES   2    534 29.73                             113     0.0 4  274 256 
 HEL  HZ I         534 36.30         3.0 0.56                           274 256 
 RREF HZ EP   2    534  5.17                             110     0.7 4  324 229 
 RREF HZ I         534 13.68         2.3 0.45                           324 229 
                                                                                
