 2014  1 3 0610 28.8 L   6.756 -73.140140.7  RSN  6 0.3 1.4LRSN                1
 GAP=139        0.88       3.7     4.5  5.9 -0.1616E+01  0.2950E+01  0.5730E+01E
 Epicentro: LOS SANTOS - SANTANDER                                             3
 ACTION:UPD 14-03-13 09:50 OP:ep   STATUS:               ID:20140103061028 L   I
 OLDACT:REG 14-01-03 09:10 OP:stll STATUS:               ID:20140103060815     3
 2014-01-03-0608-15M.COL___240                                                 6
 STAT SP IPHASW D HRMM SECON CODA AMPLIT PERI AZIMU VELO AIN AR TRES W  DIS CAZ7
 BAR2 SZ EP        610 47.70                             172   -0.0010 18.7 195 
 BAR2 SZ ES        611  2.54                             172    0.0710 18.7 195 
 BAR2 SZ I         611  3.92         8.8 0.26            171           18.7 195 
 BRR  HZ EP        610 49.60                             151    0.0510 74.2 302 
 BRR  HN ES        611  6.23                             151    0.4810 74.2 302 
 BRR  HZ I         611 10.90         4.5 0.34            151           74.2 302 
 PAM  SZ EP        610 50.58                             149   -0.0810 80.8  37 
 PAM  SZ I         610 50.93         4.9 0.20            152           80.8  37 
 PAM  SN ES        611  7.75                             149    0.0210 80.8  37 
 RUS  HZ EP        610 51.74                             144    0.0710 95.7 176 
 RUS  HN ES        611  8.99                             144   -0.5410 95.7 176 
 RUS  HZ I         611 11.50         2.1 0.26            146           95.7 176 
 PTB  HZ EP        610 54.69                             131   -0.62 9  148 261 
 PTB  HN ES        611 15.78                             131   -0.22 9  148 261 
 PTB  HZ I         611 17.43         3.6 0.40            132            148 261 
 CHI  HZ EP        611  6.16                             116    0.47 8  244 196 
 CHI  HN ES        611 35.07                             116    0.57 8  244 196 
 CHI  HZ I         611 37.40         1.8 0.38            118            244 196 
                                                                                
