 2016  5 3 0358  1.6 L   6.824 -73.142149.2  RSN  5 0.4 1.2LRSN                1
 GAP=143        0.86       6.3     5.8  8.2 -0.4520E+01  0.1454E+02 -0.6507E+01E
 Epicentro: LOS SANTOS - SANTANDER                                             3
 ACTION:UPD 16-08-18 17:41 OP:cam  STATUS:               ID:20160503034749 L   I
 OLDACT:UPD 16-05-15 07:30 OP:ar   STATUS:               ID:20160503034749 L   3
 2016-05-03-0347-49M.COL___306                                                 6
 STAT SP IPHASW D HRMM SECON CODA AMPLIT PERI AZIMU VELO AIN AR TRES W  DIS CAZ7
 BAR2 EZ ES   1    358 37.57                             170    0.20 8 26.0 190 
 PAM  EZ EP   2    358 24.64                             152    0.59 5 75.1  41 
 PAM  EN ES   2    358 41.78                             152    0.22 5 75.1  41 
 PAM  EZ I         358 43.71         2.3 0.20            157           75.1  41 
 RUS  HZ EP   1    358 25.71                             144   -0.16 7  103 176 
 RUS  HE ES        358 44.35                             144   -0.4510  103 176 
 RUS  HZ I         358 45.35         1.3 0.36            148            103 176 
 RUS  HZ E         358 54.03                                            103 176 
 PTB  HZ EP        358 28.72                             132   -0.21 9  149 258 
 PTB  HN ES        358 49.91                             132   -0.33 9  149 258 
 PTB  HZ I         358 57.24         2.2 0.26            133            149 258 
 SPBC HZ EP        358 30.69                             129    0.11 9  165 219 
 SPBC HE ES        358 53.89                             129    0.72 9  165 219 
 SPBC HZ I         359  0.52         2.9 0.16            131            165 219 
                                                                                
