 2013  3 3 0142 24.5 L   6.823 -73.159142.7  RSN 16 0.5 2.7LRSN 3.1WRSN        1
 SPEC AVERAGE  MO 13.8 ST  3.3 OM  2.1 f0 3.13 R0.4957 AL 2.24 WI 26.3 MW  3.1 3
 SPEC SD       MO  0.1 ST  3.4 OM  0.4 f00.776 R0.1054 AL      WI      MW  0.1 3
 GAP= 70        1.15       2.8     3.6  5.7 -0.2130E+01  0.5803E+01 -0.8599E+00E
 Epicentro: LOS SANTOS - SANTANDER                                             3
 SPEC PRA HH E MO 13.6 ST  2.5 OM  1.6 f0 3.51 R0.4188 AL 1.57 WI 13.0 MW  3.0 3
 SPEC PRA HH E T 14359 K 0.000 GD  419 VS 4.20 DE 3.20 Q0300.0 QA 0.60 VS 4.20 3
 SPEC RREFHH Z MO 13.7 ST  3.4 OM  1.8 f0 3.54 R0.4153 AL 2.88 WI 29.5 MW  3.1 3
 SPEC RREFHH Z T 14347 K 0.000 GD  352 VS 4.20 DE 3.20 Q0300.0 QA 0.60 VS 4.20 3
 SPEC ROSCBH Z MO 14.0 ST  2.1 OM  1.4 f0 2.41 R0.6100 AL 1.94 WI 29.3 MW  3.3 3
 SPEC ROSCBH Z T 143 3 K 0.000 GD  291 VP 7.60 DE 3.20 Q0300.0 QA 0.60 VS 4.20 3
 SPEC PTB HH E MO 13.8 ST  2.3 OM  2.1 f0 2.95 R0.4983 AL 1.36 WI 25.8 MW  3.1 3
 SPEC PTB HH E T 14311 K 0.000 GD  204 VS 4.20 DE 3.20 Q0300.0 QA 0.60 VS 4.20 3
 SPEC RUS HH N MO 13.6 ST  1.5 OM  2.0 f0 2.93 R0.5017 AL 2.44 WI 24.2 MW  3.0 3
 SPEC RUS HH N T 143 5 K 0.000 GD  175 VS 4.20 DE 3.20 Q0300.0 QA 0.60 VS 4.20 3
 SPEC HEL HH N MO 13.7 ST  1.1 OM  1.8 f0 2.52 R0.5833 AL 1.51 WI 37.1 MW  3.1 3
 SPEC HEL HH N T 14336 K 0.000 GD  306 VS 4.20 DE 3.20 Q0300.0 QA 0.60 VS 4.20 3
 SPEC PAM SH N MO 13.9 ST  1.4 OM  2.3 f0 2.32 R0.6336 AL 2.54 WI 19.8 MW  3.2 3
 SPEC PAM SH N T 143 2 K 0.000 GD  161 VS 4.20 DE 3.20 Q0300.0 QA 0.60 VS 4.20 3
 SPEC BRR HH N MO 13.9 ST 12.2 OM  2.3 f0 4.83 R0.3043 AL 3.70 WI 31.7 MW  3.2 3
 SPEC BRR HH N T 143 2 K 0.000 GD  158 VS 4.20 DE 3.20 Q0300.0 QA 0.60 VS 4.20 3
 ACTION:UPD 13-04-09 13:59 OP:ep   STATUS:               ID:20130303014224 L   I
 2013-03-03-0138-41M.COL___193                                                 6
 STAT SP IPHASW D HRMM SECON CODA AMPLIT PERI AZIMU VELO AIN AR TRES W  DIS CAZ7
 BAR2 SZ IP        142 43.98                             169    0.1910 25.7 186 
 BAR2 SZ I         142 44.15       128.4 0.20            168           25.7 186 
 BAR2 SZ ES        142 59.00                             169    0.1410 25.7 186 
 BRR  HZ IP     C  142 45.86                             153    0.7110 68.7 297 
 BRR  HZ I         142 46.13        85.7 0.26            151           68.7 297 
 BRR  HN ES   4    143  3.37                             153    2.09 0 68.7 297 
 PAM  SZ IP     C  142 46.79                             151    0.4810 76.4  42 
 PAM  SZ I         142 47.00        96.3 0.20            154           76.4  42 
 PAM  SN ES        143  3.62                             151    0.2810 76.4  42 
 RUS  HZ IP     C  142 47.84                             142   -0.2910  103 175 
 RUS  HN ES        143  6.16                             142   -0.4210  103 175 
 RUS  HE I         143  7.68        88.3 0.46            143            103 175 
 PTB  HZ EP        142 50.51                             131   -0.60 9  147 258 
 PTB  HN ES        143 11.27                             131   -0.61 9  147 258 
 PTB  HE I         143 17.92        89.1 0.20            131            147 258 
 TAM  HZ IP     C  142 52.14                             129    0.03 9  157 106 
 TAM  HZ I         142 52.29        95.1 0.34            133            157 106 
 TAM  HN ES        143 13.56                             129   -0.11 9  157 106 
 OCA  HZ EP        142 52.46                             129    0.17 9  158 354 
 OCA  HE ES        143 13.64                             129   -0.35 9  158 354 
 OCA  HN I         143 17.96       209.4 0.32            131            158 354 
 ZAR  HZ EP   2    142 56.55                             122    0.07 4  202 292 
 SML  HZ EP        143  0.37                             117   -0.24 8  241 335 
 SML  HN ES   1    143 29.64                             117    0.85 6  241 335 
 CHI  HZ EP        143  2.13                             116   -0.11 8  251 195 
 CHI  HE ES        143 31.31                             116   -0.38 8  251 195 
 CHI  HN I         143 36.86        22.5 0.24            117            251 195 
 ROSC BZ EP        143  3.75                             116    1.16 8  254 210 
 ROSC BE ES        143 32.84                             116    0.52 8  254 210 
 ROSC BZ I         143 38.95        22.9 0.55            116            254 210 
 HEL  HZ EP        143  5.22                             114    0.78 8  271 255 
 HEL  HE ES        143 35.31                             114   -0.31 8  271 255 
 HEL  HN I         143 43.60        21.5 0.30            114            271 255 
 RREF HZ EP        143 11.43                             110    0.88 7  322 229 
 RREF HE ES        143 46.20                             110   -0.29 7  322 229 
 COD  HZ EP        143 11.69                             108   -0.73 6  346 355 
 COD  HN ES        143 49.19                             108   -0.62 6  346 355 
 COD  HN I         143 52.90         9.9 0.28            109            346 355 
 SDV  BZ EP        143 13.39                             108   -0.95 6  360  51 
 PRA  HZ EP        143 17.46                             106   -0.61 6  394 209 
 PRA  HN ES   1    143 59.19                             106   -0.68 4  394 209 
 PRA  HE I         144  4.00        11.5 0.50            106            394 209 
                                                                                
