 2013  8 3 0041 58.3 L   6.820 -73.130149.2  RSN 12 0.4 2.1LRSN                1
 GAP=185        0.83       3.0     4.9  5.3 -0.1936E+01  0.8155E+01  0.4701E+00E
 Epicentro: LOS SANTOS - SANTANDER                                             3
 ACTION:UPD 14-01-14 08:58 OP:ep   STATUS:               ID:20130803004158 L   I
 OLDACT:REG 13-08-03 07:36 OP:carl STATUS:               ID:20130803003959     3
 2013-08-03-0039-59M.COL___270                                                 6
 STAT SP IPHASW D HRMM SECON CODA AMPLIT PERI AZIMU VELO AIN AR TRES W  DIS CAZ7
 BAR2 SZ EP   1    042 18.44                             170    0.02 8 25.8 193 
 BAR2 SZ ES   1    042 33.83                             170   -0.27 8 25.8 193 
 BAR2 SZ I         042 36.21        15.8 0.40            169           25.8 193 
 GIR2 SZ EP   1    042 18.48                             168    0.11 8 29.5 346 
 GIR2 SZ ES   1    042 34.30                             168    0.31 8 29.5 346 
 GIR2 SZ I         042 36.88         9.0 0.26            166           29.5 346 
 BRR  HZ EP   1    042 20.32                             153    0.44 8 71.7 296 
 BRR  HN ES   1    042 37.52                             153    0.83 8 71.7 296 
 BRR  HN I         042 38.06        31.8 0.30            150           71.7 296 
 RUS  HZ EP   1    042 22.73                             144    0.16 8  103 177 
 RUS  HN ES   1    042 41.45                             144   -0.02 8  103 177 
 RUS  HN I         042 42.63        31.6 0.38            146            103 177 
 PTB  HZ EP        042 25.14                             132   -0.6310  150 258 
 PTB  HN ES   1    042 46.49                             132   -0.68 7  150 258 
 PTB  HZ I         042 48.45        14.4 0.36            132            150 258 
 OCA  HE ES   1    042 48.51                             131   -0.37 7  158 352 
 OCA  HE I         042 52.69        45.3 0.22            132            158 352 
 SPBC HZ EP        042 27.39                             129    0.0410  166 219 
 SPBC HN ES   1    042 49.41                             129   -0.58 7  166 219 
 SPBC HZ I         042 55.09        14.2 0.28            130            166 219 
 ZAR  HZ EP   1    042 31.46                             123    0.38 7  205 291 
 ZAR  HN ES   1    042 56.81                             123    0.18 7  205 291 
 ZAR  HZ I         043  3.42         9.7 0.46            123            205 291 
 NOR  HZ EP   1    042 34.07                             119   -0.47 6  237 234 
 NOR  HE ES   1    043  2.51                             119   -0.28 6  237 234 
 NOR  HZ I         043  6.03         9.5 0.16            120            237 234 
 SML  HZ EP        042 35.02                             118    0.00 9  242 335 
 SML  HN ES   1    043  3.15                             118   -0.48 6  242 335 
 SML  HZ I         043  9.07        15.0 0.10            119            242 335 
 GUY2CHZ EP   1    042 42.80                             113    0.40 6  304 235 
 GUY2CHN ES   1    043 17.63                             113    0.86 6  304 235 
 GUY2CHN I         043 23.96         6.4 0.52                           304 235 
 RREF HZ EP   1    042 45.53                             111    0.60 5  324 229 
 RREF HN ES   1    043 21.67                             111    0.39 5  324 229 
 RREF HZ I         043 29.36         5.7 0.22            112            324 229 
                                                                                
