 2015  3 3 0932  6.9 L   6.809 -73.145145.6  RSN 21 0.5 2.3LRSN                1
 GAP= 71        1.03       2.5     3.0  4.8 -0.7623E+00  0.3267E+01  0.2299E+01E
 Epicentro: LOS SANTOS - SANTANDER                                             3
 ACTION:UPD 15-04-30 16:22 OP:nd   STATUS:               ID:20150303093206 L   I
 OLDACT:REG 15-03-03 13:13 OP:spq  STATUS:               ID:20150303092747     3
 2015-03-03-0927-47M.COL___287                                                 6
 STAT SP IPHASW D HRMM SECON CODA AMPLIT PERI AZIMU VELO AIN AR TRES W  DIS CAZ7
 BAR2 EZ EP        932 26.31                             170   -0.2110 24.3 190 
 BAR2 EZ ES   1    932 41.71                             170   -0.12 7 24.3 190 
 BAR2 EZ I         932 44.17        48.5 0.26            170           24.3 190 
 BRR  HZ EP     C  932 28.17                             153    0.1710 70.8 298 
 BRR  HN ES        932 45.23                             153    0.7710 70.8 298 
 BRR  HZ I         932 49.18        33.6 0.28            151           70.8 298 
 PAM  SZ EP     C  932 29.18                             151    0.1410 76.6  40 
 PAM  SN ES        932 46.33                             151    0.0110 76.6  40 
 PAM  SZ I         932 49.58        19.0 0.48            154           76.6  40 
 RUS  HZ EP        932 30.26                             143   -0.4410  102 176 
 RUS  HN ES        932 49.10                             143   -0.1610  102 176 
 RUS  HZ I         932 50.45        19.0 0.26            145            102 176 
 PTB  HZ EP        932 33.14                             132   -0.72 9  148 258 
 PTB  HE ES        932 54.99                             132    0.09 9  148 258 
 PTB  HZ I         932 56.72        16.0 0.14            132            148 258 
 TAM  HZ EP     C  932 34.80                             130    0.22 9  155 105 
 TAM  HE ES        932 56.45                             130    0.28 9  155 105 
 TAM  HZ I         932 57.87         9.1 0.50            134            155 105 
 OCA  HZ EP        932 34.51                             130   -0.59 9  159 353 
 OCA  HN ES        932 57.21                             130    0.11 9  159 353 
 OCA  HZ I         933  4.81        17.4 0.28            131            159 353 
 SPBC HZ EP        932 35.27                             129   -0.18 9  164 219 
 SPBC HN ES        932 57.23                             129   -0.49 9  164 219 
 SPBC HZ I         933  1.59        25.1 0.12            130            164 219 
 ZAR  HZ EP        932 39.88                             122    0.59 9  204 292 
 ZAR  HE ES        933  4.49                             122   -0.07 9  204 292 
 ZAR  HZ I         933  9.59        24.1 0.24            123            204 292 
 NOR  HZ EP        932 42.66                             118   -0.01 8  235 234 
 NOR  HN ES        933 10.14                             118   -0.44 8  235 234 
 NOR  HZ I         933 17.15        13.2 0.20            119            235 234 
 SML  HZ EP        932 42.60                             117   -0.81 8  243 335 
 SML  HE ES   1    933 11.65                             117   -0.25 6  243 335 
 SML  HZ I         933 14.72        19.0 0.10            118            243 335 
 CHI  HZ EP        932 44.43                             117   -0.25 8  250 195 
 CHI  HN ES        933 13.99                             117   -0.17 8  250 195 
 CHI  HZ I         933 17.72         9.1 0.72            118            250 195 
 ROSC BZ EP        932 45.99                             117    0.90 8  254 211 
 ROSC BE ES   4    933 14.77                             117   -0.12 0  254 211 
 ROSC BZ I         933 20.95        26.4 0.45            118            254 211 
 GUY2CHZ EP        932 51.03                             112    0.47 7  302 235 
 GUY2CHN ES   1    933 23.83                             112   -0.79 5  302 235 
 GUY2CHZ I         933 32.75         9.5 0.62                           302 235 
 PTGC HZ EP   4 C  932 49.63                             111   -1.21 0  310 159 
 PTGC HN ES   4    933 23.43                             111   -1.69 0  310 159 
 PTGC HZ I         933 25.90        13.7 0.42            113            310 159 
 RREF HZ EP   1    932 53.91                             111    0.81 5  322 229 
 RREF HE ES   4    933 31.93                             111    2.79 0  322 229 
 RREF HZ I         933 33.67         9.2 0.22            112            322 229 
 CBOC HZ EP        932 54.65                             110    0.81 7  334 252 
 TOL  SZ EP        932 55.72                             109    0.50 7  344 225 
 TOL  SE ES   4    933 34.47                             109    1.55 0  344 225 
 TOL  SZ I         933 42.77         6.9 0.30            110            344 225 
 MON  HZ EP   4    932 53.47                             109   -2.35 0  353 308 
 MON  HN ES   4    933 32.07                             109   -1.91 0  353 308 
 MON  HZ I         933 47.26         4.5 0.44            109            353 308 
 PRA  HZ EP        933  0.17                             106   -0.34 6  393 210 
 PRA  HN ES   1    933 43.13                             106    0.81 4  393 210 
 PRA  HZ I         933 48.57        10.7 0.54            108            393 210 
 ORTC HZ EP        933  0.81                             106   -0.09 6  396 216 
 ORTC HN ES        933 43.92                             106    0.90 6  396 216 
 ORTC HZ I         933 47.78         4.8 0.22            107            396 216 
                                                                                
