 2013 10 3 0426 12.9 L   6.775 -73.161144.4  RSN  5 0.4 1.7LRSN                1
 GAP=136        0.99       5.3     5.0  8.6 -0.2768E+01  0.2966E+01  0.6685E+01E
 Epicentro: LOS SANTOS - SANTANDER                                             3
 ACTION:UPD 13-11-25 09:18 OP:ep   STATUS:               ID:20131003042612 L   I
 OLDACT:REG 13-10-03 05:39 OP:nd   STATUS:               ID:20131003041959     3
 2013-10-03-0419-59M.COL___273                                                 6
 STAT SP IPHASW D HRMM SECON CODA AMPLIT PERI AZIMU VELO AIN AR TRES W  DIS CAZ7
 BAR2 SZ EP        426 32.28                             172   -0.0110 20.3 187 
 BAR2 SZ I         426 49.41        13.4 0.32            170           20.3 187 
 BRR  HZ EP        426 34.15                             152    0.2710 71.2 301 
 BRR  HN ES        426 50.88                             152    0.6210 71.2 301 
 BRR  HZ I         426 52.09        10.4 0.42            152           71.2 301 
 PAM  SZ EP        426 35.23                             149    0.0910 80.6  39 
 PAM  SN ES        426 51.99                             149   -0.5210 80.6  39 
 PAM  SZ I         426 54.46        12.8 0.44            147           80.6  39 
 RUS  HZ EP        426 36.67                             144    0.3710 97.9 175 
 RUS  HN ES        426 54.52                             144   -0.0610 97.9 175 
 RUS  HZ I         426 56.20         6.9 0.30            141           97.9 175 
 PTB  HZ EP        426 39.13                             132   -0.41 9  146 260 
 PTB  HN ES        426 59.87                             132   -0.47 9  146 260 
 PTB  HZ I         427  2.66         3.9 0.10            131            146 260 
                                                                                
