 2011  7 3 0135 43.9 L   5.873 -73.653123.3  RSN  4 0.1 1.2LRSN                1
 GAP=168        0.30       3.6     3.1  6.2 -0.4103E+01  0.6982E+01 -0.6064E+01E
 Epicentro: PUENTE NACIONAL - SANTANDER                                        3
 ACTION:UPD 12-07-25 13:57 OP:epov STATUS:               ID:20110703013543 L   I
 2011-07-03-0120-00M.COL___124                                                 6
 STAT SP IPHASW D HRMM SECON CODA AMPLIT PERI AZIMU VELO AIN AR TRES W  DIS CAZ7
 RUS  HZ EP   2    136  2.77                             151   -0.15 5 63.1  88 
 RUS  HN ES   2    136 17.80                             151    0.08 5 63.1  88 
 RUS  HZ I         136 18.62         1.2 0.30                          63.1  88 
 BRR  HZ EP   2    136  8.03                             129   -0.05 5  137 357 
 BRR  HZ I         136  9.28         6.7 0.47                           137 357 
 BRR  HN ES   2    136 26.91                             129    0.01 5  137 357 
 NOR  SZ EP   2    136  8.54                             128    0.16 5  139 256 
 NOR  SE ES   2    136 27.36                             128   -0.08 5  139 256 
 GIR2 SZ EP   2    136  8.89                             127    0.04 5  143  21 
                                                                                
