 2011 12 3 0727 11.0 L   6.705 -73.214132.1  RSN  4 0.2 1.4LRSN                1
 GAP=161        0.39       5.2     9.3  9.7  0.3027E+02 -0.2653E+02  0.4003E+01E
 Epicentro: VILLANUEVA - SANTANDER                                             3
 ACTION:UPD 12-07-13 16:13 OP:ep   STATUS:               ID:20111203072711 L   I
 2011-12-03-0720-00M.COL___182                                                 6
 STAT SP IPHASW D HRMM SECON CODA AMPLIT PERI AZIMU VELO AIN AR TRES W  DIS CAZ7
 BAR2 SZ EP        727 28.87                             174    0.0910 12.9 165 
 GIR2 SZ EP        727 29.27                             162   -0.1010 41.4   3 
 BRR  HZ EP        727 30.55                             150   -0.0910 70.8 309 
 BRR  HZ I         727 30.98         5.2 0.14                          70.8 309 
 BRR  HE ES   2    727 46.11                             150    0.14 5 70.8 309 
 RUS  HZ EP        727 32.79                             143    0.1010 91.0 171 
 RUS  HN ES   3    727 49.02                             143   -0.60 2 91.0 171 
                                                                                
