 2012  1 3 0002 31.5 L   6.764 -73.181146.0  RSN  6 0.5 1.3LRSN                1
 GAP=231        0.68       9.2     9.8  8.3  0.6579E+02  0.1315E+02  0.1583E+02E
 Epicentro: VILLANUEVA - SANTANDER                                             3
 ACTION:UP  12-02-03 08:13 OP:REBC STATUS:               ID:20120103000231 L   I
 2012-01-03-0000-00M.COL___186                                                 6
 STAT SP IPHASW D HRMM SECON CODA AMPLIT PERI AZIMU VELO SNR AR TRES W  DIS CAZ7
 BAR2 SZ ES   3    0 3  5.41                             172    -0.9 2   19 180 
 BRR  HZ EP   3    0 2 54.31                             154     1.7 2   70 303 
 BRR  HN ES   1    0 3  9.27                             154     0.2 7   70 303 
 RUS  HZ EP        0 2 54.70                             145    -0.310   97 174 
 RUS  HN ES   1    0 3 13.75                             145     0.4 7   97 174 
 RUS  HZ I         0 3 14.55         3.1 0.36                            97 174 
 PTB  HZ EP        0 2 57.90                             134    -0.1 9  143 260 
 PTB  HN ES   2    0 3 18.63                             134    -0.1 5  143 260 
 ZAR  HE ES   3    0 3 28.74                             123    -0.1 2  202 294 
 CHI  HZ EP   3    0 3  8.92                             118     0.3 2  244 195 
 CHI  HE ES   3    0 3 38.40                             118     0.7 2  244 195 
 CHI  HZ I         0 3 42.46         1.4 0.70                           244 195 
                                                                                
