 2015  9 3 0312 50.1 L   6.954 -73.134151.0  RSN  7 0.6 1.6LRSN                1
 GAP=185        1.42       5.2     7.5  9.9  0.3098E+01  0.1102E+01 -0.2507E+01E
 Epicentro: PIEDECUESTA - SANTANDER                                            3
 ACTION:UPD 15-10-28 16:23 OP:cam  STATUS:               ID:20150903031250 L   I
 OLDACT:REG 15-09-03 12:44 OP:stll STATUS:               ID:20150903030749     3
 2015-09-03-0307-49M.COL___352                                                 6
 STAT SP IPHASW D HRMM SECON CODA AMPLIT PERI AZIMU VELO AIN AR TRES W  DIS CAZ7
 BAR2 EZ EP        313 10.63                             164   -0.2210 40.3 188 
 BAR2 EZ I         313 10.94         6.1 0.24            163           40.3 188 
 BAR2 EZ ES        313 26.56                             164   -0.4410 40.3 188 
 BRR  HZ EP        313 11.61                             155    0.0210 66.0 285 
 BRR  HE ES        313 29.49                             155    1.1810 66.0 285 
 RUS  HZ EP        313 15.76                             140    0.1010  117 177 
 RUS  HZ I         313 16.42         3.0 0.32            139            117 177 
 RUS  HN ES        313 35.07                             140   -0.5010  117 177 
 OCA  HZ EP        313 17.30                             134   -0.06 9  144 352 
 OCA  HZ I         313 18.14         8.7 0.16            134            144 352 
 OCA  HE ES        313 38.62                             134    0.03 9  144 352 
 PTB  HZ EP        313 17.57                             132   -0.46 9  153 253 
 PTB  HZ I         313 17.80         4.0 0.10            131            153 253 
 PTB  HN ES        313 39.35                             132   -0.42 9  153 253 
 SPBC HZ EP        313 21.50                             128    1.10 9  177 216 
 SPBC HN ES        313 44.34                             128    0.34 9  177 216 
 SPBC HZ I         313 48.20         3.8 0.12            127            177 216 
 ZAR  HN ES        313 46.97                             124   -0.71 9  199 287 
 ZAR  HZ I         313 49.39         3.2 0.10            123            199 287 
                                                                                
