 2014  3 3 0642  4.3 L   6.846 -73.117132.6  RSN  4 0.3 1.1LRSN                1
 GAP=204        0.83       5.3     5.9 13.3  0.1648E+02 -0.2382E+02 -0.4740E+02E
 Epicentro: LOS SANTOS - SANTANDER                                             3
 ACTION:UPD 14-04-09 23:14 OP:nd   STATUS:               ID:20140303064204 L   I
 OLDACT:DUP 14-03-03 13:40 OP:stll STATUS:               ID:20140303063814d    3
 2014-03-03-0638-13M.COL___232                                                 6
 STAT SP IPHASW D HRMM SECON CODA AMPLIT PERI AZIMU VELO AIN AR TRES W  DIS CAZ7
 RUS  HZ EP        642 27.60                             139    0.4310  106 178 
 RUS  HN ES        642 44.87                             139   -0.1410  106 178 
 PTB  HZ EP        642 30.46                             128   -0.18 9  152 257 
 PTB  HN ES        642 50.82                             128   -0.35 9  152 257 
 PTB  HZ I         642 55.64         1.2 0.14            133            152 257 
 ZAR  HE ES        643  1.39                             119    0.58 9  205 290 
 SML  HZ EP        642 39.49                             115   -0.38 8  240 334 
 SML  HN ES        643  7.60                             115   -0.01 8  240 334 
 SML  HZ I         643 14.37         1.3 0.10            119            240 334 
                                                                                
