 2012 12 3 0002 40.4 L   6.822 -73.143145.4  RSN 19 0.5 2.8LRSN                1
 GAP= 70        1.00       2.6     3.3  5.2 -0.9321E+00  0.5696E+01  0.1675E+01E
 Epicentro: LOS SANTOS - SANTANDER                                             3
 ACTION:UPD 13-01-04 14:25 OP:ep   STATUS:               ID:20121203000240 L   I
 2012-12-03-0000-00M.COL___236                                                 6
 STAT SP IPHASW D HRMM SECON CODA AMPLIT PERI AZIMU VELO AIN AR TRES W  DIS CAZ7
 BAR2 SZ IP        0 3  0.04                             170    0.0510 25.7 190 
 BAR2 SZ ES   1    0 3 15.34                             170    0.03 7 25.7 190 
 BAR2 SZ I         0 3 16.79       191.4 0.30                          25.7 190 
 GIR2 SZ EP        0 3  0.16                             168    0.2310 29.0 349 
 GIR2 SZ ES   1    0 3 15.62                             168    0.43 7 29.0 349 
 GIR2 SZ I         0 3 17.24        73.4 0.64                          29.0 349 
 PAM  SZ IP     D  0 3  2.84                             151    0.4310 75.4  41 
 PAM  SE ES   1    0 3 20.18                             151    0.56 7 75.4  41 
 PAM  SZ I         0 3 22.26       124.9 0.50                          75.4  41 
 RUS  HZ IP     D  0 3  3.89                             143   -0.3510  103 176 
 RUS  HN ES   1    0 3 21.96                             143   -0.91 7  103 176 
 RUS  HZ I         0 3 23.69        50.4 0.38                           103 176 
 PTB  HZ EP        0 3  6.68                             132   -0.68 9  149 258 
 PTB  HN ES   1    0 3 27.40                             132   -1.03 7  149 258 
 PTB  HZ I         0 3 33.89       107.9 0.24                           149 258 
 TAM  HZ IP     D  0 3  8.21                             130    0.17 9  155 106 
 TAM  HZ I         0 3 29.03        43.8 0.40                           155 106 
 TAM  HN ES   1    0 3 29.83                             130    0.20 7  155 106 
 OCA  HZ EP        0 3  8.10                             130   -0.32 9  158 353 
 OCA  HN ES   1    0 3 30.13                             130   -0.18 7  158 353 
 OCA  HZ I         0 3 36.25        81.2 0.34                           158 353 
 ZAR  HZ EP        0 3 12.56                             122   -0.16 9  203 291 
 ZAR  HN ES   1    0 3 38.40                             122    0.45 6  203 291 
 ZAR  HZ I         0 3 44.49        70.6 0.18                           203 291 
 NOR  HZ EP        0 3 15.93                             118   -0.31 8  236 234 
 NOR  HN ES   1    0 3 44.13                             118   -0.10 6  236 234 
 NOR  HZ I         0 3 47.77        50.6 0.24                           236 234 
 SML  HZ EP        0 3 16.68                             118   -0.06 8  242 335 
 SML  HN ES   1    0 3 45.59                             118    0.47 6  242 335 
 SML  HZ I         0 3 48.74       113.3 0.10                           242 335 
 CHI  HZ EP        0 3 17.83                             117   -0.46 8  251 195 
 CHI  HN ES   1    0 3 47.49                             117   -0.39 6  251 195 
 CHI  HZ I         0 3 53.32        30.1 0.60                           251 195 
 ROSC BZ EP        0 3 19.61                             116    0.91 8  255 211 
 ROSC BN ES   1    0 3 49.09                             116    0.49 6  255 211 
 ROSC BZ I         0 3 56.05        64.8 0.50                           255 211 
 HEL  HZ EP        0 3 21.42                             115    0.77 8  273 255 
 HEL  HN ES   1    0 3 52.52                             115    0.45 6  273 255 
 HEL  HZ I         0 3 58.72        36.0 0.34                           273 255 
 VIL  SZ EP        0 3 24.35                             112    0.32 7  306 192 
 VIL  SN ES   2    0 3 58.04                             112   -0.05 4  306 192 
 VIL  SZ I         0 4  8.43        36.6 0.68                           306 192 
 RREF HZ EP        0 3 26.78                             111    0.09 7  324 229 
 RREF HE ES   1    0 4  2.85                             111    0.03 5  324 229 
 RREF HZ I         0 4  9.67        41.2 0.26                           324 229 
 DBB  SZ EP        0 3 27.65                             109   -0.18 7  340 274 
 DBB  SZ ES   1    0 4  4.69                             109   -0.17 5  340 274 
 COD  HZ EP   1    0 3 27.77                             109   -0.68 5  346 355 
 COD  HN ES   1    0 4  4.83                             109   -1.13 5  346 355 
 COD  HZ I         0 4  8.99        10.9 0.30                           346 355 
 ANIL HZ EP        0 3 31.36                             108    0.99 6  359 224 
 ANIL HN ES   1    0 4 10.39                             108    1.01 5  359 224 
 PRA  HZ EP        0 3 33.53                             106   -0.60 6  394 209 
 PRA  HN ES   1    0 4 15.38                             106   -0.68 4  394 209 
 PRA  HZ I         0 4 21.54        42.5 0.60                           394 209 
                                                                                
