 2015 10 3 0556 49.9 L   6.769 -73.165139.4  RSN  5 0.4 1.4LRSN                1
 GAP=233        1.10       6.3     6.8  8.1  0.1018E+02  0.8437E+01  0.5861E+01E
 Epicentro: LOS SANTOS - SANTANDER                                             3
 ACTION:UPD 15-12-22 20:37 OP:cam  STATUS:               ID:20151003055649 L   I
 OLDACT:REG 15-10-03 13:29 OP:stll STATUS:               ID:20151003054747     3
 2015-10-03-0547-47M.COL___349                                                 6
 STAT SP IPHASW D HRMM SECON CODA AMPLIT PERI AZIMU VELO AIN AR TRES W  DIS CAZ7
 BAR2 EZ EP        557  8.71                             172   -0.0010 19.6 186 
 BAR2 EZ ES        557 22.73                             172   -0.6410 19.6 186 
 BAR2 EZ I         557 24.80        10.8 0.16            174           19.6 186 
 BRR  HZ EP        557 10.79                             151    0.4110 71.1 302 
 BRR  HN ES        557 26.88                             151    0.5510 71.1 302 
 BRR  HZ I         557 31.25         4.6 0.16            150           71.1 302 
 RUS  HZ EP        557 12.68                             143   -0.1310 97.3 175 
 RUS  HZ I         557 13.38         2.7 0.10            147           97.3 175 
 RUS  HN ES        557 30.89                             143    0.2310 97.3 175 
 PTB  HZ EP        557 15.77                             131   -0.36 9  145 260 
 PTB  HN ES        557 35.95                             131   -0.61 9  145 260 
 PTB  HZ I         557 39.17         3.0 0.16            132            145 260 
 SPBC HZ EP        557 17.49                             128   -0.06 9  159 219 
 SPBC HZ I         557 17.80         3.9 0.18            130            159 219 
 SPBC HN ES        557 39.69                             128    0.59 9  159 219 
                                                                                
