 2013  4 3 0309 47.1 L   6.829 -73.157150.1  RSN  7 0.4 1.5LRSN                1
 GAP=239        0.84       6.3     6.4  9.1  0.1158E+02  0.4884E+01  0.1378E+02E
 Epicentro: LOS SANTOS - SANTANDER                                             3
 ACTION:UPD 13-05-22 14:35 OP:EP   STATUS:               ID:20130403030947 L   I
 2013-04-03-0310-00M.COL___245                                                 6
 STAT SP IPHASW D HRMM SECON CODA AMPLIT PERI AZIMU VELO AIN AR TRES W  DIS CAZ7
 BAR2 SZ EP        310  7.16                             170   -0.1110 26.3 186 
 BAR2 SZ ES   1    310 22.62                             170   -0.41 7 26.3 186 
 BAR2 SZ I         310 24.48        11.5 0.28            166           26.3 186 
 BRR  HZ IP     D  310  8.86                             154    0.3310 68.5 297 
 BRR  HN ES   1    310 25.84                             154    0.56 7 68.5 297 
 BRR  HZ I         310 29.88         6.3 0.12            151           68.5 297 
 RUS  HZ EP   1    310 11.48                             144    0.01 7  104 175 
 RUS  HZ I         310 31.25         2.7 0.58            135            104 175 
 PTB  HZ EP   1    310 13.59                             133   -0.73 7  147 258 
 PTB  HN ES   1    310 35.02                             133   -0.57 7  147 258 
 PTB  HZ I         310 39.69         4.0 0.10            126            147 258 
 ZAR  HE ES   1    310 45.10                             124    0.22 6  202 291 
 ZAR  HZ I         310 52.88         3.2 0.28            116            202 291 
 NOR  HN ES   2    310 51.74                             119    0.48 4  236 234 
 CHI  HN ES   1    310 55.59                             118    0.47 6  251 195 
                                                                                
