 2017  3 3 0841 10.8 L   6.775 -73.161146.5  RSN  8 0.5 1.8LRSN                1
 GAP=163        1.18       6.0     4.1  7.2  0.7716E+01  0.9454E+00 -0.7126E+01E
 Epicentro: LOS SANTOS - SANTANDER                                             3
 ACTION:UPD 17-05-25 18:35 OP:jn   STATUS:               ID:20170303084110 L   I
 OLDACT:UP  17-03-03 18:12 OP:ar   STATUS:               ID:20170303083745     3
 OLDACT:REG 17-03-03 12:46 OP:ar   STATUS:               ID:20170303083745     3
 2017-03-03-0838-00M.COL___378                                                 6
 STAT SP IPHASW D HRMM SECON CODA AMPLIT PERI AZIMU VELO AIN AR TRES W  DIS CAZ7
 BAR2 EZ EP        841 30.15                             172   -0.2710 20.4 187 
 BAR2 EZ ES        841 45.30                             172   -0.4510 20.4 187 
 BAR2 EZ I         841 47.91        11.7 0.40            172           20.4 187 
 BRR  HZ EP        841 31.96                             153   -0.0210 71.1 301 
 BRR  HN ES        841 49.18                             153    0.6510 71.1 301 
 BRR  HZ I         841 54.53        11.5 0.40            151           71.1 301 
 RUS  HZ EP        841 34.00                             145   -0.4010 98.0 175 
 RUS  HN ES        841 52.78                             145   -0.0510 98.0 175 
 RUS  HZ I         841 54.67         4.6 0.30            148           98.0 175 
 PTB  HZ EP        841 37.04                             133   -0.55 9  146 260 
 PTB  HN ES        841 57.71                             133   -0.80 9  146 260 
 TAM  HZ EP        841 38.51                             131   -0.08 9  156 104 
 TAM  HE ES        842  0.71                             131    0.42 9  156 104 
 SPBC HZ EP        841 39.42                             130    0.41 9  160 219 
 SPBC HN ES        842  1.94                             130    0.89 9  160 219 
 SPBC HZ I         842  7.03        12.7 0.26            131            160 219 
 ZAR  HZ EP        841 43.08                             123   -0.12 9  204 293 
 ZAR  HE ES        842  8.76                             123    0.26 9  204 293 
 ZAR  HZ I         842 12.70         6.0 0.22            124            204 293 
 URE  HZ EP        841 52.25                             114    0.45 7  283 293 
 URE  HN ES   4    842 25.40                             114    1.58 0  283 293 
 URE  HZ I         842 32.20         3.8 0.20            115            283 293 
                                                                                
