 2011  1 3 0754 18.7 L   6.849 -73.125139.8  RSN 10 0.6 1.8LRSN                1
 GAP=138        1.20       5.0    14.4 15.4 -0.2724E+02  0.1113E+03 -0.9252E+00E
 Epicentro: LOS SANTOS - SANTANDER                                             3
 ACTION:UP  11-02-08 08:38 OP:pat  STATUS:               ID:20110103075418 L   I
 2011-01-03-0740-00M.COL___136                                                 6
 STAT SP IPHASW D HRMM SECON CODA AMPLIT PERI AZIMU VELO SNR AR TRES W  DIS CAZ7
 BAR2 SZ EP   2    754 37.69                             167    -0.1 5   29 193 
 BAR2 SZ I         754 54.30        21.1 0.22                            29 193 
 RUS  HZ EP   1    754 42.14                             140    -0.2 8  106 177 
 RUS  HE ES   1    755  0.38                             140    -0.3 8  106 177 
 RUS  HZ I         755  1.74         5.9 0.43                           106 177 
 GRA  SZ IP        754 43.87                             136     0.910  120  17 
 GRA  SZ I         754 44.99        10.5 0.31                           120  17 
 GRA  SZ ES   1    755  2.32                             136     0.5 7  120  17 
 OCA  SZ IP        754 45.32                             129    -0.8 9  155 352 
 OCA  SZ ES   1    755  6.83                             129    -0.6 7  155 352 
 OCA  SZ I         755 11.85        12.0 0.47                           155 352 
 YOP  SZ EP   2    754 48.38                             123    -0.4 5  183 155 
 YOP  SZ I         754 49.49         6.1 0.13                           183 155 
 NOR  SZ EP   2    754 54.40                             116    -0.3 4  240 234 
 CHI  HZ EP   2    754 56.41                             115    -0.4 4  254 195 
 CHI  HN ES   2    755 26.14                             115    -0.3 4  254 195 
 CHI  HZ I         755 33.29         3.1 0.53                           254 195 
 HEL  HZ EP   2    754 59.94                             113     0.9 4  276 255 
 HEL  HZ I         755 36.56         3.8 0.20                           276 255 
 RREF HZ EP   2    755  5.82                             109     0.6 3  327 229 
 RREF HE ES   2    755 42.04                             109     0.5 3  327 229 
 RREF HZ I         755 46.63         3.5 0.70                           327 229 
 PRA  HZ EP   1    755 12.59                             105    -0.2 4  398 209 
 PRA  HN ES   1    755 55.80                             105     0.9 4  398 209 
                                                                                
