 2012  1 3 0314  9.8 L   6.784 -73.152148.0  RSN  6 0.2 1.1LRSN                1
 GAP=137        0.46       4.5     3.7  6.4 -0.4482E+00 -0.4637E+00  0.1293E+02E
 Epicentro: LOS SANTOS - SANTANDER                                             3
 ACTION:UP  12-02-03 08:13 OP:REBC STATUS:               ID:20120103031409 L   I
 2012-01-03-0310-00M.COL___185                                                 6
 STAT SP IPHASW D HRMM SECON CODA AMPLIT PERI AZIMU VELO SNR AR TRES W  DIS CAZ7
 BAR2 SZ EP        314 29.53                             171    -0.110   22 189 
 BAR2 SZ I         314 45.47         4.7 0.22                            22 189 
 BRR  HZ EP        314 31.28                             153     0.110   71 300 
 BRR  HN ES   1    314 48.07                             153     0.2 7   71 300 
 PAM  SZ EP        314 32.37                             151     0.110   79  39 
 PAM  SN ES   2    314 49.44                             151    -0.5 5   79  39 
 RUS  HZ EP        314 33.72                             145     0.110   99 176 
 RUS  HE ES   3    314 52.22                             145     0.0 2   99 176 
 RUS  HZ I         314 54.00         1.6 0.28                            99 176 
 PTB  HZ EP        314 36.61                             133    -0.2 9  147 259 
 PTB  HE ES   3    314 57.36                             133    -0.6 2  147 259 
 PTB  HZ I         315  0.46         1.6 0.42                           147 259 
 ZAR  HN ES   3    315  7.77                             123     0.0 2  204 293 
                                                                                
