 2016  1 3 0414  3.5 L   6.785 -73.152150.2  RSN  7 0.3 1.6LRSN                1
 GAP=150        0.87       3.7     4.0  5.5 -0.3047E+01  0.5685E+01 -0.2743E+01E
 Epicentro: LOS SANTOS - SANTANDER                                             3
 ACTION:UPD 16-03-09 23:22 OP:cam  STATUS:               ID:20160103041403 L   I
 OLDACT:DUP 16-01-03 13:29 OP:drio STATUS:               ID:20160103040750d    3
 2016-01-03-0407-49M.COL___314                                                 6
 STAT SP IPHASW D HRMM SECON CODA AMPLIT PERI AZIMU VELO AIN AR TRES W  DIS CAZ7
 BAR2 EZ EP        414 23.78                             171    0.1310 21.5 189 
 BAR2 EZ ES        414 39.29                             171   -0.0610 21.5 189 
 BAR2 EZ I         414 40.48         4.9 0.48            170           21.5 189 
 BRR  HZ EP        414 25.68                             153    0.5210 71.4 300 
 BRR  HN ES        414 42.36                             153    0.3210 71.4 300 
 PAM  EZ EP        414 26.59                             151    0.2810 79.1  39 
 PAM  EN ES        414 43.77                             151   -0.3210 79.1  39 
 PAM  EZ I         414 45.93         4.2 0.48            154           79.1  39 
 PTB  HZ EP        414 30.35                             133   -0.42 9  147 259 
 PTB  HN ES        414 51.56                             133   -0.45 9  147 259 
 PTB  HZ I         414 55.07         4.4 0.12            133            147 259 
 SPBC HZ EP        414 32.22                             130    0.02 9  161 219 
 SPBC HN ES        414 54.44                             130   -0.13 9  161 219 
 SPBC HZ I         415  1.76         4.7 0.22            131            161 219 
 ZAR  HZ EP        414 36.60                             123    0.34 9  204 293 
 ZAR  HN ES        415  2.23                             123    0.43 9  204 293 
 ZAR  HZ I         415  7.12         3.6 0.10            124            204 293 
 SML  HZ EP        414 40.00                             118   -0.54 8  245 336 
 SML  HN ES        415  9.02                             118   -0.39 8  245 336 
 SML  HZ I         415 13.43         4.4 0.10            119            245 336 
                                                                                
