 2010 11 3 0254 20.0 L   6.773 -73.089146.5  RSN 14 0.4 2.9LRSN                1
 GAP=106        0.87       3.3     6.4  6.1 -0.5182E+01 -0.5956E+00  0.2470E+01E
 Epicentro: LOS SANTOS - SANTANDER                                             3
 ACTION:UP  10-12-17 16:50 OP:REBC STATUS:               ID:20101103025420 L   I
 2010-11-03-0252-24S.COL___128                                                 6
 STAT SP IPHASW D HRMM SECON CODA AMPLIT PERI AZIMU VELO SNR AR TRES W  DIS CAZ7
 BAR2 SZ IP        254 39.87                             171     0.110   23 208 
 BAR2 SZ ES   1    254 54.52                             171    -0.6 7   23 208 
 BAR2 SZ I         254 56.14       160.1 0.36                            23 208 
 BRR  HZ IP     C  254 41.73                             150     0.010   78 298 
 BRR  HZ I         254 42.05       354.0 0.13                            78 298 
 BRR  HN ES   1    254 59.24                             150     0.7 7   78 298 
 RUS  HZ EP   1    254 43.80                             145     0.2 7   97 180 
 RUS  HE ES   1    255  1.94                             145    -0.1 7   97 180 
 RUS  HZ I         255  3.75        79.6 0.32                            97 180 
 GUE  SZ EP        254 44.91                             139    -0.110  118   9 
 GRA  SZ IP        254 45.65                             137     0.210  127  14 
 GRA  SZ ES   1    255  5.36                             137     0.1 7  127  14 
 GRA  SZ I         255  6.32        99.1 0.32                           127  14 
 OCA  SZ EP   1    254 48.03                             129    -0.7 7  164 351 
 OCA  SZ ES        255 11.13                             129    -0.1 9  164 351 
 OCA  SZ I         255 16.15       105.6 0.18                           164 351 
 YOP  SZ EP   1    254 50.12                             127     0.5 7  174 155 
 NOR  SZ EP   1    254 55.58                             118    -0.6 6  238 236 
 NOR  SE ES   2    255 23.55                             118    -0.9 4  238 236 
 CVER SZ EP   2    255  1.11                             115     0.7 4  272 204 
 CVER SZ I         255  2.49        46.0 0.31                           272 204 
 HEL  HZ EP   2    255  1.76                             114     0.9 4  277 257 
 HEL  HZ I         255 38.26        40.1 0.24                           277 257 
 VIL  SZ EP   3    255  2.97                             112    -0.1 2  300 191 
 TOL  SZ EP   1    255  9.08                             109     0.5 5  346 226 
 SDV  BZ EP   2    255  8.94                             108    -0.9 3  358  49 
 SDV  BZ I         255 52.98        10.7 0.32                           358  49 
 PRA  HZ EP   1    255 13.39                             107    -0.3 4  393 211 
 PRA  HN ES   2    255 55.08                             107    -0.4 3  393 211 
                                                                                
