 2010  2 3 0712 30.2 L   6.833 -73.128150.8  RSN  8 0.5 2.8LRSN                1
 GAP=230        0.86       7.0    11.4  9.1  0.1402E+02  0.5493E+02  0.8296E+01E
 Epicentro: LOS SANTOS - SANTANDER                                             3
 ACTION:UP  10-08-24 09:47 OP:vdl  STATUS:               ID:20100203071230 L   I
 2010-02-03-0710-50S.COL___097                                                 6
 STAT SP IPHASW D HRMM SECON CODA AMPLIT PERI AZIMU VELO SNR AR TRES W  DIS CAZ7
 BAR2 SZ IP        712 50.79                             170     0.310   27 193 
 BAR2 SZ ES   1    713  6.35                             170     0.0 7   27 193 
 RUS  BZ IP        712 54.60                             144    -0.110  104 177 
 RUS  BE ES   1    713 13.58                             144    -0.2 7  104 177 
 RUS  BZ I         713 14.72        47.2 0.44                           104 177 
 CHI  HZ EP   1    713  8.75                             118     0.2 6  253 195 
 CHI  HE ES   1    713 37.94                             118    -0.6 6  253 195 
 CHI  HZ I         713 44.19        29.1 0.39                           253 195 
 HEL  HZ EP   2    713 11.92                             115     1.0 4  275 255 
 HEL  HZ I         713 49.67        28.6 0.35                           275 255 
 RREF BN ES   2    713 54.32                             111     0.8 3  326 229 
 RREF BZ I         714  2.38        51.5 0.44                           326 229 
 DBB  SZ EP   2    713 18.49                             110     0.4 3  341 274 
 MON  HN ES   2    713 55.98                             109    -1.6 3  352 308 
 PRA  HZ EP        713 24.12                             107    -0.2 6  396 210 
 PRA  HZ I         714 11.68        43.7 0.67                           396 210 
                                                                                
