 2017  8 3 0823 45.3 L   6.753 -73.121144.6  RSN  7 0.5 1.1LRSN                1
 GAP=236        1.17       5.6     6.2  7.9  0.8877E+01  0.1140E+02 -0.2711E+00E
 Epicentro: LOS SANTOS - SANTANDER                                             3
 ACTION:UPD 17-09-04 20:15 OP:rebc STATUS:               ID:20170803082345 L   I
 OLDACT:DUP 17-08-03 18:56 OP:osc  STATUS:               ID:20170803081743d    3
 2017-08-03-0818-00M.COL___395                                                 6
 STAT SP IPHASW D HRMM SECON CODA AMPLIT PERI AZIMU VELO AIN AR TRES W  DIS CAZ7
 BAR2 EZ EP        824  4.27                             172   -0.4110 19.0 201 
 BAR2 EZ ES        824 20.05                             172    0.2410 19.0 201 
 BAR2 EZ I         824 21.05         4.7 0.26            172           19.0 201 
 BRR  HZ EP        824  6.59                             151    0.0110 76.1 301 
 BRR  HE ES        824 23.79                             151    0.6010 76.1 301 
 RUS  HZ EP        824  9.12                             145    0.5910 95.2 177 
 RUS  HN ES        824 25.90                             145   -0.7610 95.2 177 
 RUS  HZ I         824 28.93         1.5 0.28            145           95.2 177 
 PTB  HZ EP        824 11.66                             131   -0.64 9  149 261 
 PTB  HN ES        824 33.10                             131   -0.28 9  149 261 
 SPBC HZ EP        824 13.89                             129    0.43 9  161 221 
 SPBC HN ES        824 35.65                             129    0.20 9  161 221 
 ZAR  HZ EP        824 18.31                             121    0.21 8  209 293 
 ZAR  HE ES        824 43.17                             121   -0.54 8  209 293 
 NOR  HE ES        824 48.97                             118    0.37 8  234 236 
                                                                                
