 2016  3 3 0543 53.9 L   6.832 -73.159143.9  RSN 12 0.4 1.6LRSN                1
 GAP=125        0.84       2.6     3.4  5.1 -0.1635E+01  0.2869E+01  0.3109E-01E
 Epicentro: LOS SANTOS - SANTANDER                                             3
 ACTION:UPD 16-05-13 21:21 OP:cam  STATUS:               ID:20160303054353 L   I
 OLDACT:UP  16-03-03 16:44 OP:mh   STATUS:               ID:20160303053750     3
 OLDACT:UP  16-03-03 16:42 OP:mh   STATUS:               ID:20160303053750     3
 OLDACT:REG 16-03-03 12:22 OP:mh   STATUS:               ID:20160303053750     3
 2016-03-03-0537-50M.COL___312                                                 6
 STAT SP IPHASW D HRMM SECON CODA AMPLIT PERI AZIMU VELO AIN AR TRES W  DIS CAZ7
 BAR2 EZ EP        544 13.41                             169    0.0610 26.6 185 
 BAR2 EZ ES        544 28.09                             169   -0.4510 26.6 185 
 BAR2 EZ I         544 29.34         3.8 0.18            169           26.6 185 
 PAM  EZ EP        544 16.33                             151    0.5410 75.7  42 
 PAM  EN ES        544 33.23                             151    0.3510 75.7  42 
 PAM  EZ I         544 35.56        12.5 0.45            152           75.7  42 
 RUS  HZ EP     C  544 17.49                             142   -0.2110  104 175 
 RUS  HN ES        544 36.57                             142    0.2810  104 175 
 RUS  HZ I         544 37.02         4.8 0.24            145            104 175 
 PTB  HZ EP        544 20.16                             132   -0.45 9  147 257 
 PTB  HN ES        544 41.24                             132   -0.24 9  147 257 
 PTB  HZ I         544 48.04         4.1 0.50            129            147 257 
 OCA  HZ EP   1    544 21.77                             130    0.08 7  157 354 
 OCA  HE ES        544 43.08                             130   -0.31 9  157 354 
 OCA  HZ I         544 47.60         5.8 0.22            128            157 354 
 SPBC HZ EP        544 22.49                             128    0.10 9  165 218 
 SPBC HN ES        544 44.59                             128   -0.06 9  165 218 
 SPBC HZ I         544 51.14         5.4 0.26            127            165 218 
 ZAR  HZ EP   1    544 26.50                             122    0.59 6  201 291 
 ZAR  HN ES        544 51.15                             122    0.25 9  201 291 
 ZAR  HZ I         544 57.78         6.7 0.42            120            201 291 
 CHI  HZ EP        544 32.06                             116    0.27 8  252 195 
 CHI  HN ES        545  1.32                             116   -0.05 8  252 195 
 CHI  HZ I         545  4.39         1.6 0.38            117            252 195 
 URE  HN ES   4    545  5.07                             113   -1.20 0  281 291 
 URE  HZ I         545 13.97         3.8 0.20            112            281 291 
 GUY2CHZ EP   4    544 40.54                             112    3.06 0  302 234 
 GUY2CHE ES   4    545 13.72                             112    2.22 0  302 234 
 GUY2CHZ I         545 20.91         1.3 0.28                           302 234 
 MON  HZ EP   4    544 39.93                             108   -2.47 0  350 308 
 MON  HN ES   4    545 17.91                             108   -2.36 0  350 308 
 MON  HZ I         545 33.84         1.2 0.50            107            350 308 
 SDV  BZ EP        544 42.86                             108   -0.85 6  359  51 
 SDV  BN ES   4    545 20.33                             108   -2.26 0  359  51 
 SDV  BZ I         545 26.04         0.8 0.60            108            359  51 
                                                                                
