 2013  9 3 0833 13.8 L   6.791 -73.140150.5  RSN  8 0.5 1.6LRSN                1
 GAP=138        1.13       4.2     5.0  7.3  0.8680E+00  0.7450E+01 -0.1903E+01E
 Epicentro: LOS SANTOS - SANTANDER                                             3
 ACTION:UPD 13-10-22 09:19 OP:ep   STATUS:               ID:20130903083313 L   I
 OLDACT:UP  13-09-03 11:15 OP:cam  STATUS:               ID:20130903082959     3
 OLDACT:REG 13-09-03 08:28 OP:cam  STATUS:               ID:20130903082959     3
 2013-09-03-0829-59M.COL___269                                                 6
 STAT SP IPHASW D HRMM SECON CODA AMPLIT PERI AZIMU VELO AIN AR TRES W  DIS CAZ7
 BAR2 SZ EP        833 34.02                             171    0.0010 22.5 192 
 BAR2 SZ ES        833 49.49                             171   -0.2710 22.5 192 
 BAR2 SZ I         833 51.82         7.2 0.27            170           22.5 192 
 BRR  HZ EP   1    833 36.11                             153    0.56 7 72.2 299 
 BRR  HN ES        833 53.43                             153    0.9410 72.2 299 
 BRR  HZ I         834  1.08         4.3 0.60            151           72.2 299 
 PAM  SZ EP        833 36.90                             152    0.3210 77.8  39 
 PAM  SN ES        833 54.24                             152   -0.0810 77.8  39 
 PAM  SZ I         833 56.13         6.1 0.20            156           77.8  39 
 RUS  HZ EP        833 37.88                             145   -0.1010 99.5 176 
 RUS  HE ES        833 56.38                             145   -0.4410 99.5 176 
 RUS  HZ I         833 57.78         2.9 0.44            149           99.5 176 
 PTB  HZ EP        833 41.03                             133   -0.20 9  148 259 
 PTB  HN ES        834  1.97                             133   -0.63 9  148 259 
 PTB  HZ I         834  7.84         5.7 0.22            134            148 259 
 SPBC HZ EP        833 42.85                             130    0.19 9  163 219 
 SPBC HN ES   1    834  5.98                             130    0.83 7  163 219 
 SPBC HZ I         834  9.87         5.9 0.40            132            163 219 
 ZAR  HE ES        834 12.26                             123   -0.05 9  205 292 
 ZAR  HZ I         834 18.26         4.5 0.28            125            205 292 
 SML  HZ EP   1    833 51.01                             118    0.16 6  245 335 
 SML  HN ES        834 18.91                             118   -0.82 8  245 335 
 SML  HZ I         834 22.45         9.5 0.24            121            245 335 
                                                                                
