 2010  1 3 0447 43.3 L   7.403 -73.241133.7  RSN  5 0.5 2.0LRSN                1
 GAP=111        0.90       5.1     7.0  9.8 -0.2409E+01  0.5504E-02 -0.5714E+01E
 Epicentro: EL PLAYON - SANTANDER                                              3
 ACTION:UP  10-08-24 09:42 OP:vdl  STATUS:               ID:20100103044743 L   I
 2010-01-03-0446-10S.COL___097                                                 6
 STAT SP IPHASW D HRMM SECON CODA AMPLIT PERI AZIMU VELO SNR AR TRES W  DIS CAZ7
 GIR2 SZ IP        448  1.78                             164     0.110   36 172 
 BAR2 SZ IP        448  4.93                             144     0.210   90 176 
 BAR2 SZ ES   1    448 21.14                             144    -0.3 7   90 176 
 OCA  SZ IP        448  5.24                             143     0.410   93 355 
 OCA  SZ ES   1    448 21.35                             143    -0.3 7   93 355 
 OCA  SZ I         448 24.10        17.4 0.25                            93 355 
 SDV  BZ EP        448 28.73                             108    -0.7 7  331  60 
 DBB  SZ EP   2    448 30.03                             108     0.8 3  331 263 
 DBB  SZ ES   1    449  4.29                             108    -0.8 5  331 263 
                                                                                
