 2010  1 3 0730 28.8 L   6.485 -73.741 29.4  RSN  7 0.5 2.4LRSN                1
 GAP= 81        1.10       4.3     4.3  7.5  0.1906E+01  0.1333E+02  0.2200E+01E
 Epicentro: SANTA HELENA DEL OPON - SANTANDER                                  3
 ACTION:UP  10-08-24 09:42 OP:vdl  STATUS:               ID:20100103073028 L   I
 2010-01-03-0728-42S.COL___096                                                 6
 STAT SP IPHASW D HRMM SECON CODA AMPLIT PERI AZIMU VELO SNR AR TRES W  DIS CAZ7
 BAR2 SZ IP        730 39.79                             107    -0.110   63  79 
 BAR2 SZ ES   1    730 48.52                             107     0.0 7   63  79 
 GIR2 SZ IP        730 43.36                              61     0.110   89  43 
 GIR2 SZ ES   1    730 54.34                              61    -0.3 7   89  43 
 RUS  BZ IP        730 45.10                              61     0.310   98 132 
 RUS  BZ I         730 45.29       163.8 0.27                            98 132 
 RUS  BE ES   1    730 56.87                              61    -0.4 7   98 132 
 OCA  SZ EP   1    730 56.89                              61    -0.2 6  199  13 
 HEL  HZ IP        730 56.55                              61    -0.9 9  200 261 
 HEL  HZ I         731 28.62        21.6 0.11                           200 261 
 CHI  HZ EP   1    730 59.10                              61     1.0 6  205 180 
 MON  HZ IP        731 13.63                              60     0.5 7  330 320 
 MON  HN ES   1    731 48.60                              60     0.9 5  330 320 
                                                                                
