 2011  4 3 0848 23.5 L   6.798 -73.095143.3  RSN  9 0.3 1.4LRSN                1
 GAP=160        0.67       5.2     7.1  6.4 -0.1555E+02  0.6484E+01 -0.1391E+00E
 Epicentro: LOS SANTOS - SANTANDER                                             3
 ACTION:UP  11-06-22 15:28 OP:REBC STATUS:               ID:20110403084823 L   I
 2011-04-03-0844-32S.COL___138                                                 6
 STAT SP IPHASW D HRMM SECON CODA AMPLIT PERI AZIMU VELO SNR AR TRES W  DIS CAZ7
 BTL  SZ EP        848 42.86                             170     0.010   23 305 
 BTL  SZ ES   2    848 57.70                             170    -0.2 5   23 305 
 BAR2 SZ EP        848 42.69                             169    -0.210   25 203 
 BAR2 SZ ES   1    848 58.07                             169     0.1 7   25 203 
 BAR2 SZ I         848 59.05        11.8 0.18                            25 203 
 GIR2 SZ EP   3    848 42.46                             167    -0.5 2   33 341 
 PAM  SZ EP        848 45.53                             151     0.310   74  36 
 PAM  SZ I         848 45.75         2.3 0.31                            74  36 
 PAM  SN ES   1    849  2.39                             151     0.2 7   74  36 
 BRR  HZ EP        848 44.60                             150    -0.110   76 297 
 BRR  HN ES   2    849  1.61                             150     0.4 5   76 297 
 BRR  HZ I         849  4.92         5.8 0.23                            76 297 
 GRA  SZ ES   1    849  7.05                             137    -0.8 7  124  15 
 GRA  SZ I         849  9.18         2.6 0.51                           124  15 
 OCA  SZ EP   2    848 52.20                             129     0.5 5  161 351 
 OCA  SZ ES   2    849 13.99                             129     0.3 5  161 351 
 OCA  SZ I         849 17.92         3.7 0.53                           161 351 
 NOR  SZ EP   3    848 58.87                             117    -0.7 2  239 235 
 NOR  SN ES   3    849 27.36                             117    -0.3 2  239 235 
 CHI  HZ EP   3    849  1.46                             116     0.3 2  250 196 
 CHI  HZ I         849 37.17         1.4 0.56                           250 196 
                                                                                
