 2015  5 3 0057 48.0 L   6.817 -73.189143.6  RSN 11 0.4 1.8LRSN                1
 GAP= 68        1.05       3.0     4.0  6.1 -0.1706E+01  0.8686E+01 -0.6933E+00E
 Epicentro: ZAPATOCA - SANTANDER                                               3
 ACTION:UPD 15-09-10 22:00 OP:cam  STATUS:               ID:20150503005747 L   I
 OLDACT:UP  15-05-07 15:22 OP:cam  STATUS:               ID:20150503005747 L   3
 OLDACT:UP  15-05-07 06:55 OP:AK   STATUS:               ID:20150503005747 L   3
 OLDACT:DUP 15-05-03 14:55 OP:stll STATUS:               ID:20150503004744d    3
 2015-05-03-0047-43M.COL___273                                                 6
 STAT SP IPHASW D HRMM SECON CODA AMPLIT PERI AZIMU VELO AIN AR TRES W  DIS CAZ7
 BAR2 EZ EP        058  7.74                             170    0.3210 24.9 178 
 BAR2 EZ I         058  7.83         9.2 0.10            164           24.9 178 
 BAR2 EZ ES        058 22.41                             170   -0.1410 24.9 178 
 BRR  HZ EP        058  9.53                             154    0.8910 66.0 299 
 BRR  HZ I         058  9.71         9.2 0.28            145           66.0 299 
 BRR  HN ES   4    058 26.81                             154    2.08 0 66.0 299 
 PAM  SZ EP        058 10.47                             150    0.3610 79.1  43 
 PAM  SN ES        058 27.20                             150   -0.1410 79.1  43 
 PAM  SZ I         058 29.67         9.3 0.56            156           79.1  43 
 RUS  HZ EP        058 11.75                             143    0.0310  103 173 
 RUS  HN ES        058 30.14                             143   -0.0810  103 173 
 RUS  HZ I         058 31.64         5.7 0.48            146            103 173 
 TAM  HZ I         058 15.81        13.2 0.20            140            160 105 
 TAM  HZ EP        058 15.82                             129   -0.19 9  160 105 
 SPBC HZ EP        058 16.53                             129    0.33 9  162 217 
 SPBC HN ES        058 37.96                             129   -0.23 9  162 217 
 SPBC HZ I         058 41.47        11.9 0.18            128            162 217 
 ZAR  HZ EP        058 19.51                             123   -0.27 9  199 292 
 ZAR  HN ES        058 44.09                             123   -0.47 9  199 292 
 ZAR  HZ I         058 48.33         4.7 0.30            120            199 292 
 NOR  HZ EP        058 22.95                             118   -0.37 8  232 233 
 NOR  HE ES        058 51.71                             118    0.86 8  232 233 
 NOR  HZ I         058 53.85         4.1 0.24            118            232 233 
 SML  HZ EP        058 24.03                             117   -0.09 8  240 336 
 SML  HE ES        058 51.76                             117   -0.51 8  240 336 
 SML  HZ I         058 56.17         9.5 0.26            117            240 336 
 CHI  HZ EP        058 25.65                             116   -0.01 8  249 194 
 CHI  HN ES        058 53.99                             116   -1.03 8  249 194 
 CHI  HZ I         058 58.86         2.7 0.44            118            249 194 
 GUY2CHZ EP        058 31.07                             112   -0.13 7  298 234 
 GUY2CHN ES        059  5.21                             112    0.32 7  298 234 
 GUY2CHZ I         059 14.19         3.8 0.72                           298 234 
                                                                                
