 2011  4 3 0946 22.7 L   6.658 -73.095147.0  RSN  5 0.4 1.3LRSN                1
 GAP=220        0.69       9.8    13.4 10.5  0.1348E+02 -0.9457E+02 -0.1652E+02E
 Epicentro: CURITI - SANTANDER                                                 3
 ACTION:UP  11-06-22 15:28 OP:REBC STATUS:               ID:20110403094623dL   I
 2011-04-03-0946-20S.COL___138                                                 6
 STAT SP IPHASW D HRMM SECON CODA AMPLIT PERI AZIMU VELO SNR AR TRES W  DIS CAZ7
 BAR2 SZ EP        946 42.43                             174     0.110   12 233 
 BAR2 SZ I         946 43.24         3.6 0.04                            12 233 
 BAR2 SZ ES   3    946 57.66                             174     0.0 2   12 233 
 BTL  SZ EP        946 43.05                             166     0.310   35 326 
 BTL  SZ ES   1    946 58.18                             166    -0.3 7   35 326 
 BRR  HZ EP   2    946 44.07                             148    -0.7 5   84 306 
 BRR  HN ES   1    947  2.16                             148     0.1 7   84 306 
 BRR  HZ I         947  4.55         7.0 0.58                            84 306 
 GRA  SZ EP        946 49.10                             134    -0.2 9  139  13 
 GRA  SZ I         947  9.93         1.7 0.05                           139  13 
 OCA  SZ EP   3    946 53.73                             127     1.0 2  177 352 
 OCA  SZ I         947 18.93         2.2 0.12                           177 352 
                                                                                
