 2010 11 3 0909  0.2 L   6.764 -73.153157.0  RSN  4 0.3 1.2LRSN                1
 GAP=212        0.63      14.9    26.6 10.8  0.3393E+03 -0.1245E+03 -0.6369E+02E
 Epicentro: LOS SANTOS - SANTANDER                                             3
 ACTION:UP  10-12-17 16:50 OP:REBC STATUS:               ID:20101103090900 L   I
 2010-11-03-0906-00S.COL___125                                                 6
 STAT SP IPHASW D HRMM SECON CODA AMPLIT PERI AZIMU VELO SNR AR TRES W  DIS CAZ7
 BAR2 SZ EP   1    9 9 20.71                             172    -0.4 7   19 190 
 BAR2 SZ ES   2    9 9 37.67                             172     0.3 5   19 190 
 BAR2 SZ I         9 9 39.45         3.7 0.46                            19 190 
 BTL  SZ EP   2    9 9 21.28                             172     0.1 5   21 324 
 BRR  HZ EP   1    9 9 22.58                             153    -0.1 7   73 302 
 BRR  HE ES   2    9 9 40.26                             153     0.1 5   73 302 
 BRR  HZ I         9 9 42.97         6.2 0.18                            73 302 
 RUS  HZ EP   1    9 9 25.20                             147     0.4 7   97 175 
 RUS  HE ES   2    9 9 43.61                             147    -0.4 5   97 175 
 RUS  HZ I         9 9 44.45         1.2 0.30                            97 175 
                                                                                
