 2012  4 3 0644 19.0 L   6.828 -73.146141.6  RSN 17 0.4 2.9LRSN                1
 GAP=103        0.83       3.1     3.6  5.5 -0.8424E+00  0.7181E+01  0.1099E+01E
 Epicentro: LOS SANTOS - SANTANDER                                             3
 ACTION:UPD 12-07-05 11:50 OP:tino STATUS:               ID:20120403064419 L   I
 2012-04-03-0637-59S.COL___204                                                 6
 STAT SP IPHASW D HRMM SECON CODA AMPLIT PERI AZIMU VELO AIN AR TRES W  DIS CAZ7
 BAR2 SZ IP        644 38.27                             169     0.110   26 189 
 BAR2 SZ ES   1    644 52.97                             169    -0.2 7   26 189 
 BAR2 SZ I         644 54.37       290.9 0.28                            26 189 
 BRR  HZ EP        644 40.05                             152     0.410   70 296 
 BRR  HZ I         645  0.28       182.2 0.16                            70 296 
 PAM  SZ EP        644 40.95                             151     0.310   75  41 
 PAM  SN ES   1    644 57.71                             151     0.2 7   75  41 
 PAM  SZ I         645  0.35       130.3 0.48                            75  41 
 RUS  HZ EP        644 42.19                             142    -0.410  104 176 
 RUS  HN ES   1    645  0.68                             142    -0.3 7  104 176 
 RUS  HZ I         645  2.79       123.0 0.25                           104 176 
 OCA  SZ EP   1    644 46.75                             129     0.0 7  157 353 
 YOP  SZ IP        644 49.03                             125     0.0 9  182 154 
 YOP  SZ I         644 50.90        40.2 0.17                           182 154 
 YOP  SE ES   1    645 12.69                             125     0.2 7  182 154 
 ZAR  HZ EP   1    644 50.98                             122    -0.1 6  203 291 
 ZAR  HN ES   1    645 16.07                             122     0.0 6  203 291 
 ZAR  HZ I         645 22.47       120.6 0.47                           203 291 
 NOR  SZ EP        644 54.41                             117    -0.3 8  236 234 
 NOR  SE ES   1    645 22.15                             117    -0.4 6  236 234 
 CHI  HZ EP   1    644 56.58                             116    -0.2 6  252 195 
 CHI  HZ I         645 29.83        42.1 0.84                           252 195 
 ROSC BZ EP   1    644 57.88                             116     0.7 6  255 211 
 ROSC BZ I         645 33.30        98.1 0.48                           255 211 
 HEL  HZ EP   1    644 59.17                             114     0.1 6  273 255 
 HEL  HN ES   1    645 30.16                             114    -0.2 6  273 255 
 HEL  HZ I         645 36.68        72.6 0.36                           273 255 
 RREF HZ EP   1    645  4.91                             110    -0.3 5  324 229 
 RREF HZ I         645 46.72        41.6 0.72                           324 229 
 DBB  SZ EP   1    645  6.19                             109    -0.1 5  339 274 
 COD  HZ EP   1    645  6.21                             108    -0.7 5  345 355 
 COD  HZ I         645 47.49        27.8 0.32                           345 355 
 TOL  SZ EP        645  8.44                             108     1.1 6  346 224 
 TOL  SZ ES   1    645 45.13                             108     0.1 5  346 224 
 SDV  BZ EP   1    645  7.84                             108    -0.8 5  358  51 
 PRA  HZ EP   1    645 12.55                             106    -0.2 4  395 209 
 PRA  HN ES   1    645 54.20                             106    -0.4 4  395 209 
                                                                                
