 2014  2 3 0813 33.3 L   6.809 -73.164135.1  RSN 15 0.5 1.9LRSN                1
 GAP= 70        1.18       3.3     3.6  6.7 -0.5258E-01  0.6568E+01 -0.1523E+01E
 Epicentro: LOS SANTOS - SANTANDER                                             3
 ACTION:UPD 14-03-10 08:07 OP:ep   STATUS:               ID:20140203081333 L   I
 OLDACT:REG 14-02-03 07:59 OP:nd   STATUS:               ID:20140203081000     3
 2014-02-03-0810-00M.COL___288                                                 6
 STAT SP IPHASW D HRMM SECON CODA AMPLIT PERI AZIMU VELO AIN AR TRES W  DIS CAZ7
 BAR2 SZ EP        813 51.78                             169    0.1410 24.1 185 
 BAR2 SZ ES        814  5.07                             169   -0.8910 24.1 185 
 BAR2 SZ I         814  8.42        24.7 0.26            170           24.1 185 
 PAM  SZ EP        813 54.80                             148    0.4010 77.9  41 
 PAM  SN ES        814 11.17                             148    0.2910 77.9  41 
 PAM  SZ I         814 12.62         9.4 0.22            150           77.9  41 
 RUS  HZ EP        813 55.78                             141   -0.3010  102 175 
 RUS  HN ES        814 13.84                             141   -0.0310  102 175 
 RUS  HZ I         814 16.11         6.4 0.32            143            102 175 
 PTB  HZ EP        813 58.55                             130   -0.67 9  146 258 
 PTB  HN ES        814 19.24                             130   -0.22 9  146 258 
 PTB  HZ I         814 24.68        11.1 0.30            130            146 258 
 TAM  HZ EP        814  0.29                             127   -0.05 9  157 105 
 TAM  HN ES        814 21.94                             127    0.49 9  157 105 
 TAM  HZ I         814 29.24         7.8 0.46            131            157 105 
 OCA  HZ EP   2    814  0.82                             127    0.16 5  159 354 
 OCA  HN ES   2    814 21.70                             127   -0.32 5  159 354 
 OCA  HZ I         814 30.30        11.1 0.26            128            159 354 
 SPBC HZ EP        814  0.76                             127   -0.17 9  163 218 
 SPBC HN ES        814 23.66                             127    1.16 9  163 218 
 SPBC HZ I         814 28.40        13.1 0.16            128            163 218 
 ZAR  HZ EP        814  4.90                             120    0.09 9  202 292 
 ZAR  HN ES        814 29.71                             120    0.31 9  202 292 
 ZAR  HZ I         814 34.89         9.1 0.50            121            202 292 
 SML  HZ EP        814  8.23                             115   -0.90 8  242 336 
 SML  HN ES        814 37.41                             115    0.31 8  242 336 
 SML  HZ I         814 38.88        12.1 0.36            116            242 336 
 CHI  HZ EP        814 10.00                             115   -0.45 8  249 195 
 CHI  HN ES        814 39.30                             115   -0.15 8  249 195 
 CHI  HZ I         814 44.55         5.3 0.38            116            249 195 
 HEL  HZ EP        814 13.46                             113    0.69 8  270 255 
 HEL  HN ES   2    814 44.00                             113    0.42 4  270 255 
 HEL  HZ I         814 50.50         4.7 0.24            113            270 255 
 URE  HZ EP   4    814 11.79                             111   -1.80 0  282 292 
 URE  HN ES   4    814 42.18                             111   -2.85 0  282 292 
 URE  HZ I         814 54.12         6.9 0.16            112            282 292 
 GUY2CHZ EP   4    814 16.82                             110    0.54 0  300 234 
 GUY2CHN ES   4    814 52.10                             110    2.26 0  300 234 
 GUY2CHZ I         814 58.31         5.7 0.60                           300 234 
 RREF BZ EP   4    814 19.82                             109    0.95 0  321 229 
 RREF BN ES   4    814 56.77                             109    2.33 0  321 229 
 RREF BZ I         814 59.20         5.6 0.22            110            321 229 
 SJC  HZ EP   4    814 26.06                             104   -2.21 0  407 327 
 SJC  HN ES   4    815  6.67                             104   -4.50 0  407 327 
 SJC  HZ I         815 19.46         2.4 0.40            105            407 327 
                                                                                
