 2012  9 3 0904  0.6 L   6.836 -73.024137.1  RSN  5 0.3 1.5LRSN                1
 GAP=195        0.68       4.4    11.6  7.4  0.2386E+02 -0.2383E+02 -0.4549E+01E
 Epicentro: CEPITA - SANTANDER                                                 3
 ACTION:UPD 12-10-22 14:16 OP:ep   STATUS:               ID:20120903090400 L   I
 2012-09-03-0900-00M.COL___218                                                 6
 STAT SP IPHASW D HRMM SECON CODA AMPLIT PERI AZIMU VELO AIN AR TRES W  DIS CAZ7
 BAR2 SZ EP   1    9 4 20.20                             166    0.75 7 32.1 213 
 BAR2 SZ ES   1    9 4 34.06                             166   -0.07 7 32.1 213 
 BAR2 SZ I         9 4 35.48         7.6 0.28                          32.1 213 
 GIR2 SZ EP   1    9 4 19.28                             166   -0.05 7 32.7 325 
 GIR2 SZ ES   1    9 4 34.13                             166    0.22 7 32.7 325 
 BRR  HZ EP   1    9 4 21.30                             147   -0.22 7 81.7 292 
 BRR  HN ES   1    9 4 37.91                             147    0.11 7 81.7 292 
 BRR  HZ I         9 4 42.20         5.5 0.14                          81.7 292 
 RUS  HZ EP   1    9 4 23.83                             141   -0.02 7  104 184 
 RUS  HN ES   1    9 4 41.52                             141   -0.43 7  104 184 
 OCA  HN ES   1    9 4 49.21                             128   -0.36 7  159 348 
                                                                                
