 2015  2 3 0625 25.1 L   6.808 -73.161145.9  RSN 17 0.4 2.3LRSN                1
 GAP=117        0.95       2.4     3.3  4.6 -0.8901E+00  0.2613E+01  0.4734E+00E
 Epicentro: LOS SANTOS - SANTANDER                                             3
 ACTION:UPD 15-04-30 21:21 OP:nd   STATUS:               ID:20150203062525 L   I
 OLDACT:UP  15-02-03 19:14 OP:mh   STATUS:               ID:20150203061743d    3
 OLDACT:UP  15-02-03 19:14 OP:mh   STATUS:               ID:20150203061743d    3
 OLDACT:UP  15-02-03 19:13 OP:mh   STATUS:               ID:20150203061743d    3
 OLDACT:UP  15-02-03 19:13 OP:mh   STATUS:               ID:20150203061743d    3
 OLDACT:UP  15-02-03 19:12 OP:mh   STATUS:               ID:20150203061743d    3
 OLDACT:UP  15-02-03 19:11 OP:mh   STATUS:               ID:20150203061743d    3
 OLDACT:DUP 15-02-03 19:02 OP:mh   STATUS:               ID:20150203061743d    3
 OLDACT:UP  15-02-03 19:02 OP:mh   STATUS:               ID:20150203061742     3
 OLDACT:REG 15-02-03 13:44 OP:stll STATUS:               ID:20150203061742     3
 2015-02-03-0617-42M.COL___262                                                 6
 STAT SP IPHASW D HRMM SECON CODA AMPLIT PERI AZIMU VELO AIN AR TRES W  DIS CAZ7
 BAR2 EZ EP        625 44.99                             170    0.1810 24.0 186 
 BAR2 EZ ES        625 59.58                             170   -0.5710 24.0 186 
 BAR2 EZ I         626  1.23        37.6 0.22            168           24.0 186 
 BRR  HZ EP        625 46.79                             153    0.5810 69.2 299 
 BRR  HN ES        626  3.29                             153    0.6610 69.2 299 
 BRR  HZ I         626  8.10        24.2 0.06            149           69.2 299 
 PAM  SZ EP        625 47.87                             151    0.4610 77.8  41 
 PAM  SN ES        626  4.86                             151    0.0910 77.8  41 
 RUS  HZ EP        625 49.14                             143    0.1510  102 175 
 RUS  HN ES        626  7.73                             143    0.1510  102 175 
 RUS  HZ I         626  9.06        28.6 0.27            145            102 175 
 PTB  HZ EP        625 51.82                             132   -0.17 9  146 258 
 PTB  HN ES        626 12.56                             132   -0.37 9  146 258 
 PTB  HZ I         626 19.98        18.1 0.28            130            146 258 
 OCA  HZ EP        625 53.07                             130   -0.30 9  159 354 
 OCA  HN ES        626 14.81                             130   -0.57 9  159 354 
 OCA  HZ I         626 27.01        12.0 0.13            130            159 354 
 SPBC HZ EP        625 53.80                             129    0.18 9  163 218 
 SPBC HN ES        626 15.54                             129   -0.29 9  163 218 
 SPBC HZ I         626 18.70        41.6 0.24            128            163 218 
 ZAR  HZ EP   1    625 57.52                             123    0.12 6  202 292 
 ZAR  HN ES        626 22.78                             123    0.22 9  202 292 
 ZAR  HZ I         626 31.52        14.8 0.48            121            202 292 
 NOR  HZ EP        626  0.58                             119   -0.21 8  234 234 
 NOR  HN ES        626 28.42                             119   -0.17 8  234 234 
 NOR  HZ I         626 36.41        18.6 0.56            118            234 234 
 SML  HZ EP        626  1.26                             118   -0.36 8  242 336 
 SML  HN ES        626 29.74                             118   -0.33 8  242 336 
 SML  HZ I         626 34.44        31.9 0.10            118            242 336 
 CHI  HZ EP        626  3.14                             117    0.24 8  249 195 
 CHI  HN ES        626 32.45                             117    0.11 8  249 195 
 CHI  HZ I         626 36.16        13.5 0.27            117            249 195 
 ROSC BZ EP   9    626  5.20                             117    1.94 0  253 211 
 ROSC BN ES        626 34.61                                   -0.32 8  253 211 
 ROSC BZ I         626 42.98        19.9 0.40            117            253 211 
 HEL  HZ EP        626  5.92                             115    0.71 8  271 256 
 HEL  HN ES        626 36.25                             115   -0.20 8  271 256 
 HEL  HZ I         626 42.76         9.9 0.26            114            271 256 
 URE  HZ EP   4    626  3.73                             114   -2.28 0  282 292 
 URE  HN ES   4    626 37.08                             114   -0.80 0  282 292 
 GUY2CHZ EP   4    626 10.14                             112    1.48 0  300 234 
 GUY2CHN ES   4    626 44.29                             112    1.69 0  300 234 
 GUY2CHZ I         626 55.35         8.4 0.46                           300 234 
 PTGC HZ EP        626  8.25                             111   -0.93 7  310 158 
 PTGC HN ES   4    626 41.00                             111   -2.52 0  310 158 
 PTGC HZ I         626 47.67        14.0 0.41            113            310 158 
 RREF HZ EP   4    626 12.96                             111    1.75 0  321 229 
 RREF HN ES   4    626 48.00                             111    0.86 0  321 229 
 TOL  SZ EP   4    626 14.72                             109    1.38 0  343 224 
 TOL  SN ES   4    626 52.66                             109    1.73 0  343 224 
 TOL  SZ I         626 58.42         9.2 0.50            109            343 224 
 ANIL HZ EP   4    626 15.16                             108    0.27 0  357 224 
 ANIL HN ES   4    626 54.88                             108    1.19 0  357 224 
 ANIL HZ I         627  1.93         2.7 0.28            109            357 224 
                                                                                
