 2015 10 3 0257 41.3 L   6.103 -73.837  4.0  RSN  4 0.3 1.5LRSN                1
 GAP=102        0.83       2.0     2.0  5.5  0.5384E+00  0.5074E+00  0.6934E+00E
 Epicentro: EL PENON - SANTANDER                                               3
 ACTION:UPD 15-12-22 20:37 OP:cam  STATUS:               ID:20151003025741 L   I
 OLDACT:DUP 15-10-03 16:56 OP:stll STATUS:               ID:20151003024749d    3
 2015-10-03-0247-48M.COL___352                                                 6
 STAT SP IPHASW D HRMM SECON CODA AMPLIT PERI AZIMU VELO AIN AR TRES W  DIS CAZ7
 SPBC HZ EP        257 50.40                              47   -0.0610 56.2 208 
 SPBC HN ES        257 57.90                              47    0.2510 56.2 208 
 SPBC HZ I         257 58.39        40.3 0.10            100           56.2 208 
 PTB  HZ EP        257 54.17                              47   -0.3910 83.8 305 
 PTB  HN ES        258  4.75                              47   -0.1910 83.8 305 
 PTB  HZ I         258  5.44        10.9 0.12             97           83.8 305 
 RUS  HZ EP        257 55.67                              47    0.1810 86.7 106 
 RUS  HE ES        258  6.21                              47   -0.3910 86.7 106 
 BRR  HZ EP        257 59.38                              47    0.5810  112   7 
 BRR  HE ES   1    258 12.56                              47    0.07 7  112   7 
                                                                                
