 2014 11 3 0909  9.3 L   6.634 -73.593110.6  RSN  7 0.5 1.7LRSN                1
 GAP= 82        1.28       3.9     4.7  8.4 -0.4292E+01  0.1915E+01 -0.3561E+01E
 Epicentro: EL CARMEN - SANTANDER                                              3
 ACTION:UPD 14-12-19 15:39 OP:nd   STATUS:               ID:20141103090909 L   I
 OLDACT:REG 14-11-03 13:30 OP:carl STATUS:               ID:20141103090742     3
 2014-11-03-0907-42M.COL___259                                                 6
 STAT SP IPHASW D HRMM SECON CODA AMPLIT PERI AZIMU VELO AIN AR TRES W  DIS CAZ7
 BAR2 SZ EP        9 9 25.91                             156    0.3510 45.7  96 
 BAR2 SZ ES        9 9 38.55                             156    0.2910 45.7  96 
 BRR  HZ EP        9 9 26.15                             152    0.5010 53.9 346 
 BRR  HN ES        9 9 39.27                             152    0.8410 53.9 346 
 BRR  HZ I         9 9 39.80        20.9 0.48            152           53.9 346 
 PTB  HZ EP        9 9 28.69                             136   -0.0310 96.0 264 
 PTB  HN ES        9 9 43.04                             136   -0.8510 96.0 264 
 PTB  HZ I         9 9 47.84         9.0 0.14            135           96.0 264 
 RUS  HZ EP        9 9 30.00                             135    0.3310 99.5 145 
 RUS  HN ES        9 9 45.03                             135   -0.5610 99.5 145 
 RUS  HZ I         9 9 46.42         8.8 0.32            138           99.5 145 
 SPBC HZ EP        9 9 31.46                             129    0.4010  121 206 
 SPBC HN ES        9 9 47.90                             129   -0.1610  121 206 
 SPBC HZ I         9 9 54.22         7.5 0.44            129            121 206 
 PAM  SZ EP        9 9 31.99                             128   -0.0910  126  52 
 PAM  SN ES        9 9 49.18                             128   -0.6810  126  52 
 PAM  SZ I         9 9 50.39        12.5 0.18            130            126  52 
 OCA  HZ EP        9 9 37.29                             117    0.05 9  180  10 
 OCA  HN ES        9 9 58.50                             117   -0.55 9  180  10 
 OCA  HZ I         910  3.94         6.5 0.24            118            180  10 
                                                                                
