 2013  3 3 0353 32.9 L   6.764 -73.155143.6  RSN  6 0.3 1.8LRSN                1
 GAP=137        0.78       3.6     4.0  5.7 -0.1515E+01  0.2851E+01  0.2443E+01E
 Epicentro: LOS SANTOS - SANTANDER                                             3
 ACTION:UPD 13-04-09 13:59 OP:ep   STATUS:               ID:20130303035332 L   I
 2013-03-03-0348-44M.COL___193                                                 6
 STAT SP IPHASW D HRMM SECON CODA AMPLIT PERI AZIMU VELO AIN AR TRES W  DIS CAZ7
 BAR2 SZ EP        353 52.19                             172    0.0410 19.2 189 
 BAR2 SZ ES        354  7.07                             172   -0.1210 19.2 189 
 BAR2 SZ I         354  8.61        19.7 0.20            171           19.2 189 
 BRR  HZ EP        353 54.12                             152    0.2810 72.3 302 
 BRR  HN ES        354 10.75                             152    0.5510 72.3 302 
 BRR  HN I         354 11.30        28.2 0.20            151           72.3 302 
 PAM  SZ EP        353 55.12                             149    0.0510 81.1  38 
 PAM  SE ES        354 12.12                             149   -0.2810 81.1  38 
 PAM  SN I         354 13.39         9.9 0.22            152           81.1  38 
 RUS  HZ EP        353 56.24                             144    0.1310 96.6 175 
 RUS  HN ES        354 14.17                             144   -0.0810 96.6 175 
 RUS  HE I         354 15.86         3.0 0.22            146           96.6 175 
 PTB  HZ EP        353 59.07                             132   -0.42 9  146 260 
 PTB  HN ES        354 19.85                             132   -0.41 9  146 260 
 PTB  HE I         354 25.34        10.5 0.40            132            146 260 
 CHI  HN ES   1    354 39.41                             117    0.47 6  244 195 
                                                                                
