 2016 11 3 0510 58.4 L   6.792 -73.169156.9  RSN  5 0.4 1.2LRSN                1
 GAP=234        0.70       5.4     5.4  6.3  0.1259E+02 -0.1943E+01  0.2158E+01E
 Epicentro: LOS SANTOS - SANTANDER                                             3
 ACTION:UPD 17-10-26 21:04 OP:lp   STATUS:               ID:20161103051058 L   I
 OLDACT:UP  16-11-03 15:13 OP:dani STATUS:               ID:20161103050750d    3
 OLDACT:UP  16-11-03 15:13 OP:dani STATUS:               ID:20161103050750d    3
 OLDACT:UP  16-11-03 15:05 OP:dani STATUS:               ID:20161103050750d    3
 OLDACT:DUP 16-11-03 14:53 OP:dani STATUS:               ID:20161103050750d    3
 OLDACT:REG 16-11-03 12:28 OP:dani STATUS:               ID:20161103050749     3
 2016-11-03-0508-00M.COL___337                                                 6
 STAT SP IPHASW D HRMM SECON CODA AMPLIT PERI AZIMU VELO AIN AR TRES W  DIS CAZ7
 BAR2 EZ EP        511 19.19                             172   -0.1510 22.2 184 
 BAR2 EZ I         511 35.50         5.1 0.48            172           22.2 184 
 BRR  HZ EP        511 20.78                             155    0.1210 69.4 300 
 BRR  HE ES        511 38.27                             155    0.2410 69.4 300 
 BRR  HZ I         511 41.19         3.1 0.24            156           69.4 300 
 RUS  HZ EP        511 23.34                             146    0.1310 99.9 175 
 RUS  HN ES        511 42.43                             146   -0.1410 99.9 175 
 RUS  HZ I         511 43.03         1.6 0.21            146           99.9 175 
 PTB  HZ EP        511 25.83                             135   -0.23 9  145 259 
 PTB  HE ES        511 47.23                             135   -0.41 9  145 259 
 PTB  HZ I         511 50.55         1.3 0.11            136            145 259 
 SPBC HZ EP        511 27.91                             132    0.35 9  161 218 
 SPBC HN ES   3    511 51.99                             132    1.67 2  161 218 
 SPBC HZ I         511 57.08         2.7 0.14            132            161 218 
                                                                                
