 2015  9 3 0950 10.3 L   6.477 -73.735102.4  RSN 21 0.5 2.3LRSN                1
 GAP= 65        1.12       2.0     2.6  5.5 -0.9815E-03  0.5518E+01  0.9250E+00E
 Epicentro: SANTA HELENA DEL OPON - SANTANDER                                  3
 ACTION:UPD 15-10-28 16:23 OP:cam  STATUS:               ID:20150903095010 L   I
 OLDACT:UP  15-09-03 18:42 OP:ak   STATUS:               ID:20150903094745     3
 OLDACT:REG 15-09-03 13:02 OP:stll STATUS:               ID:20150903094745     3
 2015-09-03-0947-45M.COL___346                                                 6
 STAT SP IPHASW D HRMM SECON CODA AMPLIT PERI AZIMU VELO AIN AR TRES W  DIS CAZ7
 BAR2 EZ IP     D  950 27.15                             146    0.5010 62.4  78 
 BAR2 EZ ES        950 39.73                             146    0.3010 62.4  78 
 BAR2 EZ I         950 41.50        64.4 0.36            147           62.4  78 
 BRR  HZ EP        950 27.08                             143    0.2510 69.8   2 
 BRR  HN ES        950 39.54                             143   -0.2110 69.8   2 
 BRR  HZ I         950 40.81        37.9 0.24            142           69.8   2 
 PTB  HZ EP     D  950 26.86                             139   -0.7910 80.1 275 
 PTB  HN ES   4    950 39.60                             139   -1.61 0 80.1 275 
 PTB  HZ I         950 40.66        37.7 0.28            137           80.1 275 
 RUS  HZ EP        950 29.93                             133    0.2110 96.8 132 
 RUS  HN ES        950 44.56                             133   -0.3410 96.8 132 
 RUS  HZ I         950 47.14        43.1 0.18            134           96.8 132 
 SPBC HZ EP        950 29.41                             132    0.0810 98.5 202 
 SPBC HN ES        950 43.72                             132   -0.4810 98.5 202 
 SPBC HZ I         950 48.41        53.2 0.24            132           98.5 202 
 NOR  HZ EP        950 36.23                             117    0.64 9  161 231 
 NOR  HN ES        950 55.20                             117   -0.14 9  161 231 
 NOR  HZ I         950 58.65        45.5 0.05            116            161 231 
 ZAR  HZ EP        950 36.73                             116    0.52 9  167 312 
 ZAR  HN ES        950 56.79                             116    0.34 9  167 312 
 ZAR  HZ I         951  0.43        45.1 0.20            115            167 312 
 OCA  HZ EP        950 39.95                             111   -0.11 9  200  13 
 OCA  HE ES        951  3.90                             111    0.60 9  200  13 
 OCA  HZ I         951 10.63        39.1 0.17            111            200  13 
 HEL  HZ EP        950 41.12                             111    0.70 9  201 261 
 HEL  HN ES        951  3.99                             111    0.04 9  201 261 
 HEL  HZ I         951  8.41        14.8 0.28            111            201 261 
 CHI  HZ EP        950 39.93                             111   -0.92 9  204 180 
 CHI  HN ES        951  4.46                             111   -0.24 9  204 180 
 GUY2CHZ EP        950 44.34                             108    0.74 8  227 233 
 GUY2CHN ES        951  9.64                             108    0.04 8  227 233 
 GUY2CHZ I         951 19.15         9.4 0.50                           227 233 
 URE  HZ EP   1    950 44.18                             107   -0.71 6  244 305 
 URE  HE ES        951 10.99                             107   -0.90 8  244 305 
 URE  HZ I         951 18.44        22.2 0.28            106            244 305 
 SML  HZ EP        950 46.82                             105    0.06 8  260 352 
 SML  HN ES        951 14.97                             105   -0.26 8  260 352 
 SML  HZ I         951 21.73        16.7 0.10            105            260 352 
 CBOC HZ EP   1    950 46.81                             105   -0.32 6  261 255 
 CBOC HN ES        951 16.06                             105    0.18 8  261 255 
 TOL  SZ EP   1    950 49.60                             104    0.84 6  273 220 
 TOL  SN ES        951 19.24                             104    0.45 8  273 220 
 TOL  SZ I         951 25.21         9.7 0.40            104            273 220 
 DBB  SZ EP        950 49.03                             104   -0.24 7  280 282 
 DBB  SZ ES        951 18.96                             104   -0.74 7  280 282 
 DBB  SZ I         951 25.06        17.9 0.21            103            280 282 
 PTGC HZ EP        950 51.86                             102   -0.64 7  308 145 
 PTGC HN ES        951 25.27                             102   -0.18 7  308 145 
 ORTC HZ EP   4    950 56.55                             100    1.42 0  330 211 
 ORTC HN ES        951 30.38                             100    0.25 7  330 211 
 ORTC HZ I         951 37.23         6.7 0.22            100            330 211 
 PRA  HZ EP        950 56.00                             100    0.69 7  331 203 
 PRA  HN ES        951 30.88                             100    0.43 7  331 203 
 PRA  HZ I         951 38.28         6.6 0.35            100            331 203 
 SJC  HZ EP        951  4.04                              96   -0.86 6  410 337 
 SJC  HN ES   4    951 43.81                              96   -3.71 0  410 337 
 SJC  HZ I         951 48.37         3.3 0.58             95            410 337 
 MACC HZ EP        951 12.18                              93   -1.02 5  479 182 
 MACC HN ES   4    951 57.91                              93   -4.39 0  479 182 
 MACC HZ I         952 12.14         3.7 0.79             91            479 182 
 CRJC HZ EP   4    951 15.48                              92   -1.73 0  511  11 
                                                                                
