 2011  6 3 0858 12.0 L   6.794 -73.112144.0  RSN  5 0.4 1.5LRSN                1
 GAP=141        0.83       6.5    10.0 10.4  0.1146E+02 -0.2316E+02 -0.5068E+01E
 Epicentro: LOS SANTOS - SANTANDER                                             3
 ACTION:UP  11-07-14 19:02 OP:ep   STATUS:               ID:20110603085812 L   I
 2011-06-03-0856-38S.COL___132                                                 6
 STAT SP IPHASW D HRMM SECON CODA AMPLIT PERI AZIMU VELO SNR AR TRES W  DIS CAZ7
 BTL  SZ EP   1    858 32.14                             171     0.7 7   22 309 
 BAR2 SZ EP   1    858 30.88                             170    -0.6 7   24 199 
 BAR2 SZ I         858 31.44         6.3 0.07                            24 199 
 BAR2 SZ ES   2    858 46.11                             170    -0.5 5   24 199 
 BRR  HZ EP   1    858 32.88                             151    -0.3 7   75 298 
 BRR  HZ I         858 33.17        10.6 0.18                            75 298 
 BRR  HN ES   1    858 49.87                             151     0.2 7   75 298 
 PAM  SZ EP   1    858 33.95                             151     0.0 7   76  37 
 PAM  SN ES   2    858 51.11                             151     0.1 5   76  37 
 RUS  HZ EP   1    858 35.55                             144     0.0 7  100 178 
 RUS  HZ I         858 35.84         2.4 0.11                           100 178 
 RUS  HN ES   1    858 54.11                             144     0.2 7  100 178 
                                                                                
