 2017  8 3 0535 26.5 L   6.793 -73.163144.4  RSN  6 0.4 1.2LRSN                1
 GAP=235        1.09       6.2     6.4  8.7  0.1622E+02  0.8348E+01 -0.6561E+00E
 Epicentro: LOS SANTOS - SANTANDER                                             3
 ACTION:UPD 17-09-04 20:15 OP:rebc STATUS:               ID:20170803053526 L   I
 OLDACT:UP  17-08-03 18:42 OP:edw  STATUS:               ID:20170803052745d    3
 OLDACT:DUP 17-08-03 18:39 OP:edw  STATUS:               ID:20170803052745d    3
 OLDACT:UP  17-08-03 18:39 OP:edw  STATUS:               ID:20170803052744     3
 OLDACT:REG 17-08-03 14:55 OP:osc  STATUS:               ID:20170803052744     3
 2017-08-03-0528-00M.COL___398                                                 6
 STAT SP IPHASW D HRMM SECON CODA AMPLIT PERI AZIMU VELO AIN AR TRES W  DIS CAZ7
 BAR2 EZ EP        535 46.05                             171    0.1210 22.3 186 
 BAR2 EZ ES        536  0.45                             171   -0.6510 22.3 186 
 BAR2 EZ I         536  2.53         2.8 0.48            173           22.3 186 
 BRR  HZ EP        535 47.08                             153   -0.3310 69.9 300 
 BRR  HN ES        536  4.59                             153    0.8510 69.9 300 
 BRR  HZ I         536 11.57         7.5 0.26            151           69.9 300 
 RUS  HZ EP        535 50.50                             144    0.4510 99.9 175 
 RUS  HN ES        536  8.35                             144   -0.0910 99.9 175 
 PTB  HZ EP        535 52.90                             132   -0.26 9  146 259 
 PTB  HN ES        536 13.75                             132   -0.21 9  146 259 
 PTB  HZ I         536 19.41         1.0 0.42            134            146 259 
 SPBC HN ES        536 16.98                             129    0.26 9  161 219 
 ZAR  HN ES        536 23.59                             122   -0.22 9  203 293 
                                                                                
