 2013  5 3 0048  4.5 L   6.167 -73.611114.0  RSN  8 0.2 2.1LRSN                1
 GAP= 90        0.52       2.4     1.9  4.2 -0.5221E+00  0.2242E+01  0.3267E+01E
 Epicentro: LA PAZ - SANTANDER                                                 3
 ACTION:UPD 13-06-20 09:47 OP:ep   STATUS:               ID:20130503004804 L   I
 2013-05-03-0040-00M.COL___253                                                 6
 STAT SP IPHASW D HRMM SECON CODA AMPLIT PERI AZIMU VELO AIN AR TRES W  DIS CAZ7
 RUS  HZ IP     D  048 22.77                             148    0.0610 65.9 117 
 RUS  HZ I         048 23.12        22.4 0.16             99           65.9 117 
 RUS  HN ES   1    048 36.69                             148   -0.19 7 65.9 117 
 BAR2 SZ EP     C  048 22.63                             148    0.2210 66.8  45 
 BAR2 SZ ES        048 36.39                             148    0.0510 66.8  45 
 BAR2 SZ I         048 37.57        71.0 0.23             98           66.8  45 
 PTB  HZ EP   1    048 24.46                             135   -0.34 7  102 294 
 PTB  HN ES        048 40.75                             135    0.1410  102 294 
 BRR  HZ IP     D  048 24.66                             134   -0.3310  105 354 
 BRR  HZ I         048 25.01        20.7 0.12             96            105 354 
 BRR  HN ES        048 40.92                             134   -0.0210  105 354 
 GIR2 SZ EP        048 25.91                             133    0.1610  111  25 
 GIR2 SZ I         048 46.22        18.7 0.45             95            111  25 
 NOR  HZ EP     D  048 29.55                             122   -0.31 9  154 244 
 NOR  HN ES   1    048 49.48                             122   -0.13 7  154 244 
 NOR  HZ I         048 53.04        24.9 0.34             95            154 244 
 HEL  HZ EP   1    048 36.62                             114    0.11 6  212 271 
 HEL  HN ES        049  1.67                             114    0.23 8  212 271 
 HEL  HZ I         049  4.11        11.1 0.46             56            212 271 
 PRA  HZ EP   1    048 47.26                             105    0.36 5  306 208 
 PRA  HE ES   2    049 20.30                             105    0.36 4  306 208 
 PRA  HZ I         049 24.72         8.3 0.26             55            306 208 
                                                                                
