 2014  5 3 0221 49.7 L   6.789 -73.191136.0  RSN  5 0.4 1.5LRSN                1
 GAP=131        1.03       5.0     4.6 10.4 -0.2499E+01  0.2023E+02  0.4739E+01E
 Epicentro: ZAPATOCA - SANTANDER                                               3
 OLDACT:REG 14-05-03 13:19 OP:fm   STATUS:               ID:20140503021807     3
 ACTION:UPD 15-03-16 16:54 OP:nd   STATUS:               ID:20140503022149 L   I
 OLDACT:UP  14-05-03 16:31 OP:fm   STATUS:               ID:20140503021807     3
 2014-05-03-0218-07M.COL___245                                                 6
 STAT SP IPHASW D HRMM SECON CODA AMPLIT PERI AZIMU VELO AIN AR TRES W  DIS CAZ7
 PAM  SZ EP        222 11.06                             148   -0.0910 81.5  42 
 PAM  SN ES        222 27.97                             148    0.0910 81.5  42 
 PAM  SZ I         222 29.63         5.1 0.24            158           81.5  42 
 RUS  HZ EP        222 12.27                             142   -0.1810 99.9 173 
 RUS  HN ES        222 30.51                             142    0.3210 99.9 173 
 PTB  HZ EP        222 14.84                             131   -0.57 9  143 259 
 PTB  HN ES        222 34.83                             131   -0.63 9  143 259 
 PTB  SZ I         222 50.90         5.5 1.16            134            143 259 
 ZAR  HE ES        222 46.27                             121    0.70 9  200 293 
 GUY2CHZ EP   1    222 32.82                             111    0.49 5  296 234 
 GUY2CHN ES        223  6.06                             111    0.48 7  296 234 
 GUY2CSZ I         223 16.98         2.0 0.80                           296 234 
 SJC  HN ES   4    223 23.21                             104   -4.48 0  408 328 
                                                                                
