 2010  7 3 0250 59.4 L   6.811 -73.066143.1  RSN  6 0.3 1.6LRSN                1
 GAP=165        0.67       3.9     7.5  7.8 -0.4366E+01 -0.1998E+02 -0.8593E+01E
 Epicentro: LOS SANTOS - SANTANDER                                             3
 ACTION:UPD 10-12-01 15:14 OP:pat  STATUS:               ID:20100703025059 L   I
 2010-07-03-0247-28S.COL___118                                                 6
 STAT SP IPHASW D HRMM SECON CODA AMPLIT PERI AZIMU VELO AIN AR TRES W  DIS CAZ7
 BAR2 SZ EP        251 18.67                             169    -0.210   28 208 
 BAR2 SZ ES   2    251 33.76                             169    -0.2 5   28 208 
 BRR  HZ EP        251 20.68                             150    -0.110   79 295 
 BRR  HE ES   1    251 37.47                             150     0.1 7   79 295 
 BRR  HZ I         251 38.95        12.1 0.12                            79 295 
 RUS  HZ EP   2    251 23.34                             143     0.3 5  102 181 
 RUS  HE ES   1    251 41.54                             143     0.2 7  102 181 
 RUS  HZ I         251 43.00         4.9 0.39                           102 181 
 BRI  SZ EP        251 22.36                             142    -0.410  104  17 
 GUE  SZ EP        251 23.68                             140     0.010  114   8 
 GRA  SZ EP        251 24.62                             137     0.510  122  14 
 GRA  SZ ES   1    251 43.54                             137     0.1 7  122  14 
                                                                                
