 2013  4 3 0651  6.7 L   6.796 -73.146141.1  RSN 13 0.4 2.0LRSN                1
 GAP= 71        0.80       2.9     2.9  5.3 -0.2255E+00  0.3662E+01  0.2450E+01E
 Epicentro: LOS SANTOS - SANTANDER                                             3
 ACTION:UPD 13-05-22 14:35 OP:EP   STATUS:               ID:20130403065106 L   I
 2013-04-03-0650-00M.COL___245                                                 6
 STAT SP IPHASW D HRMM SECON CODA AMPLIT PERI AZIMU VELO AIN AR TRES W  DIS CAZ7
 BAR2 SZ EP   1    651 25.69                             170   -0.05 7 22.9 190 
 BAR2 SZ ES   1    651 40.70                             170    0.09 7 22.9 190 
 BAR2 SZ I         651 41.95        46.5 0.20            169           22.9 190 
 BRR  HZ IP        651 27.63                             152    0.3010 71.4 299 
 BRR  HZ EP     D  651 27.65                             152    0.3210 71.4 299 
 BRR  HN ES   1    651 44.34                             152    0.89 7 71.4 299 
 BRR  HZ I         651 49.48        21.7 0.14            150           71.4 299 
 PAM  SZ EP        651 28.58                             150    0.1610 77.8  39 
 PAM  SN ES   1    651 45.22                             150   -0.16 7 77.8  39 
 PAM  SZ I         651 47.54        16.2 0.44            155           77.8  39 
 RUS  HZ EP        651 29.82                             143   -0.1210  100 176 
 RUS  HN ES   1    651 47.74                             143   -0.34 7  100 176 
 RUS  HZ I         651 49.83         4.9 0.38            146            100 176 
 PTB  HZ EP   1    651 32.92                             131   -0.34 7  148 259 
 PTB  HN ES   1    651 53.46                             131   -0.53 7  148 259 
 PTB  HZ I         651 56.25        15.1 0.10            131            148 259 
 TAM  HZ EP   1    651 34.23                             130    0.25 7  155 105 
 TAM  HN ES   1    651 55.38                             130    0.10 7  155 105 
 OCA  HZ EP   1    651 34.20                             128   -0.47 7  161 353 
 OCA  HN ES   1    651 55.52                             128   -0.99 7  161 353 
 OCA  HZ I         651 58.89        14.0 0.28            131            161 353 
 ZAR  HZ EP        651 38.64                             121   -0.20 9  204 292 
 ZAR  HN ES   1    652  4.32                             121    0.40 6  204 292 
 ZAR  HZ I         652 12.12        10.0 0.54            122            204 292 
 NOR  HZ EP   1    651 42.39                             118    0.28 6  234 235 
 NOR  HN ES   1    652  9.84                             118    0.10 6  234 235 
 NOR  HZ I         652 13.93         6.2 0.52            119            234 235 
 CHI  HZ EP   1    651 44.30                             116    0.23 6  248 195 
 CHI  HN ES   1    652 12.55                             116   -0.69 6  248 195 
 CHI  HZ I         652 16.68         2.9 0.42            118            248 195 
 HEL  HZ EP   1    651 47.22                             114    0.58 6  272 256 
 HEL  HN ES   1    652 17.22                             114   -0.59 6  272 256 
 HEL  HZ I         652 24.54         3.6 0.38            115            272 256 
 PRA  HZ EP   1    651 59.93                             106   -0.06 4  392 210 
 PRA  HN ES   1    652 41.89                             106    0.32 4  392 210 
 PRA  HZ I         652 47.30         3.7 0.28            108            392 210 
 SJC  HZ EP   4    652  0.63                             105   -1.50 0  410 327 
 SJC  HN ES   4    652 41.51                             105   -3.88 0  410 327 
 SJC  HZ I         652 45.31         5.2 0.50            107            410 327 
                                                                                
