 2017  8 3 0615 20.9 L   6.805 -73.117141.3  RSN  7 0.4 1.0LRSN                1
 GAP=140        0.93       4.0     4.0  6.7 -0.8571E+00  0.5730E+01  0.1012E+01E
 Epicentro: LOS SANTOS - SANTANDER                                             3
 ACTION:UPD 17-09-04 20:15 OP:rebc STATUS:               ID:20170803061520 L   I
 OLDACT:UP  17-08-03 18:18 OP:dhb  STATUS:               ID:20170803060744     3
 OLDACT:REG 17-08-03 14:58 OP:osc  STATUS:               ID:20170803060744     3
 2017-08-03-0608-00M.COL___398                                                 6
 STAT SP IPHASW D HRMM SECON CODA AMPLIT PERI AZIMU VELO AIN AR TRES W  DIS CAZ7
 BAR2 HZ EP        615 39.92                             170   -0.0710 24.6 197 
 BAR2 HZ ES        615 54.56                             170   -0.3410 24.6 197 
 BAR2 HZ I         616  3.26         1.6 0.23            168           24.6 197 
 BRR  HZ EP        615 41.80                             151    0.1110 73.7 297 
 BRR  HE ES        615 58.60                             151    0.6810 73.7 297 
 BRR  HZ I         616  1.46         4.0 0.46            156           73.7 297 
 PAM  EZ IP     D  615 42.76                             151    0.2910 75.0  38 
 PAM  EN ES        615 59.16                             151   -0.1610 75.0  38 
 PAM  EZ I         616  0.83         1.9 0.28            158           75.0  38 
 RUS  HZ EP        615 44.29                             143    0.0710  101 178 
 RUS  HN ES        616  2.21                             143   -0.2110  101 178 
 RUS  HZ I         616  7.33         0.8 0.15            145            101 178 
 PTB  HZ EP        615 47.26                             130   -0.52 9  151 259 
 PTB  HN ES        616  8.38                             130   -0.38 9  151 259 
 PTB  HZ I         616 10.56         0.7 0.15            135            151 259 
 SPBC HZ EP   2    615 49.90                             128    0.63 5  166 220 
 SPBC HE ES        616 11.99                             128    0.58 9  166 220 
 SPBC HZ I         616 15.88         1.8 0.08            132            166 220 
 ZAR  HE ES        616 18.34                             121   -0.28 8  207 292 
                                                                                
