 2017  9 3 0242 44.5 L   6.827 -73.121144.5  RSN 17 0.5 2.4LRSN                1
 GAP= 67        0.99       3.0     3.1  4.7  0.5345E+00  0.3541E+01  0.1364E+01E
 Epicentro: LOS SANTOS - SANTANDER                                             3
 ACTION:UPD 17-10-05 19:08 OP:rebc STATUS:               ID:20170903024244 L   I
 OLDACT:UP  17-09-03 14:31 OP:dani STATUS:               ID:20170903023739     3
 OLDACT:UP  17-09-03 14:31 OP:dani STATUS:               ID:20170903023739     3
 OLDACT:UP  17-09-03 14:31 OP:dani STATUS:               ID:20170903023739     3
 OLDACT:REG 17-09-03 13:12 OP:dani STATUS:               ID:20170903023739     3
 2017-09-03-0238-00M.COL___414                                                 6
 STAT SP IPHASW D HRMM SECON CODA AMPLIT PERI AZIMU VELO AIN AR TRES W  DIS CAZ7
 BAR2 EZ EP        243  3.85                             169   -0.1710 26.8 195 
 BAR2 EZ ES        243 18.44                             169   -0.8310 26.8 195 
 BAR2 EZ I         243 19.49        75.2 0.24            169           26.8 195 
 BRR  HZ IP     C  243  5.70                             152    0.1610 72.3 295 
 BRR  HN ES        243 22.62                             152    0.6510 72.3 295 
 BRR  HZ I         243 27.03        46.7 0.12            152           72.3 295 
 PAM  EZ EP     D  243  6.64                             152    0.3310 73.3  39 
 PAM  EN ES        243 23.46                             152    0.1210 73.3  39 
 PAM  EZ I         243 25.97        95.3 0.60            154           73.3  39 
 RUS  HZ EP        243  8.16                             143   -0.1410  103 178 
 RUS  HN ES        243 26.52                             143   -0.3710  103 178 
 RUS  HZ I         243 27.95        19.2 0.30            144            103 178 
 TAM  HZ IP     D  243 12.13                             131    0.26 9  153 106 
 SPBC HZ EP        243 12.87                             128   -0.38 9  167 219 
 SPBC HN ES        243 36.22                             128    0.51 9  167 219 
 SPBC HZ I         243 37.54        16.8 0.20            129            167 219 
 YPLC HZ EP        243 14.84                             126    0.54 9  178 153 
 YPLC HN ES        243 37.87                             126    0.30 9  178 153 
 YPLC HZ I         243 41.44        19.4 0.34            128            178 153 
 ZAR  HZ EP        243 16.91                             122   -0.07 8  205 291 
 ZAR  HN ES        243 42.74                             122    0.41 8  205 291 
 ZAR  HZ I         243 47.90        32.1 0.34            123            205 291 
 NOR  HZ EP        243 20.02                             118   -0.53 8  239 234 
 NOR  HN ES        243 48.04                             118   -0.65 8  239 234 
 NOR  HZ I         243 50.38        13.8 0.32            119            239 234 
 CHI  HZ EP        243 22.27                             116   -0.21 8  252 196 
 CHI  HN ES   3    243 50.36                             116   -1.78 2  252 196 
 CHI  HZ I         243 55.11         5.0 0.23            118            252 196 
 URE  HZ EP        243 25.64                             113    0.01 7  285 291 
 URE  HN ES   3    243 55.99                             113   -1.76 2  285 291 
 URE  HZ I         243 57.65        23.2 0.12            114            285 291 
 GUY2CHZ EP   3    243 29.59                             112    1.13 2  305 235 
 GUY2CHN ES        244  3.15                             112    0.37 7  305 235 
 GUY2CHZ I         244  9.19        10.4 0.33                           305 235 
 PTGC HZ EP   3    243 27.08                             111   -1.39 2  310 159 
 PTGC HE ES   4    243 59.96                             111   -2.83 0  310 159 
 PTGC HZ I         244  3.86        10.4 0.44            113            310 159 
 LL6C HZ EP        243 28.86                             110   -0.92 7  322 357 
 DBB  EZ EP        243 32.68                             109    0.50 7  342 274 
 DBB  EN ES        244  9.03                             109   -0.37 7  342 274 
 DBB  EZ I         244 10.22        12.0 0.28            110            342 274 
 PRA  HZ EP        243 38.41                             106    0.01 6  396 210 
 PRA  HN ES        244 21.15                             106    0.68 6  396 210 
 PRA  HZ I         244 24.51         8.9 0.28            107            396 210 
 SJC  HZ EP   3    243 38.78                             105   -1.09 1  408 326 
 SJC  HN ES   4    244 19.95                             105   -3.13 0  408 326 
 SJC  HZ I         244 23.90         4.2 0.36            107            408 326 
                                                                                
