 2016  6 3 0828 21.8 L   6.765 -73.070147.6  RSN  5 0.2 1.7LRSN                1
 GAP=190        0.63       2.4     5.5  4.6 -0.1895E+00 -0.1740E+01 -0.1239E+01E
 Epicentro: LOS SANTOS - SANTANDER                                             3
 ACTION:UPD 16-07-21 22:15 OP:rebc STATUS:               ID:20160603082821 L   I
 OLDACT:REG 16-06-03 12:52 OP:edw  STATUS:               ID:20160603082750     3
 2016-06-03-0827-50M.COL___319                                                 6
 STAT SP IPHASW D HRMM SECON CODA AMPLIT PERI AZIMU VELO AIN AR TRES W  DIS CAZ7
 BAR2 EZ EP        828 41.64                             171    0.0410 22.8 213 
 BAR2 EZ ES        828 56.90                             171   -0.1810 22.8 213 
 BAR2 EZ I         828 58.52         7.2 0.30                          22.8 213 
 BRR  HZ EP        828 43.40                             150   -0.2510 80.4 298 
 BRR  HN ES        829  1.16                             150    0.4410 80.4 298 
 RUS  HZ EP        828 45.75                             145    0.3410 96.4 181 
 RUS  HE ES        829  3.79                             145   -0.0510 96.4 181 
 PTB  HZ EP   4    828 48.30                             131   -1.27 0  155 261 
 PTB  HN ES   4    829  9.57                             131   -1.69 0  155 261 
 OCA  HZ EP        828 50.79                             129    0.09 9  165 350 
 OCA  HN ES        829 13.02                             129   -0.24 9  165 350 
 OCA  HZ I         829 17.59         6.9 0.28                           165 350 
 SPBC HZ EP        828 50.57                             129   -0.07 9  166 222 
 SPBC HN ES        829 12.97                             129   -0.19 9  166 222 
 SPBC HZ I         829 17.55         7.3 0.24                           166 222 
                                                                                
