 2017  5 3 0610 55.4 L   6.795 -73.167153.3  RSN  4 0.4 0.8LRSN                1
 GAP=134        0.98       5.6     5.3  8.5 -0.3513E+01  0.3248E+01  0.6207E+01E
 Epicentro: LOS SANTOS - SANTANDER                                             3
 ACTION:UPD 17-06-16 13:32 OP:jn   STATUS:               ID:20170503061055 L   I
 OLDACT:REG 17-05-03 11:59 OP:edw  STATUS:               ID:20170503060739     3
 2017-05-03-0608-00M.COL___371                                                 6
 STAT SP IPHASW D HRMM SECON CODA AMPLIT PERI AZIMU VELO AIN AR TRES W  DIS CAZ7
 BRR  HZ EP        611 17.14                             154   -0.0910 69.4 300 
 BRR  HN ES        611 34.81                             154    0.5110 69.4 300 
 PAM  EZ EP        611 18.88                             151    0.3810 79.3  41 
 PAM  EN ES        611 36.05                             151   -0.5010 79.3  41 
 PAM  EZ I         611 38.18         1.0 0.24            154           79.3  41 
 RUS  HZ EP        611 20.21                             145    0.3710  100 175 
 RUS  HN ES        611 38.81                             145   -0.1210  100 175 
 PTB  HZ EP        611 22.20                             134   -0.54 9  145 259 
 PTB  HN ES        611 43.99                             134   -0.11 9  145 259 
 PTB  HZ I         611 49.71         0.9 0.28            134            145 259 
                                                                                
