 2013  4 3 0413 40.1 L   6.777 -73.178159.4  RSN  6 0.4 1.4LRSN                1
 GAP=198        0.72       5.3     7.1  8.9  0.1812E+02 -0.1651E+02 -0.1855E+02E
 Epicentro: LOS SANTOS - SANTANDER                                             3
 ACTION:UPD 13-05-22 14:35 OP:EP   STATUS:               ID:20130403041340 L   I
 2013-04-03-0410-00M.COL___245                                                 6
 STAT SP IPHASW D HRMM SECON CODA AMPLIT PERI AZIMU VELO AIN AR TRES W  DIS CAZ7
 BAR2 SZ EP   1    414  1.21                             172   -0.15 7 20.5 181 
 BAR2 SZ I         414 23.58         6.1 0.32            168           20.5 181 
 BRR  HZ IP     C  414  3.07                             155    0.3910 69.4 302 
 BRR  HE ES   1    414 20.63                             155    0.36 7 69.4 302 
 BRR  HZ I         414 29.05         5.7 0.52            161           69.4 302 
 RUS  HZ EP   1    414  4.87                             147   -0.24 7 98.4 174 
 RUS  HN ES   1    414 24.33                             147   -0.25 7 98.4 174 
 RUS  HZ I         414 26.61         1.2 0.44            150           98.4 174 
 PTB  HZ EP   1    414  7.94                             136    0.03 7  144 260 
 PTB  HN ES   1    414 29.44                             136   -0.13 7  144 260 
 PTB  HZ I         414 32.55         2.9 0.40            146            144 260 
 ZAR  HN ES   2    414 38.76                             125   -0.37 4  202 293 
 SML  HZ EP   1    414 18.18                             120    0.53 6  245 336 
 SML  HE ES   1    414 46.07                             120   -0.84 6  245 336 
 SML  HZ I         414 50.81         4.6 0.10            122            245 336 
                                                                                
