 2015  3 3 0430 39.6 L   6.798 -73.135149.1  RSN  6 0.4 1.3LRSN                1
 GAP=138        0.94       4.3     5.0  7.5 -0.5056E+01  0.3537E+01  0.2289E+01E
 Epicentro: LOS SANTOS - SANTANDER                                             3
 ACTION:UPD 15-04-30 16:22 OP:nd   STATUS:               ID:20150303043039 L   I
 OLDACT:REG 15-03-03 12:47 OP:spq  STATUS:               ID:20150303042745     3
 2015-03-03-0427-45M.COL___287                                                 6
 STAT SP IPHASW D HRMM SECON CODA AMPLIT PERI AZIMU VELO AIN AR TRES W  DIS CAZ7
 BRR  HZ EP   1    431  1.37                             153    0.22 7 72.3 298 
 BRR  HN ES        431 18.69                             153    0.7210 72.3 298 
 PAM  SZ EP        431  2.16                             152    0.0510 76.8  39 
 PAM  SE ES        431 19.56                             152   -0.1310 76.8  39 
 PAM  SZ I         431 21.51         2.5 0.46            154           76.8  39 
 RUS  HZ EP   1    431  3.59                             145   -0.04 7  100 177 
 RUS  HN ES   1    431 21.95                             145   -0.45 7  100 177 
 RUS  HZ I         431 23.18         1.2 0.42            147            100 177 
 PTB  HZ EP   1    431  7.39                             133    0.48 7  149 259 
 PTB  HN ES        431 27.52                             133   -0.72 9  149 259 
 PTB  HZ I         431 33.21         2.4 0.38            132            149 259 
 SPBC HZ EP        431  8.55                             130    0.17 9  164 219 
 SPBC HN ES   1    431 30.97                             130    0.12 7  164 219 
 SPBC HZ I         431 35.46         3.0 0.38            130            164 219 
 SML  HZ EP   1    431 16.29                             118   -0.17 6  244 335 
 SML  HN ES   1    431 44.59                             118   -0.64 6  244 335 
 SML  HZ I         431 52.05         2.9 0.24            118            244 335 
                                                                                
