 2013  1 3 0628 29.1 L   7.603 -73.179134.5  RSN  5 0.4 1.6LRSN                1
 GAP=193        0.87       4.4     6.5  8.0  0.6764E+00  0.2144E+02  0.4844E+01E
 Epicentro: EL PLAYON - SANTANDER                                              3
 ACTION:UPD 13-02-15 09:11 OP:ep   STATUS:               ID:20130103062829 L   I
 2013-01-03-0619-37M.COL___190                                                 6
 STAT SP IPHASW D HRMM SECON CODA AMPLIT PERI AZIMU VELO AIN AR TRES W  DIS CAZ7
 OCA  HN ES        629  4.98                             150   -0.1010 72.0 348 
 OCA  HN I         629  6.01        11.3 0.72            150           72.0 348 
 BRR  HZ EP        628 49.55                             147   -0.0710 80.4 227 
 BRR  HN ES        629  6.01                             147    0.3810 80.4 227 
 BRR  HN I         629  7.03        16.6 0.18            143           80.4 227 
 BAR2 SZ ES        629 10.22                             138   -0.1510  112 180 
 BAR2 SZ I         629 11.56         5.5 0.16            139            112 180 
 PTB  HZ EP        628 58.33                             123   -0.38 9  184 230 
 PTB  HN ES        629 21.86                             123    0.04 9  184 230 
 PTB  HN I         629 28.78         1.9 0.24            122            184 230 
 ZAR  HZ EP        628 59.61                             122    0.70 9  186 266 
 ZAR  HN ES        629 21.71                             122   -0.45 9  186 266 
 ZAR  HN I         629 28.67         3.1 0.34            121            186 266 
                                                                                
