 2010 11 3 0642 13.9 L   6.773 -73.091148.8  RSN  6 0.3 1.5LRSN                1
 GAP=165        0.50       4.0     6.1  6.3 -0.5383E+01  0.3779E+01  0.2968E+01E
 Epicentro: LOS SANTOS - SANTANDER                                             3
 ACTION:DUP 10-12-17 16:50 OP:REBC STATUS:               ID:20101103064213 L   I
 2010-11-03-0639-31S.COL___128                                                 6
 STAT SP IPHASW D HRMM SECON CODA AMPLIT PERI AZIMU VELO SNR AR TRES W  DIS CAZ7
 BAR2 SZ EP   1    642 33.88                             171     0.0 7   23 207 
 BAR2 SZ I         642 34.34         6.8 0.10                            23 207 
 BAR2 SZ ES   2    642 49.25                             171    -0.3 5   23 207 
 BRR  HZ EP   1    642 35.79                             151     0.0 7   78 298 
 BRR  HE ES   2    642 53.34                             151     0.5 5   78 298 
 BRR  HZ I         642 56.60         7.6 0.18                            78 298 
 RUS  HZ EP   1    642 37.83                             145     0.1 7   97 180 
 RUS  HZ I         642 38.97         2.6 0.10                            97 180 
 RUS  HN ES   2    642 56.44                             145     0.1 5   97 180 
 GRA  SZ EP   2    642 39.56                             137     0.0 5  127  14 
 GRA  SZ ES   2    642 59.38                             137    -0.2 5  127  14 
 GRA  SZ I         643  1.83         4.4 0.35                           127  14 
 NOR  SZ EP   2    642 49.60                             119    -0.6 4  238 236 
 NOR  SE ES   2    643 18.24                             119    -0.3 4  238 236 
 PRA  HZ EP   2    643  8.55                             107     0.9 3  392 211 
                                                                                
