 2016  1 3 0859 12.1 L   6.819 -73.162147.1  RSN 18 0.5 2.1LRSN                1
 GAP=134        1.21       2.8     4.1  5.7 -0.2126E+01  0.6959E+01  0.1381E+01E
 Epicentro: LOS SANTOS - SANTANDER                                             3
 ACTION:UPD 16-03-09 23:22 OP:cam  STATUS:               ID:20160103085912 L   I
 OLDACT:REG 16-01-03 12:38 OP:drio STATUS:               ID:20160103085747     3
 2016-01-03-0857-47M.COL___310                                                 6
 STAT SP IPHASW D HRMM SECON CODA AMPLIT PERI AZIMU VELO AIN AR TRES W  DIS CAZ7
 BAR2 EZ EP        859 31.97                             170    0.0010 25.2 185 
 BAR2 EZ ES        859 46.72                             170   -0.7110 25.2 185 
 BAR2 EZ I         859 48.48        21.9 0.16            168           25.2 185 
 BRR  HZ EP     C  859 33.69                             154    0.4010 68.6 298 
 BRR  HE ES        859 51.08                             154    1.3010 68.6 298 
 BRR  HZ I         859 54.02        27.2 0.28            152           68.6 298 
 PAM  EZ EP        859 34.68                             151    0.2110 77.0  42 
 PAM  EN ES        859 51.89                             151    0.0010 77.0  42 
 PAM  EZ I         859 53.76        22.1 0.52            156           77.0  42 
 RUS  HZ EP        859 36.15                             143   -0.0310  103 175 
 RUS  HE ES        859 54.84                             143   -0.0910  103 175 
 RUS  HZ I         859 55.72        11.7 0.42            145            103 175 
 PTB  HZ EP        859 38.54                             133   -0.55 9  146 258 
 PTB  HN ES        859 59.70                             133   -0.41 9  146 258 
 PTB  HZ I         9 0  2.94        13.5 0.18            132            146 258 
 OCA  HZ EP        859 40.27                             130   -0.07 9  158 354 
 OCA  HE ES        9 0  1.85                             130   -0.48 9  158 354 
 OCA  HZ I         9 0  5.67        29.4 0.20            133            158 354 
 SPBC HZ EP        859 40.93                             129    0.14 9  164 218 
 SPBC HN ES        9 0  3.06                             129   -0.07 9  164 218 
 SPBC HZ I         9 0  9.19        22.6 0.26            130            164 218 
 ZAR  HZ EP        859 44.80                             123    0.38 9  202 292 
 ZAR  HN ES        9 0  9.93                             123    0.34 9  202 292 
 ZAR  HZ I         9 0 15.44        23.7 0.32            124            202 292 
 NOR  HZ EP        859 47.89                             119   -0.03 8  234 234 
 NOR  HE ES        9 0 15.59                             119   -0.24 8  234 234 
 NOR  HZ I         9 0 22.18         8.6 0.20            120            234 234 
 SML  HZ EP        859 48.33                             118   -0.23 8  241 335 
 SML  HN ES        9 0 16.74                             118   -0.22 8  241 335 
 SML  HZ I         9 0 20.19        20.6 0.10            120            241 335 
 CHI  HZ EP        859 49.52                             117   -0.56 8  250 195 
 CHI  HN ES        9 0 19.49                             117   -0.18 8  250 195 
 CHI  HZ I         9 0 25.38         2.8 0.30            119            250 195 
 ROSC BZ EP        859 50.94                             117    0.51 8  254 210 
 ROSC BN ES        9 0 21.11                             117    0.82 8  254 210 
 ROSC BZ I         9 0 26.57         8.6 0.35            118            254 210 
 HEL  HZ EP   4    859 53.69                             115    1.41 0  271 255 
 HEL  HN ES        9 0 22.92                             115   -0.67 8  271 255 
 HEL  HZ I         9 0 31.25         6.5 0.26            116            271 255 
 URE  HZ EP        859 52.46                             114   -0.54 7  281 292 
 URE  HE ES   4    9 0 22.67                             114   -2.20 0  281 292 
 URE  HZ I         9 0 23.99         9.3 0.16            115            281 292 
 GUY2CHZ EP        859 57.36                             113    1.58 7  301 234 
 GUY2CHN ES        9 0 29.79                             113   -0.03 7  301 234 
 GUY2CHZ I         9 0 40.42         5.0 0.64                           301 234 
 PTGC HZ EP   4    859 54.77                             112   -1.58 0  311 158 
 PTGC HN ES   4    9 0 27.53                             112   -3.31 0  311 158 
 CBOC HZ EP   4    859 59.71                             110    0.72 0  333 252 
 CBOC HN ES        9 0 34.93                             110   -0.59 7  333 252 
 CBOC HZ I         9 0 40.72         1.9 0.66            111            333 252 
 PRA  HZ EP        9 0  5.65                             107   -0.17 6  393 209 
 PRA  HE ES        9 0 47.57                             107   -0.11 6  393 209 
 PRA  HZ I         9 0 53.48         6.1 0.24            108            393 209 
 SJC  HZ EP   4    9 0  5.46                             106   -1.97 0  406 327 
 SJC  HN ES   4    9 0 46.57                             106   -3.98 0  406 327 
 SJC  HZ I         9 0 51.32         3.0 0.46            107            406 327 
                                                                                
