 2011  8 3 0849 13.3 L   6.754 -73.094146.3  RSN  5 0.2 1.6LRSN                1
 GAP=145        0.46       2.9     5.7  4.9  0.2792E+01 -0.6337E+01 -0.2330E+01E
 Epicentro: LOS SANTOS - SANTANDER                                             3
 ACTION:UPD 12-07-25 14:05 OP:epov STATUS:               ID:20110803084913 L   I
 2011-08-03-0846-09S.COL___119                                                 6
 STAT SP IPHASW D HRMM SECON CODA AMPLIT PERI AZIMU VELO AIN AR TRES W  DIS CAZ7
 BAR2 SZ IP        849 32.91                             172   -0.0710 20.4 209 
 BAR2 SZ ES   1    849 48.26                             172   -0.04 7 20.4 209 
 BAR2 SZ I         849 48.63         6.2 0.17                          20.4 209 
 PAM  SZ EP   1    849 36.03                             151    0.37 7 78.0  34 
 PAM  SN ES   2    849 53.10                             151    0.04 5 78.0  34 
 BRR  HZ EP   1    849 34.95                             150   -0.04 7 78.7 300 
 BRR  HN ES   1    849 52.12                             150    0.25 7 78.7 300 
 BRR  HZ I         849 53.56         7.6 0.17                          78.7 300 
 RUS  HZ EP   1    849 36.93                             145    0.16 7 95.3 179 
 RUS  HN ES   2    849 54.60                             145   -0.45 5 95.3 179 
 RUS  HZ I         849 56.20         4.1 0.29                          95.3 179 
 OCA  SZ EP   1    849 42.03                             129   -0.22 7  166 351 
 OCA  SZ ES   1    850  4.54                             129   -0.25 7  166 351 
 OCA  SZ I         850  8.90         6.2 0.21                           166 351 
                                                                                
