 2010  1 3 0940 37.4 L   6.815 -73.124147.6  RSN  4 0.3 1.4LRSN                1
 GAP=203        0.54       4.3    26.6  5.7 -0.6560E+02  0.3394E+02  0.2679E+01E
 Epicentro: LOS SANTOS - SANTANDER                                             3
 ACTION:UP  10-08-24 09:42 OP:vdl  STATUS:               ID:20100103094037 L   I
 2010-01-03-0936-27S.COL___096                                                 6
 STAT SP IPHASW D HRMM SECON CODA AMPLIT PERI AZIMU VELO SNR AR TRES W  DIS CAZ7
 BAR2 SZ EP        940 57.18                             170    -0.110   26 195 
 BAR2 SZ ES   1    941 12.53                             170    -0.2 7   26 195 
 GIR2 SZ EP   1    940 57.32                             168     0.1 7   30 345 
 GIR2 SZ ES   1    941 13.04                             168     0.3 7   30 345 
 OCA  SZ EP   2    941  6.14                             130     0.5 5  159 352 
 OCA  SZ ES   2    941 27.16                             130    -0.6 5  159 352 
 CHI  HZ EP   1    941 15.27                             117    -0.1 6  251 196 
 CHI  HZ I         941 16.39         1.5 0.28                           251 196 
 CHI  HN ES   1    941 45.20                             117     0.1 6  251 196 
                                                                                
