 2010  2 3 0300  6.2 L   6.115 -73.702 98.9  RSN  6 0.4 1.3LRSN                1
 GAP=154        0.63       5.9    11.7 16.1 -0.2711E+02  0.1271E+03  0.2034E+02E
 Epicentro: BOLIVAR - SANTANDER                                                3
 ACTION:UP  10-08-24 09:47 OP:vdl  STATUS:               ID:20100203030006 L   I
 2010-02-03-0257-07S.COL___097                                                 6
 STAT SP IPHASW D HRMM SECON CODA AMPLIT PERI AZIMU VELO SNR AR TRES W  DIS CAZ7
 RUS  BZ EP        3 0 23.59                             141     0.210   73 110 
 RUS  BZ I         3 0 23.87         4.5 0.12                            73 110 
 RUS  BE ES   3    3 0 35.82                             141    -0.9 2   73 110 
 BAR2 SZ IP        3 0 23.31                             139    -0.110   78  47 
 BAR2 SZ ES   1    3 0 36.87                             139     0.0 7   78  47 
 GIR2 SZ EP   2    3 0 27.62                             125     0.4 5  121  28 
 CHI  HZ EP        3 0 31.94                             117    -0.2 9  164 181 
 CHI  HZ I         3 0 33.20         2.8 0.14                           164 181 
 RREF BZ EP   2    3 0 38.97                             109    -0.5 4  226 234 
 PRA  HZ EP   2    3 0 47.31                             104     0.3 4  296 206 
 PRA  HZ I         3 1 16.88         1.6 0.52                           296 206 
 PRA  HN ES   2    3 1 19.62                             104     0.8 4  296 206 
                                                                                
