 2014  3 3 0439 30.8 L   6.777 -73.185139.3  RSN  4 0.2 1.5LRSN                1
 GAP=141        0.53       3.2     2.3  6.4 -0.1583E+01  0.4450E+01 -0.3262E+01E
 Epicentro: LOS SANTOS - SANTANDER                                             3
 ACTION:UPD 14-04-09 23:14 OP:nd   STATUS:               ID:20140303043930 L   I
 OLDACT:UP  14-03-03 13:12 OP:stll STATUS:               ID:20140303043812     3
 OLDACT:REG 14-03-03 09:11 OP:stll STATUS:               ID:20140303043812     3
 2014-03-03-0438-12M.COL___232                                                 6
 STAT SP IPHASW D HRMM SECON CODA AMPLIT PERI AZIMU VELO AIN AR TRES W  DIS CAZ7
 PAM  SZ EP        439 52.38                             148   -0.2110 82.1  41 
 PAM  SZ I         439 52.89         6.3 0.28            148           82.1  41 
 PAM  SN ES        440  9.76                             148    0.1510 82.1  41 
 RUS  HN ES        440 11.68                             143    0.0510 98.4 173 
 PTB  HZ EP        439 57.07                             131    0.30 9  143 259 
 PTB  HN ES        440 16.85                             131   -0.21 9  143 259 
 TAM  HE ES        440 19.65                             128   -0.07 9  159 104 
                                                                                
