 2015  2 3 0243 38.2 L   6.889 -73.196138.6  RSN  7 0.6 1.7LRSN                1
 GAP=130        1.44       5.7     6.3  9.1 -0.6452E+01  0.1715E+02 -0.7959E+01E
 Epicentro: BETULIA - SANTANDER                                                3
 ACTION:UPD 15-04-30 21:21 OP:nd   STATUS:               ID:20150203024338 L   I
 OLDACT:REG 15-02-03 13:30 OP:stll STATUS:               ID:20150203023748     3
 2015-02-03-0237-48M.COL___262                                                 6
 STAT SP IPHASW D HRMM SECON CODA AMPLIT PERI AZIMU VELO AIN AR TRES W  DIS CAZ7
 BAR2 EZ EP        243 57.39                             166    0.1510 32.9 177 
 BAR2 EZ ES        244 11.86                             166   -0.2110 32.9 177 
 BAR2 EZ I         244 13.44         7.5 0.42            167           32.9 177 
 BRR  HZ EP        243 58.57                             154    0.4810 61.9 293 
 BRR  HE ES        244 14.39                             154    0.8110 61.9 293 
 BRR  HZ I         244 18.81         6.7 0.24            152           61.9 293 
 PAM  SZ EP        243 59.69                             151    0.2110 74.0  48 
 PAM  SN ES        244 15.77                             151   -0.2910 74.0  48 
 PAM  SZ I         244 18.46        11.4 0.30            155           74.0  48 
 PTB  HZ EP        244  3.83                             131   -0.50 9  145 255 
 PTB  HN ES        244 24.09                             131   -0.61 9  145 255 
 PTB  HZ I         244 29.32         7.3 0.52            131            145 255 
 SPBC HZ EP        244  6.45                             126   -0.18 9  168 215 
 SPBC HN ES        244 28.57                             126   -0.21 9  168 215 
 SPBC HZ I         244 38.20         4.7 0.10            128            168 215 
 ZAR  HZ EP        244 10.74                             122    1.43 9  195 290 
 ZAR  HZ I         244 11.51         9.3 0.34            123            195 290 
 ZAR  HN ES        244 33.60                             122    0.05 9  195 290 
 SML  HZ EP        244 12.74                             117   -0.49 8  232 336 
 SML  HN ES        244 39.57                             117   -0.96 8  232 336 
 SML  HZ I         244 48.90         5.2 0.28            119            232 336 
                                                                                
