 2016  3 3 0520 52.6 L   6.546 -73.474116.0  RSN 15 0.4 2.0LRSN                1
 GAP= 68        0.91       2.5     2.7  5.0 -0.1912E+01  0.4890E+01 -0.1600E+01E
 Epicentro: EL CARMEN - SANTANDER                                              3
 ACTION:UPD 16-05-13 21:21 OP:cam  STATUS:               ID:20160303052052 L   I
 OLDACT:UP  16-03-14 10:32 OP:Ak   STATUS:               ID:20160303052052 L   3
 OLDACT:UP  16-03-03 16:36 OP:mh   STATUS:               ID:20160303051746     3
 OLDACT:UP  16-03-03 16:35 OP:mh   STATUS:               ID:20160303051746     3
 OLDACT:UP  16-03-03 16:30 OP:mh   STATUS:               ID:20160303051746     3
 OLDACT:REG 16-03-03 12:22 OP:mh   STATUS:               ID:20160303051746     3
 2016-03-03-0517-46M.COL___315                                                 6
 STAT SP IPHASW D HRMM SECON CODA AMPLIT PERI AZIMU VELO AIN AR TRES W  DIS CAZ7
 BAR2 EZ IP     D  521  9.19                             163    0.2210 32.7  81 
 BAR2 EZ ES        521 21.70                             163   -0.0110 32.7  81 
 RUS  HZ EP        521 12.26                             141   -0.0210 84.2 149 
 RUS  HE ES        521 27.79                             141    0.1910 84.2 149 
 RUS  HZ I         521 29.14        12.7 0.42            143           84.2 149 
 PTB  HZ IP   9 C  521 12.03                             133   -1.59 0  109 270 
 PTB  HE ES        521 27.65                             133   -0.7610  109 270 
 PTB  HZ I         521 29.80        26.3 0.42            134            109 270 
 SPBC HZ EP   1    521 14.11                             130   -0.55 7  119 214 
 SPBC HN ES        521 31.32                             130   -0.5210  119 214 
 SPBC HZ I         521 36.95        20.0 0.07            131            119 214 
 PAM  EZ EP        521 15.71                             130    0.1810  123  44 
 PAM  EE ES        521 33.53                             130    0.1410  123  44 
 PAM  EZ I         521 34.66        15.2 0.44            131            123  44 
 ZAR  HZ EP        521 20.98                             117   -0.29 9  185 304 
 ZAR  HE ES        521 44.16                             117    0.55 9  185 304 
 ZAR  HZ I         521 45.88        19.4 0.26            118            185 304 
 OCA  HZ EP   1    521 21.09                             117   -0.66 7  188   5 
 OCA  HN ES        521 44.05                             117   -0.41 9  188   5 
 OCA  HZ I         521 55.01        38.4 0.16            118            188   5 
 NOR  HZ EP        521 21.64                             117   -0.07 9  189 235 
 NOR  HN ES        521 44.80                             117    0.40 9  189 235 
 NOR  HZ I         521 47.39        12.7 0.31            117            189 235 
 CHI  HZ EP     D  521 24.94                             114    0.01 8  214 188 
 CHI  HE ES   1    521 50.08                             114   -0.04 6  214 188 
 CHI  HZ I         521 57.18         4.0 0.40            114            214 188 
 HEL  HZ EP   1    521 26.27                             112   -0.49 6  231 260 
 HEL  HN ES        521 52.83                             112   -0.56 8  231 260 
 HEL  HZ I         521 59.08         9.2 0.32            112            231 260 
 GUY2CHZ EP     D  521 30.31                             109    0.60 8  255 235 
 GUY2CHN ES   4    522  1.26                             109    2.63 0  255 235 
 GUY2CHZ I         522  3.65         8.1 0.24                           255 235 
 URE  HZ EP   4    521 28.60                             108   -1.48 0  264 301 
 URE  HN ES   4    521 56.83                             108   -2.46 0  264 301 
 URE  HZ I         522  0.41        14.0 0.13            109            264 301 
 CBOC HZ EP        521 33.71                             106    0.27 7  291 255 
 CBOC HN ES        522  5.85                             106    0.57 7  291 255 
 CBOC HZ I         522  5.98         2.9 0.20            107            291 255 
 MON  HZ IP   9 C  521 38.03                             103   -1.64 0  345 316 
 MON  HN ES        522 15.10                             103    0.38 6  345 316 
 MON  HZ I         522 16.33         4.1 0.24            103            345 316 
 SDV  BZ EP     C  521 47.17                             100   -0.02 6  406  50 
 SDV  BN ES   4    522 28.27                             100   -1.48 0  406  50 
 SDV  BZ I         522 31.96         1.8 0.39            101            406  50 
                                                                                
