 2014 12 3 0135 16.4 L   6.806 -73.162141.5  RSN 22 0.5 2.2LRSN                1
 GAP= 70        1.15       2.9     3.0  5.2 -0.1742E+01  0.4433E+01  0.3417E+01E
 Epicentro: LOS SANTOS - SANTANDER                                             3
 ACTION:UPD 15-02-10 17:00 OP:nd   STATUS:               ID:20141203013516 L   I
 OLDACT:REG 14-12-03 12:38 OP:fm   STATUS:               ID:20141203012743     3
 2014-12-03-0127-43M.COL___306                                                 6
 STAT SP IPHASW D HRMM SECON CODA AMPLIT PERI AZIMU VELO AIN AR TRES W  DIS CAZ7
 BAR2 SZ EP        135 35.84                             170    0.3410 23.8 185 
 BAR2 SZ ES        135 50.31                             170   -0.1110 23.8 185 
 BAR2 SZ I         135 52.19        48.2 0.20            167           23.8 185 
 BRR  HZ IP     D  135 37.60                             152    0.6510 69.3 299 
 BRR  HE ES        135 53.83                             152    0.8310 69.3 299 
 BRR  HZ I         135 55.27        38.1 0.12            149           69.3 299 
 PAM  SZ EP     C  135 38.74                             150    0.5710 78.0  41 
 PAM  SN ES        135 55.41                             150    0.2310 78.0  41 
 PAM  SZ I         135 57.93        23.3 0.26            155           78.0  41 
 RUS  HZ EP        135 39.94                             143    0.1810  101 175 
 RUS  HE ES        135 57.90                             143   -0.1110  101 175 
 RUS  HZ I         135 59.96        14.3 0.22            144            101 175 
 PTB  HZ EP        135 41.78                             131   -1.06 9  146 258 
 PTB  HE ES        136  2.56                             131   -0.93 9  146 258 
 PTB  HZ I         136 11.04        13.1 0.24            130            146 258 
 TAM  HZ EP        135 44.19                             129    0.30 9  157 105 
 TAM  HE ES        136  4.23                             129   -1.13 9  157 105 
 OCA  HZ EP        135 43.63                             129   -0.63 9  159 354 
 OCA  HE ES        136  6.02                             129   -0.01 9  159 354 
 OCA  HZ I         136  8.75        33.7 0.18            131            159 354 
 SPBC HZ EP        135 44.85                             128    0.37 9  163 218 
 SPBC HN ES        136  6.21                             128   -0.21 9  163 218 
 SPBC HZ I         136 10.76        30.7 0.12            128            163 218 
 ZAR  HZ EP        135 48.58                             122    0.25 9  202 292 
 ZAR  HN ES        136 12.83                             122   -0.44 9  202 292 
 ZAR  HZ I         136 21.27        21.3 0.28            122            202 292 
 NOR  HZ EP        135 51.75                             118    0.02 8  234 234 
 NOR  HE ES        136 19.36                             118    0.04 8  234 234 
 NOR  HZ I         136 26.81        12.4 0.18            118            234 234 
 CHI  HZ EP        135 54.28                             116    0.43 8  249 195 
 CHI  HE ES        136 23.02                             116   -0.07 8  249 195 
 CHI  HZ I         136 32.43         6.6 0.46            117            249 195 
 ROSC BZ EP        135 54.60                             116    0.38 8  252 211 
 ROSC BN ES        136 23.98                             116    0.24 8  252 211 
 ROSC BZ I         136 32.92        17.1 0.40            116            252 211 
 HEL  HZ EP        135 55.53                             114   -0.66 8  270 256 
 HEL  HN ES        136 26.51                             114   -0.74 8  270 256 
 HEL  HZ I         136 34.51         6.8 0.34            114            270 256 
 GUY2CHZ EP        135 59.79                             112    0.13 7  300 234 
 GUY2CHE ES        136 33.39                             112   -0.03 7  300 234 
 GUY2CHZ I         136 43.79         9.1 0.66                           300 234 
 RREF HN ES        136 38.12                             110    0.13 7  321 229 
 RREF HZ I         136 47.64        10.2 0.24            111            321 229 
 CBOC HZ EP        136  2.94                             109    0.01 7  332 252 
 CBOC HN ES        136 40.23                             109    0.98 7  332 252 
 CBOC HZ I         136 51.10         2.6 0.42            110            332 252 
 TOL  SZ EP        136  4.52                             109    0.16 7  343 224 
 TOL  SN ES        136 41.98                             109    0.18 7  343 224 
 TOL  SZ I         136 49.27        15.9 0.24            109            343 224 
 MON  HZ EP   4    136  3.09                             108   -1.90 0  352 308 
 MON  HE ES   4    136 41.50                             108   -1.42 0  352 308 
 MON  HZ I         136 57.06         3.6 0.40            109            352 308 
 ANIL HZ EP        136  5.36                             108   -0.56 6  357 224 
 ANIL HN ES        136 44.83                             108    0.26 6  357 224 
 ANIL HZ I         136 53.77         2.4 0.32            108            357 224 
 ORTC HZ EP        136 10.19                             106    0.11 6  395 216 
 ORTC HN ES        136 52.29                             106    0.31 6  395 216 
 ORTC HZ I         137  0.08         7.3 0.36            106            395 216 
 PAL  HZ EP        136 10.65                             105   -0.59 6  404 239 
 PAL  HN ES        136 54.14                             105    0.09 6  404 239 
 PAL  HZ I         136 59.84         2.7 0.20            106            404 239 
 SJC  HZ EP   4    136 10.09                             105   -1.51 0  408 327 
 SJC  HN ES   4    136 48.87                             105   -5.82 0  408 327 
 SJC  HZ I         136 55.07         6.2 0.60            106            408 327 
                                                                                
