 2012 10 3 0403 23.1 L   6.812 -73.064142.8  RSN  7 0.2 1.9LRSN                1
 GAP=207        0.43       2.6     4.1  4.1  0.4381E+01  0.2790E+01  0.2523E+01E
 Epicentro: LOS SANTOS - SANTANDER                                             3
 ACTION:UPD 12-11-22 17:01 OP:ep   STATUS:               ID:20121003040323 L   I
 2012-10-03-0400-00M.COL___223                                                 6
 STAT SP IPHASW D HRMM SECON CODA AMPLIT PERI AZIMU VELO AIN AR TRES W  DIS CAZ7
 BAR2 SZ EP        4 3 42.60                             169    0.0810 27.6 208 
 BAR2 SZ ES   1    4 3 57.41                             169   -0.22 7 27.6 208 
 BAR2 SZ I         4 3 58.97        22.3 0.27                          27.6 208 
 GIR2 SZ EP   1    4 3 42.61                             166    0.10 7 32.7 334 
 BRR  HZ EP        4 3 44.42                             150    0.0010 78.6 295 
 BRR  HN ES   1    4 4  1.19                             150    0.18 7 78.6 295 
 BRR  HN I         4 4  5.56        55.2 0.17                          78.6 295 
 BRR  HZ I         4 4  6.42        18.7 0.16                          78.6 295 
 RUS  HZ EP   1    4 3 46.84                             143    0.15 7  102 181 
 RUS  HN ES   1    4 4  5.02                             143   -0.04 7  102 181 
 RUS  HN I         4 4  5.91         2.3 0.37                           102 181 
 ZAR  HE ES   1    4 4 21.81                             121   -0.21 6  212 291 
 ZAR  HN I         4 4 29.05         7.9 0.16                           212 291 
 CHI  HZ EP   1    4 4  0.56                             116   -0.54 6  252 197 
 CHI  HN ES   1    4 4 30.75                             116    0.05 6  252 197 
 CHI  HN I         4 4 37.64         3.2 0.50                           252 197 
 PRA  HE ES   1    4 4 59.78                             106    0.36 4  398 211 
 PRA  HN I         4 5  4.49         2.7 0.33                           398 211 
                                                                                
