 2013  1 3 0236 56.7 L   6.747 -73.186147.4  RSN  6 0.2 1.4LRSN                1
 GAP=134        0.60       3.8     3.3  4.7  0.4757E+01 -0.6839E-01 -0.3222E+01E
 Epicentro: VILLANUEVA - SANTANDER                                             3
 ACTION:UPD 13-02-15 09:11 OP:ep   STATUS:               ID:20130103023656 L   I
 2013-01-03-0229-50M.COL___205                                                 6
 STAT SP IPHASW D HRMM SECON CODA AMPLIT PERI AZIMU VELO AIN AR TRES W  DIS CAZ7
 BAR2 SZ ES        237 31.87                             173    0.1310 17.1 179 
 BAR2 SZ I         237 32.52         6.2 0.26            169           17.1 179 
 BRR  HZ EP        237 18.01                             153    0.0810 70.4 304 
 BRR  HN ES        237 34.71                             153    0.1810 70.4 304 
 BRR  HN I         237 35.50         6.5 0.50            150           70.4 304 
 PAM  SZ EP        237 19.15                             149   -0.3410 84.7  39 
 RUS  HZ EP        237 20.51                             146    0.3310 95.2 173 
 RUS  HN ES        237 38.32                             146   -0.2110 95.2 173 
 RUS  HN I         237 40.59         2.3 0.36            144           95.2 173 
 PTB  HZ EP        237 23.38                             133    0.12 9  142 261 
 PTB  HN ES        237 43.74                             133   -0.28 9  142 261 
 PTB  HN I         237 49.23         2.7 0.26            131            142 261 
 ZAR  HN ES        237 54.23                             123   -0.03 9  202 294 
 ZAR  HN I         238  0.35         2.4 0.18            122            202 294 
                                                                                
