 2016  2 3 0036  9.1 L   6.814 -73.192137.7  RSN 10 0.4 1.8LRSN                1
 GAP=130        0.70       2.7     2.9  5.6 -0.1447E+01  0.5825E+01 -0.1013E+00E
 Epicentro: ZAPATOCA - SANTANDER                                               3
 ACTION:UPD 16-03-04 21:22 OP:rebc STATUS:               ID:20160203003609 L   I
 OLDACT:REG 16-02-03 12:28 OP:dnl  STATUS:               ID:20160203002738     3
 2016-02-03-0027-38M.COL___313                                                 6
 STAT SP IPHASW D HRMM SECON CODA AMPLIT PERI AZIMU VELO AIN AR TRES W  DIS CAZ7
 BAR2 EZ EP   2    036 27.84                             169    0.01 5 24.5 177 
 BAR2 EZ ES   2    036 42.26                             169   -0.15 5 24.5 177 
 BAR2 EZ I         036 43.97        26.3 0.13            171           24.5 177 
 PAM  EZ EP     C  036 30.85                             148    0.2010 79.6  43 
 PAM  EN ES        036 47.72                             148    0.3010 79.6  43 
 PAM  EZ I         036 50.65         8.2 0.47            152           79.6  43 
 RUS  HZ EP        036 31.97                             141   -0.2910  103 173 
 RUS  HN ES        036 49.95                             141   -0.3410  103 173 
 RUS  HZ I         036 51.45         6.3 0.39            145            103 173 
 PTB  HZ EP        036 34.82                             131   -0.20 9  143 258 
 PTB  HN ES        036 54.97                             131   -0.24 9  143 258 
 PTB  HZ I         036 57.99         9.5 0.14            131            143 258 
 SPBC HZ EP        036 36.92                             127    0.08 9  161 217 
 SPBC HN ES        036 58.85                             127    0.40 9  161 217 
 SPBC HZ I         037  4.72         9.3 0.14            129            161 217 
 ZAR  HZ EP   2    036 39.22                             121   -1.29 4  199 292 
 ZAR  HE ES        037  5.18                             121    0.20 9  199 292 
 ZAR  HZ I         037 12.72         5.5 0.34            122            199 292 
 NOR  HZ EP   2    036 44.56                             117    0.50 4  231 233 
 NOR  HN ES        037 11.29                             117   -0.01 8  231 233 
 NOR  HZ I         037 14.28         6.0 0.15            118            231 233 
 SML  HZ EP   2    036 45.08                             116    0.14 4  240 336 
 SML  HN ES   2    037 12.01                             116   -0.85 4  240 336 
 SML  HZ I         037 18.19        14.5 0.08            117            240 336 
 CHI  HZ EP   2    036 46.63                             115    0.20 4  249 194 
 CHI  HN ES   2    037 15.76                             115    0.25 4  249 194 
 CHI  HZ I         037 21.21         2.3 0.36            117            249 194 
 GUY2CHZ EP   2    036 52.97                             111    0.96 4  298 234 
 GUY2CHE ES   2    037 26.08                             111    0.63 4  298 234 
 GUY2CHZ I         037 33.19         2.5 0.27                           298 234 
                                                                                
