 2014  6 3 0008 48.8 L   6.774 -73.127149.5  RSN  9 0.5 1.7LRSN                1
 GAP=140        1.04       4.6     6.2  8.5 -0.9105E+00  0.1325E+02 -0.4937E+01E
 Epicentro: LOS SANTOS - SANTANDER                                             3
 OLDACT:DUP 14-06-03 16:15 OP:fm   STATUS:               ID:20140602235948d    3
 ACTION:UPD 14-07-01 22:50 OP:nd   STATUS:               ID:20140603000848 L   I
 OLDACT:UP  14-06-03 16:19 OP:fm   STATUS:               ID:20140602235948d    3
 2014-06-02-2359-47M.COL___256                                                 6
 STAT SP IPHASW D HRMM SECON CODA AMPLIT PERI AZIMU VELO AIN AR TRES W  DIS CAZ7
 BAR2 SZ ES   1    0 9 24.60                             172    0.11 7 21.0 197 
 BAR2 SZ I         0 9 25.39        10.8 0.42            169           21.0 197 
 BRR  HZ EP        0 9 11.08                             152    0.5110 74.5 300 
 BRR  HN ES        0 9 28.13                             152    0.6110 74.5 300 
 BRR  SZ I         0 9 31.21         8.6 1.44            148           74.5 300 
 PAM  SN ES   1    0 9 29.28                             151    0.10 7 78.4  37 
 RUS  HZ EP   1    0 9 13.15                             145    0.41 7 97.5 177 
 RUS  HN ES   1    0 9 30.79                             145   -0.59 7 97.5 177 
 RUS  SZ I         0 9 31.67         4.1 1.24            148           97.5 177 
 PTB  HZ EP        0 9 16.12                             133   -0.12 9  149 260 
 PTB  HN ES        0 9 36.96                             133   -0.66 9  149 260 
 PTB  SZ I         0 9 45.44         7.4 0.32            131            149 260 
 OCA  HN ES        0 9 39.60                             130   -0.67 9  163 353 
 ZAR  HN ES   1    0 9 47.98                             123    0.40 6  207 293 
 SML  HZ EP   1    0 9 25.90                             118   -0.15 6  247 335 
 SML  HE ES   1    0 9 55.03                             118   -0.05 6  247 335 
 SML  SZ I         010  2.13         8.5 0.08            118            247 335 
 GUY2CHZ EP   4    0 9 30.40                             113   -2.22 0  301 235 
 GUY2CHN ES   4    010 10.23                             113    3.45 0  301 235 
 GUY2CSZ I         010 16.25         2.2 1.36                           301 235 
                                                                                
