 2017 11 3 0420 55.0 L   6.753 -73.176143.8  RSN  5 0.2 1.2LRSN                1
 GAP=230        0.37       2.2     2.5  3.4  0.1351E+01  0.7828E+00  0.9838E+00E
 Epicentro: LOS SANTOS - SANTANDER                                             3
 ACTION:UPD 17-12-12 19:51 OP:rebc STATUS:               ID:20171103042055 L   I
 OLDACT:REG 17-11-03 13:19 OP:dnl  STATUS:               ID:20171103041740     3
 2017-11-03-0418-00M.COL___441                                                 6
 STAT SP IPHASW D HRMM SECON CODA AMPLIT PERI AZIMU VELO AIN AR TRES W  DIS CAZ7
 BAR2 EZ EP   2    421 13.97                             173   -0.28 5 17.8 182 
 BAR2 EZ ES        421 29.38                             173    0.0910 17.8 182 
 BAR2 EZ I         421 30.05         5.0 0.36            172           17.8 182 
 BRR  HZ EP        421 15.83                             152   -0.0510 71.0 304 
 BRR  HN ES        421 32.26                             152    0.0710 71.0 304 
 BRR  HZ I         421 38.24         4.5 0.38            150           71.0 304 
 RUS  HZ EP        421 18.20                             145    0.0410 95.7 174 
 RUS  HN ES        421 36.20                             145   -0.0610 95.7 174 
 RUS  HZ I         421 37.72         1.6 0.22            148           95.7 174 
 PTB  HN ES        421 41.87                             132   -0.11 9  143 261 
 PTB  HZ I         421 46.48         1.5 0.50            132            143 261 
 SPBC HZ EP   2    421 23.23                             130    0.51 5  157 219 
 SPBC HN ES        421 44.35                             130   -0.02 9  157 219 
 SPBC HZ I         421 47.39         2.9 0.26            131            157 219 
                                                                                
