 2012 11 3 0319 52.4 L   6.786 -73.109139.6  RSN 11 0.5 2.3LRSN                1
 GAP=142        0.85       3.5     5.2  5.8 -0.3612E+01  0.8926E+01  0.6929E+01E
 Epicentro: LOS SANTOS - SANTANDER                                             3
 ACTION:UPD 12-12-05 15:31 OP:}ep  STATUS:               ID:20121103031952 L   I
 2012-11-03-0320-00M.COL___234                                                 6
 STAT SP IPHASW D HRMM SECON CODA AMPLIT PERI AZIMU VELO AIN AR TRES W  DIS CAZ7
 BAR2 SZ IP     D  320 11.14                             170   -0.1210 22.9 201 
 BAR2 SZ ES   1    320 25.80                             170   -0.18 7 22.9 201 
 BAR2 SZ I         320 28.46        75.9 0.30                          22.9 201 
 GIR2 SZ EP        320 11.32                             166   -0.0710 33.7 344 
 GIR2 SZ ES   1    320 26.22                             166    0.01 7 33.7 344 
 BRR  HZ EP        320 13.16                             150    0.0410 75.5 298 
 BRR  HE ES   1    320 29.93                             150    0.63 7 75.5 298 
 BRR  HE I         320 30.45        64.5 0.20                          75.5 298 
 PAM  SZ EP        320 14.08                             150    0.2110 76.1  36 
 PAM  SN ES   1    320 30.73                             150    0.11 7 76.1  36 
 PAM  SN I         320 32.08        29.9 0.50                          76.1  36 
 RUS  HZ EP        320 15.09                             143   -0.3110 98.8 178 
 RUS  HN ES   1    320 33.31                             143   -0.04 7 98.8 178 
 RUS  HN I         320 34.67        22.7 0.18                          98.8 178 
 OCA  HN ES   1    320 41.57                             128   -0.72 7  162 352 
 CHI  HZ EP   1    320 29.41                             116   -0.29 6  248 196 
 CHI  HN ES   1    320 59.16                             116    0.35 6  248 196 
 CHI  HN I         321  4.04        11.7 0.50                           248 196 
 ROSC BZ EP   1    320 31.22                             115    0.96 6  254 212 
 ROSC BZ I         321  7.06        11.7 0.50                           254 212 
 HEL  HZ EP   1    320 33.10                             113    0.42 6  276 256 
 HEL  HN ES   1    321  3.46                             113   -0.66 6  276 256 
 HEL  HN I         321 10.35        10.7 0.30                           276 256 
 RREF HZ EP        320 39.41                             109    0.91 7  324 230 
 RREF HN ES   1    321 13.94                             109   -0.53 5  324 230 
 RREF HZ I         321 23.51         7.2 0.22                           324 230 
 PRA  HZ EP   1    320 44.82                             105   -0.95 4  393 210 
 PRA  HN ES   1    321 26.96                             105   -0.46 4  393 210 
 PRA  HN I         321 32.84         5.9 0.30                           393 210 
                                                                                
