 2016  8 3 0802 46.8 L   6.791 -73.130143.1  RSN  8 0.2 1.4LRSN                1
 GAP=139        0.56       2.2     2.4  3.5 -0.5830E+00  0.3311E+01  0.6894E+00E
 Epicentro: LOS SANTOS - SANTANDER                                             3
 ACTION:UPD 16-10-29 15:31 OP:rebc STATUS:               ID:20160803080246 L   I
 OLDACT:UP  16-08-03 17:43 OP:edw  STATUS:               ID:20160803075731     3
 OLDACT:UP  16-08-03 17:42 OP:edw  STATUS:               ID:20160803075731     3
 OLDACT:REG 16-08-03 13:22 OP:edw  STATUS:               ID:20160803075731     3
 2016-08-03-0758-00M.COL___341                                                 6
 STAT SP IPHASW D HRMM SECON CODA AMPLIT PERI AZIMU VELO AIN AR TRES W  DIS CAZ7
 BAR2 EZ EP        8 3  6.06                             171   -0.0110 22.7 195 
 BAR2 EZ ES        8 3 21.07                             171   -0.0510 22.7 195 
 BRR  HZ EP        8 3  7.83                             151    0.0810 73.2 299 
 BRR  HN ES        8 3 24.39                             151    0.2810 73.2 299 
 PAM  EZ EP        8 3  8.84                             150    0.1510 77.1  38 
 PAM  EN ES        8 3 25.69                             150   -0.0910 77.1  38 
 RUS  HZ EP        8 3 10.30                             144    0.1210 99.5 177 
 RUS  HN ES        8 3 28.42                             144   -0.0210 99.5 177 
 RUS  HZ I         8 3 28.80         2.6 0.30                          99.5 177 
 SPBC HZ EP        8 3 15.05                             128   -0.04 9  163 220 
 SPBC HN ES        8 3 36.77                             128   -0.42 9  163 220 
 SPBC HZ I         8 3 38.00         3.4 0.26                           163 220 
 ZAR  HZ EP        8 3 18.79                             121   -0.46 8  206 292 
 ZAR  HN ES        8 3 44.36                             121   -0.22 8  206 292 
 ZAR  HZ I         8 3 50.35         3.1 0.46                           206 292 
 HEL  HN ES        8 3 58.65                             114    0.26 8  273 256 
 GUY2CHZ EP        8 3 30.55                             112    0.20 7  302 235 
 GUY2CHN ES        8 4  4.64                             112    0.30 7  302 235 
 GUY2CHZ I         8 4 12.49         1.2 0.30                           302 235 
                                                                                
