 2012 11 3 0117  0.9 L   6.868 -73.270127.6  RSN  5 0.3 2.0LRSN                1
 GAP=129        0.63       6.8     4.4  5.8  0.7326E+01  0.1192E+02  0.2121E+01E
 Epicentro: BETULIA - SANTANDER                                                3
 ACTION:UPD 12-12-05 15:31 OP:}ep  STATUS:               ID:20121103011700 L   I
 2012-11-03-0110-00M.COL___234                                                 6
 STAT SP IPHASW D HRMM SECON CODA AMPLIT PERI AZIMU VELO AIN AR TRES W  DIS CAZ7
 GIR2 SZ EP        117 18.27                             168    0.0010 24.8  20 
 GIR2 SZ ES   1    117 31.26                             168   -0.53 7 24.8  20 
 BAR2 SZ EP        117 18.67                             165    0.0610 32.0 162 
 BAR2 SZ ES   1    117 32.66                             165    0.25 7 32.0 162 
 BAR2 SZ I         117 33.03        33.6 0.40                          32.0 162 
 BRR  HZ EP        117 19.10                             155   -0.1410 55.5 298 
 BRR  HE ES   1    117 33.40                             155   -0.13 7 55.5 298 
 BRR  HE I         117 34.12        18.7 0.18                          55.5 298 
 PAM  SE ES   1    117 37.98                             146    0.36 7 81.8  50 
 PAM  SE I         117 38.93        16.1 0.26                          81.8  50 
 ZAR  HZ EP        117 30.42                             120   -0.18 9  188 292 
 ZAR  HN ES   1    117 54.29                             120    0.55 7  188 292 
 ZAR  HN I         117 56.21        10.3 0.14                           188 292 
                                                                                
