 2013  2 3 0605 48.6 L   6.787 -73.091152.4  RSN  6 0.2 1.3LRSN                1
 GAP=144        0.54       3.3     3.6  5.5  0.3482E-01  0.2865E+01  0.9061E+01E
 Epicentro: LOS SANTOS - SANTANDER                                             3
 ACTION:UPD 13-03-12 09:30 OP:ep   STATUS:               ID:20130203060548 L   I
 2013-02-03-0600-00M.COL___240                                                 6
 STAT SP IPHASW D HRMM SECON CODA AMPLIT PERI AZIMU VELO AIN AR TRES W  DIS CAZ7
 BAR2 SZ EP   1    6 6  9.01                             171   -0.05 7 23.8 205 
 BAR2 SZ I         6 6  9.38         3.7 0.11            170           23.8 205 
 PAM  SN ES        6 6 29.03                             153   -0.1510 74.9  35 
 PAM  SN I         6 6 30.53         4.8 0.39            155           74.9  35 
 BRR  HZ EP        6 6 11.05                             152    0.2210 77.2 297 
 BRR  HE ES        6 6 28.41                             152    0.2610 77.2 297 
 BRR  HE I         6 6 29.02         6.0 0.37            150           77.2 297 
 RUS  HZ EP        6 6 12.97                             146    0.0510 98.9 179 
 RUS  HE ES   1    6 6 31.74                             146   -0.13 7 98.9 179 
 PTB  HZ EP   1    6 6 16.33                             132   -0.32 7  153 260 
 PTB  HE ES   1    6 6 38.03                             132   -0.47 7  153 260 
 PTB  HZ I         6 6 42.95         1.7 0.24            132            153 260 
 CHI  HZ EP   1    6 6 26.65                             118   -0.08 6  249 197 
 CHI  HN ES   1    6 6 56.80                             118    0.35 6  249 197 
                                                                                
