 2012  7 3 0324 49.4 L   6.767 -73.215149.4  RSN  4 0.3 1.2LRSN                1
 GAP=225        0.78      11.2    16.1 10.5  0.1380E+03  0.7183E+01  0.4736E+01E
 Epicentro: ZAPATOCA - SANTANDER                                               3
 ACTION:UPD 12-08-14 11:42 OP:ep   STATUS:               ID:20120703032449 L   I
 2012-07-03-0320-00M.COL___200                                                 6
 STAT SP IPHASW D HRMM SECON CODA AMPLIT PERI AZIMU VELO AIN AR TRES W  DIS CAZ7
 BAR2 SZ EP   1    325  9.02                             172    -0.3 7   20 169 
 BAR2 SZ I         325 25.68         3.8 0.27             90             20 169 
 BRR  HZ EP   1    325 11.22                             155     0.6 7   67 304 
 BRR  HZ I         325 13.87         4.8 0.14             90             67 304 
 BRR  HE ES   1    325 27.10                             155    -0.2 7   67 304 
 RUS  HZ EP   1    325 13.15                             145    -0.1 7   98 171 
 RUS  HE ES   1    325 32.13                             145     0.2 7   98 171 
 RUS  HZ I         325 33.94         1.6 0.49             90             98 171 
 PTB  HZ EP   1    325 15.77                             135    -0.1 7  140 260 
 PTB  HZ I         325 41.04         1.3 0.22             56            140 260 
