 2016  7 3 0645  9.9 L   6.803 -73.157143.8  RSN  6 0.3 1.4LRSN                1
 GAP=237        0.85       4.6     5.0  5.8  0.9746E+01  0.4913E+01 -0.6738E+00E
 Epicentro: LOS SANTOS - SANTANDER                                             3
 ACTION:UPD 17-03-29 16:46 OP:lp   STATUS:               ID:20160703064509 L   I
 OLDACT:REG 16-07-03 13:08 OP:edw  STATUS:               ID:20160703063743     3
 2016-07-03-0637-43M.COL___325                                                 6
 STAT SP IPHASW D HRMM SECON CODA AMPLIT PERI AZIMU VELO AIN AR TRES W  DIS CAZ7
 BAR2 EZ EP        645 28.88                             170   -0.4610 23.5 187 
 BAR2 EZ ES        645 44.32                             170   -0.1610 23.5 187 
 BAR2 EZ I         645 45.86         6.5 0.26            170           23.5 187 
 BRR  HZ IP     C  645 30.82                             153    0.0110 69.9 299 
 BRR  HN ES        645 47.47                             153    0.3910 69.9 299 
 BRR  HZ I         645 52.05         3.6 0.16            153           69.9 299 
 RUS  HZ EP        645 33.82                             143    0.2810  101 175 
 RUS  HN ES        645 52.01                             143    0.0710  101 175 
 RUS  HZ I         645 53.74         2.0 0.40            146            101 175 
 PTB  HZ EP        645 36.12                             132   -0.52 9  147 259 
 PTB  HN ES        645 56.95                             132   -0.52 9  147 259 
 PTB  HZ I         645 58.81         2.8 0.24            133            147 259 
 SPBC HZ EP        645 38.60                             129    0.35 9  163 219 
 SPBC HE ES        646  0.54                             129    0.22 9  163 219 
 SPBC HZ I         646  4.07         3.3 0.38            130            163 219 
 ZAR  HZ EP        645 42.25                             122    0.13 9  203 292 
 ZAR  HN ES        646  7.52                             122    0.30 9  203 292 
 ZAR  HZ I         646 10.01         3.1 0.24            124            203 292 
                                                                                
