 2017  4 3 0017 11.0 L   6.783 -73.085141.6  RSN 15 0.5 2.1LRSN                1
 GAP=125        1.01       3.6     3.8  4.8 -0.2232E+01  0.3927E+01  0.4458E+01E
 Epicentro: LOS SANTOS - SANTANDER                                             3
 ACTION:UPD 17-05-30 21:07 OP:jn   STATUS:               ID:20170403001711 L   I
 OLDACT:UP  17-04-03 13:44 OP:and  STATUS:               ID:20170403000743     3
 OLDACT:UP  17-04-03 13:44 OP:and  STATUS:               ID:20170403000743     3
 OLDACT:UP  17-04-03 13:43 OP:and  STATUS:               ID:20170403000743     3
 OLDACT:UP  17-04-03 13:41 OP:and  STATUS:               ID:20170403000743     3
 OLDACT:UP  17-04-03 13:41 OP:and  STATUS:               ID:20170403000743     3
 OLDACT:UP  17-04-03 13:40 OP:and  STATUS:               ID:20170403000743     3
 OLDACT:UP  17-04-03 13:40 OP:and  STATUS:               ID:20170403000743     3
 OLDACT:UP  17-04-03 13:39 OP:and  STATUS:               ID:20170403000743     3
 OLDACT:UP  17-04-03 13:38 OP:and  STATUS:               ID:20170403000743     3
 OLDACT:UP  17-04-03 13:36 OP:and  STATUS:               ID:20170403000743     3
 OLDACT:UP  17-04-03 13:36 OP:and  STATUS:               ID:20170403000743     3
 OLDACT:UP  17-04-03 13:36 OP:and  STATUS:               ID:20170403000743     3
 OLDACT:UP  17-04-03 13:35 OP:and  STATUS:               ID:20170403000743     3
 OLDACT:REG 17-04-03 12:22 OP:and  STATUS:               ID:20170403000743     3
 2017-04-03-0008-00M.COL___368                                                 6
 STAT SP IPHASW D HRMM SECON CODA AMPLIT PERI AZIMU VELO AIN AR TRES W  DIS CAZ7
 BAR2 EZ EP   2    017 30.18                             170    0.05 5 23.7 207 
 BAR2 EZ ES        017 45.09                             170    0.0310 23.7 207 
 BAR2 EZ I         017 46.43        59.0 0.18            167           23.7 207 
 PAM  EZ IP     D  017 32.89                             151    0.2810 74.9  35 
 PAM  EN ES        017 48.74                             151   -0.7410 74.9  35 
 PAM  EZ I         017 52.16        11.7 0.46            154           74.9  35 
 BRR  HZ EP        017 32.00                             150   -0.1010 78.0 297 
 BRR  HN ES        017 49.05                             150    0.4910 78.0 297 
 BRR  HZ I         017 49.71        17.2 0.17            149           78.0 297 
 RUS  HZ EP        017 34.11                             143   -0.0710 98.5 180 
 RUS  HN ES        017 52.92                             143    0.6510 98.5 180 
 RUS  HZ I         017 53.73        16.3 0.22            143           98.5 180 
 PTB  HZ EP   9    017 36.93                             130   -1.27 0  154 260 
 PTB  HN ES        017 57.78                             131   -0.37 9  154 260 
 PTB  HZ I         018  0.29        16.4 0.28            129            154 260 
 SPBC HZ EP        017 39.11                             127   -0.34 9  166 221 
 SPBC HN ES        018  1.66                             127    0.01 9  166 221 
 SPBC HZ I         018  6.09        25.0 0.24            127            166 221 
 ZAR  HZ EP        017 44.02                             120    0.13 8  211 292 
 ZAR  HN ES   3    018  8.43                             120   -1.12 2  211 292 
 ZAR  HZ I         018 14.49        13.5 0.26            121            211 292 
 NOR  HZ EP        017 46.61                             117   -0.35 8  239 236 
 NOR  HN ES        018 14.14                             117   -0.87 8  239 236 
 NOR  HZ I         018 17.92         7.5 0.24            117            239 236 
 CHI  HZ EP        017 48.41                             116   -0.06 8  249 197 
 CHI  HN ES        018 17.46                             116   -0.24 8  249 197 
 CHI  HZ I         018 24.30         4.4 0.28            116            249 197 
 ROSC BZ EP        017 50.08                             116    0.98 8  255 213 
 ROSC BN ES   4    018 21.47                             116    2.65 0  255 213 
 ROSC BZ I         018 24.64        10.4 0.30            116            255 213 
 HEL  HZ EP        017 52.31                             113    0.64 7  278 257 
 HEL  HN ES        018 23.59                             113    0.19 7  278 257 
 HEL  HZ I         018 29.84         7.8 0.38            113            278 257 
 PTGC HZ EP        017 53.89                             111   -0.30 7  305 160 
 PTGC HN ES   3    018 26.48                             111   -1.41 2  305 160 
 CBOC HZ EP        017 58.79                             109    0.39 7  339 253 
 CBOC HN ES        018 34.64                             109   -0.74 7  339 253 
 PRA  HZ EP        018  4.24                             106   -0.33 6  394 211 
 PRA  HN ES        018 46.51                             106    0.15 6  394 211 
 PRA  HZ I         018 53.16         4.1 0.30            106            394 211 
 SJC  HZ EP   4    018  4.78                             105   -2.25 0  414 326 
 SJC  HE ES   4    018 46.90                             105   -3.85 0  414 326 
 SJC  HZ I         018 53.41         2.4 0.36            105            414 326 
                                                                                
