 2016  4 3 0419 35.7 L   6.801 -73.159146.4  RSN  7 0.2 1.6LRSN                1
 GAP=135        0.61       2.1     2.7  4.3 -0.1190E+01  0.3260E+01 -0.1186E+01E
 Epicentro: LOS SANTOS - SANTANDER                                             3
 ACTION:UPD 16-05-05 14:18 OP:rebc STATUS:               ID:20160403041935 L   I
 OLDACT:UP  16-04-03 14:20 OP:drio STATUS:               ID:20160403041741     3
 OLDACT:REG 16-04-03 12:28 OP:drio STATUS:               ID:20160403041741     3
 2016-04-03-0417-41M.COL___312                                                 6
 STAT SP IPHASW D HRMM SECON CODA AMPLIT PERI AZIMU VELO AIN AR TRES W  DIS CAZ7
 BAR2 EZ EP        419 55.15                             171   -0.2110 23.2 186 
 BAR2 EZ ES        420 10.49                             171   -0.2410 23.2 186 
 BAR2 EZ I         420 12.22         7.6 0.36            171           23.2 186 
 PAM  EZ EP        419 58.28                             151    0.2910 78.2  40 
 PAM  EN ES        420 15.70                             151    0.2910 78.2  40 
 PAM  EZ I         420 17.67         4.7 0.50            154           78.2  40 
 RUS  HZ EP        419 59.20                             144   -0.2910  101 175 
 RUS  HE ES        420 18.17                             144    0.1010  101 175 
 RUS  HZ I         420 19.10         2.5 0.24            148            101 175 
 PTB  HZ EP        420  2.32                             132   -0.23 9  146 259 
 PTB  HE ES        420 23.57                             132    0.04 9  146 259 
 PTB  HZ I         420 26.58         4.2 0.36            132            146 259 
 OCA  HZ EP        420  4.07                             130    0.07 9  160 354 
 OCA  HE ES        420 25.76                             130   -0.33 9  160 354 
 OCA  HZ I         420 32.03         9.9 0.56            131            160 354 
 SPBC HZ EP        420  4.35                             129    0.22 9  162 219 
 SPBC HN ES        420 26.48                             129    0.15 9  162 219 
 SPBC HZ I         420 32.87         7.6 0.12            131            162 219 
 ZAR  HZ EP   4    420  9.76                             123    1.75 0  203 292 
 ZAR  HE ES        420 33.44                             123    0.21 9  203 292 
 ZAR  HZ I         420 41.08         3.0 0.38            123            203 292 
                                                                                
