 2012  9 3 0519 47.5 L   6.777 -73.140148.6  RSN  8 0.4 1.9LRSN                1
 GAP=138        0.75       4.1     5.1  7.2 -0.3680E+01  0.9372E+01  0.5071E+01E
 Epicentro: LOS SANTOS - SANTANDER                                             3
 ACTION:UPD 12-10-22 14:16 OP:ep   STATUS:               ID:20120903051947 L   I
 2012-09-03-0517-35M.COL___208                                                 6
 STAT SP IPHASW D HRMM SECON CODA AMPLIT PERI AZIMU VELO AIN AR TRES W  DIS CAZ7
 BAR2 SZ EP   1    520  7.45                             172   -0.02 7 20.9 193 
 BAR2 SZ ES   1    520 22.83                             172   -0.18 7 20.9 193 
 BAR2 SZ I         520 23.91        33.8 0.20                          20.9 193 
 GIR2 SZ EP   1    520  7.37                             167   -0.25 7 33.9 350 
 GIR2 SZ ES   1    520 23.33                             167    0.04 7 33.9 350 
 BRR  HN ES   1    520 26.25                             152    0.34 7 73.0 300 
 BRR  HZ I         520 27.99        15.8 0.13                          73.0 300 
 PAM  SE ES   1    520 27.58                             151   -0.22 7 79.0  38 
 PAM  SZ I         520 30.05         9.5 0.45                          79.0  38 
 RUS  HZ EP   1    520 11.42                             145    0.03 7 98.0 176 
 RUS  HE ES   1    520 30.24                             145    0.25 7 98.0 176 
 RUS  HZ I         520 31.30         9.5 0.19                          98.0 176 
 PTB  HZ EP   1    520 14.45                             133   -0.30 7  148 260 
 PTB  HE ES   1    520 35.19                             133   -0.78 7  148 260 
 PTB  HZ I         520 36.95         6.1 0.28                           148 260 
 OCA  HE ES   1    520 39.25                             130    0.49 7  163 353 
 NOR  SN ES   1    520 52.05                             119    0.81 6  234 235 
 NOR  SZ I         520 56.55         7.7 0.21                           234 235 
                                                                                
