 2016 12 3 0525 51.7 L   6.605 -73.183136.0  RSN  4 0.4 1.3LRSN                1
 GAP=222        0.74       8.2     5.3  6.7  0.1516E+02  0.1175E+02  0.5946E+01E
 Epicentro: BARICHARA - SANTANDER                                              3
 ACTION:UPD 17-01-11 20:12 OP:rebc STATUS:               ID:20161203052551 L   I
 OLDACT:UP  16-12-03 14:31 OP:dani STATUS:               ID:20161203051744     3
 OLDACT:REG 16-12-03 12:49 OP:dnl  STATUS:               ID:20161203051744     3
 2016-12-03-0518-00M.COL___352                                                 6
 STAT SP IPHASW D HRMM SECON CODA AMPLIT PERI AZIMU VELO AIN AR TRES W  DIS CAZ7
 BAR2 EZ EP        526 10.18                             179    0.2910 1.47 176 
 BAR2 EZ ES        526 23.89                             179   -0.2010 1.47 176 
 BAR2 EZ I         526 24.64         7.2 0.53            176           1.47 176 
 BRR  HZ EP        526 12.11                             147   -0.2710 80.6 314 
 BRR  HN ES        526 28.83                             147    0.3210 80.6 314 
 BRR  HZ I         526 30.64         2.6 0.14            146           80.6 314 
 PTB  HZ EP        526 17.00                             131   -0.25 9  141 267 
 PTB  HN ES        526 37.39                             131    0.21 9  141 267 
 PTB  HZ I         526 40.14         3.4 0.23            131            141 267 
 ZAR  HZ EP   3    526 25.91                             119    1.83 2  209 298 
 ZAR  HN ES        526 49.08                             119   -0.27 8  209 298 
 ZAR  HZ I         526 52.36         2.3 0.31            120            209 298 
                                                                                
