 2014 10 3 0236 31.0 L   6.807 -73.165143.2  RSN 15 0.5 1.9LRSN                1
 GAP=118        1.84       4.4     6.8  9.0 -0.4175E+01  0.1678E+02  0.4432E+01E
 Epicentro: LOS SANTOS - SANTANDER                                             3
 ACTION:UPD 14-11-29 23:46 OP:nd   STATUS:               ID:20141003023631 L   I
 OLDACT:DUP 14-10-03 14:20 OP:stll STATUS:               ID:20141003022750d    3
 2014-10-03-0227-49M.COL___283                                                 6
 STAT SP IPHASW D HRMM SECON CODA AMPLIT PERI AZIMU VELO AIN AR TRES W  DIS CAZ7
 BAR2 SZ EP        236 50.75                             170    0.4310 23.8 185 
 BAR2 SZ ES        237  5.55                             170    0.1510 23.8 185 
 BAR2 SZ I         237  7.12        18.3 0.22            169           23.8 185 
 BRR  HZ IP     C  236 52.57                             152    0.8310 68.9 299 
 BRR  HZ I         236 52.81        13.3 0.20            151           68.9 299 
 BRR  HN ES        237  8.01                             152    0.1010 68.9 299 
 PAM  SZ EP        236 52.22                             150   -0.7610 78.2  41 
 PAM  SN ES        237 10.34                             150    0.2010 78.2  41 
 PAM  SZ I         237 12.34        18.1 0.70            153           78.2  41 
 RUS  HZ EP        236 54.73                             143    0.1710  101 175 
 RUS  HE ES        237 12.72                             143   -0.2210  101 175 
 RUS  HZ I         237 15.00         4.6 0.24            144            101 175 
 PTB  HZ EP        236 57.53                             131   -0.04 9  146 258 
 PTB  HN ES        237 17.58                             131   -0.72 9  146 258 
 PTB  HZ I         237 22.33        12.3 0.14            131            146 258 
 OCA  HZ EP        236 59.00                             129   -0.01 9  159 354 
 OCA  HN ES        237 20.37                             129   -0.50 9  159 354 
 OCA  HZ I         237 27.25         9.3 0.38            130            159 354 
 SPBC HZ EP        236 59.49                             128    0.27 9  162 218 
 SPBC HN ES        237 21.46                             128    0.22 9  162 218 
 SPBC HZ I         237 28.72         7.9 0.28            129            162 218 
 ZAR  HZ EP        237  4.24                             122    1.21 9  202 292 
 ZAR  HE ES        237 28.29                             122    0.26 9  202 292 
 ZAR  HZ I         237 35.45        15.1 0.30            122            202 292 
 SML  HZ EP        237  6.86                             117   -0.44 8  242 336 
 SML  HN ES        237 35.07                             117   -0.56 8  242 336 
 CHI  HZ EP        237  8.61                             116    0.05 8  249 195 
 CHI  HN ES        237 37.47                             116   -0.40 8  249 195 
 CHI  HZ I         237 45.00         2.9 0.54            117            249 195 
 GUY2CHZ EP        237 14.22                             112   -0.11 7  300 234 
 GUY2CHE ES        237 48.58                             112    0.45 7  300 234 
 GUY2CHZ I         237 57.34         4.5 0.42                           300 234 
 SOCV BZ EP   9    237 13.45                             111   -0.63 0  303  57 
 SOCV BN ES        237 43.38                                   -3.68 7  303  57 
 TOL  SZ EP   1    237 18.25                             109   -0.78 5  343 224 
 TOL  SN ES        237 55.19                             109   -1.31 7  343 224 
 MON  HZ EP   9    237 18.48                             108   -1.17 0  352 309 
 MON  HZ I         237 25.17         2.0 0.40            109            352 309 
 MON  HE ES        237 54.97                                   -1.46 6  352 309 
 PRA  HZ EP        237 24.73                             106    0.36 6  392 209 
 PRA  HN ES        238  6.03                             106    0.02 6  392 209 
 PRA  HZ I         238 14.09         3.4 0.24            107            392 209 
                                                                                
