 2017  9 3 0737 11.8 L   6.878 -73.088147.6  RSN  4 0.1 1.0LRSN                1
 GAP=250        0.45       3.5     5.1  4.3 -0.3008E+01  0.6866E+01 -0.3580E+01E
 Epicentro: PIEDECUESTA - SANTANDER                                            3
 ACTION:UPD 17-10-05 19:08 OP:rebc STATUS:               ID:20170903073711 L   I
 OLDACT:UP  17-09-03 16:53 OP:dani STATUS:               ID:20170903072740d    3
 OLDACT:UP  17-09-03 16:52 OP:dani STATUS:               ID:20170903072740d    3
 OLDACT:UP  17-09-03 16:51 OP:dani STATUS:               ID:20170903072740d    3
 OLDACT:DUP 17-09-03 16:49 OP:dani STATUS:               ID:20170903072740d    3
 2017-09-03-0728-00M.COL___393                                                 6
 STAT SP IPHASW D HRMM SECON CODA AMPLIT PERI AZIMU VELO AIN AR TRES W  DIS CAZ7
 BAR2 EZ EP        737 32.00                             167    0.1310 33.3 198 
 BAR2 EZ ES        737 47.48                             167   -0.0610 33.3 198 
 BRR  HZ EP        737 33.24                             152   -0.0210 73.5 290 
 BRR  HN ES   4    737 46.39                             152   -3.62 0 73.5 290 
 RUS  HZ EP        737 36.48                             142    0.1510  109 180 
 RUS  HN ES        737 55.38                             142   -0.1010  109 180 
 RUS  HZ I         737 56.88         0.9 0.12            140            109 180 
 SPBC HZ EP        737 41.17                             127   -0.28 9  174 219 
 SPBC HE ES        738  4.76                             127    0.17 9  174 219 
 SPBC HZ I         738  9.04         1.7 0.10            125            174 219 
                                                                                
