 2011 12 3 0503 28.8 L   6.797 -73.131134.0  RSN  5 0.1 1.5LRSN                1
 GAP=139        0.31       2.7     4.6  7.4  0.4675E+00 -0.6749E+00 -0.6244E+01E
 Epicentro: LOS SANTOS - SANTANDER                                             3
 ACTION:UPD 12-07-13 16:13 OP:ep   STATUS:               ID:20111203050328 L   I
 2011-12-03-0500-00M.COL___182                                                 6
 STAT SP IPHASW D HRMM SECON CODA AMPLIT PERI AZIMU VELO AIN AR TRES W  DIS CAZ7
 BAR2 SZ EP        5 3 46.97                             169   -0.0410 23.3 194 
 BAR2 SZ ES   3    5 4  1.54                             169    0.32 2 23.3 194 
 BAR2 SZ I         5 4  5.18         8.9 0.66                          23.3 194 
 GIR2 SZ EP   2    5 3 47.09                             166    0.00 5 31.9 348 
 BRR  HZ EP        5 3 48.78                             149    0.0010 72.8 298 
 BRR  HZ I         5 4 10.87         5.9 0.46                          72.8 298 
 PAM  SZ EP        5 3 49.72                             149   -0.0110 76.6  38 
 RUS  HZ EP        5 3 51.46                             141    0.0810  100 177 
 RUS  HN ES   2    5 4  8.80                             141   -0.19 5  100 177 
                                                                                
