 2010 10 3 0146 18.9 L   6.790 -73.099148.5  RSN 19 0.4 3.3LRSN                1
 GAP=130        1.03       3.1     5.0  5.0 -0.6813E+01  0.3628E+01  0.1810E+01E
 Epicentro: LOS SANTOS - SANTANDER                                             3
 ACTION:UP  11-02-18 11:07 OP:tino STATUS:               ID:20101003014618 L   I
 2010-10-03-0144-37S.COL___124                                                 6
 STAT SP IPHASW D HRMM SECON CODA AMPLIT PERI AZIMU VELO SNR AR TRES W  DIS CAZ7
 BTL  SZ EP        146 39.09                             171     0.310   23 307 
 BAR2 SZ EP        146 38.80                             170     0.010   24 203 
 BAR2 SZ ES        146 54.11                             170    -0.310   24 203 
 GIR2 SZ EP        146 38.87                             167    -0.110   34 342 
 BRR  HZ IP     C  146 40.71                             151     0.110   76 297 
 BRR  HZ I         146 40.94       421.3 0.49                            76 297 
 BRR  HN ES        146 58.12                             151     0.610   76 297 
 RUS  HZ EP        146 42.67                             145    -0.110   99 179 
 RUS  HN ES        147  1.10                             145    -0.410   99 179 
 RUS  HZ I         147  2.66       174.2 0.35                            99 179 
 GUE  SZ EP        146 43.72                             140    -0.110  117   9 
 GRA  SZ IP        146 44.62                             138     0.310  125  15 
 GRA  SZ I         146 45.75       192.9 0.25                           125  15 
 GRA  SZ ES   1    147  4.65                             138     0.5 7  125  15 
 OCA  SZ EP        146 47.14                             130    -0.4 9  162 351 
 OCA  SZ ES   1    147  9.69                             130    -0.3 7  162 351 
 OCA  SZ I         147 15.93       192.3 0.35                           162 351 
 NOR  SZ EP        146 54.82                             119    -0.3 8  238 236 
 NOR  SN ES        147 22.68                             119    -0.8 8  238 236 
 CHI  HZ EP        146 56.70                             118    -0.1 8  249 196 
 CHI  HZ I         146 57.85        73.9 0.46                           249 196 
 CHI  HN ES        147 26.87                             118     0.6 8  249 196 
 ROSC BZ EP        146 58.29                             117     1.0 8  255 212 
 ROSC BN ES   2    147 27.32                             117     0.0 4  255 212 
 ROSC BZ I         147 34.88       124.1 0.74                           255 212 
 CVER SZ EP        146 59.07                             115    -0.4 8  273 203 
 HEL  HZ EP   1    147  0.18                             115     0.4 6  277 256 
 HEL  HN ES   2    147 30.54                             115    -1.1 4  277 256 
 HEL  HZ I         147 37.23        65.5 0.70                           277 256 
 RREF HZ EP        147  5.77                             111     0.3 7  325 230 
 RREF HN ES        147 41.86                             111     0.0 7  325 230 
 RREF HZ I         147 47.25        92.0 0.26                           325 230 
 DBB  SZ EP        147  6.56                             110    -0.5 7  345 274 
 TOL  SZ EP        147  8.16                             110     0.6 6  346 225 
 SDV  BZ EP        147  8.06                             109    -0.6 6  357  50 
 ANIL HZ EP   1    147 10.02                             109     0.9 5  360 225 
 ANIL HN ES   2    147 48.27                             109     0.0 3  360 225 
 PRA  HZ EP        147 12.30                             107    -0.4 6  394 210 
 PRA  HN ES        147 55.19                             107     0.5 6  394 210 
 PRA  HZ I         148  1.51       185.4 0.26                           394 210 
                                                                                
