 2011  9 3 0058 39.7 L   6.749 -73.114148.0  RSN  6 0.2 1.7LRSN                1
 GAP=143        0.41       3.4     3.5  5.2  0.4019E+00 -0.3172E+00  0.2325E+01E
 Epicentro: LOS SANTOS - SANTANDER                                             3
 ACTION:UPD 12-07-13 15:55 OP:ep   STATUS:               ID:20110903005839 L   I
 2011-09-03-0054-09S.COL___171                                                 6
 STAT SP IPHASW D HRMM SECON CODA AMPLIT PERI AZIMU VELO AIN AR TRES W  DIS CAZ7
 BAR2 SZ EP   2    058 59.77                             172    0.21 5 18.9 203 
 BAR2 SZ ES   2    059 15.09                             172    0.07 5 18.9 203 
 BAR2 SZ I         059 17.34        10.8 0.26                          18.9 203 
 BRR  HZ EP   1    059  1.43                             151   -0.03 7 77.0 301 
 BRR  HZ I         059  2.63        13.2 0.56                          77.0 301 
 BRR  HN ES   1    059 18.58                             151    0.18 7 77.0 301 
 PAM  SZ EP   1    059  2.54                             150    0.21 7 79.7  35 
 PAM  SN ES   2    059 19.36                             150   -0.59 5 79.7  35 
 RUS  HZ EP   1    059  3.22                             146   -0.09 7 94.8 178 
 RUS  HN ES   2    059 21.74                             146    0.05 5 94.8 178 
 RUS  HZ I         059 24.28         2.8 0.21                          94.8 178 
 ZAR  HN ES   2    059 38.51                             122   -0.22 4  209 293 
 ZAR  HZ I         059 48.54         5.9 0.36                           209 293 
 NOR  SN ES   2    059 43.22                             119   -0.28 4  234 236 
                                                                                
