 2016  7 3 0012 30.6 L   6.838 -73.144141.8  RSN 18 0.4 2.3LRSN                1
 GAP= 70        0.97       2.5     2.4  4.9 -0.4597E+00  0.3244E+01  0.1381E+01E
 Epicentro: LOS SANTOS - SANTANDER                                             3
 ACTION:UPD 17-03-29 16:45 OP:lp   STATUS:               ID:20160703001230 L   I
 OLDACT:UP  16-07-03 13:59 OP:edw  STATUS:               ID:20160703000749     3
 OLDACT:REG 16-07-03 12:20 OP:edw  STATUS:               ID:20160703000749     3
 2016-07-03-0007-49M.COL___334                                                 6
 STAT SP IPHASW D HRMM SECON CODA AMPLIT PERI AZIMU VELO AIN AR TRES W  DIS CAZ7
 BRR  HZ EP        012 51.55                             152    0.3510 69.4 295 
 BRR  HN ES        013  7.34                             152    0.0610 69.4 295 
 BRR  HZ I         013 12.05        41.7 0.12            153           69.4 295 
 PAM  EZ EP        012 52.67                             151    0.4910 74.1  42 
 PAM  EN ES        013  9.65                             151    0.6310 74.1  42 
 PAM  EZ I         013 11.11        28.1 0.34            157           74.1  42 
 RUS  HZ EP        012 53.92                             142   -0.3310  105 176 
 RUS  HN ES        013 12.15                             142   -0.5710  105 176 
 RUS  HZ I         013 13.95        12.7 0.20            143            105 176 
 PTB  HZ EP        012 56.71                             131   -0.61 9  149 257 
 PTB  HN ES        013 17.78                             131   -0.39 9  149 257 
 PTB  HZ I         013 20.69        29.2 0.18            132            149 257 
 TAM  HZ EP        012 58.15                             129    0.11 9  156 106 
 TAM  HN ES        013 19.32                             129   -0.14 9  156 106 
 SPBC HZ EP        012 58.87                             127   -0.23 9  167 218 
 SPBC HN ES        013 21.49                             127    0.14 9  167 218 
 SPBC HZ I         013 27.94        30.2 0.10            128            167 218 
 ZAR  HZ EP        013  2.96                             122    0.34 9  203 291 
 ZAR  HN ES        013 27.60                             122   -0.01 9  203 291 
 NOR  HZ EP        013  6.28                             117   -0.08 8  237 234 
 NOR  HN ES        013 33.74                             117   -0.53 8  237 234 
 NOR  HZ I         013 40.08        15.4 0.22            119            237 234 
 CHI  HZ EP        013  8.29                             116   -0.22 8  253 195 
 CHI  HE ES        013 38.05                             116   -0.04 8  253 195 
 CHI  HZ I         013 44.77        12.6 0.50            117            253 195 
 HEL  HZ EP        013 11.03                             114    0.31 8  273 255 
 HEL  HN ES        013 42.40                             114    0.36 8  273 255 
 HEL  HZ I         013 49.38        15.5 0.38            115            273 255 
 URE  HN ES        013 42.20                             113   -0.86 7  282 291 
 GUY2CHZ EP        013 14.32                             111    0.03 7  304 234 
 GUY2CHN ES        013 49.16                             111    0.77 7  304 234 
 GUY2CHZ I         013 54.29         9.4 0.46                           304 234 
 PTGC HZ EP   4    013 13.23                             110   -1.47 0  313 159 
 PTGC HE ES   4    013 46.33                             110   -2.78 0  313 159 
 LL6C HZ EP        013 14.99                             110   -0.64 7  321 358 
 LL6C HE ES        013 50.38                             110   -0.39 7  321 358 
 CBOC HZ EP        013 18.41                             109    0.92 7  335 251 
 CBOC HE ES        013 54.80                             109    0.71 7  335 251 
 CBOC HZ I         014  5.09         3.4 0.32            111            335 251 
 DBB  SZ EP        013 18.49                             109    0.61 7  339 274 
 DBB  SZ ES        013 54.18                             109   -0.59 7  339 274 
 ANIL HN ES   4    014  1.31                             107    1.71 0  360 224 
 PRA  HZ EP        013 24.33                             106   -0.07 6  396 209 
 PRA  HE ES        014  6.57                             106    0.19 6  396 209 
 PRA  HZ I         014 11.27        13.0 0.36            107            396 209 
 ORTC HZ EP        013 24.57                             105   -0.20 6  399 216 
 ORTC HN ES        014  7.32                             105    0.28 6  399 216 
 ORTC HZ I         014 12.76         8.1 0.40            107            399 216 
 SJC  HZ EP   4    013 23.68                             105   -1.92 0  406 327 
 SJC  HE ES   4    014  4.17                             105   -4.36 0  406 327 
 SJC  HZ I         014  9.28         6.1 0.62            107            406 327 
                                                                                
