 2010  9 3 0025 10.5 L   6.781 -73.064143.4  RSN  7 0.3 2.0LRSN                1
 GAP=244        0.61       4.9     7.2  5.6  0.1516E+02  0.9962E+01  0.6487E+01E
 Epicentro: LOS SANTOS - SANTANDER                                             3
 ACTION:UP  11-02-18 10:59 OP:tino STATUS:               ID:20100903002510 L   I
 2010-09-03-0020-00S.COL___112                                                 6
 STAT SP IPHASW D HRMM SECON CODA AMPLIT PERI AZIMU VELO SNR AR TRES W  DIS CAZ7
 BAR2 SZ EP        025 29.79                             169     0.010   25 212 
 BAR2 SZ ES   1    025 44.79                             169    -0.2 7   25 212 
 BAR2 SZ I         025 46.56        22.3 0.43                            25 212 
 BRR  HZ IP     C  025 31.68                             149    -0.210   80 297 
 BRR  HZ I         025 32.01        44.2 0.25                            80 297 
 BRR  HE ES   1    025 48.96                             149     0.4 7   80 297 
 RUS  HZ EP   1    025 33.65                             144    -0.2 7   98 181 
 RUS  HN ES   1    025 52.35                             144     0.3 7   98 181 
 RUS  HZ I         025 55.90         9.2 0.60                            98 181 
 CHI  HZ EP   2    025 47.99                             117    -0.1 4  249 197 
 CHI  HN ES   2    026 17.13                             117    -0.3 4  249 197 
 CHI  HZ I         026 24.93         4.0 0.24                           249 197 
 HEL  HZ EP   2    025 51.93                             114     0.5 4  280 257 
 HEL  HE ES   2    026 22.90                             114    -0.6 4  280 257 
 HEL  HZ I         026 29.51         6.2 0.37                           280 257 
 RREF HZ EP   2    025 57.95                             110     0.8 3  327 231 
 RREF HZ I         026 38.22         7.1 0.52                           327 231 
 PRA  HZ EP   1    026  4.29                             106     0.1 4  395 211 
                                                                                
