 2017  9 3 0836 39.4 L   6.782 -73.137149.0  RSN  7 0.4 1.5LRSN                1
 GAP=121        0.88       3.5     4.1  5.3  0.2284E+01  0.2858E+01  0.3316E+01E
 Epicentro: LOS SANTOS - SANTANDER                                             3
 ACTION:UPD 17-10-05 19:08 OP:rebc STATUS:               ID:20170903083639 L   I
 OLDACT:REG 17-09-03 13:33 OP:dani STATUS:               ID:20170903082735     3
 2017-09-03-0828-00M.COL___393                                                 6
 STAT SP IPHASW D HRMM SECON CODA AMPLIT PERI AZIMU VELO AIN AR TRES W  DIS CAZ7
 BAR2 EZ EP        836 59.41                             171    0.0710 21.6 193 
 BAR2 EZ ES        837 14.49                             171   -0.4310 21.6 193 
 BAR2 EZ I         837 16.28         8.4 0.78            170           21.6 193 
 BRR  HZ EP        837  1.06                             152    0.1110 73.0 300 
 BRR  HN ES        837 18.10                             152    0.3110 73.0 300 
 BRR  HZ I         837 20.60         7.1 0.26            151           73.0 300 
 PAM  EZ EP        837  2.26                             151    0.2910 78.3  38 
 PAM  EN ES        837 19.43                             151   -0.1710 78.3  38 
 PAM  EZ I         837 21.20         2.8 0.46            154           78.3  38 
 RUS  HZ EP        837  3.54                             145    0.2610 98.6 177 
 RUS  HN ES        837 22.17                             145    0.2310 98.6 177 
 RUS  HZ I         837 22.97         3.4 0.27            146           98.6 177 
 SPBC HZ EP        837  8.49                             130    0.47 9  162 220 
 SPBC HN ES        837 30.43                             130    0.06 9  162 220 
 SPBC HZ I         837 34.69         4.3 0.46            130            162 220 
 ZAR  HZ EP        837 12.06                             123   -0.12 8  206 293 
 ZAR  HE ES        837 37.15                             123   -0.63 8  206 293 
 ZAR  HZ I         837 43.57         3.4 0.06            123            206 293 
 PTGC HZ EP        837 22.48                             112   -0.63 7  307 159 
 PTGC HN ES   1    837 56.34                             112   -0.90 5  307 159 
                                                                                
