 2010  7 3 0330 28.2 L   6.749 -73.061144.0  RSN  4 0.3 1.8LRSN                1
 GAP=205        0.58       7.4     8.8  7.8 -0.3266E+02 -0.3166E+02  0.3572E+01E
 Epicentro: LOS SANTOS - SANTANDER                                             3
 ACTION:UPD 10-12-01 15:14 OP:pat  STATUS:               ID:20100703033028 L   I
 2010-07-03-0325-47S.COL___118                                                 6
 STAT SP IPHASW D HRMM SECON CODA AMPLIT PERI AZIMU VELO AIN AR TRES W  DIS CAZ7
 BAR2 SZ EP   2    330 48.01                             171     0.5 5   22 218 
 BAR2 SZ ES   2    331  2.42                             171    -0.3 5   22 218 
 BRR  HZ EP   1    330 49.63                             149    -0.1 8   82 299 
 BRR  HZ I         330 50.13        12.6 0.10                            82 299 
 BRR  HN ES   1    331  6.76                             149     0.1 8   82 299 
 GUE  SZ EP        330 52.72                             138    -0.310  121   7 
 GRA  SZ EP        330 53.76                             136     0.310  129  13 
 GRA  SZ ES   1    331 13.31                             136     0.0 7  129  13 
                                                                                
