 2012  2 3 0012 44.0 L   6.697 -73.113152.9  RSN  4 0.4 1.1LRSN                1
 GAP=233        0.69       9.5    11.7 12.4  0.8074E+02  0.6444E+02  0.2134E+02E
 ACTION:UP  12-03-07 16:27 OP:epov STATUS:               ID:20120203001244 L   I
 2012-02-03-0010-00M.COL___188                                                 6
 STAT SP IPHASW D HRMM SECON CODA AMPLIT PERI AZIMU VELO SNR AR TRES W  DIS CAZ7
 BRR  HN ES   1    013 24.24                             151    0.28 7 80.2 304 
 RUS  HN ES   1    013 25.91                             149   -0.27 7 89.0 178 
 RUS  HZ I         013 29.96         2.1 0.30                          89.0 178 
 PTB  HZ EP   1    013 12.02                             133    0.28 7  150 263 
 PTB  HN ES   1    013 33.61                             133    0.25 7  150 263 
 PTB  HZ I         013 35.66         1.5 0.34                           150 263 
 ZAR  HE ES   1    013 43.39                             123   -0.65 6  212 295 
                                                                                
