 2012  9 3 0345 58.1 L   6.817 -73.154146.1  RSN  9 0.4 2.0LRSN                1
 GAP=135        0.83       4.0     4.8  6.5 -0.1844E+00  0.7062E+01  0.5445E+01E
 Epicentro: LOS SANTOS - SANTANDER                                             3
 ACTION:UPD 12-10-22 14:16 OP:ep   STATUS:               ID:20120903034558 L   I
 2012-09-03-0340-00M.COL___218                                                 6
 STAT SP IPHASW D HRMM SECON CODA AMPLIT PERI AZIMU VELO AIN AR TRES W  DIS CAZ7
 BAR2 SZ EP        346 17.70                             170   -0.1010 25.0 187 
 BAR2 SZ ES   1    346 32.37                             170   -0.80 7 25.0 187 
 BAR2 SZ I         346 34.38        33.0 0.18                          25.0 187 
 GIR2 SZ EP   1    346 17.77                             168    0.02 7 29.3 351 
 GIR2 SZ ES   1    346 33.42                             168    0.34 7 29.3 351 
 BRR  HZ EP        346 19.50                             153    0.3210 69.5 298 
 BRR  HN ES   1    346 36.43                             153    0.80 7 69.5 298 
 BRR  HZ I         346 37.45        26.0 0.17                          69.5 298 
 PAM  SZ EP   1    346 20.66                             151    0.37 7 76.5  41 
 PAM  SN ES   1    346 37.52                             151   -0.09 7 76.5  41 
 PAM  SZ I         346 39.83        22.9 0.46                          76.5  41 
 RUS  HZ EP   1    346 21.73                             143   -0.29 7  103 176 
 RUS  HE ES   1    346 40.97                             143    0.30 7  103 176 
 RUS  HZ I         346 41.64         6.1 0.35                           103 176 
 PTB  HZ EP   1    346 25.27                             132    0.23 7  147 258 
 PTB  HN ES   1    346 45.57                             132   -0.49 7  147 258 
 OCA  HN ES   1    346 47.50                             130   -0.70 7  158 353 
 ZAR  HE ES   1    346 55.42                             123   -0.18 6  203 292 
 PRA  HZ EP   1    346 51.55                             106   -0.22 4  393 209 
 PRA  HN ES   1    347 33.63                             106    0.00 4  393 209 
                                                                                
