 2011  5 3 0810 26.8 L   6.772 -73.122151.4  RSN 11 0.2 2.5LRSN                1
 GAP=141        0.40       2.4     3.7  3.4 -0.5719E+01  0.4388E+01 -0.3625E-02E
 Epicentro: LOS SANTOS - SANTANDER                                             3
 ACTION:UP  11-06-29 08:50 OP:tino STATUS:               ID:20110503081026 L   I
 2011-05-03-0800-00M.COL___140                                                 6
 STAT SP IPHASW D HRMM SECON CODA AMPLIT PERI AZIMU VELO SNR AR TRES W  DIS CAZ7
 BAR2 SZ EP   1    810 46.88                             172    -0.2 7   21 198 
 BAR2 SZ ES   1    811  3.10                             172     0.3 7   21 198 
 BAR2 SZ I         811  4.96        45.7 0.24                            21 198 
 BTL  SZ EP   1    810 47.14                             171     0.1 7   23 315 
 PAM  SZ EP        810 49.83                             152     0.210   78  37 
 PAM  SN ES   2    811  7.45                             152     0.0 5   78  37 
 RUS  HZ EP   1    810 50.72                             146    -0.1 7   97 177 
 RUS  HE ES   2    811  9.37                             146    -0.3 5   97 177 
 RUS  HZ I         811 11.02        26.8 0.51                            97 177 
 BRI  SZ EP   1    810 51.48                             142     0.1 7  110  19 
 BRI  SZ ES   2    811 10.23                             142    -0.3 5  110  19 
 BRI  SZ I         811 15.53        22.5 0.50                           110  19 
 GRA  SZ IP        810 52.70                             138     0.010  128  16 
 GRA  SZ ES   1    811 12.69                             138    -0.2 7  128  16 
 GRA  SZ I         811 15.30        41.9 0.33                           128  16 
 NOR  SZ EP   1    811  2.50                             120    -0.4 6  235 235 
 NOR  SN ES   2    811 31.00                             120     0.0 4  235 235 
 HEL  HZ EP   1    811  7.51                             116     0.0 6  274 257 
 HEL  HN ES   2    811 39.17                             116     0.0 4  274 257 
 HEL  HZ I         811 46.63        23.3 0.39                           274 257 
 RREF HZ EP   1    811 13.49                             112     0.3 5  322 230 
 RREF HN ES   2    811 49.45                             112     0.1 3  322 230 
 RREF HZ I         811 59.10        21.8 0.28                           322 230 
 PRA  HZ EP   1    811 20.51                             107     0.2 4  391 210 
 PRA  HE ES   2    812  2.19                             107     0.1 3  391 210 
 SJA  SZ EP   1    811 20.97                             107    -0.3 4  398 193 
 SJA  SZ ES   2    812  3.82                             107     0.1 3  398 193 
 SJA  SZ I         812  9.76        20.1 0.45                           398 193 
                                                                                
