 2017  5 3 0344 49.0 L   6.796 -73.072151.0  RSN  5 0.3 1.1LRSN                1
 GAP=146        0.99       7.2     6.7  9.7  0.1660E+02 -0.1231E+01  0.5136E+01E
 Epicentro: LOS SANTOS - SANTANDER                                             3
 ACTION:UPD 17-06-16 13:32 OP:jn   STATUS:               ID:20170503034449 L   I
 OLDACT:UP  17-05-04 19:08 OP:nlst STATUS:               ID:20170503034449 L   3
 OLDACT:UP  17-05-03 16:09 OP:edw  STATUS:               ID:20170503033738d    3
 OLDACT:DUP 17-05-03 16:06 OP:edw  STATUS:               ID:20170503033738d    3
 OLDACT:REG 17-05-03 11:38 OP:edw  STATUS:               ID:20170503033737     3
 2017-05-03-0338-00M.COL___371                                                 6
 STAT SP IPHASW D HRMM SECON CODA AMPLIT PERI AZIMU VELO AIN AR TRES W  DIS CAZ7
 PAM  EN ES   1    345 29.04                             155   -0.05 7 72.9  34 
 BRR  HZ EP        345 11.07                             152   -0.0710 78.6 296 
 BRR  HN ES   1    345 28.69                             152    0.28 7 78.6 296 
 RUS  HZ EP        345 13.62                             145    0.4010 99.9 181 
 RUS  HE ES   1    345 31.86                             145   -0.25 7 99.9 181 
 RUS  HZ I         345 33.25         1.7 0.42            145           99.9 181 
 PTB  HZ EP   9    345 15.56                             132   -1.55 0  156 260 
 PTB  HN ES        345 38.31                             133    0.82 9  156 260 
 PTB  HZ I         345 38.92         1.4 0.44            133            156 260 
 ZAR  HN ES        345 48.31                             123   -0.46 8  212 291 
                                                                                
