 2017 10 3 0323 45.1 L   6.871 -73.098134.6  RSN  7 0.4 1.3LRSN                1
 GAP=250        0.76       4.4     4.7  6.9  0.5916E+01  0.9009E+01  0.3471E+01E
 Epicentro: LOS SANTOS - SANTANDER                                             3
 ACTION:UPD 17-11-07 19:27 OP:rebc STATUS:               ID:20171003032345 L   I
 OLDACT:DUP 17-10-03 14:09 OP:dhb  STATUS:               ID:20171003031741d    3
 OLDACT:DUP 17-10-03 14:04 OP:dhb  STATUS:               ID:20171003031740d    3
 OLDACT:REG 17-10-03 12:17 OP:dhb  STATUS:               ID:20171003031739     3
 2017-10-03-0318-00M.COL___435                                                 6
 STAT SP IPHASW D HRMM SECON CODA AMPLIT PERI AZIMU VELO AIN AR TRES W  DIS CAZ7
 BAR2 EZ EP        324  3.36                             166   -0.2210 32.2 197 
 BAR2 EZ ES   1    324 18.74                             166    0.72 7 32.2 197 
 BAR2 EZ I         324 20.69         5.6 0.11            165           32.2 197 
 RUS  HZ EP        324  8.24                             139   -0.0810  108 179 
 RUS  HN ES        324 26.11                             139   -0.3510  108 179 
 RUS  HZ I         324 28.43         2.7 0.23            143            108 179 
 SPBC HZ EP        324 13.72                             125    0.06 9  173 219 
 SPBC HE ES        324 36.02                             125    0.05 9  173 219 
 SPBC HZ I         324 42.95         3.8 0.24            127            173 219 
 ZAR  HN ES        324 41.92                             119   -0.05 8  206 290 
 ZAR  HZ I         324 49.23         1.8 0.16            121            206 290 
 NOR  HE ES        324 48.88                             115   -0.41 8  244 234 
 NOR  HZ I         324 49.67         1.1 0.17            117            244 234 
 CHI  HZ EP        324 23.68                             114    0.52 8  258 196 
 CHI  HE ES        324 52.98                             114    0.11 8  258 196 
 CHI  HZ I         324 53.62         1.3 0.42            117            258 196 
 GUY2CHZ EP   4    324 33.88                             109    4.69 0  310 234 
 GUY2CHE ES   3    325  5.38                             109    1.77 2  310 234 
 GUY2CHZ I         325  9.52         0.8 0.29                           310 234 
                                                                                
