 2011  1 3 0835 54.8 L   6.837 -72.971146.0  RSN  4 0.5 1.5LRSN                1
 GAP=178        1.16       6.0    30.0 17.4 -0.2651E+02  0.1318E+02 -0.1638E+02E
 Epicentro: CEPITA - SANTANDER                                                 3
 ACTION:UP  11-02-08 08:38 OP:pat  STATUS:               ID:20110103083554 L   I
 2011-01-03-0820-00M.COL___137                                                 6
 STAT SP IPHASW D HRMM SECON CODA AMPLIT PERI AZIMU VELO SNR AR TRES W  DIS CAZ7
 BAR2 SZ EP   2    836 14.90                             166     0.1 5   36 221 
 BAR2 SZ I         836 30.75         7.0 0.38                            36 221 
 RUS  HZ EP   1    836 18.86                             142     0.0 8  105 187 
 RUS  HE ES   1    836 37.67                             142     0.0 8  105 187 
 RUS  HZ I         836 38.38         3.1 0.35                           105 187 
 GRA  SZ EP        836 19.90                             139     0.510  117   9 
 GRA  SZ I         836 22.28         4.7 0.32                           117   9 
 GRA  SZ ES   1    836 38.04                             139    -0.5 7  117   9 
 OCA  SZ EP   1    836 22.16                             130    -0.9 7  160 346 
 OCA  SZ ES   1    836 45.55                             130     0.4 7  160 346 
 OCA  SZ I         836 48.31         4.5 0.26                           160 346 
                                                                                
