 2014  1 3 0051 38.6 L   6.764 -73.131143.2  RSN  6 0.4 1.3LRSN                1
 GAP=140        0.90       3.9     4.3  6.8 -0.2718E+01  0.4972E+01  0.9471E+01E
 Epicentro: LOS SANTOS - SANTANDER                                             3
 ACTION:UPD 14-03-13 09:50 OP:ep   STATUS:               ID:20140103005138 L   I
 OLDACT:REG 14-01-03 08:58 OP:stll STATUS:               ID:20140103004816     3
 2014-01-03-0048-16M.COL___249                                                 6
 STAT SP IPHASW D HRMM SECON CODA AMPLIT PERI AZIMU VELO AIN AR TRES W  DIS CAZ7
 BRR  HZ EP        051 59.63                             151   -0.0010 74.6 301 
 BRR  HN ES        052 16.53                             151    0.4610 74.6 301 
 PAM  SZ EP        052  0.67                             150    0.0410 79.5  37 
 PAM  SE ES        052 17.83                             150   -0.0210 79.5  37 
 PAM  SZ I         052 19.94         6.1 0.58            153           79.5  37 
 RUS  HZ EP        052  1.74                             144   -0.0210 96.5 177 
 RUS  HN ES        052 19.84                             144   -0.0210 96.5 177 
 RUS  HZ I         052 22.99         2.1 0.46            144           96.5 177 
 PTB  HZ EP        052  4.79                             131   -0.61 9  149 260 
 PTB  HN ES        052 25.77                             131   -0.57 9  149 260 
 PTB  HZ I         052 27.98         2.3 0.16            134            149 260 
 CHI  HZ EP        052 16.00                             117    0.26 8  245 196 
 CHI  HN ES        052 44.45                             117   -0.30 8  245 196 
 CHI  HZ I         052 50.26         0.9 0.62            118            245 196 
 GUY2CHZ EP        052 22.36                             112    0.42 7  300 236 
 GUY2CHN ES        052 56.57                             112    0.79 7  300 236 
 GUY2CHZ I         053  4.35         1.2 0.76                           300 236 
                                                                                
