 2017  8 3 0943 22.3 L   6.792 -73.101150.6  RSN 14 0.3 1.8LRSN                1
 GAP=116        0.85       3.0     3.3  4.5 -0.3328E-01  0.1882E+01  0.2607E+01E
 Epicentro: LOS SANTOS - SANTANDER                                             3
 ACTION:UPD 17-09-04 20:15 OP:rebc STATUS:               ID:20170803094322 L   I
 OLDACT:UP  17-08-03 19:20 OP:edw  STATUS:               ID:20170803093736     3
 OLDACT:REG 17-08-03 15:17 OP:osc  STATUS:               ID:20170803093736     3
 2017-08-03-0938-00M.COL___386                                                 6
 STAT SP IPHASW D HRMM SECON CODA AMPLIT PERI AZIMU VELO AIN AR TRES W  DIS CAZ7
 BAR2 EZ EP        943 42.30                             171   -0.2610 23.8 202 
 BAR2 EZ ES        943 58.24                             171   -0.0910 23.8 202 
 BAR2 EZ I         943 58.49        20.6 0.28            167           23.8 202 
 PAM  EZ EP     C  943 45.24                             152    0.3010 75.1  36 
 PAM  EN ES        944  2.37                             152   -0.1910 75.1  36 
 PAM  EZ I         944  4.73        10.1 0.68            156           75.1  36 
 BRR  HZ EP        943 44.28                             151    0.0010 76.0 297 
 BRR  HN ES        944  1.61                             151    0.2210 76.0 297 
 BRR  HZ I         944  5.21         8.9 0.16            149           76.0 297 
 RUS  HZ EP        943 46.68                             145    0.1910 99.5 179 
 RUS  HN ES        944  5.25                             145   -0.0810 99.5 179 
 RUS  HZ I         944  6.21         7.2 0.34            146           99.5 179 
 PTB  HZ EP   9    943 49.41                             132   -0.71 0  152 260 
 PTB  HN ES        944 10.03                             132   -1.05 9  152 260 
 PTB  HZ I         944 17.53         7.8 0.38            130            152 260 
 YPLC HZ EP   2    943 52.46                             128    0.27 4  174 153 
 YPLC HN ES   4    944  9.56                             128   -5.91 0  174 153 
 YPLC HZ I         944 10.86         7.1 0.24            130            174 153 
 ZAR  HZ EP        943 55.77                             122    0.17 8  209 292 
 ZAR  HN ES        944 21.50                             122   -0.05 8  209 292 
 ZAR  HZ I         944 27.32         5.7 0.44            122            209 292 
 NOR  HZ EP        943 58.87                             119    0.15 8  238 235 
 NOR  HN ES        944 27.53                             119    0.42 8  238 235 
 NOR  HZ I         944 31.04         5.1 0.34            119            238 235 
 CHI  HZ EP        944  0.66                             118    0.30 8  249 196 
 CHI  HN ES        944 29.85                             118   -0.16 8  249 196 
 CHI  HZ I         944 39.52         2.7 0.28            118            249 196 
 HEL  HN ES        944 34.88                             115   -0.37 7  277 256 
 GUY2CHZ EP   4    944  7.56                             113    0.99 0  305 235 
 GUY2CHN ES   4    944 42.37                             113    1.30 0  305 235 
 GUY2CHZ I         944 47.63         2.4 0.36                           305 235 
 PTGC HZ EP        944  5.35                             112   -0.77 7  306 159 
 PTGC HN ES   4    944 38.09                             112   -2.18 0  306 159 
 LL6C HZ EP   2    944  7.71                             111   -0.67 3  326 357 
 LL6C HN ES   2    944 44.05                             111   -0.24 3  326 357 
 SJC  HZ EP   4    944 16.75                             106   -1.71 0  413 326 
 SJC  HN ES   4    944 58.15                             106   -4.09 0  413 326 
 SJC  HZ I         945  1.83         1.8 0.42            107            413 326 
                                                                                
