 2011  8 3 0709 59.8 L   6.820 -73.115148.0  RSN 10 0.3 2.4LRSN                1
 GAP=139        0.47       2.1     3.4  3.8 -0.2034E+01  0.4634E+01  0.1613E+01E
 Epicentro: LOS SANTOS - SANTANDER                                             3
 ACTION:UPD 12-07-25 14:05 OP:epov STATUS:               ID:20110803070959 L   I
 2011-08-03-0708-26S.COL___119                                                 6
 STAT SP IPHASW D HRMM SECON CODA AMPLIT PERI AZIMU VELO AIN AR TRES W  DIS CAZ7
 BAR2 SZ IP        710 19.65                             169   -0.1310 26.3 196 
 BAR2 SZ I         710 20.19        59.0 0.19                          26.3 196 
 BAR2 SZ ES   1    710 35.36                             169    0.02 7 26.3 196 
 BRR  HZ IP        710 21.44                             152    0.1210 73.1 296 
 BRR  HZ I         710 21.70       109.2 0.18                          73.1 296 
 BRR  HN ES   2    710 38.49                             152    0.41 5 73.1 296 
 PAM  SZ EP   1    710 22.43                             152    0.38 7 73.5  39 
 PAM  SN ES   1    710 39.53                             152    0.15 7 73.5  39 
 RUS  HZ IP     C  710 23.70                             144   -0.2410  103 178 
 RUS  HE ES   2    710 42.58                             144   -0.17 5  103 178 
 RUS  HZ I         710 43.90        24.6 0.32                           103 178 
 OCA  SZ EP   1    710 28.13                             130    0.00 7  158 352 
 OCA  SZ ES   1    710 49.77                             130   -0.45 7  158 352 
 OCA  SZ I         710 51.49        19.0 0.36                           158 352 
 NOR  SZ EP   1    710 35.80                             118   -0.31 6  239 234 
 NOR  SN ES   1    711  4.07                             118   -0.34 6  239 234 
 CHI  HZ EP   1    710 38.10                             117    0.13 6  252 196 
 CHI  HN ES   1    711  7.82                             117    0.09 6  252 196 
 CHI  HZ I         711 12.00         8.6 0.74                           252 196 
 HEL  HZ EP   1    710 40.43                             115   -0.13 6  276 256 
 HEL  HE ES   2    711 12.80                             115    0.45 4  276 256 
 HEL  HZ I         711 18.77        15.4 0.24                           276 256 
 RREF HZ EP   1    710 46.94                             111    0.43 5  326 229 
 RREF HN ES   2    711 23.30                             111    0.37 3  326 229 
 RREF HZ I         711 27.46         8.2 0.70                           326 229 
 PRA  HZ EP   1    710 54.12                             107    0.28 4  396 210 
 PRA  HN ES   1    711 36.05                             107    0.08 4  396 210 
                                                                                
