 2011 11 3 0314 12.3 L   6.790 -73.101149.2  RSN  4 0.3 1.3LRSN                1
 GAP=143        0.51       3.7     5.4  6.5 -0.1586E+01 -0.4483E+01  0.2023E+01E
 Epicentro: LOS SANTOS - SANTANDER                                             3
 ACTION:UPD 12-07-13 16:07 OP:ep   STATUS:               ID:20111103031412 L   I
 2011-11-03-0312-17S.COL___175                                                 6
 STAT SP IPHASW D HRMM SECON CODA AMPLIT PERI AZIMU VELO AIN AR TRES W  DIS CAZ7
 BAR2 SZ EP   2    314 31.68                             171   -0.69 5 23.7 202 
 BAR2 SZ I         314 32.36         3.8 0.18                          23.7 202 
 PAM  SZ EP        314 35.00                             152    0.2210 75.2  36 
 PAM  SE ES   1    314 52.13                             152   -0.17 7 75.2  36 
 BRR  HZ EP   1    314 33.98                             151   -0.14 7 76.0 297 
 BRR  HZ I         314 34.53         6.9 0.11                          76.0 297 
 BRR  HN ES   1    314 51.23                             151    0.11 7 76.0 297 
 RUS  HZ EP   1    314 36.38                             145    0.06 7 99.3 179 
 RUS  HE ES   1    314 55.09                             145    0.05 7 99.3 179 
 RUS  HZ I         314 56.03         1.6 0.19                          99.3 179 
                                                                                
