 2011  9 3 0648  6.3 L   6.768 -73.089149.5  RSN  7 0.3 2.1LRSN                1
 GAP=188        0.52       3.9     6.3  4.7  0.9953E+01 -0.1929E+01 -0.1929E+01E
 Epicentro: LOS SANTOS - SANTANDER                                             3
 ACTION:UPD 12-07-13 15:55 OP:ep   STATUS:               ID:20110903064806 L   I
 2011-09-03-0642-24S.COL___169                                                 6
 STAT SP IPHASW D HRMM SECON CODA AMPLIT PERI AZIMU VELO AIN AR TRES W  DIS CAZ7
 BAR2 SZ EP   1    648 26.33                             171    0.02 7 22.0 208 
 BAR2 SZ ES   1    648 41.51                             171   -0.44 7 22.0 208 
 BAR2 SZ I         648 43.12        23.7 0.35                          22.0 208 
 GIR2 SZ EP   1    648 26.41                             166   -0.10 7 36.2 341 
 GIR2 SZ ES   2    648 42.86                             166    0.55 5 36.2 341 
 BRR  HZ IP     C  648 28.24                             151    0.0210 78.3 299 
 BRR  HZ I         648 28.54        52.4 0.29                          78.3 299 
 BRR  HE ES   1    648 45.73                             151    0.38 7 78.3 299 
 RUS  HZ EP   1    648 30.25                             145    0.13 7 96.8 180 
 RUS  HN ES   2    648 48.69                             145   -0.04 5 96.8 180 
 RUS  HZ I         648 50.23        11.1 0.43                          96.8 180 
 OCA  SZ EP   1    648 34.99                             130   -0.28 7  165 351 
 OCA  SZ ES   2    648 57.90                             130    0.01 5  165 351 
 OCA  SZ I         649  2.83        18.3 0.32                           165 351 
 ZAR  HZ EP   2    648 39.87                             122    0.19 4  211 292 
 ZAR  HN ES   2    649  5.14                             122   -0.60 4  211 292 
 ZAR  HZ I         649 11.51        14.4 0.46                           211 292 
 CHI  HZ EP   2    648 44.40                             118    0.41 4  247 197 
 CHI  HZ I         648 47.02         2.9 0.34                           247 197 
                                                                                
