 2011 11 3 0502 55.9 L   6.804 -73.089148.4  RSN  4 0.1 1.2LRSN                1
 GAP=144        0.33       3.5     4.2  5.1  0.2732E+01 -0.1927E+01  0.2605E+01E
 Epicentro: LOS SANTOS - SANTANDER                                             3
 ACTION:UPD 12-07-13 16:07 OP:ep   STATUS:               ID:20111103050255 L   I
 2011-11-03-0501-47S.COL___176                                                 6
 STAT SP IPHASW D HRMM SECON CODA AMPLIT PERI AZIMU VELO AIN AR TRES W  DIS CAZ7
 BAR2 SZ EP   1    5 3 15.91                             170    0.03 7 25.6 204 
 BAR2 SZ I         5 3 16.33         2.5 0.06                          25.6 204 
 PAM  SZ EP   2    5 3 17.94                             153   -0.20 5 73.2  36 
 PAM  SN ES   2    5 3 35.58                             153    0.08 5 73.2  36 
 BRR  HZ EP        5 3 17.73                             151    0.1110 76.6 296 
 BRR  HZ I         5 3 18.04         5.7 0.20                          76.6 296 
 BRR  HN ES   1    5 3 34.46                             151   -0.12 7 76.6 296 
 RUS  HZ EP   2    5 3 19.73                             144   -0.18 5  101 180 
 RUS  HE ES   2    5 3 38.70                             144    0.06 5  101 180 
 RUS  HZ I         5 3 40.27         1.7 0.20                           101 180 
                                                                                
