 2010 12 3 0531 48.4 L   6.749 -73.087135.0  RSN 10 0.5 2.3LRSN                1
 GAP=183        1.30       6.7    13.8 11.1 -0.5238E+02  0.5141E+02  0.2056E+01E
 Epicentro: LOS SANTOS - SANTANDER                                             3
 ACTION:UP  11-01-14 15:22 OP:pat  STATUS:               ID:20101203053148 L   I
 2010-12-03-0530-09S.COL___133                                                 6
 STAT SP IPHASW D HRMM SECON CODA AMPLIT PERI AZIMU VELO SNR AR TRES W  DIS CAZ7
 BAR2 SZ EP        532  6.73                             171     0.110   20 212 
 BAR2 SZ ES   1    532 20.76                             171    -0.2 7   20 212 
 BAR2 SZ I         532 23.46        32.2 0.22                            20 212 
 BRR  HZ IP        532  8.58                             148    -0.310   80 300 
 BRR  HZ I         532  8.94        30.0 0.28                            80 300 
 GUE  SZ EP        532 13.07                             136     0.610  121   9 
 GRA  SZ EP        532 13.51                             133     0.510  129  14 
 OCA  SZ EP        532 15.33                             126    -1.2 9  167 351 
 OCA  SZ ES   1    532 38.64                             126     0.2 7  167 351 
 OCA  SZ I         532 43.51        19.1 0.21                           167 351 
 CHI  HZ EP        532 24.78                             115    -0.3 8  245 197 
 HEL  HZ EP        532 29.06                             112     0.4 7  277 257 
 HEL  HZ I         533  6.27         9.0 0.39                           277 257 
 GUY  SZ EP        532 32.13                             110     0.3 7  304 236 
 GUY  SZ I         533 12.09        12.2 0.25                           304 236 
 RREF HZ EP        532 34.38                             109     0.1 7  323 231 
 RREF HE ES   2    533 10.69                             109     0.7 3  323 231 
 RREF HZ I         533 16.88        10.5 0.31                           323 231 
 PRA  HZ EP        532 41.17                             105    -0.2 6  390 211 
 PRA  HN ES   1    533 22.55                             105    -0.1 4  390 211 
 PRA  HZ I         533 28.81        18.6 0.31                           390 211 
                                                                                
