 2017 10 3 0629 13.6 L   6.837 -73.161145.8  RSN 25 0.7 2.5LRSN                1
 GAP= 64        1.03       2.6     3.1  4.8 -0.6979E+00  0.5538E+01 -0.4808E+00E
 Epicentro: LOS SANTOS - SANTANDER                                             3
 ACTION:UPD 17-11-07 19:27 OP:rebc STATUS:               ID:20171003062913 L   I
 OLDACT:UP  17-10-03 16:27 OP:dhb  STATUS:               ID:20171003062739     3
 OLDACT:UP  17-10-03 16:25 OP:dhb  STATUS:               ID:20171003062739     3
 OLDACT:UP  17-10-03 16:24 OP:dhb  STATUS:               ID:20171003062739     3
 OLDACT:UP  17-10-03 16:23 OP:dhb  STATUS:               ID:20171003062739     3
 OLDACT:REG 17-10-03 12:28 OP:dhb  STATUS:               ID:20171003062739     3
 2017-10-03-0628-00M.COL___435                                                 6
 STAT SP IPHASW D HRMM SECON CODA AMPLIT PERI AZIMU VELO AIN AR TRES W  DIS CAZ7
 BAR2 EZ IP     D  629 33.43                             169    0.1010 27.1 185 
 BAR2 EZ ES        629 48.58                             169   -0.1310 27.1 185 
 BAR2 EZ I         629 51.17       117.7 0.28            169           27.1 185 
 PAM  EZ IP     D  629 36.32                             151    0.6010 75.4  42 
 PAM  EN ES        629 53.16                             151    0.2010 75.4  42 
 PAM  EZ I         629 56.59        23.2 0.38            154           75.4  42 
 RUS  HZ EP        629 37.29                             143   -0.3910  105 175 
 RUS  HN ES        629 55.91                             143   -0.5310  105 175 
 RUS  HZ I         629 57.40        80.8 0.28            144            105 175 
 TAM  HZ IP     C  629 41.74                             130    0.19 9  158 106 
 TAM  HN ES        630  3.20                             130   -0.14 9  158 106 
 TAM  HZ I         630  4.82        15.8 0.26            133            158 106 
 SPBC HZ EP        629 42.29                             129   -0.03 9  165 218 
 SPBC HN ES        630  4.35                             129   -0.36 9  165 218 
 SPBC HZ I         630  6.74        49.2 0.11            129            165 218 
 YPLC HZ IP     D  629 43.74                             126   -0.10 9  181 151 
 YPLC HN ES        630  7.54                             126    0.12 9  181 151 
 YPLC HZ I         630 10.53        34.4 0.22            128            181 151 
 ZAR  HZ EP        629 45.86                             123    0.11 9  201 291 
 ZAR  HN ES        630 10.91                             123    0.10 9  201 291 
 ZAR  HZ I         630 17.19        33.5 0.32            122            201 291 
 NOR  HZ EP        629 49.47                             118    0.01 8  236 233 
 NOR  HE ES        630 17.18                             118   -0.23 8  236 233 
 NOR  HZ I         630 22.98        13.7 0.28            118            236 233 
 CHI  HZ EP        629 51.56                             117   -0.14 8  252 195 
 CHI  HE ES        630 20.82                             117   -0.58 8  252 195 
 CHI  HZ I         630 26.99        16.0 0.32            117            252 195 
 ROSC BZ EP        629 53.05                             116    1.03 8  255 210 
 ROSC BN ES   3    630 24.17                             116    2.19 2  255 210 
 ROSC BZ I         630 27.99        46.5 0.42            117            255 210 
 URE  HZ EP        629 53.65                             114   -0.69 7  281 291 
 URE  HE ES   3    630 24.56                             114   -1.55 2  281 291 
 URE  HZ I         630 34.74        43.9 0.05            114            281 291 
 GUY2CHZ EP        629 58.27                             112    0.93 7  302 234 
 GUY2CHE ES   4    630 35.48                             112    4.04 0  302 234 
 GUY2CHZ I         630 39.73        14.7 0.36                           302 234 
 VIL  EZ EP        629 56.86                             112   -0.59 7  307 191 
 VIL  EE ES        630 31.98                             112    0.34 7  307 191 
 VIL  EZ I         630 37.01        23.8 0.28            112            307 191 
 PTGC HZ IP   9 D  629 56.44                             111   -1.53 0  313 159 
 PTGC HE ES        630 30.25                             111   -0.79 7  313 159 
 PTGC HZ I         630 38.55        14.8 0.24            112            313 159 
 LL6C HZ EP        629 57.88                             110   -0.97 7  321 358 
 LL6C HE ES   2    630 36.27                             110    2.14 3  321 358 
 LL6C HZ I         630 47.46         7.7 0.62            111            321 358 
 ELA  HZ EP   4    629 58.28                             110   -2.35 0  330 229 
 ELA  HE ES   4    630 40.50                             110    3.21 0  330 229 
 ELA  HZ I         630 46.00        13.5 0.56            110            330 229 
 ARGC HZ EP        630  3.25                             108    0.49 6  355 340 
 ARGC HN ES   2    630 42.58                             108    1.48 3  355 340 
 ARGC HZ I         630 46.08         5.0 0.36            109            355 340 
 ANIL HZ EP   9    630  5.26                             108    1.64 0  359 224 
 ANIL HE ES        630 44.96                             108    0.70 6  359 224 
 ANIL HZ I         630 47.60        34.8 0.26            109            359 224 
 PRA  HZ EP        630  7.04                             106   -0.41 6  395 209 
 PRA  HE ES        630 49.66                             106    0.21 6  395 209 
 PRA  HZ I         630 55.61        22.7 0.36            107            395 209 
 ORTC HZ IP     C  630  7.98                             106    0.18 6  398 216 
 ORTC HE ES        630 50.88                             106    0.81 6  398 216 
 ORTC HZ I         630 57.23         9.1 0.27            107            398 216 
 SJC  HZ EP   9    630  7.36                             106   -1.31 0  405 327 
 SJC  HE ES        630 50.82                             106    0.52 6  405 327 
 SJC  HZ I         630 57.38         5.3 0.13            106            405 327 
 PAL  HZ EP        630  9.22                             106    0.37 6  406 238 
 PAL  HN ES   3    630 54.11                             106    2.17 1  406 238 
 PAL  HZ I         630 56.79         3.9 0.31            106            406 238 
 CRJC HZ EP   2    630 13.68                             103   -1.97 2  464   4 
 CRJC HE ES   3    631  0.70                             103   -3.33 1  464   4 
 CRJC HZ I         631  3.27         8.2 0.19            104            464   4 
 YOT  HZ EP        630 16.39                             103   -0.44 5  473 228 
 SMAR HZ EP        630 18.66                             102   -0.31 4  493 346 
 SMAR HE ES   3    631  6.92                             102   -3.03 1  493 346 
                                                                                
