 2012  9 3 0821 25.1 L   6.161 -73.950 87.3  RSN  4 0.3 1.4LRSN                1
 GAP=246        0.56       7.3     3.5  8.9  0.9002E+01 -0.4324E+01 -0.1713E+01E
 Epicentro: CIMITARRA - SANTANDER                                              3
 ACTION:UPD 12-10-22 14:16 OP:ep   STATUS:               ID:20120903082125 L   I
 2012-09-03-0820-00M.COL___218                                                 6
 STAT SP IPHASW D HRMM SECON CODA AMPLIT PERI AZIMU VELO AIN AR TRES W  DIS CAZ7
 PTB  HN ES   1    821 51.98                             138   -0.09 7 69.9 307 
 BAR2 SZ EP   1    821 43.15                             128    0.11 7 97.4  61 
 BAR2 SZ I         821 43.32         5.5 0.13                          97.4  61 
 BAR2 SZ ES   1    821 57.27                             128    0.24 7 97.4  61 
 BRR  HZ EP   1    821 43.37                             125   -0.39 7  108  14 
 BRR  HZ I         821 43.54         7.7 0.15                           108  14 
 BRR  HN ES   1    821 58.12                             125   -0.20 7  108  14 
 ZAR  HN ES   1    822 12.48                             111    0.41 7  178 326 
                                                                                
