 2015 12 3 0640  7.3 L   6.817 -73.108148.0  RSN 14 0.5 2.0LRSN                1
 GAP=187        1.08       3.0     4.7  5.6 -0.1199E+01  0.5875E+01 -0.4759E+00E
 Epicentro: LOS SANTOS - SANTANDER                                             3
 ACTION:UPD 16-02-04 15:02 OP:cam  STATUS:               ID:20151203064007 L   I
 OLDACT:UP  15-12-03 19:05 OP:mh   STATUS:               ID:20151203063750     3
 OLDACT:UP  15-12-03 19:01 OP:mh   STATUS:               ID:20151203063750     3
 OLDACT:REG 15-12-03 12:49 OP:mh   STATUS:               ID:20151203063750     3
 2015-12-03-0637-50M.COL___311                                                 6
 STAT SP IPHASW D HRMM SECON CODA AMPLIT PERI AZIMU VELO AIN AR TRES W  DIS CAZ7
 BAR2 EZ EP        640 27.53                             170    0.2410 26.2 198 
 BAR2 EZ ES        640 42.52                             170   -0.3410 26.2 198 
 BAR2 EZ I         640 43.82        14.5 0.20            166           26.2 198 
 BRR  HZ EP        640 29.33                             152    0.4510 74.1 296 
 BRR  HE ES        640 46.27                             152    0.5810 74.1 296 
 BRR  HZ I         640 49.36        15.7 0.28            146           74.1 296 
 RUS  HZ EP        640 31.35                             144   -0.0710  102 178 
 RUS  HN ES        640 50.05                             144   -0.1710  102 178 
 RUS  HZ I         640 51.10         5.0 0.24            146            102 178 
 PTB  HZ EP   1    640 34.09                             132   -0.80 7  152 258 
 PTB  HN ES        640 57.29                             132    0.91 9  152 258 
 PTB  HZ I         640 59.93         8.4 0.22            129            152 258 
 OCA  HZ EP        640 35.59                             130   -0.10 9  159 352 
 OCA  HN ES        640 58.07                             130    0.26 9  159 352 
 OCA  HZ I         641  5.41        19.3 0.28            130            159 352 
 SPBC HZ EP        640 36.36                             129   -0.03 9  167 220 
 SPBC HN ES        640 58.67                             129   -0.39 9  167 220 
 SPBC HZ I         641  5.19        18.6 0.32            128            167 220 
 ZAR  HZ EP        640 39.95                             122   -0.30 8  207 291 
 ZAR  HN ES        641  5.10                             122   -0.83 8  207 291 
 ZAR  HZ I         641 11.41         7.7 0.32            120            207 291 
 NOR  HZ EP        640 43.74                             118    0.06 8  239 235 
 NOR  HE ES        641 11.23                             118   -0.79 8  239 235 
 NOR  HZ I         641 17.79         7.9 0.18            118            239 235 
 SML  HZ EP        640 43.72                             118   -0.37 8  244 334 
 SML  HE ES        641 12.27                             118   -0.49 8  244 334 
 SML  HZ I         641 21.50        13.0 0.28            117            244 334 
 HEL  HZ EP   1    640 48.80                             115    0.64 6  277 256 
 HEL  HN ES        641 20.57                             115    0.56 7  277 256 
 HEL  HZ I         641 27.43         4.8 0.30            114            277 256 
 URE  HZ EP   4    640 46.73                             114   -2.14 0  287 291 
 URE  HN ES   4    641 19.11                             114   -2.15 0  287 291 
 URE  HZ I         641 28.46         4.7 0.32            113            287 291 
 GUY2CHZ EP   1    640 52.43                             112    0.88 5  306 235 
 GUY2CHN ES   4    641 29.22                             112    3.17 0  306 235 
 GUY2CHZ I         641 37.59         4.5 0.46                           306 235 
 CBOC HZ EP        640 55.40                             110    0.54 7  338 252 
 CBOC HN ES   1    641 31.44                             110   -0.50 5  338 252 
 CBOC HZ I         641 48.76         1.4 0.52            110            338 252 
 PRA  HZ EP        641  1.45                             107    0.08 6  396 210 
 PRA  HN ES        641 43.63                             107    0.12 6  396 210 
 PRA  HZ I         641 49.07         4.0 0.26            107            396 210 
                                                                                
