 2013 10 3 0103 37.1 L   6.781 -73.058142.8  RSN  5 0.3 1.4LRSN                1
 GAP=149        0.70       3.6     4.4  5.4 -0.3582E+01  0.3493E+01  0.2441E+01E
 Epicentro: LOS SANTOS - SANTANDER                                             3
 ACTION:UPD 13-11-25 09:18 OP:ep   STATUS:               ID:20131003010337 L   I
 OLDACT:DUP 13-10-03 06:29 OP:nd   STATUS:               ID:20131003005960d    3
 2013-10-03-0059-59M.COL___273                                                 6
 STAT SP IPHASW D HRMM SECON CODA AMPLIT PERI AZIMU VELO AIN AR TRES W  DIS CAZ7
 BAR2 SZ EP        1 3 56.24                             170   -0.1310 25.0 214 
 BAR2 SZ ES        1 4 11.36                             170   -0.0710 25.0 214 
 BAR2 SZ I         1 4 20.43         6.0 0.64            170           25.0 214 
 PAM  SZ EP        1 3 58.99                             152    0.2610 73.4  33 
 PAM  SN ES        1 4 15.89                             152    0.2710 73.4  33 
 PAM  SZ I         1 4 18.14         6.1 0.36            157           73.4  33 
 BRR  HZ EP        1 3 58.11                             149   -0.3610 80.8 297 
 BRR  HN ES        1 4 15.06                             149   -0.1110 80.8 297 
 BRR  HZ I         1 4 20.39         4.8 0.18            151           80.8 297 
 RUS  HZ EP        1 4  0.16                             144   -0.1910 98.2 182 
 RUS  HN ES        1 4 18.52                             144    0.0010 98.2 182 
 RUS  HZ I         1 4 19.83         2.4 0.58            150           98.2 182 
 GUY2CHZ EP   4    1 4 21.11                             111   -0.20 0  308 236 
 GUY2CHN ES        1 4 56.49                             111    0.67 7  308 236 
 GUY2CHZ I         1 5  3.00         1.9 0.46                           308 236 
                                                                                
