 2011 12 3 0653 31.9 L   6.790 -73.104141.1  RSN  7 0.2 1.6LRSN                1
 GAP=142        0.43       2.9     4.0  4.8 -0.2269E+01  0.6808E-01  0.5501E+01E
 Epicentro: LOS SANTOS - SANTANDER                                             3
 ACTION:UPD 12-07-13 16:13 OP:ep   STATUS:               ID:20111203065331 L   I
 2011-12-03-0650-00M.COL___182                                                 6
 STAT SP IPHASW D HRMM SECON CODA AMPLIT PERI AZIMU VELO AIN AR TRES W  DIS CAZ7
 BAR2 SZ EP        653 50.64                             170   -0.3410 23.5 202 
 BAR2 SZ I         654  7.57         6.7 0.30                          23.5 202 
 GIR2 SZ EP   3    653 50.91                             166   -0.17 2 33.4 343 
 PAM  SZ EP        653 53.57                             151    0.0610 75.4  36 
 PAM  SN ES   1    654 10.45                             151    0.10 7 75.4  36 
 BRR  HZ EP        653 52.75                             150   -0.0710 75.8 298 
 BRR  HN ES   1    654  9.25                             150    0.11 7 75.8 298 
 BRR  HZ I         654 14.70         7.7 0.14                          75.8 298 
 RUS  HZ EP        653 55.21                             143    0.1110 99.3 179 
 RUS  HZ I         654 14.41         5.8 0.28                          99.3 179 
 OCA  SZ EP        654  0.04                             128    0.02 9  162 352 
 OCA  SZ I         654 25.29         6.6 0.40                           162 352 
 CTAU SZ EP        654  4.87                             122    0.16 9  204 211 
                                                                                
