 2010  2 3 0342 43.2 L   6.785 -73.118148.1  RSN 10 0.3 2.7LRSN                1
 GAP=162        0.59       2.7     5.4  5.2 -0.5720E+01  0.1257E+02 -0.5407E+00E
 Epicentro: LOS SANTOS - SANTANDER                                             3
 ACTION:UP  10-08-24 09:47 OP:vdl  STATUS:               ID:20100203034243 L   I
 2010-02-03-0339-50S.COL___089                                                 6
 STAT SP IPHASW D HRMM SECON CODA AMPLIT PERI AZIMU VELO SNR AR TRES W  DIS CAZ7
 BAR2 SZ IP        343  3.09                             171     0.010   23 199 
 GIR2 SZ EP        343  3.24                             167     0.010   34 346 
 GIR2 SZ ES   1    343 18.90                             167     0.1 7   34 346 
 RUS  HZ EP        343  6.95                             145    -0.110   99 178 
 RUS  HE ES   1    343 25.51                             145    -0.1 7   99 178 
 RUS  HZ I         343 27.41        43.0 0.22                            99 178 
 GRA  SZ EP        343  8.86                             137     0.210  126  16 
 GRA  SZ ES   1    343 28.57                             137     0.0 7  126  16 
 OCA  SZ EP        343 11.56                             130    -0.3 9  162 352 
 CHI  HZ EP        343 20.91                             118     0.0 8  248 196 
 CHI  HN ES   2    343 50.48                             118     0.1 4  248 196 
 CHI  HZ I         343 56.51        29.8 0.50                           248 196 
 HEL  HZ EP   1    343 24.43                             115     0.6 6  275 256 
 HEL  HN ES   2    343 55.59                             115     0.1 4  275 256 
 HEL  HZ I         344  1.62        27.5 0.40                           275 256 
 RREF HZ EP   1    343 30.23                             111     0.7 5  323 230 
 RREF HZ I         344 14.72        43.5 0.32                           323 230 
 DBB  SZ EP   1    343 30.54                             110    -0.6 5  343 274 
 ANIL HE ES   1    344 11.66                             109    -0.5 5  358 225 
                                                                                
