 2017 12 3 0555 47.4 L   6.814 -73.139136.4  RSN  5 0.4 1.2LRSN                1
 GAP=245        0.92       5.9     5.6  7.4  0.1354E+02  0.8427E+01 -0.9118E+01E
 Epicentro: LOS SANTOS - SANTANDER                                             3
 ACTION:UPD 18-01-04 13:16 OP:rebc STATUS:               ID:20171203055547 L   I
 OLDACT:DUP 17-12-03 16:11 OP:dhb  STATUS:               ID:20171203054740d    3
 2017-12-03-0548-00M.COL___486                                                 6
 STAT SP IPHASW D HRMM SECON CODA AMPLIT PERI AZIMU VELO AIN AR TRES W  DIS CAZ7
 BAR2 EZ EP        556  6.39                             169    0.4810 25.0 191 
 BAR2 EZ ES        556 20.19                             169   -0.1810 25.0 191 
 BAR2 EZ I         556 21.95         4.2 0.54            164           25.0 191 
 RUS  HZ EP        556 10.17                             141   -0.1510  102 177 
 RUS  HN ES        556 28.18                             141   -0.0410  102 177 
 RUS  HZ I         556 30.22         2.5 0.36            142            102 177 
 PTB  HZ EP        556 13.42                             129   -0.27 9  149 258 
 PTB  HN ES        556 34.33                             129    0.11 9  149 258 
 PTB  HZ I         556 40.45         1.5 0.14            128            149 258 
 SPBC HZ EP        556 15.95                             126    0.62 9  165 219 
 SPBC HN ES        556 36.89                             126   -0.25 9  165 219 
 SPBC HZ I         556 43.09         2.7 0.24            126            165 219 
 ZAR  HZ EP        556 18.54                             120   -0.70 9  204 292 
 ZAR  HN ES        556 44.42                             120    0.32 9  204 292 
 ZAR  HZ I         556 51.61         1.7 0.34            120            204 292 
                                                                                
