 2015  4 3 0041 16.0 L   6.812 -73.141142.5  RSN 17 0.4 2.7LRSN                1
 GAP= 71        0.89       2.5     2.5  4.3 -0.4077E+00  0.2412E+01  0.9849E+00E
 Epicentro: LOS SANTOS - SANTANDER                                             3
 ACTION:UPD 15-06-03 16:52 OP:cam  STATUS:               ID:20150403004116 L   I
 OLDACT:UP  15-04-03 13:38 OP:mh   STATUS:               ID:20150403003736     3
 OLDACT:UP  15-04-03 13:38 OP:mh   STATUS:               ID:20150403003736     3
 OLDACT:UP  15-04-03 13:38 OP:mh   STATUS:               ID:20150403003736     3
 OLDACT:REG 15-04-03 12:48 OP:mh   STATUS:               ID:20150403003736     3
 2015-04-03-0037-36M.COL___286                                                 6
 STAT SP IPHASW D HRMM SECON CODA AMPLIT PERI AZIMU VELO AIN AR TRES W  DIS CAZ7
 BAR2 EZ EP        041 35.33                             170    0.0810 24.7 191 
 BAR2 EZ ES        041 50.39                             170    0.1110 24.7 191 
 BAR2 EZ I         041 52.93                             169           24.7 191 
 BRR  HZ EP        041 37.24                             152    0.4710 71.0 297 
 BRR  HN ES        041 53.10                             152    0.1210 71.0 297 
 BRR  HZ I         041 56.69        62.1 0.22            150           71.0 297 
 PAM  SZ EP     D  041 38.16                             151    0.3910 76.0  40 
 PAM  SN ES   1    041 54.78                             151    0.02 7 76.0  40 
 PAM  SZ I         041 57.44        69.1 0.62            154           76.0  40 
 RUS  HZ EP        041 39.34                             143   -0.1710  102 176 
 RUS  HN ES        041 57.85                             143   -0.0110  102 176 
 RUS  HZ I         041 58.93        71.3 0.30            144            102 176 
 PTB  HZ EP   1    041 42.02                             131   -0.74 7  148 258 
 PTB  HN ES        042  3.05                             131   -0.58 9  148 258 
 PTB  HZ I         042  4.74        46.8 0.22            131            148 258 
 TAM  HZ IP     D  041 43.66                             130    0.26 9  155 106 
 TAM  HN ES        042  4.21                             130   -0.56 9  155 106 
 TAM  HZ I         042  4.34        24.2 0.44            134            155 106 
 OCA  HZ EP   1    041 43.67                             129   -0.25 7  159 353 
 OCA  HN ES        042  6.07                             129    0.36 9  159 353 
 OCA  HZ I         042  8.19       134.7 0.20            131            159 353 
 SPBC HZ EP   1    041 44.17                             128   -0.20 7  165 219 
 SPBC HN ES   1    042  6.25                             128   -0.25 7  165 219 
 SPBC HZ I         042 11.90        90.7 0.34            128            165 219 
 ZAR  HZ EP        041 48.35                             122    0.14 9  204 292 
 ZAR  HN ES        042 13.48                             122    0.13 9  204 292 
 ZAR  HZ I         042 22.58        49.1 0.06            122            204 292 
 NOR  HZ EP   1    041 51.28                             118   -0.38 6  236 234 
 NOR  HN ES        042 19.24                             118   -0.24 8  236 234 
 SML  HZ EP        041 51.83                             117   -0.49 8  243 335 
 SML  HN ES   1    042 19.74                             117   -0.92 6  243 335 
 SML  HZ I         042 25.75        37.5 0.26            118            243 335 
 ROSC BZ EP        041 55.05                             116    0.97 8  254 211 
 ROSC BN ES   4    042 25.27                             116    1.47 0  254 211 
 ROSC BZ I         042 31.06        53.4 0.68            117            254 211 
 HEL  HZ EP   1    041 55.65                             114   -0.47 6  273 256 
 HEL  HN ES        042 27.72                             114    0.29 8  273 256 
 HEL  HZ I         042 34.68        22.7 0.52            115            273 256 
 URE  HZ EP   4    041 56.08                             113   -0.81 0  284 292 
 URE  HN ES   4    042 25.92                             113   -2.88 0  284 292 
 GUY2CHZ EP   1    041 59.73                             112    0.15 5  302 235 
 GUY2CHN ES   1    042 34.11                             112    0.53 5  302 235 
 GUY2CHZ I         042 41.58        42.4 0.30                           302 235 
 VIL  SZ EP   4    041 59.02                             111   -0.40 0  305 192 
 VIL  SN ES   4    042 33.00                             111   -0.29 0  305 192 
 PTGC HZ EP   4    041 58.30                             111   -1.52 0  310 159 
 PTGC HN ES   4    042 31.71                             111   -2.30 0  310 159 
 TOL  SZ EP        042  4.73                             109    0.47 7  345 225 
 TOL  SN ES   4    042 41.00                             109   -0.92 0  345 225 
 ANIL HZ EP   4    042  5.55                             108   -0.27 0  359 224 
 ANIL HN ES   4 C  042 43.28                             108   -1.41 0  359 224 
 ANIL HZ I         042 50.53         5.7 0.28            109            359 224 
 SDV  BZ EP   4    042  4.63                             108   -1.13 0  359  50 
 SDV  BN ES   4    042 41.68                             108   -2.90 0  359  50 
 ORTC HZ EP        042  9.38                             106   -0.58 6  397 216 
 ORTC HN ES        042 52.30                             106    0.25 6  397 216 
 ORTC HZ I         042 59.40        19.1 0.28            107            397 216 
                                                                                
