 2010 11 3 0854 27.3 L   6.828 -73.034137.0  RSN  5 0.2 1.4LRSN                1
 GAP=194        0.48       3.2     9.8  8.3  0.1603E+02 -0.3354E+02 -0.1303E+02E
 Epicentro: CEPITA - SANTANDER                                                 3
 ACTION:UP  10-12-17 16:50 OP:REBC STATUS:               ID:20101103085427 L   I
 2010-11-03-0852-00S.COL___124                                                 6
 STAT SP IPHASW D HRMM SECON CODA AMPLIT PERI AZIMU VELO SNR AR TRES W  DIS CAZ7
 BTL  SZ EP        854 46.19                             168     0.210   28 291 
 BAR2 SZ EP        854 46.06                             167     0.010   31 212 
 BRR  HZ EP        854 47.99                             148    -0.110   81 292 
 BRR  HZ I         854 48.45        10.7 0.11                            81 292 
 BRR  HN ES   2    855  4.52                             148     0.1 5   81 292 
 RUS  HZ EP   1    854 50.21                             141    -0.2 7  104 183 
 RUS  HN ES   1    855  8.47                             141     0.0 7  104 183 
 RUS  HZ I         855 10.27         2.7 0.27                           104 183 
 OCA  SZ EP        854 55.03                             128     0.2 9  159 349 
 OCA  SZ ES   1    855 16.10                             128    -0.2 7  159 349 
 OCA  SZ I         855 17.39         3.2 0.27                           159 349 
                                                                                
