 2016 11 3 0514 21.4 L   6.753 -73.126146.7  RSN  4 0.3 0.8LRSN                1
 GAP=236        0.72       6.1     6.3  6.9  0.2160E+02  0.6264E-01 -0.1139E+01E
 Epicentro: LOS SANTOS - SANTANDER                                             3
 ACTION:UPD 17-10-26 21:04 OP:lp   STATUS:               ID:20161103051421 L   I
 OLDACT:UP  16-11-03 15:20 OP:dani STATUS:               ID:20161103050752d    3
 OLDACT:UP  16-11-03 15:19 OP:dani STATUS:               ID:20161103050752d    3
 OLDACT:DUP 16-11-03 15:16 OP:dani STATUS:               ID:20161103050752d    3
 OLDACT:UP  16-11-03 15:05 OP:dani STATUS:               ID:20161103050750d    3
 OLDACT:DUP 16-11-03 14:53 OP:dani STATUS:               ID:20161103050750d    3
 OLDACT:REG 16-11-03 12:28 OP:dani STATUS:               ID:20161103050749     3
 2016-11-03-0508-00M.COL___337                                                 6
 STAT SP IPHASW D HRMM SECON CODA AMPLIT PERI AZIMU VELO AIN AR TRES W  DIS CAZ7
 BAR2 EZ ES   2    514 56.09                             173   -0.26 5 18.8 199 
 BRR  HZ EP        514 42.41                             151   -0.4610 75.7 301 
 BRR  HE ES        515  0.01                             151    0.3710 75.7 301 
 BRR  HZ I         515  1.91         1.8 0.31            152           75.7 301 
 RUS  HZ EP        514 44.98                             146    0.1610 95.2 177 
 RUS  HN ES        515  3.10                             146   -0.0310 95.2 177 
 RUS  HZ I         515  3.71         0.7 0.23            148           95.2 177 
 PTB  HZ EP        514 48.77                             132    0.26 9  149 261 
 PTB  HN ES        515  9.47                             132   -0.23 9  149 261 
 PTB  HZ I         515 10.65         0.7 0.28            134            149 261 
                                                                                
