 2016  1 3 0124 33.4 L   6.784 -73.172144.6  RSN  4 0.3 1.4LRSN                1
 GAP=134        0.86       4.7     4.4  7.6 -0.2370E+01  0.2782E+01  0.4919E+01E
 Epicentro: LOS SANTOS - SANTANDER                                             3
 ACTION:UPD 16-03-09 23:22 OP:cam  STATUS:               ID:20160103012433 L   I
 OLDACT:DUP 16-01-03 12:56 OP:drio STATUS:               ID:20160103011749d    3
 OLDACT:UP  16-01-03 12:54 OP:drio STATUS:               ID:20160103011748     3
 OLDACT:REG 16-01-03 12:17 OP:drio STATUS:               ID:20160103011748     3
 2016-01-03-0117-48M.COL___317                                                 6
 STAT SP IPHASW D HRMM SECON CODA AMPLIT PERI AZIMU VELO AIN AR TRES W  DIS CAZ7
 BRR  HZ EP        124 54.39                             153    0.0610 69.6 301 
 BRR  HE ES        125 11.08                             153    0.4310 69.6 301 
 BRR  HZ I         125 11.97         6.4 0.18            152           69.6 301 
 PAM  EZ EP        124 55.67                             150   -0.0110 80.6  40 
 PAM  EN ES        125 12.80                             150   -0.2710 80.6  40 
 PAM  EZ I         125 14.82         7.1 0.56            154           80.6  40 
 RUS  HZ EP        124 56.73                             144   -0.1910 99.0 174 
 RUS  HE ES        125 15.46                             144    0.1910 99.0 174 
 RUS  HZ I         125 16.77         2.1 0.38            146           99.0 174 
 PTB  HZ EP        125  0.37                             132    0.39 9  145 259 
 PTB  HN ES        125 20.08                             132   -0.63 9  145 259 
 PTB  HZ I         125 27.60         2.7 0.20            133            145 259 
                                                                                
