 2016  7 3 0744 22.3 L   6.794 -73.479121.4  RSN  5 0.2 1.1LRSN                1
 GAP=161        0.59       3.8     3.3  4.8  0.6917E+01  0.5576E+01  0.3527E+00E
 Epicentro: EL CARMEN - SANTANDER                                              3
 ACTION:UPD 17-03-29 16:46 OP:lp   STATUS:               ID:20160703074422 L   I
 OLDACT:DUP 16-07-03 17:24 OP:cara STATUS:               ID:20160703073742d    3
 OLDACT:REG 16-07-03 13:13 OP:edw  STATUS:               ID:20160703073740     3
 2016-07-03-0737-40M.COL___325                                                 6
 STAT SP IPHASW D HRMM SECON CODA AMPLIT PERI AZIMU VELO AIN AR TRES W  DIS CAZ7
 BAR2 EZ IP        744 39.71                             161    0.2110 39.6 124 
 BAR2 EZ ES        744 52.77                             161   -0.1710 39.6 124 
 BAR2 EZ I         744 55.65         2.0 0.28            162           39.6 124 
 BRR  HZ EP        744 39.28                             159   -0.0110 43.2 323 
 BRR  HN ES        744 52.70                             159    0.1210 43.2 323 
 BRR  HZ I         744 53.33         5.3 0.12            161           43.2 323 
 RUS  HE ES        745  1.58                             136   -0.0810  109 156 
 RUS  HZ I         745  5.03         1.1 0.42            136            109 156 
 PTB  HZ EP        744 44.35                             134    0.3610  112 255 
 PTB  HN ES        745  0.85                             134   -0.0910  112 255 
 PTB  HZ I         745  5.66         2.1 0.28            134            112 255 
 ZAR  HZ EP        744 49.25                             121   -0.44 9  171 297 
 ZAR  HN ES        745 11.12                             121    0.03 9  171 297 
 ZAR  HZ I         745 14.85         3.4 0.56            123            171 297 
                                                                                
