 2014  6 3 0515 33.9 L   6.797 -73.121149.1  RSN 19 0.4 2.2LRSN                1
 GAP= 72        0.95       2.3     2.6  5.1 -0.9584E+00  0.4623E+01  0.5322E+00E
 Epicentro: LOS SANTOS - SANTANDER                                             3
 OLDACT:REG 14-06-03 12:57 OP:fm   STATUS:               ID:20140603050808     3
 ACTION:UPD 14-07-01 22:50 OP:nd   STATUS:               ID:20140603051534dL   I
 OLDACT:UP  14-06-03 14:44 OP:fm   STATUS:               ID:20140603050808     3
 OLDACT:UP  14-06-03 14:44 OP:fm   STATUS:               ID:20140603050808     3
 2014-06-03-0508-08M.COL___250                                                 6
 STAT SP IPHASW D HRMM SECON CODA AMPLIT PERI AZIMU VELO AIN AR TRES W  DIS CAZ7
 BAR2 SZ EP     D  515 53.83                             171   -0.0610 23.6 197 
 BAR2 SZ ES   1    516  9.12                             171   -0.40 7 23.6 197 
 BAR2 SZ I         516 11.36        38.7 0.34            168           23.6 197 
 PAM  SZ IP     C  515 56.52                             152    0.1710 76.0  38 
 PAM  SN ES        516 13.81                             152   -0.0710 76.0  38 
 PAM  SZ I         516 15.74        29.9 0.54            155           76.0  38 
 RUS  HZ EP        515 58.01                             145    0.1110  100 178 
 RUS  HN ES        516 16.67                             145    0.0210  100 178 
 RUS  SZ I         516 17.48        21.3 0.22            144            100 178 
 PTB  HZ EP        516  0.44                             132   -0.90 9  150 259 
 PTB  HE ES        516 22.49                             132   -0.28 9  150 259 
 PTB  SZ I         516 24.69        20.9 0.12            133            150 259 
 TAM  HZ IP        516  1.87                             132    0.32 9  152 105 
 TAM  HE ES        516 23.60                             132    0.45 9  152 105 
 TAM  SZ I         516 31.79         9.4 0.34            133            152 105 
 OCA  HZ EP        516  2.21                             130   -0.29 9  161 352 
 OCA  HN ES        516 25.23                             130    0.40 9  161 352 
 OCA  SZ I         516 28.32        34.7 0.16            133            161 352 
 SPBC HZ EP        516  2.23                             129   -0.52 9  165 220 
 SPBC HE ES        516 25.69                             129    0.41 9  165 220 
 SPBC SZ I         516 31.14        16.1 0.20            129            165 220 
 ZAR  HZ EP        516  6.68                             123   -0.12 8  207 292 
 ZAR  HN ES        516 32.63                             123    0.14 8  207 292 
 ZAR  SZ I         516 35.91        20.8 0.08            124            207 292 
 NOR  HZ EP        516 10.70                             119    0.70 8  237 235 
 NOR  HN ES        516 37.82                             119   -0.37 8  237 235 
 NOR  SZ I         516 46.00         9.5 0.22            119            237 235 
 SML  HZ EP        516 10.01                             118   -0.83 8  245 335 
 SML  HN ES        516 39.76                             118    0.08 8  245 335 
 SML  SZ I         516 41.96        33.9 0.10            120            245 335 
 CHI  HZ EP   1    516 11.13                             118   -0.65 6  249 196 
 CHI  HN ES        516 40.50                             118   -0.86 8  249 196 
 CHI  SZ I         516 53.73         6.7 1.22            118            249 196 
 ROSC BZ EP        516 12.38                             117    0.10 8  254 212 
 ROSC BN ES   1    516 42.33                             117    0.08 6  254 212 
 ROSC SZ I         516 47.28         9.2 1.30            118            254 212 
 HEL  HZ EP        516 14.74                             115    0.21 8  275 256 
 HEL  HN ES        516 46.85                             115    0.60 8  275 256 
 HEL  SZ I         516 53.49         7.3 0.36            116            275 256 
 URE  HN ES   4    516 45.07                             114   -2.72 0  287 292 
 GUY2CHZ EP   1    516 18.56                             113    0.71 5  303 235 
 GUY2CHN ES        516 52.47                             113    0.31 7  303 235 
 GUY2CSZ I         517  0.35         7.5 0.32                           303 235 
 RREF HZ EP   4    516 22.69                             111    2.33 0  324 230 
 RREF HN ES   4    517  1.03                             111    4.40 0  324 230 
 RREF SZ I         517  2.94         9.5 1.78            112            324 230 
 CBOC HZ EP   1    516 21.95                             110    0.75 5  336 252 
 CBOC HN ES        516 57.81                             110   -0.31 7  336 252 
 CBOC SZ I         517  8.39         3.8 0.82            111            336 252 
 DBB  SZ ES   1    516 59.87                             110    0.69 5  342 274 
 TOL  SN ES        517  0.83                             110    0.49 7  345 225 
 ARGC HE ES   4    517  1.59                             109   -1.15 0  361 340 
 PRA  HZ EP        516 27.80                             107    0.18 6  393 210 
 PRA  HN ES   1    517  9.63                             107    0.08 4  393 210 
 PRA  SZ I         517 19.03         9.8 2.70            108            393 210 
                                                                                
