 2017  4 3 0009 15.4 L   6.738 -73.177144.7  RSN  7 0.4 1.5LRSN                1
 GAP=119        0.72       5.3     3.8  6.6  0.4911E+01  0.2615E+01 -0.1764E+02E
 Epicentro: VILLANUEVA - SANTANDER                                             3
 ACTION:UPD 17-05-30 21:07 OP:jn   STATUS:               ID:20170403000915 L   I
 OLDACT:UP  17-04-03 13:10 OP:and  STATUS:               ID:20170403000002     3
 OLDACT:UP  17-04-03 13:09 OP:and  STATUS:               ID:20170403000002     3
 OLDACT:REG 17-04-03 12:21 OP:and  STATUS:               ID:20170403000002     3
 2017-04-03-0000-15M.COL___368                                                 6
 STAT SP IPHASW D HRMM SECON CODA AMPLIT PERI AZIMU VELO AIN AR TRES W  DIS CAZ7
 BAR2 EZ EP        0 9 34.60                             172   -0.1910 16.1 182 
 BAR2 EZ ES        0 9 49.74                             172   -0.1610 16.1 182 
 BAR2 EZ I         0 9 50.55        11.3 0.36            162           16.1 182 
 BRR  HZ EP        0 9 36.54                             152    0.0510 71.9 305 
 BRR  HZ I         0 9 49.42         7.2 0.26            155           71.9 305 
 BRR  HN ES   3    0 9 54.22                             152    1.30 2 71.9 305 
 PAM  EZ IP     D  0 9 37.73                             148   -0.2610 84.9  38 
 RUS  HZ EP   2    0 9 39.30                             145    0.70 5 94.0 174 
 RUS  HN ES        0 9 57.06                             145    0.3810 94.0 174 
 RUS  HZ I         010 10.88         3.6 0.38            135           94.0 174 
 PTB  HZ EP        0 9 41.77                             132   -0.11 9  143 261 
 PTB  HN ES        010  2.15                             132   -0.38 9  143 261 
 PTB  HZ I         010  5.34         4.5 0.32            129            143 261 
 ZAR  HZ EP        0 9 48.20                             122    0.45 9  204 294 
 ZAR  HE ES        010 13.03                             122    0.07 9  204 294 
 PTGC HZ EP   3    0 9 57.93                             111   -0.72 2  304 158 
                                                                                
