 2013  6 3 0748 48.0 L   6.813 -73.154142.0  RSN  7 0.5 2.0LRSN                1
 GAP=135        0.99       5.4     6.4  7.6 -0.5845E+01  0.6602E+01 -0.9336E+01E
 Epicentro: LOS SANTOS - SANTANDER                                             3
 ACTION:UPD 14-01-08 09:52 OP:ep   STATUS:               ID:20130603074848 L   I
 2013-06-03-0747-52M.COL___221                                                 6
 STAT SP IPHASW D HRMM SECON CODA AMPLIT PERI AZIMU VELO AIN AR TRES W  DIS CAZ7
 BAR2 SZ EP   1    749  7.14                             170   -0.05 7 24.6 187 
 BAR2 SZ ES        749 21.77                             170   -0.3910 24.6 187 
 BAR2 SZ I         749 23.12         8.0 0.16            170           24.6 187 
 BRR  HZ IP     D  749  9.17                             152    0.5310 69.7 298 
 BRR  HN ES   1    749 25.36                             152    0.61 7 69.7 298 
 BRR  HN I         749 29.89        18.2 0.14            136           69.7 298 
 PAM  SZ EP        749 10.21                             150    0.4410 76.9  41 
 PAM  SN ES   1    749 26.90                             150    0.14 7 76.9  41 
 PAM  SN I         749 28.13        24.0 0.48            137           76.9  41 
 RUS  HZ EP   1    749 11.79                             142    0.32 7  102 176 
 RUS  HN ES   2    749 28.72                             142   -1.08 5  102 176 
 RUS  HN I         749 31.21         6.8 0.42            135            102 176 
 PTB  HZ EP   1    749 14.31                             131   -0.28 7  147 258 
 PTB  HN ES   1    749 35.31                             131   -0.03 7  147 258 
 PTB  HN I         749 37.81        11.9 0.18            118            147 258 
 OCA  HZ EP   1    749 15.59                             129   -0.27 7  159 353 
 OCA  HN ES   1    749 36.81                             129   -0.79 7  159 353 
 OCA  HN I         749 40.52        34.2 0.32            115            159 353 
 SML  HZ EP   1    749 23.56                             117   -0.66 6  242 335 
 SML  HN I         750  4.23        13.2 0.10            106            242 335 
                                                                                
