 2012  4 3 0411 19.7 L   6.742 -73.187150.2  RSN  4 0.2 1.4LRSN                1
 GAP=228        0.44       6.8     7.9  5.4  0.4522E+02  0.5534E+01  0.1779E+01E
 Epicentro: VILLANUEVA - SANTANDER                                             3
 ACTION:UPD 12-07-05 11:50 OP:tino STATUS:               ID:20120403041119 L   I
 2012-04-03-0410-00M.COL___196                                                 6
 STAT SP IPHASW D HRMM SECON CODA AMPLIT PERI AZIMU VELO AIN AR TRES W  DIS CAZ7
 BAR2 SZ EP   2    411 39.41                             174    -0.4 5   17 178 
 BAR2 SZ ES   1    411 55.50                             174     0.1 7   17 178 
 BAR2 SZ I         412  8.75         3.7 0.42                            17 178 
 BRR  HZ EP   1    411 41.32                             153     0.0 7   71 305 
 BRR  HZ I         411 41.79         6.1 0.36                            71 305 
 BRR  HN ES   1    411 58.23                             153     0.0 7   71 305 
 RUS  HZ EP   1    411 43.76                             146     0.2 7   95 173 
 RUS  HN ES   1    412  1.93                             146    -0.1 7   95 173 
 RUS  HZ I         412  4.36         2.0 0.31                            95 173 
 ZAR  HN ES   1    412 17.67                             124     0.0 6  202 294 
 ZAR  HZ I         412 23.77         3.3 0.29                           202 294 
                                                                                
