 2012 10 3 0717 30.0 L   6.708 -73.175151.5  RSN  4 0.1 1.3LRSN                1
 GAP=227        0.37       4.9     6.0  4.4  0.2423E+02  0.2563E+00 -0.2494E+01E
 Epicentro: VILLANUEVA - SANTANDER                                             3
 ACTION:UPD 12-11-22 17:01 OP:ep   STATUS:               ID:20121003071730 L   I
 2012-10-03-0710-00M.COL___223                                                 6
 STAT SP IPHASW D HRMM SECON CODA AMPLIT PERI AZIMU VELO AIN AR TRES W  DIS CAZ7
 BAR2 SZ EP   1    717 49.91                             175   -0.21 7 12.8 183 
 BAR2 SZ ES   1    718  5.72                             175   -0.12 7 12.8 183 
 BAR2 SZ I         718  7.08         7.5 0.42                          12.8 183 
 BRR  HZ EP   1    717 52.04                             153    0.16 7 73.9 307 
 BRR  HN ES   1    718  9.12                             153    0.14 7 73.9 307 
 BRR  HZ I         718 10.97         4.6 0.24                          73.9 307 
 RUS  HZ EP   1    717 53.67                             148    0.06 7 90.8 174 
 RUS  HN ES        718 12.10                             148    0.0410 90.8 174 
 RUS  HZ I         718 13.88         0.8 0.51                          90.8 174 
 ZAR  HN ES   1    718 28.44                             123   -0.14 6  205 295 
 ZAR  HN I         718 33.48         4.4 0.15                           205 295 
                                                                                
