 2017  1 3 0640 40.2 L   6.793 -73.142141.7  RSN 23 0.4 2.4LRSN                1
 GAP= 72        0.88       2.4     2.3  3.9  0.3847E+00  0.2540E+01  0.1258E+01E
 Epicentro: LOS SANTOS - SANTANDER                                             3
 ACTION:UPD 17-05-22 15:54 OP:jn   STATUS:               ID:20170103064040 L   I
 OLDACT:REG 17-01-03 12:40 OP:lv   STATUS:               ID:20170103063745     3
 2017-01-03-0638-00M.COL___381                                                 6
 STAT SP IPHASW D HRMM SECON CODA AMPLIT PERI AZIMU VELO AIN AR TRES W  DIS CAZ7
 BAR2 EZ IP     C  640 59.14                             170   -0.1810 22.6 191 
 BAR2 EZ ES        641 14.16                             170   -0.0710 22.6 191 
 BAR2 EZ I         641 15.59        78.8 0.20            168           22.6 191 
 BRR  HZ IP     C  641  0.96                             152    0.0210 71.9 299 
 BRR  HN ES        641 17.95                             152    0.8210 71.9 299 
 BRR  HZ I         641 21.00        52.6 0.21            149           71.9 299 
 PAM  EZ IP     C  641  2.10                             150    0.1010 77.8  39 
 PAM  EN ES        641 18.87                             150   -0.1310 77.8  39 
 PAM  EZ I         641 21.85        31.3 0.30            154           77.8  39 
 RUS  HZ EP        641  3.22                             143   -0.2610 99.8 176 
 RUS  HN ES        641 21.11                             143   -0.5410 99.8 176 
 RUS  HZ I         641 23.97        30.3 0.20            143           99.8 176 
 PTB  HZ EP   4    641  5.71                             131   -1.14 0  148 259 
 PTB  HN ES        641 26.95                             131   -0.69 9  148 259 
 PTB  HZ I         641 30.36        42.4 0.11            130            148 259 
 TAM  HZ IP     D  641  7.57                             130    0.07 9  155 105 
 TAM  HN ES        641 29.33                             130    0.54 9  155 105 
 TAM  HZ I         641 29.77        19.9 0.30            133            155 105 
 ZAR  HZ EP        641 11.81                             121   -0.63 9  205 292 
 ZAR  HN ES        641 37.72                             121    0.12 9  205 292 
 ZAR  HZ I         641 45.83        34.9 0.26            121            205 292 
 CHI  HZ EP        641 17.42                             116   -0.17 8  248 195 
 CHI  HN ES        641 46.87                             116    0.10 8  248 195 
 CHI  HZ I         641 51.07        10.9 0.24            117            248 195 
 ROSC BZ EP   9    641 19.13                             116    1.09 0  252 211 
 ROSC BN ES        641 49.19                                    0.54 8  252 211 
 ROSC BZ I         641 55.82        22.6 0.30            116            252 211 
 URE  HZ EP   4    641 19.80                             113   -1.34 0  284 292 
 URE  HN ES        641 53.71                             113    0.63 7  284 292 
 URE  HZ I         642  3.72        18.1 0.15            113            284 292 
 GUY2CHZ EP   9    641 24.75                             112    1.15 0  301 235 
 GUY2CHN ES        641 58.70                                    0.09 7  301 235 
 GUY2CHZ I         642  7.49        15.8 0.30                           301 235 
 VIL  EZ EP        641 22.98                             111   -0.37 7  303 192 
 VIL  EN ES        641 57.27                             111    0.27 7  303 192 
 VIL  EZ I         642  1.09        16.5 0.63            112            303 192 
 PTGC HZ EP   4    641 22.50                             111   -1.27 0  308 159 
 PTGC HN ES   4    641 55.44                             111   -2.31 0  308 159 
 PTGC HZ I         641 57.27        15.3 0.28            112            308 159 
 ELA  HZ EP   4    641 29.19                             110    2.34 0  329 230 
 ELA  HN ES   4    642  4.86                             110    1.62 0  329 230 
 ELA  HZ I         642 15.28        11.8 0.27            110            329 230 
 CBOC HZ EP        641 27.17                             109    0.21 7  334 252 
 CBOC HN ES        642  3.46                             109    0.03 7  334 252 
 CBOC HZ I         642 13.02         7.1 0.21            109            334 252 
 DBB  EZ EP        641 27.56                             109    0.00 7  340 274 
 DBB  EN ES        642  4.19                             109   -0.31 7  340 274 
 DBB  EZ I         642  6.30         6.6 0.15            109            340 274 
 ANIL HZ EP        641 30.59                             108    0.78 6  357 225 
 ANIL HE ES        642  9.15                             108    0.64 6  357 225 
 ARGC HZ EP        641 29.55                             107   -0.25 6  360 340 
 ARGC HN ES        642  8.33                             107   -0.16 6  360 340 
 ORTC HZ EP        641 33.77                             106   -0.16 6  395 216 
 ORTC HN ES        642 16.21                             106    0.37 6  395 216 
 ORTC HZ I         642 21.50         9.8 0.48            106            395 216 
 APAC HZ EP   9    641 32.81                             105   -1.51 0  399 288 
 APAC HN ES        642 14.50                                   -0.53 6  399 288 
 APAC HZ I         642 19.57         4.5 0.42            106            399 288 
 PAL  HZ EP        641 35.19                             105   -0.02 6  406 239 
 PAL  HN ES   4    642 17.39                             105   -0.73 0  406 239 
 PAL  HZ I         642 23.45         8.0 0.23            105            406 239 
 SJC  HZ EP   4    641 33.53                             105   -2.20 0  410 327 
 SJC  HN ES   4    642 14.23                             105   -4.81 0  410 327 
 SJC  HZ I         642 23.12         4.3 0.31            106            410 327 
 MACC HZ EP   4    641 45.70                             101   -3.02 0  520 189 
 MACC HE ES   4    642 37.57                             101   -4.60 0  520 189 
 MACC HZ I         642 42.57         2.8 0.33            102            520 189 
                                                                                
