 2011  4 3 0552 32.5 L   6.798 -73.113148.8  RSN  8 0.4 1.3LRSN                1
 GAP=161        0.52       7.5     6.2  5.9 -0.2554E+02 -0.1163E+02  0.7046E+01E
 Epicentro: LOS SANTOS - SANTANDER                                             3
 ACTION:UP  11-06-22 15:28 OP:REBC STATUS:               ID:20110403055232 L   I
 2011-04-03-0540-00M.COL___139                                                 6
 STAT SP IPHASW D HRMM SECON CODA AMPLIT PERI AZIMU VELO SNR AR TRES W  DIS CAZ7
 BTL  SZ EP        552 52.61                             172     0.110   22 308 
 BTL  SZ ES   2    553  8.17                             172     0.1 5   22 308 
 BAR2 SZ EP   3    552 52.04                             170    -0.5 2   24 199 
 BAR2 SZ ES   3    553  7.80                             170    -0.3 2   24 199 
 BAR2 SZ I         553  8.83         8.0 0.25                            24 199 
 GIR2 SZ ES   3    553  7.58                             168    -0.6 2   32 344 
 BRR  HZ EP        552 54.11                             152    -0.110   74 297 
 BRR  HN ES   1    553 11.20                             152     0.1 7   74 297 
 BRR  HZ I         553 13.41         5.3 0.13                            74 297 
 PAM  SZ EP        552 55.00                             152     0.110   75  37 
 PAM  SZ I         552 55.28         1.8 0.14                            75  37 
 PAM  SN ES   2    553 12.48                             152     0.1 5   75  37 
 GRA  SZ EP        552 57.96                             138     0.010  125  16 
 GRA  SZ ES   2    553 17.03                             138    -0.8 5  125  16 
 GRA  SZ I         553 18.98         2.5 0.12                           125  16 
 OCA  SZ EP   3    553  1.46                             130     0.3 2  161 352 
 NOR  SN ES   3    553 35.46                             119    -1.5 2  237 235 
                                                                                
