 2014  8 3 0122 46.3 L   6.723 -73.177145.3  RSN  4 0.4 1.4LRSN                1
 GAP=236        1.05       7.8     8.0  9.5 -0.1181E+02  0.1257E+02  0.3739E+01E
 Epicentro: VILLANUEVA - SANTANDER                                             3
 ACTION:UPD 14-09-15 21:46 OP:nd   STATUS:               ID:20140803012246 L   I
 OLDACT:DUP 14-08-03 13:44 OP:carl STATUS:               ID:20140803011816d    3
 2014-08-03-0118-15M.COL___242                                                 6
 STAT SP IPHASW D HRMM SECON CODA AMPLIT PERI AZIMU VELO AIN AR TRES W  DIS CAZ7
 BAR2 SZ EP        123  5.76                             174    0.0210 14.5 182 
 BAR2 SZ ES        123 20.48                             174   -0.4210 14.5 182 
 BAR2 SZ I         123 21.70         7.2 0.30            175           14.5 182 
 BRR  HZ EP        123  7.56                             152    0.0610 72.7 306 
 BRR  HN ES        123 24.60                             152    0.5710 72.7 306 
 BRR  HZ I         123 27.84         5.9 0.52            149           72.7 306 
 PTB  HZ EP        123 12.66                             133   -0.14 9  143 262 
 PTB  HN ES        123 32.84                             133   -0.63 9  143 262 
 PTB  HZ I         123 36.73         2.3 0.56            133            143 262 
 SPBC HN ES        123 36.04                             131    0.53 9  154 220 
                                                                                
