 2011 10 3 0506 28.3 L   6.823 -73.080140.6  RSN  6 0.4 1.9LRSN                1
 GAP=144        0.84       4.1     6.5  7.3 -0.5802E+01  0.1121E+02 -0.5840E+00E
 Epicentro: LOS SANTOS - SANTANDER                                             3
 ACTION:UPD 12-07-13 16:01 OP:ep   STATUS:               ID:20111003050628 L   I
 2011-10-03-0503-36S.COL___168                                                 6
 STAT SP IPHASW D HRMM SECON CODA AMPLIT PERI AZIMU VELO AIN AR TRES W  DIS CAZ7
 BAR2 SZ EP        5 6 47.46                             168    0.0910 27.9 204 
 BAR2 SZ ES   1    5 7  2.17                             168   -0.10 7 27.9 204 
 BAR2 SZ I         5 7  4.52        12.7 0.36                          27.9 204 
 PAM  SZ EP   1    5 6 50.35                             152    0.81 7 70.9  36 
 PAM  SZ I         5 6 50.45        12.7 0.15                          70.9  36 
 PAM  SN ES   1    5 7  5.86                             152   -0.28 7 70.9  36 
 BRR  HZ EP        5 6 49.20                             150    0.0410 76.5 294 
 BRR  HZ I         5 6 50.63        26.7 0.10                          76.5 294 
 BRR  HE ES   1    5 7  6.03                             150    0.56 7 76.5 294 
 RUS  HZ EP   1    5 6 51.49                             142   -0.18 7  103 180 
 RUS  HE ES   1    5 7  9.75                             142   -0.18 7  103 180 
 RUS  HZ I         5 7 12.59         9.1 0.28                           103 180 
 OCA  SZ EP   1    5 6 56.26                             129    0.23 7  159 350 
 OCA  SZ ES   1    5 7 16.82                             129   -0.86 7  159 350 
 OCA  SZ I         5 7 20.84         8.7 0.22                           159 350 
 NOR  SZ EP   1    5 7  3.93                             116   -0.56 6  242 235 
 NOR  SN ES   1    5 7 32.79                             116    0.04 6  242 235 
                                                                                
