 2012  1 3 0434 50.4 L   6.779 -73.160143.1  RSN  8 0.4 1.9LRSN                1
 GAP=136        0.96       5.0     5.1  7.4 -0.3578E+01  0.6042E+01  0.1209E+02E
 Epicentro: LOS SANTOS - SANTANDER                                             3
 ACTION:UP  12-02-03 08:13 OP:REBC STATUS:               ID:20120103043450 L   I
 2012-01-03-0430-00M.COL___184                                                 6
 STAT SP IPHASW D HRMM SECON CODA AMPLIT PERI AZIMU VELO SNR AR TRES W  DIS CAZ7
 BAR2 SZ IP        435  9.63                             171     0.010   21 187 
 BAR2 SZ I         435  9.94        20.7 0.08                            21 187 
 BAR2 SZ ES   1    435 24.42                             171    -0.2 7   21 187 
 BRR  HZ EP        435 11.48                             152     0.210   71 301 
 BRR  HZ I         435 15.46        16.5 0.10                            71 301 
 BRR  HN ES   1    435 28.55                             152     1.1 7   71 301 
 PAM  SZ EP        435 12.45                             149     0.010   80  39 
 PAM  SN ES   1    435 29.43                             149    -0.3 7   80  39 
 RUS  HZ EP        435 13.50                             144    -0.210   98 175 
 RUS  HN ES   2    435 32.02                             144     0.1 5   98 175 
 PTB  HZ EP        435 16.38                             132    -0.6 9  146 260 
 PTB  HN ES   1    435 37.14                             132    -0.5 7  146 260 
 ZAR  HZ EP   2    435 22.51                             122    -0.1 4  203 293 
 ZAR  HN ES   2    435 47.44                             122    -0.3 4  203 293 
 ZAR  HZ I         435 53.57        12.9 0.30                           203 293 
 NOR  SZ EP        435 26.04                             118     0.4 8  232 235 
 NOR  SN ES   1    435 52.94                             118    -0.3 6  232 235 
 CHI  HZ EP        435 28.17                             117     0.5 8  246 195 
 CHI  HN ES   1    435 56.89                             117     0.2 6  246 195 
 CHI  HZ I         436  5.11         2.4 0.40                           246 195 
                                                                                
