 2017 12 3 0255 26.2 L   6.862 -73.128145.6  RSN  4 0.3 1.3LRSN                1
 GAP=281        0.72       8.5     5.7  6.2  0.1998E+02  0.6145E+01 -0.6003E+01E
 Epicentro: LOS SANTOS - SANTANDER                                             3
 ACTION:UPD 18-01-04 13:16 OP:rebc STATUS:               ID:20171203025526 L   I
 OLDACT:DUP 17-12-03 15:26 OP:dhb  STATUS:               ID:20171203024740d    3
 OLDACT:REG 17-12-03 13:03 OP:dhb  STATUS:               ID:20171203024739     3
 2017-12-03-0248-00M.COL___492                                                 6
 STAT SP IPHASW D HRMM SECON CODA AMPLIT PERI AZIMU VELO AIN AR TRES W  DIS CAZ7
 BAR2 EZ EP        255 46.28                             168    0.3110 30.4 191 
 BAR2 EZ ES        256  1.16                             168   -0.2310 30.4 191 
 BAR2 EZ I         256  3.66         4.2 0.36            164           30.4 191 
 RUS  HZ EP        255 50.63                             142    0.2110  107 177 
 RUS  HN ES        256  9.27                             142   -0.0510  107 177 
 RUS  HZ I         256 10.55         2.9 0.44            139            107 177 
 PTB  HZ EP        255 52.99                             131   -0.47 9  151 256 
 PTB  HN ES        256 15.03                             131    0.31 9  151 256 
 PTB  HZ I         256 16.51         2.0 0.38            129            151 256 
 SPBC HZ EP        255 55.18                             128   -0.13 9  170 218 
 SPBC HZ I         256  1.71         3.8 0.10            125            170 218 
                                                                                
