 2016  7 3 0154 44.7 L   6.782 -73.099144.7  RSN  8 0.3 1.7LRSN                1
 GAP=241        0.71       3.9     3.5  4.7  0.2686E+00  0.4922E+01  0.4097E+01E
 Epicentro: LOS SANTOS - SANTANDER                                             3
 ACTION:UPD 17-03-29 16:46 OP:lp   STATUS:               ID:20160703015444 L   I
 OLDACT:UP  16-07-03 16:12 OP:edw  STATUS:               ID:20160703014749     3
 OLDACT:REG 16-07-03 12:31 OP:edw  STATUS:               ID:20160703014749     3
 2016-07-03-0147-49M.COL___331                                                 6
 STAT SP IPHASW D HRMM SECON CODA AMPLIT PERI AZIMU VELO AIN AR TRES W  DIS CAZ7
 BAR2 EZ EP        155  4.21                             171   -0.0110 22.9 204 
 BAR2 EZ ES        155 19.42                             171   -0.0010 22.9 204 
 BAR2 EZ I         155 20.76        17.1 0.24            168           22.9 204 
 BRR  HZ EP        155  6.05                             150   -0.0310 76.7 298 
 BRR  HN ES        155 22.91                             150    0.1710 76.7 298 
 BRR  HZ I         155 26.24        12.9 0.28            152           76.7 298 
 RUS  HZ EP        155  8.24                             144    0.0310 98.3 179 
 RUS  HE ES        155 26.42                             144   -0.1110 98.3 179 
 RUS  HZ I         155 28.29         2.9 0.22            145           98.3 179 
 PTB  HZ EP   4    155 10.78                             131   -1.26 0  152 260 
 PTB  HN ES        155 32.96                             131   -0.38 9  152 260 
 PTB  HZ I         155 34.57         5.9 0.14            132            152 260 
 SPBC HZ EP        155 13.11                             128   -0.20 9  165 221 
 SPBC HN ES        155 36.19                             128    0.59 9  165 221 
 SPBC HZ I         155 43.09         9.3 0.22            129            165 221 
 ZAR  HZ EP   4    155 23.26                             121    5.58 0  210 292 
 ZAR  HE ES   4    155 43.58                             121    0.20 0  210 292 
 NOR  HZ EP        155 20.75                             118    0.03 8  238 236 
 NOR  HN ES        155 48.10                             118   -0.70 8  238 236 
 NOR  HZ I         155 51.06         3.7 0.22            119            238 236 
 HEL  HN ES        155 57.43                             114    0.33 7  277 256 
 GUY2CHZ EP        155 28.89                             112    0.25 7  304 236 
 GUY2CHE ES        156  3.04                             112    0.16 7  304 236 
 GUY2CHZ I         156 10.61         3.1 0.56                           304 236 
                                                                                
