 2011  2 3 0218 43.1 L   5.905 -73.723112.0  RSN  7 0.3 1.4LRSN                1
 GAP=106        0.53       4.1     4.4  8.1 -0.8645E+01  0.2114E+02 -0.9444E+01E
 Epicentro: GUAVATA - SANTANDER                                                3
 ACTION:UP  11-03-28 15:05 OP:jfem STATUS:               ID:20110203021843 L   I
 2011-02-03-0215-11S.COL___135                                                 6
 STAT SP IPHASW D HRMM SECON CODA AMPLIT PERI AZIMU VELO SNR AR TRES W  DIS CAZ7
 RUS  HZ EP   1    219  1.01                             146    -0.4 7   71  91 
 RUS  HZ I         219  1.69         2.6 0.25                            71  91 
 RUS  HN ES   1    219 15.91                             146     0.2 7   71  91 
 BAR2 SZ ES   2    219 18.26                             136    -0.3 5   97  38 
 BAR2 SZ I         219 19.84        16.5 0.25                            97  38 
 NOR  SZ EP   2    219  5.91                             126    -0.2 5  133 254 
 NOR  SN ES   2    219 24.27                             126     0.2 5  133 254 
 CHI  HZ EP   2    219  7.47                             125     0.0 5  141 180 
 CHI  HN ES   2    219 26.59                             125     0.2 5  141 180 
 HEL  HZ EP   2    219 13.83                             114    -0.1 4  202 279 
 HEL  HZ I         219 42.70         2.6 0.44                           202 279 
 RREF HZ EP   2    219 15.20                             113    -0.1 4  212 238 
 GRA  SZ EP   2    219 18.73                             110     0.7 4  241  25 
 GRA  SZ ES   2    219 45.53                             110     0.3 4  241  25 
 GRA  SZ I         219 47.89         1.9 0.11                           241  25 
                                                                                
