 2017  9 3 0115 37.6 L   6.747 -73.091147.8  RSN  4 0.3 1.4LRSN                1
 GAP=239        0.65       7.2     8.3  5.2  0.5026E+02  0.1034E+01 -0.4661E+01E
 Epicentro: LOS SANTOS - SANTANDER                                             3
 ACTION:UPD 17-10-05 19:08 OP:rebc STATUS:               ID:20170903011537 L   I
 OLDACT:REG 17-09-03 13:08 OP:dani STATUS:               ID:20170903010743     3
 2017-09-03-0108-00M.COL___414                                                 6
 STAT SP IPHASW D HRMM SECON CODA AMPLIT PERI AZIMU VELO AIN AR TRES W  DIS CAZ7
 BAR2 EZ EP        115 57.07                             172   -0.3510 19.9 210 
 BAR2 EZ ES        116 13.05                             172    0.1810 19.9 210 
 BRR  HZ EP        115 59.33                             150   -0.1210 79.3 300 
 BRR  HN ES        116 16.57                             150    0.0910 79.3 300 
 BRR  HZ I         116 21.46         5.8 0.31            147           79.3 300 
 RUS  HZ EP        116  1.24                             146    0.1010 94.5 179 
 RUS  HN ES        116 19.44                             146   -0.0510 94.5 179 
 RUS  HZ I         116 20.40         3.1 0.34            146           94.5 179 
 ZAR  HZ EP        116 11.50                             122    0.51 8  212 293 
 ZAR  HN ES        116 36.73                             122   -0.30 8  212 293 
 ZAR  HZ I         116 42.42         2.5 0.25            121            212 293 
                                                                                
