 2011  2 3 0410 56.9 L   6.776 -73.034140.5  RSN  4 0.3 1.3LRSN                1
 GAP=171        0.54       7.3    29.5  7.9 -0.1842E+03 -0.1953E+01 -0.6370E+00E
 Epicentro: CEPITA - SANTANDER                                                 3
 ACTION:UP  11-03-28 15:05 OP:jfem STATUS:               ID:20110203041056 L   I
 2011-02-03-0406-39S.COL___135                                                 6
 STAT SP IPHASW D HRMM SECON CODA AMPLIT PERI AZIMU VELO SNR AR TRES W  DIS CAZ7
 BAR2 SZ EP   2    411 15.61                             169    -0.4 5   26 219 
 BAR2 SZ ES   2    411 30.70                             169    -0.2 5   26 219 
 BAR2 SZ I         411 31.94         6.7 0.30                            26 219 
 RUS  HZ EP   2    411 20.01                             143     0.0 5   98 183 
 RUS  HZ I         411 20.51         2.0 0.33                            98 183 
 RUS  HN ES   2    411 37.93                             143     0.0 5   98 183 
 GRA  SZ EP   1    411 21.53                             136    -0.1 7  125  12 
 GRA  SZ ES   2    411 41.51                             136     0.5 5  125  12 
 GRA  SZ I         411 46.43         2.5 0.43                           125  12 
 CHI  HZ EP   2    411 34.44                             116     0.0 4  250 198 
 CHI  HE ES   2    412  4.31                             116     0.6 4  250 198 
 CHI  HZ I         412 12.02         1.4 0.79                           250 198 
                                                                                
