 2011  4 3 0722 51.6 L   6.779 -73.086148.5  RSN 12 0.4 1.7LRSN                1
 GAP=162        0.49       4.2     5.7  5.7 -0.9496E+01 -0.1115E+01  0.1130E+02E
 Epicentro: LOS SANTOS - SANTANDER                                             3
 ACTION:UP  11-06-22 15:28 OP:REBC STATUS:               ID:20110403072251 L   I
 2011-04-03-0721-52S.COL___138                                                 6
 STAT SP IPHASW D HRMM SECON CODA AMPLIT PERI AZIMU VELO SNR AR TRES W  DIS CAZ7
 BAR2 SZ EP        723 11.29                             171    -0.310   23 207 
 BAR2 SZ ES   3    723 27.29                             171     0.1 2   23 207 
 BAR2 SZ I         723 28.36         8.5 0.30                            23 207 
 BTL  SZ EP        723 11.74                             170     0.110   25 308 
 BTL  SZ ES   2    723 27.10                             170    -0.1 5   25 308 
 GIR2 SZ EP        723 11.80                             166     0.110   35 340 
 GIR2 SZ ES   3    723 27.57                             166     0.2 2   35 340 
 PAM  SZ EP   2    723 14.38                             152     0.4 5   75  35 
 PAM  SN ES   2    723 31.58                             152     0.1 5   75  35 
 BRR  HZ EP        723 13.44                             150     0.010   78 298 
 BRR  HN ES   2    723 30.87                             150     0.4 5   78 298 
 BRR  HZ I         723 33.48         7.2 0.15                            78 298 
 GRA  SZ EP   2    723 17.37                             137     0.2 5  126  14 
 GRA  SZ ES   2    723 36.56                             137    -0.5 5  126  14 
 GRA  SZ I         723 41.97         4.6 0.31                           126  14 
 OCA  SZ EP   2    723 20.57                             129     0.1 5  164 351 
 OCA  SZ I         723 46.91         6.5 0.40                           164 351 
 NOR  SZ EP   3    723 27.26                             118    -0.7 2  239 236 
 NOR  SN ES   3    723 56.15                             118    -0.1 2  239 236 
 CHI  HZ EP        723 29.52                             118     0.1 8  248 197 
 CHI  HN ES   3    723 58.31                             118    -0.6 2  248 197 
 CHI  HZ I         724  7.33         2.5 0.82                           248 197 
 HEL  HZ EP   3    723 31.77                             115    -0.9 2  278 257 
 HEL  HN ES   3    724  3.46                             115    -1.1 2  278 257 
 HEL  HZ I         724  9.32         3.3 0.63                           278 257 
 GUY  SN ES   3    724 12.42                             112     1.7 2  308 236 
 RREF HZ EP   3    723 38.98                             111     0.7 2  325 230 
 RREF HZ I         724 22.39         2.6 0.38                           325 230 
                                                                                
