 2017  9 3 0106 51.5 L   6.832 -73.138145.3  RSN  9 0.5 1.8LRSN                1
 GAP=111        1.08       3.7     4.1  6.3  0.2942E+01  0.6185E+01  0.5702E+01E
 Epicentro: LOS SANTOS - SANTANDER                                             3
 ACTION:UPD 17-10-05 19:08 OP:rebc STATUS:               ID:20170903010651 L   I
 OLDACT:UP  17-09-03 14:06 OP:dani STATUS:               ID:20170903005743d    3
 OLDACT:UP  17-09-03 14:05 OP:dani STATUS:               ID:20170903005743d    3
 OLDACT:DUP 17-09-03 14:02 OP:dani STATUS:               ID:20170903005743d    3
 OLDACT:UP  17-09-03 14:02 OP:dani STATUS:               ID:20170903005742     3
 OLDACT:UP  17-09-03 14:01 OP:dani STATUS:               ID:20170903005742     3
 OLDACT:REG 17-09-03 13:08 OP:dani STATUS:               ID:20170903005742     3
 2017-09-03-0058-00M.COL___414                                                 6
 STAT SP IPHASW D HRMM SECON CODA AMPLIT PERI AZIMU VELO AIN AR TRES W  DIS CAZ7
 BAR2 EZ EP     D  1 7 10.83                             169   -0.3710 26.9 190 
 BAR2 EZ ES        1 7 26.52                             169   -0.0110 26.9 190 
 BAR2 EZ I         1 7 32.66        13.6 0.24            167           26.9 190 
 BRR  HZ EP        1 7 12.53                             153   -0.0610 70.4 296 
 BRR  HN ES        1 7 29.61                             153    0.6010 70.4 296 
 BRR  HZ I         1 7 30.86        10.7 0.30            154           70.4 296 
 PAM  EZ EP     C  1 7 13.66                             152    0.1410 74.1  41 
 PAM  EE ES        1 7 30.56                             152   -0.1010 74.1  41 
 PAM  EZ I         1 7 32.53        20.3 0.50            157           74.1  41 
 RUS  HZ EP        1 7 14.94                             143   -0.5610  104 177 
 RUS  HN ES        1 7 33.80                             143   -0.3910  104 177 
 RUS  HZ I         1 7 35.35         7.6 0.34            144            104 177 
 SPBC HZ EP        1 7 20.09                             128   -0.23 9  166 218 
 SPBC HN ES        1 7 42.79                             128    0.03 9  166 218 
 SPBC HZ I         1 7 47.62        14.4 0.22            130            166 218 
 YPLC HZ EP        1 7 21.45                             126   -0.12 9  180 152 
 YPLC HN ES        1 7 46.01                             126    1.02 9  180 152 
 YPLC HZ I         1 7 50.32         5.5 0.34            129            180 152 
 ZAR  HZ EP        1 7 23.40                             123   -0.51 9  204 291 
 ZAR  HE ES        1 7 49.24                             123    0.09 9  204 291 
 ZAR  HZ I         1 7 54.51        12.4 0.24            125            204 291 
 CHI  HZ EP        1 7 30.25                             117    0.64 8  252 195 
 CHI  HE ES        1 7 59.00                             117   -0.30 8  252 195 
 CHI  HZ I         1 8  6.76         2.3 0.12            119            252 195 
 HEL  HZ EP   2    1 7 33.69                             115    1.77 4  274 255 
 HEL  HN ES        1 8  3.47                             115    0.05 8  274 255 
                                                                                
