 2017  9 3 0222 15.6 L   6.799 -73.098144.8  RSN  5 0.2 1.5LRSN                1
 GAP=143        0.48       2.3     3.2  3.5 -0.2406E+01  0.6812E+00  0.1234E+01E
 Epicentro: LOS SANTOS - SANTANDER                                             3
 ACTION:UPD 17-10-05 19:08 OP:rebc STATUS:               ID:20170903022215 L   I
 OLDACT:REG 17-09-03 13:11 OP:dani STATUS:               ID:20170903021737     3
 2017-09-03-0218-00M.COL___414                                                 6
 STAT SP IPHASW D HRMM SECON CODA AMPLIT PERI AZIMU VELO AIN AR TRES W  DIS CAZ7
 BAR2 EZ EP        222 34.87                             170   -0.3010 24.7 202 
 BAR2 EZ ES        222 50.21                             170   -0.2010 24.7 202 
 BAR2 EZ I         222 52.01         5.8 0.24            168           24.7 202 
 PAM  EZ EP        222 37.78                             152    0.2310 74.2  36 
 PAM  EN ES        222 54.71                             152    0.0610 74.2  36 
 PAM  EZ I         222 56.64         7.4 0.58            155           74.2  36 
 BRR  HZ EP        222 36.80                             151   -0.1510 75.9 297 
 BRR  HE ES        222 53.70                             151    0.1210 75.9 297 
 BRR  HZ I         222 54.44         8.3 0.54            151           75.9 297 
 RUS  HZ EP        222 39.33                             144    0.0710  100 179 
 RUS  HN ES        222 57.77                             144    0.0810  100 179 
 RUS  HZ I         222 59.40         4.2 0.20            144            100 179 
 SPBC HZ EP        222 44.32                             128   -0.05 9  166 220 
 SPBC HE ES        223  6.95                             128    0.17 9  166 220 
 SPBC HZ I         223 12.91         4.5 0.10            129            166 220 
                                                                                
