 2011  7 3 0625 30.8 L   6.787 -73.039134.1  RSN  7 0.2 1.3LRSN                1
 GAP=171        0.47       2.8     5.6  4.8  0.2017E+01 -0.2767E+01 -0.4517E+01E
 Epicentro: LOS SANTOS - SANTANDER                                             3
 ACTION:UPD 12-07-25 13:57 OP:epov STATUS:               ID:20110703062530 L   I
 2011-07-03-0623-43S.COL___140                                                 6
 STAT SP IPHASW D HRMM SECON CODA AMPLIT PERI AZIMU VELO AIN AR TRES W  DIS CAZ7
 BAR2 SZ EP   1    625 49.14                             168    0.08 7 26.7 216 
 BAR2 SZ ES   1    626  3.36                             168    0.02 7 26.7 216 
 BAR2 SZ I         626  4.80         4.2 0.22                          26.7 216 
 BTL  SZ EP        625 49.20                             167    0.0710 29.2 300 
 BRR  HZ EP        625 51.01                             147   -0.3610 82.4 296 
 BRR  HZ I         625 51.41         5.2 0.12                          82.4 296 
 BRR  HE ES   1    626  7.70                             147    0.25 7 82.4 296 
 RUS  HZ EP   2    625 52.93                             142   -0.33 5 99.0 183 
 RUS  HE ES   1    626 10.83                             142    0.02 7 99.0 183 
 GRA  SZ EP   2    625 55.19                             135    0.35 5  124  12 
 GRA  SZ ES   2    626 13.57                             135   -0.06 5  124  12 
 GRA  SZ I         626 15.70         2.1 0.46                           124  12 
 OCA  SZ EP   1    625 58.81                             126    0.31 7  164 349 
 OCA  SZ ES   2    626 19.82                             126   -0.33 5  164 349 
 OCA  SZ I         626 27.35         3.7 0.81                           164 349 
 HEL  HZ EP   2    626 11.85                             112    0.19 4  283 257 
 HEL  HZ I         626 48.15         1.7 0.49                           283 257 
                                                                                
