 2016  7 3 0631 34.6 L   6.799 -73.207146.8  RSN  6 0.3 1.3LRSN                1
 GAP=231        0.84       4.5     4.8  5.7  0.8981E+01  0.4762E+01 -0.3676E+00E
 Epicentro: ZAPATOCA - SANTANDER                                               3
 ACTION:UPD 17-03-29 16:46 OP:lp   STATUS:               ID:20160703063134 L   I
 OLDACT:REG 16-07-03 13:06 OP:edw  STATUS:               ID:20160703062744     3
 2016-07-03-0627-44M.COL___325                                                 6
 STAT SP IPHASW D HRMM SECON CODA AMPLIT PERI AZIMU VELO AIN AR TRES W  DIS CAZ7
 BAR2 EZ EP        631 54.67                             171    0.3510 23.0 173 
 BAR2 EZ ES        632  9.17                             171   -0.5510 23.0 173 
 BAR2 EZ I         632  9.85         5.5 0.24            166           23.0 173 
 BRR  HZ IP        631 55.75                             155    0.2310 65.4 301 
 BRR  HN ES        632 12.33                             155    0.4710 65.4 301 
 BRR  HZ I         632 15.89         4.5 0.42            152           65.4 301 
 RUS  HZ EP        631 58.64                             144    0.1810  101 172 
 RUS  HN ES        632 16.88                             144   -0.2210  101 172 
 RUS  HZ I         632 18.68         1.5 0.30            143            101 172 
 PTB  HZ EP        632  0.78                             134   -0.25 9  141 258 
 PTB  HN ES        632 21.67                             134    0.01 9  141 258 
 PTB  HZ I         632 25.66         2.8 0.12            132            141 258 
 SPBC HZ EP        632  2.82                             130    0.07 9  159 217 
 SPBC HN ES        632 24.94                             130    0.22 9  159 217 
 SPBC HZ I         632 32.19         2.6 0.14            129            159 217 
 ZAR  HZ EP        632  5.90                             123   -0.55 9  198 293 
 ZAR  HE ES        632 31.20                             123   -0.11 9  198 293 
 ZAR  HZ I         632 35.45         2.0 0.62            123            198 293 
                                                                                
