 2015  6 3 0417 18.6 L   6.739 -73.083153.6  RSN  5 0.3 1.4LRSN                1
 GAP=240        0.72       4.2     5.8  5.6  0.2621E+01  0.2107E+01 -0.2641E+01E
 Epicentro: JORDAN - SANTANDER                                                 3
 ACTION:UPD 15-09-10 22:09 OP:cam  STATUS:               ID:20150603041718 L   I
 OLDACT:DUP 15-06-03 16:03 OP:ak   STATUS:               ID:20150603040750d    3
 OLDACT:DUP 15-06-03 15:45 OP:ak   STATUS:               ID:20150603040749d    3
 2015-06-03-0407-48M.COL___294                                                 6
 STAT SP IPHASW D HRMM SECON CODA AMPLIT PERI AZIMU VELO AIN AR TRES W  DIS CAZ7
 BAR2 EZ EP        417 38.74                             172   -0.3410 19.6 214 
 BAR2 EZ ES        417 55.15                             172    0.0710 19.6 214 
 BAR2 EZ I         417 57.33         2.4 0.34            165           19.6 214 
 BRR  HZ EP        417 41.70                             151    0.6010 80.6 300 
 BRR  HN ES        417 58.53                             151   -0.1510 80.6 300 
 BRR  HZ I         418  2.67         3.3 0.42            145           80.6 300 
 SPBC HZ EP        417 47.48                             131   -0.14 9  163 222 
 SPBC HN ES        418 10.38                             131    0.09 9  163 222 
 SPBC HZ I         418 15.06         3.0 0.08            130            163 222 
 ZAR  HZ EP   4    417 49.95                             123   -2.50 0  213 293 
 ZAR  HN ES        418 18.77                             123   -0.11 8  213 293 
 ZAR  HZ I         418 27.42         2.8 0.09            121            213 293 
 SML  HZ EP        417 56.52                             118   -0.10 8  253 335 
 SML  HN ES   4    418 24.37                             118   -1.93 0  253 335 
 SML  HZ I         418 28.33         2.6 0.09            118            253 335 
                                                                                
