 2015  4 3 0410 15.2 L   7.471 -73.211131.0  RSN  6 0.3 1.7LRSN                1
 GAP=213        0.77       2.9     5.6  6.4 -0.6380E+01  0.1352E+01  0.1369E+01E
 Epicentro: EL PLAYON - SANTANDER                                              3
 ACTION:UPD 15-06-03 16:52 OP:cam  STATUS:               ID:20150403041015 L   I
 OLDACT:UP  15-04-03 14:42 OP:mh   STATUS:               ID:20150403040749     3
 OLDACT:UP  15-04-03 14:42 OP:mh   STATUS:               ID:20150403040749     3
 OLDACT:REG 15-04-03 12:54 OP:mh   STATUS:               ID:20150403040749     3
 2015-04-03-0407-49M.COL___283                                                 6
 STAT SP IPHASW D HRMM SECON CODA AMPLIT PERI AZIMU VELO AIN AR TRES W  DIS CAZ7
 BRR  HZ EP     C  410 34.63                             151    0.0810 68.4 234 
 BRR  HN ES        410 49.49                             151   -0.1910 68.4 234 
 BRR  HZ I         410 52.98         6.8 0.28            152           68.4 234 
 OCA  HZ EP        410 36.01                             145    0.1010 85.8 352 
 OCA  HN ES        410 52.41                             145    0.3110 85.8 352 
 OCA  HZ I         410 54.72        11.1 0.14            147           85.8 352 
 PTB  HZ EP        410 43.19                             124   -0.14 9  172 233 
 PTB  HN ES        411  5.05                             124   -0.26 9  172 233 
 PTB  HZ I         411  7.47         3.2 0.22            127            172 233 
 SML  HZ EP        410 43.64                             123    0.01 9  175 327 
 SML  HN ES        411  5.18                             123   -0.66 9  175 327 
 SML  HZ I         411  7.42         7.9 0.30            126            175 327 
 ZAR  HZ EP   1    410 44.55                             122    0.21 7  182 271 
 ZAR  HN ES        411  7.69                             122    0.58 9  182 271 
 ZAR  HZ I         411  8.88         6.4 0.18            125            182 271 
 SPBC HN ES        411 15.03                             117    0.03 8  222 205 
                                                                                
