 2016  8 3 0717 57.1 L   6.775 -73.077149.7  RSN  7 0.4 1.4LRSN                1
 GAP=243        0.95       5.1     6.0  6.2  0.1255E+01  0.1531E+02  0.1401E+01E
 Epicentro: LOS SANTOS - SANTANDER                                             3
 ACTION:UPD 16-10-29 15:31 OP:rebc STATUS:               ID:20160803071757 L   I
 OLDACT:UP  16-08-03 17:20 OP:edw  STATUS:               ID:20160803071734     3
 OLDACT:REG 16-08-03 13:18 OP:edw  STATUS:               ID:20160803071734     3
 2016-08-03-0718-00M.COL___347                                                 6
 STAT SP IPHASW D HRMM SECON CODA AMPLIT PERI AZIMU VELO AIN AR TRES W  DIS CAZ7
 BAR2 EZ EP        718 17.05                             171   -0.1310 23.3 210 
 BAR2 EZ ES        718 32.71                             171   -0.1510 23.3 210 
 BRR  HZ EP        718 18.98                             151   -0.1410 79.3 298 
 BRR  HE ES        718 36.62                             151    0.3110 79.3 298 
 BRR  HZ I         718 40.58         4.0 0.30                          79.3 298 
 RUS  HZ EP        718 20.73                             146   -0.2810 97.6 180 
 RUS  HN ES        718 40.10                             146    0.4310 97.6 180 
 RUS  HZ I         718 41.52         2.3 0.32                          97.6 180 
 SPBC HZ EP        718 26.05                             129   -0.10 9  166 222 
 SPBC HN ES        718 48.32                             129   -0.50 9  166 222 
 SPBC HZ I         718 51.63         4.5 0.18                           166 222 
 ZAR  HZ EP        718 30.70                             122    0.08 8  212 292 
 ZAR  HN ES   4    718 55.87                             122   -0.91 0  212 292 
 ZAR  HZ I         719  0.62         2.2 0.18                           212 292 
 GUY2CHZ EP        718 41.77                             113    0.37 7  306 236 
 GUY2CHN ES        719 16.75                             113    0.78 7  306 236 
 GUY2CHZ I         719 23.34         1.6 0.32                           306 236 
 CBOC HZ EP        718 45.50                             110    0.60 7  340 253 
 CBOC HN ES        719 21.21                             110   -0.99 7  340 253 
                                                                                
