 2014 10 3 0745 12.9 L   6.790 -73.124142.0  RSN 10 0.6 1.6LRSN                1
 GAP=185        1.40       5.5     8.0 10.1  0.4539E+01  0.8671E+01  0.6400E+01E
 Epicentro: LOS SANTOS - SANTANDER                                             3
 ACTION:UPD 14-11-29 23:46 OP:nd   STATUS:               ID:20141003074512 L   I
 OLDACT:REG 14-10-03 11:51 OP:stll STATUS:               ID:20141003073741     3
 2014-10-03-0737-41M.COL___279                                                 6
 STAT SP IPHASW D HRMM SECON CODA AMPLIT PERI AZIMU VELO AIN AR TRES W  DIS CAZ7
 BAR2 SZ EP        745 32.26                             170    0.2310 22.8 197 
 BAR2 SZ ES   1    745 46.54                             170   -0.44 7 22.8 197 
 BAR2 SZ I         745 49.26        14.8 0.24            172           22.8 197 
 BRR  HZ EP        745 34.25                             151    0.4910 73.9 298 
 BRR  HN ES        745 51.06                             151    0.9910 73.9 298 
 BRR  HZ I         745 52.31         6.0 0.26            148           73.9 298 
 RUS  HZ EP   1    745 36.50                             143    0.35 7 99.3 177 
 RUS  HN ES   1    745 53.93                             143   -0.39 7 99.3 177 
 RUS  HZ I         745 55.25         3.3 0.50            144           99.3 177 
 PTB  HZ EP        745 38.91                             131   -0.82 9  150 259 
 PTB  HN ES        745 59.66                             131   -1.02 9  150 259 
 PTB  HZ I         746  2.91         6.7 0.10            129            150 259 
 OCA  HN ES        746  2.23                             129   -0.75 9  162 352 
 OCA  HZ I         746  5.93         3.9 0.26            126            162 352 
 SPBC HZ EP        745 41.21                             128    0.07 9  164 220 
 SPBC HN ES        746  3.40                             128    0.20 9  164 220 
 SPBC HZ I         746  4.75         4.0 0.22            127            164 220 
 ZAR  HZ EP   1    745 45.38                             121    0.04 6  207 292 
 ZAR  HN ES        746 11.18                             121    0.50 8  207 292 
 ZAR  HZ I         746 13.58         3.9 0.10            119            207 292 
 SML  HZ EP   4    745 51.02                             116    1.52 0  246 335 
 SML  HE ES   4    746 15.31                             116   -2.77 0  246 335 
 SML  HZ I         746 29.24         4.7 0.24            114            246 335 
 GUY2CHZ EP   4    745 57.66                             111    1.21 0  303 235 
 GUY2CHN ES   4    746 32.76                             111    2.31 0  303 235 
 GUY2CHZ I         746 37.42         2.7 0.36                           303 235 
 PRA  HZ EP        746  6.78                             106    0.50 6  392 210 
 PRA  HN ES   4    746 45.47                             106   -2.48 0  392 210 
 PRA  HZ I         746 59.30         1.1 0.36            105            392 210 
                                                                                
