 2012  6 3 0944 47.7 L   6.159 -73.689107.8  RSN  4 0.3 1.4LRSN                1
 GAP=183        0.52       8.9     3.7  7.5  0.9423E+01  0.8426E+01 -0.6766E+01E
 Epicentro: LANDAZURI - SANTANDER                                              3
 ACTION:UPD 12-08-06 17:46 OP:ep   STATUS:               ID:20120603094445 L   I
 2012-06-03-0940-00M.COL___201                                                 6
 STAT SP IPHASW D HRMM SECON CODA AMPLIT PERI AZIMU VELO AIN AR TRES W  DIS CAZ7
 RUS  HN ES   2    945 20.01                             143    0.15 5 73.3 114 
 BAR2 SZ EP   1    945  5.59                             143    0.13 7 73.7  49 
 BAR2 SZ ES   1    945 19.12                             143   -0.16 7 73.7  49 
 BAR2 SZ I         945 20.90        12.3 0.30            148           73.7  49 
 PTB  HZ EP   2    945  6.11                             135   -0.71 5 94.7 296 
 PTB  HN ES   1    945 21.85                             135    0.13 7 94.7 296 
 PTB  HZ I         945 25.46         2.6 0.19            137           94.7 296 
 ZAR  HZ EP   1    945 17.32                             114    0.19 6  196 319 
                                                                                
