 2013  2 3 0429 17.7 L   6.390 -73.603104.0  RSN  5 0.3 1.5LRSN                1
 GAP= 96        0.64       4.0     3.1  6.2  0.4364E+01  0.6102E+01  0.9625E+01E
 Epicentro: SANTA HELENA DEL OPON - SANTANDER                                  3
 ACTION:UPD 13-03-12 09:30 OP:ep   STATUS:               ID:20130203042917 L   I
 2013-02-03-0424-48M.COL___169                                                 6
 STAT SP IPHASW D HRMM SECON CODA AMPLIT PERI AZIMU VELO AIN AR TRES W  DIS CAZ7
 BAR2 SZ EP        429 33.63                             152    0.1010 51.6  64 
 BAR2 SZ ES        429 45.95                             152    0.0410 51.6  64 
 RUS  HZ EP        429 35.78                             140   -0.0310 79.6 134 
 RUS  HN ES   1    429 49.68                             140   -0.29 7 79.6 134 
 RUS  HN I         429 52.18        10.7 0.39            148           79.6 134 
 BRR  HZ EP        429 34.96                             139   -0.2110 80.2 351 
 BRR  HE ES   1    429 49.20                             139    0.36 7 80.2 351 
 BRR  HE I         429 59.82         9.4 0.50            138           80.2 351 
 PTB  HZ EP        429 36.20                             134   -0.3110 95.8 280 
 PTB  HZ I         429 36.65         6.4 0.18            139           95.8 280 
 PTB  HE ES        429 51.31                             134    0.0910 95.8 280 
 CHI  HZ EP   1    429 47.95                             113    0.67 6  195 184 
                                                                                
