 2014  4 3 0326 56.5 L   6.800 -73.192134.0  RSN 11 0.4 2.2LRSN                1
 GAP=131        0.99       2.7     3.5  6.6 -0.1913E+01  0.8208E+01  0.1857E+01E
 Epicentro: ZAPATOCA - SANTANDER                                               3
 ACTION:UPD 14-05-13 23:05 OP:nd   STATUS:               ID:20140403032656 L   I
 OLDACT:DUP 14-04-03 15:47 OP:carl STATUS:               ID:20140403032047d    3
 2014-04-03-0320-46M.COL___252                                                 6
 STAT SP IPHASW D HRMM SECON CODA AMPLIT PERI AZIMU VELO AIN AR TRES W  DIS CAZ7
 PAM  SZ IP     C  327 17.81                             148    0.0810 80.8  42 
 PAM  SN ES        327 34.71                             148    0.4510 80.8  42 
 PAM  SZ I         327 37.06        38.3 0.60            153           80.8  42 
 RUS  HZ EP        327 18.87                             141   -0.3110  101 173 
 RUS  HE ES        327 37.07                             141    0.2210  101 173 
 RUS  HZ I         327 39.01        21.0 0.30            145            101 173 
 PTB  HZ EP        327 21.64                             130   -0.45 9  143 258 
 PTB  HN ES        327 41.69                             130   -0.33 9  143 258 
 PTB  HZ I         327 44.65        25.1 0.42            131            143 258 
 SPBC HZ EP        327 23.81                             127   -0.03 9  160 218 
 SPBC HN ES        327 45.37                             127    0.23 9  160 218 
 SPBC HZ I         327 48.84        17.5 0.74            129            160 218 
 OCA  HZ EP        327 22.89                             127   -1.01 9  160 355 
 OCA  HN ES        327 45.13                             127   -0.12 9  160 355 
 OCA  HZ I         327 48.25        32.4 0.30            130            160 355 
 ZAR  HZ EP        327 28.17                             120    0.44 9  199 293 
 ZAR  HE ES        327 52.52                             120    0.45 9  199 293 
 ZAR  HZ I         328  0.79        18.3 0.22            122            199 293 
 NOR  HZ EP        327 31.00                             116   -0.15 8  231 234 
 NOR  HE ES        327 58.15                             116    0.00 8  231 234 
 NOR  HZ I         328  2.95        12.1 0.62            119            231 234 
 CHI  HZ EP        327 33.78                             115    0.32 8  247 194 
 CHI  HN ES        328  1.78                             115   -0.49 8  247 194 
 HEL  HZ EP        327 36.35                             113    0.74 8  267 256 
 HEL  HN ES        328  5.59                             113   -0.50 8  267 256 
 HEL  HZ I         328 14.44         8.8 0.26            115            267 256 
 CBOC HZ EP        327 43.18                             108    0.77 7  329 252 
 CBOC HE ES        328 18.38                             108    0.18 7  329 252 
 CBOC HZ I         328 24.00         3.4 0.42            110            329 252 
 PRA  HZ EP        327 49.61                             105    0.24 6  389 209 
 PRA  HN ES        328 30.40                             105   -0.19 6  389 209 
 PRA  HZ I         328 37.38         4.8 0.24            107            389 209 
                                                                                
