 2017  1 3 0237 14.5 L   6.245 -74.047 75.7  RSN  9 0.5 1.6LRSN                1
 GAP= 73        1.17       3.1     2.9  9.2 -0.3060E+00  0.1637E+01  0.1075E+02E
 Epicentro: CIMITARRA - SANTANDER                                              3
 ACTION:UPD 17-05-22 15:54 OP:jn   STATUS:               ID:20170103023714 L   I
 OLDACT:DUP 17-01-03 13:58 OP:lv   STATUS:               ID:20170103022745d    3
 2017-01-03-0228-00M.COL___381                                                 6
 STAT SP IPHASW D HRMM SECON CODA AMPLIT PERI AZIMU VELO AIN AR TRES W  DIS CAZ7
 PTB  HZ EP        237 26.65                             140   -0.7710 55.8 306 
 PTB  HN ES        237 37.34                             140   -0.1810 55.8 306 
 PTB  HZ I         237 37.94        11.2 0.12            140           55.8 306 
 BRR  HZ IP        237 31.49                             121   -0.3110  102  21 
 BRR  HE ES        237 45.70                             121    0.3910  102  21 
 BRR  HZ I         237 46.74        18.7 0.09            121            102  21 
 BAR2 EZ EP        237 32.14                             121   -0.0610  103  68 
 BAR2 EZ ES        237 46.54                             121    0.5310  103  68 
 RUS  HZ EP        237 33.24                             119   -0.4110  114 110 
 RUS  HE ES        237 48.64                             119    0.0410  114 110 
 RUS  HZ I         237 50.30         3.7 0.13            117            114 110 
 ZAR  HZ EP        237 38.22                             109   -0.59 9  164 327 
 ZAR  HN ES        237 58.03                             109    0.24 9  164 327 
 ZAR  HZ I         237 59.67         8.9 0.19            108            164 327 
 CHI  HZ EP        237 41.12                             107   -0.26 9  182 169 
 CHI  HN ES        238  1.89                             107   -0.46 9  182 169 
 CHI  HZ I         238  8.31         3.1 0.27            105            182 169 
 GUY2CHZ EP        237 42.13                             107    0.38 9  185 232 
 GUY2CHN ES        238  3.95                             107    0.93 9  185 232 
 GUY2CHZ I         238  8.04         7.0 0.32                           185 232 
 PAM  EZ EP   4    237 47.87                             106    5.23 0  192  51 
 PAM  EE ES        238  4.93                             106    0.33 9  192  51 
 PAM  EZ I         238  7.50         5.4 0.19            105            192  51 
 ORTC HZ EP        237 54.62                             100    0.64 7  291 207 
 ORTC HN ES   4    238 26.08                             100    1.29 0  291 207 
 ORTC HZ I         238 33.44         3.1 0.34             99            291 207 
 SJC  HZ EP   4    238  7.94                              96   -2.24 0  423 343 
 SJC  HN ES   4    238 50.38                              96   -3.24 0  423 343 
                                                                                
