 2017 11 3 0555 41.9 L   6.218 -73.753 99.9  RSN  5 0.4 0.9LRSN                1
 GAP= 98        0.86       4.3     3.7  9.2  0.2281E+01 -0.2418E+00 -0.9892E+01E
 Epicentro: LANDAZURI - SANTANDER                                              3
 ACTION:UPD 17-12-12 19:51 OP:rebc STATUS:               ID:20171103055541 L   I
 OLDACT:REG 17-11-03 13:25 OP:dnl  STATUS:               ID:20171103054737     3
 2017-11-03-0548-00M.COL___435                                                 6
 STAT SP IPHASW D HRMM SECON CODA AMPLIT PERI AZIMU VELO AIN AR TRES W  DIS CAZ7
 SPBC HZ EP   2    555 58.29                             142   -0.17 5 71.8 210 
 SPBC HE ES        556 11.82                             142    0.4010 71.8 210 
 SPBC HZ I         556 13.30         2.1 0.24            144           71.8 210 
 BAR2 EZ EP   2    555 59.02                             140    0.07 5 75.5  57 
 BAR2 EZ ES        556 12.41                             140    0.1210 75.5  57 
 BAR2 EZ I         556 13.31         5.8 0.28            143           75.5  57 
 RUS  HZ EP        555 59.57                             138   -0.2910 82.4 116 
 RUS  HE ES   4    556 12.70                             138   -1.20 0 82.4 116 
 RUS  HZ I         556 14.41         0.8 0.42            141           82.4 116 
 PTB  HZ EP   2    555 59.84                             136    0.37 5 85.6 295 
 PTB  HE ES        556 12.58                             136   -0.6410 85.6 295 
 PTB  HZ I         556 15.72         1.0 0.30            137           85.6 295 
 ZAR  HZ EP   2    556  9.59                             114   -0.21 4  187 319 
 ZAR  HN ES        556 32.10                             114    0.49 9  187 319 
 ZAR  HZ I         556 33.60         1.7 0.28            114            187 319 
                                                                                
