 2014 10 3 0159 22.7 L   6.754 -73.199143.1  RSN  4 0.3 1.2LRSN                1
 GAP=228        0.83       6.5     6.1  6.7  0.1952E+02  0.4826E+01  0.2012E+01E
 Epicentro: VILLANUEVA - SANTANDER                                             3
 ACTION:UPD 14-11-29 23:46 OP:nd   STATUS:               ID:20141003015922 L   I
 OLDACT:DUP 14-10-03 13:57 OP:stll STATUS:               ID:20141003015751d    3
 2014-10-03-0157-50M.COL___283                                                 6
 STAT SP IPHASW D HRMM SECON CODA AMPLIT PERI AZIMU VELO AIN AR TRES W  DIS CAZ7
 BAR2 SZ EP        159 41.47                             172   -0.4110 17.9 174 
 BAR2 SZ ES        159 56.43                             172   -0.4310 17.9 174 
 BAR2 SZ I         159 58.41         3.8 0.16            164           17.9 174 
 BRR  HZ EP        159 43.66                             153    0.2610 68.8 305 
 BRR  HE ES        159 59.93                             153    0.3710 68.8 305 
 RUS  HZ EP        159 45.95                             145    0.1110 96.1 172 
 RUS  HN ES        2 0  4.27                             145    0.3710 96.1 172 
 RUS  HZ I         2 0  5.85         2.3 0.30            141           96.1 172 
 PTB  HZ EP        159 48.70                             133   -0.11 9  141 260 
 PTB  HN ES        2 0  8.99                             133   -0.20 9  141 260 
 PTB  HZ I         2 0 17.13         2.3 0.54            129            141 260 
                                                                                
