 2011  7 3 0847 13.7 L   6.574 -73.393115.7  RSN  8 0.2 1.4LRSN                1
 GAP=104        0.42       2.4     3.5  4.9 -0.8517E+00  0.3918E+01 -0.2830E+01E
 Epicentro: HATO - SANTANDER                                                   3
 ACTION:UPD 12-07-25 13:57 OP:epov STATUS:               ID:20110703084713 L   I
 2011-07-03-0844-23S.COL___140                                                 6
 STAT SP IPHASW D HRMM SECON CODA AMPLIT PERI AZIMU VELO AIN AR TRES W  DIS CAZ7
 BAR2 SZ EP   2    847 30.15                             168    0.40 5 23.3  85 
 BAR2 SZ ES   2    847 42.17                             168   -0.08 5 23.3  85 
 BAR2 SZ I         847 44.85        16.6 0.47                          23.3  85 
 BTL  SZ EP        847 30.44                             159    0.1010 40.5  20 
 GIR2 SZ EP   1    847 31.38                             151    0.18 7 60.0  22 
 BRR  HZ EP        847 31.52                             147   -0.0310 68.7 329 
 BRR  HE ES   2    847 45.35                             147   -0.10 5 68.7 329 
 BRR  HZ I         847 50.97         6.3 0.43                          68.7 329 
 RUS  HZ EP   1    847 33.19                             142   -0.05 7 82.8 156 
 RUS  HN ES   2    847 48.28                             142   -0.18 5 82.8 156 
 RUS  HZ I         847 50.22         3.9 0.26                          82.8 156 
 GRA  SZ EP   1    847 39.53                             122   -0.21 7  159  24 
 GRA  SZ I         847 41.69         3.4 0.21                           159  24 
 GRA  SZ ES   2    847 59.67                             122   -0.37 5  159  24 
 OCA  SZ EP   1    847 42.72                             118    0.29 7  184   3 
 OCA  SZ ES   1    848  4.76                             118   -0.06 7  184   3 
 OCA  SZ I         848 12.95         3.8 0.21                           184   3 
 HEL  HZ EP   2    847 48.20                             111   -0.72 4  240 260 
 HEL  HE ES   2    848 16.61                             111    0.24 4  240 260 
 HEL  HZ I         848 20.21         2.1 0.32                           240 260 
                                                                                
