 2011  6 3 0630 58.7 L   6.756 -73.064145.5  RSN  4 0.3 1.4LRSN                1
 GAP=149        0.63       4.5     6.7  6.8 -0.8308E+00 -0.3374E+01  0.8943E+00E
 Epicentro: LOS SANTOS - SANTANDER                                             3
 ACTION:UP  11-07-14 19:02 OP:ep   STATUS:               ID:20110603063058 L   I
 2011-06-03-0628-27S.COL___132                                                 6
 STAT SP IPHASW D HRMM SECON CODA AMPLIT PERI AZIMU VELO SNR AR TRES W  DIS CAZ7
 BAR2 SZ EP   1    631 18.20                             171    -0.1 7   22 216 
 BAR2 SZ ES   1    631 33.43                             171    -0.1 7   22 216 
 BAR2 SZ I         631 34.39         8.4 0.24                            22 216 
 PAM  SZ EP   1    631 21.32                             151     0.5 7   76  32 
 PAM  SN ES   1    631 37.86                             151    -0.2 7   76  32 
 BRR  HZ EP   1    631 20.21                             149    -0.3 7   82 299 
 BRR  HZ I         631 21.34         5.9 0.11                            82 299 
 BRR  HN ES   1    631 37.62                             149     0.2 7   82 299 
 RUS  HZ EP   1    631 21.88                             145    -0.2 7   95 181 
 RUS  HN ES   1    631 40.54                             145     0.2 7   95 181 
 RUS  HZ I         631 40.88         2.9 0.04                            95 181 
                                                                                
