 2012 10 3 0544 36.9 L   6.809 -73.034151.3  RSN  4 0.2 1.6LRSN                1
 GAP=214        0.42       4.4     8.4  4.3  0.2409E+02 -0.6435E+01 -0.2072E+01E
 Epicentro: CEPITA - SANTANDER                                                 3
 ACTION:UPD 12-11-22 17:01 OP:ep   STATUS:               ID:20121003054436 L   I
 2012-10-03-0540-00M.COL___223                                                 6
 STAT SP IPHASW D HRMM SECON CODA AMPLIT PERI AZIMU VELO AIN AR TRES W  DIS CAZ7
 BAR2 SZ EP   1    544 57.44                             169    0.08 7 29.1 214 
 BAR2 SZ ES   1    545 13.32                             169    0.03 7 29.1 214 
 BAR2 SZ I         545 14.48        16.3 0.38                          29.1 214 
 GIR2 SZ EP   1    544 57.01                             166   -0.36 7 34.7 329 
 GIR2 SZ ES   1    545 13.45                             166    0.16 7 34.7 329 
 BRR  HZ EP        544 59.37                             150    0.0610 81.9 294 
 BRR  HZ I         544 59.59         7.8 0.13                          81.9 294 
 BRR  HN ES   1    545 16.69                             150   -0.06 7 81.9 294 
 RUS  HZ EP   1    545  1.51                             145    0.20 7  101 183 
 RUS  HE ES   1    545 20.15                             145   -0.16 7  101 183 
 RUS  HE I         545 22.07         3.2 0.22                           101 183 
                                                                                
