 2012 11 3 0531  7.4 L   6.799 -73.103148.8  RSN  7 0.3 2.0LRSN                1
 GAP=142        0.68       3.6     5.0  6.1  0.2614E+01  0.4791E+01  0.5508E+01E
 Epicentro: LOS SANTOS - SANTANDER                                             3
 ACTION:UPD 12-12-05 15:31 OP:}ep  STATUS:               ID:20121103053107 L   I
 2012-11-03-0530-00M.COL___234                                                 6
 STAT SP IPHASW D HRMM SECON CODA AMPLIT PERI AZIMU VELO AIN AR TRES W  DIS CAZ7
 BAR2 SZ EP   1    531 27.35                             170   -0.04 7 24.5 201 
 BAR2 SZ ES   1    531 43.02                             170    0.02 7 24.5 201 
 BAR2 SZ I         531 45.01        18.8 0.26                          24.5 201 
 GIR2 SZ EP   2    531 27.37                             167   -0.07 5 32.5 342 
 PAM  SZ EP   1    531 30.11                             152    0.36 7 74.6  37 
 PAM  SN ES   1    531 46.93                             152   -0.27 7 74.6  37 
 PAM  SN I         531 48.33         7.6 0.18                          74.6  37 
 BRR  HZ IP        531 29.18                             152    0.0910 75.4 297 
 BRR  HN ES   1    531 46.64                             152    0.62 7 75.4 297 
 BRR  HN I         531 47.01        23.4 0.30                          75.4 297 
 RUS  HZ EP        531 31.21                             144   -0.1910  100 179 
 RUS  HN ES   1    531 49.81                             144   -0.32 7  100 179 
 RUS  HN I         531 51.70         8.6 0.26                           100 179 
 ZAR  HE ES   1    532  5.57                             122   -0.71 6  208 292 
 ZAR  HE I         532 11.33        22.6 0.20                           208 292 
 CHI  HZ EP   1    531 45.48                             118    0.12 6  250 196 
 CHI  HN ES   1    532 15.41                             118    0.42 6  250 196 
 CHI  HN I         532 17.19         5.5 0.26                           250 196 
                                                                                
