 2017 10 3 0155 24.6 L   6.795 -73.120131.8  RSN  9 0.4 1.7LRSN                1
 GAP=114        1.00       3.4     4.0  6.1  0.3687E+00  0.9066E+01  0.3371E+01E
 Epicentro: LOS SANTOS - SANTANDER                                             3
 ACTION:UPD 17-11-07 19:27 OP:rebc STATUS:               ID:20171003015524 L   I
 OLDACT:DUP 17-10-03 13:09 OP:dhb  STATUS:               ID:20171003014745d    3
 2017-10-03-0148-00M.COL___435                                                 6
 STAT SP IPHASW D HRMM SECON CODA AMPLIT PERI AZIMU VELO AIN AR TRES W  DIS CAZ7
 BAR2 EZ EP        155 42.08                             169   -0.4710 23.4 197 
 BAR2 EZ ES        155 56.61                             169    0.0510 23.4 197 
 BAR2 EZ I         155 58.18        11.1 0.20            168           23.4 197 
 PAM  EZ IP     C  155 45.06                             149   -0.2010 76.1  38 
 PAM  EE ES        156  1.79                             149    0.4110 76.1  38 
 PAM  EZ I         156  4.15        22.0 0.60            152           76.1  38 
 RUS  HZ EP        155 46.63                             141   -0.3110 99.9 178 
 RUS  HE ES        156  4.46                             141    0.0910 99.9 178 
 RUS  HZ I         156  5.51         5.7 0.38            142           99.9 178 
 SPBC HZ EP        155 52.19                             125   -0.00 9  165 220 
 SPBC HE ES        156 13.27                             125   -0.45 9  165 220 
 SPBC HZ I         156 18.73         8.2 0.48            127            165 220 
 YPLC HZ IP     C  155 52.53                             124   -0.70 9  175 152 
 YPLC HE ES        156 15.85                             124    0.29 9  175 152 
 YPLC HZ I         156 18.93         7.7 0.26            126            175 152 
 ZAR  HZ EP        155 57.28                             119    0.81 8  207 292 
 ZAR  HN ES        156 20.98                             119   -0.35 8  207 292 
 ZAR  HZ I         156 26.21         6.7 0.15            120            207 292 
 NOR  HZ EP        156  0.10                             115    0.33 8  237 235 
 NOR  HE ES        156 27.12                             115   -0.08 8  237 235 
 NOR  HZ I         156 31.23         3.5 0.32            117            237 235 
 CHI  HZ EP        156  1.64                             114    0.06 8  249 196 
 CHI  HE ES        156 31.28                             114    0.85 8  249 196 
 CHI  HZ I         156 33.73         1.8 0.24            116            249 196 
 VIL  HN ES   4    156 33.67                             109   -7.14 0  303 192 
 GUY2CHZ EP        156  7.95                             109    0.13 7  303 235 
 GUY2CHE ES   4    156 44.44                             109    2.91 0  303 235 
 GUY2CHZ I         156 49.66         2.2 0.27                           303 235 
                                                                                
