 2016 11 3 0424 22.1 L   6.758 -73.142144.3  RSN  7 0.5 1.3LRSN                1
 GAP=139        1.22       5.3     5.2  8.9 -0.1694E+01  0.9194E+01 -0.3550E+00E
 Epicentro: LOS SANTOS - SANTANDER                                             3
 ACTION:UPD 17-10-26 21:04 OP:lp   STATUS:               ID:20161103042422 L   I
 OLDACT:DUP 16-11-03 14:26 OP:dani STATUS:               ID:20161103041746d    3
 2016-11-03-0418-00M.COL___337                                                 6
 STAT SP IPHASW D HRMM SECON CODA AMPLIT PERI AZIMU VELO AIN AR TRES W  DIS CAZ7
 BAR2 EZ EP        424 41.55                             172    0.0310 18.8 194 
 BAR2 EZ ES        424 56.57                             172   -0.0510 18.8 194 
 BAR2 EZ I         424 57.54         7.3 0.26            172           18.8 194 
 BRR  HZ EP        424 43.43                             151    0.1410 73.9 302 
 BRR  HN ES        425  0.35                             151    0.5710 73.9 302 
 BRR  HZ I         425  6.03         4.2 0.42            152           73.9 302 
 PAM  EZ EP     C  424 44.60                             149    0.1910 80.8  37 
 PAM  EE ES        425  1.26                             149   -0.5210 80.8  37 
 PAM  EZ I         425  3.10         2.0 0.36            153           80.8  37 
 RUS  HZ EP        424 45.58                             145    0.1610 95.9 176 
 RUS  HN ES        425  3.78                             145    0.2110 95.9 176 
 RUS  HZ I         425  5.15         3.1 0.30            148           95.9 176 
 PTB  HZ EP        424 48.40                             132   -0.55 9  147 261 
 PTB  HN ES        425  8.75                             132   -1.11 9  147 261 
 PTB  HZ I         425 11.58         1.8 0.14            133            147 261 
 SPBC HN ES        425 12.39                             129    0.28 9  160 220 
 SPBC HZ I         425 16.34         2.8 0.17            131            160 220 
 ZAR  HN ES        425 20.81                             122    0.68 8  206 293 
                                                                                
