 2015 10 3 0129  7.6 L   6.806 -73.135144.8  RSN 20 0.5 2.5LRSN 3.2WRSN        1
 SPEC AVERAGE  MO 13.9 ST0.034 OM  4.2 f00.908 R2.1189 AL 0.00 WI 30.0 MW  3.2 3
 SPEC SD       MO  0.9 ST  1.5 OM  1.3 f00.662 R0.8935 AL      WI      MW  0.6 3
 GAP= 71        1.22       2.8     3.1  5.2 -0.1592E+01  0.3577E+01  0.1380E+01E
 Epicentro: LOS SANTOS - SANTANDER                                             3
 SPECGUY2CHH Z MO 13.8 ST  0.1 OM  1.6 f0 1.10 R  1.74 AL-0.00 WI 30.0 MW  3.2 3
 SPECGUY2CHH Z T 13023 K       GD335.8 VS 5.20 DE 3.50 Q0750.0 QA 1.50 VS 5.20 3
 SPEC ELA HH Z MO 13.9 ST0.034 OM  1.6 f00.908 R2.1189 AL-0.00 WI 30.0 MW  3.2 3
 SPEC ELA HH Z T 13029 K 0.000 GD  360 VS 5.20 DE 3.50 Q0750.0 QA 1.50 VS 5.20 3
 OLDACT:ARG 15-10-03 13:45 OP:stll STATUS:               ID:20151003012714     3
 ACTION:UPD 15-12-22 20:37 OP:cam  STATUS:               ID:20151003012907 L   I
 OLDACT:UP  15-10-03 15:52 OP:stll STATUS:               ID:20151003012714     3
 2015-10-03-0127-14M.COL___361                                                 6
 STAT SP IPHASW D HRMM SECON CODA AMPLIT PERI AZIMU VELO AIN AR TRES W  DIS CAZ7
 BAR2 EZ IP     C  129 27.42                             170    0.2410 24.2 192 
 BAR2 EZ ES        129 41.89                             170   -0.5310 24.2 192 
 BAR2 EZ I         129 44.38        57.6 0.32            170           24.2 192 
 BRR  HZ EP     C  129 29.31                             152    0.5810 71.9 298 
 BRR  HE ES        129 45.99                             152    0.8110 71.9 298 
 BRR  HZ I         129 53.96        24.5 0.14            151           71.9 298 
 PAM  EZ EP        129 30.21                             151    0.5310 76.1  39 
 PAM  EN ES        129 47.12                             151    0.2410 76.1  39 
 PAM  EZ I         129 49.61        22.0 0.56            155           76.1  39 
 RUS  HZ EP        129 31.31                             143   -0.0310  101 177 
 RUS  HE ES        129 49.60                             143   -0.2310  101 177 
 RUS  HZ I         129 50.99        37.1 0.26            147            101 177 
 PTB  HZ EP        129 33.90                             132   -0.75 9  149 259 
 PTB  HN ES        129 55.17                             132   -0.55 9  149 259 
 PTB  HZ I         130  2.94        56.9 0.42            133            149 259 
 TAM  HZ IP     D  129 35.58                             130    0.42 9  154 105 
 TAM  HZ I         129 35.71        45.8 0.34            137            154 105 
 TAM  HE ES        129 56.75                             130    0.13 9  154 105 
 OCA  HZ EP        129 35.67                             129   -0.16 9  160 353 
 OCA  HN ES        129 57.78                             129   -0.04 9  160 353 
 OCA  HZ I         130  3.27        63.2 0.20            132            160 353 
 SPBC HZ EP        129 36.21                             129    0.02 9  164 219 
 SPBC HN ES        129 58.43                             129   -0.02 9  164 219 
 SPBC HZ I         130  5.21        49.3 0.38            131            164 219 
 ZAR  HZ EP        129 40.17                             122    0.06 9  205 292 
 ZAR  HE ES        130  5.15                             122   -0.29 9  205 292 
 ZAR  HZ I         130 11.15        52.5 0.66            124            205 292 
 NOR  HZ EP        129 43.24                             118   -0.22 8  236 235 
 NOR  HN ES        130 10.88                             118   -0.52 8  236 235 
 NOR  HZ I         130 15.64        24.5 0.16            120            236 235 
 SML  HZ EP        129 43.59                             117   -0.62 8  244 335 
 SML  HE ES        130 12.69                             117   -0.03 8  244 335 
 SML  HZ I         130 20.26        47.2 0.10            120            244 335 
 CHI  HZ EP        129 45.44                             117    0.05 8  250 195 
 CHI  HN ES        130 14.71                             117   -0.12 8  250 195 
 CHI  HZ I         130 20.57        18.3 0.26            120            250 195 
 ROSC BZ EP        129 46.54                             116    0.70 8  254 211 
 ROSC BE ES        130 15.27                             116   -0.36 8  254 211 
 ROSC BZ I         130 20.69        32.3 0.40            119            254 211 
 HEL  HZ EP        129 48.96                             114    1.01 8  273 256 
 HEL  HN ES        130 19.44                             114    0.05 8  273 256 
 HEL  HZ I         130 25.54        19.3 0.30            116            273 256 
 SOCV BZ EP        129 48.50                             112   -1.99 7  300  57 
 GUY2CHZ EP        129 51.85                             112    0.49 7  303 235 
 GUY2CHN ES        130 25.06                             112   -0.40 7  303 235 
 GUY2CHZ I         130 32.79        17.3 0.58                           303 235 
 PTGC HZ EP   4 D  129 50.02                             111   -1.46 0  309 159 
 PTGC HN ES   4    130 23.39                             111   -2.28 0  309 159 
 ELA  HZ EP        129 55.79                             110    1.19 7  330 230 
 ELA  HN ES        130 31.39                             110    0.16 7  330 230 
 ELA  HZ I         130 39.77        15.8 0.40            112            330 230 
 DBB  SZ EP        129 55.13                             109   -0.08 7  341 274 
 DBB  SZ ES   4    130 30.87                             109   -1.44 0  341 274 
 ORTC HZ EP     C  130  1.61                             106   -0.06 6  397 216 
 ORTC HN ES        130 43.58                             106   -0.23 6  397 216 
 SJC  HZ EP   4    130  1.06                             106   -2.12 0  409 327 
 SJC  HZ I         130  1.78         6.2 0.24            108            409 327 
 SJC  HE ES   4    130 41.37                             106   -5.14 0  409 327 
                                                                                
