 2016  9 3 0200 28.0 L   6.764 -73.151148.5  RSN  5 0.4 1.2LRSN                1
 GAP=234        1.11       6.6     7.1  8.1  0.1011E+02  0.6870E+01  0.4538E+01E
 Epicentro: LOS SANTOS - SANTANDER                                             3
 ACTION:UPD 17-08-17 21:05 OP:lp   STATUS:               ID:20160903020028 L   I
 OLDACT:REG 16-09-03 12:38 OP:drio STATUS:               ID:20160903015738     3
 2016-09-03-0158-00M.COL___356                                                 6
 STAT SP IPHASW D HRMM SECON CODA AMPLIT PERI AZIMU VELO AIN AR TRES W  DIS CAZ7
 BAR2 EZ EP        2 0 47.69                             172   -0.1910 19.3 190 
 BAR2 EZ ES        2 1  3.20                             172   -0.1910 19.3 190 
 BAR2 EZ I         2 1  8.41         3.0 0.58            171           19.3 190 
 BRR  HZ EP        2 0 49.65                             152    0.1310 72.6 302 
 BRR  HE ES        2 1  6.90                             152    0.5910 72.6 302 
 RUS  HZ EP        2 0 51.68                             145   -0.0610 96.7 176 
 RUS  HE ES        2 1 10.08                             145   -0.1810 96.7 176 
 RUS  HZ I         2 1 11.75         1.6 0.24            147           96.7 176 
 PTB  HZ EP        2 0 54.55                             133   -0.51 9  146 260 
 PTB  HE ES        2 1 15.47                             133   -0.71 9  146 260 
 PTB  HZ I         2 1 19.11         1.9 0.20            135            146 260 
 SPBC HZ EP        2 0 57.00                             130    0.62 9  160 220 
 SPBC HE ES        2 1 19.05                             130    0.53 9  160 220 
 SPBC HZ I         2 1 21.53         3.8 0.20            132            160 220 
                                                                                
