 2010  2 3 0504 21.6 L   6.778 -73.029146.7  RSN 13 0.5 3.3LRSN                1
 GAP=172        1.05       4.5    10.0  6.9 -0.2355E+02  0.2591E+02  0.2135E-01E
 Epicentro: CEPITA - SANTANDER                                                 3
 ACTION:UP  10-08-24 09:47 OP:vdl  STATUS:               ID:20100203050421 L   I
 2010-02-03-0459-50S.COL___088                                                 6
 STAT SP IPHASW D HRMM SECON CODA AMPLIT PERI AZIMU VELO SNR AR TRES W  DIS CAZ7
 BAR2 SZ IP        5 4 41.43                             169     0.010   27 220 
 BAR2 SZ ES   1    5 4 56.36                             169    -0.5 7   27 220 
 GIR2 SZ IP        5 4 41.54                             165     0.010   38 331 
 GIR2 SZ ES   1    5 4 57.14                             165     0.0 7   38 331 
 RUS  HZ IP        5 4 45.31                             144     0.110   98 184 
 RUS  HN ES   1    5 5  3.77                             144     0.1 7   98 184 
 GUE  SZ EP   1    5 4 47.22                             139     0.8 7  117   6 
 GRA  SZ IP        5 4 47.26                             137     0.410  125  11 
 GRA  SZ ES   1    5 5  6.63                             137     0.1 7  125  11 
 OCA  SZ EP        5 4 49.38                             129    -1.0 9  165 349 
 CHI  HZ EP        5 4 59.32                             117    -0.2 8  250 198 
 CHI  HE ES   1    5 5 28.52                             117    -0.5 6  250 198 
 CHI  HZ I         5 5 38.36        83.8 0.61                           250 198 
 ROSC BZ EP        5 5  1.07                             116     0.8 8  258 214 
 ROSC BZ I         5 5 37.47       108.5 0.52                           258 214 
 HEL  HZ EP   1    5 5  3.13                             114     0.0 6  284 257 
 HEL  HN ES   2    5 5 35.62                             114     0.0 4  284 257 
 HEL  HZ I         5 5 40.13        52.4 0.30                           284 257 
 RREF HZ EP        5 5  8.55                             110    -0.2 7  330 231 
 RREF HE ES   2    5 5 46.70                             110     1.2 3  330 231 
 RREF HZ I         5 5 53.99       130.0 0.26                           330 231 
 TOL  SZ EP   1    5 5 10.80                             109     0.1 5  351 226 
 ANIL HZ EP   1    5 5 12.66                             108     0.4 5  365 226 
 ANIL HZ I         5 5 57.31       155.1 0.33                           365 226 
 PRA  HZ EP        5 5 14.91                             106    -0.7 6  396 211 
 PRA  HN ES   1    5 5 58.13                             106     0.3 4  396 211 
 PRA  HZ I         5 6  0.31        63.5 0.33                           396 211 
                                                                                
