 2016 10 3 0822 10.7 L   6.816 -73.158141.9  RSN 15 0.3 2.2LRSN                1
 GAP=134        0.82       2.3     3.1  4.6 -0.1705E+01  0.5207E+01  0.7929E-01E
 Epicentro: LOS SANTOS - SANTANDER                                             3
 ACTION:UPD 16-11-09 19:15 OP:rebc STATUS:               ID:20161003082210 L   I
 OLDACT:UP  16-10-03 17:41 OP:dnl  STATUS:               ID:20161003081743     3
 OLDACT:UP  16-10-03 17:41 OP:dnl  STATUS:               ID:20161003081743     3
 OLDACT:UP  16-10-03 17:41 OP:dnl  STATUS:               ID:20161003081743     3
 OLDACT:REG 16-10-03 15:39 OP:dani STATUS:               ID:20161003081743     3
 2016-10-03-0818-00M.COL___363                                                 6
 STAT SP IPHASW D HRMM SECON CODA AMPLIT PERI AZIMU VELO AIN AR TRES W  DIS CAZ7
 BAR2 EZ EP        822 29.89                             170    0.0110 24.8 186 
 BAR2 EZ ES        822 44.54                             170   -0.3210 24.8 186 
 BAR2 EZ I         822 47.24        31.7 0.22            167           24.8 186 
 BRR  HZ EP        822 31.73                             152    0.4310 69.2 298 
 BRR  HE ES   4    822 48.80                             152    1.41 0 69.2 298 
 BRR  HZ I         822 49.44        22.2 0.14            151           69.2 298 
 PAM  EZ EP        822 32.81                             150    0.3510 77.0  41 
 PAM  EN ES        822 49.85                             150    0.4010 77.0  41 
 PAM  EZ I         822 52.14        22.7 0.64            156           77.0  41 
 RUS  HZ EP        822 33.98                             142   -0.2110  102 175 
 RUS  HN ES        822 52.63                             142    0.1010  102 175 
 RUS  HZ I         822 53.80        17.6 0.42            143            102 175 
 PTB  HZ EP        822 36.52                             131   -0.73 9  147 258 
 PTB  HN ES        822 57.58                             131   -0.39 9  147 258 
 PTB  HZ I         823  1.16        19.5 0.12            131            147 258 
 OCA  HZ EP        822 38.08                             129   -0.44 9  158 354 
 OCA  HN ES        822 59.99                             129   -0.24 9  158 354 
 OCA  HZ I         823  2.98        41.0 0.26            132            158 354 
 SPBC HZ EP        822 38.90                             128   -0.04 9  164 218 
 SPBC HE ES        823  0.83                             128   -0.14 9  164 218 
 SPBC HZ I         823  8.52        25.3 0.18            128            164 218 
 ZAR  HZ EP        822 42.44                             122   -0.24 9  202 292 
 ZAR  HE ES        823  8.17                             122    0.53 9  202 292 
 ZAR  HZ I         823 14.40        13.9 0.24            122            202 292 
 NOR  HZ EP        822 46.54                             118    0.36 8  235 234 
 NOR  HE ES        823 14.28                             118    0.41 8  235 234 
 NOR  HZ I         823 16.41        13.5 0.20            118            235 234 
 CHI  HZ EP        822 48.36                             116    0.05 8  250 195 
 CHI  HN ES        823 17.45                             116   -0.22 8  250 195 
 CHI  HZ I         823 26.19         6.2 0.36            117            250 195 
 ROSC BZ EP   9    822 50.25                             116    1.57 0  254 211 
 ROSC BN ES        823 19.96                             116    0.07 8  254 211 
 ROSC BZ I         823 26.63        13.5 0.40            117            254 211 
 GUY2CHZ EP   4    822 55.53                             112    1.43 0  301 234 
 GUY2CHN ES   4    823 31.57                             112    3.60 0  301 234 
 GUY2CHZ I         823 36.27         8.3 0.28                           301 234 
 CBOC HZ EP        822 57.76                             109    0.41 7  333 252 
 CBOC HN ES        823 33.83                             109    0.08 7  333 252 
 CBOC HZ I         823 45.67         2.9 0.68            110            333 252 
 PRA  HZ EP   2    823  3.65                             106   -0.52 3  393 209 
 PRA  HN ES        823 46.37                             106    0.48 6  393 209 
 PRA  HZ I         823 52.80         7.3 0.42            107            393 209 
 SJC  HZ EP   4    823  4.14                             105   -1.72 0  407 327 
 SJC  HN ES   4    823 45.33                             105   -3.57 0  407 327 
 SJC  HZ I         823 48.73         3.4 0.30            107            407 327 
                                                                                
