 2016 10 3 0211 15.1 L   6.735 -73.198155.4  RSN  5 0.3 1.3LRSN                1
 GAP=226        0.83       6.4     6.2  7.1  0.1735E+02  0.2934E+01  0.4922E+01E
 Epicentro: VILLANUEVA - SANTANDER                                             3
 ACTION:UPD 16-11-09 19:15 OP:rebc STATUS:               ID:20161003021115 L   I
 OLDACT:REG 16-10-03 14:53 OP:dani STATUS:               ID:20161003020746     3
 2016-10-03-0208-00M.COL___372                                                 6
 STAT SP IPHASW D HRMM SECON CODA AMPLIT PERI AZIMU VELO AIN AR TRES W  DIS CAZ7
 BAR2 EZ EP        211 35.29                             174   -0.4910 15.8 174 
 BRR  HZ EP        211 37.12                             154   -0.1310 70.1 306 
 BRR  HN ES        211 54.72                             154    0.2010 70.1 306 
 BRR  HZ I         211 59.84         4.8 0.15            152           70.1 306 
 RUS  HZ EP        211 39.96                             147    0.5910 94.0 172 
 RUS  HN ES        211 58.15                             147   -0.1510 94.0 172 
 RUS  HZ I         211 59.08         2.3 0.21            151           94.0 172 
 PTB  HZ EP        211 42.49                             136    0.22 9  141 261 
 PTB  HN ES        212  3.39                             136   -0.07 9  141 261 
 PTB  HZ I         212 10.49         2.9 0.22            135            141 261 
 GUY2CHZ EP        211 57.92                             115   -0.27 7  292 235 
 GUY2CHZ I         212 40.25         1.1 0.27                           292 235 
                                                                                
