 2013  1 3 0639 52.6 L   6.784 -73.184138.3  RSN  5 0.4 1.2LRSN                1
 GAP=232        1.04       8.1     7.9  8.5  0.4209E+02  0.1667E+02  0.6106E+01E
 Epicentro: LOS SANTOS - SANTANDER                                             3
 ACTION:UPD 13-02-15 09:11 OP:ep   STATUS:               ID:20130103063952 L   I
 2013-01-03-0639-40M.COL___184                                                 6
 STAT SP IPHASW D HRMM SECON CODA AMPLIT PERI AZIMU VELO AIN AR TRES W  DIS CAZ7
 BAR2 SZ ES        640 25.21                             171   -0.6510 21.2 180 
 BAR2 SZ I         640 27.04         4.7 0.32            171           21.2 180 
 BRR  HZ EP        640 13.25                             152    0.4810 68.4 302 
 BRR  HN ES        640 28.75                             152    0.2310 68.4 302 
 BRR  HN I         640 33.82         4.2 0.18            153           68.4 302 
 RUS  HZ EP        640 15.41                             143   -0.1010 99.2 174 
 RUS  HN ES        640 33.87                             143    0.4810 99.2 174 
 RUS  HN I         640 35.37         2.8 0.38            146           99.2 174 
 PTB  HZ EP        640 17.98                             131   -0.56 9  143 259 
 PTB  HN ES        640 38.84                             131    0.05 9  143 259 
 PTB  HN I         640 41.91         1.9 0.22            133            143 259 
 ZAR  HN ES        640 48.90                             121    0.00 9  201 293 
                                                                                
