 2016  2 3 0342 26.4 L   6.813 -73.125130.0  RSN  5 0.3 1.4LRSN                1
 GAP=203        0.68       3.3     4.2 10.6  0.9581E+00  0.5424E+01 -0.1742E+02E
 Epicentro: LOS SANTOS - SANTANDER                                             3
 ACTION:UPD 16-03-04 21:22 OP:rebc STATUS:               ID:20160203034226 L   I
 OLDACT:REG 16-02-03 12:38 OP:dnl  STATUS:               ID:20160203033750     3
 2016-02-03-0337-50M.COL___307                                                 6
 STAT SP IPHASW D HRMM SECON CODA AMPLIT PERI AZIMU VELO AIN AR TRES W  DIS CAZ7
 RUS  HZ EP        342 49.23                             139    0.5010  102 177 
 RUS  HE ES        343  5.85                             139   -0.3010  102 177 
 PTB  HZ EP   2    342 52.26                             127   -0.11 5  150 258 
 PTB  HN ES        343 12.70                             127    0.07 9  150 258 
 PTB  HZ I         343 15.48         2.9 0.16            126            150 258 
 SPBC HZ EP   2    342 53.21                             124   -0.78 5  166 219 
 SPBC HN ES        343 15.45                             124   -0.07 9  166 219 
 SPBC HZ I         343 23.71         3.9 0.19            123            166 219 
 NOR  HN ES        343 29.13                             114    0.14 8  237 235 
 NOR  HZ I         343 30.97         2.2 0.11            114            237 235 
 SML  HZ EP   2    343  1.62                             113   -0.53 4  243 335 
 SML  HE ES        343 30.01                             113   -0.03 8  243 335 
                                                                                
