 2016 10 3 0550 20.0 L   6.727 -73.193146.3  RSN  4 0.1 1.2LRSN                1
 GAP=177        0.35       2.2     2.6  3.4  0.2057E+01 -0.2288E+01 -0.2487E+01E
 Epicentro: VILLANUEVA - SANTANDER                                             3
 ACTION:UPD 16-11-09 19:15 OP:rebc STATUS:               ID:20161003055020 L   I
 OLDACT:DUP 16-10-03 18:43 OP:lv   STATUS:               ID:20161003054744d    3
 2016-10-03-0548-00M.COL___363                                                 6
 STAT SP IPHASW D HRMM SECON CODA AMPLIT PERI AZIMU VELO AIN AR TRES W  DIS CAZ7
 BRR  HZ EP        550 41.35                             153    0.1610 71.1 306 
 BRR  HE ES        550 57.75                             153    0.0210 71.1 306 
 RUS  HZ EP        550 43.34                             146    0.0710 93.1 172 
 RUS  HE ES        551  1.36                             146   -0.0710 93.1 172 
 PTB  HZ EP        550 46.38                             133   -0.03 9  141 262 
 PTB  HN ES        551  6.98                             133   -0.05 9  141 262 
 PTB  HZ I         551  9.29         1.5 0.26            134            141 262 
 OCA  HZ EP        550 48.91                             128   -0.14 9  168 355 
 OCA  HN ES   4    551  9.78                             128   -1.94 0  168 355 
 OCA  HZ I         551 14.54         2.7 0.22            128            168 355 
                                                                                
