 2012  6 3 0010 11.0 L   6.828 -73.173145.6  RSN  6 0.4 1.9LRSN                1
 GAP=132        0.71       4.2     4.4  7.9  0.2575E+00  0.4322E+01 -0.1341E+02E
 Epicentro: LOS SANTOS - SANTANDER                                             3
 ACTION:UPD 12-08-06 17:46 OP:ep   STATUS:               ID:20120603001010 L   I
 2012-06-03-0010-00M.COL___201                                                 6
 STAT SP IPHASW D HRMM SECON CODA AMPLIT PERI AZIMU VELO AIN AR TRES W  DIS CAZ7
 BAR2 SZ EP        010 30.69                             169    0.0410 26.1 182 
 BAR2 SZ ES   1    010 46.28                             169    0.29 7 26.1 182 
 BAR2 SZ I         010 47.05        20.2 0.22            169           26.1 182 
 PAM  SZ EP        010 33.49                             151    0.3410 77.0  43 
 RUS  HZ EP   2    010 34.79                             143   -0.17 5  104 175 
 RUS  HN ES   1    010 53.45                             143   -0.21 7  104 175 
 RUS  HZ I         010 55.27        10.7 0.41            145            104 175 
 PTB  HZ EP   1    010 37.44                             132   -0.28 7  146 257 
 PTB  HN ES   1    010 58.12                             132   -0.47 7  146 257 
 PTB  HZ I         011  1.21         7.4 0.15            131            146 257 
 OCA  HZ EP   1    010 38.68                             130   -0.27 7  157 354 
 OCA  HE ES   1    011  0.23                             130   -0.54 7  157 354 
 ZAR  HZ EP   1    010 43.24                             123    0.24 6  200 292 
 ZAR  HN ES   1    011  8.64                             123    0.65 6  200 292 
 ZAR  HZ I         011 15.52         9.0 0.35            123            200 292 
                                                                                
