 2017  8 3 0521 57.6 L   6.816 -73.041149.1  RSN 13 0.5 1.7LRSN                1
 GAP=227        1.17       5.2     6.8  6.6  0.4596E+01  0.7363E+01  0.6399E+01E
 Epicentro: LOS SANTOS - SANTANDER                                             3
 ACTION:UPD 17-09-04 20:15 OP:rebc STATUS:               ID:20170803052157 L   I
 OLDACT:UP  17-08-03 18:34 OP:edw  STATUS:               ID:20170803051736     3
 OLDACT:REG 17-08-03 14:55 OP:osc  STATUS:               ID:20170803051736     3
 2017-08-03-0518-00M.COL___398                                                 6
 STAT SP IPHASW D HRMM SECON CODA AMPLIT PERI AZIMU VELO AIN AR TRES W  DIS CAZ7
 BAR2 EZ EP     C  522 17.98                             169    0.2010 29.3 212 
 BAR2 EZ ES        522 33.42                             169   -0.0910 29.3 212 
 BAR2 EZ I         522 34.35         5.6 0.18            166           29.3 212 
 BRR  HZ EP        522 20.00                             150    0.3210 80.8 294 
 BRR  HN ES        522 37.49                             150    0.5910 80.8 294 
 BRR  HZ I         522 40.78         7.3 0.14            150           80.8 294 
 RUS  HZ EP        522 22.42                             144    0.6110  102 183 
 RUS  HN ES        522 39.73                             144   -0.9610  102 183 
 RUS  HZ I         522 42.00         5.4 0.24            143            102 183 
 PTB  HZ EP   2    522 25.27                             130   -0.65 5  159 259 
 PTB  HN ES   4    522 45.42                             130   -2.58 0  159 259 
 PTB  HZ I         522 48.42         4.2 0.38            130            159 259 
 SPBC HZ EP        522 26.85                             128   -0.36 9  172 222 
 SPBC HN ES        522 50.57                             128    0.28 9  172 222 
 SPBC HZ I         522 54.91         8.0 0.24            128            172 222 
 YPLC HN ES   4    522 52.03                             128    1.57 0  173 155 
 ZAR  HZ EP        522 30.64                             122   -0.68 8  214 291 
 ZAR  HN ES   4    522 56.19                             122   -1.42 0  214 291 
 ZAR  HZ I         523  3.04         5.6 0.40            122            214 291 
 NOR  HZ EP        522 34.17                             118   -0.49 8  245 236 
 NOR  HN ES        523  2.83                             118   -0.73 8  245 236 
 NOR  HZ I         523  7.81         4.2 0.34            118            245 236 
 CHI  HZ EP        522 36.41                             117    0.37 8  254 198 
 CHI  HN ES        523  6.72                             117    0.71 8  254 198 
 HEL  HN ES   2    523 11.72                             114   -0.07 4  284 256 
 PTGC HZ EP        522 40.95                             112   -0.41 7  306 161 
 PTGC HN ES   4    523 14.58                             112   -0.90 0  306 161 
 PTGC HZ I         523 25.40         3.7 0.36            113            306 161 
 GUY2CHZ EP   4    522 43.81                             112    1.25 0  312 236 
 GUY2CHN ES   4    523 20.31                             112    2.69 0  312 236 
 GUY2CHZ I         523 24.95         2.6 0.48                           312 236 
 CBOC HZ EP        522 46.44                             110    0.45 7  345 252 
 CBOC HN ES   4    523 22.71                             110   -1.01 0  345 252 
 CBOC HZ I         523 23.54         0.9 0.24            110            345 252 
 PRA  HZ EP   2    522 52.03                             107   -0.08 3  399 211 
 PRA  HN ES        523 35.06                             107    0.44 6  399 211 
 PRA  HZ I         523 39.79         1.5 0.26            107            399 211 
 SJC  HZ EP   4    522 52.22                             106   -1.65 0  414 325 
 SJC  HN ES   4    523 30.41                             106   -7.33 0  414 325 
                                                                                
