 2010  9 3 0503 49.3 L   6.803 -73.046142.5  RSN 13 0.4 2.4LRSN                1
 GAP=133        0.98       3.2     6.4  5.9 -0.8218E+01  0.1497E+01  0.2083E+01E
 Epicentro: LOS SANTOS - SANTANDER                                             3
 ACTION:UP  11-02-18 10:59 OP:tino STATUS:               ID:20100903050349 L   I
 2010-09-03-0500-01S.COL___120                                                 6
 STAT SP IPHASW D HRMM SECON CODA AMPLIT PERI AZIMU VELO SNR AR TRES W  DIS CAZ7
 BAR2 SZ EP        5 4  8.59                             168    -0.110   28 213 
 BAR2 SZ ES   1    5 4 23.43                             168    -0.3 7   28 213 
 BAR2 SZ I         5 4 26.16        36.1 0.26                            28 213 
 BRR  HZ IP     C  5 4 10.39                             149    -0.310   81 295 
 BRR  HN ES        5 4 27.41                             149     0.010   81 295 
 BRR  HZ I         5 4 31.13        46.6 0.16                            81 295 
 RUS  HZ EP        5 4 12.73                             143     0.010  101 182 
 RUS  HN ES        5 4 30.83                             143    -0.210  101 182 
 RUS  HZ I         5 4 33.14        37.9 0.21                           101 182 
 GUE  SZ EP   1    5 4 14.40                             139     0.8 7  114   7 
 GRA  SZ EP        5 4 14.21                             137     0.210  123  13 
 GRA  SZ ES        5 4 33.72                             137     0.510  123  13 
 GRA  SZ I         5 4 35.03        39.8 0.36                           123  13 
 OCA  SZ EP        5 4 16.96                             128    -0.5 9  162 349 
 OCA  SZ ES   1    5 4 39.09                             128    -0.4 7  162 349 
 OCA  SZ I         5 4 43.07        36.2 0.16                           162 349 
 CHI  HZ EP   2    5 4 27.55                             116     0.3 4  252 198 
 CHI  HZ I         5 4 29.66         9.1 0.24                           252 198 
 CHI  HN ES   2    5 4 56.96                             116     0.2 4  252 198 
 ROSC BZ EP   1    5 4 28.29                             115     0.4 6  259 213 
 ROSC BE ES   1    5 4 58.63                             115     0.6 6  259 213 
 ROSC BZ I         5 5  5.80        16.1 0.31                           259 213 
 HEL  HZ EP   1    5 4 30.99                             113     0.4 6  283 256 
 HEL  HZ I         5 5  8.39        18.7 0.28                           283 256 
 RREF HZ EP   1    5 4 35.70                             110    -0.6 5  330 231 
 RREF HN ES   1    5 5 13.42                             110     0.5 5  330 231 
 RREF HZ I         5 5 20.72        12.7 0.25                           330 231 
 SDV  BZ EP   1    5 4 37.77                             108    -0.5 5  352  49 
 TOL  SZ EP   1    5 4 39.05                             108     0.7 5  352 226 
 SDV  BZ I         5 5 19.99         5.8 0.72                           352  49 
 PRA  HZ EP   1    5 4 42.58                             106    -0.8 4  398 211 
 PRA  HE ES   1    5 5 25.00                             106    -0.6 4  398 211 
 PRA  HZ I         5 5 31.16        13.7 0.20                           398 211 
                                                                                
