 2015 10 3 0925 29.1 L   6.794 -73.132144.2  RSN  7 0.5 1.5LRSN                1
 GAP=138        1.22       5.1     5.2  7.8 -0.7908E+00  0.1058E+02  0.5485E+00E
 Epicentro: LOS SANTOS - SANTANDER                                             3
 ACTION:UPD 15-12-22 20:37 OP:cam  STATUS:               ID:20151003092529 L   I
 OLDACT:DUP 15-10-03 19:56 OP:stll STATUS:               ID:20151003091748d    3
 OLDACT:REG 15-10-03 13:44 OP:stll STATUS:               ID:20151003091746     3
 2015-10-03-0917-46M.COL___349                                                 6
 STAT SP IPHASW D HRMM SECON CODA AMPLIT PERI AZIMU VELO AIN AR TRES W  DIS CAZ7
 BAR2 EZ EP        925 48.36                             170   -0.1410 23.0 194 
 BAR2 EZ ES        926  3.18                             170   -0.4810 23.0 194 
 BAR2 EZ I         926  4.34         6.9 0.16            169           23.0 194 
 BRR  HZ EP        925 50.32                             152    0.1910 72.8 298 
 BRR  HN ES        926  7.20                             152    0.6310 72.8 298 
 PAM  EZ EP        925 51.16                             151    0.0810 77.0  38 
 PAM  EZ I         925 51.44        10.3 0.24            153           77.0  38 
 PAM  EN ES        926  8.30                             151    0.0410 77.0  38 
 RUS  HZ EP        925 52.36                             144   -0.2510 99.8 177 
 RUS  HN ES        926 11.02                             144    0.0510 99.8 177 
 RUS  HZ I         926 12.25         2.5 0.44            144           99.8 177 
 PTB  HZ EP        925 55.54                             131   -0.48 9  149 259 
 PTB  HN ES        926 16.02                             131   -1.03 9  149 259 
 PTB  HZ I         926 19.76         3.5 0.16            130            149 259 
 SPBC HZ EP        925 57.57                             129    0.09 9  164 220 
 SPBC HE ES        926 20.69                             129    1.04 9  164 220 
 SPBC HZ I         926 23.16         5.0 0.20            128            164 220 
 ZAR  HZ EP        926  1.89                             122    0.32 8  206 292 
 ZAR  HN ES        926 26.96                             122    0.03 8  206 292 
 ZAR  HZ I         926 33.39         3.5 0.42            121            206 292 
                                                                                
