 2014  8 3 0911 56.5 L   6.789 -73.138146.0  RSN 11 0.5 1.8LRSN                1
 GAP=138        1.27       4.5     4.7  6.8 -0.2059E+01  0.1031E+02  0.5533E+01E
 Epicentro: LOS SANTOS - SANTANDER                                             3
 ACTION:UPD 14-09-15 21:46 OP:nd   STATUS:               ID:20140803091156 L   I
 OLDACT:REG 14-08-03 13:21 OP:carl STATUS:               ID:20140803090806     3
 2014-08-03-0908-06M.COL___230                                                 6
 STAT SP IPHASW D HRMM SECON CODA AMPLIT PERI AZIMU VELO AIN AR TRES W  DIS CAZ7
 BAR2 SZ EP        912 16.27                             171    0.1510 22.3 193 
 BAR2 SZ ES        912 31.09                             171   -0.3410 22.3 193 
 BAR2 SZ I         912 32.53        17.1 0.20            169           22.3 193 
 BRR  HZ EP        912 18.06                             152    0.3310 72.6 299 
 BRR  HN ES        912 35.44                             152    1.1410 72.6 299 
 BRR  HZ I         912 37.76        10.3 0.42            151           72.6 299 
 PAM  SZ EP        912 18.01                             151   -0.7310 77.7  38 
 PAM  SN ES        912 36.31                             151    0.2110 77.7  38 
 PAM  SZ I         912 38.41        10.1 0.52            155           77.7  38 
 RUS  HZ EP        912 19.65                             144   -0.5110 99.3 177 
 RUS  HN ES        912 39.02                             144    0.3810 99.3 177 
 RUS  HZ I         912 40.38         9.7 0.26            146           99.3 177 
 PTB  HZ EP        912 22.83                             132   -0.69 9  148 259 
 PTB  HN ES        912 44.15                             132   -0.47 9  148 259 
 PTB  HZ I         912 45.94        10.4 0.14            132            148 259 
 SPBC HZ EP        912 25.20                             129    0.24 9  163 219 
 SPBC HN ES        912 46.71                             129   -0.47 9  163 219 
 SPBC HZ I         912 53.29        10.0 0.38            130            163 219 
 ZAR  HZ EP        912 28.52                             122   -0.55 8  205 292 
 ZAR  HN ES        912 54.16                             122   -0.33 8  205 292 
 ZAR  HZ I         913  0.04         8.0 0.28            123            205 292 
 NOR  HZ EP        912 33.05                             119    0.82 8  235 235 
 NOR  HN ES        912 59.70                             119   -0.41 8  235 235 
 NOR  HZ I         913  4.83         5.0 0.22            120            235 235 
 CHI  HZ EP        912 34.07                             117   -0.02 8  248 195 
 CHI  HN ES        913  3.66                             117    0.23 8  248 195 
 CHI  HZ I         913  8.01         4.3 0.40            119            248 195 
 HEL  HZ EP        912 37.39                             115    0.62 8  273 256 
 HEL  HN ES        913  8.23                             115    0.04 8  273 256 
 HEL  HZ I         913 15.21         3.4 0.38            116            273 256 
 GUY2CHZ EP        912 40.86                             112    0.76 7  301 235 
 GUY2CHN ES        913 14.23                             112    0.10 7  301 235 
 GUY2CHZ I         913 22.11         3.1 0.28                           301 235 
                                                                                
