 2012 12 3 0817 53.9 L   6.649 -73.337127.6  RSN  6 0.4 1.4LRSN                1
 GAP=103        0.80       4.4     5.1  8.0  0.3513E+01  0.1678E+02 -0.2868E+01E
 Epicentro: GALAN - SANTANDER                                                  3
 ACTION:UPD 13-01-04 14:25 OP:ep   STATUS:               ID:20121203081753 L   I
 2012-12-03-0810-00M.COL___236                                                 6
 STAT SP IPHASW D HRMM SECON CODA AMPLIT PERI AZIMU VELO AIN AR TRES W  DIS CAZ7
 BAR2 SZ EP   1    818 11.12                             171   -0.08 7 18.3 110 
 BAR2 SZ ES   1    818 24.93                             171    0.21 7 18.3 110 
 BAR2 SZ I         818 28.53         8.8 0.40                          18.3 110 
 GIR2 SZ EP   1    818 11.99                             157   -0.12 7 50.1  19 
 GIR2 SZ ES   1    818 26.70                             157    0.36 7 50.1  19 
 RUS  HZ EP   1    818 14.98                             143    0.05 7 88.3 161 
 RUS  HN ES   1    818 31.36                             143   -0.01 7 88.3 161 
 RUS  HZ I         818 32.93         2.7 0.26                          88.3 161 
 PTB  HZ EP   1    818 16.89                             133   -0.33 7  124 264 
 PTB  HN ES   1    818 34.82                             133   -0.62 7  124 264 
 PTB  HZ I         818 38.16         2.5 0.26                           124 264 
 OCA  HE ES   1    818 44.00                             122   -0.65 7  176   1 
 ZAR  HZ EP   1    818 24.71                             120    0.80 7  192 299 
 ZAR  HN ES   1    818 47.85                             120    0.50 7  192 299 
 ZAR  HZ I         818 53.00         4.8 0.34                           192 299 
                                                                                
