 2015  6 3 0018 40.1 L   6.761 -73.183135.8  RSN  4 0.5 1.4LRSN                1
 GAP=298        1.09      11.1    10.3 10.0 -0.4889E+02  0.5075E+02 -0.1698E+02E
 Epicentro: LOS SANTOS - SANTANDER                                             3
 ACTION:UPD 15-09-10 22:09 OP:cam  STATUS:               ID:20150603001840 L   I
 OLDACT:REG 15-06-03 12:02 OP:ak   STATUS:               ID:20150603001749     3
 2015-06-03-0017-49M.COL___297                                                 6
 STAT SP IPHASW D HRMM SECON CODA AMPLIT PERI AZIMU VELO AIN AR TRES W  DIS CAZ7
 BAR2 EZ IP     D  018 58.43                             171    0.0310 18.7 180 
 BAR2 EZ ES        019 12.71                             171    0.0010 18.7 180 
 BAR2 EZ I         019 14.92         7.8 0.20            164           18.7 180 
 RUS  HZ EP        019  2.11                             142   -0.4410 96.7 173 
 RUS  HN ES        019 20.68                             142    0.5810 96.7 173 
 RUS  HZ I         019 24.50         2.0 0.13            140           96.7 173 
 SPBC HZ EP        019  7.40                             128    0.17 9  157 219 
 SPBC HE ES        019 27.62                             128   -0.81 9  157 219 
 SPBC HZ I         019 35.12         5.0 0.11            127            157 219 
 GUY2CHZ EP   1    019 23.34                             111    0.79 5  295 235 
 GUY2CHE ES   1    019 56.17                             111    0.47 5  295 235 
 GUY2CHZ I         020  5.06         1.4 0.70                           295 235 
                                                                                
