 2017  9 3 0857 54.6 L   6.772 -73.114143.6  RSN  9 0.5 2.1LRSN                1
 GAP=160        0.88       4.4     4.6  5.6 -0.6962E+01  0.5783E+01  0.1070E+02E
 Epicentro: LOS SANTOS - SANTANDER                                             3
 ACTION:UPD 17-10-05 19:08 OP:rebc STATUS:               ID:20170903085754 L   I
 OLDACT:UP  17-09-03 17:28 OP:dani STATUS:               ID:20170903084738     3
 OLDACT:REG 17-09-03 13:33 OP:dani STATUS:               ID:20170903084738     3
 2017-09-03-0848-00M.COL___393                                                 6
 STAT SP IPHASW D HRMM SECON CODA AMPLIT PERI AZIMU VELO AIN AR TRES W  DIS CAZ7
 BAR2 EZ EP     D  858 13.66                             171   -0.2310 21.3 201 
 BAR2 EZ ES        858 29.05                             171    0.0910 21.3 201 
 BAR2 EZ I         858 29.93        30.2 0.68            168           21.3 201 
 BRR  HZ EP        858 15.52                             151   -0.2210 75.7 299 
 BRR  HN ES        858 32.61                             151    0.3510 75.7 299 
 BRR  HZ I         858 33.38        13.2 0.30            151           75.7 299 
 PAM  EZ EP        858 16.51                             150   -0.0510 77.6  36 
 PAM  EN ES        858 33.59                             150   -0.1310 77.6  36 
 PAM  EZ I         858 36.94        13.6 0.52            155           77.6  36 
 NOR  HZ EP        858 29.85                             118   -0.44 8  236 236 
 NOR  HE ES        858 57.70                             118   -0.45 8  236 236 
 NOR  HZ I         859  6.99         7.5 0.38            119            236 236 
 CHI  HZ EP        858 32.29                             117    0.37 8  247 196 
 CHI  HN ES        859  1.34                             117    0.28 8  247 196 
 CHI  HZ I         859  5.23         8.1 0.47            118            247 196 
 HEL  HZ EP        858 35.86                             114    0.90 8  275 257 
 HEL  HN ES        859  6.10                             114   -0.37 8  275 257 
 HEL  HZ I         859 11.75         7.0 0.32            115            275 257 
 GUY2CHZ EP        858 38.91                             112    0.71 7  302 236 
 GUY2CHN ES   3    859 14.43                             112    2.19 2  302 236 
 GUY2CHZ I         859 19.88         7.3 0.34                           302 236 
 PRA  HZ EP        858 47.76                             106   -0.14 6  391 210 
 PRA  HN ES        859 29.06                             106   -0.45 6  391 210 
 PRA  HZ I         859 36.10         7.5 0.19            107            391 210 
 PAL  HZ EP     D  858 49.35                             105   -0.47 6  407 240 
                                                                                
