 2010  8 3 0707 59.6 L   6.812 -73.056135.9  RSN  6 0.2 1.5LRSN                1
 GAP=169        0.55       3.8     6.2  5.7 -0.1095E+01 -0.1975E+01 -0.6408E+01E
 Epicentro: LOS SANTOS - SANTANDER                                             3
 ACTION:UP  10-09-07 10:51 OP:vdl  STATUS:               ID:20100803070759 L   I
 2010-08-03-0705-44S.COL___123                                                 6
 STAT SP IPHASW D HRMM SECON CODA AMPLIT PERI AZIMU VELO SNR AR TRES W  DIS CAZ7
 BAR2 SZ EP   1    7 8 18.14                             168     0.0 7   28 210 
 BAR2 SZ ES   1    7 8 32.53                             168    -0.1 7   28 210 
 BAR2 SZ I         7 8 34.19        13.2 0.30                            28 210 
 BRR  HZ EP        7 8 20.08                             148    -0.110   80 294 
 BRR  HN ES   2    7 8 36.39                             148     0.1 5   80 294 
 BRR  HZ I         7 8 37.53         8.5 0.10                            80 294 
 RUS  HZ EP        7 8 22.27                             141    -0.210  102 182 
 RUS  HE ES   2    7 8 40.76                             141     0.5 5  102 182 
 RUS  HZ I         7 8 42.30         3.7 0.36                           102 182 
 GUE  SZ EP        7 8 23.09                             138    -0.110  114   7 
 GUE  SZ I         7 8 23.99         4.1 0.10                           114   7 
 GRA  SZ EP   1    7 8 23.99                             135     0.4 7  122  13 
 GRA  SZ I         7 8 25.31         5.7 0.14                           122  13 
 HEL  HZ EP   1    7 8 40.62                             112     0.2 6  282 256 
 HEL  HZ I         7 9 17.34         1.8 0.53                           282 256 
                                                                                
