 2015  3 3 0224 38.3 L   6.781 -73.158141.5  RSN  9 0.4 1.6LRSN                1
 GAP= 99        0.99       4.2     4.0  6.3 -0.5116E+01 -0.4457E+00  0.7108E+01E
 Epicentro: LOS SANTOS - SANTANDER                                             3
 ACTION:UPD 15-04-30 16:22 OP:nd   STATUS:               ID:20150303022438 L   I
 OLDACT:DUP 15-03-03 15:47 OP:spq  STATUS:               ID:20150303021748d    3
 2015-03-03-0217-47M.COL___284                                                 6
 STAT SP IPHASW D HRMM SECON CODA AMPLIT PERI AZIMU VELO AIN AR TRES W  DIS CAZ7
 BAR2 EZ ES   1    225 11.78                             171   -0.44 7 21.1 187 
 BAR2 EZ I         225 12.76        10.1 0.34            169           21.1 187 
 BRR  HZ EP        224 59.06                             152    0.1010 71.1 300 
 BRR  HE ES        225 15.78                             152    0.6910 71.1 300 
 BRR  HZ I         225 16.28         7.9 0.12            153           71.1 300 
 PAM  SZ EP     D  225  0.20                             149    0.0110 79.8  39 
 PAM  SE ES        225 17.08                             149   -0.2010 79.8  39 
 PAM  SZ I         225 18.94         8.8 0.58            152           79.8  39 
 RUS  HZ EP        225  1.87                             143    0.4010 98.6 175 
 RUS  HN ES        225 19.49                             143   -0.0710 98.6 175 
 RUS  HZ I         225 21.35         5.8 0.44            143           98.6 175 
 PTB  HZ EP        225  3.96                             131   -0.78 9  146 260 
 PTB  HN ES        225 24.81                             131   -0.58 9  146 260 
 PTB  HZ I         225 27.89         3.6 0.24            132            146 260 
 TAM  HZ EP        225  5.63                             129   -0.06 9  156 104 
 SPBC HZ EP        225  6.10                             129   -0.12 9  161 219 
 SPBC HE ES        225 28.55                             129    0.54 9  161 219 
 SPBC HZ I         225 30.42         5.9 0.20            129            161 219 
 NOR  HZ EP   1    225 13.84                             118    0.32 6  232 235 
 NOR  HN ES        225 41.02                             118    0.02 8  232 235 
 NOR  HZ I         225 45.09         2.7 0.28            118            232 235 
 CHI  HZ EP   1    225 16.07                             116    0.58 6  246 195 
 CHI  HE ES   1    225 44.12                             116   -0.39 6  246 195 
 CHI  HZ I         225 48.22         1.3 0.30            117            246 195 
                                                                                
