 2016  2 3 0519 51.2 L   6.851 -73.262134.6  RSN  7 0.4 1.4LRSN                1
 GAP=114        0.93       4.2     4.7  7.0 -0.7098E+01  0.1122E+02 -0.3466E+01E
 Epicentro: ZAPATOCA - SANTANDER                                               3
 ACTION:UPD 16-03-04 21:22 OP:rebc STATUS:               ID:20160203051951 L   I
 OLDACT:DUP 16-02-03 16:06 OP:dnl  STATUS:               ID:20160203051749d    3
 2016-02-03-0517-48M.COL___310                                                 6
 STAT SP IPHASW D HRMM SECON CODA AMPLIT PERI AZIMU VELO AIN AR TRES W  DIS CAZ7
 BAR2 EZ EP        520  9.92                             167    0.2510 30.0 163 
 BAR2 EZ ES        520 24.37                             167    0.3010 30.0 163 
 BAR2 EZ I         520 26.21         6.5 0.15            169           30.0 163 
 PAM  EZ EP     D  520 12.75                             147    0.1710 82.3  49 
 PAM  EE ES        520 29.17                             147   -0.0710 82.3  49 
 PAM  EZ I         520 32.01         5.0 0.45            148           82.3  49 
 RUS  HZ EP        520 13.96                             139   -0.4910  108 169 
 RUS  HE ES        520 32.06                             139   -0.5210  108 169 
 RUS  HZ I         520 33.68         4.0 0.38            141            108 169 
 PTB  HZ EP        520 16.64                             132    0.39 9  136 255 
 PTB  HE ES        520 35.27                             132   -0.50 9  136 255 
 PTB  HZ I         520 39.23         2.5 0.20            130            136 255 
 SPBC HZ EP        520 18.78                             127    0.20 9  160 214 
 SPBC HN ES        520 40.41                             127    0.49 9  160 214 
 SPBC HZ I         520 43.66         5.5 0.26            127            160 214 
 SML  HZ EP   2    520 26.57                             116    0.47 4  233 338 
 SML  HN ES   2    520 52.32                             116   -0.99 4  233 338 
 SML  HZ I         521  2.09         3.4 0.11            116            233 338 
 CHI  HZ EP   2    520 28.24                             114   -0.36 4  251 192 
 CHI  HN ES   4    520 54.73                             114   -3.03 0  251 192 
 CHI  HZ I         521  5.31         1.6 0.76            115            251 192 
                                                                                
