 2017  2 3 0918 53.0 L   6.993 -73.176146.0  RSN 10 0.3 1.7LRSN                1
 GAP=127        0.68       3.2     3.2  4.4  0.1370E+01  0.4636E+01  0.1290E+01E
 Epicentro: GIRON - SANTANDER                                                  3
 ACTION:UPD 17-05-24 15:32 OP:jn   STATUS:               ID:20170203091853 L   I
 OLDACT:UP  17-02-03 17:55 OP:e    STATUS:               ID:20170203091741     3
 OLDACT:UP  17-02-03 17:55 OP:e    STATUS:               ID:20170203091741     3
 OLDACT:REG 17-02-03 12:53 OP:dnl  STATUS:               ID:20170203091741     3
 2017-02-03-0918-00M.COL___322                                                 6
 STAT SP IPHASW D HRMM SECON CODA AMPLIT PERI AZIMU VELO AIN AR TRES W  DIS CAZ7
 BAR2 EZ IP     D  919 13.05                             162   -0.1810 44.4 181 
 BAR2 EZ ES        919 29.14                             162    0.1110 44.4 181 
 BAR2 EZ I         919 34.95         6.8 0.50            163           44.4 181 
 BRR  HZ EP   9    919 14.72                             156    1.15 0 60.5 282 
 BRR  HE ES        919 31.31                             157    0.5110 60.5 282 
 BRR  HZ I         919 35.02        15.3 0.16            156           60.5 282 
 PAM  EZ EP   2    919 14.77                             155    0.25 5 65.1  54 
 PAM  EE ES        919 31.52                             155    0.1910 65.1  54 
 PAM  EZ I         919 32.52         4.9 0.22            162           65.1  54 
 RUS  HZ EP   2    919 18.26                             139   -0.14 5  122 175 
 RUS  HN ES        919 37.92                             139   -0.3110  122 175 
 RUS  HZ I         919 40.43         2.6 0.26            142            122 175 
 PTB  HZ IP     C  919 19.88                             132   -0.29 9  150 251 
 PTB  HN ES        919 41.26                             132   -0.12 9  150 251 
 PTB  HZ I         919 44.04         6.3 0.28            134            150 251 
 ZAR  HZ EP        919 24.34                             124   -0.03 9  194 287 
 ZAR  HN ES        919 48.99                             124    0.12 9  194 287 
 ZAR  HZ I         919 55.43         7.5 0.36            127            194 287 
 NOR  HZ EP   2    919 29.77                             118   -0.06 4  245 230 
 NOR  HE ES   4    920  0.33                             118    1.74 0  245 230 
 CHI  HN EP   2    919 33.32                             116    0.47 4  269 193 
 CHI  HE ES        920  4.61                             116    0.64 8  269 193 
 CHI  HN I         920  7.30         4.7 0.70            119            269 193 
 URE  HZ EP   4    919 31.41                             115   -1.47 0  273 288 
 URE  HE ES   4    920  2.01                             115   -2.00 0  273 288 
 URE  HZ I         920  3.88         5.7 0.16            118            273 288 
 SJC  HZ EP   4    919 45.03                             107   -1.20 0  390 326 
 SJC  HN ES   4    920 22.77                             107   -5.01 0  390 326 
 SJC  HZ I         920 25.04         1.4 0.52            110            390 326 
                                                                                
