 2013  2 3 0149  8.6 L   6.755 -73.136146.0  RSN  6 0.3 1.8LRSN                1
 GAP=140        0.65       2.9     3.8  5.5 -0.1191E+01  0.2147E+01  0.4564E+01E
 Epicentro: LOS SANTOS - SANTANDER                                             3
 ACTION:UPD 13-03-12 09:30 OP:ep   STATUS:               ID:20130203014908 L   I
 2013-02-03-0144-44M.COL___181                                                 6
 STAT SP IPHASW D HRMM SECON CODA AMPLIT PERI AZIMU VELO AIN AR TRES W  DIS CAZ7
 BAR2 SZ EP        149 28.27                             172    0.0510 18.7 196 
 BAR2 SZ I         149 44.43        19.6 0.26            171           18.7 196 
 BRR  HZ IP     C  149 30.18                             151    0.1610 74.7 302 
 BRR  HN ES        149 47.10                             151    0.4110 74.7 302 
 BRR  HZ I         149 48.84        13.3 0.21            153           74.7 302 
 PAM  SZ EP        149 31.18                             150    0.1010 80.7  37 
 PAM  SZ I         149 31.60        12.7 0.44            151           80.7  37 
 PAM  SN ES        149 48.31                             150   -0.2710 80.7  37 
 RUS  HZ EP        149 32.16                             145    0.1010 95.5 177 
 RUS  HN ES        149 50.17                             145   -0.1510 95.5 177 
 RUS  HN I         149 54.11         5.0 0.17            145           95.5 177 
 PTB  HZ EP        149 35.22                             132   -0.43 9  148 261 
 PTB  HE ES   1    149 56.27                             132   -0.44 7  148 261 
 PTB  HZ I         150  0.04         6.0 0.19            133            148 261 
 CHI  HZ EP   1    149 45.98                             118    0.12 6  244 196 
 CHI  HE ES        150 15.09                             118    0.20 8  244 196 
                                                                                
