 2011 12 3 0942  8.4 L   7.187 -72.965147.0  RSN  4 0.4 1.7LRSN                1
 GAP=281        0.70       8.9    15.6  7.6  0.7825E+02 -0.4573E+02 -0.1417E+02E
 Epicentro: TONA - SANTANDER                                                   3
 ACTION:UPD 12-07-13 16:13 OP:ep   STATUS:               ID:20111203094208 L   I
 2011-12-03-0940-00M.COL___182                                                 6
 STAT SP IPHASW D HRMM SECON CODA AMPLIT PERI AZIMU VELO AIN AR TRES W  DIS CAZ7
 GIR2 SZ EP        942 28.19                             169    0.0710 27.9 245 
 GIR2 SZ ES   1    942 43.37                             169   -0.15 7 27.9 245 
 BAR2 SZ EP        942 29.98                             153    0.0310 70.0 200 
 BAR2 SZ ES   1    942 46.86                             153    0.09 7 70.0 200 
 BRR  HZ EP        942 30.03                             149   -0.3410 83.0 264 
 BRR  HZ I         942 31.31         8.2 0.12                          83.0 264 
 BRR  HE ES   2    942 48.25                             149    0.73 5 83.0 264 
 RUS  HZ EP        942 36.05                             133    0.31 9  144 185 
 RUS  HN ES   2    942 56.23                             133   -0.84 5  144 185 
                                                                                
