 2011  5 3 0049  7.5 L   6.759 -73.079142.8  RSN 14 0.3 2.8LRSN                1
 GAP=147        0.66       3.3     4.5  4.1 -0.8993E+01  0.2697E+01  0.1904E+01E
 Epicentro: LOS SANTOS - SANTANDER                                             3
 ACTION:UP  11-06-29 08:50 OP:tino STATUS:               ID:20110503004907 L   I
 2011-05-03-0047-13S.COL___133                                                 6
 STAT SP IPHASW D HRMM SECON CODA AMPLIT PERI AZIMU VELO SNR AR TRES W  DIS CAZ7
 BAR2 SZ IP        049 26.74                             171     0.010   22 212 
 BAR2 SZ ES   1    049 41.08                             171    -0.7 7   22 212 
 BAR2 SZ I         049 42.64       191.7 0.27                            22 212 
 BTL  SZ IP        049 27.10                             169     0.210   27 310 
 BTL  SZ ES   1    049 42.22                             169     0.2 7   27 310 
 PAM  SZ EP   1    049 29.62                             151     0.2 7   77  33 
 PAM  SN ES   2    049 46.54                             151     0.1 5   77  33 
 BRR  HZ IP     C  049 28.66                             149    -0.210   80 299 
 BRR  HZ I         049 29.11       218.0 0.09                            80 299 
 BRR  HN ES   1    049 45.63                             149     0.1 7   80 299 
 RUS  HZ EP   1    049 30.71                             144     0.1 7   96 180 
 RUS  HN ES   2    049 49.26                             144     0.6 5   96 180 
 RUS  HZ I         049 50.25        46.4 0.19                            96 180 
 BRI  SZ EP   1    049 31.39                             140     0.1 7  110  16 
 BRI  SZ ES   2    049 49.80                             140     0.0 5  110  16 
 BRI  SZ I         049 55.31        98.0 0.47                           110  16 
 GRA  SZ IP        049 32.69                             136     0.010  128  14 
 GRA  SZ ES   1    049 52.10                             136    -0.2 7  128  14 
 GRA  SZ I         049 53.38        95.8 0.45                           128  14 
 OCA  SZ EP   1    049 35.45                             128    -0.7 7  166 351 
 OCA  SZ ES   2    049 59.21                             128     0.8 5  166 351 
 OCA  SZ I         050  0.37        73.4 0.27                           166 351 
 NOR  SZ EP   1    049 43.20                             117    -0.3 6  238 236 
 NOR  SN ES        050 11.62                             117     0.1 8  238 236 
 HEL  HZ EP   1    049 48.24                             114     0.0 6  278 257 
 HEL  HZ I         050 27.63        23.3 0.25                           278 257 
 GUY  SZ EP   1    049 51.91                             111     0.2 5  307 237 
 GUY  SN ES   2    050 26.36                             111     0.3 4  307 237 
 GUY  SZ I         050 32.19        39.3 0.45                           307 237 
 RREF HZ EP   1    049 53.85                             110     0.0 5  325 231 
 RREF HN ES   2    050 29.47                             110    -0.5 3  325 231 
 RREF HZ I         050 35.77        24.7 0.17                           325 231 
 TOL  SZ EP   1    049 56.44                             109     0.5 5  346 226 
 PRA  HZ EP   1    050  0.67                             106    -0.2 4  392 211 
 PRA  HN ES   2    050 42.12                             106    -0.4 3  392 211 
                                                                                
