 2014  3 3 0758 40.3 L   7.128 -74.266 11.7  RSN  5 0.7 1.2LRSN                1
 GAP=141        1.73       4.9     5.2  9.6  0.2346E+01 -0.2895E+02  0.1518E+01E
 Epicentro: BARRANCABERMEJA - SANTANDER                                        3
 ACTION:UPD 14-04-09 23:14 OP:nd   STATUS:               ID:20140303075840 L   I
 OLDACT:DUP 14-03-03 14:13 OP:fm   STATUS:               ID:20140303074815d    3
 2014-03-03-0748-14M.COL___232                                                 6
 STAT SP IPHASW D HRMM SECON CODA AMPLIT PERI AZIMU VELO AIN AR TRES W  DIS CAZ7
 PTB  HZ EP        758 51.12                              97   -0.2010 68.4 198 
 PTB  HN ES        758 59.72                              97   -0.2110 68.4 198 
 PTB  HZ I         759  0.91         5.6 0.16             47           68.4 198 
 ZAR  HZ EP        758 52.64                              96    0.0810 76.8 302 
 ZAR  HN ES        759  1.91                              96   -0.2410 76.8 302 
 ZAR  HZ I         759  3.14        16.1 0.10             47           76.8 302 
 HEL  HZ EP        759  9.03                              56    1.98 9  174 233 
 HEL  HN ES        759 26.93                              56   -1.01 9  174 233 
 HEL  HZ I         759 32.70         1.9 0.30             47            174 233 
 PAM  SZ EP        759  7.17                              56   -0.11 9  175  82 
 PAM  SN ES        759 27.93                              56   -0.41 9  175  82 
 PAM  SZ I         759 29.39         3.0 0.28             47            175  82 
 RUS  HZ EP   1    759  9.20                              56    0.09 7  189 136 
 RUS  HN ES        759 31.82                              56    0.22 9  189 136 
 RUS  HZ I         759 34.21         2.1 0.32             37            189 136 
                                                                                
