 2015  3 3 0714 18.7 L   6.464 -73.733102.4  RSN  8 0.4 1.1LRSN                1
 GAP= 76        0.82       3.1     3.1  6.3 -0.3937E+00 -0.1759E+01 -0.4063E+01E
 Epicentro: SANTA HELENA DEL OPON - SANTANDER                                  3
 ACTION:UPD 15-04-30 16:22 OP:nd   STATUS:               ID:20150303071418 L   I
 OLDACT:REG 15-03-03 13:02 OP:spq  STATUS:               ID:20150303070747     3
 2015-03-03-0707-47M.COL___284                                                 6
 STAT SP IPHASW D HRMM SECON CODA AMPLIT PERI AZIMU VELO AIN AR TRES W  DIS CAZ7
 BAR2 EZ EP        714 35.55                             146    0.4910 62.5  77 
 BAR2 EZ ES   1    714 47.82                             146   -0.03 7 62.5  77 
 BAR2 EZ I         714 49.20         5.5 0.25            148           62.5  77 
 BRR  HZ EP        714 35.56                             142    0.2110 71.2   2 
 BRR  HN ES        714 48.47                             142    0.1210 71.2   2 
 BRR  HZ I         714 50.02         2.2 0.18            142           71.2   2 
 PTB  HZ EP        714 35.71                             139   -0.3810 80.5 276 
 PTB  HN ES        714 49.43                             139   -0.2510 80.5 276 
 PTB  HZ I         714 52.38         3.0 0.14            137           80.5 276 
 RUS  HZ EP        714 37.97                             134   -0.0610 95.7 131 
 RUS  HE ES   1    714 53.07                             134   -0.06 7 95.7 131 
 RUS  HZ I         714 54.51         2.5 0.20            136           95.7 131 
 SPBC HN ES   1    714 52.81                             133    0.40 7 97.3 203 
 SPBC HZ I         714 56.24         3.9 0.18            133           97.3 203 
 PAM  SZ EP   1    714 43.48                             120    0.14 7  150  50 
 PAM  SE ES        715  2.02                             120   -0.55 9  150  50 
 PAM  SZ I         715  3.18         2.5 0.18            120            150  50 
 GUY2CHZ EP   4    714 53.35                             108    1.42 0  227 233 
 GUY2CHE ES   4    715 20.85                             108    2.98 0  227 233 
 GUY2CHZ I         715 24.77         0.9 0.52                           227 233 
 SML  HZ EP        714 55.04                             105   -0.30 8  261 352 
 SML  HN ES   1    715 24.78                             105    0.84 6  261 352 
 SML  HZ I         715 32.53         0.9 0.34            105            261 352 
                                                                                
