 2011 12 3 0925 12.1 L   6.774 -73.099146.9  RSN  5 0.4 1.9LRSN                1
 GAP=144        1.00       6.6     9.8 11.6 -0.1075E+01 -0.5837E+01  0.8345E+01E
 Epicentro: LOS SANTOS - SANTANDER                                             3
 ACTION:UPD 12-07-13 16:13 OP:ep   STATUS:               ID:20111203092512 L   I
 2011-12-03-0920-00M.COL___182                                                 6
 STAT SP IPHASW D HRMM SECON CODA AMPLIT PERI AZIMU VELO AIN AR TRES W  DIS CAZ7
 BAR2 SZ EP        925 31.03                             171   -0.8510 22.2 205 
 BAR2 SZ I         925 48.35        17.3 0.22                          22.2 205 
 GIR2 SZ EP        925 31.86                             166   -0.1910 35.3 343 
 PAM  SZ EP        925 34.84                             151    0.4310 76.5  35 
 PAM  SN ES   1    925 51.68                             151   -0.12 7 76.5  35 
 BRR  HZ EP        925 33.83                             151    0.0810 77.1 299 
 BRR  HN ES   1    925 50.89                             151    0.28 7 77.1 299 
 BRR  HZ I         925 53.75        12.0 0.32                          77.1 299 
 RUS  HZ EP        925 36.13                             145    0.3510 97.5 179 
 RUS  HN ES   1    925 54.36                             145    0.14 7 97.5 179 
                                                                                
