 2010  5 3 0618 33.2 L   6.778 -73.071142.0  RSN 15 0.5 2.8LRSN                1
 GAP=148        1.02       5.2     7.6  6.4 -0.2373E+02 -0.9976E-01  0.7062E+01E
 Epicentro: LOS SANTOS - SANTANDER                                             3
 ACTION:UP  10-08-24 10:02 OP:vdl  STATUS:               ID:20100503061833 L   I
 2010-05-03-0615-46S.COL___105                                                 6
 STAT SP IPHASW D HRMM SECON CODA AMPLIT PERI AZIMU VELO SNR AR TRES W  DIS CAZ7
 BAR2 SZ IP        618 52.29                             170    -0.110   24 211 
 BAR2 SZ ES   1    619  6.48                             170    -0.8 7   24 211 
 GIR2 SZ IP        618 52.42                             165    -0.110   36 338 
 GIR2 SZ ES   1    619  7.17                             165    -0.4 7   36 338 
 BRR  HZ EP        618 54.81                             149     0.410   80 297 
 BRR  HE ES   1    619 11.66                             149     0.7 7   80 297 
 BRR  HZ I         619 14.25       164.9 0.14                            80 297 
 BRI  SZ IP        618 56.99                             141     0.310  108  16 
 BRI  SZ ES   1    619 15.71                             141     0.7 7  108  16 
 GUE  SZ EP   2    618 56.61                             139    -1.0 5  118   8 
 GRA  SZ IP        618 58.27                             136     0.210  126  14 
 GRA  SZ ES   1    619 17.68                             136     0.2 7  126  14 
 OCA  SZ IP        619  0.87                             128    -0.6 9  164 350 
 OCA  SZ ES   2    619 23.24                             128    -0.4 5  164 350 
 OCA  SZ I         619 33.49        52.5 0.22                           164 350 
 CHI  HZ EP   2    619 10.53                             116    -0.1 4  249 197 
 CHI  HN ES   2    619 39.40                             116    -0.5 4  249 197 
 CHI  HZ I         619 47.77        25.3 0.63                           249 197 
 ROSC BZ EP   1    619 12.19                             116     0.9 6  255 213 
 ROSC BN ES   2    619 41.97                             116     0.9 4  255 213 
 ROSC BZ I         619 48.58        42.9 0.63                           255 213 
 HEL  HZ EP   1    619 13.23                             113    -0.8 6  280 257 
 HEL  HN ES   2    619 45.25                             113    -0.6 4  280 257 
 HEL  HZ I         619 51.17        42.5 0.24                           280 257 
 RREF BZ EP   1    619 19.71                             110     0.0 5  327 231 
 RREF BE ES   2    619 55.62                             110    -0.4 3  327 231 
 RREF BZ I         620  1.32        31.9 0.27                           327 231 
 DBB  SZ EP   1    619 21.26                             108    -0.2 5  348 275 
 TOL  SZ EP   2    619 22.71                             108     1.0 3  348 226 
 SDV  BZ EP   1    619 22.05                             108    -0.5 5  356  49 
 PRA  HZ EP   2    619 26.75                             106     0.0 3  394 211 
 PRA  HE ES   2    620  9.21                             106     0.6 3  394 211 
 PRA  HZ I         620 13.64        25.1 0.29                           394 211 
                                                                                
