 2010  7 3 0915 47.8 L   6.821 -73.103151.9  RSN  8 0.5 1.9LRSN                1
 GAP=160        0.99       5.4     9.4  9.0 -0.2013E+02 -0.2473E+02  0.1259E+02E
 Epicentro: LOS SANTOS - SANTANDER                                             3
 ACTION:UPD 10-12-01 15:14 OP:pat  STATUS:               ID:20100703091547 L   I
 2010-07-03-0914-38S.COL___118                                                 6
 STAT SP IPHASW D HRMM SECON CODA AMPLIT PERI AZIMU VELO AIN AR TRES W  DIS CAZ7
 BAR2 SZ EP        916  8.21                             169     0.010   27 199 
 BAR2 SZ ES   2    916 23.58                             169    -0.6 5   27 199 
 BRR  HZ EP        916  9.98                             152     0.210   74 295 
 BRR  HZ I         916 10.32        16.8 0.16                            74 295 
 BRR  HE ES        916 27.05                             152     0.110   74 295 
 RUS  HZ EP   1    916 12.32                             144     0.0 7  103 179 
 RUS  HZ I         916 13.47         4.8 0.12                           103 179 
 RUS  HE ES   2    916 31.34                             144    -0.1 5  103 179 
 BRI  SZ EP   1    916 12.66                             144     0.7 7  105  19 
 BRI  SZ ES   1    916 31.39                             144     0.5 7  105  19 
 GUE  SZ EP        916 12.06                             141    -0.810  113  10 
 GUE  SZ ES   2    916 31.25                             141    -1.1 5  113  10 
 GRA  SZ EP   1    916 13.76                             139     0.5 7  122  16 
 GRA  SZ ES   1    916 33.25                             139     0.1 7  122  16 
 OCA  SZ EP   2    916 16.52                             131     0.1 5  159 351 
 OCA  SZ ES   2    916 38.03                             131    -0.7 5  159 351 
 OCA  SZ I         916 43.47         8.6 0.33                           159 351 
 PRA  HZ EP   2    916 41.51                             107    -0.5 3  396 210 
 PRA  HE ES   2    917 24.13                             107    -0.2 3  396 210 
 PRA  HZ I         917 31.09         3.7 0.27                           396 210 
                                                                                
