 2012  7 3 0610  8.9 L   6.562 -73.213 15.1  RSN  4 0.5 0.8LRSN                1
 GAP=124        1.06      13.6    27.3 25.0  0.3575E+03  0.6551E+03  0.3158E+03E
 Epicentro: PINCHOTE - SANTANDER                                               3
 ACTION:UPD 12-08-14 11:42 OP:ep   STATUS:               ID:20120703061008 L   I
 2012-07-03-0604-37M.COL___205                                                 6
 STAT SP IPHASW D HRMM SECON CODA AMPLIT PERI AZIMU VELO AIN AR TRES W  DIS CAZ7
 BAR2 SZ EP   1    610 12.31                             163     0.4 7    5  45 
 BAR2 SZ I         610 16.35        20.2 0.54             92              5  45 
 RUS  HZ EP   1    610 21.33                              99    -0.2 7   75 169 
 RUS  HN ES   1    610 31.20                              99    -0.2 7   75 169 
 BRR  HZ EP   1    610 22.49                              98     0.5 7   82 318 
 BRR  HZ I         610 30.71         3.6 0.42             90             82 318 
 BRR  HN ES   1    610 31.39                              98    -0.8 7   82 318 
 PTB  HE ES   1    610 47.59                              56     0.4 7  138 269 
