 2010 10 3 0349 38.0 L   6.796 -73.067143.2  RSN  8 0.4 1.8LRSN                1
 GAP=245        0.72       4.4     6.6  7.1  0.4033E+01  0.1922E+01  0.1320E+02E
 Epicentro: LOS SANTOS - SANTANDER                                             3
 ACTION:UP  11-02-18 11:07 OP:tino STATUS:               ID:20101003034938 L   I
 2010-10-03-0345-21S.COL___123                                                 6
 STAT SP IPHASW D HRMM SECON CODA AMPLIT PERI AZIMU VELO SNR AR TRES W  DIS CAZ7
 BAR2 SZ EP        349 57.45                             169     0.010   26 210 
 BAR2 SZ I         349 57.97        15.6 0.34                            26 210 
 BAR2 SZ ES   2    350 12.95                             169     0.4 5   26 210 
 BRR  HZ IP     C  349 59.21                             150    -0.210   79 296 
 BRR  HZ I         349 59.45        23.3 0.58                            79 296 
 BRR  HN ES        350 16.07                             150     0.010   79 296 
 RUS  HZ EP        350  1.45                             143     0.010  100 181 
 RUS  HN ES   1    350 19.66                             143    -0.1 7  100 181 
 RUS  HZ I         350 22.52         5.1 0.15                           100 181 
 NOR  SZ EP   2    350 15.30                             117     0.9 4  242 236 
 NOR  SN ES   2    350 41.93                             117    -0.8 4  242 236 
 CHI  HZ EP   1    350 15.88                             116     0.1 6  251 197 
 CHI  HN ES   1    350 45.66                             116     0.4 6  251 197 
 CHI  HZ I         350 47.51         2.0 0.04                           251 197 
 ROSC BN ES   2    350 46.66                             116     0.2 4  257 213 
 ROSC BZ I         350 51.14         4.1 0.54                           257 213 
 RREF HZ EP   3    350 24.93                             110     0.1 2  328 230 
 RREF HN ES   2    351  2.27                             110     1.0 3  328 230 
 RREF HZ I         351  7.58         2.5 0.85                           328 230 
 PRA  HZ I         350 33.22         3.2 0.16                           396 211 
 PRA  HN ES   1    351 13.11                             106    -0.9 4  396 211 
                                                                                
