 2011 10 3 0526 19.2 L   6.792 -73.112145.4  RSN  8 0.3 2.1LRSN                1
 GAP=141        0.67       4.1     4.6  5.7  0.3627E+01  0.1200E+02  0.6460E+01E
 Epicentro: LOS SANTOS - SANTANDER                                             3
 ACTION:UPD 12-07-13 16:01 OP:ep   STATUS:               ID:20111003052619 L   I
 2011-10-03-0524-09S.COL___168                                                 6
 STAT SP IPHASW D HRMM SECON CODA AMPLIT PERI AZIMU VELO AIN AR TRES W  DIS CAZ7
 BAR2 SZ IP     D  526 38.72                             170   -0.1110 23.4 199 
 BAR2 SZ I         526 39.28        23.7 0.18                          23.4 199 
 BAR2 SZ ES   1    526 53.71                             170   -0.40 7 23.4 199 
 BRR  HZ EP   1    526 40.47                             151   -0.10 7 74.9 298 
 BRR  HN ES   1    526 57.63                             151    0.43 7 74.9 298 
 BRR  HZ I         527  2.08        34.8 0.13                          74.9 298 
 PAM  SN ES   1    526 58.52                             151   -0.03 7 75.8  37 
 RUS  HZ EP   1    526 42.65                             144   -0.23 7 99.5 178 
 RUS  HZ I         526 43.74        10.6 0.09                          99.5 178 
 RUS  HN ES   1    527  1.88                             144    0.56 7 99.5 178 
 ZAR  HZ EP   1    526 52.40                             122    0.34 6  208 292 
 ZAR  HN ES   1    527 17.21                             122   -0.44 6  208 292 
 ZAR  HZ I         527 23.69        14.9 0.51                           208 292 
 NOR  SZ EP   1    526 55.43                             118    0.21 6  237 235 
 NOR  SN ES   1    527 22.93                             118   -0.35 6  237 235 
 CHI  HZ EP   1    526 56.65                             117   -0.29 6  249 196 
 CHI  HZ I         527 32.69         6.5 0.64                           249 196 
 HEL  HZ EP   1    527  0.37                             114    0.56 6  275 256 
 HEL  HZ I         527 39.77         6.7 0.22                           275 256 
                                                                                
