 2011  2 3 0558 31.1 L   7.415 -73.169111.6  RSN  4 0.3 1.5LRSN                1
 GAP=143        0.58       5.1     7.7  9.9 -0.1716E+02  0.4574E+02  0.3171E+00E
 Epicentro: EL PLAYON - SANTANDER                                              3
 ACTION:UP  11-03-28 15:05 OP:jfem STATUS:               ID:20110203055829 L   I
 2011-02-03-0553-36S.COL___135                                                 6
 STAT SP IPHASW D HRMM SECON CODA AMPLIT PERI AZIMU VELO SNR AR TRES W  DIS CAZ7
 GRA  SZ EP        558 48.37                             148    -0.210   66  38 
 GRA  SZ ES   2    559  2.30                             148     0.1 5   66  38 
 GRA  SZ I         559  4.79        13.5 0.35                            66  38 
 BAR2 SZ ES   2    559  5.79                             138     0.1 5   91 181 
 BAR2 SZ I         559  7.23        12.9 0.18                            91 181 
 OCA  SZ EP   2    558 50.54                             138     0.0 5   93 350 
 OCA  SZ ES   2    559  6.01                             138     0.3 5   93 350 
 OCA  SZ I         559 10.61         4.6 0.37                            93 350 
 HEL  HZ EP        559 12.73                             106     0.3 7  294 243 
 HEL  HE ES   2    559 43.93                             106    -0.7 4  294 243 
 HEL  HZ I         559 52.06         1.1 0.34                           294 243 
                                                                                
