 2017  8 3 0803 15.2 L   6.800 -73.149152.6  RSN  4 0.1 1.0LRSN                1
 GAP=237        0.33       2.9     3.4  3.0 -0.1811E+01  0.1596E+01  0.5718E+00E
 Epicentro: LOS SANTOS - SANTANDER                                             3
 ACTION:UPD 17-09-04 20:15 OP:rebc STATUS:               ID:20170803080315 L   I
 OLDACT:REG 17-08-03 15:07 OP:osc  STATUS:               ID:20170803075738     3
 2017-08-03-0758-00M.COL___395                                                 6
 STAT SP IPHASW D HRMM SECON CODA AMPLIT PERI AZIMU VELO AIN AR TRES W  DIS CAZ7
 BAR2 EZ EP        8 3 35.57                             171   -0.0410 23.3 189 
 BAR2 EZ ES        8 3 51.54                             171   -0.0210 23.3 189 
 BAR2 EZ I         8 3 53.12         3.3 0.26            170           23.3 189 
 BRR  HN ES   2    8 3 54.19                             154    0.09 5 70.9 299 
 RUS  HZ EP        8 3 39.52                             145   -0.0710  101 176 
 RUS  HN ES        8 3 58.72                             145    0.0810  101 176 
 RUS  HZ I         8 4  0.24         0.8 0.18            146            101 176 
 SPBC HZ EP        8 3 44.31                             131    0.13 9  163 219 
 SPBC HE ES        8 4  6.71                             131   -0.09 9  163 219 
                                                                                
