 2017 11 3 0759 43.6 L   6.096 -73.561115.9  RSN  5 0.4 0.9LRSN                1
 GAP=183        0.83       7.7     4.8  9.4  0.1755E+02  0.1534E+02 -0.1540E+02E
 Epicentro: SAN BENITO - SANTANDER                                             3
 ACTION:UPD 17-12-12 19:51 OP:rebc STATUS:               ID:20171103075943 L   I
 OLDACT:DUP 17-11-03 17:41 OP:dnl  STATUS:               ID:20171103075740d    3
 OLDACT:REG 17-11-03 13:33 OP:dnl  STATUS:               ID:20171103075739     3
 2017-11-03-0758-00M.COL___435                                                 6
 STAT SP IPHASW D HRMM SECON CODA AMPLIT PERI AZIMU VELO AIN AR TRES W  DIS CAZ7
 RUS  HZ EP   2    8 0  1.78                             152    0.30 5 57.5 113 
 RUS  HN ES        8 0 15.73                             152    0.3210 57.5 113 
 RUS  HZ I         8 0 17.01         0.9 0.24             98           57.5 113 
 BAR2 EZ EP        8 0  1.57                             147   -0.2510 69.0  37 
 BAR2 EZ ES        8 0 15.88                             147   -0.1410 69.0  37 
 BAR2 EZ I         8 0 17.72         4.3 0.36             96           69.0  37 
 PTB  HZ EP   2    8 0  4.58                             133   -0.20 5  111 296 
 PTB  HE ES        8 0 20.89                             133   -0.3910  111 296 
 PTB  HZ I         8 0 27.57         0.7 0.36             37            111 296 
 BRR  HZ EP   2    8 0  4.54                             132   -0.44 5  113 352 
 ZAR  HZ EP   2    8 0 14.96                             114   -0.09 4  211 317 
 ZAR  HZ I         8 0 38.69         1.7 0.32             37            211 317 
 ZAR  HN ES        8 0 40.33                             114    0.76 8  211 317 
                                                                                
