 2015  4 3 0215 23.1 L   6.774 -73.146152.0  RSN  7 0.6 1.5LRSN                1
 GAP= 98        1.40       7.2     5.6  8.9  0.5476E+01  0.2180E+01 -0.4649E+00E
 Epicentro: LOS SANTOS - SANTANDER                                             3
 ACTION:UPD 15-06-03 16:52 OP:cam  STATUS:               ID:20150403021523 L   I
 OLDACT:UP  15-04-03 15:49 OP:mh   STATUS:               ID:20150403020744     3
 OLDACT:UP  15-04-03 14:28 OP:mh   STATUS:               ID:20150403020744     3
 OLDACT:REG 15-04-03 12:51 OP:mh   STATUS:               ID:20150403020744     3
 2015-04-03-0207-44M.COL___283                                                 6
 STAT SP IPHASW D HRMM SECON CODA AMPLIT PERI AZIMU VELO AIN AR TRES W  DIS CAZ7
 BAR2 EZ EP   1    215 44.00                             172    0.57 7 20.5 191 
 BAR2 EZ ES        215 58.92                             172   -0.3610 20.5 191 
 BAR2 EZ I         216  0.57         7.8 0.51            171           20.5 191 
 BRR  HZ EP        215 45.25                             153    0.2510 72.6 300 
 BRR  HN ES        216  2.82                             153    0.7410 72.6 300 
 BRR  HZ I         216  5.21         4.8 0.26            151           72.6 300 
 PAM  SZ EP        215 46.70                             151    0.5910 79.6  38 
 PAM  SN ES        216  3.36                             151   -0.7010 79.6  38 
 PAM  SZ I         216  5.97         6.6 0.48            153           79.6  38 
 RUS  HZ EP        215 47.82                             146    0.5510 97.8 176 
 RUS  HN ES        216  5.61                             146   -0.5210 97.8 176 
 RUS  HZ I         216  7.75         2.7 0.50            148           97.8 176 
 PTB  HZ EP        215 49.84                             133   -0.69 9  147 260 
 PTB  HN ES        216 12.38                             133    0.45 9  147 260 
 PTB  HZ I         216 17.53         5.5 0.22            133            147 260 
 TAM  HZ EP        215 51.34                             132    0.12 9  154 104 
 ZAR  HZ EP   1    215 55.08                             123   -0.98 6  205 293 
 ZAR  HN ES        216 21.28                             123   -0.50 9  205 293 
 ZAR  HZ I         216 28.46         4.5 0.15            123            205 293 
 TOL  SZ EP   4    216 13.58                             110    2.20 0  341 225 
 TOL  SN ES   4    216 51.80                             110    2.76 0  341 225 
                                                                                
