 2016  8 3 0303 27.4 L   6.807 -73.099150.9  RSN  7 0.3 1.6LRSN                1
 GAP=243        0.72       3.4     4.1  4.9  0.2457E+01  0.6601E+01  0.1434E+01E
 Epicentro: LOS SANTOS - SANTANDER                                             3
 ACTION:UPD 16-10-29 15:31 OP:rebc STATUS:               ID:20160803030327 L   I
 OLDACT:DUP 16-08-03 14:45 OP:edw  STATUS:               ID:20160803025737d    3
 OLDACT:REG 16-08-03 12:46 OP:edw  STATUS:               ID:20160803025736     3
 2016-08-03-0258-00M.COL___356                                                 6
 STAT SP IPHASW D HRMM SECON CODA AMPLIT PERI AZIMU VELO AIN AR TRES W  DIS CAZ7
 BAR2 EZ EP        3 3 47.79                             170    0.0510 25.5 201 
 BAR2 EZ ES        3 4  3.55                             170   -0.0210 25.5 201 
 BRR  HZ EP        3 3 49.55                             152    0.1610 75.5 296 
 BRR  HE ES        3 4  6.71                             152    0.2010 75.5 296 
 RUS  HZ EP        3 3 51.93                             145    0.1910  101 179 
 RUS  HN ES        3 4 10.55                             145   -0.1510  101 179 
 RUS  HZ I         3 4 11.40         3.0 0.18                           101 179 
 SPBC HZ EP        3 3 56.78                             130    0.07 9  167 220 
 SPBC HN ES        3 4 19.23                             130   -0.31 9  167 220 
 SPBC HZ I         3 4 25.96         5.9 0.36                           167 220 
 ZAR  HZ EP        3 3 59.90                             123   -0.79 8  209 291 
 ZAR  HN ES        3 4 26.71                             123    0.09 8  209 291 
 NOR  HZ EP   4    3 4  2.56                             119   -1.42 0  239 235 
 NOR  HE ES        3 4 32.22                             119   -0.25 8  239 235 
 NOR  HZ I         3 4 36.90         3.5 0.14                           239 235 
 GUY2CHZ EP        3 4 12.15                             113    0.33 7  306 235 
 GUY2CHN ES        3 4 46.95                             113    0.51 7  306 235 
 GUY2CHZ I         3 4 52.76         1.4 0.28                           306 235 
                                                                                
