 2012  9 3 0403 25.5 L   6.789 -73.107147.5  RSN  5 0.4 1.2LRSN                1
 GAP=142        0.73       5.2     7.8  7.6 -0.7150E+00 -0.4843E+01  0.4698E+01E
 Epicentro: LOS SANTOS - SANTANDER                                             3
 ACTION:UPD 12-10-22 14:16 OP:ep   STATUS:               ID:20120903040325 L   I
 2012-09-03-0400-00M.COL___218                                                 6
 STAT SP IPHASW D HRMM SECON CODA AMPLIT PERI AZIMU VELO AIN AR TRES W  DIS CAZ7
 BAR2 SZ ES   1    4 4  0.61                             171   -0.23 7 23.4 201 
 BAR2 SZ I         4 4  3.42         6.9 0.16                          23.4 201 
 GIR2 SZ ES   1    4 4  0.41                             167   -0.60 7 33.4 343 
 PAM  SZ EP   1    4 3 48.06                             152    0.24 7 75.6  36 
 PAM  SZ I         4 3 48.20         3.7 0.17                          75.6  36 
 PAM  SN ES   1    4 4  5.43                             152    0.22 7 75.6  36 
 BRR  HZ EP   1    4 3 46.86                             151   -0.24 7 75.6 298 
 BRR  HZ I         4 3 47.49         2.5 0.11                          75.6 298 
 BRR  HN ES   1    4 4  4.45                             151    0.51 7 75.6 298 
 RUS  HZ EP   1    4 3 49.10                             145   -0.24 7 99.2 179 
 RUS  HZ I         4 3 50.21         1.1 0.20                          99.2 179 
 RUS  HN ES   1    4 4  8.27                             145    0.34 7 99.2 179 
                                                                                
