 2015  4 3 0216 33.1 L   6.792 -73.135150.0  RSN  6 0.4 1.3LRSN                1
 GAP=138        0.91       5.2     4.8  9.3  0.5312E+01  0.1628E+02  0.1039E+02E
 Epicentro: LOS SANTOS - SANTANDER                                             3
 ACTION:UPD 15-06-03 16:52 OP:cam  STATUS:               ID:20150403021633 L   I
 OLDACT:UP  15-04-03 15:51 OP:mh   STATUS:               ID:20150403020745d    3
 OLDACT:UP  15-04-03 14:31 OP:mh   STATUS:               ID:20150403020745d    3
 OLDACT:UP  15-04-03 14:30 OP:mh   STATUS:               ID:20150403020745d    3
 OLDACT:DUP 15-04-03 14:28 OP:mh   STATUS:               ID:20150403020745d    3
 2015-04-03-0207-44M.COL___283                                                 6
 STAT SP IPHASW D HRMM SECON CODA AMPLIT PERI AZIMU VELO AIN AR TRES W  DIS CAZ7
 BAR2 EZ EP   1    216 52.81                             171   -0.37 7 22.7 193 
 BRR  HZ EP   1    216 55.30                             153    0.56 7 72.6 299 
 BRR  HN ES   1    217 12.14                             153    0.49 7 72.6 299 
 PAM  SN ES        217 13.22                             152   -0.1810 77.4  38 
 PAM  SZ I         217 15.31         4.0 0.54            155           77.4  38 
 RUS  HZ EP        216 56.83                             145   -0.3210 99.6 177 
 RUS  HN ES        217 16.18                             145    0.2310 99.6 177 
 RUS  HZ I         217 16.72         1.6 0.34            148           99.6 177 
 PTB  HZ EP        217  0.97                             133    0.52 9  149 259 
 PTB  HN ES        217 21.40                             133   -0.42 9  149 259 
 PTB  HZ I         217 27.28         2.8 0.18            133            149 259 
 ZAR  HN ES        217 31.28                             123   -0.27 8  205 292 
 ZAR  HZ I         217 37.79         2.1 0.24            124            205 292 
                                                                                
