 2016  7 3 0937 43.2 L   6.773 -73.165140.9  RSN  7 0.2 1.7LRSN                1
 GAP=233        0.57       2.7     2.9  3.8  0.2088E+01  0.2792E+01  0.1587E+00E
 Epicentro: LOS SANTOS - SANTANDER                                             3
 ACTION:UPD 17-03-29 16:46 OP:lp   STATUS:               ID:20160703093743 L   I
 OLDACT:DUP 16-07-03 15:42 OP:cara STATUS:               ID:20160703092747d    3
 OLDACT:UP  16-07-03 15:40 OP:cara STATUS:               ID:20160703092746     3
 OLDACT:REG 16-07-03 13:39 OP:edw  STATUS:               ID:20160703092746     3
 2016-07-03-0927-46M.COL___322                                                 6
 STAT SP IPHASW D HRMM SECON CODA AMPLIT PERI AZIMU VELO AIN AR TRES W  DIS CAZ7
 BAR2 EZ IP        938  2.15                             172    0.0010 20.1 186 
 BAR2 EZ ES        938 16.92                             172   -0.0310 20.1 186 
 BAR2 EZ I         938 19.17         8.5 0.18            170           20.1 186 
 BRR  HZ IP     C  938  4.01                             152    0.2410 70.9 301 
 BRR  HN ES        938 20.07                             152    0.2310 70.9 301 
 BRR  HZ I         938 27.67         9.1 0.32            150           70.9 301 
 RUS  HZ EP        938  6.48                             144    0.2510 97.8 175 
 RUS  HN ES        938 23.94                             144   -0.2910 97.8 175 
 RUS  HZ I         938 25.80         4.4 0.24            147           97.8 175 
 PTB  HZ EP        938  9.23                             131   -0.27 9  145 260 
 PTB  HN ES        938 29.86                             131   -0.18 9  145 260 
 PTB  HZ I         938 31.79         6.4 0.14            132            145 260 
 SPBC HZ EP        938 10.97                             129    0.03 9  160 219 
 SPBC HE ES        938 32.60                             129   -0.01 9  160 219 
 SPBC HZ I         938 36.00         8.8 0.28            130            160 219 
 ZAR  HZ EP        938 14.93                             121   -0.28 9  203 293 
 ZAR  HN ES        938 40.10                             121   -0.11 9  203 293 
 ZAR  HZ I         938 47.25         9.0 0.30            123            203 293 
 NOR  HN ES        938 45.99                             118    0.39 8  231 235 
 NOR  HZ I         938 53.99         3.9 0.26            120            231 235 
                                                                                
