 2012  3 3 0626 44.6 L   6.763 -73.129147.1  RSN  5 0.2 1.3LRSN                1
 GAP=140        0.54       4.0     5.0  6.4  0.4565E+01 -0.1149E+02  0.2142E+01E
 ACTION:UP  12-03-31 23:16 OP:EP   STATUS:               ID:20120303062644 L   I
 2012-03-03-0620-00M.COL___191                                                 6
 STAT SP IPHASW D HRMM SECON CODA AMPLIT PERI AZIMU VELO SNR AR TRES W  DIS CAZ7
 BRR  HZ EP        627  6.34                             151     0.210   75 301 
 BRR  HN ES        627 22.94                             151     0.010   75 301 
 BRR  HZ I         627 24.27         4.4 0.09                            75 301 
 PAM  SZ EP   1    627  6.81                             150    -0.3 7   79  37 
 RUS  HZ EP   1    627  8.49                             145     0.3 7   96 177 
 RUS  HE ES   1    627 26.59                             145     0.0 7   96 177 
 RUS  HZ I         627 28.40         1.8 0.28                            96 177 
 PTB  HN ES   1    627 32.81                             132    -0.2 7  149 261 
 CHI  HZ EP   1    627 21.87                             118    -0.2 6  245 196 
 CHI  HZ I         627 54.57         1.5 0.68                           245 196 
                                                                                
