 2016  9 3 0831  4.2 L   6.777 -73.167147.4  RSN  5 0.4 1.2LRSN                1
 GAP=233        0.93       5.5     5.9  6.8  0.7182E+01  0.4965E+01  0.3499E+01E
 Epicentro: LOS SANTOS - SANTANDER                                             3
 ACTION:UPD 17-08-17 21:06 OP:lp   STATUS:               ID:20160903083104 L   I
 OLDACT:REG 16-09-03 12:56 OP:drio STATUS:               ID:20160903082742     3
 2016-09-03-0828-00M.COL___343                                                 6
 STAT SP IPHASW D HRMM SECON CODA AMPLIT PERI AZIMU VELO AIN AR TRES W  DIS CAZ7
 BAR2 EZ EP        831 23.59                             172   -0.3910 20.5 185 
 BAR2 EZ ES        831 39.17                             172   -0.2410 20.5 185 
 BAR2 EZ I         831 39.55         3.6 0.30            169           20.5 185 
 BRR  HZ EP        831 25.26                             153   -0.2310 70.4 301 
 BRR  HN ES        831 42.75                             153    0.6610 70.4 301 
 RUS  HZ EP        831 28.32                             145    0.3610 98.3 175 
 RUS  HE ES        831 46.40                             145   -0.0810 98.3 175 
 RUS  HZ I         831 47.43         1.8 0.30            143           98.3 175 
 PTB  HZ EP        831 30.89                             133   -0.17 9  145 260 
 PTB  HE ES        831 51.55                             133   -0.45 9  145 260 
 PTB  HZ I         831 52.90         1.3 0.36            132            145 260 
 SPBC HZ EP        831 32.90                             130    0.39 9  160 219 
 SPBC HN ES        831 54.73                             130    0.15 9  160 219 
 SPBC HZ I         831 57.41         3.4 0.20            129            160 219 
                                                                                
