 2010 11 3 0219 20.2 L   6.777 -73.105141.8  RSN  5 0.3 1.5LRSN                1
 GAP=163        0.53       4.7     9.0  8.4  0.7776E+00 -0.1063E+02 -0.6833E+01E
 Epicentro: LOS SANTOS - SANTANDER                                             3
 ACTION:UP  10-12-17 16:50 OP:REBC STATUS:               ID:20101103021920 L   I
 2010-11-03-0218-02S.COL___128                                                 6
 STAT SP IPHASW D HRMM SECON CODA AMPLIT PERI AZIMU VELO SNR AR TRES W  DIS CAZ7
 BAR2 SZ EP   2    219 39.16                             171    -0.2 5   22 203 
 BAR2 SZ ES   2    219 53.68                             171    -0.6 5   22 203 
 BAR2 SZ I         219 55.05         9.0 0.20                            22 203 
 BTL  SZ EP   2    219 39.41                             170     0.0 5   24 311 
 BRR  HZ EP   1    219 41.35                             150     0.1 7   76 299 
 BRR  HZ I         219 41.75        10.7 0.07                            76 299 
 BRR  HN ES   2    219 57.73                             150     0.1 5   76 299 
 RUS  HZ EP   2    219 43.25                             144    -0.1 5   98 179 
 RUS  HE ES   2    220  1.96                             144     0.5 5   98 179 
 RUS  HZ I         220  3.33         2.5 0.46                            98 179 
 GRA  SZ EP   2    219 44.98                             136    -0.2 5  127  15 
 GRA  SZ ES   2    220  5.00                             136     0.3 5  127  15 
 GRA  SZ I         220  5.92         6.1 0.54                           127  15 
                                                                                
