 2010 11 3 0707 43.7 L   6.761 -73.117151.4  RSN  5 0.2 1.5LRSN                1
 GAP=186        0.39       3.4     5.2  4.6  0.9324E+00 -0.1474E+01 -0.2514E+01E
 Epicentro: LOS SANTOS - SANTANDER                                             3
 ACTION:UP  10-12-17 16:50 OP:REBC STATUS:               ID:20101103070743 L   I
 2010-11-03-0703-00S.COL___125                                                 6
 STAT SP IPHASW D HRMM SECON CODA AMPLIT PERI AZIMU VELO SNR AR TRES W  DIS CAZ7
 BAR2 SZ EP   2    7 8  3.88                             172    -0.1 5   20 202 
 BAR2 SZ ES   2    7 8 19.60                             172    -0.1 5   20 202 
 BAR2 SZ I         7 8 22.22         6.1 0.30                            20 202 
 BRR  HZ IP     C  7 8  5.62                             152    -0.110   76 300 
 BRR  HZ I         7 8  5.90        13.0 0.18                            76 300 
 BRR  HN ES   1    7 8 23.09                             152     0.2 7   76 300 
 RUS  HZ EP   2    7 8  7.95                             146     0.3 5   96 178 
 RUS  HN ES   2    7 8 26.39                             146     0.0 5   96 178 
 RUS  HZ I         7 8 28.10         2.9 0.31                            96 178 
 OCA  SZ EP   1    7 8 12.88                             130     0.0 7  165 352 
 OCA  SZ I         7 8 31.29         3.1 0.13                           165 352 
 NOR  SZ EP   2    7 8 20.15                             120     0.4 4  235 236 
 NOR  SN ES   2    7 8 47.65                             120    -0.3 4  235 236 
                                                                                
