 2010 11 3 0317 30.8 L   6.812 -73.060141.7  RSN  5 0.3 1.3LRSN                1
 GAP=168        0.53       4.5     9.5  7.5 -0.5238E+01 -0.3091E+02 -0.7775E+01E
 Epicentro: LOS SANTOS - SANTANDER                                             3
 ACTION:UP  10-12-17 16:50 OP:REBC STATUS:               ID:20101103031730 L   I
 2010-11-03-0314-52S.COL___128                                                 6
 STAT SP IPHASW D HRMM SECON CODA AMPLIT PERI AZIMU VELO SNR AR TRES W  DIS CAZ7
 BTL  SZ EP   2    317 50.35                             169     0.3 5   26 297 
 BTL  SZ ES   2    318  5.30                             169     0.3 5   26 297 
 BAR2 SZ ES   2    318  5.09                             168     0.0 5   28 209 
 BAR2 SZ I         318  5.88         7.9 0.17                            28 209 
 BRR  HZ EP   2    317 51.50                             149    -0.5 5   79 294 
 BRR  HZ I         317 51.72         7.0 0.15                            79 294 
 BRR  HN ES   2    318  8.48                             149     0.0 5   79 294 
 RUS  HZ EP   2    317 54.26                             143     0.0 5  102 181 
 RUS  HZ I         317 55.03         1.5 0.07                           102 181 
 RUS  HE ES   2    318 12.24                             143    -0.3 5  102 181 
 GRA  SZ EP        317 55.52                             137     0.110  122  13 
 GRA  SZ ES   2    318 14.08                             137    -0.5 5  122  13 
 GRA  SZ I         318 16.50         3.0 0.34                           122  13 
                                                                                
