 2017  4 3 0316 11.1 L   6.677 -73.173148.4  RSN  4 0.2 1.1LRSN                1
 GAP=225        0.53       9.1     4.4  5.7 -0.4452E+01  0.4820E+01 -0.3233E+02E
 Epicentro: VILLANUEVA - SANTANDER                                             3
 ACTION:UPD 17-05-30 21:07 OP:jn   STATUS:               ID:20170403031611 L   I
 OLDACT:UP  17-04-03 15:33 OP:and  STATUS:               ID:20170403030743     3
 OLDACT:UP  17-04-03 15:33 OP:and  STATUS:               ID:20170403030743     3
 OLDACT:REG 17-04-03 12:38 OP:and  STATUS:               ID:20170403030743     3
 2017-04-03-0308-00M.COL___362                                                 6
 STAT SP IPHASW D HRMM SECON CODA AMPLIT PERI AZIMU VELO AIN AR TRES W  DIS CAZ7
 BAR2 EZ EP        316 31.12                             176    0.2610 9.42 186 
 BAR2 EZ ES        316 45.97                             176   -0.3010 9.42 186 
 BAR2 EZ I         316 46.95         5.4 0.36            172           9.42 186 
 BRR  HZ EP        316 32.90                             151    0.0710 76.2 309 
 BRR  HN ES   2    316 49.94                             151    0.17 5 76.2 309 
 BRR  HZ I         316 51.50         2.7 0.14            152           76.2 309 
 RUS  HZ EP   9    316 35.49                             147    1.27 0 87.3 173 
 RUS  HN ES        316 53.73                             145    0.2110 87.3 173 
 RUS  HZ I         316 54.95         1.2 0.44            146           87.3 173 
 PTB  HZ EP   2    316 37.62                             133   -0.22 5  143 264 
 PTB  HN ES        316 58.68                             133   -0.02 9  143 264 
 PTB  HZ I         317  1.86         1.4 0.18            133            143 264 
                                                                                
