 2014  5 3 0849  3.5 L   6.783 -73.158147.0  RSN  6 0.1 1.5LRSN                1
 GAP=136        0.34       2.0     2.0  4.5 -0.1866E+01  0.2552E+01 -0.2268E+00E
 Epicentro: LOS SANTOS - SANTANDER                                             3
 OLDACT:REG 14-05-03 13:43 OP:fm   STATUS:               ID:20140503084805     3
 ACTION:UPD 15-03-16 16:54 OP:nd   STATUS:               ID:20140503084903 L   I
 OLDACT:UP  14-05-03 18:21 OP:fm   STATUS:               ID:20140503084805     3
 2014-05-03-0848-05M.COL___242                                                 6
 STAT SP IPHASW D HRMM SECON CODA AMPLIT PERI AZIMU VELO AIN AR TRES W  DIS CAZ7
 PAM  SZ EP        849 26.08                             150    0.0710 79.7  39 
 PAM  SN ES        849 43.49                             150   -0.0710 79.7  39 
 PAM  SZ I         849 44.42         3.4 0.24            120           79.7  39 
 RUS  HN ES   2    849 45.59                             144   -0.20 5 98.8 175 
 PTB  HZ EP   1    849 30.47                             132    0.03 7  146 259 
 PTB  HN ES        849 51.33                             132   -0.10 9  146 259 
 PTB  SZ I         849 56.75         5.8 0.48            105            146 259 
 SPBC HZ EP   2    849 31.65                             130   -0.25 5  161 219 
 SPBC SZ I         849 53.33         4.2 0.92            102            161 219 
 SPBC HN ES        849 54.21                             130    0.18 9  161 219 
 OCA  HE ES   2    849 54.54                             129    0.16 5  162 354 
 ZAR  HN ES   1    850  1.30                             123   -0.02 6  204 293 
 SJC  HZ EP   4    849 57.52                             106   -1.70 0  410 327 
 SJC  HN ES   4    850 38.36                             106   -4.31 0  410 327 
                                                                                
