 2012  7 3 0226 36.3 L   6.742 -73.151138.0  RSN  9 0.4 2.2LRSN                1
 GAP=138        0.85       4.1     4.4  6.1  0.2518E+01  0.3188E+01  0.3683E+01E
 Epicentro: JORDAN - SANTANDER                                                 3
 ACTION:UPD 12-08-14 11:42 OP:ep   STATUS:               ID:20120703022636 L   I
 2012-07-03-0220-00M.COL___200                                                 6
 STAT SP IPHASW D HRMM SECON CODA AMPLIT PERI AZIMU VELO AIN AR TRES W  DIS CAZ7
 BAR2 SZ EP        226 54.99                             173     0.110   17 192 
 BAR2 SZ ES   1    227  8.90                             173    -0.5 7   17 192 
 BAR2 SZ I         227 12.31        50.1 0.35            164             17 192 
 BRR  HZ EP        226 56.92                             150     0.210   74 303 
 BRR  HE ES        227 13.25                             150     0.510   74 303 
 BRR  HZ I         227 16.11        39.1 0.14            138             74 303 
 PAM  SZ EP        226 57.92                             148    -0.110   83  37 
 RUS  HZ EP        226 59.00                             144     0.210   94 175 
 RUS  HE ES   1    227 16.19                             144    -0.2 7   94 175 
 RUS  HZ I         227 19.24        23.7 0.30            136             94 175 
 PTB  HZ EP   1    227  2.05                             131    -0.4 7  146 261 
 PTB  HN ES   1    227 22.40                             131    -0.5 7  146 261 
 PTB  HZ I         227 25.87        11.3 0.21            119            146 261 
 ZAR  HZ EP   1    227  7.64                             120    -0.8 6  206 294 
 ZAR  HE ES   1    227 33.39                             120    -0.1 6  206 294 
 ZAR  HZ I         227 42.61        15.1 0.20            111            206 294 
 NOR  SZ EP   1    227 11.18                             117     0.1 6  231 236 
 NOR  SE ES   1    227 38.69                             117     0.4 6  231 236 
 CHI  HZ EP   1    227 12.83                             116     0.0 6  242 195 
 CHI  HN ES   1    227 41.53                             116     0.1 6  242 195 
 HEL  HZ EP   1    227 16.37                             113     0.5 6  270 257 
 HEL  HZ I         227 54.16         9.1 0.50            105            270 257 
