 2013  1 3 0101 56.7 L   6.799 -73.163145.1  RSN  6 0.4 1.8LRSN                1
 GAP=134        0.91       4.0     4.7  6.1 -0.1912E+01  0.2951E+01  0.6393E+01E
 Epicentro: LOS SANTOS - SANTANDER                                             3
 ACTION:UPD 13-02-15 09:11 OP:ep   STATUS:               ID:20130103010156 L   I
 2013-01-03-0059-50M.COL___196                                                 6
 STAT SP IPHASW D HRMM SECON CODA AMPLIT PERI AZIMU VELO AIN AR TRES W  DIS CAZ7
 BAR2 SZ EP        1 2 16.18                             171   -0.1110 22.9 185 
 BAR2 SZ ES        1 2 31.65                             171    0.1210 22.9 185 
 BAR2 SZ I         1 2 32.49        12.7 0.28            169           22.9 185 
 BRR  HZ EP        1 2 18.00                             153    0.2710 69.6 299 
 BRR  HN ES        1 2 34.72                             153    0.6210 69.6 299 
 BRR  HN I         1 2 35.38        30.2 0.30            152           69.6 299 
 PAM  SZ EP        1 2 19.17                             150    0.2010 78.7  41 
 PAM  SN ES        1 2 35.90                             150   -0.4110 78.7  41 
 PAM  SN I         1 2 37.01        18.2 0.48            153           78.7  41 
 RUS  HZ EP        1 2 20.36                             144   -0.0710  101 175 
 RUS  HN ES        1 2 38.73                             144   -0.1810  101 175 
 RUS  HN I         1 2 40.62         5.4 0.24            144            101 175 
 PTB  HZ EP        1 2 22.93                             132   -0.56 9  146 259 
 PTB  HN ES        1 2 43.90                             132   -0.45 9  146 259 
 PTB  HN I         1 2 49.20        15.4 0.40            132            146 259 
 CHI  HZ EP        1 2 34.83                             117    0.49 8  248 195 
 CHI  HZ I         1 2 36.42         2.3 0.36            117            248 195 
 CHI  HN ES        1 3  3.88                             117    0.22 8  248 195 
                                                                                
