 2015 10 3 0448 35.4 L   6.817 -73.174141.8  RSN 17 0.6 2.3LRSN                1
 GAP= 69        1.29       3.0     3.4  6.0 -0.9193E+00  0.5356E+01  0.1532E+01E
 Epicentro: LOS SANTOS - SANTANDER                                             3
 ACTION:UPD 15-12-22 20:37 OP:cam  STATUS:               ID:20151003044835 L   I
 OLDACT:ARG 15-10-03 13:45 OP:stll STATUS:               ID:20151003044617     3
 2015-10-03-0446-17M.COL___349                                                 6
 STAT SP IPHASW D HRMM SECON CODA AMPLIT PERI AZIMU VELO AIN AR TRES W  DIS CAZ7
 BAR2 EZ EP        448 54.74                             170    0.1810 24.8 182 
 BAR2 EZ ES        449  9.50                             170   -0.0310 24.8 182 
 BAR2 EZ I         449 10.64        43.7 0.32            169           24.8 182 
 BRR  HZ EP     D  448 56.58                             153    0.6810 67.6 298 
 BRR  HE ES        449 12.50                             153    0.6010 67.6 298 
 BRR  HZ I         449 17.11        31.9 0.38            152           67.6 298 
 PAM  EZ EP        448 57.40                             150    0.1910 78.0  42 
 PAM  EZ I         448 57.84        45.7 0.20            154           78.0  42 
 PAM  EN ES        449 14.35                             150    0.1110 78.0  42 
 RUS  HZ EP        448 58.75                             142   -0.1510  103 174 
 RUS  HZ I         448 59.51        15.3 0.10            144            103 174 
 RUS  HN ES        449 16.92                             142   -0.3210  103 174 
 PTB  HZ EP        449  1.66                             132   -0.12 9  145 258 
 PTB  HN ES        449 22.40                             132    0.02 9  145 258 
 PTB  HZ I         449 24.89        19.8 0.14            131            145 258 
 OCA  HZ EP        449  2.65                             129   -0.53 9  158 354 
 OCA  HN ES        449 24.49                             129   -0.37 9  158 354 
 OCA  HZ I         449 29.21        51.9 0.28            131            158 354 
 TAM  HZ IP     C  449  3.16                             129    0.09 9  159 105 
 TAM  HZ I         449  3.44        13.8 0.22            133            159 105 
 TAM  HN ES        449 23.87                             129   -0.80 9  159 105 
 SPBC HZ EP        449  3.66                             128    0.13 9  163 218 
 SPBC HN ES        449 25.07                             128   -0.42 9  163 218 
 SPBC HZ I         449 31.60        32.9 0.22            129            163 218 
 ZAR  HZ EP        449  7.77                             122    0.57 9  201 292 
 ZAR  HN ES        449 32.13                             122    0.11 9  201 292 
 ZAR  HZ I         449 38.64        12.9 0.24            123            201 292 
 NOR  HZ EP        449 10.93                             118    0.20 8  233 234 
 NOR  HN ES        449 39.05                             118    0.75 8  233 234 
 NOR  HZ I         449 43.84        12.9 0.14            118            233 234 
 SML  HZ EP        449 11.27                             117   -0.20 8  241 336 
 SML  HN ES        449 39.65                             117    0.04 8  241 336 
 SML  HZ I         449 43.05        45.8 0.10            118            241 336 
 CHI  HZ EP        449 13.12                             116    0.15 8  250 194 
 CHI  HN ES        449 41.84                             116   -0.45 8  250 194 
 CHI  HZ I         449 49.41         8.5 0.46            117            250 194 
 ROSC BZ EP        449 13.96                             116    0.67 8  253 210 
 ROSC BN ES        449 43.43                             116    0.58 8  253 210 
 ROSC BZ I         449 51.25        11.7 0.35            117            253 210 
 HEL  HZ EP        449 15.71                             114    0.60 8  270 255 
 HEL  HN ES        449 45.44                             114   -0.66 8  270 255 
 HEL  HZ I         449 53.77         8.6 0.34            115            270 255 
 GUY2CHZ EP        449 19.01                             112    0.37 7  300 234 
 GUY2CHN ES        449 51.90                             112   -0.49 7  300 234 
 GUY2CHZ I         450  1.36         6.2 0.40                           300 234 
 DBB  SZ ES        449 56.44                             109   -2.51 7  336 274 
 SJC  HZ EP   4    449 28.71                             105   -1.73 0  406 327 
 SJC  HN ES   4    450 10.37                             105   -3.01 0  406 327 
 SJC  HZ I         450 14.42         5.5 0.46            106            406 327 
                                                                                
