 2016  9 3 0617 33.2 L   6.875 -73.405120.1  RSN 12 0.3 1.6LRSN                1
 GAP= 85        0.81       2.7     3.1  6.2 -0.8979E+00  0.8466E+01 -0.3381E+01E
 Epicentro: SAN VICENTE DE CHUCURI - SANTANDER                                 3
 ACTION:UPD 17-08-17 21:06 OP:lp   STATUS:               ID:20160903061733 L   I
 OLDACT:UP  16-09-03 16:06 OP:drio STATUS:               ID:20160903060727     3
 OLDACT:UP  16-09-03 16:05 OP:drio STATUS:               ID:20160903060727     3
 OLDACT:REG 16-09-03 12:51 OP:drio STATUS:               ID:20160903060727     3
 2016-09-03-0608-00M.COL___349                                                 6
 STAT SP IPHASW D HRMM SECON CODA AMPLIT PERI AZIMU VELO AIN AR TRES W  DIS CAZ7
 BAR2 EZ EP        617 50.41                             161    0.1110 39.8 142 
 BAR2 EZ ES        618  3.69                             161    0.0610 39.8 142 
 BRR  HZ EP        617 50.82                             159    0.7610 42.5 307 
 BRR  HN ES   4    618  4.96                             159    1.76 0 42.5 307 
 BRR  HZ I         618  5.78         7.7 0.12            157           42.5 307 
 PAM  EZ EP        617 53.66                             140   -0.2810 93.3  57 
 PAM  HE ES        618 10.08                             140   -0.0410 93.3  57 
 PAM  EZ I         618 12.14         7.9 0.22            148           93.3  57 
 RUS  HZ EP        617 55.25                             134   -0.4610  114 162 
 RUS  HN ES        618 13.18                             134   -0.0710  114 162 
 RUS  HZ I         618 14.44         3.7 0.44            138            114 162 
 PTB  HZ EP        617 55.71                             131   -0.0410  122 252 
 PTB  HN ES        618 13.03                             131   -0.3010  122 252 
 PTB  HZ I         618 17.46         8.6 0.36            132            122 252 
 OCA  HZ EP        617 58.70                             125   -0.03 9  151   4 
 OCA  HE ES        618 18.59                             125   -0.05 9  151   4 
 SPBC HZ EP        617 59.46                             124    0.51 9  154 209 
 SPBC HN ES   4    618 18.70                             124   -0.33 0  154 209 
 SPBC HZ I         618 25.46         7.0 0.22            127            154 209 
 ZAR  HZ EP        618  0.93                             120   -0.01 9  174 293 
 ZAR  HE ES   4    618 25.71                             120    3.15 0  174 293 
 ZAR  HZ I         618 29.34         6.3 0.28            123            174 293 
 URE  HZ EP   4    618 14.73                             111    4.98 0  254 293 
 URE  HE ES        618 38.02                             111   -0.23 8  254 293 
 URE  HZ I         618 41.75         3.8 0.12            113            254 293 
 GUY2CHZ EP   4    618 16.45                             108    2.74 0  284 230 
 GUY2CHE ES   4    618 48.60                             108    3.30 0  284 230 
 GUY2CHZ I         618 54.20         3.0 0.34                           284 230 
 CBOC HZ EP   4    618 18.55                             106    2.21 0  309 249 
 CBOC HE ES   4    618 52.82                             106    2.84 0  309 249 
 CBOC HZ I         618 55.00         1.7 0.32            109            309 249 
 SJC  HZ EP   4    618 24.44                             102   -0.96 0  387 330 
 SJC  HE ES   4    618 58.68                             102   -7.43 0  387 330 
 SJC  HZ I         619  4.60         2.7 0.48            105            387 330 
                                                                                
