 2015 10 3 0839 50.9 L   6.097 -74.019 86.4  RSN  6 0.4 1.2LRSN                1
 GAP= 85        1.09       3.4     3.6  8.2  0.6310E+00  0.5230E+01 -0.3041E+01E
 Epicentro: EL PENON - SANTANDER                                               3
 ACTION:UPD 15-12-22 20:37 OP:cam  STATUS:               ID:20151003083950 L   I
 OLDACT:REG 15-10-03 13:41 OP:stll STATUS:               ID:20151003083749     3
 2015-10-03-0837-49M.COL___349                                                 6
 STAT SP IPHASW D HRMM SECON CODA AMPLIT PERI AZIMU VELO AIN AR TRES W  DIS CAZ7
 SPBC HZ EP        840  4.58                             148    0.0510 49.5 187 
 SPBC HZ I         840  4.79        10.7 0.20            148           49.5 187 
 SPBC HN ES        840 15.29                             148    0.1110 49.5 187 
 PTB  HZ EP        840  5.14                             138   -0.7210 68.8 315 
 PTB  HN ES        840 17.09                             138   -0.4710 68.8 315 
 PTB  HZ I         840 17.49         4.5 0.26            135           68.8 315 
 RUS  HZ EP        840  9.80                             125   -0.1510  106 102 
 RUS  HE ES        840 24.80                             125   -0.0310  106 102 
 BRR  HE ES        840 26.34                             122    0.7010  117  17 
 GUY2CHZ EP        840 17.49                             111   -0.26 9  178 237 
 GUY2CHN ES        840 39.46                             111    0.74 9  178 237 
 GUY2CHZ I         840 43.69         1.7 0.26                           178 237 
 ZAR  HZ EP        840 17.34                             111   -0.11 9  180 329 
 ZAR  HN ES        840 38.51                             111    0.33 9  180 329 
 ZAR  HZ I         840 42.35         2.7 0.28            109            180 329 
                                                                                
