 2015 11 3 0455 26.9 L   6.825 -73.062140.8  RSN  8 0.4 1.4LRSN                1
 GAP=146        0.93       3.4     4.4  5.6 -0.5958E+00  0.7777E+01  0.4029E+01E
 Epicentro: LOS SANTOS - SANTANDER                                             3
 ACTION:UPD 15-12-28 16:08 OP:cam  STATUS:               ID:20151103045526 L   I
 OLDACT:REG 15-11-03 13:59 OP:cara STATUS:               ID:20151103044739     3
 2015-11-03-0447-39M.COL___313                                                 6
 STAT SP IPHASW D HRMM SECON CODA AMPLIT PERI AZIMU VELO AIN AR TRES W  DIS CAZ7
 BAR2 EZ EP        455 45.87                             168   -0.1710 29.0 207 
 BAR2 EZ ES        456  1.28                             168    0.2910 29.0 207 
 BAR2 EZ I         456  4.26         3.9 0.28            166           29.0 207 
 PAM  EZ EP        455 48.09                             153   -0.0110 69.5  35 
 PAM  EE ES        456  4.81                             153    0.1510 69.5  35 
 PAM  EZ I         456  5.90         5.5 0.24            157           69.5  35 
 BRR  HZ IP     C  455 47.10                             149   -0.8210 78.3 293 
 BRR  HN ES        456  4.21                             149   -0.1210 78.3 293 
 BRR  HZ I         456  7.11         5.0 0.12            151           78.3 293 
 RUS  HZ EP        455 50.48                             142    0.1510  103 181 
 RUS  HE ES        456  8.67                             142    0.0410  103 181 
 RUS  HZ I         456 10.66         1.9 0.20            143            103 181 
 SPBC HZ EP        455 55.93                             126    0.15 9  171 221 
 SPBC HE ES        456 17.53                             126   -0.80 9  171 221 
 SPBC HZ I         456 22.62         4.1 0.26            128            171 221 
 ZAR  HZ EP        455 59.83                             120    0.03 8  212 291 
 ZAR  HE ES        456 26.17                             120    0.69 8  212 291 
 CHI  HZ EP        456  5.11                             115    0.23 8  254 197 
 CHI  HE ES        456 34.86                             115    0.34 8  254 197 
 CHI  HZ I         456 39.64         1.2 0.48            117            254 197 
 GUY2CHZ EP        456 11.31                             111    0.01 7  310 235 
 GUY2CHN ES        456 46.26                             111    0.30 7  310 235 
 GUY2CHZ I         456 51.53         2.1 0.60                           310 235 
                                                                                
