 2015  5 3 0802 54.0 L   6.780 -73.095141.3  RSN  6 0.4 1.5LRSN                1
 GAP=144        0.90       4.0     5.0  7.1  0.3436E+01  0.4333E+01 -0.1268E+01E
 Epicentro: LOS SANTOS - SANTANDER                                             3
 ACTION:UPD 15-09-10 22:01 OP:cam  STATUS:               ID:20150503080253 L   I
 OLDACT:UP  15-05-07 15:59 OP:cam  STATUS:               ID:20150503080253 L   3
 OLDACT:UP  15-05-07 06:55 OP:AK   STATUS:               ID:20150503080253 L   3
 OLDACT:DUP 15-05-03 18:19 OP:stll STATUS:               ID:20150503075736d    3
 2015-05-03-0757-35M.COL___273                                                 6
 STAT SP IPHASW D HRMM SECON CODA AMPLIT PERI AZIMU VELO AIN AR TRES W  DIS CAZ7
 BAR2 EZ EP        8 3 13.06                             170   -0.0310 22.9 205 
 BAR2 EZ ES        8 3 27.67                             170   -0.3010 22.9 205 
 BAR2 EZ I         8 3 28.69         7.7 0.22            172           22.9 205 
 PAM  SZ EP        8 3 16.05                             150    0.4010 75.8  35 
 PAM  SN ES        8 3 32.75                             150    0.2210 75.8  35 
 PAM  SZ I         8 3 35.11         5.8 0.46            150           75.8  35 
 BRR  HZ EP        8 3 14.95                             150   -0.0810 77.2 298 
 BRR  HZ I         8 3 15.15         8.9 0.26            152           77.2 298 
 BRR  HN ES        8 3 31.89                             150    0.4610 77.2 298 
 RUS  HZ EP        8 3 17.12                             144   -0.0310 98.1 179 
 RUS  HE ES        8 3 35.05                             144   -0.1410 98.1 179 
 RUS  HZ I         8 3 36.18         2.7 0.26            145           98.1 179 
 OCA  HN ES   1    8 3 43.20                             128   -1.09 7  163 351 
 OCA  HZ I         8 3 44.40         5.7 0.18            129            163 351 
 ZAR  HE ES        8 3 52.39                             120    0.02 8  210 292 
                                                                                
