 2015  3 3 0707 40.5 L   6.767 -73.174148.6  RSN  6 0.4 1.2LRSN                1
 GAP=198        0.87       4.3     7.5  6.6  0.6066E+01  0.2451E+01 -0.4236E+01E
 Epicentro: LOS SANTOS - SANTANDER                                             3
 ACTION:UPD 15-04-30 16:22 OP:nd   STATUS:               ID:20150303070740 L   I
 OLDACT:DUP 15-03-03 18:47 OP:spq  STATUS:               ID:20150303065750d    3
 2015-03-03-0657-48M.COL___287                                                 6
 STAT SP IPHASW D HRMM SECON CODA AMPLIT PERI AZIMU VELO AIN AR TRES W  DIS CAZ7
 BAR2 EZ ES   1    7 8 15.47                             172   -0.46 7 19.4 183 
 BAR2 EZ I         7 8 16.24         2.3 0.30            172           19.4 183 
 BRR  HZ EP        7 8  2.05                             153    0.1310 70.4 302 
 BRR  HN ES        7 8 19.10                             153    0.4810 70.4 302 
 BRR  HZ I         7 8 22.90         3.1 0.23            153           70.4 302 
 RUS  HZ EP   1    7 8  4.52                             145    0.22 7 97.2 174 
 RUS  HE ES   1    7 8 22.64                             145   -0.22 7 97.2 174 
 RUS  HZ I         7 8 24.55         1.3 0.62            147           97.2 174 
 PTB  HZ EP        7 8  7.08                             133   -0.29 9  144 260 
 PTB  HN ES   1    7 8 27.76                             133   -0.57 7  144 260 
 PTB  HZ I         7 8 29.59         2.0 0.41            134            144 260 
 SPBC HZ EP        7 8  9.30                             131    0.52 9  158 219 
 SPBC HN ES   1    7 8 30.85                             131    0.02 7  158 219 
 SPBC HZ I         7 8 33.22         3.0 0.07            132            158 219 
 SML  HZ EP        7 8 16.93                             118   -0.58 8  246 336 
 SML  HN ES   1    7 8 46.65                             118    0.27 6  246 336 
                                                                                
