 2011  1 3 0924 32.8 L   6.798 -73.153139.5  RSN 10 0.3 2.1LRSN                1
 GAP=158        0.66       2.8     4.9  5.5 -0.7631E+01  0.1279E+02 -0.2274E+01E
 Epicentro: LOS SANTOS - SANTANDER                                             3
 ACTION:UP  11-02-08 08:38 OP:pat  STATUS:               ID:20110103092432 L   I
 2011-01-03-0920-00M.COL___137                                                 6
 STAT SP IPHASW D HRMM SECON CODA AMPLIT PERI AZIMU VELO SNR AR TRES W  DIS CAZ7
 BAR2 SZ IP        924 51.79                             170     0.110   23 188 
 BAR2 SZ ES   1    925  6.44                             170     0.1 7   23 188 
 BAR2 SZ I         925  8.00        50.9 0.15                            23 188 
 RUS  HZ EP   1    924 55.68                             142    -0.2 7  100 176 
 RUS  HE ES   1    925 13.85                             142    -0.1 7  100 176 
 RUS  HZ I         925 15.24        16.2 0.27                           100 176 
 GRA  SZ IP        924 57.71                             135     0.210  126  18 
 GRA  SZ ES   1    925 17.12                             135     0.3 7  126  18 
 GRA  SZ I         925 18.64        16.1 0.47                           126  18 
 OCA  SZ EP        925  0.37                             128    -0.3 9  160 353 
 OCA  SZ ES   1    925 21.87                             128    -0.5 7  160 353 
 OCA  SZ I         925 26.70        21.1 0.21                           160 353 
 NOR  SZ EP   1    925  7.95                             117    -0.1 6  234 234 
 NOR  SN ES   1    925 35.72                             117     0.1 6  234 234 
 CHI  HZ EP   1    925 10.17                             116     0.1 6  248 195 
 CHI  HZ I         925 12.49         4.5 0.25                           248 195 
 HEL  HZ EP   1    925 13.45                             114     0.9 6  271 256 
 HEL  HN ES   2    925 43.65                             114     0.0 4  271 256 
 HEL  HZ I         925 50.54         6.1 0.22                           271 256 
 GUY  SZ EP   2    925 16.82                             111     0.8 4  301 235 
 GUY  SN ES   2    925 49.88                             111     0.1 4  301 235 
 GUY  SZ I         925 56.05         8.2 0.57                           301 235 
 RREF HZ EP   1    925 18.46                             110    -0.1 5  321 229 
 RREF HE ES        925 54.01                             110    -0.3 7  321 229 
 RREF HZ I         926  0.19         6.0 0.24                           321 229 
 PRA  HZ EP   1    925 25.45                             105    -0.6 4  391 209 
 PRA  HN ES   1    926  7.73                             105     0.2 4  391 209 
                                                                                
