 2013  3 3 0134 35.6 L   6.789 -73.151149.0  RSN  5 0.3 1.6LRSN                1
 GAP=100        0.80       4.4     3.8  6.7 -0.1619E+01 -0.4779E+01  0.5364E+01E
 Epicentro: LOS SANTOS - SANTANDER                                             3
 ACTION:UPD 13-04-09 13:59 OP:ep   STATUS:               ID:20130303013435 L   I
 2013-03-03-0128-43M.COL___193                                                 6
 STAT SP IPHASW D HRMM SECON CODA AMPLIT PERI AZIMU VELO AIN AR TRES W  DIS CAZ7
 BRR  HZ EP        134 57.76                             153    0.6110 71.3 300 
 BRR  HN ES        135 13.73                             153   -0.1910 71.3 300 
 PAM  SZ EP        134 58.32                             151    0.0410 78.7  39 
 PAM  SN ES        135 15.81                             151   -0.1310 78.7  39 
 PAM  SN I         135 16.77         8.0 0.46            153           78.7  39 
 RUS  HZ EP        134 59.15                             145   -0.4910 99.4 176 
 RUS  HN ES        135 18.63                             145    0.2810 99.4 176 
 RUS  HE I         135 19.36         6.4 0.50            145           99.4 176 
 PTB  HZ EP   1    135  2.57                             133   -0.24 7  147 259 
 PTB  HN ES        135 23.95                             133   -0.05 9  147 259 
 PTB  HE I         135 26.97         4.7 0.14            133            147 259 
 TAM  HZ EP        135  3.65                             131    0.05 9  155 105 
                                                                                
