 2016  4 3 0556 46.3 L   6.819 -73.261135.5  RSN  6 0.4 1.4LRSN                1
 GAP=114        1.00       4.0     5.3  7.9 -0.4996E+01  0.1196E+02 -0.7494E+01E
 Epicentro: ZAPATOCA - SANTANDER                                               3
 ACTION:UPD 16-05-05 14:18 OP:rebc STATUS:               ID:20160403055646 L   I
 OLDACT:UP  16-04-03 14:53 OP:drio STATUS:               ID:20160403054740     3
 OLDACT:UP  16-04-03 14:53 OP:drio STATUS:               ID:20160403054740     3
 OLDACT:REG 16-04-03 12:32 OP:drio STATUS:               ID:20160403054740     3
 2016-04-03-0547-40M.COL___309                                                 6
 STAT SP IPHASW D HRMM SECON CODA AMPLIT PERI AZIMU VELO AIN AR TRES W  DIS CAZ7
 BAR2 EZ EP        557  4.23                             168   -0.5210 26.5 161 
 BAR2 EZ ES        557 19.39                             168    0.2310 26.5 161 
 BAR2 EZ I         557 20.52         5.7 0.82            172           26.5 161 
 PAM  EZ EP        557  7.90                             146    0.0110 84.6  47 
 PAM  EN ES        557 24.89                             146    0.1510 84.6  47 
 PAM  EZ I         557 26.88         7.5 0.52            151           84.6  47 
 RUS  HZ EP        557  9.67                             140    0.3510  104 169 
 RUS  HE ES        557 27.03                             140   -0.2610  104 169 
 RUS  HZ I         557 28.51         2.2 0.36            147            104 169 
 PTB  HZ EP        557 12.04                             132    0.72 9  136 257 
 PTB  HN ES        557 30.53                             132   -0.32 9  136 257 
 PTB  HZ I         557 35.94         3.4 0.40            131            136 257 
 OCA  HZ EP        557 12.96                             128   -0.55 9  157 358 
 OCA  HE ES        557 34.93                             128    0.17 9  157 358 
 OCA  HZ I         557 39.90         5.2 0.16            129            157 358 
 ZAR  HZ EP   4    557 18.31                             122    1.55 0  192 293 
 ZAR  HN ES   4    557 44.03                             122    3.49 0  192 293 
 ZAR  HZ I         557 51.33         2.5 0.22            121            192 293 
                                                                                
