 2011  7 3 0314 50.1 L   6.768 -73.111152.8  RSN  8 0.2 1.8LRSN                1
 GAP=160        0.41       2.4     4.8  4.0 -0.1206E+01 -0.5351E+01 -0.1507E+01E
 Epicentro: LOS SANTOS - SANTANDER                                             3
 ACTION:UPD 12-07-25 13:57 OP:epov STATUS:               ID:20110703031450 L   I
 2011-07-03-0314-41S.COL___140                                                 6
 STAT SP IPHASW D HRMM SECON CODA AMPLIT PERI AZIMU VELO AIN AR TRES W  DIS CAZ7
 BAR2 SZ EP        315 10.17                             172   -0.3210 21.0 202 
 BAR2 SZ ES   1    315 26.33                             172   -0.09 7 21.0 202 
 BAR2 SZ I         315 26.69        11.1 0.42                          21.0 202 
 BTL  SZ EP        315 10.77                             171    0.2210 24.0 314 
 GIR2 SZ EP   2    315 10.58                             166   -0.10 5 35.6 345 
 BRR  HZ IP     C  315 12.34                             152    0.0910 76.3 299 
 BRR  HZ I         315 12.62        18.5 0.13                          76.3 299 
 BRR  HE ES   1    315 29.50                             152   -0.06 7 76.3 299 
 RUS  HZ EP   1    315 14.34                             146    0.09 7 96.8 178 
 RUS  HN ES   2    315 33.36                             146    0.25 5 96.8 178 
 BRI  SZ EP   1    315 14.95                             142    0.18 7  110  18 
 GRA  SZ EP        315 16.03                             138   -0.0910  128  15 
 GRA  SZ ES   1    315 36.45                             138    0.00 7  128  15 
 GRA  SZ I         315 37.51         7.9 0.38                           128  15 
 OCA  SZ EP   1    315 19.19                             130   -0.10 7  164 352 
 OCA  SZ ES   2    315 42.27                             130    0.18 5  164 352 
 OCA  SZ I         315 47.52         6.2 0.52                           164 352 
                                                                                
