 2012  9 3 0220 52.1 L   6.538 -73.538111.9  RSN 12 0.4 2.0LRSN                1
 GAP= 63        0.69       2.7     3.3  6.0 -0.1264E+01  0.9331E+01 -0.1418E+00E
 Epicentro: EL CARMEN DE CHUCURI - SANTANDER                                   3
 ACTION:UPD 12-10-22 14:16 OP:ep   STATUS:               ID:20120903022052 L   I
 2012-09-03-0220-00M.COL___218                                                 6
 STAT SP IPHASW D HRMM SECON CODA AMPLIT PERI AZIMU VELO AIN AR TRES W  DIS CAZ7
 BAR2 SZ IP        221  8.56                             159    0.2910 39.8  81 
 BAR2 SZ ES   1    221 20.73                             159   -0.14 7 39.8  81 
 BRR  HZ EP   1    221  9.42                             147    0.06 7 65.8 343 
 BRR  HZ I         221  9.74        26.9 0.13                          65.8 343 
 BRR  HN ES   2    221 23.21                             147    0.40 5 65.8 343 
 GIR2 SZ EP        221 10.09                             145    0.1910 70.9  32 
 RUS  HZ EP   1    221 11.66                             140    0.04 7 87.3 145 
 RUS  HE ES   1    221 27.06                             140    0.23 7 87.3 145 
 RUS  HZ I         221 28.51        11.8 0.12                          87.3 145 
 PTB  HZ EP   1    221 11.44                             135   -0.71 7  102 270 
 PTB  HZ I         221 27.26        26.1 0.09                           102 270 
 PAM  SZ EP   1    221 15.26                             128    0.02 7  128  46 
 PAM  SE ES   1    221 32.73                             128   -0.55 7  128  46 
 PAM  SZ I         221 34.60        14.8 0.21                           128  46 
 ZAR  HZ EP   1    221 19.90                             117   -0.06 7  180 306 
 ZAR  HN ES   1    221 42.34                             117    0.66 7  180 306 
 ZAR  HZ I         221 46.03        17.2 0.21                           180 306 
 NOR  SZ EP   1    221 20.22                             117   -0.07 7  183 234 
 NOR  SN ES   1    221 41.58                             117   -0.69 7  183 234 
 NOR  SZ I         221 44.79        11.1 0.29                           183 234 
 OCA  HZ EP   1    221 20.91                             116   -0.29 7  190   7 
 OCA  HN ES   1    221 43.69                             116   -0.19 7  190   7 
 CHI  HZ EP   1    221 24.34                             113    0.32 6  212 186 
 CHI  HZ I         221 26.24         8.1 0.42                           212 186 
 HEL  HZ EP   1    221 25.52                             112    0.26 6  224 260 
 HEL  HZ I         221 54.78         7.8 0.29                           224 260 
 PRA  HZ EP   1    221 39.30                             102    0.11 5  346 206 
                                                                                
