 2013  7 3 0448 10.5 L   6.754 -73.085145.8  RSN  6 0.3 1.5LRSN                1
 GAP=147        0.70       4.0     5.6  5.7 -0.2151E+01 -0.3028E+01 -0.7040E+01E
 Epicentro: LOS SANTOS - SANTANDER                                             3
 ACTION:UPD 13-08-12 10:35 OP:ep   STATUS:               ID:20130703044810 L   I
 OLDACT:DUP 13-07-03 11:55 OP:stll STATUS:               ID:20130703043843d    3
 2013-07-03-0438-42M.COL___230                                                 6
 STAT SP IPHASW D HRMM SECON CODA AMPLIT PERI AZIMU VELO AIN AR TRES W  DIS CAZ7
 BAR2 SZ EP        448 30.27                             171    0.1510 20.9 211 
 BAR2 SZ ES        448 45.83                             171    0.4310 20.9 211 
 BAR2 SZ I         448 47.63         3.1 0.16            172           20.9 211 
 GIR2 SZ EP        448 30.26                             165   -0.1510 37.9 341 
 PAM  SZ EP        448 33.14                             151    0.3810 77.5  33 
 PAM  SN ES        448 49.80                             151   -0.2910 77.5  33 
 BRR  HZ EP        448 32.02                             150   -0.1610 79.6 299 
 BRR  HN ES        448 49.02                             150   -0.0410 79.6 299 
 BRR  HN I         448 49.62        12.7 0.46            151           79.6 299 
 RUS  HN ES        448 51.85                             145   -0.2910 95.2 180 
 GRA  SZ EP        448 36.00                             136   -0.0410  129  14 
                                                                                
