 2016  5 3 0002 16.5 L   5.925 -73.769112.9  RSN  7 0.3 1.7LRSN                1
 GAP= 86        0.71       2.3     2.3  5.1 -0.1055E-01  0.1628E+01 -0.1259E+00E
 Epicentro: SUCRE - SANTANDER                                                  3
 ACTION:UPD 16-08-18 17:41 OP:cam  STATUS:               ID:20160503000216 L   I
 OLDACT:UP  16-05-15 07:30 OP:ar   STATUS:               ID:20160503000216 L   3
 OLDACT:UP  16-05-03 14:41 OP:edw  STATUS:               ID:20160503000001     3
 OLDACT:REG 16-05-03 12:11 OP:edw  STATUS:               ID:20160503000001     3
 2016-05-03-0000-01M.COL___319                                                 6
 STAT SP IPHASW D HRMM SECON CODA AMPLIT PERI AZIMU VELO AIN AR TRES W  DIS CAZ7
 SPBC HZ EP        0 2 32.66                             157   -0.1010 45.2 228 
 SPBC HE ES        0 2 45.47                             157   -0.0010 45.2 228 
 SPBC HZ I         0 2 47.02        21.2 0.18            154           45.2 228 
 RUS  HZ EP        0 2 35.28                             144    0.0710 76.0  93 
 RUS  HE ES        0 2 49.72                             144   -0.1210 76.0  93 
 BAR2 EZ EP        0 2 36.86                             136    0.2610 98.2  41 
 BAR2 EZ ES        0 2 52.58                             136    0.2710 98.2  41 
 PTB  HZ EP        0 2 36.29                             135   -0.3210  102 312 
 PTB  HN ES        0 2 52.06                             135   -0.2710  102 312 
 PTB  HZ I         0 2 53.40         5.2 0.22            137            102 312 
 NOR  HZ EP        0 2 39.20                             128    0.1110  128 252 
 NOR  HN ES        0 2 57.33                             128    0.6010  128 252 
 NOR  HZ I         0 2 58.40        20.5 0.20            128            128 252 
 CHI  HZ EP        0 2 41.11                             124    0.05 9  143 178 
 CHI  HE ES        0 2 59.87                             124   -0.37 9  143 178 
 CHI  HZ I         0 3  7.67         3.2 0.26            124            143 178 
 ZAR  HN ES        0 3 12.00                             113   -0.21 8  211 325 
                                                                                
