 2015  7 3 0348 52.1 L   6.799 -73.163149.0  RSN  8 0.4 1.9LRSN                1
 GAP=181        0.91       3.2     6.0  7.8 -0.1630E+01  0.2563E+02 -0.8837E+01E
 Epicentro: LOS SANTOS - SANTANDER                                             3
 ACTION:UPD 15-09-08 21:46 OP:cam  STATUS:               ID:20150703034852 L   I
 OLDACT:REG 15-07-03 13:49 OP:ar   STATUS:               ID:20150703034749     3
 2015-07-03-0347-49M.COL___325                                                 6
 STAT SP IPHASW D HRMM SECON CODA AMPLIT PERI AZIMU VELO AIN AR TRES W  DIS CAZ7
 BAR2 EZ EP        349 12.48                             171    0.3610 23.0 185 
 BAR2 EZ ES        349 27.12                             171   -0.6110 23.0 185 
 BAR2 EZ I         349 30.49         8.4 0.32            169           23.0 185 
 RUS  HZ EP        349 16.06                             144   -0.1210  101 175 
 RUS  HN ES        349 35.04                             144    0.0810  101 175 
 RUS  HZ I         349 37.58         3.7 0.52            150            101 175 
 OCA  HE ES        349 43.58                             130    0.65 9  160 354 
 OCA  HZ I         349 47.46        20.1 0.24            133            160 354 
 ZAR  HZ EP        349 24.84                             123    0.26 9  202 292 
 ZAR  HN ES   4    349 52.29                             123    2.37 0  202 292 
 ZAR  HZ I         349 57.25         7.4 0.44            124            202 292 
 SML  HZ EP        349 28.83                             118   -0.00 8  243 336 
 SML  HN ES        349 57.35                             118   -0.14 8  243 336 
 SML  HZ I         350  3.61        12.8 0.28            120            243 336 
 HEL  HN ES        350  3.57                             116   -0.04 8  270 256 
 HEL  HZ I         350 11.80         4.2 0.66            117            270 256 
 GUY2CHN ES        350  9.91                             113    0.24 7  300 235 
 GUY2CHZ I         350 18.59         3.6 0.28                           300 235 
 SJC  HZ EP        349 46.79                             106   -0.87 6  408 327 
 SJC  HN ES        350 30.36                             106   -0.63 6  408 327 
 SJC  HZ I         350 38.51         1.7 0.64            109            408 327 
                                                                                
