 2016 11 3 0141 33.3 L   6.769 -73.102146.0  RSN  5 0.4 1.2LRSN                1
 GAP=144        0.87       6.7     4.8  9.0 -0.8371E+01 -0.3070E+01  0.2704E+02E
 Epicentro: LOS SANTOS - SANTANDER                                             3
 ACTION:UPD 17-10-26 21:04 OP:lp   STATUS:               ID:20161103014133 L   I
 OLDACT:REG 16-11-03 12:10 OP:dani STATUS:               ID:20161103013744     3
 2016-11-03-0138-00M.COL___346                                                 6
 STAT SP IPHASW D HRMM SECON CODA AMPLIT PERI AZIMU VELO AIN AR TRES W  DIS CAZ7
 BAR2 EZ EP        141 52.83                             171   -0.0710 21.4 204 
 BRR  HZ EP        141 54.63                             150   -0.1710 77.1 299 
 BRR  HN ES        142 11.96                             150    0.3810 77.1 299 
 BRR  HZ I         142 12.90         4.4 0.30            154           77.1 299 
 PAM  EZ EP        141 55.80                             151    0.2910 77.2  35 
 PAM  EE ES        142 12.52                             151   -0.3310 77.2  35 
 PAM  EZ I         142 15.90         3.1 0.36            154           77.2  35 
 RUS  HZ EP        141 56.58                             145   -0.2110 96.9 179 
 RUS  HE ES   2    142 15.85                             145    0.72 5 96.9 179 
 RUS  HZ I         142 17.53         1.1 0.34            147           96.9 179 
 PTB  HZ EP        142  1.08                             131    0.44 9  152 260 
 PTB  HN ES        142 21.47                             131   -0.51 9  152 260 
 PTB  HZ I         142 23.47         2.0 0.11            135            152 260 
                                                                                
