 2011  1 3 0600 49.4 L   6.773 -73.197140.0  RSN 10 0.4 2.1LRSN                1
 GAP=132        0.85       3.0     5.8  6.9 -0.2590E+01  0.1531E+02 -0.1987E+00E
 Epicentro: VILLANUEVA - SANTANDER                                             3
 ACTION:UP  11-02-08 08:38 OP:pat  STATUS:               ID:20110103060049 L   I
 2011-01-03-0600-00M.COL___137                                                 6
 STAT SP IPHASW D HRMM SECON CODA AMPLIT PERI AZIMU VELO SNR AR TRES W  DIS CAZ7
 BAR2 SZ EP   1    6 1  7.96                             171    -0.4 8   20 176 
 BAR2 SZ ES   1    6 1 23.05                             171     0.0 8   20 176 
 BAR2 SZ I         6 1 23.87        36.6 0.34                            20 176 
 RUS  HZ EP   1    6 1 12.07                             143    -0.4 8   98 173 
 RUS  HE ES   1    6 1 30.20                             143    -0.2 8   98 173 
 RUS  HZ I         6 1 32.43        18.1 0.48                            98 173 
 GRA  SZ IP        6 1 14.57                             135     0.010  130  19 
 GRA  SZ ES   1    6 1 34.08                             135    -0.1 7  130  19 
 GRA  SZ I         6 1 36.76        18.1 0.36                           130  19 
 OCA  SZ IP        6 1 17.35                             128    -0.210  163 355 
 OCA  SZ ES   1    6 1 40.00                             128     0.5 7  163 355 
 OCA  SZ I         6 1 44.05        19.7 0.18                           163 355 
 YOP  SZ EP   1    6 1 18.68                             125    -0.4 7  179 151 
 YOP  SN ES   1    6 1 43.23                             125     1.0 7  179 151 
 YOP  SZ I         6 1 45.20        11.2 0.41                           179 151 
 NOR  SZ EP   1    6 1 24.00                             118    -0.2 6  228 234 
 NOR  SE ES   2    6 1 51.87                             118     0.6 4  228 234 
 CHI  HZ EP   1    6 1 26.55                             116     0.2 6  244 194 
 CHI  HE ES   2    6 1 54.51                             116    -0.6 4  244 194 
 CHI  HZ I         6 2  3.50         7.2 0.44                           244 194 
 HEL  HZ EP   1    6 1 29.39                             114     0.7 6  266 256 
 HEL  HE ES   2    6 1 58.88                             114    -0.4 4  266 256 
 HEL  HZ I         6 2  6.35         9.6 0.14                           266 256 
 RREF HZ EP   2    6 1 34.51                             110    -0.1 4  315 229 
 RREF HZ I         6 2 18.31         9.3 0.28                           315 229 
 PRA  HZ EP   1    6 1 42.44                             106     0.3 5  387 209 
 PRA  HN ES   2    6 2 22.88                             106    -0.4 3  387 209 
                                                                                
