 2013  7 3 0128 10.7 L   6.812 -72.983139.2  RSN  4 0.2 1.8LRSN                1
 GAP=224        0.61       6.2    11.2  6.9  0.5356E+02 -0.4426E+02 -0.2199E+02E
 Epicentro: CEPITA - SANTANDER                                                 3
 ACTION:UPD 13-08-12 10:35 OP:ep   STATUS:               ID:20130703012810 L   I
 OLDACT:REG 13-07-03 08:22 OP:stll STATUS:               ID:20130703011843     3
 2013-07-03-0118-43M.COL___230                                                 6
 STAT SP IPHASW D HRMM SECON CODA AMPLIT PERI AZIMU VELO AIN AR TRES W  DIS CAZ7
 BAR2 SZ EP        128 29.98                             166    0.1910 32.8 222 
 BAR2 SZ ES        128 44.42                             166   -0.2510 32.8 222 
 BAR2 SZ I         128 46.80        10.1 0.34            163           32.8 222 
 GIR2 SZ EP        128 29.93                             164    0.1410 37.5 322 
 BRR  HZ EP        128 31.76                             146   -0.3910 86.9 292 
 BRR  HN ES        128 49.09                             146    0.2310 86.9 292 
 BRR  HN I         128 52.54        18.3 0.26            144           86.9 292 
 RUS  HZ EP        128 33.97                             142    0.0210  102 186 
 RUS  HN ES        128 52.13                             142    0.0610  102 186 
 RUS  HN I         128 53.05         7.2 0.32            143            102 186 
                                                                                
