 2015 12 3 0159 55.1 L   6.818 -73.158142.7  RSN 14 0.5 2.3LRSN                1
 GAP=134        1.10       2.9     4.1  5.7 -0.2379E+01  0.7037E+01 -0.3457E+00E
 Epicentro: LOS SANTOS - SANTANDER                                             3
 ACTION:UPD 16-02-04 15:02 OP:cam  STATUS:               ID:20151203015955 L   I
 OLDACT:UP  15-12-03 16:24 OP:mh   STATUS:               ID:20151203015747     3
 OLDACT:REG 15-12-03 12:32 OP:mh   STATUS:               ID:20151203015747     3
 2015-12-03-0157-47M.COL___318                                                 6
 STAT SP IPHASW D HRMM SECON CODA AMPLIT PERI AZIMU VELO AIN AR TRES W  DIS CAZ7
 BAR2 EZ EP   1    2 0 14.43                             170    0.02 7 25.1 186 
 BAR2 EZ ES        2 0 28.83                             170   -0.6310 25.1 186 
 BAR2 EZ I         2 0 30.03        57.1 0.32            169           25.1 186 
 BRR  HZ IP     D  2 0 16.23                             153    0.4310 69.0 298 
 BRR  HE ES        2 0 33.06                             153    1.1110 69.0 298 
 BRR  HZ I         2 0 35.39        41.3 0.26            146           69.0 298 
 PAM  EZ EP        2 0 17.33                             150    0.3710 76.8  41 
 PAM  EN ES        2 0 34.09                             150    0.0810 76.8  41 
 PAM  EZ I         2 0 36.03        58.3 0.46            148           76.8  41 
 RUS  HZ EP        2 0 18.53                             143   -0.1810  103 175 
 RUS  HN ES        2 0 36.99                             143   -0.1310  103 175 
 RUS  HZ I         2 0 38.91        12.8 0.18            140            103 175 
 PTB  HZ EP   1    2 0 21.08                             131   -0.66 7  147 258 
 PTB  HN ES        2 0 42.11                             131   -0.40 9  147 258 
 PTB  HZ I         2 0 43.19        18.4 0.18            125            147 258 
 OCA  HZ EP        2 0 22.78                             129   -0.20 9  158 354 
 OCA  HN ES        2 0 44.68                             129   -0.04 9  158 354 
 SPBC HZ EP        2 0 23.64                             128    0.20 9  164 218 
 SPBC HN ES        2 0 45.53                             128   -0.00 9  164 218 
 SPBC HZ I         2 0 49.06        23.4 0.36            123            164 218 
 ZAR  HZ EP        2 0 27.82                             122    0.68 9  202 292 
 ZAR  HN ES        2 0 51.86                             122   -0.27 9  202 292 
 ZAR  HZ I         2 0 57.91        19.9 0.42            116            202 292 
 NOR  HZ EP   1    2 0 30.78                             118    0.12 6  235 234 
 NOR  HN ES        2 0 57.89                             118   -0.51 8  235 234 
 NOR  HZ I         2 1  3.98        12.4 0.18            113            235 234 
 SML  HZ EP        2 0 30.60                             117   -0.70 8  241 335 
 SML  HN ES        2 0 58.80                             117   -0.74 8  241 335 
 SML  HZ I         2 1  3.57        28.1 0.10            112            241 335 
 HEL  HZ EP   1    2 0 35.98                             114    0.91 6  271 255 
 HEL  HN ES        2 1  6.46                             114    0.22 8  271 255 
 HEL  HZ I         2 1 12.29        12.4 0.34            110            271 255 
 URE  HZ EP   4    2 0 35.71                             113   -0.09 0  282 292 
 URE  HZ I         2 1 14.97        10.4 0.18            109            282 292 
 GUY2CHZ EP   1    2 0 38.75                             112    0.18 5  301 234 
 GUY2CHN ES   4    2 1 13.68                             112    1.20 0  301 234 
 GUY2CHZ I         2 1 22.62         7.0 0.74                           301 234 
 PRA  HZ EP        2 0 48.55                             106   -0.09 6  393 209 
 PRA  HN ES        2 1 30.73                             106    0.33 6  393 209 
 PRA  HZ I         2 1 35.79         5.7 0.32            103            393 209 
                                                                                
