 2017  5 3 0533  9.4 L   6.841 -73.273152.8  RSN  4 0.4 1.1LRSN                1
 GAP=120        1.04       6.0     5.4  9.0 -0.4484E+01  0.1548E+01  0.8072E+01E
 Epicentro: ZAPATOCA - SANTANDER                                               3
 ACTION:UPD 17-06-16 13:32 OP:jn   STATUS:               ID:20170503053309 L   I
 OLDACT:UP  17-05-03 17:38 OP:edw  STATUS:               ID:20170503052741d    3
 OLDACT:DUP 17-05-03 17:36 OP:edw  STATUS:               ID:20170503052741d    3
 2017-05-03-0528-00M.COL___371                                                 6
 STAT SP IPHASW D HRMM SECON CODA AMPLIT PERI AZIMU VELO AIN AR TRES W  DIS CAZ7
 BRR  HZ EP        533 30.10                             159   -0.5510 56.7 301 
 BRR  HN ES        533 47.03                             159   -0.1510 56.7 301 
 PAM  EZ EP     C  533 33.46                             150    0.6510 84.0  49 
 PAM  EE ES        533 50.95                             150   -0.0810 84.0  49 
 PAM  EZ I         534  1.35         2.6 0.44            150           84.0  49 
 RUS  HZ EP        533 34.40                             143    0.0510  107 169 
 RUS  HE ES        533 53.64                             143   -0.1310  107 169 
 RUS  HZ I         533 54.39         1.6 0.30            151            107 169 
 PTB  HZ EP        533 35.52                             136   -0.3710  135 256 
 PTB  HN ES        533 57.12                             136    0.6010  135 256 
 PTB  HZ I         534  0.07         1.2 0.40            142            135 256 
                                                                                
