 2016  3 3 0109 55.3 L   6.829 -73.110150.1  RSN 21 0.6 2.6LRSN                1
 GAP= 68        1.38       4.7     4.3  7.9  0.5111E+00  0.5181E+01  0.6910E+00E
 Epicentro: LOS SANTOS - SANTANDER                                             3
 ACTION:UPD 16-05-13 21:21 OP:cam  STATUS:               ID:20160303010955 L   I
 OLDACT:UP  16-03-14 10:32 OP:Ak   STATUS:               ID:20160303010955 L   3
 OLDACT:UP  16-03-03 21:07 OP:mh   STATUS:               ID:20160303010750     3
 OLDACT:UP  16-03-03 20:15 OP:mh   STATUS:               ID:20160303010750     3
 OLDACT:REG 16-03-03 12:16 OP:mh   STATUS:               ID:20160303010750     3
 2016-03-03-0107-50M.COL___322                                                 6
 STAT SP IPHASW D HRMM SECON CODA AMPLIT PERI AZIMU VELO AIN AR TRES W  DIS CAZ7
 BAR2 EZ EP     D  110 15.13                             169   -0.3810 27.4 197 
 BAR2 EZ ES        110 31.48                             169    0.1810 27.4 197 
 BAR2 EZ I         110 32.90       102.6 0.47            169           27.4 197 
 PAM  EZ EP     C  110 17.94                             153    0.2710 72.4  39 
 PAM  EE ES   4    110 38.36                             153    3.22 0 72.4  39 
 PAM  EZ I         110 40.69        56.3 0.52            154           72.4  39 
 RUS  HE EP        110 19.12                             144   -0.5510  104 178 
 RUS  HZ ES        110 38.35                             144   -0.3510  104 178 
 RUS  HE I         110 39.28        47.8 0.26            147            104 178 
 PTB  HZ EP        110 21.90                             132   -1.10 9  152 258 
 PTB  HN ES        110 43.96                             132   -0.67 9  152 258 
 PTB  HZ I         110 51.11        34.4 0.44            130            152 258 
 TAM  HZ EP        110 23.57                             132    0.54 9  152 107 
 TAM  HE ES        110 45.22                             132    0.54 9  152 107 
 TAM  HZ I         110 47.67        15.3 0.40            137            152 107 
 OCA  HZ EP   1    110 23.13                             131   -0.55 7  158 352 
 OCA  HE ES   1    110 45.94                             131    0.10 7  158 352 
 OCA  HZ I         110 55.97        60.9 0.24            130            158 352 
 SPBC HZ EP        110 24.11                             129   -0.47 9  168 219 
 SPBC HN ES   4    110 50.60                             129    3.17 0  168 219 
 SPBC HZ I         110 54.99        61.8 0.20            129            168 219 
 ZAR  HN ES        110 55.01                             123    1.02 8  207 291 
 ZAR  HZ I         111  2.60        30.7 0.42            122            207 291 
 NOR  HN ES   4    111  3.20                             119    2.91 0  240 234 
 NOR  HZ I         111 12.94        22.5 0.44            119            240 234 
 CHI  HZ EP        110 34.31                             117    0.65 8  253 196 
 CHI  HE ES   4    111  6.57                             117    2.97 0  253 196 
 CHI  HZ I         111  7.10        22.2 0.62            119            253 196 
 ROSC BN ES        111  5.42                             117    0.94 8  258 211 
 ROSC BZ I         111  9.76        48.6 0.45            118            258 211 
 HEL  HZ EP   4    110 37.80                             115    1.58 0  277 255 
 HEL  HN ES        111  8.26                             115    0.10 7  277 255 
 HEL  HZ I         111 14.17        12.8 0.30            115            277 255 
 URE  HZ EP   4    110 41.44                             114    4.61 0  286 291 
 URE  HE ES   4    111  6.59                             114   -2.66 0  286 291 
 URE  HZ I         111 20.03        17.9 0.18            114            286 291 
 GUY2CHZ EP        110 40.34                             113    0.69 7  306 235 
 GUY2CHN ES   4    111 18.42                             113    4.15 0  306 235 
 GUY2CHZ I         111 22.38        19.1 0.34                           306 235 
 VIL  SZ EP   4    110 36.46                             112   -2.87 0  307 192 
 VIL  SE ES        111 13.18                             112   -0.52 7  307 192 
 PTGC HZ EP        110 39.30                             112   -0.20 7  310 160 
 PTGC HE ES   4    111 12.64                             112   -1.36 0  310 160 
 PTGC HZ I         111 15.47        16.6 0.44            114            310 160 
 CBOC HZ EP        110 43.96                             110    1.05 7  338 252 
 CBOC HN ES   4    111 17.96                             110   -2.11 0  338 252 
 DBB  SZ EP   4    110 38.82                             110   -4.53 0  343 274 
 DBB  SZ ES   4    111 19.55                             110   -1.31 0  343 274 
 ORTC HZ EP   9    110 58.40                             107    8.48 0  400 216 
 ORTC HN ES        111 40.37                                   -0.65 6  400 216 
 ORTC HZ I         111 45.50        11.8 0.28            107            400 216 
 SJC  HZ EP        110 50.32                             106   -0.60 6  409 326 
 SJC  HN ES   4    111 31.36                             106   -2.97 0  409 326 
 SJC  HZ I         111 45.91         5.3 0.60            106            409 326 
 CRJC HZ EP   4    111  0.74                             104    3.25 0  464   3 
 CRJC HE ES   4    111 48.51                             104    2.49 0  464   3 
 CRJC HZ I         111 55.37        12.1 0.18            104            464   3 
 MACC HZ EP   4    111  7.96                             102    3.42 0  524 189 
 MACC HN ES   4    111 54.79                             102   -3.78 0  524 189 
 MACC HZ I         112  3.89         3.7 0.54            103            524 189 
                                                                                
