 2017 12 3 0250 23.2 L   6.814 -73.122140.8  RSN  5 0.3 1.2LRSN                1
 GAP=246        0.86       6.1     6.5  7.6  0.1658E+02  0.1619E+02 -0.1864E+01E
 Epicentro: LOS SANTOS - SANTANDER                                             3
 ACTION:UPD 18-01-04 13:16 OP:rebc STATUS:               ID:20171203025023 L   I
 OLDACT:REG 17-12-03 13:03 OP:dhb  STATUS:               ID:20171203024739     3
 2017-12-03-0248-00M.COL___492                                                 6
 STAT SP IPHASW D HRMM SECON CODA AMPLIT PERI AZIMU VELO AIN AR TRES W  DIS CAZ7
 BAR2 EZ EP        250 42.25                             169    0.0110 25.4 195 
 BAR2 EZ ES        250 56.76                             169   -0.3610 25.4 195 
 BAR2 EZ I         250 58.82         4.5 0.54            161           25.4 195 
 RUS  HZ EP        250 46.50                             142   -0.0410  102 178 
 RUS  HN ES        251  5.33                             142    0.5710  102 178 
 RUS  HZ I         251  5.68         1.1 0.24            136            102 178 
 PTB  HZ EP        250 49.62                             130   -0.38 9  151 258 
 PTB  HZ I         251 12.22         1.4 0.12            120            151 258 
 SPBC HZ EP        250 51.68                             127    0.12 9  166 219 
 SPBC HE ES        251 13.40                             127   -0.31 9  166 219 
 SPBC HZ I         251 21.51         3.6 0.18            119            166 219 
 ZAR  HE ES        251 21.13                             121    0.44 8  206 291 
 ZAR  HZ I         251 28.51         1.5 0.18            112            206 291 
                                                                                
