 2014  8 3 0836 40.8 L   6.550 -73.551  5.5  RSN 13 0.5 2.1LRSN                1
 GAP= 75        1.23       2.3     2.2  6.1 -0.2246E+00  0.4722E+01  0.3949E+01E
 Epicentro: EL CARMEN - SANTANDER                                              3
 ACTION:UPD 14-09-15 21:46 OP:nd   STATUS:               ID:20140803083640 L   I
 OLDACT:DUP 14-08-03 15:09 OP:carl STATUS:               ID:20140803082813d    3
 2014-08-03-0828-12M.COL___245                                                 6
 STAT SP IPHASW D HRMM SECON CODA AMPLIT PERI AZIMU VELO AIN AR TRES W  DIS CAZ7
 BAR2 SZ IP     C  836 48.34                              92    0.5210 41.1  83 
 BAR2 SZ ES        836 54.13                              92    0.8010 41.1  83 
 BAR2 SZ I         836 55.02       167.3 0.26             47           41.1  83 
 BRR  HZ IP     C  836 51.15                              91    0.0710 64.2 344 
 BRR  HN ES        836 59.34                              91    0.2210 64.2 344 
 BRR  HZ I         837  0.81        87.8 0.12             47           64.2 344 
 RUS  HZ EP        836 55.14                              91   -0.2410 89.2 144 
 RUS  HN ES        837  6.23                              91   -0.5610 89.2 144 
 RUS  HZ I         837  7.35        69.3 0.20             47           89.2 144 
 PTB  HZ IP     D  836 56.41                              91   -0.1310  100 269 
 PTB  HN ES        837  9.01                              91    0.1610  100 269 
 PTB  HZ I         837  9.97        79.3 0.18             47            100 269 
 SPBC HZ EP        836 59.39                              91    0.5510  115 210 
 SPBC HN ES        837 12.76                              91   -0.1810  115 210 
 SPBC HZ I         837 16.24        47.3 0.28             47            115 210 
 PAM  SZ EP        837  0.90                              91   -0.4110  128  47 
 PAM  SN ES        837 16.28                              91   -1.0710  128  47 
 PAM  SZ I         837 17.55        89.1 0.18             47            128  47 
 ZAR  HZ EP   4    837  6.78                              56   -1.38 0  178 306 
 ZAR  HN ES   4    837 27.22                              56   -2.31 0  178 306 
 ZAR  HZ I         837 28.19        23.4 0.26             37            178 306 
 NOR  HZ EP        837  8.26                              56   -0.46 9  182 233 
 NOR  HN ES   4    837 28.41                              56   -2.12 0  182 233 
 NOR  HZ I         837 31.91        17.2 0.54             37            182 233 
 CHI  HZ EP        837 13.59                              56    0.55 8  213 185 
 CHI  HN ES        837 38.81                              56    0.59 8  213 185 
 HEL  HZ EP   4    837 12.42                              56   -1.71 0  222 260 
 HEL  HN ES   4    837 36.48                              56   -3.67 0  222 260 
 HEL  HZ I         837 45.55        10.8 0.22             37            222 260 
 GUY2CHZ EP        837 17.44                              56   -0.10 8  249 234 
 GUY2CHE ES        837 45.42                              56   -0.81 8  249 234 
 GUY2CHZ I         837 46.14         5.9 0.24                           249 234 
 SML  HZ EP        837 18.34                              56    0.52 8  256 347 
 SML  HZ I         837 54.56        15.9 0.24             37            256 347 
 CBOC HZ EP        837 21.40                              56   -0.03 7  283 255 
 CBOC HN ES        837 53.13                              56   -0.03 7  283 255 
 CBOC HZ I         838  2.58         6.7 0.50             37            283 255 
                                                                                
