 2011  5 3 0136 58.3 L   5.874 -73.827 99.2  RSN  4 0.2 1.3LRSN                1
 GAP=149        0.47       7.1     7.3 17.8 -0.3996E+02  0.1060E+03 -0.9302E+02E
 Epicentro: JESUS MARIA - SANTANDER                                            3
 ACTION:UP  11-06-29 08:50 OP:tino STATUS:               ID:20110503013658 L   I
 2011-05-03-0133-43S.COL___133                                                 6
 STAT SP IPHASW D HRMM SECON CODA AMPLIT PERI AZIMU VELO SNR AR TRES W  DIS CAZ7
 RUS  HZ EP   1    137 16.04                             145    -0.2 8   82  89 
 RUS  HN ES   2    137 30.47                             145     0.2 5   82  89 
 RUS  HZ I         137 32.65         2.2 0.34            145             82  89 
 BTL  SZ IP        137 20.61                             130     0.110  131  28 
 BRR  HZ EP   1    137 20.70                             128    -0.1 7  137   5 
 BRR  HZ I         137 24.62         8.6 0.29                           137   5 
 RREF HZ EP   2    137 28.93                             118     0.4 4  200 238 
 RREF HN ES   2    137 51.99                             118    -0.1 4  200 238 
 RREF HZ I         137 56.83         2.8 0.39                           200 238 
                                                                                
