 2010 10 3 0825 38.5 L   6.823 -73.049138.1  RSN  8 0.5 2.1LRSN                1
 GAP=193        1.00       3.8     7.8  6.6  0.9383E+00  0.8947E+01  0.6328E+00E
 Epicentro: LOS SANTOS - SANTANDER                                             3
 ACTION:UP  11-02-18 11:07 OP:tino STATUS:               ID:20101003082538 L   I
 2010-10-03-0821-53S.COL___119                                                 6
 STAT SP IPHASW D HRMM SECON CODA AMPLIT PERI AZIMU VELO SNR AR TRES W  DIS CAZ7
 BAR2 SZ EP        825 57.29                             167    -0.110   30 210 
 BAR2 SZ ES        826 11.93                             167    -0.110   30 210 
 BAR2 SZ I         826 13.03        56.9 0.46                            30 210 
 BRR  HZ EP        825 59.24                             148    -0.110   80 293 
 BRR  HN ES        826 16.05                             148     0.410   80 293 
 BRR  HZ I         826 17.19        48.4 0.07                            80 293 
 RUS  HZ EP   1    826  1.60                             142    -0.1 7  103 182 
 RUS  HN ES        826 19.68                             142    -0.110  103 182 
 RUS  HZ I         826 21.47        16.6 0.24                           103 182 
 OCA  SZ EP        826  5.95                             128    -0.2 9  159 349 
 OCA  SZ ES   1    826 27.83                             128     0.1 7  159 349 
 OCA  SZ I         826 30.70        27.5 1.03                           159 349 
 CHI  HZ EP   1    826 16.42                             115     0.0 6  254 197 
 CHI  HN ES   1    826 46.35                             115     0.4 6  254 197 
 CHI  HZ I         826 50.70         4.1 0.08                           254 197 
 ROSC BN ES   2    826 48.73                             114     1.6 4  261 213 
 ROSC BZ I         826 53.62         7.0 0.20                           261 213 
 HEL  HZ EP   1    826 19.60                             112     0.0 6  283 256 
 HEL  HN ES   2    826 50.12                             112    -1.5 4  283 256 
 HEL  HZ I         826 56.11         5.5 0.75                           283 256 
 RREF HZ EP   1    826 26.02                             109     0.6 5  332 230 
 RREF HN ES   1    827  1.13                             109    -0.9 5  332 230 
 RREF HZ I         827  5.43         3.9 0.28                           332 230 
                                                                                
