 2017  7 3 0129 28.3 L   6.848 -73.016152.3  RSN  5 0.4 1.4LRSN                1
 GAP=283        1.00       7.5     7.9  8.2 -0.6555E+00  0.3602E+01  0.9068E+01E
 Epicentro: CEPITA - SANTANDER                                                 3
 ACTION:UPD 17-08-30 15:29 OP:rebc STATUS:               ID:20170703012928 L   I
 OLDACT:UP  17-07-03 15:14 OP:edw  STATUS:               ID:20170703012740     3
 OLDACT:REG 17-07-03 13:25 OP:edw  STATUS:               ID:20170703012740     3
 2017-07-03-0128-00M.COL___377                                                 6
 STAT SP IPHASW D HRMM SECON CODA AMPLIT PERI AZIMU VELO AIN AR TRES W  DIS CAZ7
 BAR2 EZ EP        129 48.19                             167   -0.8010 33.7 213 
 BAR2 EZ ES        130  5.31                             167    0.2010 33.7 213 
 BAR2 EZ I         130  7.12         5.0 0.26            168           33.7 213 
 BRR  HZ EP        129 51.28                             150    0.4710 82.1 291 
 BRR  HN ES        130  8.42                             150    0.0610 82.1 291 
 BRR  HZ I         130 12.57         3.8 0.38            151           82.1 291 
 PTB  HZ EP        129 57.66                             130    0.45 9  163 258 
 PTB  HN ES        130 19.43                             130   -0.30 9  163 258 
 PTB  HZ I         130 20.24         2.2 0.22            133            163 258 
 SPBC HZ EP        129 58.66                             128    0.07 9  176 222 
 SPBC HN ES        130 22.22                             128    0.02 9  176 222 
 SPBC HZ I         130 24.34         4.5 0.36            131            176 222 
 ZAR  HN ES   2    130 28.21                             122   -0.75 4  216 289 
                                                                                
