 2011  2 3 0210 39.6 L   6.807 -73.127145.8  RSN 14 0.4 3.1LRSN                1
 GAP=104        0.91       3.2     4.8  6.2 -0.6031E+01  0.9121E+01 -0.9286E+00E
 Epicentro: LOS SANTOS - SANTANDER                                             3
 ACTION:UP  11-03-28 15:05 OP:jfem STATUS:               ID:20110203021039 L   I
 2011-02-03-0207-50S.COL___135                                                 6
 STAT SP IPHASW D HRMM SECON CODA AMPLIT PERI AZIMU VELO SNR AR TRES W  DIS CAZ7
 BAR2 SZ IP        210 59.29                             170     0.110   25 195 
 BAR2 SZ ES   1    211 14.54                             170     0.0 7   25 195 
 BAR2 SZ I         211 16.22       297.7 0.17                            25 195 
 RUS  HZ IP     D  211  3.12                             144    -0.210  101 177 
 RUS  HN ES   1    211 21.86                             144    -0.1 7  101 177 
 RUS  HZ I         211 22.98       124.7 0.31                           101 177 
 GRA  SZ IP        211  5.11                             137     0.410  124  17 
 GRA  SZ ES   1    211 24.56                             137     0.3 7  124  17 
 GRA  SZ I         211 27.08       289.1 0.28                           124  17 
 OCA  SZ EP        211  7.70                             130    -0.1 9  160 352 
 OCA  SZ ES   2    211 29.90                             130     0.0 5  160 352 
 OCA  SZ I         211 34.69       283.4 0.33                           160 352 
 YOP  SZ EP   1    211  9.63                             126     0.0 7  179 154 
 YOP  SE ES   2    211 32.93                             126    -0.1 4  179 154 
 YOP  SZ I         211 36.35        77.3 0.24                           179 154 
 NOR  SZ EP        211 15.10                             118    -0.4 8  237 235 
 NOR  SN ES   1    211 42.80                             118    -0.8 6  237 235 
 CHI  HZ EP   1    211 16.99                             117    -0.4 6  250 196 
 CHI  HE ES   2    211 46.33                             117    -0.6 4  250 196 
 CHI  HZ I         211 54.61        86.6 0.41                           250 196 
 ROSC BZ EP        211 18.76                             116     0.9 8  255 211 
 ROSC BN ES   1    211 48.17                             116     0.4 6  255 211 
 ROSC BZ I         211 57.12       163.4 0.36                           255 211 
 HEL  HZ EP   2    211 19.85                             115    -0.2 4  274 256 
 HEL  HN ES   1    211 51.11                             115    -0.5 6  274 256 
 HEL  HZ I         211 58.04       127.8 0.29                           274 256 
 VIL  SZ EP   2    211 22.81                             112    -0.1 4  303 190 
 VIL  SN ES   1    211 56.58                             112    -0.2 5  303 190 
 VIL  SZ I         212  1.08        51.5 0.32                           303 190 
 RREF HZ EP        211 26.30                             111     0.4 7  324 230 
 RREF HN ES   1    212  2.44                             111     0.3 5  324 230 
 RREF HZ I         212 11.57       128.5 0.27                           324 230 
 DBB  SZ EP        211 27.00                             109    -0.3 7  341 274 
 DBB  SZ I         212  6.41        25.8 0.42                           341 274 
 TOL  SZ EP        211 28.61                             109     0.6 6  346 225 
 TOL  SZ ES   2    212  6.74                             109     0.9 3  346 225 
 SDV  BZ EP        211 28.57                             108    -0.8 6  358  50 
 SDV  BZ I         212  9.23        16.7 0.48                           358  50 
                                                                                
