 2013  4 3 0405 48.0 L   6.824 -73.161144.2  RSN 11 0.5 1.9LRSN                1
 GAP=133        0.93       3.4     4.7  6.6 -0.8018E+00  0.7520E+01  0.2730E+01E
 Epicentro: LOS SANTOS - SANTANDER                                             3
 ACTION:UPD 13-05-22 14:35 OP:EP   STATUS:               ID:20130403040548 L   I
 2013-04-03-0400-00M.COL___245                                                 6
 STAT SP IPHASW D HRMM SECON CODA AMPLIT PERI AZIMU VELO AIN AR TRES W  DIS CAZ7
 BAR2 SZ EP        4 6  7.51                             169   -0.0310 25.7 185 
 BAR2 SZ ES   1    4 6 21.83                             169   -0.91 7 25.7 185 
 BAR2 SZ I         4 6 25.61        16.8 0.12            168           25.7 185 
 BRR  HZ IP     C  4 6  9.24                             153    0.3710 68.5 297 
 BRR  HN ES   1    4 6 26.26                             153    1.15 7 68.5 297 
 BRR  HZ I         4 6 29.27        14.8 0.38            148           68.5 297 
 PAM  SZ IP     D  4 6 10.41                             151    0.3710 76.5  42 
 PAM  SN ES   1    4 6 27.34                             151    0.15 7 76.5  42 
 PAM  SZ I         4 6 29.37        17.6 0.54            156           76.5  42 
 RUS  HZ EP   1    4 6 11.57                             143   -0.27 7  103 175 
 RUS  HE ES   1    4 6 30.34                             143   -0.07 7  103 175 
 RUS  HZ I         4 6 32.07         7.2 0.42            146            103 175 
 PTB  HZ EP   1    4 6 14.12                             132   -0.66 7  147 258 
 PTB  HN ES   1    4 6 35.09                             132   -0.55 7  147 258 
 PTB  HZ I         4 6 42.69         9.3 0.32            130            147 258 
 OCA  HE ES   2    4 6 37.39                             130   -0.35 5  157 354 
 ZAR  HZ EP   2    4 6 20.13                             122    0.01 4  202 292 
 ZAR  HN ES   1    4 6 45.32                             122    0.18 6  202 292 
 ZAR  HZ I         4 6 51.49         7.1 0.38            122            202 292 
 NOR  HZ EP   1    4 6 23.89                             118    0.19 6  235 234 
 NOR  HN ES   1    4 6 51.81                             118    0.29 6  235 234 
 NOR  HZ I         4 6 57.99         5.8 0.30            119            235 234 
 SML  HZ EP   1    4 6 23.82                             117   -0.42 6  241 335 
 SML  HN ES   1    4 6 51.64                             117   -0.84 6  241 335 
 SML  HZ I         4 7  3.03         7.3 0.26            118            241 335 
 CHI  HZ EP   1    4 6 26.10                             117    0.21 6  251 195 
 CHI  HN ES   1    4 6 55.25                             117   -0.16 6  251 195 
 CHI  HZ I         4 6 58.78         4.7 0.50            118            251 195 
 PRA  HZ EP   1    4 6 41.72                             106    0.03 4  394 209 
 PRA  HN ES   1    4 7 24.04                             106    0.52 4  394 209 
 PRA  HZ I         4 7 30.21         3.6 0.28            108            394 209 
                                                                                
