 2013  5 3 0602 51.4 L   6.793 -73.133152.0  RSN 10 0.5 2.0LRSN                1
 GAP=138        0.90       3.7     4.7  5.8 -0.2814E+01  0.5363E+01  0.1221E+01E
 Epicentro: LOS SANTOS - SANTANDER                                             3
 ACTION:UPD 13-06-20 09:47 OP:ep   STATUS:               ID:20130503060251 L   I
 2013-05-03-0600-00M.COL___253                                                 6
 STAT SP IPHASW D HRMM SECON CODA AMPLIT PERI AZIMU VELO AIN AR TRES W  DIS CAZ7
 BAR2 SZ EP   1    6 3 11.75                             171   -0.01 7 22.9 194 
 BAR2 SZ ES   1    6 3 27.39                             171   -0.26 7 22.9 194 
 BAR2 SZ I         6 3 29.58        22.1 0.28            168           22.9 194 
 BRR  HZ EP        6 3 13.60                             153    0.3010 72.8 299 
 BRR  HZ I         6 3 13.90        10.2 0.12            152           72.8 299 
 BRR  HN ES        6 3 31.04                             153    0.6510 72.8 299 
 PAM  SZ EP        6 3 14.46                             152    0.2110 77.1  38 
 PAM  SZ I         6 3 14.85        25.7 0.42            156           77.1  38 
 PAM  SN ES        6 3 31.88                             152   -0.2110 77.1  38 
 RUS  HZ EP        6 3 15.58                             145   -0.1210 99.7 177 
 RUS  HN ES   1    6 3 34.61                             145   -0.05 7 99.7 177 
 RUS  HZ I         6 3 35.43         5.5 0.22            144           99.7 177 
 PTB  HZ EP        6 3 18.34                             133   -0.64 9  149 259 
 PTB  HN ES        6 3 39.92                             133   -0.58 9  149 259 
 PTB  HZ I         6 3 45.53        15.8 0.42            132            149 259 
 OCA  HN ES   2    6 3 43.16                             131    0.36 5  161 353 
 NOR  HZ EP   1    6 3 28.01                             120    0.45 6  235 235 
 NOR  HN ES   2    6 3 56.60                             120    0.82 4  235 235 
 NOR  HZ I         6 3 59.39         8.1 0.22            119            235 235 
 SML  HZ EP        6 3 28.02                             119   -0.49 8  245 335 
 SML  HN ES   1    6 3 57.74                             119    0.28 6  245 335 
 PRA  HZ EP   1    6 3 45.81                             108    0.68 4  392 210 
 PRA  HN ES   1    6 4 27.89                             108    0.83 4  392 210 
 PRA  HZ I         6 4 33.21         3.9 0.60            108            392 210 
 SJC  HZ EP   2    6 3 46.61                             107   -0.71 3  411 327 
                                                                                
