 2012  2 3 0106 12.9 L   6.782 -73.159143.3  RSN 11 0.4 2.0LRSN                1
 GAP=136        0.72       3.4     3.8  5.3 -0.4462E+00  0.5542E+01  0.4308E+01E
 ACTION:DUP 12-03-07 16:27 OP:epov STATUS:               ID:20120203010614dL   I
 2012-02-03-0100-00M.COL___188                                                 6
 STAT SP IPHASW D HRMM SECON CODA AMPLIT PERI AZIMU VELO SNR AR TRES W  DIS CAZ7
 BAR2 SZ EP   1    1 6 32.18                             171   -0.04 7 21.1 187 
 BAR2 SZ ES   1    1 6 46.93                             171   -0.34 7 21.1 187 
 BAR2 SZ I         1 6 48.83        31.9 0.19                          21.1 187 
 GIR2 SZ EP        1 6 32.47                             166    0.1110 33.0 353 
 BRR  HZ EP   1    1 6 34.33                             152    0.53 7 70.9 301 
 BRR  HN ES   1    1 6 50.72                             152    0.65 7 70.9 301 
 BRR  HZ I         1 6 53.57        27.5 0.21                          70.9 301 
 PAM  SZ EP   1    1 6 35.09                             149    0.05 7 79.9  39 
 PAM  SZ I         1 6 35.48        22.7 0.16                          79.9  39 
 PAM  SN ES   1    1 6 52.09                             149   -0.19 7 79.9  39 
 RUS  HZ EP   1    1 6 36.42                             144    0.11 7 98.7 175 
 RUS  HN ES   1    1 6 54.24                             144   -0.29 7 98.7 175 
 RUS  HZ I         1 6 56.28        16.5 0.28                          98.7 175 
 PTB  HZ EP   1    1 6 39.23                             132   -0.30 7  146 259 
 PTB  HN ES   1    1 6 59.78                             132   -0.50 7  146 259 
 PTB  HZ I         1 7  2.54         0.0 0.07                           146 259 
 ZAR  HZ EP   1    1 6 44.19                             122   -0.96 6  203 293 
 ZAR  HN ES   1    1 7 10.49                             122    0.21 6  203 293 
 ZAR  HZ I         1 7 16.99        11.1 0.22                           203 293 
 NOR  SZ EP   1    1 6 48.33                             118    0.07 6  232 235 
 NOR  SN ES   1    1 7 16.04                             118    0.22 6  232 235 
 NOR  SZ I         1 7 21.51         0.9 0.21                           232 235 
 CHI  HZ EP   1    1 6 50.72                             117    0.48 6  246 195 
 CHI  HN ES   1    1 7 19.65                             117    0.31 6  246 195 
 RREF HZ EP   1    1 6 58.43                             110   -0.26 5  319 229 
 PRA  HZ EP   1    1 7  6.09                             106    0.01 4  390 210 
 PRA  HZ I         1 7 53.36        12.8 0.22                           390 210 
                                                                                
