 2011  1 3 0459 25.3 L   6.761 -73.120143.2  RSN  7 0.4 1.8LRSN                1
 GAP=167        0.67       5.5     7.6  6.8  0.6907E+01  0.2186E+02  0.7880E+01E
 Epicentro: LOS SANTOS - SANTANDER                                             3
 ACTION:UP  11-02-08 08:38 OP:pat  STATUS:               ID:20110103045925 L   I
 2011-01-03-0454-13S.COL___135                                                 6
 STAT SP IPHASW D HRMM SECON CODA AMPLIT PERI AZIMU VELO SNR AR TRES W  DIS CAZ7
 BAR2 SZ IP        459 44.54                             171    -0.110   20 201 
 BAR2 SZ ES   1    459 59.93                             171     0.3 7   20 201 
 BAR2 SZ I         5 0  1.98        18.0 0.25                            20 201 
 GIR2 SZ EP   2    459 44.65                             165    -0.2 5   36 347 
 GIR2 SZ ES   2    459 59.73                             165    -0.3 5   36 347 
 RUS  HZ EP        459 48.36                             145    -0.210   96 178 
 RUS  HN ES   1    5 0  6.71                             145     0.1 7   96 178 
 RUS  HZ I         5 0  8.01        11.6 0.31                            96 178 
 YOP  SN ES   2    5 0 17.74                             127     0.1 4  174 154 
 YOP  SZ I         5 0 19.76         6.5 0.41                           174 154 
 NOR  SZ EP   2    5 0  0.26                             118    -0.7 4  235 236 
 NOR  SN ES   2    5 0 28.26                             118    -0.4 4  235 236 
 CHI  HZ EP   2    5 0  2.71                             117     0.2 4  245 196 
 CHI  HE ES   2    5 0 31.36                             117    -0.2 4  245 196 
 CHI  HZ I         5 0 35.50         3.2 0.55                           245 196 
 HEL  HZ EP   1    5 0  6.49                             114     0.9 6  274 257 
 HEL  HZ I         5 0 43.05         5.2 0.37                           274 257 
                                                                                
