 2017 11 3 0107 24.5 L   6.765 -73.117141.4  RSN  9 0.5 1.7LRSN                1
 GAP= 96        1.14       4.2     3.5  6.7  0.3111E+01  0.3470E+01  0.3037E+01E
 Epicentro: LOS SANTOS - SANTANDER                                             3
 ACTION:UPD 17-12-12 19:51 OP:rebc STATUS:               ID:20171103010724 L   I
 OLDACT:REG 17-11-03 13:05 OP:dnl  STATUS:               ID:20171103005739     3
 2017-11-03-0058-00M.COL___441                                                 6
 STAT SP IPHASW D HRMM SECON CODA AMPLIT PERI AZIMU VELO AIN AR TRES W  DIS CAZ7
 BAR2 EZ EP   2    1 7 43.36                             171   -0.19 5 20.4 201 
 BAR2 EZ ES        1 7 58.36                             171   -0.0410 20.4 201 
 BAR2 EZ I         1 7 59.77        17.6 0.20            170           20.4 201 
 BRR  HZ EP        1 7 45.70                             150    0.2510 75.8 300 
 BRR  HE ES        1 8  2.54                             150    0.7510 75.8 300 
 BRR  HZ I         1 8  6.51        12.2 0.20            152           75.8 300 
 PAM  EZ EP        1 7 46.48                             150    0.1610 78.5  36 
 PAM  EN ES        1 8  3.16                             150   -0.1810 78.5  36 
 PAM  EZ I         1 8  5.84        10.0 0.64            153           78.5  36 
 RUS  HZ EP        1 7 47.81                             144    0.2810 96.6 178 
 RUS  HN ES        1 8  6.00                             144    0.5010 96.6 178 
 RUS  HZ I         1 8  6.98         6.4 0.52            145           96.6 178 
 PTB  HZ EP        1 7 50.84                             131   -0.50 9  150 261 
 PTB  HN ES        1 8 11.23                             131   -1.04 9  150 261 
 PTB  HZ I         1 8 14.14         6.7 0.36            132            150 261 
 TAM  HZ EP   2    1 7 51.84                             130    0.38 5  151 104 
 TAM  HN ES        1 8 11.71                             130   -0.78 9  151 104 
 TAM  HZ I         1 8 14.74         6.3 0.32            133            151 104 
 SPBC HZ EP        1 7 52.70                             128    0.12 9  162 221 
 SPBC HE ES        1 8 14.47                             128   -0.00 9  162 221 
 SPBC HZ I         1 8 20.55         5.5 0.58            129            162 221 
 YPLC HZ EP        1 7 54.10                             126    0.60 9  172 152 
 YPLC HE ES        1 8 15.78                             126   -0.34 9  172 152 
 YPLC HZ I         1 8 23.53         4.2 0.26            128            172 152 
 ZAR  HZ EP        1 7 57.00                             121   -0.12 8  208 293 
 ZAR  HN ES        1 8 22.60                             121    0.04 8  208 293 
 ZAR  HZ I         1 8 28.07         9.3 0.32            123            208 293 
                                                                                
