 2015  3 3 0150 42.4 L   6.816 -73.164148.1  RSN 12 0.4 1.7LRSN                1
 GAP=133        0.94       3.1     4.0  5.5 -0.7299E+00  0.4971E+01  0.2184E+01E
 Epicentro: LOS SANTOS - SANTANDER                                             3
 ACTION:UPD 15-04-30 16:22 OP:nd   STATUS:               ID:20150303015042 L   I
 OLDACT:REG 15-03-03 12:35 OP:spq  STATUS:               ID:20150303014750     3
 2015-03-03-0147-50M.COL___287                                                 6
 STAT SP IPHASW D HRMM SECON CODA AMPLIT PERI AZIMU VELO AIN AR TRES W  DIS CAZ7
 BAR2 EZ ES   1    151 17.67                             170   -0.18 7 24.8 185 
 BAR2 EZ I         151 18.28         6.8 0.28            169           24.8 185 
 BRR  HZ EP        151  3.78                             154    0.1710 68.5 298 
 BRR  HE ES        151 20.96                             154    0.7710 68.5 298 
 BRR  HZ I         151 25.14        16.0 0.52            151           68.5 298 
 PAM  SZ EP     C  151  4.99                             151    0.1710 77.4  42 
 PAM  SE ES        151 22.11                             151   -0.2310 77.4  42 
 PAM  SZ I         151 23.89        11.1 0.52            155           77.4  42 
 RUS  HZ EP   1    151  6.53                             144    0.05 7  103 175 
 RUS  HN ES        151 25.36                             144    0.0710  103 175 
 RUS  HZ I         151 26.00         6.1 0.38            145            103 175 
 PTB  HZ EP        151  8.81                             133   -0.55 9  146 258 
 PTB  HN ES        151 29.81                             133   -0.62 9  146 258 
 PTB  HZ I         151 32.56         5.0 0.18            132            146 258 
 SPBC HZ EP        151 10.80                             130   -0.24 9  163 218 
 SPBC HN ES        151 32.93                             130   -0.49 9  163 218 
 SPBC HZ I         151 40.26         6.9 0.28            129            163 218 
 ZAR  HZ EP   1    151 14.88                             123    0.19 6  201 292 
 ZAR  HN ES        151 40.40                             123    0.50 9  201 292 
 ZAR  HZ I         151 46.40         5.7 0.25            123            201 292 
 NOR  HZ EP   1    151 18.85                             119    0.70 6  234 234 
 NOR  HE ES   1    151 46.08                             119    0.01 6  234 234 
 NOR  HZ I         151 49.98         2.4 0.26            119            234 234 
 SML  HZ EP   1    151 18.44                             118   -0.40 6  241 336 
 SML  HN ES   1    151 46.58                             118   -0.72 6  241 336 
 SML  HZ I         151 53.15         5.5 0.10            119            241 336 
 CHI  HZ EP        151 20.45                             117    0.14 8  250 195 
 CHI  HN ES   1    151 50.10                             117    0.18 6  250 195 
 CHI  HZ I         151 53.36         2.2 0.42            118            250 195 
 GUY2CHN ES   4    152  3.09                             113    3.05 0  301 234 
 GUY2CHZ I         152  8.42         2.0 0.30                           301 234 
 PRA  HZ EP   1    151 36.86                             107    0.84 4  393 209 
 PRA  HN ES   1    152 18.55                             107    0.67 4  393 209 
 PRA  HZ I         152 25.10         1.6 0.40            107            393 209 
                                                                                
