 2016  6 3 0150 52.6 L   6.785 -73.133147.5  RSN  9 0.4 1.8LRSN                1
 GAP=139        1.07       4.3     4.9  6.2 -0.5978E+01  0.4392E+01  0.8064E+01E
 Epicentro: LOS SANTOS - SANTANDER                                             3
 ACTION:UPD 16-07-21 22:14 OP:rebc STATUS:               ID:20160603015052 L   I
 OLDACT:UP  16-06-03 15:00 OP:edw  STATUS:               ID:20160603014743     3
 OLDACT:REG 16-06-03 11:52 OP:edw  STATUS:               ID:20160603014743     3
 2016-06-03-0147-43M.COL___325                                                 6
 STAT SP IPHASW D HRMM SECON CODA AMPLIT PERI AZIMU VELO AIN AR TRES W  DIS CAZ7
 BAR2 EZ EP        151 12.27                             171   -0.1310 22.0 194 
 BAR2 EZ ES        151 27.15                             171   -0.7010 22.0 194 
 BAR2 EZ I         151 28.77        14.7 0.12                          22.0 194 
 BRR  HZ EP        151 14.11                             152    0.0810 73.2 299 
 BRR  HN ES        151 31.27                             152    0.5010 73.2 299 
 PAM  EZ EP        151 15.16                             151    0.1510 77.8  38 
 PAM  EN ES        151 32.35                             151   -0.1610 77.8  38 
 PAM  EZ I         151 34.37        15.2 0.46                          77.8  38 
 RUS  HZ EP        151 16.65                             145    0.2710 98.8 177 
 RUS  HE ES        151 35.56                             145    0.6210 98.8 177 
 RUS  HZ I         151 36.09        10.8 0.30                          98.8 177 
 PTB  HZ EP        151 19.35                             132   -0.43 9  149 260 
 PTB  HE ES        151 41.36                             132    0.36 9  149 260 
 PTB  HZ I         151 45.00         5.0 0.22                           149 260 
 SPBC HZ EP        151 21.07                             129   -0.10 9  163 220 
 SPBC HE ES        151 42.82                             129   -0.65 9  163 220 
 SPBC HZ I         151 46.51        13.4 0.16                           163 220 
 NOR  HZ EP        151 28.99                             119    0.56 8  235 235 
 NOR  HE ES        151 55.98                             119   -0.41 8  235 235 
 NOR  HZ I         152  1.85         5.7 0.16                           235 235 
 CHI  HZ EP        151 29.51                             118   -0.73 8  247 196 
 CHI  HN ES        152  0.06                             118    0.45 8  247 196 
 CHI  HZ I         152  3.15         2.8 0.60                           247 196 
 PRA  HZ EP        151 46.06                             107   -0.01 6  391 210 
 PRA  HN ES        152 28.19                             107    0.40 6  391 210 
 PRA  HZ I         152 33.53         1.9 0.20                           391 210 
                                                                                
