 2016  3 3 0831 16.4 L   6.787 -73.130150.9  RSN  4 0.3 1.3LRSN                1
 GAP=245        0.81       8.1     7.0 10.8  0.3865E+02 -0.2182E+02 -0.4129E+02E
 Epicentro: LOS SANTOS - SANTANDER                                             3
 ACTION:UPD 16-05-13 21:21 OP:cam  STATUS:               ID:20160303083116 L   I
 OLDACT:DUP 16-03-03 19:05 OP:mh   STATUS:               ID:20160303082749d    3
 2016-03-03-0827-48M.COL___312                                                 6
 STAT SP IPHASW D HRMM SECON CODA AMPLIT PERI AZIMU VELO AIN AR TRES W  DIS CAZ7
 RUS  HZ EP        831 40.92                             145    0.3610 99.0 177 
 RUS  HE ES        831 59.19                             145   -0.2010 99.0 177 
 RUS  HZ I         832  1.44         1.6 0.18            150           99.0 177 
 PTB  HZ EP        831 43.39                             133   -0.53 9  149 260 
 PTB  HE ES        832  5.81                             133    0.43 9  149 260 
 PTB  HZ I         832  7.95         2.4 0.14            136            149 260 
 SPBC HZ EP        831 45.48                             130    0.18 9  163 220 
 SPBC HN ES        832  7.65                             130   -0.18 9  163 220 
 SPBC HZ I         832 10.52         3.8 0.28            134            163 220 
 ZAR  HN ES        832 15.05                             123   -0.09 8  206 292 
 ZAR  HZ I         832 20.87         2.8 0.25            126            206 292 
                                                                                
