 2014  9 3 0350 22.4 L   6.814 -73.186148.9  RSN  6 0.4 1.3LRSN                1
 GAP=179        0.92       4.5     6.5 12.0  0.4413E+01  0.6402E+00 -0.3461E+01E
 Epicentro: ZAPATOCA - SANTANDER                                               3
 ACTION:UPD 14-10-03 23:01 OP:nd   STATUS:               ID:20140903035022 L   I
 OLDACT:REG 14-09-03 12:52 OP:mher STATUS:               ID:20140903034815     3
 2014-09-03-0348-15M.COL___266                                                 6
 STAT SP IPHASW D HRMM SECON CODA AMPLIT PERI AZIMU VELO AIN AR TRES W  DIS CAZ7
 BRR  HZ IP     D  350 43.86                             155    0.2110 66.6 299 
 BRR  HN ES   1    351  0.65                             155    0.43 7 66.6 299 
 BRR  HZ I         351 12.65         4.7 0.72            155           66.6 299 
 RUS  HZ EP   1    350 46.18                             144   -0.43 7  102 174 
 RUS  HE ES   1    351  4.98                             144   -0.50 7  102 174 
 RUS  HZ I         351  6.65         2.1 0.17            156            102 174 
 PTB  HZ EP   1    350 49.75                             133    0.47 7  144 258 
 PTB  HN ES   1    351  9.73                             133   -0.50 7  144 258 
 OCA  HN ES   1    351 12.97                             131    0.05 7  158 355 
 SPBC HN ES        351 13.84                             130    0.53 9  162 217 
 ZAR  HN ES        351 19.16                             124   -0.52 9  199 292 
 ZAR  HZ I         351 27.81         2.4 0.30            130            199 292 
                                                                                
