 2015  7 3 0308 14.6 L   6.792 -73.165142.5  RSN 11 0.3 2.0LRSN                1
 GAP=135        0.64       1.8     3.1  4.3 -0.7241E+00  0.7384E+01 -0.1857E+00E
 Epicentro: LOS SANTOS - SANTANDER                                             3
 ACTION:UPD 15-09-08 21:46 OP:cam  STATUS:               ID:20150703030814 L   I
 OLDACT:UP  15-07-03 17:49 OP:ar   STATUS:               ID:20150703030749     3
 OLDACT:UP  15-07-03 17:47 OP:ar   STATUS:               ID:20150703030749     3
 OLDACT:REG 15-07-03 13:45 OP:ar   STATUS:               ID:20150703030749     3
 2015-07-03-0307-49M.COL___325                                                 6
 STAT SP IPHASW D HRMM SECON CODA AMPLIT PERI AZIMU VELO AIN AR TRES W  DIS CAZ7
 BAR2 EZ EP        3 8 33.84                             171   -0.0110 22.2 185 
 BAR2 EZ ES        3 8 48.87                             171    0.0310 22.2 185 
 BAR2 EZ I         3 8 50.30        21.2 0.18            165           22.2 185 
 PAM  EZ EP        3 8 36.82                             150    0.1910 79.4  40 
 PAM  EN ES        3 8 53.87                             150    0.0910 79.4  40 
 PAM  EZ I         3 8 54.84         7.1 0.14            148           79.4  40 
 RUS  HZ EP        3 8 37.91                             143   -0.1110 99.9 175 
 RUS  HE ES        3 8 56.42                             143    0.1710 99.9 175 
 RUS  HZ I         3 8 57.76         7.4 0.40            136           99.9 175 
 OCA  HN ES        3 9  4.51                             129   -0.18 9  161 354 
 OCA  HZ I         3 9  7.06        22.3 0.24            124            161 354 
 ZAR  HZ EP        3 8 46.85                             122    0.15 9  202 293 
 ZAR  HN ES        3 9 11.98                             122    0.26 9  202 293 
 ZAR  HZ I         3 9 17.57        11.3 0.56            116            202 293 
 NOR  HZ EP        3 8 50.21                             118    0.27 8  232 234 
 NOR  HE ES        3 9 17.44                             118   -0.03 8  232 234 
 NOR  HZ I         3 9 24.76         7.3 0.16            112            232 234 
 SML  HZ EP        3 8 50.85                             117   -0.22 8  244 336 
 SML  HN ES        3 9 19.04                             117   -0.45 8  244 336 
 SML  HZ I         3 9 21.09        10.3 0.09            112            244 336 
 CHI  HZ EP   2    3 8 51.93                             117   -0.07 4  247 195 
 CHI  HE ES        3 9 20.40                             117   -0.75 8  247 195 
 CHI  HZ I         3 9 28.34         4.0 0.22            110            247 195 
 ROSC BE ES   4    3 9 19.68                             116   -2.14 0  251 211 
 ROSC BZ I         3 9 30.39         9.3 0.30            110            251 211 
 GUY2CHZ EP        3 8 58.37                             112    0.53 7  299 235 
 GUY2CHE ES        3 9 31.30                             112   -0.24 7  299 235 
 GUY2CHZ I         3 9 40.33         7.8 0.40                           299 235 
 PAL  HZ EP        3 9  9.73                             105    0.31 6  403 239 
 PAL  HZ I         310  4.31         2.9 0.36            101            403 239 
                                                                                
