 2010  1 3 0404 18.7 L   5.909 -73.607123.2  RSN  5 0.1 1.0LRSN                1
 GAP=124        0.28       1.8     3.0  4.1 -0.2928E+01  0.2838E+01 -0.3953E-01E
 Epicentro: BARBOSA - SANTANDER                                                3
 ACTION:UP  10-08-24 09:42 OP:vdl  STATUS:               ID:20100103040418 L   I
 2010-01-03-0400-31S.COL___097                                                 6
 STAT SP IPHASW D HRMM SECON CODA AMPLIT PERI AZIMU VELO SNR AR TRES W  DIS CAZ7
 RUS  BZ EP   1    4 4 37.48                             153     0.1 7   58  92 
 RUS  BN ES   2    4 4 51.98                             153     0.0 5   58  92 
 RUS  BZ I         4 4 52.99         2.7 0.25                            58  92 
 BAR2 SZ IP        4 4 39.06                             142     0.010   89  32 
 BAR2 SZ ES   1    4 4 54.97                             142     0.0 7   89  32 
 GIR2 SZ EP   2    4 4 43.00                             129    -0.1 5  137  19 
 CHI  HZ EP   1    4 4 44.04                             128     0.1 7  142 186 
 CHI  HN ES   1    4 5  3.55                             128    -0.1 7  142 186 
 CHI  HZ I         4 5  6.21         1.5 0.29                           142 186 
 NOR  SZ ES   2    4 5  3.32                             127     0.0 5  145 255 
                                                                                
