 2012  3 3 0840 54.6 L   6.769 -73.131143.4  RSN  9 0.4 1.9LRSN                1
 GAP=184        0.96       3.8     6.0  6.1  0.3007E+01  0.6045E+01  0.2105E+01E
 ACTION:UP  12-03-31 23:16 OP:EP   STATUS:               ID:20120303084054 L   I
 2012-03-03-0840-00M.COL___191                                                 6
 STAT SP IPHASW D HRMM SECON CODA AMPLIT PERI AZIMU VELO SNR AR TRES W  DIS CAZ7
 BAR2 SZ EP        841 14.00                             172     0.110   20 196 
 BAR2 SZ ES        841 28.64                             172    -0.310   20 196 
 BAR2 SZ I         841 30.17        15.9 0.17                            20 196 
 BRR  HZ EP        841 15.80                             151     0.210   74 300 
 BRR  HN ES        841 32.57                             151     0.510   74 300 
 BRR  HZ I         841 33.68        22.3 0.12                            74 300 
 RUS  HZ EP        841 17.94                             144     0.110   97 177 
 RUS  HZ I         841 19.25         6.8 0.17                            97 177 
 RUS  HN ES   1    841 35.63                             144    -0.4 7   97 177 
 PTB  HZ EP        841 20.71                             131    -0.7 9  149 260 
 PTB  HE ES   2    841 42.05                             131    -0.3 5  149 260 
 OCA  SZ EP        841 22.92                             128    -0.1 9  164 353 
 OCA  SZ ES   1    841 45.32                             128     0.1 7  164 353 
 ZAR  HZ EP   1    841 26.35                             122    -0.8 6  207 293 
 ZAR  HE ES   1    841 52.91                             122     0.4 6  207 293 
 ZAR  HZ I         841 57.56         8.8 0.38                           207 293 
 NOR  SZ EP   1    841 29.93                             118    -0.2 6  234 235 
 NOR  SN ES   1    841 57.73                             118    -0.1 6  234 235 
 CHI  HZ EP   1    841 32.35                             117     0.5 6  246 196 
 CHI  HN ES   1    842  1.24                             117     0.4 6  246 196 
 CHI  HZ I         842  5.60         4.6 0.38                           246 196 
 ROSC BZ EP   1    841 33.02                             116     0.7 6  251 212 
 ROSC BZ I         842  9.51        10.0 0.40                           251 212 
                                                                                
