 2017  8 3 0249 57.7 L   6.692 -73.208146.0  RSN  4 0.5 1.0LRSN                1
 GAP=216        0.99       7.8     7.5  8.8  0.2353E+02  0.1606E+02 -0.2531E+01E
 Epicentro: VILLANUEVA - SANTANDER                                             3
 ACTION:UPD 17-09-04 20:15 OP:rebc STATUS:               ID:20170803024957 L   I
 OLDACT:UP  17-08-03 19:44 OP:nlst STATUS:               ID:20170803024957 L   3
 OLDACT:DUP 17-08-03 17:44 OP:osc  STATUS:               ID:20170803024740d    3
 OLDACT:UP  17-08-03 17:41 OP:osc  STATUS:               ID:20170803024739     3
 OLDACT:REG 17-08-03 14:39 OP:osc  STATUS:               ID:20170803024739     3
 2017-08-03-0248-00M.COL___398                                                 6
 STAT SP IPHASW D HRMM SECON CODA AMPLIT PERI AZIMU VELO AIN AR TRES W  DIS CAZ7
 BAR2 EZ EP        250 16.98                             175   -0.1510 11.4 165 
 BAR2 EZ ES        250 31.73                             175   -0.6010 11.4 165 
 BAR2 EZ I         250 33.61         3.4 0.08            173           11.4 165 
 BRR  HZ EP        250 19.32                             152    0.4310 72.2 310 
 BRR  HE ES        250 35.61                             152    0.1610 72.2 310 
 BRR  HZ I         250 37.53         4.0 0.14            153           72.2 310 
 RUS  HZ EP   3    250 18.58                             147   -2.08 2 89.4 171 
 RUS  HN ES        250 39.03                             147    0.4310 89.4 171 
 RUS  HZ E         250 41.33                                           89.4 171 
 RUS  HZ I         250 41.33         1.1 0.21            147           89.4 171 
 PTB  HZ EP        250 23.96                             133    0.09 9  139 263 
 PTB  HN ES        250 44.05                             133   -0.26 9  139 263 
 PTB  HZ I         250 47.19         0.9 0.19            134            139 263 
                                                                                
