 2014  7 3 0357  8.5 L   6.812 -73.162147.1  RSN 14 0.4 2.3LRSN                1
 GAP= 70        0.93       2.8     3.1  5.2 -0.8041E+00  0.2332E+01  0.2451E+01E
 Epicentro: LOS SANTOS - SANTANDER                                             3
 ACTION:UPD 15-03-16 20:40 OP:nd   STATUS:               ID:20140703035708 L   I
 OLDACT:UP  14-07-03 14:58 OP:cam  STATUS:               ID:20140703035000     3
 OLDACT:UP  14-07-03 14:57 OP:cam  STATUS:               ID:20140703035000     3
 OLDACT:REG 14-07-03 12:56 OP:cam  STATUS:               ID:20140703035000     3
 2014-07-03-0350-00M.COL___279                                                 6
 STAT SP IPHASW D HRMM SECON CODA AMPLIT PERI AZIMU VELO AIN AR TRES W  DIS CAZ7
 BRR  HZ EP     C  357 29.90                             153    0.2110 69.0 298 
 BRR  HN ES        357 47.08                             153    0.8810 69.0 298 
 BRR  HZ I         357 50.88        26.4 0.24            152           69.0 298 
 PAM  SZ EP     D  357 31.10                             151    0.2210 77.5  41 
 PAM  SN ES        357 48.23                             151   -0.1010 77.5  41 
 PAM  SZ I         357 50.28        33.8 0.50            156           77.5  41 
 RUS  HZ EP        357 32.35                             144   -0.1610  102 175 
 RUS  HE ES        357 51.00                             144   -0.2210  102 175 
 RUS  HZ I         357 52.20        23.0 0.30            145            102 175 
 PTB  HZ EP        357 34.85                             133   -0.61 9  146 258 
 PTB  HN ES        357 55.61                             133   -0.86 9  146 258 
 PTB  HZ I         357 58.43        16.2 0.14            133            146 258 
 TAM  HZ EP     C  357 36.56                             130    0.07 9  157 105 
 SPBC HZ EP        357 37.11                             129   -0.00 9  163 218 
 SPBC HE ES        357 59.29                             129   -0.13 9  163 218 
 SPBC HZ I         358  5.31        27.8 0.20            130            163 218 
 ZAR  HZ EP        357 41.00                             123    0.18 9  202 292 
 ZAR  HN ES        358  6.29                             123    0.27 9  202 292 
 ZAR  HZ I         358 11.50        29.8 0.82            124            202 292 
 SML  HZ EP        357 44.86                             118   -0.14 8  242 336 
 SML  HE ES        358 12.90                             118   -0.56 8  242 336 
 SML  HZ I         358 15.26        39.0 0.28            120            242 336 
 CHI  HZ EP        357 46.48                             117    0.10 8  249 195 
 ROSC BZ EP   4    357 48.38                             117    1.65 0  253 211 
 ROSC BE ES   4    358 19.30                             117    2.75 0  253 211 
 ROSC BZ I         358 22.82        26.0 0.40            118            253 211 
 HEL  HZ EP        357 49.20                             115    0.56 8  271 255 
 HEL  HN ES        358 20.18                             115    0.24 8  271 255 
 HEL  HZ I         358 28.41         7.3 0.36            116            271 255 
 GUY2CHZ EP   4    357 53.61                             113    1.50 0  301 234 
 GUY2CHN ES        358 25.74                             113   -0.37 7  301 234 
 GUY2CHZ I         358 34.34         8.9 0.40                           301 234 
 PTGC HZ EP   4    357 51.39                             112   -1.26 0  311 158 
 RREF HZ EP   4    357 52.97                             111   -1.69 0  321 229 
 CBOC HZ EP   4    357 56.45                             110    1.11 0  332 252 
 PRA  HZ EP        358  2.16                             107    0.04 6  392 209 
 PRA  HN ES        358 44.37                             107    0.45 6  392 209 
 PRA  HZ I         358 50.59        11.3 0.26            108            392 209 
 ORTC HZ EP   1    358  2.64                             107    0.16 4  395 216 
 ORTC HN ES        358 44.80                             107    0.22 6  395 216 
 ORTC HZ I         358 51.29         4.7 0.32            108            395 216 
 SJC  HZ EP   4    358  2.43                             106   -1.44 0  407 327 
                                                                                
