 2016 12 3 0806  1.7 L   6.763 -73.111143.3  RSN 12 0.4 2.0LRSN                1
 GAP= 69        0.79       4.3     2.7  4.9 -0.1609E+01  0.6485E+00  0.7942E+01E
 Epicentro: LOS SANTOS - SANTANDER                                             3
 ACTION:UPD 17-01-11 20:12 OP:rebc STATUS:               ID:20161203080601 L   I
 OLDACT:UP  16-12-03 15:33 OP:dani STATUS:               ID:20161203075742     3
 OLDACT:UP  16-12-03 15:33 OP:dani STATUS:               ID:20161203075742     3
 OLDACT:UP  16-12-03 15:31 OP:dani STATUS:               ID:20161203075742     3
 OLDACT:UP  16-12-03 15:31 OP:dani STATUS:               ID:20161203075742     3
 OLDACT:REG 16-12-03 12:54 OP:dnl  STATUS:               ID:20161203075742     3
 2016-12-03-0758-00M.COL___349                                                 6
 STAT SP IPHASW D HRMM SECON CODA AMPLIT PERI AZIMU VELO AIN AR TRES W  DIS CAZ7
 BAR2 EZ EP     C  8 6 20.94                             171   -0.0110 20.5 203 
 BAR2 EZ ES        8 6 35.56                             171   -0.4310 20.5 203 
 BAR2 EZ I         8 6 36.73        35.1 0.18            168           20.5 203 
 BRR  HZ EP        8 6 22.87                             150   -0.0010 76.6 300 
 BRR  HN ES        8 6 39.66                             150    0.2510 76.6 300 
 BRR  HZ I         8 6 43.73        19.5 0.08            152           76.6 300 
 PAM  EZ EP        8 6 24.01                             150    0.3310 78.2  35 
 PAM  EN ES        8 6 40.62                             150   -0.2210 78.2  35 
 PAM  EZ I         8 6 43.40        22.1 0.50            154           78.2  35 
 TAM  HZ EP        8 6 29.35                             131    0.64 9  150 104 
 PTB  HZ EP   3    8 6 27.49                             131   -1.23 2  151 261 
 PTB  HN ES        8 6 49.61                             131   -0.22 9  151 261 
 PTB  HZ I         8 6 50.93        18.3 0.15            132            151 261 
 ZAR  HZ EP        8 6 33.97                             121   -0.52 8  209 293 
 ZAR  HN ES        8 7  0.16                             121    0.07 8  209 293 
 ZAR  HZ I         8 7  1.13         9.1 0.15            123            209 293 
 NOR  HZ EP        8 6 37.37                             118    0.02 8  236 236 
 NOR  HN ES        8 7  5.59                             118    0.41 8  236 236 
 NOR  HZ I         8 7  6.87         9.4 0.17            118            236 236 
 ROSC BZ EP   4    8 6 40.78                             116    1.28 0  251 212 
 ROSC BN ES   4    8 7 13.35                             116    4.34 0  251 212 
 ROSC BZ I         8 7 18.20         9.5 0.45            117            251 212 
 URE  HZ EP   4    8 6 45.42                             113    2.22 0  289 292 
 URE  HE ES   4    8 7 13.01                             113   -2.58 0  289 292 
 URE  HZ I         8 7 15.14         8.2 0.19            114            289 292 
 PTGC HZ EP        8 6 44.36                             111   -0.47 7  304 159 
 PTGC HE ES   3    8 7 17.33                             111   -1.16 2  304 159 
 PTGC HZ I         8 7 21.76         4.2 0.40            112            304 159 
 CBOC HZ EP   3    8 6 49.82                             109    1.05 2  336 253 
 CBOC HN ES        8 7 25.76                             109    0.25 7  336 253 
 CBOC HZ I         8 7 28.89         2.7 0.31            110            336 253 
 PRA  HN ES   4    8 7 32.83                             106   -3.63 0  390 210 
 SJC  HZ EP   3    8 6 55.90                             105   -1.90 1  415 327 
 SJC  HE ES   4    8 7 38.07                             105   -3.51 0  415 327 
 SJC  HZ I         8 7 41.63         1.1 0.38            106            415 327 
                                                                                
