 2012  6 3 0241  5.3 L   6.804 -73.148146.9  RSN  9 0.3 2.1LRSN                1
 GAP=136        0.56       2.3     3.1  4.5 -0.7810E+00  0.4502E+01  0.7822E+00E
 Epicentro: LOS SANTOS - SANTANDER                                             3
 ACTION:UPD 12-08-06 17:46 OP:ep   STATUS:               ID:20120603024104 L   I
 2012-06-03-0240-00M.COL___201                                                 6
 STAT SP IPHASW D HRMM SECON CODA AMPLIT PERI AZIMU VELO AIN AR TRES W  DIS CAZ7
 BAR2 SZ IP     C  241 25.14                             170    0.0710 23.8 189 
 BAR2 SZ I         241 25.40        24.6 0.22            169           23.8 189 
 BAR2 SZ ES   1    241 40.44                             170   -0.05 7 23.8 189 
 PAM  SZ EP        241 28.07                             151    0.4510 77.2  40 
 PAM  SN ES   1    241 44.85                             151   -0.18 7 77.2  40 
 RUS  HZ EP   1    241 29.03                             144   -0.16 7  101 176 
 RUS  HN ES   1    241 48.01                             144    0.18 7  101 176 
 RUS  HZ I         241 49.47        13.4 0.30            147            101 176 
 PTB  HZ EP   1    241 31.86                             132   -0.48 7  148 259 
 PTB  HE ES   1    241 53.52                             132    0.09 7  148 259 
 PTB  HZ I         241 55.41        12.9 0.13            131            148 259 
 OCA  HZ EP   1    241 33.36                             130   -0.29 7  160 353 
 OCA  HE ES   1    241 55.42                             130   -0.34 7  160 353 
 OCA  HZ I         242  0.25        42.4 0.37                           160 353 
 ZAR  HZ EP   1    241 37.68                             123   -0.09 6  204 292 
 ZAR  HN ES   1    242  3.29                             123    0.19 6  204 292 
 ZAR  HZ I         242 10.80        14.0 0.27            122            204 292 
 CHI  HZ EP   1    241 43.20                             117    0.10 6  249 195 
 CHI  HE ES   1    242 12.23                             117   -0.36 6  249 195 
 CHI  HZ I         242 17.22         6.7 0.30                           249 195 
 HEL  HZ EP   2    241 46.44                             115    0.89 4  272 256 
 HEL  HN ES   2    242 17.46                             115    0.51 4  272 256 
 HEL  HZ I         242 24.07         7.6 0.37            115            272 256 
 PRA  HZ EP   1    241 58.86                             107   -0.03 4  392 209 
 PRA  HN ES   1    242 40.38                             107   -0.31 4  392 209 
                                                                                
