 2014 10 3 0726 56.4 L   6.234 -73.417125.9  RSN  6 0.5 1.3LRSN                1
 GAP=102        1.00       6.1     5.6 10.4 -0.2575E+01  0.2327E+02 -0.6238E+01E
 Epicentro: GUADALUPE - SANTANDER                                              3
 ACTION:UPD 14-11-29 23:46 OP:nd   STATUS:               ID:20141003072656 L   I
 OLDACT:DUP 14-10-03 18:18 OP:fm   STATUS:               ID:20141003071738d    3
 2014-10-03-0717-37M.COL___282                                                 6
 STAT SP IPHASW D HRMM SECON CODA AMPLIT PERI AZIMU VELO AIN AR TRES W  DIS CAZ7
 BAR2 SZ EP   1    727 14.72                             158    0.24 7 47.4  33 
 BAR2 SZ ES   1    727 29.00                             158    0.42 7 47.4  33 
 BAR2 SZ I         727 30.60         8.9 0.34            161           47.4  33 
 RUS  HZ EP   1    727 14.98                             156   -0.12 7 52.8 136 
 RUS  HN ES   1    727 28.91                             156   -0.79 7 52.8 136 
 RUS  HZ I         727 32.89         2.4 0.22            162           52.8 136 
 SPBC HZ EP        727 17.68                             140    0.2710 97.0 229 
 SPBC HE ES        727 34.30                             140    0.5010 97.0 229 
 SPBC HZ I         727 38.75         4.4 0.80            143           97.0 229 
 PTB  HZ EP   1    727 18.72                             133   -0.50 7  120 286 
 PTB  HN ES   1    727 36.28                             133   -0.75 7  120 286 
 PTB  HZ I         727 38.39         3.9 0.32            136            120 286 
 ZAR  HN ES   1    727 53.85                             117    0.41 6  212 311 
 ZAR  HZ I         727 59.55         1.9 0.28            120            212 311 
 GUY2CHN ES   1    728  0.31                             113   -0.38 6  243 243 
 GUY2CHZ I         728  6.90         0.9 0.48                           243 243 
                                                                                
