 2017  1 3 0446 48.3 L   6.786 -73.178147.2  RSN  6 0.4 1.3LRSN                1
 GAP=233        1.08       6.2     7.7  7.8  0.1848E+02  0.8842E+01  0.1344E+02E
 Epicentro: LOS SANTOS - SANTANDER                                             3
 ACTION:UPD 17-05-22 15:54 OP:jn   STATUS:               ID:20170103044648 L   I
 OLDACT:REG 17-01-03 12:34 OP:lv   STATUS:               ID:20170103043741     3
 2017-01-03-0438-00M.COL___381                                                 6
 STAT SP IPHASW D HRMM SECON CODA AMPLIT PERI AZIMU VELO AIN AR TRES W  DIS CAZ7
 BAR2 EZ EP        447  7.64                             171   -0.4610 21.5 181 
 BAR2 EZ ES        447 22.88                             171   -0.6410 21.5 181 
 BAR2 EZ I         447 25.30         7.4 0.23            168           21.5 181 
 BRR  HZ EP        447  9.54                             154    0.0410 68.9 301 
 BRR  HE ES        447 26.71                             154    0.6910 68.9 301 
 RUS  HZ EP        447 12.34                             144    0.2010 99.4 174 
 RUS  HE ES        447 31.18                             144    0.4710 99.4 174 
 RUS  HZ I         447 31.63         2.3 0.28            143           99.4 174 
 PTB  HZ EP        447 14.78                             133   -0.29 9  144 259 
 PTB  HN ES        447 35.73                             133   -0.21 9  144 259 
 PTB  HZ I         447 38.72         2.5 0.28            132            144 259 
 CHI  HZ EP        447 26.31                             118    0.46 8  246 194 
 CHI  HN ES        447 54.87                             118   -0.25 8  246 194 
 CHI  HZ I         447 59.29         0.7 0.13            118            246 194 
 GUY2CHZ EP   4    447 33.21                             113    1.63 0  297 235 
 GUY2CHN ES   4    448  8.92                             113    3.61 0  297 235 
 GUY2CHZ I         448 14.11         1.1 0.32                           297 235 
                                                                                
