 2012  1 3 0611  9.9 L   6.816 -73.145148.6  RSN 20 0.5 3.3LRSN                1
 GAP=113        1.18       4.2     5.2  6.7  0.2538E+01  0.1205E+02  0.8120E+01E
 Epicentro: LOS SANTOS - SANTANDER                                             3
 ACTION:UP  12-02-03 08:13 OP:REBC STATUS:               ID:20120103061109 L   I
 2012-01-03-0610-00M.COL___184                                                 6
 STAT SP IPHASW D HRMM SECON CODA AMPLIT PERI AZIMU VELO SNR AR TRES W  DIS CAZ7
 BAR2 SZ IP        611 29.98                             170     0.110   25 189 
 BAR2 SZ ES   1    611 45.10                             170    -0.4 7   25 189 
 BAR2 SZ I         611 47.82       414.0 0.42                            25 189 
 BRR  HZ IP     C  611 31.77                             153     0.410   70 297 
 BRR  HN ES   1    611 49.02                             153     1.0 7   70 297 
 BRR  HZ I         611 53.46       184.7 0.20                            70 297 
 PAM  SZ IP     C  611 32.60                             152     0.210   76  40 
 PAM  SN ES   1    611 49.76                             152    -0.1 7   76  40 
 RUS  HZ IP     C  611 33.87                             144    -0.210  102 176 
 RUS  HN ES   1    611 52.68                             144    -0.2 7  102 176 
 RUS  HZ I         611 54.32       161.7 0.36                           102 176 
 PTB  HZ IP     C  611 36.48                             132    -0.7 9  148 258 
 PTB  HN ES   2    611 56.90                             132    -1.5 5  148 258 
 PTB  HZ I         612  5.11       245.1 0.44                           148 258 
 OCA  SZ EP        611 37.96                             131    -0.3 9  159 353 
 OCA  SZ ES   2    612  0.13                             131    -0.3 5  159 353 
 OCA  SZ I         612  5.31       179.0 0.50                           159 353 
 YOP  SZ EP        611 40.43                             127     0.1 9  180 154 
 YOP  SE ES   1    612  4.44                             127     0.4 7  180 154 
 YOP  SZ I         612  7.70       147.6 0.36                           180 154 
 ZAR  HZ EP        611 42.38                             123    -0.1 9  203 292 
 ZAR  HE ES   1    612  8.02                             123     0.1 6  203 292 
 ZAR  HZ I         612 20.04       103.3 0.58                           203 292 
 NOR  SZ EP        611 45.71                             119    -0.2 8  236 234 
 NOR  SN ES   1    612 13.62                             119    -0.4 6  236 234 
 CHI  HZ IP     C  611 47.78                             117    -0.2 8  250 195 
 CHI  HZ I         611 50.30        55.3 0.24                           250 195 
 CHI  HE ES   2    612 18.11                             117     0.5 4  250 195 
 HEL  HZ EP        611 50.71                             115     0.4 8  273 255 
 HEL  HZ I         612 29.19       136.4 0.46                           273 255 
 GUY  SZ EP        611 55.07                             113     1.0 7  305 235 
 GUY  SZ I         612 38.07       225.4 0.46                           305 235 
 VIL  SZ EP        611 53.12                             112    -0.5 7  305 192 
 RREF HZ EP        611 56.63                             111     0.3 7  323 229 
 RREF HZ I         612 44.99       127.3 0.28                           323 229 
 TOL  SZ EP        611 59.25                             110     0.8 7  345 224 
 COD  HZ EP   2    611 57.24                             109    -1.0 3  347 355 
 COD  HZ I         612 44.67       104.1 0.86                           347 355 
 MON  HZ EP   3    611 56.98                             109    -1.9 2  353 308 
 ANIL HZ EP        612  0.60                             109     0.6 6  359 224 
 PRA  HZ EP        612  3.17                             107    -0.6 6  394 209 
 YOT  HZ EP        612 12.65                             104    -0.5 5  473 229 
 YOT  HZ I         612 15.56        37.6 0.54                           473 229 
                                                                                
