 2017  6 3 0325  9.3 L   6.738 -73.163146.1  RSN  6 0.5 1.7LRSN                1
 GAP=231        1.29       7.1     7.9  9.8  0.9763E+01  0.6783E+00  0.1305E+02E
 Epicentro: LOS SANTOS - SANTANDER                                             3
 ACTION:UPD 17-09-14 16:49 OP:jn   STATUS:               ID:20170603032509 L   I
 OLDACT:DUP 17-06-03 17:46 OP:ar   STATUS:               ID:20170603031739d    3
 2017-06-03-0318-00M.COL___359                                                 6
 STAT SP IPHASW D HRMM SECON CODA AMPLIT PERI AZIMU VELO AIN AR TRES W  DIS CAZ7
 BRR  HZ IP     D  325 30.39                             152   -0.1610 73.1 304 
 BRR  HN ES        325 47.85                             152    0.6910 73.1 304 
 BRR  HZ I         325 52.22         9.1 0.12            152           73.1 304 
 RUS  HZ EP        325 32.72                             146    0.1510 93.9 175 
 RUS  HN ES        325 50.21                             146   -0.5510 93.9 175 
 RUS  HZ I         325 51.26         6.4 0.40            149           93.9 175 
 PTB  HZ EP        325 35.67                             133   -0.30 9  145 261 
 PTB  HN ES        325 55.78                             133   -1.03 9  145 261 
 SPBC HZ EP        325 37.13                             130   -0.04 9  157 220 
 SPBC HE ES        325 59.80                             130    0.86 9  157 220 
 SPBC HZ I         326  3.39         6.2 0.10            133            157 220 
 NOR  HZ EP        325 44.80                             119    0.39 8  229 236 
 NOR  HN ES        326 11.93                             119    0.10 8  229 236 
 CHI  HZ EP        325 46.23                             118    0.03 8  241 195 
 CHI  HN ES   4    326 17.34                             118    2.32 0  241 195 
                                                                                
