 2015  1 3 0154 22.8 L   6.811 -73.149142.1  RSN 19 0.7 2.1LRSN                1
 GAP= 71        1.95       4.6     5.2  8.9 -0.1859E+01  0.1155E+02  0.5134E+01E
 Epicentro: LOS SANTOS - SANTANDER                                             3
 ACTION:UPD 15-03-02 15:36 OP:nd   STATUS:               ID:20150103015422 L   I
 OLDACT:REG 15-01-03 14:43 OP:stll STATUS:               ID:20150103014748     3
 2015-01-03-0147-48M.COL___277                                                 6
 STAT SP IPHASW D HRMM SECON CODA AMPLIT PERI AZIMU VELO AIN AR TRES W  DIS CAZ7
 BAR2 EZ EP        154 41.97                             170   -0.0010 24.4 189 
 BAR2 EZ ES        154 57.37                             170    0.4110 24.4 189 
 BAR2 EZ I         154 58.35        22.6 0.24            168           24.4 189 
 BRR  HZ IP     D  154 44.10                             152    0.6410 70.3 298 
 BRR  HZ I         154 44.32        26.0 0.26            143           70.3 298 
 BRR  HN ES        155  1.15                             152    1.5410 70.3 298 
 PAM  SZ EP        154 44.93                             150    0.3910 76.7  40 
 PAM  SZ I         154 45.19        51.4 0.24            148           76.7  40 
 PAM  SN ES        155  1.36                             150   -0.1710 76.7  40 
 RUS  HZ EP        154 45.88                             142   -0.3610  102 176 
 RUS  HN ES        155  3.77                             142   -0.7810  102 176 
 RUS  HZ I         155  5.92        11.5 0.30            140            102 176 
 PTB  HZ EP        154 48.89                             131   -0.53 9  148 258 
 PTB  HE ES        155  9.48                             131   -0.73 9  148 258 
 PTB  HZ I         155 16.06        22.4 0.40            124            148 258 
 TAM  HZ EP        154 50.27                             129    0.06 9  156 105 
 TAM  HN ES        155 11.51                             129   -0.11 9  156 105 
 TAM  HZ I         155 13.35        11.7 0.42            128            156 105 
 OCA  HZ EP        154 50.12                             129   -0.55 9  159 353 
 OCA  HE ES        155 12.14                             129   -0.30 9  159 353 
 OCA  HZ I         155 20.50        16.2 0.32            123            159 353 
 SPBC HZ EP        154 50.89                             128   -0.15 9  164 219 
 SPBC HN ES        155 12.78                             128   -0.33 9  164 219 
 SPBC HZ I         155 20.89        24.8 0.28            123            164 219 
 ZAR  HZ EP        154 55.40                             121    0.52 9  203 292 
 ZAR  HN ES        155 20.35                             121    0.41 9  203 292 
 ZAR  HZ I         155 30.24        12.6 0.22            115            203 292 
 NOR  HZ EP        154 58.15                             117   -0.17 8  235 234 
 NOR  HN ES        155 25.89                             117   -0.17 8  235 234 
 NOR  HZ I         155 30.26        15.2 0.22            112            235 234 
 SML  HZ EP        154 58.63                             117   -0.42 8  242 335 
 SML  HE ES        155 26.32                             117   -1.03 8  242 335 
 CHI  HZ EP        155  0.14                             116   -0.23 8  250 195 
 CHI  HZ I         155  1.84         4.1 0.14            112            250 195 
 CHI  HN ES        155 29.34                             116   -0.37 8  250 195 
 HEL  HZ EP        155  3.81                             114    1.03 8  272 256 
 HEL  HE ES        155 33.05                             114   -0.94 8  272 256 
 HEL  HZ I         155 40.49         5.8 0.38            109            272 256 
 RREF HZ EP        155 10.42                             110    1.62 7  322 229 
 RREF HN ES        155 45.54                             110    0.83 7  322 229 
 RREF HZ I         155 50.80         7.6 0.26            106            322 229 
 CBOC HZ EP        155 10.58                             109    1.05 7  334 252 
 CBOC HZ I         156  2.35         2.4 0.70            105            334 252 
 MON  HZ EP   9    155  9.53                             108   -1.97 0  353 308 
 MON  HN ES        155 45.64                                   -1.91 6  353 308 
 MON  HZ I         156  6.28         4.0 0.74            104            353 308 
 ORTC HZ EP        155 16.66                             105    0.02 6  396 216 
 ORTC HE ES        155 57.92                             105   -0.75 6  396 216 
 ORTC HZ I         156  5.72         4.4 0.44            102            396 216 
 SJC  HZ EP   9    155 16.20                             105   -1.86 0  408 327 
 SJC  HE ES        155 55.51                                   -3.82 6  408 327 
 SJC  HZ I         156 17.05         5.6 0.86            101            408 327 
 CRJC HZ EP   9    155 22.45                             103   -2.57 0  466   4 
 CRJC HN ES        156  8.49                                   -2.52 5  466   4 
                                                                                
