 2017  1 3 0415 40.3 L   6.795 -73.116147.3  RSN 10 0.5 1.7LRSN                1
 GAP=122        1.11       4.3     4.4  6.0  0.2429E+01  0.7370E+01  0.7170E+01E
 Epicentro: LOS SANTOS - SANTANDER                                             3
 ACTION:UPD 17-05-22 15:54 OP:jn   STATUS:               ID:20170103041540 L   I
 OLDACT:DUP 17-01-03 14:28 OP:lv   STATUS:               ID:20170103040740d    3
 2017-01-03-0408-00M.COL___381                                                 6
 STAT SP IPHASW D HRMM SECON CODA AMPLIT PERI AZIMU VELO AIN AR TRES W  DIS CAZ7
 BAR2 EZ IP     C  415 59.96                             171   -0.1310 23.6 198 
 BAR2 EZ ES        416 15.05                             171   -0.4910 23.6 198 
 BAR2 EZ I         416 18.38         7.8 0.27            168           23.6 198 
 BRR  HZ IP     D  416  1.88                             152    0.1210 74.3 298 
 BRR  HE ES        416 19.24                             152    0.7210 74.3 298 
 BRR  HZ I         416 21.71        11.2 0.24            152           74.3 298 
 PAM  EZ EP        416  2.86                             151    0.3110 75.8  37 
 PAM  EN ES        416 20.11                             151    0.1710 75.8  37 
 PAM  EZ I         416 22.11         4.5 0.13            156           75.8  37 
 RUS  HZ EP        416  3.92                             144   -0.2010 99.8 178 
 RUS  HE ES        416 22.82                             144    0.1010 99.8 178 
 RUS  HZ I         416 23.58         6.5 0.30            145           99.8 178 
 PTB  HZ EP        416  6.94                             132   -0.70 9  151 259 
 PTB  HE ES        416 28.38                             132   -0.61 9  151 259 
 PTB  HZ I         416 30.06        12.5 0.13            132            151 259 
 ZAR  HZ EP        416 12.63                             122   -0.52 8  207 292 
 ZAR  HN ES        416 38.53                             122   -0.26 8  207 292 
 ZAR  HZ I         416 44.17        10.5 0.34            123            207 292 
 CHI  HZ EP        416 18.30                             117    0.21 8  249 196 
 CHI  HE ES        416 47.98                             117    0.40 8  249 196 
 CHI  HZ I         416 57.08         2.5 0.20            118            249 196 
 GUY2CHZ EP        416 25.11                             112    0.90 7  304 235 
 GUY2CHE ES   4    417  0.49                             112    2.01 0  304 235 
 GUY2CHZ I         417  6.07         4.5 0.32                           304 235 
 PTGC HZ EP        416 23.43                             112   -0.57 7  307 159 
 PTGC HE ES   4    416 55.81                             112   -2.30 0  307 159 
 CBOC HZ EP        416 28.15                             110    0.57 7  337 252 
 CBOC HN ES        417  5.13                             110    0.65 7  337 252 
 CBOC HZ I         417  8.13         1.3 0.24            111            337 252 
 SJC  HZ EP   4    416 34.17                             106   -1.98 0  411 327 
 SJC  HE ES   4    417 16.38                             106   -3.35 0  411 327 
                                                                                
