 2013  9 3 0253 29.0 L   6.781 -73.140147.9  RSN  8 0.4 1.6LRSN                1
 GAP=138        0.93       4.5     4.5  6.5 -0.9466E+00  0.7064E+01  0.5154E+01E
 Epicentro: LOS SANTOS - SANTANDER                                             3
 ACTION:UPD 13-10-22 09:19 OP:ep   STATUS:               ID:20130903025329 L   I
 OLDACT:UP  13-09-03 09:38 OP:cam  STATUS:               ID:20130903024959     3
 OLDACT:UP  13-09-03 09:37 OP:cam  STATUS:               ID:20130903024959     3
 OLDACT:REG 13-09-03 08:02 OP:cam  STATUS:               ID:20130903024959     3
 2013-09-03-0249-59M.COL___269                                                 6
 STAT SP IPHASW D HRMM SECON CODA AMPLIT PERI AZIMU VELO AIN AR TRES W  DIS CAZ7
 BAR2 SZ EP        253 48.67                             171   -0.1410 21.4 193 
 BAR2 SZ ES        254  4.19                             171   -0.1010 21.4 193 
 BAR2 SZ I         254  6.52         8.4 0.33            169           21.4 193 
 BRR  HZ EP   1    253 50.78                             152    0.36 7 72.7 300 
 BRR  HN ES   1    254  8.16                             152    0.99 7 72.7 300 
 PAM  SZ EP   1    253 51.63                             151    0.16 7 78.6  38 
 PAM  SN ES        254  8.91                             151   -0.1310 78.6  38 
 PAM  SZ I         254 10.79         7.9 0.22            156           78.6  38 
 RUS  HZ EP        253 52.64                             145   -0.1310 98.5 176 
 RUS  HN ES        254 11.19                             145   -0.1510 98.5 176 
 RUS  HZ I         254 12.30         3.6 0.40            147           98.5 176 
 PTB  HZ EP        253 55.72                             132   -0.40 9  148 260 
 PTB  HN ES        254 16.72                             132   -0.58 9  148 260 
 PTB  HZ I         254 23.95         6.0 0.44            133            148 260 
 SPBC HZ EP        253 57.60                             130    0.10 9  162 220 
 SPBC HE ES   1    254 20.57                             130    0.80 7  162 220 
 SPBC HZ I         254 24.63         7.4 0.44            131            162 220 
 ZAR  HE ES   1    254 27.12                             123   -0.08 6  205 293 
 CHI  HZ EP   1    254  7.24                             118    0.67 6  247 195 
                                                                                
