 2011 10 3 0426 29.7 L   6.790 -73.127143.3  RSN  6 0.4 1.8LRSN                1
 GAP=139        0.79       4.1     7.5  7.7 -0.1425E+01  0.1142E+02 -0.2990E+01E
 Epicentro: LOS SANTOS - SANTANDER                                             3
 ACTION:UPD 12-07-13 16:01 OP:ep   STATUS:               ID:20111003042629 L   I
 2011-10-03-0422-44S.COL___168                                                 6
 STAT SP IPHASW D HRMM SECON CODA AMPLIT PERI AZIMU VELO AIN AR TRES W  DIS CAZ7
 BAR2 SZ EP   1    426 49.03                             170   -0.04 7 22.8 196 
 BAR2 SZ ES   1    427  3.62                             170   -0.53 7 22.8 196 
 BAR2 SZ I         427  5.39        16.3 0.19                          22.8 196 
 BRR  HZ EP        426 50.91                             151    0.1410 73.5 298 
 BRR  HZ I         426 51.36        20.1 0.11                          73.5 298 
 BRR  HN ES   1    427  7.90                             151    0.74 7 73.5 298 
 PAM  SN ES   1    427  8.95                             151    0.17 7 76.9  38 
 PAM  SZ I         427 10.92         8.0 0.57                          76.9  38 
 RUS  HZ EP   1    426 53.31                             144    0.14 7 99.4 177 
 RUS  HN ES   1    427 11.49                             144    0.04 7 99.4 177 
 RUS  HZ I         427 13.09         4.4 0.43                          99.4 177 
 OCA  SZ EP   1    426 58.02                             129    0.03 7  162 352 
 OCA  SZ ES   1    427 19.32                             129   -0.70 7  162 352 
 OCA  SZ I         427 22.95         7.9 0.28                           162 352 
 NOR  SE ES   2    427 32.55                             118   -0.75 4  236 235 
                                                                                
