 2014  8 3 0927 18.0 L   6.774 -73.181141.0  RSN  6 0.5 1.7LRSN                1
 GAP=140        1.23       7.0     5.6  8.4 -0.5885E+01  0.1407E+02 -0.1598E+02E
 Epicentro: LOS SANTOS - SANTANDER                                             3
 ACTION:UPD 14-09-15 21:46 OP:nd   STATUS:               ID:20140803092718 L   I
 OLDACT:REG 14-08-03 13:21 OP:carl STATUS:               ID:20140803091812     3
 2014-08-03-0918-12M.COL___230                                                 6
 STAT SP IPHASW D HRMM SECON CODA AMPLIT PERI AZIMU VELO AIN AR TRES W  DIS CAZ7
 BAR2 SZ EP        927 37.10                             171    0.1510 20.1 181 
 BAR2 SZ ES        927 50.96                             171   -0.8010 20.1 181 
 BAR2 SZ I         927 52.80         7.6 0.22            174           20.1 181 
 BRR  HZ EP        927 39.01                             152    0.5310 69.3 302 
 BRR  HN ES        927 55.37                             152    0.8810 69.3 302 
 BRR  HZ I         927 58.67         6.3 0.34            150           69.3 302 
 PAM  SZ EP        927 40.21                             148    0.2610 82.0  40 
 PAM  SN ES        927 56.96                             148   -0.1510 82.0  40 
 PAM  SZ I         927 59.23        13.9 0.60            150           82.0  40 
 PTB  HZ EP        927 44.37                             132    0.23 9  143 260 
 PTB  HN ES        928  4.31                             132   -0.25 9  143 260 
 PTB  HZ I         928  7.52         5.0 0.16            133            143 260 
 ZAR  HZ EP        927 49.89                             122    0.06 9  202 293 
 ZAR  HE ES        928 14.23                             122   -0.47 9  202 293 
 ZAR  HZ I         928 21.11         4.6 0.36            122            202 293 
 SML  HZ EP        927 53.60                             116   -0.82 8  245 336 
 SML  HN ES        928 22.80                             116   -0.07 8  245 336 
 SML  HZ I         928 26.17         5.8 0.10            117            245 336 
                                                                                
