 2011  6 3 0312  2.1 L   6.822 -73.140147.5  RSN  4 0.2 1.4LRSN                1
 GAP=136        0.39       2.9     3.6  4.6 -0.9340E+00  0.1649E+01  0.2401E+01E
 Epicentro: LOS SANTOS - SANTANDER                                             3
 ACTION:UP  11-07-14 19:02 OP:ep   STATUS:               ID:20110603031202 L   I
 2011-06-03-0310-54S.COL___132                                                 6
 STAT SP IPHASW D HRMM SECON CODA AMPLIT PERI AZIMU VELO SNR AR TRES W  DIS CAZ7
 BRR  HZ EP   1    312 23.26                             153    -0.2 7   71 297 
 BRR  HN ES   1    312 40.11                             153     0.1 7   71 297 
 BRR  HZ I         312 43.14         6.7 0.38                            71 297 
 PAM  SZ EP   1    312 24.62                             152     0.2 7   75  40 
 PAM  SE ES   2    312 41.47                             152    -0.3 5   75  40 
 RUS  HZ EP   1    312 26.07                             143    -0.1 7  103 177 
 RUS  HN ES   1    312 45.06                             143     0.1 7  103 177 
 RUS  HZ I         312 46.28         2.9 0.26                           103 177 
 NOR  SZ EP   1    312 38.19                             119     0.0 6  237 234 
 NOR  SN ES   2    313  6.24                             119     0.0 4  237 234 
                                                                                
