 2013  2 3 0808  7.7 L   6.744 -73.130142.9  RSN  6 0.3 1.6LRSN                1
 GAP= 94        0.59       3.7     3.3  5.0  0.1846E+00 -0.4947E+01  0.2291E+01E
 Epicentro: JORDAN - SANTANDER                                                 3
 ACTION:UPD 13-03-12 09:30 OP:ep   STATUS:               ID:20130203080807 L   I
 2013-02-03-0800-00M.COL___240                                                 6
 STAT SP IPHASW D HRMM SECON CODA AMPLIT PERI AZIMU VELO AIN AR TRES W  DIS CAZ7
 BAR2 SZ EP        8 8 26.86                             173    0.0210 17.7 199 
 BAR2 SZ ES   1    8 8 41.80                             173    0.00 7 17.7 199 
 BAR2 SZ I         8 8 44.28         9.8 0.21            171           17.7 199 
 BRR  HZ EP        8 8 28.69                             150   -0.0810 75.8 302 
 BRR  HN ES        8 8 45.65                             150    0.4210 75.8 302 
 BRR  HN I         8 8 50.14        11.0 0.18            150           75.8 302 
 PAM  SZ EP        8 8 29.82                             149    0.0110 81.3  36 
 PAM  SE ES   1    8 8 46.61                             149   -0.47 7 81.3  36 
 PAM  SZ I         8 8 48.82         5.2 0.57            154           81.3  36 
 RUS  HZ EP        8 8 30.83                             145    0.1510 94.3 177 
 RUS  HN ES   1    8 8 48.51                             145   -0.12 7 94.3 177 
 RUS  HN I         8 8 51.20         4.4 0.20            148           94.3 177 
 PTB  HZ EP   2    8 8 34.07                             131   -0.38 5  148 261 
 PTB  HE ES   1    8 8 54.89                             131   -0.45 7  148 261 
 PTB  HE I         8 9  0.47         4.6 0.43            132            148 261 
 TAM  HZ EP        8 8 34.93                             130    0.11 9  152 103 
                                                                                
