 2012  1 3 0154  0.7 L   6.782 -73.188146.0  RSN  4 0.3 1.1LRSN                1
 GAP=132        0.70       6.2     5.3 11.0 -0.6704E+00 -0.1360E+02 -0.4353E+01E
 Epicentro: LOS SANTOS - SANTANDER                                             3
 ACTION:UP  12-02-03 08:13 OP:REBC STATUS:               ID:20120103015400 L   I
 2012-01-03-0150-00M.COL___185                                                 6
 STAT SP IPHASW D HRMM SECON CODA AMPLIT PERI AZIMU VELO SNR AR TRES W  DIS CAZ7
 BRR  HZ EP        154 22.06                             154     0.310   68 302 
 BRR  HZ I         154 24.67         6.5 0.48                            68 302 
 BRR  HE ES   2    154 37.77                             154    -0.4 5   68 302 
 PAM  SZ EP        154 23.19                             149    -0.110   82  41 
 RUS  HZ EP        154 24.50                             144     0.110   99 173 
 RUS  HN ES   2    154 42.73                             144    -0.1 5   99 173 
 RUS  HZ I         154 45.09         1.4 0.18                            99 173 
 PTB  HZ EP        154 26.89                             133    -0.4 9  143 259 
 PTB  HE ES   1    154 48.24                             133     0.3 7  143 259 
 PTB  HZ I         154 49.79         1.1 0.13                           143 259 
                                                                                
