 2012  1 3 0840 16.9 L   6.764 -73.123137.3  RSN  5 0.3 1.2LRSN                1
 GAP=141        0.56       4.8     5.0  6.0 -0.1851E+01 -0.5316E+00 -0.3433E+01E
 Epicentro: LOS SANTOS - SANTANDER                                             3
 ACTION:UP  12-02-03 08:13 OP:REBC STATUS:               ID:20120103084016 L   I
 2012-01-03-0840-00M.COL___184                                                 6
 STAT SP IPHASW D HRMM SECON CODA AMPLIT PERI AZIMU VELO SNR AR TRES W  DIS CAZ7
 BAR2 SZ ES   1    840 49.76                             172    -0.1 7   20 199 
 BAR2 SZ I         840 51.26         4.7 0.24                            20 199 
 BRR  HZ EP        840 37.25                             149    -0.110   75 300 
 BRR  HZ I         840 39.05         6.3 0.30                            75 300 
 BRR  HN ES   1    840 53.69                             149     0.3 7   75 300 
 PAM  SZ EP        840 38.38                             148     0.110   79  36 
 PAM  SN ES   1    840 54.98                             148     0.0 7   79  36 
 RUS  HZ EP   2    840 39.82                             143     0.3 5   96 177 
 RUS  HE ES   2    840 56.90                             143    -0.2 5   96 177 
 RUS  HZ I         840 58.72         1.0 0.28                            96 177 
 ZAR  HN ES   3    841 13.04                             120    -1.4 2  208 293 
                                                                                
