 2016 11 3 0058 43.0 L   6.730 -73.217149.2  RSN  4 0.0 1.2LRSN                1
 GAP=224        0.29       2.4     2.4  2.9  0.3737E+01 -0.3156E-01 -0.3597E+00E
 Epicentro: VILLANUEVA - SANTANDER                                             3
 ACTION:UPD 17-10-26 21:04 OP:lp   STATUS:               ID:20161103005843 L   I
 OLDACT:REG 16-11-03 12:08 OP:dani STATUS:               ID:20161103005745     3
 2016-11-03-0058-00M.COL___346                                                 6
 STAT SP IPHASW D HRMM SECON CODA AMPLIT PERI AZIMU VELO AIN AR TRES W  DIS CAZ7
 BRR  HZ EP        059  4.40                             154    0.0210 68.8 307 
 BRR  HN ES        059 21.06                             154   -0.0110 68.8 307 
 BRR  HZ I         059 22.32         5.9 0.42            152           68.8 307 
 RUS  HZ EP        059  6.66                             146    0.0510 93.8 171 
 RUS  HN ES        059 25.00                             146   -0.0410 93.8 171 
 RUS  HZ I         059 25.71         1.7 0.21            146           93.8 171 
 PTB  HZ EP        059  9.37                             135   -0.07 9  139 261 
 PTB  HN ES        059 30.12                             135    0.05 9  139 261 
 PTB  HZ I         059 34.74         1.7 0.18            132            139 261 
 ZAR  HE ES        059 40.38                             124   -0.02 9  200 295 
 ZAR  HZ I         059 43.38         1.8 0.15            123            200 295 
                                                                                
