 2015  7 3 0220 43.0 L   6.564 -73.535109.1  RSN 15 0.5 2.2LRSN                1
 GAP= 61        1.02       2.3     3.3  6.7 -0.1756E+01  0.1356E+02 -0.1712E+01E
 Epicentro: EL CARMEN - SANTANDER                                              3
 ACTION:UPD 15-09-08 21:46 OP:cam  STATUS:               ID:20150703022043 L   I
 OLDACT:UP  15-07-08 10:49 OP:Mher STATUS:               ID:20150703022043 L   3
 OLDACT:UP  15-07-03 17:25 OP:ar   STATUS:               ID:20150703021737     3
 OLDACT:REG 15-07-03 12:52 OP:ar   STATUS:               ID:20150703021737     3
 2015-07-03-0217-37M.COL___325                                                 6
 STAT SP IPHASW D HRMM SECON CODA AMPLIT PERI AZIMU VELO AIN AR TRES W  DIS CAZ7
 BAR2 EZ EP        220 58.87                             159    0.0510 39.1  85 
 BAR2 EZ ES        221 11.37                             159    0.2210 39.1  85 
 BAR2 EZ I         221 12.41       189.2 0.34            163           39.1  85 
 RUS  HZ EP        221  2.01                             138   -0.4310 89.5 146 
 RUS  HN ES        221 17.27                             138   -0.3210 89.5 146 
 RUS  HZ I         221 19.04        15.0 0.30            142           89.5 146 
 PAM  EZ EP        221  5.77                             127    0.0510  126  47 
 PAM  EN ES        221 23.22                             127   -0.2110  126  47 
 PAM  EZ I         221 23.85         9.0 1.44            131            126  47 
 ZAR  HZ EP        221 10.62                             117    0.07 9  179 305 
 ZAR  HN ES        221 32.59                             117    0.56 9  179 305 
 ZAR  HZ I         221 35.22        45.2 0.54            118            179 305 
 NOR  HZ EP        221 10.69                             116   -0.57 9  185 233 
 NOR  HE ES        221 32.82                             116   -0.46 9  185 233 
 NOR  HZ I         221 36.42        26.7 0.14            118            185 233 
 OCA  HZ EP        221 11.97                             115    0.34 9  187   7 
 OCA  HN ES        221 34.55                             115    0.60 9  187   7 
 OCA  HZ I         221 41.48        48.2 0.34            118            187   7 
 GUY2CHZ EP        221 19.97                             108    0.65 8  251 234 
 GUY2CHN ES        221 48.12                             108    0.47 8  251 234 
 GUY2CHZ I         221 56.82         9.7 0.45                           251 234 
 SML  HZ EP        221 18.68                             108   -0.43 8  254 347 
 SML  HN ES        221 47.19                             108   -0.08 8  254 347 
 URE  HZ EP   2    221 18.48                             107   -0.94 4  257 301 
 URE  HN ES        221 46.99                             107   -0.82 8  257 301 
 URE  HZ I         221 49.46        20.3 0.14            109            257 301 
 CBOC HZ EP        221 23.77                             105    0.87 7  285 254 
 CBOC HN ES        221 53.71                             105   -0.30 7  285 254 
 CBOC HZ I         222  0.44         4.2 0.28            107            285 254 
 TOL  SZ EP   4    221 25.75                             105    1.46 0  295 222 
 TOL  SN ES        221 56.74                             105    0.25 7  295 222 
 TOL  SZ I         222  1.17         5.7 0.30            106            295 222 
 MON  HZ EP   4    221 27.60                             102   -1.55 0  339 316 
 MON  HN ES        222  4.61                             102   -0.53 7  339 316 
 MON  HZ I         222  5.79         8.0 0.26            103            339 316 
 PRA  HZ EP        221 29.91                             101   -0.44 6  349 205 
 PRA  HN ES        222  7.30                             101    0.03 6  349 205 
 ORTC HZ EP        221 30.48                             101    0.06 6  349 213 
 ORTC HN ES        222  8.34                             101    0.95 6  349 213 
 ORTC HZ I         222 11.40         5.7 0.20            103            349 213 
 SJC  HZ EP   4    221 35.81                              98   -1.99 0  411 334 
 SJC  HN ES   4    222 18.36                              98   -2.17 0  411 334 
 SJC  HZ I         222 20.34         3.3 0.44            100            411 334 
                                                                                
