 2011  6 3 0029 54.5 L   6.835 -73.096150.0  RSN  6 0.3 1.6LRSN                1
 GAP=141        0.56       3.4     6.6  5.4  0.7996E+00 -0.4432E+01 -0.1580E+01E
 Epicentro: LOS SANTOS - SANTANDER                                             3
 ACTION:UP  11-07-14 19:02 OP:ep   STATUS:               ID:20110603002954 L   I
 2011-06-03-0027-27S.COL___132                                                 6
 STAT SP IPHASW D HRMM SECON CODA AMPLIT PERI AZIMU VELO SNR AR TRES W  DIS CAZ7
 BAR2 SZ EP   1    030 14.67                             169    -0.1 7   28 200 
 BAR2 SZ ES   1    030 30.40                             169    -0.2 7   28 200 
 BAR2 SZ I         030 31.52        10.6 0.58                            28 200 
 PAM  SZ EP   1    030 17.17                             154     0.3 7   71  38 
 PAM  SN ES   2    030 33.87                             154    -0.3 5   71  38 
 BRR  HZ EP   1    030 16.30                             152     0.0 7   74 294 
 BRR  HN ES   1    030 33.48                             152     0.2 7   74 294 
 BRR  HZ I         030 35.97         9.4 0.13                            74 294 
 RUS  HZ EP   1    030 19.30                             144     0.4 7  104 179 
 RUS  HN ES   1    030 37.96                             144     0.0 7  104 179 
 RUS  HZ I         030 39.40         3.5 0.27                           104 179 
 OCA  SZ EP   1    030 22.56                             131    -0.3 7  157 351 
 OCA  SZ I         030 48.72         5.3 0.25                           157 351 
 CHI  HZ EP   2    030 32.66                             117    -0.3 4  254 196 
 CHI  HZ I         030 36.00         1.4 0.14                           254 196 
 CHI  HN ES   2    031  2.71                             117    -0.3 4  254 196 
                                                                                
