 2017  8 3 0832  3.2 L   6.823 -73.136149.3  RSN 24 0.6 2.3LRSN                1
 GAP= 66        1.40       3.0     3.3  6.0  0.2139E+00  0.4859E+01  0.2146E+00E
 Epicentro: LOS SANTOS - SANTANDER                                             3
 ACTION:UPD 17-09-04 20:15 OP:rebc STATUS:               ID:20170803083203 L   I
 OLDACT:UP  17-08-03 19:18 OP:osc  STATUS:               ID:20170803082743     3
 OLDACT:REG 17-08-03 15:11 OP:osc  STATUS:               ID:20170803082743     3
 2017-08-03-0828-00M.COL___395                                                 6
 STAT SP IPHASW D HRMM SECON CODA AMPLIT PERI AZIMU VELO AIN AR TRES W  DIS CAZ7
 BAR2 EZ IP     D  832 23.15                             170   -0.1710 26.0 191 
 BAR2 EZ ES        832 38.21                             170   -0.7910 26.0 191 
 BAR2 EZ I         832 41.22        29.0 0.11            168           26.0 191 
 BRR  HZ IP     D  832 25.12                             153    0.4010 71.0 296 
 BRR  HE ES        832 42.55                             153    1.0510 71.0 296 
 BRR  HZ I         832 45.54        37.7 0.16            151           71.0 296 
 PAM  EZ EP        832 26.07                             152    0.4310 74.7  40 
 PAM  EN ES        832 43.38                             152    0.2410 74.7  40 
 PAM  EZ I         832 45.47        63.5 0.56            156           74.7  40 
 RUS  HZ EP        832 27.09                             144   -0.3910  103 177 
 RUS  HN ES        832 45.84                             144   -0.5810  103 177 
 RUS  HZ I         832 47.04        11.4 0.30            145            103 177 
 PTB  HZ EP        832 29.68                             132   -0.92 9  149 258 
 PTB  HE ES        832 51.71                             132   -0.26 9  149 258 
 PTB  HZ I         832 57.15        23.9 0.22            132            149 258 
 TAM  HZ IP     D  832 31.34                             131    0.21 9  155 106 
 TAM  HE ES        832 53.34                             131    0.43 9  155 106 
 SPBC HZ EP        832 32.16                             129   -0.07 9  166 219 
 SPBC HE ES        832 54.62                             129   -0.24 9  166 219 
 SPBC HZ I         832 57.30        31.6 0.13            129            166 219 
 YPLC HZ IP     D  832 33.38                             127   -0.05 9  179 152 
 YPLC HE ES        832 57.58                             127    0.58 9  179 152 
 YPLC HZ I         832 59.55        16.1 0.22            129            179 152 
 ZAR  HZ EP        832 35.84                             123   -0.05 9  204 291 
 ZAR  HE ES        833  1.51                             123    0.13 9  204 291 
 ZAR  HZ I         833  7.53        29.5 0.21            123            204 291 
 TABC EZ EP        832 39.23                             120   -0.23 8  233 211 
 TABC EZ ES   2    833  8.37                             120    0.64 4  233 211 
 TABC EZ I         833 13.61        27.4 0.44            120            233 211 
 NOR  HZ EP        832 39.10                             119   -0.29 8  237 234 
 NOR  HE ES        833  7.83                             119    0.21 8  237 234 
 NOR  HZ I         833 15.09        19.2 0.32            119            237 234 
 CHI  HZ EP        832 41.44                             118    0.04 8  251 195 
 CHI  HN ES        833 10.80                             118   -0.39 8  251 195 
 CHI  HZ I         833 15.93         8.3 0.24            118            251 195 
 HEL  HZ EP        832 45.54                             115    1.76 8  274 255 
 HEL  HN ES        833 16.32                             115    0.89 8  274 255 
 HEL  HZ I         833 22.62        10.1 0.26            115            274 255 
 URE  HZ EP        832 43.63                             114   -0.82 7  284 291 
 URE  HE ES        833 14.93                             114   -1.70 7  284 291 
 URE  HZ I         833 26.57        18.9 0.16            115            284 291 
 GUY2CHZ EP   4    832 49.28                             113    2.04 0  304 234 
 GUY2CHN ES        833 22.56                             113    0.97 7  304 234 
 GUY2CHZ I         833 30.19        10.4 0.30                           304 234 
 VIL  EE ES        833 20.93                             112   -0.39 7  306 192 
 PTGC HZ EP   9    832 46.01                             112   -1.44 0  311 159 
 PTGC HE ES        833 19.12                             112   -1.40 7  311 159 
 PTGC HZ I         833 21.96        15.5 0.38            114            311 159 
 LL6C HZ EP        832 48.19                             111   -0.58 7  322 357 
 LL6C HN ES        833 23.98                             111   -0.33 7  322 357 
 DBB  EE EP   4    832 58.03                             110    7.10 0  340 274 
 DBB  EN ES        833 28.33                             110    0.18 7  340 274 
 DBB  EZ I         833 33.59         5.5 0.38            110            340 274 
 ARGC HZ EP        832 52.79                             109    0.03 6  357 340 
 ARGC HE ES        833 31.91                             109    0.50 6  357 340 
 ARGC HZ I         833 38.00         4.2 0.34            110            357 340 
 PRA  HZ EP        832 57.76                             107    0.59 6  395 210 
 PRA  HN ES        833 39.55                             107    0.29 6  395 210 
 PRA  HZ I         833 42.82        12.8 0.40            108            395 210 
 ORTC HZ EP        832 57.39                             107   -0.17 6  398 216 
 ORTC HE ES        833 39.55                             107   -0.41 6  398 216 
 ORTC HZ I         833 46.83         6.4 0.38            107            398 216 
 PAL  HZ EP   9    832 56.78                             106   -1.97 0  408 239 
 PAL  HE ES        833 40.72                             106    0.62 6  408 239 
 PAL  HZ I         833 53.94         2.8 0.28            107            408 239 
 SJC  HZ EP   4    832 57.20                             106   -1.50 0  408 327 
 SJC  HN ES   4    833 38.77                             106   -3.22 0  408 327 
 SJC  HZ I         833 43.25         5.1 0.42            107            408 327 
 MACC HZ EP   4    833 10.08                             102   -2.25 0  523 189 
 MACC HN ES   4    833 59.40                             102   -6.84 0  523 189 
                                                                                
