 2016  7 3 0020 11.2 L   6.859 -73.154135.5  RSN  7 0.2 1.4LRSN                1
 GAP=242        0.56       3.0     3.3  3.9  0.2519E+01  0.4859E+01  0.3834E+01E
 Epicentro: LOS SANTOS - SANTANDER                                             3
 ACTION:UPD 17-03-29 16:45 OP:lp   STATUS:               ID:20160703002011 L   I
 OLDACT:REG 16-07-03 12:21 OP:edw  STATUS:               ID:20160703001746     3
 2016-07-03-0017-46M.COL___331                                                 6
 STAT SP IPHASW D HRMM SECON CODA AMPLIT PERI AZIMU VELO AIN AR TRES W  DIS CAZ7
 BAR2 EZ ES        020 44.18                             167   -0.0110 29.7 186 
 BAR2 EZ I         020 46.16         5.1 0.22            166           29.7 186 
 BRR  HZ EP        020 31.29                             152    0.2910 67.5 294 
 BRR  HN ES        020 46.49                             152    0.0210 67.5 294 
 RUS  HZ EP        020 34.26                             140   -0.1710  107 176 
 RUS  HN ES        020 52.71                             140    0.1310  107 176 
 RUS  HZ I         020 53.71         3.0 0.22            140            107 176 
 PTB  HZ EP        020 36.95                             129   -0.41 9  148 256 
 PTB  HN ES        020 57.54                             129   -0.26 9  148 256 
 PTB  HZ I         020 59.61         2.9 0.38            130            148 256 
 ZAR  HZ EP   4    020 14.17                             120   -28.5 0  201 291 
 NOR  HZ EP        020 46.92                             116    0.26 8  238 233 
 NOR  HN ES        021 14.55                             116    0.20 8  238 233 
 NOR  HZ I         021 16.47         2.3 0.18            117            238 233 
 CHI  HN ES        021 18.29                             114   -0.20 8  255 195 
 GUY2CHZ EP        020 54.74                             110    0.07 7  304 234 
 GUY2CHN ES        021 28.80                             110    0.20 7  304 234 
 GUY2CHZ I         021 36.19         1.4 0.32                           304 234 
                                                                                
