 2016  2 3 0652 16.8 L   6.853 -73.140129.8  RSN  7 0.4 1.4LRSN                1
 GAP=135        0.68       2.6     4.3  7.9 -0.2807E+01  0.1548E+02 -0.2586E+01E
 Epicentro: LOS SANTOS - SANTANDER                                             3
 ACTION:UPD 16-03-04 21:22 OP:rebc STATUS:               ID:20160203065216 L   I
 OLDACT:UP  16-02-03 16:45 OP:dnl  STATUS:               ID:20160203064737     3
 OLDACT:REG 16-02-03 12:50 OP:dnl  STATUS:               ID:20160203064737     3
 2016-02-03-0647-37M.COL___304                                                 6
 STAT SP IPHASW D HRMM SECON CODA AMPLIT PERI AZIMU VELO AIN AR TRES W  DIS CAZ7
 PAM  EZ EP   2    652 37.78                             149    0.75 5 72.6  42 
 PAM  EN ES        652 52.69                             149   -0.1210 72.6  42 
 PAM  EZ I         652 56.95         3.0 0.34            152           72.6  42 
 RUS  HZ EP   2    652 39.43                             138   -0.04 5  106 177 
 RUS  HN ES        652 57.10                             138   -0.0510  106 177 
 RUS  HZ I         652 58.99         1.9 0.44            141            106 177 
 PTB  HZ EP   2    652 42.31                             127   -0.38 5  150 257 
 PTB  HE ES        653  3.25                             127    0.37 9  150 257 
 PTB  HZ I         653  5.82         4.8 0.12            128            150 257 
 OCA  HZ EP   2    652 44.21                             127    0.86 5  155 353 
 OCA  HE ES        653  3.97                             127   -0.10 9  155 353 
 OCA  HZ I         653  8.59         8.2 0.37            128            155 353 
 SPBC HZ EP   2    652 44.02                             124   -0.60 5  168 218 
 SPBC HN ES   2    653  5.62                             124   -0.69 5  168 218 
 SPBC HZ I         653 12.85         3.4 0.08            126            168 218 
 SML  HZ EP   2    652 51.71                             114   -0.31 4  239 335 
 SML  HE ES   2    653 18.82                             114   -0.67 4  239 335 
 SML  HZ I         653 24.49         5.4 0.07            116            239 335 
 CHI  HZ EP   2    652 54.76                             113    0.45 4  254 195 
 CHI  HN ES   4    653 21.19                             113   -2.38 0  254 195 
 CHI  HZ I         653 25.52         1.0 0.37            115            254 195 
 MON  HZ EP   4    653  2.86                             106   -2.00 0  351 308 
 MON  HE ES   4    653 40.93                             106   -1.42 0  351 308 
                                                                                
