 2013  9 3 0610 49.8 L   6.752 -73.090143.2  RSN  4 0.1 1.5LRSN                1
 GAP=240        0.38       2.5     4.0  3.1  0.3536E+01  0.1559E+01  0.9261E+00E
 Epicentro: LOS SANTOS - SANTANDER                                             3
 ACTION:UPD 13-10-22 09:19 OP:ep   STATUS:               ID:20130903061049 L   I
 OLDACT:UP  13-09-03 10:56 OP:cam  STATUS:               ID:20130903060959     3
 OLDACT:UP  13-09-03 10:56 OP:cam  STATUS:               ID:20130903060959     3
 OLDACT:REG 13-09-03 08:13 OP:cam  STATUS:               ID:20130903060959     3
 2013-09-03-0609-59M.COL___269                                                 6
 STAT SP IPHASW D HRMM SECON CODA AMPLIT PERI AZIMU VELO AIN AR TRES W  DIS CAZ7
 BAR2 SZ EP        611  9.02                             171   -0.0510 20.4 210 
 BAR2 SZ ES        611 23.94                             171   -0.1610 20.4 210 
 BAR2 SZ I         611 25.07         6.2 0.17            157           20.4 210 
 BRR  HZ EP        611 11.08                             149   -0.0710 79.1 300 
 BRR  HE ES        611 27.95                             149    0.1510 79.1 300 
 RUS  HZ EP   1    611 13.10                             145    0.19 7 95.1 180 
 RUS  HN ES        611 31.03                             145    0.1010 95.1 180 
 SPBC HZ EP        611 18.07                             128   -0.03 9  163 222 
 SPBC HN ES   1    611 40.08                             128   -0.10 7  163 222 
 SPBC HZ I         611 48.56         4.2 0.24            123            163 222 
                                                                                
