 2017  7 3 0049  1.2 L   6.785 -73.117147.9  RSN  5 0.2 1.4LRSN                1
 GAP=162        0.60       5.1     3.0  4.8 -0.3303E+01  0.3110E+01  0.5940E+00E
 Epicentro: LOS SANTOS - SANTANDER                                             3
 ACTION:UPD 17-08-30 15:29 OP:rebc STATUS:               ID:20170703004901 L   I
 OLDACT:DUP 17-07-03 14:44 OP:edw  STATUS:               ID:20170703003418d    3
 OLDACT:UP  17-07-03 14:43 OP:edw  STATUS:               ID:20170703003417     3
 OLDACT:REG 17-07-03 13:19 OP:edw  STATUS:               ID:20170703003417     3
 2017-07-03-0038-00M.COL___377                                                 6
 STAT SP IPHASW D HRMM SECON CODA AMPLIT PERI AZIMU VELO AIN AR TRES W  DIS CAZ7
 BAR2 EZ EP        049 20.78                             171   -0.2410 22.5 199 
 BAR2 EZ ES        049 36.48                             171   -0.0410 22.5 199 
 BAR2 EZ I         049 36.77         6.3 0.46            173           22.5 199 
 BRR  HZ EP        049 22.92                             152    0.1810 74.8 298 
 BRR  HN ES        049 39.63                             152    0.0610 74.8 298 
 BRR  HZ I         049 44.52         4.7 0.26            150           74.8 298 
 PAM  EZ EP     C  049 23.89                             151    0.3310 76.7  37 
 PAM  EN ES        049 40.87                             151   -0.1610 76.7  37 
 PTB  HZ EP        049 28.29                             132   -0.26 9  151 260 
 PTB  HN ES        049 50.21                             132    0.29 9  151 260 
 PTB  HZ I         049 51.40         2.3 0.12            133            151 260 
 ZAR  HN ES        049 59.58                             122   -0.23 8  208 292 
                                                                                
