 2014  1 3 0408  6.1 L   6.817 -73.305120.4  RSN 12 0.6 1.7LRSN                1
 GAP= 55        1.41       3.5     4.1  7.1 -0.1615E+01  0.5068E+01  0.2935E+01E
 Epicentro: ZAPATOCA - SANTANDER                                               3
 ACTION:UPD 14-03-13 09:50 OP:ep   STATUS:               ID:20140103040806 L   I
 OLDACT:REG 14-01-03 09:05 OP:stll STATUS:               ID:20140103035806     3
 2014-01-03-0358-06M.COL___246                                                 6
 STAT SP IPHASW D HRMM SECON CODA AMPLIT PERI AZIMU VELO AIN AR TRES W  DIS CAZ7
 BAR2 SZ EP        4 8 22.97                             166    0.1410 28.4 151 
 BAR2 SZ ES        4 8 35.34                             166   -0.5310 28.4 151 
 BAR2 SZ I         4 8 37.66        90.4 0.36            167           28.4 151 
 BRR  HZ IP     D  4 8 23.96                             154    0.3510 55.2 305 
 BRR  HN ES        4 8 38.00                             154    0.7310 55.2 305 
 BRR  HZ I         4 8 38.86        18.5 0.16            146           55.2 305 
 PAM  SZ EP        4 8 26.86                             142    0.3810 88.4  49 
 PAM  SE ES        4 8 42.85                             142    0.4710 88.4  49 
 PAM  SZ I         4 8 46.27        10.2 0.32            139           88.4  49 
 RUS  HZ EP        4 8 27.66                             136   -0.1810  105 166 
 RUS  HZ I         4 8 28.45         4.4 0.16            133            105 166 
 RUS  HE ES        4 8 44.27                             136   -0.5210  105 166 
 PTB  HZ EP        4 8 28.43                             129   -1.0710  131 256 
 PTB  HE ES        4 8 47.28                             129   -0.4710  131 256 
 PTB  HZ I         4 8 51.02         9.9 0.36            123            131 256 
 SPBC HZ EP        4 8 31.96                             124    0.08 9  154 213 
 SPBC HZ I         4 8 34.99         5.5 0.12            119            154 213 
 SPBC HE ES        4 8 53.17                             124    1.17 9  154 213 
 OCA  HE ES        4 8 51.78                             124   -0.89 9  157 359 
 TAM  HZ EP        4 8 34.08                             121    0.37 9  173 104 
 TAM  HZ I         4 8 34.59         5.3 0.10            118            173 104 
 TAM  HN ES        4 8 55.01                             121   -0.23 9  173 104 
 NOR  HZ EP        4 8 38.81                             114   -0.24 8  222 231 
 NOR  HZ I         4 9 11.77         2.6 0.16            109            222 231 
 SML  HZ EP        4 8 40.24                             112   -0.22 8  235 339 
 SML  HN ES        4 9  7.49                             112    0.22 8  235 339 
 SML  HZ I         4 9 14.94         9.5 0.24            108            235 339 
 CHI  HZ EP        4 8 42.16                             112   -0.13 8  247 191 
 CHI  HZ I         4 8 44.52         1.8 0.32            108            247 191 
 CHI  HN ES        4 9 10.26                             112   -0.25 8  247 191 
 GUY2CHZ EP        4 8 48.39                             108    1.24 7  288 232 
 GUY2CHN ES        4 9 18.91                             108   -0.25 7  288 232 
 GUY2CHZ I         4 9 25.92         1.9 0.34                           288 232 
                                                                                
