 2011  2 3 0905 53.0 L   6.808 -73.144140.7  RSN  6 0.3 1.7LRSN                1
 GAP=159        0.57       3.6     8.7  7.8 -0.1538E+02  0.2301E+02 -0.5993E+01E
 Epicentro: LOS SANTOS - SANTANDER                                             3
 ACTION:UP  11-03-28 15:05 OP:jfem STATUS:               ID:20110203090553 L   I
 2011-02-03-0903-50S.COL___135                                                 6
 STAT SP IPHASW D HRMM SECON CODA AMPLIT PERI AZIMU VELO SNR AR TRES W  DIS CAZ7
 BAR2 SZ EP   1    9 6 12.17                             170     0.1 7   24 190 
 BAR2 SZ ES   2    9 6 27.10                             170     0.2 5   24 190 
 BAR2 SZ I         9 6 28.65        16.0 0.27                            24 190 
 RUS  HZ EP   2    9 6 16.34                             142     0.0 5  101 176 
 RUS  HN ES   2    9 6 34.48                             142     0.0 5  101 176 
 RUS  HZ I         9 6 35.87         7.5 0.22                           101 176 
 GRA  SZ EP   1    9 6 18.14                             136     0.4 7  125  18 
 GRA  SZ ES   2    9 6 36.17                             136    -0.8 5  125  18 
 GRA  SZ I         9 6 38.71         8.1 0.50                           125  18 
 OCA  SZ EP   1    9 6 20.61                             129    -0.2 7  159 353 
 OCA  SZ ES   2    9 6 42.89                             129     0.3 5  159 353 
 OCA  SZ I         9 6 47.91         6.4 0.32                           159 353 
 NOR  SZ EP   2    9 6 28.34                             117    -0.2 4  235 234 
 NOR  SN ES   2    9 6 56.24                             117     0.0 4  235 234 
 CHI  HZ EP   2    9 6 30.55                             116     0.0 4  250 195 
 CHI  HE ES   2    9 6 59.50                             116    -0.3 4  250 195 
 CHI  HZ I         9 7  6.72         2.3 0.49                           250 195 
                                                                                
