 2011  4 3 0306  9.6 L   6.711 -73.110138.0  RSN 10 0.4 1.8LRSN                1
 GAP=164        0.73       5.7     6.9  6.0 -0.2151E+02 -0.4871E+01  0.1372E+01E
 Epicentro: JORDAN - SANTANDER                                                 3
 ACTION:UP  11-06-22 15:28 OP:REBC STATUS:               ID:20110403030609 L   I
 2011-04-03-0303-09S.COL___138                                                 6
 STAT SP IPHASW D HRMM SECON CODA AMPLIT PERI AZIMU VELO SNR AR TRES W  DIS CAZ7
 BAR2 SZ ES   1    3 6 42.75                             173     0.1 7   15 211 
 BAR2 SZ I         3 6 44.23        21.9 0.23                            15 211 
 BTL  SZ EP        3 6 28.56                             168     0.110   29 323 
 BTL  SZ ES   2    3 6 43.36                             168     0.2 5   29 323 
 GIR2 SZ EP        3 6 28.37                             162    -0.410   42 347 
 GIR2 SZ ES   3    3 6 43.07                             162    -0.6 2   42 347 
 BRR  HZ EP        3 6 30.16                             148    -0.310   80 303 
 BRR  HZ I         3 6 30.53        10.8 0.08                            80 303 
 BRR  HN ES   1    3 6 47.11                             148     0.4 7   80 303 
 PAM  SZ IP        3 6 31.30                             148    -0.110   83  33 
 PAM  SZ I         3 6 31.49         5.3 0.20                            83  33 
 PAM  SN ES   2    3 6 47.93                             148    -0.4 5   83  33 
 GRA  SZ IP        3 6 35.36                             133     0.410  134  15 
 GRA  SZ ES   1    3 6 54.84                             133     0.2 7  134  15 
 GRA  SZ I         3 6 56.12         6.1 0.48                           134  15 
 OCA  SZ EP   1    3 6 38.23                             126    -0.1 7  170 352 
 OCA  SZ I         3 7  2.57        12.3 0.41                           170 352 
 NOR  SN ES   2    3 7 11.51                             117    -0.5 4  232 237 
 CHI  HZ EP   2    3 6 46.38                             116     0.4 4  240 197 
 CHI  HN ES   3    3 7 16.11                             116     1.7 2  240 197 
 RREF HN ES   3    3 7 32.00                             110     1.5 2  319 231 
                                                                                
