 2016  7 3 0823 43.1 L   5.832 -73.905108.3  RSN  7 0.3 1.4LRSN                1
 GAP=137        0.89       3.7     2.8  5.9 -0.3020E+01  0.3673E+01 -0.3126E+01E
 Epicentro: LA BELLEZA - SANTANDER                                             3
 ACTION:UPD 17-03-29 16:46 OP:lp   STATUS:               ID:20160703082343 L   I
 OLDACT:REG 16-07-03 13:17 OP:edw  STATUS:               ID:20160703081741     3
 2016-07-03-0817-41M.COL___325                                                 6
 STAT SP IPHASW D HRMM SECON CODA AMPLIT PERI AZIMU VELO AIN AR TRES W  DIS CAZ7
 SPBC HZ EP        823 58.23                             165    0.1010 27.2 223 
 SPBC HN ES        824 10.13                             165    0.2610 27.2 223 
 SPBC HZ I         824 10.68        22.0 0.34            167           27.2 223 
 RUS  HZ EP        824  2.25                             137   -0.3310 91.2  86 
 RUS  HN ES        824 17.79                             137   -0.0010 91.2  86 
 RUS  HZ I         824 22.08         1.7 0.32            139           91.2  86 
 PTB  HZ EP        824  2.01                             134   -0.6010 99.2 322 
 PTB  HE ES        824 17.39                             134   -0.4510 99.2 322 
 PTB  HZ I         824 19.38         4.4 0.46            135           99.2 322 
 NOR  HZ EP        824  3.54                             131   -0.1710  111 255 
 NOR  HE ES        824 19.56                             131   -0.2410  111 255 
 NOR  HZ I         824 21.08         7.0 0.38            133            111 255 
 BRR  HZ EP        824  6.80                             123    0.06 9  143   9 
 BRR  HN ES        824 25.89                             123    0.69 9  143   9 
 BRR  HZ I         824 28.19         6.6 0.14            124            143   9 
 GUY2CHZ EP        824 11.08                             117    0.27 9  175 247 
 GUY2CHN ES        824 32.74                             117    0.30 9  175 247 
 GUY2CHZ I         824 36.34         1.8 0.38                           175 247 
 HEL  HZ EP        824 11.95                             116    0.30 9  184 283 
 HEL  HE ES        824 34.04                             116    0.11 9  184 283 
 HEL  HZ I         824 39.03         2.1 0.26            117            184 283 
                                                                                
