 2014  8 3 0850 20.1 L   6.803 -73.165145.6  RSN  8 0.5 2.1LRSN                1
 GAP=134        1.34       6.0     6.3  8.5 -0.1248E+02  0.8231E+01  0.1188E+02E
 Epicentro: LOS SANTOS - SANTANDER                                             3
 ACTION:UPD 14-09-15 21:46 OP:nd   STATUS:               ID:20140803085020 L   I
 OLDACT:DUP 14-08-03 15:35 OP:carl STATUS:               ID:20140803084820d    3
 2014-08-03-0848-19M.COL___245                                                 6
 STAT SP IPHASW D HRMM SECON CODA AMPLIT PERI AZIMU VELO AIN AR TRES W  DIS CAZ7
 BAR2 SZ EP        850 39.79                             170    0.0910 23.4 185 
 BAR2 SZ ES        850 54.94                             170   -0.0610 23.4 185 
 BAR2 SZ I         850 56.31        37.2 0.14            169           23.4 185 
 BRR  HZ EP        850 41.61                             153    0.5010 69.1 299 
 BRR  HN ES        850 58.37                             153    0.8710 69.1 299 
 PAM  SZ EP        850 42.73                             150    0.3710 78.5  41 
 PAM  SN ES        850 58.86                             150   -0.8710 78.5  41 
 PAM  SZ I         851  0.71        17.4 0.54            154           78.5  41 
 RUS  HZ EP        850 43.80                             144   -0.0610  101 175 
 RUS  HN ES        851  2.78                             144    0.3710  101 175 
 RUS  HZ I         851  4.39        17.4 0.40            144            101 175 
 PTB  HZ EP        850 46.28                             132   -0.58 9  146 259 
 PTB  HN ES        851  6.78                             132   -0.96 9  146 259 
 PTB  HZ I         851 11.18        14.2 0.16            133            146 259 
 SPBC HZ EP        850 48.53                             129    0.06 9  162 218 
 SPBC HN ES        851 10.28                             129   -0.33 9  162 218 
 SPBC HZ I         851 16.73        18.9 0.34            130            162 218 
 NOR  HN ES        851 24.14                             119    0.77 8  233 234 
 PRA  HZ EP        851 13.59                             106    0.08 6  391 209 
 PRA  HN ES        851 54.75                             106   -0.44 6  391 209 
                                                                                
