 2017  8 3 0105 47.0 L   6.784 -73.142142.4  RSN 11 0.5 1.9LRSN                1
 GAP=113        1.08       3.8     3.8  6.0  0.5157E+00  0.5266E+01  0.6191E+01E
 Epicentro: LOS SANTOS - SANTANDER                                             3
 ACTION:UPD 17-09-04 20:15 OP:rebc STATUS:               ID:20170803010547 L   I
 OLDACT:REG 17-08-03 14:22 OP:osc  STATUS:               ID:20170803005738     3
 2017-08-03-0058-00M.COL___398                                                 6
 STAT SP IPHASW D HRMM SECON CODA AMPLIT PERI AZIMU VELO AIN AR TRES W  DIS CAZ7
 BAR2 EZ EP        1 6  5.92                             171   -0.2210 21.6 192 
 BAR2 EZ ES        1 6 21.02                             171   -0.0910 21.6 192 
 BAR2 EZ I         1 6 22.26        28.6 0.20            171           21.6 192 
 BRR  HZ EP     D  1 6  7.83                             152    0.0210 72.4 300 
 BRR  HN ES        1 6 24.81                             152    0.7410 72.4 300 
 BRR  HZ I         1 6 28.75        16.5 0.12            151           72.4 300 
 PAM  EZ EP     D  1 6  8.81                             150   -0.0710 78.6  39 
 PAM  EE ES        1 6 25.99                             150    0.0110 78.6  39 
 PAM  EZ I         1 6 30.40         7.9 0.53            152           78.6  39 
 RUS  HZ EP        1 6 10.12                             144   -0.1210 98.8 176 
 RUS  HN ES        1 6 28.50                             144    0.1010 98.8 176 
 RUS  HZ I         1 6 29.45         9.2 0.22            146           98.8 176 
 PTB  HZ EP        1 6 13.44                             131   -0.21 9  148 260 
 PTB  HN ES        1 6 33.48                             131   -0.99 9  148 260 
 PTB  HZ I         1 6 36.34         6.6 0.10            132            148 260 
 SPBC HZ EP        1 6 15.77                             128    0.69 9  162 219 
 SPBC HE ES   2    1 6 37.74                             128    0.72 5  162 219 
 YPLC HZ EP        1 6 16.25                             126   -0.08 9  175 151 
 YPLC HE ES   2    1 6 39.12                             126   -0.12 4  175 151 
 ZAR  HZ EP        1 6 18.88                             121   -0.41 9  205 293 
 ZAR  HE ES        1 6 44.48                             121   -0.02 9  205 293 
 ZAR  HZ I         1 6 50.80        11.0 0.16            123            205 293 
 NOR  HE ES        1 6 49.94                             118   -0.12 8  234 235 
 NOR  HZ I         1 6 55.53         5.2 0.16            119            234 235 
 CHI  HZ EP        1 6 24.00                             117   -0.29 8  247 195 
 CHI  HN ES        1 6 53.24                             117   -0.17 8  247 195 
 CHI  HZ I         1 6 59.38         4.0 0.32            118            247 195 
 GUY2CHZ EP        1 6 31.74                             112    1.42 7  300 235 
 GUY2CHE ES        1 7  4.13                             112   -0.02 7  300 235 
 GUY2CHZ I         1 7 14.43         3.7 0.34                           300 235 
                                                                                
