 2010  7 3 0646 36.8 L   6.789 -73.099140.0  RSN  5 0.4 1.5LRSN                1
 GAP=164        0.81       5.6     9.0  9.9 -0.1105E+01 -0.3006E+02  0.3313E+00E
 Epicentro: LOS SANTOS - SANTANDER                                             3
 ACTION:UPD 10-12-01 15:14 OP:pat  STATUS:               ID:20100703064636 L   I
 2010-07-03-0644-34S.COL___118                                                 6
 STAT SP IPHASW D HRMM SECON CODA AMPLIT PERI AZIMU VELO AIN AR TRES W  DIS CAZ7
 BAR2 SZ EP        646 55.57                             170    -0.110   24 203 
 BAR2 SZ ES   2    647  9.72                             170    -0.8 5   24 203 
 BRR  HZ EP        646 57.30                             150    -0.310   76 298 
 BRR  HZ I         647  4.01         5.9 0.14                            76 298 
 BRR  HE ES        647 14.12                             150     0.310   76 298 
 RUS  HZ EP   2    647  0.05                             143     0.2 5   99 179 
 RUS  HE ES   2    647 18.55                             143     0.7 5   99 179 
 RUS  HZ I         647 19.95         6.1 0.33                            99 179 
 GRA  SZ EP   2    647  2.25                             136     0.8 5  126  15 
 GRA  SZ ES   1    647 20.75                             136     0.0 7  126  15 
 OCA  SZ EP   2    647  4.78                             128     0.0 5  162 351 
 OCA  SZ I         647 29.29         4.4 0.39                           162 351 
                                                                                
