 2013  1 3 0744 59.0 L   6.802 -73.160149.1  RSN  8 0.5 2.3LRSN                1
 GAP=181        1.17       4.0     6.4  7.0  0.5318E+01  0.4458E+01 -0.1902E+01E
 Epicentro: LOS SANTOS - SANTANDER                                             3
 ACTION:UPD 13-02-15 09:11 OP:ep   STATUS:               ID:20130103074459 L   I
 2013-01-03-0739-49M.COL___189                                                 6
 STAT SP IPHASW D HRMM SECON CODA AMPLIT PERI AZIMU VELO AIN AR TRES W  DIS CAZ7
 BAR2 SZ EP        745 19.15                             171    0.1510 23.3 186 
 BAR2 SZ ES        745 34.37                             171   -0.2510 23.3 186 
 BAR2 SZ I         745 35.77        43.9 0.40            172           23.3 186 
 BRR  HZ EP        745 20.96                             154    0.5710 69.7 299 
 BRR  HZ I         745 21.29        57.4 0.22            155           69.7 299 
 BRR  HN ES        745 37.93                             154    0.8210 69.7 299 
 RUS  HZ EP   1    745 22.99                             144   -0.08 7  101 175 
 RUS  HE ES        745 41.60                             144   -0.2810  101 175 
 RUS  HZ I         745 42.99        11.2 0.25            145            101 175 
 PTB  HZ EP        745 25.72                             133   -0.35 9  146 259 
 PTB  HN ES        745 46.18                             133   -1.03 9  146 259 
 OCA  HZ EP        745 27.20                             130   -0.30 9  160 354 
 OCA  HN ES        745 49.43                             130   -0.32 9  160 354 
 OCA  HN I         745 53.25        97.3 0.20            130            160 354 
 ZAR  HZ EP        745 31.68                             123    0.21 9  202 292 
 ZAR  HE ES        745 57.23                             123    0.41 9  202 292 
 CHI  HZ EP        745 37.21                             118    0.38 8  248 195 
 CHI  HZ I         745 39.23         5.4 0.14            118            248 195 
 CHI  HN ES        746  6.76                             118    0.39 8  248 195 
 ROSC BZ EP   4    745 38.92                             117    1.72 0  252 211 
 HEL  HZ EP   4    745 40.63                             115    1.45 0  271 256 
 URE  HZ EP   4    745 38.80                             114   -1.22 0  282 292 
 SJC  HN EP        745 53.98                             106   -0.53 6  408 327 
                                                                                
