 2012  4 3 0013 12.1 L   6.775 -73.156142.2  RSN  4 0.2 1.2LRSN                1
 GAP=136        0.57       4.0     4.2  7.5  0.3573E+01  0.4441E+01  0.2461E+01E
 Epicentro: LOS SANTOS - SANTANDER                                             3
 ACTION:UPD 12-07-05 11:49 OP:tino STATUS:               ID:20120403001312 L   I
 2012-04-03-0010-00M.COL___196                                                 6
 STAT SP IPHASW D HRMM SECON CODA AMPLIT PERI AZIMU VELO AIN AR TRES W  DIS CAZ7
 BRR  HZ EP   1    013 33.36                             152     0.4 7   72 301 
 BRR  HZ I         013 33.49         5.8 0.25                            72 301 
 BRR  HN ES   1    013 49.27                             152     0.1 7   72 301 
 PAM  SZ EP   1    013 34.09                             149    -0.1 7   80  39 
 PAM  SN ES   1    013 51.23                             149    -0.1 7   80  39 
 PAM  SZ I         013 52.06         1.1 0.16                            80  39 
 RUS  HZ EP   1    013 35.22                             144    -0.1 7   98 175 
 RUS  HZ I         013 35.93         2.1 0.27                            98 175 
 RUS  HN ES   1    013 53.42                             144     0.0 7   98 175 
 ZAR  HN ES   1    014  9.17                             122    -0.3 6  204 293 
 ZAR  HZ I         014 13.30         2.0 0.28                           204 293 
                                                                                
