 2017 11 3 0743 17.1 L   6.806 -73.171143.9  RSN 11 0.4 1.6LRSN                1
 GAP=109        0.97       3.7     3.8  5.5  0.1856E+01  0.3778E+01  0.1342E+01E
 Epicentro: LOS SANTOS - SANTANDER                                             3
 ACTION:UPD 17-12-12 19:51 OP:rebc STATUS:               ID:20171103074318dL   I
 OLDACT:UP  17-11-03 17:25 OP:dnl  STATUS:               ID:20171103073745     3
 OLDACT:REG 17-11-03 13:33 OP:dnl  STATUS:               ID:20171103073745     3
 2017-11-03-0738-00M.COL___435                                                 6
 STAT SP IPHASW D HRMM SECON CODA AMPLIT PERI AZIMU VELO AIN AR TRES W  DIS CAZ7
 BAR2 EZ IP     C  743 36.42                             170   -0.1010 23.7 183 
 BAR2 EZ ES        743 51.41                             170   -0.2510 23.7 183 
 BAR2 EZ I         743 52.21        11.6 0.18            170           23.7 183 
 BRR  HZ EP        743 38.35                             153    0.4510 68.4 299 
 BRR  HN ES        743 54.78                             153    0.6710 68.4 299 
 BRR  HZ I         743 56.28         9.7 0.44            151           68.4 299 
 PAM  EZ EP        743 39.29                             150    0.0910 78.7  41 
 PAM  EN ES        743 56.11                             150   -0.3210 78.7  41 
 PAM  EZ I         743 57.99         4.9 0.72            152           78.7  41 
 RUS  HZ EP        743 40.47                             143   -0.2710  101 175 
 RUS  HE ES        743 59.07                             143   -0.1010  101 175 
 RUS  HZ I         744  0.52         5.6 0.28            144            101 175 
 PTB  HZ EP        743 43.55                             132   -0.14 9  145 258 
 PTB  HN ES        744  3.83                             132   -0.59 9  145 258 
 PTB  HZ I         744  6.49         4.4 0.22            131            145 258 
 SPBC HZ EP        743 45.62                             129    0.27 9  162 218 
 SPBC HE ES        744  7.52                             129    0.15 9  162 218 
 SPBC HZ I         744  9.40         7.0 0.28            129            162 218 
 YPLC HZ EP        743 46.87                             126   -0.09 9  179 151 
 YPLC HN ES        744 10.56                             126    0.32 9  179 151 
 YPLC HZ I         744 12.94         4.3 0.22            127            179 151 
 ZAR  HZ EP        743 49.68                             122    0.54 9  201 292 
 ZAR  HN ES   4    744 15.31                             122    1.19 0  201 292 
 ZAR  HZ I         744 23.42         5.7 0.26            122            201 292 
 URE  HZ EP        743 56.92                             113   -0.85 7  281 292 
 URE  HN ES   4    744 28.48                             113   -1.01 0  281 292 
 URE  HZ I         744 33.28         2.8 0.14            113            281 292 
 GUY2CHZ EP   4    744  1.88                             112    1.46 0  299 234 
 GUY2CHE ES   4    744 37.14                             112    2.94 0  299 234 
 GUY2CHZ I         744 43.80         1.8 0.52                           299 234 
 CBOC HZ EP   4    744  5.02                             110    1.35 0  331 252 
 CBOC HE ES   4    744 37.81                             110   -2.17 0  331 252 
 CBOC HZ I         744 43.18         0.6 0.14            110            331 252 
                                                                                
