 2015  5 3 0331 48.3 L   6.792 -73.150145.6  RSN  6 0.3 1.6LRSN                1
 GAP=103        0.74       4.1     3.9  5.6  0.5136E+01 -0.3055E-01  0.1733E+01E
 Epicentro: LOS SANTOS - SANTANDER                                             3
 ACTION:UPD 15-09-10 22:01 OP:cam  STATUS:               ID:20150503033147 L   I
 OLDACT:UP  15-05-07 15:38 OP:cam  STATUS:               ID:20150503033147 L   3
 OLDACT:UP  15-05-07 06:55 OP:AK   STATUS:               ID:20150503033147 L   3
 OLDACT:REG 15-05-03 13:50 OP:stll STATUS:               ID:20150503032749     3
 2015-05-03-0327-49M.COL___273                                                 6
 STAT SP IPHASW D HRMM SECON CODA AMPLIT PERI AZIMU VELO AIN AR TRES W  DIS CAZ7
 BAR2 EZ ES        332 22.67                             171   -0.4710 22.4 189 
 BAR2 EZ I         332 24.37         4.8 0.30            171           22.4 189 
 BRR  HZ EP        332  9.64                             152    0.2510 71.2 299 
 BRR  HN ES        332 26.15                             152    0.2810 71.2 299 
 BRR  HZ I         332 31.08         6.1 0.16            149           71.2 299 
 PAM  SN ES        332 27.90                             150    0.0210 78.4  39 
 PAM  SZ I         332 29.57         9.8 0.62            151           78.4  39 
 RUS  HZ EP        332 11.68                             144   -0.2610 99.8 176 
 RUS  HE ES        332 30.75                             144    0.3410 99.8 176 
 RUS  HZ I         332 31.65         2.7 0.28            146           99.8 176 
 TAM  HZ EP        332 15.97                             130    0.01 9  155 105 
 TAM  HZ I         332 16.32         8.0 0.44            133            155 105 
 ZAR  HN ES        332 45.73                             122   -0.24 9  204 292 
 ZAR  HZ I         332 52.46         6.2 0.36            121            204 292 
                                                                                
