 2011 12 3 0255  9.6 L   6.788 -73.146138.9  RSN  9 0.3 2.2LRSN                1
 GAP=114        0.52       2.3     3.5  3.4 -0.1578E+01  0.1816E+01  0.1682E+01E
 Epicentro: LOS SANTOS - SANTANDER                                             3
 ACTION:UPD 12-07-13 16:13 OP:ep   STATUS:               ID:20111203025509 L   I
 2011-12-03-0250-00M.COL___182                                                 6
 STAT SP IPHASW D HRMM SECON CODA AMPLIT PERI AZIMU VELO AIN AR TRES W  DIS CAZ7
 BAR2 SZ EP        255 28.29                             171   -0.0410 22.0 191 
 BAR2 SZ ES   1    255 42.71                             171   -0.27 7 22.0 191 
 BAR2 SZ I         255 44.47        41.5 0.22                          22.0 191 
 GIR2 SZ EP        255 28.38                             166   -0.0710 32.6 351 
 GIR2 SZ ES   1    255 42.86                             166   -0.33 7 32.6 351 
 BRR  HZ EP        255 30.14                             151    0.1410 71.9 299 
 BRR  HE ES   2    255 46.91                             151    0.96 5 71.9 299 
 BRR  HZ I         255 51.17        37.9 0.12                          71.9 299 
 PAM  SZ EP        255 31.25                             149    0.1410 78.5  39 
 PAM  SN ES   1    255 47.99                             149    0.07 7 78.5  39 
 RUS  HZ EP        255 32.39                             143   -0.1410 99.2 176 
 RUS  HE ES   1    255 50.55                             143    0.09 7 99.2 176 
 RUS  HZ I         255 52.23        17.7 0.32                          99.2 176 
 OCA  SZ EP        255 37.39                             128   -0.08 9  162 353 
 OCA  SZ I         256  3.51        32.2 0.50                           162 353 
 YOP  SZ EP        255 39.10                             125    0.11 9  178 153 
 YOP  SZ I         255 39.35        13.0 0.16                           178 153 
 NOR  SZ EP        255 44.72                             117   -0.08 8  234 235 
 NOR  SN ES   1    256 12.06                             117   -0.24 6  234 235 
 CHI  HZ EP        255 46.72                             116   -0.01 8  247 195 
 CHI  HN ES   2    256 16.46                             116    0.73 4  247 195 
                                                                                
