 2014  9 3 0903 20.6 L   7.370 -73.217129.4  RSN  5 0.2 1.2LRSN                1
 GAP=179        0.55       4.8     2.8  5.1 -0.4222E+01  0.6722E+01 -0.8222E+01E
 Epicentro: EL PLAYON - SANTANDER                                              3
 ACTION:UPD 14-10-03 23:01 OP:nd   STATUS:               ID:20140903090320 L   I
 OLDACT:DUP 14-09-03 18:01 OP:mh   STATUS:               ID:20140903085813d    3
 OLDACT:REG 14-09-03 13:13 OP:mh   STATUS:               ID:20140903085812     3
 2014-09-03-0858-12M.COL___263                                                 6
 STAT SP IPHASW D HRMM SECON CODA AMPLIT PERI AZIMU VELO AIN AR TRES W  DIS CAZ7
 PAM  SZ EP        9 3 39.94                             155   -0.0110 57.2  93 
 PAM  SN ES        9 3 54.88                             155   -0.1310 57.2  93 
 PAM  SZ I         9 3 57.98         2.4 0.23            169           57.2  93 
 BRR  HZ EP        9 3 39.76                             153    0.2710 61.9 242 
 BRR  HN ES        9 3 54.22                             153    0.0210 61.9 242 
 BRR  HZ I         9 4 22.98         4.0 0.30            154           61.9 242 
 BAR2 SZ ES        9 3 57.61                             144    0.0610 86.1 177 
 BAR2 SZ I         9 3 59.36         6.4 0.09            162           86.1 177 
 PTB  HZ EP        9 3 48.17                             125    0.16 9  165 236 
 PTB  HN ES        9 4  9.09                             125   -0.27 9  165 236 
 PTB  HZ I         9 4 12.95         1.1 0.19            135            165 236 
 ZAR  HZ EP   1    9 3 49.17                             122   -0.54 7  182 274 
 ZAR  HN ES   1    9 4 12.63                             122    0.25 7  182 274 
 ZAR  HZ I         9 4 17.64         1.4 0.22            130            182 274 
                                                                                
