 2010 12 3 0316 18.2 L   6.798 -73.385136.6  RSN  6 0.4 1.7LRSN                1
 GAP=122        0.89       6.7    12.5  9.1  0.1309E+02  0.5129E+02 -0.1701E+02E
 Epicentro: SAN VICENTE DE CHUCURI - SANTANDER                                 3
 ACTION:UP  11-01-14 15:22 OP:pat  STATUS:               ID:20101203031618 L   I
 2010-12-03-0314-42S.COL___132                                                 6
 STAT SP IPHASW D HRMM SECON CODA AMPLIT PERI AZIMU VELO SNR AR TRES W  DIS CAZ7
 BAR2 SZ EP        316 36.75                             165    -0.210   32 136 
 BAR2 SZ ES   1    316 51.31                             165    -0.2 7   32 136 
 BAR2 SZ I         316 53.84        14.1 0.25                            32 136 
 GIR2 SZ EP        316 36.89                             163    -0.110   38  34 
 GIR2 SZ ES   1    316 51.97                             163     0.4 7   38  34 
 GUE  SZ EP        316 43.36                             135     0.610  125  24 
 OCA  SZ EP        316 45.56                             127    -0.1 9  159   3 
 OCA  SZ ES   1    317  6.49                             127    -0.7 7  159   3 
 OCA  SZ I         317 10.61        11.5 0.24                           159   3 
 CHI  HZ EP   3    316 54.73                             115     0.0 2  243 189 
 MON  HZ EP   1    317  4.10                             108    -0.3 5  333 311 
 MON  HE ES   2    317 41.32                             108     0.8 3  333 311 
 MON  HZ I         317 56.37         1.3 0.71                           333 311 
                                                                                
