 2016 12 3 0456 51.0 L   7.482 -73.688 27.2  RSN  5 0.2 1.4LRSN                1
 GAP=188        0.65       3.0     1.6  3.0  0.4710E+00 -0.3374E+00 -0.4117E+01E
 Epicentro: SABANA DE TORRES - SANTANDER                                       3
 ACTION:UPD 17-01-11 20:12 OP:rebc STATUS:               ID:20161203045651 L   I
 OLDACT:DUP 16-12-03 14:21 OP:dani STATUS:               ID:20161203044744d    3
 OLDACT:UP  16-12-03 14:21 OP:dani STATUS:               ID:20161203044743d    3
 OLDACT:UP  16-12-03 14:19 OP:dani STATUS:               ID:20161203044743d    3
 OLDACT:DUP 16-12-03 14:17 OP:dani STATUS:               ID:20161203044743d    3
 2016-12-03-0448-00M.COL___352                                                 6
 STAT SP IPHASW D HRMM SECON CODA AMPLIT PERI AZIMU VELO AIN AR TRES W  DIS CAZ7
 BRR  HZ EP     C  456 58.53                             116   -0.2810 41.5 184 
 BRR  HE ES        457  5.00                             116    0.0810 41.5 184 
 BRR  HZ I         457  5.58        16.3 0.14            109           41.5 184 
 PAM  EZ EP        457  8.71                              61    0.0610  110  98 
 PAM  EN ES        457 22.13                              61   -0.3010  110  98 
 PAM  EZ I         457 25.96         8.0 0.12             98            110  98 
 BAR2 EZ EP        457  9.26                              61    0.5510  113 150 
 BAR2 EZ ES        457 22.60                              61    0.0610  113 150 
 BAR2 EZ I         457 29.07         6.1 0.23             97            113 150 
 ZAR  HZ EP        457 10.52                              61    0.0810  129 271 
 ZAR  HN ES        457 25.68                              61    0.0610  129 271 
 PTB  HZ EP        457 11.02                              61   -0.0810  134 219 
 PTB  HN ES        457 26.57                              61   -0.2410  134 219 
 PTB  HZ I         457 28.48         7.9 0.22             56            134 219 
                                                                                
