 2017  7 3 0258  0.8 L   6.266 -73.842 84.3  RSN  7 0.4 1.3LRSN                1
 GAP=137        1.07       3.4     3.8  8.0 -0.5358E+01  0.8362E+01 -0.1367E+01E
 Epicentro: LANDAZURI - SANTANDER                                              3
 ACTION:UPD 17-08-30 15:29 OP:rebc STATUS:               ID:20170703025800 L   I
 OLDACT:UP  17-07-03 15:51 OP:edw  STATUS:               ID:20170703024740d    3
 OLDACT:DUP 17-07-03 15:47 OP:edw  STATUS:               ID:20170703024740d    3
 OLDACT:UP  17-07-03 15:46 OP:edw  STATUS:               ID:20170703024739     3
 OLDACT:UP  17-07-03 15:45 OP:edw  STATUS:               ID:20170703024739     3
 OLDACT:REG 17-07-03 13:33 OP:edw  STATUS:               ID:20170703024739     3
 2017-07-03-0248-00M.COL___371                                                 6
 STAT SP IPHASW D HRMM SECON CODA AMPLIT PERI AZIMU VELO AIN AR TRES W  DIS CAZ7
 SPBC HN ES        258 28.23                             136    0.3610 72.5 201 
 PTB  HN ES        258 27.35                             135   -0.6210 74.3 294 
 BAR2 EZ EP        258 17.06                             132    0.0710 81.4  64 
 BAR2 EZ ES        258 29.56                             132   -0.0710 81.4  64 
 BAR2 EZ I         258 30.71        11.3 0.32            137           81.4  64 
 BRR  HZ IP     D  258 17.24                             128   -0.6210 94.1   9 
 BRR  HN ES        258 31.66                             128    0.4710 94.1   9 
 BRR  HZ I         258 39.47         3.2 0.32            130           94.1   9 
 NOR  HZ EP        258 22.60                             116    0.08 9  138 236 
 NOR  HN ES        258 39.07                             116   -0.41 9  138 236 
 NOR  HZ I         258 41.78         5.5 0.20            121            138 236 
 ZAR  HZ EP        258 26.64                             110   -0.16 9  176 320 
 ZAR  HN ES        258 47.77                             110    0.67 9  176 320 
 ZAR  HZ I         258 48.66         4.1 0.30            113            176 320 
 GUY2CHZ EP        258 30.57                             107   -0.12 9  204 236 
 GUY2CHN ES        258 54.53                             107    0.52 9  204 236 
 GUY2CHZ I         258 59.62         1.7 0.42                           204 236 
                                                                                
