 2011  9 3 0850 10.1 L   6.815 -73.105144.2  RSN 10 0.2 2.1LRSN                1
 GAP=187        0.30       1.7     2.7  2.9  0.6473E+00  0.2407E+01  0.1575E+01E
 Epicentro: LOS SANTOS - SANTANDER                                             3
 ACTION:UPD 12-07-13 15:55 OP:ep   STATUS:               ID:20110903085010 L   I
 2011-09-03-0840-00M.COL___172                                                 6
 STAT SP IPHASW D HRMM SECON CODA AMPLIT PERI AZIMU VELO AIN AR TRES W  DIS CAZ7
 BAR2 SZ IP        850 29.62                             169    0.0010 26.1 199 
 BAR2 SZ I         850 30.01        22.5 0.31                          26.1 199 
 BAR2 SZ ES   2    850 44.57                             169   -0.26 5 26.1 199 
 GIR2 SZ EP   2    850 29.54                             167   -0.05 5 30.8 341 
 GIR2 SZ ES   2    850 45.07                             167    0.29 5 30.8 341 
 BRR  HZ IP        850 31.38                             151    0.1010 74.4 296 
 BRR  HN ES   2    850 48.13                             151    0.34 5 74.4 296 
 BRR  HZ I         850 50.27        27.0 0.22                          74.4 296 
 RUS  HZ EP   1    850 33.77                             143   -0.05 7  102 179 
 RUS  HZ I         850 34.95         9.1 0.16                           102 179 
 RUS  HN ES   2    850 52.12                             143   -0.19 5  102 179 
 OCA  SZ EP   2    850 38.17                             129   -0.03 5  159 351 
 OCA  SZ ES   2    850 59.76                             129   -0.36 5  159 351 
 OCA  SZ I         851  6.23         9.6 0.23                           159 351 
 ZAR  HZ EP   2    850 42.75                             121   -0.08 4  208 291 
 ZAR  HN ES   2    851  8.10                             121   -0.24 4  208 291 
 ZAR  HZ I         851 13.59        13.4 0.60                           208 291 
 CHI  HZ EP   1    850 48.10                             116    0.07 6  251 196 
 CHI  HN ES   2    851 17.58                             116   -0.03 4  251 196 
 CHI  HZ I         851 24.43         5.0 0.44                           251 196 
 HEL  HZ EP   2    850 50.48                             114   -0.30 4  277 256 
 HEL  HN ES   2    851 22.42                             114   -0.07 4  277 256 
 HEL  HZ I         851 29.06         7.6 0.56                           277 256 
 RREF HZ EP   2    850 57.09                             110    0.39 3  326 230 
 RREF HN ES   2    851 33.01                             110   -0.03 3  326 230 
 RREF HZ I         851 41.66         5.6 0.32                           326 230 
 PRA  HZ EP   1    851  4.20                             106    0.19 4  396 210 
 PRA  HN ES   2    851 45.91                             106   -0.14 3  396 210 
 PRA  HZ I         851 52.71        13.9 0.31                           396 210 
                                                                                
