 2015  9 3 0629  7.5 L   6.851 -73.368122.2  RSN  8 0.4 1.7LRSN                1
 GAP=142        1.09       3.2     5.3  7.1 -0.2674E-01  0.5110E+01 -0.6007E+01E
 Epicentro: SAN VICENTE DE CHUCURI - SANTANDER                                 3
 ACTION:UPD 15-10-28 16:23 OP:cam  STATUS:               ID:20150903062907 L   I
 OLDACT:REG 15-09-03 12:56 OP:stll STATUS:               ID:20150903062741     3
 2015-09-03-0627-41M.COL___355                                                 6
 STAT SP IPHASW D HRMM SECON CODA AMPLIT PERI AZIMU VELO AIN AR TRES W  DIS CAZ7
 BAR2 EZ EP     C  629 25.13                             163    0.4310 35.3 144 
 BAR2 EZ ES        629 37.75                             163   -0.3310 35.3 144 
 BAR2 EZ I         629 39.46        37.1 0.40            165           35.3 144 
 BRR  HZ EP     D  629 25.61                             157    0.7610 47.4 307 
 BRR  HZ I         629 25.91        11.7 0.22            156           47.4 307 
 BRR  HN ES        629 39.07                             157    0.7210 47.4 307 
 RUS  HZ EP        629 30.08                             135    0.1910  111 163 
 RUS  HN ES        629 46.90                             135   -0.4210  111 163 
 RUS  HZ I         629 48.35         3.2 0.14            137            111 163 
 CPBEREZ EP        629 30.47                             131   -0.0710  125 254 
 PTB  HZ EP        629 30.53                             131   -0.0010  125 254 
 PTB  HN ES        629 47.93                             131   -0.5410  125 254 
 PTB  HZ I         629 53.06         4.5 0.42            131            125 254 
 OCA  HZ EP        629 33.32                             125   -0.13 9  154   2 
 OCA  HN ES        629 53.07                             125   -0.60 9  154   2 
 OCA  HZ I         629 54.57        14.8 0.38            127            154   2 
 SPBC HN ES        629 53.53                             125   -0.03 9  154 210 
 SPBC HZ I         629 56.95         6.0 0.20            125            154 210 
 SML  HZ EP        629 41.38                             114    0.06 8  229 340 
 SML  HN ES        630  7.41                             114   -0.26 8  229 340 
                                                                                
