 2012  9 3 0255 14.1 L   6.805 -73.135151.4  RSN  6 0.4 1.3LRSN                1
 GAP=184        0.79       4.7     7.0  7.6  0.3805E+01  0.7914E+01  0.1530E+01E
 Epicentro: LOS SANTOS - SANTANDER                                             3
 ACTION:UPD 12-10-22 14:16 OP:ep   STATUS:               ID:20120903025514 L   I
 2012-09-03-0250-00M.COL___218                                                 6
 STAT SP IPHASW D HRMM SECON CODA AMPLIT PERI AZIMU VELO AIN AR TRES W  DIS CAZ7
 BAR2 SZ ES   1    255 50.02                             171   -0.30 7 24.1 192 
 BAR2 SZ I         255 50.84         5.0 0.18                          24.1 192 
 GIR2 SZ EP   1    255 34.86                             168    0.38 7 30.9 348 
 GIR2 SZ ES   1    255 50.34                             168    0.00 7 30.9 348 
 BRR  HZ EP   1    255 36.40                             153    0.45 7 71.9 298 
 BRR  HZ I         255 37.96         5.4 0.13                          71.9 298 
 BRR  HN ES   1    255 53.56                             153    0.61 7 71.9 298 
 RUS  HZ EP   1    255 38.67                             145    0.18 7  101 177 
 RUS  HN ES   1    255 57.26                             145   -0.22 7  101 177 
 PTB  HZ EP   1    255 41.18                             133   -0.51 7  149 259 
 PTB  HN ES   1    256  2.99                             133   -0.18 7  149 259 
 PTB  HZ I         256  4.55         1.6 0.11                           149 259 
 OCA  HN ES   1    256  4.63                             131   -0.62 7  160 353 
                                                                                
