 2013  7 3 0545 31.8 L   6.744 -73.141144.9  RSN  8 0.3 1.9LRSN                1
 GAP=140        0.88       3.6     4.1  5.6 -0.6457E+01  0.2619E+00 -0.1595E+01E
 Epicentro: JORDAN - SANTANDER                                                 3
 ACTION:UPD 13-08-12 10:35 OP:ep   STATUS:               ID:20130703054531 L   I
 OLDACT:REG 13-07-03 08:48 OP:stll STATUS:               ID:20130703053842     3
 2013-07-03-0538-42M.COL___230                                                 6
 STAT SP IPHASW D HRMM SECON CODA AMPLIT PERI AZIMU VELO AIN AR TRES W  DIS CAZ7
 BAR2 SZ EP        545 51.31                             173    0.1210 17.4 195 
 BAR2 SZ ES        546  6.22                             173   -0.1210 17.4 195 
 BAR2 SZ I         546  7.05        10.1 0.32            174           17.4 195 
 GIR2 SZ EP        545 51.58                             165    0.0610 37.5 351 
 BRR  HZ EP        545 53.42                             151    0.3910 74.8 303 
 BRR  HN ES        546 10.37                             151    0.7510 74.8 303 
 BRR  HN I         546 14.29        21.0 0.22            151           74.8 303 
 PAM  SZ EP        545 54.24                             149    0.0710 82.0  37 
 PAM  SE ES        546 11.53                             149   -0.1210 82.0  37 
 PAM  SE I         546 13.60        15.3 0.50            151           82.0  37 
 RUS  HZ EP        545 55.11                             145    0.1210 94.3 176 
 RUS  HN ES        546 13.12                             145    0.0110 94.3 176 
 RUS  HN I         546 14.03        10.9 0.36            148           94.3 176 
 GRA  SZ EP        545 57.37                             135   -0.0610  132  16 
 GRA  SZ ES        546 17.32                             135   -0.1210  132  16 
 PTB  HZ EP        545 58.43                             132   -0.18 9  147 261 
 PTB  HN ES        546 18.75                             132   -0.80 9  147 261 
 PTB  HN I         546 19.81        10.8 0.18            133            147 261 
 CAPV BZ EP        545 59.62                             131    0.10 9  154  36 
 CAPV BZ ES        546 20.75                             131   -0.42 9  154  36 
                                                                                
