 2016 10 3 0207 41.5 L   6.706 -73.249145.2  RSN  4 0.3 1.3LRSN                1
 GAP=217        0.88       6.7     5.9  8.9  0.1847E+02 -0.5015E+01 -0.1876E+01E
 Epicentro: BARICHARA - SANTANDER                                              3
 ACTION:UPD 16-11-09 19:15 OP:rebc STATUS:               ID:20161003020741 L   I
 OLDACT:UP  16-10-03 17:19 OP:dani STATUS:               ID:20161003015743     3
 OLDACT:REG 16-10-03 14:53 OP:dani STATUS:               ID:20161003015743     3
 2016-10-03-0158-00M.COL___369                                                 6
 STAT SP IPHASW D HRMM SECON CODA AMPLIT PERI AZIMU VELO AIN AR TRES W  DIS CAZ7
 BRR  HZ EP        2 8  2.01                             154   -0.4210 67.7 311 
 BRR  HE ES        2 8 18.97                             154    0.2410 67.7 311 
 BRR  HZ I         2 8 23.08         4.7 0.11            155           67.7 311 
 RUS  HZ EP        2 8  4.43                             146   -0.1910 91.8 168 
 RUS  HN ES        2 8 22.73                             146    0.1110 91.8 168 
 RUS  HZ I         2 8 24.06         2.3 0.26            151           91.8 168 
 PTB  HZ EP        2 8  7.98                             135    0.6810  135 262 
 PTB  HN ES        2 8 27.21                             135   -0.1910  135 262 
 PTB  HN ISg       2 8 27.21                             135   -0.1910  135 262 
 PTB  HZ I         2 8 30.88         4.5 0.12            138            135 262 
 GUY2CHZ EP   4    2 8 26.70                             113    3.31 0  286 235 
 GUY2CHZ I         2 9  7.13         0.9 0.25                           286 235 
                                                                                
