 2011 12 3 0550  5.5 L   6.859 -73.293120.2  RSN  7 0.2 1.9LRSN                1
 GAP=107        0.43       2.0     3.3  3.0 -0.5255E+00  0.1367E+01  0.5151E+00E
 Epicentro: ZAPATOCA - SANTANDER                                               3
 ACTION:UPD 12-07-13 16:13 OP:ep   STATUS:               ID:20111203055005 L   I
 2011-12-03-0550-00M.COL___182                                                 6
 STAT SP IPHASW D HRMM SECON CODA AMPLIT PERI AZIMU VELO AIN AR TRES W  DIS CAZ7
 GIR2 SZ EP        550 22.01                             167   -0.0310 26.6  24 
 GIR2 SZ ES   1    550 34.93                             167    0.02 7 26.6  24 
 BAR2 SZ EP        550 22.45                             164    0.1010 32.0 158 
 BAR2 SZ ES   1    550 35.34                             164   -0.12 7 32.0 158 
 BAR2 SZ I         550 36.77        90.8 0.36                          32.0 158 
 BRR  HZ EP        550 22.83                             154   -0.1110 53.8 301 
 BRR  HN ES   1    550 36.63                             154    0.11 7 53.8 301 
 BRR  HZ I         550 37.66        52.0 0.12                          53.8 301 
 PAM  SZ EP        550 25.62                             143    0.0310 84.3  51 
 PAM  SN ES   1    550 41.50                             143    0.26 7 84.3  51 
 RUS  HZ EP        550 27.45                             135   -0.1610  109 168 
 RUS  HZ I         550 27.99         4.0 0.10                           109 168 
 RUS  HN ES   1    550 44.66                             135   -0.16 7  109 168 
 OCA  SZ EP        550 31.04                             125   -0.17 9  153 359 
 OCA  SZ I         550 54.68        13.0 0.47                           153 359 
 CTAU SZ EP        550 37.14                             117    0.35 9  201 204 
 CTAU SZ I         551  5.23         3.9 0.42                           201 204 
                                                                                
