 2011  8 3 0719 22.3 L   6.799 -73.131137.4  RSN  6 0.3 1.5LRSN                1
 GAP=138        0.53       3.7     6.3  5.9 -0.1058E+02  0.1958E+02 -0.5687E+01E
 Epicentro: LOS SANTOS - SANTANDER                                             3
 ACTION:UPD 12-07-25 14:05 OP:epov STATUS:               ID:20110803071922 L   I
 2011-08-03-0715-46S.COL___119                                                 6
 STAT SP IPHASW D HRMM SECON CODA AMPLIT PERI AZIMU VELO AIN AR TRES W  DIS CAZ7
 BAR2 SZ EP   1    719 40.74                             170   -0.22 7 23.6 194 
 BAR2 SZ ES   1    719 55.32                             170   -0.17 7 23.6 194 
 BAR2 SZ I         719 57.73         9.5 0.18                          23.6 194 
 PAM  SZ EP   1    719 43.63                             150    0.03 7 76.4  39 
 PAM  SN ES   1    720  0.50                             150    0.31 7 76.4  39 
 RUS  HZ EP   1    719 45.05                             142   -0.20 7  100 177 
 RUS  HE ES   2    720  3.54                             142    0.41 5  100 177 
 RUS  HZ I         720  5.24         6.2 0.12                           100 177 
 OCA  SZ EP   1    719 49.83                             128   -0.20 7  161 353 
 OCA  SZ ES   2    720 11.48                             128   -0.16 5  161 353 
 OCA  SZ I         720 12.88         3.3 0.38                           161 353 
 NOR  SE ES   2    720 25.10                             116   -0.24 4  236 235 
 HEL  HZ EP   1    720  2.97                             113    0.66 6  274 256 
 HEL  HZ I         720 39.82         1.9 0.45                           274 256 
                                                                                
