 2014  9 3 0902  1.8 L   6.816 -73.168145.6  RSN  7 0.4 1.4LRSN                1
 GAP=133        0.91       4.3     4.0  6.8 -0.5863E+00  0.6931E+01 -0.3612E+00E
 Epicentro: LOS SANTOS - SANTANDER                                             3
 ACTION:UPD 14-10-03 23:01 OP:nd   STATUS:               ID:20140903090201 L   I
 OLDACT:REG 14-09-03 13:13 OP:mh   STATUS:               ID:20140903085812     3
 2014-09-03-0858-12M.COL___263                                                 6
 STAT SP IPHASW D HRMM SECON CODA AMPLIT PERI AZIMU VELO AIN AR TRES W  DIS CAZ7
 BAR2 SZ EP   1    9 2 21.10                             170   -0.30 7 24.8 184 
 BAR2 SZ ES        9 2 36.66                             170   -0.0610 24.8 184 
 BAR2 SZ I    1    9 2 38.79         5.8 0.05            172           24.8 184 
 BRR  HZ EP        9 2 23.12                             153    0.4010 68.2 298 
 BRR  HN ES   1    9 2 39.53                             153    0.46 7 68.2 298 
 BRR  HZ I         9 2 44.65         4.7 0.15            151           68.2 298 
 PAM  SZ EP        9 2 23.67                             151   -0.3010 77.6  42 
 PAM  SN ES        9 2 41.06                             151   -0.2310 77.6  42 
 PAM  SZ I         9 2 43.90         7.8 0.35            154           77.6  42 
 RUS  HZ EP        9 2 25.90                             143    0.2610  103 175 
 RUS  HN ES        9 2 44.66                             143    0.4010  103 175 
 RUS  HZ I         9 2 45.75         3.7 0.30            148            103 175 
 PTB  HZ EP        9 2 28.26                             132   -0.27 9  146 258 
 PTB  HN ES        9 2 48.77                             132   -0.63 9  146 258 
 PTB  HZ I         9 2 51.57         2.4 0.08            133            146 258 
 SPBC HZ EP   2    9 2 30.59                             129    0.35 5  163 218 
 SPBC HN ES   1    9 2 51.98                             129   -0.46 7  163 218 
 SPBC HZ I         9 2 55.26         4.8 0.14            132            163 218 
 ZAR  HN ES        9 2 59.48                             123    0.53 9  201 292 
 ZAR  HZ I         9 3  8.39         2.4 0.07            124            201 292 
                                                                                
