 2016  4 3 0249 51.4 L   6.793 -73.187141.0  RSN  5 0.3 1.3LRSN                1
 GAP=143        0.90       4.9     5.0  7.0 -0.1103E+02  0.1025E+02 -0.2069E+01E
 Epicentro: ZAPATOCA - SANTANDER                                               3
 ACTION:UPD 16-05-05 14:18 OP:rebc STATUS:               ID:20160403024951 L   I
 OLDACT:REG 16-04-03 12:24 OP:drio STATUS:               ID:20160403024745     3
 2016-04-03-0247-45M.COL___312                                                 6
 STAT SP IPHASW D HRMM SECON CODA AMPLIT PERI AZIMU VELO AIN AR TRES W  DIS CAZ7
 BAR2 EZ EP        250 10.88                             171    0.3910 22.2 179 
 BAR2 EZ ES        250 24.87                             171   -0.4710 22.2 179 
 BAR2 EZ I         250 27.00         2.8 0.20            172           22.2 179 
 PAM  EZ EP        250 13.29                             149   -0.0910 80.9  42 
 PAM  EE ES        250 30.71                             149    0.2210 80.9  42 
 PAM  EZ I         250 32.52         6.7 0.42            152           80.9  42 
 RUS  HZ EP        250 14.48                             143   -0.2310  100 173 
 RUS  HE ES        250 33.01                             143    0.1510  100 173 
 RUS  HZ I         250 34.30         1.8 0.30            146            100 173 
 PTB  HZ EP        250 16.97                             132   -0.64 9  143 259 
 PTB  HE ES        250 38.36                             132    0.34 9  143 259 
 PTB  HZ I         250 43.10         2.3 0.26            133            143 259 
 SPBC HZ EP        250 19.65                             129    0.39 9  160 218 
 SPBC HN ES        250 40.91                             129   -0.04 9  160 218 
 SPBC HZ I         250 43.83         3.8 0.30            131            160 218 
                                                                                
