 2015 12 3 0858 44.4 L   6.774 -73.202141.9  RSN  8 0.3 1.7LRSN                1
 GAP=229        0.60       3.8     5.3  5.1  0.1043E+02  0.6014E+01  0.1907E+01E
 Epicentro: ZAPATOCA - SANTANDER                                               3
 ACTION:UPD 16-02-04 15:02 OP:cam  STATUS:               ID:20151203085844 L   I
 OLDACT:REG 15-12-03 12:58 OP:mh   STATUS:               ID:20151203085737     3
 2015-12-03-0857-37M.COL___311                                                 6
 STAT SP IPHASW D HRMM SECON CODA AMPLIT PERI AZIMU VELO AIN AR TRES W  DIS CAZ7
 BAR2 EZ EP        859  3.05                             171   -0.4710 20.2 174 
 BAR2 EZ ES   2    859 18.16                             171   -0.25 5 20.2 174 
 BAR2 EZ I         859 19.58         9.8 0.12            170           20.2 174 
 BRR  HZ EP        859  5.09                             153    0.1710 67.3 303 
 BRR  HN ES        859 21.02                             153    0.1010 67.3 303 
 RUS  HZ EP        859  7.57                             144   -0.0510 98.4 172 
 RUS  HN ES        859 26.00                             144    0.2810 98.4 172 
 RUS  HZ I         859 26.91         5.5 0.19            145           98.4 172 
 SPBC HZ EP   2    859 12.31                             129    0.27 5  157 218 
 SPBC HN ES   2    859 33.47                             129   -0.11 5  157 218 
 SPBC HZ I         859 36.86        12.7 0.17            128            157 218 
 OCA  HN ES   4    859 33.25                             128   -1.40 0  162 355 
 OCA  HZ I         859 39.12         5.7 0.29            128            162 355 
 ZAR  HZ EP        859 16.40                             122    0.27 9  199 294 
 ZAR  HN ES   2    859 40.13                             122   -0.74 4  199 294 
 ZAR  HZ I         859 47.50         2.6 0.09            120            199 294 
 GUY2CHZ EP   4    859 28.84                             112    1.76 0  294 235 
 GUY2CHN ES   2    9 0  0.49                             112    0.12 4  294 235 
 GUY2CHZ I         9 0 10.72         1.5 0.36                           294 235 
 PRA  HZ EP   2    859 37.16                             106    0.01 3  386 209 
 PRA  HN ES   2    9 0 17.46                             106   -0.83 3  386 209 
 PRA  HZ I         9 0 25.61         1.9 0.25            106            386 209 
                                                                                
