 2011 12 3 0719 25.8 L   6.768 -73.075151.0  RSN  7 0.3 2.0LRSN                1
 GAP=147        0.58       4.2     5.9  4.9 -0.1587E+01 -0.2332E+01  0.1127E+01E
 Epicentro: LOS SANTOS - SANTANDER                                             3
 ACTION:UPD 12-07-13 16:13 OP:ep   STATUS:               ID:20111203071925 L   I
 2011-12-03-0717-59S.COL___180                                                 6
 STAT SP IPHASW D HRMM SECON CODA AMPLIT PERI AZIMU VELO AIN AR TRES W  DIS CAZ7
 BAR2 SZ EP        719 45.94                             171   -0.1010 22.7 211 
 BAR2 SZ ES   1    720  1.71                             171   -0.12 7 22.7 211 
 BAR2 SZ I         720  2.27        20.7 0.40                          22.7 211 
 GIR2 SZ EP        719 46.15                             166   -0.0910 36.8 339 
 GIR2 SZ ES   2    720  1.64                             166   -0.55 5 36.8 339 
 PAM  SZ EP        719 48.87                             152    0.4110 75.6  33 
 PAM  SE ES   1    720  6.14                             152   -0.01 7 75.6  33 
 BRR  HZ EP        719 47.93                             151   -0.0710 79.8 298 
 BRR  HZ I         719 48.11        37.7 0.14                          79.8 298 
 BRR  HN ES   1    720  5.77                             151    0.45 7 79.8 298 
 RUS  HZ EP        719 49.85                             146    0.0610 96.8 181 
 RUS  HZ I         720 10.18         6.0 0.46                          96.8 181 
 OCA  SZ EP        719 54.65                             130   -0.29 9  165 351 
 OCA  SZ I         720 22.98         9.9 0.40                           165 351 
 CHI  HZ EP   3    720  3.54                             118   -0.10 2  247 197 
                                                                                
