 2010 10 3 0640 59.7 L   6.746 -73.139146.8  RSN  4 0.3 1.3LRSN                1
 GAP=165        0.57       4.4     7.1  7.8  0.8564E+01 -0.1997E+02 -0.8282E+01E
 Epicentro: JORDAN - SANTANDER                                                 3
 ACTION:UP  11-02-18 11:07 OP:tino STATUS:               ID:20101003064059 L   I
 2010-10-03-0637-30S.COL___123                                                 6
 STAT SP IPHASW D HRMM SECON CODA AMPLIT PERI AZIMU VELO SNR AR TRES W  DIS CAZ7
 BRR  HZ EP        641 21.17                             151     0.010   75 302 
 BRR  HN ES        641 37.99                             151     0.110   75 302 
 BRR  HZ I         641 42.25         7.4 0.10                            75 302 
 RUS  HZ EP   2    641 23.78                             146     0.7 5   95 176 
 RUS  HN ES   1    641 41.20                             146    -0.2 7   95 176 
 RUS  HZ I         641 43.14         1.6 1.09                            95 176 
 GUE  SZ EP   1    641 24.73                             138    -0.2 7  122  11 
 NOR  SN ES   2    642  2.59                             119    -0.3 4  232 236 
                                                                                
