 2015  5 3 0800 39.8 L   7.513 -73.057154.4  RSN  6 0.5 1.2LRSN                1
 GAP=136        1.14       5.6     6.5  9.7  0.7472E+01  0.9926E+01  0.1394E+02E
 Epicentro: EL PLAYON - SANTANDER                                              3
 ACTION:UPD 15-09-10 22:01 OP:cam  STATUS:               ID:20150503080039 L   I
 OLDACT:REG 15-05-03 13:59 OP:stll STATUS:               ID:20150503075735     3
 2015-05-03-0757-35M.COL___273                                                 6
 STAT SP IPHASW D HRMM SECON CODA AMPLIT PERI AZIMU VELO AIN AR TRES W  DIS CAZ7
 PAM  SZ EP        8 1  1.32                             164   -0.0410 43.9 116 
 PAM  SZ I         8 1  1.92         2.7 0.18            165           43.9 116 
 PAM  SN ES        8 1 18.02                             164   -0.1810 43.9 116 
 BRR  HZ EP        8 1  3.21                             150    0.5610 85.1 238 
 BRR  HN ES        8 1 21.17                             150    0.6610 85.1 238 
 BRR  HZ I         8 1 23.91         3.2 0.58            149           85.1 238 
 OCA  HN ES        8 1 20.73                             150   -0.2010 85.3 340 
 BAR2 EZ ES        8 1 23.31                             145    0.1210  103 188 
 BAR2 EZ I         8 1 24.50         3.4 0.28            145            103 188 
 RUS  HZ EP        8 1 11.18                             128    0.20 9  179 181 
 RUS  HE ES        8 1 34.62                             128   -0.71 9  179 181 
 RUS  HZ I         8 1 36.77         0.9 0.32            129            179 181 
 ZAR  HE ES        8 1 36.89                             125   -0.71 9  199 269 
                                                                                
