 2017 11 3 0844 40.6 L   6.773 -73.154144.0  RSN  6 0.3 1.5LRSN                1
 GAP=137        0.76       4.0     3.5  5.7  0.2543E+00  0.5227E+01 -0.2442E+01E
 Epicentro: LOS SANTOS - SANTANDER                                             3
 ACTION:UPD 17-12-12 19:51 OP:rebc STATUS:               ID:20171103084440 L   I
 OLDACT:DUP 17-11-03 18:00 OP:dnl  STATUS:               ID:20171103083743d    3
 OLDACT:UP  17-11-03 17:58 OP:dnl  STATUS:               ID:20171103083742d    3
 OLDACT:UP  17-11-03 17:57 OP:dnl  STATUS:               ID:20171103083742d    3
 OLDACT:UP  17-11-03 17:57 OP:dnl  STATUS:               ID:20171103083742d    3
 OLDACT:DUP 17-11-03 17:46 OP:dnl  STATUS:               ID:20171103083742d    3
 2017-11-03-0838-00M.COL___423                                                 6
 STAT SP IPHASW D HRMM SECON CODA AMPLIT PERI AZIMU VELO AIN AR TRES W  DIS CAZ7
 BAR2 EZ EP        844 59.99                             172    0.0610 20.2 189 
 BAR2 EZ ES        845 14.87                             172   -0.1610 20.2 189 
 BAR2 EZ I         845 17.38         8.5 0.42            173           20.2 189 
 BRR  HZ IP     C  845  1.82                             152    0.2410 71.9 301 
 BRR  HN ES        845 18.47                             152    0.5210 71.9 301 
 BRR  HZ I         845 19.46         5.7 0.34            151           71.9 301 
 PAM  EZ EP        845  2.88                             150    0.1010 80.3  39 
 PAM  EN ES        845 19.81                             150   -0.2910 80.3  39 
 PAM  EZ I         845 22.33         6.5 0.46            151           80.3  39 
 RUS  HZ EP   2    845  4.07                             144    0.13 5 97.6 175 
 RUS  HE ES        845 22.20                             144    0.0410 97.6 175 
 RUS  HZ I         845 23.56         2.7 0.24            147           97.6 175 
 PTB  HZ EP        845  6.85                             132   -0.42 9  146 260 
 PTB  HN ES        845 28.09                             132    0.00 9  146 260 
 PTB  HZ I         845 29.54         2.3 0.14            133            146 260 
 ZAR  HZ EP   2    845 13.87                             122    0.93 4  204 293 
 ZAR  HN ES        845 37.73                             122   -0.46 9  204 293 
 ZAR  HZ I         845 43.86         5.4 0.46            123            204 293 
                                                                                
