 2013 11 3 0016  3.9 L   7.408 -73.213117.6  RSN  7 0.5 1.6LRSN                1
 GAP=105        1.18       4.9     5.4 11.0 -0.1525E+01  0.2180E+02  0.7998E+01E
 Epicentro: EL PLAYON - SANTANDER                                              3
 ACTION:UPD 14-01-09 16:25 OP:ep   STATUS:               ID:20131103001603 L   I
 OLDACT:REG 13-11-03 07:23 OP:jn   STATUS:               ID:20131103001000     3
 2013-11-03-0010-00M.COL___273                                                 6
 STAT SP IPHASW D HRMM SECON CODA AMPLIT PERI AZIMU VELO AIN AR TRES W  DIS CAZ7
 PAM  SZ EP        016 21.57                             153   -0.3810 57.2  98 
 PAM  SN ES        016 36.61                             153    0.6010 57.2  98 
 BRR  HN ES        016 35.90                             149    0.4010 64.3 239 
 BAR2 SZ ES        016 38.94                             140   -0.4310 90.2 178 
 OCA  HE ES        016 39.11                             139   -0.4010 92.7 353 
 RUS  HE ES   1    016 52.87                             121   -0.09 7  168 175 
 PTB  HZ EP        016 31.57                             121    0.77 9  168 235 
 PTB  HN ES        016 51.19                             121   -0.56 9  168 235 
 PTB  HZ I         016 55.78         3.7 0.44            120            168 235 
 ZAR  HN ES   1    016 54.58                             119    0.17 7  182 273 
 ZAR  HZ I         016 55.77         5.3 0.12            118            182 273 
                                                                                
