 2011  8 3 0726 17.7 L   6.758 -73.070149.6  RSN  8 0.2 1.7LRSN                1
 GAP=148        0.37       2.3     3.2  3.3 -0.1787E+01  0.3007E+01  0.3688E+00E
 Epicentro: LOS SANTOS - SANTANDER                                             3
 ACTION:UPD 12-07-25 14:05 OP:epov STATUS:               ID:20110803072617 L   I
 2011-08-03-0722-56S.COL___119                                                 6
 STAT SP IPHASW D HRMM SECON CODA AMPLIT PERI AZIMU VELO AIN AR TRES W  DIS CAZ7
 BAR2 SZ EP   1    726 37.67                             171   -0.15 7 22.2 214 
 BAR2 SZ ES   1    726 53.48                             171    0.01 7 22.2 214 
 PAM  SZ EP   1    726 40.56                             152    0.26 7 76.2  32 
 PAM  SN ES   2    726 57.95                             152    0.06 5 76.2  32 
 BRR  HZ EP   1    726 39.90                             150    0.03 7 80.8 299 
 BRR  HN ES   2    726 57.25                             150    0.13 5 80.8 299 
 BRR  HZ I         727  1.99        17.4 0.13                          80.8 299 
 RUS  HZ EP   1    726 41.48                             146   -0.06 7 95.8 181 
 RUS  HN ES   2    726 59.94                             146   -0.16 5 95.8 181 
 RUS  HZ I         727  1.69         4.9 0.45                          95.8 181 
 OCA  SZ EP   1    726 46.89                             129   -0.01 7  166 350 
 OCA  SZ ES   2    727  9.20                             129   -0.43 5  166 350 
 OCA  SZ I         727 14.73         7.7 0.37                           166 350 
 NOR  SZ EP   1    726 53.92                             119   -0.24 6  239 237 
 NOR  SN ES   2    727 22.38                             119   -0.19 4  239 237 
 CHI  HZ EP   1    726 55.72                             118    0.28 6  247 197 
 CHI  HZ I         727 32.67         2.3 0.27                           247 197 
 HEL  HZ EP   1    726 58.87                             115   -0.07 6  279 257 
 HEL  HN ES   2    727 31.64                             115    0.57 4  279 257 
 HEL  HZ I         727 36.89         3.5 0.52                           279 257 
                                                                                
