 2013  6 3 0303 22.9 L   6.802 -73.146138.1  RSN 10 0.4 2.5LRSN                1
 GAP=136        0.96       3.3     4.1  5.7 -0.3589E+01  0.5867E+01  0.3881E+01E
 Epicentro: LOS SANTOS - SANTANDER                                             3
 ACTION:UPD 14-01-08 09:52 OP:ep   STATUS:               ID:20130603030322 L   I
 2013-06-03-0300-00M.COL___257                                                 6
 STAT SP IPHASW D HRMM SECON CODA AMPLIT PERI AZIMU VELO AIN AR TRES W  DIS CAZ7
 BAR2 SZ IP     D  3 3 41.74                             170    0.0910 23.5 190 
 BAR2 SZ ES        3 3 56.17                             170   -0.0810 23.5 190 
 BAR2 SZ I         3 3 58.05        60.7 0.22            167           23.5 190 
 BRR  HZ IP     C  3 3 43.59                             151    0.3410 71.0 298 
 BRR  HN ES        3 3 59.58                             151    0.4810 71.0 298 
 BRR  HN I         3 4  0.84        85.3 0.36            152           71.0 298 
 PAM  SZ IP     C  3 3 44.71                             149    0.3710 77.3  40 
 PAM  SN ES        3 4  1.04                             149    0.0110 77.3  40 
 PAM  SN I         3 4  3.61        72.3 0.68            155           77.3  40 
 RUS  HZ EP   1    3 3 45.73                             142   -0.23 7  101 176 
 RUS  HN ES   1    3 4  3.99                             142    0.08 7  101 176 
 RUS  HN I         3 4  7.58        18.1 0.28            142            101 176 
 PTB  HZ EP   1    3 3 48.39                             130   -0.90 7  148 259 
 PTB  HN ES        3 4  9.49                             130   -0.35 9  148 259 
 PTB  HN I         3 4 14.51        51.8 0.60            130            148 259 
 OCA  HZ EP   1    3 3 50.88                             128    0.24 7  160 353 
 OCA  HN ES        3 4 11.41                             128   -0.84 9  160 353 
 NOR  HZ EP        3 3 58.17                             117   -0.07 8  235 234 
 NOR  HN ES        3 4 25.45                             117   -0.32 8  235 234 
 NOR  HZ I         3 4 30.82        27.2 0.16            117            235 234 
 SML  HZ EP   4    3 3 58.68                             116   -0.44 0  243 335 
 SML  HE ES   4    3 4 26.74                             116   -0.60 0  243 335 
 CHI  HZ EP   1    3 4  0.04                             115   -0.20 6  249 195 
 CHI  HN ES        3 4 29.01                             115   -0.33 8  249 195 
 CHI  HN I         3 4 35.09        29.6 0.44            116            249 195 
 HEL  HZ EP        3 4  3.62                             113    0.85 8  272 256 
 HEL  HN ES        3 4 34.24                             113    0.40 8  272 256 
 HEL  HN I         3 4 41.31        13.4 0.40            114            272 256 
 PRA  HZ EP   1    3 4 15.72                             105   -0.50 4  392 210 
 PRA  HN ES   1    3 4 58.36                             105    0.58 4  392 210 
 PRA  HN I         3 5  3.20        17.4 0.72            106            392 210 
                                                                                
