 2011  4 3 1913 17.3 L   6.782 -73.106138.6  RSN 16 0.4 2.6LRSN                1
 GAP=118        0.87       3.0     4.7  6.0 -0.3255E+01  0.8272E+01  0.4663E+01E
 Epicentro: LOS SANTOS - SANTANDER                                             3
 ACTION:UP  11-06-22 15:28 OP:REBC STATUS:               ID:20110403191317 L   I
 2011-04-03-1900-00M.COL___139                                                 6
 STAT SP IPHASW D HRMM SECON CODA AMPLIT PERI AZIMU VELO SNR AR TRES W  DIS CAZ7
 BAR2 SZ EP       1913 35.81                             170    -0.210   23 202 
 BTL  SZ EP       1913 36.38                             170     0.310   23 310 
 BAR2 SZ ES   1   1913 49.95                             170    -0.7 7   23 202 
 BAR2 SZ I        1913 52.12        83.6 0.18                            23 202 
 GIR2 SZ EP   1   1913 35.94                             165    -0.2 7   34 344 
 BRR  HZ IP     D 1913 37.67                             149    -0.310   76 298 
 BRR  HN ES   1   1913 54.63                             149     0.6 7   76 298 
 BRR  HZ I        1913 57.90        63.5 0.05                            76 298 
 PAM  SZ EP   1   1913 38.51                             150    -0.1 7   76  36 
 PAM  SN ES   1   1913 55.60                             150     0.3 7   76  36 
 PAM  SZ I        1913 57.66        32.1 0.49                            76  36 
 GRA  SZ EP       1913 41.71                             135    -0.210  126  15 
 GRA  SZ ES   1   1914  0.92                             135    -0.3 7  126  15 
 GRA  SZ I        1914  2.63        69.9 0.35                           126  15 
 OCA  SZ EP       1913 45.78                             127     0.5 9  163 352 
 OCA  SZ ES   1   1914  7.29                             127     0.2 7  163 352 
 OCA  SZ I        1914 12.31        58.5 0.32                           163 352 
 YOP  SZ EP   1   1913 46.59                             125     0.2 7  175 154 
 YOP  SN ES   1   1914  9.58                             125     0.4 7  175 154 
 YOP  SZ I        1914 11.73        24.2 0.58                           175 154 
 NOR  SZ EP   1   1913 52.40                             116    -0.4 6  237 235 
 CHI  HZ EP   1   1913 54.10                             116    -0.4 6  248 196 
 CHI  HN ES   1   1914 23.52                             116     0.0 6  248 196 
 CHI  HZ I        1914 30.12        14.8 0.54                           248 196 
 HEL  HZ EP   1   1913 57.76                             113     0.2 6  276 256 
 HEL  HZ I        1914 34.09        13.7 0.21                           276 256 
 GUY  SZ EP   1   1914  1.12                             111     0.0 5  306 236 
 GUY  SN ES   1   1914 35.90                             111     0.6 5  306 236 
 GUY  SZ I        1914 42.72        32.1 0.44                           306 236 
 RREF HN ES   1   1914 38.70                             109    -0.6 5  324 230 
 RREF HZ I        1914 47.78        25.6 0.23                           324 230 
 DBB  SZ EP   1   1914  4.32                             108    -0.7 5  344 275 
 TOL  SZ EP   1   1914  5.92                             108     0.5 5  345 225 
 PRA  HZ EP   1   1914 10.33                             105    -0.3 4  392 210 
 PRA  HE ES   1   1914 52.66                             105     0.5 4  392 210 
 PRA  HZ I        1914 57.08        55.9 0.25                           392 210 
                                                                                
