 2014  5 3 1911 50.8 L   6.352 -73.841 51.4  RSN  8 0.4 1.9LRSN                1
 GAP= 77        1.06       2.5     2.6 10.5 -0.9699E+00 -0.4546E+00 -0.1150E+01E
 Epicentro: LANDAZURI - SANTANDER                                              3
 ACTION:UPD 15-03-16 16:54 OP:nd   STATUS:               ID:20140503191150 L   I
 OLDACT:UP  14-05-04 00:38 OP:mh   STATUS:               ID:20140503191000     3
 OLDACT:UP  14-05-04 00:37 OP:mh   STATUS:               ID:20140503191000     3
 OLDACT:REG 14-05-04 00:07 OP:mh   STATUS:               ID:20140503191000     3
 2014-05-03-1910-00M.COL___273                                                 6
 STAT SP IPHASW D HRMM SECON CODA AMPLIT PERI AZIMU VELO AIN AR TRES W  DIS CAZ7
 PTB  HZ EP       1912  3.15                             117   -0.2010 71.2 287 
 PTB  HN ES       1912 12.77                             117   -0.3510 71.2 287 
 PTB  HZ I        1912 13.62        68.3 0.16            102           71.2 287 
 SPBC HZ EP       1912  4.74                             113    0.1410 81.5 198 
 SPBC HN ES       1912 15.65                             113    0.3010 81.5 198 
 SPBC HZ I        1912 16.82        34.7 0.15             99           81.5 198 
 BRR  HZ EP       1912  5.48                             112    0.6110 84.8  10 
 BRR  HN ES       1912 16.43                             112    0.6210 84.8  10 
 RUS  HZ EP       1912  6.40                             108   -0.6310 98.0 121 
 RUS  HN ES   1   1912 19.16                             108   -0.50 7 98.0 121 
 PAM  SZ EP       1912 15.61                              98    0.28 9  167  49 
 PAM  SN ES       1912 34.11                              98   -0.33 9  167  49 
 PAM  SZ I        1912 36.75        11.7 0.28             61            167  49 
 ZAR  HZ EP       1912 15.00                              98    0.00 9  169 318 
 ZAR  HN ES       1912 33.20                              98   -0.65 9  169 318 
 HEL  HZ EP       1912 17.54                              97   -0.18 9  188 265 
 HEL  HN ES   1   1912 38.37                              97   -0.33 7  188 265 
 HEL  HZ I        1912 43.67         6.4 0.18             61            188 265 
 GUY2CHZ EP       1912 21.15                              96    0.57 8  210 234 
 GUY2CHN ES       1912 44.12                              96    0.33 8  210 234 
                                                                                
