 2017  1 3 1428 17.8 L   6.769 -73.066143.4  RSN 10 0.3 2.2LRSN                1
 GAP=148        0.65       3.5     4.4  4.6 -0.6740E+01 -0.3828E+01  0.8796E+01E
 Epicentro: LOS SANTOS - SANTANDER                                             3
 ACTION:UPD 17-05-22 15:55 OP:jn   STATUS:               ID:20170103142817 L   I
 OLDACT:UP  17-01-03 22:43 OP:dnl  STATUS:               ID:20170103141749     3
 OLDACT:UP  17-01-03 22:22 OP:dnl  STATUS:               ID:20170103141749     3
 OLDACT:UP  17-01-03 22:22 OP:dnl  STATUS:               ID:20170103141749     3
 OLDACT:REG 17-01-03 20:41 OP:dnl  STATUS:               ID:20170103141749     3
 2017-01-03-1418-00M.COL___378                                                 6
 STAT SP IPHASW D HRMM SECON CODA AMPLIT PERI AZIMU VELO AIN AR TRES W  DIS CAZ7
 BAR2 EZ EP       1428 36.98                             170   -0.1810 23.4 213 
 BAR2 EZ ES       1428 51.86                             170   -0.3910 23.4 213 
 BAR2 EZ I        1428 53.74        43.7 0.16            167           23.4 213 
 PAM  EZ EP       1428 39.94                             151    0.3110 75.0  33 
 PAM  EN ES       1428 56.85                             151    0.2010 75.0  33 
 PAM  EZ I        1428 59.26        48.9 0.52            154           75.0  33 
 BRR  HZ EP       1428 38.95                             149   -0.3210 80.6 298 
 BRR  HE ES       1428 56.20                             149    0.1910 80.6 298 
 BRR  HZ I        1428 56.62        33.9 0.12            146           80.6 298 
 RUS  HZ EP       1428 41.15                             144    0.0810 96.9 181 
 RUS  HE ES   4   1429  0.44                             144    1.23 0 96.9 181 
 RUS  HZ I        1429  0.99        19.8 0.30            144           96.9 181 
 TAM  HZ IP   4 D 1428 45.47                             132    1.03 0  146 105 
 TAM  HE ES   4   1429  1.03                             132   -4.18 0  146 105 
 TAM  HZ I        1429  3.67        15.3 0.34            135            146 105 
 PTB  HZ EP   9   1428 43.97                             130   -1.36 0  156 261 
 PTB  HE ES       1429  5.57                             129    0.13 9  156 261 
 PTB  HZ I        1429 10.71        10.3 0.14            128            156 261 
 ZAR  HZ EP   4   1428 53.04                             120    1.95 0  214 292 
 ZAR  HE ES   4   1429 15.39                             120   -1.66 0  214 292 
 ZAR  HZ I        1429 22.09        17.1 0.34            120            214 292 
 CHI  HZ EP       1428 55.25                             117   -0.04 8  248 197 
 CHI  HN ES       1429 24.68                             117    0.16 8  248 197 
 CHI  HZ I        1429 29.32         7.3 0.42            117            248 197 
 GUY2CHZ EP   2   1429  2.11                             111    0.20 4  307 236 
 GUY2CHN ES   4   1429 39.30                             111    2.99 0  307 236 
 GUY2CHZ  IAML    1429 43.40         7.5 0.32                           307 236 
 ORTC HZ EP       1429 11.40                             106   -0.55 6  398 217 
 ORTC HN ES       1429 54.74                             106    0.57 6  398 217 
 ORTC HZ I        1430  0.25         5.0 0.36            106            398 217 
                                                                                
