 2011  3 3 1352  9.1 L   6.789 -73.255142.6  RSN  6 0.5 2.1LRSN                1
 GAP=154        0.66       6.0    13.5 11.2 -0.3831E+02  0.9740E+02 -0.1064E+02E
 Epicentro: ZAPATOCA - SANTANDER                                               3
 ACTION:UP  11-06-16 14:31 OP:jfem STATUS:               ID:20110303135209 L   I
 2011-03-03-1350-28S.COL___135                                                 6
 STAT SP IPHASW D HRMM SECON CODA AMPLIT PERI AZIMU VELO SNR AR TRES W  DIS CAZ7
 BAR2 SZ EP   2   1352 28.48                             170     0.2 5   23 160 
 BAR2 SZ ES   2   1352 43.78                             170     0.5 5   23 160 
 BAR2 SZ I        1352 46.43        31.9 0.35                            23 160 
 RUS  HZ EP   2   1352 32.60                             143     0.1 5  101 169 
 RUS  HE ES   1   1352 50.81                             143     0.0 7  101 169 
 RUS  HZ I        1352 52.64        11.3 0.22                           101 169 
 GRA  SZ ES   2   1352 53.74                             135    -0.5 5  131  22 
 CHI  HZ EP   2   1352 46.80                             117     0.7 4  245 193 
 CHI  HE ES   2   1353 13.98                             117    -1.1 4  245 193 
 CHI  HZ I        1353 25.66         7.3 0.44                           245 193 
 RREF HZ EP   2   1352 54.25                             111     0.3 3  312 228 
 RREF HN ES   2   1353 28.72                             111    -0.2 3  312 228 
 RREF HZ I        1353 40.98         7.4 0.29                           312 228 
 PRA  HZ EP   2   1353  1.71                             106     0.1 3  385 208 
                                                                                
