 2017 10 3 1923  2.5 L   7.487 -73.179127.8  RSN  8 0.4 1.9LRSN                1
 GAP=197        0.93       4.6     4.6  7.8  0.2558E+01  0.2015E+02  0.7414E+01E
 Epicentro: EL PLAYON - SANTANDER                                              3
 ACTION:UPD 17-11-07 19:28 OP:rebc STATUS:               ID:20171003192302 L   I
 OLDACT:UP  17-10-04 01:38 OP:osc  STATUS:               ID:20171003191110     3
 OLDACT:REG 17-10-03 22:04 OP:osc  STATUS:               ID:20171003191110     3
 2017-10-03-1918-00M.COL___446                                                 6
 STAT SP IPHASW D HRMM SECON CODA AMPLIT PERI AZIMU VELO AIN AR TRES W  DIS CAZ7
 PAM  EZ EP       1923 21.74                             155    0.2010 55.3 107 
 PAM  EE ES       1923 37.10                             155    0.7010 55.3 107 
 PAM  EZ I        1923 38.41        18.9 0.18            157           55.3 107 
 BAR2 EZ EP       1923 23.68                             140   -0.3610 98.9 180 
 BAR2 EZ ES       1923 40.34                             140   -0.5110 98.9 180 
 BAR2 EZ I        1923 41.24        13.8 0.08            139           98.9 180 
 RUS  HZ EP       1923 31.50                             122   -0.08 9  177 177 
 RUS  HN ES       1923 53.76                             122   -0.50 9  177 177 
 RUS  HZ I        1923 57.23         2.8 0.44            122            177 177 
 ZAR  HZ EP       1923 31.54                             121   -0.32 9  185 270 
 ZAR  HE ES       1923 54.51                             121   -0.25 9  185 270 
 ZAR  HZ I        1923 57.31        10.4 0.12            121            185 270 
 NOR  HZ EP       1923 43.02                             110    0.29 7  283 221 
 NOR  HE ES       1924 14.52                             110    0.40 7  283 221 
 NOR  HZ I        1924 19.98         7.4 0.20            110            283 221 
 CHI  HZ EP   3   1923 46.62                             107   -1.03 2  322 191 
 CHI  HE ES       1924 23.32                             107    0.44 7  322 191 
 CHI  HZ I        1924 27.15         3.0 0.30            107            322 191 
 GUY2CHN ES       1924 29.14                             106    0.67 6  348 224 
 PRA  HZ EP       1924  3.42                             101    0.08 5  458 204 
 PRA  HE ES   3   1924 51.84                             101    1.05 1  458 204 
 PRA  HZ I        1925  0.33         2.8 0.35            101            458 204 
                                                                                
