 2013 11 3 1031 36.5 L   6.859 -73.144142.0  RSN  6 0.4 1.4LRSN                1
 GAP=243        0.92       5.0     5.6  7.8  0.1000E+02  0.6423E+01  0.5298E+01E
 Epicentro: LOS SANTOS - SANTANDER                                             3
 ACTION:UPD 14-01-09 16:25 OP:ep   STATUS:               ID:20131103103136 L   I
 OLDACT:REG 13-11-03 16:25 OP:carl STATUS:               ID:20131103102840     3
 2013-11-03-1028-40M.COL___195                                                 6
 STAT SP IPHASW D HRMM SECON CODA AMPLIT PERI AZIMU VELO AIN AR TRES W  DIS CAZ7
 BRR  HZ EP       1031 57.04                             153   -0.0710 68.5 294 
 BRR  HN ES       1032 13.73                             153    0.5710 68.5 294 
 RUS  HN EP       1032  0.44                             141    0.0610  107 176 
 RUS  HZ ES       1032 18.81                             141   -0.1910  107 176 
 RUS  HN I        1032 19.33         5.2 0.26            142            107 176 
 PTB  HZ EP       1032  2.81                             131   -0.51 9  149 256 
 PTB  HE ES       1032 24.25                             131    0.02 9  149 256 
 PTB  HZ I        1032 25.79         2.6 0.18            131            149 256 
 SPBC HE ES       1032 27.45                             127   -0.18 9  168 218 
 ZAR  HN ES       1032 32.94                             122   -0.49 9  202 290 
 GUY2CHZ EP       1032 21.15                             111    0.75 7  305 234 
 GUY2CHE ES       1032 55.02                             111    0.39 7  305 234 
 GUY2CHZ I        1033  3.72         1.1 0.62                           305 234 
                                                                                
