 2011  3 3 1258 17.6 L   6.296 -73.557111.0  RSN  6 0.4 1.8LRSN                1
 GAP=118        0.54       4.0     4.7  7.7 -0.3071E+01  0.2240E+02  0.7567E+00E
 Epicentro: EL GUACAMAYO - SANTANDER                                           3
 ACTION:UP  11-06-16 14:31 OP:jfem STATUS:               ID:20110303125817 L   I
 2011-03-03-1254-50S.COL___135                                                 6
 STAT SP IPHASW D HRMM SECON CODA AMPLIT PERI AZIMU VELO SNR AR TRES W  DIS CAZ7
 BAR2 SZ IP       1258 34.27                             153     0.010   53  52 
 BAR2 SZ ES   1   1258 47.24                             153     0.0 7   53  52 
 BAR2 SZ I        1258 48.40        38.0 0.28                            53  52 
 RUS  HZ EP       1258 35.59                             146     0.010   69 130 
 RUS  HE ES   2   1258 50.16                             146     0.5 5   69 130 
 RUS  HZ I        1258 51.38         8.8 0.16                            69 130 
 CHI  HZ EP   3   1258 46.84                             116     0.4 2  185 186 
 CHI  HN ES   2   1259  8.34                             116    -0.6 4  185 186 
 CHI  HZ I        1259 13.44         3.3 0.37                           185 186 
 GRA  SZ EP   2   1258 47.31                             115     0.2 4  194  25 
 GRA  SZ ES   3   1259  9.03                             115    -1.1 2  194  25 
 GRA  SZ I        1259 13.63         6.5 0.30                           194  25 
 HEL  HZ EP   1   1258 50.20                             112     0.1 6  219 267 
 HEL  HE ES   2   1259 15.08                             112    -0.4 4  219 267 
 HEL  HZ I        1259 20.79         5.6 0.15                           219 267 
 RREF HZ EP   3   1258 54.29                             109     0.1 2  251 232 
 RREF HE ES   3   1259 23.66                             109     0.9 2  251 232 
 RREF HZ I        1259 28.45         5.6 0.31                           251 232 
                                                                                
