 2010  4 3 1838 23.1 L   6.811 -73.021151.6  RSN  4 0.2 1.9LRSN                1
 GAP=210        0.42       3.7    10.9  6.4  0.5947E+01 -0.8287E+01  0.7599E+01E
 Epicentro: CEPITA - SANTANDER                                                 3
 ACTION:UP  10-08-24 09:57 OP:vdl  STATUS:               ID:20100403183823 L   I
 2010-04-03-1837-10S.COL___098                                                 6
 STAT SP IPHASW D HRMM SECON CODA AMPLIT PERI AZIMU VELO AIN AR TRES W  DIS CAZ7
 BAR2 SZ EP   1   1838 43.50                             168    -0.1 7   30 217 
 BAR2 SZ ES   2   1838 59.51                             168     0.0 5   30 217 
 BRR  HZ IP       1838 45.55                             150     0.010   83 293 
 BRR  HZ I        1838 45.74        21.5 0.12                            83 293 
 BRR  HE ES   2   1839  2.93                             150    -0.2 5   83 293 
 OCA  SZ ES   2   1839 14.82                             131     0.3 5  161 348 
 CHI  HZ EP   1   1839  1.52                             118    -0.1 6  254 198 
 CHI  HN ES   2   1839 32.31                             118     0.6 4  254 198 
 CHI  HZ I        1839 36.52         2.9 0.37                           254 198 
                                                                                
