 2012  6 3 1451 40.8 L   6.799 -73.192138.7  RSN  4 0.1 1.3LRSN                1
 GAP=144        0.30       1.9     2.2  3.3 -0.1429E+01  0.2580E+01 -0.6133E+00E
 Epicentro: ZAPATOCA - SANTANDER                                               3
 ACTION:UPD 12-08-06 17:47 OP:ep   STATUS:               ID:20120603145139 L   I
 OLDACT:UPD 12-07-16 17:00 OP:ep   STATUS:               ID:20120603145139 L   3
 2012-06-03-1450-00M.COL___200                                                 6
 STAT SP IPHASW D HRMM SECON CODA AMPLIT PERI AZIMU VELO AIN AR TRES W  DIS CAZ7
 BAR2 SZ EP   1   1451 59.66                             170    0.07 7 22.8 177 
 BAR2 SZ ES   1   1452 14.30                             170    0.07 7 22.8 177 
 BAR2 SZ I        1452 15.96         6.9 0.23            170           22.8 177 
 PAM  SZ EP   1   1452  2.54                             148    0.04 7 80.8  42 
 PAM  SN ES       1452 19.37                             148   -0.0510 80.8  42 
 RUS  HZ EP   1   1452  4.00                             142    0.09 7  101 173 
 RUS  HN ES       1452 21.84                             142   -0.0710  101 173 
 PTB  HZ EP   1   1452  6.63                             131   -0.13 7  143 258 
 PTB  HN ES   1   1452 27.03                             131    0.05 7  143 258 
 PTB  HZ I        1452 32.21         2.3 0.13            131            143 258 
                                                                                
