 2011  7 3 1216  3.9 L   6.750 -73.090142.0  RSN  7 0.3 1.8LRSN                1
 GAP=193        0.60       3.8     5.4  5.0 -0.1137E+02 -0.2262E+01 -0.1292E+01E
 Epicentro: LOS SANTOS - SANTANDER                                             3
 ACTION:UPD 12-07-25 13:57 OP:epov STATUS:               ID:20110703121603 L   I
 2011-07-03-1200-00M.COL___124                                                 6
 STAT SP IPHASW D HRMM SECON CODA AMPLIT PERI AZIMU VELO AIN AR TRES W  DIS CAZ7
 BAR2 SZ EP       1216 22.48                             172   -0.5210 20.2 210 
 BAR2 SZ ES   1   1216 38.19                             172    0.28 7 20.2 210 
 BAR2 SZ I        1216 39.78         6.3 0.18                          20.2 210 
 BTL  SZ EP       1216 23.49                             169    0.3510 27.0 314 
 BTL  SZ ES   2   1216 38.34                             169    0.17 5 27.0 314 
 BRR  HZ EP       1216 25.21                             149    0.1110 79.2 300 
 BRR  HN ES   1   1216 41.59                             149   -0.07 7 79.2 300 
 BRR  HZ I        1216 45.31        12.2 0.12                          79.2 300 
 BRI  SZ EP       1216 27.81                             140    0.1410  112  17 
 BRI  SZ ES   2   1216 45.78                             140   -0.44 5  112  17 
 GRA  SZ EP       1216 29.13                             135    0.0310  129  14 
 GRA  SZ I        1216 30.23        10.3 0.32                           129  14 
 GRA  SZ ES   1   1216 48.55                             135   -0.22 7  129  14 
 OCA  SZ EP       1216 32.59                             128    0.09 9  167 351 
 OCA  SZ ES   1   1216 54.75                             128   -0.08 7  167 351 
 OCA  SZ I        1216 58.50        16.4 0.20                           167 351 
 NOR  SN ES   1   1217  7.25                             117   -0.21 6  237 236 
                                                                                
