 2011  1 3 1028  0.9 L   6.800 -73.123144.9  RSN 11 0.5 2.1LRSN                1
 GAP=161        0.80       4.3     7.3  8.6 -0.1422E+02  0.2743E+02 -0.1570E+00E
 Epicentro: LOS SANTOS - SANTANDER                                             3
 ACTION:DUP 11-02-08 08:38 OP:pat  STATUS:               ID:20110103102800 L   I
 2011-01-03-1020-00M.COL___137                                                 6
 STAT SP IPHASW D HRMM SECON CODA AMPLIT PERI AZIMU VELO SNR AR TRES W  DIS CAZ7
 BTL  SZ EP   1   1028 20.78                             171     0.4 7   21 309 
 BAR2 SZ EP   1   1028 20.34                             170    -0.1 7   24 196 
 BAR2 SZ ES   2   1028 35.52                             170    -0.2 5   24 196 
 BAR2 SZ I        1028 36.94        26.6 0.29                            24 196 
 RUS  HZ EP   1   1028 24.25                             144    -0.3 7  100 177 
 RUS  HN ES   2   1028 42.79                             144    -0.2 5  100 177 
 RUS  HZ I        1028 44.24         9.1 0.33                           100 177 
 GRA  SZ EP   1   1028 26.05                             137     0.1 7  125  16 
 GRA  SZ ES   2   1028 46.14                             137     0.6 5  125  16 
 GRA  SZ I        1028 47.33        12.5 0.34                           125  16 
 OCA  SZ EP   1   1028 28.50                             129    -0.7 7  161 352 
 OCA  SZ ES   2   1028 51.41                             129     0.2 5  161 352 
 OCA  SZ I        1028 55.74        25.1 0.22                           161 352 
 NOR  SZ EP   1   1028 36.42                             118    -0.4 6  237 235 
 NOR  SN ES   2   1029  4.33                             118    -0.5 4  237 235 
 CHI  HZ EP   1   1028 38.46                             117    -0.2 6  249 196 
 CHI  HN ES   2   1029  9.00                             117     1.0 4  249 196 
 CHI  HZ I        1029 13.44         4.7 0.28                           249 196 
 HEL  HZ EP   1   1028 42.09                             114     0.8 6  274 256 
 HEL  HE ES   2   1029 12.33                             114    -0.5 4  274 256 
 HEL  HZ I        1029 19.91         9.1 0.34                           274 256 
 GUY  SZ EP   1   1028 45.34                             112     0.6 5  303 235 
 GUY  SE ES   2   1029 19.24                             112     0.4 4  303 235 
 GUY  SZ I        1029 28.33        12.2 0.38                           303 235 
 RREF HZ EP   1   1028 47.46                             111     0.2 5  324 230 
 RREF HE ES   2   1029 23.09                             111    -0.3 3  324 230 
 RREF HZ I        1029 30.27         8.7 0.34                           324 230 
 PRA  HZ EP   1   1028 53.67                             106    -0.9 4  393 210 
 PRA  HN ES   2   1029 37.09                             106     0.7 3  393 210 
                                                                                
