 2015 12 3 1917  9.0 L   6.807 -73.108147.0  RSN 13 0.5 2.5LRSN                1
 GAP=185        1.06       3.2     4.1  5.2  0.2504E+01  0.3077E+01  0.1937E+01E
 Epicentro: LOS SANTOS - SANTANDER                                             3
 ACTION:UPD 16-02-04 15:02 OP:cam  STATUS:               ID:20151203191709 L   I
 OLDACT:REG 15-12-03 20:44 OP:drio STATUS:               ID:20151203190750     3
 2015-12-03-1907-50M.COL___316                                                 6
 STAT SP IPHASW D HRMM SECON CODA AMPLIT PERI AZIMU VELO AIN AR TRES W  DIS CAZ7
 BAR2 EZ EP     D 1917 29.23                             170    0.4410 25.2 199 
 BAR2 EZ ES       1917 44.56                             170    0.3210 25.2 199 
 BAR2 EZ I        1917 45.75        43.8 0.20            166           25.2 199 
 BRR  HZ EP       1917 31.05                             152    0.6010 74.5 296 
 BRR  HE ES       1917 47.45                             152    0.2610 74.5 296 
 BRR  HZ I        1917 51.02        47.0 0.26            150           74.5 296 
 RUS  HZ EP       1917 33.13                             144    0.2410  101 178 
 RUS  HN ES       1917 51.43                             144   -0.1110  101 178 
 RUS  HZ I        1917 53.94        18.1 0.24            144            101 178 
 PTB  HZ EP       1917 36.07                             132   -0.36 9  152 259 
 PTB  HN ES       1917 57.54                             132   -0.30 9  152 259 
 PTB  HZ I        1918  2.16        26.1 0.28            130            152 259 
 SPBC HZ EP       1917 38.10                             129    0.22 9  166 220 
 SPBC HN ES       1918  0.11                             129   -0.32 9  166 220 
 SPBC HZ I        1918  6.41        42.5 0.22            128            166 220 
 ZAR  HZ EP       1917 41.58                             122   -0.29 8  208 291 
 ZAR  HE ES       1918  7.18                             122   -0.35 8  208 291 
 ZAR  HZ I        1918 12.10        26.3 0.24            122            208 291 
 NOR  HZ EP       1917 45.59                             118    0.40 8  239 235 
 NOR  HE ES       1918 12.59                             118   -0.85 8  239 235 
 NOR  HZ I        1918 21.07        21.0 0.16            118            239 235 
 SML  HZ EP       1917 45.26                             118   -0.52 8  245 334 
 SML  HN ES       1918 13.81                             118   -0.68 8  245 334 
 SML  HZ I        1918 18.18        53.2 0.26            119            245 334 
 HEL  HZ EP       1917 50.50                             115    0.78 7  276 256 
 HEL  HE ES       1918 21.85                             115    0.34 7  276 256 
 HEL  HZ I        1918 27.93        16.6 0.48            115            276 256 
 GUY2CHZ EP       1917 53.38                             112    0.30 7  305 235 
 GUY2CHN ES       1918 27.18                             112   -0.30 7  305 235 
 GUY2CHZ I        1918 37.16        16.4 0.76                           305 235 
 PTGC HZ EP       1917 52.34                             112   -0.46 7  308 159 
 PTGC HE ES       1918 26.11                             112   -0.88 7  308 159 
 PTGC HZ I        1918 29.36        16.4 0.54            113            308 159 
 ANIL HZ EP       1918  0.14                             108    0.90 6  361 225 
 ANIL HE ES       1918 38.99                             108    0.55 6  361 225 
 ANIL HZ I        1918 45.48        26.0 0.30            109            361 225 
 PRA  HZ EP       1918  3.14                             107    0.27 6  395 210 
 PRA  HE ES       1918 44.27                             107   -0.63 6  395 210 
 PRA  HZ I        1918 51.74        12.1 0.26            107            395 210 
                                                                                
