 2015  9 3 1751 53.4 L   6.931 -73.416112.0  RSN 27 0.5 2.9LRSN                1
 GAP= 56        1.23       2.0     2.6  4.9 -0.6278E+00  0.3565E+01  0.1819E-01E
 Epicentro: SAN VICENTE DE CHUCURI - SANTANDER                                 3
 ACTION:UPD 15-10-28 16:23 OP:cam  STATUS:               ID:20150903175153 L   I
 OLDACT:REG 15-09-03 21:47 OP:ak   STATUS:               ID:20150903174750     3
 2015-09-03-1747-50M.COL___334                                                 6
 STAT SP IPHASW D HRMM SECON CODA AMPLIT PERI AZIMU VELO AIN AR TRES W  DIS CAZ7
 BRR  HZ IP     D 1752  9.44                             160    0.2510 38.0 301 
 BRR  HN ES       1752 21.67                             160    0.2110 38.0 301 
 BRR  HZ I        1752 23.56       164.9 0.14            158           38.0 301 
 BAR2 EZ IP     D 1752 10.31                             156    0.4310 45.5 145 
 BAR2 EZ ES       1752 23.49                             156    0.8010 45.5 145 
 BAR2 EZ I        1752 24.62       313.0 0.20            150           45.5 145 
 PAM  EZ IP     D 1752 13.35                             138    0.0910 91.1  60 
 PAM  EN ES       1752 28.57                             138   -0.1510 91.1  60 
 PAM  EZ I        1752 32.46       166.8 0.34            133           91.1  60 
 RUS  HZ EP       1752 15.91                             130    0.0510  121 162 
 RUS  HE ES       1752 32.97                             130   -0.3710  121 162 
 RUS  HZ I        1752 36.63        51.0 0.27            123            121 162 
 PTB  HZ IP     C 1752 14.44                             129   -1.0010  123 249 
 PTB  HN ES       1752 31.60                             129   -0.9910  123 249 
 PTB  HZ I        1752 32.78       142.0 0.14            122            123 249 
 OCA  HZ IP     D 1752 17.28                             124   -0.52 9  145   4 
 OCA  HN ES       1752 36.42                             124   -0.38 9  145   4 
 SPBC HZ EP       1752 18.53                             121   -0.63 9  159 207 
 SPBC HN ES       1752 39.23                             121    0.01 9  159 207 
 SPBC HZ I        1752 45.04        89.8 0.20            115            159 207 
 ZAR  HZ EP       1752 19.79                             119   -0.53 9  171 291 
 ZAR  HN ES       1752 42.37                             119    1.09 9  171 291 
 ZAR  HZ I        1752 45.28       167.9 0.36            114            171 291 
 TAM  HZ IP     C 1752 22.34                             116    0.14 9  188 107 
 TAM  HE ES       1752 43.94                             116   -0.68 9  188 107 
 TAM  HZ I        1752 50.75        56.3 0.35            111            188 107 
 SML  HZ EP       1752 24.80                             112   -0.81 8  219 341 
 SML  HN ES       1752 51.56                             112    0.86 8  219 341 
 SML  HZ I        1752 54.54       143.1 0.16            109            219 341 
 NOR  HZ EP       1752 25.72                             112   -0.16 8  221 227 
 NOR  HN ES       1752 51.20                             112    0.02 8  221 227 
 NOR  HZ I        1752 55.68        74.7 0.18            108            221 227 
 HEL  HZ EP       1752 30.26                             109    0.92 8  248 251 
 HEL  HN ES       1752 57.86                             109    0.52 8  248 251 
 HEL  HZ I        1753  1.57        56.0 0.30            106            248 251 
 URE  HZ EP   4   1752 27.75                             109   -1.51 0  251 291 
 URE  HN ES       1752 56.34                             109   -0.85 8  251 291 
 URE  HZ I        1753  4.37        69.8 0.20            106            251 291 
 ROSC BZ EP   4   1752 31.42                             109    1.54 0  252 203 
 ROSC BN ES   4   1753  1.41                             109    3.11 0  252 203 
 ROSC BZ I        1753  7.40        33.6 0.40            105            252 203 
 CHI  HZ EP   1   1752 31.08                             108    0.60 6  257 188 
 CHI  HN ES       1753  0.06                             108    0.70 8  257 188 
 CHI  HZ I        1753  5.17        30.4 0.28            105            257 188 
 GUY2CHZ EP       1752 33.83                             106   -0.19 7  287 229 
 GUY2CHN ES       1753  5.41                             106   -0.26 7  287 229 
 GUY2CHZ I        1753 13.59        44.1 0.38                           287 229 
 LL2C HZ EP       1752 34.16                             106    0.33 7  290 360 
 LL2C HN ES       1753  5.25                             106   -0.08 7  290 360 
 LL2C HZ I        1753 12.98        94.2 0.27            103            290 360 
 LL4C HZ EP       1752 35.90                             104    0.20 7  306 357 
 LL4C HE ES       1753  9.06                             104    0.40 7  306 357 
 DBB  SZ EP       1752 35.69                             104   -0.46 7  309 272 
 DBB  SZ ES       1753  9.49                             104    0.04 7  309 272 
 DBB  SZ I        1753 12.01       129.8 0.50            102            309 272 
 CBOC HZ EP   1   1752 36.74                             104    0.29 5  310 248 
 CBOC HE ES       1753  9.73                             104   -0.26 7  310 248 
 VIL  SZ EP       1752 37.29                             104    0.56 7  313 186 
 VIL  SE ES       1753  9.92                             104   -0.57 7  313 186 
 VIL  SZ I        1753 17.23        47.3 0.42            102            313 186 
 TOL  SZ EP       1752 40.35                             103    0.87 7  334 219 
 TOL  SE ES       1753 15.24                             103   -0.14 7  334 219 
 TOL  SZ I        1753 25.57        21.6 0.54            101            334 219 
 ARGC HZ EP       1752 39.99                             103    0.68 7  336 344 
 ARGC HN ES       1753 14.94                             103   -0.13 7  336 344 
 ARGC HZ I        1753 24.01        28.1 0.26            101            336 344 
 SJC  HZ EP   4   1752 42.33                             100   -2.41 0  381 329 
 SJC  HN ES   4   1753 20.60                             100   -4.14 0  381 329 
 SJC  HZ I        1753 38.31        17.8 0.40            100            381 329 
 PRA  HZ EP       1752 45.77                             100   -0.16 6  391 205 
 PRA  HN ES       1753 27.19                             100    0.32 6  391 205 
 ORTC HN ES       1753 27.60                             100    0.82 6  391 211 
 PRA  HZ I        1753 34.95        30.3 0.44             99            391 205 
 ORTC HZ EP       1752 45.98                             100    0.10 6  391 211 
 ORTC HZ I        1753 33.94        20.4 0.20             99            391 211 
 MACC HZ EP   4   1753  1.26                              95   -1.58 0  531 185 
 MACC HN ES   4   1753 52.64                              95   -4.32 0  531 185 
 MACC HZ I        1753 59.39        10.1 0.32             97            531 185 
                                                                                
