 2011  7 3 1703 57.7 L   6.733 -73.018139.6  RSN  4 0.3 1.3LRSN                1
 GAP=219        0.58      10.1    11.1  8.4  0.1589E+02 -0.3582E+02 -0.4440E+02E
 Epicentro: ARATOCA - SANTANDER                                                3
 ACTION:UPD 12-07-25 13:58 OP:epov STATUS:               ID:20110703170356 L   I
 2011-07-03-1703-16S.COL___140                                                 6
 STAT SP IPHASW D HRMM SECON CODA AMPLIT PERI AZIMU VELO AIN AR TRES W  DIS CAZ7
 BAR2 SZ EP   1   17 4 16.92                             170    0.30 7 24.0 229 
 BAR2 SZ ES   1   17 4 31.03                             170   -0.34 7 24.0 229 
 BAR2 SZ I        17 4 34.66         3.5 0.27                          24.0 229 
 BTL  SZ EP   1   17 4 17.22                             166    0.32 7 34.4 307 
 BTL  SZ ES   2   17 4 32.07                             166    0.21 5 34.4 307 
 BRR  HZ EP   1   17 4 18.82                             146   -0.40 7 87.2 298 
 BRR  HZ I        17 4 21.62         5.6 0.39                          87.2 298 
 BRR  HN ES   2   17 4 36.17                             146    0.18 5 87.2 298 
 GRA  SZ EP   1   17 4 22.68                             135   -0.06 7  130  10 
 GRA  SZ I        17 4 48.59         3.2 0.48                           130  10 
                                                                                
