 2012  6 3 1024 43.4 L   6.759 -73.161146.0  RSN  6 0.2 1.6LRSN                1
 GAP=136        0.49       2.3     2.8  4.0 -0.1443E+00  0.3941E+01 -0.9888E+00E
 Epicentro: LOS SANTOS - SANTANDER                                             3
 ACTION:UPD 12-08-06 17:46 OP:ep   STATUS:               ID:20120603102441 L   I
 2012-06-03-1020-00M.COL___200                                                 6
 STAT SP IPHASW D HRMM SECON CODA AMPLIT PERI AZIMU VELO AIN AR TRES W  DIS CAZ7
 BAR2 SZ EP       1025  3.02                             172    0.0610 18.6 187 
 BAR2 SZ ES       1025 18.44                             172    0.2110 18.6 187 
 BAR2 SZ I        1025 19.67         7.8 0.38            170           18.6 187 
 PAM  SZ EP       1025  6.10                             149    0.1910 82.0  38 
 PAM  SN ES   1   1025 23.17                             149   -0.30 7 82.0  38 
 RUS  HZ EP       1025  6.57                             145   -0.2810 96.2 175 
 RUS  HN ES   1   1025 25.21                             145    0.06 7 96.2 175 
 RUS  HZ I        1025 27.27         3.4 0.35            149           96.2 175 
 PTB  HZ EP       1025 10.11                             133   -0.04 9  145 260 
 PTB  HE ES   1   1025 30.81                             133   -0.21 7  145 260 
 PTB  HZ I        1025 37.36         3.6 0.26            132            145 260 
 OCA  HN ES       1025 34.45                             129   -0.09 9  165 354 
 OCA  HZ I        1025 38.59         8.6 0.41            131            165 354 
 ZAR  HZ EP       1025 16.14                             122    0.27 9  204 294 
 ZAR  HN ES   1   1025 41.14                             122   -0.06 6  204 294 
 ZAR  HZ I        1025 48.50         4.1 0.33            123            204 294 
                                                                                
