 2013  7 3 1754 36.9 L   6.755 -73.155150.2  RSN  4 0.3 1.6LRSN                1
 GAP=182        0.80       5.1     5.5  6.7  0.7215E+01  0.4187E+01  0.6624E+01E
 Epicentro: LOS SANTOS - SANTANDER                                             3
 ACTION:UPD 13-08-12 10:35 OP:ep   STATUS:               ID:20130703175436 L   I
 OLDACT:REG 13-07-03 14:20 OP:jn   STATUS:               ID:20130703174959     3
 2013-07-03-1749-59M.COL___266                                                 6
 STAT SP IPHASW D HRMM SECON CODA AMPLIT PERI AZIMU VELO AIN AR TRES W  DIS CAZ7
 GIR2 SZ EP       1754 57.21                             166   -0.0010 36.1 353 
 GIR2 SZ ES       1755 12.58                             166   -0.4910 36.1 353 
 GIR2 SZ I        1755 13.92         6.4 0.22            165           36.1 353 
 BRR  HZ IP     C 1754 58.90                             153    0.3010 72.8 302 
 BRR  HN ES       1755 16.01                             153    0.4710 72.8 302 
 BRR  HZ I        1755 23.21        10.8 0.30            150           72.8 302 
 RUS  HZ EP       1755  0.62                             146   -0.1110 95.7 175 
 RUS  HN ES       1755 19.53                             146    0.2010 95.7 175 
 RUS  HZ I        1755 20.66         3.4 0.32            149           95.7 175 
 PTB  HZ EP       1755  3.87                             133   -0.17 9  146 261 
 PTB  HN ES       1755 24.96                             133   -0.26 9  146 261 
 PTB  HZ I        1755 30.95         5.2 0.12            133            146 261 
                                                                                
