 2011  9 3 1831  9.2 L   6.749 -73.367122.2  RSN 15 0.4 2.6LRSN                1
 GAP= 46        0.87       3.0     3.9  5.3  0.1130E+01  0.9238E+01  0.4807E+01E
 Epicentro: ZAPATOCA - SANTANDER                                               3
 ACTION:UPD 12-07-13 15:55 OP:ep   STATUS:               ID:20110903183109 L   I
 2011-09-03-1829-44S.COL___171                                                 6
 STAT SP IPHASW D HRMM SECON CODA AMPLIT PERI AZIMU VELO AIN AR TRES W  DIS CAZ7
 BAR2 SZ IP       1831 26.04                             167   -0.0710 26.8 130 
 BAR2 SZ I        1831 26.39       291.0 0.21                          26.8 130 
 BAR2 SZ ES   1   1831 39.15                             167   -0.14 7 26.8 130 
 SAN  SZ EP       1831 27.00                             164    0.7710 32.5  87 
 SAN  SZ ES   1   1831 40.44                             164    0.94 7 32.5  87 
 GIR2 SZ IP       1831 26.43                             160   -0.0310 41.2  28 
 GIR2 SZ ES   1   1831 39.54                             160   -0.37 7 41.2  28 
 BRR  HZ IP     D 1831 26.90                             154   -0.0110 54.9 316 
 BRR  HZ I        1831 27.10       172.8 0.27                          54.9 316 
 BRR  HN ES   1   1831 40.76                             154    0.06 7 54.9 316 
 PAM  SZ EP   1   1831 30.57                             139    0.01 7 98.5  48 
 PAM  SN ES   1   1831 47.08                             139   -0.12 7 98.5  48 
 RUS  HZ EP       1831 30.20                             138   -0.4710 99.8 162 
 RUS  HZ I        1831 30.88        88.2 0.18                          99.8 162 
 RUS  HN ES   1   1831 46.79                             138   -0.61 7 99.8 162 
 OCA  SZ EP   1   1831 36.09                             123   -0.18 7  165   2 
 OCA  SZ ES   1   1831 57.02                             123   -0.35 7  165   2 
 OCA  SZ I        1831 59.60        88.8 0.39                           165   2 
 ZAR  HZ EP   1   1831 37.92                             120   -0.17 7  184 297 
 ZAR  HN ES   1   1832  0.96                             120    0.35 7  184 297 
 ZAR  HZ I        1832  5.05       136.2 0.27                           184 297 
 YOP  SZ EP   2   1831 38.79                             119    0.31 4  187 146 
 YOP  SE ES   1   1832  1.53                             119    0.22 7  187 146 
 YOP  SZ I        1832  3.33         1.1 0.12                           187 146 
 NOR  SZ EP   1   1831 40.23                             116   -0.91 6  212 232 
 NOR  SN ES   1   1832  5.49                             116   -0.56 6  212 232 
 CHI  HZ EP   1   1831 44.56                             113    0.05 6  238 190 
 CHI  HZ I        1832 16.00        15.3 0.56                           238 190 
 HEL  HZ EP   1   1831 45.88                             112    0.40 6  247 256 
 HEL  HZ I        1832 18.62        67.9 0.26                           247 256 
 RREF HZ EP   1   1831 52.14                             108    0.26 5  300 227 
 TOL  SZ EP   1   1831 54.57                             106    0.40 5  323 222 
 PRA  HZ EP   1   1832  0.14                             103    0.08 5  376 207 
 PRA  HN ES   1   1832 40.62                             103    0.90 5  376 207 
                                                                                
