 2017  6 3 1031 41.6 L   6.810 -73.121144.4  RSN  8 0.5 1.9LRSN                1
 GAP=241        0.76       4.2     4.8  6.8  0.8597E+01  0.2437E+01  0.4696E+01E
 Epicentro: LOS SANTOS - SANTANDER                                             3
 ACTION:UPD 17-09-14 16:49 OP:jn   STATUS:               ID:20170603103141 L   I
 OLDACT:UP  17-06-03 20:28 OP:and  STATUS:               ID:20170603102741     3
 OLDACT:UP  17-06-03 20:28 OP:and  STATUS:               ID:20170603102741     3
 OLDACT:UP  17-06-03 20:28 OP:and  STATUS:               ID:20170603102741     3
 OLDACT:UP  17-06-03 20:27 OP:and  STATUS:               ID:20170603102741     3
 OLDACT:UP  17-06-03 20:26 OP:and  STATUS:               ID:20170603102741     3
 OLDACT:UP  17-06-03 20:26 OP:and  STATUS:               ID:20170603102741     3
 OLDACT:UP  17-06-03 20:26 OP:and  STATUS:               ID:20170603102741     3
 OLDACT:UP  17-06-03 20:26 OP:and  STATUS:               ID:20170603102741     3
 OLDACT:REG 17-06-03 19:28 OP:and  STATUS:               ID:20170603102741     3
 2017-06-03-1028-00M.COL___362                                                 6
 STAT SP IPHASW D HRMM SECON CODA AMPLIT PERI AZIMU VELO AIN AR TRES W  DIS CAZ7
 BRR  HZ EP       1032  2.56                             152   -0.1110 73.2 297 
 BRR  HN ES       1032 19.43                             152    0.3010 73.2 297 
 BRR  HZ I        1032 21.74        10.5 0.14            150           73.2 297 
 RUS  HZ EP       1032  5.49                             143    0.2610  101 178 
 RUS  HN ES       1032 23.44                             143   -0.2710  101 178 
 RUS  HZ I        1032 24.57         9.4 0.26            143            101 178 
 PTB  HZ EP   3   1032  7.50                             131   -1.18 2  151 259 
 PTB  HN ES       1032 29.72                             131   -0.11 9  151 259 
 PTB  HZ I        1032 31.27         6.3 0.28            130            151 259 
 SPBC HZ EP       1032  9.93                             128   -0.26 9  166 220 
 SPBC HN ES   2   1032 33.28                             128    0.75 5  166 220 
 SPBC HZ I        1032 38.24        12.6 0.20            128            166 220 
 ZAR  HZ EP   2   1032 15.26                             122    1.13 4  206 292 
 ZAR  HN ES       1032 39.14                             122   -0.41 8  206 292 
 ZAR  HZ I        1032 44.43         8.4 0.32            122            206 292 
 NOR  HZ EP   2   1032 18.47                             118    0.96 4  238 235 
 NOR  HN ES       1032 45.53                             118   -0.03 8  238 235 
 NOR  HZ I        1032 50.06         4.7 0.30            118            238 235 
 CHI  HZ EP   2   1032 18.82                             117   -0.55 4  250 196 
 CHI  HN ES   2   1032 49.34                             117    0.48 4  250 196 
 URE  HZ EP   4   1032 25.36                             113    2.56 0  286 292 
 URE  HN ES   4   1032 52.15                             113   -2.82 0  286 292 
 URE  HZ I        1032 55.17         6.3 0.16            114            286 292 
 ELA  HZ EP   4   1032 33.04                             110    4.38 0  332 230 
 ELA  HN ES   4   1033  1.69                             110   -3.72 0  332 230 
                                                                                
