 2011  1 3 1337 57.0 L   6.759 -73.124140.4  RSN 13 0.5 2.5LRSN                1
 GAP=138        0.87       4.0     6.0  7.6 -0.5111E+01  0.1560E+02  0.4976E+01E
 Epicentro: LOS SANTOS - SANTANDER                                             3
 ACTION:UP  11-02-08 08:38 OP:pat  STATUS:               ID:20110103133757 L   I
 2011-01-03-1320-00M.COL___137                                                 6
 STAT SP IPHASW D HRMM SECON CODA AMPLIT PERI AZIMU VELO SNR AR TRES W  DIS CAZ7
 BAR2 SZ EP   1   1338 15.51                             172    -0.4 7   20 200 
 BAR2 SZ ES   2   1338 29.96                             172    -0.7 5   20 200 
 BAR2 SZ I        1338 33.20        89.9 0.34                            20 200 
 BTL  SZ EP   1   1338 16.52                             170     0.6 7   24 318 
 BTL  SZ ES   2   1338 31.19                             170     0.4 5   24 318 
 RUS  HZ EP   1   1338 19.48                             144    -0.4 7   96 177 
 RUS  HN ES   2   1338 38.41                             144     0.7 5   96 177 
 RUS  HZ I        1338 39.15        42.3 0.26                            96 177 
 GRA  SZ EP   1   1338 21.53                             135    -0.5 7  129  16 
 GRA  SZ ES   2   1338 40.81                             135    -0.8 5  129  16 
 GRA  SZ I        1338 44.21        31.6 0.33                           129  16 
 OCA  SZ EP   1   1338 25.97                             127     0.6 7  165 352 
 OCA  SZ ES   2   1338 47.71                             127     0.3 5  165 352 
 OCA  SZ I        1338 52.45        34.9 0.31                           165 352 
 YOP  SZ EP   1   1338 26.49                             126     0.4 7  174 153 
 YOP  SN ES   2   1338 49.41                             126     0.5 4  174 153 
 YOP  SZ I        1338 54.19        20.5 0.70                           174 153 
 NOR  SZ EP   1   1338 31.84                             117    -0.5 6  234 236 
 NOR  SE ES   2   1338 59.29                             117    -0.6 4  234 236 
 CHI  HZ EP   1   1338 33.61                             116    -0.4 6  245 196 
 CHI  HE ES   2   1339  2.48                             116    -0.3 4  245 196 
 CHI  HZ I        1339  8.62        12.5 0.40                           245 196 
 ROSC BZ EP   1   1338 34.79                             116     0.3 6  250 212 
 ROSC BZ I        1339 11.36        24.6 0.42                           250 212 
 HEL  HZ EP   1   1338 37.37                             114     0.3 6  273 257 
 HEL  HE ES   2   1339  8.39                             114     0.1 4  273 257 
 HEL  HZ I        1339 14.46        19.1 0.41                           273 257 
 GUY  SZ EP   1   1338 40.81                             111     0.5 5  301 236 
 GUY  SN ES   2   1339 14.73                             111     0.7 4  301 236 
 GUY  SZ I        1339 21.75        28.7 0.46                           301 236 
 RREF HZ EP   1   1338 42.78                             110     0.0 5  321 230 
 RREF HN ES   2   1339 18.20                             110    -0.3 3  321 230 
 RREF HZ I        1339 25.04        17.0 0.67                           321 230 
 PRA  HZ EP   1   1338 49.16                             106    -0.8 4  389 210 
 PRA  HE ES   2   1339 31.31                             106     0.0 3  389 210 
                                                                                
