 2010  1 3 1302 27.6 L   6.778 -72.912146.2  RSN  5 0.5 1.8LRSN                1
 GAP=303        0.70       9.9    14.4 10.3 -0.2948E+02  0.5688E+02  0.2703E+02E
 Epicentro: CEPITA - SANTANDER                                                 3
 ACTION:UP  10-08-24 09:42 OP:vdl  STATUS:               ID:20100103130227 L   I
 2010-01-03-1300-00S.COL___095                                                 6
 STAT SP IPHASW D HRMM SECON CODA AMPLIT PERI AZIMU VELO SNR AR TRES W  DIS CAZ7
 BAR2 SZ EP   1   13 2 47.80                             166     0.2 7   36 236 
 BAR2 SZ ES   2   13 3  3.01                             166    -0.2 5   36 236 
 CHI  HZ EP   1   13 3  5.77                             117    -0.1 6  254 201 
 CHI  HZ I        13 3  8.28         2.6 0.84                           254 201 
 CHI  HE ES   2   13 3 35.64                             117    -0.2 4  254 201 
 HEL  HZ EP   1   13 3 10.23                             113    -0.3 5  297 258 
 HEL  HZ I        13 3 47.27         3.7 0.24                           297 258 
 RREF BZ EP   1   13 3 16.63                             110     0.8 5  340 233 
 RREF BE ES   2   13 3 53.16                             110    -0.3 3  340 233 
 RREF BZ I        13 3 56.37         3.0 0.31                           340 233 
 PRA  HZ EP   1   13 3 21.65                             106    -0.8 4  403 213 
 PRA  HZ I        13 3 33.22         2.1 0.15                           403 213 
 PRA  HE ES   2   13 4  6.02                             106     0.8 3  403 213 
                                                                                
