 2012  1 3 1211 25.1 L   5.927 -73.382151.9  RSN  9 0.3 2.0LRSN                1
 GAP= 99        0.72       2.9     3.9  5.9 -0.2756E+01  0.4196E+01  0.3610E+01E
 Epicentro: GAMBITA - SANTANDER                                                3
 ACTION:UP  12-02-03 08:13 OP:REBC STATUS:               ID:20120103121125 L   I
 2012-01-03-1210-00M.COL___184                                                 6
 STAT SP IPHASW D HRMM SECON CODA AMPLIT PERI AZIMU VELO SNR AR TRES W  DIS CAZ7
 RUS  HZ EP       1211 46.53                             167     0.510   33  96 
 RUS  HE ES   1   1212  2.27                             167    -0.2 7   33  96 
 BAR2 SZ EP       1211 47.52                             152     0.010   77  17 
 BAR2 SZ ES   1   1212  4.80                             152    -0.3 7   77  17 
 BAR2 SZ I        1212  7.07        11.7 0.38                            77  17 
 BRR  HZ EP   1   1211 51.92                             136     0.4 7  136 344 
 BRR  HN ES   1   1212 12.32                             136     0.3 7  136 344 
 BRR  HN I        1212 14.92        35.0 0.23                           136 344 
 PTB  HZ EP       1211 51.16                             136    -0.4 9  137 300 
 PTB  HN ES   1   1212 12.41                             136     0.1 7  137 300 
 CHI  HZ EP       1211 53.03                             133    -0.1 9  149 195 
 CHI  HN ES   1   1212 14.93                             133    -0.2 7  149 195 
 CHI  HZ I        1212 17.12         4.7 0.22                           149 195 
 NOR  SZ EP   1   1211 55.11                             129     0.5 7  170 256 
 NOR  SN ES   1   1212 17.83                             129     0.2 7  170 256 
 PAM  SZ EP   1   1211 55.51                             129    -0.1 7  173  26 
 PAM  SE ES   1   1212 19.21                             129    -0.1 7  173  26 
 ZAR  HE ES   2   1212 29.13                             119    -0.7 4  238 317 
 ZAR  HZ I        1212 38.39         6.6 0.24                           238 317 
 PRA  HZ EP       1212  7.50                             114    -0.4 7  296 214 
 PRA  HE ES   1   1212 41.44                             114     0.2 5  296 214 
                                                                                
