 2015 11 3 1204 48.2 L   6.791 -73.137143.1  RSN 25 0.4 2.7LRSN                1
 GAP= 66        0.73       2.3     2.3  3.6  0.2022E+00  0.2617E+01  0.1014E+01E
 Epicentro: LOS SANTOS - SANTANDER                                             3
 ACTION:UPD 15-12-28 16:08 OP:cam  STATUS:               ID:20151103120448 L   I
 OLDACT:UP  15-11-03 23:24 OP:ar   STATUS:               ID:20151103115750     3
 OLDACT:REG 15-11-03 21:17 OP:ar   STATUS:               ID:20151103115750     3
 2015-11-03-1157-50M.COL___313                                                 6
 STAT SP IPHASW D HRMM SECON CODA AMPLIT PERI AZIMU VELO AIN AR TRES W  DIS CAZ7
 BAR2 EZ EP       12 5  7.39                             171   -0.1510 22.6 193 
 BAR2 EZ ES       12 5 22.29                             171   -0.2910 22.6 193 
 BAR2 EZ I        12 5 23.14        91.1 0.18            171           22.6 193 
 BRR  HZ EP       12 5  9.32                             152    0.1410 72.5 299 
 BRR  HN ES       12 5 26.08                             152    0.5710 72.5 299 
 BRR  HZ I        12 5 30.16        53.1 0.34            143           72.5 299 
 PAM  EZ EP       12 5 10.35                             150    0.1710 77.5  39 
 PAM  EN ES       12 5 27.28                             150   -0.0110 77.5  39 
 PAM  EZ I        12 5 29.26       179.5 0.46            144           77.5  39 
 RUS  HZ EP       12 5 11.48                             144   -0.1810 99.6 177 
 RUS  HE ES       12 5 29.62                             144   -0.3010 99.6 177 
 RUS  HZ I        12 5 31.27        54.8 0.32            141           99.6 177 
 TAM  HZ EP     C 12 5 15.80                             130    0.20 9  154 105 
 TAM  HE ES       12 5 37.15                             130    0.22 9  154 105 
 TAM  HZ I        12 5 37.69        32.1 0.26            126            154 105 
 OCA  HZ EP   2   12 5 15.63                             129   -0.82 5  161 353 
 OCA  HN ES   2   12 5 37.23                             129   -1.22 5  161 353 
 SPBC HZ EP   2   12 5 16.57                             128    0.04 5  163 219 
 SPBC HE ES   2   12 5 38.35                             128   -0.24 5  163 219 
 SPBC HZ I        12 5 42.13        58.7 0.22            123            163 219 
 ZAR  HZ EP       12 5 20.56                             122   -0.09 8  205 292 
 ZAR  HN ES       12 5 46.20                             122    0.28 8  205 292 
 ZAR  HZ I        12 5 54.10        54.9 0.42            115            205 292 
 NOR  HZ EP       12 5 24.07                             118    0.22 8  235 235 
 NOR  HN ES       12 5 51.07                             118   -0.54 8  235 235 
 NOR  HZ I        12 5 53.77        28.5 0.24            113            235 235 
 SML  HZ EP   2   12 5 23.82                             117   -1.04 4  245 335 
 SML  HE ES   2   12 5 54.09                             117    0.67 4  245 335 
 SML  HZ I        12 5 57.01        50.6 0.10            110            245 335 
 CHI  HZ EP       12 5 25.70                             117   -0.02 8  248 195 
 CHI  HN ES       12 5 55.45                             117    0.50 8  248 195 
 CHI  HZ I        12 5 59.20        16.2 0.42            112            248 195 
 ROSC BZ EP   2   12 5 26.88                             116    0.70 4  252 211 
 ROSC BN ES   4   12 5 59.37                             116    3.59 0  252 211 
 ROSC BZ I        12 6  1.86        32.2 0.50            111            252 211 
 HEL  HZ EP   4   12 5 29.71                             114    1.31 0  273 256 
 HEL  HN ES   2   12 5 59.79                             114    0.07 4  273 256 
 HEL  HZ I        12 6  7.69        19.6 0.68            109            273 256 
 URE  HZ EP       12 5 28.82                             113   -0.51 7  285 292 
 URE  HN ES   4   12 5 59.81                             113   -1.56 0  285 292 
 URE  HZ I        12 6 12.23        36.7 0.30            107            285 292 
 GUY2CHZ EP   2   12 5 32.04                             112    0.28 4  301 235 
 GUY2CHN ES   4   12 6  8.41                             112    2.71 0  301 235 
 GUY2CHZ I        12 6 14.94        26.0 0.60                           301 235 
 PTGC HZ EP   2   12 5 30.84                             111   -1.00 4  307 159 
 PTGC HE ES   4   12 6  4.03                             111   -1.81 0  307 159 
 PTGC HZ I        12 6  8.60        35.5 0.26            107            307 159 
 LL1C HZ EP   2   12 5 32.47                             111    0.63 4  308 351 
 LL1C HZ I        12 6 22.02        69.2 0.46            106            308 351 
 CBOC HZ EP   2   12 5 35.54                             109    0.42 3  334 252 
 CBOC HE ES   2   12 6 11.89                             109    0.20 3  334 252 
 CBOC HZ I        12 6 15.39         8.7 0.52            105            334 252 
 DBB  SZ EP       12 5 35.54                             109   -0.19 7  341 274 
 DBB  SZ ES   4   12 6 14.28                             109    1.50 0  341 274 
 MON  HZ EP   4   12 5 34.95                             108   -2.35 0  355 308 
 MON  HN ES   4   12 6 11.58                             108   -3.99 0  355 308 
 MON  HZ I        12 6 14.49        18.2 0.18            103            355 308 
 ANIL HN ES   4   12 6 20.78                             108    4.07 0  357 225 
 ANIL HZ I        12 6 23.34        58.3 0.26            104            357 225 
 SDV  BE ES   4   12 6 14.39                             108   -2.72 0  360  50 
 SDV  BZ I        12 6 16.67        17.4 0.50            103            360  50 
 ORTC HZ EP   2   12 5 42.82                             106    0.77 3  395 216 
 ORTC HN ES   2   12 6 24.37                             106    0.35 3  395 216 
 ORTC HZ I        12 6 30.35        13.6 0.44            102            395 216 
 PAL  HZ EP       12 5 43.63                             105    0.27 6  406 239 
 PAL  HN ES   4   12 6 25.70                             105   -0.64 0  406 239 
 PAL  HZ I        12 6 32.16        11.5 0.34            101            406 239 
 SJC  HZ EP   4   12 5 42.30                             105   -1.58 0  411 327 
 SJC  HN ES   4   12 6 23.44                             105   -3.83 0  411 327 
 SJC  HZ I        12 6 27.06        18.4 0.52            101            411 327 
                                                                                
