 2011  4 3 1003 16.2 L   6.796 -73.131142.1  RSN 16 0.4 2.9LRSN                1
 GAP=115        0.82       2.7     4.2  4.6 -0.2676E+01  0.3944E+01  0.3728E+01E
 Epicentro: LOS SANTOS - SANTANDER                                             3
 ACTION:UP  11-06-22 15:28 OP:REBC STATUS:               ID:20110403100316 L   I
 2011-04-03-1001-42S.COL___138                                                 6
 STAT SP IPHASW D HRMM SECON CODA AMPLIT PERI AZIMU VELO SNR AR TRES W  DIS CAZ7
 BTL  SZ EP   1   10 3 35.51                             171     0.2 7   20 312 
 BTL  SZ ES   1   10 3 50.76                             171     0.5 7   20 312 
 BAR2 SZ EP   1   10 3 35.45                             170     0.1 7   23 194 
 BAR2 SZ ES   1   10 3 49.60                             170    -0.7 7   23 194 
 BAR2 SZ I        10 3 51.11       218.9 0.28                            23 194 
 GIR2 SZ IP       10 3 35.42                             167     0.010   32 348 
 GIR2 SZ ES   1   10 3 50.63                             167     0.2 7   32 348 
 BRR  HZ IP     C 10 3 37.21                             151     0.210   73 298 
 BRR  HN ES   1   10 3 54.00                             151     0.7 7   73 298 
 PAM  SZ IP       10 3 38.29                             151     0.310   77  38 
 PAM  SN ES   1   10 3 54.04                             151    -0.9 7   77  38 
 PAM  SZ I        10 3 57.55       131.0 0.53                            77  38 
 GRA  SZ IP       10 3 41.24                             136     0.110  126  17 
 GRA  SZ ES   1   10 4  0.63                             136     0.1 7  126  17 
 GRA  SZ I        10 4  1.66       232.4 0.36                           126  17 
 OCA  SZ IP       10 3 43.83                             129    -0.4 9  161 353 
 OCA  SZ ES   1   10 4  5.79                             129    -0.4 7  161 353 
 YOP  SZ EP   1   10 3 45.75                             126    -0.1 7  178 154 
 YOP  SN ES   1   10 4  9.55                             126     0.5 7  178 154 
 YOP  SZ I        10 4 11.45        34.7 0.38                           178 154 
 NOR  SZ EP   1   10 3 51.56                             117    -0.3 6  236 235 
 NOR  SN ES   2   10 4 19.39                             117    -0.2 4  236 235 
 CHI  HZ EP   1   10 3 53.84                             116     0.1 6  249 196 
 CHI  HN ES   2   10 4 22.95                             116     0.0 4  249 196 
 CHI  HZ I        10 4 32.81        31.3 0.36                           249 196 
 HEL  HZ EP   1   10 3 56.66                             114     0.3 6  274 256 
 HEL  HN ES   2   10 4 27.93                             114     0.2 4  274 256 
 HEL  HZ I        10 4 34.68        55.6 0.29                           274 256 
 VIL  SZ EP   2   10 3 59.61                             111     0.2 4  303 192 
 VIL  SN ES       10 4 32.99                             111    -0.2 7  303 192 
 VIL  SZ I        10 4 45.49        31.6 0.33                           303 192 
 GUY  SZ EP   2   10 4  0.27                             111     0.2 4  305 235 
 GUY  SN ES   2   10 4 33.72                             111    -0.5 4  305 235 
 GUY  SZ I        10 4 42.64        70.0 0.31                           305 235 
 RREF HZ EP   1   10 4  2.03                             110    -0.3 5  323 230 
 RREF HN ES   2   10 4 37.97                             110    -0.3 3  323 230 
 RREF HZ I        10 4 44.85        47.5 0.25                           323 230 
 DBB  SZ EP   1   10 4  3.93                             109     0.2 5  341 274 
 PRA  HZ EP   1   10 4  9.93                             106     0.3 4  392 210 
 PRA  HN ES   1   10 4 50.51                             106    -0.8 4  392 210 
                                                                                
