 2015  9 3 1402 42.9 L   6.819 -73.137144.2  RSN  8 0.5 1.6LRSN                1
 GAP=137        1.23       4.5     5.1  7.4 -0.2781E+00  0.1235E+02 -0.3864E+01E
 Epicentro: LOS SANTOS - SANTANDER                                             3
 OLDACT:REG 15-09-03 21:24 OP:ak   STATUS:               ID:20150903135745     3
 ACTION:UPD 15-10-28 16:23 OP:cam  STATUS:               ID:20150903140242 L   I
 OLDACT:UP  15-09-03 22:59 OP:ak   STATUS:               ID:20150903135746d    3
 OLDACT:UP  15-09-03 22:58 OP:ak   STATUS:               ID:20150903135746d    3
 OLDACT:DUP 15-09-03 22:50 OP:ak   STATUS:               ID:20150903135746d    3
 OLDACT:UP  15-09-03 22:35 OP:ak   STATUS:               ID:20150903135745     3
 2015-09-03-1357-45M.COL___340                                                 6
 STAT SP IPHASW D HRMM SECON CODA AMPLIT PERI AZIMU VELO AIN AR TRES W  DIS CAZ7
 BAR2 EZ EP       14 3  2.44                             169    0.0310 25.5 191 
 BAR2 EZ ES       14 3 17.19                             169   -0.4210 25.5 191 
 BAR2 EZ I        14 3 18.57        11.8 0.13            171           25.5 191 
 BRR  HZ EP       14 3  4.26                             152    0.3710 71.1 297 
 BRR  HN ES       14 3 20.92                             152    0.6610 71.1 297 
 PAM  EZ IP     C 14 3  5.39                             151    0.5610 75.2  40 
 PAM  EN ES       14 3 22.17                             151    0.2410 75.2  40 
 PAM  EZ I        14 3 24.36         7.5 0.50            153           75.2  40 
 RUS  HZ EP       14 3  6.34                             143   -0.3210  103 177 
 RUS  HN ES       14 3 25.07                             143   -0.1110  103 177 
 RUS  HZ I        14 3 26.93         4.9 0.36            145            103 177 
 PTB  HZ EP       14 3  9.14                             131   -0.74 9  149 258 
 PTB  HN ES       14 3 30.13                             131   -0.79 9  149 258 
 PTB  HZ I        14 3 32.03         4.0 0.10            132            149 258 
 ZAR  HZ EP       14 3 15.46                             122    0.18 9  204 292 
 ZAR  HE ES       14 3 40.74                             122    0.22 9  204 292 
 ZAR  HZ I        14 3 47.67         5.7 0.20            123            204 292 
 SML  HZ EP       14 3 18.95                             117   -0.35 8  242 335 
 SML  HN ES       14 3 46.98                             117   -0.70 8  242 335 
 GUY2CHZ EP   1   14 3 27.55                             112    0.87 5  303 235 
 GUY2CHN ES       14 4  1.68                             112    0.86 7  303 235 
 GUY2CHZ I        14 4  9.19         1.5 0.42                           303 235 
                                                                                
