 2011  1 3 1410 47.3 L   6.784 -73.103139.4  RSN  7 0.4 1.8LRSN                1
 GAP=164        0.76       5.7    10.0  9.4 -0.3172E+02  0.3852E+02 -0.3754E+01E
 Epicentro: LOS SANTOS - SANTANDER                                             3
 ACTION:UP  11-02-08 08:38 OP:pat  STATUS:               ID:20110103141047 L   I
 2011-01-03-1400-00M.COL___137                                                 6
 STAT SP IPHASW D HRMM SECON CODA AMPLIT PERI AZIMU VELO SNR AR TRES W  DIS CAZ7
 BAR2 SZ EP   1   1411  6.18                             170     0.0 7   23 203 
 BAR2 SZ ES   2   1411 20.75                             170    -0.2 5   23 203 
 BAR2 SZ I        1411 23.65        22.7 0.37                            23 203 
 BTL  SZ EP   1   1411  6.05                             170    -0.2 7   24 309 
 RUS  HZ EP   1   1411 10.09                             143    -0.2 7   99 179 
 RUS  HN ES   2   1411 28.92                             143     0.7 5   99 179 
 RUS  HZ I        1411 30.23         8.8 0.29                            99 179 
 GRA  SZ EP   1   1411 12.13                             135     0.1 7  126  15 
 GRA  SZ ES   2   1411 31.54                             135     0.2 5  126  15 
 GRA  SZ I        1411 33.60         7.9 0.45                           126  15 
 NOR  SZ EP   1   1411 22.58                             117    -0.5 6  238 236 
 NOR  SE ES   2   1411 50.35                             117    -0.5 4  238 236 
 CHI  HZ EP   1   1411 24.42                             116    -0.2 6  248 196 
 CHI  HE ES   2   1411 53.54                             116    -0.2 4  248 196 
 CHI  HZ I        1412  3.93         3.0 0.85                           248 196 
 RREF HZ EP   1   1411 34.63                             109     1.1 5  324 230 
 RREF HN ES   2   1412 10.15                             109     0.7 3  324 230 
 RREF HZ I        1412 16.39         4.5 0.68                           324 230 
                                                                                
