 2016  8 3 1046 45.3 L   6.732 -73.142144.9  RSN  5 0.4 1.7LRSN                1
 GAP=160        0.90       7.5     4.3  6.6 -0.6947E+01  0.7995E+01 -0.1889E+01E
 Epicentro: JORDAN - SANTANDER                                                 3
 ACTION:UPD 16-10-29 15:31 OP:rebc STATUS:               ID:20160803104645 L   I
 OLDACT:REG 16-08-03 20:02 OP:dani STATUS:               ID:20160803103759     3
 2016-08-03-1037-59S.COL___331                                                 6
 STAT SP IPHASW D HRMM SECON CODA AMPLIT PERI AZIMU VELO AIN AR TRES W  DIS CAZ7
 BAR2 EZ EP       1047  4.79                             173    0.0710 16.1 196 
 BAR2 EZ ES       1047 19.67                             173   -0.1810 16.1 196 
 BAR2 EZ I        1047 20.83         9.9 0.32                          16.1 196 
 BRR  HZ EP       1047  6.75                             151    0.1310 75.4 303 
 BRR  HN ES       1047 23.69                             151    0.4610 75.4 303 
 BRR  HZ I        1047 24.82        13.0 0.43                          75.4 303 
 PAM  EZ EP       1047  7.85                             149    0.0610 83.0  36 
 PAM  EE ES       1047 25.10                             149   -0.2110 83.0  36 
 PAM  EZ I        1047 27.08         7.6 0.78                          83.0  36 
 PTB  HZ EP       1047 11.66                             132   -0.48 9  147 262 
 PTB  HE ES       1047 33.25                             132    0.19 9  147 262 
 PTB  HZ I        1047 35.86         4.1 0.30                           147 262 
 ZAR  HZ EP       1047 18.62                             122    0.57 8  207 294 
 ZAR  HN ES       1047 42.90                             122   -0.68 8  207 294 
 ZAR  HZ I        1047 50.17         4.3 0.18                           207 294 
                                                                                
