 2012 10 3 1834 41.6 L   6.746 -73.104145.0  RSN  4 0.1 1.5LRSN                1
 GAP=144        0.32       5.1     8.3  4.3  0.3433E+02 -0.1476E+02 -0.9972E+01E
 Epicentro: JORDAN - SANTANDER                                                 3
 ACTION:UPD 12-11-22 17:01 OP:ep   STATUS:               ID:20121003183441 L   I
 2012-10-03-1830-00M.COL___220                                                 6
 STAT SP IPHASW D HRMM SECON CODA AMPLIT PERI AZIMU VELO AIN AR TRES W  DIS CAZ7
 BAR2 SZ EP       1835  1.16                             172    0.0710 19.1 207 
 BAR2 SZ ES   1   1835 16.15                             172   -0.12 7 19.1 207 
 BAR2 SZ I        1835 17.46        10.6 0.30                          19.1 207 
 BRR  HZ EP       1835  3.07                             150   -0.0310 78.1 301 
 BRR  HZ I        1835  4.84         8.6 0.32                          78.1 301 
 BRR  HN ES   1   1835 19.89                             150    0.04 7 78.1 301 
 PAM  SZ EP   3   1835  3.99                             150    0.11 2 79.4  34 
 PAM  SZ I        1835  4.32         8.2 0.20                          79.4  34 
 RUS  HZ EP   2   1835  4.64                             145   -0.22 5 94.4 179 
 RUS  HN ES   1   1835 23.07                             145    0.08 7 94.4 179 
 RUS  HN I        1835 24.93         1.6 0.26                          94.4 179 
                                                                                
