 2010 12 3 1250 37.7 L   7.439 -73.342124.9  RSN  4 0.3 1.9LRSN                1
 GAP=182        0.72      11.9    12.9 11.5 -0.1257E+03 -0.7876E+02  0.7979E+02E
 Epicentro: EL PLAYON - SANTANDER                                              3
 ACTION:UP  11-01-14 15:22 OP:pat  STATUS:               ID:20101203125037 L   I
 2010-12-03-1247-06S.COL___133                                                 6
 STAT SP IPHASW D HRMM SECON CODA AMPLIT PERI AZIMU VELO SNR AR TRES W  DIS CAZ7
 GIR2 SZ EP   1   1250 55.93                             160     0.6 7   43 158 
 BRR  HZ EP   1   1250 55.54                             155    -0.1 7   55 228 
 BRR  HE ES   1   1251  9.66                             155     0.0 7   55 228 
 BRR  HZ I        1251 10.42        15.9 0.21                            55 228 
 GRA  SZ EP   1   1250 57.20                             146     0.0 7   77  50 
 GRA  SZ ES   1   1251 12.36                             146    -0.1 7   77  50 
 GRA  SZ I        1251 12.84        10.7 0.16                            77  50 
 BAR2 SZ EP       1250 58.45                             140    -0.210   95 169 
 BAR2 SZ I        1250 58.59        36.4 0.11                            95 169 
                                                                                
