 2015  1 3 1828 49.7 L   6.812 -73.122145.5  RSN  6 0.2 1.8LRSN                1
 GAP=246        0.53       3.9     2.9  4.4  0.4037E+01  0.4836E+01  0.2496E+00E
 Epicentro: LOS SANTOS - SANTANDER                                             3
 ACTION:UPD 15-03-02 15:36 OP:nd   STATUS:               ID:20150103182849 L   I
 OLDACT:REG 15-01-03 22:09 OP:cam  STATUS:               ID:20150103182818     3
 2015-01-03-1828-18M.COL___277                                                 6
 STAT SP IPHASW D HRMM SECON CODA AMPLIT PERI AZIMU VELO AIN AR TRES W  DIS CAZ7
 BAR2 EZ EP       1829  9.54                             170    0.2410 25.2 195 
 BAR2 EZ ES       1829 24.70                             170    0.0810 25.2 195 
 BAR2 EZ I        1829 25.32        12.7 0.48            168           25.2 195 
 RUS  HZ EP       1829 13.44                             143   -0.0310  102 178 
 RUS  HN ES       1829 31.95                             143   -0.1010  102 178 
 RUS  HZ I        1829 33.65         7.8 0.36            143            102 178 
 PTB  HZ EP       1829 16.57                             131   -0.29 9  151 259 
 PTB  HN ES       1829 37.73                             131   -0.35 9  151 259 
 PTB  HZ I        1829 39.94        10.5 0.22            132            151 259 
 ZAR  HN ES       1829 47.84                             122    0.11 8  206 292 
 NOR  HZ EP       1829 25.66                             118   -0.02 8  238 235 
 NOR  HN ES       1829 54.07                             118    0.29 8  238 235 
 NOR  HZ I        1829 55.52         3.9 0.14            118            238 235 
 HEL  HN ES       1830  1.95                             114    0.18 8  275 256 
                                                                                
