 2011 10 3 1140  3.5 L   6.750 -73.104145.2  RSN  6 0.3 1.6LRSN                1
 GAP=238        0.64       5.1     5.8  6.2  0.1395E+02  0.1183E+02  0.9718E+01E
 Epicentro: LOS SANTOS - SANTANDER                                             3
 ACTION:UPD 12-07-13 16:01 OP:ep   STATUS:               ID:20111003114003 L   I
 2011-10-03-1139-13S.COL___168                                                 6
 STAT SP IPHASW D HRMM SECON CODA AMPLIT PERI AZIMU VELO AIN AR TRES W  DIS CAZ7
 BAR2 SZ EP   1   1140 22.71                             172   -0.23 7 19.5 206 
 BAR2 SZ ES   1   1140 37.87                             172   -0.27 7 19.5 206 
 BAR2 SZ I        1140 39.86        13.6 0.26                          19.5 206 
 BRR  HZ EP   1   1140 25.22                             150    0.29 7 77.9 300 
 BRR  HN ES   1   1140 42.23                             150    0.54 7 77.9 300 
 BRR  HZ I        1140 46.87        16.4 0.14                          77.9 300 
 RUS  HZ EP   1   1140 26.59                             145   -0.15 7 94.9 179 
 RUS  HN ES   1   1140 44.90                             145   -0.01 7 94.9 179 
 RUS  HZ I        1140 46.89         7.6 0.32                          94.9 179 
 ZAR  HN ES   1   1141  1.78                             121   -0.53 6  210 293 
 NOR  SZ EP   1   1140 39.01                             118   -0.21 6  235 236 
 NOR  SN ES   1   1141  7.19                             118    0.07 6  235 236 
 NOR  SZ I        1141 14.26         0.4 0.23                           235 236 
 CHI  HZ EP   1   1140 41.17                             117    0.49 6  245 197 
 CHI  HZ I        1141 14.52         4.6 0.37                           245 197 
                                                                                
