 2014  3 3 1534 22.1 L   6.808 -73.161136.0  RSN  9 0.4 2.0LRSN                1
 GAP=134        0.95       4.2     4.0  6.1 -0.2746E+01  0.9941E+01  0.5159E+00E
 Epicentro: LOS SANTOS - SANTANDER                                             3
 ACTION:UPD 14-04-09 23:14 OP:nd   STATUS:               ID:20140303153422 L   I
 OLDACT:UP  14-03-03 19:46 OP:mh   STATUS:               ID:20140303152946     3
 OLDACT:UP  14-03-03 19:45 OP:mh   STATUS:               ID:20140303152946     3
 OLDACT:REG 14-03-03 15:49 OP:mh   STATUS:               ID:20140303152946     3
 2014-03-03-1529-46M.COL___232                                                 6
 STAT SP IPHASW D HRMM SECON CODA AMPLIT PERI AZIMU VELO AIN AR TRES W  DIS CAZ7
 BAR2 SZ EP       1534 40.59                             170   -0.0010 24.0 186 
 BAR2 SZ ES       1534 55.26                             170    0.2610 24.0 186 
 BAR2 SZ I        1534 56.91        49.3 0.23            172           24.0 186 
 BRR  HZ EP       1534 42.46                             151    0.3510 69.3 299 
 BRR  HN ES   1   1534 57.48                             151   -0.22 7 69.3 299 
 BRR  HZ I        1535  2.49        26.1 0.22            151           69.3 299 
 PAM  SZ EP       1534 43.45                             149    0.1210 77.8  41 
 PAM  SN ES       1534 59.98                             149    0.1110 77.8  41 
 PAM  SZ I        1535  3.29         4.8 0.24            152           77.8  41 
 RUS  HZ EP       1534 44.59                             142   -0.4110  102 175 
 RUS  HN ES       1535  2.82                             142   -0.0310  102 175 
 RUS  HZ I        1535  5.37        13.1 0.21            147            102 175 
 PTB  HZ EP       1534 47.60                             130   -0.57 9  146 258 
 PTB  HN ES       1535  7.85                             130   -0.64 9  146 258 
 PTB  HZ I        1535 11.57        19.0 0.14            132            146 258 
 ZAR  HZ EP       1534 53.44                             121   -0.31 9  202 292 
 ZAR  HN ES   1   1535 18.99                             121    0.58 6  202 292 
 ZAR  HZ I        1535 25.08        24.6 0.28            123            202 292 
 NOR  HZ EP       1534 56.98                             117   -0.23 8  234 234 
 NOR  HN ES       1535 25.39                             117    0.81 8  234 234 
 NOR  HZ I        1535 26.77         9.5 0.21            120            234 234 
 SML  HN ES   4   1535 24.15                             116   -1.92 0  242 336 
 HEL  HN ES   2   1535 33.00                             113    0.44 4  271 256 
 GUY2CHZ EP   1   1535  6.04                             111    0.84 5  300 234 
 GUY2CHN ES   2   1535 39.52                             111    0.72 4  300 234 
 SJC  HZ EP   4   1535 14.99                             104   -2.19 0  408 327 
 SJC  HN ES   4   1535 55.97                             104   -4.15 0  408 327 
                                                                                
