 2010  6 3 1236 49.5 L   6.791 -73.091147.0  RSN  7 0.3 2.2LRSN                1
 GAP=190        0.68       7.2    10.1  5.9 -0.4450E+02  0.1777E+02 -0.2087E+02E
 Epicentro: LOS SANTOS - SANTANDER                                             3
 ACTION:UP  10-08-24 10:08 OP:vdl  STATUS:               ID:20100603123649 L   I
 2010-06-03-1232-01S.COL___109                                                 6
 STAT SP IPHASW D HRMM SECON CODA AMPLIT PERI AZIMU VELO SNR AR TRES W  DIS CAZ7
 BAR2 SZ EP       1237  9.03                             170    -0.310   24 205 
 BAR2 SZ ES       1237 24.60                             170    -0.210   24 205 
 GIR2 SZ EP       1237  9.48                             166     0.110   34 340 
 GIR2 SZ ES   1   1237 25.41                             166     0.5 7   34 340 
 GUE  SZ EP       1237 14.40                             139     0.110  116   9 
 GRA  SZ EP       1237 14.90                             137     0.110  125  15 
 OCA  SZ EP       1237 17.95                             129    -0.2 9  162 351 
 HEL  HN ES   2   1238  1.99                             114    -0.3 4  278 256 
 HEL  HZ I        1238  6.87         8.9 0.59                           278 256 
 RREF BZ EP   1   1237 36.94                             111     0.8 5  326 230 
 RREF BZ I        1238 21.32         7.5 0.56                           326 230 
                                                                                
