 2016  1 3 1005 42.7 L   7.422 -73.215122.0  RSN  4 0.4 1.3LRSN                1
 GAP=186        0.64       4.9     4.2  9.8  0.2671E+01  0.2755E+02  0.1367E+02E
 Epicentro: EL PLAYON - SANTANDER                                              3
 ACTION:UPD 16-03-09 23:22 OP:cam  STATUS:               ID:20160103100542 L   I
 OLDACT:REG 16-01-03 20:13 OP:dnl  STATUS:               ID:20160103095746     3
 2016-01-03-0957-46M.COL___314                                                 6
 STAT SP IPHASW D HRMM SECON CODA AMPLIT PERI AZIMU VELO AIN AR TRES W  DIS CAZ7
 PAM  EZ EP   1   10 6  0.99                             154   -0.20 7 57.6  99 
 PAM  EE ES       10 6 15.88                             154    0.2410 57.6  99 
 PAM  EZ I        10 6 16.98         5.4 0.13            157           57.6  99 
 BAR2 EZ EP   2   10 6  2.56                             141   -0.55 5 91.8 178 
 BAR2 EZ ES   2   10 6 18.28                             141   -0.78 5 91.8 178 
 BAR2 EZ I        10 6 20.60         3.2 0.11            141           91.8 178 
 ZAR  HZ EP   2   10 6 10.86                             120   -0.40 4  182 273 
 ZAR  HE ES       10 6 33.62                             120    0.05 9  182 273 
 ZAR  HZ I        10 6 35.27         2.7 0.21            122            182 273 
 SPBC HZ EP   2   10 6 15.81                             115    0.55 4  217 206 
 SPBC HE ES       10 6 40.88                             115    0.20 8  217 206 
 SPBC HZ I        10 6 44.19         1.6 0.23            116            217 206 
                                                                                
