 2015  5 3 1131 39.7 L   6.105 -73.715112.1  RSN  4 0.4 1.4LRSN                1
 GAP=212        0.86       7.6     9.6 12.8  0.5695E+02  0.9094E+02  0.4888E+02E
 Epicentro: CHIPATA - SANTANDER                                                3
 ACTION:UPD 15-09-10 22:01 OP:cam  STATUS:               ID:20150503113139 L   I
 OLDACT:DUP 15-05-03 23:19 OP:ak   STATUS:               ID:20150503112739d    3
 2015-05-03-1127-38M.COL___273                                                 6
 STAT SP IPHASW D HRMM SECON CODA AMPLIT PERI AZIMU VELO AIN AR TRES W  DIS CAZ7
 RUS  HZ EP       1131 58.43                             144    0.2710 73.8 108 
 RUS  HE ES       1132 12.38                             144   -0.2210 73.8 108 
 RUS  HZ I        1132 13.63         2.1 0.20            145           73.8 108 
 BAR2 EZ EP       1131 58.75                             142    0.5010 79.9  48 
 BAR2 EZ ES       1132 12.55                             142   -0.2010 79.9  48 
 BAR2 EZ I        1132 14.38        15.5 0.40            142           79.9  48 
 BRR  HZ EP       1131 59.99                             131   -0.5210  111   0 
 BRR  HN ES       1132 16.92                             131    0.1510  111   0 
 ZAR  HZ EP   2   1132  8.81                             114   -0.76 4  199 321 
 ZAR  HN ES       1132 33.09                             114    0.19 9  199 321 
                                                                                
