 2014  1 3 1934 57.6 L   6.782 -73.135144.8  RSN  8 0.5 1.7LRSN                1
 GAP=139        1.02       3.8     5.2  6.3 -0.2508E+01  0.7482E+01 -0.2308E+01E
 Epicentro: LOS SANTOS - SANTANDER                                             3
 ACTION:UPD 14-03-13 09:51 OP:ep   STATUS:               ID:20140103193457 L   I
 OLDACT:UP  14-01-03 20:47 OP:mher STATUS:               ID:20140103193000     3
 OLDACT:REG 14-01-03 17:50 OP:mh   STATUS:               ID:20140103193000     3
 2014-01-03-1930-00M.COL___285                                                 6
 STAT SP IPHASW D HRMM SECON CODA AMPLIT PERI AZIMU VELO AIN AR TRES W  DIS CAZ7
 BAR2 SZ EP   4   1935 15.63                             171   -1.48 0 21.6 194 
 BAR2 SZ ES       1935 32.42                             171    0.1210 21.6 194 
 BAR2 SZ I        1935 33.39        15.8 0.05            167           21.6 194 
 BRR  HZ EP       1935 19.08                             152    0.3010 73.2 299 
 BRR  HN ES       1935 35.57                             152    0.2910 73.2 299 
 PAM  SZ EP       1935 20.16                             150    0.3710 78.2  38 
 PAM  SE ES   1   1935 36.62                             150   -0.45 7 78.2  38 
 PAM  SZ I        1935 38.87         4.8 0.22            152           78.2  38 
 RUS  HZ EP   4   1935 21.54                             144    0.41 0 98.5 177 
 RUS  HN ES       1935 39.09                             144   -0.3810 98.5 177 
 RUS  HZ I        1935 41.56         3.2 0.28            141           98.5 177 
 PTB  HZ EP   1   1935 24.30                             132   -0.28 7  149 260 
 PTB  HN ES       1935 45.23                             132   -0.38 9  149 260 
 PTB  HZ I        1935 48.44         5.9 0.16            130            149 260 
 NOR  HZ EP   1   1935 32.46                             118   -0.81 6  234 235 
 NOR  HN ES       1936  1.38                             118    0.30 8  234 235 
 NOR  HZ I        1936  7.88         3.1 0.18            116            234 235 
 SML  HZ EP       1935 33.57                             117   -0.87 8  246 335 
 SML  HN ES       1936  3.51                             117    0.35 8  246 335 
 SML  HZ I        1936  5.35        15.6 0.06            117            246 335 
 CHI  HZ EP       1935 35.84                             117    0.75 8  247 196 
 CHI  HN ES   2   1936  4.27                             117   -0.05 4  247 196 
 CHI  HZ I        1936 14.45         1.9 0.40            115            247 196 
 SJC  HZ EP   4   1935 50.82                             105   -2.60 0  412 327 
 SJC  HN ES   4   1936 32.56                             105   -4.38 0  412 327 
                                                                                
