 2012  5 3 1739 23.1 L   6.771 -73.151149.3  RSN  6 0.3 1.6LRSN                1
 GAP=137        0.66       4.6     4.3  7.9  0.2881E+01 -0.6779E+00 -0.9714E+00E
 Epicentro: LOS SANTOS - SANTANDER                                             3
 ACTION:UP  12-07-05 12:01 OP:pat  STATUS:               ID:20120503173923 L   I
 2012-05-03-1736-39M.COL___164                                                 6
 STAT SP IPHASW D HRMM SECON CODA AMPLIT PERI AZIMU VELO SNR AR TRES W  DIS CAZ7
 BRR  HZ EP   1   1739 44.97                             153     0.3 7   72 301 
 BRR  HE ES   1   1740  1.76                             153     0.2 7   72 301 
 PAM  SZ EP   1   1739 45.78                             151    -0.1 7   80  38 
 RUS  HZ EP   1   1739 46.95                             145    -0.1 7   97 176 
 RUS  HN ES   1   1740  5.70                             145     0.1 7   97 176 
 RUS  HZ I        1740  7.14         5.7 0.24                            97 176 
 PTB  HZ EP   1   1739 49.91                             133    -0.4 7  147 260 
 PTB  HN ES   1   1740 10.84                             133    -0.6 7  147 260 
 PTB  HZ I        1740 13.46         4.1 0.14                           147 260 
 ZAR  HN ES   1   1740 21.59                             123     0.2 6  205 293 
 ZAR  HZ I        1740 28.11         4.2 0.17                           205 293 
 NOR  SZ EP   2   1739 59.20                             120     0.4 4  232 235 
 NOR  SN ES   1   1740 27.06                             120     0.4 6  232 235 
                                                                                
