 2016  3 3 1922 20.4 L   6.809 -73.189137.3  RSN 12 0.5 2.4LRSN                1
 GAP=131        1.07       3.4     4.5  6.7 -0.4383E+01  0.1580E+02 -0.4631E+01E
 Epicentro: ZAPATOCA - SANTANDER                                               3
 ACTION:UPD 16-05-13 21:21 OP:cam  STATUS:               ID:20160303192220 L   I
 OLDACT:UP  16-03-04 02:17 OP:ar   STATUS:               ID:20160303191748     3
 OLDACT:REG 16-03-03 23:46 OP:ar   STATUS:               ID:20160303191748     3
 2016-03-03-1917-48M.COL___325                                                 6
 STAT SP IPHASW D HRMM SECON CODA AMPLIT PERI AZIMU VELO AIN AR TRES W  DIS CAZ7
 BAR2 EZ EP       1922 38.83                             170   -0.1710 24.0 178 
 BAR2 EZ ES       1922 53.23                             170   -0.3010 24.0 178 
 BAR2 EZ I        1922 54.72        48.7 0.16            172           24.0 178 
 PAM  EZ EP       1922 41.67                             148   -0.1810 79.8  43 
 PAM  EN ES       1922 58.74                             148    0.1310 79.8  43 
 PAM  EZ I        1923  1.01        37.1 0.66            151           79.8  43 
 RUS  HZ EP       1922 43.43                             142    0.0210  102 173 
 RUS  HN ES       1923  1.41                             142    0.0310  102 173 
 RUS  HZ I        1923  2.31        19.2 0.34            149            102 173 
 PTB  HZ EP       1922 45.52                             131   -0.72 9  143 258 
 PTB  HN ES       1923  6.75                             131    0.33 9  143 258 
 PTB  HZ I        1923  8.75        45.4 0.12            131            143 258 
 OCA  HZ EP       1922 48.30                             128    0.40 9  159 355 
 OCA  HN ES       1923  9.63                             128    0.26 9  159 355 
 OCA  HZ I        1923 16.54        47.7 0.44            129            159 355 
 SPBC HZ EP       1922 47.81                             127   -0.21 9  161 217 
 SPBC HN ES       1923  9.91                             127    0.32 9  161 217 
 SPBC HZ I        1923 15.53        21.8 0.22            130            161 217 
 ZAR  HZ EP       1922 52.00                             121    0.23 9  199 292 
 ZAR  HN ES   4   1923 17.88                             121    1.61 0  199 292 
 ZAR  HZ I        1923 23.26        33.9 0.56            121            199 292 
 NOR  HZ EP       1922 54.34                             117   -0.92 8  231 234 
 NOR  HN ES       1923 22.62                             117    0.15 8  231 234 
 NOR  HZ I        1923 24.91        16.9 0.36            119            231 234 
 URE  HZ EP   4   1923  2.14                             112    1.64 0  279 292 
 URE  HN ES   4   1923 29.74                             112   -2.05 0  279 292 
 URE  HZ I        1923 39.21        14.5 0.26            113            279 292 
 GUY2CHZ EP       1923  4.54                             111    1.32 7  298 234 
 GUY2CHE ES   4   1923 40.56                             111    3.92 0  298 234 
 GUY2CHZ I        1923 45.33        11.5 0.48                           298 234 
 DBB  SZ EP       1923  7.30                             108    0.35 7  335 274 
 DBB  SZ ES       1923 43.33                             108    0.05 7  335 274 
 MON  HZ EP   4   1923  6.40                             107   -2.15 0  349 309 
 MON  HN ES       1923 45.30                             107   -0.82 6  349 309 
 MON  HZ I        1924  0.53         5.8 0.44            109            349 309 
                                                                                
