 2016  9 3 1010  3.5 L   6.803 -73.121148.4  RSN 20 0.5 2.2LRSN                1
 GAP=121        1.08       3.0     3.5  4.9 -0.3224E+01  0.3841E+01  0.9793E+00E
 Epicentro: LOS SANTOS - SANTANDER                                             3
 ACTION:UPD 17-08-17 21:06 OP:lp   STATUS:               ID:20160903101003 L   I
 OLDACT:UP  16-09-03 22:07 OP:edw  STATUS:               ID:20160903100735     3
 OLDACT:REG 16-09-03 19:34 OP:edw  STATUS:               ID:20160903100735     3
 2016-09-03-1008-00M.COL___355                                                 6
 STAT SP IPHASW D HRMM SECON CODA AMPLIT PERI AZIMU VELO AIN AR TRES W  DIS CAZ7
 BAR2 EZ IP     D 1010 23.37                             170   -0.1010 24.3 196 
 BAR2 EZ ES       1010 39.30                             170    0.2610 24.3 196 
 BAR2 EZ I        1010 40.34        23.2 0.14            169           24.3 196 
 BRR  HZ EP     D 1010 25.19                             152    0.1310 73.4 297 
 BRR  HN ES       1010 42.70                             152    0.8310 73.4 297 
 BRR  HZ I        1010 44.79        18.6 0.14            151           73.4 297 
 PAM  EZ EP       1010 26.25                             152    0.3710 75.4  38 
 PAM  EN ES       1010 43.69                             152    0.3510 75.4  38 
 PAM  EZ I        1010 45.98        30.7 0.57            155           75.4  38 
 RUS  HZ EP       1010 27.44                             144   -0.0910  101 178 
 RUS  HN ES       1010 46.18                             144   -0.0810  101 178 
 RUS  HZ I        1010 47.55        26.2 0.44            145            101 178 
 PTB  HZ EP       1010 30.04                             132   -0.89 9  150 259 
 PTB  HN ES       1010 51.36                             132   -0.96 9  150 259 
 PTB  HZ I        1010 54.66        18.3 0.15            132            150 259 
 OCA  HZ EP       1010 32.26                             130    0.24 9  160 352 
 OCA  HN ES       1010 53.74                             130   -0.52 9  160 352 
 OCA  HZ I        1010 59.33        35.2 0.40            132            160 352 
 SPBC HZ EP       1010 32.28                             129   -0.11 9  165 220 
 SPBC HN ES       1010 54.71                             129   -0.21 9  165 220 
 SPBC HZ I        1010 59.87        31.9 0.16            130            165 220 
 ZAR  HZ EP       1010 36.13                             123   -0.23 8  206 292 
 ZAR  HN ES       1011  1.42                             123   -0.57 8  206 292 
 ZAR  HZ I        1011  8.00        19.9 0.24            123            206 292 
 NOR  HZ EP       1010 39.53                             119   -0.11 8  237 235 
 NOR  HN ES       1011  7.51                             119   -0.31 8  237 235 
 NOR  HZ I        1011 12.75        15.6 0.28            119            237 235 
 CHI  HZ EP       1010 41.56                             118    0.10 8  250 196 
 CHI  HN ES       1011 10.50                             118   -0.57 8  250 196 
 CHI  HZ I        1011 18.84         8.0 0.56            119            250 196 
 HEL  HZ EP       1010 45.18                             115    1.03 8  275 256 
 HEL  HN ES       1011 16.03                             115    0.18 8  275 256 
 HEL  HZ I        1011 22.27        10.1 0.54            116            275 256 
 URE  HZ EP   4   1010 43.81                             114   -1.15 0  286 292 
 URE  HN ES   4   1011 14.65                             114   -2.65 0  286 292 
 URE  HZ I        1011 18.22         8.4 0.14            115            286 292 
 SOCV BZ EP       1010 45.93                             113   -0.47 7  299  57 
 SOCV BN ES   4   1011 17.50                             113   -2.36 0  299  57 
 GUY2CHZ EP       1010 47.76                             113    0.26 7  304 235 
 GUY2CHN ES       1011 22.21                             113    0.39 7  304 235 
 GUY2CHZ I        1011 30.16         9.2 0.26                           304 235 
 PTGC HZ EP   4   1010 46.21                             112   -1.19 0  308 159 
 PTGC HN ES   4   1011 19.38                             112   -2.27 0  308 159 
 ELA  HZ EP   2   1010 52.03                             111    1.31 3  331 230 
 ELA  HE ES   2   1011 27.97                             111    0.42 3  331 230 
 ELA  HZ I        1011 35.91         8.8 0.28            111            331 230 
 CBOC HZ EP       1010 51.78                             110    0.95 7  336 252 
 CBOC HN ES       1011 27.50                             110   -0.25 7  336 252 
 CBOC HZ I        1011 29.04         3.1 0.32            111            336 252 
 ANIL HZ EP   2   1010 53.63                             109   -0.02 3  359 225 
 ANIL HN ES   2   1011 32.93                             109    0.16 3  359 225 
 ANIL HZ I        1011 37.25        17.5 0.26            110            359 225 
 PAL  HZ EP       1010 59.06                             106    0.02 6  408 239 
 PAL  HN ES       1011 43.33                             106    0.97 6  408 239 
 PAL  HZ I        1011 46.85         3.6 0.24            107            408 239 
 SJC  HZ EP   4   1010 57.70                             106   -1.59 0  410 327 
 SJC  HN ES   4   1011 37.72                             106   -5.08 0  410 327 
 SJC  HZ I        1011 43.47         3.0 0.38            107            410 327 
 CRJC HZ EP       1011  5.75                             104   -0.27 5  467   3 
 CRJC HN ES   4   1011 53.13                             104   -1.65 0  467   3 
 CRJC HZ I        1011 56.93         4.5 0.14            105            467   3 
                                                                                
