 2010  9 3 1252 23.0 L   6.776 -73.113148.0  RSN 10 0.4 2.1LRSN                1
 GAP=163        0.84       3.8     6.8  6.2 -0.8269E+01  0.5680E+01  0.7553E+00E
 Epicentro: LOS SANTOS - SANTANDER                                             3
 ACTION:UP  11-02-18 10:59 OP:tino STATUS:               ID:20100903125223 L   I
 2010-09-03-1250-02S.COL___120                                                 6
 STAT SP IPHASW D HRMM SECON CODA AMPLIT PERI AZIMU VELO SNR AR TRES W  DIS CAZ7
 BAR2 SZ IP       1252 42.63                             171    -0.310   22 201 
 BAR2 SZ I        1252 43.01        26.3 0.33                            22 201 
 BAR2 SZ ES   1   1252 58.62                             171     0.2 7   22 201 
 BRR  HZ IP     C 1252 44.58                             152    -0.110   76 299 
 BRR  HE ES   1   1253  1.72                             152     0.2 7   76 299 
 BRR  HZ I        1253  3.78        29.6 0.11                            76 299 
 RUS  HZ EP   1   1252 46.54                             145    -0.3 7   98 178 
 RUS  HN ES   1   1253  5.47                             145     0.1 7   98 178 
 RUS  HZ I        1253  6.58         9.0 0.18                            98 178 
 GUE  SZ EP       1252 47.71                             140    -0.410  118  10 
 GRA  SZ EP   1   1252 49.30                             137     0.7 7  127  16 
 GRA  SZ ES   1   1253  9.16                             137     0.6 7  127  16 
 GRA  SZ I        1253 10.19        20.2 0.33                           127  16 
 OCA  SZ EP   1   1252 51.53                             130    -0.3 7  163 352 
 OCA  SZ ES   2   1253 13.50                             130    -0.8 5  163 352 
 OCA  SZ I        1253 20.97        13.7 0.44                           163 352 
 CHI  HZ EP   1   1253  0.71                             118     0.0 6  247 196 
 CHI  HZ I        1253 38.83         6.0 0.62                           247 196 
 HEL  HZ EP   2   1253  4.26                             115     0.6 4  275 257 
 HEL  HN ES   2   1253 35.65                             115     0.3 4  275 257 
 HEL  HZ I        1253 43.19         6.1 0.22                           275 257 
 RREF HZ EP   1   1253  9.79                             111     0.4 5  323 230 
 RREF HN ES   2   1253 44.86                             111    -0.7 3  323 230 
 RREF HZ I        1253 54.23        10.5 0.33                           323 230 
 PRA  HZ EP   1   1253 16.84                             107     0.3 4  391 210 
 PRA  HN ES   2   1253 58.61                             107     0.3 3  391 210 
 PRA  HZ I        1254  4.48         9.7 0.43                           391 210 
                                                                                
