 2013 11 3 1049 41.4 L   6.772 -73.141147.3  RSN 13 0.5 2.5LRSN 2.8WRSN        1
 SPEC AVERAGE  MO 13.3 ST 32.6 OM  1.8 f0 9.00 R0.2912 AL 0.00 WI 20.0 MW  2.8 3
 SPEC SD       MO  0.4 ST 48.1 OM  0.5 f0 5.83 R0.4537 AL      WI      MW  0.3 3
 GAP=182        1.17       3.3     5.4  6.5 -0.1818E+01  0.3757E+01 -0.5746E+01E
 Epicentro: LOS SANTOS - SANTANDER                                             3
 SPEC BAR2SH Z MO 13.7 ST  3.1 OM  2.1 f0 3.84 R0.4047 AL-0.00 WI 20.0 MW  3.1 3
 SPEC BAR2SH Z T105014 K 0.000 GD  148 VS 4.20 DE 3.20 Q0300.0 QA 0.60 VS 4.20 3
 SPEC BRR HH Z MO 13.5 ST  5.5 OM  1.9 f0 5.26 R0.2954 AL-0.00 WI 20.0 MW  3.0 3
 SPEC BRR HH Z T105019 K 0.000 GD  164 VS 4.20 DE 3.20 Q0300.0 QA 0.60 VS 4.20 3
 SPEC RUS HH Z MO 13.0 ST0.743 OM  1.4 f0 3.86 R0.4026 AL-0.00 WI 20.0 MW  2.6 3
 SPEC RUS HH Z T105021 K 0.000 GD  176 VS 4.20 DE 3.20 Q0300.0 QA 0.60 VS 4.20 3
 SPEC PTB HH Z MO 13.2 ST 80.2 OM  1.5 f0 16.1 R0.0965 AL-0.00 WI 20.0 MW  2.8 3
 SPEC PTB HH Z T105027 K 0.000 GD  208 VS 4.20 DE 3.20 Q0300.0 QA 0.60 VS 4.20 3
 SPEC SPBCHH Z MO 13.3 ST 12.6 OM  1.6 f0 7.92 R0.1962 AL-0.00 WI 20.0 MW  2.8 3
 SPEC SPBCHH Z T105030 K 0.000 GD  218 VS 4.20 DE 3.20 Q0300.0 QA 0.60 VS 4.20 3
 SPEC OCA HH Z MO 13.6 ST  3.1 OM  1.9 f0 3.95 R0.3934 AL-0.00 WI 20.0 MW  3.0 3
 SPEC OCA HH Z T105030 K 0.000 GD  219 VS 4.20 DE 3.20 Q0300.0 QA 0.60 VS 4.20 3
 SPEC ZAR HH Z MO 13.3 ST 30.2 OM  1.5 f0 10.9 R0.1426 AL-0.00 WI 20.0 MW  2.8 3
 SPEC ZAR HH Z T105038 K 0.000 GD  253 VS 4.20 DE 3.20 Q0300.0 QA 0.60 VS 4.20 3
 SPEC NOR HH Z MO 13.4 ST  7.4 OM  1.6 f0 6.13 R0.2535 AL-0.00 WI 20.0 MW  2.9 3
 SPEC NOR HH Z T105043 K 0.000 GD  275 VS 4.20 DE 3.20 Q0300.0 QA 0.60 VS 4.20 3
 SPEC SML HH Z MO 13.3 ST168.2 OM  1.4 f0 20.0 R0.0777 AL-0.00 WI 20.0 MW  2.8 3
 SPEC SML HH Z T105045 K 0.000 GD  287 VS 4.20 DE 3.20 Q0300.0 QA 0.60 VS 4.20 3
 SPEC ROSCBH Z MO 13.8 ST0.245 OM  1.9 f0 1.54 R1.0091 AL-0.00 WI 20.0 MW  3.1 3
 SPEC ROSCBH Z T105049 K 0.000 GD  290 VS 4.20 DE 3.20 Q0300.0 QA 0.60 VS 4.20 3
 SPECGUY2CHH Z MO 13.8 ST  0.5 OM  1.9 f0 1.96 R 0.794 AL-0.00 WI 20.0 MW  3.1 3
 SPECGUY2CHH Z T105055 K       GD334.2 VS 4.20 DE 3.20 Q0300.0 QA 0.60 VS 4.20 3
 SPEC COD HH Z MO 12.7 ST 10.1 OM  0.7 f0 12.2 R0.1274 AL-0.00 WI 20.0 MW  2.4 3
 SPEC COD HH Z T1051 6 K 0.000 GD  380 VS 4.20 DE 3.20 Q0300.0 QA 0.60 VS 4.20 3
 SPEC SJC HH Z MO 13.1 ST 69.4 OM  1.1 f0 16.3 R0.0953 AL-0.00 WI 20.0 MW  2.7 3
 SPEC SJC HH Z T105115 K 0.000 GD  437 VS 4.20 DE 3.20 Q0300.0 QA 0.60 VS 4.20 3
 OLDACT:REG 13-11-03 16:25 OP:carl STATUS:               ID:20131103104837     3
 ACTION:UPD 14-01-09 16:25 OP:ep   STATUS:               ID:20131103104941 L   I
 OLDACT:UP  13-11-03 16:59 OP:carl STATUS:               ID:20131103104837     3
 2013-11-03-1048-37M.COL___195                                                 6
 STAT SP IPHASW D HRMM SECON CODA AMPLIT PERI AZIMU VELO AIN AR TRES W  DIS CAZ7
 BAR2 SZ IP       1050  1.40                             172    0.2510 20.4 193 
 BAR2 SZ ES       1050 16.39                             172   -0.1810 20.4 193 
 BAR2 SZ I        1050 18.65       130.2 0.24            169           20.4 193 
 BRR  HZ EP       1050  3.43                             152    0.6110 73.2 300 
 BRR  HN ES       1050 20.61                             152    1.0810 73.2 300 
 BRR  HZ I        1050 25.36        40.4 0.12            148           73.2 300 
 BRR  SZ I        1050 25.96        38.3 0.14                          73.2 300 
 RUS  HZ IP     D 1050  5.13                             145    0.0610 97.5 176 
 RUS  HN ES       1050 23.12                             145   -0.4310 97.5 176 
 RUS  SZ I        1050 24.66        32.3 0.26            147           97.5 176 
 PTB  HZ EP       1050  8.04                             132   -0.44 9  148 260 
 PTB  HN ES       1050 28.50                             132   -1.10 9  148 260 
 PTB  SZ I        1050 34.08        43.0 0.16            130            148 260 
 SPBC HZ EP       1050 10.12                             130    0.31 9  161 220 
 SPBC HE ES       1050 31.85                             130   -0.13 9  161 220 
 SPBC HZ I        1050 37.82        41.7 0.18            129            161 220 
 SPBC SZ I        1050 38.22        41.8 0.46                           161 220 
 OCA  HZ EP       1050 10.10                             129   -0.01 9  163 353 
 OCA  HN ES       1050 32.19                             129   -0.33 9  163 353 
 OCA  SZ I        1050 36.67        45.6 0.28            129            163 353 
 ZAR  HZ EP       1050 14.56                             122    0.46 8  206 293 
 ZAR  HN ES       1050 39.80                             122    0.18 8  206 293 
 ZAR  HZ I        1050 42.02        27.1 0.18            121            206 293 
 ZAR  SZ I        1050 42.19        27.8 0.12                           206 293 
 NOR  HZ EP       1050 17.16                             119    0.10 8  233 235 
 NOR  HN ES       1050 44.98                             119    0.09 8  233 235 
 NOR  SZ I        1050 50.20        37.1 0.32            118            233 235 
 SML  HZ EP       1050 18.11                             117   -0.32 8  247 335 
 SML  HN ES       1050 47.20                             117   -0.12 8  247 335 
 SML  SZ I        1050 53.98        61.2 0.08            117            247 335 
 SML  HZ I        1050 53.99        60.2 0.10                           247 335 
 ROSC BZ EP   4   1050 21.43                             117    2.10 0  250 211 
 ROSC BN ES   4   1050 51.41                             117    2.48 0  250 211 
 ROSC SZ I        1050 58.64        26.3 0.35            117            250 211 
 GUY2CHZ EP   4   1050 26.27                             113    1.36 0  300 235 
 GUY2CHN ES   4   1050 57.13                             113   -1.74 0  300 235 
 GUY2CSZ I        1051  7.34        22.1 0.56                           300 235 
 COD  HZ EP       1050 30.22                             109    0.03 6  351 355 
 COD  HN ES       1051  7.65                             109   -0.60 6  351 355 
 COD  HZ I        1051 13.07         5.1 0.40            109            351 355 
 COD  SZ I        1051 37.87         6.5 0.90                           351 355 
 SJC  HZ EP   4   1050 36.34                             106   -1.00 0  412 327 
 SJC  HN ES   4   1051 17.43                             106   -3.55 0  412 327 
 SJC  SZ I        1051 41.47         8.6 1.88            106            412 327 
                                                                                
