 2011  3 3 1050 40.6 L   6.804 -73.150150.3  RSN 11 0.4 2.4LRSN                1
 GAP=126        0.68       3.1     5.9  5.6 -0.8705E+01  0.1045E+02 -0.8184E-01E
 Epicentro: LOS SANTOS - SANTANDER                                             3
 ACTION:UP  11-06-16 14:31 OP:jfem STATUS:               ID:20110303105040 L   I
 2011-03-03-1048-36S.COL___135                                                 6
 STAT SP IPHASW D HRMM SECON CODA AMPLIT PERI AZIMU VELO SNR AR TRES W  DIS CAZ7
 BAR2 SZ EP       1051  0.69                             171    -0.110   24 189 
 BAR2 SZ ES   1   1051 16.78                             171     0.3 7   24 189 
 BAR2 SZ I        1051 18.79        51.4 0.21                            24 189 
 RUS  HZ EP   1   1051  4.61                             145    -0.2 7  101 176 
 RUS  HN ES   2   1051 23.46                             145    -0.3 5  101 176 
 RUS  HZ I        1051 26.07        23.2 0.37                           101 176 
 GRA  SZ EP       1051  6.62                             138     0.410  126  18 
 GRA  SZ ES   1   1051 26.07                             138    -0.2 7  126  18 
 GRA  SZ I        1051 28.90        29.9 0.23                           126  18 
 OCA  SZ EP       1051  9.23                             131     0.0 9  160 353 
 OCA  SZ ES   1   1051 31.55                             131     0.0 7  160 353 
 OCA  SZ I        1051 35.96        49.9 0.42                           160 353 
 CHI  HZ EP   1   1051 18.86                             118     0.3 6  249 195 
 CHI  HN ES   3   1051 47.32                             118    -0.9 2  249 195 
 CHI  HZ I        1051 56.46        13.2 0.56                           249 195 
 HEL  HZ EP   3   1051 21.90                             116     0.9 2  272 256 
 HEL  HE ES   2   1051 51.87                             116    -0.7 4  272 256 
 HEL  HZ I        1051 59.09        13.6 0.28                           272 256 
 RREF HZ EP   1   1051 27.02                             112     0.1 5  322 229 
 RREF HE ES   2   1052  2.38                             112    -0.7 3  322 229 
 RREF HZ I        1052 11.77        16.2 0.29                           322 229 
 DBB  SZ EP   1   1051 28.24                             110     0.0 5  339 274 
 TOL  SZ EP   1   1051 28.66                             110    -0.4 5  343 225 
 SDV  BZ EP   1   1051 29.94                             109    -0.9 5  360  50 
 SDV  BZ I        1052  9.62         5.5 0.60                           360  50 
 PRA  HZ EP   1   1051 34.90                             107     0.6 4  392 209 
 PRA  HE ES   1   1052 16.78                             107     0.6 4  392 209 
                                                                                
