 2010  4 3 1102 32.2 L   6.806 -73.112146.0  RSN  9 0.4 2.7LRSN                1
 GAP=204        0.71       4.1     6.6  7.2 -0.6690E+01  0.1268E+02  0.6017E+01E
 Epicentro: LOS SANTOS - SANTANDER                                             3
 ACTION:UPD 10-08-24 09:57 OP:vdl  STATUS:               ID:20100403110232 L   I
 2010-04-03-1058-54S.COL___098                                                 6
 STAT SP IPHASW D HRMM SECON CODA AMPLIT PERI AZIMU VELO AIN AR TRES W  DIS CAZ7
 BAR2 SZ IP       11 2 51.72                             170    -0.210   25 199 
 BAR2 SZ ES   2   11 3  7.35                             170     0.1 5   25 199 
 BRR  HZ IP       11 2 53.85                             151     0.310   74 297 
 BRR  HZ I        11 2 54.29       165.4 0.10                            74 297 
 BRR  HE ES   2   11 3 10.71                             151     0.5 5   74 297 
 OCA  SZ EP       11 3  0.40                             130    -0.1 9  160 352 
 OCA  SZ ES   2   11 3 21.90                             130    -0.7 5  160 352 
 OCA  SZ I        11 3 24.35        92.6 0.18                           160 352 
 CHI  HZ EP   1   11 3 10.51                             117     0.4 6  250 196 
 CHI  HE ES   2   11 3 38.99                             117    -0.7 4  250 196 
 CHI  HZ I        11 3 42.46        12.9 0.22                           250 196 
 HEL  HZ EP   1   11 3 13.75                             114     0.9 6  276 256 
 HEL  HN ES   2   11 3 44.05                             114    -0.5 4  276 256 
 HEL  HZ I        11 3 50.82        27.6 0.53                           276 256 
 RREF BZ EP   1   11 3 18.90                             110     0.1 5  325 230 
 RREF BN ES   2   11 3 55.20                             110     0.2 3  325 230 
 RREF BZ I        11 3 59.91        22.6 0.62                           325 230 
 DBB  SZ EP   1   11 3 20.18                             109     0.0 5  343 274 
 DBB  SZ ES   2   11 3 56.43                             109    -1.1 3  343 274 
 TOL  SZ EP   1   11 3 20.83                             109     0.0 5  347 225 
 TOL  SZ ES   2   11 3 58.62                             109    -0.2 3  347 225 
 PRA  HZ EP   1   11 3 25.96                             106    -0.1 4  394 210 
 PRA  HE ES   2   11 4  7.35                             106    -0.7 3  394 210 
 PRA  HZ I        11 4 13.62        14.9 0.33                           394 210 
                                                                                
