 2015  5 3 1359 37.5 L   6.816 -73.140147.4  RSN 14 0.4 2.2LRSN                1
 GAP=119        0.92       2.5     3.6  4.8 -0.1282E+01  0.4375E+01  0.2316E+01E
 Epicentro: LOS SANTOS - SANTANDER                                             3
 ACTION:UPD 15-09-10 22:01 OP:cam  STATUS:               ID:20150503135937 L   I
 OLDACT:REG 15-05-03 20:38 OP:ak   STATUS:               ID:20150503135750     3
 2015-05-03-1357-50M.COL___270                                                 6
 STAT SP IPHASW D HRMM SECON CODA AMPLIT PERI AZIMU VELO AIN AR TRES W  DIS CAZ7
 BAR2 EZ IP     C 1359 57.59                             170    0.2510 25.2 191 
 BAR2 EZ ES       14 0 12.64                             170   -0.1910 25.2 191 
 BAR2 EZ I        14 0 13.87        38.7 0.29            169           25.2 191 
 BRR  HZ EP     C 1359 59.34                             153    0.5510 70.9 297 
 BRR  HE ES       14 0 15.19                             153   -0.2110 70.9 297 
 BRR  HZ I        14 0 17.74        24.4 0.16            148           70.9 297 
 PAM  SZ IP     C 14 0  0.35                             152    0.5910 75.6  40 
 PAM  SN ES       14 0 17.34                             152    0.2010 75.6  40 
 PAM  SZ I        14 0 19.68        36.0 0.52            154           75.6  40 
 RUS  HZ EP   1   14 0  1.69                             144    0.18 7  102 176 
 RUS  HN ES   1   14 0 19.87                             144   -0.39 7  102 176 
 RUS  HZ I        14 0 21.28        11.8 0.28            146            102 176 
 OCA  HZ EP       14 0  5.52                             130   -0.24 9  159 353 
 OCA  HN ES       14 0 27.25                             130   -0.56 9  159 353 
 OCA  HZ I        14 0 36.11        29.4 0.18            130            159 353 
 ZAR  HZ EP   1   14 0 10.30                             123    0.28 6  204 292 
 ZAR  HE ES       14 0 35.66                             123    0.26 9  204 292 
 ZAR  HZ I        14 0 40.71        16.9 0.26            121            204 292 
 NOR  HZ EP       14 0 13.78                             119    0.31 8  236 234 
 NOR  HE ES       14 0 41.49                             119   -0.04 8  236 234 
 NOR  HZ I        14 0 47.03         9.3 0.18            118            236 234 
 SML  HZ EP       14 0 13.64                             118   -0.41 8  242 335 
 SML  HN ES   1   14 0 42.35                             118   -0.22 6  242 335 
 SML  HZ I        14 0 46.03        18.2 0.12            117            242 335 
 CHI  HZ EP       14 0 15.77                             117    0.30 8  251 195 
 CHI  HN ES       14 0 44.88                             117   -0.22 8  251 195 
 CHI  HZ I        14 0 48.56        12.6 0.52            118            251 195 
 ROSC BZ EP       14 0 15.30                             117   -0.59 8  255 211 
 ROSC BN ES       14 0 45.69                             117   -0.15 8  255 211 
 ROSC BZ I        14 0 51.88        21.7 0.40            117            255 211 
 HEL  HZ EP   1   14 0 17.06                             115   -0.83 6  273 255 
 HEL  HN ES   1   14 0 48.87                             115   -0.54 6  273 255 
 HEL  HZ I        14 0 55.99         7.7 0.34            114            273 255 
 GUY2CHZ EP       14 0 21.86                             112    0.53 7  303 235 
 GUY2CHN ES       14 0 56.27                             112    0.73 7  303 235 
 GUY2CHZ I        14 1  3.80         7.1 0.32                           303 235 
 PTGC HZ EP       14 0 20.88                             112   -0.69 7  310 159 
 PTGC HN ES   4   14 0 54.61                             112   -1.35 0  310 159 
 MON  HZ EP   4   14 0 24.39                             109   -2.08 0  353 308 
 MON  HN ES   4   14 1  3.07                             109   -1.62 0  353 308 
 MON  HZ I        14 1 18.44         4.0 0.58            109            353 308 
 CRJC HZ EP   4   14 0 38.09                             104   -1.72 0  466   3 
 CRJC HN ES   4   14 1 26.56                             104   -1.87 0  466   3 
                                                                                
