 2017 10 3 1520 10.0 L   6.775 -73.128141.0  RSN  9 0.5 1.9LRSN                1
 GAP=114        1.27       4.4     5.1  7.9  0.1118E+01  0.1760E+02  0.8416E+01E
 Epicentro: LOS SANTOS - SANTANDER                                             3
 ACTION:UPD 17-11-07 19:28 OP:rebc STATUS:               ID:20171003152010 L   I
 OLDACT:DUP 17-10-04 00:25 OP:osc  STATUS:               ID:20171003151741d    3
 OLDACT:REG 17-10-03 21:25 OP:osc  STATUS:               ID:20171003151740     3
 2017-10-03-1518-00M.COL___443                                                 6
 STAT SP IPHASW D HRMM SECON CODA AMPLIT PERI AZIMU VELO AIN AR TRES W  DIS CAZ7
 BAR2 EZ EP       1520 28.77                             171   -0.2810 21.1 197 
 BAR2 EZ ES       1520 43.53                             171   -0.3510 21.1 197 
 BAR2 EZ I        1520 44.64        21.0 0.22            169           21.1 197 
 PAM  EZ EP       1520 31.68                             150   -0.1310 78.3  37 
 PAM  EE ES       1520 48.65                             150   -0.1410 78.3  37 
 PAM  EZ I        1520 50.69        28.0 0.48            153           78.3  37 
 RUS  HZ EP       1520 32.78                             144   -0.3410 97.7 177 
 RUS  HE ES       1520 51.33                             144    0.2110 97.7 177 
 RUS  HZ I        1520 52.32        14.4 0.32            144           97.7 177 
 YPLC HZ EP       1520 39.13                             126   -0.03 9  173 151 
 YPLC HE ES       1521  3.32                             126    1.45 9  173 151 
 ZAR  HZ EP       1520 43.23                             121    0.75 8  207 293 
 ZAR  HE ES       1521  8.32                             121    0.54 8  207 293 
 ZAR  HZ I        1521 13.73         6.8 0.07            121            207 293 
 NOR  HZ EP       1520 45.19                             117   -0.31 8  235 235 
 NOR  HE ES       1521 12.79                             117   -0.37 8  235 235 
 NOR  HZ I        1521 20.11         6.5 0.20            118            235 235 
 CHI  HZ EP       1520 46.30                             116   -0.95 8  247 196 
 CHI  HE ES       1521 15.55                             116   -0.72 8  247 196 
 CHI  HZ I        1521 19.65         3.7 0.29            117            247 196 
 GUY2CHZ EP       1520 53.59                             111    0.15 7  301 235 
 GUY2CHE ES       1521 27.88                             111    0.59 7  301 235 
 GUY2CHZ I        1521 35.96         3.0 0.33                           301 235 
 PRA  HZ EP       1521  3.19                             106   -0.05 6  391 210 
 PRA  HE ES       1521 45.00                             106    0.27 6  391 210 
 PRA  HZ I        1521 53.28         3.1 0.40            106            391 210 
                                                                                
