 2011  8 3 1255 26.2 L   6.489 -73.688107.6  RSN  6 0.3 1.7LRSN                1
 GAP= 97        0.69       3.9     3.4  8.5 -0.1873E+01  0.1135E+02  0.9413E+01E
 Epicentro: SANTA HELENA DEL OPON - SANTANDER                                  3
 ACTION:UPD 12-07-25 14:05 OP:epov STATUS:               ID:20110803125526 L   I
 2011-08-03-1252-43S.COL___122                                                 6
 STAT SP IPHASW D HRMM SECON CODA AMPLIT PERI AZIMU VELO AIN AR TRES W  DIS CAZ7
 BAR2 SZ EP   1   1255 43.38                             150    0.60 7 57.1  78 
 BAR2 SZ ES   1   1255 55.85                             150    0.14 7 57.1  78 
 BAR2 SZ I        1255 57.49        34.7 0.31                          57.1  78 
 BRR  HZ EP   1   1255 43.40                             145    0.22 7 68.4 358 
 BRR  HN ES   1   1255 56.08                             145   -0.34 7 68.4 358 
 BRR  HZ I        1255 56.64        14.4 0.15                          68.4 358 
 RUS  HZ EP       1255 45.64                             136   -0.2210 94.0 135 
 RUS  HE ES   1   1256  1.00                             136   -0.20 7 94.0 135 
 RUS  HZ I        1256  4.06         5.8 0.33                          94.0 135 
 PAM  SN ES   1   1256  9.66                             123    0.01 7  144  49 
 NOR  SZ EP   1   1255 51.98                             118   -0.37 7  166 232 
 NOR  SN ES   1   1256 13.33                             118    0.58 7  166 232 
 HEL  HN ES   1   1256 21.11                             112   -0.27 6  206 261 
                                                                                
