 2011 12 3 1057  8.1 L   6.772 -73.101137.2  RSN 13 0.3 2.3LRSN                1
 GAP=144        0.62       2.2     3.6  3.6 -0.2347E+01  0.2796E+01  0.2090E+01E
 Epicentro: LOS SANTOS - SANTANDER                                             3
 ACTION:UPD 12-07-13 16:13 OP:ep   STATUS:               ID:20111203105708 L   I
 2011-12-03-1050-00M.COL___182                                                 6
 STAT SP IPHASW D HRMM SECON CODA AMPLIT PERI AZIMU VELO AIN AR TRES W  DIS CAZ7
 BAR2 SZ EP       1057 26.65                             170   -0.0410 21.8 204 
 BAR2 SZ ES       1057 41.60                             170    0.4210 21.8 204 
 BAR2 SZ I        1057 45.08        44.5 0.57                          21.8 204 
 GIR2 SZ EP   1   1057 26.66                             165   -0.24 7 35.4 343 
 PAM  SZ EP       1057 29.38                             149   -0.0210 76.8  35 
 PAM  SE ES       1057 45.94                             149   -0.0510 76.8  35 
 BRR  HZ EP       1057 28.34                             149   -0.3610 76.9 299 
 BRR  HN ES       1057 44.56                             149   -0.1910 76.9 299 
 BRR  HZ I        1057 49.39        49.8 0.20                          76.9 299 
 RUS  HZ EP       1057 30.86                             143    0.0710 97.3 179 
 RUS  HN ES   1   1057 47.97                             143   -0.51 7 97.3 179 
 RUS  HZ I        1057 51.35        24.8 0.30                          97.3 179 
 OCA  SZ EP       1057 36.35                             127    0.22 9  164 352 
 OCA  SZ ES   1   1057 58.16                             127    0.17 7  164 352 
 OCA  SZ I        1058  3.11        28.1 0.33                           164 352 
 CTAU SZ EP       1057 40.64                             121    0.12 9  203 211 
 NOR  SZ EP   2   1057 43.60                             116   -0.01 4  237 236 
 NOR  SN ES   1   1058 11.73                             116    0.43 6  237 236 
 CHI  HZ EP       1057 45.18                             115    0.00 8  247 196 
 CHI  HN ES   1   1058 14.47                             115    0.38 6  247 196 
 CHI  HZ I        1058 21.28        11.8 0.22                           247 196 
 CVER SZ EP   1   1057 48.37                             113    0.42 6  271 203 
 HEL  HZ EP   1   1057 48.88                             113    0.52 6  276 257 
 HEL  HZ I        1058 25.61        16.0 0.35                           276 257 
 RREF HZ EP   1   1057 53.31                             109   -0.80 5  324 230 
 RREF HE ES   1   1058 29.57                             109   -0.41 5  324 230 
 RREF HZ I        1058 40.06        12.6 0.42                           324 230 
 PRA  HZ EP   1   1058  1.25                             105   -0.08 4  392 210 
 PRA  HE ES   1   1058 42.75                             105   -0.09 4  392 210 
                                                                                
