 2016  2 3 1045 14.6 L   6.669 -74.026 18.6  RSN  8 0.4 1.6LRSN                1
 GAP=108        1.10       3.3     1.9  3.6 -0.8068E+00  0.3456E+00 -0.3303E+00E
 Epicentro: PUERTO PARRA - SANTANDER                                           3
 ACTION:UPD 16-03-04 21:23 OP:rebc STATUS:               ID:20160203104514 L   I
 OLDACT:REG 16-02-03 20:15 OP:cara STATUS:               ID:20160203103747     3
 2016-02-03-1037-47M.COL___298                                                 6
 STAT SP IPHASW D HRMM SECON CODA AMPLIT PERI AZIMU VELO AIN AR TRES W  DIS CAZ7
 PTB  HZ IP       1045 23.19                             108    0.1310 49.6 253 
 PTB  HN ES       1045 29.90                             108    0.2210 49.6 253 
 PTB  HZ I        1045 30.17        73.1 0.22            103           49.6 253 
 BAR2 EZ IP       1045 29.57                              99   -0.2410 93.7  95 
 BAR2 EZ ES       1045 41.22                              99   -0.4610 93.7  95 
 BAR2 EZ I        1045 44.09         7.5 0.22             97           93.7  95 
 ZAR  HZ EP       1045 34.41                              56   -0.3610  129 315 
 ZAR  HN ES       1045 50.06                              56   -0.4510  129 315 
 ZAR  HZ I        1045 52.36        11.1 0.26             95            129 315 
 RUS  HZ EP       1045 36.24                              56    0.17 9  135 129 
 RUS  HN ES       1045 52.55                              56   -0.28 9  135 129 
 RUS  HZ I        1045 55.08         8.0 0.24             95            135 129 
 NOR  HE ES       1045 55.56                              56   -0.47 9  154 217 
 NOR  HZ I        1046  0.04         4.2 0.18             56            154 217 
 PAM  EZ IP       1045 40.62                              56    0.90 9  164  63 
 PAM  EN ES       1045 59.77                              56    0.45 9  164  63 
 PAM  EZ I        1046  1.44        17.5 0.28             56            164  63 
 HEL  HZ EP       1045 41.16                              56    0.33 9  174 252 
 HEL  HN ES       1046  0.97                              56   -0.34 9  174 252 
 HEL  HZ I        1046  2.91         7.5 0.48             56            174 252 
 GUY2CHE ES       1046 11.92                              56    0.71 8  218 223 
 GUY2CHZ I        1046 15.01         2.0 0.22                           218 223 
                                                                                
