 2013  9 3 1402 52.0 L   6.799 -73.169143.0  RSN  8 0.4 2.1LRSN                1
 GAP=134        0.68       3.3     4.3  5.0  0.2990E+01  0.3770E+01 -0.5566E+00E
 Epicentro: LOS SANTOS - SANTANDER                                             3
 ACTION:UPD 13-10-22 09:19 OP:ep   STATUS:               ID:20130903140252 L   I
 OLDACT:UP  13-09-03 19:49 OP:mh   STATUS:               ID:20130903135959     3
 OLDACT:REG 13-09-03 17:38 OP:mh   STATUS:               ID:20130903135959     3
 2013-09-03-1359-59M.COL___269                                                 6
 STAT SP IPHASW D HRMM SECON CODA AMPLIT PERI AZIMU VELO AIN AR TRES W  DIS CAZ7
 BAR2 SZ EP       14 3 11.28                             170    0.0310 22.9 184 
 BAR2 SZ ES   1   14 3 25.98                             170   -0.32 7 22.9 184 
 BAR2 SZ I        14 3 26.97        24.7 0.32            169           22.9 184 
 BRR  HZ EP       14 3 13.00                             153    0.3110 69.0 300 
 BRR  HN ES       14 3 29.24                             153    0.3810 69.0 300 
 BRR  HZ I        14 3 31.82        23.7 0.44            148           69.0 300 
 PAM  SZ EP   1   14 3 14.13                             150    0.14 7 79.1  41 
 PAM  SN ES   2   14 3 31.09                             150   -0.08 5 79.1  41 
 PAM  SZ I        14 3 32.63        24.8 0.18            154           79.1  41 
 RUS  HZ EP       14 3 15.35                             143   -0.1010  101 175 
 RUS  HN ES   2   14 3 33.68                             143   -0.09 5  101 175 
 RUS  HZ I        14 3 35.60         8.7 0.18            146            101 175 
 PTB  HZ EP   1   14 3 17.91                             132   -0.56 7  145 259 
 PTB  HN ES   2   14 3 38.08                             132   -1.07 5  145 259 
 PTB  HZ I        14 3 43.84        16.0 0.18            130            145 259 
 ZAR  HZ EP       14 3 24.05                             122    0.07 9  202 292 
 ZAR  HN ES   2   14 3 49.09                             122    0.13 4  202 292 
 ZAR  HZ I        14 3 55.16        21.8 0.54            121            202 292 
 NOR  HZ EP   1   14 3 27.57                             118    0.27 6  233 234 
 NOR  HN ES   2   14 3 55.70                             118    0.83 4  233 234 
 NOR  HZ I        14 4  1.59         8.6 0.32            118            233 234 
 SML  HZ EP   1   14 3 28.12                             117   -0.21 6  243 336 
 SML  HE ES       14 3 56.38                             117   -0.31 8  243 336 
 SML  HZ I        14 4  4.59        16.0 0.24            117            243 336 
 GUY2CHZ EP   4   14 3 36.70                             112    1.50 0  299 234 
 GUY2CHN ES   4   14 4 11.72                             112    2.79 0  299 234 
                                                                                
