 2017  5 3 1436  7.5 L   6.502 -73.624119.6  RSN  5 0.2 1.3LRSN                1
 GAP=147        0.43       2.6     2.6  4.7  0.2609E+01 -0.3684E+01 -0.9959E+00E
 Epicentro: SANTA HELENA DEL OPON - SANTANDER                                  3
 ACTION:UPD 17-06-16 13:32 OP:jn   STATUS:               ID:20170503143607 L   I
 OLDACT:UP  17-05-03 22:56 OP:and  STATUS:               ID:20170503142745d    3
 OLDACT:UP  17-05-03 22:56 OP:and  STATUS:               ID:20170503142745d    3
 OLDACT:UP  17-05-03 22:56 OP:and  STATUS:               ID:20170503142745d    3
 OLDACT:UP  17-05-03 22:55 OP:and  STATUS:               ID:20170503142745d    3
 OLDACT:DUP 17-05-03 22:54 OP:and  STATUS:               ID:20170503142745d    3
 OLDACT:REG 17-05-03 20:46 OP:and  STATUS:               ID:20170503142744     3
 2017-05-03-1428-00M.COL___383                                                 6
 STAT SP IPHASW D HRMM SECON CODA AMPLIT PERI AZIMU VELO AIN AR TRES W  DIS CAZ7
 BRR  HZ EP       1436 25.42                             149   -0.2210 67.6 352 
 BRR  HN ES       1436 39.93                             149    0.1310 67.6 352 
 RUS  HZ EP       1436 28.04                             141    0.1110 90.1 138 
 RUS  HN ES       1436 43.85                             141   -0.0310 90.1 138 
 RUS  HZ I        1436 44.88         3.8 0.36            137           90.1 138 
 PTB  HZ EP   2   1436 27.76                             140    0.34 5 92.2 273 
 PTB  HN ES       1436 42.89                             140   -0.0910 92.2 273 
 PTB  HZ I        1436 43.66         2.7 0.23            132           92.2 273 
 NOR  HZ EP   9   1436 37.52                             121    2.47 0  173 233 
 NOR  HE ES       1436 59.11                             119    0.09 9  173 233 
 NOR  HZ I        1437  0.69         3.2 0.18            114            173 233 
 ZAR  HN ES   4   1436 59.82                             120    2.95 0  175 309 
 ZAR  HZ I        1437  2.03         2.5 0.08            114            175 309 
                                                                                
