 2013  4 3 1155 56.9 L   6.795 -73.164145.8  RSN 10 0.4 1.8LRSN                1
 GAP=134        0.89       3.4     5.3  5.6 -0.3407E+00  0.7454E+01  0.1214E+01E
 Epicentro: LOS SANTOS - SANTANDER                                             3
 ACTION:UPD 13-05-22 14:35 OP:EP   STATUS:               ID:20130403115556 L   I
 2013-04-03-1150-00M.COL___245                                                 6
 STAT SP IPHASW D HRMM SECON CODA AMPLIT PERI AZIMU VELO AIN AR TRES W  DIS CAZ7
 BAR2 SZ EP       1156 16.75                             171    0.1910 22.5 185 
 BAR2 SZ ES       1156 31.75                             171   -0.1210 22.5 185 
 BAR2 SZ I        1156 34.33        32.8 0.18            162           22.5 185 
 GIR2 SZ EP   1   1156 16.63                             167    0.00 7 31.5 354 
 GIR2 SZ ES   1   1156 32.16                             167    0.18 7 31.5 354 
 GIR2 SZ I        1156 33.89        11.7 0.35            161           31.5 354 
 BRR  HZ EP       1156 18.57                             153    0.5610 69.7 300 
 BRR  HN ES   1   1156 35.12                             153    0.67 7 69.7 300 
 BRR  HZ I        1156 38.23        11.6 0.38            141           69.7 300 
 PAM  SZ EP       1156 19.52                             150    0.2510 79.1  40 
 PAM  SN ES   1   1156 36.63                             150   -0.05 7 79.1  40 
 PAM  SZ I        1156 38.87        12.8 0.50            153           79.1  40 
 RUS  HZ EP       1156 20.58                             144   -0.0910  100 175 
 RUS  HE ES   1   1156 38.55                             144   -0.63 7  100 175 
 RUS  HZ I        1156 40.52         6.2 0.38            137            100 175 
 PTB  HZ EP       1156 23.19                             132   -0.54 9  146 259 
 PTB  HN ES   1   1156 44.28                             132   -0.33 7  146 259 
 PTB  HZ I        1156 50.57        16.2 0.44            122            146 259 
 OCA  HN ES   1   1156 46.36                             129   -1.03 7  161 354 
 SML  HZ EP   1   1156 33.21                             117   -0.32 6  243 336 
 SML  HN ES   1   1157  2.30                             117    0.23 6  243 336 
 CHI  HZ EP   1   1156 34.70                             117    0.17 6  248 195 
 CHI  HN ES   1   1157  4.24                             117    0.39 6  248 195 
 CHI  HZ I        1157 11.94         3.7 0.58            111            248 195 
 HEL  HZ EP   1   1156 37.15                             115    0.22 6  270 256 
 HEL  HZ I        1157 14.99         4.0 0.32            108            270 256 
                                                                                
