 2012  9 3 1917 17.7 L   6.743 -73.136150.0  RSN  5 0.3 1.3LRSN                1
 GAP=234        0.36       6.0     6.3  8.0  0.2425E+02  0.1254E+02  0.8682E+01E
 Epicentro: JORDAN - SANTANDER                                                 3
 ACTION:UPD 12-10-22 14:16 OP:ep   STATUS:               ID:20120903191717 L   I
 2012-09-03-1910-00M.COL___218                                                 6
 STAT SP IPHASW D HRMM SECON CODA AMPLIT PERI AZIMU VELO AIN AR TRES W  DIS CAZ7
 BAR2 SZ EP   3   1917 37.74                             173    0.02 2 17.4 197 
 BAR2 SZ ES   3   1917 52.94                             173   -0.41 2 17.4 197 
 BAR2 SZ I        1917 54.21         9.4 0.18                          17.4 197 
 BRR  HZ EP       1917 39.44                             152   -0.0810 75.4 302 
 BRR  HN ES   3   1917 57.52                             152    0.96 2 75.4 302 
 RUS  HZ EP       1917 41.42                             146    0.0110 94.2 176 
 RUS  HN ES   3   1917 59.95                             146    0.04 2 94.2 176 
 RUS  HZ I        1918  0.89         2.5 0.30                          94.2 176 
 PTB  HZ EP       1917 45.06                             133    0.06 9  148 261 
 PTB  HE ES   3   1918  6.31                             133    0.01 2  148 261 
 PTB  HZ I        1918  8.18         2.0 0.40                           148 261 
 ZAR  HE ES   3   1918 16.00                             123   -0.56 2  208 294 
                                                                                
