 2017  8 3 1455 40.1 L   6.174 -73.441127.3  RSN 10 0.6 1.8LRSN                1
 GAP= 94        1.33       4.7     3.9  7.7  0.4183E+01  0.9754E+01  0.3064E+01E
 Epicentro: SAN BENITO - SANTANDER                                             3
 ACTION:UPD 17-09-04 20:15 OP:rebc STATUS:               ID:20170803145540 L   I
 OLDACT:REG 17-08-03 21:35 OP:dhb  STATUS:               ID:20170803144741     3
 2017-08-03-1448-00M.COL___392                                                 6
 STAT SP IPHASW D HRMM SECON CODA AMPLIT PERI AZIMU VELO AIN AR TRES W  DIS CAZ7
 RUS  HZ IP     D 1455 58.92                             157    0.0510 50.4 128 
 RUS  HN ES       1456 13.42                             157   -0.0710 50.4 128 
 RUS  HZ I        1456 16.65        11.5 0.34            158           50.4 128 
 BAR2 EZ IP     C 1455 59.33                             155    0.6410 54.4  32 
 BAR2 EZ ES       1456 13.79                             155    0.6110 54.4  32 
 BAR2 EZ I        1456 14.98        44.5 0.30            158           54.4  32 
 SPBC HZ IP     D 1456  0.93                             143    0.1510 90.6 230 
 SPBC HE ES       1456 17.38                             143    0.4910 90.6 230 
 SPBC HZ I        1456 17.98        11.4 0.21            143           90.6 230 
 PTB  HZ EP       1456  2.44                             134   -0.5810  119 290 
 PTB  HE ES       1456 19.91                             134   -0.9710  119 290 
 PTB  HZ I        1456 21.46         6.9 0.10            135            119 290 
 YPLC HZ EP       1456  5.90                             128    0.38 9  146 126 
 YPLC HN ES       1456 24.77                             128   -0.56 9  146 126 
 YPLC HZ I        1456 28.70        11.0 0.40            130            146 126 
 NOR  HZ EP       1456  7.49                             123   -0.62 9  172 247 
 NOR  HE ES       1456 29.59                             123   -0.36 9  172 247 
 NOR  HZ I        1456 33.22        11.3 0.12            124            172 247 
 CHI  HZ EP       1456  8.17                             123   -0.61 9  174 191 
 CHI  HN ES       1456 31.03                             123   -0.09 9  174 191 
 CHI  HZ I        1456 35.57         4.5 0.24            124            174 191 
 ZAR  HZ EP       1456 12.57                             117    0.06 8  214 313 
 ZAR  HE ES       1456 37.30                             117   -0.47 8  214 313 
 ZAR  HZ I        1456 42.64         8.2 0.10            118            214 313 
 HEL  HZ EP       1456 15.66                             115    0.81 8  231 271 
 HEL  HN ES       1456 42.45                             115    0.51 8  231 271 
 HEL  HZ I        1456 46.33         6.0 0.28            116            231 271 
 GUY2CHZ EP       1456 16.04                             114    0.33 8  238 244 
 GUY2CHN ES   2   1456 45.33                             114    1.87 4  238 244 
 GUY2CHZ I        1456 49.90         3.1 0.30                           238 244 
                                                                                
