 2013 12 3 1915 13.5 L   6.781 -73.173150.2  RSN  6 0.4 1.8LRSN                1
 GAP=143        0.95       8.6     6.0  8.2 -0.2143E+02 -0.5930E+00  0.1178E+02E
 Epicentro: LOS SANTOS - SANTANDER                                             3
 ACTION:UPD 14-01-13 10:15 OP:ep   STATUS:               ID:20131203191513 L   I
 OLDACT:UP  13-12-03 16:08 OP:cam  STATUS:               ID:20131203191000     3
 OLDACT:REG 13-12-03 15:01 OP:cam  STATUS:               ID:20131203191000     3
 2013-12-03-1910-00M.COL___282                                                 6
 STAT SP IPHASW D HRMM SECON CODA AMPLIT PERI AZIMU VELO AIN AR TRES W  DIS CAZ7
 BAR2 SZ EP   1   1915 33.59                             172   -0.01 7 20.9 183 
 BAR2 SZ ES   1   1915 48.84                             172   -0.45 7 20.9 183 
 BAR2 SZ I        1915 50.11        17.2 0.20            173           20.9 183 
 BRR  HZ EP       1915 35.10                             153    0.0710 69.6 301 
 BRR  HN ES       1915 52.52                             153    0.6910 69.6 301 
 PAM  SZ EP       1915 36.50                             150    0.1210 81.0  40 
 PAM  SN ES   1   1915 53.87                             150   -0.37 7 81.0  40 
 PAM  SZ I        1915 56.76         6.9 0.44            151           81.0  40 
 PTB  HZ EP   1   1915 40.40                             133   -0.12 7  144 259 
 PTB  HN ES       1916  1.02                             133   -0.58 9  144 259 
 PTB  HZ I        1916  3.96         7.7 0.10            135            144 259 
 NOR  HZ EP   1   1915 49.77                             120    0.69 6  231 234 
 SML  HE ES   2   1916 18.59                             118   -0.67 4  244 336 
                                                                                
