 2013  4 3 1325 51.0 L   5.745 -73.934100.0  RSN  5 0.4 1.4LRSN                1
 GAP=121        0.74       3.6     4.9 11.2  0.4395E+01  0.2335E+02  0.2240E+02E
 Epicentro: ALBANIA - SANTANDER                                                3
 ACTION:UPD 13-05-22 14:35 OP:EP   STATUS:               ID:20130403132551 L   I
 2013-04-03-1320-00M.COL___245                                                 6
 STAT SP IPHASW D HRMM SECON CODA AMPLIT PERI AZIMU VELO AIN AR TRES W  DIS CAZ7
 RUS  HZ EP   1   1326 10.08                             133   -0.10 7 95.6  80 
 RUS  HN ES   1   1326 25.30                             133    0.18 7 95.6  80 
 RUS  HZ I        1326 27.04         1.7 0.31            146           95.6  80 
 PTB  HZ EP   1   1326 10.14                             129   -0.27 7  105 327 
 PTB  HN ES   1   1326 25.75                             129    0.21 7  105 327 
 PTB  HZ I        1326 29.55         8.8 0.12            139            105 327 
 CHI  HZ EP   1   1326 12.82                             124   -0.10 7  125 170 
 CHI  HE ES   1   1326 29.69                             124   -0.31 7  125 170 
 CHI  HZ I        1326 34.45         4.1 0.22            133            125 170 
 PRA  HZ EP   1   1326 25.37                             106   -0.78 6  248 205 
 PRA  HN ES   1   1326 54.03                             106    0.48 6  248 205 
 PRA  HZ I        1326 56.96         4.5 0.54            113            248 205 
 SJA  SZ EP   1   1326 30.15                             103    0.94 6  273 180 
 SJA  SZ ES   1   1326 59.01                             103    0.02 6  273 180 
                                                                                
