 2015  9 3 1025 28.6 L   6.822 -73.128144.3  RSN  9 0.5 1.9LRSN                1
 GAP=241        1.09       4.5     5.5  6.5  0.6714E+01  0.9473E+01  0.6249E+01E
 Epicentro: LOS SANTOS - SANTANDER                                             3
 ACTION:UPD 15-10-28 16:23 OP:cam  STATUS:               ID:20150903102528 L   I
 OLDACT:REG 15-09-03 20:32 OP:ak   STATUS:               ID:20150903101748     3
 2015-09-03-1017-48M.COL___349                                                 6
 STAT SP IPHASW D HRMM SECON CODA AMPLIT PERI AZIMU VELO AIN AR TRES W  DIS CAZ7
 BAR2 EZ EP       1025 48.09                             169    0.0110 26.1 193 
 BAR2 EZ ES       1026  3.55                             169    0.2510 26.1 193 
 BAR2 EZ I        1026  5.77        12.3 0.31            168           26.1 193 
 BRR  HZ EP       1025 49.86                             152    0.2710 71.8 296 
 BRR  HE ES       1026  6.60                             152    0.6110 71.8 296 
 BRR  HZ I        1026 10.69        11.4 0.11            150           71.8 296 
 RUS  HZ EP       1025 52.81                             143    0.4710  103 177 
 RUS  HN ES       1026 10.05                             143   -0.8410  103 177 
 RUS  HZ I        1026 12.18         7.4 0.26            146            103 177 
 PTB  HZ EP       1025 54.88                             131   -0.75 9  150 258 
 PTB  HN ES       1026 16.21                             131   -0.53 9  150 258 
 PTB  HZ I        1026 22.70         7.3 0.20            131            150 258 
 SPBC HZ EP       1025 57.40                             128    0.15 9  166 219 
 SPBC HN ES       1026 19.49                             128   -0.13 9  166 219 
 SPBC HZ I        1026 22.12        12.2 0.30            129            166 219 
 ZAR  HZ EP       1026  0.46                             122   -0.54 9  205 291 
 ZAR  HN ES       1026 26.31                             122    0.01 9  205 291 
 ZAR  HZ I        1026 31.86        14.6 0.36            123            205 291 
 CHI  HZ EP       1026  6.35                             116   -0.14 8  252 195 
 CHI  HN ES       1026 36.42                             116    0.34 8  252 195 
 GUY2CHZ EP   1   1026 13.17                             112    0.73 5  304 235 
 GUY2CHN ES       1026 46.78                             112    0.11 7  304 235 
 GUY2CHZ I        1026 54.83         3.0 0.36                           304 235 
 TOL  SZ EP   1   1026 17.11                             109   -0.01 5  347 225 
 TOL  SN ES       1026 55.73                             109    0.74 6  347 225 
 TOL  SZ I        1027  0.57         2.7 0.50            111            347 225 
                                                                                
