 2016 11 3 1029 58.6 L   6.690 -73.212157.8  RSN  4 0.2 1.2LRSN                1
 GAP=221        0.53       4.4     4.4  4.7  0.1319E+02 -0.8330E+00 -0.3497E+01E
 Epicentro: VILLANUEVA - SANTANDER                                             3
 ACTION:UPD 17-10-26 21:04 OP:lp   STATUS:               ID:20161103102958 L   I
 OLDACT:REG 16-11-03 19:46 OP:cog  STATUS:               ID:20161103102745     3
 2016-11-03-1028-00M.COL___337                                                 6
 STAT SP IPHASW D HRMM SECON CODA AMPLIT PERI AZIMU VELO AIN AR TRES W  DIS CAZ7
 BRR  HZ EP       1030 20.87                             154   -0.2710 72.0 310 
 BRR  HE ES       1030 38.83                             154    0.1410 72.0 310 
 RUS  HZ EP       1030 23.04                             149    0.1910 89.3 171 
 RUS  HE ES       1030 41.64                             149   -0.1010 89.3 171 
 RUS  HZ I        1030 42.53         1.7 0.50            150           89.3 171 
 PTB  HZ EP       1030 25.65                             137   -0.18 9  139 263 
 PTB  HN ES       1030 47.12                             137    0.09 9  139 263 
 PTB  HZ I        1030 48.43         1.6 0.14            135            139 263 
 ZAR  HZ EP       1030 32.03                             125    0.31 9  202 296 
 ZAR  HE ES       1030 57.37                             125   -0.16 9  202 296 
 ZAR  HZ I        1031  3.86         2.6 0.40            125            202 296 
                                                                                
