 2013  9 3 1211 35.6 L   6.833 -73.158140.0  RSN  4 0.2 1.5LRSN                1
 GAP=200        0.51       4.4     4.8 12.3  0.7911E+01 -0.2122E+02 -0.2494E+02E
 Epicentro: LOS SANTOS - SANTANDER                                             3
 ACTION:UPD 13-10-22 09:19 OP:ep   STATUS:               ID:20130903121135 L   I
 OLDACT:REG 13-09-03 17:36 OP:mh   STATUS:               ID:20130903120959     3
 2013-09-03-1209-59M.COL___269                                                 6
 STAT SP IPHASW D HRMM SECON CODA AMPLIT PERI AZIMU VELO AIN AR TRES W  DIS CAZ7
 BAR2 SZ EP   1   1211 54.93                             169    0.31 8 26.8 186 
 BAR2 SZ I        1212 10.96         5.2 0.24            167           26.8 186 
 RUS  HZ EP   1   1211 59.12                             142    0.05 8  104 175 
 RUS  HN ES   2   1212 16.97                             142   -0.41 5  104 175 
 RUS  HZ I        1212 18.58         2.9 0.40            147            104 175 
 PTB  HZ EP   1   1212  1.71                             131   -0.34 7  147 257 
 PTB  HN ES       1212 22.80                             131    0.1210  147 257 
 PTB  HN I        1212 23.20         4.4 0.22            141            147 257 
 SML  HN ES   1   1212 39.36                             117   -0.11 6  240 335 
 SML  HE I        1212 46.98         7.8 0.10            117            240 335 
                                                                                
