 2017  1 3 1413  6.6 L   6.791 -73.169147.6  RSN  7 0.4 1.6LRSN                1
 GAP=134        0.89       3.9     4.9  7.8  0.2205E+01  0.1265E+02  0.6312E+01E
 Epicentro: LOS SANTOS - SANTANDER                                             3
 ACTION:UPD 17-05-22 15:55 OP:jn   STATUS:               ID:20170103141306 L   I
 OLDACT:UP  17-01-03 22:14 OP:dnl  STATUS:               ID:20170103140747     3
 OLDACT:REG 17-01-03 20:41 OP:dnl  STATUS:               ID:20170103140747     3
 2017-01-03-1408-00M.COL___381                                                 6
 STAT SP IPHASW D HRMM SECON CODA AMPLIT PERI AZIMU VELO AIN AR TRES W  DIS CAZ7
 BRR  HZ EP       1413 28.21                             153    0.3410 69.4 300 
 BRR  HN ES       1413 45.03                             153    0.5910 69.4 300 
 BRR  HZ I        1413 49.08        10.8 0.28            152           69.4 300 
 PAM  EZ EP       1413 29.17                             151   -0.0010 79.8  41 
 PAM  EN ES       1413 46.51                             151   -0.2510 79.8  41 
 PAM  EZ I        1413 48.41         6.0 0.48            156           79.8  41 
 RUS  HZ EP   2   1413 30.47                             144   -0.03 5 99.8 175 
 RUS  HN ES       1413 48.86                             144   -0.2610 99.8 175 
 RUS  HZ I        1413 50.09         5.1 0.32            146           99.8 175 
 PTB  HZ EP       1413 33.12                             133   -0.37 9  145 259 
 PTB  HN ES   4   1413 53.72                             133   -0.73 0  145 259 
 PTB  HZ I        1413 59.01         3.4 0.20            133            145 259 
 ZAR  HZ EP   2   1413 39.83                             123    0.85 4  202 293 
 ZAR  HN ES       1414  3.60                             123   -0.62 9  202 293 
 ZAR  HZ I        1414  9.41         4.3 0.36            124            202 293 
 CHI  HZ EP   2   1413 44.44                             118    0.19 4  247 195 
 CHI  HN ES       1414 13.89                             118    0.30 8  247 195 
 CHI  HZ I        1414 18.86         1.8 0.32            120            247 195 
 GUY2CHZ EP   4   1413 54.25                             113    4.23 0  299 235 
 GUY2CHN ES   4   1414 27.70                             113    3.84 0  299 235 
 GUY2CHZ  IAML    1414 32.39         2.8 0.32                           299 235 
                                                                                
