 2013 12 3 1406 39.5 L   6.777 -73.152149.0  RSN  9 0.5 2.1LRSN                1
 GAP=151        1.03       6.0     5.4  7.3 -0.1339E+02  0.5820E+01  0.4007E+01E
 Epicentro: LOS SANTOS - SANTANDER                                             3
 ACTION:UPD 14-01-13 10:15 OP:ep   STATUS:               ID:20131203140639 L   I
 OLDACT:UP  13-12-03 15:47 OP:cam  STATUS:               ID:20131203140000     3
 OLDACT:REG 13-12-03 14:49 OP:cam  STATUS:               ID:20131203140000     3
 2013-12-03-1400-00M.COL___282                                                 6
 STAT SP IPHASW D HRMM SECON CODA AMPLIT PERI AZIMU VELO AIN AR TRES W  DIS CAZ7
 BAR2 SZ EP     C 14 6 59.43                             172   -0.0810 20.7 189 
 BAR2 SZ ES       14 7 15.02                             172   -0.0710 20.7 189 
 BAR2 SZ I        14 7 15.82        44.2 0.12            171           20.7 189 
 BRR  HZ EP   2   14 7  1.43                             153    0.35 5 71.9 301 
 BRR  HN ES       14 7 18.74                             153    0.8610 71.9 301 
 PAM  SZ EP       14 7  2.31                             151    0.0710 79.7  39 
 PAM  SN ES       14 7 19.63                             151   -0.3210 79.7  39 
 PAM  SZ I        14 7 21.49        14.7 0.54            154           79.7  39 
 PTB  HZ EP       14 7  6.33                             133   -0.35 9  147 260 
 PTB  HN ES       14 7 27.14                             133   -0.70 9  147 260 
 PTB  HZ I        14 7 32.74         7.4 0.20            133            147 260 
 SPBC HN ES   2   14 7 29.57                             130   -0.75 5  161 219 
 SPBC HZ I        14 7 33.24        28.2 0.26            131            161 219 
 ZAR  HN ES   2   14 7 38.32                             123    0.58 4  204 293 
 NOR  HN ES       14 7 43.65                             119    0.55 8  233 235 
 SML  HZ EP   1   14 7 16.70                             118    0.13 6  246 336 
 SML  HN ES   2   14 7 44.49                             118   -0.96 4  246 336 
 CHI  HZ EP   1   14 7 17.60                             118    0.46 6  246 195 
 SJC  HZ EP   4   14 7 33.78                             106   -1.64 0  411 327 
                                                                                
