 2013  8 3 1830 41.7 L   6.819 -73.142140.8  RSN 11 0.4 2.4LRSN                1
 GAP=183        0.98       3.0     4.6  5.9 -0.1999E+01  0.9928E+01 -0.1694E+01E
 Epicentro: LOS SANTOS - SANTANDER                                             3
 ACTION:UPD 14-01-14 08:58 OP:ep   STATUS:               ID:20130803183041 L   I
 OLDACT:REG 13-08-03 15:12 OP:cam  STATUS:               ID:20130803182959     3
 2013-08-03-1829-59M.COL___269                                                 6
 STAT SP IPHASW D HRMM SECON CODA AMPLIT PERI AZIMU VELO AIN AR TRES W  DIS CAZ7
 BAR2 SZ IP       1831  0.73                             169   -0.0310 25.4 190 
 BAR2 SZ ES       1831 15.79                             169    0.1410 25.4 190 
 BAR2 SZ I        1831 16.76        46.5 0.24            168           25.4 190 
 GIR2 SZ EP       1831  0.62                             168   -0.0910 29.3 349 
 GIR2 SZ ES   1   1831 16.29                             168    0.73 7 29.3 349 
 GIR2 SZ I        1831 17.89        40.1 0.12            167           29.3 349 
 BRR  HZ IP     C 1831  2.56                             152    0.3010 70.6 297 
 BRR  HE ES   4   1831 19.64                             152    1.32 0 70.6 297 
 BRR  HZ I        1831 23.86        52.1 0.14            150           70.6 297 
 RUS  HZ EP       1831  4.80                             142   -0.3010  103 176 
 RUS  HN ES       1831 23.41                             142    0.0510  103 176 
 RUS  HZ I        1831 25.20        36.9 0.34            145            103 176 
 PTB  HZ EP       1831  7.77                             131   -0.56 9  149 258 
 PTB  HN ES       1831 28.55                             131   -0.56 9  149 258 
 PTB  HZ I        1831 31.28        28.7 0.16            131            149 258 
 OCA  HZ EP   2   1831  9.93                             129    0.51 5  158 353 
 OCA  HN ES       1831 30.41                             129   -0.65 9  158 353 
 SPBC HZ EP       1831  9.83                             128   -0.15 9  165 219 
 SPBC HE ES       1831 32.13                             128    0.07 9  165 219 
 SPBC HZ I        1831 38.04        43.6 0.26            129            165 219 
 ZAR  HZ EP   1   1831 14.27                             121    0.50 6  204 292 
 ZAR  HE ES       1831 39.27                             121    0.47 9  204 292 
 ZAR  HZ I        1831 44.72        45.5 0.32            123            204 292 
 NOR  HZ EP       1831 17.02                             117   -0.27 8  236 234 
 NOR  HN ES       1831 44.62                             117   -0.46 8  236 234 
 NOR  HZ I        1831 50.02        23.5 0.20            119            236 234 
 SML  HZ EP       1831 18.33                             117    0.48 8  242 335 
 SML  HE ES   1   1831 45.72                             117   -0.34 6  242 335 
 HEL  HZ EP   4   1831 23.17                             114    1.42 0  273 255 
 GUY2CHZ EP       1831 26.05                             111    0.81 7  303 235 
 GUY2CHN ES       1831 59.88                             111    0.66 7  303 235 
                                                                                
