 2015  2 3 1322 16.9 L   6.815 -73.119146.0  RSN 12 0.4 2.3LRSN                1
 GAP=203        0.97       3.1     4.8  5.2  0.2722E+01  0.4657E+01  0.7436E+00E
 Epicentro: LOS SANTOS - SANTANDER                                             3
 ACTION:UPD 15-04-30 21:21 OP:nd   STATUS:               ID:20150203132216 L   I
 OLDACT:UP  15-02-03 22:45 OP:cam  STATUS:               ID:20150203131819     3
 OLDACT:UP  15-02-03 22:44 OP:cam  STATUS:               ID:20150203131819     3
 OLDACT:REG 15-02-03 19:33 OP:cam  STATUS:               ID:20150203131819     3
 2015-02-03-1318-19M.COL___268                                                 6
 STAT SP IPHASW D HRMM SECON CODA AMPLIT PERI AZIMU VELO AIN AR TRES W  DIS CAZ7
 BAR2 EZ EP     D 1322 36.85                             170    0.2810 25.6 196 
 BAR2 EZ ES       1322 52.39                             170    0.4510 25.6 196 
 BAR2 EZ I        1322 53.46        19.1 0.38            165           25.6 196 
 BRR  HN ES       1322 55.19                             152    0.4510 73.1 296 
 BRR  HN I        1322 58.60        75.8 0.20            148           73.1 296 
 RUS  HZ EP       1322 40.73                             143   -0.0110  102 178 
 RUS  HE ES       1322 58.63                             143   -0.7410  102 178 
 RUS  HZ I        1323  0.70         9.5 0.36            144            102 178 
 PTB  HZ EP       1322 43.65                             131   -0.49 9  151 258 
 PTB  HN ES       1323  5.21                             131   -0.21 9  151 258 
 PTB  HZ I        1323 10.53        20.9 0.24            129            151 258 
 SPBC HZ EP       1322 45.83                             129    0.15 9  166 219 
 SPBC HN ES       1323  8.27                             129    0.12 9  166 219 
 SPBC HZ I        1323 14.91        37.1 0.32            128            166 219 
 ZAR  HZ EP       1322 49.46                             122   -0.08 8  206 291 
 ZAR  HE ES       1323 15.16                             122    0.13 8  206 291 
 ZAR  HZ I        1323 21.11        19.8 0.20            122            206 291 
 NOR  HZ IP     D 1322 53.03                             118    0.06 8  238 235 
 NOR  HN ES       1323 20.93                             118   -0.20 8  238 235 
 NOR  HZ I        1323 24.53        15.5 0.18            118            238 235 
 SML  HZ EP       1322 52.83                             118   -0.64 8  243 334 
 SML  HN ES       1323 21.66                             118   -0.37 8  243 334 
 SML  HZ I        1323 26.50        17.9 0.22            119            243 334 
 CHI  HZ EP       1322 55.24                             117    0.41 8  251 196 
 CHI  HN ES       1323 24.09                             117   -0.36 8  251 196 
 CHI  HZ I        1323 32.02         6.2 0.22            118            251 196 
 HEL  HZ EP   4   1322 59.06                             115    1.61 0  275 256 
 GUY2CHZ EP       1323  1.62                             112    0.76 7  305 235 
 RREF HZ EP   4   1323  5.21                             111    1.82 0  325 229 
 RREF HN ES   4   1323 42.34                             111    2.65 0  325 229 
 RREF HZ I        1323 45.43         9.6 0.26            111            325 229 
 TOL  SZ EP       1323  6.35                             109    0.85 6  347 225 
 TOL  SN ES       1323 43.14                             109   -0.30 6  347 225 
 TOL  SZ I        1323 49.90         6.4 0.54            110            347 225 
                                                                                
