 2016  5 3 1332 22.5 L   6.823 -73.173145.3  RSN  5 0.3 1.5LRSN                1
 GAP=243        0.56       5.4     3.7  4.9  0.2810E-01  0.2645E+01 -0.9363E-01E
 Epicentro: ZAPATOCA - SANTANDER                                               3
 ACTION:UPD 16-08-18 17:41 OP:cam  STATUS:               ID:20160503133222 L   I
 OLDACT:UP  16-05-03 23:15 OP:dnl  STATUS:               ID:20160503132747     3
 OLDACT:UP  16-05-03 23:14 OP:dnl  STATUS:               ID:20160503132747     3
 OLDACT:REG 16-05-03 21:16 OP:dani STATUS:               ID:20160503132747     3
 2016-05-03-1327-47M.COL___309                                                 6
 STAT SP IPHASW D HRMM SECON CODA AMPLIT PERI AZIMU VELO AIN AR TRES W  DIS CAZ7
 BAR2 EZ EP       1332 42.29                             170    0.2010 25.5 182 
 BAR2 EZ ES       1332 57.38                             170   -0.0110 25.5 182 
 BAR2 EZ I        1332 58.66         6.1 0.44            169           25.5 182 
 RUS  HZ EP       1332 46.22                             143   -0.1510  103 174 
 RUS  HN ES   2   1333  4.85                             143   -0.17 5  103 174 
 RUS  HZ I        1333  7.23         2.0 0.18            146            103 174 
 PTB  HZ EP       1332 48.87                             132   -0.30 9  145 258 
 PTB  HN ES       1333 10.16                             132    0.16 9  145 258 
 PTB  HZ I        1333 12.35         4.4 0.64            131            145 258 
 SPBC HZ EP       1332 51.27                             129    0.33 9  163 218 
 SPBC HN ES       1333 13.03                             129   -0.12 9  163 218 
 SPBC HZ I        1333 18.10         6.0 0.42            130            163 218 
 ZAR  HN ES   3   1333 18.37                             123   -1.10 2  200 292 
 ZAR  HZ I        1333 27.60         3.0 0.32            122            200 292 
                                                                                
