 2010  2 3 1216 22.8 L   6.759 -72.863149.0  RSN  5 0.5 1.6LRSN                1
 GAP=312        0.76      17.0    13.9 11.8 -0.9937E+02  0.4829E+02  0.5104E+02E
 Epicentro: CEPITA - SANTANDER                                                 3
 ACTION:UP  10-08-24 09:47 OP:vdl  STATUS:               ID:20100203121623 L   I
 2010-02-03-1159-50S.COL___089                                                 6
 STAT SP IPHASW D HRMM SECON CODA AMPLIT PERI AZIMU VELO SNR AR TRES W  DIS CAZ7
 BAR2 SZ EP   2   1216 43.73                             164     0.4 8   40 242 
 BAR2 SZ ES   2   1216 58.82                             164    -0.4 8   40 242 
 RUS  HE ES   2   1217  5.55                             145     0.1 8   99 194 
 RUS  HZ I        1217  7.26         3.6 0.58                            99 194 
 CHI  HZ EP   2   1217  1.85                             117     0.5 6  254 202 
 CHI  HZ I        1217  2.22         2.8 0.92                           254 202 
 RREF HN ES       1217 49.75                             110     0.210  343 233 
 RREF HZ I        1217 50.97         2.4 0.75                           343 233 
 PRA  HZ EP   1   1217 16.96                             106    -1.0 6  405 214 
                                                                                
