 2012  2 3 1638  6.3 L   7.403 -73.299119.7  RSN  7 0.2 2.0LRSN                1
 GAP=183        0.43       3.3     2.2  4.0 -0.1103E+01  0.3127E+01 -0.8319E+00E
 ACTION:UP  12-03-07 16:27 OP:epov STATUS:               ID:20120203163806 L   I
 2012-02-03-1630-00M.COL___188                                                 6
 STAT SP IPHASW D HRMM SECON CODA AMPLIT PERI AZIMU VELO SNR AR TRES W  DIS CAZ7
 GIR2 SZ EP       1638 23.11                             161    0.0010 37.7 162 
 BRR  HZ EP       1638 23.66                             153   -0.1110 56.0 234 
 BRR  HE ES   1   1638 37.47                             153    0.06 7 56.0 234 
 BRR  HZ I        1638 38.67        28.6 0.06                          56.0 234 
 PAM  SZ EP   1   1638 25.18                             149    0.08 7 66.6  96 
 PAM  SE ES   1   1638 39.62                             149   -0.15 7 66.6  96 
 BAR2 SZ EP       1638 26.52                             140    0.0910 90.5 172 
 BAR2 SZ ES       1638 42.24                             140    0.1110 90.5 172 
 BAR2 SZ I        1638 43.54        17.9 0.17                          90.5 172 
 PTB  HZ EP   1   1638 32.17                             123   -0.29 7  160 233 
 PTB  HE ES   1   1638 52.45                             123   -0.42 7  160 233 
 ZAR  HN ES   1   1638 55.53                             121    0.31 7  172 273 
 NOR  SZ EP   1   1638 44.58                             109    0.20 6  267 221 
 NOR  SN ES   1   1639 14.22                             109    0.13 6  267 221 
                                                                                
