 2010  8 3 1530 39.1 L   6.817 -73.017147.0  RSN  5 0.1 1.8LRSN                1
 GAP=251        0.40       4.4     7.9  4.7  0.2254E+02 -0.9664E+01 -0.3716E+01E
 Epicentro: CEPITA - SANTANDER                                                 3
 ACTION:UP  10-09-07 10:51 OP:vdl  STATUS:               ID:20100803153039 L   I
 2010-08-03-1526-41S.COL___125                                                 6
 STAT SP IPHASW D HRMM SECON CODA AMPLIT PERI AZIMU VELO SNR AR TRES W  DIS CAZ7
 BTL  SZ IP       1530 59.18                             168     0.110   30 292 
 BAR2 SZ EP       1530 59.03                                     0.010   31 216 
 BAR2 SZ ES   2   1531 14.74                             168     0.1 5   31 216 
 BAR2 SZ I        1531 15.79        10.8 0.45                            31 216 
 BRR  HZ EP       1531  0.94                             149    -0.210   83 293 
 BRR  HZ I        1531  1.19        23.9 0.12                            83 293 
 BRR  HE ES   1   1531 18.36                             149     0.1 7   83 293 
 RUS  HZ EP   1   1531  3.25                             144     0.1 7  103 184 
 RUS  HN ES   1   1531 21.74                             144    -0.1 7  103 184 
 RUS  HZ I        1531 22.90         5.1 0.21                           103 184 
 PRA  HZ EP   1   1531 33.80                             106     0.1 4  401 211 
 PRA  HZ I        1531 34.63         2.2 0.18                           401 211 
                                                                                
