 2013  2 3 1626 14.8 L   6.749 -73.111145.3  RSN  5 0.3 1.6LRSN                1
 GAP=143        0.58       5.6     4.2  6.1 -0.7966E+01  0.7489E+00  0.2834E+01E
 Epicentro: LOS SANTOS - SANTANDER                                             3
 ACTION:UPD 13-03-12 09:30 OP:ep   STATUS:               ID:20130203162614 L   I
 2013-02-03-1618-50M.COL___196                                                 6
 STAT SP IPHASW D HRMM SECON CODA AMPLIT PERI AZIMU VELO AIN AR TRES W  DIS CAZ7
 BAR2 SZ ES   2   1626 49.15                             172   -0.35 5 19.0 204 
 BAR2 SZ I        1626 51.67         7.4 0.14            169           19.0 204 
 BRR  HZ EP       1626 36.17                             150   -0.0910 77.3 301 
 BRR  HN ES       1626 53.28                             150    0.2910 77.3 301 
 BRR  HN I        1626 54.09        10.0 0.22            151           77.3 301 
 PAM  SZ EP       1626 37.26                             150    0.1610 79.6  35 
 PAM  SN ES       1626 54.30                             150   -0.2010 79.6  35 
 PAM  SN I        1626 55.47        10.5 0.68            154           79.6  35 
 RUS  HN ES   2   1626 56.60                             145    0.34 5 94.7 178 
 RUS  HN I        1626 57.90         2.4 0.24            145           94.7 178 
 PTB  HZ EP   2   1626 41.99                             131    0.01 5  151 261 
 PTB  HN ES   2   1627  2.46                             131   -0.73 5  151 261 
 PTB  HN I        1627  7.26         7.3 0.54            131            151 261 
                                                                                
