 2013 10 3 1306 48.2 L   6.733 -74.280 18.8  RSN  4 0.4 1.6LRSN                1
 GAP=100        1.03       2.8     3.1  5.6 -0.1109E+01 -0.9948E+01  0.2508E+01E
 Epicentro: PUERTO PARRA - SANTANDER                                           3
 ACTION:UPD 13-11-25 09:19 OP:ep   STATUS:               ID:20131003130648 L   I
 OLDACT:REG 13-10-03 13:49 OP:stll STATUS:               ID:20131003125842     3
 2013-10-03-1258-42M.COL___234                                                 6
 STAT SP IPHASW D HRMM SECON CODA AMPLIT PERI AZIMU VELO AIN AR TRES W  DIS CAZ7
 PTB  HZ IP       13 6 53.95                             120    0.0910 29.0 222 
 PTB  HN ES       13 6 58.05                             120   -0.1910 29.0 222 
 PTB  HZ I        13 6 58.35       113.9 0.20            116           29.0 222 
 BRR  HZ EP       13 7  0.65                             102    0.2010 75.1  57 
 BRR  HN ES       13 7  9.80                             102   -0.1810 75.1  57 
 ZAR  HZ EP       13 7  5.26                              98    0.2710  105 323 
 ZAR  HN ES       13 7 17.73                              98   -0.3210  105 323 
 ZAR  HZ I        13 7 18.70        10.6 0.18             97            105 323 
 RUS  HZ EP       13 7 13.86                              56    0.82 9  162 125 
 RUS  HZ I        13 7 14.35         3.7 0.24             56            162 125 
 RUS  HN ES       13 7 31.72                              56   -0.67 9  162 125 
                                                                                
