 2010  6 3 1931 51.0 L   6.786 -73.078138.3  RSN  7 0.6 2.1LRSN                1
 GAP=195        1.19       9.2    16.7 11.0 -0.1003E+03  0.2572E+02 -0.5564E+01E
 Epicentro: LOS SANTOS - SANTANDER                                             3
 ACTION:UP  10-08-24 10:08 OP:vdl  STATUS:               ID:20100603193151 L   I
 2010-06-03-1927-22S.COL___109                                                 6
 STAT SP IPHASW D HRMM SECON CODA AMPLIT PERI AZIMU VELO SNR AR TRES W  DIS CAZ7
 BAR2 SZ EP       1932  9.19                             169    -0.610   24 209 
 BAR2 SZ ES   1   1932 25.06                             169     0.7 7   24 209 
 GIR2 SZ ES   2   1932 23.68                             165    -0.9 5   35 339 
 GUE  SZ EP       1932 15.52                             138     0.510  117   8 
 GUE  SZ ES   2   1932 34.50                             138     0.7 5  117   8 
 GRA  SZ EP       1932 14.99                             136    -0.510  125  14 
 GRA  SZ ES       1932 34.85                             136     0.210  125  14 
 OCA  SZ ES   2   1932 40.61                             127    -0.2 5  163 351 
 OCA  SZ I        1932 47.99        13.0 0.34                           163 351 
 HEL  HN ES   2   1933  3.12                             113    -0.2 4  279 256 
 HEL  HZ I        1933  6.40         6.5 0.88                           279 256 
 TOL  SZ EP   1   1932 40.36                             108     0.9 5  348 226 
                                                                                
