 2013  6 3 1533 38.2 L   6.771 -73.122144.2  RSN 10 0.5 2.0LRSN                1
 GAP=141        1.08       4.0     4.5  6.6 -0.3251E+01  0.1046E+02 -0.2694E+01E
 Epicentro: LOS SANTOS - SANTANDER                                             3
 ACTION:UPD 14-01-08 09:52 OP:ep   STATUS:               ID:20130603153338 L   I
 2013-06-03-1530-00M.COL___257                                                 6
 STAT SP IPHASW D HRMM SECON CODA AMPLIT PERI AZIMU VELO AIN AR TRES W  DIS CAZ7
 BAR2 SZ IP     C 1533 57.77                             171    0.1610 20.8 199 
 BAR2 SZ ES       1534 12.81                             171    0.0710 20.8 199 
 BAR2 SZ I        1534 15.17        15.7 0.26            169           20.8 199 
 BRR  HZ IP     D 1533 59.57                             151    0.1510 75.1 300 
 BRR  HN ES       1534 16.68                             151    0.7210 75.1 300 
 BRR  HZ I        1534 20.42        17.7 0.20            147           75.1 300 
 PAM  SZ EP       1534  0.54                             150    0.2210 78.3  37 
 PAM  SN ES       1534 17.08                             150   -0.4910 78.3  37 
 PAM  SZ I        1534 19.30        11.4 0.40            153           78.3  37 
 RUS  HZ EP       1534  1.79                             144    0.2210 97.2 177 
 RUS  HN ES       1534 19.87                             144    0.0810 97.2 177 
 RUS  HZ I        1534 21.37         9.0 0.28            148           97.2 177 
 PTB  HZ EP       1534  4.54                             131   -0.70 9  150 260 
 PTB  HN ES       1534 25.49                             131   -0.83 9  150 260 
 PTB  HZ I        1534 30.46        11.8 0.20            130            150 260 
 NOR  HZ EP       1534 14.19                             118    0.31 8  235 235 
 NOR  HN ES       1534 41.10                             118   -0.61 8  235 235 
 NOR  HZ I        1534 47.93         7.8 0.18            119            235 235 
 SML  HZ EP       1534 14.90                             117   -0.29 8  248 335 
 SML  HN ES       1534 44.06                             117    0.02 8  248 335 
 SML  HZ I        1534 49.83        11.0 0.34            117            248 335 
 HEL  HZ EP   2   1534 19.47                             114    0.93 4  274 257 
 HEL  HN ES       1534 50.67                             114    0.67 8  274 257 
 HEL  HZ I        1534 57.47         4.9 0.22            115            274 257 
 URE  HZ EP   4   1534 18.24                             113   -1.38 0  287 292 
 URE  HN ES   2   1534 52.31                             113    0.40 4  287 292 
 URE  HZ I        1534 59.83         7.5 0.20            113            287 292 
 GUY2CHZ EP   4   1534 23.31                             112    1.52 0  301 236 
 GUY2CHN ES   4   1534 59.12                             112    3.35 0  301 236 
 GUY2CHZ I        1535  5.78         4.8 0.62                           301 236 
                                                                                
