 2010 11 3 1847 52.8 L   6.793 -73.123143.7  RSN 14 0.4 3.0LRSN                1
 GAP=138        0.88       2.8     5.1  5.3 -0.2051E+01  0.3304E+01  0.2623E+01E
 Epicentro: LOS SANTOS - SANTANDER                                             3
 ACTION:UP  10-12-17 16:50 OP:REBC STATUS:               ID:20101103184752 L   I
 2010-11-03-1845-06S.COL___127                                                 6
 STAT SP IPHASW D HRMM SECON CODA AMPLIT PERI AZIMU VELO SNR AR TRES W  DIS CAZ7
 BAR2 SZ IP       1848 12.04                             170    -0.110   23 197 
 BAR2 SZ ES   1   1848 27.02                             170    -0.2 7   23 197 
 BAR2 SZ I        1848 28.70       230.8 0.27                            23 197 
 GIR2 SZ EP       1848 12.15                             167    -0.110   33 346 
 GIR2 SZ ES   1   1848 27.17                             167    -0.2 7   33 346 
 BRR  HZ IP     D 1848 13.97                             151     0.110   74 298 
 BRR  HZ I        1848 14.78       209.3 0.38                            74 298 
 BRR  HN ES   1   1848 31.05                             151     0.8 7   74 298 
 RUS  HZ IP     C 1848 15.97                             144    -0.310  100 177 
 RUS  HN ES   1   1848 34.25                             144    -0.3 7  100 177 
 RUS  HZ I        1848 36.42        97.5 0.43                           100 177 
 GUE  SZ EP       1848 17.28                             139     0.010  117  11 
 GRA  SZ IP       1848 17.92                             136     0.110  126  16 
 GRA  SZ ES   1   1848 37.33                             136     0.0 7  126  16 
 GRA  SZ I        1848 38.38        74.1 0.56                           126  16 
 OCA  SZ EP       1848 20.91                             129    -0.1 9  161 352 
 OCA  SZ ES   1   1848 43.01                             129     0.0 7  161 352 
 OCA  SZ I        1848 45.87        94.7 0.35                           161 352 
 YOP  SZ EP       1848 22.60                             126     0.1 9  177 154 
 YOP  SE ES   1   1848 46.40                             126     0.7 7  177 154 
 NOR  SZ EP       1848 28.18                             118    -0.4 8  236 235 
 NOR  SE ES   2   1848 55.68                             118    -0.8 4  236 235 
 ROSC BZ EP   1   1848 31.86                             116     1.0 6  253 212 
 ROSC BE ES   1   1849  0.88                             116     0.4 6  253 212 
 ROSC BZ I        1849  7.46        38.4 0.50                           253 212 
 HEL  HZ EP   1   1848 33.58                             114     0.5 6  274 256 
 HEL  HE ES   3   1849  3.70                             114    -0.9 2  274 256 
 HEL  HZ I        1849 12.14        36.7 0.53                           274 256 
 VIL  SZ EP   2   1848 34.29                             112    -1.6 4  301 190 
 ANIL HN ES   3   1849 20.90                             108    -0.6 2  359 225 
 ANIL HZ I        1849 27.24        76.5 0.49                           359 225 
 PRA  HZ EP       1848 46.38                             106     0.1 6  393 210 
 PRA  HN ES   1   1849 27.65                             106    -0.4 4  393 210 
 PRA  HZ I        1849 35.71        70.3 0.26                           393 210 
                                                                                
