 2014  6 3 1046 18.8 L   6.570 -73.459114.3  RSN  6 0.4 1.5LRSN                1
 GAP=142        0.93       5.9     4.0  6.6  0.1172E+02  0.3685E+01 -0.4527E+01E
 Epicentro: EL CARMEN DE CHUCURI - SANTANDER                                   3
 ACTION:UPD 14-07-01 22:50 OP:nd   STATUS:               ID:20140603104618 L   I
 OLDACT:DUP 14-06-03 21:33 OP:stll STATUS:               ID:20140603103810d    3
 2014-06-03-1038-08M.COL___253                                                 6
 STAT SP IPHASW D HRMM SECON CODA AMPLIT PERI AZIMU VELO AIN AR TRES W  DIS CAZ7
 BAR2 SZ EP       1046 35.37                             164    0.4510 30.6  85 
 BAR2 SZ ES       1046 47.29                             164   -0.1710 30.6  85 
 BAR2 SZ I        1046 49.86        13.4 0.24            167           30.6  85 
 RUS  HZ EP       1046 38.51                             141    0.0710 85.6 151 
 RUS  HN ES       1046 53.78                             141    0.0510 85.6 151 
 RUS  HZ I        1046 55.58         4.8 0.28            147           85.6 151 
 PTB  HZ EP       1046 39.02                             133   -0.8310  110 268 
 PTB  HN ES       1046 56.18                             133   -0.0710  110 268 
 PTB  HZ I        1046 59.60         7.6 0.16            135            110 268 
 SPBC HZ EP       1046 41.37                             130    0.3410  122 214 
 TAM  HZ EP       1046 47.11                             117   -0.29 9  185  95 
 ZAR  HZ EP       1046 47.59                             117    0.21 9  185 303 
 ZAR  HN ES       1047  9.92                             117    0.27 9  185 303 
 ZAR  HZ I        1047 15.64         3.8 0.22            119            185 303 
                                                                                
