 2016  5 3 1916 49.6 L   6.548 -73.534111.8  RSN  9 0.5 2.3LRSN                1
 GAP= 66        1.16       3.7     3.6  7.4 -0.1834E+01  0.7584E+01 -0.4987E+00E
 Epicentro: EL CARMEN - SANTANDER                                              3
 ACTION:UPD 16-08-18 17:41 OP:cam  STATUS:               ID:20160503191649 L   I
 OLDACT:UP  16-05-03 22:58 OP:mh   STATUS:               ID:20160503190743     3
 OLDACT:UP  16-05-03 22:57 OP:mh   STATUS:               ID:20160503190743     3
 OLDACT:UP  16-05-03 22:57 OP:mh   STATUS:               ID:20160503190743     3
 OLDACT:UP  16-05-03 22:55 OP:mh   STATUS:               ID:20160503190743     3
 OLDACT:REG 16-05-03 21:55 OP:dani STATUS:               ID:20160503190743     3
 2016-05-03-1907-43M.COL___301                                                 6
 STAT SP IPHASW D HRMM SECON CODA AMPLIT PERI AZIMU VELO AIN AR TRES W  DIS CAZ7
 BAR2 EZ IP     D 1917  6.05                             159    0.3010 39.1  83 
 BAR2 EZ ES       1917 18.50                             159    0.1910 39.1  83 
 BAR2 EZ I        1917 19.74        87.7 0.31            167           39.1  83 
 BRR  HZ EP       1917  6.85                             148    0.0510 64.8 342 
 BRR  HN ES       1917 20.61                             148    0.4210 64.8 342 
 BRR  HZ I        1917 27.13        32.6 0.14            155           64.8 342 
 RUS  HZ EP       1917  9.09                             139   -0.0910 88.0 145 
 RUS  HN ES       1917 24.58                             139    0.1510 88.0 145 
 PTB  HZ EP       1917  8.90                             134   -0.8010  102 269 
 PTB  HE ES       1917 24.42                             134   -0.9310  102 269 
 PTB  HZ I        1917 25.63        38.9 0.20            138            102 269 
 SPBC HZ EP   1   1917 11.78                             130    0.75 7  116 211 
 SPBC HN ES       1917 27.74                             130    0.0310  116 211 
 SPBC HZ I        1917 49.62        44.2 0.22            134            116 211 
 PAM  EZ EP       1917 12.36                             128   -0.2810  127  46 
 PAM  EN ES       1917 30.12                             128   -0.4610  127  46 
 PAM  EZ I        1917 34.38        13.9 0.30            138            127  46 
 ZAR  HZ EP       1917 17.95                             117    0.51 9  180 306 
 ZAR  HN ES       1917 39.70                             117    0.57 9  180 306 
 ZAR  HZ I        1917 44.01        32.5 0.26            123            180 306 
 NOR  HZ EP       1917 17.87                             117   -0.06 9  184 234 
 NOR  HN ES       1917 40.20                             117    0.21 9  184 234 
 NOR  HZ I        1917 43.11        25.4 0.14            121            184 234 
 URE  HZ EP   4   1917 25.81                             108   -0.45 0  258 301 
 URE  HN ES   4   1917 53.58                             108   -1.24 0  258 301 
 URE  HZ I        1917 56.77        16.2 0.18            114            258 301 
                                                                                
