 2011  7 3 1025 42.7 L   7.423 -73.209130.1  RSN  4 0.1 1.3LRSN                1
 GAP=163        0.39       3.9     5.4  5.4 -0.1303E+02  0.7610E+00  0.4108E+01E
 Epicentro: EL PLAYON - SANTANDER                                              3
 ACTION:UPD 12-07-25 13:57 OP:epov STATUS:               ID:20110703102542 L   I
 2011-07-03-1022-19S.COL___140                                                 6
 STAT SP IPHASW D HRMM SECON CODA AMPLIT PERI AZIMU VELO AIN AR TRES W  DIS CAZ7
 BTL  SZ EP       1026  1.83                             155    0.1110 56.2 187 
 BRR  HZ EP       1026  1.73                             151   -0.1510 65.7 238 
 BRR  HZ I        1026 10.22         6.5 0.34                          65.7 238 
 BRR  HN ES   2   1026 17.04                             151    0.22 5 65.7 238 
 GRA  SZ EP       1026  2.38                             151    0.1410 67.8  41 
 GRA  SZ ES   1   1026 17.31                             151   -0.14 7 67.8  41 
 GRA  SZ I        1026 18.98         2.8 0.28                          67.8  41 
 BAR2 SZ EP       1026  3.92                             143   -0.0510 92.0 178 
 BAR2 SZ ES   2   1026 20.44                             143   -0.10 5 92.0 178 
                                                                                
