 2011 10 3 1431 28.1 L   6.799 -73.117145.1  RSN  9 0.3 2.1LRSN                1
 GAP=140        0.68       2.9     4.5  6.1  0.1086E+01  0.8560E+01  0.5109E+01E
 Epicentro: LOS SANTOS - SANTANDER                                             3
 ACTION:UPD 12-07-13 16:01 OP:ep   STATUS:               ID:20111003143128 L   I
 2011-10-03-1429-18S.COL___168                                                 6
 STAT SP IPHASW D HRMM SECON CODA AMPLIT PERI AZIMU VELO AIN AR TRES W  DIS CAZ7
 BAR2 SZ EP       1431 47.61                             170   -0.0310 24.0 198 
 BAR2 SZ I        1431 48.20        28.3 0.12                          24.0 198 
 BRR  HZ IP     C 1431 49.41                             151    0.0910 74.0 297 
 BRR  HN ES   1   1432  6.35                             151    0.46 7 74.0 297 
 BRR  HZ I        1432  9.65        46.1 0.15                          74.0 297 
 PAM  SZ EP   1   1431 50.44                             151    0.33 7 75.5  38 
 PAM  SN ES   1   1432  7.19                             151   -0.11 7 75.5  38 
 PAM  SZ I        1432  9.75        11.2 0.54                          75.5  38 
 RUS  HZ EP       1431 51.55                             144   -0.2010  100 178 
 RUS  HN ES   1   1432  9.98                             144   -0.23 7  100 178 
 RUS  HZ I        1432 12.72        13.2 0.35                           100 178 
 OCA  SZ EP   1   1431 56.28                             129   -0.11 7  161 352 
 OCA  SZ ES   1   1432 18.42                             129   -0.04 7  161 352 
 OCA  SZ I        1432 22.68        18.9 0.21                           161 352 
 ZAR  HN ES   1   1432 25.60                             122   -0.70 6  207 292 
 NOR  SZ EP       1432  3.80                             118   -0.24 8  237 235 
 CHI  HZ EP   1   1432  5.75                             117   -0.08 6  249 196 
 CHI  HN ES   1   1432 35.69                             117    0.42 6  249 196 
 CHI  HZ I        1432 38.53        10.0 0.32                           249 196 
 HEL  HZ EP   1   1432  9.48                             114    0.88 6  275 256 
 HEL  HZ I        1432 48.00         9.3 0.29                           275 256 
                                                                                
