 2016 11 3 1524 35.6 L   6.786 -73.153144.7  RSN  5 0.4 1.5LRSN                1
 GAP=136        1.06       5.7     5.5  7.8 -0.2892E+01  0.5254E+01  0.1961E+01E
 Epicentro: LOS SANTOS - SANTANDER                                             3
 ACTION:UPD 17-10-26 21:04 OP:lp   STATUS:               ID:20161103152435 L   I
 OLDACT:REG 16-11-03 20:52 OP:cog  STATUS:               ID:20161103151741     3
 2016-11-03-1518-00M.COL___337                                                 6
 STAT SP IPHASW D HRMM SECON CODA AMPLIT PERI AZIMU VELO AIN AR TRES W  DIS CAZ7
 BAR2 EZ EP       1524 55.03                             171   -0.0610 21.6 189 
 BAR2 EZ ES       1525  9.48                             171   -0.7910 21.6 189 
 BAR2 EZ I        1525 11.67         6.9 0.26            171           21.6 189 
 BRR  HZ EP       1524 56.81                             152    0.1510 71.3 300 
 BRR  HN ES       1525 13.74                             152    0.6710 71.3 300 
 PAM  EZ EP       1524 57.83                             150    0.0010 79.1  39 
 PAM  EE ES       1525 15.08                             150   -0.0710 79.1  39 
 PAM  EZ I        1525 16.17         4.5 0.16            151           79.1  39 
 RUS  HZ EP       1524 59.38                             144    0.2210 99.1 176 
 RUS  HZ ES       1525 17.95                             144    0.4310 99.1 176 
 PTB  HZ EP       1525  1.93                             132   -0.47 9  147 259 
 PTB  HN ES       1525 23.12                             132   -0.17 9  147 259 
 PTB  HZ I        1525 25.52         7.0 0.18            133            147 259 
 ROSC BZ EP   4   1525 16.46                             117    2.97 0  251 211 
 ROSC BN ES   4   1525 39.18                             117   -3.85 0  251 211 
                                                                                
