 2010  1 3 1600 13.2 L   6.795 -73.071142.4  RSN  6 0.2 1.9LRSN                1
 GAP=191        0.39       2.4     7.6  5.1 -0.2682E+01  0.2042E+02 -0.2589E+00E
 Epicentro: LOS SANTOS - SANTANDER                                             3
 ACTION:UP  10-08-24 09:42 OP:vdl  STATUS:               ID:20100103160013 L   I
 2010-01-03-1555-58S.COL___096                                                 6
 STAT SP IPHASW D HRMM SECON CODA AMPLIT PERI AZIMU VELO SNR AR TRES W  DIS CAZ7
 BAR2 SZ IP       16 0 32.47                             169     0.010   26 209 
 BAR2 SZ ES   2   16 0 47.40                             169    -0.1 5   26 209 
 RUS  BZ EP   1   16 0 36.47                             143    -0.1 7  100 181 
 RUS  BZ I        16 0 37.38         9.8 0.13                           100 181 
 RUS  BN ES   2   16 0 55.08                             143     0.3 5  100 181 
 OCA  SZ EP   1   16 0 41.70                             128     0.3 7  162 350 
 OCA  SZ ES   2   16 1  3.02                             128    -0.4 5  162 350 
 CHI  HZ EP   1   16 0 50.76                             116    -0.2 6  250 197 
 CHI  HE ES   2   16 1 20.45                             116     0.1 4  250 197 
 CHI  HZ I        16 1 27.28         6.7 0.44                           250 197 
 HEL  HZ EP   1   16 0 54.31                             113     0.2 6  280 256 
 HEL  HZ I        16 1 31.59         6.3 0.62                           280 256 
 PRA  HZ EP   1   16 1  6.88                             106    -0.2 4  396 211 
 PRA  HN ES   2   16 1 48.91                             106    -0.1 3  396 211 
                                                                                
