 2016  7 3 1850 20.6 L   6.796 -73.120151.1  RSN 11 0.5 2.0LRSN                1
 GAP=240        1.12       4.9     5.0  6.8  0.2950E+01  0.1155E+02  0.4629E+01E
 Epicentro: LOS SANTOS - SANTANDER                                             3
 ACTION:UPD 17-03-29 16:46 OP:lp   STATUS:               ID:20160703185020 L   I
 OLDACT:REG 16-07-03 22:47 OP:ak   STATUS:               ID:20160703184743     3
 2016-07-03-1847-43M.COL___334                                                 6
 STAT SP IPHASW D HRMM SECON CODA AMPLIT PERI AZIMU VELO AIN AR TRES W  DIS CAZ7
 BAR2 EZ EP       1850 40.96                             171    0.0510 23.6 197 
 BAR2 EZ ES       1850 56.84                             171    0.1110 23.6 197 
 BAR2 EZ I        1850 59.43        11.5 0.16            167           23.6 197 
 BRR  HZ EP       1850 42.77                             153    0.2610 73.9 298 
 BRR  HN ES       1851  0.00                             153    0.4210 73.9 298 
 BRR  HZ I        1851  2.15        15.2 0.22            150           73.9 298 
 RUS  HZ EP       1850 44.78                             145   -0.0910100.0 178 
 RUS  HN ES       1851  3.86                             145    0.0810100.0 178 
 RUS  HZ I        1851  4.53         9.7 0.28            146          100.0 178 
 PTB  HZ EP       1850 47.31                             133   -0.97 9  150 259 
 PTB  HN ES       1851  9.10                             133   -0.75 9  150 259 
 PTB  HZ I        1851 16.14        13.8 0.42            132            150 259 
 SPBC HZ EP       1850 49.81                             130    0.13 9  165 220 
 SPBC HN ES       1851 12.16                             130   -0.18 9  165 220 
 ZAR  HZ EP       1850 54.62                             123    0.91 8  207 292 
 ZAR  HN ES       1851 18.80                             123   -0.72 8  207 292 
 ZAR  HZ I        1851 25.20        20.1 0.22            123            207 292 
 NOR  HZ EP       1850 56.12                             119   -0.77 8  237 235 
 NOR  HN ES       1851 25.40                             119    0.22 8  237 235 
 NOR  HZ I        1851 33.01         8.3 0.26            120            237 235 
 HEL  HZ EP   2   1851  2.16                             116    0.75 4  275 256 
 HEL  HN ES       1851 33.91                             116    0.69 8  275 256 
 HEL  HZ I        1851 40.90         5.7 0.32            116            275 256 
 GUY2CHZ EP   2   1851  4.90                             113    0.18 4  303 235 
 GUY2CHN ES       1851 39.47                             113    0.36 7  303 235 
 GUY2CHZ I        1851 49.76         6.7 0.52                           303 235 
 CBOC HN ES       1851 45.53                             111    0.47 7  336 252 
 PRA  HZ EP   2   1851 14.66                             107    0.20 3  393 210 
 PRA  HN ES       1851 56.33                             107   -0.11 6  393 210 
 PRA  HZ I        1852  0.76         5.0 0.72            109            393 210 
 SJC  HZ EP   4   1851 14.92                             106   -1.67 0  411 327 
                                                                                
