 2015  5 3 1733 26.9 L   6.796 -73.117148.0  RSN  5 0.4 1.3LRSN                1
 GAP=140        0.84       4.1     6.3  6.4  0.5665E+01  0.2031E+01 -0.3027E+01E
 Epicentro: LOS SANTOS - SANTANDER                                             3
 ACTION:UPD 15-09-10 22:01 OP:cam  STATUS:               ID:20150503173326 L   I
 OLDACT:REG 15-05-03 21:16 OP:ak   STATUS:               ID:20150503172750     3
 2015-05-03-1727-50M.COL___274                                                 6
 STAT SP IPHASW D HRMM SECON CODA AMPLIT PERI AZIMU VELO AIN AR TRES W  DIS CAZ7
 BAR2 EZ EP       1733 46.82                             170   -0.0210 23.6 198 
 BAR2 EZ ES       1734  2.09                             170   -0.2810 23.6 198 
 BAR2 EZ I        1734  4.53         5.0 0.26            171           23.6 198 
 BRR  HZ EP       1733 48.70                             152    0.2010 74.2 298 
 BRR  HE ES       1734  5.69                             152    0.3810 74.2 298 
 BRR  HZ I        1734  6.94         4.3 0.13            154           74.2 298 
 PAM  SZ IP     D 1733 49.74                             152    0.4410 75.8  37 
 PAM  SN ES       1734  6.63                             152   -0.1110 75.8  37 
 PAM  SZ I        1734  9.14         3.6 0.50            153           75.8  37 
 RUS  HZ EP       1733 51.03                             144    0.1710 99.9 178 
 RUS  HN ES   1   1734  8.99                             144   -0.54 7 99.9 178 
 RUS  HZ I        1734 11.13         1.9 0.24            146           99.9 178 
 SML  HZ EP   2   1734  2.97                             117   -0.91 4  245 335 
 SML  HN ES       1734 32.17                             117   -0.52 8  245 335 
                                                                                
