 2013  7 3 1623 22.6 L   6.528 -73.053135.1  RSN  5 0.2 1.7LRSN                1
 GAP=159        0.56       2.9     3.3  4.9 -0.2577E+01  0.3487E+01  0.1207E+00E
 Epicentro: CURITI - SANTANDER                                                 3
 ACTION:UPD 13-08-12 10:35 OP:ep   STATUS:               ID:20130703162322 L   I
 OLDACT:REG 13-07-03 14:15 OP:jn   STATUS:               ID:20130703161959     3
 2013-07-03-1619-59M.COL___267                                                 6
 STAT SP IPHASW D HRMM SECON CODA AMPLIT PERI AZIMU VELO AIN AR TRES W  DIS CAZ7
 BAR2 SZ EP   4   1623 42.45                             173    1.68 0 16.0 296 
 BAR2 SZ ES   4   1623 57.87                             173    2.89 0 16.0 296 
 BAR2 SZ I        1624  0.45        13.0 0.36            174           16.0 296 
 GIR2 SZ EP       1623 42.37                             154    0.0810 62.9 346 
 GIR2 SZ ES       1623 57.49                             154   -0.2010 62.9 346 
 GIR2 SZ I        1623 59.41         6.9 0.12            163           62.9 346 
 RUS  HZ EP       1623 42.82                             151   -0.4010 70.3 183 
 RUS  HN ES       1623 59.57                             151    0.2310 70.3 183 
 RUS  HZ I        1624  7.77         8.8 0.46            152           70.3 183 
 PAM  SZ EP       1623 45.25                             142    0.1810 97.9  23 
 PAM  SN ES       1624  2.65                             142    0.0210 97.9  23 
 PAM  SZ I        1624  4.77         9.7 0.48            152           97.9  23 
 PTB  HZ EP       1623 49.46                             128    0.07 9  155 271 
 PTB  HN ES       1624 10.35                             128    0.03 9  155 271 
 PTB  HZ I        1624 13.88         6.8 0.10            134            155 271 
                                                                                
