 2016  9 3 1126 49.2 L   6.796 -73.162144.9  RSN  8 0.2 1.4LRSN                1
 GAP=135        0.65       2.6     3.1  4.2  0.1517E+01  0.1222E+01 -0.3924E+00E
 Epicentro: LOS SANTOS - SANTANDER                                             3
 ACTION:UPD 17-08-17 21:06 OP:lp   STATUS:               ID:20160903112649 L   I
 OLDACT:DUP 16-09-03 23:15 OP:edw  STATUS:               ID:20160903111738d    3
 2016-09-03-1118-00M.COL___355                                                 6
 STAT SP IPHASW D HRMM SECON CODA AMPLIT PERI AZIMU VELO AIN AR TRES W  DIS CAZ7
 BAR2 EZ EP       1127  8.52                             171   -0.1710 22.6 186 
 BAR2 EZ ES       1127 23.95                             171    0.0410 22.6 186 
 BAR2 EZ I        1127 25.14         9.2 0.16            168           22.6 186 
 BRR  HZ EP       1127 10.59                             153    0.4210 69.9 300 
 BRR  HN ES       1127 26.58                             153    0.0510 69.9 300 
 PAM  EZ EP       1127 11.04                             150   -0.3610 78.9  40 
 RUS  HZ EP       1127 12.83                             144    0.0110  100 175 
 RUS  HN ES       1127 31.46                             144    0.2010  100 175 
 RUS  HZ I        1127 32.77         1.8 0.26            144            100 175 
 PTB  HZ EP       1127 15.81                             132   -0.11 9  146 259 
 PTB  HN ES       1127 36.25                             132   -0.52 9  146 259 
 PTB  HZ I        1127 40.98         2.1 0.24            131            146 259 
 SPBC HZ EP       1127 17.64                             129    0.17 9  162 219 
 SPBC HN ES       1127 39.70                             129    0.16 9  162 219 
 SPBC HZ I        1127 44.35         5.5 0.20            129            162 219 
 ZAR  HZ EP       1127 21.65                             122    0.23 9  203 292 
 ZAR  HN ES       1127 46.66                             122    0.09 9  203 292 
 ZAR  HZ I        1127 51.72         3.7 0.36            122            203 292 
 CHI  HN ES       1127 55.80                             117   -0.22 8  248 195 
                                                                                
