 2017  9 3 1913 40.6 L   6.752 -73.079143.2  RSN  5 0.3 1.3LRSN                1
 GAP=147        0.78       4.0     4.4  5.6  0.3665E+01  0.5775E+01 -0.1299E+01E
 Epicentro: LOS SANTOS - SANTANDER                                             3
 ACTION:UPD 17-10-05 19:08 OP:rebc STATUS:               ID:20170903191340 L   I
 OLDACT:REG 17-09-03 21:18 OP:dhb  STATUS:               ID:20170903190744     3
 2017-09-03-1908-00M.COL___417                                                 6
 STAT SP IPHASW D HRMM SECON CODA AMPLIT PERI AZIMU VELO AIN AR TRES W  DIS CAZ7
 BAR2 EZ EP       1913 59.38                             171   -0.4610 21.0 213 
 BAR2 EZ ES       1914 15.26                             171    0.3810 21.0 213 
 BAR2 EZ I        1914 19.11         2.7 0.22            171           21.0 213 
 PAM  EZ EP       1914  2.61                             150    0.1010 77.4  33 
 PAM  EN ES       1914 19.73                             150    0.1010 77.4  33 
 PAM  EZ I        1914 21.96         2.2 0.10            154           77.4  33 
 BRR  HZ EP       1914  1.69                             149   -0.2910 80.2 299 
 BRR  HE ES       1914 18.29                             149   -0.4010 80.2 299 
 BRR  HZ I        1914 21.72         5.3 0.30            150           80.2 299 
 RUS  HZ EP       1914  3.89                             145    0.2210 95.0 180 
 RUS  HN ES       1914 21.61                             145   -0.0710 95.0 180 
 RUS  HZ I        1914 23.36         2.4 0.13            148           95.0 180 
 ZAR  HZ EP       1914 13.98                             121    0.21 8  213 293 
 ZAR  HN ES       1914 40.06                             121    0.39 8  213 293 
 ZAR  HZ I        1914 43.90         3.3 0.28            123            213 293 
                                                                                
