 2013  8 3 1115 52.6 L   6.829 -73.132148.0  RSN 13 0.4 2.3LRSN                1
 GAP=185        0.83       2.3     3.6  4.4  0.2470E+00  0.3679E+01  0.1826E+01E
 Epicentro: LOS SANTOS - SANTANDER                                             3
 ACTION:UPD 14-01-14 08:58 OP:ep   STATUS:               ID:20130803111552 L   I
 OLDACT:UP  13-08-03 16:05 OP:cam  STATUS:               ID:20130803110959     3
 OLDACT:REG 13-08-03 14:47 OP:cam  STATUS:               ID:20130803110959     3
 2013-08-03-1109-59M.COL___270                                                 6
 STAT SP IPHASW D HRMM SECON CODA AMPLIT PERI AZIMU VELO AIN AR TRES W  DIS CAZ7
 BAR2 SZ EP       1116 12.58                             169   -0.0010 26.7 192 
 BAR2 SZ ES       1116 27.90                             169   -0.2610 26.7 192 
 BAR2 SZ I        1116 29.33        38.9 0.20            166           26.7 192 
 GIR2 SZ EP       1116 12.54                             169    0.0610 28.5 346 
 GIR2 SZ ES       1116 28.17                             169    0.1910 28.5 346 
 GIR2 SZ I        1116 29.57        33.6 0.51            166           28.5 346 
 BRR  HZ EP       1116 14.50                             153    0.5010 71.1 296 
 BRR  HN ES       1116 31.21                             153    0.5310 71.1 296 
 BRR  HZ I        1116 34.66        28.6 0.20            148           71.1 296 
 RUS  HZ EP       1116 16.48                             143   -0.3210  104 177 
 RUS  HN ES       1116 35.72                             143    0.0510  104 177 
 RUS  HZ I        1116 36.36        19.7 0.26            144            104 177 
 PTB  HZ EP       1116 19.37                             132   -0.58 9  150 258 
 PTB  HN ES       1116 40.58                             132   -0.70 9  150 258 
 PTB  HZ I        1116 46.57        20.6 0.20            130            150 258 
 OCA  HZ EP   2   1116 21.70                             131    0.88 5  157 352 
 OCA  HN ES       1116 42.56                             131   -0.27 9  157 352 
 OCA  HZ I        1116 45.88        19.4 0.26            131            157 352 
 SPBC HZ EP   1   1116 21.64                             129    0.03 7  167 219 
 SPBC HN ES   1   1116 44.47                             129    0.25 7  167 219 
 SPBC HZ I        1116 48.00        34.2 0.20            128            167 219 
 ZAR  HZ EP   4   1116 26.78                             123    1.55 0  204 291 
 ZAR  HE ES       1116 50.73                             123    0.06 9  204 291 
 ZAR  HZ I        1116 55.81        23.3 0.28            122            204 291 
 NOR  HZ EP       1116 28.77                             119   -0.03 8  238 234 
 NOR  HN ES       1116 57.39                             119    0.36 8  238 234 
 NOR  HZ I        1117  5.75        12.9 0.36            118            238 234 
 SML  HZ EP   1   1116 29.54                             118    0.41 6  241 335 
 SML  HN ES       1116 57.14                             118   -0.46 8  241 335 
 SML  HZ I        1117  3.11        15.8 0.52            118            241 335 
 CHI  HZ EP       1116 30.95                             117    0.14 8  252 195 
 CHI  HE ES       1117  0.37                             117   -0.23 8  252 195 
 CHI  HZ I        1117  5.42        15.2 0.36            117            252 195 
 HEL  HZ EP   4   1116 34.83                             115    1.64 0  274 255 
 HEL  HN ES       1117  5.08                             115    0.24 8  274 255 
 HEL  HZ I        1117 10.71        13.2 0.30            114            274 255 
 PRA  HZ EP       1116 46.49                             107   -0.13 6  395 210 
 PRA  HE ES   1   1117 29.38                             107    0.64 4  395 210 
 PRA  HZ I        1117 34.99        13.2 0.26            107            395 210 
                                                                                
