 2012  3 3 1038 21.0 L   6.754 -73.145144.6  RSN  5 0.4 1.4LRSN                1
 GAP=234        0.86       9.8     9.9  9.2  0.6812E+02  0.1541E+02  0.3043E+01E
 ACTION:UP  12-03-31 23:16 OP:EP   STATUS:               ID:20120303103821 L   I
 2012-03-03-1037-59S.COL___194                                                 6
 STAT SP IPHASW D HRMM SECON CODA AMPLIT PERI AZIMU VELO SNR AR TRES W  DIS CAZ7
 BAR2 SZ EP   1   1038 40.29                             172    -0.1 7   18 193 
 BAR2 SZ ES   1   1038 54.94                             172    -0.6 7   18 193 
 BAR2 SZ I        1038 57.53         6.3 0.31                            18 193 
 BRR  HZ EP   1   1038 42.35                             151     0.2 7   74 302 
 BRR  HZ I        1038 44.65         7.4 0.31                            74 302 
 BRR  HE ES   1   1038 58.94                             151     0.3 7   74 302 
 RUS  HZ EP   1   1038 44.22                             145    -0.1 7   96 176 
 RUS  HN ES   1   1039  3.02                             145     0.6 7   96 176 
 RUS  HZ I        1039  4.89         2.4 0.33                            96 176 
 PTB  HZ EP   1   1038 47.39                             132    -0.4 7  147 261 
 PTB  HE ES   2   1039  8.28                             132    -0.4 5  147 261 
 ZAR  HN ES   1   1039 19.35                             122     0.4 6  206 293 
 ZAR  HZ I        1039 20.36         2.2 0.07                           206 293 
                                                                                
