 2014  9 3 1342 11.0 L   7.440 -73.193130.7  RSN  6 0.5 1.8LRSN                1
 GAP=134        1.04       4.8     5.5  8.6  0.8425E+01  0.8857E+01 -0.6431E+01E
 Epicentro: EL PLAYON - SANTANDER                                              3
 ACTION:UPD 14-10-03 23:02 OP:nd   STATUS:               ID:20140903134211 L   I
 OLDACT:REG 14-09-03 20:58 OP:fm   STATUS:               ID:20140903133817     3
 2014-09-03-1338-17M.COL___269                                                 6
 STAT SP IPHASW D HRMM SECON CODA AMPLIT PERI AZIMU VELO AIN AR TRES W  DIS CAZ7
 PAM  SZ EP       1342 31.09                             155    0.7510 55.6 101 
 PAM  SN ES       1342 45.38                             155   -0.0810 55.6 101 
 PAM  SZ I        1342 49.72         4.5 0.18            159           55.6 101 
 BRR  HN ES       1342 45.35                             151   -0.0610 68.1 237 
 BRR  HZ I        1342 46.61        17.6 0.12            153           68.1 237 
 BAR2 SZ EP   1   1342 32.76                             142    0.37 7 93.7 179 
 BAR2 SZ ES   1   1342 48.90                             142   -0.20 7 93.7 179 
 BAR2 SZ I        1342 50.34        28.8 0.14            146           93.7 179 
 RUS  HZ EP   1   1342 39.12                             124   -0.60 7  172 176 
 RUS  HN ES   1   1343  1.57                             124   -0.58 7  172 176 
 SML  HZ EP   1   1342 39.83                             122    0.01 7  179 327 
 SML  HN ES       1343  1.70                             122   -0.63 9  179 327 
 SML  HZ I        1343  4.18         6.4 0.10            125            179 327 
 ZAR  HZ EP   1   1342 40.21                             122   -0.13 7  184 272 
 ZAR  HN ES   1   1343  4.13                             122    0.87 7  184 272 
 ZAR  HZ I        1343  7.65         6.3 0.44            124            184 272 
                                                                                
