 2017  8 3 1640 12.4 L   6.788 -73.545104.0  RSN  6 0.3 1.5LRSN                1
 GAP=118        0.71       3.3     2.6  5.8 -0.2768E+01  0.6567E+01 -0.3684E+01E
 Epicentro: EL CARMEN - SANTANDER                                              3
 ACTION:UPD 17-09-04 20:15 OP:rebc STATUS:               ID:20170803164012 L   I
 OLDACT:REG 17-08-03 21:49 OP:dhb  STATUS:               ID:20170803163739     3
 2017-08-03-1638-00M.COL___398                                                 6
 STAT SP IPHASW D HRMM SECON CODA AMPLIT PERI AZIMU VELO AIN AR TRES W  DIS CAZ7
 BAR2 EZ IP     C 1640 28.48                             155    0.5010 45.5 118 
 BAR2 EZ ES       1640 40.40                             155    0.3110 45.5 118 
 BAR2 EZ I        1640 41.49        22.0 0.24            161           45.5 118 
 PTB  HZ EP       1640 31.81                             131   -0.2610  104 255 
 PTB  HN ES       1640 47.16                             131   -0.2310  104 255 
 PTB  HZ I        1640 48.15         8.8 0.12            132            104 255 
 RUS  HZ EP       1640 33.26                             130   -0.1010  111 153 
 RUS  HN ES       1640 49.30                             130   -0.3810  111 153 
 RUS  HZ I        1640 50.64         6.5 0.34            135            111 153 
 PAM  EZ EP       1640 33.28                             129   -0.0910  112  57 
 PAM  EN ES       1640 49.56                             129   -0.1410  112  57 
 PAM  EZ I        1640 52.65         5.1 0.38            132            112  57 
 ZAR  HZ EP       1640 38.21                             117    0.03 9  165 298 
 ZAR  HN ES   4   1641  1.37                             117    3.12 0  165 298 
 ZAR  HZ I        1641  5.41         3.4 0.22            118            165 298 
 NOR  HZ EP       1640 42.29                             112    0.18 9  200 227 
 NOR  HN ES       1641  5.51                             112    0.26 9  200 227 
 NOR  HZ I        1641 10.56         2.1 0.22            114            200 227 
                                                                                
