 2012  9 3 1326  2.9 L   6.377 -73.658113.5  RSN  6 0.3 1.8LRSN                1
 GAP=152        0.51       3.5     2.8  5.3  0.3159E+01  0.1790E+01  0.9685E+00E
 Epicentro: SANTA HELENA DEL OPON - SANTANDER                                  3
 ACTION:UPD 12-10-22 14:16 OP:ep   STATUS:               ID:20120903132602 L   I
 2012-09-03-1320-00M.COL___218                                                 6
 STAT SP IPHASW D HRMM SECON CODA AMPLIT PERI AZIMU VELO AIN AR TRES W  DIS CAZ7
 BAR2 SZ EP       1326 20.28                             151    0.1010 57.8  66 
 BAR2 SZ ES   1   1326 33.23                             151   -0.40 7 57.8  66 
 BAR2 SZ I        1326 35.18        55.1 0.26                          57.8  66 
 BRR  HZ EP       1326 21.41                             142    0.0110 81.0 356 
 BRR  HN ES   1   1326 35.88                             142    0.07 7 81.0 356 
 BRR  HZ I        1326 37.60        10.6 0.30                          81.0 356 
 RUS  HZ EP       1326 22.20                             141   -0.0610 83.2 130 
 RUS  HZ I        1326 22.46         6.5 0.32                          83.2 130 
 RUS  HN ES   1   1326 37.62                             141    0.29 7 83.2 130 
 PTB  HZ EP       1326 21.96                             139   -0.1810 90.1 282 
 PTB  HN ES   1   1326 37.08                             139   -0.04 7 90.1 282 
 GIR2 SZ EP       1326 22.65                             137    0.1010 93.1  33 
 ZAR  HZ ES   3   1326 54.36                             117    1.50 2  181 313 
                                                                                
