 2017  4 3 1401  7.8 L   6.773 -73.195147.1  RSN  4 0.2 1.4LRSN                1
 GAP=230        0.55       4.4     4.1  4.4  0.8779E+01  0.1707E+01  0.5792E+00E
 Epicentro: ZAPATOCA - SANTANDER                                               3
 ACTION:UPD 17-05-30 21:08 OP:jn   STATUS:               ID:20170403140107 L   I
 OLDACT:REG 17-04-03 21:02 OP:ar   STATUS:               ID:20170403135746     3
 2017-04-03-1358-00M.COL___365                                                 6
 STAT SP IPHASW D HRMM SECON CODA AMPLIT PERI AZIMU VELO AIN AR TRES W  DIS CAZ7
 BAR2 EZ EP       14 1 27.23                             172   -0.3410 20.0 176 
 BAR2 EZ ES       14 1 42.91                             172   -0.0510 20.0 176 
 BAR2 EZ I        14 1 43.27         8.8 0.38            178           20.0 176 
 BRR  HZ EP       14 1 28.90                             154   -0.0610 68.0 303 
 BRR  HE ES       14 1 45.65                             154    0.2210 68.0 303 
 BRR  HZ I        14 1 53.62         9.1 0.54            153           68.0 303 
 RUS  HZ EP       14 1 31.86                             145    0.3110 98.2 173 
 RUS  HN ES       14 1 50.03                             145   -0.0110 98.2 173 
 RUS  HZ I        14 1 51.21         1.8 0.28            152           98.2 173 
 PTB  HZ EP       14 1 34.45                             134    0.06 9  142 260 
 PTB  HE ES       14 1 54.96                             134   -0.13 9  142 260 
 PTB  HZ I        14 1 55.87         2.8 0.18            137            142 260 
                                                                                
