 2016 11 3 1850 20.4 L   6.890 -73.163139.2  RSN  5 0.4 1.3LRSN                1
 GAP=151        0.96       4.8     5.6  7.9 -0.8175E+01  0.1239E+02  0.2999E+01E
 Epicentro: BETULIA - SANTANDER                                                3
 ACTION:UPD 17-10-26 21:04 OP:lp   STATUS:               ID:20161103185020 L   I
 OLDACT:REG 16-11-03 21:35 OP:cog  STATUS:               ID:20161103184745     3
 2016-11-03-1848-00M.COL___340                                                 6
 STAT SP IPHASW D HRMM SECON CODA AMPLIT PERI AZIMU VELO AIN AR TRES W  DIS CAZ7
 BAR2 EZ EP       1850 40.18                             166    0.6710 33.0 184 
 BAR2 EZ ES       1850 53.98                             166   -0.4110 33.0 184 
 BAR2 EZ I        1850 56.33         4.6 0.17            166           33.0 184 
 PAM  EZ EP       1850 41.59                             152    0.0110 71.4  46 
 PAM  EE ES       1850 58.01                             152   -0.0810 71.4  46 
 PAM  EZ I        1851  0.53         2.9 0.23            155           71.4  46 
 RUS  HZ EP       1850 44.25                             140   -0.0510  111 175 
 RUS  HN ES       1851  3.14                             140    0.2110  111 175 
 RUS  HZ I        1851  7.75         2.0 0.25            142            111 175 
 PTB  HZ EP       1850 46.30                             130   -0.60 9  148 255 
 PTB  HE ES       1851  7.92                             130    0.37 9  148 255 
 PTB  HZ I        1851 10.37         4.4 0.10            133            148 255 
 CHI  HN ES       1851 28.43                             115   -0.25 8  258 194 
                                                                                
