 2016  7 3 1339 51.4 L   6.823 -73.155145.1  RSN 20 0.4 2.6LRSN                1
 GAP=239        0.87       3.0     3.4  4.3  0.3480E+01  0.4652E+01  0.3261E+01E
 Epicentro: LOS SANTOS - SANTANDER                                             3
 ACTION:UPD 17-03-29 16:46 OP:lp   STATUS:               ID:20160703133951 L   I
 OLDACT:REG 16-07-03 22:31 OP:ak   STATUS:               ID:20160703133744     3
 2016-07-03-1337-44M.COL___337                                                 6
 STAT SP IPHASW D HRMM SECON CODA AMPLIT PERI AZIMU VELO AIN AR TRES W  DIS CAZ7
 BAR2 EZ IP     D 1340 11.00                             169   -0.0310 25.7 187 
 BAR2 EZ ES       1340 26.31                             169   -0.0110 25.7 187 
 BAR2 EZ I        1340 31.76        45.3 0.24            163           25.7 187 
 BRR  HZ IP     C 1340 12.69                             153    0.3010 69.1 297 
 BRR  HN ES       1340 29.20                             153    0.4610 69.1 297 
 BRR  HZ I        1340 33.78        64.4 0.10            149           69.1 297 
 RUS  HZ EP       1340 15.13                             143   -0.1810  103 176 
 RUS  HN ES       1340 33.70                             143   -0.2310  103 176 
 RUS  HZ I        1340 35.45        29.6 0.34            143            103 176 
 PTB  HZ EP       1340 17.74                             132   -0.56 9  147 258 
 PTB  HN ES       1340 38.70                             132   -0.56 9  147 258 
 PTB  HZ I        1340 44.36        52.0 0.56            130            147 258 
 SPBC HZ EP       1340 20.11                             129    0.10 9  165 218 
 SPBC HN ES       1340 42.56                             129    0.26 9  165 218 
 SPBC HZ I        1340 49.98        83.6 0.24            128            165 218 
 ZAR  HZ EP       1340 23.43                             122   -0.21 9  202 292 
 ZAR  HN ES       1340 48.95                             122    0.19 9  202 292 
 ZAR  HZ I        1340 57.26        46.7 0.32            123            202 292 
 NOR  HZ EP       1340 27.29                             118    0.09 8  235 234 
 NOR  HN ES       1340 55.28                             118    0.19 8  235 234 
 NOR  HZ I        1341  1.42        35.9 0.30            119            235 234 
 CHI  HZ EP       1340 29.31                             117   -0.02 8  251 195 
 CHI  HN ES       1340 59.03                             117    0.13 8  251 195 
 CHI  HZ I        1341  6.96        15.9 0.30            118            251 195 
 ROSC BZ EP   4   1340 30.96                             116    1.26 0  254 211 
 ROSC BN ES   4   1341  2.51                             116    2.96 0  254 211 
 ROSC BZ I        1341  8.38        23.0 0.25            117            254 211 
 HEL  HZ EP   2   1340 32.29                             115    0.72 4  272 255 
 HEL  HN ES       1341  2.98                             115    0.09 8  272 255 
 HEL  HZ I        1341  9.46        30.0 0.40            115            272 255 
 URE  HZ EP   4   1340 30.69                             114   -1.57 0  282 292 
 URE  HN ES       1341  3.32                             114   -0.78 7  282 292 
 URE  HZ I        1341 13.89        28.2 0.18            115            282 292 
 GUY2CHZ EP   4   1340 37.02                             112    1.93 0  302 234 
 GUY2CHN ES       1341  9.68                             112    0.54 7  302 234 
 GUY2CHZ I        1341 20.98        23.2 0.52                           302 234 
 VIL  SZ EP       1340 35.50                             112    0.42 7  306 191 
 VIL  SN ES       1341  8.76                             112   -0.37 7  306 191 
 CBOC HZ EP       1340 39.22                             110    0.92 7  333 252 
 CBOC HN ES       1341 14.02                             110   -0.84 7  333 252 
 CBOC HZ I        1341 27.17        11.6 0.54            111            333 252 
 DBB  SZ EP       1340 38.69                             109   -0.06 7  338 274 
 DBB  SZ ES       1341 16.31                             109    0.66 7  338 274 
 DBB  SZ I        1341 25.81        33.9 0.36            111            338 274 
 ANIL HZ EP   2   1340 41.27                             108   -0.07 3  358 224 
 ANIL HN ES   4   1341 22.99                             108    2.72 0  358 224 
 ANIL HZ I        1341 27.86        38.2 0.38            110            358 224 
 PRA  HZ EP       1340 44.67                             106   -0.46 6  394 209 
 PRA  HN ES       1341 27.17                             106    0.15 6  394 209 
 PRA  HZ I        1341 33.00        17.0 0.42            108            394 209 
 ORTC HZ EP       1340 46.20                             106    0.70 6  397 216 
 ORTC HN ES       1341 27.57                             106   -0.11 6  397 216 
 ORTC HZ I        1341 33.79        11.2 0.40            108            397 216 
 PAL  HZ EP       1340 45.84                             106   -0.78 6  406 239 
 PAL  HE ES   4   1341 26.47                             106   -3.20 0  406 239 
 PAL  HZ I        1341 35.82         5.8 0.25            107            406 239 
 SJC  HZ EP   4   1340 45.09                             106   -1.57 0  407 327 
 SJC  HN ES   4   1341 25.97                             106   -3.76 0  407 327 
 SJC  HZ I        1341 29.22        13.2 0.54            108            407 327 
                                                                                
