 2010  2 3 1122 44.8 L   6.828 -72.867142.9  RSN  5 0.3 2.0LRSN                1
 GAP=245        0.44       5.3    17.8  5.8 -0.3547E+02 -0.4807E+01  0.1297E+02E
 Epicentro: SAN ANDRES - SANTANDER                                             3
 ACTION:UP  10-08-24 09:47 OP:vdl  STATUS:               ID:20100203112244 L   I
 2010-02-03-1119-30S.COL___097                                                 6
 STAT SP IPHASW D HRMM SECON CODA AMPLIT PERI AZIMU VELO SNR AR TRES W  DIS CAZ7
 BAR2 SZ EP   2   1123  5.25                             162     0.6 5   44 233 
 BAR2 SZ ES   1   1123 20.10                             162     0.0 7   44 233 
 GIR2 SZ EP   2   1123  4.34                             162    -0.2 5   46 308 
 GIR2 SZ ES   2   1123 19.91                             162    -0.1 5   46 308 
 RUS  BE ES   2   1123 27.21                             142     0.0 5  106 193 
 CHI  HZ EP   2   1123 23.58                             115    -0.1 4  261 202 
 CHI  HE ES   2   1123 53.77                             115    -0.3 4  261 202 
 PRA  HZ EP   2   1123 39.90                             105    -0.5 3  411 213 
 PRA  HE ES   2   1124 24.21                             105     0.5 3  411 213 
 PRA  HZ I        1124 28.00         2.5 0.67                           411 213 
                                                                                
