 2017 11 3 1641 19.6 L   6.759 -73.152142.0  RSN  6 0.3 1.4LRSN                1
 GAP=138        0.67       4.0     3.8  7.1 -0.4414E+01  0.1101E+02 -0.6974E+01E
 Epicentro: LOS SANTOS - SANTANDER                                             3
 ACTION:UPD 17-12-12 19:51 OP:rebc STATUS:               ID:20171103164119 L   I
 OLDACT:UP  17-11-04 00:08 OP:mg   STATUS:               ID:20171103163744     3
 OLDACT:REG 17-11-03 20:50 OP:mg   STATUS:               ID:20171103163744     3
 2017-11-03-1638-00M.COL___441                                                 6
 STAT SP IPHASW D HRMM SECON CODA AMPLIT PERI AZIMU VELO AIN AR TRES W  DIS CAZ7
 BAR2 EZ EP       1641 38.63                             172   -0.0510 18.7 190 
 BAR2 EZ ES   2   1641 53.32                             172   -0.25 5 18.7 190 
 BAR2 EZ I        1641 55.80         6.3 0.42            173           18.7 190 
 BRR  HZ EP       1641 40.78                             151    0.3510 72.9 302 
 PAM  EZ EP       1641 41.78                             149    0.1310 81.4  38 
 PAM  EN ES       1641 58.67                             149   -0.1910 81.4  38 
 PAM  EZ I        1642  1.33         4.0 0.56            152           81.4  38 
 RUS  HZ EP   2   1641 42.80                             144    0.15 5 96.1 175 
 RUS  HN ES       1642  0.79                             144    0.1610 96.1 175 
 RUS  HZ I        1642  2.22         4.6 0.25            151           96.1 175 
 PTB  HZ EP       1641 45.58                             131   -0.54 9  146 261 
 PTB  HN ES       1642  6.77                             131   -0.04 9  146 261 
 PTB  HZ I        1642  9.34         2.9 0.25            133            146 261 
 ZAR  HN ES   2   1642 17.87                             121    0.75 4  205 293 
 ZAR  HZ I        1642 24.62         4.0 0.20            123            205 293 
                                                                                
