 2010  4 3 1138 14.2 L   6.783 -73.054143.0  RSN  8 0.5 2.1LRSN                1
 GAP=208        0.73       5.0     9.5  8.2 -0.1214E+02  0.1304E+02  0.1096E+02E
 Epicentro: LOS SANTOS - SANTANDER                                             3
 ACTION:UPD 10-08-24 09:57 OP:vdl  STATUS:               ID:20100403113814 L   I
 2010-04-03-1134-09S.COL___098                                                 6
 STAT SP IPHASW D HRMM SECON CODA AMPLIT PERI AZIMU VELO AIN AR TRES W  DIS CAZ7
 BAR2 SZ EP   1   1138 33.63                             169     0.1 7   26 214 
 BAR2 SZ ES   2   1138 48.69                             169     0.0 5   26 214 
 BRR  HZ EP   1   1138 35.62                             149     0.0 7   81 296 
 BRR  HZ I        1138 35.78        22.7 0.16                            81 296 
 BRR  HE ES   2   1138 52.61                             149     0.2 5   81 296 
 OCA  SZ EP   1   1138 41.80                             129    -0.8 7  164 350 
 OCA  SZ ES   2   1139  5.23                             129     0.4 5  164 350 
 OCA  SZ I        1139  7.02        25.6 0.19                           164 350 
 CHI  HZ EP   2   1138 52.01                             117     0.1 4  250 198 
 CHI  HN ES   2   1139 21.31                             117     0.1 4  250 198 
 CHI  HZ I        1139 25.76         3.9 0.81                           250 198 
 HEL  HZ EP   1   1138 56.16                             113     0.8 6  281 257 
 HEL  HN ES   2   1139 26.69                             113    -0.7 4  281 257 
 HEL  HZ I        1139 33.11         5.1 0.28                           281 257 
 RREF BZ EP   1   1139  1.27                             110     0.3 5  328 231 
 RREF BN ES   3   1139 38.03                             110     0.6 2  328 231 
 RREF BZ I        1139 45.64         4.7 0.54                           328 231 
 TOL  SZ EP   2   1139  2.58                             109    -0.5 3  349 226 
 PRA  HZ EP   1   1139  8.14                             106     0.1 4  396 211 
 PRA  HE ES   2   1139 49.38                             106    -0.7 3  396 211 
 PRA  HZ I        1139 54.79         6.3 0.67                           396 211 
                                                                                
