 2013  1 3 1332  9.4 L   6.750 -73.183148.4  RSN  5 0.4 1.4LRSN                1
 GAP=229        0.80       8.1     7.5  7.8  0.3798E+02  0.7616E+01 -0.5127E+01E
 Epicentro: VILLANUEVA - SANTANDER                                             3
 ACTION:UPD 13-02-15 09:11 OP:ep   STATUS:               ID:20130103133209 L   I
 2013-01-03-1330-00M.COL___242                                                 6
 STAT SP IPHASW D HRMM SECON CODA AMPLIT PERI AZIMU VELO AIN AR TRES W  DIS CAZ7
 BAR2 SZ EP   1   1332 28.84                             173   -0.45 7 17.5 180 
 BAR2 SZ ES   1   1332 44.17                             173   -0.60 7 17.5 180 
 BAR2 SZ I        1332 45.05        10.2 0.38            164           17.5 180 
 BRR  HZ EP   1   1332 30.82                             153   -0.02 7 70.5 304 
 BRR  HN ES   1   1332 48.14                             153    0.61 7 70.5 304 
 RUS  HZ EP   1   1332 33.54                             146    0.44 7 95.5 173 
 RUS  HN ES   1   1332 51.92                             146    0.37 7 95.5 173 
 RUS  HZ I        1332 53.33         2.5 0.42            143           95.5 173 
 PTB  HZ EP   1   1332 35.74                             134   -0.44 7  143 261 
 PTB  HN ES   1   1332 56.83                             134   -0.20 7  143 261 
 PTB  HZ I        1333  2.46         2.2 0.10            128            143 261 
 ZAR  HZ EP   1   1332 42.15                             123    0.26 6  202 294 
 ZAR  HN ES   1   1333  7.24                             123    0.03 6  202 294 
 ZAR  HZ I        1333 14.27         2.3 0.26            121            202 294 
                                                                                
