 2014  9 3 1025 24.6 L   6.799 -73.144143.1  RSN  6 0.5 1.3LRSN                1
 GAP=137        0.99       5.4     5.6  9.1 -0.1074E+02  0.1564E+02  0.8910E+00E
 Epicentro: LOS SANTOS - SANTANDER                                             3
 ACTION:UPD 14-10-03 23:01 OP:nd   STATUS:               ID:20140903102524 L   I
 OLDACT:REG 14-09-03 20:26 OP:fm   STATUS:               ID:20140903101806     3
 2014-09-03-1018-06M.COL___269                                                 6
 STAT SP IPHASW D HRMM SECON CODA AMPLIT PERI AZIMU VELO AIN AR TRES W  DIS CAZ7
 BAR2 SZ EP       1025 43.83                             170   -0.0710 23.2 190 
 BAR2 SZ ES   1   1025 58.73                             170   -0.23 7 23.2 190 
 BAR2 SZ I        1026  0.33         7.1 0.20            170           23.2 190 
 PAM  SZ EP       1025 46.78                             150    0.2510 77.4  39 
 PAM  SN ES       1026  3.66                             150    0.0310 77.4  39 
 PAM  SZ I        1026  6.47         2.7 0.34            154           77.4  39 
 RUS  HZ EP   1   1025 48.18                             143    0.10 7  100 176 
 RUS  HN ES   1   1026  6.15                             143   -0.24 7  100 176 
 RUS  HZ I        1026  7.71         1.8 0.40            146            100 176 
 PTB  HZ EP   1   1025 50.50                             131   -0.86 7  148 259 
 PTB  HN ES   1   1026 11.47                             131   -0.77 7  148 259 
 PTB  HZ I        1026 13.79         1.9 0.32            132            148 259 
 SPBC HZ EP       1025 52.75                             128   -0.14 9  163 219 
 SPBC HN ES       1026 15.73                             128    0.77 9  163 219 
 SPBC HZ I        1026 21.23         3.0 0.20            130            163 219 
 ZAR  HN ES   1   1026 22.78                             122    0.70 6  204 292 
 ZAR  HZ I        1026 27.92         2.1 0.30            123            204 292 
                                                                                
