 2013  4 3 1041 39.4 L   6.729 -73.210147.9  RSN  5 0.3 1.5LRSN                1
 GAP=166        0.64       5.7     5.8  6.5  0.1202E+02  0.1041E+02  0.9822E+01E
 Epicentro: VILLANUEVA - SANTANDER                                             3
 ACTION:UPD 13-05-22 14:35 OP:EP   STATUS:               ID:20130403104139 L   I
 2013-04-03-1040-00M.COL___245                                                 6
 STAT SP IPHASW D HRMM SECON CODA AMPLIT PERI AZIMU VELO AIN AR TRES W  DIS CAZ7
 BAR2 SZ EP   1   1041 58.98                             174   -0.15 7 15.4 168 
 BAR2 SZ ES   1   1042 14.07                             174   -0.47 7 15.4 168 
 BAR2 SZ I        1042 15.47        17.5 0.24            176           15.4 168 
 GIR2 SZ ES   1   1042 15.07                             165   -0.17 7 38.7   3 
 BRR  HZ EP   1   1042  0.83                             153    0.17 7 69.4 307 
 BRR  HN ES   1   1042 17.82                             153    0.56 7 69.4 307 
 BRR  HZ I        1042 25.05         6.4 0.32            152           69.4 307 
 RUS  HZ EP   1   1042  2.91                             146    0.06 7 93.6 171 
 RUS  HN ES   1   1042 21.53                             146    0.37 7 93.6 171 
 RUS  HZ I        1042 22.63         2.9 0.22            152           93.6 171 
 PTB  HZ EP   1   1042  5.60                             134   -0.18 7  139 261 
 PTB  HN ES   1   1042 26.13                             134   -0.24 7  139 261 
 PTB  HZ I        1042 28.83         4.2 0.17            135            139 261 
                                                                                
