 2015  2 3 1637 44.7 L   6.752 -73.137142.7  RSN  7 0.5 2.0LRSN                1
 GAP=235        1.34       7.3     7.3  9.4  0.1769E+02  0.2147E+02  0.1599E+02E
 Epicentro: LOS SANTOS - SANTANDER                                             3
 ACTION:UPD 15-04-30 21:21 OP:nd   STATUS:               ID:20150203163744 L   I
 OLDACT:REG 15-02-04 00:00 OP:cam  STATUS:               ID:20150203163544     3
 2015-02-03-1635-44M.COL___271                                                 6
 STAT SP IPHASW D HRMM SECON CODA AMPLIT PERI AZIMU VELO AIN AR TRES W  DIS CAZ7
 BAR2 EZ EP       1638  3.95                             172    0.0810 18.4 196 
 BAR2 EZ ES       1638 18.04                             172   -0.7810 18.4 196 
 BAR2 EZ I        1638 20.18        19.6 0.22            167           18.4 196 
 BRR  HN ES       1638 23.16                             151    1.0410 74.7 302 
 RUS  HZ EP       1638  7.72                             145   -0.0410 95.3 176 
 RUS  HE ES       1638 26.02                             145    0.2610 95.3 176 
 RUS  HZ I        1638 27.43         7.4 0.38            143           95.3 176 
 PTB  HZ EP       1638 10.60                             131   -0.82 9  148 261 
 PTB  HN ES       1638 31.58                             131   -0.69 9  148 261 
 PTB  HZ I        1638 34.60        12.1 0.16            130            148 261 
 SPBC HZ EP       1638 12.93                             129    0.30 9  160 220 
 SPBC HN ES       1638 34.52                             129    0.09 9  160 220 
 SPBC HZ I        1638 41.27        12.7 0.26            128            160 220 
 ZAR  HN ES       1638 42.59                             121   -0.05 8  207 293 
 ZAR  HN I        1638 44.37        17.0 0.12            122            207 293 
 NOR  HZ EP       1638 20.39                             118    0.38 8  232 236 
 NOR  HN ES       1638 47.89                             118    0.33 8  232 236 
 NOR  HZ I        1638 50.92         7.4 0.38            118            232 236 
                                                                                
