 2012  9 3 1017 33.7 L   6.797 -73.173143.4  RSN 14 0.5 2.7LRSN 3.5WRSN        1
 SPEC AVERAGE  MO 14.4 ST 11.8 OM  4.0 f0 3.08 R0.4862 AL 2.67 WI 22.1 MW  3.5 3
 SPEC SD       MO  0.1 ST  6.7 OM  1.3 f00.404 R0.0642 AL      WI      MW  0.1 3
 GAP= 70        0.94       4.1     3.5  6.3  0.6904E-01  0.3164E+01  0.6045E+01E
 Epicentro: LOS SANTOS - SANTANDER                                             3
 SPEC OCA HH N MO 14.5 ST 20.1 OM  2.8 f0 3.58 R0.4106 AL 2.31 WI 23.7 MW  3.6 3
 SPEC OCA HH N T101821 K 0.000 GD  214 VS 4.20 DE 3.00 Q0230.0 QA 0.60 VS 4.20 3
 SPEC PAM SH N MO 14.2 ST  3.7 OM  2.6 f0 2.59 R0.5676 AL 3.27 WI 12.3 MW  3.4 3
 SPEC PAM SH N T101812 K 0.000 GD  164 VS 4.20 DE 3.00 Q0230.0 QA 0.60 VS 4.20 3
 SPEC BRR HH N MO 14.5 ST 11.7 OM  2.9 f0 3.06 R0.4804 AL 2.43 WI 30.2 MW  3.6 3
 SPEC BRR HH N T101810 K 0.000 GD  159 VS 4.20 DE 3.00 Q0230.0 QA 0.60 VS 4.20 3
 ACTION:UPD 12-10-22 14:16 OP:ep   STATUS:               ID:20120903101733 L   I
 2012-09-03-1010-00M.COL___218                                                 6
 STAT SP IPHASW D HRMM SECON CODA AMPLIT PERI AZIMU VELO AIN AR TRES W  DIS CAZ7
 BAR2 SZ IP       1017 53.05                             171    0.0410 22.6 183 
 BAR2 SZ I        1018  9.07       164.9 0.20                          22.6 183 
 GIR2 SZ IP       1017 53.10                             167    0.0310 31.3 356 
 GIR2 SZ ES   1   1018  8.07                             167   -0.13 7 31.3 356 
 BRR  HZ IP     C 1017 54.93                             153    0.4910 68.8 300 
 BRR  HZ I        1017 55.20       144.7 0.26                          68.8 300 
 BRR  HN ES   1   1018 11.75                             153    1.12 7 68.8 300 
 PAM  SZ EP       1017 56.03                             150    0.2510 79.6  41 
 PAM  SN ES   1   1018 12.80                             150   -0.22 7 79.6  41 
 PAM  SZ I        1018 14.51        56.0 0.40                          79.6  41 
 RUS  HZ EP       1017 57.09                             143   -0.1010  100 174 
 RUS  HN ES   1   1018 15.35                             143   -0.18 7  100 174 
 PTB  HZ EP       1017 59.69                             132   -0.49 9  145 259 
 PTB  HN ES   1   1018 20.61                             132   -0.24 7  145 259 
 PTB  HZ I        1018 22.89        22.7 0.24                           145 259 
 TAM  HZ IP     D 1018  1.37                             129   -0.06 9  158 105 
 TAM  HZ I        1018  1.49        54.7 0.20                           158 105 
 TAM  HE ES   1   1018 22.85                             129   -0.23 7  158 105 
 OCA  HZ EP       1018  1.61                             129   -0.20 9  160 354 
 OCA  HN ES   2   1018 22.64                             129   -1.11 5  160 354 
 OCA  HZ I        1018 26.51        85.2 0.24                           160 354 
 ZAR  HZ EP   1   1018  6.77                             122    1.07 6  201 293 
 ZAR  HE ES   1   1018 29.44                             122   -1.23 6  201 293 
 ZAR  HZ I        1018 37.87        42.8 0.24                           201 293 
 NOR  SZ EP       1018  9.21                             118    0.22 8  232 234 
 NOR  SN ES   2   1018 36.39                             118   -0.14 4  232 234 
 NOR  SZ I        1018 41.05        28.7 0.36                           232 234 
 CHI  HZ EP   2   1018 11.19                             117    0.06 4  248 195 
 CHI  HN ES   3   1018 40.40                             117    0.07 2  248 195 
 HEL  HN ES   2   1018 44.39                             115   -0.06 4  269 256 
 ANIL HN ES   3   1019  0.95                             108   -0.73 2  355 224 
 ANIL HZ I        1019 10.11        36.6 0.40                           355 224 
 PRA  HZ EP       1018 26.97                             106    0.06 6  390 209 
 PRA  HZ I        1019 15.87        11.7 0.24                           390 209 
                                                                                
