 2014  1 3 1833 28.4 L   6.752 -73.168139.2  RSN  8 0.4 1.6LRSN                1
 GAP=136        0.68       3.2     4.4  4.5  0.2662E+00  0.2437E+01  0.1232E+01E
 Epicentro: VILLANUEVA - SANTANDER                                             3
 ACTION:UPD 14-03-13 09:51 OP:ep   STATUS:               ID:20140103183328 L   I
 OLDACT:REG 14-01-03 17:49 OP:mh   STATUS:               ID:20140103183000     3
 2014-01-03-1830-00M.COL___285                                                 6
 STAT SP IPHASW D HRMM SECON CODA AMPLIT PERI AZIMU VELO AIN AR TRES W  DIS CAZ7
 BAR2 SZ EP       1833 47.12                             172    0.0110 17.8 185 
 BAR2 SZ ES       1834  1.80                             172    0.0810 17.8 185 
 BAR2 SZ I        1834  4.62         9.7 0.37            172           17.8 185 
 BRR  HZ EP       1833 49.26                             151    0.4110 71.8 303 
 BRR  HN ES       1834  4.85                             151    0.0310 71.8 303 
 BRR  HZ I        1834  9.92         6.1 0.07            147           71.8 303 
 PAM  SZ EP       1833 50.33                             148    0.0810 83.0  39 
 PAM  SE ES   2   1834  7.32                             148    0.01 5 83.0  39 
 PAM  SZ I        1834 10.38         7.1 0.62            150           83.0  39 
 RUS  HZ EP   1   1833 51.24                             144    0.13 7 95.5 174 
 RUS  HN ES   1   1834  8.32                             144   -0.52 7 95.5 174 
 PTB  HZ EP   1   1833 54.85                             131    0.35 7  144 261 
 PTB  HN ES   2   1834 14.02                             131   -0.86 5  144 261 
 NOR  HZ EP   1   1834  3.43                             118    0.25 6  230 235 
 NOR  HN ES   2   1834 30.58                             118    0.24 4  230 235 
 NOR  HZ I        1834 37.16         3.2 0.12            119            230 235 
 CHI  HZ EP       1834  4.81                             116   -0.28 8  243 195 
 CHI  HN ES   2   1834 33.97                             116    0.25 4  243 195 
 SML  HZ EP   1   1834  4.34                             116   -0.72 6  248 336 
 SML  HN ES   2   1834 32.81                             116   -0.86 4  248 336 
 SML  HZ I        1834 39.82         5.3 0.10            116            248 336 
                                                                                
