 2017 10 3 1101 49.4 L   5.955 -74.114 85.3  RSN  5 0.3 1.1LRSN                1
 GAP=146        0.57       2.8     1.8  8.0 -0.1606E+01  0.2224E+01 -0.5382E+01E
 Epicentro: LA BELLEZA - SANTANDER                                             3
 ACTION:UPD 17-11-07 19:27 OP:rebc STATUS:               ID:20171003110149 L   I
 OLDACT:UP  17-10-03 22:41 OP:osc  STATUS:               ID:20171003105741d    3
 OLDACT:DUP 17-10-03 22:37 OP:osc  STATUS:               ID:20171003105741d    3
 2017-10-03-1058-00M.COL___428                                                 6
 STAT SP IPHASW D HRMM SECON CODA AMPLIT PERI AZIMU VELO AIN AR TRES W  DIS CAZ7
 NOR  HZ EP       11 2  6.25                             129   -0.4110 94.2 243 
 NOR  HE ES       11 2 20.23                             129    0.1210 94.2 243 
 NOR  HZ I        11 2 22.96         3.8 0.14            136           94.2 243 
 RUS  HZ EP       11 2  9.48                             123    0.2110  114  93 
 RUS  HN ES       11 2 24.89                             123    0.1410  114  93 
 RUS  HZ I        11 2 27.65         1.7 0.32            129            114  93 
 BAR2 EZ EP   3   11 2  9.44                             120   -0.61 2  125  56 
 BAR2 EZ ES   2   11 2 25.58                             120   -0.57 5  125  56 
 BAR2 EZ I        11 2 27.88         4.6 0.46            126            125  56 
 GUY2CHZ EP       11 2 14.32                             114    0.03 9  160 240 
 GUY2CHN ES       11 2 33.68                             114   -0.01 9  160 240 
 GUY2CHZ I        11 2 40.42         1.2 0.30                           160 240 
 ZAR  HN ES       11 2 38.63                             110    0.16 9  189 334 
                                                                                
