 2016  7 3 1002 29.0 L   6.729 -73.233168.4  RSN  4 0.4 1.5LRSN                1
 GAP=211        1.03      13.2     7.8  9.9  0.4163E+02  0.6648E+01 -0.1376E+02E
 Epicentro: VILLANUEVA - SANTANDER                                             3
 ACTION:UPD 17-03-29 16:46 OP:lp   STATUS:               ID:20160703100229 L   I
 OLDACT:UP  16-07-03 23:01 OP:ak   STATUS:               ID:20160703095743     3
 OLDACT:REG 16-07-03 22:20 OP:ak   STATUS:               ID:20160703095743     3
 2016-07-03-0957-43M.COL___322                                                 6
 STAT SP IPHASW D HRMM SECON CODA AMPLIT PERI AZIMU VELO AIN AR TRES W  DIS CAZ7
 BAR2 EZ EP       10 2 50.59                             174   -0.7110 16.1 160 
 BAR2 EZ ES       10 3  9.07                             174    0.4110 16.1 160 
 BAR2 EZ I        10 3 11.46        12.6 0.18            178           16.1 160 
 BRR  HZ EP       10 2 53.12                             157    0.6210 67.4 308 
 BRR  HN ES       10 3 10.44                             157   -0.3610 67.4 308 
 PTB  HZ EP   2   10 2 56.95                             139   -0.10 5  137 261 
 PTB  HN ES       10 3 18.92                             139    0.02 9  137 261 
 PTB  HZ I        10 3 21.06         2.1 0.19            139            137 261 
 ZAR  HZ EP   2   10 3  2.81                             128    0.30 4  198 295 
 ZAR  HN ES       10 3 28.59                             128   -0.03 9  198 295 
 ZAR  HZ I        10 3 35.85         1.5 0.27            128            198 295 
                                                                                
