 2017  6 3 1555 45.7 L   6.074 -73.731106.0  RSN 12 0.6 1.9LRSN                1
 GAP=105        0.81       2.5     2.7  5.0  0.4744E+00  0.3231E+01 -0.2050E+00E
 Epicentro: VELEZ - SANTANDER                                                  3
 ACTION:UPD 17-09-14 16:49 OP:jn   STATUS:               ID:20170603155545 L   I
 OLDACT:UP  17-06-03 21:20 OP:and  STATUS:               ID:20170603154739d    3
 OLDACT:UP  17-06-03 21:20 OP:and  STATUS:               ID:20170603154739d    3
 OLDACT:UP  17-06-03 21:18 OP:and  STATUS:               ID:20170603154739d    3
 OLDACT:UP  17-06-03 21:18 OP:and  STATUS:               ID:20170603154739d    3
 OLDACT:DUP 17-06-03 21:16 OP:and  STATUS:               ID:20170603154739d    3
 2017-06-03-1548-00M.COL___353                                                 6
 STAT SP IPHASW D HRMM SECON CODA AMPLIT PERI AZIMU VELO AIN AR TRES W  DIS CAZ7
 SPBC HZ EP       1556  2.02                             149   -0.0710 60.0 219 
 SPBC HN ES       1556 15.10                             149    0.2210 60.0 219 
 SPBC HZ I        1556 16.43        38.7 0.22            146           60.0 219 
 RUS  HZ IP     D 1556  3.44                             143   -0.2210 74.4 106 
 RUS  HN ES       1556 17.50                             143   -0.1710 74.4 106 
 RUS  HZ I        1556 18.60        18.0 0.22            143           74.4 106 
 PTB  HZ IP   9 D 1556  3.40                             135   -1.29 0 95.4 303 
 PTB  HN ES       1556 18.22                             136    0.0110 95.4 303 
 PTB  HZ I        1556 20.60         6.2 0.24            133           95.4 303 
 BRR  HZ EP   2   1556  6.16                             129   -0.23 5  114   1 
 BRR  HN ES       1556 23.12                             129    0.5910  114   1 
 BRR  HZ I        1556 25.60        21.9 0.11            129            114   1 
 NOR  HZ EP       1556  8.29                             124   -0.53 9  138 246 
 NOR  HN ES       1556 26.85                             124   -0.01 9  138 246 
 NOR  HZ I        1556 30.17        35.6 0.16            121            138 246 
 CHI  HZ EP   3   1556 10.98                             120   -0.57 2  160 180 
 CHI  HN ES       1556 31.84                             120    0.13 9  160 180 
 CHI  HZ I        1556 35.61         7.2 0.40            118            160 180 
 YPLC HZ EP   2   1556 12.63                             118    0.70 5  167 117 
 YPLC HN ES   3   1556 33.64                             118    1.26 2  167 117 
 YPLC HZ I        1556 35.19        14.4 0.38            117            167 117 
 HEL  HZ EP   2   1556 16.14                             113    0.29 4  199 274 
 HEL  HN ES       1556 39.64                             113    0.27 9  199 274 
 HEL  HZ I        1556 42.89        14.0 0.32            112            199 274 
 ZAR  HZ EP       1556 15.33                             113   -0.16 9  200 322 
 ZAR  HN ES       1556 38.30                             113   -0.43 9  200 322 
 ZAR  HZ I        1556 43.13        10.9 0.70            112            200 322 
 ELA  HZ EP   2   1556 20.13                             110    0.76 4  229 234 
 ELA  HN ES   3   1556 48.32                             110    2.70 2  229 234 
 ELA  HZ I        1556 51.23         4.7 0.36            108            229 234 
 ORTC HZ EP       1556 25.92                             104   -0.31 7  292 215 
 ORTC HN ES   3   1557  0.47                             104    2.62 2  292 215 
 ORTC HZ I        1557  4.90         3.4 0.29            103            292 215 
 PAL  HZ EP   1   1556 28.24                             103   -0.22 5  311 246 
                                                                                
