 2016  2 3 1108 49.3 L   6.788 -73.153141.3  RSN  5 0.3 1.1LRSN                1
 GAP=136        0.63       3.3     3.0  5.4 -0.3415E+00  0.5364E+01 -0.1598E+01E
 Epicentro: LOS SANTOS - SANTANDER                                             3
 ACTION:UPD 16-03-04 21:23 OP:rebc STATUS:               ID:20160203110849 L   I
 OLDACT:REG 16-02-03 20:22 OP:cara STATUS:               ID:20160203110749     3
 2016-02-03-1107-49M.COL___298                                                 6
 STAT SP IPHASW D HRMM SECON CODA AMPLIT PERI AZIMU VELO AIN AR TRES W  DIS CAZ7
 BAR2 EZ EP   2   11 9  7.43                             171   -0.96 5 21.9 188 
 BAR2 EZ ES       11 9 23.46                             171    0.2110 21.9 188 
 PAM  EZ IP       11 9 11.19                             149    0.0310 78.9  39 
 PAM  EN ES       11 9 28.11                             149   -0.0810 78.9  39 
 RUS  HZ EP       11 9 12.82                             143    0.2810 99.3 176 
 RUS  HE ES       11 9 30.58                             143   -0.0710 99.3 176 
 RUS  HZ I        11 9 34.31         1.0 0.52            144           99.3 176 
 PTB  HZ EP       11 9 15.80                             131   -0.03 9  147 259 
 PTB  HN ES       11 9 36.24                             131   -0.26 9  147 259 
 PTB  HZ I        11 9 42.17         1.5 0.18            130            147 259 
 ZAR  HN ES       11 9 46.71                             121    0.20 9  204 293 
 ZAR  HZ I        11 9 52.50         2.5 0.26            122            204 293 
                                                                                
