 2015  5 3 1634 27.4 L   6.782 -73.139148.2  RSN  5 0.5 1.4LRSN                1
 GAP=138        1.22       4.9     7.3 10.3 -0.1717E+01  0.2134E+02 -0.2076E+01E
 Epicentro: LOS SANTOS - SANTANDER                                             3
 ACTION:UPD 15-09-10 22:01 OP:cam  STATUS:               ID:20150503163427 L   I
 OLDACT:REG 15-05-03 21:06 OP:ak   STATUS:               ID:20150503162749     3
 2015-05-03-1627-49M.COL___274                                                 6
 STAT SP IPHASW D HRMM SECON CODA AMPLIT PERI AZIMU VELO AIN AR TRES W  DIS CAZ7
 BRR  HZ IP     C 1634 49.20                             152    0.2810 72.8 300 
 BRR  HN ES       1635  6.08                             152    0.3810 72.8 300 
 BRR  HZ I        1635 16.38        11.3 0.36            151           72.8 300 
 PAM  SZ EP       1634 50.12                             151    0.1610 78.5  38 
 PAM  SE ES       1635  7.78                             151    0.2310 78.5  38 
 PAM  SZ I        1635  9.83         3.7 0.48            157           78.5  38 
 RUS  HZ EP       1634 51.71                             145    0.4410 98.6 176 
 RUS  HN ES       1635  8.98                             145   -0.8910 98.6 176 
 RUS  HZ I        1635 11.34         2.7 0.32            152           98.6 176 
 SML  HZ EP   1   1635  3.96                             118   -0.45 6  246 335 
 SML  HN ES       1635 32.37                             118   -0.89 8  246 335 
 GUY2CHN ES       1635 45.38                             113    0.25 7  301 235 
 GUY2CHZ I        1635 54.60         1.1 0.38                           301 235 
                                                                                
