 2017 11 3 1834  6.8 L   6.817 -73.148143.6  RSN 19 0.6 2.3LRSN                1
 GAP= 74        1.14       3.3     2.8  5.2  0.1360E+01  0.4530E+01  0.3422E+01E
 Epicentro: LOS SANTOS - SANTANDER                                             3
 ACTION:UPD 17-12-12 19:51 OP:rebc STATUS:               ID:20171103183406 L   I
 OLDACT:UP  17-11-04 00:08 OP:dhb  STATUS:               ID:20171103182737     3
 OLDACT:REG 17-11-03 21:03 OP:mg   STATUS:               ID:20171103182737     3
 2017-11-03-1828-00M.COL___420                                                 6
 STAT SP IPHASW D HRMM SECON CODA AMPLIT PERI AZIMU VELO AIN AR TRES W  DIS CAZ7
 BAR2 EZ IP     C 1834 26.15                             170   -0.0610 25.2 189 
 BAR2 EZ ES       1834 40.64                             170   -0.7110 25.2 189 
 BAR2 EZ I        1834 43.13        68.2 0.18            168           25.2 189 
 BRR  HZ IP     C 1834 27.96                             152    0.3110 70.0 297 
 BRR  HN ES       1834 44.99                             152    1.0810 70.0 297 
 BRR  HZ I        1834 50.11        28.9 0.30            152           70.0 297 
 PAM  EZ IP     C 1834 28.91                             150    0.2010 76.1  41 
 PAM  EN ES       1834 46.26                             150    0.4610 76.1  41 
 PAM  EZ I        1834 48.41        34.0 0.64            154           76.1  41 
 RUS  HZ EP       1834 30.79                             143    0.3110  103 176 
 RUS  HN ES       1834 48.42                             143   -0.5310  103 176 
 RUS  HZ I        1834 49.57        54.5 0.26            143            103 176 
 PTB  HZ EP       1834 32.75                             131   -0.85 9  148 258 
 PTB  HN ES       1834 53.76                             131   -0.74 9  148 258 
 PTB  HZ I        1834 56.27        14.8 0.14            131            148 258 
 TAM  HZ IP     D 1834 34.45                             130    0.07 9  156 106 
 TAM  HE ES       1834 55.44                             130   -0.45 9  156 106 
 TAM  HZ I        1834 56.59        21.4 0.28            132            156 106 
 SPBC HZ EP       1834 34.98                             128   -0.28 9  164 218 
 SPBC HE ES       1834 57.04                             128   -0.41 9  164 218 
 SPBC HZ I        1834 59.31        40.1 0.76            128            164 218 
 YPLC HZ IP     D 1834 36.50                             126   -0.11 9  179 152 
 YPLC HE ES       1835  0.37                             126    0.50 9  179 152 
 YPLC HZ I        1835  2.99        13.3 0.34            127            179 152 
 ZAR  HZ EP       1834 39.06                             122    0.06 9  203 292 
 ZAR  HE ES       1835  4.41                             122    0.29 9  203 292 
 ZAR  HZ I        1835 10.34        37.9 0.40            123            203 292 
 NOR  HZ IP     D 1834 42.69                             118    0.19 8  236 234 
 NOR  HE ES       1835 11.09                             118    0.75 8  236 234 
 NOR  HZ I        1835 12.09        13.3 0.20            118            236 234 
 CHI  HZ EP       1834 44.52                             116   -0.05 8  250 195 
 CHI  HE ES       1835 14.28                             116    0.25 8  250 195 
 CHI  HZ I        1835 20.93         7.3 0.48            117            250 195 
 URE  HZ EP       1834 47.12                             113   -0.53 7  283 292 
 URE  HN ES       1835 18.96                             113   -0.56 7  283 292 
 URE  HZ I        1835 20.38        13.8 0.14            114            283 292 
 GUY2CHZ EP       1834 51.01                             112    0.61 7  302 234 
 GUY2CHE ES       1835 24.84                             112    0.42 7  302 234 
 GUY2CHZ I        1835 35.12         8.5 0.48                           302 234 
 PTGC HZ EP   2   1834 49.28                             111   -1.49 3  311 159 
 PTGC HE ES   4   1835 21.37                             111   -3.70 0  311 159 
 PTGC HZ I        1835 31.10        15.0 0.50            112            311 159 
 CBOC HZ EP       1834 53.78                             109    0.12 7  334 252 
 CBOC HE ES       1835 29.59                             109   -0.62 7  334 252 
 CBOC HZ I        1835 51.67         3.2 0.20            110            334 252 
 DBB  EZ EP       1834 54.52                             109    0.38 7  339 274 
 DBB  EN ES       1835 30.90                             109   -0.16 7  339 274 
 DBB  EZ I        1835 36.87         4.9 0.22            110            339 274 
 PRA  HZ EP       1835  0.59                             106    0.17 6  394 209 
 PRA  HN ES       1835 42.32                             106    0.07 6  394 209 
 PRA  HZ I        1835 47.21         6.6 0.24            107            394 209 
 ORTC HZ EP   3   1835  2.74                             106    1.94 1  397 216 
 ORTC HN ES   2   1835 44.82                             106    1.89 3  397 216 
 ORTC HZ I        1835 47.38         5.1 0.30            107            397 216 
 SJC  HZ EP   9   1835  0.65                             105   -1.43 0  407 327 
 SJC  HN ES       1835 43.40                             106   -0.37 6  407 327 
 SJC  HZ I        1835 46.08         7.7 0.46            106            407 327 
                                                                                
