 2015  3 3 1621 26.4 L   6.772 -73.162136.0  RSN  7 0.7 2.6LRSN                1
 GAP=147        1.75      11.0     9.9 11.6 -0.6219E+02  0.2823E+02  0.1089E+02E
 Epicentro: LOS SANTOS - SANTANDER                                             3
 ACTION:UPD 15-04-30 16:22 OP:nd   STATUS:               ID:20150303162126 L   I
 OLDACT:UP  15-03-06 11:02 OP:MHER STATUS:               ID:20150303162126 L   3
 OLDACT:REG 15-03-03 21:19 OP:carl STATUS:               ID:20150303161749     3
 2015-03-03-1617-49M.COL___287                                                 6
 STAT SP IPHASW D HRMM SECON CODA AMPLIT PERI AZIMU VELO AIN AR TRES W  DIS CAZ7
 BAR2 EZ EP       1621 44.71                             171   -0.1210 20.0 187 
 BAR2 EZ ES       1621 59.21                             171    0.0310 20.0 187 
 BRR  HZ EP       1621 46.63                             151    0.0910 71.2 301 
 BRR  HN ES       1622  3.47                             151    1.2510 71.2 301 
 PAM  SZ EP       1621 47.61                             148   -0.2410 80.9  39 
 PAM  SN ES       1622  4.38                             148   -0.1710 80.9  39 
 PAM  SZ I        1622  6.84        66.3 0.58            150           80.9  39 
 PTB  HZ EP       1621 51.77                             130   -0.65 9  145 260 
 PTB  HN ES       1622 11.34                             130   -1.33 9  145 260 
 SPBC HN ES       1622 15.24                             128   -0.02 9  160 219 
 SPBC HZ I        1622 19.43        26.1 0.66            128            160 219 
 GUY2CHZ EP       1622 10.84                             111    1.59 7  298 235 
 GUY2CHN ES       1622 43.24                             111    0.60 7  298 235 
 GUY2CHZ I        1622 50.09        10.7 0.24                           298 235 
 DBB  SZ EP       1622 12.91                             108   -0.45 7  338 275 
 DBB  SZ ES   4   1622 46.91                             108   -3.05 0  338 275 
 DBB  SZ I        1622 53.24        41.6 0.34            108            338 275 
                                                                                
