 2016  7 3 1535  7.9 L   6.790 -73.124155.5  RSN 10 0.4 1.8LRSN                1
 GAP=211        0.83       4.4     4.2  6.2  0.4889E+01  0.6480E+01  0.3182E+00E
 Epicentro: LOS SANTOS - SANTANDER                                             3
 ACTION:UPD 17-03-29 16:46 OP:lp   STATUS:               ID:20160703153507 L   I
 OLDACT:REG 16-07-03 22:37 OP:ak   STATUS:               ID:20160703152747     3
 2016-07-03-1527-47M.COL___337                                                 6
 STAT SP IPHASW D HRMM SECON CODA AMPLIT PERI AZIMU VELO AIN AR TRES W  DIS CAZ7
 BAR2 EZ EP       1535 28.90                             172    0.2610 22.8 196 
 BAR2 EZ ES       1535 44.95                             172    0.0910 22.8 196 
 BAR2 EZ I        1535 45.72        19.0 0.24            168           22.8 196 
 BRR  HZ EP   2   1535 29.10                             153   -1.10 5 73.8 298 
 BRR  HN ES       1535 47.96                             153    0.3310 73.8 298 
 BRR  HZ I        1535 50.66        13.2 0.30            151           73.8 298 
 RUS  HZ EP       1535 32.60                             146    0.1110 99.4 177 
 RUS  HN ES       1535 51.44                             146   -0.2610 99.4 177 
 RUS  HZ I        1535 53.26         5.7 0.22            146           99.4 177 
 PTB  HZ EP   2   1535 35.17                             134   -0.64 5  150 259 
 PTB  HN ES       1535 56.85                             134   -0.77 9  150 259 
 PTB  HZ I        1535 59.45         7.8 0.16            132            150 259 
 SPBC HZ EP   2   1535 37.90                             131    0.73 5  164 220 
 SPBC HN ES       1536  0.18                             131    0.14 9  164 220 
 SPBC HZ I        1536  5.04        10.3 0.09            130            164 220 
 ZAR  HZ EP   2   1535 41.23                             124    0.02 4  207 292 
 ZAR  HN ES       1536  7.56                             124    0.33 8  207 292 
 ZAR  HZ I        1536 12.51         6.0 0.40            124            207 292 
 NOR  HZ EP   4   1535 40.67                             120   -3.63 0  236 235 
 NOR  HE ES   1   1536 12.99                             120    0.26 6  236 235 
 NOR  HZ I        1536 18.84         4.2 0.26            120            236 235 
 HEL  HN ES       1536 20.69                             117   -0.04 8  274 256 
 GUY2CHZ EP   2   1535 52.39                             114    0.32 4  302 235 
 GUY2CHE ES   4   1536 29.34                             114    2.78 0  302 235 
 GUY2CHZ I        1536 35.54         3.6 0.64                           302 235 
 SJC  HZ EP   1   1536  3.55                             107   -0.45 4  411 327 
 SJC  HN ES   4   1536 44.75                             107   -3.05 0  411 327 
                                                                                
