 2010  4 3 1243  6.4 L   6.796 -72.953139.7  RSN  5 0.4 1.9LRSN                1
 GAP=267        0.75       7.3    13.1 10.0 -0.1671E+01  0.1035E+02  0.3608E+02E
 Epicentro: CEPITA - SANTANDER                                                 3
 ACTION:UPD 10-08-24 09:57 OP:vdl  STATUS:               ID:20100403124306 L   I
 2010-04-03-1239-40S.COL___098                                                 6
 STAT SP IPHASW D HRMM SECON CODA AMPLIT PERI AZIMU VELO AIN AR TRES W  DIS CAZ7
 BAR2 SZ EP   1   1243 25.91                             165     0.3 7   34 228 
 BAR2 SZ ES   2   1243 40.88                             165     0.3 5   34 228 
 BRR  HZ IP       1243 27.88                             145    -0.310   91 292 
 BRR  HZ I        1243 28.08        27.5 0.17                            91 292 
 BRR  HE ES   2   1243 44.97                             145    -0.2 5   91 292 
 CHI  HZ EP   1   1243 44.24                             115    -0.2 6  255 200 
 CHI  HE ES   2   1244 13.81                             115    -0.3 4  255 200 
 CHI  HZ I        1244 16.19         2.4 0.41                           255 200 
 RREF BZ EP   1   1243 55.20                             109     1.0 5  338 232 
 RREF BE ES   2   1244 31.83                             109     0.4 3  338 232 
 RREF BZ I        1244 35.70         2.1 0.34                           338 232 
 PRA  HZ EP   1   1244  0.54                             105    -0.4 4  403 212 
 PRA  HN ES   2   1244 43.11                             105    -0.4 3  403 212 
 PRA  HZ I        1244 47.24         2.9 0.38                           403 212 
                                                                                
