 2011  7 3 1127 13.0 L   6.793 -73.108144.0  RSN 13 0.4 1.9LRSN                1
 GAP=142        0.80       3.2     4.8  4.5 -0.7125E+01  0.3464E+01  0.1091E+01E
 Epicentro: LOS SANTOS - SANTANDER                                             3
 ACTION:UPD 12-07-25 13:57 OP:epov STATUS:               ID:20110703112713 L   I
 2011-07-03-1123-17S.COL___140                                                 6
 STAT SP IPHASW D HRMM SECON CODA AMPLIT PERI AZIMU VELO AIN AR TRES W  DIS CAZ7
 BTL  SZ IP       1127 32.45                             171    0.0910 22.4 308 
 BTL  SZ ES   1   1127 47.48                             171   -0.02 7 22.4 308 
 BAR2 SZ IP       1127 32.34                             170   -0.0510 23.7 200 
 BAR2 SZ I        1127 32.69        25.4 0.34                          23.7 200 
 BAR2 SZ ES   1   1127 47.08                             170   -0.46 7 23.7 200 
 GIR2 SZ EP   2   1127 32.29                             166   -0.18 5 32.9 343 
 GIR2 SZ ES   1   1127 48.61                             166    0.92 7 32.9 343 
 BRR  HZ EP       1127 34.12                             151   -0.0310 75.2 297 
 BRR  HN ES   1   1127 51.22                             151    0.54 7 75.2 297 
 BRR  HZ I        1127 55.22        23.9 0.12                          75.2 297 
 PAM  SZ EP       1127 35.16                             151    0.2910 75.4  37 
 PAM  SN ES   3   1127 51.49                             151   -0.47 2 75.4  37 
 RUS  HZ EP       1127 36.25                             144   -0.2210 99.7 178 
 RUS  HN ES   1   1127 54.86                             144    0.05 7 99.7 178 
 RUS  HZ I        1127 57.59         5.0 0.26                          99.7 178 
 BRI  SZ EP       1127 36.80                             141    0.1710  108  19 
 BRI  SZ ES   1   1127 54.93                             141   -0.16 7  108  19 
 GRA  SZ EP       1127 38.04                             137    0.0310  125  16 
 GRA  SZ ES   1   1127 56.96                             137   -0.58 7  125  16 
 GRA  SZ I        1127 58.52        12.4 0.32                           125  16 
 OCA  SZ EP       1127 41.13                             129   -0.12 9  162 352 
 OCA  SZ ES   1   1128  2.88                             129   -0.44 7  162 352 
 OCA  SZ I        1128 10.18        10.4 0.30                           162 352 
 NOR  SZ EP       1127 48.38                             118   -0.53 8  238 235 
 NOR  SN ES   1   1128 16.12                             118   -0.83 6  238 235 
 CHI  HZ EP   2   1127 50.95                             117    0.34 4  249 196 
 CHI  HN ES   3   1128 19.50                             117   -0.47 2  249 196 
 CHI  HZ I        1128 29.47         2.8 0.34                           249 196 
 HEL  HZ EP   1   1127 53.60                             114    0.08 6  276 256 
 HEL  HN ES   2   1128 25.16                             114    0.01 4  276 256 
 HEL  HZ I        1128 33.14         7.9 0.39                           276 256 
 RREF HZ EP       1128  0.32                             110    0.98 7  324 230 
 RREF HN ES   2   1128 35.89                             110    0.38 3  324 230 
 RREF HZ I        1128 47.28         6.8 0.30                           324 230 
                                                                                
