 2011  8 3 1239 43.6 L   6.797 -73.095143.4  RSN 17 0.5 3.0LRSN                1
 GAP=143        0.80       2.9     4.5  5.0 -0.4232E+01  0.6895E+01  0.2485E+01E
 Epicentro: LOS SANTOS - SANTANDER                                             3
 ACTION:UPD 12-07-25 14:05 OP:epov STATUS:               ID:20110803123943 L   I
 2011-08-03-1237-35S.COL___122                                                 6
 STAT SP IPHASW D HRMM SECON CODA AMPLIT PERI AZIMU VELO AIN AR TRES W  DIS CAZ7
 BAR2 SZ IP     D 1240  3.14                             170    0.1410 24.6 203 
 BAR2 SZ ES   1   1240 17.83                             170   -0.28 7 24.6 203 
 BAR2 SZ I        1240 19.05       207.7 0.09                          24.6 203 
 PAM  SZ IP     D 1240  5.98                             151    0.5710 74.2  36 
 PAM  SZ I        1240  6.28       170.8 0.16                          74.2  36 
 PAM  SN ES   1   1240 21.97                             151   -0.42 7 74.2  36 
 BRR  HZ IP     C 1240  5.06                             150    0.2310 76.4 297 
 BRR  HN ES   1   1240 22.13                             150    0.77 7 76.4 297 
 BRR  HZ I        1240 26.52       308.6 0.15                          76.4 297 
 RUS  HZ EP   1   1240  6.98                             143   -0.13 7100.0 179 
 RUS  HN ES   1   1240 25.22                             143   -0.19 7100.0 179 
 RUS  HZ I        1240 27.39       128.8 0.30                         100.0 179 
 OCA  SZ EP   1   1240 11.80                             129   -0.07 7  161 351 
 OCA  SZ ES   1   1240 33.08                             129   -0.81 7  161 351 
 OCA  SZ I        1240 35.40        82.4 0.21                           161 351 
 NOR  SZ EP   1   1240 19.12                             117   -0.58 6  239 235 
 NOR  SE ES   1   1240 47.24                             117   -0.59 6  239 235 
 CHI  HZ EP   1   1240 21.11                             116   -0.22 6  250 196 
 CHI  HN ES   1   1240 50.32                             116   -0.41 6  250 196 
 CHI  HZ I        1240 53.90        33.4 0.37                           250 196 
 ROSC BZ EP   1   1240 22.23                             116    0.32 6  255 212 
 ROSC BN ES   1   1240 52.42                             116    0.65 6  255 212 
 ROSC BZ I        1240 59.34        57.9 0.44                           255 212 
 HEL  HZ EP   1   1240 24.11                             114   -0.21 6  277 256 
 HEL  HN ES   1   1240 55.95                             114   -0.11 6  277 256 
 HEL  HZ I        1241  2.66        59.1 0.40                           277 256 
 VIL  SZ EP   1   1240 27.37                             111    0.33 5  304 193 
 GUY  SZ EP   1   1240 28.62                             111    0.72 5  308 236 
 GUY  SZ I        1241  8.67        77.7 0.35                           308 236 
 RREF HZ EP   1   1240 29.93                             110   -0.21 5  326 230 
 RREF HN ES   1   1241  5.80                             110   -0.61 5  326 230 
 RREF HZ I        1241 11.86        40.1 0.35                           326 230 
 DBB  SZ EP   1   1240 31.83                             109    0.16 5  345 274 
 DBB  SZ I        1240 34.43         8.3 0.13                           345 274 
 TOL  SZ EP   1   1240 32.57                             109    0.35 5  347 225 
 COD  HZ EP   1   1240 31.66                             108   -0.37 5  349 354 
 PRA  HZ EP   1   1240 36.97                             106   -0.39 4  394 210 
 PRA  HN ES   1   1241 19.96                             106    0.69 4  394 210 
 PRA  HZ I        1241 27.10        99.6 0.17                           394 210 
 SJA  SZ EP   1   1240 37.41                             106   -0.81 4  401 194 
                                                                                
