 2017  4 3 1233 17.2 L   6.791 -73.140150.0  RSN  6 0.3 1.5LRSN                1
 GAP=237        0.69       4.0     4.1  5.1  0.6665E+01  0.3056E+01  0.1094E+01E
 Epicentro: LOS SANTOS - SANTANDER                                             3
 ACTION:UPD 17-05-30 21:08 OP:jn   STATUS:               ID:20170403123317 L   I
 OLDACT:REG 17-04-03 20:58 OP:ar   STATUS:               ID:20170403122749     3
 2017-04-03-1228-00M.COL___365                                                 6
 STAT SP IPHASW D HRMM SECON CODA AMPLIT PERI AZIMU VELO AIN AR TRES W  DIS CAZ7
 BAR2 EZ EP       1233 37.34                             171    0.0310 22.5 192 
 BAR2 EZ ES       1233 52.54                             171   -0.4710 22.5 192 
 BAR2 EZ I        1233 54.77        10.2 0.30            168           22.5 192 
 BRR  HZ EP       1233 38.98                             153    0.1210 72.3 299 
 BRR  HN ES       1233 56.09                             153    0.3310 72.3 299 
 RUS  HZ EP       1233 41.05                             145   -0.2410 99.6 176 
 RUS  HE ES       1234  0.47                             145    0.3910 99.6 176 
 RUS  HZ I        1234  1.20         1.7 0.30            145           99.6 176 
 PTB  HZ EP       1233 44.35                             133   -0.20 9  148 259 
 PTB  HE ES       1234  5.62                             133   -0.27 9  148 259 
 PTB  HZ I        1234  7.26         3.6 0.14            132            148 259 
 SPBC HZ EP       1233 46.16                             130    0.17 9  163 219 
 SPBC HN ES       1234  8.50                             130    0.05 9  163 219 
 SPBC HZ I        1234 12.76         5.8 0.42            129            163 219 
 ZAR  HZ EP   4   1233 51.83                             123    1.81 0  205 292 
 ZAR  HE ES       1234 15.69                             123    0.07 9  205 292 
 ZAR  HZ I        1234 20.18         4.5 0.26            123            205 292 
                                                                                
