 2013 10 3 1621 17.7 L   6.796 -73.158138.2  RSN 18 0.7 2.5LRSN 2.9WRSN        1
 SPEC AVERAGE  MO 13.5 ST210.9 OM  1.5 f0 16.4 R0.2065 AL 0.00 WI 20.0 MW  2.9 3
 SPEC SD       MO  0.3 ST357.0 OM  0.3 f0 11.8 R0.1144 AL      WI      MW  0.2 3
 GAP= 71        1.50       3.9     4.3  6.8 -0.4614E+01  0.6712E+01  0.3029E+01E
 Epicentro: LOS SANTOS - SANTANDER                                             3
 SPEC BAR2SH Z MO 13.7 ST 40.8 OM  1.9 f0 10.8 R0.1781 AL-0.00 WI 20.0 MW  3.1 3
 SPEC BAR2SH Z T162148 K 0.050 GD  140 VS 5.20 DE 3.20 Q0750.0 QA 1.50 VS 5.20 3
 SPEC BRR HH Z MO 13.7 ST 20.0 OM  1.8 f0 8.89 R0.2164 AL-0.00 WI 20.0 MW  3.1 3
 SPEC BRR HH Z T162153 K 0.050 GD  155 VS 5.20 DE 3.20 Q0750.0 QA 1.50 VS 5.20 3
 SPEC PAM SH Z MO 13.5 ST  2.9 OM  1.6 f0 5.43 R0.3543 AL-0.00 WI 20.0 MW  2.9 3
 SPEC PAM SH Z T162154 K 0.050 GD  158 VS 5.20 DE 3.20 Q0750.0 QA 1.50 VS 5.20 3
 SPEC RUS HH Z MO 13.1 ST  9.4 OM  1.2 f0 10.6 R0.1815 AL-0.00 WI 20.0 MW  2.7 3
 SPEC RUS HH Z T162156 K 0.050 GD  170 VS 5.20 DE 3.20 Q0750.0 QA 1.50 VS 5.20 3
 SPEC PTB HH Z MO 13.5 ST999.9 OM  1.5 f0 40.0 R0.0481 AL-0.00 WI 20.0 MW  2.9 3
 SPEC PTB HH Z T1622 2 K 0.050 GD  201 VS 5.20 DE 3.20 Q0750.0 QA 1.50 VS 5.20 3
 SPEC SPBCHH Z MO 13.4 ST 90.8 OM  1.4 f0 18.0 R0.1069 AL-0.00 WI 20.0 MW  2.9 3
 SPEC SPBCHH Z T1622 5 K 0.050 GD  212 VS 5.20 DE 3.20 Q0750.0 QA 1.50 VS 5.20 3
 SPEC ZAR HH Z MO 13.4 ST303.1 OM  1.3 f0 27.7 R0.0695 AL-0.00 WI 20.0 MW  2.9 3
 SPEC ZAR HH Z T162214 K 0.050 GD  245 VS 5.20 DE 3.20 Q0750.0 QA 1.50 VS 5.20 3
 SPEC NOR HH Z MO 13.2 ST 29.6 OM  1.1 f0 14.4 R0.1336 AL-0.00 WI 20.0 MW  2.7 3
 SPEC NOR HH Z T162218 K 0.050 GD  270 VS 5.20 DE 3.20 Q0750.0 QA 1.50 VS 5.20 3
 SPEC SML HH Z MO 13.4 ST999.9 OM  1.3 f0 40.0 R0.0481 AL-0.00 WI 20.0 MW  2.9 3
 SPEC SML HH Z T162218 K 0.050 GD  280 VS 5.20 DE 3.20 Q0750.0 QA 1.50 VS 5.20 3
 SPEC URE HH Z MO 13.4 ST 30.5 OM  1.2 f0 12.8 R0.1503 AL-0.00 WI 20.0 MW  2.9 3
 SPEC URE HH Z T162225 K 0.050 GD  314 VS 5.20 DE 3.20 Q0750.0 QA 1.50 VS 5.20 3
 SPECGUY2CHH Z MO 13.5 ST  0.5 OM  1.3 f0 2.91 R 0.661 AL-0.00 WI 20.0 MW  2.9 3
 SPECGUY2CHH Z T162233 K 0.050 GD330.3 VS 5.20 DE 3.20 Q0750.0 QA 1.50 VS 5.20 3
 SPEC ANILHH Z MO 13.8 ST  3.5 OM  1.5 f0 4.62 R0.4165 AL-0.00 WI 20.0 MW  3.1 3
 SPEC ANILHH Z T162243 K 0.050 GD  381 VS 5.20 DE 3.20 Q0750.0 QA 1.50 VS 5.20 3
 SPEC PRA HH Z MO 13.6 ST0.906 OM  1.3 f0 3.35 R0.5743 AL-0.00 WI 20.0 MW  3.0 3
 SPEC PRA HH Z T162250 K 0.050 GD  414 VS 5.20 DE 3.20 Q0750.0 QA 1.50 VS 5.20 3
 OLDACT:REG 13-10-03 13:52 OP:stll STATUS:               ID:20131003161842     3
 ACTION:UPD 13-11-25 09:19 OP:ep   STATUS:               ID:20131003162117 L   I
 OLDACT:UP  13-10-03 21:03 OP:stll STATUS:               ID:20131003161842     3
 2013-10-03-1618-42M.COL___241                                                 6
 STAT SP IPHASW D HRMM SECON CODA AMPLIT PERI AZIMU VELO AIN AR TRES W  DIS CAZ7
 BAR2 SZ IP     D 1621 36.67                             170    0.2310 22.6 187 
 BAR2 SZ ES       1621 49.79                             170   -1.2410 22.6 187 
 BAR2 SZ I        1621 52.31       165.2 0.28            170           22.6 187 
 BRR  HZ IP     D 1621 38.45                             151    0.4410 70.2 299 
 BRR  HN ES       1621 54.95                             151    1.1310 70.2 299 
 BRR  SZ I        1621 59.11        61.5 0.12            136           70.2 299 
 PAM  SZ EP       1621 39.57                             149    0.3410 78.6  40 
 PAM  SN ES       1621 56.15                             149    0.1610 78.6  40 
 PAM  SZ I        1621 58.01        60.0 0.60            139           78.6  40 
 RUS  HZ EP       1621 40.71                             142   -0.0110  100 175 
 RUS  HN ES       1621 58.34                             142   -0.3110  100 175 
 RUS  SZ I        1622  1.38        24.5 0.30            141            100 175 
 PTB  HZ EP       1621 43.29                             130   -0.67 9  146 259 
 PTB  HN ES       1622  4.15                             130   -0.26 9  146 259 
 PTB  SZ I        1622 11.30        37.6 0.22            120            146 259 
 CAPV BZ EP       1621 44.24                             130   -0.40 9  151  38 
 TAM  HZ IP     C 1621 45.05                             128    0.11 9  156 105 
 TAM  HN ES       1622  6.38                             128    0.22 9  156 105 
 TAM  SZ I        1622  8.48        17.3 0.50            124            156 105 
 OCA  HN ES       1622  7.27                             128    0.12 9  161 354 
 SPBC HZ EP       1621 45.65                             127    0.11 9  162 219 
 SPBC HN ES       1622  7.41                             127    0.18 9  162 219 
 SPBC SZ I        1622 11.85        37.7 0.26            120            162 219 
 ZAR  HZ EP       1621 50.48                             121    0.90 9  203 292 
 ZAR  SZ I        1622 19.89        37.4 0.50            111            203 292 
 NOR  HZ EP       1621 53.21                             117    0.33 8  233 234 
 NOR  HN ES       1622 20.45                             117    0.16 8  233 234 
 NOR  SZ I        1622 26.81        20.6 0.16            109            233 234 
 SML  HZ EP       1621 52.63                             116   -1.30 8  244 336 
 SML  SZ I        1622 24.57        61.5 0.08            107            244 336 
 CHI  HZ EP       1621 55.06                             116    0.13 8  248 195 
 CHI  HN ES       1622 23.77                             116   -0.17 8  248 195 
 CHI  SZ I        1622 29.35        10.7 0.34            110            248 195 
 URE  HZ EP       1621 56.71                             112   -1.61 7  283 292 
 URE  SZ I        1622 31.94        23.1 0.14            104            283 292 
 GUY2CHZ EP       1622  1.21                             111    0.37 7  300 235 
 GUY2CHN ES       1622 34.93                             111    0.47 7  300 235 
 GUY2CSZ I        1622 42.46        12.4 0.26                           300 235 
 RREF HN ES       1622 38.89                             109   -0.13 7  320 229 
 ANIL HZ EP       1622  8.75                             107    1.65 6  356 224 
 ANIL HN ES       1622 44.57                             107   -1.04 6  356 224 
 ANIL SZ I        1622 54.07        32.0 0.34            101            356 224 
 PRA  HZ EP       1622 10.76                             105   -0.11 6  391 209 
 PRA  HN ES       1622 52.14                             105   -0.18 6  391 209 
 PRA  SZ I        1622 59.05        17.0 0.24            100            391 209 
                                                                                
