 2015  4 3 1445 31.0 L   6.809 -73.132142.0  RSN 16 0.5 2.1LRSN                1
 GAP=138        1.07       3.0     4.1  5.9 -0.2497E+01  0.8271E+01  0.3394E+01E
 Epicentro: LOS SANTOS - SANTANDER                                             3
 ACTION:UPD 15-06-03 16:52 OP:cam  STATUS:               ID:20150403144531 L   I
 OLDACT:DUP 15-04-03 22:04 OP:fm   STATUS:               ID:20150403143749d    3
 OLDACT:UP  15-04-03 21:57 OP:fm   STATUS:               ID:20150403143748     3
 OLDACT:REG 15-04-03 20:31 OP:fm   STATUS:               ID:20150403143748     3
 2015-04-03-1437-48M.COL___286                                                 6
 STAT SP IPHASW D HRMM SECON CODA AMPLIT PERI AZIMU VELO AIN AR TRES W  DIS CAZ7
 BRR  HZ EP     D 1445 52.73                             152    0.9410 72.0 297 
 BRR  HE ES       1446  8.39                             152    0.3810 72.0 297 
 BRR  HZ I        1446 13.03        22.2 0.38            150           72.0 297 
 PAM  SE ES       1446 10.11                             151    0.4610 75.6  39 
 PAM  SZ I        1446 13.05        28.6 0.56            158           75.6  39 
 RUS  HZ EP       1445 54.66                             143    0.2110  102 177 
 RUS  HE ES       1446 12.00                             143   -0.7410  102 177 
 RUS  HZ I        1446 16.85         8.9 0.38            146            102 177 
 PTB  HZ EP       1445 57.40                             131   -0.41 9  149 259 
 PTB  HN ES       1446 18.61                             131   -0.12 9  149 259 
 PTB  HZ I        1446 24.74        21.6 0.40            132            149 259 
 OCA  HZ EP       1445 58.49                             129   -0.45 9  159 353 
 OCA  HE ES       1446 19.91                             129   -0.82 9  159 353 
 OCA  HZ I        1446 25.10        28.4 0.24            133            159 353 
 SPBC HZ EP       1445 59.82                             128    0.44 9  165 219 
 SPBC HE ES       1446 21.53                             128    0.02 9  165 219 
 SPBC HZ I        1446 30.61        16.2 0.30            130            165 219 
 ZAR  HZ EP       1446  2.63                             121   -0.68 9  205 292 
 ZAR  HN ES       1446 28.89                             121    0.39 9  205 292 
 ZAR  HZ I        1446 34.81        22.0 0.38            123            205 292 
 NOR  HZ EP       1446  6.03                             117   -0.68 8  236 234 
 NOR  HE ES       1446 34.82                             117    0.26 8  236 234 
 NOR  HZ I        1446 42.65        12.3 0.34            120            236 234 
 HEL  HZ EP       1446 11.19                             114   -0.02 8  274 256 
 HEL  HN ES       1446 42.51                             114   -0.07 8  274 256 
 HEL  HZ I        1446 50.14         6.8 0.28            116            274 256 
 GUY2CHZ EP       1446 15.42                             111    0.78 7  303 235 
 GUY2CHE ES       1446 48.28                             111   -0.40 7  303 235 
 GUY2CHZ I        1446 58.79         5.8 0.44                           303 235 
 RREF HN EP       1446 17.39                             110    0.20 7  324 229 
 RREF HE ES       1446 53.37                             110    0.16 7  324 229 
 RREF HN I        1446 59.20        16.2 0.40            113            324 229 
 CBOC HZ EP       1446 18.24                             109    0.28 7  335 252 
 CBOC HE ES       1446 54.21                             109   -0.38 7  335 252 
 CBOC HZ I        1447  3.13         2.5 0.10            112            335 252 
 TOL  SZ EP       1446 19.39                             109    0.08 7  345 225 
 TOL  SN ES       1446 56.92                             109   -0.07 7  345 225 
 TOL  SZ I        1447  3.75         5.3 0.24            111            345 225 
 MON  HE ES       1446 58.17                             108    0.10 6  354 308 
 MON  HZ I        1447 11.38         4.6 0.38            111            354 308 
 ANIL HN ES       1446 59.83                             108    0.07 6  359 225 
 ANIL HZ I        1447  7.63         1.5 0.46            110            359 225 
 ORTC HZ EP       1446 25.50                             106    0.51 6  397 216 
 ORTC HN ES       1447  6.71                             106   -0.40 6  397 216 
 ORTC HZ I        1447 14.21         3.5 0.54            108            397 216 
                                                                                
