 2012  1 3 1802 36.0 L   6.759 -73.142140.1  RSN  5 0.2 1.5LRSN                1
 GAP=156        0.50       4.6     4.1  4.9 -0.6649E+01 -0.2671E+01  0.1053E+02E
 Epicentro: LOS SANTOS - SANTANDER                                             3
 ACTION:UP  12-02-03 08:13 OP:REBC STATUS:               ID:20120103180236 L   I
 2012-01-03-1800-00M.COL___183                                                 6
 STAT SP IPHASW D HRMM SECON CODA AMPLIT PERI AZIMU VELO SNR AR TRES W  DIS CAZ7
 BAR2 SZ EP       18 2 54.78                             172    -0.110   19 194 
 BAR2 SZ ES   1   18 3  9.50                             172    -0.1 7   19 194 
 BAR2 SZ I        18 3 12.62         5.9 0.37                            19 194 
 BRR  HZ EP   1   18 2 56.66                             150     0.0 7   74 301 
 BRR  HN ES   1   18 3 13.17                             150     0.4 7   74 301 
 BRR  HZ I        18 3 23.95         9.1 0.23                            74 301 
 PAM  SZ EP       18 2 57.84                             149     0.010   81  37 
 PAM  SE ES   1   18 3 14.68                             149    -0.1 7   81  37 
 PTB  HZ EP   2   18 3  2.14                             131    -0.3 5  147 261 
 PTB  HN ES   2   18 3 22.59                             131    -0.5 5  147 261 
 CHI  HZ EP       18 3 13.08                             116     0.2 8  244 196 
 CHI  HZ I        18 3 30.82         2.5 0.66                           244 196 
                                                                                
