 2017  1 3 1528 13.4 L   6.815 -73.228125.1  RSN  5 0.3 1.2LRSN                1
 GAP=130        0.70       3.6     5.0  6.8  0.1199E+01  0.1842E+01  0.7620E+00E
 Epicentro: ZAPATOCA - SANTANDER                                               3
 ACTION:UPD 17-05-22 15:55 OP:jn   STATUS:               ID:20170103152813 L   I
 OLDACT:REG 17-01-03 20:42 OP:dnl  STATUS:               ID:20170103151745     3
 2017-01-03-1518-00M.COL___375                                                 6
 STAT SP IPHASW D HRMM SECON CODA AMPLIT PERI AZIMU VELO AIN AR TRES W  DIS CAZ7
 BAR2 EZ EP       1528 30.49                             168   -0.0810 25.1 168 
 BAR2 EZ ES       1528 43.77                             168   -0.2110 25.1 168 
 BAR2 EZ I        1528 48.29        10.4 0.58            166           25.1 168 
 BRR  HZ EP       1528 32.25                             151    0.4510 62.5 301 
 BRR  HE ES       1528 45.99                             151   -0.1810 62.5 301 
 PAM  EZ EP   2   1528 33.29                             144   -0.49 5 82.3  45 
 PAM  EN ES       1528 49.79                             144    0.1110 82.3  45 
 PAM  EZ I        1528 53.16         1.8 0.38            150           82.3  45 
 RUS  HZ EP   2   1528 34.70                             138   -0.67 5  103 171 
 RUS  HN ES       1528 52.73                             138    0.2110  103 171 
 RUS  HZ I        1529  0.30         1.3 0.52            138            103 171 
 ZAR  HZ EP   4   1528 41.39                             118   -2.21 0  195 293 
 ZAR  HN ES   4   1529 10.19                             118    3.02 0  195 293 
 ZAR  HZ I        1529 16.17         2.4 0.30            118            195 293 
                                                                                
