 2014 11 3 1922  5.2 L   6.782 -73.171150.4  RSN  5 0.4 2.1LRSN                1
 GAP=134        1.08       5.9     5.6  7.9 -0.3144E+01  0.4991E+01  0.1880E+01E
 Epicentro: LOS SANTOS - SANTANDER                                             3
 ACTION:UPD 14-12-19 15:39 OP:nd   STATUS:               ID:20141103192205 L   I
 OLDACT:REG 14-11-03 22:48 OP:carl STATUS:               ID:20141103191749     3
 2014-11-03-1917-49M.COL___270                                                 6
 STAT SP IPHASW D HRMM SECON CODA AMPLIT PERI AZIMU VELO AIN AR TRES W  DIS CAZ7
 BAR2 SZ EP       1922 25.48                             172    0.1910 21.0 184 
 BAR2 SZ ES       1922 40.68                             172   -0.3210 21.0 184 
 BAR2 SZ I        1922 41.46        25.2 0.20            172           21.0 184 
 BRR  HZ EP       1922 27.09                             154    0.3710 69.8 301 
 BRR  HN ES       1922 44.17                             154    0.6210 69.8 301 
 PAM  SZ EP       1922 28.31                             151    0.2610 80.7  40 
 PAM  SN ES       1922 45.37                             151   -0.5410 80.7  40 
 PAM  SZ I        1922 47.49        28.7 0.46            151           80.7  40 
 RUS  HZ EP       1922 29.35                             145    0.1110 98.8 174 
 RUS  HN ES       1922 48.21                             145    0.1910 98.8 174 
 RUS  HZ I        1922 49.08        15.0 0.26            146           98.8 174 
 PTB  HZ EP       1922 31.47                             134   -0.76 9  145 259 
 PTB  HE ES       1922 53.12                             134   -0.22 9  145 259 
 PTB  HZ I        1922 55.14        16.0 0.14            134            145 259 
                                                                                
