 2013  5 3 1907  7.8 L   6.789 -73.167142.4  RSN  9 0.4 2.4LRSN                1
 GAP=134        0.71       3.4     3.8  7.0 -0.5062E+00  0.6617E+01 -0.1848E+01E
 Epicentro: LOS SANTOS - SANTANDER                                             3
 ACTION:UPD 13-06-20 09:47 OP:ep   STATUS:               ID:20130503190707 L   I
 2013-05-03-1900-00M.COL___253                                                 6
 STAT SP IPHASW D HRMM SECON CODA AMPLIT PERI AZIMU VELO AIN AR TRES W  DIS CAZ7
 BAR2 SZ EP       19 7 27.12                             171    0.1110 21.8 185 
 BAR2 SZ I        19 7 43.15        20.6 0.36            172           21.8 185 
 BRR  HZ EP       19 7 28.96                             152    0.4510 69.8 300 
 BRR  HN ES   2   19 7 45.52                             152    0.85 5 69.8 300 
 BRR  HN I        19 7 46.45        66.3 0.50            145           69.8 300 
 PAM  SZ EP   1   19 7 29.95                             149    0.13 7 79.8  40 
 PAM  SN ES   2   19 7 46.92                             149   -0.06 5 79.8  40 
 PAM  SN I        19 7 48.15        24.5 0.44            144           79.8  40 
 RUS  HZ EP   1   19 7 30.94                             143   -0.22 7 99.6 175 
 RUS  HN ES       19 7 49.13                             143   -0.2410 99.6 175 
 RUS  HN I        19 7 51.23        43.4 0.32            141           99.6 175 
 PTB  HZ EP   1   19 7 34.14                             131   -0.14 7  145 259 
 PTB  HN ES       19 7 54.53                             131   -0.39 9  145 259 
 PTB  HN I        19 8  0.19        36.4 0.38            126            145 259 
 NOR  HZ EP   1   19 7 43.30                             118    0.23 6  232 234 
 NOR  HN ES   2   19 8 10.92                             118    0.35 4  232 234 
 NOR  HN I        19 8 15.24        41.8 0.14            113            232 234 
 SML  HN ES   1   19 8 11.82                             116   -0.88 6  244 336 
 SML  HN I        19 8 26.72        22.1 0.10            111            244 336 
 HEL  HN ES   1   19 8 18.81                             114    0.23 6  270 256 
 HEL  HN I        19 8 29.54         8.9 0.46            110            270 256 
 PRA  HZ EP   1   19 8  1.12                             106    0.16 4  390 209 
 PRA  HN ES   2   19 8 42.48                             106    0.07 3  390 209 
 PRA  HN I        19 8 48.27         7.8 0.86            102            390 209 
                                                                                
