 2014  3 3 1324  6.0 L   6.774 -73.167144.4  RSN  5 0.4 1.5LRSN                1
 GAP=135        0.83       4.6     4.0  9.8  0.3688E+00  0.8206E+01 -0.8196E+01E
 Epicentro: LOS SANTOS - SANTANDER                                             3
 ACTION:UPD 14-04-09 23:14 OP:nd   STATUS:               ID:20140303132406 L   I
 OLDACT:DUP 14-03-03 19:08 OP:ep   STATUS:               ID:20140303131949d    3
 2014-03-03-1319-48M.COL___229                                                 6
 STAT SP IPHASW D HRMM SECON CODA AMPLIT PERI AZIMU VELO AIN AR TRES W  DIS CAZ7
 PAM  SZ EP       1324 28.66                             149    0.3210 81.1  40 
 PAM  SN ES   1   1324 45.56                             149   -0.17 7 81.1  40 
 PAM  SZ I        1324 46.58         5.8 0.11            152           81.1  40 
 RUS  HZ EP       1324 29.71                             144    0.2510 97.9 175 
 RUS  HN ES       1324 47.53                             144   -0.2110 97.9 175 
 RUS  HZ I        1324 49.56         4.2 0.22            146           97.9 175 
 PTB  HZ EP       1324 32.03                             132   -0.60 9  145 260 
 PTB  HN ES       1324 53.31                             132   -0.07 9  145 260 
 PTB  HZ I        1324 55.65         7.0 0.16            134            145 260 
 SPBC HN ES   2   1324 56.90                             129    0.95 5  159 219 
 ZAR  HN ES       1325  3.59                             122    0.16 9  203 293 
                                                                                
