 2014  6 3 1511 23.7 L   7.448 -73.370115.6  RSN  6 0.5 1.8LRSN                1
 GAP=126        1.15       4.4     5.1  8.5  0.1548E+01  0.8878E+01 -0.7122E+01E
 Epicentro: SABANA DE TORRES - SANTANDER                                       3
 ACTION:UPD 14-07-01 22:50 OP:nd   STATUS:               ID:20140603151123 L   I
 OLDACT:REG 14-06-03 20:59 OP:stll STATUS:               ID:20140603150817     3
 2014-06-03-1508-17M.COL___259                                                 6
 STAT SP IPHASW D HRMM SECON CODA AMPLIT PERI AZIMU VELO AIN AR TRES W  DIS CAZ7
 BRR  HZ EP       1511 40.94                             153    0.3710 53.4 225 
 BRR  HN ES       1511 54.24                             153    0.5010 53.4 225 
 BRR  HZ I        1511 55.42         9.4 0.32            150           53.4 225 
 PAM  SZ EP       1511 42.80                             145    0.1810 75.0  99 
 PAM  SN ES       1511 57.27                             145   -0.1210 75.0  99 
 BAR2 SZ EP       1511 44.07                             137    0.1210 96.9 168 
 BAR2 SZ ES       1511 59.45                             137   -0.3110 96.9 168 
 BAR2 SZ I        1512  0.79        22.9 0.34            138           96.9 168 
 PTB  HZ EP       1511 49.31                             122    0.03 9  157 230 
 PTB  HN ES       1512  8.94                             122   -0.31 9  157 230 
 PTB  HZ I        1512 15.73         4.5 0.24            122            157 230 
 SML  HZ EP       1511 51.29                             120    0.81 9  168 333 
 SML  HN ES       1512 10.49                             120   -0.90 9  168 333 
 SML  HZ I        1512 13.25        15.1 0.26            121            168 333 
 RUS  HZ EP       1511 51.29                             119   -0.53 9  175 170 
                                                                                
