 2016 12 3 1939 53.4 L   6.805 -73.173145.8  RSN  6 0.3 1.5LRSN                1
 GAP=141        0.83       3.9     3.9  6.0 -0.2750E+01  0.7849E+01  0.4762E+01E
 Epicentro: LOS SANTOS - SANTANDER                                             3
 ACTION:UPD 17-01-11 20:12 OP:rebc STATUS:               ID:20161203193953 L   I
 OLDACT:REG 16-12-03 21:15 OP:lv   STATUS:               ID:20161203193745     3
 2016-12-03-1938-00M.COL___345                                                 6
 STAT SP IPHASW D HRMM SECON CODA AMPLIT PERI AZIMU VELO AIN AR TRES W  DIS CAZ7
 BAR2 EZ ES       1940 28.61                             170    0.2810 23.6 182 
 BAR2 EZ I        1940 29.35        11.7 0.22            170           23.6 182 
 PAM  EZ EP       1940 15.70                             150    0.0210 78.9  42 
 PAM  EN ES       1940 32.88                             150   -0.2110 78.9  42 
 PAM  EZ I        1940 36.21         3.2 0.17            153           78.9  42 
 PTB  HZ EP       1940 19.78                             133   -0.30 9  145 258 
 PTB  HE ES       1940 40.30                             133   -0.62 9  145 258 
 PTB  HZ I        1940 43.14         3.5 0.12            133            145 258 
 ZAR  HZ EP       1940 25.59                             123    0.08 9  201 292 
 ZAR  HN ES       1940 51.26                             123    0.69 9  201 292 
 ZAR  HZ I        1940 55.99         3.4 0.12            124            201 292 
 NOR  HZ EP       1940 28.98                             119    0.10 8  233 234 
 NOR  HE ES       1940 56.43                             119   -0.14 8  233 234 
 NOR  HZ I        1940 59.63         2.5 0.30            119            233 234 
 CHI  HZ EP       1940 30.93                             117   -0.12 8  248 194 
 CHI  HE ES       1941  0.84                             117    0.40 8  248 194 
 CHI  HZ I        1941  6.45         2.9 0.19            118            248 194 
                                                                                
