 2016  7 3 1254 38.6 L   6.770 -73.157147.0  RSN  6 0.4 1.5LRSN                1
 GAP=234        1.05       5.8     6.2  7.6  0.1460E+02  0.7894E+01  0.1744E+01E
 Epicentro: LOS SANTOS - SANTANDER                                             3
 ACTION:UPD 17-03-29 16:46 OP:lp   STATUS:               ID:20160703125438 L   I
 OLDACT:REG 16-07-03 22:28 OP:ak   STATUS:               ID:20160703124747     3
 2016-07-03-1247-47M.COL___334                                                 6
 STAT SP IPHASW D HRMM SECON CODA AMPLIT PERI AZIMU VELO AIN AR TRES W  DIS CAZ7
 BAR2 EZ EP       1254 57.91                             172   -0.4310 19.8 188 
 BAR2 EZ ES       1255 13.64                             172   -0.0810 19.8 188 
 BAR2 EZ I        1255 14.81         7.3 0.44            171           19.8 188 
 BRR  HZ EP       1255  0.28                             153    0.3410 71.8 301 
 BRR  HE ES       1255 17.24                             153    0.6710 71.8 301 
 BRR  HZ I        1255 21.33         5.0 0.34            152           71.8 301 
 RUS  HZ EP       1255  2.34                             145    0.0710 97.4 175 
 RUS  HN ES       1255 20.30                             145   -0.4110 97.4 175 
 RUS  HZ I        1255 21.93         3.1 0.36            147           97.4 175 
 PTB  HZ EP       1255  5.21                             133   -0.32 9  146 260 
 PTB  HN ES       1255 26.27                             133   -0.24 9  146 260 
 PTB  HZ I        1255 29.52         3.5 0.24            133            146 260 
 SPBC HZ EP       1255  7.55                             130    0.65 9  160 219 
 SPBC HN ES       1255 29.28                             130    0.32 9  160 219 
 SPBC HZ I        1255 32.57         4.8 0.18            131            160 219 
 ZAR  HZ EP   2   1255 11.13                             123   -0.03 4  204 293 
 ZAR  HN ES       1255 35.89                             123   -0.65 9  204 293 
                                                                                
