 2010 12 3 1859 35.4 L   6.825 -73.325139.1  RSN  9 0.3 2.8LRSN                1
 GAP=121        0.64       3.8     8.6  5.7 -0.1650E+02  0.2336E+02 -0.4968E+01E
 Epicentro: ZAPATOCA - SANTANDER                                               3
 ACTION:UP  11-01-14 15:22 OP:pat  STATUS:               ID:20101203185935 L   I
 2010-12-03-1856-37S.COL___133                                                 6
 STAT SP IPHASW D HRMM SECON CODA AMPLIT PERI AZIMU VELO SNR AR TRES W  DIS CAZ7
 BAR2 SZ IP       1859 54.19                             167    -0.210   30 149 
 BAR2 SZ ES   1   19 0  9.19                             167     0.0 7   30 149 
 BAR2 SZ I        19 0 10.14       261.9 0.16                            30 149 
 GIR2 SZ EP   1   1859 54.28                             166     0.0 7   32  27 
 GIR2 SZ ES   1   19 0  9.13                             166     0.1 7   32  27 
 GUE  SZ EP   1   1859 59.52                             137    -0.2 7  120  22 
 GRA  SZ EP   1   19 0  1.01                             134     0.5 7  131  26 
 GRA  SZ I        19 0 21.70        92.0 0.57                           131  26 
 OCA  SZ EP   1   19 0  2.83                             129     0.0 7  156   0 
 OCA  SZ I        19 0 27.74        97.3 0.29                           156   0 
 NOR  SN ES   2   19 0 35.87                             119     0.2 4  221 231 
 CHI  HZ EP   1   19 0 12.35                             116    -0.2 6  247 191 
 CHI  HE ES   1   19 0 41.40                             116    -0.1 6  247 191 
 CHI  HZ I        19 0 48.96        20.2 0.50                           247 191 
 MON  HZ EP   1   19 0 21.62                             108    -0.5 5  336 310 
 PRA  HZ EP   1   19 0 28.72                             106     0.8 4  385 207 
                                                                                
