 2012  9 3 1328 22.0 L   6.742 -73.159150.2  RSN  7 0.3 1.8LRSN                1
 GAP=137        0.56       5.0     6.3  5.3  0.1490E+02  0.2941E+01 -0.1186E+01E
 Epicentro: VILLANUEVA - SANTANDER                                             3
 ACTION:UPD 12-10-22 14:16 OP:ep   STATUS:               ID:20120903132822 L   I
 2012-09-03-1320-00M.COL___218                                                 6
 STAT SP IPHASW D HRMM SECON CODA AMPLIT PERI AZIMU VELO AIN AR TRES W  DIS CAZ7
 BAR2 SZ EP       1328 42.06                             173    0.0110 16.8 189 
 BAR2 SZ ES   1   1328 57.26                             173   -0.43 7 16.8 189 
 BAR2 SZ I        1328 58.64        43.8 0.20                          16.8 189 
 GIR2 SZ EP       1328 42.08                             166   -0.2910 37.4 354 
 BRR  HZ EP       1328 43.89                             152    0.1510 73.2 303 
 BRR  HN ES   1   1329  1.16                             152    0.46 7 73.2 303 
 BRR  HZ I        1329  3.69        17.3 0.18                          73.2 303 
 PAM  SZ EP   3   1328 44.79                             150   -0.25 2 83.3  38 
 RUS  HZ EP       1328 45.93                             146    0.1810 94.3 175 
 RUS  HN ES   1   1329  4.41                             146    0.12 7 94.3 175 
 RUS  HZ I        1329  5.62         6.0 0.26                          94.3 175 
 PTB  HZ EP       1328 49.04                             133   -0.06 9  145 261 
 PTB  HN ES   3   1329  9.62                             133   -0.62 2  145 261 
 PTB  HZ I        1329 13.13         3.8 0.44                           145 261 
 ZAR  HN ES   3   1329 19.85                             123   -0.63 2  205 294 
                                                                                
