 2010  4 3 1208 59.9 L   6.768 -72.966145.1  RSN  5 0.4 2.0LRSN                1
 GAP=265        0.61       6.5     9.9  8.5 -0.5804E+01  0.7976E+01  0.2977E+02E
 Epicentro: CEPITA - SANTANDER                                                 3
 ACTION:UPD 10-08-24 09:57 OP:vdl  STATUS:               ID:20100403120859 L   I
 2010-04-03-1207-46S.COL___098                                                 6
 STAT SP IPHASW D HRMM SECON CODA AMPLIT PERI AZIMU VELO AIN AR TRES W  DIS CAZ7
 BAR2 SZ IP       12 9 19.82                             168     0.210   31 231 
 BAR2 SZ ES   2   12 9 35.00                             168     0.0 5   31 231 
 BRR  HZ EP   1   12 9 21.91                             147    -0.3 7   91 295 
 BRR  HN ES   2   12 9 39.39                             147    -0.2 5   91 295 
 BRR  HZ I        12 9 41.05        12.4 0.17                            91 295 
 CHI  HZ EP   1   12 9 38.03                             117     0.2 6  251 200 
 CHI  HE ES   2   1210  7.17                             117    -0.3 4  251 200 
 CHI  HZ I        1210 15.64         3.1 0.50                           251 200 
 RREF BZ EP   1   12 9 47.99                             110     0.5 5  335 232 
 RREF BE ES   2   1210 25.10                             110     0.5 3  335 232 
 RREF BZ I        1210 28.39         4.6 0.33                           335 232 
 PRA  HZ EP   1   12 9 53.44                             106    -0.8 4  399 212 
 PRA  HN ES   2   1210 36.02                             106    -0.6 3  399 212 
 PRA  HZ I        1210 41.38         4.5 0.30                           399 212 
                                                                                
