 2015  4 3 1824 21.6 L   6.366 -73.258132.0  RSN  4 0.1 1.2LRSN                1
 GAP=169        0.41       3.2     6.1  3.9  0.1231E+02 -0.9828E+01 -0.4441E+01E
 Epicentro: CONFINES - SANTANDER                                               3
 ACTION:UPD 15-06-03 16:52 OP:cam  STATUS:               ID:20150403182421 L   I
 OLDACT:REG 15-04-03 20:40 OP:fm   STATUS:               ID:20150403181748     3
 2015-04-03-1817-48M.COL___288                                                 6
 STAT SP IPHASW D HRMM SECON CODA AMPLIT PERI AZIMU VELO AIN AR TRES W  DIS CAZ7
 BAR2 EZ EP       1824 39.60                             168   -0.0110 26.4  19 
 BAR2 EZ ES       1824 53.54                             168   -0.1510 26.4  19 
 BAR2 EZ I        1824 55.08         6.3 0.20            171           26.4  19 
 RUS  HZ EP       1824 40.95                             156   -0.1410 55.8 160 
 RUS  HN ES       1824 56.49                             156    0.1610 55.8 160 
 RUS  HZ I        1824 59.58         2.6 0.28            156           55.8 160 
 BRR  HN ES       1824 59.69                             142    0.0610 96.1 329 
 BRR  HZ I        1825  0.83         3.7 0.26            144           96.1 329 
 PAM  SZ EP       1824 46.01                             134    0.0910  124  30 
                                                                                
