 2017  3 3 1212  1.9 L   6.778 -73.121150.7  RSN  7 0.5 1.7LRSN                1
 GAP=238        1.17       6.5     7.1  8.0  0.1888E+02  0.8124E+01 -0.2642E+01E
 Epicentro: LOS SANTOS - SANTANDER                                             3
 ACTION:UPD 17-05-25 18:35 OP:jn   STATUS:               ID:20170303121201 L   I
 OLDACT:REG 17-03-03 20:32 OP:lv   STATUS:               ID:20170303120741     3
 2017-03-03-1208-00M.COL___387                                                 6
 STAT SP IPHASW D HRMM SECON CODA AMPLIT PERI AZIMU VELO AIN AR TRES W  DIS CAZ7
 BAR2 EZ EP       1212 22.19                             171    0.1410 21.6 198 
 BAR2 EZ ES       1212 37.38                             171   -0.4210 21.6 198 
 BAR2 EZ I        1212 39.75         9.2 0.15            168           21.6 198 
 BRR  HZ EP       1212 22.92                             152   -0.8210 74.7 299 
 BRR  HN ES       1212 41.69                             152    0.8810 74.7 299 
 RUS  HZ EP       1212 26.26                             145    0.3410 98.0 178 
 RUS  HN ES       1212 44.57                             145   -0.1210 98.0 178 
 RUS  HZ I        1212 45.92         4.7 0.29            145           98.0 178 
 PTB  HZ EP       1212 29.05                             133   -0.38 9  150 260 
 PTB  HN ES       1212 50.85                             133   -0.09 9  150 260 
 PTB  HZ I        1212 53.12         4.2 0.19            132            150 260 
 SPBC HZ EP       1212 31.29                             130    0.56 9  163 220 
 SPBC HN ES       1212 53.16                             130   -0.08 9  163 220 
 SPBC HZ I        1212 57.96         4.9 0.10            130            163 220 
 ZAR  HZ EP       1212 35.25                             123    0.27 8  207 292 
 ZAR  HE ES       1213  0.55                             123   -0.26 8  207 292 
 ZAR  HZ I        1213  6.16         8.7 0.36            123            207 292 
 URE  HZ EP   4   1212 46.55                             114    3.00 0  287 292 
 URE  HN ES   4   1213 13.25                             114   -2.82 0  287 292 
 URE  HZ I        1213 14.61         4.2 0.13            115            287 292 
                                                                                
