 2017 10 3 1127 28.4 L   6.842 -73.443  1.9  RSN  9 0.4 1.7LRSN                1
 GAP=121        1.00       2.4     2.1  5.0 -0.5513E+00  0.1753E+01  0.2094E+01E
 Epicentro: SAN VICENTE DE CHUCURI - SANTANDER                                 3
 ACTION:UPD 17-11-07 19:27 OP:rebc STATUS:               ID:20171003112728 L   I
 OLDACT:UP  17-10-03 23:00 OP:osc  STATUS:               ID:20171003111740     3
 OLDACT:REG 17-10-03 20:42 OP:osc  STATUS:               ID:20171003111740     3
 2017-10-03-1118-00M.COL___413                                                 6
 STAT SP IPHASW D HRMM SECON CODA AMPLIT PERI AZIMU VELO AIN AR TRES W  DIS CAZ7
 BAR2 EZ EP       1127 35.66                              47    0.0510 39.9 134 
 BAR2 EZ ES       1127 41.00                              47   -0.2310 39.9 134 
 BAR2 EZ I        1127 42.36        97.2 0.32             47           39.9 134 
 PAM  EZ EP       1127 45.33                              47    0.5310 98.9  56 
 PAM  EE ES       1127 57.63                              47    0.0510 98.9  56 
 PAM  EZ I        1127 58.26        22.0 0.18             47           98.9  56 
 RUS  HZ EP       1127 46.00                              47   -0.8410  112 159 
 RUS  HE ES   4   1127 58.75                              47   -2.46 0  112 159 
 RUS  HZ I        1128  0.02        13.3 0.22             47            112 159 
 SPBC HZ EP       1127 52.29                              47    0.33 9  149 208 
 SPBC HN ES       1128 10.53                              47    0.20 9  149 208 
 SPBC HZ I        1128 12.11        21.4 0.16             47            149 208 
 ZAR  HZ EP       1127 55.37                              47   -0.02 9  172 295 
 ZAR  HE ES       1128 15.77                              47   -0.65 9  172 295 
 ZAR  HZ I        1128 17.34         7.6 0.16             47            172 295 
 NOR  HE ES       1128 26.38                              37    0.72 8  212 228 
 CHI  HZ EP   4   1128  6.51                              37    1.14 0  247 187 
 CHI  HE ES       1128 33.99                              37   -0.20 8  247 187 
 CHI  HZ I        1128 40.36         2.9 0.52             37            247 187 
 GUY2CHZ EP       1128  9.40                              37    0.05 7  278 230 
 GUY2CHE ES       1128 41.24                              37   -0.03 7  278 230 
 GUY2CHZ I        1128 58.57         2.2 0.50                           278 230 
 PRA  HZ EP       1128 21.85                              36    0.27 6  381 205 
 PRA  HE ES   4   1129  8.33                              36    5.28 0  381 205 
 PRA  HZ I        1129 18.19         2.5 0.58             36            381 205 
                                                                                
