 2014  9 3 1450 26.2 L   6.840 -73.160151.6  RSN  8 0.4 1.8LRSN                1
 GAP=133        0.85       3.8     4.9  8.0 -0.4482E+01  0.9015E+01  0.5007E+01E
 Epicentro: LOS SANTOS - SANTANDER                                             3
 ACTION:UPD 14-10-03 23:02 OP:nd   STATUS:               ID:20140903145026 L   I
 OLDACT:REG 14-09-03 21:02 OP:fm   STATUS:               ID:20140903144817     3
 2014-09-03-1448-17M.COL___269                                                 6
 STAT SP IPHASW D HRMM SECON CODA AMPLIT PERI AZIMU VELO AIN AR TRES W  DIS CAZ7
 PAM  SZ EP   1   1450 48.62                             152   -0.26 7 75.1  43 
 PAM  SN ES       1451  6.94                             152    0.3410 75.1  43 
 PAM  SZ I        1451  9.10         6.6 0.22            158           75.1  43 
 RUS  HZ EP       1450 50.82                             144   -0.0110  105 175 
 RUS  HN ES   1   1451  9.29                             144   -0.77 7  105 175 
 RUS  HZ I        1451 12.91         3.1 0.54            147            105 175 
 PTB  HZ EP       1450 53.65                             133    0.09 9  147 257 
 PTB  HN ES       1451 14.53                             133   -0.40 9  147 257 
 PTB  HZ I        1451 20.93         7.7 0.40            133            147 257 
 SPBC HZ EP       1450 55.67                             130    0.31 9  166 218 
 SPBC HN ES       1451 18.72                             130    0.60 9  166 218 
 SPBC HZ I        1451 24.94         9.8 0.24            131            166 218 
 SML  HN ES   1   1451 30.84                             119   -0.23 6  239 335 
 SML  HZ I        1451 36.67         8.2 0.10            122            239 335 
 CHI  HZ EP   1   1451  4.27                             118   -0.35 6  253 195 
 CHI  HN ES   1   1451 34.50                             118   -0.11 6  253 195 
 CHI  HZ I        1451 38.36         2.7 0.50            121            253 195 
 GUY2CHZ EP   4   1451 13.68                             113    3.48 0  302 234 
 GUY2CHN ES   4   1451 48.74                             113    4.20 0  302 234 
 GUY2CHZ I        1451 53.79         4.1 0.76                           302 234 
 TOL  SN ES   4   1451 54.17                             110    1.26 0  346 224 
 TOL  SZ I        1452  0.16         6.9 0.54            112            346 224 
                                                                                
