 2014  9 3 1218 14.4 L   6.820 -73.139142.5  RSN 26 0.5 2.9LRSN                1
 GAP= 71        1.18       2.7     3.1  5.4 -0.3103E+00  0.5216E+01  0.1893E+01E
 Epicentro: LOS SANTOS - SANTANDER                                             3
 ACTION:UPD 14-10-03 23:02 OP:nd   STATUS:               ID:20140903121814 L   I
 OLDACT:REG 14-09-03 20:44 OP:fm   STATUS:               ID:20140903120817     3
 2014-09-03-1208-17M.COL___269                                                 6
 STAT SP IPHASW D HRMM SECON CODA AMPLIT PERI AZIMU VELO AIN AR TRES W  DIS CAZ7
 BAR2 SZ EP     D 1218 33.76                             169    0.0610 25.6 191 
 BAR2 SZ ES   1   1218 48.38                             169   -0.36 7 25.6 191 
 BAR2 SZ I        1218 50.72       239.9 0.26            167           25.6 191 
 BRR  HZ IP     C 1218 35.69                             152    0.5010 70.8 297 
 BRR  HN ES       1218 52.28                             152    0.8910 70.8 297 
 BRR  HZ I        1218 53.64       131.4 0.16            152           70.8 297 
 PAM  SZ IP     D 1218 36.64                             151    0.4910 75.2  40 
 PAM  SN ES       1218 53.31                             151    0.2010 75.2  40 
 PAM  SZ I        1218 55.95       143.9 0.50            155           75.2  40 
 RUS  HZ EP       1218 37.68                             142   -0.3310  103 177 
 RUS  HN ES       1218 56.06                             142   -0.3510  103 177 
 RUS  HZ I        1218 57.01        79.6 0.18            142            103 177 
 PTB  HZ EP       1218 40.29                             131   -0.94 9  149 258 
 PTB  HN ES       1219  1.21                             131   -0.93 9  149 258 
 PTB  HZ I        1219  4.32       171.3 0.16            131            149 258 
 TAM  HZ EP     D 1218 42.06                             130    0.23 9  155 106 
 TAM  HE ES       1219  2.87                             130   -0.33 9  155 106 
 TAM  HZ I        1219  4.02        45.1 0.30            132            155 106 
 OCA  HZ EP       1218 42.07                             129   -0.20 9  158 353 
 OCA  HN ES       1219  3.72                             129   -0.28 9  158 353 
 OCA  HZ I        1219  7.31        92.1 0.26            132            158 353 
 SPBC HZ EP       1218 42.64                             128   -0.24 9  165 219 
 SPBC HN ES       1219  5.25                             128    0.17 9  165 219 
 SPBC HZ I        1219 12.34        71.2 0.28            128            165 219 
 ZAR  HZ EP       1218 47.29                             122    0.65 9  204 291 
 ZAR  HN ES       1219 12.78                             122    1.01 9  204 291 
 ZAR  HZ I        1219 18.16        70.7 0.32            122            204 291 
 NOR  HZ EP       1218 49.60                             118   -0.56 8  237 234 
 NOR  HN ES       1219 17.58                             118   -0.47 8  237 234 
 NOR  HZ I        1219 19.74        56.2 0.22            118            237 234 
 SML  HZ EP       1218 50.37                             117   -0.31 8  242 335 
 SML  HN ES       1219 18.39                             117   -0.57 8  242 335 
 SML  HZ I        1219 22.24        54.7 0.28            119            242 335 
 CHI  HZ EP       1218 51.97                             116   -0.22 8  251 195 
 CHI  HN ES       1219 21.87                             116    0.21 8  251 195 
 CHI  HZ I        1219 31.55        27.5 0.48            117            251 195 
 ROSC BZ EP       1218 53.28                             116    0.67 8  255 211 
 ROSC BN ES   4   1219 25.49                             116    3.09 0  255 211 
 ROSC BZ I        1219 30.79        66.5 0.45            116            255 211 
 HEL  HZ EP   4   1218 55.94                             114    1.33 0  273 255 
 HEL  HN ES   4   1219 24.82                             114   -1.13 0  273 255 
 HEL  HZ I        1219 32.86        63.0 0.30            114            273 255 
 URE  HZ EP   1   1218 55.14                             113   -0.18 6  284 291 
 URE  HN ES   4   1219 25.42                             113   -1.79 0  284 291 
 URE  HZ I        1219 27.99        67.5 0.16            114            284 291 
 GUY2CHZ EP       1218 58.55                             111    0.46 7  303 235 
 GUY2CHN ES   4   1219 34.02                             111    1.86 0  303 235 
 GUY2CHZ I        1219 39.04        33.3 0.32                           303 235 
 VIL  SE ES   4   1219 29.75                             111   -2.16 0  306 192 
 VIL  SZ I        1219 36.48        37.4 0.40            112            306 192 
 CBOC HZ EP   1   1219  2.13                             109    0.77 5  335 252 
 CBOC HE ES       1219 37.85                             109   -0.12 7  335 252 
 CBOC HZ I        1219 41.66        21.6 0.26            110            335 252 
 DBB  SZ EP       1219  1.97                             109    0.14 7  340 274 
 DBB  SZ ES   1   1219 38.25                             109   -0.56 5  340 274 
 TOL  SZ EP       1219  3.79                             109    1.00 6  346 224 
 TOL  SN ES       1219 40.84                             109    0.33 6  346 224 
 TOL  SZ I        1219 49.83        50.8 0.38            109            346 224 
 MON  HZ EP   4   1219  1.31                             108   -1.89 0  353 308 
 MON  HN ES       1219 40.30                             108   -0.95 6  353 308 
 MON  HZ I        1219 41.10        18.2 0.18            109            353 308 
 SDV  BE ES   4   1219 40.48                             108   -2.38 0  358  50 
 SDV  BZ I        1219 44.26        17.7 0.60            109            358  50 
 ANIL HZ EP   1   1219  4.58                             108    0.24 5  359 224 
 ANIL HN ES       1219 43.81                             108    0.53 6  359 224 
 PRA  HZ EP   1   1219  7.19                             106   -0.91 4  394 210 
 PRA  HN ES   4   1219 49.23                             106   -0.74 0  394 210 
 PRA  HZ I        1219 58.29        24.1 0.50            106            394 210 
 ORTC HZ EP   1   1219  8.57                             106    0.08 4  398 216 
 ORTC HN ES   4   1219 49.67                             106   -0.99 0  398 216 
 ORTC HZ I        1219 57.04        15.5 0.42            106            398 216 
 SJC  HZ EP   4   1219  8.43                             105   -1.27 0  408 327 
 SJC  HN ES   4   1219 49.15                             105   -3.67 0  408 327 
 SJC  HZ I        1219 54.09        12.9 0.52            106            408 327 
                                                                                
