 2013  8 3 1619 31.0 L   6.775 -73.131152.0  RSN  8 0.4 2.1LRSN                1
 GAP=188        0.93       3.7     4.7  5.4  0.2562E+01  0.6451E+01 -0.1994E+01E
 Epicentro: LOS SANTOS - SANTANDER                                             3
 ACTION:UPD 14-01-14 08:58 OP:ep   STATUS:               ID:20130803161931 L   I
 OLDACT:UP  13-08-03 18:42 OP:cam  STATUS:               ID:20130803161850     3
 OLDACT:REG 13-08-03 18:16 OP:cam  STATUS:               ID:20130803161850     3
 2013-08-03-1618-50M.COL___235                                                 6
 STAT SP IPHASW D HRMM SECON CODA AMPLIT PERI AZIMU VELO AIN AR TRES W  DIS CAZ7
 BAR2 SZ EP     C 1619 51.25                             172   -0.0510 21.0 196 
 BAR2 SZ ES       1620  7.28                             172    0.1210 21.0 196 
 GIR2 SZ EP       1619 51.72                             167    0.2610 34.3 348 
 GIR2 SZ ES       1620  7.36                             167   -0.0810 34.3 348 
 BRR  HZ EP       1619 53.14                             153    0.2010 73.9 300 
 BRR  HN ES       1620 10.71                             153    0.6310 73.9 300 
 BRR  HZ I        1620 12.74        16.8 0.20            149           73.9 300 
 RUS  HZ EP       1619 55.29                             146    0.1610 97.7 177 
 RUS  HN ES       1620 13.49                             146   -0.4910 97.7 177 
 RUS  HZ I        1620 15.16         4.2 0.20            147           97.7 177 
 PTB  HZ EP       1619 58.16                             133   -0.38 9  149 260 
 PTB  HN ES       1620 19.37                             133   -0.68 9  149 260 
 PTB  HZ I        1620 25.17        19.9 0.40            132            149 260 
 ZAR  HZ EP       1620  3.97                             123   -0.11 8  207 293 
 ZAR  HE ES       1620 29.61                             123   -0.30 8  207 293 
 ZAR  HZ I        1620 35.68        16.8 0.54            123            207 293 
 NOR  HZ EP   1   1620  7.58                             120    0.55 6  234 235 
 NOR  HN ES       1620 35.84                             120    0.68 8  234 235 
 NOR  HZ I        1620 38.91        12.1 0.18            120            234 235 
 SML  HZ EP       1620  7.99                             118   -0.30 8  247 335 
 SML  HN ES       1620 37.40                             118    0.00 8  247 335 
 SML  HZ I        1620 40.85        20.3 0.10            119            247 335 
                                                                                
