 2010  2 3 1242 24.6 L   6.894 -73.128143.2  RSN  7 0.7 2.4LRSN                1
 GAP=231        1.22       9.3    17.5 12.6  0.8164E+02  0.1321E+03  0.2309E+02E
 Epicentro: LOS SANTOS - SANTANDER                                             3
 ACTION:UP  10-08-24 09:47 OP:vdl  STATUS:               ID:20100203124224 L   I
 2010-02-03-1239-32S.COL___097                                                 6
 STAT SP IPHASW D HRMM SECON CODA AMPLIT PERI AZIMU VELO SNR AR TRES W  DIS CAZ7
 BAR2 SZ EP   1   1242 44.85                             167     0.6 8   34 190 
 BAR2 SZ ES   1   1242 59.88                             167     0.4 8   34 190 
 RUS  BZ EP       1242 48.89                             141     0.010  111 177 
 RUS  BN ES       1243  7.45                             141    -0.410  111 177 
 RUS  BZ I        1243  8.63        23.8 0.31                           111 177 
 CHI  HZ EP   1   1243  3.09                             116    -0.2 6  259 195 
 CHI  HE ES   1   1243 32.95                             116    -0.6 6  259 195 
 CHI  HZ I        1243 36.75        12.2 0.48                           259 195 
 HEL  HZ EP   2   1243  6.88                             114     1.7 4  277 254 
 HEL  HZ I        1243 43.68        17.2 0.68                           277 254 
 RREF BZ EP   2   1243 13.47                             110     1.9 3  330 228 
 RREF BZ I        1243 54.72        14.1 0.31                           330 228 
 MON  HZ EP   2   1243 12.13                             108    -0.8 3  348 307 
 MON  HN ES   1   1243 49.81                             108    -0.8 5  348 307 
 MON  HZ I        1244  5.77         8.7 0.43                           348 307 
 PRA  HZ EP       1243 18.80                             106    -0.4 6  402 209 
 PRA  HN ES   2   1244  1.96                             106     0.1 3  402 209 
 PRA  HZ I        1244  6.32        10.0 0.52                           402 209 
                                                                                
