 2016  9 3 1624 23.6 L   6.809 -73.134152.0  RSN  8 0.5 1.7LRSN                1
 GAP=138        1.25       6.3     6.8  8.9  0.1164E+01 -0.7738E+00 -0.1354E+01E
 Epicentro: LOS SANTOS - SANTANDER                                             3
 ACTION:UPD 17-08-17 21:06 OP:lp   STATUS:               ID:20160903162423 L   I
 OLDACT:REG 16-09-03 20:34 OP:edw  STATUS:               ID:20160903161733     3
 2016-09-03-1618-00M.COL___355                                                 6
 STAT SP IPHASW D HRMM SECON CODA AMPLIT PERI AZIMU VELO AIN AR TRES W  DIS CAZ7
 BAR2 EZ EP       1624 43.83                             170   -0.1810 24.5 192 
 BAR2 EZ ES       1624 59.40                             170   -0.5310 24.5 192 
 BAR2 EZ I        1625  1.68        10.2 0.32            175           24.5 192 
 BRR  HZ EP       1624 45.71                             153    0.2410 71.8 297 
 BRR  HN ES       1625  2.91                             153    0.3910 71.8 297 
 BRR  HZ I        1625  4.68        14.8 0.32            150           71.8 297 
 PAM  EZ EP       1624 46.86                             152    0.4610 75.9  39 
 PAM  EZ I        1625  6.04         5.7 0.45            143           75.9  39 
 RUS  HZ EP       1624 48.14                             145    0.1010  101 177 
 RUS  HE ES       1625  6.92                             145   -0.1810  101 177 
 RUS  HZ I        1625  7.60         5.6 0.28            145            101 177 
 PTB  HZ EP       1624 49.94                             133   -1.27 9  149 259 
 PTB  HE ES       1625 12.61                             133   -0.14 9  149 259 
 PTB  HZ I        1625 18.64         4.6 0.48            131            149 259 
 SPBC HZ EP       1624 53.06                             130    0.33 9  165 219 
 SPBC HN ES       1625 16.23                             130    0.78 9  165 219 
 SPBC HZ I        1625 21.73         8.0 0.26            129            165 219 
 ZAR  HE ES   2   1625 22.37                             124    0.13 4  205 292 
 CHI  HN ES   2   1625 31.50                             118   -0.08 4  250 195 
                                                                                
