 2016 12 3 1827  5.7 L   6.758 -73.129138.7  RSN  9 0.4 2.0LRSN                1
 GAP=159        0.90       3.8     4.0  5.3 -0.2743E+01  0.3047E+01  0.6368E+01E
 Epicentro: LOS SANTOS - SANTANDER                                             3
 ACTION:UPD 17-01-11 20:12 OP:rebc STATUS:               ID:20161203182705 L   I
 OLDACT:REG 16-12-03 21:12 OP:lv   STATUS:               ID:20161203181741     3
 2016-12-03-1818-00M.COL___345                                                 6
 STAT SP IPHASW D HRMM SECON CODA AMPLIT PERI AZIMU VELO AIN AR TRES W  DIS CAZ7
 BAR2 EZ EP       1827 24.24                             172   -0.1710 19.3 198 
 BAR2 EZ ES       1827 38.99                             172   -0.0110 19.3 198 
 BAR2 EZ I        1827 39.96        25.3 0.16            169           19.3 198 
 BRR  HZ IP     C 1827 26.15                             150   -0.1810 75.1 301 
 BRR  HE ES       1827 43.08                             150    0.6610 75.1 301 
 BRR  HZ I        1827 47.19        31.5 0.10            148           75.1 301 
 PAM  EZ EP       1827 27.27                             149   -0.0610 79.9  36 
 PAM  EE ES       1827 43.94                             149   -0.2610 79.9  36 
 PAM  EZ I        1827 45.71        18.8 0.18            152           79.9  36 
 PTB  HZ EP   9   1827 30.89                             130   -1.31 0  149 261 
 PTB  HN ES       1827 51.18                                   -0.38 9  149 261 
 PTB  HZ I        1827 54.92        12.9 0.17            129            149 261 
 ZAR  HZ EP       1827 37.63                             120   -0.44 8  208 293 
 ZAR  HE ES       1828  3.57                             120    0.26 8  208 293 
 ZAR  HZ I        1828 10.60        12.2 0.24            120            208 293 
 NOR  HZ EP       1827 41.01                             117    0.10 8  234 236 
 NOR  HE ES       1828  7.60                             117   -0.78 8  234 236 
 NOR  HZ I        1828 12.11         6.1 0.26            117            234 236 
 CHI  HZ EP       1827 43.17                             116    0.58 8  245 196 
 CHI  HN ES       1828 11.41                             116    0.05 8  245 196 
 CHI  HZ I        1828 17.27         2.8 0.21            116            245 196 
 PRA  HZ EP   9   1828  0.23                             105    1.60 0  389 210 
 PRA  HN ES       1828 41.37                                   -0.14 6  389 210 
 PRA  HZ I        1828 44.48         3.8 0.26            106            389 210 
 ORTC HZ EP       1827 59.64                             105    0.56 6  393 217 
 ORTC HE ES   4   1828 39.47                             105   -1.25 0  393 217 
 ORTC HZ I        1828 47.30         3.0 0.41            105            393 217 
 SJC  HZ EP   4   1827 59.29                             104   -2.33 0  414 327 
 SJC  HE ES   4   1828 41.19                             104   -4.05 0  414 327 
                                                                                
