 2016  2 3 1454 20.3 L   6.820 -73.159148.5  RSN  7 0.2 1.8LRSN                1
 GAP=134        0.56       2.0     2.6  4.0  0.4750E+00  0.3152E+01  0.6723E+00E
 Epicentro: LOS SANTOS - SANTANDER                                             3
 ACTION:UPD 16-03-04 21:23 OP:rebc STATUS:               ID:20160203145420 L   I
 OLDACT:REG 16-02-03 21:43 OP:cara STATUS:               ID:20160203144749     3
 2016-02-03-1447-49M.COL___302                                                 6
 STAT SP IPHASW D HRMM SECON CODA AMPLIT PERI AZIMU VELO AIN AR TRES W  DIS CAZ7
 BAR2 EZ IP     C 1454 40.15                             170   -0.1310 25.3 186 
 BAR2 EZ ES       1454 55.69                             170   -0.2010 25.3 186 
 BAR2 EZ I        1454 57.82        14.3 0.30            170           25.3 186 
 PAM  EZ IP     D 1454 43.08                             152    0.3310 76.7  41 
 PAM  EN ES       1455  0.42                             152    0.1510 76.7  41 
 PAM  EZ I        1455  2.52         9.3 0.52            152           76.7  41 
 RUS  HZ EP       1454 44.13                             144   -0.3410  103 175 
 RUS  HN ES       1455  3.38                             144    0.0410  103 175 
 RUS  HZ I        1455  3.91         6.1 0.30            144            103 175 
 PTB  HZ EP       1454 47.25                             133   -0.13 9  147 258 
 PTB  HE ES       1455  8.62                             133    0.10 9  147 258 
 PTB  HZ I        1455  8.85         9.5 0.16            132            147 258 
 ZAR  HE ES       1455 18.15                             123    0.21 9  202 292 
 ZAR  HZ I        1455 22.94         7.4 0.26            123            202 292 
 SML  HE ES       1455 24.95                             118   -0.29 8  241 335 
 SML  HZ I        1455 28.44        13.1 0.24            118            241 335 
 CHI  HZ EP       1454 58.45                             117    0.13 8  250 195 
 CHI  HE ES       1455 28.21                             117    0.21 8  250 195 
 CHI  HZ I        1455 33.88         3.0 0.34            118            250 195 
                                                                                
