 2012 12 3 1459 30.0 L   6.734 -73.161144.4  RSN  8 0.5 2.2LRSN                1
 GAP=138        1.26       4.2     5.7  8.3  0.1128E+01  0.1590E+02 -0.1851E+01E
 Epicentro: VILLANUEVA - SANTANDER                                             3
 ACTION:UPD 13-01-04 14:25 OP:ep   STATUS:               ID:20121203145930 L   I
 2012-12-03-1458-47M.COL___198                                                 6
 STAT SP IPHASW D HRMM SECON CODA AMPLIT PERI AZIMU VELO AIN AR TRES W  DIS CAZ7
 BAR2 SZ EP       1459 49.61                             173    0.2710 15.8 189 
 BAR2 SZ ES       15 0  4.60                             173    0.1810 15.8 189 
 BAR2 SZ I        15 0  5.67        27.7 0.22                          15.8 189 
 GIR2 SZ EP       1459 49.92                             164    0.2010 38.3 355 
 PAM  SZ EP       1459 52.83                             148    0.3410 84.2  37 
 PAM  SN ES       15 0  8.99                             148   -1.0510 84.2  37 
 PAM  SN I        15 0 11.38        11.4 0.42                          84.2  37 
 RUS  HZ EP       1459 53.42                             145    0.3110 93.4 175 
 RUS  HN ES       15 0 11.66                             145    0.5310 93.4 175 
 RUS  HN I        15 0 13.34        31.5 0.28                          93.4 175 
 PTB  HZ EP       1459 56.25                             132   -0.35 9  145 262 
 PTB  HN ES       15 0 16.73                             132   -0.61 9  145 262 
 PTB  HN I        15 0 18.88        15.6 0.46                           145 262 
 ZAR  HZ EP       15 0  2.76                             122    0.26 8  205 294 
 ZAR  HN ES       15 0 28.02                             122    0.17 8  205 294 
 ZAR  HN I        15 0 34.90        17.5 0.26                           205 294 
 CHI  HZ EP       15 0  6.31                             117   -0.50 8  241 195 
 CHI  HN ES       15 0 35.27                             117   -0.25 8  241 195 
 CHI  HN I        15 0 38.41         9.1 0.54                           241 195 
 SML  HZ EP   1   15 0  6.26                             116   -0.94 6  250 336 
 SML  HN ES       15 0 37.12                             116    0.89 8  250 336 
 SML  HN I        15 0 38.57        21.9 0.12                           250 336 
                                                                                
