 2013  7 3 1837 52.5 L   6.821 -73.339118.1  RSN  7 0.5 1.9LRSN                1
 GAP= 95        1.38       5.8     5.0  8.4  0.2762E+01  0.1283E+02  0.3165E+01E
 Epicentro: ZAPATOCA - SANTANDER                                               3
 ACTION:UPD 13-08-12 10:35 OP:ep   STATUS:               ID:20130703183752 L   I
 OLDACT:REG 13-07-03 14:30 OP:jn   STATUS:               ID:20130703183646     3
 2013-07-03-1836-46M.COL___221                                                 6
 STAT SP IPHASW D HRMM SECON CODA AMPLIT PERI AZIMU VELO AIN AR TRES W  DIS CAZ7
 BAR2 SZ EP       1838  9.32                             165    0.3110 30.7 146 
 BAR2 SZ ES       1838 22.03                             165    0.1310 30.7 146 
 BAR2 SZ I        1838 23.70        62.2 0.32            167           30.7 146 
 GIR2 SZ EP       1838  8.92                             164   -0.0110 32.7  29 
 GIR2 SZ ES       1838 20.48                             164   -1.2910 32.7  29 
 GIR2 SZ I        1838 23.74        19.7 0.24            166           32.7  29 
 BRR  HZ EP       1838  9.85                             155    0.2810 52.0 307 
 BRR  HN ES       1838 23.47                             155    0.5810 52.0 307 
 BRR  HZ I        1838 25.63        28.3 0.22            155           52.0 307 
 PAM  SZ EP       1838 12.48                             140   -0.3710 90.9  51 
 PAM  SN ES       1838 29.26                             140    0.5310 90.9  51 
 PAM  SZ I        1838 31.14        16.1 0.24            144           90.9  51 
 RUS  HZ EP       1838 14.17                             135    0.0410  107 165 
 RUS  HN ES       1838 31.36                             135    0.3510  107 165 
 RUS  HZ I        1838 33.56         3.4 0.38            138            107 165 
 PTB  HZ IP     C 1838 14.65                             129   -0.7210  127 256 
 PTB  HE ES       1838 32.84                             129   -0.3810  127 256 
 PTB  HZ I        1838 36.15        10.0 0.10            131            127 256 
 ZAR  HZ EP       1838 21.01                             118   -0.04 9  183 294 
 ZAR  HE ES       1838 43.99                             118    0.65 9  183 294 
 ZAR  HZ I        1838 46.76        10.5 0.34            121            183 294 
                                                                                
