 2011  1 3 1502 12.9 L   6.785 -73.103137.4  RSN 12 0.5 2.4LRSN                1
 GAP=164        0.83       4.2     7.2  7.3 -0.1521E+02  0.1842E+02  0.6848E+00E
 Epicentro: LOS SANTOS - SANTANDER                                             3
 ACTION:UP  11-02-08 08:38 OP:pat  STATUS:               ID:20110103150212 L   I
 2011-01-03-1500-00M.COL___137                                                 6
 STAT SP IPHASW D HRMM SECON CODA AMPLIT PERI AZIMU VELO SNR AR TRES W  DIS CAZ7
 BAR2 SZ EP   1   15 2 31.66                             170     0.1 8   23 203 
 BTL  SZ EP   1   15 2 31.88                             170     0.3 8   23 309 
 BTL  SZ ES   2   15 2 45.00                             170    -1.1 5   23 309 
 BAR2 SZ ES   2   15 2 45.82                             170    -0.2 5   23 203 
 BAR2 SZ I        15 2 47.71        53.6 0.40                            23 203 
 RUS  HZ EP   1   15 2 35.62                             142    -0.1 8   99 179 
 RUS  HN ES   2   15 2 54.44                             142     0.9 5   99 179 
 RUS  HZ I        15 2 55.99        16.9 0.34                            99 179 
 GRA  SZ IP       15 2 37.49                             135     0.010  126  15 
 GRA  SZ ES   2   15 2 56.99                             135     0.4 5  126  15 
 GRA  SZ I        15 3  0.17        26.4 0.52                           126  15 
 OCA  SZ EP   1   15 2 40.06                             127    -0.7 7  163 352 
 OCA  SZ ES   2   15 3  3.20                             127     0.6 5  163 352 
 OCA  SZ I        15 3 10.39        25.0 0.32                           163 352 
 NOR  SZ EP   1   15 2 47.85                             116    -0.7 6  238 236 
 NOR  SE ES   2   15 3 16.09                             116    -0.2 4  238 236 
 CHI  HZ EP   1   15 2 49.90                             115    -0.2 6  248 196 
 CHI  HE ES   2   15 3 18.86                             115    -0.3 4  248 196 
 CHI  HZ I        15 3 22.88        22.0 0.57                           248 196 
 ROSC BZ EP   1   15 2 50.74                             115     0.0 6  254 212 
 ROSC BN ES   2   15 3 20.18                             115     0.0 4  254 212 
 ROSC BZ I        15 3 26.26        41.5 0.49                           254 212 
 HEL  HZ EP   1   15 2 53.46                             113     0.3 6  276 256 
 HEL  HE ES   2   15 3 24.43                             113    -0.2 4  276 256 
 HEL  HZ I        15 3 29.77        10.8 0.43                           276 256 
 GUY  SZ EP   1   15 2 56.79                             110     0.3 6  304 236 
 GUY  SN ES   2   15 3 31.04                             110     0.5 4  304 236 
 GUY  SZ I        15 3 37.86        18.1 0.25                           304 236 
 RREF HZ EP   1   15 2 59.91                             109     0.9 5  324 230 
 RREF HE ES   2   15 3 35.21                             109     0.3 4  324 230 
 RREF HZ I        15 3 43.36        12.4 0.46                           324 230 
 PRA  HZ EP   1   15 3  6.11                             105    -0.2 5  393 210 
 PRA  HE ES   2   15 3 46.93                             105    -1.0 3  393 210 
                                                                                
