 2010  8 3 1109 47.4 L   6.769 -73.103144.7  RSN 12 0.5 2.4LRSN                1
 GAP=161        0.90       4.9     9.1  8.4 -0.2394E+02  0.1498E+02  0.3767E+01E
 Epicentro: LOS SANTOS - SANTANDER                                             3
 ACTION:UP  10-09-07 10:51 OP:vdl  STATUS:               ID:20100803110947 L   I
 2010-08-03-1107-57S.COL___126                                                 6
 STAT SP IPHASW D HRMM SECON CODA AMPLIT PERI AZIMU VELO SNR AR TRES W  DIS CAZ7
 BAR2 SZ EP       1110  6.64                             171    -0.210   22 205 
 BAR2 SZ ES   2   1110 21.55                             171    -0.4 5   22 205 
 BAR2 SZ I        1110 23.05        80.8 0.18                            22 205 
 GIR2 SZ EP   1   1110  6.72                             165    -0.3 7   36 344 
 BRR  HZ EP   1   1110  8.50                             150    -0.2 7   77 299 
 BRR  HN ES   2   1110 25.60                             150     0.2 5   77 299 
 BRR  HZ I        1110 28.09        43.4 0.18                            77 299 
 RUS  HZ EP   1   1110 10.61                             145    -0.1 7   97 179 
 RUS  HE ES   2   1110 29.11                             145     0.1 5   97 179 
 RUS  HZ I        1110 30.63        30.1 0.25                            97 179 
 BRI  SZ EP   1   1110 12.27                             140     1.0 7  110  18 
 BRI  SZ ES   2   1110 31.12                             140     1.2 5  110  18 
 GUE  SZ EP   1   1110 11.65                             138    -0.5 7  119   9 
 GRA  SZ EP       1110 12.49                             136    -0.210  128  15 
 GRA  SZ ES   2   1110 32.02                             136    -0.4 5  128  15 
 GRA  SZ I        1110 33.08        26.5 0.25                           128  15 
 CHI  HZ EP   1   1110 24.85                             117     0.1 6  247 196 
 CHI  HE ES   2   1110 54.67                                     0.7 4  247 196 
 CHI  HZ I        1111  1.27        10.6 0.35                           247 196 
 ROSC BN ES   3   1110 55.54                             116     0.5 2  252 212 
 ROSC BZ I        1111  2.74        14.0 0.23                           252 212 
 HEL  HZ EP   1   1110 28.16                             114     0.2 6  276 257 
 HEL  HZ I        1111  6.47        10.7 0.31                           276 257 
 RREF HZ EP   1   1110 33.94                             110     0.3 5  323 230 
 RREF HN ES   2   1111  9.51                             110    -0.2 3  323 230 
 RREF HZ I        1111 15.87        13.3 0.25                           323 230 
 PRA  HZ EP   1   1110 40.41                             106    -0.4 4  391 210 
 PRA  HN ES   2   1111 22.73                             106     0.3 3  391 210 
 PRA  HZ I        1111 29.23        10.8 0.26                           391 210 
                                                                                
