 2012  9 3 1754 59.7 L   6.776 -73.138144.4  RSN 14 0.5 2.5LRSN 3.2WRSN        1
 SPEC AVERAGE  MO 13.8 ST  2.5 OM  3.2 f0 2.58 R0.5801 AL 2.00 WI 20.3 MW  3.2 3
 SPEC SD       MO  0.2 ST  2.5 OM  1.1 f00.369 R0.0725 AL      WI      MW  0.1 3
 GAP= 72        0.82       4.6     3.8  5.1 -0.1540E+01  0.3410E+01  0.6589E+01E
 Epicentro: LOS SANTOS - SANTANDER                                             3
 SPEC PTB HH E MO 13.7 ST0.865 OM  2.0 f0 2.35 R0.6255 AL 1.63 WI 20.4 MW  3.1 3
 SPEC PTB HH E T175545 K 0.000 GD  206 VS 4.20 DE 3.00 Q0230.0 QA 0.60 VS 4.20 3
 SPEC PAM SH N MO 13.7 ST0.802 OM  2.1 f0 2.29 R0.6419 AL 2.27 WI  6.3 MW  3.1 3
 SPEC PAM SH N T175538 K 0.000 GD  164 VS 4.20 DE 3.00 Q0230.0 QA 0.60 VS 4.20 3
 SPEC HEL HH N MO 13.9 ST  1.5 OM  2.0 f0 2.47 R0.5951 AL 2.01 WI 33.1 MW  3.2 3
 SPEC HEL HH N T1756 8 K 0.000 GD  307 VS 4.20 DE 3.00 Q0230.0 QA 0.60 VS 4.20 3
 SPEC BRR HH N MO 14.2 ST  6.9 OM  2.6 f0 3.21 R0.4579 AL 2.08 WI 21.3 MW  3.4 3
 SPEC BRR HH N T175537 K 0.000 GD  161 VS 4.20 DE 3.00 Q0230.0 QA 0.60 VS 4.20 3
 ACTION:UPD 12-10-22 14:16 OP:ep   STATUS:               ID:20120903175459 L   I
 2012-09-03-1750-00M.COL___218                                                 6
 STAT SP IPHASW D HRMM SECON CODA AMPLIT PERI AZIMU VELO AIN AR TRES W  DIS CAZ7
 BAR2 SZ EP       1755 18.79                             171   -0.3010 20.9 194 
 BAR2 SZ ES   1   1755 34.02                             171   -0.22 7 20.9 194 
 BAR2 SZ I        1755 36.88       102.5 0.40                          20.9 194 
 GIR2 SZ EP       1755 19.31                             166    0.0510 34.1 350 
 GIR2 SZ ES   1   1755 34.89                             166    0.35 7 34.1 350 
 BRR  HZ EP       1755 20.97                             151    0.1810 73.3 300 
 BRR  HE ES   1   1755 37.80                             151    0.53 7 73.3 300 
 BRR  HZ I        1755 41.49        56.0 0.18                          73.3 300 
 PAM  SZ EP       1755 21.88                             150    0.0410 78.9  38 
 PAM  SZ I        1755 22.00        66.4 0.18                          78.9  38 
 PAM  SN ES   1   1755 39.03                             150   -0.09 7 78.9  38 
 RUS  HZ EP       1755 22.86                             144   -0.2310 97.8 176 
 RUS  HN ES   1   1755 41.62                             144    0.26 7 97.8 176 
 RUS  HZ I        1755 44.28        33.5 0.50                          97.8 176 
 PTB  HZ EP       1755 25.90                             132   -0.66 9  148 260 
 PTB  HN ES   1   1755 46.89                             132   -0.64 7  148 260 
 PTB  HZ I        1755 48.93        20.6 0.38                           148 260 
 TAM  HZ EP       1755 27.12                             130    0.02 9  154 104 
 TAM  HN ES   3   1755 48.39                             130   -0.10 2  154 104 
 ZAR  HZ EP   2   1755 31.67                             122   -0.55 4  206 293 
 ZAR  HZ I        1756  3.33        27.5 0.30                           206 293 
 NOR  SZ EP       1755 35.34                             118    0.11 8  234 235 
 NOR  SZ I        1756  7.28        33.9 0.20                           234 235 
 CHI  HZ EP   3   1755 37.03                             117   -0.01 2  246 196 
 CHI  HE ES   3   1756  5.59                             117   -0.59 2  246 196 
 CHI  HZ I        1756 14.21        15.3 0.50                           246 196 
 HEL  HZ EP       1755 40.70                             114    0.86 8  272 256 
 HEL  HZ I        1756 16.95        15.2 0.28                           272 256 
 MON  HN ES   3   1756 24.84                             108   -2.45 2  356 309 
 MON  HZ I        1756 39.76         8.2 0.42                           356 309 
 ANIL HZ EP       1755 49.97                             108    0.70 6  356 225 
 ANIL HZ I        1756 32.97        47.5 0.30                           356 225 
 PRA  HZ EP   3   1755 53.53                             106    0.61 1  390 210 
 PRA  HZ I        1756 39.97        13.7 0.48                           390 210 
                                                                                
