 2012  3 3 1357  6.4 L   6.752 -73.154154.2  RSN  5 0.3 1.6LRSN                1
 GAP=233        0.80       8.6     7.8  8.6  0.4142E+02  0.7012E+01 -0.1697E+01E
 ACTION:UP  12-03-31 23:16 OP:EP   STATUS:               ID:20120303135706 L   I
 2012-03-03-1350-00M.COL___191                                                 6
 STAT SP IPHASW D HRMM SECON CODA AMPLIT PERI AZIMU VELO SNR AR TRES W  DIS CAZ7
 BAR2 SZ EP   1   1357 26.95                             173     0.0 7   18 190 
 BAR2 SZ ES   1   1357 42.30                             173    -0.7 7   18 190 
 BAR2 SZ I        1357 43.71         9.5 0.36                            18 190 
 BRR  HZ EP   1   1357 28.42                             153    -0.1 7   73 303 
 BRR  HE ES   1   1357 46.50                             153     0.7 7   73 303 
 RUS  HZ EP   1   1357 30.68                             147     0.1 7   95 175 
 RUS  HN ES   1   1357 49.84                             147     0.3 7   95 175 
 RUS  HZ I        1357 51.31         3.3 0.41                            95 175 
 PTB  HZ EP   1   1357 33.92                             134     0.0 7  146 261 
 PTB  HE ES   1   1357 55.17                             134    -0.2 7  146 261 
 ZAR  HE ES   1   1358  5.20                             124    -0.2 6  205 294 
 ZAR  HZ I        1358  7.61         6.5 0.51                           205 294 
                                                                                
