 2010  8 3 1026 55.4 L   6.771 -73.048138.0  RSN  9 0.4 1.8LRSN                1
 GAP=170        0.76       4.7     8.2  5.6 -0.1630E+02  0.1023E+02 -0.9154E+00E
 Epicentro: LOS SANTOS - SANTANDER                                             3
 ACTION:UP  10-09-07 10:51 OP:vdl  STATUS:               ID:20100803102655 L   I
 2010-08-03-1024-13S.COL___126                                                 6
 STAT SP IPHASW D HRMM SECON CODA AMPLIT PERI AZIMU VELO SNR AR TRES W  DIS CAZ7
 BAR2 SZ EP   1   1027 14.14                             169     0.0 7   25 217 
 BAR2 SZ ES       1027 28.25                             169    -0.510   25 217 
 BAR2 SZ I        1027 30.37        18.9 0.40                            25 217 
 GIR2 SZ EP   1   1027 14.29                             165    -0.1 7   38 335 
 GIR2 SZ ES   2   1027 29.56                             165     0.4 5   38 335 
 BRR  HZ EP   1   1027 16.15                             148    -0.3 7   82 297 
 BRR  HE ES   2   1027 33.05                             148     0.3 5   82 297 
 BRR  HZ I        1027 34.18        23.8 0.37                            82 297 
 RUS  HZ EP   1   1027 18.27                             143     0.1 7   97 182 
 RUS  HN ES   2   1027 36.72                             143     0.8 5   97 182 
 RUS  HZ I        1027 37.63         6.8 0.30                            97 182 
 GUE  SZ EP   1   1027 19.28                             138    -0.2 7  118   7 
 GRA  SZ EP   1   1027 20.13                             136     0.1 7  126  12 
 GRA  SZ ES   2   1027 39.74                             136     0.6 5  126  12 
 GRA  SZ I        1027 41.01         5.9 0.44                           126  12 
 HEL  HZ EP   1   1027 36.51                             113     0.2 6  282 257 
 HEL  HZ I        1028 12.98         4.8 0.47                           282 257 
 RREF HZ EP   1   1027 42.53                             109     0.6 5  328 231 
 RREF HE ES   2   1028 18.16                             109    -0.1 3  328 231 
 RREF HZ I        1028 23.11         3.0 0.26                           328 231 
 PRA  HZ EP   1   1027 48.28                             106    -0.7 4  395 211 
 PRA  HE ES   2   1028 30.96                             106     0.2 3  395 211 
 PRA  HZ I        1028 37.64         2.5 0.72                           395 211 
                                                                                
