 2016 12 3 1126  1.1 L   6.754 -73.123140.0  RSN 10 0.5 2.0LRSN                1
 GAP=123        1.07       4.7     4.9  6.9 -0.1074E+01  0.8357E+01  0.1220E+02E
 Epicentro: LOS SANTOS - SANTANDER                                             3
 ACTION:UPD 17-01-11 20:12 OP:rebc STATUS:               ID:20161203112601 L   I
 OLDACT:REG 16-12-03 20:43 OP:lv   STATUS:               ID:20161203111747     3
 2016-12-03-1118-00M.COL___342                                                 6
 STAT SP IPHASW D HRMM SECON CODA AMPLIT PERI AZIMU VELO AIN AR TRES W  DIS CAZ7
 BAR2 EZ EP       1126 19.81                             172   -0.1210 19.1 200 
 BAR2 EZ ES       1126 34.61                             172   -0.0310 19.1 200 
 BAR2 EZ I        1126 36.87        17.5 0.24            168           19.1 200 
 BRR  HZ EP       1126 21.99                             150    0.1010 75.9 301 
 BRR  HN ES       1126 38.74                             150    0.6210 75.9 301 
 BRR  HZ I        1126 41.81        14.0 0.27            150           75.9 301 
 PAM  EZ EP       1126 22.78                             149   -0.0510 79.8  36 
 PAM  EE ES       1126 39.56                             149   -0.2410 79.8  36 
 PAM  EZ I        1126 41.97        27.9 0.26            155           79.8  36 
 PTB  HZ EP       1126 26.84                             130   -0.89 9  149 261 
 PTB  HN ES   4   1126 47.07                             130   -1.45 0  149 261 
 PTB  HZ I        1126 51.57        11.1 0.13            131            149 261 
 ZAR  HZ EP       1126 34.40                             120    0.80 8  208 293 
 ZAR  HN ES       1126 58.80                             120   -0.18 8  208 293 
 ZAR  HZ I        1127  4.86         7.2 0.14            122            208 293 
 NOR  HZ EP       1126 35.77                             117   -0.62 8  234 236 
 NOR  HN ES       1127  3.69                             117   -0.25 8  234 236 
 NOR  HZ I        1127 11.23         9.1 0.20            118            234 236 
 CHI  HZ EP   4   1126 39.47                             116    1.47 0  244 196 
 CHI  HN ES       1127  7.21                             116    0.41 8  244 196 
 CHI  HZ I        1127 10.60         4.9 0.25            118            244 196 
 PTGC HZ EP       1126 44.39                             111    0.36 7  303 159 
 PTGC HN ES   4   1127 15.67                             111   -1.87 0  303 159 
 ORTC HZ EP       1126 55.03                             105    0.53 6  393 217 
 ORTC HN ES   4   1127 37.40                             105    1.22 0  393 217 
 ORTC HZ I        1127 42.94         3.3 0.46            107            393 217 
 SJC  HZ EP   4   1126 54.90                             104   -2.22 0  415 327 
 SJC  HE ES   4   1127 37.08                             104   -3.75 0  415 327 
 SJC  HZ I        1127 39.59         3.8 0.51            107            415 327 
                                                                                
