 2016  6 3 1022 55.8 L   6.808 -73.152142.0  RSN 11 0.4 2.2LRSN                1
 GAP= 70        1.05       3.3     3.3  5.5 -0.2666E+01  0.2989E+01  0.2999E+01E
 Epicentro: LOS SANTOS - SANTANDER                                             3
 ACTION:UPD 16-07-21 22:15 OP:rebc STATUS:               ID:20160603102255 L   I
 OLDACT:REG 16-06-03 20:33 OP:ar   STATUS:               ID:20160603101744     3
 2016-06-03-1017-44M.COL___319                                                 6
 STAT SP IPHASW D HRMM SECON CODA AMPLIT PERI AZIMU VELO AIN AR TRES W  DIS CAZ7
 BAR2 EZ EP       1023 14.90                             170   -0.0510 24.1 188 
 BAR2 EZ ES       1023 29.48                             170   -0.4410 24.1 188 
 BAR2 EZ I        1023 30.59        51.4 0.14                          24.1 188 
 BRR  HZ EP       1023 16.80                             152    0.3610 70.2 298 
 BRR  HN ES       1023 33.52                             152    0.9410 70.2 298 
 BRR  HZ I        1023 37.56        32.4 0.14                          70.2 298 
 PAM  EZ EP       1023 17.93                             150    0.3710 77.2  40 
 PAM  EN ES       1023 34.79                             150    0.2210 77.2  40 
 PAM  EZ I        1023 37.03        34.4 0.56                          77.2  40 
 RUS  HZ EP       1023 18.93                             143   -0.2810  101 176 
 RUS  HN ES       1023 37.36                             143   -0.1410  101 176 
 RUS  HZ ES       1023 38.05                             143            101 176 
 RUS  HZ I        1023 38.88        21.3 0.34                           101 176 
 PTB  HZ EP       1023 21.56                             131   -0.81 9  147 258 
 PTB  HN ES       1023 42.40                             131   -0.73 9  147 258 
 PTB  HZ I        1023 45.92        20.9 0.14                           147 258 
 TAM  HZ EP       1023 23.27                             130    0.05 9  156 105 
 TAM  HN ES       1023 44.54                             130   -0.11 9  156 105 
 TAM  HZ I        1023 57.14        12.3 0.36                           156 105 
 OCA  HZ EP       1023 23.41                             129   -0.28 9  159 353 
 OCA  HN ES       1023 45.14                             129   -0.34 9  159 353 
 OCA  HZ I        1023 48.17        33.4 0.28                           159 353 
 SPBC HZ EP       1023 23.84                             128   -0.15 9  163 219 
 SPBC HN ES       1023 46.50                             128    0.49 9  163 219 
 SPBC HZ I        1023 51.10        17.5 0.12                           163 219 
 NOR  HZ EP       1023 31.49                             118    0.23 8  235 234 
 NOR  HN ES       1023 59.13                             118    0.17 8  235 234 
 NOR  HZ I        1024  4.43        12.4 0.18                           235 234 
 PRA  HZ EP       1023 49.73                             106    0.53 6  392 209 
 PRA  HE ES       1024 31.39                             106    0.51 6  392 209 
 PRA  HZ I        1024 39.29         4.0 0.60                           392 209 
 PAL  HZ EP       1023 51.14                             105    0.36 6  406 239 
 PAL  HN ES       1024 33.42                             105   -0.27 6  406 239 
 PAL  HZ I        1024 39.16         3.3 0.24                           406 239 
                                                                                
