 2011  9 3 1838 12.7 L   6.798 -73.033139.4  RSN  4 0.1 1.5LRSN                1
 GAP=213        0.31       3.8     6.9  3.8  0.1892E+02 -0.8834E+01 -0.3204E+01E
 Epicentro: CEPITA - SANTANDER                                                 3
 ACTION:UPD 12-07-13 15:55 OP:ep   STATUS:               ID:20110903183812 L   I
 2011-09-03-1834-19S.COL___171                                                 6
 STAT SP IPHASW D HRMM SECON CODA AMPLIT PERI AZIMU VELO AIN AR TRES W  DIS CAZ7
 BAR2 SZ EP       1838 31.62                             168   -0.0110 28.2 216 
 BAR2 SZ ES   1   1838 46.37                             168   -0.05 7 28.2 216 
 BAR2 SZ I        1838 47.76         7.6 0.20                          28.2 216 
 GIR2 SZ EP   2   1838 31.63                             165   -0.07 5 35.7 330 
 GIR2 SZ ES   2   1838 46.66                             165    0.11 5 35.7 330 
 BRR  HZ EP   1   1838 33.68                             148   -0.13 7 82.5 295 
 BRR  HE ES   1   1838 50.39                             148    0.08 7 82.5 295 
 BRR  HZ I        1838 51.61        13.2 0.23                          82.5 295 
 RUS  HZ EP   1   1838 35.94                             142    0.18 7  100 183 
 RUS  HZ I        1838 47.96         3.3 0.46                           100 183 
 RUS  HN ES   1   1838 53.71                             142   -0.07 7  100 183 
                                                                                
