 2010  4 3 1213 40.9 L   6.833 -72.916140.7  RSN  4 0.5 1.7LRSN                1
 GAP=271        0.84       9.7    14.0 12.0  0.3364E+01  0.1264E+02  0.5515E+02E
 Epicentro: SAN ANDRES - SANTANDER                                             3
 ACTION:UPD 10-08-24 09:57 OP:vdl  STATUS:               ID:20100403121340 L   I
 2010-04-03-1211-19S.COL___098                                                 6
 STAT SP IPHASW D HRMM SECON CODA AMPLIT PERI AZIMU VELO AIN AR TRES W  DIS CAZ7
 BAR2 SZ IP       1214  0.89                             164     0.510   40 228 
 BAR2 SZ ES   2   1214 15.22                             164    -0.4 5   40 228 
 BRR  HZ EP   1   1214  2.81                             146    -0.1 7   93 289 
 BRR  HE ES   2   1214 19.63                             146    -0.5 5   93 289 
 BRR  HZ I        1214 24.09        11.5 0.15                            93 289 
 CHI  HZ EP   1   1214 19.10                             115    -0.5 6  260 200 
 CHI  HN ES   2   1214 49.79                             115     0.0 4  260 200 
 CHI  HZ I        1214 55.28         1.8 0.82                           260 200 
 RREF BZ EP   1   1214 28.89                             109    -0.5 5  344 232 
 RREF BN ES   2   1215  8.08                             109     0.9 3  344 232 
 RREF BZ I        1215 11.45         2.4 0.52                           344 232 
                                                                                
