 2017  3 3 1406 23.5 L   6.795 -73.155146.3  RSN  5 0.5 1.6LRSN                1
 GAP=243        1.14       8.0     7.0  9.7  0.2327E+02  0.1314E+02 -0.6301E+01E
 Epicentro: LOS SANTOS - SANTANDER                                             3
 ACTION:UPD 17-05-25 18:35 OP:jn   STATUS:               ID:20170303140623 L   I
 OLDACT:DUP 17-03-03 22:23 OP:lv   STATUS:               ID:20170303135745d    3
 2017-03-03-1358-00M.COL___384                                                 6
 STAT SP IPHASW D HRMM SECON CODA AMPLIT PERI AZIMU VELO AIN AR TRES W  DIS CAZ7
 BAR2 EZ EP       14 6 43.15                             171    0.0010 22.6 188 
 BAR2 EZ ES       14 6 58.63                             171    0.1310 22.6 188 
 BAR2 EZ I        14 6 59.95        10.6 0.29            168           22.6 188 
 RUS  HZ EP       14 6 47.60                             144    0.3710  100 175 
 RUS  HN ES       14 7  5.41                             144   -0.3710  100 175 
 RUS  HZ I        14 7  7.49         2.6 0.20            145            100 175 
 PTB  HZ EP       14 6 49.68                             132   -0.70 9  147 259 
 PTB  HN ES       14 7 10.75                             132   -0.62 9  147 259 
 PTB  HZ I        14 7 17.01         4.5 0.20            132            147 259 
 SPBC HZ EP       14 6 51.96                             129    0.06 9  162 219 
 SPBC HN ES       14 7 14.72                             129    0.63 9  162 219 
 SPBC HZ I        14 7 16.56         9.3 0.13            130            162 219 
 ZAR  HN ES       14 7 21.76                             123    0.61 9  203 292 
                                                                                
