 2010  7 3 1100 27.5 L   6.756 -73.180138.5  RSN  7 0.5 1.6LRSN                1
 GAP=152        0.88       5.7    10.8  8.6 -0.2393E+02  0.4137E+01 -0.8138E+01E
 Epicentro: VILLANUEVA - SANTANDER                                             3
 ACTION:UPD 10-12-01 15:14 OP:pat  STATUS:               ID:20100703110027 L   I
 2010-07-03-1057-29S.COL___118                                                 6
 STAT SP IPHASW D HRMM SECON CODA AMPLIT PERI AZIMU VELO AIN AR TRES W  DIS CAZ7
 BAR2 SZ EP       11 0 46.05                             172    -0.110   18 181 
 BAR2 SZ ES   1   11 1  0.04                             172    -0.7 7   18 181 
 BRR  HZ EP       11 0 47.94                             151     0.110   71 303 
 BRR  HN ES   2   11 1  4.14                             151     0.5 5   71 303 
 BRR  HZ I        11 1  8.78        15.7 0.11                            71 303 
 RUS  HZ EP   3   11 0 50.03                             143    -0.2 2   96 174 
 RUS  HN ES   2   11 1  8.97                             143     1.1 5   96 174 
 RUS  HZ I        11 1 10.39         5.3 0.55                            96 174 
 BRI  SZ EP       11 0 51.55                             138     0.410  114  22 
 BRI  SZ I        11 1 20.33         2.7 0.32                           114  22 
 GRA  SZ EP   1   11 0 52.66                             133     0.1 7  132  18 
 GRA  SZ ES   1   11 1 11.66                             133    -0.5 7  132  18 
 OCA  SZ EP   3   11 0 55.79                             127     0.1 2  165 355 
 OCA  SZ ES   3   11 1 17.52                             127    -0.1 2  165 355 
 OCA  SZ I        11 1 23.07         5.6 0.35                           165 355 
 PRA  HZ EP   1   11 1 19.42                             105    -0.6 4  386 209 
 PRA  HE ES   3   11 2  0.64                             105    -0.4 1  386 209 
 PRA  HZ I        11 2  7.73         1.8 0.80                           386 209 
                                                                                
