 2011  5 3 1148 31.6 L   6.372 -73.684 99.9  RSN  4 0.2 1.4LRSN                1
 GAP=122        0.56       3.3     3.7  9.6 -0.1729E+00  0.1098E+02  0.6151E+01E
 Epicentro: SANTA HELENA DEL OPON - SANTANDER                                  3
 ACTION:UP  11-06-29 08:50 OP:tino STATUS:               ID:20110503114831 L   I
 2011-05-03-1144-51S.COL___127                                                 6
 STAT SP IPHASW D HRMM SECON CODA AMPLIT PERI AZIMU VELO SNR AR TRES W  DIS CAZ7
 BAR2 SZ EP       1148 47.90                             146     0.310   61  66 
 BAR2 SZ I        1149  1.42        10.4 0.07                            61  66 
 BRR  HZ EP   1   1148 48.80                             138     0.0 7   81 358 
 BRR  HZ I        1149  0.08        10.1 0.20                            81 358 
 BRR  HN ES   1   1149  2.10                             138    -0.2 7   81 358 
 RUS  HZ EP   1   1148 49.64                             137    -0.2 7   85 129 
 RUS  HN ES   1   1149  3.93                             137    -0.1 7   85 129 
 RUS  HZ I        1149  6.53         4.5 0.25                            85 129 
 NOR  SZ EP   2   1148 56.10                             118    -0.4 5  159 236 
 NOR  SN ES   1   1149 16.15                             118     0.2 7  159 236 
                                                                                
