 2011  9 3 1222  0.8 L   6.783 -73.099144.7  RSN 12 0.4 2.4LRSN                1
 GAP=143        0.71       3.1     4.3  4.7 -0.7351E+00  0.6757E+01  0.2763E+01E
 Epicentro: LOS SANTOS - SANTANDER                                             3
 ACTION:UPD 12-07-13 15:55 OP:ep   STATUS:               ID:20110903122200 L   I
 2011-09-03-1220-14S.COL___170                                                 6
 STAT SP IPHASW D HRMM SECON CODA AMPLIT PERI AZIMU VELO AIN AR TRES W  DIS CAZ7
 BAR2 SZ IP       1222 20.20                             170   -0.0910 23.1 204 
 BAR2 SZ ES   1   1222 35.15                             170   -0.35 7 23.1 204 
 BAR2 SZ I        1222 38.13        65.5 0.41                          23.1 204 
 GIR2 SZ EP       1222 20.26                             166   -0.1610 34.3 342 
 GIR2 SZ ES   1   1222 35.87                             166    0.13 7 34.3 342 
 PAM  SZ EP   1   1222 22.97                             151    0.18 7 75.7  36 
 PAM  SE ES   1   1222 39.85                             151   -0.10 7 75.7  36 
 BRR  HZ IP     C 1222 22.05                             150   -0.0910 76.7 298 
 BRR  HZ I        1222 22.42        82.2 0.11                          76.7 298 
 BRR  HN ES   1   1222 39.64                             150    0.84 7 76.7 298 
 RUS  HZ EP   1   1222 24.45                             144    0.16 7 98.5 179 
 RUS  HN ES   1   1222 42.66                             144    0.04 7 98.5 179 
 RUS  HZ I        1222 43.68        26.1 0.25                          98.5 179 
 OCA  SZ EP   1   1222 29.10                             129   -0.15 7  163 351 
 OCA  SZ ES   1   1222 51.38                             129   -0.08 7  163 351 
 OCA  SZ I        1222 54.87        37.9 0.27                           163 351 
 ZAR  HZ EP   1   1222 34.21                             121    0.48 6  210 292 
 ZAR  HN ES   1   1222 58.65                             121   -0.79 6  210 292 
 ZAR  HZ I        1223  4.76        28.7 0.31                           210 292 
 NOR  SZ EP   1   1222 36.29                             118   -0.51 6  238 236 
 NOR  SE ES   1   1223  4.67                             118   -0.22 6  238 236 
 CHI  HZ EP   1   1222 38.38                             117   -0.01 6  248 196 
 CHI  HZ I        1222 41.15        10.5 0.17                           248 196 
 HEL  HZ EP   1   1222 42.06                             114    0.60 6  277 256 
 TOL  SZ EP   1   1222 50.06                             109    0.79 5  346 225 
 PRA  HZ EP   1   1222 54.09                             106   -0.30 4  393 210 
                                                                                
