 2016 12 3 1120 40.6 L   6.601 -73.190141.4  RSN  4 0.1 1.1LRSN                1
 GAP=186        0.32       3.9     2.5  3.4  0.4436E+01  0.3880E+01  0.3560E+01E
 Epicentro: BARICHARA - SANTANDER                                              3
 ACTION:UPD 17-01-11 20:12 OP:rebc STATUS:               ID:20161203112040 L   I
 OLDACT:DUP 16-12-03 21:56 OP:lv   STATUS:               ID:20161203111748d    3
 2016-12-03-1118-00M.COL___342                                                 6
 STAT SP IPHASW D HRMM SECON CODA AMPLIT PERI AZIMU VELO AIN AR TRES W  DIS CAZ7
 BAR2 EZ EP       1120 59.49                             179   -0.0010 1.32 140 
 BAR2 EZ ES       1121 14.14                             179   -0.0610 1.32 140 
 BRR  HE ES       1121 18.51                             149    0.0910 80.4 314 
 PTB  HZ EP       1121  6.60                             133    0.04 9  140 267 
 PTB  HN ES       1121 26.80                             133    0.02 9  140 267 
 PTB  HZ I        1121 31.45         1.8 0.18            131            140 267 
 ZAR  HE ES       1121 38.70                             121   -0.10 8  209 298 
                                                                                
