 2010  6 3 1902 14.8 L   7.354 -73.052132.0  RSN  7 0.6 2.2LRSN                1
 GAP=132        1.44       7.9    11.0  9.2 -0.5352E+02 -0.3764E+01  0.5215E+01E
 Epicentro: MATANZA - SANTANDER                                                3
 ACTION:UP  10-08-24 10:08 OP:vdl  STATUS:               ID:20100603190214 L   I
 2010-06-03-1857-27S.COL___109                                                 6
 STAT SP IPHASW D HRMM SECON CODA AMPLIT PERI AZIMU VELO SNR AR TRES W  DIS CAZ7
 GUE  SZ EP       19 2 34.60                             156     0.610   54  15 
 GUE  SZ ES       19 2 49.74                             156     0.710   54  15 
 GRA  SZ EP       19 2 34.25                             152    -0.110   65  25 
 GRA  SZ ES       19 2 49.39                             152    -0.210   65  25 
 BAR2 SZ EP       19 2 35.51                             145    -0.310   86 190 
 BAR2 SZ ES       19 2 51.95                             145    -0.210   86 190 
 OCA  SZ EP       19 2 35.85                             140    -1.010  102 343 
 OCA  SZ I        19 2 56.35        20.8 0.05                           102 343 
 HEL  HZ EP   1   19 2 57.84                             109     0.0 5  303 245 
 HEL  HZ I        19 3 37.19         7.6 0.18                           303 245 
 SDV  BZ EP       19 2 59.24                             108     0.1 7  316  58 
 SDV  BN ES       19 3 33.73                             108     0.0 7  316  58 
 SDV  BZ I        19 3 37.70         6.4 0.27                           316  58 
 RREF BZ EP   1   19 3  7.71                             105     1.5 5  372 223 
 RREF BZ I        19 3 11.78         6.4 0.75                           372 223 
 RREF BN ES   2   19 3 47.14                             105     0.8 3  372 223 
                                                                                
