 2012  8 3 1151 31.3 L   6.818 -73.148151.6  RSN  5 0.2 1.3LRSN                1
 GAP=135        0.55       4.7     5.2  7.5 -0.2000E+01  0.1402E+02  0.9631E+01E
 Epicentro: LOS SANTOS - SANTANDER                                             3
 ACTION:UPD 12-09-10 11:54 OP:ep   STATUS:               ID:20120803115131 L   I
 2012-08-03-1150-00M.COL___215                                                 6
 STAT SP IPHASW D HRMM SECON CODA AMPLIT PERI AZIMU VELO AIN AR TRES W  DIS CAZ7
 BAR2 SZ EP       1151 51.81                             170    0.1310 25.3 189 
 BAR2 SZ I        1152  7.81         6.6 0.28                          25.3 189 
 BRR  HZ EP       1151 52.70                             154   -0.3310 70.0 297 
 BRR  HE ES   2   1152 10.53                             154    0.56 5 70.0 297 
 PAM  SZ EP       1151 54.27                             152    0.2010 76.0  41 
 PAM  SN ES   1   1152 11.61                             152   -0.22 7 76.0  41 
 PAM  SZ I        1152 13.68         4.2 0.64                          76.0  41 
 RUS  HZ EP       1151 55.83                             144    0.0410  103 176 
 RUS  HZ I        1151 56.78         1.6 0.14                           103 176 
 RUS  HN ES   2   1152 14.58                             144   -0.29 5  103 176 
 PTB  HZ EP       1151 58.80                             133    0.02 9  148 258 
 PTB  HZ I        1152 22.90         2.6 0.44                           148 258 
                                                                                
