 2013  3 3 1231 14.2 L   6.794 -73.146148.9  RSN  6 0.4 1.6LRSN                1
 GAP=237        0.81       6.1     7.1  7.7  0.2330E+02  0.1062E+02  0.1126E+02E
 Epicentro: LOS SANTOS - SANTANDER                                             3
 ACTION:UPD 13-04-09 13:59 OP:ep   STATUS:               ID:20130303123114 L   I
 2013-03-03-1230-00M.COL___228                                                 6
 STAT SP IPHASW D HRMM SECON CODA AMPLIT PERI AZIMU VELO AIN AR TRES W  DIS CAZ7
 BAR2 SZ EP   1   1231 34.22                             171    0.06 7 22.6 190 
 BAR2 SZ ES   1   1231 49.30                             171   -0.46 7 22.6 190 
 BAR2 SZ I        1231 50.76        19.4 0.20            166           22.6 190 
 BRR  HZ EP   1   1231 35.17                             153   -0.50 7 71.5 299 
 BRR  HN ES   1   1231 53.17                             153    0.72 7 71.5 299 
 BRR  HZ I        1231 59.44         6.0 0.46            149           71.5 299 
 RUS  HZ EP   1   1231 38.17                             145   -0.01 7 99.9 176 
 RUS  HN ES   1   1231 57.22                             145    0.31 7 99.9 176 
 RUS  HZ I        1231 58.51         3.5 0.26            147           99.9 176 
 PTB  HZ EP   1   1231 41.14                             133   -0.24 7  148 259 
 PTB  HN ES   1   1232  1.98                             133   -0.62 7  148 259 
 PTB  HZ I        1232  7.88         5.1 0.28            131            148 259 
 ZAR  HN ES   1   1232 12.75                             123    0.42 6  204 292 
 ZAR  HZ I        1232 18.40         5.5 0.34            123            204 292 
 CHI  HZ EP   1   1231 52.36                             118    0.39 6  248 195 
 CHI  HN ES   1   1232 21.58                             118    0.13 6  248 195 
 CHI  HZ I        1232 24.01         1.3 0.39            120            248 195 
                                                                                
