 2014 11 3 1609 29.4 L   6.807 -73.129140.8  RSN 10 0.4 2.3LRSN                1
 GAP=138        0.99       3.3     4.8  6.0 -0.2464E+01  0.1063E+02  0.5729E+01E
 Epicentro: LOS SANTOS - SANTANDER                                             3
 ACTION:UPD 14-12-19 15:39 OP:nd   STATUS:               ID:20141103160929 L   I
 OLDACT:REG 14-11-03 22:37 OP:carl STATUS:               ID:20141103160750     3
 2014-11-03-1607-50M.COL___268                                                 6
 STAT SP IPHASW D HRMM SECON CODA AMPLIT PERI AZIMU VELO AIN AR TRES W  DIS CAZ7
 BAR2 SZ EP       16 9 48.41                             170   -0.0610 24.5 194 
 BAR2 SZ ES       1610  2.50                             170   -0.8410 24.5 194 
 BAR2 SZ I        1610  6.12        27.1 0.28            166           24.5 194 
 BRR  HZ EP       16 9 50.01                             151   -0.0910 72.4 297 
 BRR  HN ES       1610  6.98                             151    0.7410 72.4 297 
 BRR  HZ I        1610 10.55        32.5 0.30            150           72.4 297 
 PAM  SZ EP       16 9 51.33                             150    0.3310 75.6  39 
 PAM  SN ES       1610  7.99                             150    0.1610 75.6  39 
 PAM  SZ I        1610  8.66        33.9 0.22            157           75.6  39 
 RUS  HZ EP       16 9 52.49                             143   -0.2410  101 177 
 RUS  HE ES       1610 11.30                             143    0.3810  101 177 
 PTB  HZ EP   4   16 9 54.97                             130   -1.19 0  150 259 
 PTB  HN ES   4   1610 15.25                             130   -1.78 0  150 259 
 PTB  HZ I        1610 21.68        24.8 0.24            130            150 259 
 OCA  HN ES       1610 18.65                             129   -0.38 9  160 352 
 CHI  HZ EP       1610  7.00                             116    0.02 8  250 196 
 CHI  HN ES       1610 36.29                             116    0.01 8  250 196 
 CHI  HZ I        1610 44.04        10.5 0.38            118            250 196 
 HEL  HZ EP       1610  9.08                             114   -0.52 8  274 256 
 HEL  HN ES       1610 40.57                             114   -0.38 8  274 256 
 HEL  HZ I        1610 47.77        14.6 0.32            115            274 256 
 GUY2CHZ EP       1610 13.67                             111    0.65 7  303 235 
 GUY2CHN ES       1610 47.34                             111    0.31 7  303 235 
 GUY2CHZ I        1610 56.12        11.6 0.36                           303 235 
 PRA  HZ EP       1610 23.02                             106    0.06 6  394 210 
 PRA  HN ES       1611  4.50                             106   -0.22 6  394 210 
 PRA  HZ I        1611  8.74        11.1 0.58            107            394 210 
                                                                                
