 2012  6 3 1314 50.9 L   6.748 -73.217144.0  RSN  4 0.3 1.3LRSN                1
 GAP=233        0.83       8.8     7.1  8.0  0.4408E+02  0.1126E+02 -0.5110E+01E
 Epicentro: VILLANUEVA - SANTANDER                                             3
 ACTION:UPD 12-08-06 17:46 OP:ep   STATUS:               ID:20120603131449 L   I
 2012-06-03-1310-00M.COL___200                                                 6
 STAT SP IPHASW D HRMM SECON CODA AMPLIT PERI AZIMU VELO AIN AR TRES W  DIS CAZ7
 BAR2 SZ EP       1315  9.74                             173   -0.4410 17.6 168 
 BAR2 SZ ES       1315 25.34                             173    0.1010 17.6 168 
 BAR2 SZ I        1315 27.38         5.7 0.34            170           17.6 168 
 RUS  HZ EP       1315 14.03                             145   -0.0610 95.7 171 
 RUS  HN ES       1315 32.51                             145    0.2910 95.7 171 
 RUS  HZ I        1315 34.11         2.5 0.38            145           95.7 171 
 PTB  HZ EP       1315 17.12                             133    0.22 9  139 261 
 PTB  HE ES   1   1315 36.52                             133   -0.69 7  139 261 
 PTB  HZ I        1315 40.57         3.2 0.18            134            139 261 
 ZAR  HE ES       1315 47.86                             123    0.35 9  199 295 
                                                                                
