 2016 11 3 1815 32.3 L   6.798 -73.194136.8  RSN  5 0.4 1.5LRSN                1
 GAP=131        0.97       5.0     4.7  7.1 -0.2072E+01  0.4331E+01  0.1840E+01E
 Epicentro: ZAPATOCA - SANTANDER                                               3
 ACTION:UPD 17-10-26 21:04 OP:lp   STATUS:               ID:20161103181532 L   I
 OLDACT:REG 16-11-03 21:30 OP:cog  STATUS:               ID:20161103180745     3
 2016-11-03-1808-00M.COL___340                                                 6
 STAT SP IPHASW D HRMM SECON CODA AMPLIT PERI AZIMU VELO AIN AR TRES W  DIS CAZ7
 BAR2 EZ EP       1815 50.75                             170   -0.1010 22.8 177 
 BAR2 EZ ES       1816  5.76                             170    0.4510 22.8 177 
 BAR2 EZ I        1816  7.20        10.7 0.24            171           22.8 177 
 BRR  HZ EP       1815 52.54                             152    0.3110 66.7 301 
 BRR  HN ES       1816  6.98                             152   -0.7910 66.7 301 
 PAM  EZ EP       1815 53.64                             148   -0.1710 81.0  42 
 PAM  EN ES       1816 10.86                             148    0.2810 81.0  42 
 PAM  EZ I        1816 13.05         6.1 0.35            151           81.0  42 
 RUS  HZ EP       1815 55.11                             142   -0.1010  101 173 
 RUS  HE ES       1816 12.80                             142   -0.2710  101 173 
 PTB  HZ EP       1815 58.07                             131    0.00 9  142 258 
 PTB  HE ES       1816 18.59                             131    0.43 9  142 258 
 PTB  HZ I        1816 25.71         3.3 0.20            131            142 258 
                                                                                
