 2012  5 3 1855 32.5 L   6.785 -73.159144.2  RSN  9 0.2 2.0LRSN                1
 GAP=136        0.53       2.7     2.8  4.3 -0.4471E+00  0.2825E+01  0.3568E+01E
 Epicentro: LOS SANTOS - SANTANDER                                             3
 ACTION:UP  12-07-05 12:01 OP:pat  STATUS:               ID:20120503185532 L   I
 2012-05-03-1850-00M.COL___186                                                 6
 STAT SP IPHASW D HRMM SECON CODA AMPLIT PERI AZIMU VELO SNR AR TRES W  DIS CAZ7
 BAR2 SZ EP   1   1855 51.78                             171    -0.1 9   21 187 
 BAR2 SZ ES   1   1856  7.04                             171     0.0 9   21 187 
 BAR2 SZ I        1856  8.23        23.5 0.37                            21 187 
 BRR  HZ EP   1   1855 53.54                             152     0.1 9   71 300 
 BRR  HZ I        1855 54.09        33.9 0.25                            71 300 
 BRR  HN ES   1   1856  9.83                             152     0.1 9   71 300 
 PAM  SZ EP   1   1855 54.63                             150     0.0 9   80  40 
 PAM  SN ES   1   1856 12.07                             150     0.1 9   80  40 
 RUS  HZ EP   1   1855 55.98                             144     0.0 9   99 175 
 RUS  HN ES   1   1856 14.04                             144    -0.2 9   99 175 
 RUS  HZ I        1856 15.57        10.0 0.13                            99 175 
 PTB  HZ EP   1   1855 58.81                             132    -0.3 9  146 259 
 PTB  HN ES   1   1856 19.46                             132    -0.5 9  146 259 
 ZAR  HE ES   1   1856 30.21                             122     0.3 8  203 293 
 ZAR  HZ I        1856 37.01        15.8 0.28                           203 293 
 NOR  SZ EP   1   1856  7.78                             118    -0.1 7  233 235 
 NOR  SN ES       1856 35.70                             118     0.210  233 235 
 CHI  HZ EP   1   1856  9.67                             117    -0.2 7  247 195 
 CHI  HN ES   1   1856 39.58                             117     0.6 7  247 195 
 CHI  HZ I        1856 49.22         4.0 0.88                           247 195 
 PRA  HZ EP   1   1856 25.71                                     0.0 5  390 209 
                                                                                
