 2010 10 3 1726  0.3 L   6.805 -73.125145.3  RSN 15 0.4 2.4LRSN                1
 GAP=138        0.73       2.5     4.1  4.9 -0.2317E+01  0.3247E+01  0.1199E+01E
 Epicentro: LOS SANTOS - SANTANDER                                             3
 ACTION:UP  11-02-18 11:07 OP:tino STATUS:               ID:20101003172600 L   I
 2010-10-03-1724-05S.COL___124                                                 6
 STAT SP IPHASW D HRMM SECON CODA AMPLIT PERI AZIMU VELO SNR AR TRES W  DIS CAZ7
 BAR2 SZ IP       1726 19.91                             170     0.010   24 195 
 BAR2 SZ ES   1   1726 35.13                             170     0.0 7   24 195 
 BAR2 SZ I        1726 37.71        57.7 0.36                            24 195 
 BRR  HZ IP     D 1726 21.82                             152     0.310   73 297 
 BRR  HN ES   1   1726 38.41                             152     0.4 7   73 297 
 BRR  HZ I        1726 42.58        63.7 0.18                            73 297 
 RUS  HZ EP       1726 23.79                             144    -0.210  101 177 
 RUS  HE ES   1   1726 42.35                             144    -0.2 7  101 177 
 RUS  HZ I        1726 43.21        24.0 0.30                           101 177 
 GUE  SZ EP       1726 24.84                             140     0.010  116  11 
 GRA  SZ EP       1726 25.74                             137     0.310  125  17 
 GRA  SZ ES   2   1726 44.73                             137    -0.2 5  125  17 
 GRA  SZ I        1726 47.90        40.2 0.41                           125  17 
 OCA  SZ EP   1   1726 28.10                             130    -0.4 7  160 352 
 OCA  SZ ES   1   1726 50.08                             130    -0.5 7  160 352 
 OCA  SZ I        1726 56.69        48.2 0.41                           160 352 
 YOP  SZ EP   1   1726 30.28                             126     0.0 7  178 154 
 YOP  SN ES   2   1726 54.16                             126     0.5 4  178 154 
 NOR  SZ EP   1   1726 35.79                             118    -0.5 6  237 235 
 NOR  SE ES   1   1727  3.83                             118    -0.5 6  237 235 
 NOR  SZ I        1727  7.62         5.4 0.19                           237 235 
 CHI  HZ EP   1   1726 37.75                             117    -0.3 6  250 196 
 CHI  HN ES   2   1727  8.25                             117     0.7 4  250 196 
 CHI  HZ I        1727 13.04        12.9 0.33                           250 196 
 ROSC BZ EP   2   1726 39.12                             116     0.6 4  254 211 
 ROSC BE ES   2   1727  9.23                             116     0.8 4  254 211 
 ROSC BZ I        1727 17.90        27.7 0.52                           254 211 
 HEL  HZ EP   1   1726 41.24                             114     0.5 6  274 256 
 HEL  HE ES   2   1727 11.95                             114    -0.3 4  274 256 
 HEL  HZ I        1727 21.12        11.8 0.21                           274 256 
 RREF HZ EP   2   1726 46.86                             111     0.2 3  324 230 
 RREF HN ES   2   1727 22.31                             111    -0.5 3  324 230 
 RREF HZ I        1727 28.51        24.1 0.16                           324 230 
 DBB  SZ EP   1   1726 48.50                             109     0.5 5  342 274 
 DBB  SZ I        1727 27.02         3.6 0.45                           342 274 
 TOL  SZ EP   2   1726 48.88                             109     0.1 3  346 225 
 PRA  HZ EP   1   1726 53.55                             106    -0.4 4  394 210 
 PRA  HN ES   1   1727 35.57                             106    -0.3 4  394 210 
                                                                                
