 2010  1 3 1131 24.0 L   6.784 -73.031147.0  RSN 10 0.4 2.3LRSN                1
 GAP=135        0.66       4.1     6.5  6.0 -0.1294E+02  0.6593E+00  0.4788E+01E
 Epicentro: CEPITA - SANTANDER                                                 3
 ACTION:UP  10-08-24 09:42 OP:vdl  STATUS:               ID:20100103113124 L   I
 2010-01-03-1130-01S.COL___096                                                 6
 STAT SP IPHASW D HRMM SECON CODA AMPLIT PERI AZIMU VELO SNR AR TRES W  DIS CAZ7
 BAR2 SZ EP   1   1131 44.04                             169     0.1 7   27 218 
 BAR2 SZ ES   2   1131 58.95                             169    -0.4 5   27 218 
 GIR2 SZ EP   1   1131 44.12                             165     0.1 7   37 331 
 GIR2 SZ ES   2   1132  0.38                             165     0.8 5   37 331 
 RUS  BZ EP       1131 47.78                             145     0.010   99 183 
 OCA  SZ EP   1   1131 52.56                             129    -0.2 7  164 349 
 OCA  SZ ES   2   1132 14.51                             129    -0.7 5  164 349 
 CHI  HZ EP   1   1132  2.02                             117     0.0 6  251 198 
 CHI  HZ I        1132  4.58         7.2 0.10                           251 198 
 CHI  HE ES   2   1132 30.95                             117    -0.7 4  251 198 
 HEL  HZ EP   1   1132  5.40                             114    -0.2 6  284 257 
 HEL  HZ I        1132 42.19         7.2 0.83                           284 257 
 RREF BZ EP   1   1132 10.99                             111    -0.2 5  330 231 
 RREF BN ES   2   1132 48.92                             111     0.9 3  330 231 
 RREF BZ I        1132 52.59        10.2 0.23                           330 231 
 TOL  SZ EP   1   1132 13.55                             109     0.3 5  351 226 
 TOL  SZ ES   2   1132 52.55                             109     0.9 3  351 226 
 SDV  BZ IP       1132 13.46                             109     0.3 6  352  49 
 PRA  HZ EP   1   1132 17.56                             107    -0.6 4  397 211 
 PRA  HN ES   2   1133  0.11                             107    -0.3 3  397 211 
 PRA  HZ I        1133  5.46         8.8 0.70                           397 211 
                                                                                
