 2011  5 3 1855 50.6 L   6.801 -73.154140.0  RSN  9 0.2 2.4LRSN                1
 GAP=135        0.51       2.6     5.2  4.3 -0.9256E+01  0.1067E+02 -0.2916E+01E
 Epicentro: LOS SANTOS - SANTANDER                                             3
 ACTION:UP  11-06-29 08:50 OP:tino STATUS:               ID:20110503185550 L   I
 2011-05-03-1840-00M.COL___140                                                 6
 STAT SP IPHASW D HRMM SECON CODA AMPLIT PERI AZIMU VELO SNR AR TRES W  DIS CAZ7
 BTL  SZ EP   1   1856  9.85                             172     0.4 7   18 316 
 BAR2 SZ EP       1856  9.49                             170     0.010   23 188 
 BAR2 SZ ES   1   1856 24.60                             170     0.3 7   23 188 
 BAR2 SZ I        1856 25.43        66.4 0.23                            23 188 
 GIR2 SZ EP   1   1856  9.43                             167    -0.1 7   31 352 
 PAM  SZ EP   1   1856 12.32                             150     0.1 7   78  40 
 PAM  SN ES   1   1856 28.87                             150    -0.2 7   78  40 
 RUS  HZ EP       1856 13.57                             143    -0.210  101 176 
 RUS  HN ES       1856 31.87                             143     0.010  101 176 
 RUS  HZ I        1856 34.01        33.0 0.18                           101 176 
 BRI  SZ EP       1856 13.89                             140     0.010  109  21 
 BRI  SZ ES   1   1856 32.21                             140     0.1 7  109  21 
 BRI  SZ I        1856 34.26        37.8 0.43                           109  21 
 GRA  SZ IP       1856 15.15                             136    -0.210  126  18 
 GRA  SZ ES   1   1856 34.72                             136     0.1 7  126  18 
 GRA  SZ I        1856 35.95        65.5 0.26                           126  18 
 NOR  SZ EP   1   1856 25.68                             117    -0.2 6  234 234 
 NOR  SN ES   1   1856 53.27                             117    -0.2 6  234 234 
 PRA  HZ EP   1   1856 44.55                             106     0.7 4  392 209 
 PRA  HN ES   1   1857 25.39                             106     0.0 4  392 209 
                                                                                
