 2011 12 3 1830 34.6 L   6.778 -73.109141.7  RSN  8 0.3 2.0LRSN                1
 GAP=142        0.63       2.7     4.2  4.6 -0.1970E+01  0.6709E+00  0.1173E+01E
 Epicentro: LOS SANTOS - SANTANDER                                             3
 ACTION:UPD 12-07-13 16:14 OP:ep   STATUS:               ID:20111203183034 L   I
 2011-12-03-1830-00M.COL___179                                                 6
 STAT SP IPHASW D HRMM SECON CODA AMPLIT PERI AZIMU VELO AIN AR TRES W  DIS CAZ7
 BAR2 SZ EP       1830 53.85                             171    0.1210 22.1 201 
 BAR2 SZ ES   1   1831  8.45                             171   -0.18 7 22.1 201 
 BAR2 SZ I        1831 10.35        41.4 0.39                          22.1 201 
 GIR2 SZ EP       1830 53.96                             166    0.0710 34.5 344 
 BRR  HZ IP     C 1830 55.73                             150    0.1310 75.9 299 
 BRR  HE ES       1831 12.24                             150    0.2810 75.9 299 
 BRR  HZ I        1831 17.10        18.9 0.22                          75.9 299 
 PAM  SZ EP       1830 56.71                             150    0.3510 76.8  36 
 PAM  SN ES   1   1831 12.82                             150   -0.50 7 76.8  36 
 RUS  HZ EP       1830 57.84                             144    0.0610 98.0 178 
 RUS  HN ES   1   1831 15.83                             144   -0.01 7 98.0 178 
 OCA  SZ EP       1831  2.45                             128   -0.44 9  163 352 
 OCA  SZ ES   1   1831 24.87                             128   -0.07 7  163 352 
 OCA  SZ I        1831 29.07        17.9 0.30                           163 352 
 NOR  SZ EP   1   1831 10.41                             117    0.09 6  237 236 
 NOR  SN ES   1   1831 37.55                             117   -0.61 6  237 236 
 CHI  HZ EP   1   1831 11.82                             116   -0.14 6  247 196 
 CHI  HZ I        1831 48.32         3.9 0.64                           247 196 
                                                                                
