 2012  5 3 1439 12.2 L   6.719 -73.165147.9  RSN  6 0.4 1.9LRSN                1
 GAP=137        0.91       7.1     5.9  9.2  0.1196E+02 -0.5412E+01 -0.1705E+02E
 Epicentro: VILLANUEVA - SANTANDER                                             3
 ACTION:UP  12-07-05 12:01 OP:pat  STATUS:               ID:20120503143912 L   I
 2012-05-03-1436-37M.COL___167                                                 6
 STAT SP IPHASW D HRMM SECON CODA AMPLIT PERI AZIMU VELO SNR AR TRES W  DIS CAZ7
 BAR2 SZ EP   1   1439 31.88                             174    -0.1 7   14 188 
 BAR2 SZ ES   1   1439 46.83                             174    -0.5 7   14 188 
 BAR2 SZ I        1439 49.43        18.9 0.44                            14 188 
 BRR  HZ EP   1   1439 34.09                             152     0.3 7   74 305 
 BRR  HZ I        1439 48.66        16.6 0.42                            74 305 
 BRR  HE ES   1   1439 51.00                             152     0.5 7   74 305 
 PAM  SZ EP       1439 34.93                             149    -0.210   86  37 
 RUS  HZ EP   1   1439 35.82                             147     0.3 7   92 174 
 RUS  HN ES   1   1439 54.19                             147     0.4 7   92 174 
 RUS  HZ I        1439 56.10         6.6 0.35                            92 174 
 PTB  HZ EP   1   1439 38.72                             133    -0.3 7  144 262 
 PTB  HN ES   1   1439 59.33                             133    -0.6 7  144 262 
 ZAR  HN ES   1   1440 10.87                             123     0.4 6  206 295 
 ZAR  HZ I        1440 16.15        10.6 0.36                           206 295 
                                                                                
