 2012  1 3 1140 35.6 L   6.749 -73.178139.7  RSN  5 0.3 1.8LRSN                1
 GAP=135        0.60       5.0     4.6  6.0 -0.3371E+01  0.6715E+01 -0.7818E+01E
 Epicentro: VILLANUEVA - SANTANDER                                             3
 ACTION:UP  12-02-03 08:13 OP:REBC STATUS:               ID:20120103114035 L   I
 2012-01-03-1140-00M.COL___184                                                 6
 STAT SP IPHASW D HRMM SECON CODA AMPLIT PERI AZIMU VELO SNR AR TRES W  DIS CAZ7
 BAR2 SZ EP       1140 54.37                             173     0.010   17 182 
 BAR2 SZ ES       1141  9.24                             173     0.210   17 182 
 BAR2 SZ I        1141 10.56        10.8 0.27                            17 182 
 BRR  HZ EP   1   1140 56.51                             151     0.4 7   71 304 
 BRR  HZ I        1141 12.69        17.0 0.18                            71 304 
 PAM  SZ EP   1   1140 57.38                             148    -0.2 7   84  39 
 PAM  SE ES   2   1141 14.30                             148    -0.4 5   84  39 
 RUS  HZ EP   1   1140 58.54                             144     0.2 7   95 174 
 RUS  HN ES   1   1141 15.81                             144    -0.3 7   95 174 
 PTB  HZ EP   1   1141  1.46                             132    -0.2 7  143 261 
 PTB  HN ES   1   1141 21.78                             132    -0.2 7  143 261 
                                                                                
