 2017 11 3 1747 43.4 L   6.818 -73.141145.3  RSN 10 0.7 1.8LRSN                1
 GAP=112        1.32       4.6     4.7  7.5  0.4446E+01  0.8320E+01  0.9065E+01E
 Epicentro: LOS SANTOS - SANTANDER                                             3
 ACTION:UPD 17-12-12 19:51 OP:rebc STATUS:               ID:20171103174743 L   I
 OLDACT:UP  17-11-04 01:15 OP:mg   STATUS:               ID:20171103173739     3
 OLDACT:REG 17-11-03 20:56 OP:mg   STATUS:               ID:20171103173739     3
 2017-11-03-1738-00M.COL___438                                                 6
 STAT SP IPHASW D HRMM SECON CODA AMPLIT PERI AZIMU VELO AIN AR TRES W  DIS CAZ7
 BAR2 EZ EP     C 1748  2.91                             170   -0.1510 25.4 190 
 BAR2 EZ ES       1748 17.96                             170   -0.4010 25.4 190 
 BAR2 EZ I        1748 19.08        14.0 0.21            169           25.4 190 
 BRR  HZ EP       1748  4.67                             153    0.1610 70.7 297 
 BRR  HN ES       1748 21.88                             153    0.9310 70.7 297 
 BRR  HZ I        1748 25.92        11.9 0.30            153           70.7 297 
 PAM  EZ EP     C 1748  5.65                             151    0.1510 75.5  40 
 PAM  EN ES       1748 22.62                             151   -0.0810 75.5  40 
 PAM  EZ I        1748 24.76        16.2 0.50            154           75.5  40 
 RUS  HZ EP       1748  6.82                             143   -0.4710  103 176 
 RUS  HN ES       1748 26.06                             143    0.1710  103 176 
 RUS  HZ I        1748 27.37        15.7 0.30            144            103 176 
 PTB  HZ EP       1748  9.58                             132   -0.88 9  149 258 
 PTB  HN ES       1748 30.54                             132   -0.98 9  149 258 
 PTB  HZ I        1748 32.31         5.8 0.12            132            149 258 
 YPLC HZ EP       1748 13.34                             126   -0.02 9  178 152 
 YPLC HN ES       1748 37.10                             126    0.42 9  178 152 
 YPLC HZ I        1748 40.29         6.4 0.37            128            178 152 
 ZAR  HZ EP       1748 17.00                             122    1.17 9  204 292 
 ZAR  HN ES       1748 40.76                             122   -0.33 9  204 292 
 ZAR  HZ I        1748 46.81         5.3 0.10            123            204 292 
 NOR  HZ EP       1748 19.35                             118    0.03 8  236 234 
 NOR  HN ES       1748 47.45                             118    0.15 8  236 234 
 NOR  HZ I        1748 50.91         4.5 0.29            119            236 234 
 CHI  HZ EP       1748 21.32                             117   -0.02 8  251 195 
 CHI  HN ES       1748 50.93                             117    0.02 8  251 195 
 CHI  HZ I        1748 54.39         3.0 0.50            118            251 195 
 GUY2CHZ EP   2   1748 28.28                             112    1.07 4  303 235 
 GUY2CHN ES   3   1749  5.06                             112    3.71 2  303 235 
 GUY2CHZ I        1749 10.07         3.0 0.49                           303 235 
                                                                                
