 2017  9 3 1120 36.5 L   6.479 -73.679106.0  RSN  6 0.2 1.1LRSN                1
 GAP= 80        0.48       1.8     2.0  4.5  0.4109E+00  0.4425E+01  0.2227E+01E
 Epicentro: SANTA HELENA DEL OPON - SANTANDER                                  3
 ACTION:UPD 17-10-05 19:08 OP:rebc STATUS:               ID:20170903112036 L   I
 OLDACT:UP  17-09-03 22:13 OP:dhb  STATUS:               ID:20170903111742d    3
 OLDACT:DUP 17-09-03 22:07 OP:dhb  STATUS:               ID:20170903111742d    3
 2017-09-03-1118-00M.COL___396                                                 6
 STAT SP IPHASW D HRMM SECON CODA AMPLIT PERI AZIMU VELO AIN AR TRES W  DIS CAZ7
 BAR2 EZ IP     D 1120 52.90                             150    0.0410 56.3  77 
 BAR2 EZ ES       1121  5.50                             150   -0.1310 56.3  77 
 BAR2 EZ I        1121  6.52         8.9 0.08            157           56.3  77 
 BRR  HN ES       1121  6.60                             144    0.0210 69.5 357 
 BRR  HZ I        1121  8.07         3.9 0.13            149           69.5 357 
 RUS  HZ EP       1120 55.63                             136   -0.2610 92.5 134 
 RUS  HN ES       1121 11.29                             136    0.2710 92.5 134 
 RUS  HZ I        1121 13.51         1.4 0.10            141           92.5 134 
 SPBC HZ EP       1120 56.34                             133    0.2410  101 205 
 SPBC HN ES       1121 11.22                             133   -0.1810  101 205 
 SPBC HZ I        1121 15.60         3.2 0.09            135            101 205 
 NOR  HZ EP       1121  2.46                             118   -0.10 9  166 233 
 NOR  HN ES       1121 22.95                             118    0.05 9  166 233 
 NOR  HZ I        1121 26.22         2.0 0.23            121            166 233 
 ZAR  HN ES       1121 23.95                             117    0.06 9  172 311 
 ZAR  HZ I        1121 27.06         1.6 0.08            120            172 311 
                                                                                
