 2014  1 3 1443 22.9 L   6.770 -73.135138.5  RSN  4 0.2 1.5LRSN                1
 GAP=201        0.44       4.9     4.4 11.0  0.1251E+02 -0.2079E+02 -0.4369E+02E
 Epicentro: LOS SANTOS - SANTANDER                                             3
 ACTION:UPD 14-03-13 09:51 OP:ep   STATUS:               ID:20140103144322 L   I
 OLDACT:UP  14-01-03 19:14 OP:mher STATUS:               ID:20140103144001d    3
 OLDACT:DUP 14-01-03 19:14 OP:mher STATUS:               ID:20140103144001d    3
 2014-01-03-1440-00M.COL___285                                                 6
 STAT SP IPHASW D HRMM SECON CODA AMPLIT PERI AZIMU VELO AIN AR TRES W  DIS CAZ7
 RUS  HZ EP   1   1443 45.97                             143    0.27 8 97.2 177 
 RUS  HN ES   1   1444  3.34                             143   -0.13 8 97.2 177 
 RUS  HZ I        1444  5.45         2.2 0.16            154           97.2 177 
 PTB  HZ EP   2   1443 49.08                             130   -0.26 5  148 260 
 PTB  HN ES       1444  9.94                             130   -0.0210  148 260 
 PTB  HZ I        1444 12.81         3.6 0.07            139            148 260 
 SML  HZ EP   2   1443 58.98                             115   -0.54 4  247 335 
 SML  HN ES   2   1444 28.09                             115    0.01 4  247 335 
 SML  HZ I        1444 33.32         5.9 0.06            121            247 335 
 SJC  HN ES       1445  2.36                             104    0.25 6  413 327 
                                                                                
