 2015  2 3 1905 31.6 L   6.841 -73.194142.9  RSN  4 0.2 1.5LRSN                1
 GAP=133        0.51       3.6     3.2  6.0 -0.4689E+01  0.7730E+01 -0.3986E+01E
 Epicentro: ZAPATOCA - SANTANDER                                               3
 ACTION:UPD 15-04-30 21:21 OP:nd   STATUS:               ID:20150203190531 L   I
 OLDACT:REG 15-02-03 19:49 OP:cam  STATUS:               ID:20150203185815     3
 2015-02-03-1858-15M.COL___262                                                 6
 STAT SP IPHASW D HRMM SECON CODA AMPLIT PERI AZIMU VELO AIN AR TRES W  DIS CAZ7
 BAR2 EZ EP   2   19 5 50.86                             169   -0.14 5 27.5 177 
 PAM  SZ EP     D 19 5 53.76                             150    0.2210 77.6  45 
 PAM  SN ES       19 6 10.54                             150   -0.1110 77.6  45 
 PAM  SZ I        19 6 12.94         4.0 0.36            150           77.6  45 
 PTB  HZ EP       19 5 57.66                             132   -0.30 9  143 257 
 PTB  HN ES       19 6 18.70                             132    0.19 9  143 257 
 PTB  HZ I        19 6 24.30         3.0 0.26            132            143 257 
 SML  HZ EP   1   19 6  7.64                             117    0.24 6  237 336 
 SML  HE ES       19 6 35.21                             117   -0.10 8  237 336 
 SML  HE I        19 6 46.57         6.4 0.26            118            237 336 
                                                                                
