 2012  2 3 1544 10.8 L   6.127 -73.748109.9  RSN  6 0.3 1.8LRSN                1
 GAP=134        0.67       3.7     2.9  6.8 -0.4280E+00  0.7483E+01 -0.9384E+00E
 ACTION:UP  12-03-07 16:27 OP:epov STATUS:               ID:20120203154410 L   I
 2012-02-03-1540-00M.COL___187                                                 6
 STAT SP IPHASW D HRMM SECON CODA AMPLIT PERI AZIMU VELO SNR AR TRES W  DIS CAZ7
 RUS  HZ EP   1   1544 29.61                             142    0.25 7 78.1 109 
 RUS  HZ I        1544 30.15         8.8 0.12                          78.1 109 
 RUS  HE ES   1   1544 43.68                             142   -0.19 7 78.1 109 
 BAR2 SZ EP       1544 29.66                             141    0.4310 81.0  51 
 BAR2 SZ ES       1544 43.39                             141   -0.2510 81.0  51 
 BAR2 SZ I        1544 44.93        24.9 0.25                          81.0  51 
 PTB  HZ EP   1   1544 29.16                             137   -0.52 7 90.6 300 
 PTB  HE ES   1   1544 44.48                             137    0.03 7 90.6 300 
 BRR  HZ EP       1544 31.30                             131    0.0910  108   2 
 BRR  HN ES   2   1544 47.29                             131    0.12 5  108   2 
 BRR  HZ I        1544 51.55        14.1 0.49                           108   2 
 NOR  SZ EP   1   1544 33.75                             124   -0.46 7  139 243 
 NOR  SE ES   1   1544 52.90                             124    0.39 7  139 243 
 ZAR  HZ EP   1   1544 39.88                             114   -0.20 6  195 321 
 ZAR  HE ES   1   1545  3.10                             114    0.14 6  195 321 
 ZAR  HZ I        1545  5.80         5.3 0.35                           195 321 
                                                                                
