 2017 11 3 1039 22.9 L   6.772 -73.162143.6  RSN  6 0.3 1.3LRSN                1
 GAP=136        0.51       2.8     2.8  5.1  0.5726E+00  0.3649E+01 -0.1455E+01E
 Epicentro: LOS SANTOS - SANTANDER                                             3
 ACTION:UPD 17-12-12 19:51 OP:rebc STATUS:               ID:20171103103922 L   I
 OLDACT:UP  17-11-03 21:47 OP:mg   STATUS:               ID:20171103103741     3
 OLDACT:REG 17-11-03 20:03 OP:mg   STATUS:               ID:20171103103741     3
 2017-11-03-1038-00M.COL___420                                                 6
 STAT SP IPHASW D HRMM SECON CODA AMPLIT PERI AZIMU VELO AIN AR TRES W  DIS CAZ7
 BAR2 EZ EP       1039 42.13                             172   -0.0710 20.0 186 
 BAR2 EZ ES   2   1039 56.80                             172   -0.46 5 20.0 186 
 BAR2 EZ I        1039 57.99         6.6 0.32            171           20.0 186 
 BRR  HZ EP       1039 43.91                             152    0.1010 71.2 301 
 BRR  HN ES   1   1040  0.25                             152    0.13 7 71.2 301 
 BRR  HZ I        1040  4.64         8.4 0.32            150           71.2 301 
 PAM  EZ EP       1039 44.91                             150   -0.1910 80.9  39 
 PAM  EN ES       1040  2.40                             150   -0.0210 80.9  39 
 PAM  EZ I        1040  5.11         4.8 0.49            154           80.9  39 
 RUS  HZ EP   2   1039 46.41                             144    0.19 5 97.6 175 
 RUS  HN ES       1040  4.58                             144    0.1710 97.6 175 
 RUS  HZ I        1040  6.32         1.8 0.29            149           97.6 175 
 PTB  HZ EP   2   1039 49.08                             132   -0.39 5  145 260 
 PTB  HN ES   2   1040  9.59                             132   -0.61 5  145 260 
 PTB  HZ I        1040 14.99         1.1 0.10            133            145 260 
 ZAR  HN ES       1040 20.61                             122    0.31 9  204 293 
 ZAR  HZ I        1040 25.76         2.2 0.21            123            204 293 
                                                                                
