 2011 12 3 1625 26.7 L   6.768 -73.118143.8  RSN 11 0.3 2.2LRSN                1
 GAP=142        0.56       2.1     3.4  3.4 -0.1929E+01  0.2573E+01  0.8152E+00E
 Epicentro: LOS SANTOS - SANTANDER                                             3
 ACTION:UPD 12-07-13 16:14 OP:ep   STATUS:               ID:20111203162526 L   I
 2011-12-03-1620-00M.COL___182                                                 6
 STAT SP IPHASW D HRMM SECON CODA AMPLIT PERI AZIMU VELO AIN AR TRES W  DIS CAZ7
 BAR2 SZ IP       1625 45.90                             171   -0.1110 20.7 200 
 BAR2 SZ ES       1626  0.94                             171   -0.1510 20.7 200 
 BAR2 SZ I        1626  2.06        45.8 0.26                          20.7 200 
 GIR2 SZ EP       1625 45.95                             165   -0.2710 35.3 346 
 BRR  HZ IP     C 1625 47.70                             151   -0.1610 75.6 300 
 BRR  HN ES       1626  4.39                             151    0.0010 75.6 300 
 PAM  SZ EP       1625 48.75                             150    0.0210 78.2  36 
 PAM  SN ES       1626  5.91                             150   -0.0210 78.2  36 
 RUS  HZ EP       1625 49.88                             144   -0.0810 96.9 178 
 RUS  HN ES       1626  8.36                             144    0.2310 96.9 178 
 RUS  HZ I        1626  9.72        16.5 0.25                          96.9 178 
 OCA  SZ EP       1625 55.14                             128   -0.05 9  164 352 
 OCA  SZ ES   1   1626 18.14                             128    0.70 7  164 352 
 OCA  SZ I        1626 22.20        15.6 0.25                           164 352 
 CTAU SZ EP       1625 59.82                             123    0.46 9  201 211 
 NOR  SZ EP   1   1626  2.26                             118   -0.08 6  235 236 
 NOR  SE ES   1   1626 29.89                             118   -0.28 6  235 236 
 CHI  HZ EP   1   1626  4.09                             117    0.11 6  246 196 
 CHI  HN ES   2   1626 33.25                             117    0.16 4  246 196 
 CHI  HZ I        1626 35.86         9.9 0.37                           246 196 
 RREF HZ EP   2   1626 13.14                             110    0.40 3  322 230 
 RREF HN ES   1   1626 48.81                             110    0.14 5  322 230 
 RREF HZ I        1626 58.06         7.7 0.71                           322 230 
 PRA  HZ EP   2   1626 18.86                             106   -1.09 3  391 210 
                                                                                
