 2013  3 3 1014 29.0 L   6.790 -73.167146.2  RSN  9 0.5 1.8LRSN                1
 GAP=134        0.95       3.8     5.4  7.0  0.2453E+01  0.8849E+01  0.3321E+01E
 Epicentro: LOS SANTOS - SANTANDER                                             3
 ACTION:UPD 13-04-09 13:59 OP:ep   STATUS:               ID:20130303101429 L   I
 2013-03-03-1010-00M.COL___228                                                 6
 STAT SP IPHASW D HRMM SECON CODA AMPLIT PERI AZIMU VELO AIN AR TRES W  DIS CAZ7
 BAR2 SZ EP       1014 48.51                             171   -0.1210 21.9 184 
 BAR2 SZ ES   1   1015  3.63                             171   -0.33 7 21.9 184 
 BAR2 SZ I        1015  6.29        26.7 0.20            164           21.9 184 
 BRR  HZ EP   1   1014 50.35                             153    0.26 7 69.7 300 
 BRR  HN ES   1   1015  7.22                             153    0.67 7 69.7 300 
 BRR  HZ I        1015 10.68         9.7 0.26            142           69.7 300 
 PAM  SZ EP   1   1014 51.51                             150    0.13 7 79.8  40 
 PAM  SN ES   1   1015  8.74                             150   -0.11 7 79.8  40 
 PAM  SZ I        1015 11.10         5.9 0.56            149           79.8  40 
 RUS  HZ EP   1   1014 52.13                             144   -0.57 7 99.7 175 
 RUS  HN ES   1   1015 11.37                             144    0.16 7 99.7 175 
 RUS  HZ I        1015 12.47         7.0 0.26            137           99.7 175 
 PTB  HZ EP       1014 55.31                             133   -0.44 9  145 259 
 PTB  HN ES   1   1015 15.76                             133   -0.87 7  145 259 
 PTB  HZ I        1015 21.47         7.7 0.24            122            145 259 
 ZAR  HN ES   1   1015 26.69                             123    0.24 6  202 293 
 ZAR  HZ I        1015 32.62         6.1 0.43            114            202 293 
 SML  HZ EP   1   1015  4.99                             118   -0.64 6  244 336 
 SML  HN ES   1   1015 35.08                             118    0.86 6  244 336 
 SML  HZ I        1015 36.09         9.0 0.24            111            244 336 
 CHI  HZ EP       1015  6.77                             117    0.25 8  247 195 
 CHI  HN ES       1015 36.52                             117    0.72 8  247 195 
 CHI  HZ I        1015 41.67         2.6 0.34            111            247 195 
 ROSC BN ES   4   1015 37.24                             117    0.79 0  251 211 
 HEL  HZ EP   2   1015  9.13                             115    0.20 4  269 256 
 HEL  HZ I        1015 48.92         4.1 0.28            108            269 256 
                                                                                
