 2013  5 3 1604  3.2 L   6.553 -73.536113.1  RSN 16 0.5 2.7LRSN                1
 GAP= 60        0.91       2.9     2.7  6.4  0.8302E+00  0.5045E+01  0.8588E+00E
 Epicentro: EL CARMEN DE CHUCURI - SANTANDER                                   3
 ACTION:UPD 13-06-20 09:47 OP:ep   STATUS:               ID:20130503160403 L   I
 2013-05-03-1600-00M.COL___253                                                 6
 STAT SP IPHASW D HRMM SECON CODA AMPLIT PERI AZIMU VELO AIN AR TRES W  DIS CAZ7
 BAR2 SZ EP     C 16 4 19.75                             160    0.3010 39.3  84 
 BAR2 SZ IP     C 16 4 19.75                             160           39.3  84 
 BAR2 SZ ES   1   16 4 32.06                             160   -0.07 7 39.3  84 
 BAR2 SZ I        16 4 33.15       424.1 0.48            160           39.3  84 
 BRR  HZ EP       16 4 20.57                             148    0.1210 64.3 342 
 BRR  HN ES   1   16 4 34.48                             148    0.56 7 64.3 342 
 BRR  HN I        16 4 40.14       198.1 0.16            145           64.3 342 
 GIR2 SZ EP   1   16 4 21.40                             146    0.41 7 69.4  33 
 RUS  HZ EP     D 16 4 22.67                             140   -0.2210 88.5 146 
 RUS  HN ES   1   16 4 38.13                             140   -0.13 7 88.5 146 
 RUS  HN I        16 4 39.57        26.2 0.12            142           88.5 146 
 PTB  HZ IP     C 16 4 22.54                             135   -0.8010  102 269 
 PTB  HN ES   4   16 4 37.58                             135   -1.48 0  102 269 
 PTB  HN I        16 4 38.33       131.7 0.16            134            102 269 
 PAM  SZ EP   1   16 4 26.46                             128    0.19 7  127  47 
 PAM  SN ES   2   16 4 44.01                             128   -0.27 5  127  47 
 PAM  SN I        16 4 44.75        58.6 0.22            128            127  47 
 ZAR  HZ EP   1   16 4 31.76                             118    0.74 7  179 306 
 ZAR  HN ES       16 4 53.03                             118    0.31 9  179 306 
 ZAR  HN I        16 4 57.69       117.8 0.20            117            179 306 
 YOP  SZ EP   1   16 4 31.74                             118    0.40 7  181 137 
 YOP  SN ES   2   16 4 53.48                             118    0.17 4  181 137 
 YOP  SN I        16 5  1.11        52.4 0.40            118            181 137 
 NOR  HZ EP   1   16 4 31.23                             117   -0.32 7  184 234 
 NOR  HE ES   1   16 4 53.67                             117   -0.01 7  184 234 
 NOR  HN I        16 4 56.56        97.1 0.16            117            184 234 
 OCA  HZ EP   4   16 4 33.90                             116    1.75 0  188   7 
 OCA  HN ES   4   16 4 54.23                             116   -0.51 0  188   7 
 OCA  HZ I        16 5  0.25        35.2 0.26            115            188   7 
 TAM  HN ES       16 4 55.24                             116   -0.30 9  193  94 
 TAM  HN I        16 4 56.18        38.0 0.36            116            193  94 
 HEL  HZ EP   1   16 4 36.89                             112    0.44 6  224 260 
 HEL  HN ES       16 5  2.20                             112   -0.19 8  224 260 
 HEL  HN I        16 5  6.58        24.4 0.56            112            224 260 
 SML  HZ EP   1   16 4 39.95                             109    0.37 6  256 347 
 SML  HN ES       16 5  6.95                             109   -1.01 8  256 347 
 SML  HN I        16 5 13.95       107.2 0.10            108            256 347 
 URE  HZ EP   4   16 4 39.61                             108   -0.20 0  257 301 
 URE  HN ES   4   16 5  6.11                             108   -2.26 0  257 301 
 URE  HN I        16 5 17.09        41.7 0.22            108            257 301 
 PRA  HZ EP   1   16 4 50.41                             102   -0.07 5  348 206 
 PRA  HN ES   1   16 5 27.59                             102    0.21 5  348 206 
 COD  HZ EP   1   16 4 54.67                             101    1.09 5  374   2 
 COD  HN ES   2   16 5 31.87                             101   -1.02 3  374   2 
 COD  HN I        16 5 40.06         8.7 0.46            101            374   2 
                                                                                
