 2016  4 3 1501 43.8 L   6.824 -73.203148.4  RSN  6 0.3 1.7LRSN                1
 GAP=147        0.82       4.4     4.8  6.0 -0.6958E+01  0.7710E+01  0.5018E+01E
 Epicentro: ZAPATOCA - SANTANDER                                               3
 ACTION:UPD 16-05-05 14:18 OP:rebc STATUS:               ID:20160403150143 L   I
 OLDACT:UP  16-04-04 01:09 OP:mh   STATUS:               ID:20160403145743     3
 OLDACT:UP  16-04-04 01:09 OP:mh   STATUS:               ID:20160403145743     3
 OLDACT:REG 16-04-03 23:00 OP:mh   STATUS:               ID:20160403145743     3
 2016-04-03-1457-43M.COL___316                                                 6
 STAT SP IPHASW D HRMM SECON CODA AMPLIT PERI AZIMU VELO AIN AR TRES W  DIS CAZ7
 BAR2 EZ EP       15 2  3.95                             170    0.1410 25.7 175 
 BAR2 EZ ES       15 2 19.14                             170   -0.2710 25.7 175 
 BAR2 EZ I        15 2 20.06        10.6 0.22            169           25.7 175 
 PAM  EZ EP       15 2  7.00                             150    0.5510 79.7  44 
 PAM  EN ES       15 2 23.79                             150   -0.3110 79.7  44 
 PAM  EZ I        15 2 25.64        13.1 0.48            153           79.7  44 
 RUS  HZ EP   1   15 2  7.96                             143   -0.10 7  104 173 
 RUS  HN ES   1   15 2 27.16                             143    0.19 7  104 173 
 RUS  HZ I        15 2 27.52         6.9 0.30            144            104 173 
 PTB  HZ EP       15 2 10.70                             134    0.20 9  142 257 
 PTB  HN ES       15 2 31.38                             134    0.07 9  142 257 
 PTB  HZ I        15 2 34.46         4.2 0.14            134            142 257 
 CHI  HZ EP       15 2 21.17                             117   -0.60 8  250 194 
 CHI  HN ES       15 2 51.74                             117    0.37 8  250 194 
 CHI  HZ I        15 2 55.29         3.4 0.56            118            250 194 
 GUY2CHZ EP       15 2 26.64                             113   -0.51 7  298 234 
 GUY2CHN ES   4   15 3  6.10                             113    5.16 0  298 234 
 GUY2CHZ I        15 3  9.85         2.7 0.32                           298 234 
                                                                                
