 2013  5 3 1002 30.2 L   6.728 -73.157116.0  RSN  5 0.3 1.8LRSN                1
 GAP=138        0.67       3.6     4.0 10.6 -0.5381E+01  0.2087E+02 -0.5321E+01E
 Epicentro: VILLANUEVA - SANTANDER                                             3
 ACTION:UPD 13-06-20 09:47 OP:ep   STATUS:               ID:20130503100230 L   I
 2013-05-03-1000-00M.COL___253                                                 6
 STAT SP IPHASW D HRMM SECON CODA AMPLIT PERI AZIMU VELO AIN AR TRES W  DIS CAZ7
 BRR  HZ EP   1   10 2 48.36                             145   -0.04 7 74.3 304 
 BRR  HN ES   2   10 3  2.32                             145   -0.30 5 74.3 304 
 BRR  HN I        10 3  9.69        12.0 0.48            144           74.3 304 
 PAM  SZ EP   1   10 2 49.40                             142   -0.43 7 84.4  37 
 PAM  SN ES       10 3  5.46                             142    0.3010 84.4  37 
 PAM  SN I        10 3  7.10        17.2 0.48            148           84.4  37 
 RUS  HN ES       10 3  6.23                             139   -0.1010 92.8 175 
 PTB  HZ EP   4   10 2 57.75                             125    3.12 0  145 262 
 PTB  HN ES       10 3 13.57                             125   -0.14 9  145 262 
 PTB  HN I        10 3 16.51        11.7 0.20            127            145 262 
 NOR  HN ES   1   10 3 30.57                             112    0.67 6  229 236 
 NOR  HN I        10 3 36.85         5.1 0.16            116            229 236 
                                                                                
