 2011  9 3 1356  6.4 L   6.773 -73.121145.3  RSN  6 0.3 1.9LRSN                1
 GAP=185        0.63       3.3     6.1  5.7 -0.8122E+00  0.2514E+01 -0.1099E+01E
 Epicentro: LOS SANTOS - SANTANDER                                             3
 ACTION:UPD 12-07-13 15:55 OP:ep   STATUS:               ID:20110903135606 L   I
 2011-09-03-1354-34S.COL___170                                                 6
 STAT SP IPHASW D HRMM SECON CODA AMPLIT PERI AZIMU VELO AIN AR TRES W  DIS CAZ7
 BAR2 SZ EP   1   1356 25.40                             171   -0.49 7 21.1 199 
 BAR2 SZ ES   1   1356 40.83                             171   -0.30 7 21.1 199 
 BAR2 SZ I        1356 41.54        14.2 0.16                          21.1 199 
 GIR2 SZ EP   1   1356 26.15                             166    0.08 7 34.7 347 
 GIR2 SZ ES   1   1356 41.44                             166   -0.01 7 34.7 347 
 BRR  HZ EP   1   1356 27.98                             151    0.31 7 75.0 300 
 BRR  HE ES   1   1356 44.77                             151    0.46 7 75.0 300 
 BRR  HZ I        1356 49.50        23.3 0.13                          75.0 300 
 RUS  HZ EP   1   1356 30.15                             145    0.31 7 97.5 178 
 RUS  HE ES   1   1356 48.27                             145    0.11 7 97.5 178 
 RUS  HZ I        1356 49.18         5.2 0.35                          97.5 178 
 OCA  SZ EP   1   1356 35.05                             129    0.11 7  164 352 
 OCA  SZ ES   1   1356 56.86                             129   -0.38 7  164 352 
 OCA  SZ I        1357  1.61        16.1 0.46                           164 352 
 NOR  SN ES   1   1357  9.61                             118   -0.40 6  235 235 
                                                                                
