 2010  7 3 1129 36.8 L   6.773 -73.138140.2  RSN  7 0.3 1.8LRSN                1
 GAP=157        0.46       2.9     5.0  5.3 -0.3695E+01  0.3324E+00  0.1373E+01E
 Epicentro: LOS SANTOS - SANTANDER                                             3
 ACTION:UPD 10-12-01 15:14 OP:pat  STATUS:               ID:20100703112936 L   I
 2010-07-03-1126-01S.COL___118                                                 6
 STAT SP IPHASW D HRMM SECON CODA AMPLIT PERI AZIMU VELO AIN AR TRES W  DIS CAZ7
 BAR2 SZ EP       1129 55.69                             171     0.010   21 194 
 BAR2 SZ ES   2   1130 10.05                             171    -0.4 5   21 194 
 BRR  HZ EP       1129 57.34                             151    -0.110   74 300 
 BRR  HE ES   2   1130 13.63                             151     0.0 5   74 300 
 BRR  HZ I        1130 18.53        11.6 0.27                            74 300 
 RUS  HZ EP       1129 59.85                             143     0.110   98 176 
 RUS  HN ES   2   1130 17.89                             143     0.2 5   98 176 
 RUS  HZ I        1130 20.01         4.9 0.38                            98 176 
 BRI  SZ EP       1130  0.26                             139    -0.110  111  20 
 BRI  SZ ES   2   1130 19.24                             139     0.5 5  111  20 
 BRI  SZ I        1130 23.94         9.5 0.81                           111  20 
 CHI  HZ EP   3   1130 13.07                             116    -0.8 2  246 196 
 CHI  HE ES   3   1130 42.40                             116    -0.4 2  246 196 
 CHI  HZ I        1130 46.93         4.6 0.59                           246 196 
 RREF HZ EP   3   1130 23.68                             110     1.1 2  321 230 
 RREF HN ES   2   1130 58.58                             110     0.3 3  321 230 
 RREF HZ I        1131  7.41         3.3 0.42                           321 230 
 PRA  HZ EP   2   1130 29.70                             106    -0.2 3  390 210 
 PRA  HE ES   3   1131 11.22                             106     0.0 1  390 210 
 PRA  HZ I        1131 18.22         4.7 0.35                           390 210 
                                                                                
