 2014  5 3 1824 58.7 L   6.773 -73.138140.0  RSN  9 0.5 2.1LRSN                1
 GAP=139        1.02       4.2     5.0  6.9 -0.4625E+01  0.7598E+01  0.8575E+01E
 Epicentro: LOS SANTOS - SANTANDER                                             3
 OLDACT:REG 14-05-03 19:35 OP:mh   STATUS:               ID:20140503182000     3
 ACTION:UPD 15-03-16 16:54 OP:nd   STATUS:               ID:20140503182458 L   I
 OLDACT:UP  14-05-04 00:58 OP:mh   STATUS:               ID:20140503182000     3
 OLDACT:UP  14-05-04 00:58 OP:mh   STATUS:               ID:20140503182000     3
 2014-05-03-1820-00M.COL___273                                                 6
 STAT SP IPHASW D HRMM SECON CODA AMPLIT PERI AZIMU VELO AIN AR TRES W  DIS CAZ7
 BRR  HZ IP     C 1825 19.15                             151   -0.2310 73.5 300 
 BRR  HN ES       1825 36.08                             151    0.5810 73.5 300 
 BRR  HZ I        1825 39.70        43.4 0.12            151           73.5 300 
 PAM  SZ EP       1825 20.13                             149   -0.3110 79.2  38 
 PAM  SN ES       1825 37.29                             149   -0.0810 79.2  38 
 PAM  HZ I        1825 39.11        24.5 0.52            155           79.2  38 
 RUS  HZ EP       1825 21.47                             144   -0.2110 97.5 176 
 RUS  HN ES       1825 39.81                             144    0.2210 97.5 176 
 PTB  HZ EP   1   1825 24.78                             131   -0.47 7  148 260 
 PTB  HN ES   1   1825 45.60                             131   -0.35 7  148 260 
 PTB  HZ I        1825 46.61        11.4 0.14            131            148 260 
 SPBC HZ EP       1825 26.63                             128    0.02 9  161 220 
 SPBC HN ES   1   1825 48.75                             128    0.38 7  161 220 
 SPBC HZ I        1825 50.52        11.4 0.20            129            161 220 
 NOR  HZ EP   1   1825 33.75                             117   -0.26 6  234 235 
 NOR  HN ES       1826  0.59                             117   -0.95 8  234 235 
 NOR  HZ I        1826 10.53         8.3 0.22            118            234 235 
 CHI  HZ EP       1825 36.38                             116    0.57 8  246 196 
 CHI  HN ES       1826  4.51                             116   -0.23 8  246 196 
 CHI  HZ I        1826 12.84         8.9 0.38            118            246 196 
 HEL  HZ EP       1825 39.15                             114    0.49 8  272 256 
 HEL  HN ES   4   1826  9.79                             114   -0.02 0  272 256 
 HEL  HZ I        1826 15.87         8.0 0.50            115            272 256 
 GUY2CHZ EP       1825 42.87                             111    0.92 7  300 235 
 GUY2CHN ES   4   1826 16.59                             111    0.91 0  300 235 
 GUY2CHZ I        1826 21.58         6.1 0.94                           300 235 
                                                                                
