 2016  2 3 1401 21.7 L   6.373 -73.647105.9  RSN 10 0.2 1.8LRSN                1
 GAP= 92        0.63       2.0     2.0  4.3 -0.7810E+00  0.2302E+01  0.2589E+00E
 Epicentro: SANTA HELENA DEL OPON - SANTANDER                                  3
 ACTION:UPD 16-03-04 21:23 OP:rebc STATUS:               ID:20160203140121 L   I
 OLDACT:REG 16-02-03 21:34 OP:cara STATUS:               ID:20160203135748     3
 2016-02-03-1357-48M.COL___304                                                 6
 STAT SP IPHASW D HRMM SECON CODA AMPLIT PERI AZIMU VELO AIN AR TRES W  DIS CAZ7
 BAR2 EZ IP     D 14 1 38.17                             149    0.0810 56.8  65 
 BAR2 EZ ES       14 1 51.17                             149    0.3010 56.8  65 
 BAR2 EZ I        14 1 52.01        56.3 0.12            136           56.8  65 
 RUS  HZ EP       14 1 39.94                             139   -0.2910 82.0 130 
 RUS  HZ I        14 2 18.83         5.9 0.38            125           82.0 130 
 PTB  HZ IP   9 C 14 1 39.18                             136   -1.15 0 91.3 282 
 PTB  HN ES       14 1 53.23                                   -0.4810 91.3 282 
 PTB  HZ I        14 1 55.94        22.5 0.10            134           91.3 282 
 SPBC HZ EP       14 1 40.28                             135   -0.2610 92.6 211 
 SPBC HE ES       14 1 55.21                             135   -0.0310 92.6 211 
 SPBC HZ I        14 1 57.33        33.2 0.32            128           92.6 211 
 PAM  EN ES       14 2  5.84                             121   -0.13 9  150  44 
 PAM  EZ I        14 2 10.45         5.6 0.16            112            150  44 
 NOR  HZ EP       14 1 47.25                             118   -0.09 9  162 237 
 NOR  HN ES       14 2  7.18                             118   -0.16 9  162 237 
 NOR  HZ I        14 2  9.86        10.9 0.14            113            162 237 
 ZAR  HZ EP       14 1 49.52                             115    0.05 9  182 313 
 ZAR  HE ES       14 2 10.97                             115   -0.15 9  182 313 
 ZAR  HZ I        14 2 15.41        15.2 0.36            111            182 313 
 CHI  HZ EP       14 1 51.17                             113   -0.02 9  193 183 
 CHI  HE ES       14 2 14.54                             113    0.35 9  193 183 
 CHI  HZ I        14 2 17.93         3.6 0.22            107            193 183 
 HEL  HZ EP       14 1 53.31                             111    0.37 8  209 265 
 HEL  HN ES       14 2 17.43                             111    0.12 8  209 265 
 HEL  HZ I        14 2 21.49         6.8 0.30            108            209 265 
 GUY2CHZ EP   4   14 1 56.80                             109    1.48 0  229 236 
 GUY2CHN ES   4   14 2 24.69                             109    3.15 0  229 236 
 GUY2CHZ I        14 2 27.44         5.8 0.36                           229 236 
                                                                                
