 2013  3 3 1211 34.9 L   6.740 -73.199151.4  RSN  7 0.4 1.7LRSN                1
 GAP=195        0.76       3.9     5.9  6.2  0.9349E+01  0.3546E+01 -0.9981E+00E
 Epicentro: VILLANUEVA - SANTANDER                                             3
 ACTION:UPD 13-04-09 13:59 OP:ep   STATUS:               ID:20130303121134 L   I
 2013-03-03-1210-00M.COL___228                                                 6
 STAT SP IPHASW D HRMM SECON CODA AMPLIT PERI AZIMU VELO AIN AR TRES W  DIS CAZ7
 BAR2 SZ EP   1   1211 54.96                             173   -0.16 7 16.5 174 
 BAR2 SZ ES   1   1212 10.24                             173   -0.63 7 16.5 174 
 BAR2 SZ I        1212 11.20        19.7 0.18            169           16.5 174 
 BRR  HZ EP       1211 56.97                             154    0.3710 69.7 306 
 BRR  HN ES   1   1212 14.13                             154    0.61 7 69.7 306 
 BRR  HZ I        1212 15.60         9.6 0.40            151           69.7 306 
 RUS  HZ EP   1   1211 59.23                             147    0.41 7 94.6 172 
 RUS  HN ES   1   1212 17.54                             147    0.07 7 94.6 172 
 RUS  HZ I        1212 19.06         6.0 0.24            145           94.6 172 
 PTB  HZ EP       1212  1.74                             135    0.00 9  141 261 
 PTB  HN ES   1   1212 22.48                             135   -0.19 7  141 261 
 PTB  HZ I        1212 25.04         5.6 0.18            131            141 261 
 ZAR  HN ES   1   1212 32.89                             124    0.05 6  201 295 
 ZAR  HZ I        1212 38.92         5.0 0.32            123            201 295 
 CHI  HZ EP   1   1212 12.25                             119    0.15 6  241 194 
 CHI  HN ES   1   1212 40.59                             119   -0.50 6  241 194 
 CHI  HZ I        1212 46.19         1.5 0.46            118            241 194 
 SML  HZ EP   1   1212 11.89                             118   -0.37 6  247 337 
 SML  HN ES   1   1212 40.80                             118   -0.59 6  247 337 
                                                                                
