 2010  1 3 1212 40.7 L   6.758 -72.907151.5  RSN  6 0.3 2.0LRSN                1
 GAP=243        0.50       5.9     9.7  6.4 -0.1591E+02  0.1643E+02  0.1672E+02E
 Epicentro: CEPITA - SANTANDER                                                 3
 ACTION:UP  10-08-24 09:42 OP:vdl  STATUS:               ID:20100103121240 L   I
 2010-01-03-1208-03S.COL___096                                                 6
 STAT SP IPHASW D HRMM SECON CODA AMPLIT PERI AZIMU VELO SNR AR TRES W  DIS CAZ7
 BAR2 SZ EP   1   1213  1.33                             166     0.0 7   36 239 
 BAR2 SZ ES   2   1213 17.10                             166    -0.3 5   36 239 
 GIR2 SZ EP   1   1213  1.41                             162    -0.2 7   47 318 
 GIR2 SZ ES   2   1213 18.27                             162     0.4 5   47 318 
 CHI  HZ EP   1   1213 19.35                             118     0.2 6  253 201 
 CHI  HZ I        1213 21.87         3.2 0.38                           253 201 
 CHI  HN ES   2   1213 49.35                             118     0.2 4  253 201 
 HEL  HZ EP   1   1213 24.28                             114     0.3 5  297 258 
 HEL  HZ I        1213 59.85         6.4 0.35                           297 258 
 RREF BZ EP   1   1213 28.62                             111    -0.5 5  339 233 
 RREF BN ES   2   1214  6.63                             111    -0.2 3  339 233 
 RREF BZ I        1214 12.82         5.0 0.39                           339 233 
 PRA  HZ EP   1   1213 35.59                             107     0.0 4  402 213 
 PRA  HZ I        1213 37.06         3.0 0.11                           402 213 
                                                                                
