 2015  2 3 1011  2.1 L   6.821 -73.206142.9  RSN  4 0.2 1.4LRSN                1
 GAP=240        0.62       3.2    13.6 15.1  0.4893E+01 -0.1626E+03 -0.1728E+02E
 Epicentro: ZAPATOCA - SANTANDER                                               3
 ACTION:UPD 15-04-30 21:21 OP:nd   STATUS:               ID:20150203101102 L   I
 OLDACT:DUP 15-02-03 22:14 OP:cam  STATUS:               ID:20150203100819d    3
 OLDACT:REG 15-02-03 19:25 OP:cam  STATUS:               ID:20150203100818     3
 2015-02-03-1008-18M.COL___268                                                 6
 STAT SP IPHASW D HRMM SECON CODA AMPLIT PERI AZIMU VELO AIN AR TRES W  DIS CAZ7
 PTB  HZ EP       1011 27.91                             133   -0.3710  142 257 
 PTB  HN ES       1011 48.64                             133   -0.0710  142 257 
 PTB  HN I        1011 54.32         4.3 0.34            153            142 257 
 SPBC HZ EP       1011 29.98                             129   -0.1810  161 217 
 SPBC HN ES       1011 52.33                             129    0.2710  161 217 
 SPBC HZ I        1011 58.76         2.2 0.24            147            161 217 
 ZAR  HZ EP       1011 33.96                             123    0.33 9  197 292 
 SML  HZ EP       1011 38.26                             117    0.23 9  239 336 
 SML  HN ES       1012  5.95                             117   -0.12 9  239 336 
 SML  HZ I        1012 15.12         1.9 0.34            130            239 336 
                                                                                
