 2013 10 3 1748 37.8 L   6.784 -73.187140.0  RSN  8 0.6 1.8LRSN                1
 GAP=135        1.46       6.1     6.8 10.5 -0.1618E+02 -0.7906E+01  0.9904E+01E
 Epicentro: LOS SANTOS - SANTANDER                                             3
 ACTION:UPD 13-11-25 09:19 OP:ep   STATUS:               ID:20131003174837 L   I
 OLDACT:REG 13-10-03 13:53 OP:stll STATUS:               ID:20131003173842     3
 2013-10-03-1738-42M.COL___238                                                 6
 STAT SP IPHASW D HRMM SECON CODA AMPLIT PERI AZIMU VELO AIN AR TRES W  DIS CAZ7
 BAR2 SZ EP       1748 56.06                             171   -0.6310 21.2 179 
 BAR2 SZ I        1749 15.18        24.7 0.20            171           21.2 179 
 BRR  HZ EP       1748 58.24                             153    0.1010 68.1 302 
 BRR  HN ES       1749 14.63                             153    0.6110 68.1 302 
 RUS  HZ EP       1749  0.89                             143    0.0110 99.2 173 
 RUS  HN ES       1749 19.09                             143    0.2010 99.2 173 
 RUS  HZ I        1749 22.46        10.8 0.30            144           99.2 173 
 PTB  HZ EP       1749  3.04                             132   -0.81 9  143 259 
 PTB  HN ES       1749 23.73                             132   -0.45 9  143 259 
 PTB  HZ I        1749 31.90         8.2 0.16            134            143 259 
 CAPV BZ EP       1749  6.22                             130    1.10 9  154  39 
 CAPV BZ ES       1749 25.78                             130   -0.65 9  154  39 
 SPBC HZ EP       1749  5.25                             129   -0.20 9  159 218 
 SPBC HN ES       1749 27.48                             129    0.46 9  159 218 
 SPBC HZ I        1749 29.80         9.5 0.18            130            159 218 
 CHI  HZ EP       1749 14.37                             116   -0.49 8  246 194 
 CHI  HZ I        1749 17.74         3.2 0.28            118            246 194 
 GUY2CHZ EP       1749 21.59                             112    0.99 7  296 235 
 GUY2CHZ I        1750  4.06         3.6 0.66                           296 235 
                                                                                
