 2017  1 3 1803 15.1 L   6.818 -73.329124.0  RSN  9 0.4 2.0LRSN                1
 GAP=103        1.01       4.2     3.1  6.0  0.2017E+01  0.4159E+01  0.2695E+01E
 Epicentro: ZAPATOCA - SANTANDER                                               3
 ACTION:UPD 17-05-22 15:55 OP:jn   STATUS:               ID:20170103180315 L   I
 OLDACT:UP  17-01-03 23:39 OP:dnl  STATUS:               ID:20170103175746     3
 OLDACT:REG 17-01-03 20:50 OP:dnl  STATUS:               ID:20170103175746     3
 2017-01-03-1758-00M.COL___369                                                 6
 STAT SP IPHASW D HRMM SECON CODA AMPLIT PERI AZIMU VELO AIN AR TRES W  DIS CAZ7
 BAR2 EZ IP     D 18 3 32.40                             166    0.1010 29.7 147 
 BAR2 EZ ES       18 3 45.41                             166   -0.3010 29.7 147 
 BRR  HZ EP       18 3 32.76                             155   -0.1510 53.1 307 
 BRR  HN ES       18 3 46.91                             155    0.1310 53.1 307 
 BRR  HZ I        18 3 47.78        52.6 0.12            154           53.1 307 
 PAM  EZ EP       18 3 35.89                             142   -0.1010 90.3  50 
 PAM  EN ES       18 3 51.87                             142   -0.4010 90.3  50 
 PAM  EZ I        18 3 54.33        20.5 0.28            143           90.3  50 
 RUS  HZ EP       18 3 37.36                             137    0.1410  106 165 
 RUS  HN ES       18 3 54.70                             137    0.2310  106 165 
 RUS  HZ I        18 3 56.54         9.5 0.32            139            106 165 
 PTB  HZ IP     C 18 3 37.66                             131   -0.9010  128 256 
 PTB  HE ES   3   18 3 57.67                             131    0.83 2  128 256 
 PTB  HZ I        18 3 59.60        16.6 0.22            131            128 256 
 TAM  HZ EP       18 3 43.33                             121    0.12 9  175 104 
 TAM  HE ES       18 4  5.64                             121    0.52 9  175 104 
 TAM  HZ I        18 4  7.08        10.0 0.36            123            175 104 
 ZAR  HZ EP       18 3 44.21                             120    0.05 9  185 294 
 ZAR  HN ES       18 4  7.81                             120    0.99 9  185 294 
 ZAR  HZ I        18 4 15.47        14.8 0.40            120            185 294 
 URE  HZ EP   2   18 3 52.45                             110   -0.54 4  264 293 
 URE  HE ES   4   18 4 20.32                             110   -2.21 0  264 293 
 URE  HZ I        18 4 23.55         9.5 0.14            111            264 293 
 GUY2CHZ EP   2   18 3 56.74                             109    0.68 4  286 232 
 GUY2CHE ES       18 4 27.66                             109   -0.35 7  286 232 
 GUY2CHZ  IAML    18 4 36.40         4.7 0.30                           286 232 
                                                                                
