 2017 10 3 1957 56.2 L   6.646 -74.084  3.7  RSN 10 0.5 2.0LRSN                1
 GAP=106        1.14       2.4     2.2  5.2 -0.1750E+00 -0.2212E+00  0.2649E+01E
 Epicentro: PUERTO PARRA - SANTANDER                                           3
 ACTION:UPD 17-11-07 19:28 OP:rebc STATUS:               ID:20171003195756 L   I
 OLDACT:UP  17-10-04 01:46 OP:osc  STATUS:               ID:20171003194744d    3
 OLDACT:DUP 17-10-04 01:41 OP:osc  STATUS:               ID:20171003194744d    3
 2017-10-03-1948-00M.COL___447                                                 6
 STAT SP IPHASW D HRMM SECON CODA AMPLIT PERI AZIMU VELO AIN AR TRES W  DIS CAZ7
 BAR2 EZ EP       1958 11.93                              47   -0.3110 99.9  93 
 BAR2 EZ ES       1958 25.24                              47    0.4910 99.9  93 
 BAR2 EZ I        1958 30.15        30.1 0.42             47           99.9  93 
 SPBC HZ EP       1958 14.13                              47    0.5310  110 179 
 SPBC HE ES       1958 27.31                              47    0.1510  110 179 
 SPBC HZ I        1958 29.17        30.9 0.22             47            110 179 
 ZAR  HZ EP       1958 15.99                              47   -0.0810  127 318 
 ZAR  HE ES       1958 31.37                              47   -0.1910  127 318 
 ZAR  HZ I        1958 32.73        24.5 0.28             47            127 318 
 RUS  HZ EP       1958 18.28                              47   -0.09 9  139 127 
 RUS  HE ES       1958 34.45                              47   -1.20 9  139 127 
 RUS  HZ I        1958 38.63        55.6 0.22             47            139 127 
 NOR  HZ EP       1958 18.90                              47   -0.42 9  148 216 
 NOR  HE ES   3   1958 35.98                              47   -1.36 2  148 216 
 NOR  HZ I        1958 40.64        13.0 0.32             47            148 216 
 PAM  EZ EP       1958 23.18                              47   -0.12 9  171  63 
 PAM  EE ES       1958 44.82                              47    0.40 9  171  63 
 PAM  EZ I        1958 46.10        51.2 0.20             47            171  63 
 GUY2CHZ EP       1958 29.26                              37    0.70 8  212 222 
 GUY2CHE ES       1958 53.27                              37   -0.52 8  212 222 
 GUY2CHZ I        1958 58.66        13.9 0.30                           212 222 
 CHI  HZ EP       1958 30.50                              37    0.18 8  226 170 
 CHI  HE ES       1958 57.33                              37    0.41 8  226 170 
 CHI  HZ I        1959  3.38         4.2 0.44             37            226 170 
 ELA  HZ EP   4   1958 36.88                              37    4.04 0  245 217 
 ELA  HE ES   3   1959  2.54                              37    1.14 2  245 217 
 ELA  HZ I        1959  8.27        17.3 0.48             37            245 217 
 ORTC HE ES       1959 19.26                              36    0.43 7  329 203 
                                                                                
