 2011  9 3 1244 56.2 L   6.773 -73.127141.5  RSN  9 0.3 2.1LRSN                1
 GAP=185        0.55       2.6     4.0  4.1  0.1518E+01  0.3633E+01  0.1040E+01E
 Epicentro: LOS SANTOS - SANTANDER                                             3
 ACTION:UPD 12-07-13 15:55 OP:ep   STATUS:               ID:20110903124456 L   I
 2011-09-03-1243-19S.COL___171                                                 6
 STAT SP IPHASW D HRMM SECON CODA AMPLIT PERI AZIMU VELO AIN AR TRES W  DIS CAZ7
 BAR2 SZ EP       1245 15.24                             171   -0.0610 20.9 197 
 BAR2 SZ ES   1   1245 30.03                             171   -0.14 7 20.9 197 
 BAR2 SZ I        1245 31.76        32.8 0.16                          20.9 197 
 GIR2 SZ EP   1   1245 15.26                             166   -0.24 7 34.6 348 
 GIR2 SZ ES   1   1245 31.05                             166    0.53 7 34.6 348 
 BRR  HZ IP     D 1245 17.01                             151   -0.1110 74.5 300 
 BRR  HE ES   1   1245 33.59                             151    0.19 7 74.5 300 
 BRR  HZ I        1245 38.12        33.4 0.14                          74.5 300 
 RUS  HZ EP   1   1245 19.69                             144    0.35 7 97.4 177 
 RUS  HN ES   1   1245 37.02                             144   -0.34 7 97.4 177 
 RUS  HZ I        1245 38.84        11.6 0.22                          97.4 177 
 OCA  SZ EP   1   1245 24.13                             128   -0.40 7  164 353 
 OCA  SZ ES   1   1245 46.66                             128    0.06 7  164 353 
 OCA  SZ I        1245 51.89        23.0 0.40                           164 353 
 ZAR  HZ EP   1   1245 28.98                             121    0.25 6  207 293 
 ZAR  HE ES   1   1245 53.81                             121   -0.26 6  207 293 
 ZAR  HZ I        1245 59.07        11.4 0.11                           207 293 
 NOR  SE ES   1   1245 59.37                             118   -0.02 6  235 235 
 CHI  HZ EP   1   1245 33.59                             116    0.15 6  246 196 
 CHI  HZ I        1246  7.37         5.8 0.53                           246 196 
 PRA  HZ EP   1   1245 49.94                             106    0.51 4  390 210 
                                                                                
