 2010  8 3 1408  0.4 L   6.783 -73.064147.5  RSN  6 0.2 2.0LRSN                1
 GAP=174        0.40       3.3     5.4  4.6 -0.6638E+00  0.4642E+01  0.4220E+00E
 Epicentro: LOS SANTOS - SANTANDER                                             3
 ACTION:UP  10-09-07 10:51 OP:vdl  STATUS:               ID:20100803140800 L   I
 2010-08-03-1404-29S.COL___125                                                 6
 STAT SP IPHASW D HRMM SECON CODA AMPLIT PERI AZIMU VELO SNR AR TRES W  DIS CAZ7
 BAR2 SZ EP   1   14 8 20.31                             170     0.1 7   25 212 
 BAR2 SZ ES   2   14 8 35.39                             170    -0.4 5   25 212 
 BAR2 SZ I        14 8 36.51        19.8 0.20                            25 212 
 BRR  HZ EP   1   14 8 22.11                             150    -0.1 7   80 297 
 BRR  HN ES   2   14 8 39.50                             150     0.2 5   80 297 
 BRR  HZ I        14 8 42.06        13.6 0.07                            80 297 
 RUS  HZ EP   1   14 8 24.26                             145     0.1 7   98 181 
 RUS  HE ES   2   14 8 42.86                             145     0.2 5   98 181 
 RUS  HZ I        14 8 44.61        13.0 0.49                            98 181 
 GUE  SZ EP   1   14 8 25.24                             140     0.0 7  117   8 
 HEL  HZ EP   1   14 8 41.75                             114     0.1 6  280 257 
 HEL  HZ I        14 9 18.94         4.4 0.37                           280 257 
 PRA  HZ EP   1   14 8 54.27                             107     0.0 4  395 211 
 PRA  HE ES   2   14 9 35.77                             107    -0.6 3  395 211 
 PRA  HZ I        14 9 40.09         3.7 0.66                           395 211 
                                                                                
