 2016  4 3 1227 27.8 L   6.810 -73.156145.5  RSN 12 0.4 2.1LRSN                1
 GAP= 70        0.87       2.7     2.6  5.1 -0.6874E+00  0.3785E+01  0.8898E+00E
 Epicentro: LOS SANTOS - SANTANDER                                             3
 ACTION:UPD 16-05-05 14:18 OP:rebc STATUS:               ID:20160403122727 L   I
 OLDACT:UP  16-04-04 00:25 OP:mh   STATUS:               ID:20160403121746d    3
 OLDACT:UP  16-04-04 00:25 OP:mh   STATUS:               ID:20160403121746d    3
 OLDACT:UP  16-04-04 00:25 OP:mh   STATUS:               ID:20160403121746d    3
 OLDACT:UP  16-04-04 00:23 OP:mh   STATUS:               ID:20160403121746d    3
 OLDACT:DUP 16-04-03 23:59 OP:mh   STATUS:               ID:20160403121746d    3
 OLDACT:REG 16-04-03 22:01 OP:mh   STATUS:               ID:20160403121745     3
 2016-04-03-1217-45M.COL___315                                                 6
 STAT SP IPHASW D HRMM SECON CODA AMPLIT PERI AZIMU VELO AIN AR TRES W  DIS CAZ7
 BAR2 EZ IP     D 1227 47.54                             170    0.1110 24.2 187 
 BAR2 EZ ES       1228  2.90                             170    0.1710 24.2 187 
 BAR2 EZ I        1228  5.47        23.8 0.22            170           24.2 187 
 PAM  EZ EP       1227 50.50                             151    0.5010 77.3  41 
 PAM  EN ES       1228  7.58                             151    0.2910 77.3  41 
 PAM  EZ I        1228  9.59        18.4 0.52            155           77.3  41 
 RUS  HZ EP       1227 51.49                             143   -0.1310  102 175 
 RUS  HN ES       1228 10.14                             143   -0.0510  102 175 
 RUS  HZ I        1228 11.22        11.7 0.36            146            102 175 
 PTB  HZ EP       1227 53.99                             132   -0.69 9  147 258 
 PTB  HN ES       1228 15.30                             132   -0.33 9  147 258 
 PTB  HZ I        1228 20.20        12.6 0.22            132            147 258 
 TAM  HZ EP       1227 55.91                             130    0.31 9  157 105 
 TAM  HE ES       1228 16.57                             130   -0.70 9  157 105 
 TAM  HZ I        1228 17.84        20.9 0.54            136            157 105 
 OCA  HZ EP   1   1227 55.87                             130   -0.12 7  159 354 
 OCA  HN ES       1228 17.68                             130   -0.28 9  159 354 
 OCA  HZ I        1228 23.80        22.4 0.42            132            159 354 
 SPBC HZ EP       1227 56.45                             129    0.14 9  163 218 
 SPBC HN ES   1   1228 18.29                             129   -0.23 7  163 218 
 SPBC HZ I        1228 24.35        25.6 0.26            130            163 218 
 ZAR  HZ EP       1227 59.84                             122   -0.25 9  203 292 
 ZAR  HN ES       1228 25.73                             122    0.47 9  203 292 
 ZAR  HZ I        1228 35.85        11.6 0.14            123            203 292 
 NOR  HZ EP   1   1228  3.84                             118    0.34 6  234 234 
 NOR  HN ES       1228 31.40                             118    0.07 8  234 234 
 NOR  HZ I        1228 39.21        11.8 0.14            120            234 234 
 CHI  HZ EP   1   1228  5.26                             117   -0.32 6  249 195 
 CHI  HN ES       1228 35.53                             117    0.49 8  249 195 
 CHI  HZ I        1228 41.23         5.9 0.32            119            249 195 
 HEL  HZ EP   1   1228  7.73                             115   -0.19 6  271 256 
 HEL  HN ES       1228 38.98                             115   -0.22 8  271 256 
 HEL  HZ I        1228 46.06         6.9 0.42            116            271 256 
 URE  HN ES   4   1228 41.44                             114    0.84 0  282 292 
 GUY2CHZ EP   1   1228 12.35                             112    0.97 5  301 234 
 GUY2CHN ES   4   1228 49.50                             112    4.15 0  301 234 
 GUY2CHZ I        1228 52.55         6.7 0.56                           301 234 
 SJC  HZ EP   4   1228 19.67                             106   -3.52 0  408 327 
 SJC  HN ES   4   1229  1.24                             106   -5.14 0  408 327 
                                                                                
