 2016 12 3 1210 54.1 L   6.644 -73.182136.8  RSN  4 0.3 1.5LRSN                1
 GAP=229        0.81       8.8     5.8  7.4  0.1836E+02  0.1373E+02  0.6284E+01E
 Epicentro: VILLANUEVA - SANTANDER                                             3
 ACTION:UPD 17-01-11 20:12 OP:rebc STATUS:               ID:20161203121054 L   I
 OLDACT:REG 16-12-03 20:47 OP:lv   STATUS:               ID:20161203120745     3
 2016-12-03-1208-00M.COL___342                                                 6
 STAT SP IPHASW D HRMM SECON CODA AMPLIT PERI AZIMU VELO AIN AR TRES W  DIS CAZ7
 BAR2 EZ EP       1211 12.30                             177   -0.1010 5.68 180 
 BAR2 EZ ES       1211 26.92                             177    0.2410 5.68 180 
 BRR  HZ EP       1211 14.26                             149   -0.4210 77.8 311 
 BRR  HN ES       1211 30.73                             149   -0.0110 77.8 311 
 PTB  HZ EP       1211 20.22                             131    0.48 9  141 265 
 PTB  HN ES       1211 39.37                             131   -0.38 9  141 265 
 PTB  HZ I        1211 43.21         3.4 0.15            128            141 265 
 ZAR  HN ES       1211 51.76                             120    0.28 8  208 297 
 ZAR  HZ I        1211 56.90         3.4 0.17            118            208 297 
                                                                                
