 2015  9 3 1958 29.8 L   6.828 -73.139142.5  RSN 19 0.5 2.5LRSN                1
 GAP=136        1.01       2.3     3.3  4.6 -0.1206E+01  0.5200E+01  0.1341E+01E
 Epicentro: LOS SANTOS - SANTANDER                                             3
 ACTION:UPD 15-10-28 16:23 OP:cam  STATUS:               ID:20150903195829 L   I
 OLDACT:REG 15-09-03 22:00 OP:ak   STATUS:               ID:20150903194748     3
 2015-09-03-1947-48M.COL___337                                                 6
 STAT SP IPHASW D HRMM SECON CODA AMPLIT PERI AZIMU VELO AIN AR TRES W  DIS CAZ7
 BAR2 EZ EP       1958 49.15                             169    0.0610 26.5 190 
 BAR2 EZ ES       1959  3.99                             169   -0.1710 26.5 190 
 BAR2 EZ I        1959  6.92        43.7 0.35            168           26.5 190 
 BRR  HZ IP     C 1958 50.94                             152    0.4010 70.4 296 
 BRR  HN ES       1959  7.42                             152    0.6910 70.4 296 
 BRR  HZ I        1959 11.24        40.7 0.30            150           70.4 296 
 PAM  EZ EP       1958 52.03                             151    0.5410 74.6  41 
 PAM  EN ES       1959  8.50                             151    0.0910 74.6  41 
 PAM  EZ I        1959 11.78        31.5 0.50            156           74.6  41 
 RUS  HZ EP       1958 53.08                             142   -0.3610  104 177 
 RUS  HN ES       1959 11.89                             142   -0.0010  104 177 
 RUS  HZ I        1959 13.07        27.8 0.38            145            104 177 
 PTB  HZ EP       1958 55.84                             131   -0.77 9  149 258 
 PTB  HN ES       1959 17.06                             131   -0.48 9  149 258 
 PTB  HZ I        1959 19.07        39.9 0.13            131            149 258 
 OCA  HZ EP       1958 57.46                             129   -0.10 9  157 353 
 OCA  HE ES       1959 19.22                             129   -0.01 9  157 353 
 OCA  HZ I        1959 23.90        75.1 0.22            132            157 353 
 SPBC HZ EP       1958 58.17                             128   -0.14 9  166 219 
 SPBC HN ES       1959 20.43                             128   -0.13 9  166 219 
 SPBC HZ I        1959 27.23        59.5 0.24            129            166 219 
 ZAR  HZ EP       1959  1.74                             122   -0.23 9  204 291 
 ZAR  HN ES       1959 27.19                             122    0.11 9  204 291 
 ZAR  HZ I        1959 32.96        22.4 0.28            122            204 291 
 NOR  HZ EP       1959  5.63                             117    0.05 8  237 234 
 NOR  HN ES       1959 33.24                             117   -0.27 8  237 234 
 NOR  HZ I        1959 40.06        29.9 0.18            119            237 234 
 SML  HZ EP       1959  5.72                             117   -0.24 8  241 335 
 SML  HN ES       1959 33.62                             117   -0.56 8  241 335 
 SML  HZ I        1959 36.10        33.7 0.10            119            241 335 
 CHI  HZ EP       1959  7.47                             116   -0.18 8  252 195 
 CHI  HN ES       1959 36.63                             116   -0.55 8  252 195 
 CHI  HZ I        1959 43.09        17.4 0.34            118            252 195 
 HEL  HZ EP       1959 10.35                             114    0.35 8  274 255 
 HEL  HN ES       1959 40.51                             114   -0.85 8  274 255 
 HEL  HZ I        1959 47.99        20.4 0.34            115            274 255 
 URE  HZ EP   4   1959  9.10                             113   -1.55 0  283 291 
 URE  HN ES       1959 42.11                             113   -0.41 7  283 291 
 URE  HZ I        1959 53.03        14.7 0.19            114            283 291 
 GUY2CHZ EP       1959 14.06                             111    0.55 7  304 234 
 GUY2CHE ES       1959 47.71                             111    0.09 7  304 234 
 GUY2CHZ I        1959 55.07        15.2 0.28                           304 234 
 ELA  HZ EP       1959 17.46                             109    0.67 7  332 229 
 ELA  HN ES       1959 54.23                             109    0.77 7  332 229 
 ELA  HZ I        20 0  4.04         8.7 0.45            111            332 229 
 CBOC HZ EP       1959 17.11                             109    0.36 7  335 252 
 CBOC HN ES       1959 54.29                             109    0.90 7  335 252 
 TOL  SZ EP       1959 18.95                             108    0.73 6  346 224 
 TOL  SN ES       1959 56.76                             108    0.76 6  346 224 
 TOL  SZ I        20 0  3.64        13.6 0.38            110            346 224 
 PRA  HZ EP       1959 22.80                             106   -0.75 6  395 209 
 PRA  HN ES       20 0  5.29                             106   -0.19 6  395 209 
 PRA  HZ I        20 0 11.60        11.5 0.48            107            395 209 
 SJC  HZ EP   4   1959 23.29                             105   -1.69 0  407 327 
 SJC  HE ES   4   20 0  4.73                             105   -3.31 0  407 327 
 SJC  HZ I        20 0 14.72         7.3 0.09            107            407 327 
 CRJC HZ EP   4   1959 29.75                             103   -2.07 0  465   3 
 CRJC HN ES   4   20 0 16.94                             103   -3.28 0  465   3 
                                                                                
