 2015  2 3 1101 57.1 L   6.681 -73.159141.8  RSN  5 0.4 1.7LRSN                1
 GAP=218        1.01       6.9     6.9  8.0  0.8773E+01  0.1316E+02 -0.1110E+02E
 Epicentro: VILLANUEVA - SANTANDER                                             3
 ACTION:UPD 15-04-30 21:21 OP:nd   STATUS:               ID:20150203110157 L   I
 OLDACT:REG 15-02-03 19:27 OP:cam  STATUS:               ID:20150203105820     3
 2015-02-03-1058-20M.COL___265                                                 6
 STAT SP IPHASW D HRMM SECON CODA AMPLIT PERI AZIMU VELO AIN AR TRES W  DIS CAZ7
 BAR2 EZ EP     C 11 2 16.22                             176    0.1810 10.2 195 
 BAR2 EZ ES       11 2 30.47                             176   -0.3510 10.2 195 
 BAR2 EZ I        11 2 32.34         6.2 0.16            171           10.2 195 
 BRR  HZ EP       11 2 17.93                             150   -0.2210 77.1 308 
 BRR  HN ES       11 2 35.32                             150    0.7310 77.1 308 
 BRR  HN I        11 2 39.21        20.2 0.20            147           77.1 308 
 PTB  HZ EP       11 2 23.46                             132    0.05 9  144 264 
 PTB  HN ES       11 2 43.52                             132   -0.43 9  144 264 
 PTB  HZ I        11 2 50.31         4.3 0.16            131            144 264 
 ZAR  HZ EP       11 2 30.17                             121    0.49 8  208 296 
 ZAR  HN ES       11 2 55.11                             121   -0.00 8  208 296 
 ZAR  HZ I        11 3  0.24         4.6 0.46            121            208 296 
 SML  HN ES       11 3  3.52                             115   -0.58 8  255 337 
 SML  HZ I        11 3  8.15         6.7 0.10            117            255 337 
                                                                                
