 2010 12 3 1701 33.8 L   6.756 -73.033139.8  RSN  6 0.2 2.3LRSN                1
 GAP=206        0.52       4.1     6.6  4.9 -0.9897E+01  0.8218E+00  0.5154E+01E
 Epicentro: CEPITA - SANTANDER                                                 3
 ACTION:UP  11-01-14 15:22 OP:pat  STATUS:               ID:20101203170133 L   I
 2010-12-03-1658-22S.COL___133                                                 6
 STAT SP IPHASW D HRMM SECON CODA AMPLIT PERI AZIMU VELO SNR AR TRES W  DIS CAZ7
 BAR2 SZ EP   1   17 1 52.89                             170     0.1 7   25 223 
 BAR2 SZ ES   1   17 2  7.38                             170    -0.2 7   25 223 
 BAR2 SZ I        17 2 10.51        23.0 0.39                            25 223 
 GIR2 SZ EP   1   17 1 53.36                             163     0.3 7   40 334 
 BRR  HZ IP     D 17 1 54.90                             147    -0.310   85 297 
 BRR  HN ES   1   17 2 12.09                             147     0.3 7   85 297 
 BRR  HZ I        17 2 15.18        36.0 0.22                            85 297 
 GUE  SZ EP   1   17 1 58.30                             137     0.0 7  119   6 
 HEL  HZ EP   1   17 2 14.89                             113    -0.1 6  283 257 
 HEL  HZ I        17 2 51.19         8.9 0.25                           283 257 
 PRA  HZ EP   1   17 2 27.53                             105     0.1 4  394 212 
 PRA  HE ES       17 3  9.31                             105     0.1 6  394 212 
 PRA  HZ I        17 3 15.17        20.3 0.41                           394 212 
                                                                                
