 2010  7 3 1251  9.7 L   7.557 -73.138155.5  RSN  7 0.4 1.5LRSN                1
 GAP=113        0.98      14.9    14.9 13.3 -0.1352E+03  0.4338E+02 -0.5545E+02E
 Epicentro: EL PLAYON - SANTANDER                                              3
 ACTION:UPD 10-12-01 15:14 OP:pat  STATUS:               ID:20100703125109 L   I
 2010-07-03-1248-34S.COL___117                                                 6
 STAT SP IPHASW D HRMM SECON CODA AMPLIT PERI AZIMU VELO AIN AR TRES W  DIS CAZ7
 BTN  SZ EP       1251 30.02                             177    -0.310    5 131 
 BTN  SZ ES   2   1251 46.27                             177    -0.2 5    5 131 
 GUE  SZ EP       1251 30.69                             166    -0.210   38  38 
 BRI  SZ EP       1251 31.67                             164     0.810   42  65 
 BRI  SZ I        1251 31.97         5.6 0.11                            42  65 
 BRI  SZ ES   2   1251 47.42                             164     0.1 5   42  65 
 GRA  SZ EP       1251 30.76                             161    -0.410   52  45 
 OCA  SZ EP       1251 32.53                             152     0.110   78 345 
 BRR  HZ EP       1251 32.54                             151     0.210   81 232 
 BRR  HN ES   2   1251 50.08                             151     0.0 5   81 232 
 BRR  HZ I        1251 53.84         6.9 0.18                            81 232 
 RUS  HZ EP   3   1251 40.88                             127    -0.5 2  184 178 
                                                                                
