 2010  2 3 1948 34.2 L   6.742 -72.911141.3  RSN  4 0.4 1.7LRSN                1
 GAP=232        0.71       9.4    15.5 11.8 -0.1433E+02  0.1223E+01  0.3932E+02E
 Epicentro: CEPITA - SANTANDER                                                 3
 ACTION:UP  10-08-24 09:47 OP:vdl  STATUS:               ID:20100203194834 L   I
 2010-02-03-1944-42S.COL___097                                                 6
 STAT SP IPHASW D HRMM SECON CODA AMPLIT PERI AZIMU VELO SNR AR TRES W  DIS CAZ7
 BAR2 SZ ES   2   1949  7.87                             166    -0.8 5   34 241 
 GIR2 SZ EP   2   1948 53.65                             160    -0.3 5   49 320 
 GIR2 SZ ES   2   1949  9.96                             160     0.6 5   49 320 
 RUS  BZ EP   1   1948 57.18                             144     0.0 7   96 191 
 RUS  BE ES   2   1949 15.39                             144     0.3 5   96 191 
 RUS  BZ I        1949 16.86         4.8 0.43                            96 191 
 RREF BE ES   2   1949 59.36                             109     0.1 3  338 233 
 RREF BZ I        1950  3.09         2.9 0.23                           338 233 
                                                                                
