 2015  1 3 1849 31.5 L   5.982 -73.658109.5  RSN  5 0.5 1.5LRSN                1
 GAP=152        1.23       7.2     4.7 10.6 -0.6732E+01  0.1848E+02 -0.4676E+01E
 Epicentro: VELEZ - SANTANDER                                                  3
 ACTION:UPD 15-03-02 15:36 OP:nd   STATUS:               ID:20150103184931 L   I
 OLDACT:UP  15-01-03 23:48 OP:cam  STATUS:               ID:20150103184816d    3
 OLDACT:DUP 15-01-03 23:45 OP:cam  STATUS:               ID:20150103184816d    3
 2015-01-03-1848-14M.COL___277                                                 6
 STAT SP IPHASW D HRMM SECON CODA AMPLIT PERI AZIMU VELO AIN AR TRES W  DIS CAZ7
 RUS  HZ EP       1849 48.58                             148   -0.5310 64.4  99 
 RUS  HN ES       1850  2.88                             148    0.0310 64.4  99 
 RUS  HZ I        1850  5.22         3.8 0.30            149           64.4  99 
 BAR2 EZ EP       1849 50.34                             139    0.0410 85.6  38 
 BAR2 EZ ES       1850  5.33                             139    0.3810 85.6  38 
 BAR2 EZ I        1850  6.59        12.0 0.34            142           85.6  38 
 PTB  HZ EP       1849 52.60                             132    0.7210  108 305 
 PTB  HN ES       1850  7.01                             132   -0.7710  108 305 
 PTB  HN I        1850  7.86        10.3 0.14            135            108 305 
 NOR  HZ EP       1849 54.82                             123   -0.42 9  142 251 
 NOR  HN ES       1850 14.31                             123    0.56 9  142 251 
 NOR  HZ I        1850 15.54         5.4 0.42            126            142 251 
 SML  HZ EP       1850 14.77                             103    0.01 7  315 352 
                                                                                
