 2014  3 3 1646  5.4 L   6.790 -73.143142.0  RSN  8 0.4 1.9LRSN                1
 GAP=137        1.09       4.5     4.5  8.4 -0.2349E+01  0.1009E+02  0.1654E+01E
 Epicentro: LOS SANTOS - SANTANDER                                             3
 ACTION:UPD 14-04-09 23:14 OP:nd   STATUS:               ID:20140303164605 L   I
 OLDACT:UP  14-03-03 20:22 OP:mh   STATUS:               ID:20140303163947     3
 OLDACT:REG 14-03-03 15:51 OP:mh   STATUS:               ID:20140303163947     3
 2014-03-03-1639-47M.COL___235                                                 6
 STAT SP IPHASW D HRMM SECON CODA AMPLIT PERI AZIMU VELO AIN AR TRES W  DIS CAZ7
 BAR2 SZ EP       1646 24.41                             171   -0.1510 22.3 191 
 BRR  HZ EP     D 1646 26.24                             152    0.0510 72.0 299 
 BRR  HN ES       1646 42.91                             152    0.5010 72.0 299 
 BRR  HZ I        1646 45.89        21.2 0.18            151           72.0 299 
 PAM  SZ EP       1646 27.45                             150    0.1910 78.0  39 
 PAM  SN ES       1646 44.13                             150   -0.1810 78.0  39 
 PAM  SZ I        1646 46.71        18.6 0.47            153           78.0  39 
 RUS  HZ EP       1646 28.59                             143   -0.1210 99.5 176 
 RUS  HN ES       1646 46.77                             143   -0.1110 99.5 176 
 RUS  HZ I        1646 49.10         7.0 0.40            148           99.5 176 
 PTB  HZ EP       1646 31.39                             131   -0.69 9  148 259 
 PTB  HN ES       1646 52.13                             131   -0.75 9  148 259 
 PTB  HZ I        1646 57.48         7.2 0.09            133            148 259 
 SPBC HN ES       1646 56.19                             128    0.68 9  163 219 
 ZAR  HZ EP       1646 38.42                             121    0.74 9  205 292 
 ZAR  HN ES       1647  2.64                             121   -0.21 9  205 292 
 ZAR  HZ I        1647  8.38         8.7 0.12            124            205 292 
 SML  HN ES   4   1647  8.90                             116   -1.54 0  245 335 
 URE  HZ EP   4   1646 48.42                             113    2.05 0  285 292 
 GUY2CHN ES       1647 22.87                             112    0.22 7  301 235 
                                                                                
