 2010  9 3 1121 32.4 L   6.794 -73.028143.1  RSN  8 0.4 2.1LRSN                1
 GAP=178        1.04       4.4    11.2  8.2  0.2303E+01 -0.6818E+01 -0.2357E+01E
 Epicentro: CEPITA - SANTANDER                                                 3
 ACTION:UP  11-02-18 10:59 OP:tino STATUS:               ID:20100903112132 L   I
 2010-09-03-1118-59S.COL___120                                                 6
 STAT SP IPHASW D HRMM SECON CODA AMPLIT PERI AZIMU VELO SNR AR TRES W  DIS CAZ7
 BAR2 SZ EP       1121 51.91                             168     0.110   28 218 
 BAR2 SZ ES   1   1122  6.45                             168    -0.6 7   28 218 
 BAR2 SZ I        1122  7.99        21.2 0.33                            28 218 
 BRR  HZ IP     C 1121 53.68                             148    -0.410   83 295 
 BRR  HE ES   1   1122 10.77                             148    -0.1 7   83 295 
 BRR  HZ I        1122 13.27        37.5 0.39                            83 295 
 RUS  HZ EP       1121 56.07                             143     0.210  100 184 
 RUS  HN ES   1   1122 14.91                             143     0.8 7  100 184 
 RUS  HZ I        1122 15.70        12.9 0.29                           100 184 
 GUE  SZ EP       1121 56.96                             139     0.210  115   6 
 OCA  SZ EP       1122  0.71                             129    -0.1 9  163 349 
 OCA  SZ ES   1   1122 23.05                             129     0.1 7  163 349 
 OCA  SZ I        1122 30.63        12.3 0.16                           163 349 
 CHI  HZ EP   1   1122  9.43                             116    -0.9 6  252 198 
 CHI  HN ES   2   1122 39.63                             116    -0.2 4  252 198 
 CHI  HZ I        1122 41.90         9.6 0.40                           252 198 
 HEL  HZ EP   1   1122 14.83                             113     0.9 6  285 257 
 HEL  HZ I        1122 51.44         6.7 0.55                           285 257 
 PRA  HZ EP   1   1122 26.51                             106    -0.1 4  398 211 
 PRA  HZ I        1123 12.05         6.6 0.66                           398 211 
                                                                                
