 2011 12 3 1705 52.3 L   7.376 -73.166129.9  RSN  4 0.2 1.9LRSN                1
 GAP=211        0.46       8.3     4.4  6.1 -0.1606E+02  0.4591E+01 -0.1262E+02E
 Epicentro: RIONEGRO - SANTANDER                                               3
 ACTION:UPD 12-07-13 16:14 OP:ep   STATUS:               ID:20111203170552 L   I
 2011-12-03-1700-00M.COL___182                                                 6
 STAT SP IPHASW D HRMM SECON CODA AMPLIT PERI AZIMU VELO AIN AR TRES W  DIS CAZ7
 GIR2 SZ EP   2   17 6 10.22                             165    0.10 5 33.0 185 
 PAM  SZ EP       17 6 11.53                             157    0.1610 51.7  94 
 PAM  SE ES   1   17 6 26.08                             157   -0.19 7 51.7  94 
 BRR  HZ EP       17 6 11.52                             151    0.0310 67.2 244 
 BRR  HN ES   1   17 6 26.39                             151   -0.09 7 67.2 244 
 BRR  HN I        17 6 27.81        40.2 0.20                          67.2 244 
 BAR2 SZ EP   2   17 6 12.55                             144   -0.55 5 86.7 181 
 BAR2 SZ ES   2   17 6 29.64                             144    0.29 5 86.7 181 
 BAR2 SZ I        17 6 30.83         8.0 0.12                          86.7 181 
                                                                                
