 2012  1 3 1147 41.2 L   6.795 -73.146141.9  RSN  6 0.4 1.8LRSN                1
 GAP=137        0.76       6.5     7.3  7.4  0.6105E+01  0.9770E+00  0.1421E+01E
 Epicentro: LOS SANTOS - SANTANDER                                             3
 ACTION:UP  12-02-03 08:13 OP:REBC STATUS:               ID:20120103114741 L   I
 2012-01-03-1140-00M.COL___184                                                 6
 STAT SP IPHASW D HRMM SECON CODA AMPLIT PERI AZIMU VELO SNR AR TRES W  DIS CAZ7
 BAR2 SZ EP   1   1148  0.25                             170    -0.1 7   23 190 
 BAR2 SZ ES   1   1148 14.67                             170    -0.7 7   23 190 
 BAR2 SZ I        1148 17.21         6.6 0.23                            23 190 
 BRR  HN I        1148 17.18        25.9 0.20                            71 299 
 BRR  HN ES   2   1148 18.57                             152     0.4 5   71 299 
 PAM  SZ EP   1   1148  3.40                             150     0.3 7   78  39 
 RUS  HZ EP       1148  4.48                             143    -0.110  100 176 
 RUS  HE ES   1   1148 23.30                             143     0.5 7  100 176 
 PTB  HZ EP   1   1148  7.68                             131    -0.2 7  148 259 
 PTB  HN ES   2   1148 28.94                             131     0.3 5  148 259 
 CHI  HZ EP   1   1148 18.53                             116    -0.1 6  248 195 
                                                                                
