 2014  9 3 1608 40.6 L   6.796 -73.180147.2  RSN 14 0.5 2.0LRSN                1
 GAP=132        1.08       3.8     4.9  7.5 -0.2216E+01  0.7372E+01  0.1502E+01E
 Epicentro: LOS SANTOS - SANTANDER                                             3
 ACTION:UPD 14-10-03 23:02 OP:nd   STATUS:               ID:20140903160840 L   I
 OLDACT:REG 14-09-03 21:08 OP:fm   STATUS:               ID:20140903160818     3
 2014-09-03-1608-18M.COL___266                                                 6
 STAT SP IPHASW D HRMM SECON CODA AMPLIT PERI AZIMU VELO AIN AR TRES W  DIS CAZ7
 BAR2 SZ ES   1   16 9 15.40                             171   -0.40 7 22.5 181 
 BAR2 SZ I        16 9 16.53        18.9 0.30            167           22.5 181 
 BRR  HZ EP       16 9  2.39                             154    0.6810 68.1 300 
 BRR  HN ES       16 9 19.13                             154    0.9310 68.1 300 
 BRR  HZ I        16 9 23.05        19.0 0.16            151           68.1 300 
 PAM  SZ EP       16 9  3.39                             150    0.2810 80.2  41 
 PAM  SE ES       16 9 20.46                             150   -0.2310 80.2  41 
 PAM  SZ I        16 9 22.48        30.0 0.40            156           80.2  41 
 RUS  HZ EP   1   16 9  4.37                             144   -0.09 7  100 174 
 RUS  HE ES       16 9 22.75                             144   -0.3410  100 174 
 RUS  HZ I        16 9 25.21         6.8 0.20            143            100 174 
 PTB  HZ EP   1   16 9  6.86                             133   -0.46 7  144 259 
 PTB  HN ES       16 9 27.61                             133   -0.57 9  144 259 
 PTB  HZ I        16 9 31.04        13.7 0.14            130            144 259 
 SPBC HN ES   1   16 9 30.99                             130   -0.06 7  160 218 
 SPBC HZ I        16 9 40.46         9.1 0.34            128            160 218 
 ZAR  HE ES   1   16 9 37.77                             123   -0.12 6  201 293 
 ZAR  HZ I        16 9 44.89         8.0 0.34            122            201 293 
 NOR  HN ES   1   16 9 43.88                             119    0.19 6  231 234 
 NOR  HZ I        16 9 51.70         5.5 0.18            118            231 234 
 SML  HZ EP   1   16 9 16.24                             118   -0.92 6  243 336 
 SML  HE ES   1   16 9 44.98                             118   -0.71 6  243 336 
 SML  HZ I        16 9 47.23        17.0 0.26            119            243 336 
 CHI  HZ EP   1   16 9 18.74                             118    0.54 6  247 194 
 CHI  HN ES   1   16 9 47.65                             118    0.10 6  247 194 
 CHI  HZ I        16 9 54.09         3.5 0.34            117            247 194 
 GUY2CHE ES   4   1610  0.09                             113    2.44 0  298 234 
 GUY2CHZ I        1610  6.82         2.8 0.40                           298 234 
 TOL  SN ES   4   1610  9.15                             110    3.18 0  341 224 
 TOL  SZ I        1610 13.01         6.0 0.28            109            341 224 
 PRA  HZ EP   4   16 9 51.26                             107   17.38 0  390 209 
 PRA  HE ES   1   1610 15.76                             107    0.30 4  390 209 
 PRA  HZ I        1610 20.27         4.0 0.24            107            390 209 
 SJC  HZ EP   4   16 9 34.47                             106   -1.52 0  408 327 
 SJC  HE ES   4   1610 13.59                             106   -5.62 0  408 327 
 SJC  HZ I        1610 20.14         3.9 0.38            106            408 327 
                                                                                
