 2012  9 3 1207 26.7 L   6.672 -73.100156.7  RSN  5 0.4 1.3LRSN                1
 GAP=195        0.60      15.1    11.5 16.9  0.3884E+02 -0.6917E+02  0.3502E+02E
 Epicentro: JORDAN - SANTANDER                                                 3
 ACTION:UPD 12-10-22 14:16 OP:ep   STATUS:               ID:20120903120726 L   I
 2012-09-03-1200-00M.COL___218                                                 6
 STAT SP IPHASW D HRMM SECON CODA AMPLIT PERI AZIMU VELO AIN AR TRES W  DIS CAZ7
 BAR2 SZ EP       12 7 47.61                             175    0.1510 12.7 226 
 BAR2 SZ I        12 8  6.38         6.0 0.40                          12.7 226 
 GIR2 SZ EP       12 7 47.78                             163   -0.3210 46.1 347 
 BRR  HZ EP       12 7 49.87                             151    0.1910 83.0 305 
 BRR  HN ES   2   12 8  7.83                             151    0.21 5 83.0 305 
 PAM  SZ EP   3   12 7 50.55                             150   -0.02 2 86.1  31 
 PAM  SZ I        12 7 50.86         3.7 0.30                          86.1  31 
 PTB  HZ EP   3   12 7 55.12                             133    0.31 2  151 264 
 PTB  HZ I        12 7 56.74         1.1 0.44                           151 264 
 PTB  HN ES   3   12 8 15.19                             133   -1.56 2  151 264 
                                                                                
