 2011  7 3 1836 12.5 L   6.776 -73.107143.1  RSN  5 0.3 1.7LRSN                1
 GAP=181        0.67       5.5    10.3  7.2 -0.2359E+02 -0.1986E+02  0.1328E+02E
 Epicentro: LOS SANTOS - SANTANDER                                             3
 ACTION:UPD 12-07-25 13:58 OP:epov STATUS:               ID:20110703183612 L   I
 2011-07-03-1831-34S.COL___140                                                 6
 STAT SP IPHASW D HRMM SECON CODA AMPLIT PERI AZIMU VELO AIN AR TRES W  DIS CAZ7
 BAR2 SZ EP       1836 31.80                             171    0.0410 22.0 202 
 BAR2 SZ ES   2   1836 46.21                             171   -0.58 5 22.0 202 
 BAR2 SZ I        1836 48.39         8.9 0.20                          22.0 202 
 BTL  SZ EP       1836 32.06                             171    0.2710 23.8 312 
 BTL  SZ ES   2   1836 47.03                             171    0.17 5 23.8 312 
 BRR  HZ EP       1836 33.14                             151   -0.4910 76.2 299 
 BRR  HN ES   2   1836 50.64                             151    0.51 5 76.2 299 
 BRR  HZ I        1836 51.86        12.2 0.44                          76.2 299 
 GRA  SZ EP       1836 37.57                             136   -0.0210  127  15 
 GRA  SZ ES   2   1836 57.26                             136    0.07 5  127  15 
 GRA  SZ I        1836 59.88         7.3 0.30                           127  15 
 CHI  HZ EP       1836 50.13                             117    0.26 8  247 196 
 CHI  HZ I        1837 22.55         3.7 0.66                           247 196 
                                                                                
