 2012  2 3 1046 36.9 L   6.725 -73.182144.5  RSN  6 0.2 1.8LRSN                1
 GAP=175        0.53       3.7     3.6  4.3 -0.2681E-02  0.4276E+01  0.1463E-01E
 ACTION:UP  12-03-07 16:27 OP:epov STATUS:               ID:20120203104637 L   I
 2012-02-03-1040-00M.COL___188                                                 6
 STAT SP IPHASW D HRMM SECON CODA AMPLIT PERI AZIMU VELO SNR AR TRES W  DIS CAZ7
 BAR2 SZ EP       1046 56.35                             174    0.1210 14.7 180 
 BAR2 SZ ES       1047 11.01                             174   -0.3010 14.7 180 
 BAR2 SZ I        1047 12.57        13.9 0.14                          14.7 180 
 GIR2 SZ EP       1046 56.36                             164   -0.3010 39.1 358 
 BRR  HZ EP       1046 58.26                             152    0.2910 72.2 306 
 BRR  HZ I        1047  3.53        21.6 0.28                          72.2 306 
 BRR  HN ES   1   1047 14.62                             152    0.22 7 72.2 306 
 RUS  HZ EP   1   1047  0.08                             146    0.11 7 92.7 173 
 RUS  HZ I        1047  1.56         6.3 0.19                          92.7 173 
 RUS  HE ES   1   1047 18.19                             146    0.23 7 92.7 173 
 PTB  HZ EP       1047  3.25                             133   -0.03 9  142 262 
 PTB  HN ES   1   1047 23.76                             133   -0.09 7  142 262 
 NOR  SZ EP   1   1047 11.47                             119   -0.22 6  227 236 
 NOR  SE ES   1   1047 38.86                             119    0.03 6  227 236 
                                                                                
