 2017 11 3 1544 60.0 L   6.299 -73.724 99.7  RSN 10 0.4 1.3LRSN                1
 GAP= 88        0.88       3.0     2.6  5.8 -0.1193E+01  0.2197E+01 -0.8430E+00E
 Epicentro: SANTA HELENA DEL OPON - SANTANDER                                  3
 ACTION:UPD 17-12-12 19:51 OP:rebc STATUS:               ID:20171103154460 L   I
 OLDACT:REG 17-11-03 20:42 OP:mg   STATUS:               ID:20171103153743     3
 2017-11-03-1538-00M.COL___441                                                 6
 STAT SP IPHASW D HRMM SECON CODA AMPLIT PERI AZIMU VELO AIN AR TRES W  DIS CAZ7
 BAR2 EZ EP       1545 16.56                             143    0.0410 68.1  62 
 BAR2 EZ ES       1545 30.09                             143    0.6810 68.1  62 
 BAR2 EZ I        1545 31.27        14.2 0.16            148           68.1  62 
 SPBC HZ EP       1545 17.04                             138   -0.3010 81.3 208 
 SPBC HE ES       1545 30.84                             138   -0.0310 81.3 208 
 SPBC HZ I        1545 35.98         8.0 0.20            139           81.3 208 
 RUS  HZ EP       1545 17.61                             138   -0.5110 83.9 122 
 RUS  HN ES       1545 32.22                             138   -0.0310 83.9 122 
 RUS  HZ I        1545 32.80         2.8 0.18            142           83.9 122 
 PTB  HZ ES       1545 30.66                             137   -0.6310 85.3 288 
 PTB  HN ES   4   1545 30.87                             137   -0.42 0 85.3 288 
 PTB  HZ I        1545 33.99         2.3 0.11            137           85.3 288 
 NOR  HZ EP   1   1545 24.44                             120    0.40 7  151 237 
 NOR  HN ES   1   1545 43.47                             120    0.67 7  151 237 
 NOR  HZ I        1545 46.47         4.6 0.14            120            151 237 
 PAM  EZ EP   2   1545 25.86                             118    0.10 5  161  44 
 PAM  EN ES       1545 45.89                             118    0.03 9  161  44 
 PAM  EZ I        1545 46.42         3.1 0.16            121            161  44 
 YPLC HZ EP       1545 26.96                             115   -0.24 9  179 124 
 ZAR  HZ EP       1545 27.49                             115    0.06 9  182 317 
 ZAR  HN ES   1   1545 48.78                             115   -0.05 7  182 317 
 ZAR  HZ I        1545 53.62         5.8 0.24            115            182 317 
 CHI  HZ EP   3   1545 28.36                             114    0.12 2  185 180 
 CHI  HN ES   2   1545 50.19                             114   -0.08 4  185 180 
 CHI  HZ I        1545 53.81         1.4 0.34            116            185 180 
 GUY2CHZ EP       1545 32.49                             111    0.46 8  217 237 
 GUY2CHN ES   3   1545 58.80                             111    1.78 2  217 237 
 GUY2CHZ I        1546  3.28         1.5 0.24                           217 237 
                                                                                
