 2010  4 3 1204 45.5 L   6.866 -72.953147.6  RSN  5 0.3 1.9LRSN                1
 GAP=272        0.55       5.6     9.0  7.2 -0.2359E+01  0.5509E+01  0.2015E+02E
 Epicentro: CEPITA - SANTANDER                                                 3
 ACTION:UPD 10-08-24 09:57 OP:vdl  STATUS:               ID:20100403120445 L   I
 2010-04-03-1201-51S.COL___098                                                 6
 STAT SP IPHASW D HRMM SECON CODA AMPLIT PERI AZIMU VELO AIN AR TRES W  DIS CAZ7
 BAR2 SZ IP       12 5  5.90                             164     0.110   40 220 
 BAR2 SZ ES   2   12 5 21.44                             164    -0.2 5   40 220 
 BRR  HZ IP       12 5  7.84                             148     0.010   88 288 
 BRR  HE ES   2   12 5 25.29                             148     0.0 5   88 288 
 BRR  HZ I        12 5 29.25        18.0 0.12                            88 288 
 CHI  HZ EP   1   12 5 25.02                             116     0.3 6  262 199 
 CHI  HE ES   2   12 5 55.44                             116     0.1 4  262 199 
 RREF BZ EP   1   12 5 34.56                             110     0.4 5  343 231 
 RREF BN ES   2   12 6 12.03                             110     0.0 3  343 231 
 RREF BZ I        12 6 19.25         2.4 0.24                           343 231 
 PRA  HZ EP       12 5 40.32                             106    -0.8 6  409 212 
 PRA  HN ES   2   12 6 24.70                             106     0.3 3  409 212 
 PRA  HZ I        12 6 28.93         1.8 0.20                           409 212 
                                                                                
