 2013  2 3 1023 19.5 L   6.801 -73.161145.5  RSN 13 0.6 2.3LRSN 2.8WRSN        1
 SPEC AVERAGE  MO 13.3 ST  4.4 OM  2.1 f0 4.59 R0.3377 AL 2.46 WI 22.9 MW  2.8 3
 SPEC SD       MO  0.2 ST  4.5 OM  0.7 f0 1.02 R0.0800 AL      WI      MW  0.1 3
 GAP= 70        1.29       4.4     4.0  6.5  0.2248E+01  0.5449E+01 -0.4357E+00E
 Epicentro: LOS SANTOS - SANTANDER                                             3
 SPEC ZAR HH N MO 13.6 ST 13.1 OM  1.8 f0 6.24 R0.2356 AL 2.95 WI 29.3 MW  3.0 3
 SPEC ZAR HH N T102416 K 0.000 GD  248 VS 4.20 DE 3.20 Q0300.0 QA 0.60 VS 4.20 3
 SPEC PAM SH Z MO 13.3 ST  2.7 OM  0.9 f0 4.68 R0.3141 AL 2.12 WI 16.6 MW  2.8 3
 SPEC PAM SH Z T102341 K 0.000 GD  165 VP 7.60 DE 3.20 Q0300.0 QA 0.60 VS 4.20 3
 SPEC HEL HH N MO 13.1 ST0.484 OM  1.2 f0 3.07 R0.4788 AL 1.50 WI 31.4 MW  2.7 3
 SPEC HEL HH N T102430 K 0.000 GD  306 VS 4.20 DE 3.20 Q0300.0 QA 0.60 VS 4.20 3
 SPEC BRR HH N MO 13.4 ST  3.8 OM  1.8 f0 4.77 R0.3082 AL 3.20 WI 21.3 MW  2.9 3
 SPEC BRR HH N T102357 K 0.000 GD  161 VS 4.20 DE 3.20 Q0300.0 QA 0.60 VS 4.20 3
 SPEC BAR2SH Z MO 13.3 ST  1.9 OM  1.7 f0 4.18 R0.3517 AL 2.55 WI 15.9 MW  2.8 3
 SPEC BAR2SH Z T102353 K 0.000 GD  147 VS 4.20 DE 3.20 Q0300.0 QA 0.60 VS 4.20 3
 ACTION:UPD 13-03-12 09:30 OP:ep   STATUS:               ID:20130203102319 L   I
 2013-02-03-1018-35M.COL___166                                                 6
 STAT SP IPHASW D HRMM SECON CODA AMPLIT PERI AZIMU VELO AIN AR TRES W  DIS CAZ7
 BAR2 SZ IP       1023 39.24                             171    0.1010 23.2 186 
 BAR2 SZ ES       1023 53.99                             171   -0.4310 23.2 186 
 BAR2 SZ I        1023 55.05        46.6 0.28            173           23.2 186 
 BRR  HZ IP     D 1023 41.07                             153    0.4910 69.6 299 
 BRR  HZ I        1023 41.33        19.5 0.26            146           69.6 299 
 BRR  HN ES       1023 58.20                             153    1.2210 69.6 299 
 PAM  SZ IP       1023 42.13                             150    0.3310 78.4  41 
 PAM  SZ I        1023 42.34        25.5 0.24            145           78.4  41 
 PAM  SN ES       1023 59.13                             150   -0.0210 78.4  41 
 RUS  HZ EP       1023 43.17                             144   -0.1110  101 175 
 RUS  HN ES       1024  1.30                             144   -0.5010  101 175 
 RUS  HE I        1024  2.66        24.8 0.46            143            101 175 
 PTB  HZ EP       1023 45.93                             132   -0.41 9  146 259 
 PTB  HE ES       1024  6.64                             132   -0.59 9  146 259 
 PTB  HN I        1024 12.52        19.5 0.46            127            146 259 
 TAM  HZ EP       1023 47.43                             130    0.07 9  157 105 
 TAM  HN ES       1024  8.93                             130   -0.12 9  157 105 
 OCA  HN ES   1   1024  9.33                             130   -0.52 7  160 354 
 OCA  HE I        1024 13.75        58.1 0.22            123            160 354 
 ZAR  HZ EP       1023 52.07                             123    0.26 9  202 292 
 ZAR  HN ES       1024 16.89                             123   -0.08 9  202 292 
 ZAR  HE I        1024 23.95        47.0 0.24            117            202 292 
 SML  HZ EP       1023 56.05                             117   -0.02 8  243 336 
 SML  HN I        1024 28.50        26.1 0.10            112            243 336 
 CHI  HZ EP       1023 57.37                             117    0.18 8  248 195 
 CHI  HN ES   1   1024 26.54                             117   -0.01 6  248 195 
 CHI  HE I        1024 30.95         9.1 0.30            114            248 195 
 HEL  HZ EP   1   1024  1.33                             115    1.77 6  270 256 
 HEL  HN ES   1   1024 30.95                             115    0.18 6  270 256 
 URE  HZ EP       1023 59.82                             114   -0.60 7  282 292 
 SJC  HN EP       1024 13.52                             106   -1.46 6  408 327 
                                                                                
