 2017  1 3 1758 48.1 L   5.749 -73.870117.9  RSN  6 0.3 1.7LRSN                1
 GAP=171        0.71       3.3     3.2  8.6 -0.3090E+01  0.1502E+02 -0.2506E+01E
 Epicentro: ALBANIA - SANTANDER                                                3
 ACTION:UPD 17-05-22 15:55 OP:jn   STATUS:               ID:20170103175848 L   I
 OLDACT:DUP 17-01-03 23:32 OP:dnl  STATUS:               ID:20170103174747d    3
 2017-01-03-1748-00M.COL___369                                                 6
 STAT SP IPHASW D HRMM SECON CODA AMPLIT PERI AZIMU VELO AIN AR TRES W  DIS CAZ7
 RUS  HZ EP     D 1759  8.34                             141    0.0710 88.5  80 
 RUS  HN ES       1759 23.59                             141   -0.4110 88.5  80 
 RUS  HZ I        1759 24.95         3.2 0.32            145           88.5  80 
 PTB  HZ EP   4   1759  8.11                             134   -1.18 0  109 323 
 PTB  HE ES   4   1759 23.74                             134   -2.07 0  109 323 
 PTB  HZ I        1759 28.65         6.3 0.76            133            109 323 
 BAR2 EZ EP       1759 10.41                             131   -0.2110  120  39 
 BAR2 EZ ES       1759 28.39                             131    0.2210  120  39 
 BAR2 EZ I        1759 29.94        31.3 0.46            132            120  39 
 BRR  HZ EP       1759 13.60                             124    0.31 9  151   7 
 BRR  HN ES       1759 33.24                             124    0.32 9  151   7 
 BRR  HZ I        1759 39.92        10.6 0.34            124            151   7 
 GUY2CHZ EP       1759 16.48                             120    0.04 9  176 251 
 GUY2CHE ES       1759 38.72                             120    0.19 9  176 251 
 GUY2CHZ  IAML    1759 43.83         4.3 0.34                           176 251 
 ZAR  HZ EP   2   1759 20.32                             113   -0.54 4  222 330 
 ZAR  HN ES       1759 45.94                             113   -0.46 8  222 330 
 ZAR  HZ I        1759 53.70         5.4 0.28            114            222 330 
                                                                                
