 2013  1 3 1140 42.0 L   7.275 -73.285123.8  RSN  4 0.3 1.6LRSN                1
 GAP=253        0.69       9.0     5.7  8.1  0.2681E+02 -0.2604E+01 -0.2620E+02E
 Epicentro: RIONEGRO - SANTANDER                                               3
 ACTION:UPD 13-02-15 09:11 OP:ep   STATUS:               ID:20130103114042 L   I
 2013-01-03-1140-00M.COL___242                                                 6
 STAT SP IPHASW D HRMM SECON CODA AMPLIT PERI AZIMU VELO AIN AR TRES W  DIS CAZ7
 BRR  HZ EP     C 1140 59.29                             156   -0.3910 50.7 249 
 BRR  HN ES   1   1141 13.24                             156   -0.21 7 50.7 249 
 BRR  HZ I        1141 13.72         9.7 0.10            151           50.7 249 
 BAR2 SZ EP       1141  1.76                             146    0.2310 76.3 171 
 BAR2 SZ ES   1   1141 17.05                             146    0.31 7 76.3 171 
 BAR2 SZ I        1141 18.33        19.5 0.38            144           76.3 171 
 PTB  HZ EP   1   1141  7.44                             125   -0.37 7  153 238 
 PTB  HN ES   1   1141 27.78                             125   -0.14 7  153 238 
 PTB  HZ I        1141 30.52         2.5 0.10            123            153 238 
 ZAR  HZ EP   1   1141 10.44                             121    0.35 7  175 278 
 ZAR  HN ES   1   1141 32.42                             121    0.45 7  175 278 
 ZAR  HZ I        1141 35.88         4.2 0.26            120            175 278 
                                                                                
