 2016  2 3 1653 29.9 L   6.774 -73.183143.5  RSN  4 0.2 1.3LRSN                1
 GAP=141        0.68       4.1     4.0  5.7 -0.5005E+01  0.6085E+01 -0.2401E+01E
 Epicentro: LOS SANTOS - SANTANDER                                             3
 ACTION:UPD 16-03-04 21:23 OP:rebc STATUS:               ID:20160203165329 L   I
 OLDACT:REG 16-02-03 21:51 OP:cara STATUS:               ID:20160203164748     3
 2016-02-03-1647-48M.COL___298                                                 6
 STAT SP IPHASW D HRMM SECON CODA AMPLIT PERI AZIMU VELO AIN AR TRES W  DIS CAZ7
 BAR2 EZ IP       1653 49.37                             172    0.1510 20.1 180 
 BAR2 EZ ES       1654  4.02                             172   -0.2510 20.1 180 
 BAR2 EZ I        1654  5.43         6.5 0.14            170           20.1 180 
 PAM  EZ EP       1653 52.47                             149    0.2710 82.3  40 
 PAM  EN ES       1654  9.50                             149   -0.0710 82.3  40 
 PAM  EZ I        1654 10.94         4.7 0.76            152           82.3  40 
 RUS  HZ EP       1653 52.83                             144   -0.4410 98.0 174 
 RUS  HN ES       1654 11.81                             144    0.3310 98.0 174 
 RUS  HZ I        1654 15.40         1.9 0.36            145           98.0 174 
 PTB  HZ EP       1653 56.22                             132   -0.07 9  143 260 
 PTB  HN ES       1654 16.95                             132    0.09 9  143 260 
 PTB  HZ I        1654 19.50         2.2 0.12            134            143 260 
                                                                                
