 2012  6 3 1605 56.5 L   6.733 -73.178142.7  RSN  4 0.2 1.3LRSN                1
 GAP=137        0.43       3.1     3.2  4.1 -0.4495E+01  0.3525E+01 -0.1846E+01E
 Epicentro: VILLANUEVA - SANTANDER                                             3
 ACTION:UPD 12-08-06 17:47 OP:ep   STATUS:               ID:20120603160556 L   I
 2012-06-03-1600-00M.COL___200                                                 6
 STAT SP IPHASW D HRMM SECON CODA AMPLIT PERI AZIMU VELO AIN AR TRES W  DIS CAZ7
 BAR2 SZ ES       16 6 30.71                             173    0.1910 15.6 182 
 BAR2 SZ I        16 6 31.75         6.3 0.22            172           15.6 182 
 PAM  SZ EP       16 6 18.91                             148    0.0410 85.4  38 
 PAM  SN ES       16 6 36.22                             148   -0.1110 85.4  38 
 RUS  HZ EP   1   16 6 19.61                             145    0.19 7 93.5 174 
 RUS  HN ES   1   16 6 37.04                             145   -0.28 7 93.5 174 
 RUS  HZ I        16 6 39.16         3.2 0.31            145           93.5 174 
 PTB  HZ EP   1   16 6 22.67                             132   -0.09 7  143 261 
 PTB  HN ES   1   16 6 43.20                             132   -0.05 7  143 261 
 PTB  HZ I        16 6 44.30         2.2 0.11            133            143 261 
                                                                                
