 2016  7 3 1107 45.9 L   6.811 -73.082140.2  RSN  7 0.4 1.6LRSN                1
 GAP=245        0.85       5.3     5.9  6.0  0.1535E+02  0.1576E+02  0.7572E+01E
 Epicentro: LOS SANTOS - SANTANDER                                             3
 ACTION:UPD 17-03-29 16:46 OP:lp   STATUS:               ID:20160703110745 L   I
 OLDACT:REG 16-07-03 22:22 OP:ak   STATUS:               ID:20160703105740     3
 2016-07-03-1057-40M.COL___325                                                 6
 STAT SP IPHASW D HRMM SECON CODA AMPLIT PERI AZIMU VELO AIN AR TRES W  DIS CAZ7
 BAR2 EZ EP       11 8  5.05                             169    0.1110 26.7 205 
 BAR2 EZ ES       11 8 20.06                             169    0.2710 26.7 205 
 BAR2 EZ I        11 8 20.98         9.2 0.14            164           26.7 205 
 BRR  HZ IP     C 11 8  7.13                             149    0.3410 76.9 295 
 BRR  HN ES       11 8 22.96                             149   -0.1310 76.9 295 
 BRR  HZ I        11 8 28.74         7.8 0.18            146           76.9 295 
 RUS  HZ EP       11 8  8.86                             142   -0.3210  102 180 
 RUS  HN ES       11 8 27.14                             142   -0.2110  102 180 
 RUS  HZ I        11 8 28.74         5.1 0.32            144            102 180 
 PTB  HZ EP   1   11 8 12.40                             129   -0.69 7  155 259 
 PTB  HN ES   4   11 8 32.21                             129   -2.09 0  155 259 
 PTB  HZ I        11 8 37.46         5.1 0.18            128            155 259 
 ZAR  HZ EP   2   11 8 18.00                             120   -0.63 4  210 291 
 ZAR  HN ES       11 8 43.92                             120   -0.24 8  210 291 
 ZAR  HZ I        11 8 50.05         4.9 0.37            121            210 291 
 HEL  HZ EP       11 8 27.47                             113    0.83 7  279 256 
 HEL  HN ES   2   11 8 57.65                             113   -0.76 4  279 256 
 HEL  HZ I        11 9  4.89         2.8 0.38            114            279 256 
 GUY2CHZ EP       11 8 29.96                             111   -0.04 7  308 235 
 GUY2CHE ES       11 9  4.82                             111    0.43 7  308 235 
 GUY2CHZ I        11 9 12.83         1.6 0.68                           308 235 
                                                                                
