 2011  7 3 1413 47.9 L   6.767 -73.104146.8  RSN  9 0.3 1.8LRSN                1
 GAP=164        0.64       3.4     5.4  4.8 -0.7540E+01  0.7803E+00  0.1485E+01E
 Epicentro: LOS SANTOS - SANTANDER                                             3
 ACTION:UPD 12-07-25 13:58 OP:epov STATUS:               ID:20110703141347 L   I
 2011-07-03-1411-40S.COL___140                                                 6
 STAT SP IPHASW D HRMM SECON CODA AMPLIT PERI AZIMU VELO AIN AR TRES W  DIS CAZ7
 BAR2 SZ EP       1414  7.55                             171   -0.0210 21.2 204 
 BAR2 SZ I        1414  7.72        11.3 0.42                          21.2 204 
 BAR2 SZ ES   2   1414 22.91                             171   -0.03 5 21.2 204 
 BTL  SZ EP       1414  7.82                             170    0.1810 24.7 313 
 BTL  SZ ES   1   1414 22.57                             170   -0.50 7 24.7 313 
 GIR2 SZ EP       1414  8.02                             165    0.2410 35.9 344 
 BRR  HZ EP       1414  9.51                             150    0.0610 77.0 299 
 BRR  HN ES   1   1414 26.86                             150    0.57 7 77.0 299 
 BRR  HZ I        1414 28.68        12.9 0.20                          77.0 299 
 RUS  HZ EP       1414 11.56                             145    0.1310 96.7 179 
 RUS  HN ES   2   1414 29.68                             145   -0.14 5 96.7 179 
 GRA  SZ EP       1414 13.35                             137   -0.0310  128  15 
 GRA  SZ ES   1   1414 32.58                             137   -0.70 7  128  15 
 GRA  SZ I        1414 34.14         6.5 0.30                           128  15 
 OCA  SZ EP       1414 16.70                             129    0.05 9  165 352 
 OCA  SZ I        1414 49.39         7.0 0.30                           165 352 
 NOR  SZ EP       1414 23.69                             118   -0.13 8  236 236 
 NOR  SN ES   2   1414 51.33                             118   -0.55 4  236 236 
 RREF HZ EP   2   1414 33.38                             111   -0.79 3  323 230 
 RREF HN ES   2   1415 10.60                             111    0.30 3  323 230 
 RREF HZ I        1415 19.76         3.1 0.54                           323 230 
                                                                                
