 2017  3 3 1202 22.0 L   6.876 -73.234139.3  RSN  6 0.3 1.6LRSN                1
 GAP=239        0.82       5.0     5.1  6.3  0.1303E+02  0.1067E+02  0.9805E+01E
 Epicentro: BETULIA - SANTANDER                                                3
 ACTION:UPD 17-05-25 18:35 OP:jn   STATUS:               ID:20170303120222 L   I
 OLDACT:REG 17-03-03 20:32 OP:lv   STATUS:               ID:20170303115744     3
 2017-03-03-1158-00M.COL___387                                                 6
 STAT SP IPHASW D HRMM SECON CODA AMPLIT PERI AZIMU VELO AIN AR TRES W  DIS CAZ7
 BAR2 EZ EP       12 2 41.48                             166    0.3910 31.9 170 
 BAR2 EZ ES       12 2 55.98                             166    0.0210 31.9 170 
 BAR2 EZ I        12 2 59.34        10.3 0.30            166           31.9 170 
 BRR  HZ EP   4   12 2 43.36                             156    1.56 0 58.7 296 
 BRR  HN ES   4   12 2 58.90                             156    1.68 0 58.7 296 
 RUS  HZ EP       12 2 45.98                             140    0.1110  110 171 
 RUS  HN ES       12 3  3.95                             140   -0.5210  110 171 
 RUS  HZ I        12 3  5.31         4.7 0.33            141            110 171 
 PTB  HZ EP       12 2 47.76                             132   -0.02 9  140 255 
 PTB  HN ES       12 3  8.37                             132    0.51 9  140 255 
 PTB  HZ I        12 3 10.27         3.0 0.08            131            140 255 
 ZAR  HE ES       12 3 16.25                             123   -0.55 9  192 291 
 ZAR  HZ I        12 3 23.60         4.6 0.10            123            192 291 
 CHI  HZ EP       12 2 59.75                             115   -0.27 8  254 193 
 CHI  HN ES       12 3 29.94                             115    0.30 8  254 193 
 CHI  HZ I        12 3 33.19         1.3 0.36            116            254 193 
 PRA  HZ EP       12 3 15.77                             105    0.12 6  395 208 
 PRA  HN ES       12 3 57.20                             105   -0.27 6  395 208 
 PRA  HZ I        12 4  3.95         2.6 0.31            106            395 208 
                                                                                
