 2014  2 3 1946 48.2 L   6.787 -73.128154.9  RSN  6 0.4 1.9LRSN                1
 GAP=139        0.78       5.0     5.5  9.3 -0.3161E+01  0.4129E+00 -0.9309E+01E
 Epicentro: LOS SANTOS - SANTANDER                                             3
 ACTION:UPD 14-03-10 08:07 OP:ep   STATUS:               ID:20140203194648 L   I
 OLDACT:UP  14-02-03 20:36 OP:mh   STATUS:               ID:20140203194000     3
 OLDACT:UP  14-02-03 20:35 OP:mh   STATUS:               ID:20140203194000     3
 OLDACT:REG 14-02-03 16:39 OP:mh   STATUS:               ID:20140203194000     3
 2014-02-03-1940-00M.COL___288                                                 6
 STAT SP IPHASW D HRMM SECON CODA AMPLIT PERI AZIMU VELO AIN AR TRES W  DIS CAZ7
 BRR  HZ EP   1   1947 10.90                             153    0.41 7 73.6 299 
 BRR  HN ES   2   1947 27.72                             153   -0.15 5 73.6 299 
 BRR  HZ I        1947 32.58         9.7 0.26            153           73.6 299 
 PAM  SZ EP       1947 11.97                             152    0.5710 77.3  38 
 PAM  SN ES   2   1947 28.84                             152   -0.65 5 77.3  38 
 PAM  SZ I        1947 30.96        20.9 0.48            156           77.3  38 
 RUS  HZ EP       1947 12.54                             146   -0.2310 99.0 177 
 RUS  HN ES   2   1947 31.88                             146   -0.04 5 99.0 177 
 RUS  HZ I        1947 33.66         6.1 0.31            150           99.0 177 
 PTB  HZ EP   1   1947 15.93                             134   -0.16 7  149 260 
 PTB  HN ES   1   1947 37.62                             134   -0.21 7  149 260 
 PTB  HZ I        1947 39.55         9.0 0.16            135            149 260 
 NOR  HN ES   2   1947 53.40                             120    0.47 4  235 235 
 NOR  HZ I        1947 57.43         3.7 0.17            123            235 235 
 SML  HZ EP       1947 25.05                             119   -0.55 8  246 335 
 SML  HN ES   2   1947 55.34                             119    0.58 4  246 335 
 SML  HZ I        1947 57.15        10.1 0.12            122            246 335 
                                                                                
