 2013  8 3 1400 35.3 L   6.732 -73.155148.1  RSN  4 0.2 1.4LRSN                1
 GAP=198        0.51       7.4     3.9  5.4 -0.3833E+01 -0.1628E+01  0.1100E+02E
 Epicentro: VILLANUEVA - SANTANDER                                             3
 ACTION:UPD 14-01-14 08:58 OP:ep   STATUS:               ID:20130803140035 L   I
 OLDACT:REG 13-08-03 14:59 OP:cam  STATUS:               ID:20130803135959     3
 2013-08-03-1359-59M.COL___269                                                 6
 STAT SP IPHASW D HRMM SECON CODA AMPLIT PERI AZIMU VELO AIN AR TRES W  DIS CAZ7
 BAR2 SZ EP       14 0 55.41                             174    0.3010 15.8 191 
 BAR2 SZ ES   1   14 1 10.37                             174   -0.17 7 15.8 191 
 BAR2 SZ I        14 1 11.75         6.2 0.33            166           15.8 191 
 GIR2 SZ EP       14 0 55.27                             165   -0.2210 38.6 354 
 BRR  HN ES       14 1 13.83                             152    0.1110 74.2 304 
 PTB  HZ EP       14 1  2.21                             133   -0.07 9  146 262 
 PTB  HN ES       14 1 23.28                             133   -0.03 9  146 262 
 PTB  HZ I        14 1 28.40         3.2 0.32            131            146 262 
                                                                                
