 2012  1 3 1438 23.6 L   6.822 -73.333122.8  RSN  4 0.3 1.9LRSN                1
 GAP=109        0.76       8.2     5.1  7.6 -0.6334E+01  0.1020E+02 -0.8313E+01E
 Epicentro: ZAPATOCA - SANTANDER                                               3
 ACTION:UP  12-02-03 08:13 OP:REBC STATUS:               ID:20120103143823 L   I
 2012-01-03-1430-00M.COL___184                                                 6
 STAT SP IPHASW D HRMM SECON CODA AMPLIT PERI AZIMU VELO SNR AR TRES W  DIS CAZ7
 BAR2 SZ EP       1438 41.01                             165     0.310   30 147 
 BAR2 SZ ES       1438 53.85                             165    -0.110   30 147 
 BAR2 SZ I        1438 55.42        23.0 0.26                            30 147 
 BRR  HZ EP       1438 41.50                             155     0.310   52 307 
 BRR  HE ES   1   1438 55.12                             155     0.1 7   52 307 
 BRR  HE I        1438 56.00        18.9 0.18                            52 307 
 PAM  SZ EP   2   1438 44.34                             141     0.0 5   90  51 
 PAM  SN ES   2   1438 59.96                             141    -0.6 5   90  51 
 PTB  HZ EP   1   1438 46.32                             130    -0.6 7  128 256 
 PTB  HN ES   1   1439  5.10                             130     0.0 7  128 256 
                                                                                
