 2010  8 3 1256 25.5 L   6.780 -73.094152.9  RSN  5 0.3 1.6LRSN                1
 GAP=165        0.60       4.6    10.2  8.5 -0.3967E+01 -0.2609E+02 -0.7559E+01E
 Epicentro: LOS SANTOS - SANTANDER                                             3
 ACTION:UP  10-09-07 10:51 OP:vdl  STATUS:               ID:20100803125625 L   I
 2010-08-03-1253-58S.COL___126                                                 6
 STAT SP IPHASW D HRMM SECON CODA AMPLIT PERI AZIMU VELO SNR AR TRES W  DIS CAZ7
 BAR2 SZ EP   1   1256 45.97                             171     0.0 7   23 206 
 BAR2 SZ ES   2   1257  1.42                             171    -0.6 5   23 206 
 BAR2 SZ I        1257  2.65        16.3 0.22                            23 206 
 BRR  HZ EP   1   1256 48.00                             152     0.2 7   77 298 
 BRR  HE ES   2   1257  5.17                             152     0.0 5   77 298 
 RUS  HZ EP   1   1256 49.91                             146     0.1 7   98 179 
 RUS  HZ I        1256 51.03         2.8 0.25                            98 179 
 RUS  HE ES   2   1257  9.00                             146     0.2 5   98 179 
 GUE  SZ EP   1   1256 50.55                             141    -0.4 7  118   9 
 GRA  SZ EP   1   1256 51.54                             138     0.1 7  126  15 
 GRA  SZ ES   2   1257 12.23                             138     0.6 5  126  15 
 GRA  SZ I        1257 14.63         4.9 0.24                           126  15 
                                                                                
