 2016  1 3 1649 34.6 L   6.825 -73.177142.1  RSN  4 0.2 1.4LRSN                1
 GAP=242        0.36       7.4     5.5  7.0  0.2700E+02  0.3813E+01 -0.8827E+01E
 Epicentro: ZAPATOCA - SANTANDER                                               3
 ACTION:UPD 16-03-09 23:22 OP:cam  STATUS:               ID:20160103164934 L   I
 OLDACT:REG 16-01-03 20:31 OP:dnl  STATUS:               ID:20160103164748     3
 2016-01-03-1647-48M.COL___317                                                 6
 STAT SP IPHASW D HRMM SECON CODA AMPLIT PERI AZIMU VELO AIN AR TRES W  DIS CAZ7
 BAR2 EZ EP   2   1649 53.86                             169    0.03 5 25.7 181 
 BAR2 EZ ES   2   1650  8.99                             169    0.15 5 25.7 181 
 BAR2 EZ I        1650 11.00         4.0 0.19            163           25.7 181 
 RUS  HZ EP   2   1649 58.30                             142    0.09 5  104 174 
 RUS  HE ES   2   1650 16.33                             142   -0.30 5  104 174 
 RUS  HZ I        1650 17.56         2.2 0.24            145            104 174 
 PTB  HZ EP   2   1650  1.08                             132    0.08 5  145 258 
 PTB  HE ES   2   1650 21.83                             132    0.23 5  145 258 
 PTB  HZ I        1650 29.64         3.5 0.20            129            145 258 
 ZAR  HE ES   2   1650 30.81                             122   -0.33 4  200 292 
 ZAR  HZ I        1650 38.25         5.9 0.31            122            200 292 
                                                                                
