 2011  9 3 1346 55.1 L   6.068 -73.702114.0  RSN  9 0.3 2.0LRSN                1
 GAP= 75        0.70       3.0     3.7  7.3 -0.1183E+01  0.1323E+02  0.4691E+01E
 Epicentro: BOLIVAR - SANTANDER                                                3
 ACTION:UPD 12-07-13 15:55 OP:ep   STATUS:               ID:20110903134655 L   I
 2011-09-03-1345-40S.COL___171                                                 6
 STAT SP IPHASW D HRMM SECON CODA AMPLIT PERI AZIMU VELO AIN AR TRES W  DIS CAZ7
 RUS  HZ EP   1   1347 13.51                             146   -0.14 7 71.2 106 
 RUS  HN ES   1   1347 27.99                             146   -0.11 7 71.2 106 
 RUS  HZ I        1347 33.32        13.6 0.47                          71.2 106 
 BAR2 SZ EP       1347 14.36                             142    0.3210 81.7  45 
 BAR2 SZ ES   1   1347 28.34                             142   -0.46 7 81.7  45 
 BAR2 SZ I        1347 30.96        58.4 0.39                          81.7  45 
 BRR  HZ EP   1   1347 16.59                             131    0.08 7  115 359 
 BRR  HN ES   1   1347 32.78                             131   -0.41 7  115 359 
 BRR  HZ I        1347 40.45        18.9 0.34                           115 359 
 GIR2 SZ EP   1   1347 18.03                             129    0.37 7  125  27 
 GIR2 SZ ES   1   1347 35.83                             129    0.60 7  125  27 
 NOR  SZ EP   1   1347 19.02                             125   -0.04 7  141 247 
 NOR  SE ES   1   1347 38.18                             125    0.45 7  141 247 
 CHI  HZ EP   1   1347 20.95                             122   -0.45 7  159 181 
 CHI  HZ I        1347 47.65         7.2 0.28                           159 181 
 ZAR  HZ EP   1   1347 24.98                             114   -0.61 6  203 321 
 ZAR  HN ES   1   1347 49.25                             114   -0.10 6  203 321 
 ZAR  HZ I        1347 54.24        10.3 0.36                           203 321 
 RREF HZ EP   1   1347 28.71                             112    0.03 6  223 235 
 PRA  HZ EP   1   1347 35.90                             106    0.10 5  292 207 
                                                                                
