 2010  7 3 1117 52.4 L   6.791 -73.093141.8  RSN 11 0.4 2.0LRSN                1
 GAP=162        0.63       2.7     5.2  5.1 -0.4598E+01 -0.2756E+00 -0.6546E+00E
 Epicentro: LOS SANTOS - SANTANDER                                             3
 ACTION:UPD 10-12-01 15:14 OP:pat  STATUS:               ID:20100703111752 L   I
 2010-07-03-1114-54S.COL___118                                                 6
 STAT SP IPHASW D HRMM SECON CODA AMPLIT PERI AZIMU VELO AIN AR TRES W  DIS CAZ7
 BAR2 SZ IP       1118 11.56                             170     0.010   24 204 
 BAR2 SZ ES   1   1118 26.11                             170    -0.4 7   24 204 
 BRR  HZ IP     C 1118 13.36                             150    -0.110   77 297 
 BRR  HZ I        1118 13.61        43.5 0.17                            77 297 
 BRR  HN ES   1   1118 30.23                             150     0.4 7   77 297 
 RUS  HZ EP       1118 15.54                             143    -0.110   99 179 
 RUS  HN ES   1   1118 34.00                             143     0.2 7   99 179 
 RUS  HZ I        1118 35.81         8.4 0.25                            99 179 
 BRI  SZ EP       1118 15.98                             141     0.210  107  18 
 BRI  SZ ES   2   1118 34.01                             141    -0.1 5  107  18 
 BRI  SZ I        1118 36.35        12.4 0.24                           107  18 
 GRA  SZ EP       1118 17.24                             136     0.010  125  15 
 GRA  SZ ES   1   1118 36.84                             136     0.3 7  125  15 
 OCA  SZ EP   1   1118 20.44                             128    -0.1 7  162 351 
 OCA  SZ ES   2   1118 41.08                             128    -1.4 5  162 351 
 OCA  SZ I        1118 46.32         9.8 0.18                           162 351 
 CHI  HZ EP   3   1118 29.84                             116    -0.1 2  249 197 
 CHI  HE ES   3   1118 59.02                             116    -0.2 2  249 197 
 CHI  HZ I        1119  3.11         4.3 0.24                           249 197 
 HEL  HZ EP   3   1118 33.31                             113     0.3 2  277 256 
 HEL  HN ES   3   1119  5.81                             113     1.2 2  277 256 
 HEL  HZ I        1119 10.71         6.9 0.46                           277 256 
 GUY  HZ EP   3   1118 36.22                             111    -0.1 2  306 236 
 GUY  HN ES   2   1119 10.37                             111    -0.2 4  306 236 
 RREF HZ EP   3   1118 39.32                             110     0.5 2  326 230 
 RREF HN ES   3   1119 14.03                             110    -0.9 2  326 230 
 RREF HZ I        1119 23.28         4.2 0.19                           326 230 
 PRA  HZ EP   3   1118 46.01                             106     0.0 1  394 210 
 PRA  HE ES   2   1119 27.36                             106    -0.5 3  394 210 
 PRA  HZ I        1119 32.26         6.0 0.33                           394 210 
                                                                                
