 2016 10 3 1546 44.4 L   6.814 -73.146136.0  RSN  9 0.3 1.8LRSN                1
 GAP=136        0.86       3.3     3.6  5.9 -0.2052E+01  0.6225E+01  0.2767E+01E
 Epicentro: LOS SANTOS - SANTANDER                                             3
 ACTION:UPD 16-11-09 19:15 OP:rebc STATUS:               ID:20161003154644 L   I
 OLDACT:REG 16-10-03 21:01 OP:lv   STATUS:               ID:20161003153702     3
 2016-10-03-1538-00M.COL___369                                                 6
 STAT SP IPHASW D HRMM SECON CODA AMPLIT PERI AZIMU VELO AIN AR TRES W  DIS CAZ7
 BAR2 EZ EP       1547  2.98                             169    0.1210 24.9 189 
 BAR2 EZ ES       1547 16.90                             169   -0.3810 24.9 189 
 BAR2 EZ I        1547 19.64        14.1 0.17            169           24.9 189 
 PAM  EZ EP       1547  5.94                             149    0.4710 76.2  40 
 PAM  EE ES       1547 21.66                             149   -0.2810 76.2  40 
 PAM  EZ I        1547 25.16        17.3 0.52            152           76.2  40 
 RUS  HZ EP       1547  7.40                             141    0.1110  102 176 
 RUS  HE ES       1547 25.75                             141    0.5810  102 176 
 RUS  HZ I        1547 26.89         6.5 0.30            144            102 176 
 PTB  HZ EP       1547 10.12                             130   -0.46 9  148 258 
 PTB  HN ES       1547 30.81                             130   -0.22 9  148 258 
 PTB  HZ I        1547 33.43         3.8 0.18            129            148 258 
 SPBC HZ EP       1547 12.24                             126   -0.01 9  164 219 
 SPBC HN ES       1547 34.00                             126   -0.01 9  164 219 
 SPBC HZ I        1547 38.87         9.1 0.12            128            164 219 
 ZAR  HZ EP   4   1547 19.06                             120    2.93 0  203 292 
 ZAR  HN ES       1547 41.27                             120    0.37 9  203 292 
 ZAR  HZ I        1547 51.66         5.3 0.13            120            203 292 
 NOR  HE ES       1547 47.49                             116    0.32 8  236 234 
 NOR  HZ I        1547 51.67         3.5 0.16            117            236 234 
 CHI  HZ EP       1547 21.09                             115   -0.62 8  250 195 
 CHI  HN ES       1547 50.68                             115   -0.16 8  250 195 
 CHI  HZ I        1547 54.17         3.0 0.41            117            250 195 
 PRA  HZ EP   9   1547 37.22                             105   -0.51 0  393 209 
 PRA  HN ES       1548 18.51                                   -0.33 6  393 209 
 PRA  HZ I        1548 21.86         3.8 0.32            106            393 209 
                                                                                
