 2016  5 3 1034 45.9 L   6.775 -73.110142.0  RSN  7 0.3 1.4LRSN                1
 GAP=142        0.68       3.4     3.9  5.9 -0.3676E+01  0.1260E+02 -0.3287E+01E
 Epicentro: LOS SANTOS - SANTANDER                                             3
 ACTION:UPD 16-08-18 17:41 OP:cam  STATUS:               ID:20160503103445 L   I
 OLDACT:REG 16-05-03 21:02 OP:dani STATUS:               ID:20160503102745     3
 2016-05-03-1027-45M.COL___300                                                 6
 STAT SP IPHASW D HRMM SECON CODA AMPLIT PERI AZIMU VELO AIN AR TRES W  DIS CAZ7
 BAR2 EZ EP       1035  5.09                             171    0.0610 21.7 202 
 BAR2 EZ ES       1035 19.85                             171   -0.1110 21.7 202 
 BAR2 EZ I        1035 21.21         8.8 0.16            170           21.7 202 
 PAM  EZ EP       1035  8.01                             150    0.3210 77.1  36 
 PAM  EN ES       1035 24.55                             150   -0.1410 77.1  36 
 PAM  EZ I        1035 26.63         2.5 0.28            153           77.1  36 
 RUS  HZ EP   2   1035  9.59                             144    0.54 5 97.6 178 
 RUS  HN ES       1035 27.15                             144    0.0310 97.6 178 
 RUS  HZ I        1035 28.03         1.9 0.34            147           97.6 178 
 PTB  HZ EP       1035 12.27                             130   -0.59 9  151 260 
 PTB  HN ES   4   1035 32.37                             130   -1.54 0  151 260 
 PTB  HZ I        1035 35.72         3.4 0.14            131            151 260 
 SPBC HZ EP   2   1035 14.01                             128   -0.13 5  164 221 
 SPBC HN ES   2   1035 35.80                             128   -0.37 5  164 221 
 SPBC HZ I        1035 41.10         2.8 0.08            129            164 221 
 ZAR  HZ EP   2   1035 18.55                             121   -0.03 4  209 292 
 ZAR  HN ES       1035 44.31                             121    0.22 8  209 292 
 ZAR  HZ I        1035 50.07         3.8 0.38            122            209 292 
 NOR  HZ EP   2   1035 20.90                             117   -0.68 4  236 236 
 NOR  HN ES       1035 49.85                             117    0.43 8  236 236 
 NOR  HZ I        1035 51.14         2.9 0.16            119            236 236 
                                                                                
