 2014  2 3 1327 26.1 L   6.555 -73.532112.8  RSN 10 0.4 2.2LRSN                1
 GAP= 65        0.94       3.3     3.7  6.3 -0.6762E+00  0.5612E+01 -0.1519E+01E
 Epicentro: EL CARMEN DE CHUCURI - SANTANDER                                   3
 ACTION:UPD 14-03-10 08:07 OP:ep   STATUS:               ID:20140203132726 L   I
 OLDACT:UP  14-02-03 19:36 OP:mh   STATUS:               ID:20140203132646     3
 OLDACT:UP  14-02-03 19:36 OP:mh   STATUS:               ID:20140203132646     3
 OLDACT:REG 14-02-03 17:18 OP:mh   STATUS:               ID:20140203132646     3
 2014-02-03-1326-46M.COL___240                                                 6
 STAT SP IPHASW D HRMM SECON CODA AMPLIT PERI AZIMU VELO AIN AR TRES W  DIS CAZ7
 BAR2 SZ IP     C 1327 42.76                             160    0.4710 38.8  84 
 BAR2 SZ ES   1   1327 54.73                             160   -0.20 7 38.8  84 
 BAR2 SZ I        1327 56.58       275.1 0.23            160           38.8  84 
 BRR  HZ IP       1327 43.53                             148    0.2210 64.2 342 
 BRR  HN ES       1327 57.31                             148    0.5610 64.2 342 
 BRR  HZ I        1328  3.08        20.3 0.12            147           64.2 342 
 RUS  HZ EP       1327 45.84                             140    0.0810 88.5 146 
 RUS  HN ES   1   1328  0.96                             140   -0.14 7 88.5 146 
 RUS  HZ I        1328  3.09         6.2 0.16            136           88.5 146 
 PTB  HZ EP   1   1327 45.64                             135   -0.61 7  102 269 
 PTB  HN ES   1   1328  0.93                             135   -1.05 7  102 269 
 PTB  HZ I        1328  1.74        22.9 0.23            130            102 269 
 SPBC HZ EP   1   1327 47.86                             131    0.24 7  116 211 
 SPBC HZ I        1328  8.15        31.4 0.14            126            116 211 
 PAM  SZ EP   1   1327 48.92                             128   -0.18 7  126  47 
 PAM  SN ES   1   1328  6.81                             128   -0.24 7  126  47 
 PAM  SZ I        1328  8.15        20.0 0.20            126            126  47 
 ZAR  HZ EP       1327 54.30                             118    0.38 9  179 305 
 ZAR  HN ES   1   1328 16.10                             118    0.47 7  179 305 
 ZAR  HZ I        1328 19.59        16.4 0.13            114            179 305 
 NOR  HZ EP   1   1327 54.52                             117    0.03 7  184 234 
 NOR  HN ES   1   1328 16.52                             117   -0.13 7  184 234 
 OCA  HZ EP   1   1327 54.63                             116   -0.36 7  188   7 
 OCA  HN ES   1   1328 16.65                             116   -0.90 7  188   7 
 OCA  HZ I        1328 22.47        17.1 0.15            114            188   7 
 SML  HZ EP       1328  2.24                             109   -0.20 8  255 347 
 SML  HN ES   2   1328 31.24                             109    0.44 4  255 347 
 SML  HZ I        1328 36.63        21.1 0.08            106            255 347 
                                                                                
