 2012  1 3 1920 17.1 L   6.792 -73.257152.5  RSN  4 0.1 1.7LRSN                1
 GAP=248        0.30       2.5     3.9  4.2 -0.2800E+01 -0.6169E+01  0.5734E+01E
 Epicentro: ZAPATOCA - SANTANDER                                               3
 ACTION:UP  12-02-03 08:13 OP:REBC STATUS:               ID:20120103192017 L   I
 2012-01-03-1920-00M.COL___183                                                 6
 STAT SP IPHASW D HRMM SECON CODA AMPLIT PERI AZIMU VELO SNR AR TRES W  DIS CAZ7
 BRR  HZ EP       1920 38.48                             157     0.010   61 305 
 BRR  HZ I        1920 41.11        10.9 0.02                            61 305 
 BRR  HE ES   1   1920 55.06                             157    -0.1 7   61 305 
 PTB  HZ EP       1920 43.62                             136     0.1 9  136 258 
 PTB  HN ES   1   1921  4.30                             136     0.1 7  136 258 
 NOR  SZ EP   1   1920 51.96                             121    -0.2 6  224 233 
 NOR  SE ES   1   1921 19.36                             121    -0.1 6  224 233 
 CHI  HZ EP   1   1920 54.79                             119     0.0 6  245 192 
 CHI  HZ I        1920 55.18         2.4 0.17                           245 192 
 CHI  HN ES   1   1921 24.18                             119     0.0 6  245 192 
                                                                                
