 2014  6 3 1445 37.6 L   6.745 -73.387111.6  RSN  4 0.2 1.4LRSN                1
 GAP=169        0.63       4.2     3.7  5.3  0.7883E+01  0.5631E+01  0.5774E+01E
 Epicentro: EL CARMEN DE CHUCURI - SANTANDER                                   3
 ACTION:UPD 14-07-01 22:50 OP:nd   STATUS:               ID:20140603144537 L   I
 OLDACT:DUP 14-06-03 23:46 OP:stll STATUS:               ID:20140603143815d    3
 2014-06-03-1438-14M.COL___259                                                 6
 STAT SP IPHASW D HRMM SECON CODA AMPLIT PERI AZIMU VELO AIN AR TRES W  DIS CAZ7
 BAR2 SZ EP       1445 53.29                             165    0.0210 28.3 127 
 BAR2 SZ ES       1446  5.76                             165    0.2610 28.3 127 
 BAR2 SZ I        1446  7.65        16.4 0.36            166           28.3 127 
 BRR  HZ EP       1445 53.83                             152   -0.2310 53.8 318 
 BRR  HN ES       1446  6.82                             152   -0.0810 53.8 318 
 RUS  HZ EP       1445 57.96                             135   -0.1610  100 160 
 RUS  HZ I        1445 58.88         1.8 0.10            136            100 160 
 RUS  HN ES       1446 14.03                             135   -0.1010  100 160 
 PTB  HZ EP       1445 59.79                             129    0.4810  120 259 
 PTB  HN ES       1446 16.09                             129   -0.1610  120 259 
 PTB  HZ I        1446 22.35         6.1 0.54            128            120 259 
                                                                                
