 2010 11 3 1053 39.7 L   6.793 -73.089147.0  RSN  6 0.1 1.8LRSN                1
 GAP=165        0.40       3.3     6.6  6.1  0.5703E+01 -0.1804E+02 -0.7343E+01E
 Epicentro: LOS SANTOS - SANTANDER                                             3
 ACTION:UP  10-12-17 16:50 OP:REBC STATUS:               ID:20101103105339 L   I
 2010-11-03-1051-22S.COL___129                                                 6
 STAT SP IPHASW D HRMM SECON CODA AMPLIT PERI AZIMU VELO SNR AR TRES W  DIS CAZ7
 BTL  SZ EP       1053 59.48                             170     0.010   24 305 
 BAR2 SZ EP       1053 59.40                             170    -0.110   25 205 
 BAR2 SZ ES   2   1054 14.80                             170    -0.2 5   25 205 
 BAR2 SZ I        1054 16.11        22.4 0.16                            25 205 
 GIR2 SZ EP   2   1053 59.55                             166    -0.1 5   34 340 
 BRR  HZ EP       1054  1.24                             151    -0.110   77 297 
 BRR  HZ I        1054  1.57        18.3 0.12                            77 297 
 BRR  HN ES   2   1054 18.52                             151     0.3 5   77 297 
 RUS  HZ EP       1054  3.61                             144     0.110  100 180 
 RUS  HN ES   2   1054 22.21                             144     0.1 5  100 180 
 RUS  HZ I        1054 23.27         6.9 0.31                           100 180 
 GRA  SZ EP       1054  5.13                             137     0.110  125  15 
 GRA  SZ I        1054  6.28         7.3 0.43                           125  15 
                                                                                
