 2010 10 3 1505 15.2 L   6.755 -73.103148.9  RSN  5 0.1 1.4LRSN                1
 GAP=164        0.37       4.9     8.3  9.1  0.1930E+02 -0.4086E+02 -0.2524E+02E
 Epicentro: PUERTO BOYACA - BOYACA                                             3
 ACTION:UP  11-02-18 11:07 OP:tino STATUS:               ID:20101003150515 L   I
 2010-10-03-1504-07S.COL___124                                                 6
 STAT SP IPHASW D HRMM SECON CODA AMPLIT PERI AZIMU VELO SNR AR TRES W  DIS CAZ7
 BTL  SZ EP   1   15 5 35.47                                     0.3 7   26 315 
 BRR  HZ EP       15 5 36.95                              93    -0.110   78 300 
 BRR  HZ I        15 5 50.78         8.3 0.43                            78 300 
 BRR  HE ES   2   15 5 54.07                              93     0.0 5   78 300 
 RUS  HZ EP   2   15 5 38.85                              93     0.0 5   95 179 
 RUS  HN ES   2   15 5 57.21                              93    -0.1 5   95 179 
 RUS  HZ I        15 5 58.11         3.2 0.26                            95 179 
 GUE  SZ EP   2   15 5 40.40                                    -0.1 5  121   9 
 GRA  SZ EP   2   15 5 40.91                                    -0.1 5  129  15 
 GRA  SZ I        15 5 55.09         3.0 0.16                           129  15 
                                                                                
