 2016  9 3 1545 17.5 L   6.842 -73.163151.8  RSN  9 0.5 1.8LRSN                1
 GAP=132        1.09       4.2     4.7  8.7 -0.3341E+01  0.1412E+02 -0.6426E+01E
 Epicentro: LOS SANTOS - SANTANDER                                             3
 ACTION:UPD 17-08-17 21:06 OP:lp   STATUS:               ID:20160903154517 L   I
 OLDACT:REG 16-09-03 20:32 OP:edw  STATUS:               ID:20160903153734     3
 2016-09-03-1538-00M.COL___355                                                 6
 STAT SP IPHASW D HRMM SECON CODA AMPLIT PERI AZIMU VELO AIN AR TRES W  DIS CAZ7
 BAR2 EZ EP       1545 37.95                             169    0.0310 27.7 184 
 BAR2 HN ES   2   1545 53.57                             169   -0.31 5 27.7 184 
 BAR2 EZ I        1545 54.55        30.2 0.20            172           27.7 184 
 PAM  EZ EP       1545 40.72                             152    0.5110 75.1  43 
 PAM  EN ES       1545 58.15                             152    0.2110 75.1  43 
 PAM  EZ I        1546  0.49         6.4 0.52            152           75.1  43 
 RUS  HZ EP       1545 41.97                             144   -0.1910  105 175 
 RUS  HE ES       1546  0.81                             144   -0.6210  105 175 
 RUS  HZ I        1546  1.83         8.9 0.22            146            105 175 
 PTB  HZ EP       1545 44.75                             133   -0.11 9  147 257 
 PTB  HE ES       1546  5.78                             133   -0.44 9  147 257 
 PTB  HZ I        1546  7.84         5.9 0.46            134            147 257 
 SPBC HZ EP       1545 46.92                             130    0.25 9  166 217 
 SPBC HN ES       1546  9.56                             130    0.11 9  166 217 
 SPBC HZ I        1546 11.82        13.2 0.10            131            166 217 
 ZAR  HE ES       1546 16.02                             124    0.71 9  201 291 
 NOR  HE ES       1546 22.48                             119    0.54 8  236 233 
 CHI  HN ES   2   1546 25.88                             118   -0.08 4  253 194 
 SJC  HZ EP       1546 12.58                             107   -0.08 6  404 327 
 SJC  HN ES       1546 54.06                             107   -1.64 6  404 327 
 SJC  HZ I        1547  7.09         1.6 0.53            107            404 327 
                                                                                
