 2016  8 3 1806 54.4 L   6.797 -73.120149.8  RSN 10 0.4 1.9LRSN                1
 GAP=140        0.87       3.4     3.7  5.0 -0.6841E+00  0.5350E+01  0.1863E+01E
 Epicentro: LOS SANTOS - SANTANDER                                             3
 ACTION:UPD 16-10-29 15:31 OP:rebc STATUS:               ID:20160803180654 L   I
 OLDACT:UP  16-08-03 23:19 OP:dani STATUS:               ID:20160803175759     3
 OLDACT:REG 16-08-03 21:17 OP:dani STATUS:               ID:20160803175759     3
 2016-08-03-1757-59S.COL___334                                                 6
 STAT SP IPHASW D HRMM SECON CODA AMPLIT PERI AZIMU VELO AIN AR TRES W  DIS CAZ7
 BAR2 EZ EP       18 7 14.49                             171   -0.0110 23.7 197 
 BAR2 EZ ES       18 7 30.00                             171   -0.1910 23.7 197 
 BAR2 EZ I        18 7 32.30        20.5 0.34                          23.7 197 
 BRR  HZ EP       18 7 16.29                             152    0.1810 73.8 298 
 BRR  HN ES       18 7 33.58                             152    0.5210 73.8 298 
 BRR  HZ I        18 7 34.68        13.5 0.19                          73.8 298 
 PAM  EZ EP       18 7 17.42                             152    0.4810 75.9  38 
 PAM  EE ES       18 7 34.40                             152   -0.1310 75.9  38 
 PAM  EZ I        18 7 36.66        16.2 0.50                          75.9  38 
 RUS  HZ EP       18 7 18.17                             145   -0.3310  100 178 
 RUS  HE ES       18 7 37.12                             145   -0.1810  100 178 
 RUS  HZ I        18 7 38.39        13.3 0.30                           100 178 
 PTB  HZ EP       18 7 21.72                             132   -0.20 9  150 259 
 PTB  HE ES       18 7 43.14                             132   -0.26 9  150 259 
 PTB  HZ I        18 7 47.96         6.1 0.44                           150 259 
 SPBC HZ EP       18 7 23.51                             130    0.18 9  165 220 
 SPBC HN ES   4   18 7 45.36                             130   -0.56 0  165 220 
 SPBC HZ I        18 7 48.10        15.9 0.30                           165 220 
 ZAR  HZ EP       18 7 27.76                             123    0.39 8  207 292 
 ZAR  HN ES       18 7 52.80                             123   -0.30 8  207 292 
 ZAR  HZ I        18 7 58.13         7.4 0.32                           207 292 
 NOR  HE ES       18 7 58.55                             119   -0.25 8  237 235 
 GUY2CHN ES   4   18 8 16.23                             113    3.47 0  303 235 
 PRA  HZ EP       18 7 48.38                             107    0.21 6  393 210 
 PRA  HN ES       18 8 30.98                             107    0.85 6  393 210 
 PRA  HZ I        18 8 36.70         3.6 0.48                           393 210 
 SJC  HZ EP       18 7 49.18                             106   -1.11 6  411 327 
 SJC  HE ES   4   18 8 30.77                             106   -3.12 0  411 327 
 SJC  HZ I        18 8 34.44         1.4 0.38                           411 327 
                                                                                
