 2014  1 3 1807  9.6 L   7.243 -73.347 17.0  RSN  4 0.5 1.2LRSN                1
 GAP=276        1.07       8.9     6.0  5.3  0.3997E+02 -0.1097E+02 -0.8233E+01E
 Epicentro: LEBRIJA - SANTANDER                                                3
 ACTION:UPD 14-03-13 09:51 OP:ep   STATUS:               ID:20140103180709 L   I
 OLDACT:DUP 14-01-03 20:10 OP:mher STATUS:               ID:20140103180001d    3
 2014-01-03-1800-00M.COL___285                                                 6
 STAT SP IPHASW D HRMM SECON CODA AMPLIT PERI AZIMU VELO AIN AR TRES W  DIS CAZ7
 BRR  HZ EP       18 7 16.34                             108   -0.7010 43.1 250 
 BRR  HN ES       18 7 23.12                             108    0.2810 43.1 250 
 BRR  HZ I        18 7 32.08        17.0 0.30            104           43.1 250 
 BAR2 SZ EP       18 7 21.61                             100   -0.2610 74.2 166 
 BAR2 SZ ES       18 7 31.66                             100    0.2210 74.2 166 
 BAR2 SZ I        18 7 37.20         9.3 0.23            100           74.2 166 
 PTB  HZ EP       18 7 32.48                              56    0.56 9  145 238 
 PTB  HN ES   2   18 7 48.56                              56   -0.77 5  145 238 
 PTB  HZ I        18 7 52.85         3.8 0.33             56            145 238 
 RUS  HZ EP       18 7 33.79                              56    0.43 9  152 169 
 RUS  HN ES       18 7 51.61                              56   -0.27 9  152 169 
                                                                                
