 2013 12 3 1016 33.0 L   6.797 -73.142147.6  RSN  8 0.4 1.8LRSN                1
 GAP=152        0.97       4.2     4.4  6.4 -0.4737E+01  0.8823E+01 -0.1411E+00E
 Epicentro: LOS SANTOS - SANTANDER                                             3
 ACTION:UPD 14-01-13 10:15 OP:ep   STATUS:               ID:20131203101633 L   I
 OLDACT:REG 13-12-03 14:31 OP:cam  STATUS:               ID:20131203101000     3
 2013-12-03-1010-00M.COL___282                                                 6
 STAT SP IPHASW D HRMM SECON CODA AMPLIT PERI AZIMU VELO AIN AR TRES W  DIS CAZ7
 BAR2 SZ EP       1016 52.95                             171    0.0910 23.1 191 
 BAR2 SZ ES       1017  7.90                             171   -0.4410 23.1 191 
 BAR2 SZ I        1017  9.08        13.6 0.16            168           23.1 191 
 BRR  HZ EP       1016 54.62                             153    0.2310 71.7 299 
 BRR  HN ES       1017 11.64                             153    0.5810 71.7 299 
 BRR  HZ I        1017 12.56         8.4 0.44            152           71.7 299 
 PAM  SZ EP       1016 55.59                             151    0.1710 77.4  39 
 PAM  SN ES       1017 12.97                             151    0.0710 77.4  39 
 PAM  SZ I        1017 14.86         7.0 0.56            156           77.4  39 
 PTB  HZ EP       1016 59.68                             132   -0.48 9  148 259 
 PTB  HN ES       1017 20.66                             132   -0.67 9  148 259 
 PTB  HZ I        1017 23.97         6.0 0.16            132            148 259 
 SPBC HZ EP   1   1017  1.90                             129    0.24 7  163 219 
 SPBC HN ES   1   1017 23.83                             129   -0.17 7  163 219 
 SPBC HZ I        1017 30.88        11.3 0.40            129            163 219 
 ZAR  HZ EP       1017  5.39                             123   -0.24 9  205 292 
 ZAR  HN ES       1017 31.57                             123    0.51 9  205 292 
 ZAR  HZ I        1017 36.84         5.7 0.32            123            205 292 
 NOR  HZ EP   1   1017  9.07                             119    0.20 6  235 235 
 NOR  HE ES       1017 37.37                             119    0.54 8  235 235 
 NOR  HZ I        1017 42.97         4.6 0.14            119            235 235 
 SML  HE ES       1017 37.92                             118   -0.55 8  244 335 
 SJC  HZ EP   4   1017 26.85                             106   -1.84 0  410 327 
                                                                                
