 2014  4 3 1741 50.9 L   6.834 -73.301115.8  RSN  6 0.3 1.4LRSN                1
 GAP=117        0.71       3.1     3.2  5.9  0.4024E+00  0.5553E+01  0.3321E+01E
 Epicentro: ZAPATOCA - SANTANDER                                               3
 ACTION:UPD 14-05-13 23:06 OP:nd   STATUS:               ID:20140403174150 L   I
 OLDACT:REG 14-04-03 22:46 OP:stll STATUS:               ID:20140403173830     3
 2014-04-03-1738-30M.COL___240                                                 6
 STAT SP IPHASW D HRMM SECON CODA AMPLIT PERI AZIMU VELO AIN AR TRES W  DIS CAZ7
 BRR  HZ EP     C 1742  7.58                             153   -0.2410 54.5 304 
 BRR  HN ES       1742 21.23                             153    0.1810 54.5 304 
 BRR  HZ I        1742 22.13        11.9 0.15            154           54.5 304 
 PAM  SZ EP   1   1742 10.58                             141   -0.10 7 86.9  50 
 PAM  SN ES   1   1742 25.96                             141   -0.19 7 86.9  50 
 PAM  SZ I        1742 29.36         3.5 0.17            143           86.9  50 
 RUS  HZ EP   1   1742 12.09                             135   -0.23 7  107 167 
 RUS  HN ES       1742 29.27                             135    0.2010  107 167 
 RUS  HZ I        1742 30.89         2.6 0.17            136            107 167 
 PTB  HZ EP   4   1742 12.52                             128   -1.46 0  132 256 
 PTB  HN ES   1   1742 32.18                             128    0.16 7  132 256 
 PTB  HZ I        1742 34.45         6.8 0.27            128            132 256 
 ZAR  HZ EP       1742 19.96                             117    0.32 9  187 293 
 ZAR  HN ES   1   1742 41.87                             117   -0.23 7  187 293 
 ZAR  HZ I        1742 44.61         4.8 0.18            118            187 293 
 NOR  HZ EP       1742 24.25                             113    0.51 8  223 231 
 NOR  HN ES       1742 48.78                             113   -0.61 8  223 231 
 NOR  HZ I        1742 55.57         2.3 0.15            113            223 231 
                                                                                
