 2011  8 3 1321 31.4 L   6.792 -73.114150.7  RSN  5 0.3 1.5LRSN                1
 GAP=141        0.67       4.7     5.6  7.0 -0.7108E+01  0.4149E+01  0.3602E+01E
 Epicentro: LOS SANTOS - SANTANDER                                             3
 ACTION:UPD 12-07-25 14:05 OP:epov STATUS:               ID:20110803132131 L   I
 2011-08-03-1319-41S.COL___122                                                 6
 STAT SP IPHASW D HRMM SECON CODA AMPLIT PERI AZIMU VELO AIN AR TRES W  DIS CAZ7
 BAR2 SZ EP   1   1321 51.40                             171   -0.26 7 23.4 199 
 BAR2 SZ I        1321 52.25        12.8 0.09                          23.4 199 
 BAR2 SZ ES   1   1322  7.02                             171   -0.41 7 23.4 199 
 BRR  HZ EP   1   1321 53.27                             152   -0.04 7 74.7 298 
 BRR  HZ I        1321 54.24        10.7 0.10                          74.7 298 
 BRR  HN ES   1   1322 10.91                             152    0.54 7 74.7 298 
 PAM  SZ EP   1   1321 54.19                             152    0.10 7 75.9  37 
 PAM  SE ES   1   1322 11.51                             152   -0.25 7 75.9  37 
 PAM  SZ I        1322 14.07         2.4 0.26                          75.9  37 
 RUS  HZ EP   1   1321 55.88                             145    0.28 7 99.6 178 
 RUS  HN ES   1   1322 14.78                             145    0.33 7 99.6 178 
 RUS  HZ I        1322 15.55         4.8 0.29                          99.6 178 
 NOR  SN ES   1   1322 35.54                             119   -0.45 6  237 235 
                                                                                
