 2017  1 3 1004 31.8 L   5.857 -73.633124.6  RSN  7 0.3 1.3LRSN                1
 GAP= 98        0.74       2.5     4.0  7.3  0.2376E+01  0.1467E+02  0.3526E+01E
 Epicentro: PUENTE NACIONAL - SANTANDER                                        3
 ACTION:UPD 17-05-22 15:55 OP:jn   STATUS:               ID:20170103100431 L   I
 OLDACT:UP  17-01-03 21:09 OP:dnl  STATUS:               ID:20170103095745     3
 OLDACT:REG 17-01-03 19:58 OP:dnl  STATUS:               ID:20170103095745     3
 2017-01-03-0958-00M.COL___378                                                 6
 STAT SP IPHASW D HRMM SECON CODA AMPLIT PERI AZIMU VELO AIN AR TRES W  DIS CAZ7
 RUS  HZ EP   2   10 4 50.90                             152    0.12 5 61.0  86 
 RUS  HN ES       10 5  5.43                             152   -0.1710 61.0  86 
 RUS  HZ I        10 5  8.35         1.1 0.24            156           61.0  86 
 BAR2 EZ EP       10 4 53.11                             140    0.3610 95.4  32 
 BAR2 EZ ES       10 5  8.68                             140   -0.4310 95.4  32 
 BAR2 EZ I        10 5 10.14         7.7 0.40            143           95.4  32 
 PTB  HZ EP       10 4 54.10                             133   -0.2610  118 310 
 PTB  HE ES       10 5 12.07                             133    0.1110  118 310 
 PTB  HZ I        10 5 14.17         2.5 0.10            135            118 310 
 CHI  HZ EP       10 4 56.62                             129    0.09 9  136 185 
 CHI  HN ES       10 5 15.97                             129    0.13 9  136 185 
 CHI  HZ I        10 5 18.71         2.6 0.32            133            136 185 
 BRR  HZ EP   2   10 4 55.66                             128   -0.53 5  139 356 
 BRR  HE ES       10 5 15.81                             128    0.57 9  139 356 
 BRR  HZ I        10 5 24.10         6.9 0.38            131            139 356 
 GUY2CHZ EP   2   10 5  3.26                             117   -0.30 4  204 250 
 GUY2CHE ES   4   10 5 30.33                             117    1.98 0  204 250 
 GUY2CHZ  IAML    10 5 35.80         2.1 0.84                           204 250 
 ZAR  HZ EP   4   10 5  3.66                             114   -1.68 0  226 323 
 ZAR  HE ES       10 5 31.24                             114   -0.27 8  226 323 
 ZAR  HZ I        10 5 36.19         1.7 0.16            117            226 323 
                                                                                
