 2012  4 3 1059  8.0 L   6.796 -73.134141.6  RSN  8 0.5 2.0LRSN                1
 GAP=138        1.11       6.1     7.8  9.0  0.1208E+01  0.2377E+02  0.7614E+01E
 Epicentro: LOS SANTOS - SANTANDER                                             3
 ACTION:UPD 12-07-05 11:50 OP:tino STATUS:               ID:20120403105908 L   I
 2012-04-03-1058-19M.COL___172                                                 6
 STAT SP IPHASW D HRMM SECON CODA AMPLIT PERI AZIMU VELO AIN AR TRES W  DIS CAZ7
 BAR2 SZ EP       1059 27.03                             170    -0.110   23 193 
 BAR2 SZ ES   1   1059 41.50                             170    -0.5 7   23 193 
 BAR2 SZ I        1059 44.26        33.6 0.32                            23 193 
 BRR  HZ EP       1059 28.90                             151     0.110   73 298 
 BRR  HN ES   1   1059 45.60                             151     0.6 7   73 298 
 BRR  HZ I        1059 47.93        19.6 0.14                            73 298 
 PAM  SZ EP       1059 29.98                             150     0.310   77  39 
 PAM  SN ES   1   1059 46.59                             150    -0.1 7   77  39 
 RUS  HZ EP       1059 31.12                             143    -0.210  100 177 
 RUS  HE ES   1   1059 49.79                             143     0.3 7  100 177 
 RUS  HZ I        1059 51.21        15.0 0.30                           100 177 
 OCA  SZ ES   2   1059 57.25                             128    -0.7 5  161 353 
 ZAR  HZ EP   2   1059 39.85                             121    -0.4 4  205 292 
 ZAR  HE ES   2   11 0  4.45                             121    -1.1 4  205 292 
 ZAR  HZ I        11 0 14.34        10.1 0.44                           205 292 
 NOR  SZ EP       1059 43.00                             117    -0.6 8  235 235 
 HEL  HZ EP   1   1059 49.47                             114     1.4 6  273 256 
                                                                                
