 2012  2 3 1552  4.6 L   6.777 -73.129144.4  RSN 11 0.4 2.1LRSN                1
 GAP=140        0.73       3.2     3.6  5.0 -0.1677E+01  0.5390E+01  0.4491E+01E
 ACTION:UP  12-03-07 16:27 OP:epov STATUS:               ID:20120203155204 L   I
 2012-02-03-1550-00M.COL___188                                                 6
 STAT SP IPHASW D HRMM SECON CODA AMPLIT PERI AZIMU VELO SNR AR TRES W  DIS CAZ7
 BAR2 SZ EP       1552 24.16                             171    0.1410 21.3 196 
 BAR2 SZ ES   1   1552 39.13                             171   -0.04 7 21.3 196 
 BAR2 SZ I        1552 42.06        33.7 0.42                          21.3 196 
 GIR2 SZ EP       1552 24.16                             166   -0.0210 34.1 348 
 BRR  HZ EP       1552 25.99                             151    0.2310 74.1 300 
 BRR  HE ES   1   1552 43.23                             151    0.96 7 74.1 300 
 BRR  HZ I        1552 46.14        24.3 0.14                          74.1 300 
 PAM  SZ EP       1552 26.70                             150   -0.0110 78.2  37 
 PAM  SN ES       1552 43.86                             150   -0.1110 78.2  37 
 RUS  HZ EP   1   1552 27.99                             144   -0.03 7 97.9 177 
 RUS  HE ES   1   1552 45.75                             144   -0.54 7 97.9 177 
 RUS  HZ I        1552 48.05        15.1 0.36                          97.9 177 
 PTB  HZ EP       1552 31.14                             131   -0.43 9  149 260 
 PTB  HN ES   1   1552 52.00                             131   -0.62 7  149 260 
 ZAR  HZ EP   1   1552 36.93                             122   -0.29 6  207 293 
 ZAR  HN ES   1   1553  2.40                             122   -0.28 6  207 293 
 ZAR  HZ I        1553  7.83        17.2 0.44                           207 293 
 NOR  SZ EP   1   1552 40.35                             118    0.11 6  235 235 
 NOR  SN ES   1   1553  8.23                             118    0.17 6  235 235 
 CHI  HZ EP   1   1552 42.09                             117    0.09 6  247 196 
 CHI  HN ES   1   1553 11.43                             117    0.25 6  247 196 
 CHI  HZ I        1553 17.31         5.6 0.00                           247 196 
 TOL  SZ EP   1   1552 53.12                             109    0.39 5  343 225 
 PRA  HZ EP       1552 57.95                             106    0.04 6  391 210 
 PRA  HN ES   1   1553 40.22                             106    0.72 4  391 210 
                                                                                
