 2015  4 3 1531 14.5 L   6.746 -73.212151.2  RSN  5 0.1 1.2LRSN                1
 GAP=223        0.43       3.7     3.2  3.8  0.8008E+01  0.2477E+01  0.1924E+01E
 Epicentro: VILLANUEVA - SANTANDER                                             3
 ACTION:UPD 15-06-03 16:52 OP:cam  STATUS:               ID:20150403153114 L   I
 OLDACT:REG 15-04-03 20:33 OP:fm   STATUS:               ID:20150403152748     3
 2015-04-03-1527-48M.COL___289                                                 6
 STAT SP IPHASW D HRMM SECON CODA AMPLIT PERI AZIMU VELO AIN AR TRES W  DIS CAZ7
 BAR2 EZ EP       1531 34.51                             173   -0.1810 17.3 169 
 BAR2 EZ ES       1531 50.28                             173   -0.1510 17.3 169 
 BAR2 EZ I        1531 53.09         4.5 0.28            172           17.3 169 
 BRR  HN ES       1531 53.14                             154    0.2310 68.2 306 
 BRR  HZ I        1531 56.65         3.8 0.36            152           68.2 306 
 RUS  HZ EP       1531 38.54                             146    0.1010 95.5 171 
 RUS  HN ES       1531 57.20                             146    0.0910 95.5 171 
 RUS  HZ I        1531 59.29         1.8 0.38            148           95.5 171 
 PTB  HZ EP   1   1531 41.33                             135    0.13 7  140 261 
 PTB  HN ES       1532  1.92                             135   -0.10 9  140 261 
 PTB  HZ I        1532  7.16         2.1 0.16            134            140 261 
 ZAR  HN ES       1532 12.04                             124   -0.07 9  200 295 
 ZAR  HZ I        1532 18.32         1.2 0.36            125            200 295 
                                                                                
