 2015 12 3 1317 40.0 L   6.739 -73.191145.7  RSN  6 0.4 1.7LRSN                1
 GAP=227        0.93       5.4     5.9  8.0  0.1534E+02  0.8165E+01  0.1188E+02E
 Epicentro: VILLANUEVA - SANTANDER                                             3
 ACTION:UPD 16-02-04 15:02 OP:cam  STATUS:               ID:20151203131740 L   I
 OLDACT:REG 15-12-03 20:29 OP:drio STATUS:               ID:20151203130747     3
 2015-12-03-1307-47M.COL___318                                                 6
 STAT SP IPHASW D HRMM SECON CODA AMPLIT PERI AZIMU VELO AIN AR TRES W  DIS CAZ7
 BAR2 EZ EP       1317 59.43                             174   -0.1010 16.2 177 
 BAR2 EZ I        1318 15.55         9.4 0.30            172           16.2 177 
 BRR  HZ EP       1318  1.26                             153    0.1310 70.5 305 
 BRR  HN ES       1318 18.23                             153    0.6410 70.5 305 
 RUS  HZ EP       1318  3.43                             146    0.1010 94.3 173 
 RUS  HN ES       1318 21.14                             146   -0.3610 94.3 173 
 RUS  HZ I        1318 23.45         4.8 0.22            144           94.3 173 
 PTB  HZ EP       1318  6.31                             133   -0.13 9  142 261 
 PTB  HN ES       1318 26.53                             133   -0.51 9  142 261 
 PTB  HZ I        1318 32.19         7.2 0.18            134            142 261 
 ZAR  HN ES       1318 37.27                             123   -0.15 9  202 294 
 SML  HZ EP   4   1318 14.40                             117   -2.71 0  248 337 
 SML  HE ES   4   1318 43.71                             117   -2.31 0  248 337 
 PRA  HZ EP       1318 32.38                             107   -0.19 6  384 209 
 PRA  HN ES       1319 14.52                             107    0.97 6  384 209 
 PRA  HZ I        1319 19.60         4.0 0.30            106            384 209 
                                                                                
