 2017  1 3 1552  3.5 L   6.793 -73.157146.0  RSN  8 0.3 1.9LRSN                1
 GAP=136        0.68       2.7     3.0  4.5  0.8161E+00  0.3150E+01  0.1337E+01E
 Epicentro: LOS SANTOS - SANTANDER                                             3
 ACTION:UPD 17-05-22 15:55 OP:jn   STATUS:               ID:20170103155203 L   I
 OLDACT:UP  17-01-03 23:04 OP:dnl  STATUS:               ID:20170103154751d    3
 OLDACT:DUP 17-01-03 23:02 OP:dnl  STATUS:               ID:20170103154751d    3
 OLDACT:REG 17-01-03 20:44 OP:dnl  STATUS:               ID:20170103154750     3
 2017-01-03-1548-00M.COL___375                                                 6
 STAT SP IPHASW D HRMM SECON CODA AMPLIT PERI AZIMU VELO AIN AR TRES W  DIS CAZ7
 BAR2 EZ EP       1552 22.92                             171   -0.2410 22.3 187 
 BAR2 EZ ES       1552 38.61                             171    0.1310 22.3 187 
 BAR2 EZ I        1552 44.11        21.4 0.66            168           22.3 187 
 BRR  HZ EP       1552 25.08                             153    0.4210 70.5 300 
 BRR  HN ES       1552 41.11                             153   -0.0410 70.5 300 
 BRR  HZ I        1552 43.43        14.2 0.16            152           70.5 300 
 PAM  EZ IP     D 1552 25.94                             150    0.0910 78.8  40 
 PAM  EE ES       1552 43.20                             150   -0.0610 78.8  40 
 PAM  EZ I        1552 45.42        12.5 0.58            156           78.8  40 
 RUS  HZ EP       1552 26.91                             144   -0.3410 99.8 175 
 RUS  HN ES       1552 45.86                             144    0.1110 99.8 175 
 RUS  HZ I        1552 47.32         7.8 0.28            145           99.8 175 
 PTB  HZ EP   2   1552 29.80                             132   -0.59 5  146 259 
 PTB  HN ES       1552 50.92                             132   -0.43 9  146 259 
 PTB  HZ I        1552 56.63         9.5 0.18            133            146 259 
 ZAR  HZ EP       1552 35.71                             123   -0.19 9  203 292 
 ZAR  HN ES       1553  1.54                             123    0.38 9  203 292 
 ZAR  HZ I        1553  8.82         9.2 0.54            124            203 292 
 CHI  HZ EP   2   1552 41.12                             117    0.00 4  248 195 
 CHI  HE ES       1553 10.79                             117    0.35 8  248 195 
 CHI  HZ I        1553 18.02         2.8 0.30            119            248 195 
 GUY2CHZ EP   2   1552 47.57                             112    0.59 4  300 235 
 GUY2CHE ES   4   1553 24.65                             112    3.78 0  300 235 
 GUY2CHZ  IAML    1553 29.52         4.6 0.26                           300 235 
                                                                                
