 2015 12 3 1930 36.0 L   6.728 -73.164134.0  RSN  9 0.4 2.0LRSN                1
 GAP=230        0.90       3.9     4.3  5.5  0.3197E+01  0.8341E+01  0.3434E+01E
 Epicentro: VILLANUEVA - SANTANDER                                             3
 ACTION:UPD 16-02-04 15:02 OP:cam  STATUS:               ID:20151203193036 L   I
 OLDACT:REG 15-12-03 20:46 OP:drio STATUS:               ID:20151203192750     3
 2015-12-03-1927-50M.COL___316                                                 6
 STAT SP IPHASW D HRMM SECON CODA AMPLIT PERI AZIMU VELO AIN AR TRES W  DIS CAZ7
 BAR2 EZ EP       1930 54.04                             173   -0.0410 15.1 188 
 BAR2 EZ ES       1931  8.81                             173    0.6410 15.1 188 
 BAR2 EZ I        1931 10.16        28.7 0.20            171           15.1 188 
 BRR  HZ EP       1930 55.92                             149   -0.1410 73.7 305 
 BRR  HN ES       1931 11.36                             149   -0.3310 73.7 305 
 BRR  HZ I        1931 14.60        19.7 0.16            148           73.7 305 
 RUS  HZ EP       1930 58.03                             144   -0.0210 92.8 174 
 RUS  HE ES       1931 14.73                             144   -0.5010 92.8 174 
 RUS  HZ I        1931 17.41         9.6 0.20            144           92.8 174 
 PTB  HZ EP   4   1931  0.75                             130   -0.99 0  144 262 
 PTB  HE ES       1931 21.79                             130   -0.01 9  144 262 
 PTB  HZ I        1931 23.85        15.1 0.20            129            144 262 
 SPBC HN ES       1931 24.13                             128    0.24 9  156 220 
 ZAR  HZ EP       1931  8.27                             119    0.41 8  205 294 
 ZAR  HN ES       1931 32.63                             119   -0.07 8  205 294 
 ZAR  HZ I        1931 38.34        14.4 0.26            120            205 294 
 NOR  HZ EP       1931  9.75                             117   -0.66 8  228 236 
 NOR  HE ES       1931 37.59                             117    0.35 8  228 236 
 NOR  HZ I        1931 43.04         8.8 0.18            117            228 236 
 GUY2CHZ EP       1931 18.67                             110    0.27 7  295 236 
 GUY2CHN ES       1931 51.02                             110   -0.43 7  295 236 
 GUY2CHZ I        1932  0.56         6.5 0.52                           295 236 
 PRA  HZ EP       1931 28.91                             105    0.69 6  384 210 
 PRA  HE ES   4   1932 10.54                             105    1.60 0  384 210 
 PRA  HZ I        1932 15.16         3.7 0.24            106            384 210 
 SJC  HZ EP   4   1931 28.04                             103   -3.84 0  415 328 
 SJC  HN ES   4   1932  8.69                             103   -6.77 0  415 328 
                                                                                
