 2011  2 3 1011 59.8 L   6.808 -73.201141.4  RSN  4 0.1 1.5LRSN                1
 GAP=186        0.39       4.7    20.5  5.7 -0.7797E+02  0.4925E+02 -0.8485E+01E
 Epicentro: ZAPATOCA - SANTANDER                                               3
 ACTION:UP  11-03-28 15:05 OP:jfem STATUS:               ID:20110203101159 L   I
 2011-02-03-1009-58S.COL___135                                                 6
 STAT SP IPHASW D HRMM SECON CODA AMPLIT PERI AZIMU VELO SNR AR TRES W  DIS CAZ7
 BAR2 SZ EP   1   1012 18.87                             170     0.0 7   24 175 
 BAR2 SZ ES   2   1012 33.76                             170     0.0 5   24 175 
 BAR2 SZ I        1012 36.24        11.4 0.35                            24 175 
 RUS  HZ EP   1   1012 22.99                             143    -0.2 7  102 173 
 RUS  HN ES   2   1012 41.71                             143     0.2 5  102 173 
 RUS  HZ I        1012 42.39         5.6 0.23                           102 173 
 GRA  SZ EP   1   1012 24.82                             136     0.1 7  127  20 
 GRA  SZ ES   2   1012 44.13                             136    -0.1 5  127  20 
 GRA  SZ I        1012 45.60         5.0 0.37                           127  20 
 CHI  HZ EP   1   1012 37.30                             116     0.1 6  248 194 
 CHI  HZ I        1013 11.32         1.3 0.52                           248 194 
                                                                                
