 2015  5 3 1135 25.4 L   6.793 -73.023158.0  RSN  6 0.5 1.5LRSN                1
 GAP=153        1.05       5.3     6.8  8.1  0.1139E+02  0.1267E+02 -0.2250E+01E
 Epicentro: CEPITA - SANTANDER                                                 3
 ACTION:UPD 15-09-10 22:01 OP:cam  STATUS:               ID:20150503113525 L   I
 OLDACT:UP  15-05-07 06:55 OP:AK   STATUS:               ID:20150503113525 L   3
 OLDACT:REG 15-05-03 20:20 OP:ak   STATUS:               ID:20150503112738     3
 2015-05-03-1127-38M.COL___273                                                 6
 STAT SP IPHASW D HRMM SECON CODA AMPLIT PERI AZIMU VELO AIN AR TRES W  DIS CAZ7
 BAR2 EZ EP       1135 47.34                             169    0.7610 28.4 218 
 BAR2 EZ ES       1136  2.49                             169   -0.6310 28.4 218 
 BAR2 EZ I        1136  4.54         4.2 0.32            169           28.4 218 
 PAM  SZ EP   2   1135 48.98                             155    0.47 5 70.2  31 
 PAM  SE ES       1136  6.44                             155   -0.1310 70.2  31 
 PAM  SZ I        1136  9.10         4.4 0.26            156           70.2  31 
 BRR  HZ EP       1135 48.71                             151    0.1610 83.7 295 
 BRR  HN ES       1136  7.20                             151    0.5610 83.7 295 
 RUS  HZ EP       1135 50.04                             146   -0.2510 99.8 184 
 RUS  HE ES       1136  9.67                             146   -0.0610 99.8 184 
 RUS  HZ I        1136 11.70         2.4 0.40            148           99.8 184 
 ZAR  HZ EP   2   1136  0.11                             123    0.17 4  217 291 
 ZAR  HN ES       1136 26.56                             123   -0.35 8  217 291 
 ZAR  HZ I        1136 32.84         3.5 0.14            123            217 291 
 SML  HZ EP   2   1136  2.21                             119   -1.20 4  250 333 
 SML  HN ES   1   1136 32.71                             119   -0.38 6  250 333 
 SML  HZ I        1136 35.51         2.8 0.09            120            250 333 
                                                                                
