 2017  3 3 1024 13.1 L   7.226 -73.113 12.2  RSN  4 0.3 1.3LRSN                1
 GAP=267        0.84       5.7     5.6  4.8  0.2180E+02  0.1792E+01 -0.7653E+01E
 Epicentro: RIONEGRO - SANTANDER                                               3
 ACTION:UPD 17-05-25 18:35 OP:jn   STATUS:               ID:20170303102413 L   I
 OLDACT:REG 17-03-03 20:27 OP:lv   STATUS:               ID:20170303101744     3
 2017-03-03-1018-00M.COL___390                                                 6
 STAT SP IPHASW D HRMM SECON CODA AMPLIT PERI AZIMU VELO AIN AR TRES W  DIS CAZ7
 BRR  HZ EP       1024 23.88                              97   -0.0710 67.5 259 
 BRR  HN ES       1024 32.44                              97   -0.0110 67.5 259 
 BAR2 EZ EP       1024 24.24                              97   -0.4210 70.5 186 
 BAR2 EZ ES       1024 34.08                              97    0.3810 70.5 186 
 BAR2 EZ I        1024 35.33         9.9 0.23             95           70.5 186 
 PTB  HZ EP       1024 38.77                              56    0.29 9  167 243 
 PTB  HN ES       1024 57.83                              56   -0.48 9  167 243 
 PTB  HZ I        1024 59.76         4.5 0.24             56            167 243 
 ZAR  HN ES       1025  4.93                              56    0.37 9  195 279 
                                                                                
