 2013  1 3 1115 54.6 L   6.767 -73.139156.0  RSN  7 0.4 1.7LRSN                1
 GAP=183        0.80       4.2     6.3  7.4  0.8373E+01  0.6952E+01  0.4771E+01E
 Epicentro: LOS SANTOS - SANTANDER                                             3
 ACTION:UPD 13-02-15 09:11 OP:ep   STATUS:               ID:20130103111554 L   I
 2013-01-03-1110-00M.COL___242                                                 6
 STAT SP IPHASW D HRMM SECON CODA AMPLIT PERI AZIMU VELO AIN AR TRES W  DIS CAZ7
 BAR2 SZ EP   1   1116 15.57                             172    0.22 7 19.9 194 
 BAR2 SZ ES   1   1116 30.94                             172   -0.64 7 19.9 194 
 BAR2 SZ I        1116 32.50        18.2 0.36            168           19.9 194 
 BRR  HZ EP   1   1116 17.26                             153    0.31 7 73.7 301 
 BRR  HN ES   1   1116 35.12                             153    0.70 7 73.7 301 
 BRR  HZ I        1116 39.93         7.3 0.60            150           73.7 301 
 RUS  HZ EP   1   1116 18.53                             147   -0.54 7 96.9 176 
 RUS  HN ES   1   1116 38.57                             147    0.38 7 96.9 176 
 RUS  HZ I        1116 39.45         5.2 0.28            147           96.9 176 
 PTB  HZ EP   1   1116 21.85                             134   -0.53 7  148 260 
 PTB  HN ES   1   1116 43.75                             134   -0.33 7  148 260 
 OCA  HN ES   1   1116 46.86                             131   -0.14 7  164 353 
 OCA  HZ I        1116 51.51         5.3 0.18            132            164 353 
 ZAR  HZ EP   2   1116 28.21                             124    0.32 4  206 293 
 ZAR  HN ES   1   1116 53.85                             124   -0.05 6  206 293 
 ZAR  HZ I        1117  0.70         7.8 0.40            123            206 293 
 CHI  HZ EP   1   1116 32.85                             120    0.37 6  245 196 
 CHI  HN ES   1   1117  2.26                             120    0.20 6  245 196 
 CHI  HZ I        1117 12.42         1.4 0.30            119            245 196 
                                                                                
