 2014  6 3 1956 51.9 L   6.799 -73.153149.0  RSN  7 0.5 1.9LRSN                1
 GAP=136        1.37       5.7     6.1  8.7  0.4146E+01  0.1186E+02 -0.1028E+02E
 Epicentro: LOS SANTOS - SANTANDER                                             3
 ACTION:UPD 14-07-01 22:50 OP:nd   STATUS:               ID:20140603195651 L   I
 OLDACT:REG 14-06-03 21:10 OP:stll STATUS:               ID:20140603194816     3
 2014-06-03-1948-16M.COL___256                                                 6
 STAT SP IPHASW D HRMM SECON CODA AMPLIT PERI AZIMU VELO AIN AR TRES W  DIS CAZ7
 BAR2 SZ EP       1957 12.00                             171    0.1010 23.1 188 
 BAR2 SZ ES       1957 26.56                             171   -0.9510 23.1 188 
 BAR2 SZ I        1957 28.20        15.6 0.24            170           23.1 188 
 BRR  HZ IP     C 1957 13.86                             153    0.5110 70.5 299 
 BRR  HN ES       1957 31.15                             153    1.0610 70.5 299 
 BRR  HZ I        1957 34.48        16.5 0.30            151           70.5 299 
 PAM  SZ EP       1957 14.72                             151    0.2410 78.0  40 
 PAM  SZ I        1957 15.00        22.8 0.38            154           78.0  40 
 PAM  SN ES       1957 32.05                             151   -0.0510 78.0  40 
 RUS  HZ EP       1957 16.28                             144    0.3310  101 176 
 RUS  HN ES       1957 34.59                             144   -0.1310  101 176 
 RUS  HZ I        1957 35.54         7.2 0.48            146            101 176 
 PTB  HZ EP       1957 19.18                             133    0.14 9  147 259 
 PTB  HZ I        1957 21.40         7.5 0.26            132            147 259 
 PTB  HN ES       1957 39.69                             133   -0.54 9  147 259 
 ZAR  HZ EP       1957 23.83                             123   -0.64 9  203 292 
 ZAR  HN ES       1957 50.34                             123    0.45 9  203 292 
 ZAR  HZ I        1957 56.55        10.5 0.30            123            203 292 
 SML  HZ EP       1957 28.45                             118   -0.22 8  243 335 
 SML  HN ES       1957 56.57                             118   -0.79 8  243 335 
                                                                                
