 2011 12 3 1550 34.4 L   6.792 -73.126140.7  RSN 10 0.2 2.0LRSN                1
 GAP=139        0.38       2.0     2.6  3.0 -0.1937E+01  0.1928E+01  0.5379E+00E
 Epicentro: LOS SANTOS - SANTANDER                                             3
 ACTION:UPD 12-07-13 16:14 OP:ep   STATUS:               ID:20111203155034 L   I
 2011-12-03-1550-00M.COL___182                                                 6
 STAT SP IPHASW D HRMM SECON CODA AMPLIT PERI AZIMU VELO AIN AR TRES W  DIS CAZ7
 BAR2 SZ IP       1550 53.44                             170    0.0310 23.0 196 
 BAR2 SZ ES   1   1551  8.50                             170    0.26 7 23.0 196 
 GIR2 SZ EP       1550 53.36                             166   -0.1510 32.6 347 
 BRR  HZ IP     C 1550 55.14                             151    0.0010 73.5 298 
 BRR  HZ I        1550 55.39        43.9 0.14                          73.5 298 
 BRR  HE ES   1   1551 11.50                             151    0.19 7 73.5 298 
 PAM  SZ EP       1550 56.22                             150    0.1810 76.7  38 
 PAM  SN ES       1551 12.71                             150   -0.2010 76.7  38 
 RUS  HZ EP       1550 57.53                             143   -0.0510 99.6 177 
 RUS  HE ES   1   1551 15.56                             143   -0.10 7 99.6 177 
 RUS  HZ I        1551 18.59         7.9 0.32                          99.6 177 
 OCA  SZ EP   1   1551  2.37                             128   -0.06 7  161 352 
 NOR  SZ EP   1   1551 10.10                             117    0.12 6  236 235 
 NOR  SN ES   1   1551 37.53                             117   -0.19 6  236 235 
 CHI  HZ EP   2   1551 12.27                             116    0.48 4  248 196 
 CHI  HZ I        1551 45.58         3.4 0.33                           248 196 
 RREF HN ES   2   1551 56.09                             110   -0.28 3  323 230 
 RREF HZ I        1552  6.83         5.7 0.47                           323 230 
 PRA  HZ EP   2   1551 27.87                             106    0.08 3  392 210 
                                                                                
