 2017  1 3 1616 47.2 L   6.769 -73.166147.3  RSN  6 0.4 1.7LRSN                1
 GAP=135        0.97       4.9     4.3  6.6  0.2286E+01  0.7019E+01 -0.1481E+01E
 Epicentro: LOS SANTOS - SANTANDER                                             3
 ACTION:UPD 17-05-22 15:55 OP:jn   STATUS:               ID:20170103161647 L   I
 OLDACT:REG 17-01-03 20:44 OP:dnl  STATUS:               ID:20170103160748     3
 2017-01-03-1608-00M.COL___375                                                 6
 STAT SP IPHASW D HRMM SECON CODA AMPLIT PERI AZIMU VELO AIN AR TRES W  DIS CAZ7
 BAR2 EZ EP       1617  6.72                             172   -0.2210 19.6 185 
 BAR2 EZ ES       1617 21.91                             172   -0.4310 19.6 185 
 BAR2 EZ I        1617 23.23        15.7 0.34            173           19.6 185 
 BRR  HZ EP       1617  8.56                             153    0.0710 71.0 302 
 BRR  HN ES       1617 25.63                             153    0.5210 71.0 302 
 BRR  HZ I        1617 28.67        17.0 0.40            151           71.0 302 
 PAM  EZ EP       1617  9.78                             150   -0.0310 81.5  39 
 PAM  EN ES       1617 27.31                             150   -0.1510 81.5  39 
 PAM  EZ I        1617 28.83         4.6 0.50            152           81.5  39 
 RUS  HZ EP       1617 10.80                             145   -0.0610 97.3 175 
 RUS  HN ES       1617 29.91                             145    0.5910 97.3 175 
 RUS  HZ I        1617 30.79         2.8 0.20            148           97.3 175 
 PTB  HZ EP       1617 13.53                             133   -0.50 9  145 260 
 PTB  HN ES       1617 34.61                             133   -0.36 9  145 260 
 PTB  HZ I        1617 36.66         7.5 0.58            133            145 260 
 ZAR  HZ EP       1617 20.35                             123    0.69 9  203 293 
 ZAR  HE ES       1617 44.94                             123   -0.05 9  203 293 
 ZAR  HZ I        1617 53.09         5.9 0.20            123            203 293 
                                                                                
