 2017  9 3 1409 31.3 L   6.640 -73.417112.0  RSN  7 0.4 1.4LRSN                1
 GAP=134        0.80       3.4     3.7  6.1  0.3515E+01  0.1453E+02  0.6113E+01E
 Epicentro: EL CARMEN - SANTANDER                                              3
 ACTION:UPD 17-10-05 19:08 OP:rebc STATUS:               ID:20170903140931 L   I
 OLDACT:REG 17-09-03 20:53 OP:dhb  STATUS:               ID:20170903140743     3
 2017-09-03-1408-00M.COL___407                                                 6
 STAT SP IPHASW D HRMM SECON CODA AMPLIT PERI AZIMU VELO AIN AR TRES W  DIS CAZ7
 BAR2 EZ IP     C 14 9 47.00                             166    0.0410 26.4 101 
 BAR2 EZ ES       14 9 59.27                             166    0.0910 26.4 101 
 BAR2 EZ I        1410  0.55        11.4 0.10            170           26.4 101 
 BRR  HZ IP     C 14 9 47.83                             149   -0.4110 61.1 328 
 BRR  HE ES       1410  1.61                             149    0.1510 61.1 328 
 BRR  HZ I        1410  2.96         7.1 0.15            150           61.1 328 
 RUS  HZ EP       14 9 50.98                             139   -0.0710 90.5 156 
 RUS  HE ES     D 1410  6.61                             139    0.1410 90.5 156 
 RUS  HZ I        1410  8.49         4.9 0.18            142           90.5 156 
 ZAR  HZ EP       14 9 59.64                             117   -0.04 9  185 301 
 ZAR  HN ES       1410 21.75                             117   -0.09 9  185 301 
 ZAR  HZ I        1410 25.09         3.5 0.24            118            185 301 
 NOR  HZ EP       1410  1.26                             114   -0.13 9  200 234 
 NOR  HN ES       1410 24.04                             114   -0.84 9  200 234 
 NOR  HZ I        1410 26.18         2.2 0.31            116            200 234 
 HEL  HZ EP       1410  6.58                             110    0.40 8  239 258 
 HEL  HN ES       1410 33.95                             110    0.55 8  239 258 
 HEL  HZ I        1410 38.26         3.1 0.20            112            239 258 
 GUY2CHZ EP   3   1410 10.93                             108    1.42 2  267 234 
 GUY2CHN ES       1410 39.65                             108    0.33 8  267 234 
 GUY2CHZ I        1410 46.56         1.7 0.51                           267 234 
                                                                                
