 2011 12 3 1241  2.3 L   6.072 -73.587121.2  RSN  5 0.3 1.6LRSN                1
 GAP=167        0.49       3.3     8.2  7.1 -0.1375E-01  0.3584E+02  0.3254E+01E
 Epicentro: CHIPATA - SANTANDER                                                3
 ACTION:UPD 12-07-13 16:13 OP:ep   STATUS:               ID:20111203124102 L   I
 2011-12-03-1240-00M.COL___182                                                 6
 STAT SP IPHASW D HRMM SECON CODA AMPLIT PERI AZIMU VELO AIN AR TRES W  DIS CAZ7
 RUS  HZ EP   1   1241 20.94                             152    0.13 7 59.2 110 
 RUS  HE ES   1   1241 35.03                             152   -0.23 7 59.2 110 
 BAR2 SZ EP       1241 21.51                             147    0.2310 72.9  38 
 BAR2 SZ ES   1   1241 36.30                             147    0.19 7 72.9  38 
 BAR2 SZ I        1241 37.73         9.4 0.20                          72.9  38 
 BRR  HZ EP   2   1241 24.45                             133    0.17 5  115 353 
 BRR  HE ES   2   1241 40.95                             133   -0.49 5  115 353 
 BRR  HN I        1241 44.89        15.9 0.25                           115 353 
 CHI  HZ EP   1   1241 29.02                             123   -0.12 7  160 186 
 CHI  HZ I        1241 55.70         2.3 0.37                           160 186 
 PAM  SZ EP   2   1241 29.86                             121   -0.50 4  171  35 
 PAM  SE ES   2   1241 52.02                             121   -0.24 4  171  35 
                                                                                
