 2012 11 3 1501 48.8 L   6.320 -73.136123.0  RSN  5 0.3 1.8LRSN                1
 GAP=177        0.82       5.0    12.0  6.6  0.3275E+02  0.1762E+02  0.8180E+01E
 Epicentro: CHARALA - SANTANDER                                                3
 ACTION:UPD 12-12-05 15:31 OP:}ep  STATUS:               ID:20121103150148 L   I
 2012-11-03-1500-00M.COL___234                                                 6
 STAT SP IPHASW D HRMM SECON CODA AMPLIT PERI AZIMU VELO AIN AR TRES W  DIS CAZ7
 BAR2 SZ EP       15 2  5.97                             165    0.0510 30.6 350 
 BAR2 SZ ES       15 2 19.06                             165   -0.1910 30.6 350 
 RUS  HZ EP   1   15 2  7.85                             158    0.89 7 47.6 173 
 RUS  HN ES       15 2 21.04                             158   -0.0610 47.6 173 
 RUS  HN I        15 2 25.18        16.9 0.22                          47.6 173 
 GIR2 SZ EP       15 2  8.44                             143   -0.2210 84.2 356 
 BRR  HE ES       15 2 27.27                             136    0.1610  108 324 
 CHI  HZ EP       15 2 19.46                             118   -0.32 9  198 199 
                                                                                
