 2010  8 3 1016 24.0 L   6.798 -73.076142.8  RSN 11 0.3 2.3LRSN                1
 GAP=166        0.53       2.7     5.7  5.2 -0.4971E+01  0.5505E+01  0.8024E+00E
 Epicentro: LOS SANTOS - SANTANDER                                             3
 ACTION:UP  10-09-07 10:51 OP:vdl  STATUS:               ID:20100803101624 L   I
 2010-08-03-1013-24S.COL___126                                                 6
 STAT SP IPHASW D HRMM SECON CODA AMPLIT PERI AZIMU VELO SNR AR TRES W  DIS CAZ7
 BAR2 SZ EP       1016 43.40                             169     0.010   26 208 
 BAR2 SZ ES   2   1016 57.83                             169    -0.6 5   26 208 
 BAR2 SZ I        1016 59.51        36.9 0.36                            26 208 
 GIR2 SZ EP   1   1016 43.35                             166    -0.1 7   34 337 
 BRR  HZ EP   1   1016 45.19                             150    -0.1 7   78 296 
 BRR  HN ES   2   1017  2.10                             150     0.3 5   78 296 
 BRR  HZ I        1017  5.42        41.9 0.12                            78 296 
 RUS  HZ EP   1   1016 47.54                             143     0.1 7  100 180 
 RUS  HN ES   2   1017  5.86                             143     0.1 5  100 180 
 RUS  HZ I        1017  8.04        16.0 0.35                           100 180 
 GUE  SZ EP   1   1016 48.25                             139    -0.1 7  115   8 
 GRA  SZ EP   1   1016 49.10                             137     0.2 7  124  14 
 OCA  SZ EP   1   1016 51.77                             129    -0.5 7  162 350 
 OCA  SZ ES   2   1017 14.73                             129     0.5 5  162 350 
 OCA  SZ I        1017 16.59        26.8 0.15                           162 350 
 CHI  HZ EP   1   1017  1.93                             116     0.2 6  251 197 
 CHI  HE ES   2   1017 31.41                             116     0.2 4  251 197 
 CHI  HZ I        1017 39.08        10.4 0.47                           251 197 
 HEL  HZ EP   1   1017  4.98                             113     0.1 6  280 256 
 HEL  HZ I        1017 43.38         8.1 0.34                           280 256 
 RREF HZ EP   1   1017 11.11                             110     0.4 5  328 230 
 RREF HE ES   2   1017 46.99                             110    -0.1 3  328 230 
 RREF HZ I        1017 56.53        11.2 0.51                           328 230 
 PRA  HZ EP   1   1017 17.65                             106    -0.2 4  396 211 
 PRA  HE ES   2   1017 59.11                             106    -0.8 3  396 211 
 PRA  HZ I        1018  4.31        13.9 0.50                           396 211 
                                                                                
