 2010  8 3 1021 50.0 L   6.793 -73.061142.1  RSN  7 0.4 1.8LRSN                1
 GAP=168        0.69       4.6     8.7  7.5 -0.1178E+02  0.8393E+01  0.3808E+01E
 Epicentro: LOS SANTOS - SANTANDER                                             3
 ACTION:UP  10-09-07 10:51 OP:vdl  STATUS:               ID:20100803102150 L   I
 2010-08-03-1020-13S.COL___126                                                 6
 STAT SP IPHASW D HRMM SECON CODA AMPLIT PERI AZIMU VELO SNR AR TRES W  DIS CAZ7
 BAR2 SZ EP   1   1022  9.41                             169     0.1 7   26 211 
 BAR2 SZ ES   2   1022 23.85                             169    -0.5 5   26 211 
 BRR  HZ IP     C 1022 11.20                             150    -0.110   80 296 
 BRR  HZ I        1022 11.68        14.4 0.10                            80 296 
 BRR  HN ES   2   1022 28.02                             150     0.1 5   80 296 
 RUS  HZ EP   1   1022 13.43                             143     0.1 7  100 181 
 RUS  HN ES   2   1022 31.95                             143     0.4 5  100 181 
 RUS  HZ I        1022 33.15         5.9 0.22                           100 181 
 GUE  SZ EP   1   1022 13.82                             139    -0.5 7  116   7 
 GRA  SZ EP   2   1022 15.15                             137     0.3 5  124  13 
 GRA  SZ ES   2   1022 34.56                             137     0.4 5  124  13 
 GRA  SZ I        1022 36.94         5.8 0.40                           124  13 
 RREF HZ EP   1   1022 37.65                             110     0.9 5  328 231 
 RREF HN ES   3   1023 12.67                             110    -0.6 2  328 231 
 RREF HZ I        1023 21.64         3.0 0.25                           328 231 
 PRA  HZ EP   1   1022 43.70                             106    -0.2 4  396 211 
 PRA  HE ES   2   1023 25.36                             106    -0.6 3  396 211 
 PRA  HZ I        1023 32.15         3.2 0.36                           396 211 
                                                                                
