 2014  6 3 1423 51.1 L   6.801 -73.184140.2  RSN 14 0.5 2.1LRSN                1
 GAP= 69        1.16       3.1     4.0  5.6 -0.1971E+01  0.6567E+01  0.2713E+01E
 Epicentro: LOS SANTOS - SANTANDER                                             3
 ACTION:UPD 14-07-01 22:50 OP:nd   STATUS:               ID:20140603142351 L   I
 OLDACT:REG 14-06-03 20:57 OP:stll STATUS:               ID:20140603141810     3
 2014-06-03-1418-10M.COL___259                                                 6
 STAT SP IPHASW D HRMM SECON CODA AMPLIT PERI AZIMU VELO AIN AR TRES W  DIS CAZ7
 BAR2 SZ EP       1424  9.98                             170   -0.0810 23.1 180 
 BAR2 SZ ES       1424 24.64                             170   -0.2010 23.1 180 
 BAR2 SZ I        1424 27.19        20.7 0.30            170           23.1 180 
 BRR  HZ EP       1424 12.04                             153    0.6010 67.5 300 
 BRR  HN ES       1424 28.39                             153    1.0910 67.5 300 
 BRR  HZ I        1424 31.61        19.3 0.32            150           67.5 300 
 PAM  SZ EP     D 1424 12.94                             149    0.0510 80.0  42 
 PAM  SZ I        1424 13.33        34.1 0.20            152           80.0  42 
 PAM  SN ES       1424 29.66                             149   -0.2310 80.0  42 
 RUS  HZ EP       1424 14.41                             143    0.0610  101 174 
 RUS  HN ES       1424 32.46                             143   -0.0110  101 174 
 TAM  HZ IP     D 1424 18.61                             128   -0.12 9  159 105 
 TAM  HZ I        1424 19.01        21.3 0.36            133            159 105 
 SPBC HZ EP       1424 19.06                             128    0.12 9  161 218 
 SPBC HN ES       1424 40.30                             128   -0.35 9  161 218 
 ZAR  HZ EP       1424 22.69                             122   -0.09 9  200 293 
 ZAR  HN ES       1424 47.17                             122   -0.32 9  200 293 
 ZAR  HZ I        1424 54.53         8.2 0.10            121            200 293 
 NOR  HZ EP       1424 26.59                             118    0.44 8  231 234 
 NOR  HE ES       1424 52.39                             118   -1.10 8  231 234 
 NOR  HZ I        1425  2.05         9.0 0.18            118            231 234 
 SML  HZ EP       1424 26.99                             116   -0.23 8  242 336 
 SML  HN ES       1424 54.49                             116   -0.90 8  242 336 
 SML  HZ I        1424 59.71        14.7 0.10            117            242 336 
 CHI  HZ EP       1424 27.85                             116   -0.54 8  248 194 
 CHI  HN ES       1424 57.50                             116    0.02 8  248 194 
 GUY2CHZ EP       1424 34.65                             111    0.57 7  298 234 
 GUY2CHN ES       1425  7.76                             111    0.16 7  298 234 
 GUY2CHZ I        1425 20.54         5.3 0.48                           298 234 
 RREF HZ EP       1424 37.18                             110    0.53 7  319 229 
 RREF HN ES       1425 11.54                             110   -0.64 7  319 229 
 RREF HZ I        1425 19.30         5.3 0.24            111            319 229 
 TOL  SZ EP       1424 39.98                             108    1.17 7  341 224 
 TOL  SN ES       1425 16.50                             108    0.48 7  341 224 
 PRA  HZ EP       1424 43.84                             106   -0.37 6  390 209 
 PRA  HN ES       1425 25.30                             106   -0.33 6  390 209 
 PRA  HZ I        1425 32.43         4.8 0.40            107            390 209 
                                                                                
