 2013  8 3 1647 36.3 L   6.787 -73.166148.5  RSN  6 0.4 1.8LRSN                1
 GAP=180        1.11       7.0     6.8  8.1  0.1636E+02  0.1265E+02  0.5028E+01E
 Epicentro: LOS SANTOS - SANTANDER                                             3
 ACTION:UPD 14-01-14 08:58 OP:ep   STATUS:               ID:20130803164736 L   I
 OLDACT:REG 13-08-03 15:06 OP:cam  STATUS:               ID:20130803163959     3
 2013-08-03-1639-59M.COL___270                                                 6
 STAT SP IPHASW D HRMM SECON CODA AMPLIT PERI AZIMU VELO AIN AR TRES W  DIS CAZ7
 BAR2 SZ EP       1647 56.23                             171   -0.0410 21.6 185 
 BAR2 SZ ES       1648 11.36                             171   -0.4510 21.6 185 
 BAR2 SZ I        1648 12.63        11.1 0.12            167           21.6 185 
 GIR2 SZ EP       1647 56.21                             167   -0.1610 32.4 355 
 GIR2 SZ ES       1648 11.55                             167   -0.4510 32.4 355 
 BRR  HZ EP       1647 58.03                             153    0.3110 69.9 300 
 BRR  HE ES       1648 15.31                             153    0.9210 69.9 300 
 BRR  HZ I        1648 18.98        15.3 0.46            151           69.9 300 
 RUS  HZ EP   1   1648  0.77                             145    0.50 7 99.3 175 
 RUS  HN ES       1648 19.23                             145    0.2910 99.3 175 
 RUS  HZ I        1648 19.99         5.8 0.26            145           99.3 175 
 PTB  HZ EP       1648  2.84                             133   -0.47 9  145 259 
 PTB  HN ES       1648 24.01                             133   -0.33 9  145 259 
 PTB  HZ I        1648 31.24        10.1 0.34            132            145 259 
 ZAR  HE ES   1   1648 34.13                             123    0.00 6  202 293 
                                                                                
