 2012  4 3 1519  5.0 L   6.801 -73.107146.0  RSN  4 0.2 1.5LRSN                1
 GAP=141        0.60       4.1     6.7  6.7 -0.3493E+01  0.5325E+01  0.4195E+00E
 Epicentro: LOS SANTOS - SANTANDER                                             3
 ACTION:UPD 12-07-05 11:50 OP:tino STATUS:               ID:20120403151905 L   I
 2012-04-03-1518-18M.COL___178                                                 6
 STAT SP IPHASW D HRMM SECON CODA AMPLIT PERI AZIMU VELO AIN AR TRES W  DIS CAZ7
 BAR2 SZ EP       1519 24.41                             170    -0.310   25 200 
 BAR2 SZ ES   2   1519 39.58                             170    -0.5 5   25 200 
 BAR2 SZ I        1519 43.27         6.2 0.46                            25 200 
 BRR  HZ EP       1519 26.34                             151    -0.110   75 297 
 BRR  HZ I        1519 36.61         9.8 0.36                            75 297 
 BRR  HN ES   2   1519 43.57                             151     0.5 5   75 297 
 PAM  SZ EP       1519 27.09                             152     0.010   75  37 
 PAM  SN ES   1   1519 44.44                             152     0.1 7   75  37 
 RUS  HZ EP       1519 28.99                             144     0.210  101 179 
 RUS  HN ES   1   1519 47.39                             144     0.1 7  101 179 
 RUS  HZ I        1519 48.42         3.5 0.56                           101 179 
                                                                                
