 2010  7 3 1246 25.6 L   6.732 -73.135138.9  RSN  4 0.4 1.5LRSN                1
 GAP=158        0.79       5.4    10.6 10.4  0.4265E+00 -0.2271E+02 -0.6153E+01E
 Epicentro: JORDAN - SANTANDER                                                 3
 ACTION:UPD 10-12-01 15:14 OP:pat  STATUS:               ID:20100703124625 L   I
 2010-07-03-1244-43S.COL___117                                                 6
 STAT SP IPHASW D HRMM SECON CODA AMPLIT PERI AZIMU VELO AIN AR TRES W  DIS CAZ7
 BAR2 SZ EP       1246 43.94                             173    -0.310   16 199 
 BAR2 SZ ES   2   1246 58.36                             173    -0.5 5   16 199 
 BRR  HZ EP       1246 46.14                             150    -0.210   76 303 
 BRR  HN ES   2   1247  3.11                             150     0.6 5   76 303 
 BRR  HZ I        1247  5.20        10.2 0.16                            76 303 
 RUS  HZ EP       1246 48.25                             144     0.110   93 176 
 RUS  HN ES   2   1247  6.25                             144     0.5 5   93 176 
 RUS  HZ I        1247  8.16         4.4 0.22                            93 176 
 BRI  SZ EP       1246 49.67                             138     0.310  115  19 
 BRI  SZ ES   2   1247  7.75                             138    -0.2 5  115  19 
 BRI  SZ I        1247 14.05         4.9 0.77                           115  19 
                                                                                
