 2017  9 3 1234 59.9 L   6.772 -73.124140.9  RSN  9 0.3 1.7LRSN                1
 GAP=115        0.89       2.9     3.4  5.1  0.1156E+01  0.4023E+01  0.3590E+01E
 Epicentro: LOS SANTOS - SANTANDER                                             3
 ACTION:UPD 17-10-05 19:08 OP:rebc STATUS:               ID:20170903123459 L   I
 OLDACT:DUP 17-09-03 22:27 OP:dhb  STATUS:               ID:20170903122749d    3
 2017-09-03-1228-00M.COL___404                                                 6
 STAT SP IPHASW D HRMM SECON CODA AMPLIT PERI AZIMU VELO AIN AR TRES W  DIS CAZ7
 BAR2 EZ IP     D 1235 18.68                             171   -0.1910 20.9 198 
 BAR2 EZ ES       1235 33.50                             171   -0.1910 20.9 198 
 BAR2 EZ I        1235 35.04         7.3 0.21            168           20.9 198 
 BRR  HZ EP       1235 20.92                             150    0.2010 74.8 300 
 BRR  HN ES       1235 37.44                             150    0.4710 74.8 300 
 BRR  HZ I        1235 42.69         8.8 0.27            150           74.8 300 
 PAM  EZ IP     C 1235 21.68                             150    0.0410 78.4  37 
 PAM  EE ES       1235 38.32                             150   -0.2910 78.4  37 
 PAM  EZ I        1235 40.75        14.8 0.45            155           78.4  37 
 RUS  HZ EP       1235 22.38                             144   -0.5410 97.3 177 
 RUS  HN ES       1235 41.15                             144    0.2710 97.3 177 
 RUS  HZ I        1235 42.77         9.8 0.39            144           97.3 177 
 SPBC HZ EP       1235 28.80                             128    0.88 9  162 220 
 SPBC HN ES       1235 49.47                             128   -0.33 9  162 220 
 SPBC HZ I        1235 52.86         7.9 0.43            128            162 220 
 YPLC HZ EP       1235 29.15                             126    0.21 9  173 152 
 YPLC HE ES       1235 51.69                             126    0.08 9  173 152 
 YPLC HZ I        1235 55.71         6.3 0.26            128            173 152 
 ZAR  HZ EP       1235 32.01                             121   -0.36 8  207 293 
 ZAR  HN ES       1235 57.84                             121    0.13 8  207 293 
 ZAR  HZ I        1236  2.96         5.8 0.24            122            207 293 
 NOR  HZ EP       1235 35.22                             117   -0.13 8  235 235 
 NOR  HE ES       1236  2.49                             117   -0.52 8  235 235 
 NOR  HZ I        1236 10.01         3.4 0.18            118            235 235 
 CHI  HZ EP       1235 37.06                             116    0.01 8  246 196 
 CHI  HN ES       1236  6.22                             116    0.17 8  246 196 
 CHI  HZ I        1236 16.24         1.6 0.73            118            246 196 
                                                                                
