 2014  4 3 1951 12.3 L   6.822 -73.153144.6  RSN 14 0.4 2.4LRSN                1
 GAP=135        0.85       2.6     3.3  4.9 -0.6919E+00  0.4538E+01  0.1484E+01E
 Epicentro: LOS SANTOS - SANTANDER                                             3
 OLDACT:REG 14-04-04 10:45 OP:mh   STATUS:               ID:20140403194900     3
 ACTION:UPD 14-05-13 23:06 OP:nd   STATUS:               ID:20140403195112 L   I
 OLDACT:UP  14-04-04 10:51 OP:mh   STATUS:               ID:20140403194900     3
 OLDACT:UP  14-04-04 10:51 OP:mh   STATUS:               ID:20140403194900     3
 OLDACT:UP  14-04-04 10:50 OP:mh   STATUS:               ID:20140403194900     3
 2014-04-03-1949-00S.MAN___240                                                 6
 OLDACT:UP  14-04-04 10:50 OP:mh   STATUS:               ID:20140403194900     3
 STAT SP IPHASW D HRMM SECON CODA AMPLIT PERI AZIMU VELO AIN AR TRES W  DIS CAZ7
 BRR  HN ES   1   1951 49.87                             153    0.36 7 69.3 297 
 BRR  HZ I        1951 54.07        32.8 0.11            149           69.3 297 
 PAM  SZ EP       1951 34.95                             151    0.6610 76.1  41 
 PAM  SN ES       1951 51.68                             151    0.2210 76.1  41 
 PAM  SZ I        1951 53.54        27.3 0.42            156           76.1  41 
 RUS  HZ EP       1951 36.03                             143   -0.0610  103 176 
 RUS  HN ES       1951 54.17                             143   -0.4910  103 176 
 RUS  SZ I        1951 55.55        32.1 0.26            146            103 176 
 PTB  HZ EP       1951 38.68                             132   -0.44 9  147 258 
 PTB  HN ES       1951 59.57                             132   -0.48 9  147 258 
 PTB  SZ I        1952  6.31        40.3 0.48            131            147 258 
 SPBC HZ EP       1951 40.86                             129    0.05 9  165 218 
 SPBC HN ES       1952  3.30                             129    0.23 9  165 218 
 SPBC SZ I        1952  7.60        36.2 0.22            129            165 218 
 ZAR  HZ EP       1951 44.33                             122   -0.14 9  202 292 
 ZAR  HN ES       1952  9.77                             122    0.19 9  202 292 
 ZAR  SZ I        1952 14.99        20.5 0.14            122            202 292 
 NOR  HZ EP       1951 48.06                             118    0.05 8  235 234 
 NOR  HN ES       1952 15.80                             118   -0.09 8  235 234 
 NOR  SZ I        1952 21.37        20.3 0.20            119            235 234 
 SML  HZ EP       1951 47.99                             117   -0.57 8  241 335 
 SML  HN ES   1   1952 16.13                             117   -0.73 6  241 335 
 SML  SZ I        1952 25.91        32.0 0.08            119            241 335 
 CHI  HZ EP       1951 50.03                             117   -0.10 8  251 195 
 CHI  HN ES       1952 19.70                             117    0.04 8  251 195 
 CHI  SZ I        1952 24.63        18.8 0.34            119            251 195 
 HEL  HZ EP   1   1951 53.09                             114    0.69 6  272 255 
 HEL  HN ES   1   1952 24.46                             114    0.76 6  272 255 
 HEL  SZ I        1952 30.02        16.2 0.30            115            272 255 
 GUY2CHZ EP       1951 56.45                             112    0.54 7  302 234 
 GUY2CHN ES   4   1952 33.43                             112    3.49 0  302 234 
 GUY2CSZ I        1952 38.07        15.1 0.30                           302 234 
 RREF HZ EP       1951 58.26                             110   -0.21 7  323 229 
 RREF HN ES   4   1952 37.79                             110    3.29 0  323 229 
 RREF SZ I        1952 40.04        13.1 0.48            112            323 229 
 CBOC HZ EP       1951 59.53                             110    0.40 7  334 252 
 CBOC HN ES   4   1952 34.25                             110   -1.43 0  334 252 
 CBOC HZ I        1952 48.51         3.9 0.42            111            334 252 
 PRA  HZ EP       1952  5.68                             106   -0.27 6  394 209 
 PRA  HN ES   1   1952 47.61                             106   -0.20 4  394 209 
 PRA  SZ I        1952 51.85        18.5 0.42            108            394 209 
                                                                                
