 2011 11 3 1906 47.7 L   6.768 -73.119142.9  RSN 11 0.5 2.5LRSN                1
 GAP=141        0.92       5.2     6.0  6.8 -0.8227E+01  0.1564E+02  0.7173E+01E
 Epicentro: LOS SANTOS - SANTANDER                                             3
 ACTION:UPD 12-07-13 16:07 OP:ep   STATUS:               ID:20111103190647 L   I
 2011-11-03-1905-27S.COL___176                                                 6
 STAT SP IPHASW D HRMM SECON CODA AMPLIT PERI AZIMU VELO AIN AR TRES W  DIS CAZ7
 BAR2 SZ EP       19 7  6.76                             171   -0.2110 20.7 200 
 BAR2 SZ ES   1   19 7 22.22                             171    0.25 7 20.7 200 
 BAR2 SZ I        19 7 23.14        94.9 0.14                          20.7 200 
 BTL  SZ EP       19 7  7.04                             170    0.0110 23.4 315 
 BRR  HZ EP       19 7  8.69                             150   -0.1410 75.5 300 
 BRR  HN ES   1   19 7 25.66                             150    0.37 7 75.5 300 
 BRR  HZ I        19 7 28.91        64.9 0.14                          75.5 300 
 PAM  SZ EP       19 7  9.67                             150   -0.0410 78.3  36 
 PAM  SE ES   1   19 7 26.81                             150   -0.03 7 78.3  36 
 RUS  HZ EP       19 7 10.71                             144   -0.2310 96.9 178 
 RUS  HZ I        19 7 11.60        24.5 0.46                          96.9 178 
 RUS  HN ES   1   19 7 28.55                             144   -0.49 7 96.9 178 
 ZAR  HZ EP   3   19 7 19.43                             121   -1.00 2  208 293 
 ZAR  HE ES   3   19 7 45.06                             121   -0.86 2  208 293 
 ZAR  HZ I        19 7 50.76        37.8 0.52                           208 293 
 CTAB SZ EP       19 7 24.57                             119    1.41 8  228 212 
 NOR  SZ EP       19 7 23.02                             118   -0.33 8  235 236 
 NOR  SN ES   1   19 7 51.02                             118   -0.10 6  235 236 
 HEL  HZ EP       19 7 27.91                             114   -0.13 8  274 257 
 HEL  HZ I        19 8  5.33        17.7 0.34                           274 257 
 GUY  SZ EP       19 7 31.87                             111    0.34 7  304 236 
 GUY  SZ I        19 8 12.01        20.6 0.46                           304 236 
 RREF HZ EP   2   19 7 33.29                             110   -0.47 3  322 230 
 RREF HN ES   2   19 8  8.83                             110   -0.82 3  322 230 
 RREF HZ I        19 8 18.66        17.2 0.28                           322 230 
                                                                                
