 2010  4 3 1814 21.5 L   6.858 -73.023154.4  RSN  4 0.3 1.9LRSN                1
 GAP=268        0.52       7.4    15.0 12.4 -0.3821E+00 -0.6083E+02  0.5726E+02E
 Epicentro: CEPITA - SANTANDER                                                 3
 ACTION:UPD 10-08-24 09:57 OP:vdl  STATUS:               ID:20100403181421 L   I
 2010-04-03-1811-40S.COL___098                                                 6
 STAT SP IPHASW D HRMM SECON CODA AMPLIT PERI AZIMU VELO AIN AR TRES W  DIS CAZ7
 BAR2 SZ EP   1   1814 42.22                             168    -0.2 7   34 211 
 BRR  HZ EP   1   1814 44.43                             155     0.3 7   81 290 
 BRR  HE ES   2   1815  1.47                             155    -0.3 5   81 290 
 BRR  HZ I        1815  3.88        13.9 0.15                            81 290 
 CHI  HZ EP   1   1815  0.67                             119     0.0 6  259 198 
 CHI  HE ES   2   1815 31.69                             119     0.3 4  259 198 
 CHI  HZ I        1815 33.52         4.6 0.51                           259 198 
 PRA  HZ EP   1   1815 16.40                             108    -0.3 4  404 211 
                                                                                
