 2017  9 3 1104 36.8 L   6.841 -73.031142.0  RSN  4 0.1 1.1LRSN                1
 GAP=252        0.43       4.8     5.5  4.0  0.2188E+02 -0.3389E+01 -0.4184E+01E
 Epicentro: CEPITA - SANTANDER                                                 3
 ACTION:UPD 17-10-05 19:08 OP:rebc STATUS:               ID:20170903110436 L   I
 OLDACT:REG 17-09-03 20:30 OP:dhb  STATUS:               ID:20170903105740     3
 2017-09-03-1058-00M.COL___396                                                 6
 STAT SP IPHASW D HRMM SECON CODA AMPLIT PERI AZIMU VELO AIN AR TRES W  DIS CAZ7
 BAR2 EZ EP       11 4 55.99                             167   -0.2410 32.2 211 
 BAR2 EZ ES       11 5 11.32                             167   -0.0410 32.2 211 
 BAR2 EZ I        11 5 12.16         2.0 0.17            161           32.2 211 
 BRR  HZ EP       11 4 58.36                             149    0.2010 80.8 291 
 BRR  HN ES       11 5 14.85                             149    0.0610 80.8 291 
 BRR  HZ I        11 5 18.21         5.7 0.25            144           80.8 291 
 RUS  HZ EP       11 5  0.60                             142    0.0510  105 183 
 RUS  HE ES       11 5 19.09                             142    0.0410  105 183 
 RUS  HZ I        11 5 19.59         2.2 0.33            141            105 183 
 ZAR  HN ES       11 5 35.94                             120   -0.12 8  214 290 
 ZAR  HZ I        11 5 41.01         0.8 0.15            119            214 290 
                                                                                
