 2010  2 3 1011 26.1 L   6.833 -73.130143.2  RSN 11 0.5 2.2LRSN                1
 GAP=127        0.99       4.8    10.3  7.6 -0.3555E+01  0.3163E+02 -0.4216E+01E
 Epicentro: LOS SANTOS - SANTANDER                                             3
 ACTION:UP  10-08-24 09:47 OP:vdl  STATUS:               ID:20100203101126 L   I
 2010-02-03-1008-37S.COL___097                                                 6
 STAT SP IPHASW D HRMM SECON CODA AMPLIT PERI AZIMU VELO SNR AR TRES W  DIS CAZ7
 BAR2 SZ IP       1011 45.63                             169     0.110   27 192 
 BAR2 SZ ES   2   1012  0.56                             169    -0.1 5   27 192 
 GIR2 SZ EP   1   1011 45.83                             168     0.4 7   28 346 
 GIR2 SZ ES   1   1012  0.83                             168     0.4 7   28 346 
 RUS  BZ EP   1   1011 49.51                             143    -0.4 7  104 177 
 RUS  BE ES       1012  8.09                             143    -0.410  104 177 
 RUS  BZ I        1012  8.86        16.3 0.31                           104 177 
 OCA  SZ EP   1   1011 54.48                             129     0.6 7  157 352 
 CHI  HZ EP   1   1012  3.76                             116    -0.4 6  253 195 
 CHI  HN ES   1   1012 33.51                             116    -0.3 6  253 195 
 CHI  HZ I        1012 35.15         4.1 0.33                           253 195 
 HEL  HZ EP   2   1012  6.79                             114     0.3 4  275 255 
 HEL  HZ I        1012 44.37        16.5 0.43                           275 255 
 RREF BZ EP   2   1012 13.93                             110     1.3 3  325 229 
 RREF BZ I        1012 56.29         9.5 0.55                           325 229 
 TOL  SZ EP       1012 15.42                             109     0.7 6  347 224 
 MON  HZ EP   1   1012 13.54                             108    -1.4 5  352 308 
 MON  HE ES   2   1012 52.12                             108    -0.8 3  352 308 
 MON  HZ I        1013  9.55         5.3 0.63                           352 308 
 SDV  BZ EP   1   1012 15.53                             108    -0.1 5  357  50 
 PRA  HZ EP   2   1012 20.00                             106     0.0 3  396 210 
 PRA  HZ I        1013  9.93         6.7 0.44                           396 210 
                                                                                
