 2011  1 3 1327  9.7 L   6.617 -73.212127.8  RSN  4 0.1 1.3LRSN                1
 GAP=155        0.36       3.7    15.2  6.2 -0.1377E+02  0.5060E+02  0.2360E+01E
 Epicentro: BARICHARA - SANTANDER                                              3
 ACTION:UP  11-02-08 08:38 OP:pat  STATUS:               ID:20110103132709 L   I
 2011-01-03-1320-00M.COL___137                                                 6
 STAT SP IPHASW D HRMM SECON CODA AMPLIT PERI AZIMU VELO SNR AR TRES W  DIS CAZ7
 BAR2 SZ EP   1   1327 26.97                             178     0.1 7    4 132 
 BAR2 SZ ES   2   1327 40.32                             178     0.0 5    4 132 
 BAR2 SZ I        1327 41.57         6.0 0.71                             4 132 
 BTL  SZ EP   1   1327 27.37                             164    -0.1 7   34 350 
 RUS  HZ EP   1   1327 30.39                             146     0.1 7   81 170 
 RUS  HE ES   2   1327 46.13                             146    -0.2 5   81 170 
 RUS  HZ I        1327 47.36         4.9 0.28                            81 170 
 CHI  HZ EP   1   1327 43.86                             115    -0.2 6  227 195 
 CHI  HE ES   2   1328 11.02                             115     0.2 4  227 195 
 CHI  HZ I        1328 12.25         1.5 0.46                           227 195 
                                                                                
