 2017  4 3 1206 31.9 L   6.790 -73.174146.3  RSN  9 0.3 2.1LRSN                1
 GAP=110        0.90       3.3     3.1  5.4  0.1270E+01  0.2795E+01  0.2248E+01E
 Epicentro: LOS SANTOS - SANTANDER                                             3
 ACTION:UPD 17-05-30 21:08 OP:jn   STATUS:               ID:20170403120631 L   I
 OLDACT:REG 17-04-03 20:20 OP:ar   STATUS:               ID:20170403115744     3
 2017-04-03-1158-00M.COL___365                                                 6
 STAT SP IPHASW D HRMM SECON CODA AMPLIT PERI AZIMU VELO AIN AR TRES W  DIS CAZ7
 BAR2 EZ EP       12 6 51.12                             171   -0.4410 21.9 182 
 BAR2 EZ ES       12 7  6.78                             171   -0.1210 21.9 182 
 BAR2 EZ I        12 7  8.71        48.9 0.30            170           21.9 182 
 BRR  HZ EP       12 6 52.90                             153   -0.0810 69.0 301 
 BRR  HN ES       12 7  9.94                             153    0.5110 69.0 301 
 BRR  HZ I        12 7 13.83        28.2 0.26            152           69.0 301 
 PAM  EZ EP       12 6 54.12                             150   -0.2210 80.2  41 
 PAM  EN ES       12 7 11.96                             150    0.1210 80.2  41 
 PAM  EZ I        12 7 14.29        12.6 0.54            154           80.2  41 
 RUS  HZ EP       12 6 55.30                             144   -0.3410 99.8 174 
 RUS  HE ES       12 7 13.89                             144   -0.2710 99.8 174 
 RUS  HZ I        12 7 14.98        12.9 0.24            146           99.8 174 
 PTB  HZ EP       12 6 59.10                             133    0.49 9  144 259 
 PTB  HN ES       12 7 18.87                             133   -0.58 9  144 259 
 PTB  HZ I        12 7 24.69        16.2 0.22            133            144 259 
 SPBC HZ EP       12 7  0.38                             130    0.21 9  160 218 
 SPBC HE ES       12 7 22.36                             130    0.14 9  160 218 
 SPBC HZ I        12 7 26.09        28.0 0.46            131            160 218 
 YPLC HZ IP     C 12 7  1.55                             127   -0.23 9  177 150 
 YPLC HE ES       12 7 25.88                             127    0.78 9  177 150 
 YPLC HZ I        12 7 26.62        12.1 0.24            130            177 150 
 ZAR  HZ EP       12 7  4.24                             123    0.12 9  202 293 
 ZAR  HN ES       12 7 29.33                             123    0.08 9  202 293 
 ZAR  HZ I        12 7 34.04        18.1 0.24            124            202 293 
 NOR  HE ES       12 7 34.98                             119    0.04 8  232 234 
 NOR  HZ I        12 7 41.88        11.0 0.18            120            232 234 
                                                                                
