 2011  9 3 1458 48.0 L   6.901 -72.938129.0  RSN  4 0.2 1.5LRSN                1
 GAP=243        0.42       8.6    11.9  8.7  0.8195E+02 -0.6551E+02 -0.4907E+02E
 Epicentro: GUACA - SANTANDER                                                  3
 ACTION:UPD 12-07-13 15:55 OP:ep   STATUS:               ID:20110903145848 L   I
 2011-09-03-1457-51S.COL___171                                                 6
 STAT SP IPHASW D HRMM SECON CODA AMPLIT PERI AZIMU VELO AIN AR TRES W  DIS CAZ7
 GIR2 SZ EP   2   1459  6.06                             164    0.28 5 34.4 305 
 BAR2 SZ EP   1   1459  6.33                             160    0.07 7 43.5 218 
 BAR2 SZ ES   1   1459 20.33                             160   -0.18 7 43.5 218 
 BAR2 SZ I        1459 22.56         3.4 0.54                          43.5 218 
 BRR  HZ EP   1   1459  8.29                             143   -0.24 7 88.5 285 
 BRR  HZ I        1459 22.38        13.5 0.40                          88.5 285 
 BRR  HN ES   1   1459 24.69                             143    0.14 7 88.5 285 
 RUS  HE ES   2   1459 29.32                             137    0.17 5  113 188 
                                                                                
