 2015 11 3 1856 57.8 L   6.831 -73.154144.7  RSN 19 0.4 2.7LRSN                1
 GAP=134        0.87       2.7     4.2  4.9 -0.3058E+01  0.8764E+01 -0.8582E+00E
 Epicentro: LOS SANTOS - SANTANDER                                             3
 ACTION:UPD 15-12-28 16:08 OP:cam  STATUS:               ID:20151103185657 L   I
 OLDACT:UP  15-12-17 20:52 OP:cam  STATUS:               ID:20151103185657 L   3
 OLDACT:UP  15-11-19 06:49 OP:CARA STATUS:               ID:20151103185657 L   3
 OLDACT:UP  15-11-04 01:45 OP:ar   STATUS:               ID:20151103184750     3
 OLDACT:REG 15-11-03 22:20 OP:ar   STATUS:               ID:20151103184750     3
 2015-11-03-1847-50M.COL___306                                                 6
 STAT SP IPHASW D HRMM SECON CODA AMPLIT PERI AZIMU VELO AIN AR TRES W  DIS CAZ7
 BAR2 EZ EP       1857 17.34                             169    0.0110 26.6 187 
 BAR2 EZ ES       1857 32.32                             169   -0.2810 26.6 187 
 BAR2 EZ I        1857 33.75        62.8 0.20            167           26.6 187 
 BRR  HZ EP   2   1857 19.47                             153    0.81 5 68.8 296 
 BRR  HN ES   2   1857 36.20                             153    1.24 5 68.8 296 
 BRR  HZ I        1857 41.63        59.2 0.12            147           68.8 296 
 PAM  EZ EP       1857 20.13                             151    0.3910 75.3  42 
 PAM  EN ES       1857 36.98                             151    0.1010 75.3  42 
 PAM  EZ I        1857 39.29       107.3 0.48            155           75.3  42 
 RUS  HZ EP       1857 21.35                             143   -0.3110  104 176 
 RUS  HN ES       1857 40.41                             143    0.1010  104 176 
 RUS  HZ I        1857 40.99        67.6 0.24            146            104 176 
 OCA  HZ EP       1857 25.16                             130   -0.50 9  157 353 
 OCA  HN ES   2   1857 47.03                             130   -0.38 5  157 353 
 OCA  HZ I        1857 51.79       117.0 0.38            130            157 353 
 SPBC HZ EP       1857 26.33                             128   -0.05 9  165 218 
 SPBC HE ES       1857 48.55                             128   -0.16 9  165 218 
 SPBC HZ I        1857 50.79        64.8 0.36            129            165 218 
 ZAR  HZ EP       1857 29.74                             122   -0.18 9  202 291 
 ZAR  HN ES   2   1857 55.22                             122    0.22 4  202 291 
 ZAR  HZ I        1858  0.50        42.2 0.42            121            202 291 
 NOR  HZ EP       1857 33.49                             118   -0.08 8  236 234 
 NOR  HN ES       1858  1.63                             118    0.13 8  236 234 
 NOR  HZ I        1858  8.14        32.0 0.16            118            236 234 
 SML  HZ EP       1857 33.61                             118   -0.34 8  240 335 
 SML  HN ES   2   1858  2.16                             118   -0.01 4  240 335 
 SML  HZ I        1858 10.44        60.4 0.22            118            240 335 
 CHI  HZ EP       1857 35.55                             117   -0.19 8  252 195 
 CHI  HN ES       1858  4.86                             117   -0.50 8  252 195 
 CHI  HZ I        1858  8.14        32.4 0.38            119            252 195 
 ROSC BZ EP       1857 37.16                             116    1.06 8  255 210 
 ROSC BN ES   4   1858  8.31                             116    2.31 0  255 210 
 ROSC BZ I        1858 11.69        50.1 0.40            117            255 210 
 HEL  HZ EP   4   1857 39.48                             115    1.56 0  272 255 
 HEL  HN ES   2   1858  8.38                             115   -0.86 4  272 255 
 HEL  HZ I        1858 16.23        31.1 0.48            114            272 255 
 GUY2CHZ EP   2   1857 41.78                             112    0.31 4  302 234 
 GUY2CHN ES   4   1858 19.55                             112    3.99 0  302 234 
 GUY2CHZ I        1858 22.84        19.3 0.54                           302 234 
 PTGC HZ EP   4   1857 40.42                             111   -1.56 0  312 159 
 PTGC HN ES   4   1858 13.92                             111   -2.54 0  312 159 
 PTGC HZ I        1858 16.49        28.6 0.28            114            312 159 
 CBOC HZ EP   2   1857 45.17                             110    0.51 3  334 251 
 CBOC HE ES   2   1858 20.87                             110   -0.37 3  334 251 
 CBOC HZ I        1858 24.76         6.8 0.20            110            334 251 
 DBB  SZ EP   2   1857 44.91                             109   -0.16 3  338 274 
 DBB  SZ ES   4   1858 20.46                             109   -1.50 0  338 274 
 MON  HZ EP   9   1857 44.25                             109   -2.14 0  351 308 
 MON  HN ES       1858 22.98                             109    0.80 6  351 308 
 MON  HZ I        1858 38.28         9.9 0.42            109            351 308 
 ANIL HZ EP       1857 48.47                             108    0.73 6  359 224 
 ANIL HZ IPn      1857 52.37                                            359 224 
 ANIL HN ES   4   1858 29.95                             108    3.23 0  359 224 
 ANIL HZ I        1858 35.15        52.5 0.38            109            359 224 
 SJC  HZ EP   4   1857 51.34                             106   -1.55 0  406 327 
 SJC  HN ES   4   1858 32.34                             106   -3.55 0  406 327 
 SJC  HZ I        1858 39.10         7.1 0.68            106            406 327 
                                                                                
