 2011  1 3 1353 11.4 L   5.933 -73.767113.5  RSN  5 0.1 1.2LRSN                1
 GAP=135        0.36       2.7     3.0  6.3 -0.3578E+01  0.6104E+01 -0.1400E+01E
 Epicentro: GUAVATA - SANTANDER                                                3
 ACTION:UP  11-02-08 08:38 OP:pat  STATUS:               ID:20110103135311 L   I
 2011-01-03-1340-00M.COL___137                                                 6
 STAT SP IPHASW D HRMM SECON CODA AMPLIT PERI AZIMU VELO SNR AR TRES W  DIS CAZ7
 RUS  HZ EP   1   1353 30.35                             144     0.2 7   76  93 
 RUS  HE ES   2   1353 44.81                             144     0.0 5   76  93 
 RUS  HZ I        1353 50.12         3.2 0.56                            76  93 
 BAR2 SZ EP   1   1353 31.38                             137    -0.1 7   97  41 
 BAR2 SZ ES   2   1353 47.16                             137     0.0 5   97  41 
 BTL  SZ EP   1   1353 33.60                             129    -0.1 7  122  27 
 NOR  SZ EP   1   1353 34.31                             128     0.2 7  129 252 
 NOR  SE ES   2   1353 51.66                             128    -0.2 5  129 252 
 CHI  HZ EP   1   1353 35.89                             125    -0.2 7  144 178 
 CHI  HZ I        1353 36.57         2.5 0.16                           144 178 
 CHI  HN ES   2   1353 55.31                             125     0.0 5  144 178 
                                                                                
