 2012  8 3 1223 59.1 L   6.679 -73.225144.9  RSN  5 0.2 1.4LRSN                1
 GAP=116        0.40       5.5     5.9 13.4  0.1414E+02  0.3814E+02  0.1068E+02E
 Epicentro: BARICHARA - SANTANDER                                              3
 ACTION:UPD 12-09-10 11:54 OP:ep   STATUS:               ID:20120803122359 L   I
 2012-08-03-1220-00M.COL___215                                                 6
 STAT SP IPHASW D HRMM SECON CODA AMPLIT PERI AZIMU VELO AIN AR TRES W  DIS CAZ7
 BAR2 SZ EP       1224 18.23                             175   -0.2410 10.7 154 
 BAR2 SZ I        1224 18.37         7.0 0.38                          10.7 154 
 BRR  HZ EP       1224 20.32                             152    0.1110 71.7 311 
 RUS  HZ EP       1224 22.00                             147    0.0510 88.4 170 
 RUS  HZ I        1224 23.13         3.8 0.44                          88.4 170 
 RUS  HE ES   3   1224 40.20                             147    0.45 2 88.4 170 
 PAM  SZ EP   3   1224 22.48                             145    0.21 2 93.3  38 
 PTB  HZ EP       1224 25.13                             133    0.06 9  137 264 
 PTB  HN ES   3   1224 45.08                             133   -0.23 2  137 264 
 PTB  HZ I        1224 47.03         2.6 0.14                           137 264 
                                                                                
