 2015  2 3 1059 32.9 L   6.744 -73.177148.4  RSN  4 0.3 1.4LRSN                1
 GAP=205        0.63       4.5     4.3  6.4  0.1447E+01  0.4577E+01 -0.1408E+02E
 Epicentro: VILLANUEVA - SANTANDER                                             3
 ACTION:UPD 15-04-30 21:21 OP:nd   STATUS:               ID:20150203105932 L   I
 OLDACT:DUP 15-02-03 22:30 OP:cam  STATUS:               ID:20150203105821d    3
 OLDACT:REG 15-02-03 19:27 OP:cam  STATUS:               ID:20150203105820     3
 2015-02-03-1058-20M.COL___265                                                 6
 STAT SP IPHASW D HRMM SECON CODA AMPLIT PERI AZIMU VELO AIN AR TRES W  DIS CAZ7
 BAR2 EZ EP       1059 53.07                             173    0.3210 16.8 182 
 BAR2 EZ ES       11 0  8.04                             173   -0.1810 16.8 182 
 BAR2 EZ I        11 0  9.17         4.4 0.38            176           16.8 182 
 PTB  HZ EP       1059 59.78                             133    0.09 9  143 261 
 PTB  HN ES       11 0 20.49                             133   -0.09 9  143 261 
 PTB  HZ I        11 0 22.78         2.3 0.12            134            143 261 
 ZAR  HN ES       11 0 30.89                             123    0.06 9  203 294 
 SML  HZ EP       11 0  9.63                             117   -0.51 8  248 337 
 SML  HN ES       11 0 39.41                             117    0.22 8  248 337 
 SML  HZ I        11 0 42.55         2.2 0.32            118            248 337 
                                                                                
