 2013  9 3 1015 38.7 L   6.468 -73.600 40.0  RSN  4 0.6 1.1LRSN                1
 GAP=189        1.14       8.2     6.5 14.9  0.3506E+02  0.3117E+02  0.7653E+01E
 Epicentro: SANTA HELENA DEL OPON - SANTANDER                                  3
 ACTION:UPD 13-10-22 09:19 OP:ep   STATUS:               ID:20130903101538 L   I
 OLDACT:REG 13-09-03 17:29 OP:mh   STATUS:               ID:20130903100959     3
 2013-09-03-1009-59M.COL___269                                                 6
 STAT SP IPHASW D HRMM SECON CODA AMPLIT PERI AZIMU VELO AIN AR TRES W  DIS CAZ7
 RUS  HZ EP   1   1015 56.54                             133    0.10 7 85.5 138 
 RUS  HN ES       1016 10.42                             133    0.1910 85.5 138 
 RUS  HZ I        1016 12.33         2.4 0.16            133           85.5 138 
 PTB  HZ EP   1   1015 55.64                             129   -1.03 7 95.1 275 
 PTB  HN ES       1016 10.23                             129   -0.4210 95.1 275 
 ZAR  HN ES       1016 27.39                             111    0.65 9  179 309 
 ZAR  HN I        1016 32.79         3.5 0.30            109            179 309 
 GUY2CHZ EP   1   1016 13.28                             106   -0.03 6  239 235 
 GUY2CHN ES   1   1016 40.98                             106    0.71 6  239 235 
                                                                                
