 2016  8 3 1738 22.6 L   6.807 -73.110145.7  RSN 10 0.4 2.2LRSN                1
 GAP=141        0.95       3.7     3.9  5.5 -0.2407E+01  0.6986E+01  0.2418E+01E
 Epicentro: LOS SANTOS - SANTANDER                                             3
 ACTION:UPD 16-10-29 15:31 OP:rebc STATUS:               ID:20160803173822 L   I
 OLDACT:UP  16-08-03 23:05 OP:dani STATUS:               ID:20160803172759     3
 OLDACT:REG 16-08-03 21:15 OP:dani STATUS:               ID:20160803172759     3
 2016-08-03-1727-59S.COL___334                                                 6
 STAT SP IPHASW D HRMM SECON CODA AMPLIT PERI AZIMU VELO AIN AR TRES W  DIS CAZ7
 BAR2 EZ EP       1738 42.20                             170   -0.0310 25.1 199 
 BAR2 EZ ES       1738 57.33                             170   -0.2410 25.1 199 
 BAR2 EZ I        1739  0.09        38.8 0.34                          25.1 199 
 BRR  HZ EP       1738 44.22                             151    0.3310 74.3 297 
 BRR  HE ES       1739  0.99                             151    0.4710 74.3 297 
 BRR  HZ I        1739  5.66        19.9 0.30                          74.3 297 
 PAM  EZ EP       1738 44.97                             152    0.3710 74.3  38 
 PAM  EE ES       1739  1.72                             152   -0.0610 74.3  38 
 PAM  EZ I        1739  4.62        15.8 0.56                          74.3  38 
 RUS  HZ EP       1738 46.38                             144    0.0210  101 178 
 RUS  HE ES       1739  4.90                             144   -0.0110  101 178 
 RUS  HZ I        1739  6.47        13.2 0.38                           101 178 
 PTB  HZ EP       1738 49.11                             131   -0.79 9  152 259 
 PTB  HE ES       1739 11.15                             131   -0.06 9  152 259 
 PTB  HZ I        1739 17.53        18.7 0.46                           152 259 
 SPBC HZ EP       1738 51.07                             128   -0.29 9  166 220 
 SPBC HN ES       1739 13.47                             128   -0.35 9  166 220 
 SPBC HZ I        1739 18.24        28.7 0.34                           166 220 
 ZAR  HZ EP       1738 54.83                             122   -0.52 8  207 292 
 ZAR  HE ES       1739 20.71                             122   -0.22 8  207 292 
 ZAR  HZ I        1739 27.19        13.2 0.48                           207 292 
 NOR  HZ EP       1738 58.82                             118    0.13 8  238 235 
 NOR  HE ES       1739 26.76                             118   -0.10 8  238 235 
 NOR  HZ I        1739 29.82        14.1 0.30                           238 235 
 GUY2CHZ EP       1739  7.30                             112    0.71 7  305 235 
 GUY2CHN ES       1739 41.97                             112    1.05 7  305 235 
 GUY2CHZ I        1739 49.00         9.4 0.76                           305 235 
 ELA  HZ EP   4   1739 13.06                             110    3.24 0  333 230 
 PRA  HZ EP   4   1739 15.51                             106   -0.88 0  395 210 
 PRA  HE ES   2   1739 58.67                             106    0.29 3  395 210 
 PRA  HZ I        1740  6.52         5.4 0.40                           395 210 
                                                                                
