 2012  1 3 1442 36.2 L   6.716 -73.083139.7  RSN  5 0.2 1.9LRSN                1
 GAP=187        0.51       5.6     5.1  5.0 -0.7551E+01  0.3153E+01 -0.3668E+01E
 Epicentro: JORDAN - SANTANDER                                                 3
 ACTION:UP  12-02-03 08:13 OP:REBC STATUS:               ID:20120103144236 L   I
 2012-01-03-1440-00M.COL___184                                                 6
 STAT SP IPHASW D HRMM SECON CODA AMPLIT PERI AZIMU VELO SNR AR TRES W  DIS CAZ7
 BAR2 SZ EP       1442 55.21                             172     0.210   18 219 
 BAR2 SZ ES   1   1443  9.61                             172     0.0 7   18 219 
 BAR2 SZ I        1443 10.99         9.4 0.31                            18 219 
 PAM  SZ EP   1   1442 58.05                             149     0.1 7   81  32 
 PAM  SN ES   1   1443 14.77                             149    -0.2 7   81  32 
 BRR  HZ EP       1442 57.17                             148    -0.210   82 302 
 BRR  HZ I        1442 57.54        15.9 0.10                            82 302 
 BRR  HN ES   1   1443 14.04                             148     0.2 7   82 302 
 PTB  HZ EP   2   1443  2.78                             129    -0.4 5  153 263 
 OCA  SZ EP   1   1443  5.16                             126     0.1 7  170 351 
 OCA  SZ I        1443 32.95        13.5 0.34                           170 351 
                                                                                
