 2012  1 3 1232 31.2 L   6.717 -73.140144.0  RSN  6 0.3 2.1LRSN                1
 GAP=141        0.62       4.1     3.8  6.0 -0.3763E+01  0.2288E+01  0.6847E+00E
 Epicentro: JORDAN - SANTANDER                                                 3
 ACTION:UP  12-02-03 08:13 OP:REBC STATUS:               ID:20120103123231 L   I
 2012-01-03-1230-00M.COL___184                                                 6
 STAT SP IPHASW D HRMM SECON CODA AMPLIT PERI AZIMU VELO SNR AR TRES W  DIS CAZ7
 BAR2 SZ EP       1232 50.64                             174     0.210   15 199 
 BAR2 SZ I        1232 51.03         9.0 0.11                            15 199 
 BAR2 SZ ES   2   1233  4.70                             174    -0.8 5   15 199 
 BRR  HZ EP       1232 52.56                             150     0.110   77 304 
 BRR  HN ES   1   1233  9.55                             150     0.5 7   77 304 
 BRR  HN I        1233 10.48        71.1 0.22                            77 304 
 PAM  SZ EP       1232 53.50                             148    -0.210   84  35 
 PAM  SN ES   2   1233 10.97                             148    -0.2 5   84  35 
 RUS  HZ EP   1   1232 54.16                             146     0.0 7   91 176 
 RUS  HE ES   1   1233 12.29                             146     0.3 7   91 176 
 PTB  HZ EP   1   1232 57.73                             132    -0.2 7  147 262 
 PTB  HE ES   1   1233 18.65                             132    -0.2 7  147 262 
 NOR  SZ EP   1   1233  6.56                             119     0.2 6  230 236 
 NOR  SE ES   1   1233 33.40                             119    -0.3 6  230 236 
                                                                                
