 2016  2 3 1158 55.7 L   6.767 -73.325120.3  RSN  6 0.4 1.5LRSN                1
 GAP= 94        1.10       4.3     4.3  8.4  0.1941E-01  0.1350E+02 -0.1288E+02E
 Epicentro: ZAPATOCA - SANTANDER                                               3
 ACTION:UPD 16-03-04 21:23 OP:rebc STATUS:               ID:20160203115855 L   I
 OLDACT:REG 16-02-03 20:33 OP:cara STATUS:               ID:20160203115747     3
 2016-02-03-1157-47M.COL___301                                                 6
 STAT SP IPHASW D HRMM SECON CODA AMPLIT PERI AZIMU VELO AIN AR TRES W  DIS CAZ7
 BAR2 EZ EP       1159 12.66                             168    0.3110 24.9 141 
 BAR2 EZ ES       1159 25.55                             168    0.2310 24.9 141 
 PAM  EZ EP       1159 16.15                             140   -0.3710 93.7  47 
 PAM  EN ES       1159 32.67                             140   -0.0610 93.7  47 
 PAM  EZ I        1159 35.92         3.3 0.46            143           93.7  47 
 RUS  HZ EP       1159 17.71                             138    0.6610  100 165 
 RUS  HN ES       1159 33.30                             138   -0.3910  100 165 
 RUS  HZ I        1159 34.52         2.7 0.40            143            100 165 
 PTB  HZ EP       1159 18.07                             130   -0.7410  128 259 
 PTB  HE ES       1159 36.54                             130   -0.2710  128 259 
 PTB  HZ I        1159 40.51         5.2 0.30            132            128 259 
 ZAR  HZ EP       1159 25.54                             118    0.69 9  187 295 
 ZAR  HN ES       1159 47.89                             118    0.33 9  187 295 
 ZAR  HZ I        1159 50.37         4.7 0.28            121            187 295 
 SML  HZ EP       1159 30.20                             112   -0.39 8  240 340 
 SML  HN ES       1159 57.79                             112    0.01 8  240 340 
 SML  HZ I        1159 59.59         7.5 0.10            114            240 340 
                                                                                
