 2013  7 3 1018  3.0 L   6.783 -73.133150.6  RSN  9 0.5 1.9LRSN                1
 GAP=188        1.22       6.1     5.7  7.5  0.5386E+01  0.1560E+02  0.6803E+01E
 Epicentro: LOS SANTOS - SANTANDER                                             3
 ACTION:UPD 13-08-12 10:35 OP:ep   STATUS:               ID:20130703101803 L   I
 OLDACT:REG 13-07-03 14:29 OP:jn   STATUS:               ID:20130703101646     3
 2013-07-03-1016-46M.COL___230                                                 6
 STAT SP IPHASW D HRMM SECON CODA AMPLIT PERI AZIMU VELO AIN AR TRES W  DIS CAZ7
 BAR2 SZ EP       1018 23.03                             172   -0.1410 21.7 195 
 BAR2 SZ ES       1018 38.11                             172   -0.8110 21.7 195 
 BAR2 SZ I        1018 40.05        10.4 0.30            170           21.7 195 
 GIR2 SZ EP       1018 23.59                             167    0.2910 33.4 348 
 GIR2 SZ ES       1018 39.87                             167    0.7310 33.4 348 
 GIR2 SZ I        1018 41.32         7.6 0.22            165           33.4 348 
 BRR  HZ IP     C 1018 25.04                             153    0.2610 73.4 299 
 BRR  HN ES       1018 42.13                             153    0.3410 73.4 299 
 BRR  HZ I        1018 49.48        14.2 0.30            150           73.4 299 
 RUS  HZ EP       1018 26.90                             145   -0.1810 98.6 177 
 RUS  HN ES       1018 45.94                             145    0.0710 98.6 177 
 RUS  HZ I        1018 48.27         6.2 0.48            148           98.6 177 
 PTB  HZ EP       1018 29.89                             133   -0.56 9  149 260 
 PTB  HN ES       1018 51.11                             133   -0.76 9  149 260 
 PTB  HZ I        1018 53.08        12.2 0.12            133            149 260 
 ZAR  HZ EP       1018 35.74                             123   -0.22 8  206 292 
 ZAR  HE ES       1019  1.31                             123   -0.37 8  206 292 
 ZAR  HZ I        1019  8.17        12.4 0.32            124            206 292 
 NOR  HZ EP       1018 39.38                             119    0.37 8  235 235 
 NOR  HN ES       1019  7.95                             119    0.85 8  235 235 
 NOR  HZ I        1019 11.27         8.2 0.20            121            235 235 
 HEL  HZ EP   4   1018 42.07                             116   -1.48 0  273 256 
 HEL  HN ES       1019 15.56                             116    0.37 8  273 256 
 HEL  HZ I        1019 22.73         4.4 0.24            117            273 256 
 GUY2CHZ EP   4   1018 48.32                             113    1.49 0  301 235 
 GUY2CHN ES   4   1019 23.67                             113    2.64 0  301 235 
 GUY2CHZ I        1019 27.97         4.9 0.38                           301 235 
                                                                                
