 2016  6 3 1924 19.9 L   6.820 -73.147147.4  RSN  7 0.4 1.7LRSN                1
 GAP=239        1.07       5.4     6.3  7.1  0.6034E+01  0.1078E+02  0.1350E+02E
 Epicentro: LOS SANTOS - SANTANDER                                             3
 ACTION:UPD 16-07-21 22:15 OP:rebc STATUS:               ID:20160603192419 L   I
 OLDACT:UP  16-06-04 00:48 OP:ak   STATUS:               ID:20160603191746     3
 OLDACT:REG 16-06-03 21:06 OP:ar   STATUS:               ID:20160603191746     3
 2016-06-03-1917-46M.COL___322                                                 6
 STAT SP IPHASW D HRMM SECON CODA AMPLIT PERI AZIMU VELO AIN AR TRES W  DIS CAZ7
 BAR2 EZ EP       1924 39.89                             170    0.0810 25.5 189 
 BAR2 EZ ES       1924 55.02                             170   -0.2910 25.5 189 
 BAR2 EZ I        1924 56.03        10.4 0.22                          25.5 189 
 BRR  HZ EP       1924 41.72                             153    0.5210 70.0 297 
 BRR  HN ES       1924 58.35                             153    0.5710 70.0 297 
 BRR  HZ I        1925  1.44        13.2 0.36                          70.0 297 
 RUS  HZ EP       1924 43.66                             144   -0.3610  103 176 
 RUS  HN ES       1925  2.96                             144    0.1710  103 176 
 RUS  HZ I        1925  5.30         3.7 0.44                           103 176 
 PTB  HZ EP       1924 46.37                             132   -0.70 9  148 258 
 PTB  HN ES       1925  7.41                             132   -0.81 9  148 258 
 PTB  HZ I        1925 13.23         5.4 0.67                           148 258 
 NOR  HZ EP       1924 56.14                             119    0.25 8  236 234 
 NOR  HE ES       1925 24.46                             119    0.53 8  236 234 
 NOR  HZ I        1925 29.13         3.4 0.16                           236 234 
 CHI  HZ EP   1   1924 57.78                             117   -0.18 6  251 195 
 CHI  HN ES       1925 27.49                             117   -0.12 8  251 195 
 CHI  HZ I        1925 32.37         3.8 0.48                           251 195 
 PRA  HZ EP       1925 14.01                             107    0.28 6  394 209 
 PRA  HN ES       1925 56.19                             107    0.50 6  394 209 
 PRA  HZ I        1926  4.51         2.4 0.30                           394 209 
                                                                                
