 2011 12 3 1242 38.9 L   6.896 -73.440109.0  RSN  6 0.3 1.9LRSN                1
 GAP=147        0.62       3.3     5.2  6.0  0.3575E+01  0.2417E+01 -0.6416E+00E
 Epicentro: SAN VICENTE DE CHUCURI - SANTANDER                                 3
 ACTION:UPD 12-07-13 16:13 OP:ep   STATUS:               ID:20111203124238 L   I
 2011-12-03-1240-00M.COL___182                                                 6
 STAT SP IPHASW D HRMM SECON CODA AMPLIT PERI AZIMU VELO AIN AR TRES W  DIS CAZ7
 GIR2 SZ EP   2   1242 54.47                             162    0.17 5 33.9  53 
 BRR  HZ EP       1242 54.52                             159    0.2610 38.0 308 
 BRR  HZ I        1242 54.79        36.6 0.11                          38.0 308 
 BRR  HN ES   1   1243  5.98                             159   -0.29 7 38.0 308 
 BAR2 SZ EP       1242 55.10                             157    0.2110 44.1 140 
 BAR2 SZ ES       1243  7.61                             157    0.2210 44.1 140 
 BAR2 SZ I        1243  8.65        22.4 0.24                          44.1 140 
 PAM  SE ES   1   1243 14.26                             136   -0.02 7 95.4  59 
 RUS  HZ EP   1   1243  0.56                             129   -0.23 7  118 160 
 RUS  HN ES   1   1243 17.34                             129   -0.54 7  118 160 
 OCA  SZ EP   2   1243  3.43                             122   -0.01 5  149   5 
 OCA  SZ ES   2   1243 21.97                             122   -0.64 5  149   5 
 OCA  SZ I        1243 24.45         6.8 0.13                           149   5 
                                                                                
