 2016  5 3 1202  0.5 L   6.803 -73.173149.6  RSN  7 0.4 1.7LRSN                1
 GAP=141        0.94       5.2     5.2  7.3 -0.9171E+01  0.3042E+01  0.9351E+01E
 Epicentro: LOS SANTOS - SANTANDER                                             3
 ACTION:UPD 16-08-18 17:41 OP:cam  STATUS:               ID:20160503120200 L   I
 OLDACT:UP  16-05-15 07:30 OP:ar   STATUS:               ID:20160503120200 L   3
 OLDACT:DUP 16-05-03 23:06 OP:dnl  STATUS:               ID:20160503115747d    3
 2016-05-03-1157-46M.COL___309                                                 6
 STAT SP IPHASW D HRMM SECON CODA AMPLIT PERI AZIMU VELO AIN AR TRES W  DIS CAZ7
 BAR2 EZ EP       12 2 20.43                             171   -0.1310 23.4 183 
 BAR2 EZ ES       12 2 36.15                             171   -0.0810 23.4 183 
 BAR2 EZ I        12 2 38.37         8.5 0.38            171           23.4 183 
 BRR  HZ EP       12 2 22.17                             154    0.2910 68.4 299 
 BRR  HN ES       12 2 39.30                             154    0.7210 68.4 299 
 BRR  HZ I        12 2 44.94        15.5 0.30            151           68.4 299 
 PAM  EZ EP       12 2 23.41                             151    0.2210 79.1  41 
 PAM  EN ES       12 2 40.49                             151   -0.4210 79.1  41 
 PAM  EZ I        12 2 43.51         6.4 0.28            155           79.1  41 
 PTB  HZ EP       12 2 27.27                             133   -0.22 9  145 258 
 PTB  HN ES       12 2 47.85                             133   -0.72 9  145 258 
 PTB  HZ I        12 2 53.92         4.1 0.42            133            145 258 
 SPBC HZ EP   2   12 2 28.85                             130   -0.26 5  162 218 
 SPBC HN ES   2   12 2 52.14                             130    0.68 5  162 218 
 SPBC HZ I        12 2 52.95         6.0 0.22            132            162 218 
 ZAR  HZ EP   3   12 2 33.50                             124    0.63 2  201 292 
 ZAR  HE ES   3   12 2 57.62                             124   -0.52 2  201 292 
 ZAR  HZ I        12 3  3.72         4.2 0.34            124            201 292 
 CHI  HN ES       12 3  8.10                             118    0.23 8  248 194 
 CHI  HZ I        12 3 11.24         3.4 0.50            121            248 194 
                                                                                
