 2012  9 3 1650  2.5 L   6.731 -73.128144.2  RSN  6 0.2 1.8LRSN                1
 GAP=142        0.56       4.1     4.5  5.2 -0.3759E+01  0.6015E+01 -0.3641E+01E
 Epicentro: JORDAN - SANTANDER                                                 3
 ACTION:UPD 12-10-22 14:16 OP:ep   STATUS:               ID:20120903165002 L   I
 2012-09-03-1650-00M.COL___218                                                 6
 STAT SP IPHASW D HRMM SECON CODA AMPLIT PERI AZIMU VELO AIN AR TRES W  DIS CAZ7
 BAR2 SZ EP       1650 22.01                             173    0.1710 16.5 201 
 BAR2 SZ ES   1   1650 36.85                             173   -0.06 7 16.5 201 
 BAR2 SZ I        1650 38.20        15.0 0.14                          16.5 201 
 GIR2 SZ EP       1650 22.13                             164   -0.1210 39.1 349 
 BRR  HZ EP       1650 24.11                             150    0.2810 76.8 303 
 BRR  HN ES   1   1650 40.70                             150    0.26 7 76.8 303 
 BRR  HZ I        1650 43.17        14.5 0.24                          76.8 303 
 PAM  SZ EP       1650 24.97                             149    0.1010 82.3  35 
 PAM  SZ I        1650 25.16        16.8 0.22                          82.3  35 
 PAM  SN ES   1   1650 41.93                             149   -0.37 7 82.3  35 
 RUS  HN ES   1   1650 43.55                             146    0.00 7 92.8 177 
 RUS  HZ I        1650 45.80         5.1 0.28                          92.8 177 
 PTB  HZ EP       1650 29.08                             131   -0.34 9  148 262 
 PTB  HN ES   3   1650 49.73                             131   -0.67 2  148 262 
                                                                                
