 2012 12 3 1204 13.6 L   6.764 -73.142142.4  RSN  4 0.3 1.9LRSN                1
 GAP=243        0.78       7.9     6.0  7.4  0.3124E+02  0.5843E+01 -0.9205E+01E
 Epicentro: LOS SANTOS - SANTANDER                                             3
 ACTION:UPD 13-01-04 14:25 OP:ep   STATUS:               ID:20121203120413 L   I
 2012-12-03-1200-00M.COL___236                                                 6
 STAT SP IPHASW D HRMM SECON CODA AMPLIT PERI AZIMU VELO AIN AR TRES W  DIS CAZ7
 BAR2 SZ EP       12 4 32.80                             172    0.0210 19.5 193 
 BAR2 SZ ES       12 4 47.45                             172   -0.2710 19.5 193 
 BAR2 SZ I        12 4 48.34        14.1 0.28                          19.5 193 
 RUS  HZ EP       12 4 36.88                             144    0.1210 96.6 176 
 RUS  HN ES       12 4 55.13                             144    0.3310 96.6 176 
 PTB  HZ EP       12 4 39.86                             131   -0.44 9  147 260 
 PTB  HN ES       12 5  0.89                             131   -0.21 9  147 260 
 PTB  HN I        12 5  5.15        10.5 0.70                           147 260 
 ZAR  HN ES       12 5 11.86                             121    0.51 8  206 293 
 ZAR  HN I        12 5 17.07        10.5 0.28                           206 293 
                                                                                
