 2014 10 3 1315  7.5 L   6.546 -73.554111.5  RSN  9 0.5 2.5LRSN                1
 GAP= 61        1.32       3.5     4.5  8.3  0.7402E+00  0.1084E+02 -0.2498E+01E
 Epicentro: EL CARMEN - SANTANDER                                              3
 ACTION:UPD 14-11-29 23:46 OP:nd   STATUS:               ID:20141003131507 L   I
 OLDACT:REG 14-10-03 20:45 OP:carl STATUS:               ID:20141003130749     3
 2014-10-03-1307-49M.COL___292                                                 6
 STAT SP IPHASW D HRMM SECON CODA AMPLIT PERI AZIMU VELO AIN AR TRES W  DIS CAZ7
 BAR2 SZ IP     C 1315 24.02                             158    0.3310 41.5  83 
 BAR2 SZ ES       1315 36.12                             158   -0.2010 41.5  83 
 BAR2 SZ I        1315 37.76       185.7 0.26            163           41.5  83 
 BRR  HZ EP       1315 24.80                             148    0.1810 64.5 344 
 BRR  HE ES       1315 38.58                             148    0.6010 64.5 344 
 BRR  HZ I        1315 47.03        32.8 0.26            148           64.5 344 
 RUS  HZ EP       1315 27.05                             139   -0.0710 89.1 144 
 RUS  HN ES       1315 42.68                             139    0.2710 89.1 144 
 PTB  HZ IP     C 1315 26.85                             135   -0.5010 99.7 270 
 PTB  HN ES       1315 41.68                             135   -1.1510 99.7 270 
 PTB  HZ I        1315 43.15        75.0 0.18            137           99.7 270 
 SPBC HZ EP       1315 29.07                             131    0.3310  114 210 
 SPBC HN ES       1315 45.32                             131    0.0110  114 210 
 SPBC HZ I        1315 52.07        45.0 0.38            135            114 210 
 PAM  SN ES       1315 48.26                             127   -0.4910  129  47 
 ZAR  HZ EP       1315 35.05                             117   -0.07 9  178 306 
 ZAR  HN ES       1315 57.79                             117    1.13 9  178 306 
 ZAR  HZ I        1316  0.16        38.2 0.54            120            178 306 
 CHI  HN ES       1316  4.64                             113    0.23 8  213 185 
 SML  HZ EP       1315 43.27                             108   -0.60 8  256 347 
 SML  HE ES       1316 12.26                             108    0.02 8  256 347 
 SML  HZ I        1316 22.45        26.0 0.22            111            256 347 
                                                                                
