 2015  7 3 1100  4.3 L   6.815 -73.124143.9  RSN 14 0.4 2.3LRSN                1
 GAP=139        0.91       2.5     3.9  5.3 -0.1454E+01  0.1065E+02  0.9164E+00E
 Epicentro: LOS SANTOS - SANTANDER                                             3
 ACTION:UPD 15-09-08 21:46 OP:cam  STATUS:               ID:20150703110004 L   I
 OLDACT:UP  15-07-03 22:43 OP:mh   STATUS:               ID:20150703105750     3
 OLDACT:UP  15-07-03 22:40 OP:mh   STATUS:               ID:20150703105750     3
 OLDACT:REG 15-07-03 20:15 OP:mh   STATUS:               ID:20150703105750     3
 2015-07-03-1057-50M.COL___322                                                 6
 STAT SP IPHASW D HRMM SECON CODA AMPLIT PERI AZIMU VELO AIN AR TRES W  DIS CAZ7
 BAR2 EZ EP       11 0 23.86                             169    0.1210 25.4 195 
 BAR2 EZ ES       11 0 38.95                             169    0.0310 25.4 195 
 BAR2 EZ I        11 0 39.57        47.6 0.22            167           25.4 195 
 PAM  EZ EP       11 0 26.80                             151    0.6610 74.6  39 
 PAM  EN ES       11 0 43.48                             151    0.2910 74.6  39 
 PAM  EZ I        11 0 45.67        24.7 0.54            156           74.6  39 
 RUS  HZ EP       11 0 27.90                             143   -0.0710  102 177 
 RUS  HN ES       11 0 45.96                             143   -0.4810  102 177 
 RUS  HZ I        11 0 47.18        14.7 0.24            145            102 177 
 OCA  HZ EP       11 0 32.13                             129   -0.20 9  159 352 
 OCA  HN ES       11 0 53.79                             129   -0.41 9  159 352 
 OCA  HZ I        11 0 56.95        61.4 0.24            130            159 352 
 ZAR  HZ EP       11 0 37.19                             122    0.41 8  206 291 
 ZAR  HN ES       11 1  1.93                             122   -0.19 8  206 291 
 ZAR  HZ I        11 1  8.47        16.9 0.28            121            206 291 
 NOR  HZ EP   1   11 0 40.37                             118    0.15 6  238 234 
 NOR  HN ES       11 1  8.71                             118    0.46 8  238 234 
 NOR  HZ I        11 1 13.89        14.2 0.34            118            238 234 
 SML  HZ EP   1   11 0 40.30                             117   -0.46 6  243 335 
 SML  HN ES       11 1  8.86                             117   -0.34 8  243 335 
 SML  HZ I        11 1 10.66        26.1 0.36            118            243 335 
 CHI  HZ EP       11 0 41.22                             116   -0.91 8  251 196 
 CHI  HN ES   1   11 1 11.54                             116   -0.10 6  251 196 
 CHI  HZ I        11 1 18.29         8.0 0.48            118            251 196 
 HEL  HZ EP       11 0 45.31                             114    0.60 8  275 256 
 HEL  HN ES       11 1 16.21                             114   -0.03 8  275 256 
 HEL  HZ I        11 1 22.43         6.0 0.52            114            275 256 
 GUY2CHZ EP       11 0 48.64                             112    0.50 7  304 235 
 GUY2CHN ES   4   11 1 24.66                             112    2.32 0  304 235 
 GUY2CHZ I        11 1 30.24         9.5 0.34                           304 235 
 TOL  SZ EP       11 0 53.38                             109    0.58 6  346 225 
 TOL  SN ES       11 1 30.72                             109    0.08 6  346 225 
 TOL  SZ I        11 1 39.88         6.3 0.42            109            346 225 
 MON  HZ EP   4   11 0 48.94                             108   -4.38 0  355 308 
 MON  HN ES   4   11 1 30.16                             108   -1.40 0  355 308 
 MON  HZ I        11 1 44.98         4.3 0.46            109            355 308 
 PRA  HZ EP       11 0 57.55                             106   -0.50 6  395 210 
 PRA  HN ES   1   11 1 40.56                             106    0.57 4  395 210 
 PRA  HZ I        11 1 44.68        10.9 0.28            107            395 210 
 PAL  HZ EP       11 0 59.22                             105   -0.51 6  409 239 
 PAL  HN ES       11 1 42.30                             105   -0.67 6  409 239 
 PAL  HZ I        11 1 44.80         3.0 0.08            106            409 239 
                                                                                
