 2014  6 3 1942 12.1 L   6.793 -73.147148.0  RSN  8 0.5 1.8LRSN                1
 GAP=137        1.29       4.0     6.2  7.4 -0.2541E+01  0.7893E+01  0.7672E+00E
 Epicentro: LOS SANTOS - SANTANDER                                             3
 ACTION:UPD 14-07-01 22:50 OP:nd   STATUS:               ID:20140603194212 L   I
 OLDACT:REG 14-06-03 21:10 OP:stll STATUS:               ID:20140603193819     3
 2014-06-03-1938-19M.COL___259                                                 6
 STAT SP IPHASW D HRMM SECON CODA AMPLIT PERI AZIMU VELO AIN AR TRES W  DIS CAZ7
 BAR2 SZ EP       1942 32.21                             171    0.2210 22.6 190 
 BAR2 SZ ES       1942 47.14                             171   -0.3510 22.6 190 
 BAR2 SZ I        1942 48.82        18.7 0.18            170           22.6 190 
 BRR  HZ EP       1942 34.23                             153    0.7310 71.4 299 
 BRR  HN ES       1942 51.22                             153    1.0210 71.4 299 
 PAM  SZ EP       1942 35.01                             151    0.4210 78.0  39 
 PAM  SN ES       1942 51.85                             151   -0.2810 78.0  39 
 PAM  SZ I        1942 54.22        11.6 0.54            154           78.0  39 
 RUS  HZ EP       1942 35.88                             144   -0.1410 99.9 176 
 RUS  HN ES       1942 54.29                             144   -0.3910 99.9 176 
 RUS  HZ I        1942 55.80         6.2 0.32            146           99.9 176 
 PTB  HZ EP       1942 39.01                             132   -0.22 9  147 259 
 PTB  HN ES       1943  0.06                             132   -0.32 9  147 259 
 PTB  HZ I        1943  7.65        10.0 0.40            132            147 259 
 SPBC HZ EP       1942 41.26                             130    0.55 9  163 219 
 SPBC HN ES       1943  2.61                             130   -0.42 9  163 219 
 SPBC HZ I        1943  4.42        11.7 0.26            130            163 219 
 SML  HZ EP       1942 48.62                             118   -0.30 8  244 335 
 SML  HN ES       1943 16.56                             118   -1.07 8  244 335 
 CHI  HZ EP       1942 49.54                             118   -0.30 8  248 195 
 CHI  HZ I        1942 51.90         4.3 0.38            119            248 195 
 CHI  HN ES       1943 19.59                             118    0.31 8  248 195 
                                                                                
