 2017  3 3 1630 14.8 L   6.782 -73.114146.9  RSN  6 0.2 1.5LRSN                1
 GAP=141        0.65       3.0     3.1  4.6 -0.2743E+00  0.4230E+01  0.1908E+01E
 Epicentro: LOS SANTOS - SANTANDER                                             3
 ACTION:UPD 17-05-25 18:35 OP:jn   STATUS:               ID:20170303163014 L   I
 OLDACT:REG 17-03-03 20:49 OP:lv   STATUS:               ID:20170303162744     3
 2017-03-03-1628-00M.COL___396                                                 6
 STAT SP IPHASW D HRMM SECON CODA AMPLIT PERI AZIMU VELO AIN AR TRES W  DIS CAZ7
 BAR2 EZ EP       1630 34.29                             171   -0.2410 22.3 200 
 BAR2 EZ ES       1630 50.12                             171    0.1910 22.3 200 
 BAR2 EZ I        1630 50.66         8.5 0.27            171           22.3 200 
 BRR  HZ EP       1630 36.03                             151   -0.2610 75.2 299 
 BRR  HN ES       1630 53.29                             151    0.2310 75.2 299 
 PAM  EZ EP       1630 37.28                             151    0.1910 76.8  37 
 PAM  EN ES       1630 54.50                             151    0.0210 76.8  37 
 PAM  EZ I        1630 57.53         6.7 0.26            152           76.8  37 
 RUS  HZ EP       1630 38.53                             145    0.0410 98.4 178 
 RUS  HN ES       1630 56.69                             145   -0.3010 98.4 178 
 RUS  HZ I        1630 57.92         2.3 0.35            145           98.4 178 
 ZAR  HN ES       1631 13.03                             122   -0.37 8  208 292 
 NOR  HZ EP       1630 51.20                             118    0.44 8  236 235 
 NOR  HN ES       1631 19.00                             118    0.17 8  236 235 
 NOR  HZ I        1631 21.20         2.7 0.23            119            236 235 
                                                                                
