 2010 10 3 1223 29.7 L   6.810 -73.049142.8  RSN  5 0.2 1.6LRSN                1
 GAP=248        0.45       4.8     8.9  5.3  0.2135E+02  0.2967E+01  0.9860E+01E
 Epicentro: LOS SANTOS - SANTANDER                                             3
 ACTION:UP  11-02-18 11:07 OP:tino STATUS:               ID:20101003122329 L   I
 2010-10-03-1220-35S.COL___121                                                 6
 STAT SP IPHASW D HRMM SECON CODA AMPLIT PERI AZIMU VELO SNR AR TRES W  DIS CAZ7
 BAR2 SZ EP   1   1223 49.10                             168     0.013   28 212 
 BAR2 SZ ES   2   1224  3.95                             168    -0.2 9   28 212 
 BAR2 SZ I        1224  7.29         8.0 0.27                            28 212 
 BRR  HZ EP   1   1223 50.79                             149    -0.313   80 294 
 BRR  HE ES   1   1224  7.87                             149     0.213   80 294 
 BRR  HZ I        1224  8.94         7.8 0.21                            80 294 
 RUS  HZ EP   2   1223 53.38                             143     0.2 9  102 182 
 RUS  HN ES   2   1224 11.78                             143     0.2 9  102 182 
 RUS  HZ I        1224 12.82         6.0 0.22                           102 182 
 CHI  HZ EP   2   1224  7.39                             116    -0.3 7  253 197 
 CHI  HN ES   2   1224 36.90                             116    -0.4 7  253 197 
 CHI  HZ I        1224 40.27         3.2 0.37                           253 197 
 PRA  HZ EP       1224 24.07                             106     0.210  398 211 
                                                                                
