 2012  1 3 1528 50.6 L   6.723 -73.115144.8  RSN  4 0.3 1.7LRSN                1
 GAP=173        0.74      11.8     6.8  8.7 -0.5534E+02  0.1935E+01  0.2404E+02E
 Epicentro: JORDAN - SANTANDER                                                 3
 ACTION:UP  12-02-03 08:13 OP:REBC STATUS:               ID:20120103152850 L   I
 2012-01-03-1520-00M.COL___184                                                 6
 STAT SP IPHASW D HRMM SECON CODA AMPLIT PERI AZIMU VELO SNR AR TRES W  DIS CAZ7
 BAR2 SZ EP   1   1529 10.24                             173     0.2 7   16 207 
 BAR2 SZ ES   2   1529 25.20                             173     0.1 5   16 207 
 BAR2 SZ I        1529 26.68         5.7 0.61                            16 207 
 BRR  HZ EP       1529 12.18                             150     0.110   78 303 
 BRR  HN ES   2   1529 29.60                             150     0.8 5   78 303 
 BRR  HN I        1529 33.79        22.6 0.18                            78 303 
 PAM  SZ EP       1529 13.28                             149     0.210   82  34 
 PAM  SN ES       1529 30.10                             149    -0.410   82  34 
 PTB  HZ EP   1   1529 17.47                             131    -0.2 7  150 262 
 PTB  HN ES   1   1529 38.54                             131    -0.3 7  150 262 
                                                                                
