 2017 10 3 1240  5.7 L   6.801 -73.152142.0  RSN  7 0.4 1.6LRSN                1
 GAP=136        0.82       3.2     4.3  5.9 -0.1046E+01  0.1230E+02  0.1967E+01E
 Epicentro: LOS SANTOS - SANTANDER                                             3
 ACTION:UPD 17-11-07 19:27 OP:rebc STATUS:               ID:20171003124005 L   I
 OLDACT:REG 17-10-03 20:54 OP:osc  STATUS:               ID:20171003123743     3
 2017-10-03-1238-00M.COL___437                                                 6
 STAT SP IPHASW D HRMM SECON CODA AMPLIT PERI AZIMU VELO AIN AR TRES W  DIS CAZ7
 BAR2 EZ EP       1240 24.53                             170   -0.3610 23.4 188 
 BAR2 EZ ES       1240 40.13                             170    0.2910 23.4 188 
 BAR2 EZ I        1240 40.48        13.2 0.42            170           23.4 188 
 PAM  EZ EP       1240 27.57                             150    0.0310 77.7  40 
 PAM  EN ES       1240 44.71                             150    0.1310 77.7  40 
 PAM  EZ I        1240 47.25         4.8 0.20            151           77.7  40 
 RUS  HZ EP       1240 28.62                             143   -0.4910  101 176 
 RUS  HN ES       1240 47.30                             143   -0.0510  101 176 
 RUS  HZ I        1240 48.79         5.1 0.54            144            101 176 
 SPBC HN ES   2   1240 55.82                             128   -0.05 5  163 219 
 ZAR  HZ EP       1240 38.18                             122    0.35 9  203 292 
 ZAR  HE ES       1241  2.63                             122   -0.26 9  203 292 
 ZAR  HZ I        1241  5.56         5.6 0.26            122            203 292 
 CHI  HZ EP       1240 43.03                             116   -0.17 8  249 195 
 CHI  HN ES       1241 12.93                             116    0.50 8  249 195 
 CHI  HZ I        1241 16.85         2.4 0.37            117            249 195 
 GUY2CHZ EP       1240 49.86                             112    0.77 7  301 235 
 GUY2CHE ES       1241 22.53                             112   -0.39 7  301 235 
 GUY2CHZ I        1241 33.10         2.0 0.26                           301 235 
                                                                                
