 2014  9 3 1129 56.8 L   7.444 -73.205133.2  RSN 15 0.5 2.1LRSN                1
 GAP=110        1.05       3.2     4.4  6.9  0.7355E+00  0.8873E+01  0.3811E+01E
 Epicentro: EL PLAYON - SANTANDER                                              3
 ACTION:UPD 14-10-03 23:01 OP:nd   STATUS:               ID:20140903112956 L   I
 OLDACT:REG 14-09-03 20:42 OP:fm   STATUS:               ID:20140903112817     3
 2014-09-03-1128-17M.COL___269                                                 6
 STAT SP IPHASW D HRMM SECON CODA AMPLIT PERI AZIMU VELO AIN AR TRES W  DIS CAZ7
 PAM  SZ EP     C 1130 16.73                             156    0.1810 57.0 102 
 PAM  SN ES       1130 31.97                             156    0.0310 57.0 102 
 PAM  SZ I        1130 34.66        43.5 0.32            158           57.0 102 
 BRR  HZ EP       1130 16.55                             152    0.1510 67.2 236 
 BRR  HN ES       1130 31.64                             152   -0.0210 67.2 236 
 BRR  HZ I        1130 33.72        30.6 0.20            148           67.2 236 
 OCA  HZ EP       1130 18.54                             144    0.5310 88.8 352 
 OCA  HN ES       1130 34.81                             144    0.2710 88.8 352 
 OCA  HZ I        1130 37.11        31.2 0.25            146           88.8 352 
 BAR2 SZ EP       1130 18.41                             143   -0.1210 94.3 178 
 BAR2 SZ ES   1   1130 34.72                             143   -0.74 7 94.3 178 
 BAR2 SZ I        1130 35.85        50.8 0.36            141           94.3 178 
 PTB  HZ EP       1130 25.03                             125   -0.01 9  171 234 
 PTB  HE ES       1130 46.74                             125   -0.30 9  171 234 
 PTB  HZ I        1130 51.69        11.2 0.12            123            171 234 
 RUS  HE ES   1   1130 47.75                             125   -0.67 7  172 175 
 RUS  HZ I        1130 48.64         5.0 0.26            124            172 175 
 SML  HN ES       1130 47.50                             123   -0.79 9  178 328 
 SML  HZ I        1130 49.37        33.8 0.26            124            178 328 
 ZAR  HZ EP   1   1130 26.39                             123    0.16 7  183 272 
 ZAR  HE ES       1130 49.80                             123    0.63 9  183 272 
 ZAR  HZ I        1130 53.12        21.9 0.44            122            183 272 
 SPBC HZ EP   1   1130 30.25                             117   -0.07 6  220 206 
 SPBC HE ES       1130 56.88                             117    0.44 8  220 206 
 SPBC HZ I        1131  1.47         9.3 0.22            116            220 206 
 URE  HE ES   4   1131  2.26                             113   -1.65 0  259 278 
 URE  HZ I        1131  5.33        14.4 0.14            113            259 278 
 MON  HZ EP   1   1130 38.46                             109   -1.67 5  309 299 
 MON  HN ES   4   1131 12.48                             109   -1.44 0  309 299 
 CHI  HZ EP   1   1130 42.02                             109    0.44 5  317 191 
 CHI  HN ES   1   1131 16.88                             109    0.38 5  317 191 
 CHI  HZ I        1131 26.29         2.1 0.28            108            317 191 
 GUY2CHZ EP   4   1130 46.31                             107    1.64 0  343 224 
 GUY2CHN ES   4   1131 23.51                             107    1.52 0  343 224 
 GUY2CHZ I        1131 28.35         3.2 0.48                           343 224 
 TOL  SN ES   4   1131 33.14                             104    0.83 0  393 217 
 TOL  SZ I        1131 39.31         6.9 0.54            104            393 217 
 PRA  HZ EP   4   1130 59.42                             102    2.29 0  453 204 
 PRA  HN ES   4   1131 45.66                             102    1.48 0  453 204 
 PRA  HZ I        1131 53.90         2.5 0.64            102            453 204 
                                                                                
