 2017 10 3 1131 34.2 L   6.781 -73.123135.5  RSN  4 0.3 1.3LRSN                1
 GAP=140        0.81       4.2     5.1  7.5  0.6173E+00  0.1062E+02 -0.2749E+01E
 Epicentro: LOS SANTOS - SANTANDER                                             3
 ACTION:UPD 17-11-07 19:27 OP:rebc STATUS:               ID:20171003113134 L   I
 OLDACT:REG 17-10-03 20:43 OP:osc  STATUS:               ID:20171003112747     3
 2017-10-03-1128-00M.COL___413                                                 6
 STAT SP IPHASW D HRMM SECON CODA AMPLIT PERI AZIMU VELO AIN AR TRES W  DIS CAZ7
 BAR2 EZ EP       1131 52.93                             170    0.4010 21.9 197 
 BAR2 EZ ES       1132  6.42                             170   -0.4310 21.9 197 
 BAR2 EZ I        1132 10.59         4.4 0.26            172           21.9 197 
 PAM  EZ EP       1131 55.04                             149   -0.2610 77.5  37 
 PAM  EN ES       1132 12.01                             149    0.2310 77.5  37 
 PAM  EZ I        1132 14.15         5.3 0.40            152           77.5  37 
 RUS  HZ EP       1131 56.47                             142   -0.2810 98.4 177 
 RUS  HE ES       1132 14.66                             142    0.2910 98.4 177 
 RUS  HZ I        1132 15.54         3.7 0.37            146           98.4 177 
 ZAR  HE ES       1132 31.41                             120    0.07 8  207 292 
                                                                                
