 2017  4 3 1948  6.2 L   6.761 -73.130146.1  RSN  5 0.3 1.7LRSN                1
 GAP=140        0.83       4.3     4.6  6.0  0.4619E+01  0.6461E+01 -0.1287E+01E
 Epicentro: LOS SANTOS - SANTANDER                                             3
 ACTION:UPD 17-05-30 21:08 OP:jn   STATUS:               ID:20170403194806 L   I
 OLDACT:REG 17-04-03 21:15 OP:ar   STATUS:               ID:20170403193338     3
 2017-04-03-1938-00M.COL___362                                                 6
 STAT SP IPHASW D HRMM SECON CODA AMPLIT PERI AZIMU VELO AIN AR TRES W  DIS CAZ7
 BAR2 EZ EP       1948 25.67                             172   -0.1410 19.5 197 
 BAR2 EZ ES       1948 40.89                             172   -0.2010 19.5 197 
 BAR2 EZ I        1948 41.73        29.3 0.24            172           19.5 197 
 BRR  HZ EP       1948 27.48                             151   -0.1210 74.9 301 
 BRR  HN ES       1948 44.86                             151    0.5710 74.9 301 
 PAM  EZ EP       1948 28.65                             150    0.0510 79.7  37 
 PAM  EE ES       1948 45.92                             150   -0.1410 79.7  37 
 PAM  EZ I        1948 47.94        10.8 0.54            151           79.7  37 
 RUS  HZ EP       1948 29.59                             145   -0.0910 96.2 177 
 RUS  HN ES       1948 48.08                             145    0.1010 96.2 177 
 RUS  HZ I        1948 49.08         3.2 0.28            147           96.2 177 
 ZAR  HZ EP       1948 39.56                             122    0.55 8  207 293 
 ZAR  HE ES       1949  3.98                             122   -0.62 8  207 293 
 ZAR  HZ I        1949  9.70         4.6 0.26            122            207 293 
                                                                                
