 2011 12 3 1502  1.8 L   6.751 -73.090143.0  RSN  6 0.2 1.9LRSN                1
 GAP=146        0.49       4.1     4.5  5.2 -0.3222E+01 -0.1888E+01 -0.1875E+01E
 Epicentro: LOS SANTOS - SANTANDER                                             3
 ACTION:UPD 12-07-13 16:14 OP:ep   STATUS:               ID:20111203150201 L   I
 2011-12-03-1500-00M.COL___182                                                 6
 STAT SP IPHASW D HRMM SECON CODA AMPLIT PERI AZIMU VELO AIN AR TRES W  DIS CAZ7
 BAR2 SZ EP       15 2 20.98                             172   -0.0110 20.3 210 
 BAR2 SZ ES   1   15 2 35.76                             172   -0.24 7 20.3 210 
 BAR2 SZ I        15 2 37.84         6.9 0.31                          20.3 210 
 GIR2 SZ EP       15 2 21.22                             164   -0.0810 38.0 342 
 PAM  SZ EP       15 2 23.86                             150    0.1510 78.0  34 
 PAM  SN ES   2   15 2 40.44                             150   -0.40 5 78.0  34 
 BRR  HZ EP       15 2 22.97                             149   -0.1110 79.2 300 
 BRR  HN ES   1   15 2 40.09                             149    0.37 7 79.2 300 
 BRR  HN I        15 2 40.85        48.8 0.18                          79.2 300 
 RUS  HZ EP   2   15 2 25.06                             145    0.23 5 94.9 180 
 RUS  HN ES   2   15 2 43.20                             145    0.37 5 94.9 180 
 NOR  SN ES   2   15 3  4.99                             118   -0.47 4  237 236 
                                                                                
