 2017  3 3 1154 48.5 L   6.658 -73.192140.6  RSN  5 0.4 1.7LRSN                1
 GAP=221        0.93       6.9     6.4  7.5  0.2662E+02  0.1021E+02  0.2050E+01E
 Epicentro: VILLANUEVA - SANTANDER                                             3
 ACTION:UPD 17-05-25 18:35 OP:jn   STATUS:               ID:20170303115449dL   I
 OLDACT:DUP 17-03-03 21:50 OP:lv   STATUS:               ID:20170303114742d    3
 2017-03-03-1148-00M.COL___384                                                 6
 STAT SP IPHASW D HRMM SECON CODA AMPLIT PERI AZIMU VELO AIN AR TRES W  DIS CAZ7
 BAR2 EZ EP       1155  6.90                             177   -0.3710 7.40 172 
 BAR2 EZ ES       1155 21.72                             177   -0.2110 7.40 172 
 BAR2 EZ I        1155 23.46        12.5 0.22            175           7.40 172 
 BRR  HZ EP       1155  9.02                             150   -0.3410 75.9 311 
 BRR  HN ES       1155 26.08                             150    0.4310 75.9 311 
 BRR  HZ I        1155 27.47        10.7 0.24            150           75.9 311 
 RUS  HZ EP       1155 11.36                             147    0.6810 85.5 172 
 RUS  HN ES       1155 27.97                             147   -0.0210 85.5 172 
 RUS  HZ I        1155 29.94         7.2 0.25            148           85.5 172 
 PTB  HZ EP       1155 14.19                             132   -0.18 9  140 265 
 PTB  HN ES       1155 34.34                             132   -0.22 9  140 265 
 PTB  HZ I        1155 37.31         4.1 0.08            133            140 265 
 ZAR  HN ES       1155 46.25                             121    0.26 8  206 297 
 ZAR  HZ I        1155 48.54         5.8 0.08            122            206 297 
                                                                                
