 2017  4 3 1055  0.3 L   6.790 -73.169148.3  RSN  8 0.5 1.6LRSN                1
 GAP=210        1.22       6.5     7.2  7.5  0.2660E+02  0.4645E+01  0.5948E+01E
 Epicentro: LOS SANTOS - SANTANDER                                             3
 ACTION:UPD 17-05-30 21:08 OP:jn   STATUS:               ID:20170403105500 L   I
 OLDACT:REG 17-04-03 20:07 OP:ar   STATUS:               ID:20170403104748     3
 2017-04-03-1048-00M.COL___353                                                 6
 STAT SP IPHASW D HRMM SECON CODA AMPLIT PERI AZIMU VELO AIN AR TRES W  DIS CAZ7
 BAR2 EZ EP       1055 19.93                             171   -0.3110 21.9 184 
 BAR2 EZ ES       1055 35.23                             171   -0.5410 21.9 184 
 BAR2 EZ I        1055 35.84        11.5 0.36            168           21.9 184 
 BRR  HZ EP       1055 21.72                             153    0.0610 69.5 300 
 BRR  HN ES       1055 39.11                             153    0.8010 69.5 300 
 BRR  HZ I        1055 41.94         7.3 0.42            150           69.5 300 
 RUS  HZ EP       1055 24.21                             145   -0.0610 99.6 175 
 RUS  HE ES       1055 43.26                             145    0.3210 99.6 175 
 RUS  HZ I        1055 43.38         3.5 0.18            144           99.6 175 
 PTB  HZ EP       1055 26.45                             133   -0.81 9  145 259 
 PTB  HN ES       1055 47.76                             133   -0.51 9  145 259 
 PTB  HZ I        1055 49.58         4.8 0.42            131            145 259 
 YPLC HZ EP       1055 30.14                             127   -0.19 9  177 150 
 YPLC HE ES   4   1055 57.23                             127    3.49 0  177 150 
 ZAR  HZ EP       1055 33.65                             123    0.90 9  202 293 
 ZAR  HN ES       1055 57.94                             123   -0.09 9  202 293 
 ZAR  HZ I        1056  2.84         4.0 0.38            122            202 293 
 CHI  HZ EP       1055 38.43                             118    0.45 8  247 195 
 CHI  HN ES       1056  7.72                             118    0.37 8  247 195 
 CHI  HZ I        1056 12.44         2.9 0.56            117            247 195 
 URE  HZ EP   2   1055 40.79                             114   -0.52 4  282 292 
 URE  HE ES   4   1056 11.15                             114   -2.12 0  282 292 
 URE  HZ I        1056 18.16         2.9 0.14            113            282 292 
                                                                                
