 2012  2 3 1901 27.6 L   6.775 -73.156145.6  RSN  6 0.2 1.8LRSN                1
 GAP=182        0.39       2.7     3.1  3.7  0.2326E+01  0.3022E+00  0.1190E+01E
 ACTION:UP  12-03-07 16:27 OP:epov STATUS:               ID:20120203190127 L   I
 2012-02-03-1900-00M.COL___188                                                 6
 STAT SP IPHASW D HRMM SECON CODA AMPLIT PERI AZIMU VELO SNR AR TRES W  DIS CAZ7
 BAR2 SZ EP       19 1 47.15                             172   -0.0310 20.4 188 
 BAR2 SZ ES   1   19 2  2.39                             172   -0.05 7 20.4 188 
 BAR2 SZ I        19 2  4.84        12.1 0.33                          20.4 188 
 GIR2 SZ EP       19 1 47.19                             166   -0.1610 33.8 353 
 BRR  HZ EP       19 1 48.97                             152    0.1910 71.5 301 
 BRR  HZ I        19 1 49.20        19.9 0.10                          71.5 301 
 BRR  HN ES       19 2  5.31                             152    0.0310 71.5 301 
 RUS  HZ EP       19 1 51.10                             145   -0.0710 97.9 175 
 RUS  HE ES   1   19 2  9.71                             145    0.17 7 97.9 175 
 RUS  HZ I        19 2 12.27         5.6 0.44                          97.9 175 
 ZAR  HE ES   2   19 2 25.19                             122   -0.16 4  204 293 
 ZAR  HZ I        19 2 31.34         7.4 0.30                           204 293 
 NOR  SZ EP   2   19 2  3.52                             119    0.45 4  232 235 
 NOR  SN ES   1   19 2 30.50                             119   -0.22 6  232 235 
                                                                                
