 2013  9 3 1302 24.1 L   6.792 -73.168140.0  RSN  7 0.4 1.9LRSN                1
 GAP=134        0.76       3.8     4.0  6.1 -0.3487E+00  0.6667E+01  0.2390E+01E
 Epicentro: LOS SANTOS - SANTANDER                                             3
 ACTION:UPD 13-10-22 09:19 OP:ep   STATUS:               ID:20130903130224 L   I
 OLDACT:DUP 13-09-03 19:29 OP:mh   STATUS:               ID:20130903125960d    3
 2013-09-03-1259-59M.COL___269                                                 6
 STAT SP IPHASW D HRMM SECON CODA AMPLIT PERI AZIMU VELO AIN AR TRES W  DIS CAZ7
 BAR2 SZ EP   1   13 2 42.97                             171   -0.01 7 22.1 184 
 BAR2 SZ ES   1   13 2 57.50                             171   -0.23 7 22.1 184 
 BAR2 SZ I        13 2 58.65        19.1 0.28            169           22.1 184 
 BRR  HZ EP   1   13 2 44.71                             152    0.22 7 69.5 300 
 BRR  HN ES   1   13 3  1.06                             152    0.63 7 69.5 300 
 BRR  HZ I        13 3  2.26        16.4 0.36            151           69.5 300 
 PAM  SZ EP   1   13 2 45.72                             149   -0.09 7 79.7  40 
 PAM  SN ES       13 3  2.62                             149   -0.1610 79.7  40 
 RUS  HZ EP   1   13 2 46.98                             143   -0.22 7 99.9 175 
 RUS  HN ES       13 3  5.47                             143    0.2210 99.9 175 
 RUS  HZ I        13 3  7.81         4.8 0.16            142           99.9 175 
 PTB  HZ EP   1   13 2 49.60                             131   -0.73 7  145 259 
 PTB  HN ES       13 3 10.43                             131   -0.38 9  145 259 
 PTB  HZ I        13 3 12.10        11.1 0.14            130            145 259 
 ZAR  HZ EP   1   13 2 56.71                             121    0.77 6  202 293 
 ZAR  HN ES   2   13 3 20.83                             121    0.03 4  202 293 
 ZAR  HN I        13 3 26.19        19.0 0.40            121            202 293 
 CHI  HZ EP   1   13 3  1.40                             116    0.12 6  247 195 
 CHI  HN ES   2   13 3 30.85                             116    0.54 4  247 195 
 CHI  HZ I        13 3 34.20         2.7 0.42            116            247 195 
                                                                                
