 2016 12 3 1142 38.5 L   6.818 -73.171145.6  RSN 18 0.4 2.4LRSN                1
 GAP= 78        0.90       3.2     2.6  4.5 -0.9976E+00  0.2401E+01  0.3026E+01E
 Epicentro: LOS SANTOS - SANTANDER                                             3
 ACTION:UPD 17-01-11 20:12 OP:rebc STATUS:               ID:20161203114238 L   I
 OLDACT:REG 16-12-03 20:46 OP:lv   STATUS:               ID:20161203113742     3
 2016-12-03-1138-00M.COL___342                                                 6
 STAT SP IPHASW D HRMM SECON CODA AMPLIT PERI AZIMU VELO AIN AR TRES W  DIS CAZ7
 BAR2 EZ EP       1142 58.08                             170   -0.0610 25.0 183 
 BAR2 EZ ES       1143 13.03                             170   -0.4310 25.0 183 
 BAR2 EZ I        1143 14.34        69.0 0.22            164           25.0 183 
 BRR  HZ EP       1142 59.95                             154    0.5110 67.8 298 
 BRR  HE ES       1143 16.24                             154    0.4710 67.8 298 
 BRR  HZ I        1143 20.02        27.2 0.16            149           67.8 298 
 PAM  EZ EP       1143  1.04                             151    0.3310 77.7  42 
 PAM  EN ES       1143 18.22                             151    0.1810 77.7  42 
 PAM  EZ I        1143 20.28        63.3 0.50            156           77.7  42 
 PTB  HZ EP       1143  4.82                             132   -0.42 9  145 258 
 PTB  HN ES       1143 25.73                             132   -0.37 9  145 258 
 PTB  HZ I        1143 32.81        25.8 0.25            128            145 258 
 TAM  HZ EP       1143  6.50                             130    0.05 9  158 105 
 TAM  HN ES       1143 27.95                             130   -0.32 9  158 105 
 ZAR  HZ EP       1143 10.83                             123    0.25 9  201 292 
 ZAR  HN ES       1143 35.54                             123   -0.08 9  201 292 
 ZAR  HZ I        1143 39.29        65.1 0.10            120            201 292 
 NOR  HZ EP       1143 14.25                             119    0.15 8  234 234 
 NOR  HN ES       1143 41.53                             119   -0.34 8  234 234 
 NOR  HZ I        1143 46.78        20.5 0.28            116            234 234 
 CHI  HZ EP       1143 16.39                             117    0.08 8  250 194 
 CHI  HN ES       1143 45.61                             117   -0.21 8  250 194 
 CHI  HZ I        1143 49.09        18.6 0.54            115            250 194 
 ROSC BZ EP   9   1143 18.38                             117    1.74 0  253 210 
 ROSC BN ES       1143 47.77                                   -0.36 8  253 210 
 ROSC BZ I        1143 52.55        30.9 0.40            114            253 210 
 URE  HZ EP       1143 18.88                             114   -0.30 7  281 292 
 URE  HN ES   4   1143 48.57                             114   -2.35 0  281 292 
 URE  HZ I        1144  0.81        14.6 0.26            112            281 292 
 PTGC HZ EP   4   1143 21.26                             111   -1.41 0  312 158 
 PTGC HN ES   4   1143 54.54                             111   -2.59 0  312 158 
 PTGC HZ I        1143 57.34        18.3 0.42            110            312 158 
 LL6C HZ EP   4   1143  4.00                             110   -19.9 0  323 358 
 LL6C HN ES   4   1143 37.27                             110   -22.1 0  323 358 
 LL6C HZ I        1143 44.73         8.4 0.46            110            323 358 
 ELA  HZ EP   9   1143 27.36                             110    2.12 0  328 229 
 ELA  HN ES       1144  4.12                                    0.29 7  328 229 
 ELA  HZ I        1144 10.14         8.8 0.43            108            328 229 
 CBOC HZ EP   4   1143 26.48                             110    1.31 0  332 252 
 CBOC HZ I        1144  7.57         3.6 0.20            108            332 252 
 ORTC HZ EP       1143 32.32                             106   -0.08 6  395 216 
 ORTC HN ES       1144 15.84                             106    1.38 6  395 216 
 ORTC HZ I        1144 19.45         9.8 0.30            105            395 216 
 PAL  HZ EP       1143 33.78                             106    0.29 6  404 239 
 PAL  HN ES       1144 16.32                             106   -0.07 6  404 239 
 PAL  HZ I        1144 20.50         5.7 0.24            104            404 239 
 SJC  HZ EP       1143 32.56                             106   -1.11 6  406 327 
 SJC  HN ES   4   1144 13.79                             106   -2.92 0  406 327 
 SJC  HZ I        1144 19.88         3.2 0.20            105            406 327 
 CRJC HZ EP   9   1143 38.46                             103   -2.31 0  466   4 
 CRJC HE ES       1144 26.40                                   -0.64 5  466   4 
 CRJC HZ I        1144 30.50         6.7 0.18            103            466   4 
                                                                                
