 2010  2 3 1148 47.9 L   6.877 -73.376118.6  RSN  7 0.4 1.9LRSN                1
 GAP=104        0.67       2.7     8.6  7.7  0.7377E+01  0.4607E+02  0.2344E+01E
 Epicentro: SAN VICENTE DE CHUCURI - SANTANDER                                 3
 ACTION:UP  10-08-24 09:47 OP:vdl  STATUS:               ID:20100203114847 L   I
 2010-02-03-1146-07S.COL___106                                                 6
 STAT SP IPHASW D HRMM SECON CODA AMPLIT PERI AZIMU VELO SNR AR TRES W  DIS CAZ7
 GIR2 SZ IP       1149  4.34                             165     0.010   30  42 
 GIR2 SZ ES   2   1149 17.44                             165     0.3 5   30  42 
 BAR2 SZ IP       1149  4.75                             161     0.010   38 146 
 BAR2 SZ ES   1   1149 17.75                             161    -0.1 7   38 146 
 RUS  BZ EP   2   1149  9.78                             133    -0.4 5  114 163 
 RUS  BE ES       1149 27.33                             133    -0.210  114 163 
 RUS  BZ I        1149 28.46         9.7 0.29                           114 163 
 OCA  SZ EP   1   1149 13.26                             124     0.0 7  151   2 
 OCA  SZ ES   1   1149 33.35                             124     0.3 7  151   2 
 CHI  HZ EP   1   1149 24.74                             111     0.2 6  252 189 
 CHI  HZ I        1149 25.20         3.9 0.47                           252 189 
 CHI  HE ES   1   1149 53.69                             111     0.5 6  252 189 
 MON  HZ EP   1   1149 31.99                             105    -1.0 5  328 310 
 MON  HE ES   1   1150  8.10                             105     0.0 5  328 310 
 MON  HZ I        1150 20.70         2.9 0.48                           328 310 
 PRA  HZ EP   2   1149 40.95                             102     0.9 3  388 206 
 PRA  HZ I        1150 29.17         4.2 0.33                           388 206 
                                                                                
