 2017 10 3 1408 10.1 L   6.796 -73.114135.2  RSN  6 0.3 1.7LRSN                1
 GAP=141        0.75       3.4     3.9  5.9 -0.2921E+01  0.1259E+02 -0.1381E+01E
 Epicentro: LOS SANTOS - SANTANDER                                             3
 ACTION:UPD 17-11-07 19:28 OP:rebc STATUS:               ID:20171003140810 L   I
 OLDACT:REG 17-10-03 21:20 OP:osc  STATUS:               ID:20171003140738     3
 2017-10-03-1408-00M.COL___437                                                 6
 STAT SP IPHASW D HRMM SECON CODA AMPLIT PERI AZIMU VELO AIN AR TRES W  DIS CAZ7
 BAR2 EZ EP       14 8 27.97                             170   -0.4610 23.7 199 
 BAR2 EZ ES       14 8 42.60                             170   -0.1610 23.7 199 
 BAR2 EZ I        14 8 43.78        10.0 0.18            168           23.7 199 
 PAM  EZ EP       14 8 31.08                             149    0.0310 75.6  37 
 PAM  EN ES       14 8 47.69                             149    0.2710 75.6  37 
 PAM  EZ I        14 8 49.66        15.7 0.50            153           75.6  37 
 RUS  HZ EP       14 8 32.61                             142   -0.1310 99.9 178 
 RUS  HN ES       14 8 50.69                             142    0.2610 99.9 178 
 RUS  HZ I        14 8 52.16        10.5 0.28            143           99.9 178 
 ZAR  HZ EP       14 8 42.36                             119    0.15 8  208 292 
 ZAR  HN ES       14 9  7.22                             119   -0.06 8  208 292 
 ZAR  HZ I        14 9  8.46         4.6 0.10            120            208 292 
 NOR  HZ EP   4   14 8 43.94                             116   -1.55 0  237 235 
 NOR  HE ES       14 9 12.72                             116   -0.40 8  237 235 
 NOR  HZ I        14 9 20.69         2.6 0.20            117            237 235 
 GUY2CHZ EP       14 8 53.54                             110    0.03 7  304 235 
 GUY2CHE ES       14 9 28.14                             110    0.75 7  304 235 
 GUY2CHZ I        14 9 36.41         2.7 0.30                           304 235 
                                                                                
