 2016  7 3 1538 15.8 L   6.805 -73.124151.0  RSN 10 0.5 2.0LRSN                1
 GAP=211        1.04       4.6     4.8  6.2  0.2160E+01  0.8010E+01 -0.1309E+01E
 Epicentro: LOS SANTOS - SANTANDER                                             3
 ACTION:UPD 17-03-29 16:46 OP:lp   STATUS:               ID:20160703153815 L   I
 OLDACT:DUP 16-07-04 00:15 OP:ak   STATUS:               ID:20160703152748d    3
 OLDACT:REG 16-07-03 22:37 OP:ak   STATUS:               ID:20160703152747     3
 2016-07-03-1527-47M.COL___337                                                 6
 STAT SP IPHASW D HRMM SECON CODA AMPLIT PERI AZIMU VELO AIN AR TRES W  DIS CAZ7
 BAR2 EZ EP       1538 36.36                             171    0.3010 24.4 195 
 BAR2 EZ ES       1538 51.88                             171   -0.0010 24.4 195 
 BAR2 EZ I        1538 53.89        18.5 0.38            170           24.4 195 
 BRR  HZ IP     C 1538 38.24                             153    0.6410 73.1 297 
 BRR  HN ES       1538 54.89                             153    0.2710 73.1 297 
 BRR  HZ I        1539  2.85        11.4 0.20            150           73.1 297 
 RUS  HZ EP       1538 40.10                             145    0.0210  101 177 
 RUS  HN ES       1538 58.77                             145   -0.2710  101 177 
 RUS  HZ I        1539  0.58         6.3 0.18            150            101 177 
 PTB  HZ EP       1538 42.85                             133   -0.56 9  150 259 
 PTB  HN ES       1539  4.24                             133   -0.71 9  150 259 
 PTB  HZ I        1539 11.81        18.6 0.40            134            150 259 
 SPBC HZ EP       1538 45.43                             130    0.56 9  165 220 
 SPBC HN ES       1539  7.40                             130   -0.16 9  165 220 
 ZAR  HZ EP       1538 48.58                             123   -0.20 8  206 292 
 ZAR  HN ES       1539 14.68                             123    0.16 8  206 292 
 ZAR  HZ I        1539 20.94         8.0 0.20            125            206 292 
 NOR  HZ EP       1538 51.69                             119   -0.38 8  237 235 
 NOR  HN ES       1539 19.97                             119   -0.40 8  237 235 
 NOR  HZ I        1539 23.66         9.0 0.14            122            237 235 
 HEL  HZ EP   2   1538 57.09                             116    0.55 4  275 256 
 HEL  HN ES       1539 28.91                             116    0.58 8  275 256 
 HEL  HZ I        1539 35.98         5.4 0.32            118            275 256 
 GUY2CHZ EP   4   1539  2.56                             113    2.66 0  304 235 
 GUY2CHN ES       1539 34.86                             113    0.55 7  304 235 
 GUY2CHZ I        1539 41.32         5.9 0.28                           304 235 
 SJC  HZ EP       1539 10.56                             106   -1.06 6  410 327 
 SJC  HN ES   4   1539 52.05                             106   -3.12 0  410 327 
 SJC  HZ I        1539 56.51         1.9 0.26            109            410 327 
                                                                                
