 2017 11 3 1151 23.6 L   6.786 -73.179146.0  RSN 11 0.4 1.8LRSN                1
 GAP=109        0.84       3.1     3.1  5.6  0.1355E+01  0.1408E+01  0.4420E+01E
 Epicentro: LOS SANTOS - SANTANDER                                             3
 ACTION:UPD 17-12-12 19:51 OP:rebc STATUS:               ID:20171103115123 L   I
 OLDACT:UP  17-11-03 22:06 OP:mg   STATUS:               ID:20171103114745     3
 OLDACT:REG 17-11-03 20:09 OP:mg   STATUS:               ID:20171103114745     3
 2017-11-03-1148-00M.COL___429                                                 6
 STAT SP IPHASW D HRMM SECON CODA AMPLIT PERI AZIMU VELO AIN AR TRES W  DIS CAZ7
 BAR2 EZ EP       1151 43.02                             171   -0.1910 21.4 181 
 BAR2 EZ ES   2   1151 58.27                             171   -0.24 5 21.4 181 
 BAR2 EZ I        1152  0.84        27.2 0.30            171           21.4 181 
 BRR  HZ EP     C 1151 44.74                             154    0.1110 68.8 301 
 BRR  HN ES       1152  1.94                             154    0.9010 68.8 301 
 BRR  HZ I        1152  2.32        14.8 0.30            155           68.8 301 
 PAM  EZ EP     C 1151 45.83                             150   -0.2210 81.0  41 
 PAM  EN ES   1   1152  3.36                             150   -0.20 7 81.0  41 
 PAM  EZ I        1152 10.78         6.3 0.38            154           81.0  41 
 RUS  HZ EP       1151 46.97                             144   -0.3010 99.3 174 
 RUS  HN ES       1152  5.59                             144   -0.1610 99.3 174 
 RUS  HZ I        1152  7.08        10.4 0.28            146           99.3 174 
 PTB  HZ EP   1   1151 50.06                             133   -0.16 7  144 259 
 PTB  HN ES       1152 10.77                             133   -0.23 9  144 259 
 PTB  HZ I        1152 16.90         4.8 0.10            135            144 259 
 SPBC HZ EP   1   1151 51.92                             130    0.15 7  160 218 
 SPBC HN ES   2   1152 13.22                             130   -0.53 5  160 218 
 SPBC HZ I        1152 16.47        13.5 0.09            132            160 218 
 YPLC HZ EP       1151 53.37                             127   -0.07 9  177 150 
 YPLC HE ES   1   1152 17.73                             127    1.01 7  177 150 
 YPLC HZ I        1152 20.19         9.6 0.24            130            177 150 
 ZAR  HZ EP   1   1151 55.55                             123   -0.21 6  201 293 
 ZAR  HN ES       1152 20.54                             123   -0.32 9  201 293 
 ZAR  HZ I        1152 26.29         8.1 0.18            126            201 293 
 NOR  HZ EP   1   1151 59.18                             119    0.27 6  231 234 
 NOR  HN ES       1152 26.58                             119    0.11 8  231 234 
 NOR  HZ I        1152 33.89         4.6 0.16            121            231 234 
 CHI  HZ EP       1152  1.34                             118    0.31 8  246 194 
 CHI  HN ES       1152 29.94                             118   -0.30 8  246 194 
 CHI  HZ I        1152 36.67         4.6 0.32            120            246 194 
 GUY2CHZ EP   3   1152  8.87                             113    2.10 2  297 235 
 GUY2CHN ES   2   1152 40.73                             113    0.29 4  297 235 
 GUY2CHZ I        1152 49.24         3.4 0.34                           297 235 
                                                                                
