 2016 10 3 1501 24.4 L   6.812 -73.195130.0  RSN  7 0.3 1.6LRSN                1
 GAP=130        0.82       3.4     3.5  5.7 -0.1556E+01  0.8518E+01 -0.1368E+01E
 Epicentro: ZAPATOCA - SANTANDER                                               3
 ACTION:UPD 16-11-09 19:15 OP:rebc STATUS:               ID:20161003150124 L   I
 OLDACT:REG 16-10-03 20:57 OP:lv   STATUS:               ID:20161003145746     3
 2016-10-03-1458-00M.COL___369                                                 6
 STAT SP IPHASW D HRMM SECON CODA AMPLIT PERI AZIMU VELO AIN AR TRES W  DIS CAZ7
 BAR2 EZ EP       15 1 42.04                             169   -0.1210 24.3 177 
 BAR2 EZ ES       15 1 56.01                             169    0.0010 24.3 177 
 BAR2 EZ I        15 1 58.40         7.3 0.24            169           24.3 177 
 PAM  EZ EP       15 1 44.90                             147   -0.2410 80.1  43 
 PAM  EN ES       15 2  1.50                             147    0.1910 80.1  43 
 PAM  EZ I        15 2  3.76         8.4 0.54            153           80.1  43 
 RUS  HZ EP       15 1 46.61                             140   -0.1610  102 173 
 RUS  HE ES       15 2  4.45                             140    0.2310  102 173 
 RUS  HZ I        15 2  6.65         3.4 0.16            143            102 173 
 PTB  HZ EP       15 1 48.89                             129   -0.75 9  143 258 
 PTB  HN ES       15 2  9.02                             129   -0.30 9  143 258 
 PTB  HZ I        15 2 12.65         6.7 0.14            131            143 258 
 SPBC HZ EP       15 1 51.60                             126    0.10 9  161 217 
 SPBC HE ES       15 2 12.75                             126    0.12 9  161 217 
 SPBC HZ I        15 2 20.13         7.2 0.14            128            161 217 
 ZAR  HZ EP       15 1 55.75                             119    0.48 9  198 292 
 ZAR  HE ES       15 2 19.62                             119    0.27 9  198 292 
 ZAR  HZ I        15 2 25.81         7.9 0.16            122            198 292 
 GUY2CHZ EP       15 2  7.45                             109    0.56 7  297 234 
 GUY2CHN ES   4   15 2 42.62                             109    2.58 0  297 234 
 GUY2CHZ I        15 2 48.26         2.3 0.36                           297 234 
                                                                                
