 2017  2 3 1824  2.3 L   6.769 -73.143146.4  RSN  5 0.2 1.6LRSN                1
 GAP=138        0.61       3.3     3.2  4.6 -0.9636E+00  0.1013E+01  0.5694E+00E
 Epicentro: LOS SANTOS - SANTANDER                                             3
 ACTION:UPD 17-05-24 15:32 OP:jn   STATUS:               ID:20170203182402 L   I
 OLDACT:UP  17-02-04 00:43 OP:ar   STATUS:               ID:20170203181730     3
 OLDACT:REG 17-02-03 21:38 OP:ar   STATUS:               ID:20170203181730     3
 2017-02-03-1818-00M.COL___349                                                 6
 STAT SP IPHASW D HRMM SECON CODA AMPLIT PERI AZIMU VELO AIN AR TRES W  DIS CAZ7
 BAR2 EZ EP       1824 21.85                             172   -0.0610 20.0 192 
 BAR2 EZ ES       1824 37.28                             172    0.0510 20.0 192 
 BAR2 EZ I        1824 37.71         7.4 0.26            172           20.0 192 
 BRR  HZ EP       1824 23.92                             152    0.3310 73.1 301 
 BRR  HN ES       1824 40.56                             152    0.3310 73.1 301 
 PAM  EZ EP       1824 24.65                             150   -0.0510 79.9  38 
 PAM  EN ES       1824 41.92                             150   -0.2810 79.9  38 
 PAM  EZ I        1824 43.62        14.0 0.60            151           79.9  38 
 RUS  HZ EP       1824 25.94                             145    0.1110 97.1 176 
 RUS  HN ES       1824 44.22                             145    0.0110 97.1 176 
 RUS  HZ I        1824 45.82         3.5 0.36            145           97.1 176 
 PTB  HZ EP   1   1824 29.00                             132   -0.25 7  147 260 
 PTB  HN ES       1824 49.94                             132   -0.36 9  147 260 
 PTB  HZ I        1824 52.39         4.6 0.12            133            147 260 
                                                                                
