 2013  6 3 1611 18.0 L   6.773 -73.150140.6  RSN 12 0.4 2.2LRSN                1
 GAP=137        1.03       3.7     4.7  6.0 -0.2514E+01  0.8046E+01 -0.7791E+00E
 Epicentro: LOS SANTOS - SANTANDER                                             3
 ACTION:UPD 14-01-08 09:52 OP:ep   STATUS:               ID:20130603161118 L   I
 2013-06-03-1610-00M.COL___257                                                 6
 STAT SP IPHASW D HRMM SECON CODA AMPLIT PERI AZIMU VELO AIN AR TRES W  DIS CAZ7
 BAR2 SZ IP     D 1611 37.03                             171    0.0910 20.3 190 
 BAR2 SZ ES       1611 51.69                             171   -0.0310 20.3 190 
 BAR2 SZ I        1611 53.22        37.7 0.18            168           20.3 190 
 BRR  HZ EP       1611 38.64                             151   -0.0010 72.3 301 
 BRR  HN ES       1611 54.91                             151    0.1610 72.3 301 
 BRR  HZ I        1611 59.74        25.6 0.14            146           72.3 301 
 PAM  SZ IP     C 1611 40.02                             149    0.2010 80.0  38 
 PAM  SN ES       1611 56.55                             149   -0.3010 80.0  38 
 PAM  SZ I        1611 58.47        19.3 0.20            153           80.0  38 
 RUS  HZ EP       1611 41.01                             144   -0.0110 97.6 176 
 RUS  HN ES       1611 59.16                             144    0.1810 97.6 176 
 RUS  HZ I        1612  0.76         7.2 0.48            147           97.6 176 
 PTB  HZ EP       1611 43.67                             131   -0.78 9  147 260 
 PTB  HN ES       1612  4.70                             131   -0.38 9  147 260 
 PTB  HZ I        1612 12.98        15.5 0.14            129            147 260 
 OCA  HZ EP   4   1611 45.61                             128   -0.58 0  163 353 
 OCA  HN ES   4   1612  6.73                             128   -1.44 0  163 353 
 OCA  HZ I        1612 11.81        19.0 0.24            129            163 353 
 ZAR  HZ EP   4   1611 51.26                             121    1.08 0  205 293 
 ZAR  HN ES   4   1612 15.13                             121   -0.15 0  205 293 
 ZAR  HZ I        1612 21.97        20.6 0.46            121            205 293 
 NOR  HZ EP       1611 53.40                             118    0.20 8  233 235 
 NOR  HN ES       1612 21.02                             118    0.37 8  233 235 
 NOR  HZ I        1612 25.07        15.4 0.40            118            233 235 
 SML  HZ EP       1611 53.81                             116   -0.80 8  246 336 
 SML  HN ES       1612 24.21                             116    1.04 8  246 336 
 SML  HZ I        1612 27.53        18.6 0.10            117            246 336 
 HEL  HZ EP   4   1611 58.54                             114    0.73 0  271 256 
 HEL  HN ES   4   1612 33.29                             114    4.42 0  271 256 
 HEL  HZ I        1612 35.38         8.5 0.32            114            271 256 
 GUY2CHZ EP   4   1612  1.70                             111    0.57 0  299 235 
 GUY2CHN ES   4   1612 37.17                             111    2.40 0  299 235 
 GUY2CHZ I        1612 42.35         8.0 0.36                           299 235 
 RREF HN ES   4   1612 39.59                             110    0.33 0  319 230 
 PRA  HZ EP       1612 11.56                             106    0.56 6  389 210 
 PRA  HN ES   4   1612 53.92                             106    1.57 0  389 210 
 PRA  HZ I        1612 58.20         7.0 0.28            107            389 210 
                                                                                
