 2013 11 3 1959 46.4 L   6.783 -73.140148.9  RSN  8 0.4 2.4LRSN                1
 GAP=138        0.97       4.3     4.3  6.3 -0.3534E+01  0.5451E+01  0.3818E+01E
 Epicentro: LOS SANTOS - SANTANDER                                             3
 ACTION:UPD 14-01-09 16:25 OP:ep   STATUS:               ID:20131103195947dL   I
 OLDACT:REG 13-11-03 22:11 OP:cam  STATUS:               ID:20131103195848     3
 2013-11-03-1958-48M.COL___217                                                 6
 STAT SP IPHASW D HRMM SECON CODA AMPLIT PERI AZIMU VELO AIN AR TRES W  DIS CAZ7
 BAR2 SZ EP       20 0  6.34                             171   -0.0710 21.6 192 
 BAR2 SZ ES       20 0 21.49                             171   -0.5010 21.6 192 
 BAR2 SZ I        20 0 22.61        64.1 0.36            169           21.6 192 
 BRR  HZ EP       20 0  8.19                             153    0.1910 72.6 300 
 BRR  HN ES       20 0 25.68                             153    0.8610 72.6 300 
 BRR  HZ I        20 0 28.59        28.0 0.32            151           72.6 300 
 PAM  SZ EP       20 0  9.10                             151    0.0610 78.5  38 
 PAM  SN ES       20 0 26.49                             151   -0.1910 78.5  38 
 PAM  SZ I        20 0 28.34        29.0 0.18            156           78.5  38 
 RUS  HZ EP       20 0 10.24                             145   -0.1210 98.7 176 
 RUS  HN ES       20 0 29.32                             145    0.3010 98.7 176 
 RUS  HZ I        20 0 31.52        24.7 0.46            147           98.7 176 
 PTB  HZ EP   1   20 0 13.06                             133   -0.62 7  148 260 
 PTB  HN ES       20 0 34.23                             133   -0.70 9  148 260 
 PTB  HZ I        20 0 41.75        31.8 0.40            133            148 260 
 SPBC HZ EP       20 0 15.27                             130    0.20 9  162 220 
 SPBC HN ES       20 0 37.47                             130    0.06 9  162 220 
 SPBC HZ I        20 0 42.28        47.3 0.22            131            162 220 
 ZAR  HN ES   1   20 0 44.60                             123   -0.18 6  205 293 
 NOR  HZ EP       20 0 22.44                             119    0.16 8  234 235 
 NOR  HN ES   1   20 0 50.60                             119    0.36 6  234 235 
 NOR  HZ I        20 0 54.57        21.4 0.18            120            234 235 
                                                                                
