 2012  4 3 1714 48.2 L   6.778 -73.092147.2  RSN  5 0.4 1.5LRSN                1
 GAP=144        0.93      10.8    14.6 10.1  0.1153E+03 -0.1826E+02 -0.1294E+02E
 Epicentro: LOS SANTOS - SANTANDER                                             3
 ACTION:UPD 12-07-05 11:50 OP:tino STATUS:               ID:20120403171448 L   I
 2012-04-03-1710-00M.COL___196                                                 6
 STAT SP IPHASW D HRMM SECON CODA AMPLIT PERI AZIMU VELO AIN AR TRES W  DIS CAZ7
 BAR2 SZ EP       1715  7.66                             171    -0.310   23 206 
 BAR2 SZ ES   1   1715 23.07                             171    -0.4 7   23 206 
 BAR2 SZ I        1715 24.20         7.6 0.28                            23 206 
 PAM  SE ES   3   1715 27.63                             152    -0.2 2   76  35 
 BRR  HZ EP       1715  9.87                             150     0.010   78 298 
 BRR  HE ES   1   1715 27.42                             150     0.6 7   78 298 
 RUS  HZ EP       1715 12.35                             145     0.410   98 179 
 RUS  HE ES   1   1715 30.22                             145    -0.2 7   98 179 
 RUS  HZ I        1715 32.05         5.8 0.52                            98 179 
 ZAR  HE ES   2   1715 46.40                             121    -0.9 4  210 292 
                                                                                
