 2013  4 3 1144 33.2 L   6.799 -73.196137.3  RSN  6 0.4 1.7LRSN                1
 GAP=172        0.77       4.7     7.9 10.1 -0.3766E+01  0.3849E+02 -0.1150E+02E
 Epicentro: ZAPATOCA - SANTANDER                                               3
 ACTION:UPD 13-05-22 14:35 OP:EP   STATUS:               ID:20130403114433 L   I
 2013-04-03-1140-00M.COL___245                                                 6
 STAT SP IPHASW D HRMM SECON CODA AMPLIT PERI AZIMU VELO AIN AR TRES W  DIS CAZ7
 BAR2 SZ EP   2   1144 51.70                             170   -0.08 5 22.9 176 
 BAR2 SZ ES   1   1145  6.09                             170   -0.20 7 22.9 176 
 BAR2 SZ I        1145  7.45        12.9 0.14            170           22.9 176 
 GIR2 SZ ES   1   1145  6.71                             166    0.32 7 31.0   0 
 GIR2 SZ I        1145  8.64         9.1 0.40            164           31.0   0 
 BRR  HZ EP       1144 53.69                             152    0.5410 66.5 301 
 BRR  HN ES   4   1145 10.12                             152    1.40 0 66.5 301 
 BRR  HZ I        1145 14.40        11.1 0.31            149           66.5 301 
 RUS  HN ES   1   1145 13.77                             142   -0.27 7  101 173 
 PTB  HZ EP   2   1144 58.64                             131   -0.33 5  142 258 
 PTB  HE ES   1   1145 18.91                             131   -0.17 7  142 258 
 PTB  HZ I        1145 22.05         5.7 0.22            132            142 258 
 OCA  HN ES   1   1145 21.74                             127   -0.61 7  160 355 
 OCA  HZ I        1145 22.93         7.9 0.26            131            160 355 
                                                                                
