 2015  8 3 1150 17.6 L   6.787 -73.088145.8  RSN 12 0.5 2.3LRSN                1
 GAP=189        1.16       3.6     5.6  6.4  0.1560E+01  0.9549E+01  0.6968E+00E
 Epicentro: LOS SANTOS - SANTANDER                                             3
 ACTION:UPD 15-09-15 22:59 OP:cam  STATUS:               ID:20150803115017 L   I
 OLDACT:REG 15-08-03 21:21 OP:drio STATUS:               ID:20150803114748     3
 2015-08-03-1147-48M.COL___355                                                 6
 STAT SP IPHASW D HRMM SECON CODA AMPLIT PERI AZIMU VELO AIN AR TRES W  DIS CAZ7
 BAR2 EZ EP     D 1150 37.37                             170    0.1710 23.9 206 
 BAR2 EZ ES       1150 52.74                             170    0.2110 23.9 206 
 BAR2 EZ  AMP     1150 55.69        47.5 0.44                          23.9 206 
 BRR  HZ EP       1150 39.38                             150    0.3010 77.5 297 
 BRR  HE ES       1150 56.68                             150    0.8210 77.5 297 
 BRR  HZ I        1151  0.27        23.4 0.26            149           77.5 297 
 RUS  HZ EP       1150 41.19                             144   -0.0010 98.9 180 
 RUS  HE ES       1150 58.81                             144   -0.8110 98.9 180 
 RUS  HZ I        1151  2.54        13.6 0.54            147           98.9 180 
 OCA  HZ EP       1150 46.31                             129    0.22 9  163 351 
 OCA  HN ES   4   1151  6.70                             129   -1.64 0  163 351 
 OCA  HZ I        1151 15.81        27.7 0.20            131            163 351 
 ZAR  HZ EP   4   1150 48.76                             121   -1.91 0  211 292 
 ZAR  HE ES       1151 15.77                             121   -0.73 8  211 292 
 ZAR  HZ I        1151 21.84        22.9 0.52            123            211 292 
 NOR  HZ EP     D 1150 53.58                             118   -0.18 8  239 236 
 NOR  HN ES       1151 21.76                             118   -0.24 8  239 236 
 NOR  HZ I        1151 28.61        14.9 0.34            119            239 236 
 SML  HZ EP       1150 53.77                             117   -0.85 8  248 334 
 SML  HN ES       1151 23.33                             117   -0.20 8  248 334 
 SML  HZ I        1151 25.24        26.2 0.30            119            248 334 
 CHI  HZ EP       1150 55.41                             117    0.11 8  249 197 
 CHI  HN ES       1151 24.28                             117   -0.45 8  249 197 
 CHI  HZ I        1151 28.75         8.2 0.40            119            249 197 
 HEL  HZ EP       1150 58.52                             114    0.10 7  278 256 
 HEL  HN ES       1151 29.92                             114   -0.37 7  278 256 
 HEL  HZ I        1151 36.01         8.8 0.36            116            278 256 
 GUY2CHZ EP       1151  2.66                             112    0.99 7  306 236 
 GUY2CHN ES   4   1151 37.54                             112    1.47 0  306 236 
 GUY2CHZ I        1151 43.82        10.5 0.32                           306 236 
 TOL  SZ EP       1151  6.86                             109    0.64 6  347 226 
 TOL  SN ES       1151 44.55                             109    0.38 6  347 226 
 TOL  SZ I        1151 51.00         8.2 0.42            111            347 226 
 MON  HZ EP   4   1151  4.73                             108   -2.51 0  360 308 
 MON  HN ES   4   1151 43.50                             108   -2.50 0  360 308 
 MON  HZ I        1151 45.67         4.3 0.42            110            360 308 
                                                                                
