 2011  7 3 1259 56.4 L   6.658 -72.710  4.0  RSN  8 0.4 1.8LRSN                1
 GAP=205        0.87       3.2     4.4 26.2 -0.6381E+01  0.3255E+01 -0.9001E+01E
 Epicentro: ENCISO - SANTANDER                                                 3
 ACTION:UPD 12-07-25 13:58 OP:epov STATUS:               ID:20110703125956 L   I
 2011-07-03-1255-56S.COL___140                                                 6
 STAT SP IPHASW D HRMM SECON CODA AMPLIT PERI AZIMU VELO AIN AR TRES W  DIS CAZ7
 BAR2 SZ EP       13 0  5.24                              90   -0.0110 52.7 262 
 BAR2 SZ ES   1   13 0 12.13                              90   -0.01 7 52.7 262 
 BAR2 SZ I        13 0 12.79        68.9 0.34                          52.7 262 
 BTL  SZ EP       13 0  7.72                              90    0.1510 68.1 295 
 GIR2 SZ EP       13 0  7.78                              90   -0.1110 70.9 311 
 GIR2 SZ ES   2   13 0 16.37                              90   -0.48 5 70.9 311 
 PAM  SZ EP       13 0  8.13                              90   -0.8110 75.4   1 
 RUS  HZ EP       13 0 11.89                              90    0.1110 94.2 206 
 RUS  HN ES   3   13 0 22.62                              90   -1.15 2 94.2 206 
 BRI  SZ EP       13 0 15.52                              90    0.5310  117 355 
 GRA  SZ EP       13 0 18.10                              90    0.31 9  136 356 
 GRA  SZ ES   2   13 0 34.75                              90    0.29 5  136 356 
 GRA  SZ I        13 0 36.03         8.2 0.28                           136 356 
 OCA  SZ ES   3   13 0 48.05                              56    0.26 2  187 339 
 OCA  SZ I        13 0 55.61        12.6 0.47                           187 339 
                                                                                
