 2013  2 3 1335 26.6 L   6.768 -73.086140.6  RSN  5 0.2 1.4LRSN                1
 GAP=146        0.43       3.6     9.6  4.0 -0.2575E+02 -0.4851E+00  0.3681E+00E
 Epicentro: LOS SANTOS - SANTANDER                                             3
 ACTION:UPD 13-03-12 09:30 OP:ep   STATUS:               ID:20130203133526 L   I
 2013-02-03-1328-50M.COL___179                                                 6
 STAT SP IPHASW D HRMM SECON CODA AMPLIT PERI AZIMU VELO AIN AR TRES W  DIS CAZ7
 BAR2 SZ EP   1   1335 45.30                             171   -0.31 7 22.1 209 
 BAR2 SZ ES       1336  0.42                             171    0.0010 22.1 209 
 BAR2 SZ I        1336  1.06         6.5 0.20            170           22.1 209 
 PAM  SZ EP       1335 48.15                             150   -0.0810 76.3  34 
 PAM  SZ I        1335 48.31         5.3 0.22            151           76.3  34 
 PAM  SN ES       1336  5.15                             150    0.0710 76.3  34 
 BRR  HZ EP   3   1335 48.65                             149    0.98 2 78.7 299 
 RUS  HZ EP       1335 49.74                             144    0.1410 96.8 180 
 RUS  HN ES       1336  7.50                             144   -0.0210 96.8 180 
 CHI  HZ EP   3   1336  3.84                             116   -0.03 2  247 197 
                                                                                
