 2012 10 3 1344 46.2 L   6.798 -73.152140.3  RSN 11 0.5 2.5LRSN                1
 GAP=136        0.74       3.5     4.1  5.0 -0.4089E+00  0.7842E+01  0.3096E+01E
 Epicentro: LOS SANTOS - SANTANDER                                             3
 ACTION:UPD 12-11-22 17:01 OP:ep   STATUS:               ID:20121003134446 L   I
 2012-10-03-1340-00M.COL___223                                                 6
 STAT SP IPHASW D HRMM SECON CODA AMPLIT PERI AZIMU VELO AIN AR TRES W  DIS CAZ7
 BAR2 SZ EP       1345  5.03                             170   -0.1210 23.0 188 
 BAR2 SZ ES   1   1345 19.73                             170   -0.21 7 23.0 188 
 BAR2 SZ I        1345 21.06        94.1 0.42                          23.0 188 
 GIR2 SZ EP       1345  5.09                             167   -0.1210 31.4 352 
 GIR2 SZ ES   1   1345 20.04                             167   -0.01 7 31.4 352 
 BRR  HZ EP       1345  6.90                             152    0.1810 70.7 299 
 BRR  HN ES   1   1345 23.36                             152    0.63 7 70.7 299 
 BRR  HN I        1345 24.57       140.4 0.16                          70.7 299 
 PAM  SZ EP       1345  7.83                             150   -0.0310 78.0  40 
 PAM  SZ I        1345  8.18        67.6 0.24                          78.0  40 
 PAM  SN ES   1   1345 24.80                             150    0.04 7 78.0  40 
 RUS  HZ EP   1   1345  9.07                             143   -0.32 7  100 176 
 RUS  HN ES   1   1345 27.44                             143   -0.04 7  100 176 
 ZAR  HZ EP       1345 17.86                             121   -0.37 9  204 292 
 ZAR  HE ES   1   1345 43.63                             121    0.42 6  204 292 
 ZAR  HN I        1345 48.57        46.5 0.14                           204 292 
 NOR  SN ES   1   1345 48.57                             117   -0.52 6  234 234 
 NOR  SN I        1345 52.09        45.2 0.14                           234 234 
 CHI  HZ EP   2   1345 24.14                             116    0.60 4  248 195 
 CHI  HE ES   3   1345 53.38                             116    0.71 2  248 195 
 CHI  HN I        1345 59.91        11.4 0.32                           248 195 
 HEL  HE ES   3   1345 55.29                             114   -1.84 2  271 256 
 HEL  HN I        1346  5.71         9.1 0.26                           271 256 
 DBB  SZ EP       1345 32.93                             109   -0.44 7  339 274 
 DBB  SZ I        1346 13.25        11.0 0.52                           339 274 
 PRA  HZ EP       1345 40.33                             106    0.87 6  391 209 
 PRA  HN ES   1   1346 21.89                             106    0.88 4  391 209 
 PRA  HN I        1346 26.85         6.2 0.26                           391 209 
                                                                                
