 2010  7 3 1155 37.8 L   6.696 -73.163151.0  RSN  4 0.2 1.6LRSN                1
 GAP=155        0.56       6.7     9.4  8.7  0.2624E+02 -0.4429E+02 -0.2937E+02E
 Epicentro: VILLANUEVA - SANTANDER                                             3
 ACTION:UPD 10-12-01 15:14 OP:pat  STATUS:               ID:20100703115537 L   I
 2010-07-03-1151-56S.COL___118                                                 6
 STAT SP IPHASW D HRMM SECON CODA AMPLIT PERI AZIMU VELO AIN AR TRES W  DIS CAZ7
 BAR2 SZ EP       1155 57.72                             176    -0.210   12 191 
 BAR2 SZ ES   2   1156 13.19                             176    -0.4 5   12 191 
 BRR  HZ EP       1155 59.65                             152    -0.110   76 307 
 BRR  HN ES   1   1156 17.04                             152     0.1 7   76 307 
 BRR  HZ I        1156 20.64        10.4 0.11                            76 307 
 RUS  HZ EP   3   1156  1.54                             149     0.2 2   89 174 
 RUS  HN ES   2   1156 19.99                             149     0.3 5   89 174 
 RUS  HZ I        1156 21.76         4.1 0.57                            89 174 
 BRI  SZ EP       1156  3.33                             139     0.310  120  20 
 BRI  SZ I        1156 22.83         5.2 0.72                           120  20 
                                                                                
