 2016  1 3 1007  8.9 L   6.723 -73.126140.0  RSN  6 0.3 1.5LRSN                1
 GAP=169        0.65       5.5     3.6  6.4 -0.3263E+01  0.4510E+01  0.8525E+01E
 Epicentro: JORDAN - SANTANDER                                                 3
 ACTION:UPD 16-03-09 23:22 OP:cam  STATUS:               ID:20160103100708 L   I
 OLDACT:DUP 16-01-03 21:12 OP:dnl  STATUS:               ID:20160103095747d    3
 OLDACT:REG 16-01-03 20:13 OP:dnl  STATUS:               ID:20160103095746     3
 2016-01-03-0957-46M.COL___314                                                 6
 STAT SP IPHASW D HRMM SECON CODA AMPLIT PERI AZIMU VELO AIN AR TRES W  DIS CAZ7
 BAR2 EZ EP   2   10 7 27.93                             173    0.21 5 15.8 203 
 BAR2 EZ ES   2   10 7 41.90                             173   -0.49 5 15.8 203 
 BAR2 EZ I        10 7 44.06         6.3 0.20            168           15.8 203 
 BRR  HZ EP       10 7 29.92                             150    0.1010 77.5 303 
 BRR  HE ES       10 7 46.63                             150    0.5010 77.5 303 
 BRR  HZ I        10 7 51.47         5.9 0.15            147           77.5 303 
 PAM  EZ EP       10 7 30.88                             148    0.0110 82.8  35 
 PAM  EE ES       10 7 47.81                             148   -0.1810 82.8  35 
 PAM  EZ I        10 7 48.45         4.6 0.11            154           82.8  35 
 PTB  HZ EP   2   10 7 35.26                             131   -0.23 5  149 262 
 PTB  HN ES   4   10 7 54.19                             131   -2.03 0  149 262 
 PTB  HZ I        10 7 58.21         4.6 0.17            130            149 262 
 SPBC HZ EP   2   10 7 36.97                             129    0.48 5  158 222 
 SPBC HE ES   2   10 7 57.60                             129   -0.40 5  158 222 
 SPBC HZ I        10 8  4.09         3.1 0.07            129            158 222 
 ZAR  HZ EP   2   10 7 41.36                             121   -0.20 4  209 294 
 ZAR  HN ES       10 8  6.60                             121   -0.41 8  209 294 
 ZAR  HZ I        10 8 15.06         4.6 0.30            121            209 294 
                                                                                
