 2014  7 3 1832 13.2 L   6.808 -73.184118.5  RSN  7 0.5 1.3LRSN                1
 GAP=131        1.15       4.2     4.5  7.6  0.1565E+01  0.9454E+01 -0.6186E+01E
 Epicentro: ZAPATOCA - SANTANDER                                               3
 ACTION:UPD 15-03-16 20:40 OP:nd   STATUS:               ID:20140703183213 L   I
 OLDACT:REG 14-07-03 21:47 OP:spq  STATUS:               ID:20140703182814     3
 2014-07-03-1828-14M.COL___256                                                 6
 STAT SP IPHASW D HRMM SECON CODA AMPLIT PERI AZIMU VELO AIN AR TRES W  DIS CAZ7
 BAR2 SZ EP       1832 29.86                             168    0.2810 23.9 180 
 BAR2 SZ ES   1   1832 42.75                             168    0.40 7 23.9 180 
 BAR2 SZ I        1832 46.05         4.8 0.18            174           23.9 180 
 BRR  HZ EP       1832 32.09                             148    0.8810 67.1 300 
 BRR  HE ES       1832 45.09                             148   -0.1710 67.1 300 
 BRR  HZ I        1832 50.80         5.6 0.14            151           67.1 300 
 PAM  SZ EP       1832 32.75                             144   -0.0010 79.5  42 
 PAM  SN ES       1832 47.78                             144   -0.2210 79.5  42 
 PAM  SZ I        1832 57.16         2.1 0.28            149           79.5  42 
 RUS  HZ EP       1832 34.62                             137    0.1310  102 174 
 RUS  HN ES       1832 50.62                             137   -0.4710  102 174 
 RUS  HZ I        1832 53.59         1.6 0.33            146            102 174 
 PTB  HZ EP       1832 36.94                             126   -0.77 9  144 258 
 PTB  HN ES       1832 56.99                             126    0.18 9  144 258 
 PTB  HZ I        1833  2.69         2.4 0.11            132            144 258 
 ZAR  HZ EP       1832 43.26                             116   -0.31 9  200 292 
 ZAR  HE ES       1833  7.47                             116    0.22 9  200 292 
 ZAR  HZ I        1833 14.09         3.7 0.30            122            200 292 
 SML  HZ EP       1832 48.81                             111    0.64 8  241 336 
 SML  HE ES       1833 14.70                             111   -0.74 8  241 336 
 SML  HZ I        1833 19.47         4.1 0.12            117            241 336 
                                                                                
