 2010  1 3 1318 31.5 L   6.759 -73.077141.8  RSN  5 0.4 2.0LRSN                1
 GAP=217        0.70       7.5    10.0  9.5 -0.8644E+01  0.3456E+02  0.3326E+02E
 Epicentro: LOS SANTOS - SANTANDER                                             3
 ACTION:UP  10-08-24 09:42 OP:vdl  STATUS:               ID:20100103131831 L   I
 2010-01-03-1315-15S.COL___096                                                 6
 STAT SP IPHASW D HRMM SECON CODA AMPLIT PERI AZIMU VELO SNR AR TRES W  DIS CAZ7
 BAR2 SZ EP   1   1318 50.40                             171    -0.2 7   22 213 
 BAR2 SZ ES   2   1319  5.07                             171    -0.4 5   22 213 
 GIR2 SZ EP   1   1318 50.61                             164    -0.3 7   38 340 
 GIR2 SZ ES   2   1319  6.85                             164     0.9 5   38 340 
 CHI  HZ EP   1   1319  8.70                             116     0.0 6  246 197 
 CHI  HE ES   2   1319 38.20                             116     0.4 4  246 197 
 CHI  HZ I        1319 41.72         4.8 0.44                           246 197 
 HEL  HZ EP   1   1319 12.72                             113     0.5 6  278 257 
 HEL  HE ES   2   1319 43.24                             113    -0.7 4  278 257 
 HEL  HZ I        1319 48.41         3.8 0.30                           278 257 
 PRA  HZ EP   1   1319 24.98                             106     0.1 4  392 211 
 PRA  HN ES   2   1320  6.54                             106     0.1 3  392 211 
 PRA  HZ I        1320 12.42         4.7 0.82                           392 211 
                                                                                
