 2016 10 3 1700 26.5 L   6.745 -72.955140.9  RSN  4 0.3 1.6LRSN                1
 GAP=165        0.70       4.9     7.1  5.8 -0.2160E+02  0.1582E+02 -0.2056E+01E
 Epicentro: CEPITA - SANTANDER                                                 3
 ACTION:UPD 16-11-09 19:15 OP:rebc STATUS:               ID:20161003170026 L   I
 OLDACT:REG 16-10-03 21:07 OP:lv   STATUS:               ID:20161003165747     3
 2016-10-03-1658-00M.COL___369                                                 6
 STAT SP IPHASW D HRMM SECON CODA AMPLIT PERI AZIMU VELO AIN AR TRES W  DIS CAZ7
 BAR2 EZ EP   4   17 0 44.60                             167   -1.12 0 30.3 236 
 BAR2 EZ ES       17 1  0.57                             167   -0.1410 30.3 236 
 BAR2 EZ I        17 1  3.10         7.9 0.26            167           30.3 236 
 PAM  EZ EP       17 0 47.39                             152   -0.4710 71.5  23 
 PAM  EN ES       17 1  4.87                             152    0.3510 71.5  23 
 PAM  EZ I        17 1  6.63        11.7 0.52            153           71.5  23 
 RUS  HZ EP       17 0 49.61                             144    0.2010 95.4 189 
 RUS  HE ES       17 1  7.21                             144   -0.0610 95.4 189 
 RUS  HZ I        17 1  8.38         4.9 0.32            147           95.4 189 
 GUY2CHZ EP       17 1 11.81                             110    0.30 7  315 238 
 GUY2CHE ES       17 1 46.55                             110   -0.06 7  315 238 
                                                                                
