 2012  8 3 1018 16.7 L   6.770 -73.181142.4  RSN  6 0.2 1.9LRSN                1
 GAP=133        0.43       2.7     2.9  4.3  0.4181E+00  0.5479E+01 -0.1258E+01E
 Epicentro: LOS SANTOS - SANTANDER                                             3
 ACTION:UPD 12-09-10 11:54 OP:ep   STATUS:               ID:20120803101816 L   I
 2012-08-03-1010-00M.COL___215                                                 6
 STAT SP IPHASW D HRMM SECON CODA AMPLIT PERI AZIMU VELO AIN AR TRES W  DIS CAZ7
 BAR2 SZ EP       1018 35.88                             172    0.0710 19.7 180 
 BAR2 SZ ES   1   1018 50.67                             172   -0.08 7 19.7 180 
 BAR2 SZ I        1018 52.39        26.1 0.18                          19.7 180 
 BRR  HZ EP       1018 37.69                             152    0.3410 69.5 302 
 BRR  HZ I        1018 57.19        13.4 0.32                          69.5 302 
 PAM  SZ EP       1018 38.75                             149   -0.0810 82.4  40 
 PAM  SZ I        1018 39.01        14.9 0.22                          82.4  40 
 PAM  SN ES   1   1018 56.01                             149   -0.11 7 82.4  40 
 RUS  HZ EP       1018 39.85                             144   -0.0110 97.6 174 
 RUS  HN ES   1   1018 58.03                             144    0.07 7 97.6 174 
 RUS  HZ I        1018 59.73        14.8 0.30                          97.6 174 
 PTB  HZ EP       1018 42.67                             132   -0.28 9  143 260 
 PTB  HN ES   3   1019  3.61                             132    0.16 2  143 260 
 PTB  HZ I        1019  5.50         5.4 0.38                           143 260 
 ZAR  HZ EP   1   1018 48.68                             122    0.03 6  202 293 
 ZAR  HN ES   1   1019 13.53                             122   -0.07 6  202 293 
                                                                                
