 2011  7 3 1108 38.8 L   6.748 -73.108144.0  RSN  6 0.5 1.4LRSN                1
 GAP=144        1.22       7.2    13.0 10.3 -0.1445E+02 -0.2623E+02  0.4562E+01E
 Epicentro: JORDAN - SANTANDER                                                 3
 ACTION:UPD 12-07-25 13:57 OP:epov STATUS:               ID:20110703110838 L   I
 2011-07-03-1105-27S.COL___140                                                 6
 STAT SP IPHASW D HRMM SECON CODA AMPLIT PERI AZIMU VELO AIN AR TRES W  DIS CAZ7
 BAR2 SZ EP       11 8 57.79                             172   -0.3410 19.1 205 
 BAR2 SZ ES   1   11 9 13.42                             172    0.21 7 19.1 205 
 BAR2 SZ I        11 9 16.12         4.9 0.66                          19.1 205 
 BTL  SZ EP       11 8 57.91                             170   -0.3510 25.8 317 
 BTL  SZ ES   1   11 9 14.16                             170    0.71 7 25.8 317 
 BRR  HZ EP       11 8 59.57                             150   -0.5610 77.6 301 
 BRR  HZ I        11 8 59.91        11.7 0.40                          77.6 301 
 BRR  HN ES   1   11 9 17.00                             150    0.23 7 77.6 301 
 PAM  SN ES   2   11 9 17.70                             150   -0.52 5 79.5  35 
 RUS  HZ EP       11 9  2.01                             145    0.0710 94.7 178 
 RUS  HN ES   2   11 9 20.12                             145    0.11 5 94.7 178 
 RUS  HZ I        11 9 21.51         1.8 0.20                          94.7 178 
 GRA  SZ EP       11 9  5.32                             136    1.0810  130  15 
 GRA  SZ ES   1   11 9 23.41                             136   -0.69 7  130  15 
 GRA  SZ I        11 9 28.15         2.9 0.32                           130  15 
                                                                                
