 2014  3 3 1655 56.0 L   7.038 -73.554 18.7  RSN  7 0.4 1.5LRSN                1
 GAP= 87        0.94       2.5     1.9  3.1  0.5907E+00 -0.6227E+00  0.1502E+01E
 Epicentro: SAN VICENTE DE CHUCURI - SANTANDER                                 3
 ACTION:UPD 14-04-09 23:14 OP:nd   STATUS:               ID:20140303165556 L   I
 OLDACT:UP  14-03-03 20:26 OP:mh   STATUS:               ID:20140303164947     3
 OLDACT:REG 14-03-03 15:51 OP:mh   STATUS:               ID:20140303164947     3
 2014-03-03-1649-47M.COL___235                                                 6
 STAT SP IPHASW D HRMM SECON CODA AMPLIT PERI AZIMU VELO AIN AR TRES W  DIS CAZ7
 BRR  HZ IP     C 1656  0.55                             132    0.2110 19.1 294 
 BRR  HN ES       1656  3.65                             132   -0.0910 19.1 294 
 BRR  HZ I        1656  4.71        93.3 0.12            128           19.1 294 
 BAR2 SZ EP       1656  7.20                             104    0.3910 64.1 140 
 BAR2 SZ ES       1656 15.14                             104   -0.1110 64.1 140 
 BAR2 SZ I        1656 16.07        31.1 0.26            102           64.1 140 
 PAM  SZ EP       1656 12.85                              99    0.4410  100  70 
 PAM  SN ES       1656 24.62                              99   -0.6210  100  70 
 PAM  SZ I        1656 26.16         7.5 0.16             98            100  70 
 PTB  HZ EP       1656 14.01                              98    0.0210  114 241 
 PTB  HN ES       1656 27.66                              98   -0.3910  114 241 
 PTB  HZ I        1656 28.26        26.2 0.25             97            114 241 
 RUS  HZ EP       1656 18.29                              56    0.61 9  137 158 
 RUS  HN ES       1656 34.18                              56   -0.42 9  137 158 
 RUS  HZ I        1656 36.46         3.4 0.20             56            137 158 
 ZAR  HN ES   1   1656 37.07                              56    0.03 7  153 289 
 ZAR  HZ I        1656 38.98         7.5 0.10             56            153 289 
 SPBC HN ES   4   1656 42.54                              56    2.86 0  164 201 
 SML  HE ES   1   1656 48.18                              56   -0.11 6  203 344 
                                                                                
