 2010 10 3 1707 58.0 L   6.789 -73.137148.7  RSN  4 0.1 1.1LRSN                1
 GAP=165        0.31       4.8     5.9  5.9 -0.1442E+02  0.1660E+02 -0.1220E+02E
 Epicentro: LOS SANTOS - SANTANDER                                             3
 ACTION:UP  11-02-18 11:07 OP:tino STATUS:               ID:20101003170758 L   I
 2010-10-03-1704-53S.COL___124                                                 6
 STAT SP IPHASW D HRMM SECON CODA AMPLIT PERI AZIMU VELO SNR AR TRES W  DIS CAZ7
 BAR2 SZ EP   2   17 8 17.73                             171    -0.2 5   22 193 
 BAR2 SZ ES   2   17 8 33.49                             171     0.0 5   22 193 
 BAR2 SZ I        17 8 35.58         6.3 0.17                            22 193 
 RUS  HZ EP   2   17 8 21.86                             145    -0.1 5   99 177 
 RUS  HE ES   2   17 8 40.71                             145     0.1 5   99 177 
 RUS  HZ I        17 8 41.37         1.9 0.42                            99 177 
 GUE  SZ EP   2   17 8 23.15                             140     0.1 5  118  12 
 GUE  SZ I        17 8 24.35         1.0 0.10                           118  12 
 NOR  SZ EP   2   17 8 33.97                             119     0.1 4  235 235 
 NOR  SN ES   2   17 9  1.89                             119     0.0 4  235 235 
                                                                                
