 2016  7 3 1725  5.2 L   6.744 -73.977 19.8  RSN  8 0.4 1.7LRSN                1
 GAP= 86        0.99       2.5     1.9  3.3  0.6506E-02  0.1726E+01  0.3173E+01E
 Epicentro: PUERTO PARRA - SANTANDER                                           3
 ACTION:UPD 17-03-29 16:46 OP:lp   STATUS:               ID:20160703172505 L   I
 OLDACT:REG 16-07-03 22:43 OP:ak   STATUS:               ID:20160703171741     3
 2016-07-03-1717-41M.COL___337                                                 6
 STAT SP IPHASW D HRMM SECON CODA AMPLIT PERI AZIMU VELO AIN AR TRES W  DIS CAZ7
 BRR  HZ EP       1725 13.93                             109    0.2110 49.7  36 
 BRR  HE ES       1725 20.60                             109    0.2210 49.7  36 
 PTB  HZ IP     D 1725 14.73                             107   -0.1510 57.6 247 
 PTB  HN ES       1725 22.18                             107   -0.2510 57.6 247 
 PTB  HZ I        1725 24.79        70.7 0.16            108           57.6 247 
 BAR2 EZ IP     D 1725 19.87                             101    0.0610 89.5 101 
 BAR2 EZ ES       1725 30.68                             101   -0.5410 89.5 101 
 BAR2 EZ I        1725 35.02        11.5 0.25            102           89.5 101 
 SPBC HZ EP       1725 24.52                              56    0.1710  121 185 
 SPBC HN ES       1725 39.14                              56   -0.1510  121 185 
 SPBC HZ I        1725 41.04        21.8 0.10             56            121 185 
 ZAR  HZ EP       1725 25.03                              56   -0.0410  128 310 
 ZAR  HN ES       1725 40.09                              56   -0.4910  128 310 
 ZAR  HZ I        1725 40.50        12.2 0.32             56            128 310 
 RUS  HZ EP       1725 27.44                              56    0.69 9  137 134 
 RUS  HN ES       1725 43.11                              56   -0.46 9  137 134 
 RUS  HZ I        1725 45.43         8.9 0.13             56            137 134 
 HEL  HZ EP       1725 32.94                              56    0.63 9  182 250 
 HEL  HN ES       1725 53.08                              56   -0.39 9  182 250 
 HEL  HZ I        1725 54.61        12.3 0.30             56            182 250 
 GUY2CHZ EP   2   1725 38.93                              56    0.80 4  228 223 
 GUY2CHN ES       1726  4.41                              56    0.59 8  228 223 
 GUY2CHZ I        1726 22.14         4.2 0.60                           228 223 
                                                                                
