 2015  9 3 1212 59.0 L   6.821 -73.136147.4  RSN 21 0.5 2.3LRSN                1
 GAP=113        1.05       2.5     2.8  4.9 -0.3643E+00  0.3339E+01  0.7500E+00E
 Epicentro: LOS SANTOS - SANTANDER                                             3
 ACTION:UPD 15-10-28 16:23 OP:cam  STATUS:               ID:20150903121259 L   I
 OLDACT:REG 15-09-03 20:59 OP:ak   STATUS:               ID:20150903120748     3
 2015-09-03-1207-48M.COL___349                                                 6
 STAT SP IPHASW D HRMM SECON CODA AMPLIT PERI AZIMU VELO AIN AR TRES W  DIS CAZ7
 BAR2 EZ IP     D 1213 18.97                             170    0.0910 25.8 191 
 BAR2 EZ ES       1213 34.75                             170    0.3710 25.8 191 
 BAR2 EZ I        1213 36.64        24.0 0.26            169           25.8 191 
 BRR  HZ IP     D 1213 20.84                             153    0.5310 71.0 296 
 BRR  HN ES       1213 37.46                             153    0.5210 71.0 296 
 BRR  HZ I        1213 41.49        27.6 0.12            150           71.0 296 
 RUS  HZ EP       1213 22.24                             143   -0.8310  103 177 
 RUS  HN ES       1213 41.78                             143   -0.0710  103 177 
 RUS  HZ I        1213 42.39        18.1 0.46            146            103 177 
 PTB  HZ EP       1213 25.54                             132   -0.69 9  149 258 
 PTB  HN ES       1213 47.05                             132   -0.42 9  149 258 
 PTB  HZ I        1213 51.59        29.7 0.16            132            149 258 
 TAM  HZ EP       1213 27.26                             131    0.49 9  155 106 
 TAM  HN ES       1213 48.25                             131   -0.18 9  155 106 
 OCA  HZ EP       1213 27.57                             130    0.34 9  158 353 
 OCA  HN ES       1213 49.24                             130   -0.01 9  158 353 
 OCA  HZ I        1213 53.05        66.8 0.20            131            158 353 
 SPBC HZ EP       1213 27.92                             129    0.06 9  166 219 
 SPBC HN ES       1213 49.79                             129   -0.57 9  166 219 
 SPBC HZ I        1213 51.53        30.9 0.14            130            166 219 
 ZAR  HZ EP       1213 31.32                             123   -0.24 9  204 291 
 ZAR  HN ES       1213 57.41                             123    0.46 9  204 291 
 ZAR  HZ I        1214  3.50        37.3 0.35            123            204 291 
 NOR  HZ EP       1213 34.91                             119   -0.15 8  237 234 
 NOR  HN ES       1214  3.47                             119    0.29 8  237 234 
 NOR  HZ I        1214  8.56        14.5 0.26            119            237 234 
 SML  HZ EP       1213 35.65                             118    0.11 8  242 335 
 SML  HN ES       1214  3.09                             118   -0.94 8  242 335 
 SML  HZ I        1214 10.99        37.1 0.10            119            242 335 
 CHI  HZ EP       1213 37.07                             117    0.01 8  251 195 
 CHI  HN ES       1214  6.13                             117   -0.62 8  251 195 
 CHI  HZ I        1214 14.00         3.8 0.29            119            251 195 
 ROSC BZ EP   1   1213 37.47                             117   -0.01 6  255 211 
 ROSC BN ES       1214  8.25                             117    0.75 8  255 211 
 HEL  HZ EP   1   1213 39.64                             115    0.17 6  274 255 
 HEL  HN ES       1214 10.76                             115   -0.27 8  274 255 
 HEL  HZ I        1214 17.10         9.0 0.56            116            274 255 
 URE  HZ EP   4   1213 38.69                             114   -1.47 0  284 291 
 URE  HN ES   4   1214 10.54                             114   -1.72 0  284 291 
 URE  HZ I        1214 23.01        15.3 0.34            114            284 291 
 GUY2CHZ EP   1   1213 43.94                             112    1.01 5  303 235 
 GUY2CHN ES       1214 17.26                             112    0.07 7  303 235 
 GUY2CHZ I        1214 25.64         8.7 0.54                           303 235 
 ELA  HZ EP   1   1213 46.85                             110    0.67 5  331 229 
 ELA  HN ES       1214 23.55                             110    0.57 7  331 229 
 ELA  HZ I        1214 30.94         6.1 0.53            111            331 229 
 CBOC HZ EP       1213 46.93                             110    0.75 7  335 252 
 CBOC HN ES       1214 23.02                             110    0.05 7  335 252 
 DBB  SZ EP       1213 45.81                             110   -0.83 7  340 274 
 DBB  SZ ES       1214 23.24                             110   -0.56 7  340 274 
 DBB  SZ I        1214 24.74        17.6 0.51            110            340 274 
 TOL  SZ EP   1   1213 48.17                             109    0.57 5  346 224 
 TOL  SN ES       1214 25.31                             109   -0.19 6  346 224 
 TOL  SZ I        1214 30.99         5.7 0.25            110            346 224 
 PRA  HZ EP       1213 52.82                             107   -0.05 6  395 210 
 PRA  HN ES   4   1214 33.78                             107   -1.11 0  395 210 
 PRA  HZ I        1214 39.27         6.2 0.65            108            395 210 
 SJC  HZ EP   4   1213 52.88                             106   -1.57 0  408 327 
 SJC  HN ES   4   1214 34.43                             106   -3.27 0  408 327 
 SJC  HZ I        1214 39.98         3.1 0.40            107            408 327 
                                                                                
