 2011  6 3 1652 54.3 L   6.801 -73.110143.9  RSN 14 0.4 2.6LRSN                1
 GAP=141        0.91       4.2     6.3  6.2 -0.1163E+02  0.6780E+01  0.5486E+01E
 Epicentro: LOS SANTOS - SANTANDER                                             3
 ACTION:UP  11-07-14 19:02 OP:ep   STATUS:               ID:20110603165254 L   I
 2011-06-03-1651-14S.COL___132                                                 6
 STAT SP IPHASW D HRMM SECON CODA AMPLIT PERI AZIMU VELO SNR AR TRES W  DIS CAZ7
 BAR2 SZ EP   1   1653 13.46                             170    -0.3 7   24 199 
 BAR2 SZ ES   1   1653 28.66                             170    -0.2 7   24 199 
 BAR2 SZ I        1653 30.23        91.1 0.23                            24 199 
 PAM  SZ EP   1   1653 16.54                             151     0.4 7   75  37 
 BRR  HZ EP       1653 15.62                             151     0.210   75 297 
 BRR  HZ I        1653 15.90       213.0 0.15                            75 297 
 PAM  SE ES   1   1653 33.17                             151    -0.1 7   75  37 
 PAM  SZ I        1653 36.06        25.4 0.41                            75  37 
 BRR  HN ES   1   1653 32.51                             151     0.6 7   75 297 
 RUS  HZ EP   1   1653 17.99                             143     0.1 7  101 178 
 RUS  HN ES   2   1653 35.99                             143    -0.3 5  101 178 
 BRI  SZ EP   1   1653 18.28                             141     0.4 7  107  19 
 BRI  SZ I        1653 38.53        53.4 0.26                           107  19 
 GRA  SZ EP       1653 19.56                             137     0.310  124  16 
 GRA  SZ ES   1   1653 38.87                             137     0.1 7  124  16 
 GRA  SZ I        1653 40.20        70.3 0.30                           124  16 
 OCA  SZ EP   1   1653 21.70                             129    -0.8 7  161 352 
 OCA  SZ ES   1   1653 43.62                             129    -0.9 7  161 352 
 OCA  SZ I        1653 47.36                                            161 352 
 NOR  SZ EP   1   1653 29.69                             118    -0.6 6  238 235 
 NOR  SN ES   1   1653 58.22                             118    -0.1 6  238 235 
 CHI  HZ EP   1   1653 32.32                             116     0.3 6  250 196 
 CHI  HZ I        1654  5.02        13.4 0.38                           250 196 
 HEL  HZ EP   1   1653 35.58                             114     0.7 6  276 256 
 HEL  HZ I        1654 14.19        22.7 0.33                           276 256 
 GUY  SZ EP   1   1653 38.59                             112     0.1 5  307 235 
 TOL  SZ EP   1   1653 43.04                             109     0.2 5  346 225 
 PRA  HZ EP   1   1653 47.62                             106    -0.4 4  394 210 
 SJA  SZ EP   1   1653 48.31                             106    -0.6 4  401 193 
                                                                                
