 2013  8 3 1757 59.9 L   6.807 -73.145150.9  RSN 16 0.5 3.2LRSN 3.5WRSN        1
 SPEC AVERAGE  MO 14.3 ST140.9 OM  2.9 f0 7.15 R0.3142 AL 0.00 WI 31.3 MW  3.5 3
 SPEC SD       MO  0.2 ST127.9 OM  0.4 f0 3.14 R0.2302 AL      WI      MW  0.1 3
 GAP=112        1.21       3.1     3.7  5.4 -0.2980E+00  0.3691E+01  0.1743E+01E
 Epicentro: LOS SANTOS - SANTANDER                                             3
 SPEC CHI HH N MO 14.6 ST  4.1 OM  2.7 f0 2.13 R0.7296 AL 0.00 WI 31.1 MW  3.7 3
 SPEC CHI HH N T1759 5 K 0.000 GD  291 VS 4.20 DE 3.20 Q0300.0 QA 0.60 VS 4.20 3
 SPEC SML HH N MO 14.1 ST132.0 OM  2.2 f0 10.0 R0.1554 AL 0.00 WI 39.9 MW  3.3 3
 SPEC SML HH N T1759 3 K 0.000 GD  286 VS 4.20 DE 3.20 Q0300.0 QA 0.60 VS 4.20 3
 SPEC ZAR HH E MO 14.5 ST370.2 OM  2.7 f0 10.0 R0.1554 AL 0.00 WI 37.0 MW  3.6 3
 SPEC ZAR HH E T175856 K 0.000 GD  253 VS 4.20 DE 3.20 Q0300.0 QA 0.60 VS 4.20 3
 SPEC SPBCHH N MO 14.4 ST325.1 OM  2.7 f0 10.0 R0.1554 AL 0.00 WI 36.4 MW  3.6 3
 SPEC SPBCHH N T175850 K 0.000 GD  222 VS 4.20 DE 3.20 Q0300.0 QA 0.60 VS 4.20 3
 SPEC OCA HH E MO 14.5 ST 91.4 OM  2.8 f0 6.10 R0.2548 AL 0.00 WI 23.5 MW  3.6 3
 SPEC OCA HH E T175848 K 0.000 GD  219 VS 4.20 DE 3.20 Q0300.0 QA 0.60 VS 4.20 3
 SPEC PTB HH N MO 14.1 ST120.3 OM  2.4 f0 9.20 R0.1689 AL 0.00 WI 45.2 MW  3.4 3
 SPEC PTB HH N T175848 K 0.000 GD  211 VS 4.20 DE 3.20 Q0300.0 QA 0.60 VS 4.20 3
 SPEC RUS HH E MO 14.3 ST  2.4 OM  2.6 f0 2.26 R0.6876 AL 0.00 WI 13.5 MW  3.4 3
 SPEC RUS HH E T175841 K 0.000 GD  181 VS 4.20 DE 3.20 Q0300.0 QA 0.60 VS 4.20 3
 SPEC BRR HH E MO 14.2 ST 81.8 OM  2.6 f0 7.51 R0.2069 AL 0.00 WI 23.5 MW  3.4 3
 SPEC BRR HH E T175838 K 0.000 GD  166 VS 4.20 DE 3.20 Q0300.0 QA 0.60 VS 4.20 3
 ACTION:UPD 14-01-14 08:58 OP:ep   STATUS:               ID:20130803175759 L   I
 OLDACT:UP  13-08-03 17:47 OP:cam  STATUS:               ID:20130803174960d    3
 OLDACT:UP  13-08-03 17:45 OP:cam  STATUS:               ID:20130803174960d    3
 OLDACT:UP  13-08-03 17:45 OP:cam  STATUS:               ID:20130803174960d    3
 OLDACT:DUP 13-08-03 17:28 OP:cam  STATUS:               ID:20130803174960d    3
 2013-08-03-1749-59M.COL___270                                                 6
 STAT SP IPHASW D HRMM SECON CODA AMPLIT PERI AZIMU VELO AIN AR TRES W  DIS CAZ7
 BAR2 SZ IP     C 1758 20.14                             171   -0.0610 24.1 190 
 BAR2 SZ ES       1758 35.90                             171   -0.1110 24.1 190 
 BAR2 SZ I        1758 36.68       332.8 0.21            170           24.1 190 
 GIR2 SZ EP       1758 20.26                             168    0.0610 30.5 350 
 GIR2 SZ ES       1758 36.53                             168    0.5210 30.5 350 
 GIR2 SZ I        1758 36.75       224.5 0.14            167           30.5 350 
 BRR  HZ IP     D 1758 22.00                             153    0.3710 70.9 298 
 BRR  HE ES       1758 39.48                             153    0.9410 70.9 298 
 BRR  HZ I        1758 42.49       270.0 0.34            151           70.9 298 
 RUS  HZ EP       1758 24.01                             145   -0.2410  101 176 
 RUS  HE ES       1758 42.42                             145   -0.8010  101 176 
 RUS  HZ I        1758 45.58       161.6 0.32            146            101 176 
 PTB  HZ EP       1758 26.70                             133   -0.65 9  148 259 
 PTB  HN ES       1758 48.09                             133   -0.64 9  148 259 
 PTB  HZ I        1758 50.58       158.9 0.40            132            148 259 
 TAM  HZ EP     D 1758 28.34                             132    0.30 9  155 105 
 TAM  HZ I        1758 28.47       321.3 0.20            134            155 105 
 TAM  HN ES       1758 50.27                             132    0.31 9  155 105 
 OCA  HZ EP       1758 28.34                             131   -0.24 9  159 353 
 OCA  HE ES       1758 50.59                             131   -0.33 9  159 353 
 OCA  HZ I        1758 54.89       211.2 0.20            131            159 353 
 SPBC HZ EP       1758 29.05                             130    0.15 9  164 219 
 SPBC HN ES       1758 51.13                             130   -0.35 9  164 219 
 SPBC HZ I        1758 53.82       405.0 0.28            130            164 219 
 ZAR  HZ EP       1758 32.83                             124    0.13 9  204 292 
 ZAR  HE ES   1   1758 58.61                             124    0.36 6  204 292 
 ZAR  HZ I        1759  4.95       153.7 0.30            123            204 292 
 NOR  HZ EP       1758 35.89                             120   -0.13 8  235 234 
 NOR  HN ES       1759  4.61                             120    0.44 8  235 234 
 NOR  HZ I        1759  9.44       127.0 0.24            119            235 234 
 SML  HZ EP       1758 36.48                             119   -0.30 8  243 335 
 SML  HN ES       1759  4.65                             119   -0.87 8  243 335 
 SML  HZ I        1759  9.62       193.7 0.10            119            243 335 
 CHI  HZ EP       1758 38.13                             118    0.12 8  249 195 
 CHI  HZ I        1758 40.82        62.3 0.20            119            249 195 
 CHI  HN ES       1759  7.50                             118   -0.20 8  249 195 
 HEL  HZ EP       1758 42.01                             116    1.57 8  272 256 
 HEL  HN ES       1759 11.86                             116   -0.18 8  272 256 
 HEL  HZ I        1759 18.24        53.4 0.32            115            272 256 
 URE  HZ EP   4   1758 40.47                             115   -0.77 0  284 292 
 GUY2CHZ EP   4   1758 45.25                             113    1.41 0  302 235 
 GUY2CHN ES   4   1759 20.33                             113    2.24 0  302 235 
 GUY2CHZ I        1759 27.89        82.5 0.52                           302 235 
 PRA  HZ EP       1758 53.34                             107   -0.38 6  393 210 
 PRA  HN ES   1   1759 35.40                             107   -0.27 4  393 210 
 ORTC HZ EP       1758 54.22                             107    0.10 6  396 216 
 ORTC HN ES   1   1759 37.82                             107    1.45 4  396 216 
 ORTC HZ I        1759 43.99        29.7 0.36            107            396 216 
                                                                                
