 2010 11 3 1644  4.4 L   6.792 -73.054138.0  RSN  4 0.2 1.5LRSN                1
 GAP=175        0.52       6.5    12.3 10.1  0.5755E+02 -0.7944E+02 -0.2695E+02E
 Epicentro: LOS SANTOS - SANTANDER                                             3
 ACTION:UP  10-12-17 16:50 OP:REBC STATUS:               ID:20101103164404 L   I
 2010-11-03-1641-16S.COL___128                                                 6
 STAT SP IPHASW D HRMM SECON CODA AMPLIT PERI AZIMU VELO SNR AR TRES W  DIS CAZ7
 BAR2 SZ EP       1644 23.18                             169     0.110   26 213 
 BAR2 SZ ES   3   1644 37.25                             169    -0.5 2   26 213 
 BRR  HZ EP       1644 24.98                             149    -0.310   81 296 
 BRR  HE ES   1   1644 41.85                             149     0.3 7   81 296 
 BRR  HZ I        1644 52.03        12.5 0.36                            81 296 
 RUS  HZ EP       1644 27.39                             143     0.110  100 182 
 RUS  HE ES   2   1644 44.97                             143    -0.2 5  100 182 
 RUS  HZ I        1644 47.05         2.6 0.40                           100 182 
 GUE  SZ EP   2   1644 28.42                             138     0.1 5  116   7 
                                                                                
