 2015  5 3 1952 20.1 L   6.784 -73.098140.0  RSN  4 0.3 1.1LRSN                1
 GAP=143        0.65       3.6     3.7  6.7  0.1729E+01  0.5932E+01 -0.1771E+01E
 Epicentro: LOS SANTOS - SANTANDER                                             3
 ACTION:UPD 15-09-10 22:01 OP:cam  STATUS:               ID:20150503195220 L   I
 OLDACT:REG 15-05-03 21:32 OP:ak   STATUS:               ID:20150503194749     3
 2015-05-03-1947-49M.COL___274                                                 6
 STAT SP IPHASW D HRMM SECON CODA AMPLIT PERI AZIMU VELO AIN AR TRES W  DIS CAZ7
 PAM  SZ IP     D 1952 41.84                             150    0.2410 75.6  36 
 PAM  SN ES       1952 58.19                             150   -0.1810 75.6  36 
 PAM  SZ I        1953  1.73         2.8 0.51            154           75.6  36 
 BRR  HZ EP       1952 40.82                             150   -0.1510 76.7 298 
 BRR  HN ES       1952 57.46                             150    0.2210 76.7 298 
 BRR  HZ I        1953  1.51         3.5 0.19            153           76.7 298 
 RUS  HZ EP   2   1952 42.46                             143   -0.69 5 98.6 179 
 RUS  HN ES       1953  1.19                             143    0.0710 98.6 179 
 RUS  HZ I        1953  3.26         1.8 0.23            148           98.6 179 
 ZAR  HZ EP   2   1952 53.55                             120    0.78 4  210 292 
 ZAR  HN ES       1953 18.00                             120   -0.24 8  210 292 
                                                                                
