 2012  1 3 1902 28.8 L   6.716 -73.102138.0  RSN  5 0.4 2.4LRSN                1
 GAP=180        0.94      10.2     6.8  9.7 -0.4166E+02 -0.8306E+01  0.5227E+02E
 Epicentro: JORDAN - SANTANDER                                                 3
 ACTION:UP  12-02-03 08:13 OP:REBC STATUS:               ID:20120103190228 L   I
 2012-01-03-1900-00M.COL___183                                                 6
 STAT SP IPHASW D HRMM SECON CODA AMPLIT PERI AZIMU VELO SNR AR TRES W  DIS CAZ7
 BAR2 SZ EP       19 2 47.78                             173     0.410   16 213 
 BAR2 SZ ES   2   19 3  1.49                             173    -0.3 5   16 213 
 BAR2 SZ I        19 3  3.74        21.3 0.30                            16 213 
 BRR  HZ EP       19 2 49.71                             148     0.110   80 303 
 BRR  HN ES       19 3  6.28                             148     0.410   80 303 
 BRR  HN I        19 3  7.19       112.9 0.18                            80 303 
 PAM  SZ EP       19 2 50.63                             148     0.210   82  33 
 PAM  SE ES       19 3  7.03                             148    -0.410   82  33 
 PTB  HZ EP       19 2 54.70                             130    -0.7 9  151 263 
 PTB  HE ES   2   19 3 16.10                             130    -0.1 5  151 263 
 NOR  SZ EP   1   19 3  4.23                             117     0.3 6  233 237 
 NOR  SN ES   1   19 3 31.27                             117    -0.1 6  233 237 
                                                                                
