 2010  5 3 1038 50.3 L   6.790 -72.960141.1  RSN  6 0.3 1.9LRSN                1
 GAP=226        0.51       4.2     8.5  5.4 -0.1490E+02  0.1330E+01  0.5858E+01E
 Epicentro: CEPITA - SANTANDER                                                 3
 ACTION:UP  10-08-24 10:02 OP:vdl  STATUS:               ID:20100503103850 L   I
 2010-05-03-1034-44S.COL___105                                                 6
 STAT SP IPHASW D HRMM SECON CODA AMPLIT PERI AZIMU VELO SNR AR TRES W  DIS CAZ7
 BAR2 SZ EP   1   1039  9.61                             166     0.0 7   33 228 
 BAR2 SZ ES   2   1039 24.55                             166    -0.1 5   33 228 
 GIR2 SZ EP   1   1039  9.75                             163     0.1 7   41 321 
 GIR2 SZ ES   2   1039 24.92                             163     0.1 5   41 321 
 BRR  HZ EP   1   1039 12.22                             146     0.1 7   90 293 
 BRR  HZ I        1039 14.03        22.0 0.11                            90 293 
 BRR  HN ES   2   1039 28.93                             146    -0.2 5   90 293 
 OCA  SZ EP   1   1039 18.46                             128    -0.2 7  165 346 
 OCA  SZ ES   2   1039 40.97                             128     0.2 5  165 346 
 RREF BZ EP   1   1039 37.40                             109    -0.5 5  337 232 
 RREF BN ES   2   1040 15.87                             109     0.7 3  337 232 
 RREF BZ I        1040 19.51         2.4 0.26                           337 232 
 PRA  HZ EP   1   1039 45.33                             105     0.6 4  402 212 
 PRA  HE ES   2   1040 26.52                             105    -0.7 3  402 212 
 PRA  HZ I        1040 31.80         1.8 0.40                           402 212 
                                                                                
