 2010  5 3 1506 39.8 L   6.825 -73.139144.7  RSN  4 0.4 2.3LRSN                1
 GAP=273        0.66      11.7    18.5 13.3 -0.9444E+02 -0.3876E+02  0.1064E+03E
 Epicentro: LOS SANTOS - SANTANDER                                             3
 ACTION:UP  10-08-24 10:02 OP:vdl  STATUS:               ID:20100503150640 L   I
 2010-05-03-1505-23S.COL___105                                                 6
 STAT SP IPHASW D HRMM SECON CODA AMPLIT PERI AZIMU VELO SNR AR TRES W  DIS CAZ7
 BRR  HZ EP   1   15 7  0.42                             153    -0.310   71 296 
 BRR  HZ I        15 7  0.80        41.2 0.30                            71 296 
 BRR  HN ES   2   15 7 17.67                             153     0.5 7   71 296 
 HEL  HZ EP       15 7 19.97                             115    -0.110  273 255 
 RREF BZ EP   1   15 7 26.81                             110     0.7 7  324 229 
 RREF BN ES   2   15 8  1.77                             110    -0.5 5  324 229 
 RREF BZ I        15 8  9.95         9.5 0.25                           324 229 
 PRA  HZ EP   1   15 7 33.76                             106     0.2 6  395 209 
 PRA  HN ES   2   15 8 15.31                             106    -0.2 4  395 209 
                                                                                
