 2013  2 3 1332 13.7 L   6.778 -73.126139.5  RSN  8 0.4 2.0LRSN 2.5WRSN        1
 SPEC AVERAGE  MO 12.8 ST  1.0 OM  2.6 f0 4.61 R0.3234 AL 2.52 WI 10.0 MW  2.5 3
 SPEC SD       MO  0.3 ST0.383 OM  1.8 f00.525 R0.0369 AL      WI      MW  0.2 3
 GAP= 98        1.02       4.0     3.9  6.3  0.8569E+00  0.1033E+01  0.5734E+01E
 Epicentro: LOS SANTOS - SANTANDER                                             3
 SPEC RUS HH N MO 12.5 ST0.629 OM  0.9 f0 5.13 R0.2865 AL 2.94 WI  8.7 MW  2.3 3
 SPEC RUS HH N T133254 K 0.000 GD  170 VS 4.20 DE 3.20 Q0300.0 QA 0.60 VS 4.20 3
 SPEC PAM SH Z MO 13.2 ST  1.4 OM  0.8 f0 4.08 R0.3603 AL 2.10 WI 11.4 MW  2.7 3
 SPEC PAM SH Z T133235 K 0.000 GD  159 VP 7.60 DE 3.20 Q0300.0 QA 0.60 VS 4.20 3
 ACTION:UPD 13-03-12 09:30 OP:ep   STATUS:               ID:20130203133213 L   I
 2013-02-03-1328-50M.COL___179                                                 6
 STAT SP IPHASW D HRMM SECON CODA AMPLIT PERI AZIMU VELO AIN AR TRES W  DIS CAZ7
 BAR2 SZ EP       1332 32.26                             171   -0.2810 21.5 197 
 BAR2 SZ ES       1332 46.65                             171   -0.5910 21.5 197 
 BAR2 SZ I        1332 48.43        23.9 0.20            171           21.5 197 
 BRR  HZ EP       1332 34.58                             150    0.2210 74.2 299 
 BRR  HN ES       1332 51.07                             150    0.6010 74.2 299 
 BRR  HN I        1332 55.24        25.6 0.14            151           74.2 299 
 PAM  SZ IP       1332 35.41                             149    0.1210 77.9  37 
 PAM  SZ I        1332 35.62        19.3 0.22            152           77.9  37 
 PAM  SN ES       1332 52.11                             149   -0.0110 77.9  37 
 RUS  HZ EP       1332 36.34                             143   -0.3210 98.1 177 
 RUS  HE ES       1332 54.73                             143    0.1710 98.1 177 
 RUS  HN I        1332 56.53         9.3 0.36            145           98.1 177 
 PTB  HZ EP       1332 40.26                             130   -0.06 9  149 260 
 PTB  HN ES       1333  0.83                             130   -0.26 9  149 260 
 PTB  HN I        1333  2.41        17.3 0.24            132            149 260 
 TAM  HZ EP       1332 40.95                             130    0.31 9  152 104 
 ZAR  HN ES       1333 11.20                             120   -0.08 8  207 293 
 CHI  HZ EP       1332 50.20                             116   -0.67 8  247 196 
 CHI  HN ES       1333 20.80                             116    0.93 8  247 196 
                                                                                
