 2015  5 3 1117 25.4 L   6.871 -73.066133.9  RSN  5 0.5 1.5LRSN                1
 GAP=208        1.32       8.6    12.6 11.0  0.7700E+02 -0.3727E+02 -0.4564E+02E
 Epicentro: PIEDECUESTA - SANTANDER                                            3
 ACTION:UPD 15-09-10 22:01 OP:cam  STATUS:               ID:20150503111725 L   I
 OLDACT:REG 15-05-03 20:17 OP:ak   STATUS:               ID:20150503110750     3
 2015-05-03-1107-50M.COL___273                                                 6
 STAT SP IPHASW D HRMM SECON CODA AMPLIT PERI AZIMU VELO AIN AR TRES W  DIS CAZ7
 BAR2 EZ EP       1117 44.13                             165    0.2110 33.5 203 
 BAR2 EZ ES       1117 57.55                             165   -0.7810 33.5 203 
 BAR2 EZ I        1118  0.66         6.9 0.17            167           33.5 203 
 BRR  HZ IP     C 1117 46.18                             149    0.5610 76.0 290 
 BRR  HN ES       1118  2.34                             149    0.9810 76.0 290 
 BRR  HZ I        1118  7.58         4.9 0.25            147           76.0 290 
 RUS  HZ EP       1117 48.70                             139    0.0610  108 181 
 RUS  HN ES       1118  6.60                             139   -0.1510  108 181 
 RUS  HZ I        1118  7.45         2.8 0.42            145            108 181 
 ZAR  HZ EP   2   1117 57.27                             119   -0.45 4  210 289 
 ZAR  HN ES       1118 22.30                             119   -0.60 8  210 289 
 ZAR  HZ I        1118 29.16         3.2 0.11            120            210 289 
 SML  HZ EP       1118  1.06                             115   -0.01 8  240 333 
 SML  HN ES       1118 28.29                             115   -0.58 8  240 333 
 SML  HZ I        1118 37.78         4.2 0.13            117            240 333 
                                                                                
