 2011 12 3 1747 23.7 L   6.562 -73.405121.5  RSN  6 0.2 2.5LRSN                1
 GAP= 95        0.49       2.4     2.9  3.8 -0.9795E+00  0.2490E+01  0.1967E+01E
 Epicentro: HATO - SANTANDER                                                   3
 ACTION:UPD 12-07-13 16:14 OP:ep   STATUS:               ID:20111203174723 L   I
 2011-12-03-1740-00M.COL___179                                                 6
 STAT SP IPHASW D HRMM SECON CODA AMPLIT PERI AZIMU VELO AIN AR TRES W  DIS CAZ7
 BAR2 SZ EP       1747 40.35                             168   -0.0610 24.8  82 
 BAR2 SZ ES       1747 53.50                             168    0.0210 24.8  82 
 BAR2 SZ I        1747 55.32        49.2 0.26                          24.8  82 
 GIR2 SZ EP       1747 41.99                             151    0.1410 61.8  22 
 GIR2 SZ ES   1   1747 56.01                             151   -0.04 7 61.8  22 
 BRR  HZ EP       1747 42.08                             148   -0.0310 69.2 331 
 BRR  HN ES       1747 56.63                             148    0.1310 69.2 331 
 BRR  HN I        1747 57.10       145.4 0.20                          69.2 331 
 RUS  HZ EP       1747 44.08                             144    0.4010 82.1 154 
 RUS  HE ES   1   1747 59.08                             144   -0.23 7 82.1 154 
 PAM  SZ EP   1   1747 46.27                             134   -0.15 7  116  42 
 PAM  SN ES   1   1748  3.83                             134   -0.34 7  116  42 
 NOR  SZ EP   1   1747 53.61                             118   -0.23 6  196 236 
 NOR  SE ES   1   1748 17.18                             118   -0.20 6  196 236 
                                                                                
