 2017  4 3 1506 29.6 L   6.778 -73.129145.7  RSN  6 0.4 1.8LRSN                1
 GAP=140        0.97       4.8     4.4  6.5  0.2104E+01  0.7244E+01 -0.1414E+01E
 Epicentro: LOS SANTOS - SANTANDER                                             3
 ACTION:UPD 17-05-30 21:08 OP:jn   STATUS:               ID:20170403150629 L   I
 OLDACT:REG 17-04-03 21:07 OP:ar   STATUS:               ID:20170403145743     3
 2017-04-03-1458-00M.COL___371                                                 6
 STAT SP IPHASW D HRMM SECON CODA AMPLIT PERI AZIMU VELO AIN AR TRES W  DIS CAZ7
 BAR2 EZ EP       15 6 48.88                             171   -0.3010 21.4 196 
 BAR2 EZ ES       15 7  4.48                             171    0.0210 21.4 196 
 BAR2 EZ I        15 7  5.05        11.3 0.44            172           21.4 196 
 BRR  HZ EP       15 6 50.93                             152    0.0310 74.0 299 
 BRR  HE ES       15 7  7.91                             152    0.4010 74.0 299 
 PAM  EZ EP       15 6 51.68                             151   -0.1710 78.1  37 
 PAM  EN ES       15 7  9.02                             151   -0.1910 78.1  37 
 PAM  EZ I        15 7 11.15        13.2 0.40            151           78.1  37 
 RUS  HZ EP       15 6 53.84                             144    0.6710 98.1 177 
 RUS  HN ES       15 7 11.52                             144   -0.0310 98.1 177 
 RUS  HZ I        15 7 12.75         4.5 0.30            147           98.1 177 
 PTB  HZ EP       15 6 55.96                             132   -0.73 9  149 260 
 PTB  HE ES       15 7 17.48                             132   -0.33 9  149 260 
 PTB  HZ I        15 7 18.86         9.6 0.46            132            149 260 
 ZAR  HZ EP       15 7  2.83                             122    0.52 8  207 293 
 ZAR  HN ES       15 7 27.97                             122    0.15 8  207 293 
 ZAR  HZ I        15 7 33.42        11.9 0.34            122            207 293 
                                                                                
