 2016 10 3 1917 30.4 L   6.780 -73.177145.0  RSN  6 0.4 1.5LRSN                1
 GAP=134        0.98       4.4     4.4  7.1 -0.2485E+01  0.1129E+02 -0.3678E+01E
 Epicentro: LOS SANTOS - SANTANDER                                             3
 ACTION:UPD 16-11-09 19:15 OP:rebc STATUS:               ID:20161003191730 L   I
 OLDACT:DUP 16-10-04 00:50 OP:lv   STATUS:               ID:20161003190743d    3
 2016-10-03-1908-00M.COL___369                                                 6
 STAT SP IPHASW D HRMM SECON CODA AMPLIT PERI AZIMU VELO AIN AR TRES W  DIS CAZ7
 BAR2 EZ EP       1917 49.76                             171   -0.1110 20.7 182 
 BAR2 EZ ES       1918  5.24                             171    0.1810 20.7 182 
 BAR2 EZ I        1918  6.37        10.7 0.28            172           20.7 182 
 PAM  EZ EP       1917 52.63                             149   -0.1210 81.3  40 
 PAM  EN ES       1918 10.11                             149   -0.0910 81.3  40 
 PAM  EZ I        1918 12.04         5.5 0.48            146           81.3  40 
 RUS  HZ EP       1917 54.15                             144    0.2310 98.6 174 
 RUS  HE ES       1918 12.29                             144    0.0210 98.6 174 
 RUS  HZ I        1918 16.50         2.8 0.28            143           98.6 174 
 PTB  HZ EP       1917 57.32                             133    0.38 9  144 259 
 PTB  HE ES       1918 17.22                             133   -0.44 9  144 259 
 PTB  HZ I        1918 25.05         7.8 0.12            126            144 259 
 SPBC HN E      C 1910 48.59                                            159 219 
 SPBC HZ E        1915 52.34                                            159 219 
 SPBC HZ EP       1917 58.85                             130    0.40 9  159 219 
 SPBC HN ES       1918 19.98                             130   -0.36 9  159 219 
 ZAR  HZ EP       1918  1.70                             122   -0.84 9  202 293 
 ZAR  HZ I        1918 27.21         1.8 0.16            117            202 293 
 ZAR  HN ES       1918 28.35                             122    0.73 9  202 293 
                                                                                
