 2012  6 3 1109 37.7 L   6.739 -73.613 15.9  RSN  4 0.4 1.2LRSN                1
 GAP=167        0.92       7.0     2.4  9.5  0.4017E+01  0.4345E+01 -0.4406E+02E
 Epicentro: EL CARMEN DE CHUCURI - SANTANDER                                   3
 ACTION:UPD 12-08-06 17:46 OP:ep   STATUS:               ID:20120603110938 L   I
 2012-06-03-1104-42M.COL___173                                                 6
 STAT SP IPHASW D HRMM SECON CODA AMPLIT PERI AZIMU VELO AIN AR TRES W  DIS CAZ7
 BAR2 SZ EP       11 9 46.81                             105    0.4010 50.3 109 
 BAR2 SZ ES       11 9 52.67                             105   -0.5310 50.3 109 
 BAR2 SZ I        11 9 54.85        12.1 0.29             96           50.3 109 
 PTB  HZ EP       11 9 53.38                              97    0.4410 95.8 257 
 PTB  HZ I        11 9 53.53         8.3 0.18             93           95.8 257 
 PTB  HN ES       1110  4.44                              97   -0.3910 95.8 257 
 RUS  HZ EP   1   11 9 55.82                              96    0.18 7  110 148 
 RUS  HZ I        11 9 57.03         4.1 0.15             93            110 148 
 RUS  HN ES   1   1110  9.69                              96    0.05 7  110 148 
 ZAR  HZ EP   1   1110  2.39                              56    0.35 7  161 301 
 ZAR  HN ES   1   1110 20.58                              56   -0.44 7  161 301 
 ZAR  HZ I        1110 23.70         3.2 0.20             56            161 301 
                                                                                
