 2017  5 3 1250 16.5 L   6.742 -73.103144.6  RSN  6 0.3 1.6LRSN                1
 GAP=145        0.54       2.7     2.8  4.7  0.5904E+00  0.3641E+01  0.1869E+01E
 Epicentro: JORDAN - SANTANDER                                                 3
 ACTION:UPD 17-06-16 13:32 OP:jn   STATUS:               ID:20170503125016 L   I
 OLDACT:UP  17-05-03 22:40 OP:and  STATUS:               ID:20170503124745     3
 OLDACT:UP  17-05-03 22:40 OP:and  STATUS:               ID:20170503124745     3
 OLDACT:REG 17-05-03 20:42 OP:and  STATUS:               ID:20170503124745     3
 2017-05-03-1248-00M.COL___383                                                 6
 STAT SP IPHASW D HRMM SECON CODA AMPLIT PERI AZIMU VELO AIN AR TRES W  DIS CAZ7
 BRR  HZ EP     C 1250 37.87                             150   -0.1010 78.5 301 
 BRR  HN ES       1250 54.95                             150    0.2410 78.5 301 
 PAM  EZ IP     D 1250 39.03                             150    0.2810 79.7  34 
 PAM  EN ES       1250 55.86                             150   -0.2310 79.7  34 
 PAM  EZ I        1250 58.79         5.0 0.46            154           79.7  34 
 RUS  HZ EP       1250 39.65                             145   -0.0310 93.9 179 
 RUS  HN ES       1250 57.76                             145    0.0110 93.9 179 
 PTB  HZ EP       1250 43.67                             131   -0.05 9  151 262 
 PTB  HN ES   2   1251  4.26                             131   -0.67 5  151 262 
 PTB  HZ I        1251  9.87         4.0 0.44            132            151 262 
 ZAR  HN ES       1251 15.37                             121   -0.04 8  211 293 
 NOR  HZ EP   2   1250 51.85                             118   -0.36 4  235 236 
 NOR  HN ES   2   1251 20.67                             118    0.63 4  235 236 
 NOR  HZ I        1251 24.64         4.7 0.14            120            235 236 
                                                                                
