 2016  8 3 1339 53.6 L   6.765 -73.164154.0  RSN  5 0.4 1.6LRSN                1
 GAP=241        1.05       7.6     6.5  8.9  0.2002E+02  0.9987E+01 -0.5944E+01E
 Epicentro: LOS SANTOS - SANTANDER                                             3
 ACTION:UPD 16-10-29 15:31 OP:rebc STATUS:               ID:20160803133953 L   I
 OLDACT:REG 16-08-03 20:23 OP:dani STATUS:               ID:20160803133759     3
 2016-08-03-1337-59S.COL___340                                                 6
 STAT SP IPHASW D HRMM SECON CODA AMPLIT PERI AZIMU VELO AIN AR TRES W  DIS CAZ7
 BAR2 EZ EP       1340 14.10                             173   -0.0910 19.2 186 
 BAR2 EZ ES       1340 30.12                             173   -0.0910 19.2 186 
 BAR2 EZ I        1340 31.70         7.8 0.76                          19.2 186 
 RUS  HZ EP       1340 17.99                             146    0.0410 96.9 175 
 RUS  HN ES       1340 37.10                             146    0.1810 96.9 175 
 RUS  HZ I        1340 38.30         3.5 0.58                          96.9 175 
 PTB  HZ EP       1340 20.69                             134   -0.36 9  145 260 
 PTB  HE ES       1340 43.20                             134    0.76 9  145 260 
 PTB  HZ I        1340 46.70         5.0 0.32                           145 260 
 SPBC HZ EP       1340 22.89                             132    0.50 9  159 219 
 SPBC HE ES       1340 44.07                             132   -0.74 9  159 219 
 SPBC HZ I        1340 47.36         5.7 0.20                           159 219 
 ZAR  HN ES       1340 52.03                             124   -0.28 9  204 293 
 ZAR  HZ I        1340 57.91         5.4 0.62                           204 293 
                                                                                
