 2011  8 3 1049 24.3 L   6.767 -73.044147.2  RSN  6 0.4 1.8LRSN                1
 GAP=151        0.79       5.4     5.5  8.1 -0.7816E+01  0.1136E+02  0.4082E+01E
 Epicentro: LOS SANTOS - SANTANDER                                             3
 ACTION:UPD 12-07-25 14:05 OP:epov STATUS:               ID:20110803104924 L   I
 2011-08-03-1045-39S.COL___122                                                 6
 STAT SP IPHASW D HRMM SECON CODA AMPLIT PERI AZIMU VELO AIN AR TRES W  DIS CAZ7
 BAR2 SZ EP   1   1049 43.63                             170   -0.54 7 24.6 218 
 BAR2 SZ ES   1   1049 59.36                             170   -0.28 7 24.6 218 
 BAR2 SZ I        1050  1.05        17.3 0.33                          24.6 218 
 PAM  SZ EP   1   1049 46.94                             152    0.44 7 73.8  31 
 PAM  SN ES   1   1050  4.28                             152    0.49 7 73.8  31 
 BRR  HZ EP   1   1049 45.83                             149   -0.50 7 82.8 297 
 BRR  HZ I        1049 46.37        19.4 0.17                          82.8 297 
 BRR  HN ES   1   1050  3.32                             149   -0.16 7 82.8 297 
 RUS  HZ EP   1   1049 47.83                             145   -0.14 7 96.8 183 
 RUS  HN ES   1   1050  6.51                             145    0.11 7 96.8 183 
 RUS  HZ I        1050  8.10         6.5 0.27                          96.8 183 
 NOR  SN ES   1   1050 30.18                             118    0.72 6  242 237 
 HEL  HN ES   1   1050 38.23                             114    0.20 6  282 257 
                                                                                
