 2010  1 3 1703  5.7 L   6.788 -73.088148.6  RSN  7 0.5 2.2LRSN                1
 GAP=189        0.82       4.9    10.4  8.8 -0.6497E+01  0.3479E+02  0.5382E+01E
 Epicentro: LOS SANTOS - SANTANDER                                             3
 ACTION:UP  10-08-24 09:42 OP:vdl  STATUS:               ID:20100103170305 L   I
 2010-01-03-1659-42S.COL___097                                                 6
 STAT SP IPHASW D HRMM SECON CODA AMPLIT PERI AZIMU VELO SNR AR TRES W  DIS CAZ7
 BAR2 SZ EP   1   17 3 25.45                             170    -0.3 7   24 206 
 BAR2 SZ ES   2   17 3 40.64                             170    -0.7 5   24 206 
 GIR2 SZ EP   1   17 3 26.52                             166     0.7 7   34 340 
 GIR2 SZ ES   2   17 3 42.43                             166     0.9 5   34 340 
 RUS  BZ EP   1   17 3 29.47                             145    -0.2 7   99 180 
 RUS  BN ES   2   17 3 47.95                             145    -0.4 5   99 180 
 RUS  BZ I        17 3 49.84        17.6 0.48                            99 180 
 OCA  SZ EP   1   17 3 33.93                             130    -0.5 7  162 351 
 OCA  SZ ES   2   17 3 56.71                             130    -0.2 5  162 351 
 CHI  HZ EP   1   17 3 43.67                             118     0.0 6  249 197 
 CHI  HN ES   2   17 4 13.83                             118     0.6 4  249 197 
 CHI  HZ I        17 4 17.97         5.4 0.55                           249 197 
 HEL  HZ EP   1   17 3 47.07                             115     0.3 6  278 256 
 HEL  HE ES   2   17 4 18.23                             115    -0.5 4  278 256 
 HEL  HZ I        17 4 23.75        12.7 0.34                           278 256 
 PRA  HZ EP   1   17 3 59.72                             107     0.1 4  394 210 
 PRA  HE ES   2   17 4 41.63                             107     0.0 3  394 210 
 PRA  HZ I        17 4 46.48         5.9 0.43                           394 210 
                                                                                
