 2012  3 3 1802 49.3 L   7.262 -73.278134.7  RSN  5 0.3 1.9LRSN                1
 GAP=254        0.77      12.1    10.9  8.1  0.1122E+03 -0.1021E+02 -0.2059E+02E
 ACTION:UP  12-03-31 23:16 OP:EP   STATUS:               ID:20120303180249 L   I
 2012-03-03-1800-00M.COL___191                                                 6
 STAT SP IPHASW D HRMM SECON CODA AMPLIT PERI AZIMU VELO SNR AR TRES W  DIS CAZ7
 BRR  HZ EP   1   18 3  7.88                             158    -0.3 7   51 250 
 BRR  HN ES   1   18 3 22.93                             158     0.0 7   51 250 
 BRR  HZ I        18 3 24.39        17.3 0.16                            51 250 
 BAR2 SZ EP   1   18 3 10.00                             149     0.2 7   75 172 
 BAR2 SZ ES   1   18 3 26.04                             149     0.2 7   75 172 
 BAR2 SZ I        18 3 27.30        20.7 0.11                            75 172 
 RUS  HN ES   1   18 3 37.19                             129    -0.6 7  153 172 
 PTB  HZ EP   1   18 3 16.28                             128     0.4 7  153 239 
 RUS  HZ EP   1   18 3 16.89                             129     0.4 7  153 172 
 ZAR  HZ EP   1   18 3 17.64                             124    -0.5 7  176 278 
 ZAR  HN ES   1   18 3 40.85                             124     0.2 7  176 278 
 ZAR  HZ I        18 3 45.59         7.0 0.33                           176 278 
                                                                                
