 2012  3 3 1916 13.7 L   6.674 -73.216143.1  RSN  5 0.3 1.6LRSN                1
 GAP=206        0.75       7.4     6.8  8.0  0.3048E+02  0.1103E+02  0.2639E+01E
 ACTION:UP  12-03-31 23:16 OP:EP   STATUS:               ID:20120303191613 L   I
 2012-03-03-1910-00M.COL___191                                                 6
 STAT SP IPHASW D HRMM SECON CODA AMPLIT PERI AZIMU VELO SNR AR TRES W  DIS CAZ7
 BAR2 SZ EP   1   1916 32.59                             176    -0.2 7   10 158 
 BAR2 SZ I        1916 32.87         8.4 0.09                            10 158 
 BAR2 SZ ES   1   1916 47.58                             176    -0.1 7   10 158 
 BRR  HZ EP   1   1916 34.34                             151    -0.3 7   73 311 
 BRR  HZ I        1916 34.58        13.3 0.16                            73 311 
 BRR  HE ES   1   1916 51.34                             151     0.4 7   73 311 
 RUS  HZ EP   1   1916 36.94                             147     0.7 7   88 170 
 RUS  HZ I        1916 37.79         3.9 0.09                            88 170 
 RUS  HE ES   1   1916 53.66                             147    -0.2 7   88 170 
 PTB  HZ EP   1   1916 39.34                             133    -0.2 7  138 264 
 PTB  HN ES   1   1916 59.77                             133     0.0 7  138 264 
 ZAR  HN ES   1   1917 10.86                             122     0.0 6  203 297 
 ZAR  HZ I        1917 16.25         5.9 0.50                           203 297 
                                                                                
