 2011  9 3 1423 10.1 L   6.800 -73.127150.3  RSN  4 0.2 1.6LRSN                1
 GAP=239        0.49       7.3     8.3  5.8  0.5064E+02 -0.2427E+01 -0.4847E+01E
 Epicentro: LOS SANTOS - SANTANDER                                             3
 ACTION:UPD 12-07-13 15:55 OP:ep   STATUS:               ID:20110903142310 L   I
 2011-09-03-1420-16S.COL___171                                                 6
 STAT SP IPHASW D HRMM SECON CODA AMPLIT PERI AZIMU VELO AIN AR TRES W  DIS CAZ7
 BAR2 SZ EP   1   1423 30.00                             171   -0.24 7 23.7 195 
 BAR2 SZ ES   1   1423 45.87                             171   -0.11 7 23.7 195 
 BAR2 SZ I        1423 46.59         6.4 0.40                          23.7 195 
 BRR  HZ EP   1   1423 31.71                             153   -0.09 7 73.0 298 
 BRR  HE ES   1   1423 49.05                             153    0.30 7 73.0 298 
 BRR  HZ I        1423 53.73         8.8 0.20                          73.0 298 
 RUS  HZ EP   1   1423 34.59                             145    0.35 7  100 177 
 RUS  HN ES   1   1423 53.01                             145   -0.10 7  100 177 
 RUS  HZ I        1423 53.79         3.4 0.49                           100 177 
 ZAR  HE ES   1   1424  8.53                             123   -0.16 6  206 292 
 ZAR  HZ I        1424 15.13         5.1 0.24                           206 292 
                                                                                
