 2016 10 3 1344 23.9 L   6.335 -73.627110.1  RSN  5 0.3 1.6LRSN                1
 GAP=107        0.83       4.3     3.3  7.4  0.3243E+01  0.5865E+01 -0.1044E+02E
 Epicentro: SANTA HELENA DEL OPON - SANTANDER                                  3
 ACTION:UPD 16-11-09 19:15 OP:rebc STATUS:               ID:20161003134423 L   I
 OLDACT:REG 16-10-03 20:54 OP:lv   STATUS:               ID:20161003133744     3
 2016-10-03-1338-00M.COL___369                                                 6
 STAT SP IPHASW D HRMM SECON CODA AMPLIT PERI AZIMU VELO AIN AR TRES W  DIS CAZ7
 BAR2 EZ EP       1344 40.87                             151    0.1710 56.8  60 
 BAR2 EZ ES       1344 53.90                             151    0.0710 56.8  60 
 BAR2 EZ I        1344 55.65        19.6 0.22            154           56.8  60 
 RUS  HZ EP       1344 42.19                             143   -0.2610 77.5 129 
 RUS  HE ES       1344 56.88                             143   -0.0610 77.5 129 
 RUS  HZ I        1344 59.42         4.5 0.30            149           77.5 129 
 SPBC HE ES       1344 58.15                             138    0.4510 90.1 213 
 SPBC HZ I        1345  0.23        14.0 0.10            141           90.1 213 
 PTB  HZ EP       1344 42.69                             136   -0.4510 94.5 284 
 PTB  HN ES       1344 57.75                             136   -0.4210 94.5 284 
 PTB  HZ I        1345  0.80         5.2 0.12            137           94.5 284 
 ZAR  HZ EP       1344 52.67                             116    0.31 9  187 313 
 ZAR  HE ES       1345 14.90                             116    0.32 9  187 313 
 ZAR  HZ I        1345 22.32         4.6 0.38            118            187 313 
                                                                                
