 2015  4 3 1215 56.5 L   6.654 -73.222147.4  RSN  4 0.3 1.2LRSN                1
 GAP=195        0.82       6.7     6.2  7.1  0.1936E+02  0.9510E+01  0.4016E+01E
 Epicentro: BARICHARA - SANTANDER                                              3
 ACTION:UPD 15-06-03 16:52 OP:cam  STATUS:               ID:20150403121556 L   I
 OLDACT:DUP 15-04-03 21:20 OP:fm   STATUS:               ID:20150403120749d    3
 2015-04-03-1207-48M.COL___286                                                 6
 STAT SP IPHASW D HRMM SECON CODA AMPLIT PERI AZIMU VELO AIN AR TRES W  DIS CAZ7
 BAR2 EZ EP       1216 16.25                             177    0.0910 8.15 148 
 BAR2 EZ ES       1216 30.97                             177   -0.4910 8.15 148 
 BAR2 EZ I        1216 33.12         3.2 0.28            176           8.15 148 
 BRR  HZ EP   1   1216 18.02                             152    0.01 7 73.8 313 
 BRR  HN ES       1216 35.11                             152    0.3510 73.8 313 
 BRR  HZ I        1216 39.09         3.2 0.30            152           73.8 313 
 RUS  HZ EP   1   1216 19.89                             149    0.45 7 85.6 170 
 RUS  HN ES       1216 37.44                             149    0.1410 85.6 170 
 RUS  HZ I        1216 40.04         2.2 0.28            151           85.6 170 
 PTB  HZ EP       1216 22.20                             135   -0.50 9  137 265 
 PTB  HE ES       1216 43.20                             135    0.10 9  137 265 
 PTB  HZ I        1216 47.13         3.2 0.44            135            137 265 
                                                                                
