 2017  3 3 1830 10.6 L   6.794 -73.150133.9  RSN  5 0.2 1.4LRSN                1
 GAP=136        0.67       3.4     3.5  5.6 -0.1116E+01  0.4668E+00  0.7141E+00E
 Epicentro: LOS SANTOS - SANTANDER                                             3
 ACTION:UPD 17-05-25 18:35 OP:jn   STATUS:               ID:20170303183010 L   I
 OLDACT:REG 17-03-03 20:54 OP:lv   STATUS:               ID:20170303182745     3
 2017-03-03-1828-00M.COL___396                                                 6
 STAT SP IPHASW D HRMM SECON CODA AMPLIT PERI AZIMU VELO AIN AR TRES W  DIS CAZ7
 BAR2 EZ ES       1830 42.80                             170   -0.1510 22.5 189 
 BAR2 EZ I        1830 45.28        12.4 0.24            170           22.5 189 
 BRR  HZ EP       1830 30.60                             150    0.1510 71.1 299 
 BRR  HE ES       1830 46.38                             150    0.4310 71.1 299 
 PAM  EZ EP       1830 31.57                             148   -0.0310 78.3  40 
 PAM  EN ES       1830 47.78                             148   -0.2210 78.3  40 
 PAM  EZ I        1830 50.64         4.6 0.30            149           78.3  40 
 RUS  HZ EP       1830 33.18                             141    0.0510 99.9 176 
 RUS  HN ES       1830 50.87                             141    0.1510 99.9 176 
 RUS  HZ I        1830 52.41         1.9 0.26            143           99.9 176 
 PTB  HN ES       1830 56.36                             129   -0.44 9  147 259 
                                                                                
