 2016  6 3 1106  7.9 L   6.805 -73.141146.7  RSN 21 0.5 2.6LRSN                1
 GAP= 66        1.09       3.0     3.0  4.7 -0.1798E+01  0.3303E+01  0.2202E+01E
 Epicentro: LOS SANTOS - SANTANDER                                             3
 ACTION:UPD 16-07-21 22:15 OP:rebc STATUS:               ID:20160603110607 L   I
 OLDACT:UP  16-06-03 22:14 OP:ar   STATUS:               ID:20160603105746     3
 OLDACT:REG 16-06-03 20:38 OP:ar   STATUS:               ID:20160603105746     3
 2016-06-03-1057-46M.COL___319                                                 6
 STAT SP IPHASW D HRMM SECON CODA AMPLIT PERI AZIMU VELO AIN AR TRES W  DIS CAZ7
 BAR2 EZ EP       11 6 27.65                             170    0.0110 24.0 191 
 BAR2 EZ ES       11 6 42.79                             170   -0.2610 24.0 191 
 BAR2 EZ I        11 6 43.65       104.7 0.22                          24.0 191 
 BRR  HZ IP     C 11 6 29.30                             153    0.1610 71.4 298 
 BRR  HN ES       11 6 46.46                             153    0.7410 71.4 298 
 BRR  HZ I        11 6 49.48        39.9 0.12                          71.4 298 
 PAM  EZ EP       11 6 30.60                             151    0.4510 76.6  40 
 PAM  EN ES       11 6 47.42                             151   -0.1010 76.6  40 
 PAM  EZ I        11 6 50.07        33.0 0.32                          76.6  40 
 RUS  HZ EP       11 6 31.54                             144   -0.2210  101 176 
 RUS  HN ES       11 6 50.52                             144    0.1310  101 176 
 RUS  HZ I        11 6 51.15        38.4 0.26                           101 176 
 PTB  HZ EP       11 6 34.21                             132   -0.77 9  148 259 
 PTB  HN ES       11 6 55.35                             132   -0.76 9  148 259 
 PTB  HZ I        11 7  2.16        43.7 0.22                           148 259 
 TAM  HZ EP       11 6 35.96                             131    0.36 9  155 105 
 TAM  HZ I        11 6 56.85        26.5 0.34                           155 105 
 TAM  HN ES       11 6 57.11                             131   -0.11 9  155 105 
 OCA  HZ EP       11 6 36.03                             130   -0.18 9  160 353 
 OCA  HN ES       11 6 58.16                             130   -0.16 9  160 353 
 OCA  HZ I        11 7  5.66        80.9 0.46                           160 353 
 SPBC HZ EP       11 6 36.85                             129    0.33 9  164 219 
 SPBC HN ES       11 6 59.03                             129    0.17 9  164 219 
 SPBC HZ I        11 7  3.43        65.2 0.14                           164 219 
 NOR  HZ EP       11 6 43.54                             119   -0.20 8  235 234 
 NOR  HN ES       11 7 10.99                             119   -0.72 8  235 234 
 NOR  HZ I        11 7 18.67        25.2 0.16                           235 234 
 CHI  HZ EP       11 6 45.76                             117    0.06 8  249 195 
 CHI  HN ES       11 7 15.11                             117   -0.09 8  249 195 
 CHI  HZ I        11 7 17.43        30.3 0.36                           249 195 
 ROSC BZ EP   9   11 6 47.91                             117    1.78 0  254 211 
 ROSC BN ES       11 7 18.43                             117    0.68 8  254 211 
 ROSC BZ I        11 7 22.04        67.1 0.40                           254 211 
 HEL  HZ EP       11 6 49.09                             115    0.88 8  273 256 
 HEL  HN ES       11 7 20.47                             115    0.81 8  273 256 
 HEL  HZ I        11 7 25.45        16.6 0.28                           273 256 
 URE  HZ EP       11 6 48.19                             114   -0.83 7  284 292 
 URE  HN ES   4   11 7 17.92                             114   -3.19 0  284 292 
 URE  HZ I        11 7 29.70        32.5 0.18                           284 292 
 PTGC HZ EP       11 6 50.79                             112   -1.03 7  309 159 
 PTGC HE ES   4   11 7 24.36                             112   -1.73 0  309 159 
 PTGC HZ I        11 7 34.54        29.6 0.46                           309 159 
 CBOC HZ EP       11 6 55.83                             110    0.92 7  334 252 
 CBOC HN ES       11 7 31.06                             110   -0.53 7  334 252 
 CBOC HZ I        11 7 37.20         5.0 0.56                           334 252 
 DBB  SZ EP       11 6 55.69                             110    0.25 7  340 274 
 DBB  SZ ES   4   11 7 30.98                             110   -1.57 0  340 274 
 DBB  SZ I        11 7 32.98        51.3 0.28                           340 274 
 ANIL HZ EP   9   11 6 59.81                             109    2.00 0  358 225 
 ANIL HN ES       11 7 38.53                             109   -0.22 6  358 225 
 ANIL HZ I        11 7 43.01        41.2 0.34                           358 225 
 PRA  HZ EP       11 7  1.56                             107    0.04 6  393 210 
 PRA  HN ES       11 7 43.32                             107   -0.04 6  393 210 
 PRA  HZ I        11 7 47.68        18.1 0.30                           393 210 
 ORTC HZ EP       11 7  2.10                             106    0.18 6  396 216 
 ORTC HN ES       11 7 45.01                             106    0.94 6  396 216 
 ORTC HZ I        11 7 51.42        11.1 0.58                           396 216 
 PAL  HZ EP       11 7  2.99                             106   -0.16 6  406 239 
 PAL  HN ES       11 7 46.53                             106    0.26 6  406 239 
 PAL  HZ I        11 7 51.45         5.2 0.38                           406 239 
 CRJC HZ EP   4   11 7  8.01                             104   -2.32 0  467   3 
 CRJC HN ES   4   11 7 54.35                             104   -4.70 0  467   3 
 CRJC HZ I        11 7 59.98         7.7 0.42                           467   3 
                                                                                
