 2017  9 3 1117 45.8 L   6.771 -73.102141.4  RSN 12 0.5 1.5LRSN                1
 GAP=117        1.03       3.3     3.7  5.8  0.1153E+01  0.5513E+01  0.5523E+01E
 Epicentro: LOS SANTOS - SANTANDER                                             3
 ACTION:UPD 17-10-05 19:08 OP:rebc STATUS:               ID:20170903111745 L   I
 OLDACT:DUP 17-09-03 21:51 OP:dhb  STATUS:               ID:20170903110738d    3
 2017-09-03-1108-00M.COL___396                                                 6
 STAT SP IPHASW D HRMM SECON CODA AMPLIT PERI AZIMU VELO AIN AR TRES W  DIS CAZ7
 BAR2 EZ IP     C 1118  4.68                             171   -0.1710 21.7 204 
 BAR2 EZ ES       1118 19.18                             171   -0.5410 21.7 204 
 BAR2 EZ I        1118 21.31        10.4 0.18            169           21.7 204 
 BRR  HZ EP       1118  6.46                             150   -0.3310 76.9 299 
 BRR  HE ES       1118 23.38                             150    0.1910 76.9 299 
 BRR  HZ I        1118 26.60        10.4 0.25            150           76.9 299 
 PAM  EZ EP       1118  7.44                             150   -0.0610 77.0  35 
 PAM  EN ES       1118 24.71                             150    0.2710 77.0  35 
 PAM  EZ I        1118 27.08         4.3 0.26            154           77.0  35 
 RUS  HZ EP       1118  8.87                             144    0.0210 97.2 179 
 RUS  HE ES       1118 27.69                             144    0.8410 97.2 179 
 RUS  HZ I        1118 29.94         3.5 0.28            145           97.2 179 
 SPBC HZ EP       1118 13.56                             128   -0.45 9  164 221 
 SPBC HE ES       1118 36.00                             128   -0.02 9  164 221 
 YPLC HZ EP       1118 15.11                             127    0.36 9  172 152 
 YPLC HE ES       1118 36.76                             127   -0.60 9  172 152 
 YPLC HZ I        1118 41.79         4.1 0.18            129            172 152 
 ZAR  HZ EP       1118 18.12                             121   -0.41 8  210 292 
 ZAR  HE ES       1118 44.88                             121    0.80 8  210 292 
 ZAR  HZ I        1118 50.40         3.5 0.13            122            210 292 
 NOR  HE ES       1118 48.72                             117   -0.62 8  237 236 
 NOR  HZ I        1118 51.32         1.9 0.16            118            237 236 
 CHI  HZ EP       1118 23.38                             116    0.34 8  247 196 
 CHI  HN ES       1118 52.31                             116    0.20 8  247 196 
 CHI  HZ I        1118 56.20         2.0 0.18            118            247 196 
 HEL  HN ES       1118 57.52                             114   -0.22 7  276 257 
 HEL  HZ I        1119  5.09         2.9 0.35            114            276 257 
 GUY2CHZ EP   3   1118 30.85                             111    1.42 2  303 236 
 GUY2CHE ES   4   1119  5.90                             111    2.42 0  303 236 
 GUY2CHZ I        1119 13.26         1.6 0.49                           303 236 
 PRA  HZ EP       1118 39.15                             106    0.04 6  392 210 
 PRA  HN ES       1119 21.35                             106    0.64 6  392 210 
 PRA  HZ I        1119 25.54         1.3 0.17            107            392 210 
                                                                                
