 2012  3 3 1136 39.6 L   6.733 -73.175152.3  RSN  6 0.3 1.7LRSN                1
 GAP=229        0.70       6.4     6.1  8.3  0.1522E+02  0.1592E+02 -0.2163E+01E
 ACTION:UP  12-03-31 23:16 OP:EP   STATUS:               ID:20120303113639 L   I
 2012-03-03-1130-00M.COL___191                                                 6
 STAT SP IPHASW D HRMM SECON CODA AMPLIT PERI AZIMU VELO SNR AR TRES W  DIS CAZ7
 BAR2 SZ EP   1   1136 59.94                             174     0.0 7   16 183 
 BAR2 SZ ES   1   1137 15.21                             174    -0.5 7   16 183 
 BAR2 SZ I        1137 16.45         6.1 0.36                            16 183 
 BRR  HZ EP   1   1137  1.64                             153     0.1 7   72 305 
 BRR  HZ I        1137  1.86        11.0 0.17                            72 305 
 BRR  HE ES   1   1137 19.19                             153     0.5 7   72 305 
 RUS  HN ES   1   1137 22.48                             147     0.3 7   94 174 
 PTB  HZ EP   1   1137  6.56                             134    -0.2 7  143 261 
 PTB  HN ES   1   1137 27.68                             134    -0.2 7  143 261 
 ZAR  HN ES   1   1137 38.02                             124    -0.1 6  204 294 
 ZAR  HZ I        1137 44.79         5.0 0.27                           204 294 
 NOR  SN ES   2   1137 42.87                             121     0.2 4  228 236 
                                                                                
