 2015  5 3 1910 22.6 L   6.824 -73.140139.6  RSN 14 0.5 2.1LRSN                1
 GAP= 71        1.10       2.8     3.3  5.7  0.9630E-01  0.5252E+01  0.1096E+01E
 Epicentro: LOS SANTOS - SANTANDER                                             3
 ACTION:UPD 15-09-10 22:01 OP:cam  STATUS:               ID:20150503191022 L   I
 OLDACT:REG 15-05-03 21:26 OP:ak   STATUS:               ID:20150503190749     3
 2015-05-03-1907-49M.COL___274                                                 6
 STAT SP IPHASW D HRMM SECON CODA AMPLIT PERI AZIMU VELO AIN AR TRES W  DIS CAZ7
 BAR2 EZ EP       1910 41.57                             169    0.0610 26.0 190 
 BAR2 EZ ES       1910 55.50                             169   -0.7910 26.0 190 
 BAR2 EZ I        1910 57.72        34.7 0.16            169           26.0 190 
 BRR  HZ EP       1910 43.36                             152    0.3510 70.6 296 
 BRR  HN ES       1910 59.63                             152    0.6710 70.6 296 
 BRR  HZ I        1911  4.28        24.1 0.16            151           70.6 296 
 PAM  SZ IP     D 1910 44.47                             151    0.5010 74.9  40 
 PAM  SN ES       1911  1.03                             151    0.3610 74.9  40 
 PAM  SZ I        1911  3.26        32.3 0.46            154           74.9  40 
 RUS  HZ EP       1910 45.67                             142   -0.2310  103 177 
 RUS  HN ES       1911  4.36                             142    0.2510  103 177 
 RUS  HZ I        1911  5.89        11.2 0.26            144            103 177 
 TAM  HZ EP       1910 49.94                             129    0.18 9  155 106 
 TAM  HN ES       1911 10.55                             129   -0.43 9  155 106 
 TAM  HZ I        1911 12.69         9.1 0.27            133            155 106 
 OCA  HZ EP       1910 49.70                             129   -0.45 9  158 353 
 OCA  HN ES       1911 11.23                             129   -0.45 9  158 353 
 OCA  HZ I        1911 15.65        33.3 0.38            131            158 353 
 ZAR  HZ EP       1910 54.83                             121    0.26 9  204 291 
 ZAR  HN ES       1911 20.05                             121    0.51 9  204 291 
 ZAR  HZ I        1911 22.06        10.7 0.12            123            204 291 
 NOR  HZ EP       1910 58.31                             117    0.15 8  237 234 
 NOR  HE ES       1911 25.78                             117   -0.15 8  237 234 
 NOR  HZ I        1911 31.54         9.1 0.22            119            237 234 
 SML  HZ EP       1910 57.79                             116   -0.82 8  242 335 
 SML  HN ES       1911 26.50                             116   -0.23 8  242 335 
 SML  HZ I        1911 31.27        13.2 0.09            118            242 335 
 CHI  HZ EP       1911  0.78                             116    0.56 8  251 195 
 CHI  HN ES       1911 29.64                             116    0.04 8  251 195 
 CHI  HZ I        1911 32.72         3.7 0.35            118            251 195 
 HEL  HZ EP   1   1911  3.03                             113    0.42 6  273 255 
 HEL  HN ES   1   1911 33.03                             113   -0.82 6  273 255 
 HEL  HZ I        1911 40.19         5.4 0.36            115            273 255 
 GUY2CHZ EP   2   1911  6.77                             111    0.65 4  303 234 
 GUY2CHN ES       1911 39.28                             111   -0.82 7  303 234 
 GUY2CHZ I        1911 46.99         4.6 0.34                           303 234 
 MON  HZ EP   4   1911  9.24                             108   -1.96 0  353 308 
 MON  HN ES   4   1911 47.29                             108   -1.84 0  353 308 
 MON  HZ I        1911 48.46         2.8 0.16            109            353 308 
 SJC  HZ EP   4   1911 16.30                             105   -1.40 0  407 327 
 SJC  HN ES   4   1911 57.24                             105   -3.48 0  407 327 
 SJC  HZ I        1912  1.12         4.1 0.41            106            407 327 
                                                                                
