 2010  7 3 1838 11.1 L   6.781 -73.074149.0  RSN 17 0.4 3.4LRSN                1
 GAP=132        0.89       3.1     5.0  5.1 -0.7400E+01  0.4890E+01  0.2291E+01E
 Epicentro: LOS SANTOS - SANTANDER                                             3
 ACTION:UPD 10-12-01 15:14 OP:pat  STATUS:               ID:20100703183811 L   I
 2010-07-03-1835-19S.COL___118                                                 6
 STAT SP IPHASW D HRMM SECON CODA AMPLIT PERI AZIMU VELO AIN AR TRES W  DIS CAZ7
 BAR2 SZ IP       1838 31.22                             170     0.010   24 210 
 BAR2 SZ ES   1   1838 46.47                             170    -0.3 7   24 210 
 BRR  HZ IP       1838 33.08                             150     0.010   79 297 
 BRR  HN ES   1   1838 50.53                             150     0.3 7   79 297 
 BRR  HZ I        1838 52.30       410.5 0.11                            79 297 
 RUS  HZ IP       1838 35.07                             145     0.010   98 181 
 RUS  HN ES   1   1838 53.56                             145    -0.1 7   98 181 
 RUS  HZ I        1838 54.95       312.1 0.39                            98 181 
 BRI  SZ IP       1838 35.73                             142     0.410  108  16 
 BRI  SZ ES   1   1838 54.96                             142     0.8 7  108  16 
 BRI  SZ I        1838 59.72       238.5 0.71                           108  16 
 GUE  SZ EP       1838 35.83                             140    -0.410  117   8 
 GRA  SZ IP       1838 37.01                             138     0.310  126  14 
 GRA  SZ ES   1   1838 55.88                             138    -0.7 7  126  14 
 OCA  SZ EP       1838 39.57                             130    -0.4 9  163 350 
 OCA  SZ ES   1   1839  2.41                             130    -0.1 7  163 350 
 OCA  SZ I        1839  5.94       238.4 0.34                           163 350 
 CHI  HZ EP   1   1838 49.00                             118     0.0 6  249 197 
 CHI  HE ES   1   1839 17.98                             118    -0.6 6  249 197 
 CHI  HZ I        1839 26.65       132.3 0.65                           249 197 
 CVER SZ EP       1838 52.06                             115     0.3 8  273 204 
 HEL  HZ EP       1838 52.12                             115    -0.2 7  279 257 
 HEL  HE ES   2   1839 24.40                             115     0.0 4  279 257 
 HEL  HZ I        1839 30.87        95.2 0.23                           279 257 
 GUY  HZ EP       1838 56.11                             112     0.6 7  307 236 
 GUY  HN ES   2   1839 30.43                             112     0.3 4  307 236 
 RREF HZ EP       1838 58.16                             111     0.2 7  327 231 
 RREF HN ES   1   1839 34.52                             111     0.0 5  327 231 
 RREF HZ I        1839 42.15       149.2 0.17                           327 231 
 DBB  SZ EP       1838 58.89                             109    -0.8 6  348 275 
 TOL  SZ EP       1839  0.56                             110     0.6 6  348 226 
 SDV  BZ EP       1839  0.56                             109    -0.2 6  356  49 
 SDV  BZ I        1839  1.53        58.0 0.30                           356  49 
 ANIL HZ EP   1   1839  1.75                             109     0.2 5  361 226 
 ANIL HE ES   2   1839 41.34                             109     0.5 3  361 226 
 ANIL HZ I        1839 47.90       395.0 0.25                           361 226 
 PRA  HZ EP       1839  4.55                             107    -0.5 6  394 211 
 PRA  HE ES   2   1839 46.72                             107    -0.3 3  394 211 
 PRA  HZ I        1839 52.71       195.9 0.41                           394 211 
                                                                                
