 2011 12 3 1442  5.7 L   6.781 -73.121137.9  RSN  4 0.2 2.0LRSN                1
 GAP=140        0.41       3.1     4.1  4.8 -0.1682E+01 -0.3543E+01  0.4196E+01E
 Epicentro: LOS SANTOS - SANTANDER                                             3
 ACTION:UPD 12-07-13 16:14 OP:ep   STATUS:               ID:20111203144205 L   I
 2011-12-03-1440-00M.COL___180                                                 6
 STAT SP IPHASW D HRMM SECON CODA AMPLIT PERI AZIMU VELO AIN AR TRES W  DIS CAZ7
 BAR2 SZ EP   1   1442 24.10                             170   -0.27 7 22.0 198 
 BAR2 SZ ES   2   1442 38.54                             170   -0.37 5 22.0 198 
 BAR2 SZ I        1442 40.08         8.0 0.24                          22.0 198 
 BRR  HZ EP   1   1442 26.09                             150   -0.12 7 74.5 299 
 BRR  HE ES   1   1442 42.37                             150    0.17 7 74.5 299 
 BRR  HE I        1442 46.88        51.3 0.16                          74.5 299 
 PAM  SZ EP       1442 27.11                             149    0.0210 77.3  37 
 PAM  SN ES   1   1442 43.83                             149    0.07 7 77.3  37 
 RUS  HZ EP       1442 28.65                             143    0.1210 98.4 178 
 RUS  HN ES   2   1442 46.51                             143    0.18 5 98.4 178 
                                                                                
