 2015 12 3 1914 22.5 L   6.850 -73.185149.0  RSN  6 0.5 1.8LRSN                1
 GAP=238        1.20       6.9     7.7  8.2  0.1453E+02  0.9243E+01 -0.2311E+01E
 Epicentro: ZAPATOCA - SANTANDER                                               3
 ACTION:UPD 16-02-04 15:02 OP:cam  STATUS:               ID:20151203191422 L   I
 OLDACT:DUP 15-12-03 23:55 OP:drio STATUS:               ID:20151203190751d    3
 2015-12-03-1907-50M.COL___316                                                 6
 STAT SP IPHASW D HRMM SECON CODA AMPLIT PERI AZIMU VELO AIN AR TRES W  DIS CAZ7
 BAR2 EZ EP       1914 42.85                             169    0.1810 28.5 179 
 BAR2 EZ ES       1914 59.15                             169    0.7810 28.5 179 
 BAR2 EZ I        1915  0.56         6.9 0.30            167           28.5 179 
 BRR  HZ EP       1914 43.88                             155    0.1910 64.8 296 
 BRR  HE ES       1914 59.44                             155   -0.7610 64.8 296 
 RUS  HZ EP       1914 46.83                             143   -0.2010  107 174 
 RUS  HE ES       1915  5.64                             143   -0.5010  107 174 
 PTB  HZ EP       1914 49.95                             133    0.45 9  145 256 
 PTB  HN ES       1915 11.01                             133    0.48 9  145 256 
 PTB  HZ I        1915 18.07         9.5 0.32            131            145 256 
 SPBC HZ EP       1914 51.58                             129    0.13 9  165 217 
 SPBC HN ES       1915 13.70                             129   -0.30 9  165 217 
 SPBC HZ I        1915 16.07         6.4 0.10            129            165 217 
 ZAR  HZ EP       1914 54.05                             124   -0.52 9  198 291 
 ZAR  HE ES   4   1915 20.96                             124    1.40 0  198 291 
 ZAR  HZ I        1915 26.98         9.7 0.26            123            198 291 
                                                                                
