 2010  4 3 1235  3.4 L   6.764 -73.014146.3  RSN  4 0.1 1.5LRSN                1
 GAP=262        0.34       4.0     8.8  5.0  0.8309E+01  0.1143E+01  0.1006E+02E
 Epicentro: CEPITA - SANTANDER                                                 3
 ACTION:UPD 10-08-24 09:57 OP:vdl  STATUS:               ID:20100403123503 L   I
 2010-04-03-1233-49S.COL___098                                                 6
 STAT SP IPHASW D HRMM SECON CODA AMPLIT PERI AZIMU VELO AIN AR TRES W  DIS CAZ7
 BAR2 SZ EP   1   1235 23.27                             169     0.1 7   27 225 
 BAR2 SZ ES   2   1235 38.54                             169    -0.1 5   27 225 
 BRR  HZ EP   1   1235 25.36                             148    -0.2 7   86 296 
 BRR  HN ES   2   1235 42.91                             148     0.1 5   86 296 
 BRR  HZ I        1235 43.91         7.7 0.41                            86 296 
 CHI  HZ EP   1   1235 41.31                             117     0.1 6  249 199 
 CHI  HZ I        1235 42.95         1.5 0.29                           249 199 
 CHI  HE ES   2   1236 10.49                             117    -0.2 4  249 199 
 PRA  HZ EP   1   1235 57.42                             106     0.0 4  396 212 
                                                                                
