 2015  4 3 1841 22.9 L   6.787 -73.158140.8  RSN 10 0.4 1.5LRSN                1
 GAP=136        0.89       2.9     3.4  5.3 -0.1883E+01  0.5914E+01  0.5499E-01E
 Epicentro: LOS SANTOS - SANTANDER                                             3
 ACTION:UPD 15-06-03 16:52 OP:cam  STATUS:               ID:20150403184122 L   I
 OLDACT:REG 15-04-03 20:41 OP:fm   STATUS:               ID:20150403183744     3
 2015-04-03-1837-44M.COL___288                                                 6
 STAT SP IPHASW D HRMM SECON CODA AMPLIT PERI AZIMU VELO AIN AR TRES W  DIS CAZ7
 BAR2 EZ EP       1841 42.24                             171    0.3310 21.7 187 
 BAR2 EZ ES       1841 56.83                             171    0.1010 21.7 187 
 BAR2 EZ I        1841 59.96         6.6 0.56            172           21.7 187 
 BRR  HZ EP       1841 44.01                             152    0.5210 70.7 300 
 BRR  HN ES       1842  0.25                             152    0.7010 70.7 300 
 BRR  HZ I        1842  5.53         7.1 0.28            150           70.7 300 
 PAM  SZ EP     D 1841 44.83                             149    0.1110 79.4  40 
 PAM  SE ES       1842  1.48                             149   -0.2510 79.4  40 
 PAM  SZ I        1842  4.19         4.8 0.24            153           79.4  40 
 RUS  HZ EP       1841 46.21                             143    0.1410 99.2 175 
 RUS  HN ES       1842  3.70                             143   -0.4410 99.2 175 
 RUS  HZ I        1842  5.65         2.1 0.32            149           99.2 175 
 PTB  HZ EP       1841 48.92                             131   -0.40 9  146 259 
 PTB  HE ES       1842  9.36                             131   -0.57 9  146 259 
 PTB  HZ I        1842 13.90         4.4 0.24            133            146 259 
 SPBC HZ EP       1841 50.93                             128    0.09 9  161 219 
 SPBC HN ES       1842 12.48                             128   -0.14 9  161 219 
 SPBC HZ I        1842 18.23         6.3 0.24            132            161 219 
 OCA  HZ EP   1   1841 50.79                             128   -0.17 7  162 354 
 OCA  HN ES       1842 12.50                             128   -0.34 9  162 354 
 OCA  HZ I        1842 20.29        11.2 0.38            130            162 354 
 ZAR  HZ EP       1841 54.68                             121   -0.28 9  203 293 
 ZAR  HN ES       1842 19.93                             121   -0.03 9  203 293 
 ZAR  HZ I        1842 27.59         4.6 0.30            123            203 293 
 HEL  HN ES       1842 33.59                             114   -0.12 8  270 256 
 HEL  HZ I        1842 39.70         2.1 0.34            116            270 256 
 GUY2CHZ EP   1   1842  6.15                             111    0.08 5  299 235 
 GUY2CHN ES       1842 40.36                             111    0.63 7  299 235 
 GUY2CHZ I        1842 48.50         1.6 0.26                           299 235 
                                                                                
