 2016  4 3 1657 25.2 L   6.807 -73.166145.0  RSN 12 0.4 1.9LRSN                1
 GAP=134        0.91       2.8     3.6  5.7 -0.1451E+01  0.7942E+01  0.1916E+01E
 Epicentro: LOS SANTOS - SANTANDER                                             3
 ACTION:UPD 16-05-05 14:18 OP:rebc STATUS:               ID:20160403165725 L   I
 OLDACT:UP  16-04-04 01:39 OP:mh   STATUS:               ID:20160403164740     3
 OLDACT:UP  16-04-04 01:38 OP:mh   STATUS:               ID:20160403164740     3
 OLDACT:UP  16-04-04 01:38 OP:mh   STATUS:               ID:20160403164740     3
 OLDACT:REG 16-04-03 23:14 OP:mh   STATUS:               ID:20160403164740     3
 2016-04-03-1647-40M.COL___319                                                 6
 STAT SP IPHASW D HRMM SECON CODA AMPLIT PERI AZIMU VELO AIN AR TRES W  DIS CAZ7
 BAR2 EZ EP       1657 44.68                             170   -0.1010 23.8 184 
 BAR2 EZ ES       1657 59.63                             170   -0.3910 23.8 184 
 BAR2 EZ I        1658  1.19        28.9 0.38            168           23.8 184 
 PAM  EZ EP       1657 47.60                             150    0.1810 78.3  41 
 PAM  EN ES       1658  4.72                             150    0.0010 78.3  41 
 PAM  EZ I        1658  6.89        15.5 0.50            155           78.3  41 
 RUS  HZ EP       1657 48.74                             143   -0.2410  102 175 
 RUS  HE ES       1658  7.53                             143    0.0410  102 175 
 RUS  HZ I        1658  9.03         5.6 0.37            145            102 175 
 PTB  HZ EP       1657 51.77                             132   -0.18 9  146 258 
 PTB  HN ES       1658 12.35                             132   -0.44 9  146 258 
 PTB  HZ I        1658 18.56         5.9 0.20            132            146 258 
 OCA  HN ES       1658 15.86                             130    0.51 9  159 354 
 SPBC HZ EP   1   1657 53.69                             129    0.09 7  162 218 
 SPBC HN ES       1658 16.59                             129    0.87 9  162 218 
 SPBC HZ I        1658 20.32        15.6 0.20            129            162 218 
 ZAR  HZ EP       1657 57.07                             122   -0.32 9  202 292 
 ZAR  HN ES       1658 22.28                             122   -0.19 9  202 292 
 ZAR  HZ I        1658 29.19         9.9 0.20            123            202 292 
 NOR  HZ EP   1   1658  0.45                             118   -0.32 6  233 234 
 NOR  HN ES   1   1658 29.46                             118    0.97 6  233 234 
 NOR  HZ I        1658 31.58         4.3 0.24            119            233 234 
 CHI  HZ EP   1   1658  2.83                             117   -0.08 6  249 195 
 CHI  HN ES       1658 32.32                             117    0.03 8  249 195 
 CHI  HZ I        1658 35.79         5.5 0.58            119            249 195 
 HEL  HN ES       1658 36.36                             115    0.01 8  270 256 
 HEL  HZ I        1658 43.84         3.1 0.30            115            270 256 
 GUY2CHZ EP   1   1658  9.65                             112    1.00 5  300 234 
 GUY2CHN ES   4   1658 46.98                             112    4.46 0  300 234 
 GUY2CHZ I        1658 51.99         3.4 0.56                           300 234 
 ORTC HZ EP       1658 18.98                             106   -0.07 6  395 216 
 ORTC HN ES       1659  0.22                             106   -0.80 6  395 216 
 ORTC HZ I        1659  8.36         2.5 0.09            107            395 216 
 SOTA HZ EP   4   1657 36.61                              99   -72.5 0  642 217 
                                                                                
