 2016 10 3 1140 21.6 L   6.770 -73.130138.9  RSN  5 0.4 1.3LRSN                1
 GAP=140        1.07       5.5     5.4  7.8 -0.2729E+01  0.5770E+01  0.1842E+01E
 Epicentro: LOS SANTOS - SANTANDER                                             3
 ACTION:UPD 16-11-09 19:15 OP:rebc STATUS:               ID:20161003114021 L   I
 OLDACT:REG 16-10-03 20:41 OP:lv   STATUS:               ID:20161003113744     3
 2016-10-03-1138-00M.COL___369                                                 6
 STAT SP IPHASW D HRMM SECON CODA AMPLIT PERI AZIMU VELO AIN AR TRES W  DIS CAZ7
 BAR2 EZ EP       1140 40.26                             171   -0.1010 20.5 196 
 BAR2 EZ ES       1140 54.54                             171   -0.4310 20.5 196 
 BAR2 EZ I        1140 57.66         5.7 0.42            173           20.5 196 
 BRR  HZ EP       1140 42.42                             150    0.2110 74.3 300 
 BRR  HN ES       1140 59.08                             150    0.8110 74.3 300 
 BRR  HZ I        1141  1.23         9.1 0.28            152           74.3 300 
 PAM  EZ EP       1140 43.27                             149    0.0810 78.9  37 
 PAM  EE ES       1140 59.66                             149   -0.3710 78.9  37 
 PAM  EZ I        1141  2.98         2.9 0.34            151           78.9  37 
 RUS  HZ EP       1140 44.44                             143    0.0010 97.1 177 
 RUS  HE ES       1141  2.65                             143    0.4110 97.1 177 
 RUS  HZ I        1141  3.94         1.9 0.26            147           97.1 177 
 PTB  HZ EP       1140 48.07                             130   -0.06 9  149 260 
 PTB  HE ES       1141  8.15                             130   -0.66 9  149 260 
 PTB  HZ I        1141 10.24         2.9 0.22            133            149 260 
                                                                                
