 2017  4 3 1037 14.8 L   6.781 -73.153141.9  RSN  9 0.6 2.0LRSN                1
 GAP=112        1.41       5.0     4.9  8.3  0.3079E+01  0.7501E+01  0.5848E+01E
 Epicentro: LOS SANTOS - SANTANDER                                             3
 *HEL-CBOC                                                                     3
 ACTION:UPD 17-05-30 21:08 OP:jn   STATUS:               ID:20170403103714 L   I
 OLDACT:UP  17-04-03 21:55 OP:ar   STATUS:               ID:20170403102744     3
 OLDACT:REG 17-04-03 20:05 OP:a    STATUS:               ID:20170403102744     3
 2017-04-03-1028-00M.COL___356                                                 6
 STAT SP IPHASW D HRMM SECON CODA AMPLIT PERI AZIMU VELO AIN AR TRES W  DIS CAZ7
 BAR2 EZ IP     C 1037 33.59                             171   -0.3710 21.1 189 
 BAR2 EZ I        1037 49.05        33.5 0.32            174           21.1 189 
 BAR2 EZ ES       1037 49.81                             171    0.9410 21.1 189 
 BRR  HZ EP       1037 35.44                             152   -0.1510 71.5 300 
 BRR  HE ES       1037 52.30                             152    0.5310 71.5 300 
 BRR  HZ I        1037 57.35        13.6 0.12            150           71.5 300 
 PAM  EZ EP       1037 36.65                             149   -0.1210 79.5  39 
 PAM  EE ES       1037 53.30                             149   -0.5810 79.5  39 
 PAM  EZ I        1037 55.79        16.3 0.30            148           79.5  39 
 RUS  HZ EP       1037 38.07                             144    0.0110 98.5 175 
 RUS  HN ES       1037 55.59                             144   -0.5810 98.5 175 
 RUS  HZ I        1037 56.66        11.3 0.24            146           98.5 175 
 PTB  HZ EP       1037 40.55                             132   -0.83 9  147 260 
 PTB  HN ES       1038  1.41                             132   -0.67 9  147 260 
 PTB  HZ I        1038  3.34        14.1 0.20            131            147 260 
 SPBC HZ EP       1037 43.06                             129    0.23 9  161 219 
 SPBC HE ES       1038  4.24                             129   -0.43 9  161 219 
 SPBC HZ I        1038  6.32        16.1 0.12            130            161 219 
 YPLC HZ EP       1037 44.13                             126   -0.08 9  175 151 
 YPLC HE ES       1038  8.08                             126    0.96 9  175 151 
 ZAR  HZ EP       1037 47.70                             122    0.66 9  204 293 
 ZAR  HN ES       1038 12.78                             122    0.63 9  204 293 
 ZAR  HZ I        1038 19.92         9.2 0.26            121            204 293 
 NOR  HZ EP   2   1037 51.47                             118    1.33 4  233 235 
 NOR  HE ES       1038 17.59                             118   -0.08 8  233 235 
 NOR  HZ I        1038 19.33         7.1 0.38            118            233 235 
                                                                                
