 2017  1 3 1505 26.9 L   6.720 -73.140147.3  RSN  7 0.4 1.8LRSN                1
 GAP=141        1.11       5.5     4.8  7.3  0.1344E+01  0.7194E+01 -0.3868E+01E
 Epicentro: JORDAN - SANTANDER                                                 3
 ACTION:UPD 17-05-22 15:55 OP:jn   STATUS:               ID:20170103150526 L   I
 OLDACT:UP  17-01-03 22:52 OP:dnl  STATUS:               ID:20170103145747     3
 OLDACT:REG 17-01-03 20:42 OP:dnl  STATUS:               ID:20170103145747     3
 2017-01-03-1458-00M.COL___375                                                 6
 STAT SP IPHASW D HRMM SECON CODA AMPLIT PERI AZIMU VELO AIN AR TRES W  DIS CAZ7
 BAR2 EZ IP     C 15 5 46.69                             174    0.0710 14.9 198 
 BAR2 EZ ES       15 6  1.04                             174   -0.9310 14.9 198 
 BAR2 EZ I        15 6  3.23        18.6 0.40            174           14.9 198 
 BRR  HZ IP     C 15 5 48.78                             151    0.2210 76.4 304 
 BRR  HE ES       15 6  6.08                             151    0.6610 76.4 304 
 BRR  HZ I        15 6 11.13        12.9 0.42            150           76.4 304 
 PAM  EZ EP       15 5 49.94                             149    0.2110 84.0  35 
 PAM  EN ES       15 6  7.30                             149   -0.2010 84.0  35 
 PAM  EZ I        15 6 10.05         5.2 0.38            151           84.0  35 
 RUS  HZ IP     C 15 5 50.42                             147    0.1910 91.7 176 
 RUS  HE ES       15 6  8.80                             147    0.4110 91.7 176 
 RUS  HZ I        15 6  9.91         5.9 0.52            151           91.7 176 
 PTB  HZ EP       15 5 53.33                             132   -0.63 9  147 262 
 PTB  HE ES       15 6 15.25                             132    0.21 9  147 262 
 PTB  HZ I        15 6 18.53         6.8 0.12            133            147 262 
 ZAR  HZ EP       15 5 59.69                             122   -0.22 8  208 294 
 ZAR  HE ES       15 6 25.49                             122   -0.14 8  208 294 
 ZAR  HZ I        15 6 31.89         9.4 0.28            123            208 294 
 GUY2CHZ EP   9   15 6 12.68                             113    2.56 0  297 236 
 GUY2CHE ES       15 6 45.88                             112   -0.47 7  297 236 
 GUY2CHZ  IAML    15 6 52.87         3.8 0.48                           297 236 
                                                                                
