 2015  4 3 1457 49.0 L   6.712 -73.252145.8  RSN  5 0.4 1.1LRSN                1
 GAP=199        1.07       8.2     7.6  7.9  0.3994E+02  0.1414E+02  0.1536E+01E
 Epicentro: BARICHARA - SANTANDER                                              3
 ACTION:UPD 15-06-03 16:52 OP:cam  STATUS:               ID:20150403145749 L   I
 OLDACT:REG 15-04-03 20:31 OP:fm   STATUS:               ID:20150403144750     3
 2015-04-03-1447-50M.COL___289                                                 6
 STAT SP IPHASW D HRMM SECON CODA AMPLIT PERI AZIMU VELO AIN AR TRES W  DIS CAZ7
 BAR2 EZ EP   1   1458  9.15                             174    0.67 7 15.3 150 
 BAR2 EZ ES       1458 23.29                             174   -0.4010 15.3 150 
 BAR2 EZ I        1458 24.85         3.8 0.32            174           15.3 150 
 BRR  HZ EP   1   1458  9.61                             154   -0.29 7 67.1 311 
 BRR  HN ES       1458 26.31                             154    0.0810 67.1 311 
 BRR  HZ I        1458 30.70         4.9 0.48            153           67.1 311 
 RUS  HZ EP       1458 11.96                             146   -0.2110 92.5 168 
 RUS  HN ES       1458 30.66                             146    0.4110 92.5 168 
 RUS  HZ I        1458 33.61         1.0 0.50            149           92.5 168 
 PTB  HZ EP       1458 13.98                             135   -0.8010  135 262 
 PTB  HN ES       1458 35.03                             135    0.1210  135 262 
 PTB  HZ I        1458 38.15         1.5 0.40            135            135 262 
 ZAR  HZ EP       1458 21.38                             123    0.64 9  197 296 
 ZAR  HN ES       1458 45.57                             123    0.06 9  197 296 
 ZAR  HZ I        1458 52.60         0.9 0.12            125            197 296 
                                                                                
