 2015  7 3 1956 46.3 L   6.852 -73.147141.9  RSN  7 0.3 2.0LRSN                1
 GAP=201        0.71       2.7     5.1  5.5 -0.8681E+00  0.1455E+02 -0.1954E+01E
 Epicentro: LOS SANTOS - SANTANDER                                             3
 ACTION:UPD 15-09-08 21:46 OP:cam  STATUS:               ID:20150703195646 L   I
 OLDACT:UP  15-07-04 01:32 OP:mh   STATUS:               ID:20150703194047     3
 OLDACT:UP  15-07-04 01:32 OP:mh   STATUS:               ID:20150703194047     3
 OLDACT:UP  15-07-04 01:23 OP:mh   STATUS:               ID:20150703194047     3
 OLDACT:UP  15-07-04 01:23 OP:mh   STATUS:               ID:20150703194047     3
 OLDACT:REG 15-07-04 01:15 OP:mh   STATUS:               ID:20150703194047     3
 2015-07-03-1940-47M.COL___334                                                 6
 STAT SP IPHASW D HRMM SECON CODA AMPLIT PERI AZIMU VELO AIN AR TRES W  DIS CAZ7
 BAR2 EZ EP       1957  5.51                             168   -0.0910 28.9 188 
 BAR2 EZ ES       1957 20.73                             168    0.0910 28.9 188 
 BAR2 EZ I        1957 22.35        13.5 0.05            165           28.9 188 
 RUS  HZ EP       1957 10.09                             141   -0.0110  106 176 
 RUS  HN ES       1957 28.68                             141    0.0210  106 176 
 RUS  HZ I        1957 29.32        11.2 0.22            143            106 176 
 NOR  HZ EP   1   1957 22.15                             117   -0.02 6  238 233 
 NOR  HN ES       1957 49.45                             117   -0.69 8  238 233 
 NOR  HZ I        1957 56.13         7.3 0.18            117            238 233 
 SML  HZ EP       1957 21.77                             117   -0.38 8  238 335 
 SML  HN ES       1957 50.36                             117    0.25 8  238 335 
 SML  HZ I        1957 52.65         9.7 0.10            118            238 335 
 CHI  HZ EP   1   1957 23.85                             116   -0.54 6  254 195 
 CHI  HE ES       1957 54.33                             116    0.23 8  254 195 
 GUY2CHZ EP       1957 30.74                             111    0.64 7  304 234 
 GUY2CHN ES       1958  4.52                             111    0.25 7  304 234 
 GUY2CHZ I        1958 11.02         4.0 0.60                           304 234 
 TOL  SN EP       1957 35.15                             108    0.28 6  348 224 
 TOL  SZ ES   4   1958 14.27                             108    1.52 0  348 224 
 TOL  SN I        1958 19.86         7.5 0.32            109            348 224 
                                                                                
