 2010  3 3 1735  8.1 L   6.127 -73.863 97.8  RSN  6 0.2 1.5LRSN                1
 GAP=138        0.55       2.9     4.7  9.2  0.3493E+01  0.2763E+02  0.1393E+02E
 Epicentro: EL PEON - SANTANDER                                                3
 ACTION:UP  10-08-24 09:51 OP:vdl  STATUS:               ID:20100303173508 L   I
 2010-03-03-1730-52S.COL___096                                                 6
 STAT SP IPHASW D HRMM SECON CODA AMPLIT PERI AZIMU VELO SNR AR TRES W  DIS CAZ7
 RUS  BZ EP       1735 26.61                             135     0.010   90 107 
 RUS  BZ I        1735 26.99         6.6 0.17                            90 107 
 RUS  BN ES   1   1735 40.99                             135     0.0 7   90 107 
 BAR2 SZ EP       1735 26.46                             134     0.110   91  56 
 BAR2 SZ ES   1   1735 40.53                             134     0.0 7   91  56 
 BRR  HZ EP       1735 27.50                             128    -0.310  110   9 
 BRR  HZ I        1735 27.83        13.1 0.04                           110   9 
 BRR  HN ES       1735 43.20                             128     0.110  110   9 
 CHI  HZ EP   1   1735 34.00                             117    -0.2 7  166 175 
 CHI  HZ I        1735 54.60         2.7 0.22                           166 175 
 RREF BN ES   2   1736  4.35                             111    -0.2 4  213 231 
 RREF BZ I        1736 10.13         4.1 0.35                           213 231 
 PRA  HZ EP   1   1735 48.72                             105     0.6 5  290 203 
                                                                                
