 2012  1 3 1310 28.5 L   6.794 -73.164129.3  RSN  5 0.1 1.8LRSN                1
 GAP=135        0.39       2.7     3.4  4.4 -0.2814E+01  0.4867E+01 -0.2935E+01E
 Epicentro: LOS SANTOS - SANTANDER                                             3
 ACTION:UP  12-02-03 08:13 OP:REBC STATUS:               ID:20120103131028 L   I
 2012-01-03-1310-00M.COL___184                                                 6
 STAT SP IPHASW D HRMM SECON CODA AMPLIT PERI AZIMU VELO SNR AR TRES W  DIS CAZ7
 BAR2 SZ EP   2   1310 46.24                             170     0.1 5   22 185 
 BAR2 SZ ES   1   1310 59.82                             170    -0.1 7   22 185 
 BAR2 SZ I        1311  2.71         7.4 0.16                            22 185 
 BRR  HZ EP       1310 48.00                             150     0.210   70 300 
 BRR  HZ I        1310 53.00        27.6 0.26                            70 300 
 PAM  SZ EP       1310 49.07                             147     0.010   79  40 
 PAM  SN ES   1   1311  5.10                             147    -0.1 7   79  40 
 RUS  HZ EP   1   1310 50.40                             140    -0.2 7  100 175 
 RUS  HE ES   1   1311  7.98                             140     0.1 7  100 175 
 PTB  HZ EP   2   1310 53.94                             128     0.0 5  146 259 
 PTB  HN ES   2   1311 13.56                             128    -0.3 5  146 259 
                                                                                
