 2012  4 3 1236 12.6 L   6.801 -73.135140.0  RSN  6 0.5 2.2LRSN                1
 GAP=138        1.04       5.2     7.4  9.0  0.3544E+01  0.1341E+02 -0.5031E+01E
 Epicentro: LOS SANTOS - SANTANDER                                             3
 ACTION:UPD 12-07-05 11:50 OP:tino STATUS:               ID:20120403123612 L   I
 2012-04-03-1230-00M.COL___196                                                 6
 STAT SP IPHASW D HRMM SECON CODA AMPLIT PERI AZIMU VELO AIN AR TRES W  DIS CAZ7
 BAR2 SZ EP   3   1236 32.83                             170     1.3 2   24 193 
 BAR2 SZ ES   2   1236 45.62                             170    -0.7 5   24 193 
 BAR2 SZ I        1236 47.37        28.7 0.14                            24 193 
 BRR  HZ EP       1236 33.40                             151     0.210   72 298 
 BRR  HZ I        1236 36.13        46.3 0.28                            72 298 
 BRR  HE ES   1   1236 50.08                             151     0.8 7   72 298 
 PAM  SZ EP       1236 34.39                             150     0.210   77  39 
 PAM  SN ES   1   1236 51.12                             150     0.1 7   77  39 
 RUS  HZ EP       1236 35.80                             143     0.010  101 177 
 RUS  HN ES   1   1236 53.52                             143    -0.4 7  101 177 
 RUS  HZ I        1236 54.86        15.3 0.42                           101 177 
 OCA  SZ EP       1236 40.60                             128     0.1 9  160 353 
 OCA  SZ ES   1   1237  1.29                             128    -0.9 7  160 353 
 ZAR  HZ EP       1236 44.41                             121    -0.4 9  205 292 
 ZAR  HN ES   2   1237  9.77                             121    -0.1 4  205 292 
 ZAR  HZ I        1237 15.36        21.5 0.48                           205 292 
                                                                                
