 2013  2 3 1632 50.9 L   6.819 -73.137147.5  RSN 14 0.4 2.5LRSN 2.9WRSN        1
 SPEC AVERAGE  MO 13.4 ST  6.0 OM  1.9 f0 4.55 R0.3488 AL 2.39 WI 20.7 MW  2.9 3
 SPEC SD       MO  0.4 ST  7.7 OM  0.6 f00.987 R0.1187 AL      WI      MW  0.2 3
 GAP= 71        0.95       2.8     2.7  4.7  0.7365E-01  0.2764E+01  0.4597E+00E
 Epicentro: LOS SANTOS - SANTANDER                                             3
 SPEC RUS HH N MO 12.9 ST  1.4 OM  1.3 f0 4.80 R0.3062 AL 2.39 WI 19.0 MW  2.6 3
 SPEC RUS HH N T163333 K 0.000 GD  179 VS 4.20 DE 3.20 Q0300.0 QA 0.60 VS 4.20 3
 SPEC NOR HH N MO 14.0 ST 22.7 OM  2.2 f0 5.30 R0.2774 AL 3.22 WI 26.6 MW  3.3 3
 SPEC NOR HH N T163354 K 0.000 GD  279 VS 4.20 DE 3.20 Q0300.0 QA 0.60 VS 4.20 3
 SPEC PAM SH Z MO 13.2 ST  3.1 OM  0.8 f0 5.25 R0.2800 AL 2.06 WI 15.1 MW  2.7 3
 SPEC PAM SH Z T163313 K 0.000 GD  165 VP 7.60 DE 3.20 Q0300.0 QA 0.60 VS 4.20 3
 SPEC CHI HH N MO 13.5 ST0.551 OM  1.6 f0 2.40 R0.6125 AL 1.62 WI 14.0 MW  2.9 3
 SPEC CHI HH N T163356 K 0.000 GD  291 VS 4.20 DE 3.20 Q0300.0 QA 0.60 VS 4.20 3
 SPEC BRR HH N MO 13.6 ST  6.4 OM  2.0 f0 4.85 R0.3031 AL 2.94 WI 27.2 MW  3.0 3
 SPEC BRR HH N T163328 K 0.000 GD  163 VS 4.20 DE 3.20 Q0300.0 QA 0.60 VS 4.20 3
 SPEC BAR2SH Z MO 13.2 ST  2.1 OM  1.6 f0 4.69 R0.3134 AL 2.09 WI 22.5 MW  2.7 3
 SPEC BAR2SH Z T163325 K 0.000 GD  149 VS 4.20 DE 3.20 Q0300.0 QA 0.60 VS 4.20 3
 ACTION:UPD 13-03-12 09:30 OP:ep   STATUS:               ID:20130203163250 L   I
 2013-02-03-1628-50M.COL___197                                                 6
 STAT SP IPHASW D HRMM SECON CODA AMPLIT PERI AZIMU VELO AIN AR TRES W  DIS CAZ7
 BAR2 SZ EP       1633 10.71                             170   -0.0910 25.6 191 
 BAR2 SZ ES       1633 26.74                             170    0.4310 25.6 191 
 BAR2 SZ I        1633 27.13        46.6 0.16            164           25.6 191 
 BRR  HZ EP       1633 12.51                             153    0.2610 71.1 297 
 BRR  HN ES       1633 29.11                             153    0.2210 71.1 297 
 BRR  HN I        1633 34.45        54.3 0.16            151           71.1 297 
 PAM  SZ EP       1633 13.51                             152    0.3310 75.1  40 
 PAM  SN ES       1633 30.17                             152   -0.3810 75.1  40 
 PAM  SN I        1633 32.55        18.7 0.74            154           75.1  40 
 RUS  HZ EP       1633 14.79                             144   -0.1910  103 177 
 RUS  HZ I        1633 15.43        11.4 0.28            139            103 177 
 RUS  HN ES       1633 33.30                             144   -0.4610  103 177 
 PTB  HZ EP       1633 17.61                             132   -0.54 9  149 258 
 PTB  HN ES       1633 38.58                             132   -0.82 9  149 258 
 PTB  HN I        1633 43.91        67.0 0.42            128            149 258 
 TAM  HZ EP       1633 19.02                             131    0.33 9  155 106 
 TAM  HN ES       1633 40.61                             131    0.25 9  155 106 
 TAM  HN I        1633 41.48        21.9 0.32            129            155 106 
 OCA  HZ EP   1   1633 19.35                             130    0.17 7  158 353 
 OCA  HE ES       1633 40.92                             130   -0.30 9  158 353 
 OCA  HN I        1633 44.26        88.4 0.54            130            158 353 
 ZAR  HZ EP       1633 23.26                             123   -0.23 9  204 291 
 ZAR  HN ES       1633 49.83                             123    0.93 9  204 291 
 ZAR  HN I        1633 53.96        52.4 0.62            120            204 291 
 NOR  HZ EP       1633 27.14                             119    0.18 8  237 234 
 NOR  HN ES       1633 55.40                             119    0.32 8  237 234 
 NOR  HN I        1634  1.45        44.2 0.16            115            237 234 
 SML  HZ EP   1   1633 27.03                             118   -0.45 6  242 335 
 SML  HE ES       1633 55.90                             118   -0.10 8  242 335 
 CHI  HZ EP       1633 29.04                             117    0.08 8  251 195 
 CHI  HN I        1634  2.41        19.2 0.30            114            251 195 
 HEL  HZ EP       1633 31.90                             115    0.52 8  274 255 
 HEL  HN ES       1634  3.01                             115    0.07 8  274 255 
 HEL  HN I        1634 10.27        15.4 0.62            112            274 255 
 DBB  SZ EP       1633 38.14                             110   -0.42 7  340 274 
 SDV  BZ EP   1   1633 40.43                             109   -0.35 5  358  50 
                                                                                
