 2015  5 3 1825 26.9 L   6.831 -73.185143.8  RSN  8 0.4 1.5LRSN                1
 GAP=130        0.87       3.0     4.5  6.3  0.2452E+01  0.7180E+01  0.2639E+01E
 Epicentro: ZAPATOCA - SANTANDER                                               3
 ACTION:UPD 15-09-10 22:01 OP:cam  STATUS:               ID:20150503182526 L   I
 OLDACT:REG 15-05-03 21:22 OP:ak   STATUS:               ID:20150503181748     3
 2015-05-03-1817-48M.COL___274                                                 6
 STAT SP IPHASW D HRMM SECON CODA AMPLIT PERI AZIMU VELO AIN AR TRES W  DIS CAZ7
 BAR2 EZ EP   1   1825 46.15                             169   -0.19 7 26.5 179 
 BAR2 EZ ES   1   1826  1.25                             169   -0.26 7 26.5 179 
 BAR2 EZ I        1826  2.81         6.9 0.15            168           26.5 179 
 BRR  HZ IP     D 1825 47.96                             154    0.4510 65.7 298 
 BRR  HE ES       1826  4.03                             154    0.4310 65.7 298 
 BRR  HZ I        1826  9.01         4.4 0.30            152           65.7 298 
 PAM  SZ IP     D 1825 49.06                             150    0.1610 77.7  44 
 PAM  SN ES       1826  6.04                             150   -0.0410 77.7  44 
 PAM  SZ I        1826  8.27         7.8 0.46            155           77.7  44 
 RUS  HZ EP       1825 51.18                             142    0.4610  104 174 
 RUS  HN ES       1826  8.96                             142   -0.3510  104 174 
 RUS  HZ I        1826  9.97         5.1 0.34            144            104 174 
 ZAR  HN ES       1826 23.22                             123   -0.20 9  199 292 
 ZAR  HZ I        1826 29.96         4.0 0.06            123            199 292 
 SML  HZ EP   2   1826  2.50                             117   -0.35 4  239 336 
 SML  HN ES       1826 30.20                             117   -0.71 8  239 336 
 CHI  HZ EP   1   1826  4.28                             116   -0.43 6  251 194 
 CHI  HN ES       1826 33.84                             116   -0.38 8  251 194 
 CHI  HZ I        1826 40.02         1.6 0.35            118            251 194 
 GUY2CHZ EP   2   1826 11.24                             112    1.02 4  300 234 
 GUY2CHN ES   2   1826 44.50                             112    0.47 4  300 234 
 GUY2CHZ I        1826 52.27         1.9 0.37                           300 234 
                                                                                
