 2011  3 3 1227 48.5 L   7.489 -73.174137.8  RSN  4 0.5 1.8LRSN                1
 GAP=168        0.60      10.9    40.5 15.1 -0.3704E+03  0.4073E+03 -0.8090E+02E
 Epicentro: EL PLAYON - SANTANDER                                              3
 ACTION:UP  11-06-16 14:31 OP:jfem STATUS:               ID:20110303122748 L   I
 2011-03-03-1226-50S.COL___135                                                 6
 STAT SP IPHASW D HRMM SECON CODA AMPLIT PERI AZIMU VELO SNR AR TRES W  DIS CAZ7
 GRA  SZ EP   1   1228  8.54                             155     0.1 7   60  43 
 GRA  SZ ES   1   1228 23.79                             155    -0.1 7   60  43 
 GRA  SZ I        1228 25.25        22.0 0.20                            60  43 
 OCA  SZ EP   3   1228  9.26                             147    -0.6 2   84 349 
 OCA  SZ I        1228 16.25        19.2 0.12                            84 349 
 BAR2 SZ EP   3   1228 11.02                             142     0.0 2   99 181 
 BAR2 SZ ES   2   1228 28.98                             142     0.4 5   99 181 
 BAR2 SZ I        1228 30.89        13.9 0.44                            99 181 
 RUS  HZ EP   3   1228 18.63                             125     0.3 2  177 177 
 RUS  HZ I        1228 39.70         1.6 0.47                           177 177 
 RUS  HE ES   3   1228 40.04                             125    -1.5 2  177 177 
                                                                                
