 2016 12 3 1318 57.0 L   6.738 -73.127139.5  RSN  6 0.4 1.8LRSN                1
 GAP=165        0.94       5.9     4.4  6.4 -0.8748E+01  0.7950E+01  0.4730E+01E
 Epicentro: LOS SANTOS - SANTANDER                                             3
 ACTION:UPD 17-01-11 20:12 OP:rebc STATUS:               ID:20161203131857 L   I
 OLDACT:REG 16-12-03 20:51 OP:lv   STATUS:               ID:20161203131742     3
 2016-12-03-1318-00M.COL___345                                                 6
 STAT SP IPHASW D HRMM SECON CODA AMPLIT PERI AZIMU VELO AIN AR TRES W  DIS CAZ7
 BAR2 EZ EP       1319 15.94                             173    0.2110 17.3 201 
 BAR2 EZ ES       1319 30.59                             173    0.2310 17.3 201 
 BAR2 EZ I        1319 34.29        17.7 0.30            170           17.3 201 
 BRR  HZ EP       1319 17.84                             150    0.0810 76.4 302 
 BRR  HN ES       1319 34.42                             150    0.4510 76.4 302 
 BRR  HZ I        1319 36.77        16.0 0.15            150           76.4 302 
 PAM  EZ EP       1319 18.73                             148   -0.0510 81.5  35 
 PAM  EN ES       1319 35.34                             148   -0.4510 81.5  35 
 PAM  EZ I        1319 39.53         4.7 0.32            154           81.5  35 
 PTB  HZ EP       1319 22.92                             130   -0.59 9  149 262 
 PTB  HN ES       1319 43.82                             130   -0.39 9  149 262 
 PTB  HZ I        1319 48.42        10.0 0.12            132            149 262 
 ZAR  HZ EP       1319 30.26                             120    0.77 8  209 294 
 ZAR  HN ES       1319 54.57                             120   -0.28 8  209 294 
 ZAR  HZ I        1320  0.88         9.0 0.35            123            209 294 
 NOR  HZ EP       1319 32.21                             117    0.11 8  232 236 
 NOR  HN ES       1319 59.46                             117   -0.05 8  232 236 
 NOR  HZ I        1320  7.44         7.4 0.22            119            232 236 
                                                                                
