 2012  4 3 1355 27.5 L   6.804 -73.148148.6  RSN  7 0.3 2.1LRSN                1
 GAP=126        0.81       4.6     4.7  7.5  0.1262E+00  0.1096E+02  0.4897E+01E
 Epicentro: LOS SANTOS - SANTANDER                                             3
 ACTION:UPD 12-07-05 11:50 OP:tino STATUS:               ID:20120403135527 L   I
 2012-04-03-1350-00M.COL___196                                                 6
 STAT SP IPHASW D HRMM SECON CODA AMPLIT PERI AZIMU VELO AIN AR TRES W  DIS CAZ7
 BAR2 SZ IP       1355 47.44                             170     0.010   24 189 
 BAR2 SZ I        1356  4.36        15.7 0.32                            24 189 
 BRR  HZ EP       1355 49.18                             153     0.310   71 298 
 BRR  HZ I        1355 50.90        37.7 0.10                            71 298 
 BRR  HE ES   1   1356  6.17                             153     0.5 7   71 298 
 PAM  SZ IP       1355 50.16                             151     0.210   77  40 
 PAM  SN ES   1   1356  7.02                             151    -0.5 7   77  40 
 RUS  HZ EP       1355 51.53                             144     0.010  101 176 
 RUS  HN ES   1   1356 10.34                             144     0.0 7  101 176 
 RUS  HZ I        1356 13.13         7.4 0.30                           101 176 
 ZAR  HZ EP       1355 59.86                             123    -0.2 9  204 292 
 ZAR  HN ES   1   1356 25.10                             123    -0.4 6  204 292 
 ZAR  HZ I        1356 31.92        22.4 0.36                           204 292 
 NOR  SZ EP       1356  3.80                             119     0.4 8  235 234 
 NOR  SN ES   1   1356 30.76                             119    -0.6 6  235 234 
 SDV  BZ EP   3   1356 16.89                             109    -0.8 2  360  50 
                                                                                
