 2017 10 3 1835 43.1 L   6.755 -73.099150.2  RSN  5 0.4 1.4LRSN                1
 GAP=246        0.87       6.1     5.7  8.1  0.7592E+01  0.2314E+02  0.5709E+01E
 Epicentro: LOS SANTOS - SANTANDER                                             3
 ACTION:UPD 17-11-07 19:28 OP:rebc STATUS:               ID:20171003183543 L   I
 OLDACT:UP  17-10-04 01:26 OP:osc  STATUS:               ID:20171003182740     3
 OLDACT:REG 17-10-03 21:54 OP:osc  STATUS:               ID:20171003182740     3
 2017-10-03-1828-00M.COL___446                                                 6
 STAT SP IPHASW D HRMM SECON CODA AMPLIT PERI AZIMU VELO AIN AR TRES W  DIS CAZ7
 BAR2 EZ EP       1836  3.01                             172   -0.1910 20.2 207 
 BAR2 EZ ES       1836 18.53                             172   -0.3610 20.2 207 
 BAR2 EZ I        1836 19.67         6.1 0.18            166           20.2 207 
 RUS  HZ EP       1836  7.33                             146    0.4010 95.4 179 
 RUS  HE ES       1836 25.84                             146    0.3310 95.4 179 
 RUS  HZ I        1836 28.00         3.9 0.30            144           95.4 179 
 ZAR  HN ES       1836 42.99                             122    0.40 8  211 293 
 NOR  HZ EP       1836 18.65                             119   -0.59 8  236 236 
 NOR  HE ES       1836 47.14                             119   -0.28 8  236 236 
 NOR  HZ I        1836 53.92         1.8 0.18            119            236 236 
 GUY2CHN ES       1837  1.56                             113    0.19 7  303 236 
                                                                                
