 2012 12 3 1349 16.7 L   6.783 -73.158140.0  RSN  5 0.3 1.9LRSN                1
 GAP=136        0.70       3.6     3.3  6.9 -0.9853E-01  0.8968E+01 -0.2577E+01E
 Epicentro: LOS SANTOS - SANTANDER                                             3
 ACTION:UPD 13-01-04 14:25 OP:ep   STATUS:               ID:20121203134916 L   I
 2012-12-03-1346-38M.COL___195                                                 6
 STAT SP IPHASW D HRMM SECON CODA AMPLIT PERI AZIMU VELO AIN AR TRES W  DIS CAZ7
 BAR2 SZ EP       1349 35.61                             171    0.0010 21.3 187 
 PAM  SZ EP       1349 38.37                             149   -0.0910 79.7  39 
 PAM  SN ES       1349 55.39                             149   -0.0310 79.7  39 
 PAM  SN I        1349 56.46        15.5 0.46                          79.7  39 
 RUS  HZ EP       1349 39.64                             143   -0.1310 98.8 175 
 RUS  HN ES       1349 58.04                             143    0.2810 98.8 175 
 RUS  HN I        1349 59.95         7.4 0.36                          98.8 175 
 PTB  HZ EP       1349 42.63                             131   -0.44 9  146 259 
 PTB  HN ES       1350  3.44                             131   -0.18 9  146 259 
 PTB  HN I        1350  8.58        13.0 0.50                           146 259 
 ZAR  HZ EP       1349 49.34                             121    0.60 9  204 293 
 ZAR  HN ES       1350 13.83                             121    0.11 9  204 293 
 ZAR  HN I        1350 20.06        11.3 0.26                           204 293 
                                                                                
