 2014  6 3 1259 52.3 L   6.752 -73.196135.5  RSN  6 0.4 1.6LRSN                1
 GAP=132        1.00       4.7     4.2  6.8  0.2061E+01  0.7709E+01 -0.1601E+01E
 Epicentro: VILLANUEVA - SANTANDER                                             3
 ACTION:UPD 14-07-01 22:50 OP:nd   STATUS:               ID:20140603125952 L   I
 OLDACT:REG 14-06-03 20:56 OP:stll STATUS:               ID:20140603125812     3
 2014-06-03-1258-12M.COL___256                                                 6
 STAT SP IPHASW D HRMM SECON CODA AMPLIT PERI AZIMU VELO AIN AR TRES W  DIS CAZ7
 BAR2 SZ EP       13 0 10.68                             172    0.1210 17.8 175 
 BAR2 SZ ES       13 0 24.68                             172   -0.1510 17.8 175 
 BAR2 SZ I        13 0 26.38        10.8 0.16            172           17.8 175 
 BRR  HZ IP     C 13 0 12.64                             151    0.4410 69.2 305 
 BRR  HN ES       13 0 28.54                             151    0.7910 69.2 305 
 BRR  HZ I        13 0 31.06        10.2 0.26            150           69.2 305 
 PAM  SZ EP       13 0 13.64                             146   -0.2710 85.0  40 
 PAM  SZ I        13 0 13.78        19.0 0.20            149           85.0  40 
 PAM  SN ES       13 0 30.44                             146   -0.3410 85.0  40 
 RUS  HZ EP       13 0 15.04                             143    0.3610 95.9 172 
 RUS  HN ES       13 0 31.88                             143   -0.2810 95.9 172 
 RUS  HZ I        13 0 34.65         4.2 0.30            145           95.9 172 
 PTB  HZ EP       13 0 17.67                             131   -0.15 9  141 260 
 PTB  HZ I        13 0 19.87         6.1 0.38            131            141 260 
 PTB  HN ES       13 0 37.52                             131   -0.23 9  141 260 
 ZAR  HZ EP       13 0 23.92                             120    0.18 9  201 294 
 ZAR  HN ES       13 0 47.65                             120   -0.64 9  201 294 
 ZAR  HZ I        13 0 54.24         3.4 0.30            121            201 294 
                                                                                
