 2016  4 3 1248 36.3 L   6.799 -73.144148.5  RSN  8 0.4 1.9LRSN                1
 GAP=137        0.89       3.2     3.7  6.0 -0.2326E+01  0.8682E+01 -0.2619E+01E
 Epicentro: LOS SANTOS - SANTANDER                                             3
 ACTION:UPD 16-05-05 14:18 OP:rebc STATUS:               ID:20160403124836 L   I
 OLDACT:UP  16-04-04 00:29 OP:mh   STATUS:               ID:20160403124739     3
 OLDACT:REG 16-04-03 22:46 OP:mh   STATUS:               ID:20160403124739     3
 2016-04-03-1247-39M.COL___315                                                 6
 STAT SP IPHASW D HRMM SECON CODA AMPLIT PERI AZIMU VELO AIN AR TRES W  DIS CAZ7
 BAR2 EZ EP     C 1248 56.50                             171    0.2510 23.2 190 
 BAR2 EZ ES       1249 11.63                             171   -0.1910 23.2 190 
 BAR2 EZ I        1249 13.17        14.3 0.18            170           23.2 190 
 PAM  EZ EP     C 1248 59.27                             151    0.4710 77.4  39 
 PAM  EN ES       1249 16.47                             151    0.1110 77.4  39 
 PAM  EZ I        1249 18.44         7.1 0.50            155           77.4  39 
 RUS  HZ EP       1249  0.48                             144    0.1810  100 176 
 RUS  HN ES       1249 18.84                             144   -0.1910  100 176 
 RUS  HZ I        1249 19.56         6.5 0.54            148            100 176 
 PTB  HZ EP       1249  3.19                             133   -0.30 9  148 259 
 PTB  HN ES       1249 24.32                             133   -0.39 9  148 259 
 PTB  HZ I        1249 29.27         5.7 0.12            132            148 259 
 OCA  HZ EP       1249  4.34                             130   -0.49 9  160 353 
 OCA  HN ES       1249 27.07                             130   -0.02 9  160 353 
 OCA  HZ I        1249 29.94        19.5 0.18            132            160 353 
 SPBC HZ EP       1249  5.23                             130    0.23 9  163 219 
 SPBC HN ES   1   1249 27.31                             130   -0.08 7  163 219 
 SPBC HZ I        1249 30.84        13.2 0.10            131            163 219 
 ZAR  HZ EP       1249  8.18                             123   -0.75 9  204 292 
 ZAR  HN ES       1249 34.99                             123    0.59 9  204 292 
 ZAR  HZ I        1249 40.45         9.2 0.30            123            204 292 
 HEL  HZ EP   1   1249 16.72                             115    0.07 6  272 256 
 HEL  HN ES       1249 48.68                             115    0.54 8  272 256 
 HEL  HZ I        1249 55.02         3.9 0.42            116            272 256 
                                                                                
