 2011  1 3 1451 21.6 L   7.394 -73.275118.6  RSN  4 0.5 1.7LRSN                1
 GAP=225        0.96      10.7    35.2 14.0 -0.2987E+03  0.1148E+03 -0.2446E+02E
 Epicentro: EL PLAYON - SANTANDER                                              3
 ACTION:UP  11-02-08 08:38 OP:pat  STATUS:               ID:20110103145121 L   I
 2011-01-03-1440-00M.COL___137                                                 6
 STAT SP IPHASW D HRMM SECON CODA AMPLIT PERI AZIMU VELO SNR AR TRES W  DIS CAZ7
 BTL  SZ EP   1   1451 39.78                             155     0.6 7   53 179 
 BTL  SZ ES   2   1451 51.83                             155    -1.0 5   53 179 
 GRA  SZ IP       1451 40.24                             145    -0.210   75  44 
 GRA  SZ ES   2   1451 55.43                             145     0.4 5   75  44 
 GRA  SZ I        1451 56.79        45.5 0.28                            75  44 
 BAR2 SZ EP   1   1451 41.84                             141     0.3 7   89 173 
 BAR2 SZ ES   2   1451 57.55                             141     0.4 5   89 173 
 BAR2 SZ I        1451 58.96        14.6 0.11                            89 173 
 RUS  HZ EP   1   1451 48.62                             122    -0.6 7  167 173 
 RUS  HE ES   2   1452 10.63                             122     0.0 5  167 173 
 RUS  HZ I        1452 23.18         1.7 0.42                           167 173 
                                                                                
