 2017  4 3 1556  0.6 L   6.766 -73.153142.2  RSN  9 0.4 2.0LRSN                1
 GAP=137        1.04       4.6     4.0  6.1  0.8990E+00  0.9899E+01 -0.2548E+01E
 Epicentro: LOS SANTOS - SANTANDER                                             3
 ACTION:UPD 17-05-30 21:08 OP:jn   STATUS:               ID:20170403155600 L   I
 OLDACT:REG 17-04-03 21:08 OP:ar   STATUS:               ID:20170403154745     3
 2017-04-03-1548-00M.COL___371                                                 6
 STAT SP IPHASW D HRMM SECON CODA AMPLIT PERI AZIMU VELO AIN AR TRES W  DIS CAZ7
 BAR2 EZ EP       1556 19.69                             172   -0.0910 19.5 190 
 BAR2 EZ ES       1556 34.58                             172   -0.1210 19.5 190 
 BAR2 EZ I        1556 35.41        35.7 0.24            170           19.5 190 
 BRR  HZ EP       1556 21.60                             151    0.1210 72.4 301 
 BRR  HN ES       1556 38.39                             151    0.6610 72.4 301 
 BRR  HZ I        1556 43.73        32.8 0.12            149           72.4 301 
 PAM  EZ EP       1556 22.78                             149    0.0810 80.8  38 
 PAM  EN ES       1556 39.62                             149   -0.2810 80.8  38 
 PAM  EZ I        1556 41.50        16.6 0.52            153           80.8  38 
 RUS  HZ EP       1556 24.08                             144    0.3010 96.9 175 
 RUS  HN ES       1556 41.80                             144   -0.0310 96.9 175 
 RUS  HZ I        1556 45.21         8.6 0.38            146           96.9 175 
 PTB  HZ EP       1556 26.78                             131   -0.41 9  146 260 
 PTB  HN ES       1556 47.18                             131   -0.71 9  146 260 
 PTB  HZ I        1556 49.38        19.0 0.28            131            146 260 
 ZAR  HZ EP       1556 32.78                             121   -0.16 9  205 293 
 ZAR  HN ES       1556 58.89                             121    0.77 9  205 293 
 ZAR  HZ I        1557  6.61        17.1 0.24            122            205 293 
 CHI  HZ EP   9   1556 40.76                             117    3.03 0  245 195 
 CHI  HN ES       1557  9.30                                   -0.38 8  245 195 
 CHI  HZ I        1557 13.47         3.1 0.46            118            245 195 
 URE  HZ EP       1556 41.13                             113   -0.49 7  285 293 
 URE  HN ES       1557 12.90                             113   -0.68 7  285 293 
 URE  HZ I        1557 24.44        12.7 0.32            113            285 293 
 CBOC HZ EP       1556 47.74                             109    0.54 7  332 253 
 CBOC HN ES       1557 24.14                             109    0.64 7  332 253 
 CBOC HZ I        1557 26.30         2.3 0.20            110            332 253 
                                                                                
