 2012  8 3 1837 13.8 L   6.824 -73.145150.6  RSN 20 0.5 3.1LRSN 3.7WRSN        1
 SPEC AVERAGE  MO 14.6 ST 26.5 OM  3.4 f0 3.27 R0.4638 AL 1.89 WI 30.5 MW  3.7 3
 SPEC SD       MO  0.2 ST 20.5 OM  0.6 f00.592 R0.0810 AL      WI      MW  0.1 3
 GAP= 65        0.92       3.6     3.9  5.5  0.2682E+01  0.8548E+01  0.4835E+01E
 Epicentro: LOS SANTOS - SANTANDER                                             3
 SPEC OCA HH N MO 14.8 ST 30.4 OM  3.1 f0 3.25 R0.4523 AL 1.84 WI 36.4 MW  3.8 3
 SPEC OCA HH N T1838 3 K 0.000 GD  218 VS 4.20 DE 3.00 Q0230.0 QA 0.60 VS 4.20 3
 SPEC PTB HH N MO 14.4 ST  9.1 OM  2.7 f0 2.99 R0.4916 AL 1.31 WI 27.9 MW  3.5 3
 SPEC PTB HH N T183759 K 0.000 GD  211 VS 4.20 DE 3.00 Q0230.0 QA 0.60 VS 4.20 3
 SPEC RUS HH E MO 14.6 ST 31.0 OM  3.0 f0 3.75 R0.3920 AL 1.87 WI 28.5 MW  3.7 3
 SPEC RUS HH E T183754 K 0.000 GD  182 VS 4.20 DE 3.00 Q0230.0 QA 0.60 VS 4.20 3
 SPEC HEL HH N MO 14.3 ST  3.9 OM  2.4 f0 2.48 R0.5927 AL 1.82 WI 43.6 MW  3.5 3
 SPEC HEL HH N T183825 K 0.000 GD  311 VS 4.20 DE 3.00 Q0230.0 QA 0.60 VS 4.20 3
 SPEC CHI HH E MO 14.7 ST 17.9 OM  2.9 f0 2.88 R0.5104 AL 1.87 WI 22.9 MW  3.8 3
 SPEC CHI HH E T183821 K 0.000 GD  292 VS 4.20 DE 3.00 Q0230.0 QA 0.60 VS 4.20 3
 SPEC BRR HH N MO 14.8 ST 66.5 OM  3.2 f0 4.28 R0.3435 AL 2.65 WI 23.7 MW  3.8 3
 SPEC BRR HH N T183752 K 0.000 GD  166 VS 4.20 DE 3.00 Q0230.0 QA 0.60 VS 4.20 3
 ACTION:UPD 12-09-10 11:54 OP:ep   STATUS:               ID:20120803183713 L   I
 2012-08-03-1830-00M.COL___215                                                 6
 STAT SP IPHASW D HRMM SECON CODA AMPLIT PERI AZIMU VELO AIN AR TRES W  DIS CAZ7
 BAR2 SZ IP     C 1837 33.95                             170   -0.0910 25.9 189 
 BAR2 SZ I        1837 34.25       222.6 0.12                          25.9 189 
 BAR2 SZ ES   1   1837 49.91                             170    0.06 7 25.9 189 
 BRR  HZ IP     D 1837 35.91                             154    0.5210 70.1 297 
 BRR  HN ES   1   1837 52.54                             154    0.29 7 70.1 297 
 BRR  HZ I        1837 56.31       284.7 0.36                          70.1 297 
 PAM  SZ IP       1837 36.77                             152    0.3810 75.3  41 
 PAM  SN ES   1   1837 53.91                             152   -0.12 7 75.3  41 
 PAM  SZ I        1837 55.70       170.2 0.58                          75.3  41 
 RUS  HZ IP     D 1837 37.80                             144   -0.3910  103 176 
 RUS  HZ I        1837 38.87        73.9 0.44                           103 176 
 RUS  HN ES   1   1837 56.41                             144   -0.82 7  103 176 
 PTB  HZ EP       1837 40.55                             133   -0.65 9  148 258 
 PTB  HZ I        1838  9.02       126.7 0.42                           148 258 
 TAM  HZ IP     D 1837 42.11                             131    0.21 9  156 106 
 TAM  HZ I        1837 42.19       295.4 0.20                           156 106 
 TAM  HN ES   1   1838  4.00                             131    0.17 7  156 106 
 OCA  HZ EP   2   1837 42.27                             131    0.04 5  158 353 
 OCA  HN ES   2   1838  3.77                             131   -0.65 5  158 353 
 OCA  HZ I        1838  8.73       270.2 0.22                           158 353 
 YOP  SZ EP       1837 44.33                             127   -0.07 9  181 154 
 YOP  SN ES   1   1838  8.74                             127    0.46 7  181 154 
 YOP  SZ I        1838 11.01        52.9 1.00                           181 154 
 ZAR  HZ EP       1837 46.46                             123    0.01 9  203 291 
 ZAR  HE ES   3   1838 11.96                             123    0.02 2  203 291 
 ZAR  HZ I        1838 22.37       145.3 0.34                           203 291 
 NOR  SZ EP       1837 49.83                             119   -0.13 8  236 234 
 NOR  SZ I        1838 25.37         7.0 0.40                           236 234 
 CHI  HZ IP     C 1837 52.10                             118    0.08 8  251 195 
 CHI  HE ES   2   1838 21.48                             118   -0.37 4  251 195 
 CHI  HZ I        1838 30.47        60.9 0.54                           251 195 
 HEL  HZ EP   3   1837 55.14                             116    0.82 2  273 255 
 HEL  HZ I        1838 33.09        55.1 0.40                           273 255 
 URE  HZ EP   3   1837 54.29                             114   -0.70 2  283 291 
 URE  HZ I        1838 37.29        92.3 0.18                           283 291 
 GUY  SZ EP       1837 58.74                             113    0.69 7  305 235 
 GUY  SN ES   2   1838 33.80                             113    1.22 4  305 235 
 GUY  SZ I        1838 41.07       101.0 0.34                           305 235 
 VIL  SZ EP   1   1837 56.90                             113   -0.81 5  306 191 
 VIL  SZ I        1838 35.33        34.3 0.34                           306 191 
 DBB  SZ EP       1838  1.57                             110    0.13 7  339 274 
 TOL  SZ EP       1838  3.53                             110    1.08 6  345 224 
 ANIL HZ EP   3   1838  4.38                             109    0.39 2  359 224 
 ANIL HZ I        1838 49.82       147.4 0.40                           359 224 
 PRA  HZ EP       1838  7.37                             107   -0.37 6  394 209 
 PRA  HZ I        1838 53.04        52.5 0.52                           394 209 
 SJC  HZ EP       1838  7.99                             106   -1.26 6  407 327 
                                                                                
