 2012  5 3 1234 58.9 L   6.778 -73.152138.7  RSN 12 0.5 2.7LRSN                1
 GAP=137        1.16       5.0     4.8  7.5 -0.2034E+01  0.8729E+01  0.4481E+01E
 Epicentro: LOS SANTOS - SANTANDER                                             3
 ACTION:UP  12-07-05 12:01 OP:pat  STATUS:               ID:20120503123458 L   I
 2012-05-03-1230-00M.COL___186                                                 6
 STAT SP IPHASW D HRMM SECON CODA AMPLIT PERI AZIMU VELO SNR AR TRES W  DIS CAZ7
 BAR2 SZ IP     C 1235 17.66                             171     0.110   21 189 
 BAR2 SZ ES   1   1235 32.19                             171     0.0 7   21 189 
 BAR2 SZ I        1235 34.67       170.6 0.25                            21 189 
 BRR  HZ EP       1235 19.57                             151     0.310   72 301 
 BRR  HN ES   1   1235 36.21                             151     1.0 7   72 301 
 BRR  HZ I        1235 37.74       226.6 0.13                            72 301 
 PAM  SZ IP       1235 20.55                             148     0.110   80  39 
 PAM  SE ES   1   1235 37.00                             148    -0.3 7   80  39 
 RUS  HZ EP       1235 21.68                             143    -0.110   98 176 
 RUS  HN ES   1   1235 39.51                             143    -0.1 7   98 176 
 RUS  HZ I        1235 41.99        57.3 0.36                            98 176 
 PTB  HZ EP   1   1235 24.29                             131    -0.9 7  147 260 
 PTB  HN ES       1235 45.03                             131    -0.6 9  147 260 
 PTB  HZ I        1235 48.67        86.3 0.18                           147 260 
 ZAR  HZ EP   1   1235 30.76                             121    -0.1 6  204 293 
 ZAR  HE ES   1   1235 56.49                             121     0.6 6  204 293 
 ZAR  HZ I        1236  1.81        77.1 0.16                           204 293 
 NOR  SZ EP   1   1235 34.43                             117     0.5 6  233 235 
 NOR  SN ES   1   1236  1.16                             117    -0.2 6  233 235 
 CHI  HZ EP   1   1235 36.02                             116     0.1 6  246 195 
 CHI  HN ES   1   1236  4.98                             116     0.2 6  246 195 
 CHI  HZ I        1236 11.07         9.7 0.22                           246 195 
 HEL  HZ EP   1   1235 39.42                             113     0.8 6  271 256 
 HEL  HN ES       1236  8.81                             113    -0.8 8  271 256 
 HEL  HZ I        1236 17.26        24.9 0.31                           271 256 
 DBB  SZ EP   1   1235 46.42                             108     0.4 5  339 275 
 COD  HZ EP   1   1235 46.05                             107    -1.2 5  351 355 
 COD  HZ I        1236 32.29        18.2 0.43                           351 355 
 PRA  HZ EP       1235 52.38                             105     0.5 6  390 210 
                                                                                
