 2010  7 3 1904  6.6 L   6.772 -73.060139.4  RSN  8 0.3 2.0LRSN                1
 GAP=166        0.74       3.8     6.5  6.1 -0.8389E+01 -0.3163E+01 -0.5515E+00E
 Epicentro: LOS SANTOS - SANTANDER                                             3
 ACTION:UPD 10-12-01 15:14 OP:pat  STATUS:               ID:20100703190406 L   I
 2010-07-03-1902-07S.COL___118                                                 6
 STAT SP IPHASW D HRMM SECON CODA AMPLIT PERI AZIMU VELO AIN AR TRES W  DIS CAZ7
 BAR2 SZ IP       19 4 25.56                             170     0.010   24 214 
 BAR2 SZ ES   1   19 4 40.45                             170     0.2 7   24 214 
 BRR  HZ IP     C 19 4 27.49                             148    -0.210   81 297 
 BRR  HZ I        19 4 27.84        31.5 0.09                            81 297 
 BRR  HN ES   1   19 4 44.35                             148     0.2 7   81 297 
 RUS  HZ EP       19 4 29.48                             143     0.010   97 181 
 RUS  HZ I        19 4 30.19         8.1 0.28                            97 181 
 RUS  HN ES   2   19 4 47.04                             143    -0.3 5   97 181 
 BRI  SZ EP       19 4 30.27                             140     0.310  108  16 
 BRI  SZ ES   2   19 4 48.59                             140     0.5 5  108  16 
 BRI  SZ I        19 4 53.43        10.7 0.60                           108  16 
 GUE  SZ EP       19 4 30.44                             138    -0.510  118   7 
 GUE  SZ ES   2   19 4 49.06                             138    -0.7 5  118   7 
 GRA  SZ EP       19 4 31.68                             135     0.310  126  13 
 GRA  SZ ES   1   19 4 50.35                             135    -0.3 7  126  13 
 OCA  SZ EP   2   19 4 35.16                             127     0.3 5  165 350 
 OCA  SZ I        19 5  0.97        12.4 0.17                           165 350 
 HEL  HZ EP   1   19 4 47.67                             113     0.2 6  281 257 
 HEL  HN ES   3   19 5 18.71                             113    -0.6 2  281 257 
 HEL  HZ I        19 5 24.50         7.9 0.34                           281 257 
                                                                                
