 2012  8 3 1008 52.9 L   6.785 -73.137148.0  RSN 11 0.4 2.1LRSN                1
 GAP=138        0.80       3.5     5.2  5.7 -0.1221E+01  0.1171E+02  0.1321E+01E
 Epicentro: LOS SANTOS - SANTANDER                                             3
 ACTION:UPD 12-09-10 11:54 OP:ep   STATUS:               ID:20120803100852 L   I
 2012-08-03-1007-50M.COL___198                                                 6
 STAT SP IPHASW D HRMM SECON CODA AMPLIT PERI AZIMU VELO AIN AR TRES W  DIS CAZ7
 BAR2 SZ IP       10 9 12.83                             171    0.0310 21.9 193 
 BAR2 SZ ES   1   10 9 28.37                             171    0.07 7 21.9 193 
 BAR2 SZ I        10 9 29.70        29.9 0.28                          21.9 193 
 BRR  HZ IP     C 10 9 14.84                             152    0.4310 72.9 299 
 BRR  HZ I        10 9 15.10        68.5 0.28                          72.9 299 
 BRR  HN ES   1   10 9 31.66                             152    0.49 7 72.9 299 
 PAM  SZ EP       10 9 15.80                             151    0.3810 78.1  38 
 PAM  SZ I        10 9 16.03        13.9 0.38                          78.1  38 
 PAM  SN ES   1   10 9 33.07                             151    0.10 7 78.1  38 
 RUS  HZ EP       10 9 16.71                             145   -0.0610 98.8 177 
 RUS  HN ES   1   10 9 34.92                             145   -0.45 7 98.8 177 
 RUS  HZ I        10 9 36.26        16.0 0.52                          98.8 177 
 PTB  HZ EP       10 9 19.54                             132   -0.60 9  148 260 
 PTB  HZ I        10 9 42.96        13.0 0.16                           148 260 
 OCA  HZ EP       10 9 20.94                             130   -0.64 9  162 353 
 OCA  HN ES   2   10 9 43.05                             130   -0.88 5  162 353 
 OCA  HZ I        10 9 49.22        24.8 0.30                           162 353 
 ZAR  HZ EP       10 9 25.77                             123    0.09 8  206 292 
 ZAR  HN ES   2   10 9 51.30                             123    0.07 4  206 292 
 ZAR  HZ I        10 9 57.08        21.1 0.34                           206 292 
 NOR  SZ EP       10 9 28.99                             119    0.22 8  235 235 
 CHI  HZ EP   3   10 9 31.59                             118    0.99 2  247 195 
 CHI  HE ES   2   10 9 59.91                             118   -0.08 4  247 195 
 CHI  HZ I        1010  4.89         3.4 0.34                           247 195 
 HEL  HZ EP   2   10 9 34.14                             115    0.82 4  273 256 
 HEL  HN ES   3   1010  3.38                             115   -1.44 2  273 256 
 HEL  HZ I        1010 11.90         6.2 0.58                           273 256 
 PRA  HZ EP       10 9 46.57                             107    0.16 6  391 210 
 PRA  HN ES   2   1010 27.94                             107   -0.19 3  391 210 
 PRA  HZ I        1010 33.03         3.2 0.22                           391 210 
                                                                                
