 2010  6 3 1049 53.9 L   6.032 -73.701116.9  RSN  5 0.5 1.8LRSN                1
 GAP=139        1.07       5.8     5.7 13.2 -0.1961E+02  0.3284E+02 -0.1596E+02E
 Epicentro: BOLIVAR - SANTANDER                                                3
 ACTION:UP  10-08-24 10:08 OP:vdl  STATUS:               ID:20100603104953 L   I
 2010-06-03-1044-33S.COL___109                                                 6
 STAT SP IPHASW D HRMM SECON CODA AMPLIT PERI AZIMU VELO SNR AR TRES W  DIS CAZ7
 BAR2 SZ EP       1050 13.25                             142     0.010   84  43 
 BAR2 SZ ES       1050 28.33                             142     0.010   84  43 
 CHI  HN ES   1   1050 39.91                             123    -0.3 7  155 181 
 CHI  HZ I        1050 42.38        10.9 0.96                           155 181 
 HEL  HZ EP   1   1050 23.84                             115    -1.1 6  203 275 
 HEL  HN ES       1050 49.21                             115     0.0 9  203 275 
 HEL  HZ I        1050 54.88         5.0 0.81                           203 275 
 GUE  SZ EP       1050 26.83                             114     0.4 8  217  23 
 GUE  SZ ES   1   1050 51.60                             114    -0.2 6  217  23 
 RREF BN ES       1050 53.99                             113     0.6 8  221 236 
 RREF BZ I        1050 57.75         4.6 0.16                           221 236 
                                                                                
