 2013  7 3 1734 26.8 L   6.786 -73.153146.2  RSN  6 0.3 1.8LRSN                1
 GAP=136        0.72       3.6     3.2  4.9  0.1217E+01  0.3888E+01 -0.7563E+00E
 Epicentro: LOS SANTOS - SANTANDER                                             3
 ACTION:UPD 13-08-12 10:35 OP:ep   STATUS:               ID:20130703173426 L   I
 OLDACT:REG 13-07-03 14:18 OP:jn   STATUS:               ID:20130703172959     3
 2013-07-03-1729-59M.COL___266                                                 6
 STAT SP IPHASW D HRMM SECON CODA AMPLIT PERI AZIMU VELO AIN AR TRES W  DIS CAZ7
 BAR2 SZ EP       1734 46.41                             171   -0.0310 21.7 188 
 BAR2 SZ ES       1735  1.52                             171   -0.2610 21.7 188 
 BAR2 SZ I        1735  3.09        12.3 0.26            174           21.7 188 
 BRR  HZ IP     D 1734 48.41                             153    0.4210 71.2 300 
 BRR  HN ES       1735  4.99                             153    0.4710 71.2 300 
 BRR  HZ I        1735  8.06        21.7 0.30            151           71.2 300 
 PAM  SZ IP     D 1734 49.32                             150    0.1610 79.1  39 
 PAM  SN ES       1735  6.27                             150   -0.3410 79.1  39 
 PAM  SZ I        1735 10.51         5.6 0.48            151           79.1  39 
 RUS  HZ EP       1734 50.67                             144    0.1910 99.1 175 
 RUS  HN ES       1735  8.99                             144    0.0310 99.1 175 
 RUS  HZ I        1735 10.02         7.4 0.34            149           99.1 175 
 PTB  HZ EP       1734 53.44                             132   -0.25 9  147 259 
 PTB  HN ES       1735 14.53                             132   -0.15 9  147 259 
 PTB  HZ I        1735 16.51        12.6 0.12            134            147 259 
 ZAR  HZ EP       1734 58.88                             122   -0.36 9  204 293 
 ZAR  HE ES       1735 24.52                             122   -0.04 9  204 293 
 ZAR  HZ I        1735 31.49        11.3 0.34            124            204 293 
                                                                                
