 2017 10 3 1154 10.5 L   6.747 -73.150149.6  RSN  4 0.1 1.4LRSN                1
 GAP=162        0.38       3.0     5.7  3.7 -0.1131E+02  0.2533E+01 -0.6911E+00E
 Epicentro: LOS SANTOS - SANTANDER                                             3
 ACTION:UPD 17-11-07 19:27 OP:rebc STATUS:               ID:20171003115410 L   I
 OLDACT:REG 17-10-03 20:45 OP:osc  STATUS:               ID:20171003114200     3
 2017-10-03-1148-00M.COL___431                                                 6
 STAT SP IPHASW D HRMM SECON CODA AMPLIT PERI AZIMU VELO AIN AR TRES W  DIS CAZ7
 BAR2 EZ ES       1154 46.17                             173    0.0910 17.4 192 
 PAM  EZ EP       1154 33.57                             150    0.1510 82.3  37 
 PAM  EN ES       1154 51.17                             150   -0.1310 82.3  37 
 PAM  EZ I        1154 52.45         4.6 0.20            150           82.3  37 
 RUS  HZ EP       1154 34.11                             146   -0.1110 94.7 175 
 RUS  HN ES       1154 52.74                             146    0.0110 94.7 175 
 RUS  HZ I        1154 54.56         4.7 0.22            146           94.7 175 
 NOR  HE ES   2   1155 13.68                             120   -0.10 4  231 236 
                                                                                
