 2016  1 3 1325  2.5 L   6.671 -73.265129.2  RSN  4 0.2 1.3LRSN                1
 GAP=196        0.37       6.8     5.1  7.0  0.2203E+02  0.9750E+01 -0.1972E+01E
 Epicentro: GALAN - SANTANDER                                                  3
 ACTION:UPD 16-03-09 23:22 OP:cam  STATUS:               ID:20160103132502 L   I
 OLDACT:REG 16-01-03 20:18 OP:dnl  STATUS:               ID:20160103131746     3
 2016-01-03-1317-46M.COL___314                                                 6
 STAT SP IPHASW D HRMM SECON CODA AMPLIT PERI AZIMU VELO AIN AR TRES W  DIS CAZ7
 BAR2 EZ EP   2   1325 19.81                             174   -0.14 5 12.6 134 
 BAR2 EZ ES   2   1325 33.78                             174    0.22 5 12.6 134 
 BAR2 EZ I        1325 37.14         3.4 0.26            174           12.6 134 
 RUS  HZ EP   2   1325 23.92                             144    0.18 5 88.4 167 
 RUS  HE ES   2   1325 40.02                             144   -0.29 5 88.4 167 
 RUS  HZ I        1325 43.16         2.9 0.28            150           88.4 167 
 PTB  HZ EP   2   1325 26.89                             131    0.15 5  133 264 
 PTB  HN ES   2   1325 45.77                             131    0.12 5  133 264 
 PTB  HZ I        1325 51.26         2.9 0.24            133            133 264 
 ZAR  HE ES   2   1325 57.02                             119   -0.28 4  198 297 
 ZAR  HZ I        1326  4.01         4.1 0.32            122            198 297 
                                                                                
