 2013  3 3 1932 27.9 L   5.866 -73.790105.5  RSN  4 0.3 1.3LRSN                1
 GAP=227        0.59       5.1     3.7  7.8  0.6033E+01 -0.1314E+01 -0.8456E+01E
 Epicentro: JESUS MARIA - SANTANDER                                            3
 ACTION:UPD 13-04-09 13:59 OP:ep   STATUS:               ID:20130303193227 L   I
 2013-03-03-1930-00M.COL___228                                                 6
 STAT SP IPHASW D HRMM SECON CODA AMPLIT PERI AZIMU VELO AIN AR TRES W  DIS CAZ7
 RUS  HZ EP   1   1932 46.08                             141   -0.05 7 78.3  88 
 RUS  HN ES   1   1933  0.31                             141   -0.02 7 78.3  88 
 PTB  HZ EP   1   1932 47.42                             131   -0.29 7  105 315 
 PTB  HN ES   1   1933  3.51                             131    0.37 7  105 315 
 PTB  HZ I        1933  4.87         3.6 0.30            127            105 315 
 BRR  HZ EP   1   1932 50.60                             123   -0.27 7  137   4 
 BRR  HN ES   1   1933  8.50                             123   -0.27 7  137   4 
 BRR  HZ I        1933 19.97         3.7 0.50            118            137   4 
 PAM  SZ EP   1   1932 59.16                             112    0.59 6  203  36 
 PAM  SN ES   1   1933 22.53                             112    0.06 6  203  36 
 PAM  SZ I        1933 27.76         2.7 0.58            111            203  36 
                                                                                
