 2013  1 3 1749  9.2 L   6.823 -73.107143.4  RSN 16 0.5 2.8LRSN 3.1WRSN        1
 SPEC AVERAGE  MO 13.8 ST 10.6 OM  2.1 f0 4.77 R0.3227 AL 2.35 WI 25.8 MW  3.1 3
 SPEC SD       MO  0.2 ST  5.2 OM  0.2 f0 1.02 R0.0706 AL      WI      MW  0.1 3
 GAP= 72        0.94       3.2     3.3  5.9 -0.9462E+00  0.8874E+00  0.3720E+01E
 Epicentro: LOS SANTOS - SANTANDER                                             3
 SPEC ZAR HH Z MO 13.8 ST  8.4 OM  2.0 f0 4.60 R0.3196 AL 1.72 WI 22.0 MW  3.1 3
 SPEC ZAR HH Z T1750 5 K 0.000 GD  251 VS 4.20 DE 3.20 Q0300.0 QA 0.60 VS 4.20 3
 SPEC RREFHH Z MO 13.8 ST 11.0 OM  1.9 f0 4.83 R0.3043 AL 3.76 WI 40.6 MW  3.2 3
 SPEC RREFHH Z T175021 K 0.000 GD  357 VS 4.20 DE 3.20 Q0300.0 QA 0.60 VS 4.20 3
 SPEC VIL SH Z MO 14.0 ST  7.5 OM  2.1 f0 3.71 R0.3962 AL 3.17 WI 33.4 MW  3.3 3
 SPEC VIL SH Z T175022 K 0.000 GD  338 VS 4.20 DE 3.20 Q0300.0 QA 0.60 VS 4.20 3
 SPEC URE HH Z MO 13.6 ST 16.5 OM  1.7 f0 6.68 R0.2201 AL 1.18 WI 23.7 MW  3.0 3
 SPEC URE HH Z T175016 K 0.000 GD  320 VS 4.20 DE 3.20 Q0300.0 QA 0.60 VS 4.20 3
 SPEC RUS HH Z MO 13.6 ST  2.6 OM  2.0 f0 3.49 R0.4212 AL 2.26 WI 20.8 MW  3.0 3
 SPEC RUS HH Z T174945 K 0.000 GD  176 VS 4.20 DE 3.20 Q0300.0 QA 0.60 VS 4.20 3
 SPEC ROSCBH Z MO 14.0 ST 12.8 OM  2.1 f0 4.65 R0.3161 AL 3.32 WI 29.0 MW  3.3 3
 SPEC ROSCBH Z T175015 K 0.000 GD  294 VS 4.20 DE 3.20 Q0300.0 QA 0.60 VS 4.20 3
 SPEC NOR HH Z MO 13.8 ST 13.9 OM  2.0 f0 5.25 R0.2800 AL 1.17 WI 22.8 MW  3.2 3
 SPEC NOR HH Z T175010 K 0.000 GD  279 VS 4.20 DE 3.20 Q0300.0 QA 0.60 VS 4.20 3
 SPEC OCA HH Z MO 13.7 ST 12.3 OM  2.0 f0 5.51 R0.2668 AL 3.23 WI 27.4 MW  3.1 3
 SPEC OCA HH Z T174954 K 0.000 GD  213 VS 4.20 DE 3.20 Q0300.0 QA 0.60 VS 4.20 3
 SPEC PTB HH Z MO 13.7 ST 16.6 OM  2.0 f0 6.14 R0.2394 AL 1.98 WI 23.1 MW  3.1 3
 SPEC PTB HH Z T174953 K 0.000 GD  208 VS 4.20 DE 3.20 Q0300.0 QA 0.60 VS 4.20 3
 SPEC ANILHH Z MO 14.0 ST  9.8 OM  2.0 f0 4.18 R0.3517 AL 2.92 WI 34.7 MW  3.3 3
 SPEC ANILHH Z T175031 K 0.000 GD  389 VS 4.20 DE 3.20 Q0300.0 QA 0.60 VS 4.20 3
 SPEC HEL HH Z MO 13.9 ST  4.9 OM  2.0 f0 3.58 R0.4106 AL 1.94 WI 33.2 MW  3.2 3
 SPEC HEL HH Z T175016 K 0.000 GD  311 VS 4.20 DE 3.20 Q0300.0 QA 0.60 VS 4.20 3
 SPEC CHI HH Z MO 13.7 ST  2.2 OM  1.8 f0 3.25 R0.4523 AL 2.14 WI 20.6 MW  3.0 3
 SPEC CHI HH Z T175011 K 0.000 GD  289 VS 4.20 DE 3.20 Q0300.0 QA 0.60 VS 4.20 3
 SPEC BRR HH Z MO 13.5 ST  9.1 OM  1.9 f0 5.91 R0.2487 AL 1.06 WI 18.4 MW  2.9 3
 SPEC BRR HH Z T174944 K 0.000 GD  161 VS 4.20 DE 3.20 Q0300.0 QA 0.60 VS 4.20 3
 SPEC BAR2SH Z MO 14.1 ST 20.6 OM  2.5 f0 5.06 R0.2905 AL 3.10 WI 11.0 MW  3.3 3
 SPEC BAR2SH Z T174943 K 0.000 GD  145 VS 4.20 DE 3.20 Q0300.0 QA 0.60 VS 4.20 3
 ACTION:UPD 13-02-15 09:11 OP:ep   STATUS:               ID:20130103174909 L   I
 2013-01-03-1747-50M.COL___223                                                 6
 STAT SP IPHASW D HRMM SECON CODA AMPLIT PERI AZIMU VELO AIN AR TRES W  DIS CAZ7
 BAR2 SZ EP       1749 28.51                             169   -0.1010 26.8 198 
 BAR2 SZ ES   1   1749 43.44                             169   -0.32 7 26.8 198 
 BAR2 SZ I        1749 45.17       233.8 0.20            169           26.8 198 
 BRR  HZ EP       1749 30.34                             151    0.1010 73.9 295 
 BRR  HE ES   1   1749 47.58                             151    0.92 7 73.9 295 
 BRR  HZ I        1749 50.16        67.5 0.32            149           73.9 295 
 RUS  HZ EP       1749 32.45                             143   -0.4310  103 179 
 RUS  HN ES   1   1749 51.17                             143   -0.19 7  103 179 
 RUS  HZ I        1749 52.34        87.1 0.24            139            103 179 
 PTB  HZ EP   4   1749 35.17                             131   -1.22 0  152 258 
 PTB  HE ES   1   1749 57.05                             131   -0.57 7  152 258 
 PTB  HZ I        1749 58.27        76.1 0.14            127            152 258 
 TAM  HZ IP     C 1749 36.86                             131    0.50 9  152 106 
 TAM  HN ES   1   1749 58.28                             131    0.73 7  152 106 
 TAM  HZ I        1749 59.22        29.3 0.30            126            152 106 
 OCA  HZ EP   1   1749 37.48                             129    0.35 7  158 351 
 OCA  HN ES   1   1749 58.55                             129   -0.38 7  158 351 
 OCA  HZ I        1750  4.00        40.5 0.32            125            158 351 
 ZAR  HZ EP   1   1749 40.93                             121   -0.86 6  207 291 
 ZAR  HN ES   1   1750  7.01                             121   -0.22 6  207 291 
 ZAR  HZ I        1750 17.02        58.5 0.26            118            207 291 
 CTAB SZ EP       1749 45.93                             118    0.67 8  234 211 
 NOR  HZ EP   4   1749 44.70                             117   -0.61 0  240 235 
 NOR  HE ES   4   1750 12.22                             117   -1.27 0  240 235 
 NOR  HZ I        1750 17.19        53.5 0.42            114            240 235 
 CHI  HZ EP       1749 46.67                             116   -0.47 8  252 196 
 CHI  HN ES   1   1750 16.20                             116   -0.55 6  252 196 
 CHI  HZ I        1750 21.55        27.8 0.28            113            252 196 
 ROSC BZ EP   1   1749 48.20                             116    0.54 6  257 212 
 ROSC BN ES   1   1750 17.18                             116   -0.49 6  257 212 
 ROSC BZ I        1750 23.95        58.6 0.55            112            257 212 
 HEL  HZ EP   1   1749 49.75                             114   -0.06 6  277 256 
 HEL  HN ES   1   1750 21.94                             114    0.44 6  277 256 
 HEL  HZ I        1750 28.91        42.0 0.28            111            277 256 
 URE  HZ EP   4   1749 48.46                             113   -2.02 0  287 291 
 URE  HN ES   4   1750 19.40                             113   -3.30 0  287 291 
 VIL  SZ EP   1   1749 52.09                             111   -0.79 5  307 192 
 VIL  SE ES   1   1750 27.06                             111    0.10 5  307 192 
 VIL  SZ I        1750 35.32        35.4 0.42            108            307 192 
 RREF HZ EP   1   1749 56.26                             110    0.47 5  327 230 
 RREF HN ES   1   1750 32.18                             110    0.05 5  327 230 
 RREF HZ I        1750 40.54        44.1 0.30            107            327 230 
 DBB  SZ EP   4   1749 55.67                             109   -1.37 0  344 274 
 DBB  SZ ES   4   1750 31.31                             109   -3.05 0  344 274 
 MON  HZ EP   4   1749 55.59                             108   -2.72 0  355 308 
 MON  HN ES   4   1750 33.93                             108   -2.69 0  355 308 
 SDV  BZ EP   2   1749 58.00                             108   -0.57 3  355  50 
 SDV  BN ES   1   1750 36.35                             108   -0.73 5  355  50 
 ANIL HZ EP   1   1750  0.09                             108    0.63 5  362 225 
 ANIL HE ES   1   1750 39.45                             108    0.78 5  362 225 
 ANIL HZ I        1750 42.75        30.9 0.32            105            362 225 
 SJC  HN ES   4   1750 43.77                             105   -4.23 0  409 326 
                                                                                
