 2015  9 3 1425 12.5 L   6.843 -73.430114.5  RSN  8 0.5 1.5LRSN                1
 GAP= 80        1.10       3.5     3.6  6.6  0.2170E+00  0.7326E+01 -0.2135E+01E
 Epicentro: SAN VICENTE DE CHUCURI - SANTANDER                                 3
 ACTION:UPD 15-10-28 16:23 OP:cam  STATUS:               ID:20150903142512 L   I
 OLDACT:REG 15-09-03 21:26 OP:ak   STATUS:               ID:20150903141748     3
 2015-09-03-1417-48M.COL___343                                                 6
 STAT SP IPHASW D HRMM SECON CODA AMPLIT PERI AZIMU VELO AIN AR TRES W  DIS CAZ7
 BAR2 EZ IP     D 1425 29.10                             160    0.2010 39.0 135 
 BAR2 EZ ES       1425 42.13                             160    0.4310 39.0 135 
 BAR2 EZ I        1425 43.36         6.9 0.12            163           39.0 135 
 BRR  HZ EP       1425 29.15                             158    0.4410 42.7 313 
 BRR  HN ES       1425 40.79                             158   -0.5810 42.7 313 
 PAM  EZ EP       1425 32.94                             137   -0.1110 97.6  56 
 PAM  EN ES       1425 49.23                             137    0.1310 97.6  56 
 PAM  EZ I        1425 51.10         7.0 0.18            139           97.6  56 
 RUS  HZ EP       1425 34.37                             133    0.0710  112 160 
 RUS  HN ES       1425 51.15                             133   -0.1610  112 160 
 RUS  HZ I        1425 52.57         5.2 0.26            136            112 160 
 PTB  HZ EP       1425 33.64                             131   -0.6010  118 254 
 PTB  HN ES       1425 50.70                             131   -0.5110  118 254 
 PTB  HZ I        1425 52.74         4.3 0.16            132            118 254 
 ZAR  HZ EP   1   1425 40.40                             119    0.64 7  173 295 
 ZAR  HN ES       1426  1.76                             119    0.73 9  173 295 
 ZAR  HZ I        1426  6.00         4.5 0.11            120            173 295 
 SML  HZ EP       1425 45.19                             112   -0.56 8  228 342 
 SML  HN ES       1426 11.65                             112   -0.05 8  228 342 
 SML  HZ I        1426 15.52         7.9 0.08            113            228 342 
 GUY2CHZ EP   1   1425 51.60                             107   -0.67 6  279 230 
 GUY2CHE ES       1426 23.98                             107    0.68 7  279 230 
 GUY2CHZ I        1426 35.71         2.5 0.73                           279 230 
                                                                                
