 2010 11 3 1622 10.8 L   6.797 -73.079137.7  RSN  5 0.2 1.5LRSN                1
 GAP=166        0.44       2.5     7.0  4.8 -0.5753E+01  0.2494E+01 -0.3675E+01E
 Epicentro: LOS SANTOS - SANTANDER                                             3
 ACTION:UP  10-12-17 16:50 OP:REBC STATUS:               ID:20101103162210 L   I
 2010-11-03-1619-16S.COL___128                                                 6
 STAT SP IPHASW D HRMM SECON CODA AMPLIT PERI AZIMU VELO SNR AR TRES W  DIS CAZ7
 BAR2 SZ EP       1622 29.50                             169     0.010   25 207 
 BAR2 SZ ES   1   1622 43.93                             169    -0.2 7   25 207 
 BRR  HZ EP       1622 31.64                             149     0.110   78 296 
 RUS  HZ EP       1622 33.67                             142    -0.110  100 180 
 RUS  HZ I        1622 34.81         4.7 0.19                           100 180 
 RUS  HE ES   1   1622 51.87                             142     0.2 7  100 180 
 GUE  SZ EP   1   1622 34.48                             138    -0.2 7  116   8 
 GRA  SZ EP       1622 35.29                             136     0.110  124  14 
 GRA  SZ ES   1   1622 54.39                             136     0.1 7  124  14 
 GRA  SZ I        1622 55.84         6.3 0.12                           124  14 
                                                                                
