 2011 11 3 1750 49.1 L   6.766 -73.125143.8  RSN  4 0.1 1.8LRSN                1
 GAP=141        0.35       2.8     4.6  4.0  0.5076E+01 -0.7640E+01 -0.3493E+01E
 Epicentro: LOS SANTOS - SANTANDER                                             3
 ACTION:UPD 12-07-13 16:07 OP:ep   STATUS:               ID:20111103175048 L   I
 2011-11-03-1748-12S.COL___176                                                 6
 STAT SP IPHASW D HRMM SECON CODA AMPLIT PERI AZIMU VELO AIN AR TRES W  DIS CAZ7
 BAR2 SZ EP       1751  8.27                             172   -0.1710 20.2 198 
 BAR2 SZ ES   1   1751 23.42                             172   -0.10 7 20.2 198 
 BAR2 SZ I        1751 26.93        15.4 0.16                          20.2 198 
 BRR  HZ EP       1751 10.27                             151    0.0110 75.0 300 
 BRR  HN ES   1   1751 26.84                             151    0.07 7 75.0 300 
 BRR  HZ I        1751 31.69        19.3 0.14                          75.0 300 
 PAM  SZ EP       1751 11.29                             150    0.0810 79.0  37 
 RUS  HZ EP       1751 12.40                             145    0.0210 96.7 177 
 RUS  HN ES   1   1751 30.67                             145    0.13 7 96.7 177 
 RUS  HZ I        1751 32.38         7.5 0.44                          96.7 177 
                                                                                
