 2010 10 3 1141  3.0 L   6.771 -73.116149.3  RSN 15 0.3 2.2LRSN                1
 GAP=138        0.46       2.0     3.0  3.9 -0.1503E+01  0.1041E+01  0.1262E+01E
 Epicentro: LOS SANTOS - SANTANDER                                             3
 ACTION:UP  11-02-18 11:07 OP:tino STATUS:               ID:20101003114103 L   I
 2010-10-03-1138-11S.COL___122                                                 6
 STAT SP IPHASW D HRMM SECON CODA AMPLIT PERI AZIMU VELO SNR AR TRES W  DIS CAZ7
 BAR2 SZ IP       1141 22.85                             172    -0.110   21 201 
 BAR2 SZ I        1141 23.14        37.9 0.24                            21 201 
 BAR2 SZ ES   2   1141 38.73                             172     0.1 5   21 201 
 BRR  HZ IP     D 1141 24.89                             151     0.110   76 299 
 BRR  HE ES   1   1141 41.94                             151     0.2 7   76 299 
 BRR  HZ I        1141 43.23        53.2 0.11                            76 299 
 RUS  HZ EP       1141 26.66                             145    -0.210   97 178 
 RUS  HZ I        1141 27.85        16.3 0.16                            97 178 
 RUS  HE ES   2   1141 45.21                             145    -0.2 5   97 178 
 GUE  SZ EP       1141 28.25                             139     0.010  119  10 
 GRA  SZ EP   1   1141 28.77                             137     0.1 7  128  16 
 GRA  SZ ES   1   1141 48.56                             137    -0.2 7  128  16 
 GRA  SZ I        1141 49.85        22.3 0.31                           128  16 
 OCA  SZ EP   1   1141 31.85                             130     0.0 7  164 352 
 OCA  SZ I        1141 57.86        19.1 0.32                           164 352 
 YOP  SZ EP   2   1141 33.10                             128     0.2 4  175 154 
 YOP  SN ES   2   1141 56.75                             128     0.6 4  175 154 
 NOR  SZ EP   2   1141 38.86                             119    -0.2 4  236 236 
 NOR  SE ES   2   1142  7.03                             119    -0.1 4  236 236 
 CHI  HZ EP   1   1141 40.71                             118     0.1 6  246 196 
 CHI  HN ES   2   1142  9.53                             118    -0.5 4  246 196 
 CHI  HZ I        1142 14.08         7.2 0.50                           246 196 
 ROSC BZ EP   2   1141 40.67                             117    -0.5 4  252 212 
 ROSC BE ES   2   1142 10.96                             117     0.0 4  252 212 
 ROSC BZ I        1142 20.25        11.5 0.33                           252 212 
 HEL  HZ EP   2   1141 43.95                             115     0.3 4  274 257 
 HEL  HN ES   2   1142 15.29                             115    -0.1 4  274 257 
 HEL  HZ I        1142 21.99         9.4 0.40                           274 257 
 RREF HZ EP   2   1141 49.94                             111     0.6 3  322 230 
 RREF HN ES   2   1142 25.11                             111    -0.4 3  322 230 
 RREF HZ I        1142 32.16        12.6 0.28                           322 230 
 DBB  SZ EP   2   1141 50.92                             110    -0.1 3  343 275 
 TOL  SZ EP   2   1141 52.32                             110     0.9 3  344 225 
 PRA  HZ EP   2   1141 56.36                             107    -0.1 3  391 210 
                                                                                
