 2016  9 3 1402 10.8 L   6.873 -73.292123.9  RSN 11 0.4 1.7LRSN                1
 GAP=107        0.98       2.6     3.9  5.5 -0.6343E+00  0.5150E+01 -0.3323E+00E
 Epicentro: BETULIA - SANTANDER                                                3
 ACTION:UPD 17-08-17 21:06 OP:lp   STATUS:               ID:20160903140210 L   I
 OLDACT:UP  16-09-04 00:01 OP:edw  STATUS:               ID:20160903135733     3
 OLDACT:UP  16-09-03 23:59 OP:edw  STATUS:               ID:20160903135733     3
 OLDACT:REG 16-09-03 20:23 OP:edw  STATUS:               ID:20160903135733     3
 2016-09-03-1358-00M.COL___358                                                 6
 STAT SP IPHASW D HRMM SECON CODA AMPLIT PERI AZIMU VELO AIN AR TRES W  DIS CAZ7
 BAR2 EZ EP     C 14 2 27.93                             164   -0.2010 33.3 159 
 BAR2 EZ ES       14 2 41.18                             164   -0.4410 33.3 159 
 BRR  HZ EP     C 14 2 28.32                             155   -0.3010 53.2 299 
 BRR  HN ES       14 2 42.38                             155   -0.1110 53.2 299 
 PAM  EZ EP       14 2 31.41                             144    0.2210 83.3  52 
 PAM  EN ES       14 2 48.12                             144    1.0610 83.3  52 
 PAM  EZ I        14 2 49.61        14.7 0.28            146           83.3  52 
 RUS  HZ EP       14 2 33.14                             136   -0.2110  111 168 
 RUS  HN ES       14 2 50.76                             136   -0.1610  111 168 
 RUS  HZ I        14 2 51.61         9.5 0.28            135            111 168 
 PTB  HZ EP   4   14 2 33.24                             129   -1.54 0  134 254 
 PTB  HN ES   4   14 2 50.69                             129   -2.77 0  134 254 
 PTB  HZ I        14 2 55.15         8.8 0.24            128            134 254 
 OCA  HZ EP       14 2 36.44                             126   -0.18 9  151 359 
 OCA  HN ES       14 2 56.20                             126   -0.54 9  151 359 
 ZAR  HZ EP       14 2 40.48                             120    0.46 9  186 292 
 ZAR  HN ES       14 3  3.15                             120    0.36 9  186 292 
 ZAR  HZ I        14 3  6.46        11.5 0.32            119            186 292 
 NOR  HZ EP   4   14 2 46.15                             114    1.64 0  227 230 
 NOR  HN ES       14 3 10.87                             114    0.09 8  227 230 
 NOR  HZ I        14 3 14.08         2.8 0.08            114            227 230 
 CHI  HZ EP       14 2 47.99                             112    0.10 8  253 191 
 CHI  HN ES       14 3 17.01                             112    0.22 8  253 191 
 CHI  HZ I        14 3 23.95         3.0 0.19            111            253 191 
 GUY2CHZ EP   4   14 2 54.29                             108    1.71 0  293 232 
 GUY2CHN ES   4   14 3 28.03                             108    2.88 0  293 232 
 GUY2CHZ I        14 3 30.37         2.1 0.30                           293 232 
 SOCV BZ EP   4   14 2 51.16                             107   -2.92 0  311  60 
 SOCV BN ES   4   14 3 26.16                             107   -1.65 0  311  60 
 CRJC HZ EP       14 3 11.74                             100   -0.25 5  461   6 
 CRJC HN ES       14 3 59.38                             100   -0.31 5  461   6 
                                                                                
