 2010 10 3 1213  3.3 L   6.800 -73.122145.5  RSN 17 0.4 3.0LRSN                1
 GAP=138        0.78       2.7     4.1  5.6 -0.3013E+01  0.2341E+01  0.2843E+01E
 Epicentro: LOS SANTOS - SANTANDER                                             3
 ACTION:UP  11-02-18 11:07 OP:tino STATUS:               ID:20101003121303 L   I
 2010-10-03-1212-02S.COL___126                                                 6
 STAT SP IPHASW D HRMM SECON CODA AMPLIT PERI AZIMU VELO SNR AR TRES W  DIS CAZ7
 BAR2 SZ IP       1213 22.94                             170     0.010   24 196 
 BAR2 SZ ES   2   1213 37.82                             170    -0.4 5   24 196 
 BAR2 SZ I        1213 39.55       410.3 0.28                            24 196 
 BRR  HZ IP     C 1213 24.79                             152     0.210   74 298 
 BRR  HE ES   1   1213 41.66                             152     0.5 7   74 298 
 BRR  HZ I        1213 45.72       186.2 0.26                            74 298 
 RUS  HZ IP     C 1213 26.85                             144    -0.210  100 178 
 RUS  HE ES   1   1213 45.50                             144     0.0 7  100 178 
 RUS  HZ I        1213 46.77        86.3 0.30                           100 178 
 GUE  SZ EP       1213 27.92                             139     0.010  116  11 
 GRA  SZ IP       1213 28.68                             137     0.210  125  16 
 GRA  SZ ES   2   1213 47.39                             137    -0.7 5  125  16 
 GRA  SZ I        1213 49.59        89.7 0.35                           125  16 
 OCA  SZ EP   1   1213 31.18                             129    -0.4 7  161 352 
 OCA  SZ ES   2   1213 53.56                             129    -0.1 5  161 352 
 OCA  SZ I        1214  0.25        74.3 0.32                           161 352 
 YOP  SZ IP     C 1213 33.56                             126     0.3 9  178 154 
 YOP  SE ES   2   1213 56.55                             126     0.0 4  178 154 
 NOR  SZ EP   1   1213 38.80                             118    -0.5 6  237 235 
 NOR  SN ES   1   1214  6.33                             118    -1.0 6  237 235 
 CHI  HZ EP       1213 40.96                             117    -0.1 8  249 196 
 CHI  HE ES   1   1214 10.48                             117     0.0 6  249 196 
 CHI  HZ I        1214 20.40        49.1 0.61                           249 196 
 ROSC BE ES   2   1214 10.46                             116    -0.9 4  254 212 
 ROSC BZ I        1214 17.81        76.9 0.65                           254 212 
 CVER SZ EP   2   1213 44.28                             115     0.5 4  273 203 
 CVER SZ I        1213 45.95        97.6 0.36                           273 203 
 HEL  HZ EP   2   1213 44.00                             114     0.2 4  275 256 
 HEL  HE ES   2   1214 15.38                             114     0.0 4  275 256 
 HEL  HZ I        1214 21.79        59.5 0.48                           275 256 
 RREF HZ EP   2   1213 49.60                             111    -0.1 3  324 230 
 RREF HE ES   2   1214 26.06                             111     0.2 3  324 230 
 RREF HZ I        1214 37.36        56.0 0.30                           324 230 
 DBB  SZ EP   2   1213 50.70                             109    -0.4 3  342 274 
 TOL  SZ EP   1   1213 52.25                             109     0.5 5  345 225 
 ANIL HZ EP   2   1213 53.48                             108     0.2 3  359 225 
 ANIL HE ES       1214 33.11                             108     0.8 6  359 225 
 PRA  HZ EP       1213 56.35                             106    -0.6 6  393 210 
 PRA  HE ES   2   1214 39.07                             106     0.3 3  393 210 
                                                                                
