 2012 10 3 1640 21.1 L   6.876 -72.973136.1  RSN  4 0.1 1.6LRSN                1
 GAP=234        0.32       7.6    10.4  5.9  0.6852E+02 -0.4111E+02 -0.3058E+02E
 Epicentro: CEPITA - SANTANDER                                                 3
 ACTION:UPD 12-11-22 17:01 OP:ep   STATUS:               ID:20121003164021 L   I
 2012-10-03-1640-00M.COL___223                                                 6
 STAT SP IPHASW D HRMM SECON CODA AMPLIT PERI AZIMU VELO AIN AR TRES W  DIS CAZ7
 GIR2 SZ EP   3   1640 39.82                             166    0.14 2 33.1 313 
 BAR2 SZ EP       1640 40.11                             163    0.0910 39.0 216 
 BAR2 SZ ES   1   1640 54.66                             163   -0.11 7 39.0 216 
 BAR2 SZ I        1640 56.47        13.6 0.38                          39.0 216 
 BRR  HZ EP       1640 42.03                             146   -0.1010 85.5 287 
 BRR  HN ES   1   1640 58.64                             146    0.10 7 85.5 287 
 BRR  HN I        1640 59.53        35.5 0.16                          85.5 287 
 RUS  HZ EP   3   1640 44.57                             139   -0.03 2  109 186 
 RUS  HZ I        1640 45.34         1.1 0.16                           109 186 
 RUS  HE ES   2   1641  2.96                             139    0.03 5  109 186 
                                                                                
