 2010  9 3 1942 36.6 L   6.820 -73.160154.9  RSN  5 0.3 1.8LRSN                1
 GAP=157        0.77       5.6    12.2 13.1 -0.1296E+01 -0.4337E+02 -0.7322E-01E
 Epicentro: LOS SANTOS - SANTANDER                                             3
 ACTION:UP  11-02-18 10:59 OP:tino STATUS:               ID:20100903194236 L   I
 2010-09-03-1939-37S.COL___120                                                 6
 STAT SP IPHASW D HRMM SECON CODA AMPLIT PERI AZIMU VELO SNR AR TRES W  DIS CAZ7
 BAR2 SZ EP   2   1942 56.98                             170    -0.4 5   25 186 
 BAR2 SZ I        1942 57.25        13.1 0.39                            25 186 
 BRR  HZ IP     D 1942 58.91                             154     0.310   69 298 
 BRR  HZ I        1942 59.10        16.1 0.15                            69 298 
 BRR  HN ES   2   1943 15.58                             154    -0.2 5   69 298 
 RUS  HZ EP       1943  1.62                             145     0.210  103 175 
 RUS  HZ I        1943  2.38         6.6 0.16                           103 175 
 RUS  HE ES   2   1943 20.42                             145    -0.4 5  103 175 
 GUE  SZ EP       1943  1.72                             142    -0.310  115  13 
 GRA  SZ ES   2   1943 23.43                             139     0.6 5  124  18 
                                                                                
