 2012  9 3 1148 46.6 L   6.800 -73.404123.3  RSN  6 0.5 1.9LRSN                1
 GAP= 96        0.75       5.8     5.9  7.3  0.1458E+02  0.8418E+01  0.5914E+01E
 Epicentro: SAN VICENTE DE CHUCURI - SANTANDER                                 3
 ACTION:UPD 12-10-22 14:16 OP:ep   STATUS:               ID:20120903114846 L   I
 2012-09-03-1140-00M.COL___218                                                 6
 STAT SP IPHASW D HRMM SECON CODA AMPLIT PERI AZIMU VELO AIN AR TRES W  DIS CAZ7
 BAR2 SZ EP       1149  3.86                             164    0.0310 33.6 133 
 BAR2 SZ ES   1   1149 16.98                             164   -0.29 7 33.6 133 
 BAR2 SZ I        1149 18.09       113.6 0.20                          33.6 133 
 GIR2 SZ IP       1149  3.47                             162   -0.4010 38.6  37 
 BRR  HZ EP       1149  4.24                             157    0.1710 48.1 315 
 BRR  HN ES   1   1149 18.13                             157    0.44 7 48.1 315 
 BRR  HZ I        1149 18.98        21.5 0.18                          48.1 315 
 RUS  HZ EP       1149  8.85                             137    0.1610  106 161 
 RUS  HZ I        1149 10.65         2.6 0.12                           106 161 
 RUS  HE ES   1   1149 26.19                             137    0.27 7  106 161 
 PTB  HZ EP       1149  9.13                             133   -0.0810  120 256 
 PTB  HN ES   2   1149 26.02                             133   -0.82 5  120 256 
 ZAR  HN ES   3   1149 38.87                             121    1.90 2  178 296 
                                                                                
