 2015 12 3 1947  7.9 L   6.860 -73.341122.4  RSN  9 0.5 2.0LRSN                1
 GAP=148        1.15       3.4     5.9  6.7  0.1968E+01  0.7748E+01 -0.2708E+01E
 Epicentro: BETULIA - SANTANDER                                                3
 ACTION:UPD 16-02-04 15:02 OP:cam  STATUS:               ID:20151203194707 L   I
 OLDACT:REG 15-12-03 20:46 OP:drio STATUS:               ID:20151203193750     3
 2015-12-03-1937-50M.COL___316                                                 6
 STAT SP IPHASW D HRMM SECON CODA AMPLIT PERI AZIMU VELO AIN AR TRES W  DIS CAZ7
 BAR2 EZ EP     D 1947 25.37                             163    0.3310 34.5 149 
 BAR2 EZ ES       1947 38.22                             163   -0.2010 34.5 149 
 BAR2 EZ I        1947 39.70        53.7 0.34            165           34.5 149 
 BRR  HZ EP       1947 25.73                             157    0.4310 49.2 304 
 BRR  HN ES       1947 39.76                             157    0.8710 49.2 304 
 BRR  HZ I        1947 40.94        22.5 0.14            152           49.2 304 
 RUS  HZ EP       1947 30.47                             135    0.2110  111 165 
 RUS  HN ES       1947 47.33                             135   -0.3910  111 165 
 RUS  HZ I        1947 48.91         8.3 0.20            137            111 165 
 PTB  HZ EP       1947 30.66                             130   -0.5210  128 254 
 PTB  HN ES       1947 48.71                             130   -0.6510  128 254 
 PTB  HZ I        1947 52.74        11.7 0.30            128            128 254 
 OCA  HZ EP       1947 33.47                             125   -0.23 9  152   1 
 OCA  HN ES       1947 53.34                             125   -0.50 9  152   1 
 OCA  HZ I        1947 54.54        42.6 0.30            127            152   1 
 ZAR  HZ EP       1947 37.24                             120    0.74 9  182 293 
 ZAR  HN ES   4   1947 59.99                             120    1.17 0  182 293 
 ZAR  HZ I        1948  7.35        11.5 0.20            119            182 293 
 SML  HZ EP       1947 41.65                             114   -0.03 8  229 339 
 SML  HN ES       1948  7.73                             114   -0.32 8  229 339 
 GUY2CHZ EP   4   1947 50.76                             108    1.78 0  288 231 
 GUY2CHE ES   4   1948 18.72                             108   -2.32 0  288 231 
 GUY2CHZ I        1948 29.11         4.3 0.40                           288 231 
 PRA  HZ EP       1948  0.41                             102    0.22 6  388 206 
 PRA  HE ES       1948 41.07                             102    0.08 6  388 206 
 PRA  HZ I        1948 48.50         2.3 0.24            103            388 206 
                                                                                
