 2010  6 3 1100 44.3 L   7.208 -73.425127.9  RSN  5 0.3 1.8LRSN                1
 GAP=207        0.96       4.3    14.2  8.4 -0.1288E+02  0.4335E+02 -0.1125E+02E
 Epicentro: SABANA DE TORRES - SANTANDER                                       3
 ACTION:UP  10-08-24 10:08 OP:vdl  STATUS:               ID:20100603110044 L   I
 2010-06-03-1054-49S.COL___109                                                 6
 STAT SP IPHASW D HRMM SECON CODA AMPLIT PERI AZIMU VELO SNR AR TRES W  DIS CAZ7
 GIR2 SZ EP       11 1  1.85                             166     0.110   29 119 
 GIR2 SZ ES       11 1 15.71                             166     0.310   29 119 
 BAR2 SZ EP       11 1  4.21                             148     0.210   73 159 
 BAR2 SZ ES       11 1 19.03                             148    -0.310   73 159 
 GUE  SZ EP       11 1  4.49                             143    -0.710   88  39 
 GRA  SZ EP       11 1  6.51                             139     0.610  102  42 
 GRA  SZ ES       11 1 22.75                             139    -0.110  102  42 
 OCA  SZ EP       11 1  6.90                             135    -0.110  115   6 
 OCA  SZ ES       11 1 24.77                             135     0.010  115   6 
 OCA  SZ I        11 1 25.87        11.8 0.75                           115   6 
                                                                                
