 2013  2 3 1046 15.7 L   6.742 -73.159142.9  RSN  5 0.4 1.3LRSN                1
 GAP=137        0.80       4.6     4.7  8.9 -0.5814E+01  0.2822E+00  0.2478E+01E
 Epicentro: VILLANUEVA - SANTANDER                                             3
 ACTION:UPD 13-03-12 09:30 OP:ep   STATUS:               ID:20130203104615 L   I
 2013-02-03-1038-50M.COL___166                                                 6
 STAT SP IPHASW D HRMM SECON CODA AMPLIT PERI AZIMU VELO AIN AR TRES W  DIS CAZ7
 BAR2 SZ ES   2   1046 49.97                             173    0.19 5 16.7 189 
 BAR2 SZ I        1046 51.33         5.3 0.16            173           16.7 189 
 BRR  HN ES   2   1046 54.07                             151    1.11 5 73.2 304 
 BRR  HN I        1046 59.27         6.4 0.52            151           73.2 304 
 PAM  SZ EP       1046 37.92                             148   -0.0210 83.4  38 
 PAM  SZ I        1046 38.11         2.7 0.22            152           83.4  38 
 PAM  SN ES       1046 55.06                             148   -0.2610 83.4  38 
 RUS  HZ EP       1046 39.02                             145    0.3410 94.3 175 
 RUS  HN ES       1046 56.55                             145   -0.0810 94.3 175 
 RUS  HN I        1046 59.42         2.7 0.32            149           94.3 175 
 PTB  HE ES       1047  2.48                             132   -0.35 9  145 261 
                                                                                
