 2014  8 3 1641 33.1 L   6.798 -73.154147.0  RSN 14 0.4 2.4LRSN                1
 GAP=136        0.97       2.5     4.0  5.4 -0.1400E+01  0.3824E+01  0.1357E+01E
 Epicentro: LOS SANTOS - SANTANDER                                             3
 ACTION:UPD 14-09-15 21:46 OP:nd   STATUS:               ID:20140803164133 L   I
 OLDACT:UP  14-08-03 23:04 OP:mh   STATUS:               ID:20140803163816     3
 OLDACT:UP  14-08-03 23:04 OP:mh   STATUS:               ID:20140803163816     3
 OLDACT:REG 14-08-03 21:39 OP:mh   STATUS:               ID:20140803163816     3
 2014-08-03-1638-16M.COL___254                                                 6
 STAT SP IPHASW D HRMM SECON CODA AMPLIT PERI AZIMU VELO AIN AR TRES W  DIS CAZ7
 BAR2 SZ EP       1641 52.92                             171    0.0510 23.0 188 
 BAR2 SZ ES   1   1642  8.06                             171   -0.23 7 23.0 188 
 BAR2 SZ I        1642  9.59       104.4 0.25            171           23.0 188 
 BRR  HZ EP       1641 54.66                             153    0.3210 70.5 299 
 BRR  HN ES       1642 11.92                             153    1.0110 70.5 299 
 BRR  HZ I        1642 13.10        31.3 0.06            151           70.5 299 
 PAM  SZ EP     C 1641 55.70                             151    0.2110 78.1  40 
 PAM  SN ES   1   1642 12.88                             151   -0.07 7 78.1  40 
 PAM  SZ I        1642 15.11        34.3 0.48            153           78.1  40 
 RUS  HZ EP   1   1641 56.92                             144   -0.04 7  100 176 
 RUS  HN ES       1642 15.24                             144   -0.3310  100 176 
 RUS  HZ I        1642 16.41        56.6 0.26            146            100 176 
 PTB  HZ EP   1   1641 59.77                             133   -0.31 7  147 259 
 PTB  HN ES       1642 20.32                             133   -0.80 9  147 259 
 PTB  HZ I        1642 26.56        22.2 0.25            132            147 259 
 OCA  HZ EP       1642  1.52                             130    0.01 9  160 353 
 OCA  HN ES   1   1642 23.21                             130   -0.46 7  160 353 
 OCA  HZ I        1642 32.99        20.4 0.39            130            160 353 
 SPBC HZ EP       1642  1.89                             130    0.27 9  162 219 
 SPBC HN ES       1642 23.89                             130    0.02 9  162 219 
 SPBC HZ I        1642 26.44        57.6 0.26            130            162 219 
 ZAR  HZ EP   1   1642  5.27                             123   -0.27 6  203 292 
 ZAR  HN ES       1642 31.07                             123    0.22 9  203 292 
 ZAR  HZ I        1642 36.96        23.9 0.23            122            203 292 
 SML  HZ EP   1   1642  9.22                             118   -0.55 6  243 336 
 SML  HN ES       1642 37.88                             118   -0.49 8  243 336 
 SML  HZ I        1642 42.43        25.3 0.14            118            243 336 
 CHI  HZ EP       1642 11.04                             117    0.23 8  248 195 
 CHI  HN ES       1642 40.08                             117   -0.16 8  248 195 
 CHI  HZ I        1642 50.45        12.5 0.50            118            248 195 
 GUY2CHZ EP   2   1642 17.64                             113    0.98 4  300 235 
 GUY2CHN ES   4   1642 51.90                             113    1.26 0  300 235 
 GUY2CHZ I        1643  0.19        10.4 0.66                           300 235 
 RREF HZ EP   4   1642 20.64                             111    1.45 0  321 229 
 RREF HN ES       1642 54.48                             111   -0.67 7  321 229 
 RREF HZ I        1642 59.99        17.2 0.26            111            321 229 
 TOL  SZ EP   1   1642 21.91                             110    0.60 5  343 225 
 TOL  SN ES       1642 59.70                             110    0.79 7  343 225 
 PRA  HZ EP   1   1642 26.32                             107   -0.26 4  391 209 
 PRA  HN ES       1643  8.05                             107   -0.25 6  391 209 
 PRA  HZ I        1643 15.17        12.7 0.38            107            391 209 
                                                                                
