 2010  7 3 1219 24.1 L   6.787 -73.075139.9  RSN  4 0.3 1.8LRSN                1
 GAP=167        0.67       6.7    10.0 10.4  0.1517E+02 -0.2686E+02  0.2380E+02E
 Epicentro: LOS SANTOS - SANTANDER                                             3
 ACTION:UPD 10-12-01 15:14 OP:pat  STATUS:               ID:20100703121924 L   I
 2010-07-03-1217-37S.COL___118                                                 6
 STAT SP IPHASW D HRMM SECON CODA AMPLIT PERI AZIMU VELO AIN AR TRES W  DIS CAZ7
 BAR2 SZ EP       1219 42.97                             169    -0.110   25 209 
 BAR2 SZ ES   2   1219 57.54                             169    -0.3 5   25 209 
 BRR  HZ EP       1219 44.80                             150    -0.310   79 297 
 BRR  HN ES   1   1220  1.71                             150     0.2 7   79 297 
 BRR  HZ I        1220  2.83        19.3 0.11                            79 297 
 RUS  HZ EP       1219 47.49                             143     0.310   99 181 
 RUS  HZ I        1220  7.60         7.1 0.19                            99 181 
 GRA  SZ ES   2   1220  8.20                             136     0.2 5  125  14 
                                                                                
