 2010  4 3 1755 53.3 L   6.784 -73.064150.0  RSN  7 0.4 2.9LRSN                1
 GAP=207        0.56       3.7     6.5  6.3 -0.5512E+01  0.7067E+01  0.6823E+01E
 Epicentro: LOS SANTOS - SANTANDER                                             3
 ACTION:UPD 10-08-24 09:57 OP:vdl  STATUS:               ID:20100403175553 L   I
 2010-04-03-1754-12S.COL___098                                                 6
 STAT SP IPHASW D HRMM SECON CODA AMPLIT PERI AZIMU VELO AIN AR TRES W  DIS CAZ7
 BAR2 SZ IP       1756 13.43                             170     0.010   25 212 
 BAR2 SZ ES   2   1756 28.70                             170    -0.5 5   25 212 
 BRR  HZ IP       1756 15.52                             153     0.110   80 297 
 BRR  HZ I        1756 15.79       257.9 0.18                            80 297 
 BRR  HN ES   2   1756 33.05                             153     0.4 5   80 297 
 OCA  SZ EP   1   1756 22.02                             131    -0.2 7  163 350 
 OCA  SZ ES   2   1756 44.82                             131     0.1 5  163 350 
 OCA  SZ I        1756 49.67       166.3 0.34                           163 350 
 CHI  HZ EP   1   1756 31.33                             118     0.0 6  249 197 
 CHI  HE ES   2   1757  1.14                             118     0.2 4  249 197 
 CHI  HZ I        1757  8.60        23.1 0.33                           249 197 
 HEL  HZ EP   1   1756 34.84                             116     0.2 6  280 257 
 HEL  HN ES   2   1757  5.99                             116    -0.9 4  280 257 
 HEL  HZ I        1757 12.13        46.8 0.30                           280 257 
 RREF BZ EP   1   1756 40.13                             112    -0.1 5  328 231 
 RREF BE ES   2   1757 16.87                             112     0.0 3  328 231 
 RREF BZ I        1757 25.63        34.7 0.31                           328 231 
 PRA  HZ EP   1   1756 46.87                             107    -0.4 4  395 211 
 PRA  HE ES   2   1757 30.43                             107     1.0 3  395 211 
 PRA  HZ I        1757 33.40        23.1 0.59                           395 211 
                                                                                
