 2017  3 3 1302 56.0 L   6.788 -73.137148.2  RSN  7 0.4 1.6LRSN                1
 GAP=237        1.09       5.2     6.3  7.3  0.1308E+02  0.6945E+01  0.8007E+01E
 Epicentro: LOS SANTOS - SANTANDER                                             3
 ACTION:UPD 17-05-25 18:35 OP:jn   STATUS:               ID:20170303130256 L   I
 OLDACT:REG 17-03-03 20:37 OP:lv   STATUS:               ID:20170303125743     3
 2017-03-03-1258-00M.COL___387                                                 6
 STAT SP IPHASW D HRMM SECON CODA AMPLIT PERI AZIMU VELO AIN AR TRES W  DIS CAZ7
 BAR2 EZ EP       13 3 15.73                             171   -0.1710 22.2 193 
 BAR2 EZ ES       13 3 31.60                             171    0.1910 22.2 193 
 BAR2 EZ I        13 3 32.40         8.8 0.27            168           22.2 193 
 BRR  HZ EP       13 3 17.66                             152    0.1710 72.7 299 
 BRR  HN ES       13 3 34.83                             152    0.5710 72.7 299 
 RUS  HZ EP       13 3 19.69                             145   -0.2010 99.2 177 
 RUS  HN ES       13 3 37.97                             145   -0.5510 99.2 177 
 RUS  HZ I        13 3 39.33         4.1 0.17            144           99.2 177 
 PTB  HZ EP       13 3 22.78                             132   -0.45 9  148 259 
 PTB  HN ES       13 3 43.75                             132   -0.71 9  148 259 
 PTB  HZ I        13 3 45.33         5.5 0.14            132            148 259 
 SPBC HZ EP       13 3 24.71                             130    0.07 9  163 220 
 SPBC HE ES       13 3 46.91                             130   -0.07 9  163 220 
 SPBC HZ I        13 3 49.25         6.5 0.09            129            163 220 
 ZAR  HN ES       13 3 54.52                             123    0.23 8  205 292 
 ZAR  HZ I        13 3 55.88         5.7 0.12            123            205 292 
 CHI  HZ EP       13 3 34.03                             118    0.31 8  248 195 
 CHI  HN ES       13 4  4.13                             118    0.99 8  248 195 
 CHI  HZ I        13 4  7.23         1.4 0.25            117            248 195 
                                                                                
