 2017 11 3 1618 24.2 L   6.046 -73.726114.2  RSN 12 0.5 1.6LRSN                1
 GAP= 65        0.91       3.6     2.8  6.8 -0.1929E+01  0.3741E+01 -0.2781E+01E
 Epicentro: VELEZ - SANTANDER                                                  3
 ACTION:UPD 17-12-12 19:51 OP:rebc STATUS:               ID:20171103161824 L   I
 OLDACT:DUP 17-11-03 23:06 OP:mg   STATUS:               ID:20171103160742d    3
 OLDACT:REG 17-11-03 20:45 OP:mg   STATUS:               ID:20171103160741     3
 2017-11-03-1608-00M.COL___441                                                 6
 STAT SP IPHASW D HRMM SECON CODA AMPLIT PERI AZIMU VELO AIN AR TRES W  DIS CAZ7
 SPBC HZ EP   2   1618 41.13                             151   -0.21 5 58.0 221 
 SPBC HE ES   2   1618 55.34                             151    0.64 5 58.0 221 
 SPBC HZ I        1618 57.69        10.8 0.10            143           58.0 221 
 RUS  HZ EP     D 1618 42.56                             145   -0.3310 73.2 103 
 RUS  HN ES       1618 57.09                             145   -0.3710 73.2 103 
 RUS  HZ I        1618 58.46        12.4 0.32            143           73.2 103 
 BAR2 EZ EP   1   1618 43.67                             141    0.25 7 85.3  45 
 BAR2 EZ ES   2   1618 58.84                             141    0.44 5 85.3  45 
 PTB  HZ EP       1618 43.13                             136   -0.9710 97.5 304 
 PTB  HN ES   2   1618 58.99                             136   -0.62 5 97.5 304 
 PTB  HZ I        1619  4.50         2.9 0.12            127           97.5 304 
 BRR  HZ EP       1618 46.10                             131    0.2610  117   1 
 NOR  HZ EP       1618 47.66                             126   -0.16 9  137 247 
 NOR  HN ES       1619  6.67                             126    0.43 9  137 247 
 NOR  HZ I        1619  9.32        13.3 0.16            118            137 247 
 CHI  HZ EP   2   1618 49.95                             122   -0.29 5  157 180 
 CHI  HN ES   2   1619 10.25                             122   -0.29 5  157 180 
 CHI  HZ I        1619 13.14         3.1 0.18            117            157 180 
 YPLC HZ EP       1618 50.73                             120    0.00 9  165 116 
 YPLC HN ES   1   1619 12.19                             120    0.79 7  165 116 
 YPLC HZ I        1619 15.15        11.6 0.32            116            165 116 
 PAM  EZ EP       1618 53.22                             118    0.13 9  183  38 
 PAM  EN ES   1   1619 15.93                             118    0.32 7  183  38 
 PAM  EZ I        1619 19.00         2.6 0.18            113            183  38 
 GUY2CHN ES   2   1619 20.27                             115    0.72 4  203 243 
 GUY2CHZ I        1619 24.14         4.9 0.26                           203 243 
 ZAR  HN ES   2   1619 18.87                             114    0.37 4  203 322 
 GUY2CHZ EP       1618 55.71                             115    0.41 9  203 243 
 ZAR  HZ EP   2   1618 55.47                             114    0.76 4  203 322 
 ZAR  HZ I        1619 20.33         5.5 0.29            109            203 322 
 PRA  HZ EP   1   1619  4.07                             106   -0.43 5  288 207 
 PRA  HN ES   3   1619 35.63                             106   -0.29 2  288 207 
 PRA  HZ I        1619 51.60         3.0 0.31            103            288 207 
                                                                                
