 2016  3 3 1537 25.4 L   6.794 -73.147145.4  RSN  9 0.4 2.1LRSN                1
 GAP=137        1.02       4.7     4.7  6.8 -0.3420E+01  0.1120E+02  0.1743E+01E
 Epicentro: LOS SANTOS - SANTANDER                                             3
 ACTION:UPD 16-05-13 21:21 OP:cam  STATUS:               ID:20160303153725 L   I
 OLDACT:UP  16-03-04 01:28 OP:ar   STATUS:               ID:20160303152750     3
 OLDACT:REG 16-03-03 23:29 OP:ar   STATUS:               ID:20160303152750     3
 2016-03-03-1527-50M.COL___319                                                 6
 STAT SP IPHASW D HRMM SECON CODA AMPLIT PERI AZIMU VELO AIN AR TRES W  DIS CAZ7
 BAR2 EZ EP       1537 44.60                             171   -0.3810 22.7 190 
 BAR2 EZ ES       1538  0.63                             171    0.3910 22.7 190 
 BAR2 EZ I        1538  1.29        18.5 0.36            165           22.7 190 
 PAM  EZ EP       1537 47.56                             151   -0.0610 78.0  39 
 PAM  EN ES       1538  5.07                             151    0.1310 78.0  39 
 RUS  HZ EP       1537 48.93                             144   -0.1410 99.9 176 
 RUS  HN ES       1538  7.48                             144   -0.0510 99.9 176 
 RUS  HZ I        1538  8.46        10.4 0.38            144           99.9 176 
 PTB  HZ EP       1537 51.49                             132   -0.83 9  147 259 
 PTB  HN ES       1538 13.02                             132   -0.29 9  147 259 
 PTB  HZ I        1538 20.15        17.7 0.50            130            147 259 
 SPBC HZ EP       1537 53.73                             129   -0.09 9  163 219 
 SPBC HN ES       1538 16.05                             129    0.07 9  163 219 
 SPBC HZ I        1538 22.76        31.6 0.22            128            163 219 
 ZAR  HN ES       1538 23.51                             122    0.38 9  204 292 
 URE  HN ES   4   1538 35.50                             114   -2.99 0  284 292 
 URE  HZ I        1538 43.13        10.0 0.18            114            284 292 
 GUY2CHZ EP       1538  9.89                             112    0.95 7  301 235 
 GUY2CHN ES   4   1538 46.32                             112    3.43 0  301 235 
 GUY2CHZ I        1538 51.89         7.0 0.56                           301 235 
 ELA  HZ EP       1538 12.92                             110    0.74 7  329 230 
 ELA  HN ES   4   1538 52.62                             110    3.96 0  329 230 
 ELA  HZ I        1538 58.76         5.7 0.36            110            329 230 
                                                                                
