 2016  1 3 1647 11.0 L   6.836 -73.215142.6  RSN  4 0.5 1.2LRSN                1
 GAP=240        0.60      13.4    10.2 11.9  0.9893E+02  0.2006E+02 -0.1242E+02E
 Epicentro: ZAPATOCA - SANTANDER                                               3
 ACTION:UPD 16-03-09 23:22 OP:cam  STATUS:               ID:20160103164711 L   I
 OLDACT:REG 16-01-03 20:31 OP:dnl  STATUS:               ID:20160103163750     3
 2016-01-03-1637-50M.COL___317                                                 6
 STAT SP IPHASW D HRMM SECON CODA AMPLIT PERI AZIMU VELO AIN AR TRES W  DIS CAZ7
 BAR2 EZ EP   3   1647 30.78                             169    0.40 2 27.2 172 
 BAR2 EZ ES   2   1647 45.77                             169    0.31 5 27.2 172 
 BAR2 EZ I        1647 47.23         3.9 0.19            167           27.2 172 
 RUS  HZ EP   2   1647 35.01                             142    0.17 5  105 172 
 RUS  HN ES   2   1647 52.74                             142   -0.66 5  105 172 
 RUS  HZ I        1647 54.43         2.2 0.18            144            105 172 
 PTB  HZ EP   2   1647 37.33                             133    0.18 5  141 257 
 PTB  HE ES   2   1647 58.03                             133    0.52 5  141 257 
 PTB  HZ I        1648  0.17         2.0 0.10            134            141 257 
 ZAR  HE ES   2   1648  6.12                             123   -0.73 4  195 292 
                                                                                
