 2012  5 3 1807 19.8 L   6.747 -73.184138.1  RSN  5 0.3 1.4LRSN                1
 GAP=134        0.70       5.4     4.3 10.0 -0.9991E-01  0.1558E+02  0.3922E+01E
 Epicentro: VILLANUEVA - SANTANDER                                             3
 ACTION:UP  12-07-05 12:01 OP:pat  STATUS:               ID:20120503180719 L   I
 2012-05-03-1800-00M.COL___186                                                 6
 STAT SP IPHASW D HRMM SECON CODA AMPLIT PERI AZIMU VELO SNR AR TRES W  DIS CAZ7
 BAR2 SZ EP       18 7 38.62                             173     0.210   17 179 
 BAR2 SZ I        18 7 54.68         6.9 0.20                            17 179 
 PAM  SN ES   1   18 7 58.55                             147    -0.2 7   85  39 
 RUS  HZ EP   1   18 7 42.04                             144    -0.4 7   95 173 
 RUS  HN ES   1   18 8  0.27                             144     0.2 7   95 173 
 RUS  HZ I        18 8  1.36         2.0 0.22                            95 173 
 PTB  HZ EP       18 7 45.77                             131     0.1 9  143 261 
 PTB  HN ES       18 8  5.59                             131    -0.3 9  143 261 
 PTB  HZ I        18 8  9.41         2.5 0.10                           143 261 
 ZAR  HN ES   2   18 8 16.85                             120     0.5 4  202 294 
 ZAR  HZ I        18 8 23.16         5.1 0.39                           202 294 
                                                                                
