 2014 12 3 1635  3.6 L   6.792 -73.141144.0  RSN 20 0.4 2.6LRSN                1
 GAP= 72        0.90       2.6     2.8  4.8 -0.6773E+00  0.2174E+01  0.2437E+01E
 Epicentro: LOS SANTOS - SANTANDER                                             3
 ACTION:UPD 15-02-10 17:00 OP:nd   STATUS:               ID:20141203163503 L   I
 OLDACT:REG 14-12-03 20:54 OP:spq  STATUS:               ID:20141203162744     3
 2014-12-03-1627-44M.COL___303                                                 6
 STAT SP IPHASW D HRMM SECON CODA AMPLIT PERI AZIMU VELO AIN AR TRES W  DIS CAZ7
 BAR2 SZ EP       1635 22.96                             171   -0.0310 22.6 192 
 BAR2 SZ ES   1   1635 37.74                             171   -0.38 7 22.6 192 
 BAR2 SZ I        1635 38.96       194.9 0.36            167           22.6 192 
 BRR  HZ IP     D 1635 24.80                             152    0.2110 72.1 299 
 BRR  HE ES       1635 41.92                             152    0.9410 72.1 299 
 BRR  HZ I        1635 45.57        74.6 0.18            151           72.1 299 
 PAM  SZ EP       1635 25.94                             150    0.3110 77.7  39 
 PAM  SN ES       1635 42.82                             150   -0.0010 77.7  39 
 PAM  SZ I        1635 45.19       106.8 0.66            155           77.7  39 
 RUS  HZ EP       1635 26.93                             144   -0.1710 99.7 176 
 RUS  HE ES   1   1635 45.01                             144   -0.43 7 99.7 176 
 RUS  HZ I        1635 46.45        43.2 0.24            143           99.7 176 
 PTB  HZ EP       1635 29.66                             132   -0.78 9  148 259 
 PTB  HE ES       1635 51.01                             132   -0.38 9  148 259 
 PTB  HZ I        1635 53.04        64.5 0.16            131            148 259 
 TAM  HZ EP     C 1635 31.28                             130    0.23 9  154 105 
 TAM  HN ES   1   1635 52.68                             130    0.21 7  154 105 
 TAM  HZ I        1635 54.40        16.7 0.34            133            154 105 
 OCA  HZ EP       1635 31.16                             129   -0.68 9  161 353 
 OCA  HN ES       1635 53.53                             129   -0.35 9  161 353 
 OCA  HZ I        1635 56.28        79.1 0.22            131            161 353 
 SPBC HZ EP       1635 32.11                             129    0.19 9  163 219 
 SPBC HN ES       1635 53.93                             129   -0.09 9  163 219 
 SPBC HZ I        1635 56.16        70.1 0.12            128            163 219 
 ZAR  HZ EP       1635 36.02                             122    0.02 9  205 292 
 ZAR  HN ES       1636  1.46                             122    0.17 9  205 292 
 ZAR  HZ I        1636  7.47        69.5 0.36            122            205 292 
 NOR  HZ EP       1635 39.34                             118    0.13 8  235 235 
 NOR  HE ES       1636  7.21                             118    0.22 8  235 235 
 NOR  HZ I        1636 11.98        23.5 0.24            118            235 235 
 CHI  HZ EP       1635 41.18                             117    0.07 8  248 195 
 CHI  HE ES       1636 10.25                             117   -0.13 8  248 195 
 CHI  HZ I        1636 20.43        11.5 0.46            117            248 195 
 HEL  HZ EP   4   1635 45.36                             114    1.62 0  272 256 
 HEL  HN ES   4   1636 17.72                             114    2.65 0  272 256 
 HEL  HZ I        1636 23.17        17.5 0.34            114            272 256 
 GUY2CHZ EP   4   1635 49.45                             112    2.34 0  301 235 
 GUY2CHE ES   4   1636 23.44                             112    2.38 0  301 235 
 GUY2CHZ I        1636 27.07        10.2 0.62                           301 235 
 PTGC HZ EP   4   1635 46.02                             111   -1.23 0  308 159 
 PTGC HE ES   4   1636 19.71                             111   -1.60 0  308 159 
 PTGC HZ I        1636 24.80        19.0 0.58            112            308 159 
 RREF HZ EP   4   1635 51.52                             111    1.88 0  322 230 
 RREF HN ES   4   1636 29.09                             111    3.53 0  322 230 
 RREF HZ I        1636 37.08        15.5 0.38            111            322 230 
 DBB  SZ EP       1635 51.36                             109    0.30 7  340 274 
 DBB  SZ ES   1   1636 27.86                             109   -0.23 5  340 274 
 TOL  SZ EP   1   1635 52.33                             109    0.58 5  343 225 
 TOL  SN ES   4   1636 31.76                             109    2.45 0  343 225 
 TOL  SZ I        1636 36.36        25.7 0.37            109            343 225 
 MON  HZ EP   4   1635 57.19                             108    4.56 0  355 308 
 MON  HN ES   4   1636 29.11                             108   -1.77 0  355 308 
 MON  HZ I        1636 29.78        12.6 0.18            109            355 308 
 ANIL HZ EP   4   1635 55.39                             108    2.09 0  357 225 
 ANIL HN ES   4   1636 35.00                             108    2.93 0  357 225 
 ORTC HZ EP       1635 57.85                             106    0.45 6  395 216 
 ORTC HN ES   4   1636 41.68                             106    2.30 0  395 216 
 ORTC HZ I        1636 47.39         9.9 0.34            106            395 216 
 SJC  HZ EP   4   1635 57.06                             105   -2.15 0  410 327 
 SJC  HE ES   4   1636 38.60                             105   -3.99 0  410 327 
 SJC  HZ I        1636 42.83        14.3 0.52            106            410 327 
                                                                                
