 2017 10 3 1338  3.0 L   6.797 -73.144142.0  RSN 10 0.5 2.0LRSN                1
 GAP=112        1.09       3.7     4.2  6.6 -0.5501E+00  0.1001E+02  0.4650E+01E
 Epicentro: LOS SANTOS - SANTANDER                                             3
 ACTION:UPD 17-11-07 19:28 OP:rebc STATUS:               ID:20171003133803 L   I
 OLDACT:REG 17-10-03 21:18 OP:osc  STATUS:               ID:20171003133744     3
 2017-10-03-1338-00M.COL___437                                                 6
 STAT SP IPHASW D HRMM SECON CODA AMPLIT PERI AZIMU VELO AIN AR TRES W  DIS CAZ7
 BAR2 EZ EP       1338 21.95                             170   -0.1910 23.0 191 
 BAR2 EZ ES       1338 36.92                             170   -0.1810 23.0 191 
 BAR2 EZ I        1338 37.86        44.5 0.26            170           23.0 191 
 PAM  EZ EP       1338 24.79                             150   -0.0110 77.5  39 
 PAM  EE ES       1338 41.99                             150    0.1710 77.5  39 
 PAM  EZ I        1338 43.96        22.0 0.58            152           77.5  39 
 RUS  HZ EP       1338 25.98                             143   -0.3510  100 176 
 RUS  HN ES       1338 44.36                             143   -0.1910  100 176 
 RUS  HZ I        1338 45.45        10.0 0.22            144            100 176 
 SPBC HZ EP       1338 31.14                             128   -0.03 9  163 219 
 SPBC HE ES       1338 52.84                             128   -0.33 9  163 219 
 SPBC HZ I        1338 55.06        15.1 0.22            128            163 219 
 YPLC HZ EP       1338 32.40                             126   -0.05 9  176 151 
 YPLC HE ES       1338 56.22                             126    0.77 9  176 151 
 ZAR  HZ EP       1338 35.92                             121    0.71 9  204 292 
 ZAR  HN ES       1339  0.53                             121    0.18 9  204 292 
 ZAR  HZ I        1339  6.40        13.2 0.32            121            204 292 
 NOR  HZ EP       1338 38.35                             118   -0.13 8  235 235 
 NOR  HE ES       1339  5.94                             118   -0.24 8  235 235 
 NOR  HZ I        1339 10.96         4.7 0.36            118            235 235 
 CHI  HZ EP       1338 39.08                             116   -1.35 8  248 195 
 CHI  HE ES       1339 10.49                             116    0.84 8  248 195 
 CHI  HZ I        1339 12.71         3.2 0.30            117            248 195 
 GUY2CHE ES       1339 20.52                             112    0.24 7  301 235 
 GUY2CHZ I        1339 31.16         2.5 0.72                           301 235 
 PRA  HZ EP       1338 56.49                             106    0.15 6  392 210 
 PRA  HE ES       1339 38.61                             106    0.65 6  392 210 
 PRA  HZ I        1339 43.95         3.5 0.36            106            392 210 
                                                                                
