 2012  7 3 1543 58.0 L   6.682 -73.227152.3  RSN  5 0.3 1.5LRSN                1
 GAP=202        0.79       8.3     7.5  9.3  0.3846E+02  0.3429E+01 -0.4276E+01E
 Epicentro: BARICHARA - SANTANDER                                              3
 ACTION:UPD 12-08-14 11:42 OP:ep   STATUS:               ID:20120703154358 L   I
 2012-07-03-1540-00M.COL___200                                                 6
 STAT SP IPHASW D HRMM SECON CODA AMPLIT PERI AZIMU VELO AIN AR TRES W  DIS CAZ7
 BAR2 SZ EP   1   1544 17.86                             176    -0.4 7   11 153 
 BAR2 SZ ES   1   1544 33.91                             176    -0.1 7   11 153 
 BAR2 SZ I        1544 34.64        13.1 0.25            166             11 153 
 BRR  HZ EP   1   1544 19.78                             154    -0.1 7   71 311 
 BRR  HE ES   1   1544 37.32                             154     0.4 7   71 311 
 RUS  HZ EP   1   1544 22.14                             148     0.6 7   89 170 
 RUS  HZ I        1544 22.54         2.8 0.21            143             89 170 
 RUS  HN ES   1   1544 39.71                             148    -0.3 7   89 170 
 PTB  HN ES   1   1544 45.40                             136     0.1 7  137 263 
 PTB  HZ I        1544 51.68         3.1 0.28            130            137 263 
 ZAR  HN ES   1   1544 55.57                             124    -0.4 6  201 297 
