 2016  9 3 1501  3.4 L   6.802 -73.107145.4  RSN 10 0.3 1.7LRSN                1
 GAP=141        0.84       3.0     3.5  4.6 -0.1771E+01  0.4239E+01  0.1930E+01E
 Epicentro: LOS SANTOS - SANTANDER                                             3
 ACTION:UPD 17-08-17 21:06 OP:lp   STATUS:               ID:20160903150103 L   I
 OLDACT:UP  16-09-04 00:31 OP:edw  STATUS:               ID:20160903145934     3
 OLDACT:REG 16-09-04 00:08 OP:edw  STATUS:               ID:20160903145934     3
 2016-09-03-1500-00M.COL___418                                                 6
 STAT SP IPHASW D HRMM SECON CODA AMPLIT PERI AZIMU VELO AIN AR TRES W  DIS CAZ7
 BAR2 EZ EP       15 1 22.95                             170   -0.0910 24.6 200 
 BAR2 EZ ES       15 1 37.93                             170   -0.4110 24.6 200 
 BAR2 EZ I        15 1 39.90         8.6 0.11            168           24.6 200 
 PAM  EZ EP       15 1 25.91                             151    0.4710 74.6  37 
 PAM  EN ES       15 1 42.74                             151    0.1310 74.6  37 
 PAM  EZ I        15 1 43.47         9.5 0.18            155           74.6  37 
 BRR  HZ EP     C 15 1 24.70                             151   -0.0510 74.8 297 
 BRR  HN ES       15 1 41.55                             151    0.1810 74.8 297 
 RUS  HZ EP       15 1 27.04                             144   -0.1110  101 178 
 RUS  HN ES       15 1 45.84                             144    0.2010  101 178 
 RUS  HZ I        15 1 47.10         3.1 0.33            145            101 178 
 PTB  HZ EP   9   15 1 29.74                             131   -1.01 0  152 259 
 PTB  HN ES       15 1 50.74                             128   -0.31 9  152 259 
 PTB  HZ I        15 1 54.15         7.3 0.12            131            152 259 
 SPBC HZ EP       15 1 32.12                             128   -0.05 9  166 220 
 SPBC HN ES       15 1 54.10                             128   -0.49 9  166 220 
 SPBC HZ I        15 2  0.18         8.3 0.28            129            166 220 
 ZAR  HZ EP       15 1 35.62                             122   -0.63 8  208 292 
 ZAR  HN ES       15 2  1.93                             122    0.08 8  208 292 
 ZAR  HZ I        15 2  6.73         8.5 0.42            122            208 292 
 NOR  HZ EP       15 1 39.58                             118    0.06 8  238 235 
 NOR  HN ES       15 2  8.57                             118    0.90 8  238 235 
 NOR  HZ I        15 2 13.00         4.9 0.20            118            238 235 
 CHI  HZ EP   4   15 1 39.14                             117   -2.12 0  250 196 
 CHI  HN ES       15 2 10.77                             117    0.02 8  250 196 
 GUY2CHZ EP       15 1 47.06                             112   -0.37 7  305 235 
 GUY2CHN ES       15 2 21.91                             112    0.17 7  305 235 
 GUY2CHZ I        15 2 33.42         3.6 0.78                           305 235 
                                                                                
