 2012 10 3 1641 55.6 L   6.765 -73.072146.7  RSN  4 0.1 1.5LRSN                1
 GAP=202        0.36       6.3    10.9  4.8  0.5936E+02 -0.2617E+02 -0.1511E+02E
 Epicentro: LOS SANTOS - SANTANDER                                             3
 ACTION:UPD 12-11-22 17:01 OP:ep   STATUS:               ID:20121003164155 L   I
 2012-10-03-1640-00M.COL___223                                                 6
 STAT SP IPHASW D HRMM SECON CODA AMPLIT PERI AZIMU VELO AIN AR TRES W  DIS CAZ7
 BAR2 SZ EP       1642 15.41                             170    0.0710 22.7 212 
 BAR2 SZ I        1642 15.70        11.4 0.10                          22.7 212 
 BAR2 SZ ES   1   1642 30.56                             170   -0.17 7 22.7 212 
 GIR2 SZ EP   3   1642 15.93                             165    0.37 2 37.1 339 
 BRR  HZ EP       1642 17.26                             149   -0.1310 80.2 298 
 BRR  HZ I        1642 17.43        10.1 0.14                          80.2 298 
 BRR  HN ES   1   1642 34.52                             149    0.15 7 80.2 298 
 RUS  HZ EP   1   1642 19.21                             145    0.04 7 96.5 181 
 RUS  HN ES   1   1642 37.57                             145    0.03 7 96.5 181 
 RUS  HN I        1642 38.88         2.4 0.22                          96.5 181 
                                                                                
