 2012 11 3 1945 22.5 L   6.745 -73.137148.0  RSN  4 0.2 2.0LRSN                1
 GAP=140        0.54       4.6     7.9  8.9  0.1580E+02 -0.3766E+02 -0.1422E+02E
 Epicentro: JORDAN - SANTANDER                                                 3
 ACTION:UPD 12-12-05 15:31 OP:}ep  STATUS:               ID:20121103194522 L   I
 2012-11-03-1940-00M.COL___234                                                 6
 STAT SP IPHASW D HRMM SECON CODA AMPLIT PERI AZIMU VELO AIN AR TRES W  DIS CAZ7
 BAR2 SZ EP   1   1945 41.73                             173   -0.56 7 17.6 197 
 BRR  HZ EP       1945 44.20                             152    0.1010 75.1 302 
 BRR  HN ES   1   1946  0.96                             152    0.00 7 75.1 302 
 BRR  HN I        1946  6.80        20.4 0.18                          75.1 302 
 PAM  SZ EP       1945 45.29                             150    0.0910 81.6  36 
 PAM  SN I        1946  4.74         9.2 0.40                          81.6  36 
 RUS  HZ EP       1945 46.11                             146    0.0810 94.4 176 
 RUS  HN ES   1   1946  4.48                             146    0.09 7 94.4 176 
 RUS  HN I        1946  5.81        21.4 0.28                          94.4 176 
                                                                                
