 2017  7 3 1402 25.5 L   6.787 -73.137154.0  RSN  5 0.4 1.8LRSN                1
 GAP=254        0.99       7.5     6.4  7.8  0.2752E+01  0.1283E+02  0.1211E+02E
 Epicentro: LOS SANTOS - SANTANDER                                             3
 ACTION:UPD 17-08-30 15:29 OP:rebc STATUS:               ID:20170703140225 L   I
 OLDACT:UP  17-07-03 23:41 OP:ar   STATUS:               ID:20170703135741     3
 OLDACT:REG 17-07-03 20:49 OP:ar   STATUS:               ID:20170703135741     3
 2017-07-03-1358-00M.COL___374                                                 6
 STAT SP IPHASW D HRMM SECON CODA AMPLIT PERI AZIMU VELO AIN AR TRES W  DIS CAZ7
 BAR2 EZ EP       14 2 45.89                             171   -0.1710 22.1 193 
 BAR2 EZ ES       14 3  1.83                             171   -0.3010 22.1 193 
 BAR2 EZ I        14 3  4.89         9.1 0.46            168           22.1 193 
 BRR  HZ EP       14 2 47.85                             153    0.2610 72.7 299 
 BRR  HN ES       14 3  5.55                             153    0.7010 72.7 299 
 BRR  HZ I        14 3  7.35         8.8 0.16            151           72.7 299 
 PTB  HZ EP       14 2 52.77                             134   -0.40 9  148 259 
 PTB  HE ES       14 3 14.44                             134   -0.34 9  148 259 
 PTB  HZ I        14 3 21.29         5.4 0.40            133            148 259 
 ZAR  HZ EP   2   14 2 59.07                             124    0.47 4  205 292 
 ZAR  HE ES       14 3 23.92                             124   -0.53 8  205 292 
 ZAR  HZ I        14 3 30.36         7.4 0.46            125            205 292 
 NOR  HZ EP       14 3  1.83                             120    0.16 8  235 235 
 NOR  HN ES       14 3 30.45                             120    0.53 8  235 235 
 NOR  HZ I        14 3 33.52         5.0 0.20            121            235 235 
                                                                                
