 2011  3 3 1318 34.8 L   6.803 -73.079136.2  RSN  4 0.2 1.8LRSN                1
 GAP=166        0.52       3.3    17.9  8.0 -0.2198E+02 -0.4387E+02 -0.8174E+00E
 Epicentro: LOS SANTOS - SANTANDER                                             3
 ACTION:UP  11-06-16 14:31 OP:jfem STATUS:               ID:20110303131834 L   I
 2011-03-03-1314-50S.COL___135                                                 6
 STAT SP IPHASW D HRMM SECON CODA AMPLIT PERI AZIMU VELO SNR AR TRES W  DIS CAZ7
 BAR2 SZ EP       1318 53.42                             169     0.110   26 206 
 BAR2 SZ ES   2   1319  8.00                             169     0.2 5   26 206 
 BAR2 SZ I        1319  9.31        29.2 0.35                            26 206 
 RUS  HZ EP       1318 57.40                             142    -0.210  101 180 
 RUS  HZ I        1318 58.20         4.6 0.09                           101 180 
 RUS  HN ES   2   1319 15.29                             142    -0.1 5  101 180 
 GRA  SZ EP       1318 59.15                             135     0.210  123  14 
 GRA  SZ ES   2   1319 17.45                             135    -0.4 5  123  14 
 GRA  SZ I        1319 22.78         8.9 0.26                           123  14 
 OCA  SZ EP   3   1319  2.02                             127    -0.4 2  161 351 
 OCA  SZ ES   2   1319 23.66                             127    -0.3 5  161 351 
 OCA  SZ I        1319 26.59        12.9 0.38                           161 351 
                                                                                
