 2012 12 3 1126 24.2 L   6.791 -73.159141.6  RSN  5 0.4 1.6LRSN                1
 GAP=135        0.90       4.9     4.5  8.1  0.6089E+00  0.1432E+02 -0.1119E+01E
 Epicentro: LOS SANTOS - SANTANDER                                             3
 ACTION:UPD 13-01-04 14:25 OP:ep   STATUS:               ID:20121203112624 L   I
 2012-12-03-1120-00M.COL___236                                                 6
 STAT SP IPHASW D HRMM SECON CODA AMPLIT PERI AZIMU VELO AIN AR TRES W  DIS CAZ7
 BAR2 SZ ES       1126 58.13                             171   -0.1110 22.2 187 
 BAR2 SZ I        1126 59.07        12.7 0.36                          22.2 187 
 PAM  SZ EP   1   1126 46.11                             149    0.00 7 79.1  40 
 PAM  SE ES       1127  3.05                             149   -0.1210 79.1  40 
 RUS  HZ EP       1126 47.88                             143    0.3710 99.7 175 
 RUS  HN ES       1127  5.84                             143    0.1710 99.7 175 
 RUS  HN I        1127  7.33         5.0 0.42                          99.7 175 
 PTB  HZ EP       1126 50.06                             131   -0.65 9  146 259 
 PTB  HN ES       1127 11.13                             131   -0.24 9  146 259 
 PTB  HN I        1127 15.51         4.7 0.26                           146 259 
 ZAR  HN ES       1127 21.96                             121    0.64 9  203 293 
 ZAR  HN I        1127 27.40         4.7 0.12                           203 293 
                                                                                
