 2011 12 3 1413 42.4 L   6.767 -73.082147.7  RSN  5 0.2 1.5LRSN                1
 GAP=146        0.59       4.2     5.6  5.7  0.2049E+01 -0.5314E+01 -0.2108E+01E
 Epicentro: LOS SANTOS - SANTANDER                                             3
 ACTION:UPD 12-07-13 16:13 OP:ep   STATUS:               ID:20111203141342 L   I
 2011-12-03-1410-00M.COL___179                                                 6
 STAT SP IPHASW D HRMM SECON CODA AMPLIT PERI AZIMU VELO AIN AR TRES W  DIS CAZ7
 BAR2 SZ EP       1414  2.17                             171   -0.0810 22.3 210 
 BAR2 SZ ES       1414 18.13                             171    0.4010 22.3 210 
 BAR2 SZ I        1414 18.49         6.4 0.26                          22.3 210 
 GIR2 SZ EP   1   1414  2.35                             165   -0.11 7 36.6 340 
 PAM  SZ EP   1   1414  5.04                             151    0.28 7 76.1  34 
 PAM  SN ES   1   1414 21.94                             151   -0.25 7 76.1  34 
 BRR  HZ EP   1   1414  4.30                             150    0.07 7 79.2 298 
 BRR  HZ I        1414  4.53         9.5 0.11                          79.2 298 
 BRR  HN ES       1414 21.11                             150   -0.1410 79.2 298 
 RUS  HZ EP   2   1414  6.27                             145    0.20 5 96.7 180 
 RUS  HN ES   1   1414 24.13                             145   -0.40 7 96.7 180 
 RUS  HZ I        1414 25.83         2.4 0.14                          96.7 180 
                                                                                
