 2016 12 3 1331 43.5 L   6.738 -73.227135.3  RSN  4 0.6 1.5LRSN                1
 GAP=228        1.31      10.8     8.5 12.9 -0.1944E+01  0.4997E+02 -0.2939E+02E
 Epicentro: VILLANUEVA - SANTANDER                                             3
 ACTION:UPD 17-01-11 20:12 OP:rebc STATUS:               ID:20161203133143 L   I
 OLDACT:REG 16-12-03 20:51 OP:lv   STATUS:               ID:20161203132745     3
 2016-12-03-1328-00M.COL___345                                                 6
 STAT SP IPHASW D HRMM SECON CODA AMPLIT PERI AZIMU VELO AIN AR TRES W  DIS CAZ7
 BAR2 EZ EP       1332  1.70                             173   -0.0910 16.8 163 
 BAR2 EZ ES       1332 15.95                             173   -0.0710 16.8 163 
 BAR2 EZ I        1332 18.28        13.4 0.18            169           16.8 163 
 PTB  HZ EP       1332  8.48                             132   -0.26 9  138 261 
 PTB  HN ES       1332 29.26                             132    0.87 9  138 261 
 PTB  HZ I        1332 31.52         3.0 0.12            130            138 261 
 ZAR  HZ EP       1332 15.47                             121    0.73 9  199 295 
 ZAR  HN ES       1332 38.29                             121   -0.79 9  199 295 
 ZAR  HZ I        1332 44.97         3.0 0.08            121            199 295 
 NOR  HN ES       1332 43.40                             117   -0.50 8  223 235 
 NOR  HZ I        1332 51.70         2.2 0.18            118            223 235 
                                                                                
