 2017  4 3 1025 10.9 L   6.884 -73.119146.4  RSN 21 0.7 2.6LRSN                1
 GAP=111        1.64       4.6     5.4  7.4  0.3599E+01  0.1362E+02  0.4388E+01E
 Epicentro: PIEDECUESTA - SANTANDER                                            3
 ACTION:UPD 17-05-30 21:08 OP:jn   STATUS:               ID:20170403102510 L   I
 OLDACT:UP  17-04-03 21:34 OP:ar   STATUS:               ID:20170403101741     3
 OLDACT:UP  17-04-03 21:33 OP:ar   STATUS:               ID:20170403101741     3
 OLDACT:REG 17-04-03 20:04 OP:ar   STATUS:               ID:20170403101741     3
 2017-04-03-1018-00M.COL___356                                                 6
 STAT SP IPHASW D HRMM SECON CODA AMPLIT PERI AZIMU VELO AIN AR TRES W  DIS CAZ7
 BAR2 EZ IP     C 1025 30.64                             167   -0.1610 33.0 192 
 BAR2 EZ ES       1025 45.00                             167   -1.3510 33.0 192 
 BAR2 EZ I        1025 46.78        74.3 0.38            161           33.0 192 
 PAM  EZ IP     C 1025 33.56                             154    0.9210 68.4  43 
 PAM  EE ES       1025 50.00                             154    0.3810 68.4  43 
 PAM  EZ I        1025 52.67        79.2 0.28            150           68.4  43 
 BRR  HZ IP     C 1025 32.41                             153    0.3910 70.1 291 
 BRR  HN ES       1025 48.62                             153    0.1010 70.1 291 
 BRR  HZ I        1025 49.95        51.0 0.28            147           70.1 291 
 RUS  HZ EP       1025 34.74                             141   -0.6110  110 178 
 RUS  HZ I        1025 54.05        23.3 0.38            133            110 178 
 RUS  HE ES       1025 55.54                             141    1.1010  110 178 
 PTB  HZ EP       1025 37.27                             131   -1.07 9  153 256 
 PTB  HE ES       1025 58.74                             131   -1.02 9  153 256 
 PTB  HZ I        1026  1.22        42.2 0.30            123            153 256 
 SPBC HZ EP       1025 39.72                             127   -0.56 9  172 218 
 SPBC HE ES       1026  3.93                             127    0.70 9  172 218 
 SPBC HZ I        1026  7.12        57.4 0.24            120            172 218 
 YPLC HZ IP     C 1025 41.31                             126   -0.06 9  184 154 
 YPLC HE ES       1026  4.92                             126   -0.25 9  184 154 
 ZAR  HZ EP       1025 43.70                             122    0.40 9  204 289 
 ZAR  HN ES       1026  9.46                             122    0.86 9  204 289 
 ZAR  HZ I        1026 14.65        60.3 0.42            116            204 289 
 NOR  HZ EP       1025 47.38                             118   -0.10 8  243 233 
 NOR  HN ES   4   1026 14.35                             118   -1.68 0  243 233 
 NOR  HZ I        1026 20.15        33.3 0.24            111            243 233 
 CHI  HZ EP       1025 49.60                             116   -0.05 8  258 195 
 CHI  HN ES       1026 19.46                             116   -0.45 8  258 195 
 CHI  HZ I        1026 23.46        12.9 0.38            109            258 195 
 ROSC BZ EP   4   1025 52.45                             116    2.40 0  262 211 
 ROSC BN ES       1026 21.26                             116    0.64 8  262 211 
 ROSC BZ I        1026 27.48        18.9 0.65            109            262 211 
 HEL  HZ EP       1025 52.80                             114    1.10 7  277 254 
 HEL  HN ES       1026 24.34                             114    0.80 7  277 254 
 HEL  HZ I        1026 28.93        28.5 0.46            108            277 254 
 URE  HZ EP       1025 50.93                             114   -0.98 7  283 290 
 URE  HN ES   4   1026 22.60                             114   -1.32 0  283 290 
 URE  HZ I        1026 25.98        17.0 0.16            108            283 290 
 PTGC HZ EP   4   1025 54.09                             111   -1.52 0  316 160 
 PTGC HN ES   4   1026 27.66                             111   -2.85 0  316 160 
 PTGC HZ I        1026 29.84        20.0 0.32            105            316 160 
 ELA  HZ EP   4   1026  0.55                             110    1.86 0  337 229 
 ELA  HZ I        1026 46.60        19.9 0.38            104            337 229 
 CBOC HZ EP       1025 59.32                             110    0.85 7  339 251 
 CBOC HE ES       1026 35.09                             110   -0.51 7  339 251 
 CBOC HZ I        1026 48.15         9.8 0.74            104            339 251 
 DBB  EZ EP       1025 59.16                             109    0.51 7  342 273 
 DBB  EN ES   4   1026 34.54                             109   -1.37 0  342 273 
 DBB  EZ I        1026 37.76        14.6 0.48            104            342 273 
 PRA  HZ EP       1026  4.81                             106   -0.71 6  402 209 
 PRA  HE ES       1026 47.25                             106   -0.90 6  402 209 
 PRA  HZ I        1026 52.78        17.1 0.32            101            402 209 
 SJC  HZ EP       1026  4.98                             106   -0.76 6  403 326 
 SJC  HN ES       1026 47.66                             106   -0.88 6  403 326 
 SJC  HZ I        1026 49.98         6.2 0.56            101            403 326 
 ORTC HZ EP       1026  6.96                             106    1.07 6  405 216 
 ORTC HN ES   4   1026 50.87                             106    2.07 0  405 216 
 ORTC HZ I        1026 59.75         9.5 0.60            101            405 216 
 PAL  HZ EP       1026  7.04                             106    0.13 6  413 238 
 PAL  HZ I        1026 51.51         5.9 0.70            100            413 238 
                                                                                
