 2014  4 3 1807 48.7 L   6.863 -73.111138.1  RSN  5 0.4 1.3LRSN                1
 GAP=248        0.79       6.6     5.5  9.1  0.1405E+02  0.9141E+01 -0.1583E+02E
 Epicentro: LOS SANTOS - SANTANDER                                             3
 ACTION:UPD 14-05-13 23:06 OP:nd   STATUS:               ID:20140403180747 L   I
 OLDACT:UP  14-04-04 11:03 OP:Mher STATUS:               ID:20140403180747 L   3
 OLDACT:UP  14-04-04 04:43 OP:mh   STATUS:               ID:20140403175831d    3
 OLDACT:DUP 14-04-04 04:34 OP:mh   STATUS:               ID:20140403175831d    3
 2014-04-03-1758-30M.COL___240                                                 6
 STAT SP IPHASW D HRMM SECON CODA AMPLIT PERI AZIMU VELO AIN AR TRES W  DIS CAZ7
 RUS  HZ EP       18 8 12.46                             140    0.2910  107 178 
 RUS  HN ES       18 8 30.40                             140   -0.1210  107 178 
 RUS  HZ I        18 8 32.47         1.0 0.24            138            107 178 
 PTB  HN ES   1   18 8 36.54                             129    0.11 7  153 257 
 ZAR  HZ EP   1   18 8 20.23                             120   -0.49 6  205 290 
 ZAR  HN ES   1   18 8 46.06                             120    0.32 6  205 290 
 NOR  HZ EP       18 8 24.56                             116   -0.17 8  242 234 
 NOR  HN ES       18 8 52.31                             116   -0.56 8  242 234 
 NOR  HZ I        18 8 57.69         2.7 0.15            115            242 234 
 GUY2CHZ EP       18 8 32.83                             110    0.09 7  308 234 
 GUY2CHN ES   1   18 9  8.13                             110    1.01 5  308 234 
 GUY2CHZ I        18 9 14.87         1.9 0.52                           308 234 
                                                                                
