 2010  7 3 1444 13.9 L   6.782 -73.138142.6  RSN 11 0.6 2.3LRSN                1
 GAP=156        1.07       4.6     7.5  9.5 -0.1503E+02  0.1799E+02 -0.6342E+01E
 Epicentro: LOS SANTOS - SANTANDER                                             3
 ACTION:UPD 10-12-01 15:14 OP:pat  STATUS:               ID:20100703144413 L   I
 2010-07-03-1442-36S.COL___117                                                 6
 STAT SP IPHASW D HRMM SECON CODA AMPLIT PERI AZIMU VELO AIN AR TRES W  DIS CAZ7
 BAR2 SZ EP       1444 33.01                             171    -0.110   22 193 
 BAR2 SZ ES   2   1444 48.01                             171    -0.1 5   22 193 
 BRR  HZ EP       1444 34.92                             151     0.110   73 300 
 BRR  HZ I        1444 35.20        88.0 0.13                            73 300 
 BRR  HN ES   2   1444 52.47                             151     1.3 5   73 300 
 RUS  HZ EP       1444 37.20                             144     0.010   99 176 
 RUS  HN ES   1   1444 55.58                             144     0.2 7   99 176 
 RUS  HZ I        1444 56.90        21.9 0.40                            99 176 
 BRI  SZ EP       1444 37.60                             140    -0.110  110  20 
 BRI  SZ ES   2   1444 55.31                             140    -0.8 5  110  20 
 BRI  SZ I        1445  1.05        14.7 0.37                           110  20 
 GUE  SZ EP       1444 38.04                             138    -0.510  118  11 
 GUE  SZ ES   2   1444 56.50                             138    -1.2 5  118  11 
 GRA  SZ EP       1444 39.82                             136     0.810  127  17 
 GRA  SZ ES   2   1444 59.23                             136     0.6 5  127  17 
 OCA  SZ EP       1444 42.29                             128     0.1 9  162 353 
 OCA  SZ I        1445  9.31        31.9 0.29                           162 353 
 CHI  HZ EP   2   1444 51.12                             117    -0.2 4  247 195 
 CHI  HE ES   2   1445 19.86                             117    -0.5 4  247 195 
 CHI  HZ I        1445 30.20         9.5 0.40                           247 195 
 HEL  HZ EP   1   1444 54.33                             114     0.3 6  272 256 
 HEL  HE ES   1   1445 24.33                             114    -1.0 6  272 256 
 HEL  HZ I        1445 32.05         8.6 0.49                           272 256 
 RREF HZ EP   3   1445  0.78                             110     0.9 2  321 230 
 RREF HN ES   2   1445 36.50                             110     0.8 3  321 230 
 RREF HZ I        1445 44.27        13.5 0.41                           321 230 
 PRA  HZ EP   2   1445  7.08                             106    -0.1 3  391 210 
 PRA  HE ES   2   1445 48.66                             106    -0.1 3  391 210 
 PRA  HZ I        1445 52.75        10.7 0.45                           391 210 
                                                                                
