 2015  4 3 1019 18.0 L   6.785 -73.156139.0  RSN  6 0.5 1.2LRSN                1
 GAP=136        1.33       7.0     6.0 10.1 -0.1429E+01  0.2042E+02 -0.1257E+02E
 Epicentro: LOS SANTOS - SANTANDER                                             3
 ACTION:UPD 15-06-03 16:52 OP:cam  STATUS:               ID:20150403101918 L   I
 OLDACT:UP  15-04-03 21:06 OP:fm   STATUS:               ID:20150403101741     3
 OLDACT:REG 15-04-03 20:16 OP:fm   STATUS:               ID:20150403101741     3
 2015-04-03-1017-41M.COL___286                                                 6
 STAT SP IPHASW D HRMM SECON CODA AMPLIT PERI AZIMU VELO AIN AR TRES W  DIS CAZ7
 BAR2 EZ EP   1   1019 36.56                             171   -0.22 7 21.6 188 
 BAR2 EZ ES       1019 51.84                             171    0.4110 21.6 188 
 BAR2 EZ I        1019 57.14         3.5 0.44            172           21.6 188 
 BRR  HZ EP       1019 38.86                             151    0.4410 71.0 300 
 BRR  HN ES       1019 55.10                             151    0.7710 71.0 300 
 BRR  HZ I        1020  2.11         3.4 0.52            151           71.0 300 
 PAM  SZ EP       1019 40.01                             149    0.3810 79.3  39 
 PAM  SN ES       1019 55.54                             149   -0.9410 79.3  39 
 PAM  SZ I        1019 57.75         1.9 0.46            153           79.3  39 
 RUS  HN ES       1019 58.86                             143   -0.0410 99.1 175 
 PTB  HZ EP       1019 44.24                             131   -0.06 9  146 259 
 PTB  HN ES       1020  3.94                             131   -0.87 9  146 259 
 PTB  HZ I        1020  7.39         2.7 0.56            134            146 259 
 ZAR  HZ EP   1   1019 50.07                             121    0.09 6  204 293 
 ZAR  HE ES       1020 14.74                             121   -0.17 9  204 293 
 ZAR  HZ I        1020 20.73         2.4 0.38            124            204 293 
                                                                                
