 2014  7 3 1114 20.7 L   6.818 -73.127131.8  RSN 15 0.4 2.0LRSN                1
 GAP=185        0.98       2.3     4.1  5.9 -0.8879E+00  0.6712E+01  0.1190E+00E
 Epicentro: LOS SANTOS - SANTANDER                                             3
 ACTION:UPD 15-03-16 20:40 OP:nd   STATUS:               ID:20140703111420 L   I
 OLDACT:UP  14-07-04 00:45 OP:spq  STATUS:               ID:20140703110813     3
 OLDACT:REG 14-07-03 20:27 OP:spq  STATUS:               ID:20140703110813     3
 2014-07-03-1108-13M.COL___256                                                 6
 STAT SP IPHASW D HRMM SECON CODA AMPLIT PERI AZIMU VELO AIN AR TRES W  DIS CAZ7
 BAR2 SZ IP     C 1114 39.64                             168    0.9610 25.7 194 
 BAR2 SZ ES   1   1114 52.25                             168   -0.48 7 25.7 194 
 BAR2 SZ I        1114 57.77        12.9 0.25            166           25.7 194 
 RUS  HZ EP       1114 43.19                             140   -0.0310  102 177 
 RUS  HN ES       1115  0.65                             140   -0.1610  102 177 
 PTB  HZ EP       1114 46.20                             128   -0.57 9  150 258 
 PTB  HN ES       1115  7.07                             128   -0.05 9  150 258 
 PTB  HZ I        1115 15.09        20.1 0.42            129            150 258 
 OCA  HZ EP       1114 47.71                             127   -0.05 9  159 352 
 OCA  HN ES       1115  8.71                             127   -0.18 9  159 352 
 OCA  HZ I        1115 14.02         8.3 0.21            130            159 352 
 SPBC HZ EP       1114 48.60                             125    0.18 9  166 219 
 SPBC HN ES       1115 10.33                             125    0.26 9  166 219 
 SPBC HZ I        1115 13.93        14.1 0.32            128            166 219 
 ZAR  HZ EP       1114 52.13                             119   -0.24 8  205 291 
 ZAR  HN ES       1115 17.40                             119    0.31 8  205 291 
 ZAR  HZ I        1115 24.76        12.1 0.26            121            205 291 
 SML  HZ EP       1114 55.90                             114   -0.54 8  243 335 
 SML  HN ES       1115 24.63                             114    0.28 8  243 335 
 SML  HZ I        1115 31.32        13.8 0.10            118            243 335 
 CHI  HZ EP       1114 57.51                             114   -0.40 8  251 196 
 CHI  HN ES       1115 27.11                             114    0.15 8  251 196 
 CHI  HZ I        1115 35.09         5.9 0.30            117            251 196 
 HEL  HZ EP       1115  1.16                             112    0.67 8  275 255 
 HEL  HN ES       1115 31.31                             112   -0.24 8  275 255 
 HEL  HZ I        1115 38.86         6.2 0.36            114            275 255 
 GUY2CHZ EP   4   1115  5.01                             109    1.01 0  304 235 
 GUY2CHN ES       1115 36.93                             109   -0.86 7  304 235 
 GUY2CHZ I        1115 44.61         5.1 0.38                           304 235 
 RREF HZ EP       1115  7.31                             108    0.73 7  325 229 
 RREF HN ES       1115 42.75                             108    0.36 7  325 229 
 RREF HZ I        1115 52.04         6.2 0.38            111            325 229 
 TOL  SZ EP       1115  9.03                             106    0.29 6  346 225 
 TOL  SN ES       1115 46.63                             106    0.40 6  346 225 
 TOL  SZ I        1115 52.00         8.3 0.33            109            346 225 
 PRA  HZ EP       1115 13.39                             104   -0.68 6  395 210 
 PRA  HN ES       1115 55.30                             104   -0.42 6  395 210 
 PRA  HZ I        1115 58.70         3.9 0.27            107            395 210 
 ORTC HN ES       1115 56.15                             104   -0.31 6  398 216 
 ORTC HZ I        1116  3.68         2.9 0.48            107            398 216 
 SJC  HZ EP   4   1115 13.36                             103   -2.38 0  409 327 
 SJC  HN ES   4   1115 54.16                             103   -4.53 0  409 327 
 SJC  HZ I        1115 59.70         2.1 0.52            106            409 327 
                                                                                
