 2016  2 3 1952 23.0 L   6.812 -73.147151.3  RSN  6 0.2 1.9LRSN                1
 GAP=136        0.57       2.6     3.2  4.1  0.1261E+01  0.3402E+01 -0.3608E+01E
 Epicentro: LOS SANTOS - SANTANDER                                             3
 ACTION:UPD 16-03-04 21:23 OP:rebc STATUS:               ID:20160203195223 L   I
 OLDACT:REG 16-02-03 22:05 OP:cara STATUS:               ID:20160203194749     3
 2016-02-03-1947-49M.COL___298                                                 6
 STAT SP IPHASW D HRMM SECON CODA AMPLIT PERI AZIMU VELO AIN AR TRES W  DIS CAZ7
 BAR2 EZ IP       1952 43.43                             170    0.0910 24.6 189 
 BAR2 EZ ES       1952 59.25                             170    0.0710 24.6 189 
 BAR2 EZ I        1953  1.83         9.2 0.34            171           24.6 189 
 PAM  EZ EP       1952 46.10                             152    0.3310 76.4  40 
 PAM  EN ES       1953  3.39                             152   -0.1210 76.4  40 
 PAM  EZ I        1953  5.47        12.9 0.50            155           76.4  40 
 RUS  HZ EP       1952 47.57                             144    0.1610  102 176 
 RUS  HN ES       1953  6.14                             144   -0.3010  102 176 
 RUS  HZ I        1953  7.17         7.8 0.32            148            102 176 
 SPBC HZ EP   9   1952 50.56                             130   -1.47 0  164 219 
 SPBC HN ES       1953 13.29                                    0.10 9  164 219 
 SPBC HZ I        1953 16.04         9.6 0.14            132            164 219 
 ZAR  HZ EP       1952 55.40                             124   -0.36 9  203 292 
 ZAR  HN ES       1953 21.59                             124    0.29 9  203 292 
 ZAR  HZ I        1953 26.93         8.8 0.42            124            203 292 
 SML  HZ EP       1952 59.69                             119   -0.13 8  242 335 
 SML  HN ES       1953 28.37                             119   -0.15 8  242 335 
 SML  HZ I        1953 31.69        10.8 0.26            120            242 335 
                                                                                
