 2017  3 3 1137  9.2 L   6.502 -73.757 84.1  RSN  5 0.4 1.4LRSN                1
 GAP=179        1.00       5.9     3.5  8.7 -0.8258E+00  0.1375E+02  0.8869E+01E
 Epicentro: SANTA HELENA DEL OPON - SANTANDER                                  3
 ACTION:UPD 17-05-25 18:35 OP:jn   STATUS:               ID:20170303113709 L   I
 OLDACT:REG 17-03-03 20:30 OP:lv   STATUS:               ID:20170303112743     3
 2017-03-03-1128-00M.COL___381                                                 6
 STAT SP IPHASW D HRMM SECON CODA AMPLIT PERI AZIMU VELO AIN AR TRES W  DIS CAZ7
 BAR2 EZ EP       1137 23.74                             139   -0.1410 64.3  81 
 BAR2 EZ ES       1137 35.58                             139    0.2210 64.3  81 
 BAR2 EZ I        1137 37.30        10.2 0.26            142           64.3  81 
 BRR  HZ EP       1137 23.39                             138   -0.3910 67.1   4 
 BRR  HE ES       1137 35.60                             138    0.4210 67.1   4 
 BRR  HZ I        1137 36.27         8.6 0.09            139           67.1   4 
 PTB  HZ EP   4   1137 23.51                             134   -1.19 0 77.5 273 
 PTB  HN ES       1137 36.22                             134   -0.6010 77.5 273 
 PTB  HZ I        1137 37.71         7.4 0.12            133           77.5 273 
 ZAR  HZ EP       1137 33.35                             112   -0.42 9  164 312 
 ZAR  HN ES       1137 53.15                             112    0.19 9  164 312 
 ZAR  HZ I        1137 56.59         3.8 0.20            112            164 312 
 HEL  HZ EP       1137 38.75                             108    0.43 9  199 260 
 HEL  HN ES       1138  1.57                             108    0.51 9  199 260 
 HEL  HZ I        1138  5.96         4.1 0.51            108            199 260 
                                                                                
