 2017 12 3 1346 12.9 L   6.818 -73.166144.9  RSN 10 0.2 1.8LRSN                1
 GAP=133        0.52       2.0     2.2  3.5 -0.8226E+00  0.2101E+01  0.7793E+00E
 Epicentro: LOS SANTOS - SANTANDER                                             3
 ACTION:UPD 18-01-04 13:16 OP:rebc STATUS:               ID:20171203134612 L   I
 OLDACT:UP  17-12-04 00:28 OP:dnl  STATUS:               ID:20171203133746     3
 OLDACT:REG 17-12-04 00:03 OP:dnl  STATUS:               ID:20171203133746     3
 2017-12-03-1338-00M.COL___483                                                 6
 STAT SP IPHASW D HRMM SECON CODA AMPLIT PERI AZIMU VELO AIN AR TRES W  DIS CAZ7
 BAR2 EZ EP       1346 32.17                             170   -0.2610 25.0 184 
 BAR2 EZ ES       1346 47.74                             170    0.0510 25.0 184 
 BAR2 EZ I        1346 50.08        16.5 0.46            169           25.0 184 
 PAM  EZ EP       1346 35.16                             151    0.1710 77.3  42 
 PAM  EN ES       1346 52.21                             151   -0.0410 77.3  42 
 PAM  EZ I        1346 54.44         9.4 0.56            155           77.3  42 
 RUS  HZ EP       1346 36.58                             143   -0.1210  103 175 
 RUS  HE ES       1346 55.56                             143    0.2810  103 175 
 RUS  HZ I        1346 56.01         8.0 0.24            146            103 175 
 PTB  HZ EP   4   1346 38.57                             132   -1.04 0  146 258 
 PTB  HN ES       1347  0.08                             132   -0.37 9  146 258 
 PTB  HZ I        1347  3.63         6.0 0.18            131            146 258 
 OCA  HZ EP   2   1346 40.91                             130    0.00 5  158 354 
 SPBC HZ EP   2   1346 41.38                             129    0.06 5  163 218 
 SPBC HE ES       1347  3.64                             129    0.13 9  163 218 
 SPBC HZ I        1347  9.28        10.8 0.24            129            163 218 
 ZAR  HZ EP   2   1346 45.17                             123    0.20 4  201 292 
 ZAR  HE ES       1347 10.08                             123    0.08 9  201 292 
 ZAR  HZ I        1347 20.52         8.5 0.44            122            201 292 
 NOR  HZ EP       1346 48.74                             118    0.26 8  234 234 
 NOR  HE ES       1347 16.51                             118    0.26 8  234 234 
 NOR  HZ I        1347 24.07         5.1 0.16            119            234 234 
 CHI  HZ EP       1346 50.55                             117   -0.12 8  250 195 
 CHI  HE ES       1347 19.77                             117   -0.38 8  250 195 
 CHI  HZ I        1347 24.15         2.9 0.34            118            250 195 
 GUY2CHZ EP   4   1346 59.03                             112    2.66 0  300 234 
 GUY2CHN ES   4   1347 34.34                             112    4.05 0  300 234 
 GUY2CHZ I        1347 37.47         3.3 0.32                           300 234 
                                                                                
