 2012  8 3 1128 34.0 L   6.738 -73.190145.6  RSN  4 0.1 1.4LRSN                1
 GAP=227        0.37       5.8     5.4  6.3  0.1947E+02  0.7067E+01  0.1823E+02E
 Epicentro: VILLANUEVA - SANTANDER                                             3
 ACTION:UPD 12-09-10 11:54 OP:ep   STATUS:               ID:20120803112834 L   I
 2012-08-03-1120-00M.COL___215                                                 6
 STAT SP IPHASW D HRMM SECON CODA AMPLIT PERI AZIMU VELO AIN AR TRES W  DIS CAZ7
 BAR2 SZ EP       1128 53.29                             173   -0.1610 16.1 177 
 BAR2 SZ I        1129  9.37         5.5 0.42                          16.1 177 
 BRR  HZ EP       1128 55.18                             153    0.1110 70.7 305 
 BRR  HN ES   1   1129 11.51                             153   -0.02 7 70.7 305 
 BRR  HZ I        1129 13.42        13.9 0.40                          70.7 305 
 RUS  HZ EP       1128 57.39                             145    0.1410 94.2 173 
 RUS  HN ES   3   1129 15.27                             145   -0.14 2 94.2 173 
 RUS  HZ I        1129 16.85         2.6 0.26                          94.2 173 
 PTB  HZ EP       1129  0.28                             133   -0.10 9  142 261 
 PTB  HE ES   3   1129 21.22                             133    0.23 2  142 261 
 PTB  HZ I        1129 26.10         1.5 0.26                           142 261 
                                                                                
