 2012  4 3 1520 55.7 L   6.811 -73.179140.7  RSN  4 0.1 1.2LRSN                1
 GAP=132        0.30       2.1     4.3  4.6 -0.2360E+01  0.8993E+01 -0.1218E+01E
 Epicentro: LOS SANTOS - SANTANDER                                             3
 ACTION:UPD 12-07-05 11:50 OP:tino STATUS:               ID:20120403152055 L   I
 2012-04-03-1518-18M.COL___178                                                 6
 STAT SP IPHASW D HRMM SECON CODA AMPLIT PERI AZIMU VELO AIN AR TRES W  DIS CAZ7
 BAR2 SZ EP   3   1521 14.73                             170     0.0 2   24 181 
 BAR2 SZ ES   3   1521 29.52                             170    -0.1 2   24 181 
 BRR  HZ EP       1521 16.08                             153     0.010   67 299 
 PAM  SZ EP       1521 17.53                             149     0.110   79  42 
 PAM  SN ES   1   1521 34.38                             149    -0.1 7   79  42 
 RUS  HZ EP       1521 18.99                             142    -0.110  102 174 
 RUS  HE ES   1   1521 37.37                             142     0.1 7  102 174 
 RUS  HZ I        1521 39.95         2.5 0.52                           102 174 
                                                                                
