 2012  2 3 1223  6.0 L   6.758 -73.139141.7  RSN 10 0.3 1.9LRSN                1
 GAP=139        0.73       3.4     3.7  5.0 -0.2139E+00  0.3932E+01  0.4420E+01E
 ACTION:UP  12-03-07 16:27 OP:epov STATUS:               ID:20120203122306 L   I
 2012-02-03-1220-00M.COL___187                                                 6
 STAT SP IPHASW D HRMM SECON CODA AMPLIT PERI AZIMU VELO SNR AR TRES W  DIS CAZ7
 BAR2 SZ EP       1223 25.20                             172    0.1710 18.9 195 
 BAR2 SZ ES       1223 39.82                             172   -0.0810 18.9 195 
 BAR2 SZ I        1223 41.22        17.1 0.30                          18.9 195 
 GIR2 SZ EP       1223 25.27                             165   -0.0310 36.0 350 
 BRR  HZ EP       1223 27.08                             151    0.2210 74.2 301 
 BRR  HE ES       1223 43.73                             151    0.5810 74.2 301 
 BRR  HZ I        1223 49.35        31.1 0.31                          74.2 301 
 PAM  SZ EP   1   1223 28.07                             149    0.12 7 80.6  37 
 PAM  SN ES   1   1223 44.54                             149   -0.56 7 80.6  37 
 RUS  HZ EP   1   1223 28.92                             144   -0.06 7 95.8 176 
 RUS  HE ES   1   1223 46.82                             144   -0.11 7 95.8 176 
 RUS  HZ I        1223 49.38        10.2 0.43                          95.8 176 
 PTB  HZ EP       1223 32.05                             131   -0.55 9  148 261 
 PTB  HE ES   1   1223 52.82                             131   -0.56 7  148 261 
 ZAR  HE ES   1   1224  3.65                             121   -0.08 6  207 293 
 ZAR  HZ I        1224  9.85        10.7 0.39                           207 293 
 NOR  SZ EP   1   1223 41.19                             118   -0.05 6  233 236 
 NOR  SE ES   1   1224  8.73                             118   -0.03 6  233 236 
 CHI  HZ EP   1   1223 43.43                             117    0.46 6  244 196 
 CHI  HN ES   1   1224 12.00                             117    0.16 6  244 196 
 CHI  HZ I        1224 15.96         4.3 0.21                           244 196 
 PRA  HZ EP   1   1223 59.37                             106    0.45 4  388 210 
                                                                                
