 2013  4 3 1019 32.0 L   6.819 -73.172139.9  RSN 10 0.5 1.9LRSN                1
 GAP=132        1.02       3.9     5.7  9.0 -0.8778E+00  0.1610E+02 -0.2059E+01E
 Epicentro: LOS SANTOS - SANTANDER                                             3
 ACTION:UPD 13-05-22 14:35 OP:EP   STATUS:               ID:20130403101932 L   I
 2013-04-03-1017-49M.COL___208                                                 6
 STAT SP IPHASW D HRMM SECON CODA AMPLIT PERI AZIMU VELO AIN AR TRES W  DIS CAZ7
 BAR2 SZ EP       1019 51.02                             169    0.0910 25.1 183 
 BAR2 SZ ES   1   1020  5.34                             169   -0.39 7 25.1 183 
 BAR2 SZ I        1020  7.30        31.4 0.20            161           25.1 183 
 BRR  HZ EP       1019 52.84                             153    0.5610 67.6 298 
 BRR  HN ES   4   1020  9.02                             153    0.89 0 67.6 298 
 BRR  HZ I        1020 13.56        17.7 0.12            144           67.6 298 
 PAM  SZ EP       1019 53.92                             150    0.3310 77.7  42 
 PAM  SN ES   1   1020 10.86                             150    0.41 7 77.7  42 
 PAM  SZ I        1020 13.11         9.2 0.60            149           77.7  42 
 RUS  HZ EP   1   1019 55.45                             142    0.13 7  103 174 
 RUS  HN ES   1   1020 13.33                             142   -0.21 7  103 174 
 RUS  HZ I        1020 14.96         5.2 0.22            133            103 174 
 PTB  HZ EP       1019 57.95                             131   -0.29 9  145 258 
 PTB  HN ES   1   1020 18.63                             131   -0.10 7  145 258 
 PTB  HZ I        1020 25.41         7.0 0.30            121            145 258 
 OCA  HZ EP   1   1019 59.07                             129   -0.53 7  158 354 
 OCA  HN ES   1   1020 20.53                             129   -0.62 7  158 354 
 OCA  HZ I        1020 25.92         9.8 0.34            123            158 354 
 ZAR  HN ES   1   1020 29.47                             121    1.07 6  201 292 
 ZAR  HZ I        1020 34.57        13.0 0.38            114            201 292 
 SML  HN ES   1   1020 34.93                             116   -1.05 6  241 336 
 CHI  HN ES   1   1020 38.08                             116   -0.67 6  250 194 
 PRA  HZ EP   1   1020 25.67                             105    0.34 4  392 209 
 PRA  HZ I        1021 12.11         2.4 0.46            100            392 209 
                                                                                
