 2011 12 3 1933 53.4 L   6.825 -73.114138.6  RSN  4 0.4 1.6LRSN                1
 GAP=139        0.75       5.7     8.3 10.5  0.9233E+01 -0.1498E+02 -0.8584E+00E
 Epicentro: LOS SANTOS - SANTANDER                                             3
 ACTION:UPD 12-07-13 16:14 OP:ep   STATUS:               ID:20111203193353 L   I
 2011-12-03-1930-00M.COL___182                                                 6
 STAT SP IPHASW D HRMM SECON CODA AMPLIT PERI AZIMU VELO AIN AR TRES W  DIS CAZ7
 BAR2 SZ EP   1   1934 11.37                             168   -0.89 7 26.9 196 
 BAR2 SZ I        1934 27.09         6.8 0.59                          26.9 196 
 PAM  SZ EP   1   1934 14.83                             151    0.23 7 73.0  39 
 PAM  SE ES   2   1934 31.12                             151   -0.01 5 73.0  39 
 BRR  HZ EP       1934 14.03                             150    0.1410 73.0 295 
 BRR  HZ I        1934 18.85         9.7 0.21                          73.0 295 
 BRR  HE ES   1   1934 29.90                             150    0.03 7 73.0 295 
 RUS  HZ EP   1   1934 16.89                             141    0.23 7  103 178 
 RUS  HE ES   1   1934 34.95                             141    0.16 7  103 178 
                                                                                
