 2012  4 3 1939 57.9 L   6.792 -73.108150.1  RSN  4 0.3 1.9LRSN                1
 GAP=142        0.46       3.2     4.3  5.4  0.1823E+00 -0.8209E+00  0.2083E+01E
 Epicentro: LOS SANTOS - SANTANDER                                             3
 ACTION:UPD 12-07-05 11:50 OP:tino STATUS:               ID:20120403193957 L   I
 2012-04-03-1940-00M.COL___196                                                 6
 STAT SP IPHASW D HRMM SECON CODA AMPLIT PERI AZIMU VELO AIN AR TRES W  DIS CAZ7
 BRR  HZ EP       1940 19.80                             152     0.110   75 298 
 BRR  HN ES   1   1940 36.86                             152     0.1 7   75 298 
 BRR  HZ I        1940 39.35        13.1 0.12                            75 298 
 PAM  SZ EP       1940 20.44                             152     0.010   76  37 
 PAM  SN ES   1   1940 37.95                             152    -0.1 7   76  37 
 RUS  HZ EP       1940 21.99                             145     0.010  100 178 
 RUS  HN ES   1   1940 40.58                             145    -0.2 7  100 178 
 ZAR  HN ES   3   1940 55.43                             122    -1.4 2  208 292 
                                                                                
