 2012  5 3 1822 17.8 L   6.725 -73.188149.1  RSN  4 0.3 1.6LRSN                1
 GAP=227        0.78       8.3     8.1  8.5  0.3450E+02  0.1035E+02  0.4261E+01E
 Epicentro: VILLANUEVA - SANTANDER                                             3
 ACTION:UP  12-07-05 12:01 OP:pat  STATUS:               ID:20120503182218 L   I
 2012-05-03-1820-00M.COL___186                                                 6
 STAT SP IPHASW D HRMM SECON CODA AMPLIT PERI AZIMU VELO SNR AR TRES W  DIS CAZ7
 BAR2 SZ EP   2   1822 38.04                             174     0.4 5   15 177 
 BAR2 SZ ES   1   1822 52.56                             174    -0.6 7   15 177 
 BAR2 SZ I        1822 53.52         9.9 0.40                            15 177 
 BRR  HZ EP   1   1822 39.20                             153    -0.1 7   72 306 
 BRR  HZ I        1822 42.91         9.2 0.36                            72 306 
 BRR  HE ES   1   1822 56.52                             153     0.4 7   72 306 
 RUS  HZ EP   1   1822 41.26                             147     0.0 7   93 173 
 RUS  HN ES   1   1822 59.99                             147     0.3 7   93 173 
 RUS  HZ I        1823  2.49         3.9 0.43                            93 173 
 PTB  HZ EP   1   1822 44.29                             134    -0.2 7  142 262 
 PTB  HN ES   1   1823  5.20                             134    -0.1 7  142 262 
 PTB  HZ I        1823  7.29         4.4 0.15                           142 262 
                                                                                
