 2013  8 3 1547 23.0 L   6.828 -73.164157.6  RSN  5 0.5 1.7LRSN                1
 GAP=191        1.14       7.5     8.6  9.5  0.5402E+01  0.2654E+00 -0.2218E+02E
 Epicentro: LOS SANTOS - SANTANDER                                             3
 ACTION:UPD 14-01-14 08:58 OP:ep   STATUS:               ID:20130803154723 L   I
 OLDACT:UP  13-08-03 17:03 OP:cam  STATUS:               ID:20130803153959     3
 OLDACT:REG 13-08-03 15:04 OP:cam  STATUS:               ID:20130803153959     3
 2013-08-03-1539-59M.COL___270                                                 6
 STAT SP IPHASW D HRMM SECON CODA AMPLIT PERI AZIMU VELO AIN AR TRES W  DIS CAZ7
 BAR2 SZ EP       1547 43.37                             170   -0.7110 26.1 184 
 BAR2 SZ ES       1548  0.42                             170   -0.1210 26.1 184 
 BAR2 SZ I        1548  4.84         6.3 0.28            165           26.1 184 
 GIR2 SZ EP       1547 44.20                             169    0.2210 28.0 353 
 GIR2 SZ I        1548  1.02        10.2 0.38            167           28.0 353 
 BRR  HZ EP       1547 45.97                             155    0.7210 68.0 297 
 BRR  HN ES       1548  2.95                             155    0.3310 68.0 297 
 PTB  HZ EP       1547 51.18                             135    0.37 9  146 258 
 PTB  HN ES       1548 12.07                             135   -0.45 9  146 258 
 PTB  HZ I        1548 14.41         8.1 0.12            138            146 258 
 SML  HZ EP   1   1547 59.60                             120   -0.31 6  240 335 
 SML  HN ES       1548 28.30                             120   -0.41 8  240 335 
                                                                                
