 2017  5 3 2249  1.5 L   6.561 -73.532112.0  RSN 11 0.4 2.2LRSN                1
 GAP= 88        1.05       3.0     2.8  6.4 -0.6679E+00  0.3398E+01  0.2484E+01E
 Epicentro: EL CARMEN - SANTANDER                                              3
 ACTION:UPD 17-06-16 13:32 OP:jn   STATUS:               ID:20170503224901 L   I
 OLDACT:UP  17-05-04 07:05 OP:dnl  STATUS:               ID:20170503224742     3
 OLDACT:UP  17-05-04 07:05 OP:dnl  STATUS:               ID:20170503224742     3
 OLDACT:REG 17-05-04 06:05 OP:dnl  STATUS:               ID:20170503224742     3
 2017-05-03-2248-00M.COL___377                                                 6
 STAT SP IPHASW D HRMM SECON CODA AMPLIT PERI AZIMU VELO AIN AR TRES W  DIS CAZ7
 BRR  HZ EP       2249 18.38                             148   -0.1910 63.6 342 
 BRR  HN ES       2249 32.11                             148    0.2010 63.6 342 
 BRR  HZ I        2249 38.95        29.0 0.10            150           63.6 342 
 RUS  HZ EP       2249 20.67                             138   -0.4510 89.1 146 
 RUS  HN ES       2249 36.61                             138    0.1610 89.1 146 
 RUS  HZ I        2249 37.71        33.0 0.36            143           89.1 146 
 PTB  HZ IP   9 C 2249 20.37                             134   -1.19 0  102 269 
 PTB  HN ES       2249 35.14                             133   -0.9110  102 269 
 PTB  HZ I        2249 36.64        39.0 0.18            137            102 269 
 SPBC HZ EP       2249 22.47                             130   -0.5210  117 211 
 SPBC HN ES       2249 39.55                             130   -0.2310  117 211 
 SPBC HZ I        2249 44.81        48.9 0.30            134            117 211 
 PAM  EZ EP       2249 24.10                             127   -0.2910  126  47 
 PAM  EN ES       2249 42.32                             127    0.0610  126  47 
 PAM  EZ I        2249 46.39        13.5 0.22            132            126  47 
 ZAR  HZ EP       2249 29.33                             117    0.12 9  179 305 
 ZAR  HN ES   4   2249 52.72                             117    1.87 0  179 305 
 ZAR  HZ I        2249 53.73        53.1 0.56            120            179 305 
 YPLC HZ EP       2249 29.53                             116   -0.01 9  181 135 
 YPLC HN ES       2249 51.89                             116    0.46 9  181 135 
 YPLC HZ I        2249 53.68        64.5 0.38            121            181 135 
 NOR  HN EP       2249 29.27                             116   -0.60 9  185 233 
 NOR  HE ES       2249 51.99                             116   -0.03 9  185 233 
 CHI  HZ EP   2   2249 33.59                             112   -0.08 4  215 186 
 CHI  HN ES       2249 59.06                             112    0.26 8  215 186 
 CHI  HZ I        2250  3.88         5.9 0.20            116            215 186 
 HEL  HZ EP       2249 35.68                             111    0.94 8  225 260 
 HEL  HN ES       2250  0.80                             111    0.11 8  225 260 
 HEL  HZ I        2250  5.27        15.2 0.36            115            225 260 
 CBOC HZ EP   2   2249 41.29                             105   -0.18 4  285 254 
 CBOC HN ES       2250 13.41                             105    0.73 7  285 254 
 CBOC HZ I        2250 15.99         6.5 0.42            109            285 254 
                                                                                
