 2017  6 3 2348 31.0 L   6.761 -73.202148.6  RSN  7 0.3 1.6LRSN                1
 GAP=205        0.75       4.6     4.6  7.5  0.6037E+01 -0.1096E+02  0.4764E+01E
 Epicentro: ZAPATOCA - SANTANDER                                               3
 ACTION:UPD 17-09-14 16:49 OP:jn   STATUS:               ID:20170603234831 L   I
 OLDACT:REG 17-06-04 08:23 OP:lv   STATUS:               ID:20170603234736     3
 2017-06-03-2348-00M.COL___353                                                 6
 STAT SP IPHASW D HRMM SECON CODA AMPLIT PERI AZIMU VELO AIN AR TRES W  DIS CAZ7
 BRR  HZ EP       2348 52.11                             154   -0.1910 68.1 304 
 BRR  HN ES       2349  9.25                             154    0.3410 68.1 304 
 RUS  HZ EP       2348 54.73                             146   -0.0610 97.0 172 
 RUS  HZ I        2349 14.52         3.2 0.18            142           97.0 172 
 PTB  HZ EP       2348 57.40                             134   -0.20 9  141 260 
 PTB  HN ES       2349 17.92                             134   -0.43 9  141 260 
 PTB  HZ I        2349 23.59         5.3 0.41            137            141 260 
 SPBC HN ES   1   2349 20.91                             131   -0.03 7  156 218 
 YPLC HZ EP       2349  0.96                             127    0.01 9  176 149 
 ZAR  HZ EP       2349  3.76                             124    0.53 9  200 294 
 ZAR  HE ES       2349 28.17                             124   -0.20 9  200 294 
 ZAR  HZ I        2349 34.58         5.8 0.28            126            200 294 
 NOR  HN ES   1   2349 34.12                             120    0.63 6  227 234 
                                                                                
