 2012  2 3 2042 34.1 L   6.775 -73.136146.9  RSN  8 0.3 2.0LRSN                1
 GAP=139        0.73       4.0     5.5  5.2 -0.2223E+01  0.8090E+01  0.6484E+01E
 ACTION:UP  12-03-07 16:27 OP:epov STATUS:               ID:20120203204234 L   I
 2012-02-03-2040-00M.COL___188                                                 6
 STAT SP IPHASW D HRMM SECON CODA AMPLIT PERI AZIMU VELO SNR AR TRES W  DIS CAZ7
 BAR2 SZ EP       2042 53.52                             172   -0.2510 20.8 194 
 BAR2 SZ ES   1   2043  8.97                             172   -0.18 7 20.8 194 
 BAR2 SZ I        2043 11.57        46.5 0.26                          20.8 194 
 GIR2 SZ EP       2042 53.85                             166   -0.0910 34.2 349 
 GIR2 SZ ES   1   2043  9.42                             166   -0.03 7 34.2 349 
 BRR  HZ EP       2042 55.71                             152    0.2610 73.5 300 
 BRR  HE ES   1   2043 12.69                             152    0.55 7 73.5 300 
 BRR  HZ I        2043 14.70        22.7 0.22                          73.5 300 
 PAM  SZ EP       2042 56.72                             150    0.2410 78.9  38 
 PAM  SN ES   1   2043 13.79                             150   -0.18 7 78.9  38 
 RUS  HZ EP       2042 57.73                             145    0.0110 97.8 177 
 RUS  HN ES   1   2043 16.12                             145   -0.05 7 97.8 177 
 RUS  HZ I        2043 17.76        13.5 0.30                          97.8 177 
 PTB  HZ EP       2043  0.45                             132   -0.71 9  148 260 
 PTB  HZ I        2043 26.63         9.2 0.26                           148 260 
 NOR  SZ EP       2043  9.93                             119    0.16 8  234 235 
 CHI  HZ EP       2043 11.91                             118    0.35 8  246 196 
 CHI  HN ES   2   2043 41.20                             118    0.39 4  246 196 
                                                                                
