 2011  8 3 2133 56.6 L   6.775 -73.120151.2  RSN 18 0.4 4.4LRSN                1
 GAP=124        0.79       3.4     4.3  5.7 -0.6611E+01  0.9024E+01  0.1797E+01E
 Epicentro: LOS SANTOS - SANTANDER                                             3
 ACTION:UPD 12-07-25 14:05 OP:epov STATUS:               ID:20110803213356 L   I
 2011-08-03-2120-43S.COL___128                                                 6
 STAT SP IPHASW D HRMM SECON CODA AMPLIT PERI AZIMU VELO AIN AR TRES W  DIS CAZ7
 GIR2 SZ EP       2134 17.50                             166    0.5010 34.6 346 
 PAM  SZ IP       2134 19.80                             151    0.3910 77.8  37 
 PAM  SN ES       2134 36.77                             151   -0.4410 77.8  37 
 RUS  HZ IP     C 2134 20.84                             146    0.1610 97.7 178 
 RUS  HN ES   1   2134 39.09                             146   -0.37 7 97.7 178 
 RUS  HZ I        2134 42.41      3513.6 0.47                          97.7 178 
 NOR  SZ EP   1   2134 32.54                             119   -0.19 6  235 235 
 NOR  SN ES   1   2135  0.30                             119   -0.61 6  235 235 
 CHI  HZ IP     D 2134 34.58                             118    0.18 8  247 196 
 CHI  HE ES       2135  4.16                             118    0.28 8  247 196 
 CHI  HZ I        2135  7.67      1170.5 0.61                           247 196 
 ROSC BN ES   1   2135  5.18                             118    0.36 6  252 212 
 ROSC BZ I        2135 12.05      2444.0 0.48                           252 212 
 HEL  HZ EP       2134 36.90                             115   -0.43 8  274 257 
 HEL  HN ES   1   2135  8.38                             115   -0.71 6  274 257 
 HEL  HZ I        2135 15.27      1463.6 0.28                           274 257 
 VIL  SZ EP   1   2134 39.67                             113   -0.36 5  301 192 
 VIL  SN ES   1   2135 13.95                             113    0.05 5  301 192 
 VIL  SZ I        2135 17.55       897.4 0.41                           301 192 
 GUY  SZ EP       2134 40.87                             113    0.06 7  304 236 
 GUY  SE ES   1   2135 16.05                             113    0.75 5  304 236 
 GUY  SZ I        2135 24.68      2888.7 0.25                           304 236 
 DBB  SZ EP       2134 45.55                             110    0.90 7  343 275 
 DBB  SZ I        2135 26.78       316.5 0.25                           343 275 
 TOL  SZ EP       2134 45.08                             110    0.00 7  344 225 
 SDV  BZ EP       2134 46.28                             109   -0.52 6  360  50 
 SDV  BZ I        2135 30.13       449.4 0.53                           360  50 
 PRA  HZ EP   1   2134 49.84                             107   -0.36 4  391 210 
 PRA  HN ES   1   2135 31.86                             107   -0.14 4  391 210 
 SJA  SZ EP       2134 50.46                             107   -0.64 6  398 193 
 SJA  SZ I        2135 42.36      1311.0 0.36                           398 193 
 GUA  SZ EP   1   2134 59.82                             104    0.28 4  471 173 
 HORQ SZ EP   1   2135  6.64                             102   -0.55 3  532 227 
 MARA HZ EP   1   2135  6.87                             102   -0.81 3  537 216 
 SOTA HZ EP   1   2135 20.77                              99    0.10 2  643 217 
 SOTA HZ I        2136 37.65       129.4 0.70                           643 217 
                                                                                
