 2014 10 3 2149 30.9 L   6.831 -73.136145.2  RSN  5 0.3 1.3LRSN                1
 GAP=143        0.79       5.2     4.8  7.7 -0.1123E+02  0.6795E+01 -0.3885E+01E
 Epicentro: LOS SANTOS - SANTANDER                                             3
 ACTION:UPD 14-11-29 23:46 OP:nd   STATUS:               ID:20141003214930 L   I
 OLDACT:REG 14-10-04 09:01 OP:spq  STATUS:               ID:20141003213750     3
 2014-10-03-2137-50M.COL___289                                                 6
 STAT SP IPHASW D HRMM SECON CODA AMPLIT PERI AZIMU VELO AIN AR TRES W  DIS CAZ7
 BAR2 SZ EP       2149 51.03                             169    0.5010 26.9 191 
 BAR2 SZ ES   1   2150  6.01                             169    0.16 7 26.9 191 
 BAR2 SZ I        2150  7.77         6.5 0.20            166           26.9 191 
 PAM  SZ EP       2149 52.41                             152   -0.4410 74.0  41 
 PAM  SN ES   1   2150  9.86                             152   -0.12 7 74.0  41 
 PAM  SZ I        2150 11.68         2.6 0.33            158           74.0  41 
 RUS  HZ EP       2149 55.03                             143    0.2010  104 177 
 RUS  HN ES   1   2150 13.51                             143   -0.00 7  104 177 
 RUS  HZ I        2150 15.07         1.4 0.38            145            104 177 
 PTB  HZ EP       2149 58.00                             131    0.03 9  149 258 
 PTB  HN ES       2150 19.23                             131    0.14 9  149 258 
 PTB  HZ I        2150 25.04         2.9 0.54            132            149 258 
 SPBC HN ES       2150 21.58                             128   -0.53 9  167 219 
 SPBC HZ I        2150 31.04         5.3 0.30            129            167 219 
                                                                                
