 2017  4 3 2234 38.2 L   6.770 -73.099136.4  RSN  5 0.3 1.1LRSN                1
 GAP=144        0.74       5.1     5.5  7.0  0.1553E+02 -0.7409E+01 -0.9554E+01E
 Epicentro: LOS SANTOS - SANTANDER                                             3
 ACTION:UPD 17-05-30 21:08 OP:jn   STATUS:               ID:20170403223438 L   I
 OLDACT:DUP 17-04-04 04:27 OP:lv   STATUS:               ID:20170403222749d    3
 2017-04-03-2228-00M.COL___371                                                 6
 STAT SP IPHASW D HRMM SECON CODA AMPLIT PERI AZIMU VELO AIN AR TRES W  DIS CAZ7
 BAR2 EZ ES       2235 10.69                             170   -0.4010 21.7 205 
 PAM  EZ EP       2234 59.56                             149    0.1510 76.9  35 
 BRR  HN ES       2235 14.94                             149    0.2010 77.3 299 
 RUS  HZ EP       2235  0.51                             143   -0.2810 97.1 179 
 RUS  HN ES       2235 18.78                             143    0.3810 97.1 179 
 RUS  HZ I        2235 19.86         2.1 0.24            142           97.1 179 
 ZAR  HN ES       2235 35.99                             119   -0.06 8  210 292 
                                                                                
