 2014  9 3 2251  4.5 L   6.808 -73.151142.7  RSN 11 0.6 2.0LRSN                1
 GAP=135        1.46       4.4     6.1  7.6 -0.5704E+01  0.1248E+02  0.3165E+01E
 Epicentro: LOS SANTOS - SANTANDER                                             3
 ACTION:UPD 14-10-03 23:02 OP:nd   STATUS:               ID:20140903225104 L   I
 OLDACT:REG 14-09-04 03:46 OP:stll STATUS:               ID:20140903224819     3
 2014-09-03-2248-19M.COL___271                                                 6
 STAT SP IPHASW D HRMM SECON CODA AMPLIT PERI AZIMU VELO AIN AR TRES W  DIS CAZ7
 BAR2 SZ EP       2251 23.85                             170    0.0810 24.1 188 
 BAR2 SZ ES       2251 38.75                             170   -0.0610 24.1 188 
 BAR2 SZ I        2251 41.70        13.2 0.50            168           24.1 188 
 BRR  HZ EP       2251 25.67                             152    0.4110 70.2 298 
 BRR  HN ES       2251 42.64                             152    1.1910 70.2 298 
 PAM  SZ EP       2251 26.65                             150    0.2810 77.1  40 
 PAM  SZ I        2251 26.98        20.3 0.24            154           77.1  40 
 PAM  SN ES       2251 43.55                             150    0.1210 77.1  40 
 RUS  HZ EP       2251 27.94                             143   -0.0710  102 176 
 RUS  HN ES       2251 45.74                             143   -0.6210  102 176 
 RUS  HZ I        2251 49.29         8.6 0.36            143            102 176 
 PTB  HZ EP       2251 31.36                             131    0.19 9  147 258 
 PTB  HN ES       2251 51.65                             131   -0.33 9  147 258 
 PTB  HZ I        2251 55.91         8.9 0.12            132            147 258 
 SPBC HZ EP       2251 32.79                             128    0.00 9  163 219 
 SPBC HN ES       2251 54.32                             128   -0.54 9  163 219 
 SPBC HZ I        2251 58.87        15.1 0.28            129            163 219 
 NOR  HZ EP       2251 40.56                             118    0.51 8  235 234 
 NOR  HN ES       2252  6.76                             118   -1.02 8  235 234 
 NOR  HZ I        2252 11.67         7.0 0.66            118            235 234 
 SML  HZ EP       2251 40.43                             117   -0.40 8  243 335 
 SML  HN ES       2252  7.64                             117   -1.53 8  243 335 
 SML  HZ I        2252 12.32        15.5 0.10            119            243 335 
 CHI  HZ EP       2251 41.67                             116   -0.43 8  249 195 
 CHI  HN ES       2252 11.54                             116    0.11 8  249 195 
 CHI  HZ I        2252 19.48         3.3 0.48            117            249 195 
 GUY2CHZ EP       2251 48.91                             112    0.95 7  301 235 
 GUY2CHE ES       2252 22.88                             112    1.01 7  301 235 
 GUY2CHZ I        2252 28.79         4.0 0.46                           301 235 
 PRA  HZ EP       2251 58.01                             106    0.05 6  392 209 
 PRA  HZ I        2251 59.61         3.6 0.16            107            392 209 
                                                                                
