 2016  9 3 2229 22.4 L   6.305 -73.633111.6  RSN  5 0.5 1.4LRSN                1
 GAP=103        1.30       6.2     5.2 11.7  0.6644E+01  0.1613E+02 -0.1102E+02E
 Epicentro: SANTA HELENA DEL OPON - SANTANDER                                  3
 ACTION:UPD 17-08-17 21:06 OP:lp   STATUS:               ID:20160903222922 L   I
 OLDACT:REG 16-09-04 04:02 OP:and  STATUS:               ID:20160903222735     3
 2016-09-03-2228-00M.COL___355                                                 6
 STAT SP IPHASW D HRMM SECON CODA AMPLIT PERI AZIMU VELO AIN AR TRES W  DIS CAZ7
 BAR2 EZ EP       2229 40.10                             150    0.5410 59.1  57 
 BAR2 EZ ES       2229 52.85                             150   -0.0710 59.1  57 
 BAR2 EZ I        2229 55.49        12.6 0.38            159           59.1  57 
 RUS  HZ EP       2229 40.87                             143   -0.1810 76.0 127 
 RUS  HN ES       2229 55.40                             143   -0.1710 76.0 127 
 RUS  HZ I        2229 56.15         2.8 0.16            148           76.0 127 
 SPBC HZ EP       2229 41.27                             139   -0.0510 87.0 214 
 SPBC HN ES       2229 56.78                             139    0.7210 87.0 214 
 SPBC HZ I        2230  3.96         3.7 0.11            140           87.0 214 
 PTB  HZ EP       2229 41.12                             136   -0.7310 94.7 286 
 PTB  HE ES       2229 56.32                             136   -0.6810 94.7 286 
 PTB  HZ I        2229 58.54         8.0 0.32            140           94.7 286 
 ZAR  HZ EP   2   2229 51.12                             116   -0.08 4  189 314 
 ZAR  HN ES       2230 14.47                             116    0.83 9  189 314 
                                                                                
