 2011  5 3 2231 36.3 L   6.799 -73.134144.5  RSN  7 0.3 1.8LRSN                1
 GAP=138        0.73       3.9     7.4  6.1  0.1076E+01 -0.6490E+01 -0.4200E+01E
 Epicentro: LOS SANTOS - SANTANDER                                             3
 ACTION:UP  11-06-29 08:50 OP:tino STATUS:               ID:20110503223136 L   I
 2011-05-03-2230-04S.COL___133                                                 6
 STAT SP IPHASW D HRMM SECON CODA AMPLIT PERI AZIMU VELO SNR AR TRES W  DIS CAZ7
 BTL  SZ EP   1   2231 55.65                             172    -0.1 7   20 312 
 BTL  SZ ES   1   2232 10.86                             172     0.0 7   20 312 
 BAR2 SZ EP   1   2231 55.55                             170    -0.3 7   24 193 
 BAR2 SZ I        2231 56.12        20.7 0.11                            24 193 
 BAR2 SZ ES   1   2232 10.64                             170    -0.4 7   24 193 
 BRR  HZ EP   1   2231 57.31                             152    -0.1 7   72 298 
 BRR  HN ES   1   2232 14.07                             152     0.2 7   72 298 
 BRR  HZ I        2232 18.17        28.9 0.14                            72 298 
 PAM  SZ EP   1   2231 58.56                             151     0.2 7   77  39 
 PAM  SN ES   1   2232 15.33                             151    -0.2 7   77  39 
 PAM  SZ I        2232 18.60         3.2 0.18                            77  39 
 RUS  HZ EP   1   2231 59.86                             144    -0.1 7  100 177 
 RUS  HE ES   1   2232 18.78                             144     0.4 7  100 177 
 RUS  HZ I        2232 20.64         9.5 0.34                           100 177 
 BRI  SZ EP   1   2232  0.59                             141     0.5 7  108  20 
 BRI  SZ I        2232 26.68         5.1 0.22                           108  20 
 OCA  SZ EP   1   2232  4.03                             129    -0.5 7  161 353 
 OCA  SZ ES   1   2232 26.85                             129     0.3 7  161 353 
 OCA  SZ I        2232 30.18        12.9 0.36                           161 353 
                                                                                
