 2014 12 3 2050 31.5 L   6.804 -73.160133.7  RSN  4 0.5 1.4LRSN                1
 GAP=142        1.24       7.1     6.9 14.1 -0.1801E+02  0.3631E+02 -0.1705E+01E
 Epicentro: LOS SANTOS - SANTANDER                                             3
 ACTION:UPD 15-02-10 17:00 OP:nd   STATUS:               ID:20141203205031 L   I
 OLDACT:DUP 14-12-04 04:32 OP:mh   STATUS:               ID:20141203204750d    3
 2014-12-03-2047-48M.COL___306                                                 6
 STAT SP IPHASW D HRMM SECON CODA AMPLIT PERI AZIMU VELO AIN AR TRES W  DIS CAZ7
 PAM  SZ EP       2050 52.98                             148    0.5310 78.0  41 
 PAM  SN ES       2051  8.38                             148   -0.4510 78.0  41 
 PAM  SZ I        2051 12.00         6.5 0.50            152           78.0  41 
 RUS  HZ EP       2050 54.43                             141    0.3310  101 175 
 RUS  HN ES       2051 11.65                             141   -0.1010  101 175 
 RUS  HZ I        2051 13.44         2.6 0.38            144            101 175 
 PTB  HZ EP       2050 56.60                             129   -0.74 9  146 259 
 PTB  HN ES       2051 18.17                             129    0.65 9  146 259 
 PTB  HZ I        2051 20.47         4.4 0.12            131            146 259 
 NOR  HN ES   1   2051 33.02                             116   -0.65 6  234 234 
 NOR  HZ I        2051 40.22         2.9 0.33            118            234 234 
                                                                                
