 2016 12 3 2328 21.9 L   6.811 -73.146148.0  RSN 17 0.3 2.4LRSN                1
 GAP= 65        0.84       3.0     2.6  4.3 -0.5415E+00  0.2397E+01  0.3955E+01E
 Epicentro: LOS SANTOS - SANTANDER                                             3
 ACTION:UPD 17-01-11 20:12 OP:rebc STATUS:               ID:20161203232821 L   I
 OLDACT:UP  16-12-04 06:10 OP:edw  STATUS:               ID:20161203232743     3
 OLDACT:UP  16-12-04 06:09 OP:edw  STATUS:               ID:20161203232743     3
 OLDACT:REG 16-12-04 03:28 OP:edw  STATUS:               ID:20161203232743     3
 2016-12-03-2328-00M.COL___348                                                 6
 STAT SP IPHASW D HRMM SECON CODA AMPLIT PERI AZIMU VELO AIN AR TRES W  DIS CAZ7
 BAR2 EZ IP     C 2328 41.65                             170   -0.1510 24.5 189 
 BAR2 EZ ES       2328 57.02                             170   -0.3210 24.5 189 
 BAR2 EZ I        2328 59.43        62.2 0.32            166           24.5 189 
 BRR  HZ IP     C 2328 43.41                             153    0.1710 70.6 298 
 BRR  HN ES       2329  0.58                             153    0.6910 70.6 298 
 BRR  HZ I        2329  4.57        32.2 0.22            151           70.6 298 
 PAM  EZ EP     C 2328 44.38                             151    0.1010 76.5  40 
 PAM  EN ES       2329  1.34                             151   -0.4110 76.5  40 
 PAM  EZ I        2329  3.81        49.8 0.48            157           76.5  40 
 PTB  HZ EP   9   2328 48.32                             132   -0.73 0  148 258 
 PTB  HN ES       2329  9.04                             132   -0.47 9  148 258 
 PTB  HZ I        2329 11.96        18.1 0.14            131            148 258 
 TAM  HZ EP       2328 49.88                             131    0.11 9  155 105 
 TAM  HN ES       2329 11.69                             131    0.17 9  155 105 
 ZAR  HZ EP       2328 54.24                             123   -0.18 9  204 292 
 ZAR  HN ES       2329 19.92                             123    0.12 9  204 292 
 ZAR  HZ I        2329 25.33        19.9 0.14            123            204 292 
 NOR  HZ EP       2328 57.99                             119    0.18 8  235 234 
 NOR  HN ES       2329 25.64                             119   -0.20 8  235 234 
 NOR  HZ I        2329 31.26        14.7 0.26            118            235 234 
 CHI  HZ EP       2328 59.87                             117    0.04 8  250 195 
 CHI  HN ES       2329 29.17                             117   -0.26 8  250 195 
 CHI  HZ I        2329 35.34        11.2 0.34            117            250 195 
 ROSC BZ EP   4   2329  1.83                             117    1.60 0  254 211 
 ROSC BN ES       2329 30.37                             117    0.22 8  254 211 
 ROSC BZ I        2329 36.31        27.9 0.40            117            254 211 
 URE  HZ EP       2329  2.15                             114   -0.85 7  283 292 
 URE  HN ES   4   2329 33.58                             114   -1.50 0  283 292 
 URE  HZ I        2329 43.85        14.8 0.24            114            283 292 
 PTGC HZ EP   9   2329  4.87                             112   -1.10 0  310 159 
 PTGC HN ES       2329 38.55                             112   -0.71 7  310 159 
 LL6C HZ EP   9   2328 47.58                             111   -20.0 0  324 358 
 LL6C HN ES       2329 22.56                                   -0.63 7  324 358 
 ELA  HZ EP   4   2329 11.25                             111    2.34 0  330 229 
 ELA  HN ES   4   2329 47.46                             111    1.86 0  330 229 
 ELA  HZ I        2330  0.90        10.0 0.42            111            330 229 
 ANIL HZ EP   2   2329 11.93                             109    0.06 3  358 224 
 ANIL HN ES   4   2329 52.21                             109    1.35 0  358 224 
 ANIL HZ I        2329 58.67        30.3 0.26            109            358 224 
 PRA  HZ EP       2329 15.50                             107   -0.10 6  393 209 
 PRA  HN ES   4   2329 55.42                             107   -2.08 0  393 209 
 PRA  HZ I        2330  3.89        11.2 0.36            107            393 209 
 ORTC HZ EP       2329 16.70                             107    0.71 6  396 216 
 ORTC HN ES   4   2329 59.64                             107    1.44 0  396 216 
 ORTC HZ I        2330  5.51         7.6 0.36            107            396 216 
 PAL  HZ EP       2329 17.37                             106    0.19 6  406 239 
 PAL  HN ES       2330  0.15                             106   -0.17 6  406 239 
 PAL  HZ I        2330  3.56         3.6 0.40            106            406 239 
 SJC  HZ EP   4   2329  3.05                             106   -14.3 0  408 327 
 SJC  HN ES   4   2329 56.08                             106   -4.61 0  408 327 
 MACC HZ EP   4   2329 27.92                             102   -2.87 0  522 189 
 MACC HN ES   4   2330 20.65                             102   -3.89 0  522 189 
                                                                                
