 2012  6 3 2051 44.9 L   6.782 -73.158148.0  RSN  5 0.2 1.8LRSN                1
 GAP=136        0.52       3.5     3.5  6.9 -0.4853E-01  0.8317E+01  0.6199E+00E
 Epicentro: LOS SANTOS - SANTANDER                                             3
 ACTION:UP  12-08-06 17:47 OP:ep   STATUS:               ID:20120603205143 L   I
 2012-06-03-2050-00M.COL___201                                                 6
 STAT SP IPHASW D HRMM SECON CODA AMPLIT PERI AZIMU VELO AIN AR TRES W  DIS CAZ7
 BAR2 SZ EP   1   2052  4.29                             171   -0.49 7 21.1 187 
 BAR2 SZ I        2052 23.51        15.2 0.30                          21.1 187 
 PAM  SZ EP       2052  7.62                             150    0.1010 79.8  39 
 PAM  SE ES   1   2052 25.10                             150   -0.05 7 79.8  39 
 RUS  HZ EP       2052  8.88                             145    0.1210 98.6 175 
 RUS  HN ES   1   2052 27.52                             145    0.17 7 98.6 175 
 PTB  HZ EP       2052 11.83                             133   -0.08 9  146 260 
 PTB  HN ES   2   2052 32.65                             133   -0.32 5  146 260 
 ZAR  HE ES   1   2052 43.16                             123    0.32 6  204 293 
                                                                                
