 2011  8 3 2106 12.2 L   6.768 -73.016147.7  RSN  6 0.4 1.8LRSN                1
 GAP=155        0.63       5.4     9.3  8.4 -0.2710E+02  0.4984E+02 -0.4807E+01E
 Epicentro: CEPITA - SANTANDER                                                 3
 ACTION:UPD 12-07-25 14:05 OP:epov STATUS:               ID:20110803210612 L   I
 2011-08-03-2100-43S.COL___128                                                 6
 STAT SP IPHASW D HRMM SECON CODA AMPLIT PERI AZIMU VELO AIN AR TRES W  DIS CAZ7
 PAM  SZ EP   1   21 6 34.71                             153    0.40 7 72.2  29 
 PAM  SE ES   1   21 6 51.25                             153   -0.31 7 72.2  29 
 RUS  HZ EP   1   21 6 35.95                             145    0.07 7 97.1 184 
 RUS  HN ES   1   21 6 54.48                             145    0.12 7 97.1 184 
 RUS  HZ I        21 6 55.72         7.3 0.14                          97.1 184 
 CHI  HZ EP   1   21 6 49.45                             117   -0.62 6  249 199 
 CHI  HZ I        21 7 23.70         5.1 0.58                           249 199 
 HEL  HZ EP   1   21 6 53.62                             114   -0.32 6  285 257 
 HEL  HZ I        21 6 55.16         3.1 0.35                           285 257 
 RREF HZ EP   1   21 7  0.11                             110    0.70 5  331 231 
 RREF HN ES   1   21 7 36.28                             110    0.04 5  331 231 
 RREF HZ I        21 7 44.03         4.6 0.27                           331 231 
 PRA  HZ EP   1   21 7  6.07                             107   -0.19 4  396 212 
                                                                                
