 2014 11 3 2159 43.0 L   6.772 -73.178153.6  RSN  4 0.2 1.1LRSN                1
 GAP=134        0.56       4.2     4.8  7.0  0.4109E+01 -0.1469E+02 -0.2311E+01E
 Epicentro: LOS SANTOS - SANTANDER                                             3
 ACTION:UPD 14-12-19 15:39 OP:nd   STATUS:               ID:20141103215943 L   I
 OLDACT:DUP 14-11-04 05:56 OP:spq  STATUS:               ID:20141103215750d    3
 2014-11-03-2157-49M.COL___271                                                 6
 STAT SP IPHASW D HRMM SECON CODA AMPLIT PERI AZIMU VELO AIN AR TRES W  DIS CAZ7
 BRR  HZ EP       22 0  5.24                             154    0.3410 69.7 302 
 BRR  HE ES       22 0 22.06                             154    0.0610 69.7 302 
 BRR  HZ I        22 0 23.92         3.3 0.34            155           69.7 302 
 PAM  SZ EP       22 0  6.02                             151   -0.2810 82.0  40 
 RUS  HZ EP       22 0  7.42                             146    0.1010 97.9 174 
 RUS  HE ES   1   22 0 26.23                             146   -0.08 7 97.9 174 
 RUS  HZ I        22 0 28.00         0.9 0.54            147           97.9 174 
 PTB  HZ EP   2   22 0  9.81                             134   -0.43 5  144 260 
 PTB  HN ES   1   22 0 31.37                             134   -0.14 7  144 260 
 PTB  HZ I        22 0 33.51         1.9 0.14            136            144 260 
                                                                                
