 2017  8 3 2210 23.6 L   6.797 -73.154145.8  RSN 14 0.5 1.9LRSN                1
 GAP=119        0.86       3.4     3.8  5.6 -0.7800E+00  0.2220E+00  0.5943E+01E
 Epicentro: LOS SANTOS - SANTANDER                                             3
 ACTION:UPD 17-09-04 20:16 OP:rebc STATUS:               ID:20170803221023 L   I
 OLDACT:UP  17-08-04 10:29 OP:and  STATUS:               ID:20170803220739     3
 OLDACT:UP  17-08-04 10:29 OP:and  STATUS:               ID:20170803220739     3
 OLDACT:UP  17-08-04 10:27 OP:and  STATUS:               ID:20170803220739     3
 OLDACT:UP  17-08-04 10:22 OP:and  STATUS:               ID:20170803220739     3
 OLDACT:REG 17-08-04 04:57 OP:mg   STATUS:               ID:20170803220739     3
 2017-08-03-2208-00M.COL___374                                                 6
 STAT SP IPHASW D HRMM SECON CODA AMPLIT PERI AZIMU VELO AIN AR TRES W  DIS CAZ7
 BAR2 EZ EP       2210 43.22                             171    0.0410 22.9 188 
 BAR2 EZ ES       2210 58.18                             171   -0.3010 22.9 188 
 BAR2 HN ES   3   2210 58.66                             171    0.18 2 22.9 188 
 BAR2 EZ I        2210 59.55        25.6 0.20            168           22.9 188 
 BRR  HZ EP       2210 45.03                             153    0.3610 70.6 299 
 BRR  HN ES       2211  1.84                             153    0.7010 70.6 299 
 BRR  HZ I        2211  6.14        11.9 0.18            151           70.6 299 
 PAM  EZ IP     D 2210 45.76                             151   -0.0610 78.2  40 
 PAM  EN ES   3   2211  3.01                             151   -0.17 2 78.2  40 
 PAM  EZ I        2211  3.69         7.3 0.26            155           78.2  40 
 RUS  HZ EP       2210 46.98                             144   -0.3110  100 176 
 RUS  HN ES   2   2211  5.62                             144   -0.19 5  100 176 
 RUS  HZ I        2211  7.15        11.1 0.38            144            100 176 
 PTB  HZ EP       2210 50.08                             132   -0.36 9  147 259 
 PTB  HN ES       2211 10.69                             132   -0.72 9  147 259 
 PTB  HZ I        2211 17.01         5.1 0.28            131            147 259 
 SPBC HZ EP   2   2210 52.02                             129    0.04 5  162 219 
 SPBC HN ES       2211 14.71                             129    0.55 9  162 219 
 SPBC HZ I        2211 16.92        11.8 0.22            129            162 219 
 ZAR  HN ES       2211 20.97                             123   -0.21 9  203 292 
 ZAR  HZ I        2211 26.16        10.2 0.36            123            203 292 
 TABC EZ EP   2   2211  0.83                             119    1.60 4  229 211 
 TABC EZ ES   2   2211 27.05                             119   -0.01 4  229 211 
 TABC EZ I        2211 32.01         9.9 0.66            120            229 211 
 NOR  HZ EP   2   2210 59.33                             119    0.14 4  234 234 
 NOR  HN ES       2211 26.70                             119   -0.29 8  234 234 
 NOR  HZ I        2211 29.91         4.9 0.16            119            234 234 
 CHI  HZ EP       2211  1.30                             117    0.10 8  248 195 
 CHI  HN ES       2211 30.69                             117    0.13 8  248 195 
 CHI  HZ I        2211 33.93         4.7 0.66            118            248 195 
 GUY2CHZ I        2211 49.17         5.2 0.32                           300 235 
 PTGC HZ EP   3   2211  5.73                             112   -1.69 2  309 158 
 PRA  HZ EP   2   2211 17.50                             107    0.50 3  391 209 
 PRA  HN ES       2211 58.86                             107    0.18 6  391 209 
 PRA  HZ I        2212  5.22         6.0 0.32            107            391 209 
 ORTC HZ EP   2   2211 17.10                             106   -0.29 3  395 216 
 ORTC HN ES   4   2212  2.90                             106    3.52 0  395 216 
 ORTC HZ I        2212  4.33         3.3 0.22            107            395 216 
                                                                                
