 2017  3 3 2053 51.1 L   6.627 -73.611106.2  RSN  5 0.4 1.5LRSN                1
 GAP=120        0.70       4.6     3.2  7.0  0.6064E+01  0.6301E+01  0.1415E+02E
 Epicentro: EL CARMEN - SANTANDER                                              3
 ACTION:UPD 17-05-25 18:35 OP:jn   STATUS:               ID:20170303205351 L   I
 OLDACT:REG 17-03-04 05:54 OP:cog  STATUS:               ID:20170303204331     3
 2017-03-03-2048-00M.COL___396                                                 6
 STAT SP IPHASW D HRMM SECON CODA AMPLIT PERI AZIMU VELO AIN AR TRES W  DIS CAZ7
 BAR2 EZ EP       2054  7.06                             153    0.1210 47.6  95 
 BAR2 EZ ES       2054 19.41                             153    0.0810 47.6  95 
 BAR2 EZ I        2054 20.13        22.3 0.22            160           47.6  95 
 BRR  HZ EP   3   2054  6.84                             149   -0.13 2 54.2 348 
 BRR  HE ES       2054 19.69                             149    0.3110 54.2 348 
 BRR  HZ I        2054 24.82        17.7 0.36            152           54.2 348 
 PTB  HZ EP       2054  9.82                             135   -0.1210 94.0 264 
 PTB  HN ES       2054 24.36                             135   -0.3010 94.0 264 
 PTB  HZ I        2054 28.71         5.8 0.16            138           94.0 264 
 RUS  HN EP       2054 11.44                             133    0.3210  100 144 
 RUS  HZ ES       2054 26.46                             133   -0.3110  100 144 
 RUS  HZ I        2054 28.73         3.0 0.20            140            100 144 
 PAM  EN ES   3   2054 29.83                             125   -1.58 2  128  52 
                                                                                
