 2012  8 3 2255 47.2 L   6.800 -73.127151.3  RSN 11 0.4 2.7LRSN 3.2WRSN        1
 SPEC AVERAGE  MO 13.9 ST 14.3 OM  2.9 f0 4.86 R0.3184 AL 1.88 WI 19.0 MW  3.2 3
 SPEC SD       MO  0.1 ST 10.6 OM  0.8 f0 1.01 R0.0777 AL      WI      MW  0.1 3
 GAP=139        0.75       2.8     3.5  4.8 -0.8869E+00  0.4646E+01  0.2793E+01E
 Epicentro: LOS SANTOS - SANTANDER                                             3
 SPEC PTB HH N MO 13.8 ST 14.0 OM  2.1 f0 5.45 R0.2697 AL 1.92 WI 23.2 MW  3.1 3
 SPEC PTB HH N T225634 K 0.000 GD  213 VS 4.20 DE 3.00 Q0230.0 QA 0.60 VS 4.20 3
 SPEC RUS HH N MO 14.0 ST 31.4 OM  2.4 f0 5.98 R0.2458 AL 1.74 WI 13.0 MW  3.3 3
 SPEC RUS HH N T225628 K 0.000 GD  181 VS 4.20 DE 3.00 Q0230.0 QA 0.60 VS 4.20 3
 SPEC HEL HH N MO 13.8 ST  8.4 OM  1.9 f0 4.72 R0.3114 AL 2.16 WI 22.0 MW  3.1 3
 SPEC HEL HH N T225659 K 0.000 GD  312 VS 4.20 DE 3.00 Q0230.0 QA 0.60 VS 4.20 3
 SPEC CHI HH N MO 13.8 ST  3.3 OM  2.0 f0 3.29 R0.4468 AL 1.71 WI 17.9 MW  3.2 3
 SPEC CHI HH N T225654 K 0.000 GD  291 VS 4.20 DE 3.00 Q0230.0 QA 0.60 VS 4.20 3
 ACTION:UPD 12-09-10 11:54 OP:ep   STATUS:               ID:20120803225547 L   I
 2012-08-03-2250-00M.COL___215                                                 6
 STAT SP IPHASW D HRMM SECON CODA AMPLIT PERI AZIMU VELO AIN AR TRES W  DIS CAZ7
 BAR2 SZ EP       2256  7.48                             171   -0.0210 23.8 195 
 BAR2 SZ ES   1   2256 23.51                             171    0.18 7 23.8 195 
 BAR2 SZ I        2256 25.44        61.1 0.38                          23.8 195 
 BRR  HZ EP       2256  9.37                             153    0.3310 73.0 298 
 BRR  HN ES   1   2256 26.86                             153    0.78 7 73.0 298 
 BRR  HZ I        2256 31.15       105.1 0.15                          73.0 298 
 PAM  SZ EP       2256 10.23                             152    0.3010 76.1  38 
 PAM  SN ES   1   2256 27.57                             152   -0.09 7 76.1  38 
 RUS  HZ EP       2256 11.39                             145   -0.0910  100 177 
 RUS  HN ES   1   2256 30.00                             145   -0.43 7  100 177 
 RUS  HZ I        2256 31.14        34.8 0.26                           100 177 
 PTB  HZ EP       2256 14.18                             133   -0.62 9  150 259 
 PTB  HN ES   1   2256 35.80                             133   -0.52 7  150 259 
 PTB  HZ I        2256 37.66        52.4 0.07                           150 259 
 OCA  HZ EP   1   2256 15.62                             131   -0.34 7  161 352 
 OCA  HN ES   1   2256 37.88                             131   -0.52 7  161 352 
 OCA  HZ I        2256 42.43        84.3 0.27                           161 352 
 ZAR  HZ EP       2256 20.20                             123    0.00 8  206 292 
 ZAR  HN ES   1   2256 45.72                             123   -0.22 6  206 292 
 ZAR  HZ I        2256 51.35        69.7 0.41                           206 292 
 NOR  SZ EP       2256 23.38                             119   -0.05 8  236 235 
 NOR  SN ES   1   2256 51.48                             119   -0.21 6  236 235 
 CHI  HZ EP       2256 25.59                             118    0.33 8  249 196 
 CHI  HN ES   1   2256 54.92                             118   -0.04 6  249 196 
 CHI  HZ I        2257  4.61        18.9 0.31                           249 196 
 HEL  HZ EP       2256 28.29                             116    0.38 8  274 256 
 HEL  HN ES   1   2257  0.21                             116    0.54 6  274 256 
 HEL  HZ I        2257  6.15        30.4 0.30                           274 256 
 PRA  HZ EP       2256 41.08                             107    0.05 6  393 210 
 PRA  HN ES   1   2257 23.15                             107    0.13 4  393 210 
                                                                                
