 2014 11 3 2027 31.3 L   6.789 -73.174139.5  RSN  4 0.3 1.1LRSN                1
 GAP=142        0.70       5.4     4.4  7.6 -0.8321E+01  0.6845E+01 -0.6340E+01E
 Epicentro: LOS SANTOS - SANTANDER                                             3
 ACTION:UPD 14-12-19 15:39 OP:nd   STATUS:               ID:20141103202731 L   I
 OLDACT:REG 14-11-04 02:52 OP:spq  STATUS:               ID:20141103201748     3
 2014-11-03-2017-48M.COL___272                                                 6
 STAT SP IPHASW D HRMM SECON CODA AMPLIT PERI AZIMU VELO AIN AR TRES W  DIS CAZ7
 BAR2 SZ ES   1   2028  4.60                             171   -0.25 7 21.8 183 
 BAR2 SZ I        2028  6.46         4.7 0.19            173           21.8 183 
 PAM  SZ EP       2027 53.27                             149    0.2310 80.3  41 
 PAM  SE ES   1   2028  9.87                             149   -0.12 7 80.3  41 
 PAM  SZ I        2028 12.82         3.1 0.78            151           80.3  41 
 RUS  HZ EP   1   2027 54.49                             143    0.12 7 99.6 174 
 RUS  HE ES   1   2028 12.39                             143    0.03 7 99.6 174 
 RUS  HZ I        2028 13.57         1.4 0.16            147           99.6 174 
 PTB  HZ EP   1   2027 56.72                             131   -0.74 7  144 259 
 PTB  HE ES       2028 18.16                             131    0.29 9  144 259 
 PTB  HZ I        2028 20.63         1.7 0.12            133            144 259 
                                                                                
