 2016  6 3 2017 15.1 L   6.800 -73.173134.0  RSN  4 0.3 1.6LRSN                1
 GAP=235        0.59       7.0     7.8  6.1  0.3370E+02  0.7089E+01  0.2290E+01E
 Epicentro: LOS SANTOS - SANTANDER                                             3
 ACTION:UPD 16-07-21 22:15 OP:rebc STATUS:               ID:20160603201715 L   I
 OLDACT:REG 16-06-04 04:01 OP:mh   STATUS:               ID:20160603200744     3
 2016-06-03-2007-44M.COL___324                                                 6
 STAT SP IPHASW D HRMM SECON CODA AMPLIT PERI AZIMU VELO AIN AR TRES W  DIS CAZ7
 BAR2 EZ EP   2   2017 32.88                             170   -0.40 5 23.0 183 
 BAR2 EZ ES       2017 47.57                             170    0.0910 23.0 183 
 BAR2 EZ I        2017 48.79        13.5 0.18                          23.0 183 
 BRR  HZ EP       2017 34.63                             151   -0.1710 68.6 300 
 BRR  HN ES       2017 50.30                             151    0.1110 68.6 300 
 BRR  HZ I        2017 54.07        12.2 0.35                          68.6 300 
 RUS  HZ EP   2   2017 37.60                             141   -0.10 5  101 174 
 RUS  HE ES   2   2017 55.41                             141    0.06 5  101 174 
 RUS  HZ I        2017 57.23         2.8 0.18                           101 174 
 PTB  HZ EP   2   2017 41.72                             130    0.90 5  145 259 
 PTB  HN ES   2   2018  0.36                             130   -0.55 5  145 259 
 PTB  HZ I        2018  3.47         5.3 0.12                           145 259 
                                                                                
