 2014 11 3 2234 23.9 L   6.709 -73.186151.1  RSN  5 0.4 1.2LRSN                1
 GAP=135        0.81       5.5     4.6  6.8 -0.2960E+01  0.7214E+00  0.1306E+01E
 Epicentro: VILLANUEVA - SANTANDER                                             3
 ACTION:UPD 14-12-19 15:39 OP:nd   STATUS:               ID:20141103223423 L   I
 OLDACT:REG 14-11-04 03:03 OP:spq  STATUS:               ID:20141103222750     3
 2014-11-03-2227-50M.COL___268                                                 6
 STAT SP IPHASW D HRMM SECON CODA AMPLIT PERI AZIMU VELO AIN AR TRES W  DIS CAZ7
 BAR2 SZ EP   1   2234 43.80                             175   -0.25 7 12.9 178 
 BAR2 SZ ES   1   2234 59.12                             175   -0.62 7 12.9 178 
 BAR2 SZ I        2234 59.90         4.6 0.20            176           12.9 178 
 BRR  HZ EP     C 2234 45.88                             153    0.1210 72.9 307 
 BRR  HN ES       2235  3.00                             153    0.2210 72.9 307 
 BRR  HZ I        2235  8.47         4.7 0.44            152           72.9 307 
 PAM  SZ EP       2234 46.94                             148   -0.4410 88.1  38 
 PAM  SE ES   1   2235  6.16                             148    0.50 7 88.1  38 
 PAM  SZ I        2235  7.59         1.9 0.42            151           88.1  38 
 RUS  HZ EP   1   2234 48.16                             148    0.59 7 91.0 173 
 RUS  HE ES   1   2235  6.14                             148    0.14 7 91.0 173 
 RUS  HZ I        2235  7.74         1.7 0.36            152           91.0 173 
 PTB  HZ EP       2234 50.84                             134    0.03 9  142 262 
 PTB  HN ES       2235 11.64                             134   -0.13 9  142 262 
 PTB  HZ I        2235 14.44         2.0 0.10            136            142 262 
                                                                                
