 2010 10 3 2153 24.9 L   6.791 -72.993147.3  RSN 12 0.4 2.4LRSN                1
 GAP=198        0.68       3.1     7.0  5.1 -0.1277E+01  0.3142E+01  0.2277E+01E
 Epicentro: CEPITA - SANTANDER                                                 3
 ACTION:UP  11-02-18 11:07 OP:tino STATUS:               ID:20101003215324 L   I
 2010-10-03-2151-30S.COL___119                                                 6
 STAT SP IPHASW D HRMM SECON CODA AMPLIT PERI AZIMU VELO SNR AR TRES W  DIS CAZ7
 BAR2 SZ IP       2153 45.14                             168     0.310   31 224 
 BAR2 SZ ES   1   2153 59.89                             168    -0.5 7   31 224 
 BAR2 SZ I        2154  1.87        53.0 0.37                            31 224 
 BRR  HZ IP     C 2153 46.95                             148    -0.210   87 294 
 BRR  HZ I        2153 47.24        97.9 0.17                            87 294 
 BRR  HN ES   1   2154  4.51                             148     0.0 7   87 294 
 RUS  HZ EP       2153 48.85                             144     0.110  100 186 
 RUS  HN ES   1   2154  7.57                             144     0.3 7  100 186 
 RUS  HZ I        2154  8.94        19.5 0.25                           100 186 
 OCA  SZ EP       2153 53.38                             129    -0.3 9  164 347 
 OCA  SZ ES   2   2154 16.71                             129     0.6 5  164 347 
 OCA  SZ I        2154 21.86        23.6 0.27                           164 347 
 NOR  SZ EP   3   2154  1.41                             117    -0.7 2  248 237 
 CHI  HZ EP       2154  2.96                             117    -0.1 8  253 199 
 CHI  HE ES   2   2154 32.13                             117    -0.8 4  253 199 
 CHI  HZ I        2154 40.24         6.8 0.56                           253 199 
 ROSC BZ EP   1   2154  4.53                             116     0.6 6  261 214 
 ROSC BN ES   2   2154 34.85                             116     0.4 4  261 214 
 ROSC BZ I        2154 42.73        12.0 0.53                           261 214 
 CVER SZ EP   3   2154  5.20                             114    -0.8 2  278 206 
 HEL  HZ EP   3   2154  7.15                             114     0.2 2  288 257 
 HEL  HZ I        2154 43.44        10.6 0.34                           288 257 
 RREF HZ EP   1   2154 12.51                             110     0.0 5  334 231 
 RREF HN ES   2   2154 49.91                             110     0.3 3  334 231 
 RREF HZ I        2154 53.50         8.8 0.29                           334 231 
 TOL  SZ EP   2   2154 15.10                             109     0.6 3  355 227 
 PRA  HZ EP   3   2154 18.61                             106    -0.7 1  400 212 
 PRA  HN ES   1   2155  1.43                             106    -0.4 4  400 212 
 PRA  HZ I        2155  4.41        17.7 0.33                           400 212 
                                                                                
