 2017 12 3 2141  6.1 L   6.799 -73.156144.6  RSN 23 0.5 2.5LRSN                1
 GAP= 65        1.19       2.5     3.1  5.5 -0.9715E+00  0.3986E+01  0.1801E+01E
 Epicentro: LOS SANTOS - SANTANDER                                             3
 ACTION:UPD 18-01-04 13:16 OP:rebc STATUS:               ID:20171203214106 L   I
 OLDACT:UP  17-12-04 05:32 OP:edw  STATUS:               ID:20171203213744     3
 OLDACT:UP  17-12-04 05:30 OP:edw  STATUS:               ID:20171203213744     3
 OLDACT:REG 17-12-04 04:44 OP:edw  STATUS:               ID:20171203213744     3
 2017-12-03-2138-00M.COL___495                                                 6
 STAT SP IPHASW D HRMM SECON CODA AMPLIT PERI AZIMU VELO AIN AR TRES W  DIS CAZ7
 BAR2 EZ EP       2141 25.73                             171    0.1410 23.0 187 
 BAR2 EZ ES       2141 40.94                             171    0.1510 23.0 187 
 BAR2 EZ I        2141 43.49        75.9 0.28            169           23.0 187 
 PAM  EZ EP     C 2141 28.44                             150    0.1910 78.2  40 
 PAM  EN ES       2141 45.56                             150    0.0410 78.2  40 
 PAM  EZ I        2141 47.91        32.3 0.44            155           78.2  40 
 RUS  HZ EP       2141 29.61                             144   -0.1310  101 175 
 RUS  HN ES       2141 48.17                             144   -0.0110  101 175 
 RUS  HZ I        2141 49.31        33.3 0.26            144            101 175 
 PTB  HZ EP       2141 32.74                             132   -0.14 9  147 259 
 PTB  HN ES       2141 53.28                             132   -0.47 9  147 259 
 PTB  HZ I        2141 59.73        15.9 0.20            132            147 259 
 TAM  HZ EP       2141 34.04                             130    0.24 9  156 105 
 TAM  HN ES       2141 55.61                             130    0.22 9  156 105 
 TAM  HZ I        2141 58.18        11.9 0.56            133            156 105 
 OCA  HZ EP       2141 33.61                             129   -0.72 9  160 354 
 OCA  HN ES       2141 56.52                             129    0.18 9  160 354 
 OCA  HZ I        2141 59.59        85.2 0.24            132            160 354 
 SPBC HZ EP       2141 34.56                             129    0.12 9  162 219 
 SPBC HN ES       2141 57.14                             129    0.60 9  162 219 
 SPBC HZ I        2142  1.46        40.7 0.22            129            162 219 
 YPLC HZ EP       2141 36.09                             126    0.23 9  177 151 
 YPLC HN ES       2141 58.55                             126   -0.52 9  177 151 
 YPLC HZ I        2142  2.78        16.9 0.36            128            177 151 
 ZAR  HZ EP       2141 38.04                             122   -0.33 9  203 292 
 ZAR  HN ES       2142  3.62                             122    0.08 9  203 292 
 ZAR  HZ I        2142  9.01        34.3 0.44            123            203 292 
 TABC EZ EP   4   2141 43.03                             119    1.32 0  229 210 
 TABC EZ ES   4   2142 11.76                             119    2.27 0  229 210 
 TABC EZ I        2142 14.69        30.4 0.66            120            229 210 
 NOR  HZ EP       2141 41.91                             118    0.25 8  234 234 
 NOR  HN ES       2142  7.69                             118   -1.70 8  234 234 
 NOR  HZ I        2142 19.15        11.6 0.52            119            234 234 
 CHI  HZ EP       2141 43.65                             117   -0.05 8  248 195 
 CHI  HE ES       2142 13.00                             117   -0.01 8  248 195 
 CHI  HZ I        2142 16.64        16.8 0.64            118            248 195 
 ROSC BZ EP       2141 45.62                             116    1.53 8  252 211 
 ROSC BN ES       2142 14.26                             116    0.55 8  252 211 
 ROSC BZ I        2142 20.30        39.8 0.40            117            252 211 
 DRL03HZ EP       2141 47.13                             113   -0.53 7  289 353 
 DRL03HN ES       2142 20.58                             113    0.51 7  289 353 
 GUY2CHZ EP       2141 50.02                             112    0.47 7  300 235 
 GUY2CHN ES       2142 23.58                             112    0.15 7  300 235 
 GUY2CHZ I        2142 31.84        12.0 0.34                           300 235 
 VIL  EZ EP       2141 49.48                             112    0.05 7  303 191 
 VIL  EN ES       2142 22.46                             112   -0.76 7  303 191 
 VIL  EZ I        2142 28.80        26.5 0.66            113            303 191 
 PTGC HZ EP       2141 48.86                             111   -1.09 7  309 158 
 PTGC HN ES   4   2142 21.80                             111   -2.34 0  309 158 
 PTGC HZ I        2142 29.97        13.8 0.40            113            309 158 
 ELA  HN ES   4   2142 30.81                             110    1.59 0  328 229 
 DBB  EN ES   4   2142 27.75                             109   -2.55 0  338 274 
 DBB  EZ I        2142 31.61         7.0 0.16            110            338 274 
 ANIL HZ EP   4   2141 57.43                             108    1.67 0  356 224 
 ANIL HN ES       2142 35.40                             108    0.91 6  356 224 
 ANIL HZ I        2142 45.70        38.1 0.36            109            356 224 
 PRA  HZ EP       2141 59.45                             106   -0.06 6  391 209 
 PRA  HN ES       2142 40.71                             106   -0.45 6  391 209 
 PRA  HZ I        2142 47.72        17.1 0.74            107            391 209 
 ORTC HZ EP       2142  0.25                             106    0.35 6  395 216 
 ORTC HN ES       2142 41.90                             106    0.05 6  395 216 
 ORTC HZ I        2142 47.03         8.0 0.22            107            395 216 
 SJC  HZ EP   4   2141 59.61                             105   -1.96 0  409 327 
 SJC  HN ES   4   2142 40.56                             105   -4.27 0  409 327 
 SJC  HZ I        2142 49.66         5.1 0.40            107            409 327 
 CRJC HZ EP   9   2142  6.00                             103   -2.60 0  468   4 
 CRJC HE ES       2142 54.41                             104   -0.33 5  468   4 
 CRJC HZ I        2143  0.80         8.9 0.36            105            468   4 
                                                                                
