 2016  8 3 2157 10.1 L   6.738 -73.130144.8  RSN  4 0.5 1.4LRSN                1
 GAP=141        1.25       6.6    10.0 10.1 -0.5018E+00 -0.6628E+01  0.1308E+01E
 Epicentro: LOS SANTOS - SANTANDER                                             3
 ACTION:UPD 16-10-29 15:31 OP:rebc STATUS:               ID:20160803215710 L   I
 OLDACT:DUP 16-08-04 05:36 OP:ar   STATUS:               ID:20160803214624d    3
 2016-08-03-2148-00M.COL___356                                                 6
 STAT SP IPHASW D HRMM SECON CODA AMPLIT PERI AZIMU VELO AIN AR TRES W  DIS CAZ7
 BAR2 EZ EP       2157 28.58                             173   -0.9510 17.2 200 
 BAR2 EZ ES       2157 44.06                             173   -0.6110 17.2 200 
 BAR2 EZ I        2157 45.50         7.8 0.24                          17.2 200 
 BRR  HZ EP       2157 31.55                             151    0.0910 76.2 302 
 BRR  HN ES       2157 48.44                             151    0.3410 76.2 302 
 PAM  EZ EP       2157 32.56                             149    0.0610 81.7  36 
 PAM  EE ES       2157 50.24                             149    0.2810 81.7  36 
 PAM  EZ I        2157 51.35         3.0 0.18                          81.7  36 
 RUS  HZ EP       2157 33.65                             146    0.3610 93.7 177 
 RUS  HN ES       2157 51.81                             146    0.4410 93.7 177 
 RUS  HZ I        2157 52.79         3.6 0.22                          93.7 177 
                                                                                
