 2014  3 3 2046 57.4 L   6.877 -73.338117.5  RSN 13 0.4 2.6LRSN                1
 GAP= 97        0.86       2.6     4.4  6.1 -0.4670E+01  0.1717E+02 -0.4091E+01E
 Epicentro: BETULIA - SANTANDER                                                3
 ACTION:UPD 14-04-09 23:14 OP:nd   STATUS:               ID:20140303204657 L   I
 OLDACT:UP  14-03-03 23:02 OP:cam  STATUS:               ID:20140303204547     3
 OLDACT:REG 14-03-03 22:54 OP:cam  STATUS:               ID:20140303204547     3
 2014-03-03-2045-47M.COL___231                                                 6
 STAT SP IPHASW D HRMM SECON CODA AMPLIT PERI AZIMU VELO AIN AR TRES W  DIS CAZ7
 BAR2 SZ EP       2047 14.16                             162    0.1510 35.9 151 
 BAR2 SZ ES       2047 26.99                             162    0.0010 35.9 151 
 BRR  HZ IP     C 2047 14.55                             156    0.3410 48.5 302 
 BRR  HN ES   4   2047 28.69                             156    1.35 0 48.5 302 
 BRR  HZ I        2047 30.32        84.7 0.16            154           48.5 302 
 PAM  SZ EP       2047 17.21                             141   -0.1710 87.1  54 
 PAM  SE ES       2047 33.42                             141    0.4310 87.1  54 
 PAM  SZ I        2047 35.84        82.5 0.28            149           87.1  54 
 RUS  HZ EP       2047 19.18                             133   -0.3110  113 165 
 RUS  HE ES       2047 36.50                             133   -0.2410  113 165 
 RUS  HZ I        2047 37.86        42.4 0.28            140            113 165 
 PTB  HZ EP       2047 19.53                             129   -0.8410  129 253 
 PTB  HN ES   4   2047 36.00                             129   -2.31 0  129 253 
 PTB  HZ I        2047 42.92        60.1 0.30            131            129 253 
 OCA  HZ EP   1   2047 22.34                             124   -0.32 7  151   1 
 OCA  HN ES       2047 42.08                             124   -0.31 9  151   1 
 OCA  HZ I        2047 43.40       136.1 0.30            128            151   1 
 SPBC HZ EP       2047 23.46                             123    0.13 9  158 211 
 SPBC HN ES       2047 43.75                             123    0.17 9  158 211 
 SPBC HZ I        2047 45.40        46.8 0.16            127            158 211 
 TAM  HZ EP   4   2047 25.09                             119   -0.26 0  178 106 
 ZAR  HZ EP       2047 25.96                             119    0.31 9  181 292 
 ZAR  HE ES   4   2047 49.60                             119    1.89 0  181 292 
 ZAR  HZ I        2047 52.73        58.1 0.26            121            181 292 
 NOR  HZ EP       2047 30.91                             113    0.58 8  223 229 
 NOR  HE ES       2047 55.73                             113   -0.31 8  223 229 
 NOR  HZ I        2048  1.74        24.4 0.16            116            223 229 
 SML  HZ EP   4   2047 29.76                             113   -0.99 0  228 339 
 CHI  HZ EP       2047 34.16                             110    0.07 8  252 190 
 HEL  HZ EP   4   2047 35.48                             110    1.27 0  254 253 
 URE  HZ EP   4   2047 33.53                             109   -1.04 0  261 292 
 GUY2CHZ EP   4   2047 38.49                             107    0.04 0  289 231 
 CBOC HZ EP       2047 41.81                             105    0.58 7  316 249 
 DBB  SZ EP   1   2047 41.34                             105    0.06 5  318 273 
 COD  HZ EP       2047 43.50                             104   -0.11 7  338 358 
 SDV  BZ EP   4   2047 46.61                             102   -1.24 0  372  53 
 SJC  HZ EP   4   2047 47.81                             101   -2.11 0  391 329 
                                                                                
