 2011 10 3 2348  3.6 L   6.746 -73.152147.7  RSN  4 0.2 1.6LRSN                1
 GAP=233        0.45       6.5     8.5  4.4  0.4646E+02 -0.5466E+01 -0.4439E+01E
 Epicentro: LOS SANTOS - SANTANDER                                             3
 ACTION:UPD 12-07-13 16:01 OP:ep   STATUS:               ID:20111003234803 L   I
 2011-10-03-2343-44S.COL___171                                                 6
 STAT SP IPHASW D HRMM SECON CODA AMPLIT PERI AZIMU VELO AIN AR TRES W  DIS CAZ7
 BAR2 SZ EP       2348 23.20                             172   -0.2010 17.3 191 
 BAR2 SZ ES       2348 38.68                             172   -0.1310 17.3 191 
 BAR2 SZ I        2348 39.94        11.5 0.21                          17.3 191 
 BRR  HZ EP       2348 25.29                             152    0.1510 73.7 303 
 BRR  HZ I        2348 25.53        11.7 0.14                          73.7 303 
 BRR  HN ES       2348 42.01                             152    0.1110 73.7 303 
 RUS  HZ EP   1   2348 27.21                             146    0.04 7 94.7 175 
 RUS  HE ES   1   2348 45.71                             146    0.19 7 94.7 175 
 RUS  HZ I        2348 47.23         4.0 0.26                          94.7 175 
 ZAR  HN ES   2   2349  1.55                             122   -0.38 4  206 294 
 ZAR  HZ I        2349  6.79         4.1 0.23                           206 294 
                                                                                
