 2010  1 3 2245 28.9 L   6.813 -72.891148.4  RSN  8 0.6 2.4LRSN                1
 GAP=208        1.26       6.6    21.2 10.3 -0.7360E+02  0.2183E+02  0.1659E+02E
 Epicentro: SAN ANDRES - SANTANDER                                             3
 ACTION:UP  10-08-24 09:42 OP:vdl  STATUS:               ID:20100103224529 L   I
 2010-01-03-2243-05S.COL___097                                                 6
 STAT SP IPHASW D HRMM SECON CODA AMPLIT PERI AZIMU VELO SNR AR TRES W  DIS CAZ7
 BAR2 SZ ES   1   2246  4.41                             163    -0.810   41 233 
 GIR2 SZ EP   1   2245 50.12                             162     0.810   45 311 
 GIR2 SZ ES   1   2246  5.82                             162     0.610   45 311 
 RUS  BN ES   2   2246 12.05                             143     0.0 6  104 192 
 RUS  BZ I        2246 13.56        20.4 0.42                           104 192 
 OCA  SZ EP   1   2245 57.81                             129     0.0 9  165 343 
 OCA  SZ ES   1   2246 19.76                             129    -0.6 9  165 343 
 OCA  SZ I        2246 24.03        36.6 0.44                           165 343 
 CHI  HZ EP       2246  7.36                             116    -0.510  259 201 
 CHI  HN ES   1   2246 37.65                             116    -0.6 7  259 201 
 CHI  HZ I        2246 40.04         8.1 0.22                           259 201 
 ROSC BZ EP   1   2246  9.59                             115     0.6 7  270 216 
 ROSC BN ES       2246 41.05                             115     0.810  270 216 
 ROSC BZ I        2246 43.89        14.2 0.30                           270 216 
 RREF BZ EP   1   2246 17.63                             110    -0.1 6  345 232 
 RREF BN ES   2   2246 55.09                             110    -0.8 4  345 232 
 RREF BZ I        2247  1.04         9.7 0.21                           345 232 
 PRA  HN ES   1   2247  7.18                             106    -0.4 5  408 213 
 PRA  HZ I        2247 11.37         9.1 0.44                           408 213 
                                                                                
