 2014  4 3 2040 44.8 L   6.819 -73.171141.8  RSN 10 0.5 2.3LRSN                1
 GAP=132        0.88       3.1     3.9  7.3 -0.2874E+01  0.1109E+02 -0.5596E-01E
 Epicentro: LOS SANTOS - SANTANDER                                             3
 ACTION:UPD 14-05-13 23:06 OP:nd   STATUS:               ID:20140403204044 L   I
 OLDACT:UP  14-04-04 05:40 OP:mh   STATUS:               ID:20140403203808     3
 OLDACT:UP  14-04-04 05:39 OP:mh   STATUS:               ID:20140403203808     3
 OLDACT:REG 14-04-04 03:08 OP:mh   STATUS:               ID:20140403203808     3
 2014-04-03-2038-08M.COL___265                                                 6
 STAT SP IPHASW D HRMM SECON CODA AMPLIT PERI AZIMU VELO AIN AR TRES W  DIS CAZ7
 PAM  SZ EP     C 2041  6.83                             150    0.1810 77.6  42 
 PAM  SN ES       2041 23.87                             150    0.2110 77.6  42 
 PAM  SZ I        2041 26.19        25.5 0.15            157           77.6  42 
 RUS  HZ EP   1   2041  8.04                             142   -0.34 7  103 175 
 RUS  HN ES   1   2041 26.23                             142   -0.51 7  103 175 
 RUS  HZ I        2041 28.09        15.5 0.24            145            103 175 
 PTB  HZ EP   1   2041 10.97                             132   -0.31 7  145 258 
 PTB  HN ES       2041 32.04                             132    0.14 9  145 258 
 PTB  HZ I        2041 39.79        25.8 0.33            133            145 258 
 SPBC HN ES   2   2041 35.82                             128    0.79 5  163 218 
 ZAR  HZ EP   1   2041 16.91                             122    0.23 6  201 292 
 ZAR  HN ES       2041 41.98                             122    0.46 9  201 292 
 ZAR  HZ I        2041 44.68        23.3 0.10            124            201 292 
 NOR  HZ EP       2041 20.28                             118    0.04 8  234 234 
 NOR  HN ES       2041 47.21                             118   -0.64 8  234 234 
 NOR  HZ I        2041 51.98        22.7 0.09            120            234 234 
 SML  HZ EP       2041 20.56                             117   -0.35 8  241 336 
 SML  HN ES       2041 48.79                             117   -0.26 8  241 336 
 HEL  HZ EP   1   2041 25.07                             114    0.45 6  270 255 
 HEL  HE ES   1   2041 54.74                             114   -0.90 6  270 255 
 HEL  HZ I        2042  3.42        10.7 0.40            116            270 255 
 RREF HZ EP   4   2041 31.19                             110    0.46 0  321 229 
 RREF HN ES   4   2042  9.34                             110    2.81 0  321 229 
 PRA  HZ EP   4   2041 36.84                             106   -1.45 0  393 209 
 PRA  HN ES       2042 20.92                             106    0.95 6  393 209 
 PRA  HZ I        2042 26.97         9.4 0.20            108            393 209 
 ORTC HN ES   1   2042 21.25                             106    0.65 4  396 216 
 SJC  HZ EP   4   2041 38.25                             105   -1.64 0  406 327 
 SJC  HN ES   4   2042 18.70                             105   -4.12 0  406 327 
                                                                                
