 2017 10 3 2150 57.0 L   6.745 -73.052140.2  RSN  5 0.3 1.2LRSN                1
 GAP=152        0.72       3.6     4.6  6.8 -0.1256E+01  0.8651E+01 -0.2647E+01E
 Epicentro: JORDAN - SANTANDER                                                 3
 ACTION:UPD 17-11-07 19:28 OP:rebc STATUS:               ID:20171003215057 L   I
 OLDACT:DUP 17-10-04 05:26 OP:edw  STATUS:               ID:20171003214747d    3
 2017-10-03-2148-00M.COL___447                                                 6
 STAT SP IPHASW D HRMM SECON CODA AMPLIT PERI AZIMU VELO AIN AR TRES W  DIS CAZ7
 BAR2 EZ ES       2151 30.35                             171   -0.4010 22.2 221 
 PAM  EZ EP       2151 18.55                             150   -0.0610 76.4  31 
 PAM  EN ES       2151 35.58                             150    0.1510 76.4  31 
 PAM  EZ I        2151 36.06         3.1 0.34            152           76.4  31 
 RUS  HZ EP       2151 19.59                             144   -0.2010 94.3 182 
 RUS  HN ES       2151 37.98                             144    0.4410 94.3 182 
 RUS  HZ I        2151 40.75         2.4 0.48            144           94.3 182 
 SPBC HN ES   2   2151 47.01                             127   -0.39 5  165 223 
 ZAR  HN ES       2151 56.60                             119    0.21 8  216 293 
                                                                                
