 2016  8 3 2215  7.2 L   6.775 -73.120148.0  RSN  6 0.3 1.8LRSN                1
 GAP=141        0.87       3.7     4.4  5.9 -0.4456E-01  0.6915E+01  0.3198E+00E
 Epicentro: LOS SANTOS - SANTANDER                                             3
 ACTION:UPD 16-10-29 15:31 OP:rebc STATUS:               ID:20160803221507 L   I
 OLDACT:REG 16-08-04 03:39 OP:ar   STATUS:               ID:20160803220732     3
 2016-08-03-2208-00M.COL___356                                                 6
 STAT SP IPHASW D HRMM SECON CODA AMPLIT PERI AZIMU VELO AIN AR TRES W  DIS CAZ7
 BAR2 EZ EP       2215 26.76                             171   -0.3110 21.4 199 
 BAR2 EZ ES       2215 42.92                             171    0.3610 21.4 199 
 BAR2 EZ I        2215 43.67         9.5 0.40                          21.4 199 
 BRR  HZ EP       2215 28.61                             152   -0.2010 75.0 299 
 BRR  HZ I        2215 43.68        18.1 0.40                          75.0 299 
 BRR  HN ES       2215 45.56                             152   -0.1110 75.0 299 
 PAM  EZ EP       2215 29.53                             151   -0.1510 77.8  37 
 PAM  EN ES       2215 47.21                             151   -0.0010 77.8  37 
 PAM  EZ I        2215 48.81         6.8 0.44                          77.8  37 
 RUS  HZ EP       2215 30.79                             145   -0.1810 97.7 178 
 RUS  HN ES       2215 49.79                             145    0.2810 97.7 178 
 RUS  HZ I        2215 50.62         5.5 0.22                          97.7 178 
 SPBC HZ EP       2215 35.85                             130    0.00 9  163 220 
 SPBC HN ES       2215 57.91                             130   -0.28 9  163 220 
 SPBC HZ I        2216  0.59        14.1 0.28                           163 220 
 ZAR  HZ EP       2215 41.17                             122    1.00 8  208 293 
 ZAR  HN ES       2216  5.65                             122   -0.24 8  208 293 
 ZAR  HZ I        2216 11.85        10.1 0.34                           208 293 
                                                                                
