 2016  1 3 2201 10.3 L   6.796 -73.149145.3  RSN 12 0.3 1.8LRSN                1
 GAP=136        0.69       2.2     2.8  3.6 -0.1036E+01  0.2031E+01  0.3576E+00E
 Epicentro: LOS SANTOS - SANTANDER                                             3
 ACTION:UPD 16-03-09 23:22 OP:cam  STATUS:               ID:20160103220110 L   I
 OLDACT:DUP 16-01-04 03:51 OP:cara STATUS:               ID:20160103215746d    3
 OLDACT:REG 16-01-04 02:58 OP:cara STATUS:               ID:20160103215745     3
 2016-01-03-2157-45M.COL___317                                                 6
 STAT SP IPHASW D HRMM SECON CODA AMPLIT PERI AZIMU VELO AIN AR TRES W  DIS CAZ7
 BAR2 EZ IP     C 22 1 29.74                             171   -0.1110 22.8 189 
 BAR2 EZ ES       22 1 45.00                             171   -0.1210 22.8 189 
 BAR2 EZ I        22 1 46.00        17.3 0.20            173           22.8 189 
 BRR  HZ IP     C 22 1 31.71                             152    0.3310 71.1 299 
 BRR  HN ES       22 1 48.15                             152    0.3210 71.1 299 
 BRR  HZ I        22 1 52.48         6.5 0.12            147           71.1 299 
 PAM  EZ IP     C 22 1 32.60                             151    0.1110 78.0  40 
 PAM  EN ES       22 1 49.69                             151   -0.1210 78.0  40 
 PAM  EZ I        22 1 51.48        10.1 0.58            146           78.0  40 
 RUS  HZ EP       22 1 33.63                             144   -0.3310  100 176 
 RUS  HN ES       22 1 52.58                             144    0.1510  100 176 
 RUS  HZ I        22 1 53.86         5.9 0.30            143            100 176 
 PTB  HZ EP       22 1 36.64                             132   -0.53 9  147 259 
 PTB  HE ES       22 1 57.77                             132   -0.37 9  147 259 
 PTB  HZ I        22 2  2.22         8.5 0.18            128            147 259 
 OCA  HZ EP       22 1 38.88                             129    0.28 9  161 353 
 OCA  HZ I        22 2  3.78        14.8 0.24            124            161 353 
 SPBC HZ IP     C 22 1 38.90                             129    0.21 9  163 219 
 SPBC HN ES       22 2  0.90                             129    0.05 9  163 219 
 SPBC HZ I        22 2  3.31        14.5 0.26            126            163 219 
 ZAR  HN ES       22 2  7.79                             122   -0.16 9  204 292 
 ZAR  HZ I        22 2 14.07         6.3 0.22            118            204 292 
 NOR  HZ IP     C 22 1 46.14                             118    0.22 8  234 234 
 NOR  HE ES       22 2 13.88                             118    0.16 8  234 234 
 NOR  HZ I        22 2 20.87         5.1 0.18            115            234 234 
 SML  HZ EP       22 1 46.80                             117   -0.11 8  244 335 
 SML  HN ES   4   22 2 13.41                             117   -2.07 0  244 335 
 SML  HZ I        22 2 18.70         5.9 0.10            113            244 335 
 CHI  HZ EP       22 1 47.37                             117   -0.53 8  248 195 
 CHI  HN ES       22 2 17.54                             117    0.30 8  248 195 
 CHI  HZ I        22 2 26.97         2.3 0.30            114            248 195 
 GUY2CHZ EP       22 1 54.16                             112    0.36 7  301 235 
 GUY2CHE ES   4   22 2 29.32                             112    1.57 0  301 235 
 GUY2CHZ I        22 2 36.87         3.7 0.36                           301 235 
                                                                                
