 2012  2 3 2328 49.8 L   6.934 -73.497 30.1  RSN  4 0.4 1.6LRSN                1
 GAP=171        0.60       8.4     4.7 11.2  0.1992E+02 -0.3237E+02 -0.8141E+01E
 ACTION:UP  12-03-07 16:27 OP:epov STATUS:               ID:20120203232849 L   I
 2012-02-03-2320-00M.COL___188                                                 6
 STAT SP IPHASW D HRMM SECON CODA AMPLIT PERI AZIMU VELO SNR AR TRES W  DIS CAZ7
 BRR  HZ IP     D 2328 56.82                             126    0.2910 30.5 309 
 BRR  HN ES   1   2329  1.37                             126   -0.42 7 30.5 309 
 BRR  HZ I        2329  2.05        84.7 0.12                          30.5 309 
 GIR2 SZ IP       2328 57.49                             122    0.0210 37.1  64 
 BAR2 SZ EP   3   2328 59.66                             110    0.30 2 51.4 137 
 BAR2 SZ ES   3   2329  5.97                             110   -0.85 2 51.4 137 
 BAR2 SZ I        2329 11.14        16.0 0.44                          51.4 137 
 PAM  SE ES   3   2329 17.70                              61   -0.65 2 98.8  63 
                                                                                
