 2013  3 3 2358  9.9 L   6.723 -73.183149.8  RSN  4 0.4 1.8LRSN                1
 GAP=227        1.02       8.5     8.5 10.3  0.4812E+02 -0.1273E+01 -0.6450E+01E
 Epicentro: VILLANUEVA - SANTANDER                                             3
 ACTION:UPD 13-04-09 13:59 OP:ep   STATUS:               ID:20130303235809 L   I
 2013-03-03-2350-00M.COL___228                                                 6
 STAT SP IPHASW D HRMM SECON CODA AMPLIT PERI AZIMU VELO AIN AR TRES W  DIS CAZ7
 BRR  HZ EP       2358 31.07                             153   -0.5010 72.3 306 
 BRR  HN ES       2358 48.42                             153   -0.0410 72.3 306 
 BRR  HN I        2358 48.63        16.1 0.20            152           72.3 306 
 RUS  HZ EP     D 2358 33.69                             147    0.1710 92.5 173 
 RUS  HN ES     D 2358 52.14                             147    0.2210 92.5 173 
 RUS  HN I        2358 52.74         4.6 0.24            146           92.5 173 
 PTB  HZ EP       2358 36.73                             134   -0.01 9  142 262 
 PTB  HN ES       2358 57.15                             134   -0.50 9  142 262 
 PTB  HN I        2358 58.92         7.7 0.18            133            142 262 
 ZAR  HN ES       2359  8.91                             123    0.83 9  204 295 
 ZAR  HN I        2359  9.50         6.5 0.42            123            204 295 
                                                                                
