 2016 12 3 2141 24.8 L   6.752 -73.129145.5  RSN  9 0.3 2.0LRSN                1
 GAP=160        0.62       2.8     2.9  4.0 -0.1791E+01  0.2191E+01  0.2627E+01E
 Epicentro: LOS SANTOS - SANTANDER                                             3
 ACTION:UPD 17-01-11 20:12 OP:rebc STATUS:               ID:20161203214124 L   I
 OLDACT:UP  16-12-04 05:33 OP:edw  STATUS:               ID:20161203213745     3
 OLDACT:UP  16-12-04 05:31 OP:edw  STATUS:               ID:20161203213745     3
 OLDACT:REG 16-12-04 03:02 OP:edw  STATUS:               ID:20161203213745     3
 2016-12-03-2138-00M.COL___351                                                 6
 STAT SP IPHASW D HRMM SECON CODA AMPLIT PERI AZIMU VELO AIN AR TRES W  DIS CAZ7
 BAR2 EZ EP       2141 44.29                             172   -0.0110 18.6 198 
 BAR2 EZ ES       2141 59.17                             172   -0.3510 18.6 198 
 BAR2 EZ I        2142  0.45        24.7 0.22            169           18.6 198 
 BRR  HZ EP       2141 46.19                             151    0.0310 75.4 301 
 BRR  HE ES       2142  3.43                             151    0.6110 75.4 301 
 BRR  HZ I        2142  4.28        16.8 0.20            151           75.4 301 
 PAM  EZ EP       2141 47.24                             150    0.0810 80.4  36 
 PAM  EN ES       2142  4.47                             150   -0.1410 80.4  36 
 PAM  EZ I        2142  6.63        15.9 0.66            153           80.4  36 
 PTB  HZ EP   9   2141 51.09                             132   -0.73 0  149 261 
 PTB  HN ES       2142 12.04                             132   -0.13 9  149 261 
 PTB  HZ I        2142 15.32        11.8 0.16            131            149 261 
 PTB  HZ E        2142 15.43                                            149 261 
 ZAR  HZ EP       2141 57.71                             122    0.10 8  208 293 
 ZAR  HN ES       2142 22.79                             122   -0.41 8  208 293 
 ZAR  HZ I        2142 25.30        11.1 0.28            122            208 293 
 NOR  HZ EP       2142  0.26                             119   -0.08 8  233 236 
 NOR  HN ES       2142 27.97                             119   -0.10 8  233 236 
 NOR  HZ I        2142 34.37         5.4 0.26            118            233 236 
 CHI  HZ EP   4   2142  7.98                             118    6.00 0  244 196 
 CHI  HN ES       2142 31.20                             118    0.22 8  244 196 
 PRA  HN EP   2   2142 17.55                             107   -0.32 3  388 210 
 PRA  HE ES   2   2142 59.62                             107    0.34 3  388 210 
 PRA  HZ I        2143  7.38         2.0 0.38            107            388 210 
 PAL  HZ EP   4   2142 16.37                             106   -3.44 0  405 240 
 PAL  HE ES   2   2143  2.40                             106   -0.33 3  405 240 
 SJC  HZ EP   4   2142 17.70                             105   -3.29 0  415 327 
 SJC  HN ES   4   2143  2.17                             105   -2.64 0  415 327 
                                                                                
