 2013  9 3 2120 15.9 L   7.353 -73.672 95.5  RSN 19 0.5 2.6LRSN 2.9WRSN        1
 SPEC AVERAGE  MO 13.4 ST 15.9 OM  1.9 f0 7.46 R0.2403 AL 0.00 WI 13.2 MW  2.9 3
 SPEC SD       MO  0.2 ST 14.0 OM  0.3 f0 2.33 R0.1128 AL      WI      MW  0.1 3
 GAP= 69        1.18       2.7     3.2  6.6 -0.1052E+01  0.6212E+01 -0.1402E+01E
 Epicentro: SABANA DE TORRES - SANTANDER                                       3
 SPEC PRA HH Z MO 13.5 ST  6.7 OM  1.5 f0 5.60 R0.2775 AL 0.00 WI 23.5 MW  3.0 3
 SPEC PRA HH Z T212157 K 0.000 GD  414 VS 4.20 DE 3.20 Q0300.0 QA 0.60 VS 4.20 3
 SPEC HEL HH Z MO 13.6 ST0.979 OM  1.8 f0 2.77 R0.5610 AL 0.00 WI 18.6 MW  3.0 3
 SPEC HEL HH Z T212115 K 0.000 GD  250 VS 4.20 DE 3.20 Q0300.0 QA 0.60 VS 4.20 3
 SPEC NOR HH Z MO 13.3 ST 22.8 OM  1.5 f0 10.0 R0.1554 AL 0.00 WI 16.7 MW  2.8 3
 SPEC NOR HH Z T212114 K 0.000 GD  247 VS 4.20 DE 3.20 Q0300.0 QA 0.60 VS 4.20 3
 SPEC URE HH Z MO 13.5 ST 41.0 OM  1.8 f0 10.0 R0.1554 AL 0.00 WI 13.4 MW  3.0 3
 SPEC URE HH Z T2121 8 K 0.000 GD  222 VS 4.20 DE 3.20 Q0300.0 QA 0.60 VS 4.20 3
 SPEC RUS HH Z MO 13.1 ST  4.1 OM  1.4 f0 6.62 R0.2347 AL 0.00 WI 12.0 MW  2.7 3
 SPEC RUS HH Z T2121 3 K 0.000 GD  192 VS 4.20 DE 3.20 Q0300.0 QA 0.60 VS 4.20 3
 SPEC SML HH Z MO 13.6 ST 43.0 OM  1.9 f0 10.0 R0.1554 AL 0.00 WI 13.4 MW  3.0 3
 SPEC SML HH Z T212059 K 0.000 GD  185 VS 4.20 DE 3.20 Q0300.0 QA 0.60 VS 4.20 3
 SPEC ZAR HH Z MO 13.4 ST 11.6 OM  1.8 f0 7.36 R0.2111 AL 0.00 WI 12.0 MW  2.9 3
 SPEC ZAR HH Z T212055 K 0.000 GD  158 VS 4.20 DE 3.20 Q0300.0 QA 0.60 VS 4.20 3
 SPEC PTB HH Z MO 13.2 ST 10.9 OM  1.6 f0 8.49 R0.1830 AL 0.00 WI 11.4 MW  2.7 3
 SPEC PTB HH Z T212051 K 0.000 GD  153 VS 4.20 DE 3.20 Q0300.0 QA 0.60 VS 4.20 3
 SPEC PAM SH Z MO 13.3 ST  4.9 OM  1.8 f0 5.77 R0.2693 AL 0.00 WI 10.6 MW  2.8 3
 SPEC PAM SH Z T212050 K 0.000 GD  139 VS 4.20 DE 3.20 Q0300.0 QA 0.60 VS 4.20 3
 SPEC BAR2SH Z MO 13.5 ST  6.4 OM  2.0 f0 5.46 R0.2846 AL 0.00 WI  6.5 MW  3.0 3
 SPEC BAR2SH Z T212048 K 0.000 GD  134 VS 4.20 DE 3.20 Q0300.0 QA 0.60 VS 4.20 3
 SPEC BRR HH Z MO 13.3 ST 23.0 OM  1.9 f0 10.0 R0.1554 AL 0.00 WI  6.6 MW  2.8 3
 SPEC BRR HH Z T212038 K 0.000 GD 99.4 VS 4.20 DE 3.20 Q0300.0 QA 0.60 VS 4.20 3
 ACTION:UPD 13-10-22 09:19 OP:ep   STATUS:               ID:20130903212015 L   I
 OLDACT:UP  13-09-04 00:34 OP:nd   STATUS:               ID:20130903211959     3
 OLDACT:REG 13-09-03 23:00 OP:nd   STATUS:               ID:20130903211959     3
 2013-09-03-2119-59M.COL___269                                                 6
 STAT SP IPHASW D HRMM SECON CODA AMPLIT PERI AZIMU VELO AIN AR TRES W  DIS CAZ7
 BRR  HZ IP     D 2120 29.24                             163   -0.0210 27.5 189 
 BRR  HN ES       2120 39.40                             163   -0.3210 27.5 189 
 BRR  HZ I        2120 40.93       229.5 0.16            156           27.5 189 
 BAR2 SZ EP       2120 34.79                             131    0.0910  100 147 
 BAR2 SZ ES       2120 49.31                             131   -0.0810  100 147 
 BAR2 SZ I        2120 51.07       313.5 0.32            126            100 147 
 OCA  HZ EP     D 2120 34.72                             129   -0.3810  105  22 
 OCA  HN ES       2120 50.90                             129    0.7910  105  22 
 OCA  HZ I        2120 53.03       115.1 0.27            127            105  22 
 PAM  SZ IP     D 2120 35.85                             129    0.1210  107  91 
 PAM  SN ES       2120 51.21                             129   -0.0310  107  91 
 PAM  SZ I        2120 53.03        87.0 0.16            126            107  91 
 PTB  HZ IP     C 2120 36.22                             124   -0.6410  125 224 
 PTB  HN ES   2   2120 52.21                             124   -1.03 5  125 224 
 PTB  HZ I        2120 55.73        58.7 0.22            118            125 224 
 ZAR  HZ EP       2120 37.84                             122    0.2710  132 277 
 ZAR  HN ES       2120 55.18                             122    0.6810  132 277 
 ZAR  HZ I        2120 58.53       115.3 0.44            117            132 277 
 SML  HZ EP       2120 40.40                             116   -0.87 9  166 345 
 SML  HE ES   2   2121  0.24                             116   -0.85 5  166 345 
 SML  HZ I        2121  2.41       189.5 0.12            112            166 345 
 RUS  HZ EP       2120 42.44                             115   -0.36 9  174 158 
 RUS  HN ES       2121  4.28                             115    0.47 9  174 158 
 RUS  HZ I        2121  8.08        31.9 0.34            111            174 158 
 SPBC HZ EP   4   2120 43.36                             112   -1.09 0  193 193 
 SPBC HN ES   4   2121  8.56                             112    1.80 0  193 193 
 SPBC HZ I        2121 12.23        69.8 0.32            108            193 193 
 URE  HZ EP   4   2120 46.87                             110    0.57 0  210 282 
 URE  HN ES   4   2121 10.03                             110   -0.01 0  210 282 
 URE  HZ I        2121 15.79        62.2 0.16            106            210 282 
 NOR  HZ EP       2120 49.29                             108   -0.34 8  238 214 
 NOR  HN ES       2121 15.45                             108   -0.52 8  238 214 
 NOR  HZ I        2121 21.64        28.3 0.56            104            238 214 
 HEL  HZ EP       2120 51.34                             107    0.84 8  242 238 
 HEL  HN ES       2121 18.06                             107    0.54 8  242 238 
 HEL  HZ I        2121 25.07        24.8 0.26            104            242 238 
 COD  HZ EP       2120 55.11                             104   -0.22 7  287   5 
 COD  HN ES       2121 26.31                             104    0.19 7  287   5 
 COD  HZ I        2121 31.94        15.5 0.22            102            287   5 
 CHI  HZ EP   4   2120 59.03                             104    1.44 0  301 181 
 CHI  HN ES   4   2121 32.94                             104    2.80 0  301 181 
 CHI  HZ I        2121 42.35         8.5 0.54            101            301 181 
 GUY2CHZ EP   4   2120 58.39                             104    0.77 0  301 219 
 GUY2CHN ES   4   2121 30.65                             104    0.46 0  301 219 
 GUY2CHZ I        2121 41.46        14.1 0.50                           301 219 
 SJC  HZ EP   4   2120 58.83                             102   -1.38 0  327 330 
 SJC  HN ES   4   2121 32.14                             102   -2.67 0  327 330 
 SJC  HZ I        2121 35.22        15.2 0.32            100            327 330 
 RREF HZ EP   4   2121  1.24                             102    0.10 0  328 214 
 RREF HN ES   4   2121 37.37                             102    0.91 0  328 214 
 RREF HZ I        2121 45.46        22.9 0.24            100            328 214 
 PRA  HZ EP       2121 13.06                              99    1.02 5  424 199 
 PRA  HN ES   4   2121 57.81                              99    1.94 0  424 199 
 PRA  HZ I        2122 11.42        12.6 0.24             97            424 199 
 URI  HZ EP   4   2121 21.48                              97   -1.60 0  515  21 
 URI  HN ES   4   2122 12.69                              97   -2.82 0  515  21 
 URI  HZ I        2122 21.40         3.9 0.22             96            515  21 
                                                                                
