 2017 11 3 2310 30.1 L   6.778 -73.204144.6  RSN  5 0.2 1.1LRSN                1
 GAP=130        0.62       3.3     3.3  5.0 -0.9317E+00 -0.5128E+00  0.6483E+00E
 Epicentro: ZAPATOCA - SANTANDER                                               3
 ACTION:UPD 17-12-12 19:51 OP:rebc STATUS:               ID:20171103231030 L   I
 OLDACT:REG 17-11-04 05:45 OP:osc  STATUS:               ID:20171103230736     3
 2017-11-03-2308-00M.COL___429                                                 6
 STAT SP IPHASW D HRMM SECON CODA AMPLIT PERI AZIMU VELO AIN AR TRES W  DIS CAZ7
 BAR2 EZ EP       2310 49.50                             171   -0.0410 20.7 173 
 BAR2 EZ ES       2311  4.81                             171    0.1110 20.7 173 
 BAR2 EZ I        2311  5.35         3.5 0.26            163           20.7 173 
 BRR  HZ EP       2310 51.41                             154    0.5310 66.9 303 
 BRR  HN ES       2311  6.94                             154   -0.1510 66.9 303 
 PAM  EZ EP       2310 52.27                             149   -0.2910 83.4  42 
 PAM  EE ES       2311 10.11                             149    0.0310 83.4  42 
 PAM  EZ I        2311 20.34         2.1 0.20            125           83.4  42 
 RUS  HZ EP       2310 53.52                             144   -0.0910 98.8 172 
 RUS  HN ES       2311 11.97                             144    0.0310 98.8 172 
 RUS  HZ I        2311 13.08         1.5 0.30            132           98.8 172 
 PTB  HN ES       2311 16.69                             133   -0.15 9  141 259 
                                                                                
