 2015  4 3 2118 27.6 L   6.813 -73.143142.0  RSN 20 0.4 2.2LRSN                1
 GAP= 53        1.70       4.0     4.5  7.8 -0.3051E+01  0.1029E+02  0.3390E+01E
 Epicentro: LOS SANTOS - SANTANDER                                             3
 ACTION:UPD 15-06-03 16:52 OP:cam  STATUS:               ID:20150403211827 L   I
 OLDACT:DUP 15-04-04 04:50 OP:stll STATUS:               ID:20150403210751d    3
 OLDACT:DUP 15-04-04 04:38 OP:stll STATUS:               ID:20150403210750d    3
 OLDACT:REG 15-04-04 02:59 OP:stll STATUS:               ID:20150403210749     3
 2015-04-03-2107-49M.COL___288                                                 6
 STAT SP IPHASW D HRMM SECON CODA AMPLIT PERI AZIMU VELO AIN AR TRES W  DIS CAZ7
 BAR2 EZ EP       2118 46.86                             170    0.1010 24.8 190 
 BAR2 EZ ES       2119  1.80                             170    0.0510 24.8 190 
 BAR2 EZ I        2119  3.51        25.5 0.10            169           24.8 190 
 BRR  HZ IP     D 2118 48.94                             152    0.6710 70.8 297 
 BRR  HN ES       2119  4.65                             152    0.2210 70.8 297 
 BRR  HZ I        2119 10.63        21.8 0.16            151           70.8 297 
 PAM  SZ EP       2118 49.99                             150    0.7010 76.0  40 
 PAM  SN ES       2119  6.29                             150    0.0510 76.0  40 
 PAM  SZ I        2119  9.40        20.2 0.68            155           76.0  40 
 RUS  HZ EP       2118 51.07                             142    0.0310  102 176 
 RUS  HN ES       2119  8.94                             142   -0.4210  102 176 
 RUS  HZ I        2119 10.61        12.6 0.34            145            102 176 
 PTB  HZ EP     D 2118 53.98                             131   -0.29 9  148 258 
 PTB  HN ES       2119 14.72                             131   -0.39 9  148 258 
 PTB  HZ I        2119 18.28        17.8 0.16            132            148 258 
 TAM  HZ IP     D 2118 55.26                             129    0.32 9  155 106 
 TAM  HN ES       2119 16.19                             129   -0.11 9  155 106 
 OCA  HZ EP       2118 55.09                             129   -0.35 9  159 353 
 OCA  HN ES       2119 17.24                             129    0.05 9  159 353 
 OCA  HZ I        2119 21.91        60.7 0.32            132            159 353 
 SPBC HZ EP     C 2118 55.97                             128    0.08 9  165 219 
 SPBC HN ES       2119 18.07                             128    0.07 9  165 219 
 SPBC HZ I        2119 25.20        40.2 0.36            130            165 219 
 ZAR  HZ EP       2118 59.70                             121   -0.03 9  204 292 
 ZAR  HE ES       2119 25.00                             121    0.17 9  204 292 
 ZAR  HZ I        2119 31.28        18.6 0.38            123            204 292 
 NOR  HZ EP       2119  2.94                             117   -0.25 8  236 234 
 NOR  HE ES       2119 30.62                             117   -0.36 8  236 234 
 NOR  HZ I        2119 34.61        17.8 0.22            119            236 234 
 SML  HZ EP       2119  3.44                             116   -0.40 8  243 335 
 SML  HN ES       2119 31.55                             116   -0.59 8  243 335 
 ROSC BZ EP       2119  4.08                             115   -1.55 8  254 211 
 ROSC BE ES       2119 35.58                             115    0.26 8  254 211 
 ROSC BZ I        2119 41.80        13.9 0.40            118            254 211 
 HEL  HZ EP       2119  8.70                             114    1.05 8  273 256 
 HEL  HN ES       2119 38.58                             114   -0.35 8  273 256 
 HEL  HZ I        2119 47.45        10.6 0.38            116            273 256 
 SOCV BZ EP   9   2119  9.85                             111   -0.46 0  300  57 
 SOCV BN ES       2119 40.61                                   -2.59 7  300  57 
 GUY2CHZ EP       2119 11.42                             111    0.30 7  302 235 
 GUY2CHN ES       2119 45.71                             111    0.62 7  302 235 
 GUY2CHZ I        2119 53.62        10.0 0.78                           302 235 
 PTGC HZ EP   9   2119  9.93                             110   -1.45 0  310 159 
 PTGC HN ES       2119 42.05                                   -2.07 7  310 159 
 RREF HE ES       2119 49.40                             110   -0.25 7  323 229 
 TOL  SZ EP       2119 16.22                             108    0.41 7  345 225 
 TOL  SE ES       2119 53.63                             108    0.19 7  345 225 
 ORTC HZ EP       2119 21.27                             105   -0.24 6  397 216 
 ORTC HE ES       2120  3.42                             105   -0.17 6  397 216 
 ORTC HZ I        2120  9.98         5.2 0.30            107            397 216 
 SJC  HZ EP   9   2119 21.66                             105   -1.21 0  408 327 
 SJC  HZ I        2119 23.21         4.0 0.18            107            408 327 
 SJC  HN ES       2120  1.39                                   -3.42 6  408 327 
                                                                                
