 2016  7 3 2205 17.3 L   6.753 -73.073148.5  RSN 16 0.4 2.4LRSN                1
 GAP=127        0.83       3.1     3.2  4.3 -0.7072E+00  0.3630E+01  0.4548E+01E
 Epicentro: LOS SANTOS - SANTANDER                                             3
 ACTION:UPD 17-03-29 16:46 OP:lp   STATUS:               ID:20160703220517 L   I
 OLDACT:UP  16-07-04 07:18 OP:lv   STATUS:               ID:20160703215747     3
 OLDACT:REG 16-07-04 03:52 OP:lv   STATUS:               ID:20160703215747     3
 2016-07-03-2157-47M.COL___337                                                 6
 STAT SP IPHASW D HRMM SECON CODA AMPLIT PERI AZIMU VELO AIN AR TRES W  DIS CAZ7
 BAR2 EZ IP       22 5 37.12                             171   -0.0910 21.5 214 
 BAR2 EZ EP       22 5 37.13                             171           21.5 214 
 BAR2 EZ ES       22 5 52.35                             171   -0.4010 21.5 214 
 BAR2 EZ I        22 5 55.07        55.5 0.30            168           21.5 214 
 PAM  EZ EP       22 5 40.00                             151    0.2310 76.9  32 
 PAM  EN ES       22 5 57.44                             151    0.1410 76.9  32 
 PAM  EZ I        22 5 59.40        31.7 0.20            155           76.9  32 
 BRR  HZ IP     C 22 5 38.99                             150   -0.3010 80.7 299 
 BRR  HN ES       22 5 56.52                             150    0.0710 80.7 299 
 BRR  HZ I        22 6  0.23        49.3 0.16            150           80.7 299 
 RUS  HZ EP       22 5 40.95                             146    0.0210 95.1 181 
 RUS  HN ES       22 5 59.96                             146    0.6010 95.1 181 
 RUS  HZ I        22 6  0.96        22.0 0.28            146           95.1 181 
 PTB  HZ EP   4   22 5 43.69                             131   -1.43 0  155 261 
 PTB  HN ES   4   22 6  4.97                             131   -1.85 0  155 261 
 PTB  HZ I        22 6  8.14        24.9 0.12            131            155 261 
 SPBC HZ EP       22 5 46.08                             129   -0.04 9  164 222 
 SPBC HN ES       22 6  8.29                             129   -0.31 9  164 222 
 SPBC HZ I        22 6 10.38        58.1 0.12            129            164 222 
 ZAR  HZ EP   2   22 5 50.55                             122   -0.33 4  213 293 
 ZAR  HE ES   4   22 6 15.48                             122   -1.61 0  213 293 
 ZAR  HZ I        22 6 23.07        21.8 0.10            122            213 293 
 NOR  HZ EP       22 5 53.07                             119   -0.50 8  238 237 
 NOR  HN ES       22 6 21.60                             119   -0.27 8  238 237 
 NOR  HZ I        22 6 25.26        27.0 0.20            119            238 237 
 ROSC BZ EP       22 5 55.63                             117    0.09 8  253 213 
 ROSC BN ES   4   22 6 27.57                             117    2.19 0  253 213 
 ROSC BZ I        22 6 33.22        28.4 0.55            118            253 213 
 HEL  HZ EP       22 5 58.62                             115    0.25 7  279 257 
 HEL  HE ES       22 6 30.99                             115    0.58 7  279 257 
 HEL  HZ I        22 6 35.46        11.0 0.32            115            279 257 
 PTGC HZ IP       22 5 59.92                             113   -0.48 7  301 160 
 PTGC HN ES       22 6 33.60                             113   -0.42 7  301 160 
 PTGC HZ I        22 6 39.45         9.0 0.32            114            301 160 
 GUY2CHZ EP       22 6  2.18                             112    0.74 7  305 236 
 GUY2CHE ES   4   22 6 38.76                             112    2.89 0  305 236 
 GUY2CHZ I        22 6 43.68        13.7 0.26                           305 236 
 CBOC HZ EP       22 6  5.02                             110    0.00 7  340 253 
 CBOC HN ES       22 6 41.63                             110   -0.61 7  340 253 
 CBOC HZ I        22 6 43.80         2.7 0.18            111            340 253 
 PRA  HZ EP       22 6 11.09                             107    0.24 6  392 211 
 PRA  HE ES       22 6 53.46                             107    0.83 6  392 211 
 PRA  HZ I        22 6 58.28        15.0 0.30            108            392 211 
 ORTC HZ EP   2   22 6 11.65                             107    0.27 3  396 218 
 ORTC HN ES   4   22 6 54.73                             107    1.17 0  396 218 
 ORTC HZ I        22 7  0.69        11.2 0.44            107            396 218 
 SJC  HZ EP   4   22 6 11.27                             106   -2.70 0  418 326 
 SJC  HN ES   4   22 6 54.44                             106   -3.74 0  418 326 
 SJC  HZ I        22 6 58.57         3.1 0.29            107            418 326 
                                                                                
