 2017 11 3 2150  8.5 L   6.832 -73.198138.8  RSN  7 0.5 1.6LRSN                1
 GAP=147        1.12       5.2     4.7  8.4 -0.4618E+01  0.1508E+02  0.4730E+01E
 Epicentro: ZAPATOCA - SANTANDER                                               3
 ACTION:UPD 17-12-12 19:51 OP:rebc STATUS:               ID:20171103215008 L   I
 OLDACT:DUP 17-11-04 06:16 OP:osc  STATUS:               ID:20171103214737d    3
 2017-11-03-2148-00M.COL___429                                                 6
 STAT SP IPHASW D HRMM SECON CODA AMPLIT PERI AZIMU VELO AIN AR TRES W  DIS CAZ7
 BAR2 HE EP       2150 27.44                             169    0.1110 26.5 176 
 BAR2 HE ES       2150 42.27                             169    0.2310 26.5 176 
 BAR2 EZ I        2150 42.95        13.5 0.26            171           26.5 176 
 PAM  EZ EP       2150 30.05                             149    0.0310 78.7  44 
 PAM  EN ES       2150 46.97                             149    0.1310 78.7  44 
 PAM  EZ I        2150 49.32         9.2 0.60            150           78.7  44 
 RUS  HZ EP       2150 31.56                             141   -0.2810  105 173 
 RUS  HN ES       2150 49.05                             141   -1.0310  105 173 
 RUS  HZ I        2150 50.38         4.6 0.24            144            105 173 
 PTB  HZ EP       2150 34.00                             131   -0.41 9  143 257 
 PTB  HE ES       2150 54.79                             131    0.14 9  143 257 
 PTB  HZ I        2150 57.13         4.3 0.12            132            143 257 
 YPLC HN ES       2151  2.50                             124    0.83 9  183 150 
 NOR  HE ES       2151 11.16                             117    0.31 8  232 233 
 GUY2CHZ EP       2150 51.34                             111   -0.11 7  299 234 
 GUY2CHE ES       2151 25.46                             111    0.47 7  299 234 
 GUY2CHZ I        2151 32.53         1.7 0.24                           299 234 
                                                                                
