 2011  5 3 2139 47.0 L   6.716 -73.105141.5  RSN  5 0.2 1.4LRSN                1
 GAP=146        0.43       3.0     4.5  4.1  0.1380E+00 -0.2072E+01  0.6937E+00E
 Epicentro: JORDAN - SANTANDER                                                 3
 ACTION:UP  11-06-29 08:50 OP:tino STATUS:               ID:20110503213947 L   I
 2011-05-03-2135-53S.COL___133                                                 6
 STAT SP IPHASW D HRMM SECON CODA AMPLIT PERI AZIMU VELO SNR AR TRES W  DIS CAZ7
 BAR2 SZ EP   1   2140  6.29                             173     0.3 7   16 212 
 BAR2 SZ I        2140  6.62         5.9 0.10                            16 212 
 BAR2 SZ ES   1   2140 20.91                             173     0.1 7   16 212 
 BTL  SZ EP   1   2140  6.44                             168     0.2 7   29 321 
 BTL  SZ ES   1   2140 21.09                             168    -0.2 7   29 321 
 BRR  HZ EP   1   2140  8.06                             149    -0.2 7   80 303 
 BRR  HE ES   1   2140 24.89                             149     0.1 7   80 303 
 BRR  HZ I        2140 50.90        13.6 0.36                            80 303 
 PAM  SZ EP   1   2140  9.16                             148     0.1 7   82  33 
 PAM  SN ES   1   2140 26.26                             148     0.0 7   82  33 
 PAM  SZ I        2140 28.29         3.2 0.41                            82  33 
 RUS  HZ EP   1   2140  9.46                             146    -0.2 7   91 178 
 RUS  HZ I        2140 11.55         3.2 0.15                            91 178 
 RUS  HE ES   1   2140 27.42                             146     0.0 7   91 178 
                                                                                
