 2016  7 3 2050 38.5 L   6.813 -73.179146.2  RSN 19 0.5 2.4LRSN                1
 GAP=132        0.92       3.1     3.3  5.4 -0.1004E+01  0.7495E+01  0.1124E+01E
 Epicentro: ZAPATOCA - SANTANDER                                               3
 ACTION:UPD 17-03-29 16:46 OP:lp   STATUS:               ID:20160703205038 L   I
 OLDACT:REG 16-07-04 03:46 OP:lv   STATUS:               ID:20160703204747     3
 2016-07-03-2047-47M.COL___337                                                 6
 STAT SP IPHASW D HRMM SECON CODA AMPLIT PERI AZIMU VELO AIN AR TRES W  DIS CAZ7
 BAR2 EZ IP     C 2050 58.02                             170   -0.2210 24.4 181 
 BAR2 EZ ES       2051 13.56                             170   -0.0510 24.4 181 
 BAR2 EZ I        2051 15.21        52.3 0.16            173           24.4 181 
 BRR  HZ IP     C 2050 59.96                             154    0.4510 67.2 299 
 BRR  HZ I        2051 23.65        34.3 0.14            149           67.2 299 
 PAM  EZ EP       2051  0.82                             151   -0.0610 78.7  42 
 PAM  EE ES       2051 18.52                             151    0.2210 78.7  42 
 PAM  EZ I        2051 19.38        38.9 0.17            147           78.7  42 
 RUS  HZ EP       2051  1.90                             144   -0.5610  102 174 
 RUS  HE ES       2051 20.93                             144   -0.1910  102 174 
 RUS  HZ I        2051 21.76        19.8 0.28            144            102 174 
 PTB  HZ EP       2051  4.58                             133   -0.65 9  144 258 
 PTB  HN ES     C 2051 26.27                             133    0.21 9  144 258 
 PTB  HZ I        2051 27.79        42.5 0.19            129            144 258 
 SPBC HZ EP       2051  6.89                             129   -0.07 9  162 218 
 SPBC HE ES     C 2051 29.33                             129    0.20 9  162 218 
 SPBC HZ I        2051 31.21        55.0 0.11            128            162 218 
 ZAR  HZ EP       2051 10.92                             123    0.32 9  200 292 
 ZAR  HE ES       2051 36.55                             123    0.94 9  200 292 
 ZAR  HZ I        2051 43.18        31.3 0.38            119            200 292 
 NOR  HZ EP     C 2051 13.65                             119   -0.41 8  233 234 
 NOR  HN ES       2051 41.74                             119   -0.02 8  233 234 
 NOR  HZ I        2051 46.42        26.4 0.20            117            233 234 
 CHI  HZ EP   2   2051 16.95                             117    0.65 4  249 194 
 CHI  HN ES   2   2051 46.25                             117    0.48 4  249 194 
 CHI  HZ I        2051 53.45        15.8 0.36            116            249 194 
 ROSC BZ EP   4   2051 17.81                             117    1.20 0  252 210 
 ROSC BE ES   4   2051 49.59                             117    3.29 0  252 210 
 ROSC BZ I        2051 53.96        30.1 0.50            115            252 210 
 HEL  HZ EP   4   2051 19.72                             115    1.31 0  269 255 
 HEL  HE ES       2051 49.30                             115   -0.21 8  269 255 
 HEL  HZ I        2051 57.48        12.7 0.27            113            269 255 
 URE  HZ EP   2   2051 18.65                             114   -0.53 4  280 292 
 URE  HE ES       2051 49.81                             114   -1.07 7  280 292 
 URE  HZ I        2052  1.47        28.9 0.20            111            280 292 
 GUY2CHZ EP   2   2051 22.35                             113    0.44 4  299 234 
 GUY2CHE ES       2051 56.10                             113    0.35 7  299 234 
 GUY2CHZ I        2052  4.69        13.0 0.32                           299 234 
 LL6C HZ EP   4   2051 22.26                             111   -1.81 0  323 358 
 LL6C HE ES   4   2052  1.02                             111    1.43 0  323 358 
 LL6C HZ I        2052 13.87         8.0 0.55            108            323 358 
 CBOC HZ EP   2   2051 25.22                             110    0.11 3  331 252 
 CBOC HE ES   2   2052  0.93                             110   -0.51 3  331 252 
 CBOC HZ I        2052  5.33         5.4 0.16            108            331 252 
 PRA  HZ EP       2051 32.31                             107    0.31 6  391 209 
 PRA  HN ES   2   2052 13.77                             107    0.06 3  391 209 
 PRA  HZ I        2052 17.87        12.4 0.40            105            391 209 
 ORTC HZ EP       2051 33.04                             107    0.69 6  394 216 
 ORTC HE ES       2052 14.84                             107    0.51 6  394 216 
 ORTC HZ I        2052 21.93         8.4 0.30            105            394 216 
 SJC  HZ EP   4   2051 32.16                             106   -1.57 0  406 327 
 SJC  HE ES   2   2052 16.03                             106   -0.75 3  406 327 
 SJC  HZ I        2052 17.66         4.2 0.32            104            406 327 
 CRJC HZ EP   4   2051 38.20                             104   -2.70 0  466   4 
 CRJC HN ES   4   2052 27.39                             104   -2.16 0  466   4 
 CRJC HZ I        2052 33.66         5.4 0.27            102            466   4 
                                                                                
