 2014  8 3 2132  8.9 L   6.708 -73.238145.3  RSN  6 0.5 1.6LRSN                1
 GAP=204        0.95       6.9     7.3  9.1  0.2296E+02  0.1312E+02  0.9180E+01E
 Epicentro: VILLANUEVA - SANTANDER                                             3
 ACTION:UPD 14-09-15 21:46 OP:nd   STATUS:               ID:20140803213208 L   I
 OLDACT:REG 14-08-04 05:11 OP:fm   STATUS:               ID:20140803212812     3
 2014-08-03-2128-12M.COL___254                                                 6
 STAT SP IPHASW D HRMM SECON CODA AMPLIT PERI AZIMU VELO AIN AR TRES W  DIS CAZ7
 BAR2 SZ ES   1   2132 43.76                             174    0.28 7 14.2 154 
 BAR2 SZ I        2132 45.75        13.2 0.56            175           14.2 154 
 BRR  HZ EP   1   2132 29.84                             153   -0.01 7 68.5 310 
 BRR  HE ES   1   2132 45.48                             153   -0.72 7 68.5 310 
 BRR  HZ I        2132 52.87         9.2 0.24            152           68.5 310 
 RUS  HZ EP       2132 32.11                             146    0.1210 91.7 169 
 RUS  HN ES   1   2132 50.20                             146    0.20 7 91.7 169 
 RUS  HZ I        2132 51.82         3.2 0.38            151           91.7 169 
 PTB  HZ EP   1   2132 34.47                             134   -0.32 7  136 262 
 PTB  HN ES   1   2132 55.92                             134    0.94 7  136 262 
 PTB  HZ I        2132 57.59         3.7 0.14            135            136 262 
 SPBC HZ EP   1   2132 36.08                             132    0.05 7  149 218 
 SPBC HE ES   1   2132 56.35                             132   -0.84 7  149 218 
 SPBC HZ I        2133  2.78         7.8 0.30            134            149 218 
 ZAR  HN ES   1   2133  5.86                             123    0.20 6  199 296 
 ZAR  HZ I        2133 12.36         5.1 0.34            125            199 296 
                                                                                
