 2012  4 3 2225 46.7 L   6.786 -73.137147.4  RSN  6 0.2 1.6LRSN                1
 GAP=138        0.38       2.4     2.6  4.6  0.7123E+00  0.1498E+01  0.2527E+01E
 Epicentro: LOS SANTOS - SANTANDER                                             3
 ACTION:UPD 12-07-05 11:50 OP:tino STATUS:               ID:20120403222546 L   I
 2012-04-03-2220-00M.COL___196                                                 6
 STAT SP IPHASW D HRMM SECON CODA AMPLIT PERI AZIMU VELO AIN AR TRES W  DIS CAZ7
 BRR  HZ EP   1   2226  8.22                             152     0.1 7   73 299 
 BRR  HN ES   1   2226 25.05                             152     0.2 7   73 299 
 PAM  SZ EP   1   2226  9.14                             151     0.0 7   78  38 
 PAM  SN ES   1   2226 26.41                             151    -0.2 7   78  38 
 RUS  HZ EP   1   2226 10.56                             145     0.1 7   99 177 
 RUS  HN ES   1   2226 29.10                             145     0.0 7   99 177 
 RUS  HZ I        2226 30.91         6.8 0.50                            99 177 
 PTB  HE ES   2   2226 34.60                             132    -0.4 5  148 259 
 ZAR  HN ES   1   2226 44.84                             122    -0.1 6  205 292 
 ZAR  HZ I        2226 49.48         3.8 0.16                           205 292 
 CHI  HZ EP   2   2226 24.25                             118    -0.1 4  247 195 
 CHI  HN ES   2   2226 53.71                             118     0.0 4  247 195 
                                                                                
