 2015  2 3 2224 46.6 L   6.834 -73.146150.2  RSN 16 0.4 2.3LRSN                1
 GAP=118        0.97       3.0     4.1  5.6 -0.2775E+01  0.5314E+01  0.1111E+01E
 Epicentro: LOS SANTOS - SANTANDER                                             3
 ACTION:UPD 15-04-30 21:21 OP:nd   STATUS:               ID:20150203222446 L   I
 OLDACT:REG 15-02-04 02:23 OP:spq  STATUS:               ID:20150203221747     3
 2015-02-03-2217-47M.COL___277                                                 6
 STAT SP IPHASW D HRMM SECON CODA AMPLIT PERI AZIMU VELO AIN AR TRES W  DIS CAZ7
 BAR2 EZ EP     D 2225  6.90                             169    0.0710 27.0 189 
 BAR2 EZ ES   1   2225 22.48                             169   -0.14 7 27.0 189 
 BAR2 EZ I        2225 25.60        23.4 0.34            166           27.0 189 
 BRR  HZ EP       2225  8.63                             154    0.5110 69.5 296 
 BRR  HE ES       2225 25.64                             154    0.7210 69.5 296 
 BRR  HZ I        2225 28.66        31.4 0.16            151           69.5 296 
 PAM  SZ EP     D 2225  9.46                             153    0.3510 74.5  41 
 PAM  SE ES       2225 26.59                             153   -0.1010 74.5  41 
 PAM  SZ I        2225 28.53        47.0 0.52            158           74.5  41 
 RUS  HZ EP       2225 10.88                             144   -0.1610  104 176 
 RUS  HN ES   1   2225 29.62                             144   -0.50 7  104 176 
 RUS  HZ I        2225 31.40        15.8 0.34            144            104 176 
 PTB  HZ EP       2225 13.65                             133   -0.34 9  149 257 
 PTB  HE ES   1   2225 34.73                             133   -0.63 7  149 257 
 PTB  HZ I        2225 38.49        35.3 0.12            131            149 257 
 OCA  HZ EP       2225 14.82                             131   -0.08 9  157 353 
 OCA  HN ES       2225 36.33                             131   -0.66 9  157 353 
 OCA  HZ I        2225 41.50        31.1 0.30            133            157 353 
 SPBC HZ EP       2225 16.05                             129    0.35 9  166 218 
 SPBC HN ES   1   2225 38.28                             129   -0.14 7  166 218 
 SPBC HZ I        2225 45.01        23.0 0.08            129            166 218 
 NOR  HZ EP       2225 23.57                             119    0.76 8  237 234 
 NOR  HE ES       2225 50.91                             119   -0.15 8  237 234 
 NOR  HZ I        2225 55.41        15.2 0.32            119            237 234 
 SML  HZ EP       2225 23.25                             119    0.15 8  240 335 
 SML  HE ES   1   2225 51.25                             119   -0.33 6  240 335 
 SML  HZ I        2225 55.19        31.4 0.10            120            240 335 
 CHI  HZ EP   4   2225 27.12                             118    2.19 0  252 195 
 CHI  HN ES   1   2225 54.69                             118   -0.14 6  252 195 
 CHI  HZ I        2225 58.74         5.9 0.22            119            252 195 
 HEL  HZ EP   4   2225 29.27                             115    2.14 0  273 255 
 HEL  HE ES   1   2225 59.42                             115    0.66 6  273 255 
 HEL  HZ I        2226  6.53        10.4 0.32            116            273 255 
 PTGC HZ EP   1   2225 30.47                             112   -0.57 5  312 159 
 PTGC HE ES   4   2226  3.91                             112   -1.80 0  312 159 
 PTGC HZ I        2226  5.09        13.5 0.38            114            312 159 
 RREF HZ EP   4   2225 36.82                             111    3.62 0  324 229 
 RREF HE ES   4   2226 12.37                             111    2.81 0  324 229 
 RREF HZ I        2226 21.08        10.3 0.22            112            324 229 
 DBB  SZ EP   1   2225 33.47                             110   -0.75 5  339 274 
 DBB  SZ ES   1   2226 10.53                             110   -0.84 5  339 274 
 TOL  SZ EP   4   2225 37.23                             110    1.90 0  346 224 
 TOL  SN ES   4   2226 17.28                             110    3.93 0  346 224 
 TOL  SZ I        2226 20.77         5.9 0.22            111            346 224 
 ANIL HE ES   4   2226 19.75                             109    3.65 0  360 224 
 ORTC HN ES   4   2226 25.55                             107    2.08 0  398 216 
 ORTC HZ I        2226 29.58         4.6 0.26            108            398 216 
                                                                                
