 2012  2 3 2035 43.4 L   6.799 -73.131148.4  RSN  8 0.4 1.8LRSN                1
 GAP=138        0.66       5.7     6.0  8.1  0.1474E+02  0.1839E+02  0.1539E+02E
 ACTION:UP  12-03-07 16:27 OP:epov STATUS:               ID:20120203203543 L   I
 2012-02-03-2030-00M.COL___188                                                 6
 STAT SP IPHASW D HRMM SECON CODA AMPLIT PERI AZIMU VELO SNR AR TRES W  DIS CAZ7
 BAR2 SZ ES   2   2036 18.53                             171   -0.40 5 23.6 194 
 GIR2 SZ EP       2036  3.43                             167    0.0210 31.7 347 
 BRR  HZ EP       2036  5.10                             152    0.1710 72.6 298 
 BRR  HN ES   2   2036 22.55                             152    0.84 5 72.6 298 
 BRR  HZ I        2036 25.46        16.2 0.42                          72.6 298 
 PAM  SN ES   2   2036 22.91                             151   -0.45 5 76.4  39 
 RUS  HZ EP       2036  7.60                             144    0.1910  100 177 
 RUS  HN ES   2   2036 25.91                             144   -0.22 5  100 177 
 RUS  HZ I        2036 27.08         5.3 0.40                           100 177 
 PTB  HZ EP       2036 10.29                             132   -0.44 9  149 259 
 PTB  HZ I        2036 33.05         3.9 0.28                           149 259 
 ZAR  HN ES   1   2036 41.70                             123   -0.04 6  206 292 
 ZAR  HZ I        2036 47.09         9.5 0.46                           206 292 
 CHI  HZ EP   2   2036 21.74                             118    0.45 4  249 196 
                                                                                
