 2012 11 3 2156 24.9 L   6.839 -73.306117.3  RSN  4 0.2 1.5LRSN                1
 GAP=137        0.42       3.5     6.3  5.0  0.9050E+01 -0.7365E+01 -0.3158E+01E
 Epicentro: ZAPATOCA - SANTANDER                                               3
 ACTION:UPD 12-12-05 15:31 OP:}ep  STATUS:               ID:20121103215624 L   I
 2012-11-03-2150-00M.COL___228                                                 6
 STAT SP IPHASW D HRMM SECON CODA AMPLIT PERI AZIMU VELO AIN AR TRES W  DIS CAZ7
 BAR2 SZ EP       2156 41.59                             165    0.2310 30.5 153 
 BAR2 SZ ES   1   2156 54.02                             165   -0.15 7 30.5 153 
 BRR  HZ EP   1   2156 42.03                             154    0.01 7 53.8 303 
 BRR  HN ES   2   2156 55.29                             154   -0.07 5 53.8 303 
 BRR  HZ I        2157  2.99         9.2 0.66                          53.8 303 
 PAM  SZ EP   1   2156 44.88                             141   -0.02 7 86.8  50 
 PAM  SZ I        2156 45.81         5.6 0.15                          86.8  50 
 RUS  HZ EP       2156 46.40                             135   -0.2010  108 167 
 RUS  HN ES   1   2157  3.63                             135    0.13 7  108 167 
 RUS  HN I        2157  5.23         6.9 0.30                           108 167 
                                                                                
