 2012  3 3 2042  2.8 L   6.784 -73.129145.3  RSN  6 0.4 2.0LRSN                1
 GAP=238        0.86       6.7     7.1  8.3  0.1970E+02  0.1663E+02  0.1762E+01E
 ACTION:UP  12-03-31 23:16 OP:EP   STATUS:               ID:20120303204202 L   I
 2012-03-03-2040-00M.COL___191                                                 6
 STAT SP IPHASW D HRMM SECON CODA AMPLIT PERI AZIMU VELO SNR AR TRES W  DIS CAZ7
 BAR2 SZ EP   1   2042 22.34                             171     0.0 7   22 195 
 BAR2 SZ ES   1   2042 36.99                             171    -0.6 7   22 195 
 BAR2 SZ I        2042 38.41        19.6 0.28                            22 195 
 BRR  HZ EP   1   2042 24.12                             152     0.1 7   74 299 
 BRR  HN ES   1   2042 41.35                             152     0.7 7   74 299 
 BRR  HZ I        2042 43.98        26.6 0.18                            74 299 
 RUS  HZ EP   1   2042 26.49                             144     0.1 7   99 177 
 RUS  HZ I        2042 27.65        10.9 0.13                            99 177 
 RUS  HN ES   1   2042 44.89                             144     0.1 7   99 177 
 PTB  HZ EP   2   2042 29.12                             131    -0.8 5  149 260 
 PTB  HN ES   2   2042 50.78                             131    -0.2 5  149 260 
 ZAR  HZ EP   1   2042 35.78                             122     0.3 6  206 292 
 ZAR  HE ES   1   2043  0.37                             122    -0.6 6  206 292 
 ZAR  HZ I        2043  6.53        16.1 0.37                           206 292 
 NOR  SZ EP   2   2042 38.50                             118    -0.1 4  235 235 
 NOR  SN ES   1   2043  6.80                             118     0.3 6  235 235 
                                                                                
