 2016  5 3 2012 49.6 L   6.788 -73.148145.9  RSN  8 0.2 2.2LRSN                1
 GAP=137        0.65       2.6     2.6  3.9 -0.8311E+00  0.3050E+01  0.6177E+00E
 Epicentro: LOS SANTOS - SANTANDER                                             3
 ACTION:UPD 16-08-18 17:41 OP:cam  STATUS:               ID:20160503201249 L   I
 OLDACT:REG 16-05-04 03:30 OP:cara STATUS:               ID:20160503200750     3
 2016-05-03-2007-50M.COL___301                                                 6
 STAT SP IPHASW D HRMM SECON CODA AMPLIT PERI AZIMU VELO AIN AR TRES W  DIS CAZ7
 BAR2 EZ IP       2013  9.40                             171    0.1410 21.9 190 
 BAR2 EZ ES       2013 24.42                             171   -0.1410 21.9 190 
 BAR2 EZ I        2013 25.61        54.0 0.20            171           21.9 190 
 BRR  HZ EP       2013 11.13                             152    0.3010 71.7 300 
 BRR  HE ES       2013 27.59                             152    0.2310 71.7 300 
 BRR  HZ I        2013 28.99        20.6 0.12            151           71.7 300 
 PAM  EZ EP       2013 11.96                             150    0.0210 78.6  39 
 PAM  EZ I        2013 12.35        31.1 0.24            152           78.6  39 
 PAM  EN ES       2013 29.21                             150   -0.1310 78.6  39 
 RUS  HZ EP       2013 13.18                             144   -0.1310 99.2 176 
 RUS  HN ES       2013 31.74                             144   -0.0310 99.2 176 
 RUS  HZ I        2013 33.09        15.6 0.28            146           99.2 176 
 PTB  HZ EP       2013 16.47                             132   -0.11 9  147 259 
 PTB  HN ES       2013 37.02                             132   -0.56 9  147 259 
 PTB  HZ I        2013 38.74        13.9 0.20            132            147 259 
 SPBC HZ EP       2013 18.29                             129    0.25 9  162 219 
 SPBC HN ES       2013 40.54                             129    0.36 9  162 219 
 SPBC HZ I        2013 42.92        31.4 0.20            130            162 219 
 ZAR  HZ EP       2013 21.74                             122   -0.39 9  204 293 
 ZAR  HN ES       2013 47.77                             122    0.30 9  204 293 
 ZAR  HZ I        2013 53.42        12.6 0.28            122            204 293 
 NOR  HZ EP       2013 25.18                             119   -0.10 8  234 235 
 NOR  HN ES       2013 52.99                             119   -0.08 8  234 235 
 NOR  HZ I        2013 54.51        10.4 0.14            119            234 235 
                                                                                
