 2010  3 3 2039 33.0 L   6.797 -73.054144.9  RSN  4 0.1 1.8LRSN                1
 GAP=247        0.28       3.4     6.6  3.5  0.1396E+02  0.1544E+01  0.3115E+01E
 Epicentro: LOS SANTOS - SANTANDER                                             3
 ACTION:UP  10-08-24 09:51 OP:vdl  STATUS:               ID:20100303203932 L   I
 2010-03-03-2035-43S.COL___096                                                 6
 STAT SP IPHASW D HRMM SECON CODA AMPLIT PERI AZIMU VELO SNR AR TRES W  DIS CAZ7
 BAR2 SZ EP       2039 52.65                             169     0.110   27 212 
 BAR2 SZ ES   2   2040  7.78                             169    -0.1 5   27 212 
 BRR  HZ EP       2039 54.58                             149     0.010   80 295 
 BRR  HE ES   2   2040 11.38                             149     0.0 5   80 295 
 BRR  HZ I        2040 15.26        13.8 0.14                            80 295 
 RUS  BZ EP       2039 56.54                             144    -0.110  100 182 
 RUS  BN ES   2   2040 15.07                             144     0.0 5  100 182 
 RUS  BZ I        2040 16.49         8.3 0.19                           100 182 
 CHI  HZ EP       2040 10.90                             117     0.0 8  251 197 
 CHI  HN ES   3   2040 40.63                             117     0.1 2  251 197 
 CHI  HZ I        2040 52.75         4.1 0.33                           251 197 
                                                                                
