 2014  4 3 2312  2.4 L   6.793 -73.174141.7  RSN  8 0.3 1.8LRSN                1
 GAP=133        0.78       3.0     3.5  7.0 -0.7703E+00  0.1085E+02 -0.8023E+00E
 Epicentro: LOS SANTOS - SANTANDER                                             3
 ACTION:UPD 14-05-13 23:06 OP:nd   STATUS:               ID:20140403231202 L   I
 OLDACT:UP  14-04-04 10:26 OP:mh   STATUS:               ID:20140403230813     3
 OLDACT:REG 14-04-04 03:22 OP:mh   STATUS:               ID:20140403230813     3
 2014-04-03-2308-13M.COL___261                                                 6
 STAT SP IPHASW D HRMM SECON CODA AMPLIT PERI AZIMU VELO AIN AR TRES W  DIS CAZ7
 PAM  SZ EP       2312 24.90                             149    0.5010 80.0  41 
 PAM  SN ES       2312 41.16                             149   -0.3610 80.0  41 
 PAM  SZ I        2312 44.07         6.3 0.12            142           80.0  41 
 RUS  HZ EP       2312 25.82                             143    0.0510  100 174 
 RUS  HN ES       2312 43.94                             143   -0.0210  100 174 
 RUS  HZ I        2312 47.33         3.7 0.50            129            100 174 
 PTB  HZ EP       2312 28.37                             131   -0.42 9  145 259 
 PTB  HN ES       2312 49.41                             131    0.07 9  145 259 
 PTB  HZ I        2312 55.73         6.1 0.20            121            145 259 
 SPBC HZ EP   1   2312 30.72                             128    0.32 7  161 218 
 SPBC HZ I        2312 59.86        11.1 0.25            117            161 218 
 ZAR  HZ EP       2312 34.63                             122    0.27 9  201 293 
 ZAR  HN ES       2312 59.65                             122    0.40 9  201 293 
 NOR  HN ES   1   2313  5.22                             118    0.16 6  232 234 
 SML  HN ES       2313  6.78                             116   -0.35 8  243 336 
 SML  HZ I        2313 11.59        12.9 0.09            108            243 336 
 GUY2CHZ EP   1   2312 44.89                             112   -0.64 5  298 235 
 GUY2CHN ES   1   2313 18.61                             112   -0.52 5  298 235 
 GUY2CHZ I        2313 28.93         2.8 0.33                           298 235 
                                                                                
