 2010 12 3 2206 14.3 L   6.746 -72.997141.8  RSN  5 0.3 2.2LRSN                1
 GAP=224        0.57       4.1     8.3  6.2 -0.1764E+02  0.1999E+02 -0.1133E+01E
 Epicentro: CEPITA - SANTANDER                                                 3
 ACTION:UP  11-01-14 15:22 OP:pat  STATUS:               ID:20101203220614 L   I
 2010-12-03-2200-00M.COL___133                                                 6
 STAT SP IPHASW D HRMM SECON CODA AMPLIT PERI AZIMU VELO SNR AR TRES W  DIS CAZ7
 BAR2 SZ EP   1   22 6 33.13                             169    -0.4 7   27 230 
 BAR2 SZ ES   1   22 6 48.68                             169     0.1 7   27 230 
 BAR2 SZ I        22 6 49.96        39.2 0.28                            27 230 
 OCA  SZ EP   1   22 6 43.33                             127     0.2 7  169 348 
 OCA  SZ ES   1   22 7  5.66                             127     0.0 7  169 348 
 OCA  SZ I        22 7 11.02        17.5 0.30                           169 348 
 HEL  HZ EP   2   22 6 56.20                             113     0.3 4  287 258 
 HEL  HN ES   2   22 7 27.72                             113    -0.7 4  287 258 
 HEL  HZ I        22 7 32.46         5.5 0.12                           287 258 
 RREF HZ EP   1   22 7  1.42                             109     0.1 5  331 232 
 RREF HE ES   1   22 7 38.41                             109     0.5 5  331 232 
 RREF HZ I        22 7 44.91         6.3 0.25                           331 232 
 PRA  HZ EP   1   22 7  7.72                             106    -0.3 4  395 212 
 PRA  HE ES   2   22 7 50.19                             106     0.2 3  395 212 
                                                                                
