 2016  9 3 2136 31.6 L   6.772 -73.104146.7  RSN  5 0.3 1.6LRSN                1
 GAP=143        0.69       3.7     3.7  5.1 -0.1396E+01  0.2683E+01  0.5924E+00E
 Epicentro: LOS SANTOS - SANTANDER                                             3
 ACTION:UPD 17-08-17 21:06 OP:lp   STATUS:               ID:20160903213631 L   I
 OLDACT:DUP 16-09-04 09:17 OP:and  STATUS:               ID:20160903212735d    3
 OLDACT:REG 16-09-04 03:41 OP:and  STATUS:               ID:20160903212734     3
 2016-09-03-2128-00M.COL___355                                                 6
 STAT SP IPHASW D HRMM SECON CODA AMPLIT PERI AZIMU VELO AIN AR TRES W  DIS CAZ7
 BAR2 EZ EP   2   2136 51.41                             171    0.06 5 21.7 204 
 BAR2 EZ ES       2137  6.57                             171   -0.1510 21.7 204 
 BAR2 EZ I        2137  7.30        11.7 0.28            172           21.7 204 
 BRR  HZ EP       2136 53.18                             151   -0.0310 76.8 299 
 BRR  HZ ES       2137 10.19                             151    0.1510 76.8 299 
 BRR  HZ I        2137 13.17         7.2 0.28            151           76.8 299 
 PAM  EZ IP     C 2136 54.22                             151    0.2910 77.0  35 
 PAM  EE ES       2137 11.14                             151   -0.1810 77.0  35 
 PAM  EE I        2137 13.05         9.2 0.46            153           77.0  35 
 RUS  HZ EP       2136 55.50                             145    0.2610 97.3 179 
 RUS  HE ES       2137 13.61                             145   -0.0510 97.3 179 
 RUS  HZ I        2137 15.47         4.1 0.22            147           97.3 179 
 PTB  HZ EP       2136 58.43                             131   -0.61 9  152 260 
 PTB  HE ES       2137 20.68                             131    0.26 9  152 260 
 PTB  HZ I        2137 21.86         4.3 0.20            133            152 260 
                                                                                
