 2013 11 3 2303 23.2 L   6.790 -73.143149.4  RSN 12 0.4 2.7LRSN                1
 GAP=137        0.86       2.7     3.5  4.8 -0.1298E+01  0.4178E+01 -0.1681E+01E
 Epicentro: LOS SANTOS - SANTANDER                                             3
 ACTION:UPD 14-01-09 16:25 OP:ep   STATUS:               ID:20131103230323 L   I
 OLDACT:UP  13-11-03 22:09 OP:cam  STATUS:               ID:20131103230000     3
 OLDACT:REG 13-11-03 21:56 OP:cam  STATUS:               ID:20131103230000     3
 2013-11-03-2300-00M.COL___273                                                 6
 STAT SP IPHASW D HRMM SECON CODA AMPLIT PERI AZIMU VELO AIN AR TRES W  DIS CAZ7
 BAR2 SZ EP       23 3 43.24                             171   -0.0110 22.3 191 
 BAR2 SZ ES       23 3 58.97                             171    0.0910 22.3 191 
 BAR2 SZ I        23 4  0.67       125.6 0.20            171           22.3 191 
 BRR  HZ IP     C 23 3 45.17                             153    0.3810 72.0 299 
 BRR  HN ES       23 4  2.25                             153    0.6310 72.0 299 
 BRR  HZ I        23 4  6.61        69.0 0.34            150           72.0 299 
 PAM  SZ IP     C 23 3 46.12                             151    0.2710 78.0  39 
 PAM  SN ES       23 4  3.41                             151   -0.0910 78.0  39 
 PAM  SZ I        23 4  5.70        49.3 0.64            154           78.0  39 
 RUS  HZ EP       23 3 47.11                             145   -0.1310 99.5 176 
 RUS  HN ES       23 4  5.80                             145   -0.1810 99.5 176 
 RUS  HZ I        23 4  6.65        21.9 0.26            149           99.5 176 
 PTB  HZ EP       23 3 49.95                             133   -0.53 9  148 259 
 PTB  HN ES       23 4 11.14                             133   -0.61 9  148 259 
 PTB  HZ I        23 4 13.77        55.2 0.12            133            148 259 
 OCA  HZ EP       23 3 51.54                             130   -0.37 9  161 353 
 OCA  HN ES   1   23 4 14.06                             130   -0.23 7  161 353 
 OCA  HZ I        23 4 21.21        55.4 0.40            131            161 353 
 SPBC HZ EP       23 3 52.15                             130    0.23 9  163 219 
 SPBC HN ES       23 4 14.23                             130   -0.09 9  163 219 
 SPBC HZ I        23 4 21.25        62.7 0.34            132            163 219 
 ZAR  HZ EP   1   23 3 56.80                             123    0.84 6  205 292 
 ZAR  HN ES       23 4 21.47                             123   -0.04 9  205 292 
 ZAR  HZ I        23 4 27.42        87.9 0.42            123            205 292 
 NOR  HZ EP   1   23 3 59.47                             119    0.36 6  234 235 
 NOR  HE ES   1   23 4 26.84                             119   -0.27 6  234 235 
 NOR  HZ I        23 4 32.75        57.5 0.18            121            234 235 
 SML  HZ EP       23 3 59.68                             118   -0.48 8  245 335 
 SML  HE ES       23 4 29.08                             118    0.10 8  245 335 
 SML  HZ I        23 4 37.18        53.8 0.10            119            245 335 
 HEL  HZ EP   2   23 4  4.63                             116    1.02 4  272 256 
 GUY2CHZ EP   2   23 4  7.57                             113    0.63 4  301 235 
                                                                                
