 2010  1 3 2149 58.2 L   6.223 -73.292125.0  RSN  5 0.5 1.4LRSN                1
 GAP=164        1.29       6.8    30.5 13.8 -0.1301E+03  0.2408E+03 -0.2746E+02E
 Epicentro: OIBA - SANTANDER                                                   3
 ACTION:UP  10-08-24 09:42 OP:vdl  STATUS:               ID:20100103214958 L   I
 2010-01-03-2145-05S.COL___097                                                 6
 STAT SP IPHASW D HRMM SECON CODA AMPLIT PERI AZIMU VELO SNR AR TRES W  DIS CAZ7
 BAR2 SZ EP       2150 15.72                             160    -0.210   43  16 
 BAR2 SZ ES   1   2150 28.95                             160    -0.9 7   43  16 
 RUS  BZ EP       2150 16.51                             160     0.110   43 148 
 RUS  BN ES   1   2150 30.49                             160     0.0 7   43 148 
 RUS  BZ I        2150 34.15         5.8 0.90                            43 148 
 GIR2 SZ EP       2150 19.77                             140     0.710   95   7 
 GIR2 SZ ES   1   2150 35.76                             140     0.4 7   95   7 
 CHI  HZ EP   1   2150 26.72                             120    -0.9 7  183 195 
 CHI  HN ES       2150 50.99                             120     0.4 9  183 195 
 CHI  HZ I        2150 55.81         2.7 0.67                           183 195 
 OCA  SZ EP   1   2150 31.00                             115    -0.6 6  223 359 
                                                                                
