 2012  9 3 2335 38.4 L   6.817 -73.148142.3  RSN  9 0.4 2.2LRSN                1
 GAP=135        0.74       3.8     4.0  5.3 -0.1671E+01  0.6646E+01  0.4152E+01E
 Epicentro: LOS SANTOS - SANTANDER                                             3
 ACTION:UPD 12-10-22 14:16 OP:ep   STATUS:               ID:20120903233538 L   I
 2012-09-03-2330-00M.COL___218                                                 6
 STAT SP IPHASW D HRMM SECON CODA AMPLIT PERI AZIMU VELO AIN AR TRES W  DIS CAZ7
 BAR2 SZ EP   1   2335 57.55                             169   -0.12 7 25.2 189 
 BAR2 SZ ES   1   2336 12.45                             169   -0.24 7 25.2 189 
 BAR2 SZ I        2336 13.96        46.8 0.30                          25.2 189 
 GIR2 SZ EP   1   2335 57.46                             168   -0.16 7 29.3 350 
 GIR2 SZ ES   1   2336 12.11                             168   -0.50 7 29.3 350 
 BRR  HZ EP   1   2335 59.34                             152    0.21 7 70.1 297 
 BRR  HN ES   1   2336 16.01                             152    0.73 7 70.1 297 
 BRR  HZ I        2336 18.80        28.0 0.16                          70.1 297 
 PAM  SZ EP       2336  0.35                             151    0.1710 76.0  41 
 PAM  SZ I        2336  0.74        52.7 0.24                          76.0  41 
 PAM  SE ES   1   2336 17.12                             151   -0.04 7 76.0  41 
 RUS  HZ EP   1   2336  2.03                             142    0.06 7  103 176 
 RUS  HE ES   1   2336 20.70                             142    0.36 7  103 176 
 RUS  HZ I        2336 22.12        25.0 0.38                           103 176 
 PTB  HZ EP   1   2336  4.29                             131   -0.83 7  148 258 
 PTB  HN ES   2   2336 25.18                             131   -0.77 5  148 258 
 PTB  HZ I        2336 28.08        13.8 0.23                           148 258 
 ZAR  HZ EP   1   2336 10.99                             122    0.45 6  203 292 
 ZAR  HN ES   1   2336 35.63                             122    0.03 6  203 292 
 ZAR  HZ I        2336 41.43        16.5 0.30                           203 292 
 NOR  SZ EP   1   2336 14.04                             118   -0.01 6  236 234 
 NOR  SN ES   1   2336 41.99                             118    0.15 6  236 234 
 NOR  SZ I        2336 44.25         9.8 0.24                           236 234 
 PRA  HZ EP   1   2336 31.50                             106   -0.50 4  394 209 
 PRA  HN ES   1   2337 14.26                             106    0.46 4  394 209 
 PRA  HZ I        2337 19.50         7.7 0.31                           394 209 
                                                                                
