 2011  6 3 2012 34.0 L   6.770 -73.104145.8  RSN 12 0.3 2.6LRSN                1
 GAP=143        0.56       2.3     3.9  4.0 -0.3189E+01  0.2433E+01  0.8567E+00E
 Epicentro: LOS SANTOS - SANTANDER                                             3
 ACTION:UP  11-07-14 19:02 OP:ep   STATUS:               ID:20110603201234 L   I
 2011-06-03-2009-50S.COL___132                                                 6
 STAT SP IPHASW D HRMM SECON CODA AMPLIT PERI AZIMU VELO SNR AR TRES W  DIS CAZ7
 BAR2 SZ EP       2012 53.54                             171     0.010   22 204 
 BAR2 SZ I        2012 53.95        86.7 0.12                            22 204 
 BAR2 SZ ES   1   2013  8.81                             171     0.0 7   22 204 
 BRR  HZ EP       2012 55.34                             151    -0.110   77 299 
 BRR  HE ES   1   2013 12.36                             151     0.2 7   77 299 
 BRR  HZ I        2013 15.35        77.0 0.13                            77 299 
 PAM  SZ EP   1   2012 56.27                             151     0.1 7   77  35 
 PAM  SN ES   2   2013 13.56                             151     0.1 5   77  35 
 RUS  HZ EP       2012 57.43                             145     0.010   97 179 
 RUS  HE ES   1   2013 16.00                             145     0.2 7   97 179 
 RUS  HZ I        2013 19.10        40.9 0.24                            97 179 
 BRI  SZ EP   1   2012 58.09                             141     0.1 7  110  18 
 GRA  SZ EP       2012 59.32                             137     0.010  128  15 
 GRA  SZ ES   1   2013 18.90                             137    -0.3 7  128  15 
 GRA  SZ I        2013 20.25        61.2 0.33                           128  15 
 OCA  SZ EP   2   2013  2.32                             129    -0.3 5  164 352 
 OCA  SZ ES   2   2013 24.85                             129    -0.2 5  164 352 
 OCA  SZ I        2013 28.84        61.3 0.23                           164 352 
 NOR  SZ EP   2   2013  9.07                             118    -0.8 4  237 236 
 NOR  SN ES   2   2013 37.68                             118    -0.2 4  237 236 
 CHI  HZ EP   1   2013 11.49                             117     0.0 6  247 196 
 CHI  HE ES   1   2013 40.51                             117    -0.2 6  247 196 
 CHI  HZ I        2013 44.45        19.5 0.61                           247 196 
 HEL  HZ EP   1   2013 15.10                             114     0.5 6  276 257 
 HEL  HE ES   2   2013 46.26                             114     0.0 4  276 257 
 HEL  HZ I        2013 51.54        14.7 0.38                           276 257 
 TOL  SZ EP   1   2013 23.30                             109     1.0 5  344 226 
 PRA  HZ EP   2   2013 26.79                             106    -0.6 3  391 210 
 PRA  HN ES   2   2014  8.44                             106    -0.7 3  391 210 
                                                                                
