 2013  3 3 2032 45.6 L   6.869 -73.240142.5  RSN  5 0.3 1.7LRSN                1
 GAP=119        0.77       7.1     4.3  7.1 -0.1327E+02 -0.4326E+01  0.2192E+02E
 Epicentro: ZAPATOCA - SANTANDER                                               3
 ACTION:UPD 13-04-09 13:59 OP:ep   STATUS:               ID:20130303203245 L   I
 2013-03-03-2030-00M.COL___228                                                 6
 STAT SP IPHASW D HRMM SECON CODA AMPLIT PERI AZIMU VELO AIN AR TRES W  DIS CAZ7
 BAR2 SZ ES   1   2033 20.60                             167    0.40 7 31.3 168 
 BAR2 SZ I        2033 23.41         7.7 0.50            169           31.3 168 
 BRR  HN ES       2033 21.04                             156   -0.3910 58.4 297 
 BRR  HN I        2033 26.89        11.8 0.50            157           58.4 297 
 PAM  SZ EP       2033  7.93                             149    0.3310 79.2  49 
 PAM  SN ES       2033 24.68                             149   -0.0610 79.2  49 
 PAM  SN I        2033 25.92         8.7 0.40            154           79.2  49 
 RUS  HZ EP       2033  9.32                             141   -0.4010  109 171 
 PTB  HZ EP       2033 11.64                             133    0.07 9  139 255 
 PTB  HN ES       2033 32.04                             133    0.24 9  139 255 
 PTB  HN I        2033 33.78         9.8 0.34            136            139 255 
                                                                                
