 2010 12 3 2310 55.9 L   6.074 -73.633124.0  RSN  6 0.5 1.7LRSN                1
 GAP=143        0.85       6.2     7.8 14.8 -0.1687E+02  0.5586E+02  0.2659E+02E
 Epicentro: CHIPATA - SANTANDER                                                3
 ACTION:UP  11-01-14 15:22 OP:pat  STATUS:               ID:20101203231055 L   I
 2010-12-03-2306-01S.COL___134                                                 6
 STAT SP IPHASW D HRMM SECON CODA AMPLIT PERI AZIMU VELO SNR AR TRES W  DIS CAZ7
 BAR2 SZ EP   1   2311 15.47                             147     0.1 7   76  41 
 BAR2 SZ ES   1   2311 30.19                             147    -0.3 7   76  41 
 BAR2 SZ I        2311 33.33        14.9 0.68                            76  41 
 BRR  HZ EP   2   2311 18.81                             134     0.8 5  115 356 
 BRR  HZ I        2311 26.04         7.8 0.26                           115 356 
 BRR  HE ES   2   2311 35.65                             134     0.3 5  115 356 
 CHI  HN ES   2   2311 43.81                             124    -0.2 5  160 184 
 CHI  HZ I        2311 45.83         4.4 0.38                           160 184 
 HEL  HZ EP   2   2311 27.78                             116    -0.3 4  210 274 
 HEL  HN ES   2   2311 52.47                             116    -0.8 4  210 274 
 HEL  HZ I        2311 55.34         3.9 0.29                           210 274 
 RREF HZ EP   1   2311 30.24                             114    -0.4 6  230 236 
 RREF HN ES   1   2311 58.42                             114     0.7 6  230 236 
 RREF HZ I        2312  3.05         1.9 0.34                           230 236 
 PRA  HZ EP   2   2311 36.80                             108    -0.6 4  296 208 
 PRA  HE ES   2   2312 10.35                             108     0.6 4  296 208 
 PRA  HZ I        2312 11.72         6.7 0.22                           296 208 
                                                                                
