 2013  4 3 2042  4.3 L   6.807 -73.137153.5  RSN 15 0.5 3.0LRSN 3.3WRSN        1
 SPEC AVERAGE  MO 14.0 ST 19.4 OM  2.3 f0 5.50 R0.3457 AL 2.85 WI 46.8 MW  3.3 3
 SPEC SD       MO  0.3 ST 22.0 OM  0.5 f0 1.13 R0.0732 AL      WI      MW  0.2 3
 GAP= 71        1.15       3.3     3.4  5.6 -0.3221E+00  0.4622E+01  0.7435E+00E
 Epicentro: LOS SANTOS - SANTANDER                                             3
 SPEC ZAR HH E MO 14.5 ST 68.3 OM  2.4 f0 6.76 R0.2692 AL 4.09 WI 40.1 MW  3.6 3
 SPEC ZAR HH E T2043 2 K 0.050 GD  256 VS 5.20 DE 3.20 Q0750.0 QA 1.50 VS 5.20 3
 SPEC PTB HH N MO 14.2 ST 14.0 OM  2.2 f0 4.93 R0.3692 AL 1.48 WI 41.6 MW  3.4 3
 SPEC PTB HH N T204250 K 0.050 GD  213 VS 5.20 DE 3.20 Q0750.0 QA 1.50 VS 5.20 3
 SPEC RUS HH E MO 13.5 ST  6.9 OM  1.6 f0 6.50 R0.2800 AL 3.19 WI 45.9 MW  3.0 3
 SPEC RUS HH E T204246 K 0.050 GD  183 VS 5.20 DE 3.20 Q0750.0 QA 1.50 VS 5.20 3
 SPEC PAM SH N MO 13.7 ST 10.6 OM  1.8 f0 6.58 R0.2766 AL 4.17 WI 53.5 MW  3.1 3
 SPEC PAM SH N T204243 K 0.050 GD  171 VS 5.20 DE 3.20 Q0750.0 QA 1.50 VS 5.20 3
 SPEC COD HH N MO 13.8 ST  3.2 OM  1.5 f0 4.27 R0.4262 AL 1.85 WI 58.4 MW  3.1 3
 SPEC COD HH N T204329 K 0.050 GD  380 VS 5.20 DE 3.20 Q0750.0 QA 1.50 VS 5.20 3
 SPEC HEL HH N MO 14.0 ST  5.5 OM  1.8 f0 4.32 R0.4213 AL 2.81 WI 49.4 MW  3.3 3
 SPEC HEL HH N T204316 K 0.050 GD  313 VS 5.20 DE 3.20 Q0750.0 QA 1.50 VS 5.20 3
 SPEC CHI HH N MO 13.9 ST  4.3 OM  1.8 f0 4.07 R0.4472 AL 2.34 WI 53.8 MW  3.2 3
 SPEC CHI HH N T204311 K 0.050 GD  293 VS 5.20 DE 3.20 Q0750.0 QA 1.50 VS 5.20 3
 SPEC BRR HH N MO 14.3 ST 42.1 OM  2.4 f0 6.60 R0.2758 AL 2.90 WI 32.1 MW  3.5 3
 SPEC BRR HH N T204241 K 0.050 GD  169 VS 5.20 DE 3.20 Q0750.0 QA 1.50 VS 5.20 3
 ACTION:UPD 13-05-22 14:35 OP:EP   STATUS:               ID:20130403204204 L   I
 2013-04-03-2040-00M.COL___245                                                 6
 STAT SP IPHASW D HRMM SECON CODA AMPLIT PERI AZIMU VELO AIN AR TRES W  DIS CAZ7
 BAR2 SZ EP       2042 24.73                             171   -0.1610 24.2 192 
 BAR2 SZ ES       2042 40.54                             171   -0.4110 24.2 192 
 BAR2 SZ I        2042 42.43       112.0 0.40            169           24.2 192 
 BRR  HZ IP     C 2042 26.60                             154    0.2710 71.7 298 
 BRR  HE ES       2042 44.14                             154    0.6310 71.7 298 
 BRR  HE I        2042 44.79       342.2 0.26            149           71.7 298 
 PAM  SZ IP     C 2042 27.47                             152    0.1810 76.2  39 
 PAM  SN ES       2042 44.82                             152   -0.3910 76.2  39 
 PAM  SN I        2042 46.20       102.7 0.44            154           76.2  39 
 RUS  HZ IP     C 2042 28.52                             145   -0.3610  101 177 
 RUS  HE ES       2042 47.61                             145   -0.4310  101 177 
 PTB  HZ EP       2042 31.43                             133   -0.59 9  149 259 
 PTB  HN ES       2042 52.95                             133   -0.69 9  149 259 
 PTB  HN I        2042 58.02       354.2 0.48            130            149 259 
 TAM  HZ IP     C 2042 32.87                             132    0.32 9  154 105 
 TAM  HE ES       2042 54.91                             132    0.34 9  154 105 
 TAM  HE I        2042 55.61       128.6 0.54            134            154 105 
 OCA  HZ EP   1   2042 33.06                             131   -0.12 7  160 353 
 OCA  HN ES       2042 56.29                             131    0.59 9  160 353 
 OCA  HN I        2042 58.44       335.4 0.20            130            160 353 
 ZAR  HZ EP       2042 37.34                             124    0.00 9  205 292 
 ZAR  HE ES       2043  3.84                             124    0.74 9  205 292 
 NOR  HZ EP       2042 40.65                             120    0.02 8  236 234 
 NOR  HE ES       2043  9.28                             120    0.31 8  236 234 
 NOR  HE I        2043 13.82       114.6 0.22            118            236 234 
 CHI  HZ EP   1   2042 42.70                             118    0.14 6  250 195 
 CHI  HE ES       2043 13.10                             118    0.71 8  250 195 
 CHI  HE I        2043 16.80        43.5 0.30            118            250 195 
 HEL  HZ EP       2042 45.88                             116    0.82 8  273 256 
 HEL  HN ES   1   2043 17.30                             116    0.46 6  273 256 
 HEL  HN I        2043 26.37        33.0 0.26            115            273 256 
 URE  HZ EP   2   2042 44.72                             115   -1.12 4  284 292 
 DBB  SZ EP   1   2042 52.20                             111   -0.02 5  340 274 
 DBB  SZ ES   1   2043 27.80                             111   -1.79 5  340 274 
 DBB  SZ I        2043 53.47        20.2 0.72            109            340 274 
 COD  HZ EP   1   2042 52.10                             110   -0.83 5  348 354 
 COD  HN ES       2043 30.20                             110   -0.65 6  348 354 
 COD  HN I        2043 37.08        20.3 0.80            110            348 354 
 PRA  HZ EP       2042 58.21                             108   -0.03 6  393 210 
                                                                                
