 2015  3 3 2216 51.6 L   6.802 -73.152145.9  RSN 10 0.4 2.2LRSN                1
 GAP=136        0.93       2.9     4.3  6.2 -0.3914E+01  0.9283E+01  0.3792E+00E
 Epicentro: LOS SANTOS - SANTANDER                                             3
 ACTION:UPD 15-04-30 16:22 OP:nd   STATUS:               ID:20150303221651 L   I
 OLDACT:UP  15-03-04 06:07 OP:mh   STATUS:               ID:20150303220750     3
 OLDACT:UP  15-03-04 06:07 OP:mh   STATUS:               ID:20150303220750     3
 OLDACT:REG 15-03-04 05:39 OP:mh   STATUS:               ID:20150303220750     3
 2015-03-03-2207-50M.COL___293                                                 6
 STAT SP IPHASW D HRMM SECON CODA AMPLIT PERI AZIMU VELO AIN AR TRES W  DIS CAZ7
 PAM  SZ EP       2217 14.39                             151    0.5310 77.7  40 
 PAM  SN ES       2217 31.37                             151    0.1610 77.7  40 
 PAM  SZ I        2217 33.41        14.7 0.46            154           77.7  40 
 RUS  HZ EP       2217 14.80                             144   -0.5910  101 176 
 RUS  HN ES       2217 34.25                             144    0.3110  101 176 
 RUS  HZ I        2217 35.67        25.4 0.40            144            101 176 
 PTB  HZ EP       2217 18.13                             132   -0.40 9  147 259 
 PTB  HN ES       2217 39.33                             132   -0.19 9  147 259 
 PTB  HZ I        2217 40.68        18.1 0.16            132            147 259 
 SPBC HZ EP       2217 20.04                             129   -0.05 9  163 219 
 SPBC HN ES       2217 41.91                             129   -0.39 9  163 219 
 SPBC HZ I        2217 46.83        25.2 0.34            129            163 219 
 NOR  HZ EP       2217 27.33                             119    0.04 8  234 234 
 NOR  HN ES       2217 55.52                             119    0.39 8  234 234 
 NOR  HZ I        2217 58.41        11.1 0.18            119            234 234 
 SML  HZ EP       2217 28.16                             117   -0.03 8  243 335 
 SML  HN ES       2217 56.37                             117   -0.35 8  243 335 
 SML  HZ I        2218  0.33        20.5 0.24            119            243 335 
 CHI  HZ EP       2217 29.18                             117   -0.13 8  249 195 
 CHI  HE ES       2217 58.17                             117   -0.55 8  249 195 
 CHI  HZ I        2218  2.81         9.0 0.82            118            249 195 
 GUY2CHZ EP       2217 35.69                             112    0.52 7  301 235 
 GUY2CHN ES   1   2218  9.17                             112    0.03 5  301 235 
 GUY2CHZ I        2218 17.47         4.6 0.53                           301 235 
 RREF HZ EP   4   2217 38.45                             111    0.74 0  321 229 
 RREF HN ES   4   2218 16.17                             111    2.51 0  321 229 
 TOL  SZ EP       2217 40.57                             109    0.74 7  343 225 
 TOL  SN ES       2218 18.42                             109    0.99 7  343 225 
 TOL  SZ I        2218 25.30         6.5 0.36            110            343 225 
 PRA  HZ EP       2217 44.70                             106   -0.41 6  392 209 
 PRA  HN ES       2218 26.76                             106   -0.08 6  392 209 
 PRA  HZ I        2218 35.53         5.1 0.32            107            392 209 
                                                                                
