 2013 11 3 2017 31.3 L   6.776 -73.138147.9  RSN  8 0.4 2.3LRSN                1
 GAP=139        1.08       4.7     4.7  6.8 -0.1076E+01  0.8398E+01  0.2035E+01E
 Epicentro: LOS SANTOS - SANTANDER                                             3
 ACTION:UPD 14-01-09 16:25 OP:ep   STATUS:               ID:20131103201731 L   I
 OLDACT:UP  13-11-03 22:01 OP:cam  STATUS:               ID:20131103201000     3
 OLDACT:REG 13-11-03 21:15 OP:cam  STATUS:               ID:20131103201000     3
 2013-11-03-2010-00M.COL___273                                                 6
 STAT SP IPHASW D HRMM SECON CODA AMPLIT PERI AZIMU VELO AIN AR TRES W  DIS CAZ7
 BAR2 SZ EP       2017 51.13                             172   -0.0310 20.9 193 
 BAR2 SZ ES       2018  6.51                             172   -0.1310 20.9 193 
 BAR2 SZ I        2018  7.62       108.4 0.16            170           20.9 193 
 BRR  HZ IP     C 2017 52.96                             152    0.1510 73.2 300 
 BRR  HN ES       2018 10.49                             152    0.9110 73.2 300 
 BRR  HZ I        2018 11.36        28.5 0.16            151           73.2 300 
 PAM  SZ EP       2017 53.92                             151    0.0610 78.9  38 
 PAM  SE ES       2018 11.21                             151   -0.2210 78.9  38 
 PAM  SN I        2018 12.43        56.8 0.46            153           78.9  38 
 RUS  HZ EP       2017 54.97                             145   -0.1310 97.9 176 
 RUS  HN ES       2018 13.52                             145   -0.1210 97.9 176 
 RUS  HZ I        2018 14.86        20.6 0.38            146           97.9 176 
 PTB  HZ EP       2017 57.89                             132   -0.60 9  148 260 
 PTB  HN ES       2018 19.31                             132   -0.38 9  148 260 
 PTB  HZ I        2018 20.93        23.9 0.38            132            148 260 
 SPBC HZ EP       2018  0.04                             130    0.19 9  162 220 
 SPBC HN ES       2018 22.25                             130    0.16 9  162 220 
 SPBC HZ I        2018 24.55        30.2 0.14            130            162 220 
 ZAR  HZ EP   2   2018  4.30                             123    0.21 4  206 293 
 ZAR  HE ES       2018 28.91                             123   -0.73 8  206 293 
 ZAR  HZ I        2018 31.77        20.9 0.16            123            206 293 
 HEL  HZ EP       2018 12.63                             115    0.97 8  272 256 
 HEL  HN ES   4   2018 41.18                             115   -1.95 0  272 256 
 HEL  HZ I        2018 49.73         7.6 0.24            115            272 256 
 GUY2CHZ EP   4   2018 16.38                             113    1.44 0  300 235 
                                                                                
