 2014  1 3 2135  5.7 L   6.767 -73.155139.6  RSN  7 0.4 1.6LRSN                1
 GAP=137        0.96       4.0     4.4  6.1 -0.3164E+01  0.5019E+01  0.6834E+01E
 Epicentro: LOS SANTOS - SANTANDER                                             3
 ACTION:UPD 14-03-13 09:51 OP:ep   STATUS:               ID:20140103213505 L   I
 OLDACT:DUP 14-01-04 00:08 OP:nd   STATUS:               ID:20140103213001d    3
 2014-01-03-2130-00M.COL___285                                                 6
 STAT SP IPHASW D HRMM SECON CODA AMPLIT PERI AZIMU VELO AIN AR TRES W  DIS CAZ7
 BAR2 SZ EP       2135 24.26                             172   -0.2210 19.6 189 
 BAR2 SZ ES       2135 39.37                             172    0.2110 19.6 189 
 BAR2 SZ I        2135 41.28        18.9 0.24            169           19.6 189 
 BRR  HZ EP       2135 26.38                             151    0.1810 72.1 301 
 BRR  HN ES       2135 42.98                             151    0.7610 72.1 301 
 BRR  HZ I        2135 46.18         8.8 0.18            150           72.1 301 
 PAM  SZ EP       2135 27.66                             149    0.2210 80.8  38 
 PAM  SN ES       2135 43.86                             149   -0.5710 80.8  38 
 PAM  SZ I        2135 46.85         6.7 0.54            154           80.8  38 
 RUS  HZ EP       2135 28.52                             143   -0.0310 97.1 175 
 RUS  HN ES       2135 46.19                             143   -0.2210 97.1 175 
 RUS  HZ I        2135 48.38         3.3 0.18            146           97.1 175 
 PTB  HZ EP       2135 31.89                             131   -0.09 9  146 260 
 PTB  HN ES       2135 51.94                             131   -0.56 9  146 260 
 PTB  HZ I        2135 59.70         5.4 0.18            131            146 260 
 NOR  HZ EP       2135 40.54                             117   -0.18 8  232 235 
 NOR  HN ES       2136  7.76                             117   -0.31 8  232 235 
 NOR  HZ I        2136 14.15         3.4 0.18            119            232 235 
 CHI  HZ EP       2135 43.07                             116    0.46 8  245 195 
 CHI  HN ES       2136 11.87                             116    0.43 8  245 195 
 CHI  HZ I        2136 15.75         3.5 0.62            118            245 195 
                                                                                
