 2011  9 3 2049 31.6 L   6.128 -73.712100.8  RSN  5 0.3 1.6LRSN                1
 GAP=134        0.69       4.3     4.4 10.5  0.8812E+00  0.3016E+02 -0.5946E+01E
 Epicentro: BOLIVAR - SANTANDER                                                3
 ACTION:UPD 12-07-13 15:55 OP:ep   STATUS:               ID:20110903204931 L   I
 2011-09-03-2045-29S.COL___171                                                 6
 STAT SP IPHASW D HRMM SECON CODA AMPLIT PERI AZIMU VELO AIN AR TRES W  DIS CAZ7
 RUS  HZ EP       2049 49.03                             141   -0.0510 74.3 111 
 RUS  HN ES   1   2050  2.12                             141   -0.57 7 74.3 111 
 RUS  HZ I        2050  4.50         5.9 0.23                          74.3 111 
 BAR2 SZ EP       2049 49.36                             139    0.3610 77.9  49 
 BAR2 SZ ES   1   2050  2.89                             139    0.34 7 77.9  49 
 BAR2 SZ I        2050  5.11        16.1 0.27                          77.9  49 
 BRR  HZ EP       2049 51.32                             129   -0.0310  108 360 
 BRR  HZ I        2050 12.11        10.5 0.10                           108 360 
 NOR  SZ EP   1   2049 55.08                             121    0.20 7  143 244 
 NOR  SN ES   2   2050 13.34                             121    0.33 5  143 244 
 ZAR  HZ EP   1   2050  0.38                             113   -0.42 6  197 320 
 ZAR  HN ES   1   2050 23.19                             113   -0.37 6  197 320 
 ZAR  HZ I        2050 27.07         7.6 0.29                           197 320 
                                                                                
