 2012  6 3 2233  4.1 L   6.846 -73.163144.7  RSN  5 0.4 1.5LRSN                1
 GAP=146        0.64       5.8     5.8  7.0 -0.1215E+02  0.7915E+01  0.4545E+01E
 Epicentro: LOS SANTOS - SANTANDER                                             3
 ACTION:UPD 12-08-06 17:47 OP:ep   STATUS:               ID:20120603223308 L   I
 2012-06-03-2230-00M.COL___201                                                 6
 STAT SP IPHASW D HRMM SECON CODA AMPLIT PERI AZIMU VELO AIN AR TRES W  DIS CAZ7
 BAR2 SZ EP       2233 23.93                             168    0.2110 28.2 184 
 BAR2 SZ ES   1   2233 38.90                             168   -0.12 7 28.2 184 
 BAR2 SZ I        2233 40.57         9.4 0.14            152           28.2 184 
 PAM  SZ EP       2233 26.14                             151    0.0810 74.8  43 
 PAM  SN ES   2   2233 42.99                             151   -0.19 5 74.8  43 
 PAM  SZ I        2233 45.19         4.9 0.26            147           74.8  43 
 RUS  HZ EP       2233 28.16                             142    0.0210  106 175 
 RUS  HZ I        2233 48.11         3.6 0.28            129            106 175 
 PTB  HZ EP       2233 30.53                             132   -0.38 9  147 257 
 PTB  HN ES   2   2233 52.37                             132    0.55 5  147 257 
 PTB  HZ I        2233 54.34         4.4 0.14            128            147 257 
 CHI  HZ EP   2   2233 43.12                             116    0.89 4  253 194 
 CHI  HN ES   2   2234 11.21                             116   -0.76 4  253 194 
                                                                                
