 2011  3 3 2254 58.2 L   6.812 -73.106140.0  RSN  6 0.4 1.8LRSN                1
 GAP=163        0.63       5.9    19.1  7.2 -0.8650E+02  0.4216E+02 -0.1346E+02E
 Epicentro: LOS SANTOS - SANTANDER                                             3
 ACTION:UP  11-06-16 14:31 OP:jfem STATUS:               ID:20110303225458 L   I
 2011-03-03-2252-35S.COL___135                                                 6
 STAT SP IPHASW D HRMM SECON CODA AMPLIT PERI AZIMU VELO SNR AR TRES W  DIS CAZ7
 BAR2 SZ EP       2255 17.20                             169     0.010   26 199 
 BAR2 SZ ES   1   2255 32.14                             169     0.1 7   26 199 
 BAR2 SZ I        2255 35.96        16.6 0.64                            26 199 
 RUS  HN ES   2   2255 39.69                             142     0.0 5  102 179 
 RUS  HZ I        2255 41.77         7.8 0.38                           102 179 
 GRA  SZ EP       2255 23.05                             136     0.310  123  16 
 GRA  SZ ES   1   2255 41.45                             136    -0.4 7  123  16 
 GRA  SZ I        2255 45.39         6.0 0.29                           123  16 
 OCA  SZ EP   3   2255 26.01                             128     0.0 2  160 352 
 OCA  SZ ES   3   2255 47.39                             128    -0.3 2  160 352 
 OCA  SZ I        2255 54.23         7.1 0.16                           160 352 
 CHI  HZ EP   2   2255 35.39                             115    -0.5 4  251 196 
 CHI  HN ES   3   2256  3.97                             115    -1.3 2  251 196 
 CHI  HZ I        2256 14.40         3.3 0.39                           251 196 
 RREF HZ EP   2   2255 44.99                             109     0.4 3  326 230 
 RREF HZ I        2256 27.15         4.8 0.24                           326 230 
                                                                                
