 2013  2 3 2145 46.2 L   6.805 -73.153145.4  RSN 11 0.4 2.1LRSN                1
 GAP=135        0.75       2.8     4.0  5.5  0.4954E-01  0.5770E+01  0.1809E+01E
 Epicentro: LOS SANTOS - SANTANDER                                             3
 ACTION:UPD 13-03-12 09:30 OP:ep   STATUS:               ID:20130203214546 L   I
 2013-02-03-2140-00M.COL___241                                                 6
 STAT SP IPHASW D HRMM SECON CODA AMPLIT PERI AZIMU VELO AIN AR TRES W  DIS CAZ7
 BAR2 SZ EP   1   2146  5.70                             170   -0.10 8 23.7 188 
 BAR2 SZ ES   1   2146 21.17                             170    0.08 8 23.7 188 
 BAR2 SZ I        2146 22.14        57.8 0.18            166           23.7 188 
 BRR  HZ EP   1   2146  7.54                             153    0.28 8 70.2 298 
 BRR  HN ES   1   2146 24.44                             153    0.75 8 70.2 298 
 BRR  HZ I        2146 28.28        19.8 0.12            143           70.2 298 
 PAM  SZ EP   1   2146  8.68                             151    0.29 8 77.5  40 
 PAM  SN ES   1   2146 25.64                             151   -0.05 8 77.5  40 
 PAM  SZ I        2146 28.04        14.9 0.44            147           77.5  40 
 RUS  HZ EP     C 2146  9.78                             144   -0.1810  101 176 
 RUS  HN ES   1   2146 28.27                             144   -0.22 7  101 176 
 RUS  HZ I        2146 30.55         7.1 0.14            136            101 176 
 PTB  HZ EP   1   2146 12.67                             132   -0.41 7  147 259 
 PTB  HE ES   1   2146 33.53                             132   -0.51 7  147 259 
 PTB  HZ I        2146 36.01        18.3 0.16            122            147 259 
 OCA  HN ES   1   2146 36.23                             130   -0.21 7  160 353 
 OCA  HZ I        2146 40.38        16.4 0.27            122            160 353 
 ZAR  HN ES   1   2146 43.80                             122    0.06 6  203 292 
 ZAR  HZ I        2146 49.49        17.5 0.32            114            203 292 
 NOR  HZ EP   1   2146 22.21                             118    0.34 6  234 234 
 NOR  HE ES   1   2146 49.97                             118    0.27 6  234 234 
 NOR  HZ I        2146 55.41        10.9 0.18            110            234 234 
 SML  HZ EP   1   2146 23.40                             117    0.68 6  243 335 
 SML  HN ES   1   2146 50.14                             117   -1.06 6  243 335 
 CHI  HZ EP   1   2146 24.07                             117    0.16 6  249 195 
 CHI  HN ES   1   2146 53.10                             117   -0.23 6  249 195 
 CHI  HZ I        2147  0.28         5.3 0.62            110            249 195 
 HEL  HZ EP   1   2146 26.53                             115    0.21 6  271 256 
 HEL  HZ I        2147  4.08         8.2 0.30            107            271 256 
                                                                                
