 2013  4 3 2015 59.2 L   5.940 -73.733114.5  RSN  9 0.4 1.8LRSN                1
 GAP= 86        0.85       2.7     3.6  7.9  0.3566E+00  0.1482E+02  0.7444E+00E
 Epicentro: GUAVATA - SANTANDER                                                3
 ACTION:UPD 13-05-22 14:35 OP:EP   STATUS:               ID:20130403201559 L   I
 2013-04-03-2010-00M.COL___245                                                 6
 STAT SP IPHASW D HRMM SECON CODA AMPLIT PERI AZIMU VELO AIN AR TRES W  DIS CAZ7
 RUS  HZ EP       2016 17.80                             146   -0.0310 72.1  94 
 RUS  HN ES       2016 32.19                             146   -0.1710 72.1  94 
 RUS  HN I        2016 33.41        11.0 0.40            148           72.1  94 
 BAR2 SZ EP   1   2016 19.52                             138    0.36 7 94.4  40 
 BAR2 SZ ES       2016 35.18                             138    0.4510 94.4  40 
 PTB  HN ES   1   2016 35.77                             134    0.15 7  104 310 
 PTB  HN I        2016 35.88        22.9 0.20            133            104 310 
 BRR  HZ EP       2016 21.59                             128   -0.3610  129   1 
 GIR2 SZ EP   1   2016 23.41                             125    0.27 7  139  25 
 GIR2 SZ ES   1   2016 41.76                             125   -0.06 7  139  25 
 GIR2 SZ I        2016 42.75        13.6 0.50            126            139  25 
 CHI  HZ EP   1   2016 24.45                             125    0.40 7  145 180 
 CHI  HN ES       2016 42.90                             125   -0.54 9  145 180 
 CHI  HN I        2016 46.49         6.2 0.26            124            145 180 
 HEL  HZ EP   1   2016 29.61                             115   -0.30 6  201 278 
 HEL  HN ES   1   2016 54.36                             115    0.49 6  201 278 
 HEL  HN I        2016 57.67        10.4 0.30            114            201 278 
 ZAR  HZ EP   1   2016 30.91                             113    0.20 6  212 324 
 ZAR  HN ES       2016 54.67                             113   -0.62 8  212 324 
 ZAR  HN I        2017  2.27        10.5 0.30            113            212 324 
 PRA  HN ES   1   2017  9.47                             107    0.79 6  277 208 
 PRA  HN I        2017 14.56         2.2 0.16            106            277 208 
                                                                                
