 2017  6 3 2048  0.4 L   6.718 -73.181145.2  RSN  8 0.5 1.9LRSN                1
 GAP=227        1.20       5.1     6.9  8.5  0.1257E+02  0.2423E+01  0.3677E+01E
 Epicentro: VILLANUEVA - SANTANDER                                             3
 ACTION:UPD 17-09-14 16:49 OP:jn   STATUS:               ID:20170603204800 L   I
 OLDACT:REG 17-06-04 08:15 OP:lv   STATUS:               ID:20170603203740     3
 2017-06-03-2038-00M.COL___362                                                 6
 STAT SP IPHASW D HRMM SECON CODA AMPLIT PERI AZIMU VELO AIN AR TRES W  DIS CAZ7
 BRR  HZ EP       2048 21.38                             152   -0.2110 72.7 306 
 BRR  HN ES       2048 38.65                             152    0.5410 72.7 306 
 BRR  HZ I        2048 39.64         8.9 0.08            150           72.7 306 
 RUS  HZ EP       2048 23.45                             146   -0.0510 91.9 173 
 RUS  HN ES       2048 41.56                             146    0.0510 91.9 173 
 RUS  HZ I        2048 42.78        16.5 0.22            145           91.9 173 
 PTB  HZ EP       2048 26.22                             133   -0.63 9  142 262 
 PTB  HN ES       2048 46.74                             133   -0.73 9  142 262 
 PTB  HZ I        2048 49.33         9.0 0.23            131            142 262 
 SPBC HZ EP       2048 28.23                             131    0.25 9  154 220 
 SPBC HN ES       2048 49.54                             131    0.06 9  154 220 
 SPBC HZ I        2048 54.22        13.8 0.07            129            154 220 
 ZAR  HZ EP       2048 32.53                             122   -0.29 9  204 295 
 ZAR  HN ES       2048 58.14                             122    0.04 9  204 295 
 ZAR  HZ I        2049  4.63        10.7 0.23            122            204 295 
 NOR  HZ EP       2048 35.79                             119    0.58 8  226 236 
 NOR  HN ES       2049  3.24                             119    0.89 8  226 236 
 NOR  HZ I        2049  8.36         4.9 0.19            118            226 236 
 CHI  HZ EP       2048 37.60                             118    0.58 8  239 195 
 CHI  HN ES       2049  4.69                             118   -0.89 8  239 195 
 CHI  HZ I        2049 11.42         4.2 0.22            118            239 195 
 SJC  HZ EP   4   2048 54.22                             105   -2.39 0  415 328 
 SJC  HN ES   4   2049 32.24                             105   -8.20 0  415 328 
 SJC  HZ I        2049 40.65         3.1 0.50            106            415 328 
                                                                                
