 2011  6 3 2325 36.1 L   6.818 -73.107146.1  RSN  4 0.1 1.5LRSN                1
 GAP=141        0.29       2.5     4.3  4.6 -0.2758E+01 -0.3223E+01  0.1299E-01E
 Epicentro: LOS SANTOS - SANTANDER                                             3
 ACTION:UP  11-07-14 19:03 OP:ep   STATUS:               ID:20110603232536 L   I
 2011-06-03-2322-42S.COL___132                                                 6
 STAT SP IPHASW D HRMM SECON CODA AMPLIT PERI AZIMU VELO SNR AR TRES W  DIS CAZ7
 PAM  SZ EP   1   2325 58.20                             152     0.1 7   73  38 
 PAM  SZ I        2325 58.41         2.7 0.15                            73  38 
 PAM  SE ES   2   2326 15.19                             152    -0.1 5   73  38 
 BRR  HZ EP   2   2325 57.34                             152    -0.1 5   74 296 
 BRR  HN ES   2   2326 14.14                             152     0.1 5   74 296 
 BRR  HZ I        2326 29.15        13.5 0.48                            74 296 
 RUS  HZ EP   2   2325 59.91                             143    -0.1 5  102 179 
 RUS  HE ES   2   2326 18.68                             143     0.0 5  102 179 
 GRA  SZ EP   1   2326  1.10                             138     0.0 7  123  16 
 GRA  SZ ES   2   2326 20.53                             138    -0.1 5  123  16 
 GRA  SZ I        2326 23.59         5.1 0.20                           123  16 
                                                                                
