 2015  5 3 2144 36.9 L   6.822 -73.092150.4  RSN  6 0.3 1.8LRSN                1
 GAP=142        0.65       3.4     3.8  5.2  0.2953E+01  0.2735E+01 -0.1585E+01E
 Epicentro: LOS SANTOS - SANTANDER                                             3
 ACTION:UPD 15-09-10 22:01 OP:cam  STATUS:               ID:20150503214436 L   I
 OLDACT:REG 15-05-04 04:25 OP:spq  STATUS:               ID:20150503213749     3
 2015-05-03-2137-49M.COL___274                                                 6
 STAT SP IPHASW D HRMM SECON CODA AMPLIT PERI AZIMU VELO AIN AR TRES W  DIS CAZ7
 BAR2 EZ ES   1   2145 12.51                             169   -0.48 7 27.3 202 
 BAR2 EZ I        2145 13.80         8.5 0.09            170           27.3 202 
 PAM  SZ EP       2144 59.67                             153    0.3710 71.8  37 
 PAM  SN ES       2145 16.70                             153   -0.0710 71.8  37 
 PAM  SZ I        2145 18.89        11.0 0.52            155           71.8  37 
 BRR  HZ EP       2144 58.97                             152    0.1710 75.4 295 
 BRR  HE ES       2145 16.14                             152    0.2710 75.4 295 
 BRR  HZ I        2145 19.71        11.7 0.12            150           75.4 295 
 RUS  HZ EP       2145  1.14                             144   -0.1310  103 179 
 RUS  HE ES   1   2145 20.25                             144   -0.02 7  103 179 
 ZAR  HN ES       2145 36.05                             123   -0.00 8  209 291 
 ZAR  HZ I        2145 41.08         5.3 0.20            123            209 291 
 SML  HZ EP   1   2145 13.42                             118   -0.42 6  244 334 
 SML  HE ES   1   2145 42.14                             118   -0.51 6  244 334 
                                                                                
