 2010  5 3 2157 39.2 L   6.765 -73.029148.0  RSN 12 0.5 2.5LRSN                1
 GAP=185        0.91       5.5     9.2  7.0 -0.3614E+02 -0.5886E+01  0.1149E+02E
 Epicentro: CEPITA - SANTANDER                                                 3
 ACTION:UP  10-08-24 10:02 OP:vdl  STATUS:               ID:20100503215739 L   I
 2010-05-03-2155-59S.COL___105                                                 6
 STAT SP IPHASW D HRMM SECON CODA AMPLIT PERI AZIMU VELO SNR AR TRES W  DIS CAZ7
 BAR2 SZ IP       2157 58.92                             170    -0.210   26 222 
 BAR2 SZ ES   1   2158 14.37                             170    -0.3 7   26 222 
 GIR2 SZ EP   2   2157 59.08                             165    -0.3 5   39 332 
 GIR2 SZ ES   2   2158 15.08                             165     0.0 5   39 332 
 BRR  HZ IP     C 2158  1.47                             149     0.110   84 297 
 BRR  HE ES   1   2158 18.69                             149     0.0 7   84 297 
 BRR  HZ I        2158 20.60        52.3 0.12                            84 297 
 BRI  SZ EP   1   2158  3.40                             142     0.1 7  108  14 
 BRI  SZ ES   1   2158 22.11                             142     0.0 7  108  14 
 GUE  SZ EP   1   2158  4.98                             139     0.7 7  118   6 
 GRA  SZ IP       2158  4.72                             137     0.110  126  11 
 GRA  SZ ES   1   2158 24.26                             137    -0.3 7  126  11 
 OCA  SZ EP   2   2158  7.77                             129    -0.4 5  166 349 
 OCA  SZ I        2158 37.77        28.0 0.42                           166 349 
 CHI  HZ EP   2   2158 16.59                             118    -0.4 4  249 198 
 CHI  HE ES   2   2158 46.35                             118    -0.2 4  249 198 
 CHI  HZ I        2158 54.70        15.0 0.60                           249 198 
 ROSC BN ES   1   2158 49.26                             117     1.3 6  256 214 
 ROSC BZ I        2158 55.24        22.5 0.51                           256 214 
 HEL  HZ EP   2   2158 19.87                             114    -0.9 4  284 257 
 HEL  HZ I        2158 57.23        11.5 0.24                           284 257 
 RREF BZ EP   1   2158 26.96                             111     0.7 5  329 231 
 RREF BN ES   1   2159  2.31                             111    -0.7 5  329 231 
 RREF BZ I        2159  7.50        19.7 0.25                           329 231 
 PRA  HZ EP   1   2158 32.36                             107    -0.8 4  395 211 
 PRA  HN ES   1   2159 15.05                             107    -0.2 4  395 211 
 PRA  HZ I        2159 20.49        20.8 0.32                           395 211 
                                                                                
