 2017 12 3 2030 46.3 L   6.836 -73.114137.4  RSN  4 0.3 1.0LRSN                1
 GAP=139        0.77       4.4     4.4  9.7  0.3843E+01  0.2346E+02  0.9207E+01E
 Epicentro: LOS SANTOS - SANTANDER                                             3
 ACTION:UPD 18-01-04 13:16 OP:rebc STATUS:               ID:20171203203046 L   I
 OLDACT:REG 17-12-04 04:40 OP:edw  STATUS:               ID:20171203202642     3
 2017-12-03-2028-00M.COL___495                                                 6
 STAT SP IPHASW D HRMM SECON CODA AMPLIT PERI AZIMU VELO AIN AR TRES W  DIS CAZ7
 PAM  EN ES       2031 23.83                             151    0.1010 72.0  39 
 RUS  HZ EP       2031  9.71                             141    0.1410  104 178 
 RUS  HN ES       2031 27.38                             141   -0.3010  104 178 
 RUS  HZ I        2031 28.91         1.5 0.26            142            104 178 
 PTB  HZ EP       2031 13.04                             129    0.00 9  152 258 
 PTB  HN ES       2031 34.34                             129    0.48 9  152 258 
 PTB  HZ I        2031 36.71         1.3 0.44            130            152 258 
 ZAR  HN ES       2031 43.00                             120   -0.49 8  206 291 
                                                                                
