 2017  4 3 2040 50.4 L   6.517 -73.541106.5  RSN  5 0.4 0.8LRSN                1
 GAP=132        0.93       4.7     3.9  9.4  0.5316E+01  0.1216E+02 -0.4515E+01E
 Epicentro: EL CARMEN - SANTANDER                                              3
 ACTION:UPD 17-05-30 21:08 OP:jn   STATUS:               ID:20170403204050 L   I
 OLDACT:UP  17-05-15 13:19 OP:nlst STATUS:               ID:20170403204050 L   3
 OLDACT:DUP 17-04-04 03:43 OP:lv   STATUS:               ID:20170403203747d    3
 OLDACT:UP  17-04-04 03:42 OP:lv   STATUS:               ID:20170403203746     3
 OLDACT:REG 17-04-04 02:46 OP:lv   STATUS:               ID:20170403203746     3
 2017-04-03-2038-00M.COL___371                                                 6
 STAT SP IPHASW D HRMM SECON CODA AMPLIT PERI AZIMU VELO AIN AR TRES W  DIS CAZ7
 BAR2 EZ EP       2041  6.28                             158    0.2810 40.5  78 
 BAR2 EZ ES       2041 17.78                             158   -0.3710 40.5  78 
 RUS  HZ EP       2041  9.27                             138   -0.0310 85.7 144 
 RUS  HN ES       2041 24.36                             138    0.3410 85.7 144 
 RUS  HZ I        2041 27.96         1.2 0.21            141           85.7 144 
 PTB  HZ EP       2041  9.31                             133   -0.6610  101 271 
 PTB  HN ES       2041 25.25                             133    0.0310  101 271 
 PTB  HZ I        2041 27.94         2.2 0.38            136            101 271 
 SPBC HN ES       2041 27.24                             130    0.0410  112 212 
 ZAR  HN ES       2041 40.17                             115    0.49 9  181 307 
                                                                                
