 2013  7 3 2101 46.5 L   6.071 -73.728114.7  RSN  6 0.5 1.5LRSN                1
 GAP= 75        1.20       4.3     4.8 11.7 -0.8330E+00  0.1460E+02  0.9005E+01E
 Epicentro: BOLIVAR - SANTANDER                                                3
 ACTION:UPD 13-08-12 10:35 OP:ep   STATUS:               ID:20130703210146 L   I
 OLDACT:REG 13-07-03 22:16 OP:carl STATUS:               ID:20130703205959     3
 2013-07-03-2059-59M.COL___266                                                 6
 STAT SP IPHASW D HRMM SECON CODA AMPLIT PERI AZIMU VELO AIN AR TRES W  DIS CAZ7
 RUS  HZ EP       21 2  4.87                             146   -0.3910 74.0 105 
 RUS  HN ES       21 2 19.86                             146   -0.0510 74.0 105 
 RUS  HZ I        21 2 20.60         2.7 0.26            149           74.0 105 
 BAR2 SZ EP       21 2  5.66                             142    0.0810 83.4  46 
 BAR2 SZ ES   1   21 2 20.39                             142   -0.10 7 83.4  46 
 BAR2 SZ I        21 2 21.30        11.0 0.18            146           83.4  46 
 PTB  HZ EP       21 2  5.51                             137   -0.7510 95.8 303 
 PTB  HN ES   1   21 2 20.92                             137   -0.78 7 95.8 303 
 PTB  HZ I        21 2 23.17         7.5 0.10            139           95.8 303 
 BRR  HZ EP   1   21 2  8.93                             132    1.05 7  115   1 
 BRR  HE ES       21 2 24.99                             132    0.4210  115   1 
 BRR  HZ I        21 2 28.01        11.4 0.14            135            115   1 
 NOR  HZ EP   1   21 2 10.33                             126    0.11 7  138 246 
 NOR  HE ES       21 2 29.34                             126    0.61 9  138 246 
 NOR  HZ I        21 2 31.03         6.4 0.30            128            138 246 
 CHI  HZ EP   1   21 2 12.34                             122   -0.49 7  159 180 
 CHI  HE ES       21 2 33.70                             122    0.32 9  159 180 
 CHI  HZ I        21 2 37.68         2.1 0.22            124            159 180 
                                                                                
