 2012 12 3 2004 31.3 L   6.815 -73.157146.0  RSN  7 0.3 1.9LRSN                1
 GAP=134        0.66       3.6     3.4  4.7 -0.1733E+00  0.4726E+01  0.8861E+00E
 Epicentro: LOS SANTOS - SANTANDER                                             3
 ACTION:UPD 13-01-04 14:25 OP:ep   STATUS:               ID:20121203200431 L   I
 2012-12-03-2000-00M.COL___232                                                 6
 STAT SP IPHASW D HRMM SECON CODA AMPLIT PERI AZIMU VELO AIN AR TRES W  DIS CAZ7
 BAR2 SZ EP       20 4 51.17                             170    0.2010 24.8 186 
 BAR2 SZ ES       20 5  6.68                             170    0.3510 24.8 186 
 BAR2 SZ I        20 5  9.15        22.5 0.28                          24.8 186 
 PAM  SZ EP       20 4 53.53                             151    0.0310 76.9  41 
 PAM  SN ES   1   20 5 10.57                             151   -0.25 7 76.9  41 
 RUS  HZ EP       20 4 54.95                             143   -0.2410  102 175 
 RUS  HE ES   1   20 5 13.62                             143   -0.21 7  102 175 
 RUS  HE I        20 5 14.95        10.2 0.24                           102 175 
 PTB  HZ EP       20 4 58.01                             132   -0.18 9  147 258 
 PTB  HN ES       20 5 18.76                             132   -0.41 9  147 258 
 PTB  HZ I        20 5 22.13        10.0 0.17                           147 258 
 ZAR  HZ EP       20 5  3.66                             123    0.10 9  202 292 
 ZAR  HN ES   1   20 5 29.14                             123    0.41 6  202 292 
 ZAR  HZ I        20 5 35.56         8.3 0.34                           202 292 
 CHI  HZ EP   1   20 5  8.98                             117   -0.16 6  250 195 
 PRA  HZ EP   1   20 5 25.34                             106    0.43 4  393 209 
 PRA  HN ES   1   20 6  7.62                             106    0.88 4  393 209 
                                                                                
