 2015  4 3 2243  3.8 L   6.747 -73.179133.3  RSN 10 0.6 1.5LRSN                1
 GAP=135        1.36       5.0     4.9  7.6 -0.4211E+01  0.1467E+02  0.3539E+01E
 Epicentro: VILLANUEVA - SANTANDER                                             3
 ACTION:UPD 15-06-03 16:52 OP:cam  STATUS:               ID:20150403224303 L   I
 OLDACT:REG 15-04-04 03:05 OP:stll STATUS:               ID:20150403223747     3
 2015-04-03-2237-47M.COL___285                                                 6
 STAT SP IPHASW D HRMM SECON CODA AMPLIT PERI AZIMU VELO AIN AR TRES W  DIS CAZ7
 BAR2 EZ EP       2243 21.89                             172    0.1210 17.1 181 
 BAR2 EZ ES       2243 36.01                             172    0.1910 17.1 181 
 BAR2 EZ I        2243 38.26         8.4 0.44            171           17.1 181 
 BRR  HZ EP       2243 24.02                             150    0.4610 71.1 304 
 BRR  HN ES       2243 39.98                             150    0.9710 71.1 304 
 BRR  HZ I        2243 43.02         5.9 0.30            150           71.1 304 
 PAM  SZ EP     D 2243 24.80                             146   -0.3110 84.3  39 
 PAM  SZ I        2243 24.98        13.8 0.18            151           84.3  39 
 PAM  SE ES       2243 40.75                             146   -1.0310 84.3  39 
 RUS  HZ EP       2243 26.00                             143    0.1110 95.1 174 
 RUS  HE ES       2243 43.12                             143   -0.0410 95.1 174 
 RUS  HZ I        2243 46.14         5.1 0.30            145           95.1 174 
 PTB  HZ EP       2243 28.70                             130   -0.59 9  143 261 
 PTB  HE ES       2243 48.73                             130   -0.49 9  143 261 
 PTB  HZ I        2243 52.20         4.3 0.18            131            143 261 
 SPBC HZ EP       2243 31.15                             127    0.49 9  156 219 
 SPBC HN ES       2243 52.26                             127    0.62 9  156 219 
 SPBC HZ I        2243 54.95         5.3 0.30            129            156 219 
 ZAR  HZ EP       2243 35.72                             120    0.42 9  203 294 
 ZAR  HE ES       2243 59.97                             120    0.06 9  203 294 
 ZAR  HZ I        2244  5.88         3.8 0.38            122            203 294 
 NOR  HZ EP       2243 37.87                             116   -0.22 8  228 235 
 NOR  HE ES       2244  4.03                             116   -0.84 8  228 235 
 NOR  HZ I        2244 11.89         2.4 0.16            118            228 235 
 HEL  HZ EP       2243 43.75                             113    0.95 8  267 257 
 HEL  HE ES       2244 12.61                             113   -0.64 8  267 257 
 GUY2CHZ EP       2243 46.07                             110   -0.01 7  295 235 
 GUY2CHE ES       2244 18.59                             110   -0.51 7  295 235 
 GUY2CHZ I        2244 32.75         1.4 0.72                           295 235 
                                                                                
