 2011 12 3 2334 14.2 L   6.869 -72.923136.0  RSN  4 0.3 1.4LRSN                1
 GAP=241        0.66       6.7    13.1  8.4  0.5357E+02 -0.3375E+02 -0.5186E+01E
 Epicentro: GUACA - SANTANDER                                                  3
 ACTION:UPD 12-07-13 16:14 OP:ep   STATUS:               ID:20111203233414 L   I
 2011-12-03-2330-00M.COL___183                                                 6
 STAT SP IPHASW D HRMM SECON CODA AMPLIT PERI AZIMU VELO AIN AR TRES W  DIS CAZ7
 GIR2 SZ EP   1   2334 33.35                             163    0.42 7 37.8 308 
 GIR2 SZ ES   1   2334 47.07                             163   -0.46 7 37.8 308 
 BAR2 SZ ES   2   2334 48.72                             162    0.67 5 41.9 223 
 BAR2 SZ I        2334 51.89         7.3 0.41                          41.9 223 
 BRR  HZ EP   1   2334 35.36                             144   -0.25 7 91.0 287 
 BRR  HE ES   1   2334 52.46                             144    0.15 7 91.0 287 
 BRR  HZ I        2334 55.75         5.7 0.23                          91.0 287 
 RUS  HZ EP   1   2334 37.71                             139    0.01 7  109 189 
 RUS  HE ES   1   2334 55.84                             139   -0.18 7  109 189 
 RUS  HZ I        2334 57.67         2.1 0.39                           109 189 
                                                                                
