 2017 11 3 2151 56.3 L   6.773 -73.156143.9  RSN 11 0.6 1.6LRSN                1
 GAP=136        1.29       4.4     5.4  7.0 -0.5398E+01  0.1014E+02  0.6230E+01E
 Epicentro: LOS SANTOS - SANTANDER                                             3
 ACTION:UPD 17-12-12 19:51 OP:rebc STATUS:               ID:20171103215156 L   I
 OLDACT:UP  17-11-04 06:42 OP:osc  STATUS:               ID:20171103214738d    3
 OLDACT:UP  17-11-04 06:41 OP:osc  STATUS:               ID:20171103214738d    3
 OLDACT:DUP 17-11-04 06:31 OP:osc  STATUS:               ID:20171103214738d    3
 OLDACT:DUP 17-11-04 06:16 OP:osc  STATUS:               ID:20171103214737d    3
 2017-11-03-2148-00M.COL___429                                                 6
 STAT SP IPHASW D HRMM SECON CODA AMPLIT PERI AZIMU VELO AIN AR TRES W  DIS CAZ7
 BAR2 EZ EP       2152 15.45                             172   -0.1910 20.2 188 
 BAR2 EZ ES       2152 30.78                             172    0.0510 20.2 188 
 BAR2 EZ I        2152 31.43         6.3 0.16            169           20.2 188 
 BRR  HZ EP       2152 17.39                             152    0.1210 71.7 301 
 BRR  HN ES       2152 34.53                             152    0.9010 71.7 301 
 PAM  EZ EP       2152 18.45                             149   -0.0510 80.5  39 
 PAM  EN ES       2152 35.50                             149   -0.3210 80.5  39 
 PAM  EZ I        2152 38.74         3.7 0.40            153           80.5  39 
 RUS  HZ EP       2152 20.37                             144    0.7110 97.7 175 
 RUS  HE ES       2152 37.94                             144    0.0710 97.7 175 
 RUS  HZ I        2152 38.88         8.5 0.28            144           97.7 175 
 PTB  HZ EP       2152 22.24                             132   -0.72 9  146 260 
 PTB  HN ES       2152 43.12                             132   -0.63 9  146 260 
 PTB  HZ I        2152 47.27         3.5 0.24            132            146 260 
 SPBC HZ EP       2152 24.54                             129    0.18 9  160 219 
 SPBC HN ES       2152 45.98                             129   -0.27 9  160 219 
 SPBC HZ I        2152 51.25         8.7 0.10            129            160 219 
 NOR  HZ EP       2152 31.99                             118    0.36 8  232 235 
 NOR  HN ES       2152 59.53                             118    0.35 8  232 235 
 NOR  HZ I        2153  3.50         4.2 0.18            119            232 235 
 CHI  HZ EP       2152 32.96                             117   -0.58 8  245 195 
 CHI  HN ES       2153  1.44                             117   -1.15 8  245 195 
 CHI  HZ I        2153 10.65         2.2 0.40            118            245 195 
 GUY2CHZ EP       2152 40.56                             112    1.05 7  298 235 
 GUY2CHN ES       2153 12.90                             112   -0.32 7  298 235 
 GUY2CHZ I        2153 22.65         2.9 0.74                           298 235 
 PRA  HZ EP       2152 49.80                             106    0.42 6  389 210 
 PRA  HN ES       2153 31.63                             106    0.85 6  389 210 
 PRA  HZ I        2153 36.14         1.8 0.48            107            389 210 
 SJC  HZ EP   4   2153  2.92                             105   10.90 0  411 327 
 SJC  HN ES       2153 34.73                             105   -0.75 6  411 327 
                                                                                
