 2014 11 3 2035 17.8 L   6.807 -73.150147.2  RSN 14 0.4 2.0LRSN                1
 GAP=136        1.04       3.7     5.2  6.8 -0.5927E+01  0.1414E+01  0.6347E+01E
 Epicentro: LOS SANTOS - SANTANDER                                             3
 ACTION:UPD 14-12-19 15:39 OP:nd   STATUS:               ID:20141103203517 L   I
 OLDACT:REG 14-11-04 02:53 OP:spq  STATUS:               ID:20141103202749     3
 2014-11-03-2027-49M.COL___271                                                 6
 STAT SP IPHASW D HRMM SECON CODA AMPLIT PERI AZIMU VELO AIN AR TRES W  DIS CAZ7
 BAR2 SZ EP     D 2035 37.74                             170    0.1010 24.0 188 
 BAR2 SZ ES   1   2035 52.73                             170   -0.37 7 24.0 188 
 BAR2 SZ I        2035 53.60        33.9 0.32            166           24.0 188 
 BRR  HZ IP     C 2035 39.48                             153    0.3910 70.4 298 
 BRR  HN ES       2035 56.50                             153    0.8310 70.4 298 
 BRR  HZ I        2035 58.87        19.8 0.14            147           70.4 298 
 PAM  SZ EP     D 2035 40.66                             151    0.4810 77.1  40 
 PAM  SN ES       2035 57.51                             151   -0.1010 77.1  40 
 PAM  SZ I        2035 59.84        16.2 0.53            155           77.1  40 
 RUS  HZ EP       2035 41.89                             144    0.1110  101 176 
 RUS  HE ES   1   2036  0.19                             144   -0.27 7  101 176 
 RUS  HZ I        2036  1.95        11.2 0.68            144            101 176 
 PTB  HZ EP       2035 44.30                             132   -0.58 9  147 259 
 PTB  HE ES       2036  5.97                             132   -0.01 9  147 259 
 PTB  HZ I        2036 10.54        11.2 0.20            128            147 259 
 OCA  HZ EP   1   2035 45.85                             130   -0.32 7  159 353 
 OCA  HE ES       2036  7.44                             130   -0.84 9  159 353 
 OCA  HZ I        2036 11.34        13.8 0.10            129            159 353 
 SPBC HZ EP       2035 46.89                             129    0.43 9  163 219 
 SPBC HE ES       2036  8.39                             129   -0.41 9  163 219 
 SPBC HZ I        2036 14.90        11.2 0.26            127            163 219 
 CHI  HZ EP   1   2035 55.99                             117    0.32 6  249 195 
 CHI  HE ES   1   2036 24.72                             117   -0.47 6  249 195 
 CHI  HZ I        2036 30.15         3.2 0.34            116            249 195 
 HEL  HZ EP   4   2036  0.00                             115    1.92 0  272 256 
 HEL  HE ES   4   2036 31.14                             115    1.67 0  272 256 
 HEL  HZ I        2036 36.04         5.0 0.28            113            272 256 
 GUY2CHZ EP   4   2036  4.04                             113    2.54 0  301 235 
 GUY2CHN ES   4   2036 38.91                             113    3.34 0  301 235 
 GUY2CHZ I        2036 46.09         4.4 0.62                           301 235 
 TOL  SE ES   4   2036 45.30                             110    1.44 0  344 224 
 TOL  SZ I        2036 53.37         5.9 0.47            108            344 224 
 MON  HZ EP   4   2036  5.08                             109   -1.70 0  353 308 
 MON  HN ES   4   2036 43.48                             109   -1.49 0  353 308 
 MON  HZ I        2036 58.52         3.6 0.38            108            353 308 
 PRA  HZ EP   1   2036 11.13                             107   -0.32 4  392 209 
 PRA  HN ES   1   2036 53.31                             107    0.04 4  392 209 
 PRA  HZ I        2036 59.03         2.7 0.32            106            392 209 
 SJC  HZ EP   4 C 2036 12.06                             106   -1.27 0  408 327 
 SJC  HE ES   4   2036 53.33                             106   -3.29 0  408 327 
 SJC  HZ I        2036 57.20         2.3 0.48            105            408 327 
                                                                                
