 2017  6 3 2221 38.4 L   6.793 -73.150150.5  RSN 12 0.2 2.0LRSN                1
 GAP=212        0.82       3.4     3.7  5.2  0.5016E+01 -0.3575E+01 -0.2254E+01E
 Epicentro: LOS SANTOS - SANTANDER                                             3
 ACTION:UPD 17-09-14 16:49 OP:jn   STATUS:               ID:20170603222138 L   I
 OLDACT:UP  17-06-04 09:10 OP:lv   STATUS:               ID:20170603221740     3
 OLDACT:UP  17-06-04 09:09 OP:lv   STATUS:               ID:20170603221740     3
 OLDACT:REG 17-06-04 08:19 OP:lv   STATUS:               ID:20170603221740     3
 2017-06-03-2218-00M.COL___353                                                 6
 STAT SP IPHASW D HRMM SECON CODA AMPLIT PERI AZIMU VELO AIN AR TRES W  DIS CAZ7
 BRR  HZ EP       2222  0.13                             153    0.0510 71.1 299 
 BRR  HN ES       2222 17.29                             153    0.3210 71.1 299 
 BRR  HZ I        2222 20.05        13.3 0.20            151           71.1 299 
 RUS  HZ EP       2222  2.48                             145   -0.1110 99.8 176 
 RUS  HN ES       2222 21.15                             145   -0.2910 99.8 176 
 RUS  HZ I        2222 21.86        10.2 0.20            147           99.8 176 
 PTB  HZ EP   9   2222  5.15                             133   -0.57 0  147 259 
 PTB  HN ES       2222 25.60                                   -0.84 9  147 259 
 PTB  HZ I        2222 33.89        12.2 0.34            133            147 259 
 SPBC HZ EP       2222  7.36                             130    0.16 9  162 219 
 SPBC HN ES       2222 29.45                             130   -0.20 9  162 219 
 SPBC HZ I        2222 31.12        13.9 0.17            131            162 219 
 YPLC HZ EP       2222  8.54                             127    0.02 9  176 151 
 YPLC HN ES       2222 32.06                             127    0.06 9  176 151 
 ZAR  HZ EP       2222 11.00                             123   -0.16 9  204 292 
 ZAR  HN ES       2222 36.52                             123   -0.18 9  204 292 
 ZAR  HZ I        2222 42.02         9.5 0.28            123            204 292 
 NOR  HZ EP       2222 14.53                             119    0.19 8  234 235 
 NOR  HN ES       2222 42.57                             119    0.22 8  234 235 
 CHI  HZ EP       2222 16.03                             118   -0.26 8  248 195 
 CHI  HN ES   1   2222 46.22                             118    0.39 6  248 195 
 ROSC BZ EP   9   2222 18.86                             117    2.16 0  252 211 
 ROSC BN ES       2222 48.64                                   -0.08 8  252 211 
 HEL  HZ EP   9   2222 20.59                             115    1.79 0  271 256 
 HEL  HN ES       2222 51.66                                   -0.43 8  271 256 
 PTGC HZ EP   9   2222 21.28                             112   -1.15 0  308 159 
 PTGC HN ES       2222 54.69                                   -0.92 7  308 159 
 SJC  HZ EP   4   2222 32.30                             106   -1.89 0  410 327 
 SJC  HN ES   4   2223 13.93                             106   -3.75 0  410 327 
 SJC  HZ I        2223 17.90         2.5 0.17            107            410 327 
                                                                                
