 2017  9 3 2127 10.8 L   6.791 -73.062142.5  RSN  4 0.2 1.0LRSN                1
 GAP=148        0.47       2.8     5.1  4.2 -0.1812E+01  0.6953E+00 -0.1774E+01E
 Epicentro: LOS SANTOS - SANTANDER                                             3
 ACTION:UPD 17-10-05 19:08 OP:rebc STATUS:               ID:20170903212710 L   I
 OLDACT:REG 17-09-04 03:52 OP:mg   STATUS:               ID:20170903211746     3
 2017-09-03-2118-00M.COL___417                                                 6
 STAT SP IPHASW D HRMM SECON CODA AMPLIT PERI AZIMU VELO AIN AR TRES W  DIS CAZ7
 BAR2 EZ ES       2127 45.29                             169    0.1710 25.7 211 
 BAR2 EZ I        2127 46.89         2.1 0.08            168           25.7 211 
 PAM  EZ EP     D 2127 32.39                             152    0.0110 72.7  33 
 PAM  EN ES   1   2127 49.20                             152   -0.02 7 72.7  33 
 PAM  EZ I        2127 51.30         2.1 0.46            154           72.7  33 
 BRR  HZ EP       2127 32.29                             149    0.1910 79.9 296 
 BRR  HN ES   2   2127 48.22                             149   -0.51 5 79.9 296 
 BRR  HZ I        2127 53.43         3.7 0.31            147           79.9 296 
 RUS  HZ EP       2127 34.02                             144   -0.1110 99.4 181 
 RUS  HN ES       2127 52.21                             144   -0.1210 99.4 181 
 RUS  HZ I        2127 54.08         0.9 0.22            147           99.4 181 
                                                                                
