 2012  8 3 2231 10.4 L   6.819 -73.151140.1  RSN 10 0.4 2.1LRSN                1
 GAP=135        0.71       2.8     3.5  5.4 -0.5714E+00  0.4482E+01  0.3356E+01E
 Epicentro: LOS SANTOS - SANTANDER                                             3
 ACTION:UPD 12-09-10 11:54 OP:ep   STATUS:               ID:20120803223110 L   I
 2012-08-03-2230-00M.COL___215                                                 6
 STAT SP IPHASW D HRMM SECON CODA AMPLIT PERI AZIMU VELO AIN AR TRES W  DIS CAZ7
 BAR2 SZ EP       2231 29.58                             169    0.1510 25.3 188 
 BAR2 SZ I        2231 29.95        18.7 0.34                          25.3 188 
 BAR2 SZ ES   1   2231 43.72                             169   -0.52 7 25.3 188 
 BRR  HZ EP       2231 31.14                             152    0.2510 69.7 297 
 BRR  HN ES   1   2231 47.49                             152    0.65 7 69.7 297 
 BRR  HZ I        2231 52.50        44.5 0.20                          69.7 297 
 PAM  SZ EP       2231 32.09                             150    0.1110 76.2  41 
 PAM  SE ES   1   2231 48.78                             150    0.00 7 76.2  41 
 RUS  HZ EP       2231 33.75                             142   -0.0410  103 176 
 RUS  HN ES   1   2231 52.07                             142    0.06 7  103 176 
 RUS  HZ I        2231 54.00         9.3 0.24                           103 176 
 PTB  HZ EP   1   2231 36.19                             131   -0.74 7  148 258 
 PTB  HN ES   1   2231 57.48                             131   -0.12 7  148 258 
 PTB  HZ I        2232  0.61        16.2 0.24                           148 258 
 OCA  HE ES   1   2231 59.33                             129   -0.36 7  158 353 
 ZAR  HZ EP   1   2231 42.11                             121   -0.27 6  203 292 
 ZAR  HN ES   1   2232  7.13                             121   -0.16 6  203 292 
 ZAR  HZ I        2232 12.85        32.2 0.42                           203 292 
 NOR  SZ EP   1   2231 46.60                             117    0.68 6  235 234 
 NOR  SN ES   1   2232 13.63                             117    0.03 6  235 234 
 CHI  HZ EP   1   2231 47.91                             116   -0.12 6  251 195 
 CHI  HN ES   1   2232 16.96                             116   -0.39 6  251 195 
 CHI  HZ I        2232 25.60         6.6 0.36                           251 195 
 PRA  HN ES   1   2232 46.23                             105    0.55 4  394 209 
                                                                                
