 2012  7 3 2257  6.4 L   6.825 -73.328123.2  RSN  5 0.2 1.2LRSN                1
 GAP=104        0.40       3.6     4.6  4.4  0.7374E+01  0.2438E+01  0.4792E+01E
 Epicentro: ZAPATOCA - SANTANDER                                               3
 ACTION:UPD 12-08-14 11:42 OP:ep   STATUS:               ID:20120703225706 L   I
 2012-07-03-2250-00M.COL___201                                                 6
 STAT SP IPHASW D HRMM SECON CODA AMPLIT PERI AZIMU VELO AIN AR TRES W  DIS CAZ7
 BAR2 SZ EP       2257 23.64                             165     0.210   30 148 
 BAR2 SZ I        2257 23.71        11.3 0.36            157             30 148 
 BAR2 SZ ES   1   2257 36.65                             165    -0.2 7   30 148 
 BRR  HZ EP       2257 24.07                             155     0.010   53 306 
 BRR  HN ES   1   2257 37.84                             155     0.0 7   53 306 
 PAM  SN ES   2   2257 43.32                             142     0.0 5   90  51 
 RUS  HZ EP       2257 28.35                             137    -0.110  107 165 
 RUS  HN ES   2   2257 46.03                             137     0.3 5  107 165 
 RUS  HZ I        2257 52.42         1.3 0.38            134            107 165 
 PTB  HZ EP   3   2257 29.51                             130    -0.3 2  129 256 
