 2013 10 3 2306  6.6 L   6.730 -73.234151.7  RSN  4 0.3 1.1LRSN                1
 GAP=192        0.63       4.5     6.3  7.4  0.1350E+02 -0.5126E+01 -0.5189E+01E
 Epicentro: VILLANUEVA - SANTANDER                                             3
 ACTION:UPD 13-11-25 09:19 OP:ep   STATUS:               ID:20131003230606 L   I
 OLDACT:REG 13-10-03 21:48 OP:jn   STATUS:               ID:20131003225959     3
 2013-10-03-2259-59M.COL___273                                                 6
 STAT SP IPHASW D HRMM SECON CODA AMPLIT PERI AZIMU VELO AIN AR TRES W  DIS CAZ7
 BRR  HZ EP       23 6 28.14                             155   -0.0110 67.3 308 
 BRR  HE ES   1   23 6 45.37                             155    0.39 7 67.3 308 
 RUS  HZ EP       23 6 30.36                             147   -0.1010 94.1 170 
 RUS  HE ES   1   23 6 48.96                             147   -0.14 7 94.1 170 
 RUS  HZ I        23 6 57.75         1.0 0.41            147           94.1 170 
 PTB  HZ EP       23 6 33.40                             136    0.34 9  137 261 
 PTB  HN ES   1   23 6 53.30                             136   -0.43 7  137 261 
 PTB  HZ I        23 6 55.69         3.5 0.18            142            137 261 
 SML  HE ES   1   23 7 12.62                             118   -0.35 6  247 338 
                                                                                
