 2015  4 3 2253 13.1 L   6.794 -73.166143.8  RSN  9 0.4 1.7LRSN                1
 GAP=134        0.98       2.9     4.0  5.7 -0.9615E+00  0.5227E+01 -0.3002E+01E
 Epicentro: LOS SANTOS - SANTANDER                                             3
 ACTION:UPD 15-06-03 16:52 OP:cam  STATUS:               ID:20150403225313 L   I
 OLDACT:REG 15-04-04 03:05 OP:stll STATUS:               ID:20150403224750     3
 2015-04-03-2247-50M.COL___285                                                 6
 STAT SP IPHASW D HRMM SECON CODA AMPLIT PERI AZIMU VELO AIN AR TRES W  DIS CAZ7
 BAR2 EZ EP       2253 32.70                             171    0.1810 22.4 184 
 BAR2 EZ ES       2253 47.93                             171    0.2910 22.4 184 
 BAR2 EZ I        2253 50.31         8.3 0.52            171           22.4 184 
 BRR  HZ EP     C 2253 34.55                             153    0.5610 69.5 300 
 BRR  HZ I        2253 34.79        12.6 0.24            150           69.5 300 
 BRR  HN ES       2253 50.37                             153    0.1310 69.5 300 
 PAM  SZ EP       2253 35.47                             150    0.2010 79.3  41 
 PAM  SZ I        2253 35.73        12.8 0.22            154           79.3  41 
 PAM  SN ES       2253 52.71                             150    0.1810 79.3  41 
 RUS  HZ EP       2253 36.41                             143   -0.2710  100 175 
 RUS  HN ES       2253 54.17                             143   -0.8610  100 175 
 RUS  HZ I        2253 56.46         3.9 0.34            147            100 175 
 PTB  HZ EP       2253 39.84                             132    0.10 9  145 259 
 PTB  HN ES       2254  0.12                             132   -0.36 9  145 259 
 PTB  HZ I        2254  7.85         6.2 0.38            132            145 259 
 OCA  HZ EP       2253 40.81                             129   -0.53 9  161 354 
 OCA  HN ES       2254  3.27                             129   -0.06 9  161 354 
 OCA  HZ I        2254  8.69        12.0 0.26            131            161 354 
 SPBC HZ EP       2253 41.63                             129    0.32 9  161 218 
 SPBC HN ES       2254  3.60                             129    0.32 9  161 218 
 SPBC HZ I        2254  6.08         7.2 0.12            130            161 218 
 ZAR  HZ EP       2253 45.85                             122    0.58 9  202 293 
 ZAR  HE ES       2254 10.02                             122   -0.30 9  202 293 
 ZAR  HZ I        2254 17.66         5.0 0.34            123            202 293 
 SML  HZ EP       2253 49.27                             117   -0.35 8  243 336 
 SML  HE ES       2254 17.74                             117   -0.33 8  243 336 
                                                                                
