 2017  1 3 2118 48.0 L   6.620 -73.109130.8  RSN  4 0.4 1.2LRSN                1
 GAP=148        0.76       4.1     4.0  8.1 -0.2711E+01  0.3610E+01 -0.4102E+01E
 Epicentro: CURITI - SANTANDER                                                 3
 ACTION:UPD 17-05-22 15:55 OP:jn   STATUS:               ID:20170103211848 L   I
 OLDACT:UP  17-01-04 04:34 OP:cog  STATUS:               ID:20170103211745     3
 OLDACT:REG 17-01-04 02:40 OP:cog  STATUS:               ID:20170103211745     3
 2017-01-03-2118-00M.COL___369                                                 6
 STAT SP IPHASW D HRMM SECON CODA AMPLIT PERI AZIMU VELO AIN AR TRES W  DIS CAZ7
 RUS  HZ EP   2   2119 10.03                             147    1.23 5 80.5 178 
 RUS  HN ES       2119 24.85                             147   -0.2210 80.5 178 
 RUS  HZ I        2119 25.92         2.2 0.15            149           80.5 178 
 BRR  HZ EP       2119  8.35                             145   -0.1110 85.7 309 
 BRR  HN ES       2119 24.40                             145   -0.0610 85.7 309 
 PAM  EZ EP       2119  9.28                             143   -0.3010 91.5  30 
 PAM  EE ES       2119 26.69                             143    0.2510 91.5  30 
 PAM  EZ I        2119 28.81         3.5 0.56            144           91.5  30 
 PTB  HZ EP   2   2119 13.74                             128   -0.14 5  149 267 
 PTB  HN ES       2119 34.29                             128    0.18 9  149 267 
 PTB  HZ I        2119 35.32         2.8 0.20            130            149 267 
                                                                                
