 2010  3 3 2306 30.6 L   6.708 -73.217144.3  RSN  5 0.3 2.1LRSN                1
 GAP=168        0.59       5.1    14.5  9.0  0.3969E+02  0.1159E+02 -0.3937E+01E
 Epicentro: VILLANUEVA - SANTANDER                                             3
 ACTION:UP  10-08-24 09:51 OP:vdl  STATUS:               ID:20100303230630 L   I
 2010-03-03-2304-58S.COL___096                                                 6
 STAT SP IPHASW D HRMM SECON CODA AMPLIT PERI AZIMU VELO SNR AR TRES W  DIS CAZ7
 BAR2 SZ EP       23 6 49.59                             174    -0.310   13 164 
 BAR2 SZ ES   2   23 7  4.45                             174    -0.5 5   13 164 
 BRR  HZ EP       23 6 51.45                             152    -0.110   70 309 
 BRR  HZ I        23 6 51.74        17.5 0.14                            70 309 
 BRR  HE ES   3   23 7  8.59                             152     0.7 2   70 309 
 RUS  BZ EP       23 6 53.73                             146     0.210   91 171 
 RUS  BN ES   2   23 7 11.93                             146     0.5 5   91 171 
 OCA  SZ EP   2   23 6 59.82                             127     0.1 5  170 356 
 OCA  SZ ES   2   23 7 22.82                             127     0.5 5  170 356 
 OCA  SZ I        23 7 34.99        21.0 0.18                           170 356 
 CHI  HE ES   3   23 7 35.35                             118     0.1 2  237 194 
                                                                                
