 2015 10 3 2050 52.3 L   6.763 -73.140143.7  RSN  7 0.3 1.8LRSN                1
 GAP=157        0.86       4.4     4.6  5.9 -0.3230E+01  0.3281E+01  0.2040E+01E
 Epicentro: LOS SANTOS - SANTANDER                                             3
 ACTION:UPD 15-12-22 20:37 OP:cam  STATUS:               ID:20151003205052 L   I
 OLDACT:REG 15-10-04 07:12 OP:mh   STATUS:               ID:20151003204751     3
 2015-10-03-2047-51M.COL___358                                                 6
 STAT SP IPHASW D HRMM SECON CODA AMPLIT PERI AZIMU VELO AIN AR TRES W  DIS CAZ7
 BAR2 EZ EP       2051 11.77                             172    0.1310 19.5 194 
 BAR2 EZ ES   1   2051 26.80                             172    0.09 7 19.5 194 
 BAR2 EZ I        2051 29.30         6.7 0.22            174           19.5 194 
 BRR  HZ EP       2051 13.70                             151    0.2910 73.8 301 
 BRR  HZ I        2051 28.87        16.1 0.22            145           73.8 301 
 BRR  HN ES       2051 30.35                             151    0.5010 73.8 301 
 PAM  EZ EP       2051 14.31                             150   -0.1910 80.2  37 
 PAM  EN ES       2051 31.48                             150   -0.3110 80.2  37 
 PTB  HZ EP       2051 18.57                             132   -0.55 9  148 260 
 PTB  HN ES       2051 39.64                             132   -0.38 9  148 260 
 PTB  HZ I        2051 42.45         7.3 0.40            128            148 260 
 CHI  HZ EP       2051 29.79                             117    0.28 8  245 196 
 SML  HZ EP       2051 29.76                             117    0.48 8  248 336 
 SML  HN ES       2051 57.88                             117   -0.21 8  248 336 
 SML  HZ I        2052  8.47         6.9 0.10            113            248 336 
 GUY2CHZ EP   4   2051 37.90                             112    2.26 0  299 235 
 GUY2CHN ES   4   2052 13.21                             112    3.79 0  299 235 
 GUY2CHZ I        2052 18.23         3.2 0.54                           299 235 
                                                                                
