 2015  7 3 2343 59.1 L   6.796 -73.147147.9  RSN 17 0.3 2.4LRSN                1
 GAP=137        0.62       1.6     2.4  3.4 -0.5204E+00  0.4302E+01  0.1783E+00E
 Epicentro: LOS SANTOS - SANTANDER                                             3
 ACTION:UPD 15-09-08 21:46 OP:cam  STATUS:               ID:20150703234359 L   I
 OLDACT:REG 15-07-04 03:03 OP:drio STATUS:               ID:20150703233750     3
 2015-07-03-2337-50M.COL___333                                                 6
 STAT SP IPHASW D HRMM SECON CODA AMPLIT PERI AZIMU VELO AIN AR TRES W  DIS CAZ7
 BAR2 EZ EP       2344 18.82                             171   -0.1110 22.9 190 
 BAR2 EZ ES       2344 34.52                             171    0.0910 22.9 190 
 BAR2 EZ I        2344 34.99        32.7 0.20            168           22.9 190 
 PAM  EZ EP       2344 21.65                             151    0.1310 77.8  39 
 PAM  EN ES       2344 39.06                             151    0.0210 77.8  39 
 PAM  EZ I        2344 41.36        33.2 0.62            157           77.8  39 
 RUS  HZ EP       2344 22.64                             144   -0.3410  100 176 
 RUS  HN ES       2344 41.60                             144   -0.0510  100 176 
 RUS  HZ I        2344 42.94        22.8 0.42            146            100 176 
 OCA  HZ EP       2344 27.72                             130    0.15 9  161 353 
 OCA  HN ES       2344 49.91                             130    0.10 9  161 353 
 OCA  HZ I        2344 55.54        42.1 0.30            133            161 353 
 ZAR  HZ EP       2344 31.82                             123    0.18 9  204 292 
 ZAR  HE ES       2344 57.22                             123    0.16 9  204 292 
 ZAR  HZ I        2345  3.93        33.4 0.26            124            204 292 
 NOR  HZ EP       2344 34.69                             119   -0.18 8  234 235 
 NOR  HN ES       2345  3.14                             119    0.34 8  234 235 
 NOR  HZ I        2345  7.53        19.4 0.24            120            234 235 
 SML  HZ EP       2344 35.66                             118   -0.17 8  244 335 
 SML  HN ES       2345  4.39                             118   -0.14 8  244 335 
 SML  HZ I        2345  5.88        22.5 0.10            120            244 335 
 CHI  HZ EP       2344 36.88                             118    0.06 8  248 195 
 CHI  HN ES       2345  5.96                             118   -0.32 8  248 195 
 CHI  HZ I        2345 14.09         7.2 0.32            119            248 195 
 ROSC BZ EP   4   2344 35.18                             117   -2.06 0  252 211 
 ROSC BN ES   4   2345 11.33                             117    4.30 0  252 211 
 ROSC BZ I        2345 16.19        24.4 0.35            118            252 211 
 HEL  HZ EP       2344 40.03                             115    0.68 8  272 256 
 HEL  HN ES       2345 10.24                             115   -0.54 8  272 256 
 HEL  HZ I        2345 17.94        13.9 0.38            116            272 256 
 URE  HZ EP       2344 39.59                             114   -0.64 7  284 292 
 URE  HE ES   4   2345 11.43                             114   -0.92 0  284 292 
 URE  HZ I        2345 16.45        18.0 0.14            115            284 292 
 GUY2CHZ EP       2344 42.85                             113    0.13 7  301 235 
 GUY2CHE ES       2345 16.85                             113    0.07 7  301 235 
 GUY2CHZ I        2345 25.50        15.4 0.70                           301 235 
 PTGC HZ EP   4   2344 41.82                             112   -1.14 0  308 159 
 PTGC HE ES   4   2345 14.69                             112   -2.52 0  308 159 
 DBB  SZ EP       2344 46.56                             110   -0.05 7  339 274 
 DBB  SZ ES       2345 23.54                             110   -0.16 7  339 274 
 PRA  HZ EP       2344 52.29                             107   -0.30 6  392 210 
 PRA  HN ES       2345 35.04                             107    0.68 6  392 210 
 PRA  HZ I        2345 39.13         7.6 0.30            108            392 210 
 ORTC HZ EP       2344 53.36                             107    0.37 6  395 216 
 ORTC HN ES   4   2345 36.88                             107    1.81 0  395 216 
 ORTC HZ I        2345 44.69         5.7 0.18            108            395 216 
 PAL  HZ EP       2344 54.56                             106    0.32 6  405 239 
 PAL  HE ES       2345 37.17                             106   -0.13 6  405 239 
 PAL  HZ I        2345 42.23         4.7 0.20            107            405 239 
 SJC  HZ EP   4   2344 53.13                             106   -1.59 0  410 327 
 SJC  HN ES   4   2345 34.61                             106   -3.53 0  410 327 
 SJC  HZ I        2345 38.67         4.6 0.44            108            410 327 
                                                                                
