 2010 12 3 2150 59.7 L   6.759 -72.967140.4  RSN  9 0.5 2.6LRSN                1
 GAP=192        1.04       5.9    11.3  9.8 -0.4218E+02  0.2752E+02  0.4272E+01E
 Epicentro: CEPITA - SANTANDER                                                 3
 ACTION:UP  11-01-14 15:22 OP:pat  STATUS:               ID:20101203215059 L   I
 2010-12-03-2149-27S.COL___133                                                 6
 STAT SP IPHASW D HRMM SECON CODA AMPLIT PERI AZIMU VELO SNR AR TRES W  DIS CAZ7
 BAR2 SZ IP       2151 19.29                             167     0.510   30 232 
 BAR2 SZ ES   1   2151 33.14                             167    -0.6 7   30 232 
 BAR2 SZ I        2151 35.38        53.4 0.25                            30 232 
 GUE  SZ EP   1   2151 24.62                             138     0.6 7  119   2 
 GRA  SZ EP   1   2151 23.81                             136    -0.6 7  126   8 
 GRA  SZ ES   1   2151 43.55                             136    -0.2 7  126   8 
 GRA  SZ I        2151 44.61        34.7 0.25                           126   8 
 OCA  SZ EP   1   2151 27.77                             127    -0.6 7  168 347 
 OCA  SZ ES   1   2151 51.49                             127     0.8 7  168 347 
 OCA  SZ I        2151 55.48        34.4 0.32                           168 347 
 CHI  HZ EP   2   2151 37.12                             116    -0.1 4  250 200 
 CHI  HE ES   2   2152  7.23                             116     0.7 4  250 200 
 CHI  HZ I        2152 14.89        16.5 0.34                           250 200 
 HEL  HZ EP   2   2151 40.74                             112    -0.9 4  290 258 
 HEL  HE ES   2   2152 13.82                             112    -0.6 4  290 258 
 HEL  HZ I        2152 18.87        19.0 0.47                           290 258 
 GUY  SZ EP   2   2151 44.82                             110     0.2 3  315 238 
 GUY  SN ES   2   2152 20.01                             110     0.3 3  315 238 
 GUY  SZ I        2152 29.24        33.2 0.39                           315 238 
 RREF HZ EP   1   2151 46.39                             109    -0.6 5  334 232 
 RREF HN ES   1   2152 24.44                             109     0.5 5  334 232 
 RREF HZ I        2152 32.41        16.3 0.62                           334 232 
 PRA  HZ EP   1   2151 53.62                             105    -0.1 4  398 212 
 PRA  HN ES   1   2152 36.09                             105     0.2 4  398 212 
 PRA  HZ I        2152 40.31        42.6 0.37                           398 212 
                                                                                
