 2016  1 3 2158 38.3 L   6.818 -73.131147.8  RSN 13 0.3 2.0LRSN                1
 GAP=138        0.67       1.7     2.5  3.4 -0.6484E+00  0.2190E+01  0.2806E+00E
 Epicentro: LOS SANTOS - SANTANDER                                             3
 ACTION:UPD 16-03-09 23:22 OP:cam  STATUS:               ID:20160103215838 L   I
 OLDACT:REG 16-01-04 02:58 OP:cara STATUS:               ID:20160103215745     3
 2016-01-03-2157-45M.COL___317                                                 6
 STAT SP IPHASW D HRMM SECON CODA AMPLIT PERI AZIMU VELO AIN AR TRES W  DIS CAZ7
 BAR2 EZ IP       2158 58.25                             170   -0.0110 25.6 193 
 BAR2 EZ ES       2159 13.52                             170   -0.2710 25.6 193 
 BAR2 EZ I        2159 15.01        28.7 0.14            170           25.6 193 
 BRR  HZ IP     C 2159  0.02                             153    0.2910 71.7 297 
 BRR  HN ES       2159 16.64                             153    0.2210 71.7 297 
 BRR  HZ I        2159 21.21        13.2 0.40            152           71.7 297 
 PAM  EZ IP     C 2159  1.15                             152    0.5310 74.8  40 
 PAM  EN ES       2159 17.96                             152   -0.0410 74.8  40 
 PAM  EZ I        2159 20.42         7.1 0.56            155           74.8  40 
 RUS  HZ EP       2159  2.16                             144   -0.2610  102 177 
 RUS  HN ES       2159 21.30                             144    0.0910  102 177 
 RUS  HZ I        2159 22.63        15.9 0.40            146            102 177 
 PTB  HZ EP       2159  4.98                             132   -0.67 9  150 258 
 PTB  HE ES       2159 26.84                             132   -0.11 9  150 258 
 PTB  HZ I        2159 27.95        13.2 0.46            133            150 258 
 OCA  HZ EP       2159  6.68                             130    0.04 9  159 352 
 OCA  HN ES       2159 28.46                             130   -0.26 9  159 352 
 OCA  HZ I        2159 34.58        13.8 0.26            132            159 352 
 SPBC HZ IP       2159  7.22                             129   -0.01 9  166 219 
 SPBC HN ES       2159 29.84                             129    0.07 9  166 219 
 SPBC HZ I        2159 35.22        19.0 0.10            131            166 219 
 ZAR  HN ES       2159 36.59                             123    0.13 9  205 291 
 ZAR  HZ I        2159 38.71         8.3 0.12            124            205 291 
 NOR  HZ EP       2159 14.33                             119   -0.12 8  237 234 
 NOR  HN ES       2159 42.60                             119   -0.01 8  237 234 
 NOR  HZ I        2159 45.58         7.2 0.22            120            237 234 
 SML  HZ IP     D 2159 14.56                             118   -0.39 8  243 335 
 SML  HN ES       2159 43.66                             118    0.14 8  243 335 
 SML  HZ I        2159 47.46        13.9 0.10            119            243 335 
 CHI  HZ EP       2159 16.32                             117   -0.08 8  251 195 
 CHI  HE ES       2159 46.21                             117    0.12 8  251 195 
 CHI  HZ I        2159 49.73         3.2 0.30            119            251 195 
 HEL  HZ EP       2159 18.91                             115    0.03 8  274 255 
 HEL  HN ES       2159 50.58                             115    0.08 8  274 255 
 HEL  HZ I        2159 57.23         3.7 0.22            116            274 255 
 GUY2CHZ EP       2159 22.94                             112    0.62 7  304 235 
 GUY2CHN ES   4   2159 58.08                             112    1.46 0  304 235 
 GUY2CHZ I        22 0  4.00         3.7 0.30                           304 235 
                                                                                
