 2017 12 3 2304 28.5 L   6.039 -73.790105.0  RSN  5 0.3 1.0LRSN                1
 GAP=161        0.88       4.3     3.7  7.1 -0.7379E+01  0.3405E+01  0.1613E+01E
 Epicentro: EL PENON - SANTANDER                                               3
 ACTION:UPD 18-01-04 13:16 OP:rebc STATUS:               ID:20171203230428 L   I
 OLDACT:REG 17-12-04 04:50 OP:edw  STATUS:               ID:20171203225736     3
 2017-12-03-2258-00M.COL___495                                                 6
 STAT SP IPHASW D HRMM SECON CODA AMPLIT PERI AZIMU VELO AIN AR TRES W  DIS CAZ7
 SPBC HZ EP       23 4 44.32                             151   -0.0710 53.0 216 
 SPBC HN ES       23 4 56.53                             151   -0.2210 53.0 216 
 SPBC HZ I        23 4 58.10         6.3 0.14            151           53.0 216 
 RUS  HZ EP       23 4 46.38                             140   -0.4310 79.9 102 
 RUS  HN ES       23 5  0.72                             140   -0.3510 79.9 102 
 RUS  HZ I        23 5  5.65         1.0 0.58            141           79.9 102 
 BAR2 EZ EP       23 4 47.51                             136    0.1510 90.9  48 
 BAR2 EZ ES       23 5  2.53                             136    0.4910 90.9  48 
 NOR  HZ EP       23 4 50.42                             124   -0.4010  131 246 
 NOR  HN ES       23 5  8.48                             124    0.2710  131 246 
 NOR  HZ I        23 5 10.02         3.5 0.16            128            131 246 
 CHI  HZ EP       23 4 54.11                             119    0.18 9  156 178 
 CHI  HE ES       23 5 14.19                             119    0.46 9  156 178 
 CHI  HZ I        23 5 17.61         0.8 0.32            121            156 178 
                                                                                
