 2013  3 3 2213 57.6 L   6.752 -73.176147.7  RSN  6 0.5 1.9LRSN                1
 GAP=135        1.17       6.0     6.1  8.0 -0.3051E+01  0.2638E+01  0.9682E+01E
 Epicentro: VILLANUEVA - SANTANDER                                             3
 ACTION:UPD 13-04-09 13:59 OP:ep   STATUS:               ID:20130303221357 L   I
 2013-03-03-2210-00M.COL___228                                                 6
 STAT SP IPHASW D HRMM SECON CODA AMPLIT PERI AZIMU VELO AIN AR TRES W  DIS CAZ7
 BAR2 SZ EP       2214 17.40                             173    0.0510 17.6 182 
 BAR2 SZ ES       2214 32.97                             173    0.2110 17.6 182 
 BAR2 SZ I        2214 33.61        15.2 0.14            163           17.6 182 
 BRR  HZ EP       2214 19.01                             153    0.0710 71.1 304 
 BRR  HN ES       2214 36.46                             153    0.8710 71.1 304 
 BRR  HN I        2214 38.09        27.4 0.20            146           71.1 304 
 PAM  SZ EP       2214 20.20                             149   -0.1910 83.6  39 
 PAM  SN ES       2214 37.79                             149   -0.3810 83.6  39 
 PAM  SN I        2214 39.26         5.9 0.22            144           83.6  39 
 RUS  HZ EP       2214 21.19                             146    0.0110 95.6 174 
 RUS  HN ES       2214 39.31                             146   -0.2610 95.6 174 
 RUS  HN I        2214 41.91         4.7 0.58            132           95.6 174 
 PTB  HZ EP   1   2214 23.93                             133   -0.41 7  144 261 
 PTB  HN ES       2214 44.41                             133   -0.78 9  144 261 
 PTB  HN I        2214 50.13        18.5 0.36            122            144 261 
 CHI  HZ EP       2214 35.56                             118    0.81 8  243 195 
 CHI  HN I        2215  7.27         6.8 0.28            107            243 195 
                                                                                
