 2013 10 3 2330 21.0 L   6.754 -73.230146.4  RSN  5 0.2 1.6LRSN                1
 GAP=224        0.51       3.7     3.8  5.1  0.7929E+01 -0.3810E+00 -0.6475E+00E
 Epicentro: ZAPATOCA - SANTANDER                                               3
 ACTION:UPD 13-11-25 09:19 OP:ep   STATUS:               ID:20131003233021 L   I
 OLDACT:REG 13-10-03 21:51 OP:jn   STATUS:               ID:20131003232959     3
 2013-10-03-2329-59M.COL___273                                                 6
 STAT SP IPHASW D HRMM SECON CODA AMPLIT PERI AZIMU VELO AIN AR TRES W  DIS CAZ7
 BRR  HZ EP       2330 41.95                             154    0.0510 66.1 306 
 BRR  HN ES       2330 58.26                             154    0.0310 66.1 306 
 BRR  HZ I        2331  3.22        12.0 0.34            153           66.1 306 
 RUS  HZ EP       2330 44.76                             145    0.2710 96.6 170 
 RUS  HN ES       2331  2.69                             145   -0.1510 96.6 170 
 RUS  HZ I        2331  3.86         3.2 0.26            149           96.6 170 
 PTB  HZ EP       2330 46.75                             134   -0.34 9  138 260 
 PTB  HN ES       2331  7.44                             134   -0.02 9  138 260 
 PTB  HZ I        2331 14.86         5.3 0.26            135            138 260 
 SPBC HN ES   2   2331 10.48                             131    0.33 5  153 217 
 ZAR  HE ES   1   2331 17.74                             123    0.14 6  198 295 
                                                                                
