 2015  8 3 2315  2.8 L   6.795 -73.144135.7  RSN  6 0.5 2.0LRSN                1
 GAP=137        1.33       5.3     6.9  9.6  0.6251E+01  0.1654E+02 -0.3321E+01E
 Epicentro: LOS SANTOS - SANTANDER                                             3
 ACTION:UPD 15-09-15 22:59 OP:cam  STATUS:               ID:20150803231502 L   I
 OLDACT:REG 15-08-04 03:41 OP:stll STATUS:               ID:20150803230750     3
 2015-08-03-2307-50M.COL___355                                                 6
 STAT SP IPHASW D HRMM SECON CODA AMPLIT PERI AZIMU VELO AIN AR TRES W  DIS CAZ7
 BAR2 EZ EP       2315 21.27                             170    0.0910 22.8 191 
 BAR2 EZ ES       2315 35.90                             170    0.3610 22.8 191 
 BAR2 EZ I        2315 37.43        25.2 0.34            174           22.8 191 
 BRR  HZ IP     C 2315 23.17                             150    0.3110 71.6 299 
 BRR  HZ I        2315 23.42        21.6 0.24            151           71.6 299 
 BRR  HN ES       2315 38.98                             150    0.4510 71.6 299 
 PAM  EZ EP       2315 24.26                             149    0.3210 77.7  39 
 PAM  EN ES       2315 40.68                             149    0.2210 77.7  39 
 PAM  EZ I        2315 43.34        17.0 0.52            148           77.7  39 
 RUS  HZ EP       2315 25.72                             142    0.2210  100 176 
 RUS  HN ES       2315 42.21                             142   -1.0210  100 176 
 RUS  HZ I        2315 45.05         8.4 0.52            146            100 176 
 OCA  HN ES       2315 50.82                             127   -1.08 9  161 353 
 OCA  HZ I        2315 59.10        28.4 0.50            127            161 353 
 ZAR  HZ EP       2315 34.82                             120    0.21 9  204 292 
 ZAR  HE ES       2315 59.17                             120   -0.28 9  204 292 
 ZAR  HZ I        2316  1.42         8.8 0.38            121            204 292 
                                                                                
