 2014  5 3 2102  5.1 L   6.779 -73.114147.3  RSN 16 0.5 2.7LRSN                1
 GAP= 74        1.23       3.4     3.6  6.9 -0.8900E+00  0.7487E+01  0.3494E+01E
 Epicentro: LOS SANTOS - SANTANDER                                             3
 ACTION:UPD 15-03-16 16:54 OP:nd   STATUS:               ID:20140503210205 L   I
 OLDACT:REG 14-05-04 02:25 OP:nd   STATUS:               ID:20140503210000     3
 2014-05-03-2100-00M.COL___273                                                 6
 STAT SP IPHASW D HRMM SECON CODA AMPLIT PERI AZIMU VELO AIN AR TRES W  DIS CAZ7
 BRR  HZ EP       21 2 26.88                             151    0.2510 75.4 299 
 BRR  HN ES       21 2 44.17                             151    0.7310 75.4 299 
 BRR  HZ I        21 2 45.15        56.9 0.16            143           75.4 299 
 PAM  SZ EP     D 21 2 28.02                             151    0.5910 77.0  36 
 PAM  SN ES       21 2 45.08                             151    0.2110 77.0  36 
 PAM  SZ I        21 2 47.52        43.5 0.46            144           77.0  36 
 RUS  HZ EP     D 21 2 28.61                             145   -0.1910 98.1 178 
 RUS  HN ES       21 2 46.93                             145   -0.3810 98.1 178 
 TAM  HZ EP     D 21 2 33.12                             132    0.61 9  151 104 
 TAM  HN ES       21 2 53.51                             132   -0.40 9  151 104 
 TAM  HZ I        21 2 55.37        35.3 0.22            127            151 104 
 PTB  HZ EP       21 2 31.36                             132   -1.08 9  151 260 
 PTB  HN ES   4   21 2 51.66                             132   -2.13 0  151 260 
 PTB  HZ I        21 2 54.88        52.5 0.46            125            151 260 
 SPBC HZ EP       21 2 33.57                             129   -0.16 9  164 220 
 SPBC HN ES       21 2 55.64                             129   -0.45 9  164 220 
 SPBC HZ I        21 3  1.48        42.7 0.22            125            164 220 
 ZAR  HZ EP       21 2 38.06                             122    0.02 8  208 292 
 ZAR  HN ES       21 3  3.95                             122    0.19 8  208 292 
 ZAR  HZ I        21 3  8.99        51.0 0.24            116            208 292 
 NOR  HZ EP       21 2 40.46                             119   -0.59 8  236 235 
 NOR  HN ES       21 3  8.33                             119   -0.79 8  236 235 
 NOR  HZ I        21 3 13.91        50.4 0.42            114            236 235 
 SML  HZ EP       21 2 41.75                             117   -0.42 8  247 335 
 SML  HN ES       21 3 10.58                             117   -0.53 8  247 335 
 SML  HZ I        21 3 20.11        29.4 0.22            111            247 335 
 CHI  HZ EP       21 2 42.67                             118   -0.05 8  247 196 
 CHI  HN ES       21 3 11.85                             118   -0.23 8  247 196 
 ROSC BZ EP       21 2 44.06                             117    0.80 8  253 212 
 ROSC BN ES   1   21 3 12.54                             117   -0.51 6  253 212 
 ROSC BZ I        21 3 21.97        40.1 0.45            113            253 212 
 HEL  HZ EP       21 2 45.64                             115   -0.04 8  275 256 
 HEL  HN ES       21 3 17.43                             115    0.08 8  275 256 
 HEL  HZ I        21 3 23.59        27.4 0.40            110            275 256 
 URE  HZ EP   4   21 2 45.58                             113   -1.09 0  288 292 
 URE  HN ES   4   21 3 18.57                             113   -0.56 0  288 292 
 URE  HZ I        21 3 28.97        32.4 0.24            108            288 292 
 GUY2CHZ EP       21 2 49.22                             112    0.29 7  303 236 
 GUY2CHN ES       21 3 24.13                             112    1.00 7  303 236 
 GUY2CHZ I        21 3 31.07        34.6 0.52                           303 236 
 ORTC HZ EP       21 2 59.44                             107    0.37 6  396 217 
 ORTC HN ES       21 3 42.48                             107    1.29 6  396 217 
 ORTC HZ I        21 3 47.46        11.7 0.40            103            396 217 
 SJC  HZ EP   4   21 2 59.77                             106   -1.36 0  413 327 
 SJC  HN ES   4   21 3 39.92                             106   -4.94 0  413 327 
 SJC  HZ I        21 3 45.46         9.1 0.54            101            413 327 
                                                                                
