 2012  2 3 2255 48.6 L   6.798 -73.131141.4  RSN 14 0.4 2.4LRSN                1
 GAP=115        0.88       3.1     4.4  5.3  0.2781E+00  0.6712E+01  0.3555E+01E
 ACTION:UP  12-03-07 16:27 OP:epov STATUS:               ID:20120203225548 L   I
 2012-02-03-2250-00M.COL___188                                                 6
 STAT SP IPHASW D HRMM SECON CODA AMPLIT PERI AZIMU VELO SNR AR TRES W  DIS CAZ7
 BAR2 SZ IP       2256  7.67                             170    0.0110 23.4 194 
 BAR2 SZ I        2256  7.80        91.6 0.40                          23.4 194 
 BAR2 SZ ES   1   2256 22.55                             170   -0.01 7 23.4 194 
 GIR2 SZ IP       2256  7.72                             167    0.0010 31.8 348 
 GIR2 SZ ES   1   2256 22.37                             167   -0.30 7 31.8 348 
 BRR  HZ IP     C 2256  9.51                             151    0.1910 72.7 298 
 BRR  HZ I        2256  9.87       104.8 0.10                          72.7 298 
 BRR  HN ES   1   2256 26.31                             151    0.80 7 72.7 298 
 PAM  SZ EP       2256 10.45                             150    0.2010 76.6  39 
 PAM  SN ES   1   2256 27.09                             150   -0.09 7 76.6  39 
 RUS  HZ EP       2256 11.69                             143   -0.1610  100 177 
 RUS  HE ES   1   2256 30.10                             143    0.08 7  100 177 
 RUS  HZ I        2256 31.82        28.7 0.32                           100 177 
 PTB  HZ EP       2256 14.32                             131   -0.99 9  149 259 
 PTB  HZ I        2256 38.04        31.7 0.40                           149 259 
 OCA  SZ EP       2256 16.61                             128    0.04 9  161 353 
 OCA  SZ ES   1   2256 37.45                             128   -0.97 7  161 353 
 YOP  SZ EP       2256 18.35                             125    0.15 9  178 154 
 YOP  SN ES   2   2256 41.72                             125    0.41 4  178 154 
 YOP  SZ I        2256 46.01        13.7 0.94                           178 154 
 ZAR  HZ EP       2256 21.76                             121    0.88 8  206 292 
 ZAR  HN ES   2   2256 46.58                             121    0.49 4  206 292 
 ZAR  HZ I        2256 52.00        35.3 0.52                           206 292 
 NOR  SZ EP       2256 24.13                             117   -0.03 8  236 235 
 NOR  SN ES   1   2256 51.44                             117   -0.49 6  236 235 
 CHI  HZ EP   2   2256 26.25                             116    0.21 4  249 196 
 CHI  HZ I        2256 28.52         6.7 0.40                           249 196 
 CHI  HE ES   1   2256 55.02                             116   -0.25 6  249 196 
 HEL  HZ EP   2   2256 28.71                             114    0.00 4  274 256 
 HEL  HZ I        2257  6.01        15.8 0.36                           274 256 
 RREF HZ EP   3   2256 33.84                             110   -0.79 2  323 230 
 RREF HN ES   3   2257 11.21                             110    0.64 2  323 230 
 RREF HZ I        2257 17.94        13.5 0.50                           323 230 
 PRA  HZ EP       2256 42.26                             106    0.26 6  393 210 
 PRA  HN ES   3   2257 23.77                             106    0.09 1  393 210 
                                                                                
