 2010  5 3 2112 34.2 L   6.690 -72.978139.6  RSN  4 0.2 1.8LRSN                1
 GAP=236        0.39       8.3     9.1 11.7 -0.4191E+02 -0.8566E+02  0.3864E+02E
 Epicentro: ARATOCA - SANTANDER                                                3
 ACTION:UP  10-08-24 10:02 OP:vdl  STATUS:               ID:20100503211234 L   I
 2010-05-03-2110-37S.COL___105                                                 6
 STAT SP IPHASW D HRMM SECON CODA AMPLIT PERI AZIMU VELO SNR AR TRES W  DIS CAZ7
 BAR2 SZ EP   2   2112 52.99                             168    -0.1 5   25 244 
 BRR  HZ IP     C 2112 56.21                             143     0.110   93 300 
 BRR  HZ I        2112 56.68        11.3 0.13                            93 300 
 BRR  HE ES   1   2113 13.07                             143    -0.1 7   93 300 
 GUE  SZ EP   2   2112 58.80                             135    -0.3 5  126   3 
 GRA  SZ IP       2112 59.58                             133     0.010  133   8 
 GRA  SZ ES   3   2113 19.65                             133     0.3 2  133   8 
                                                                                
