 2012  5 3 2003 36.8 L   6.823 -73.150138.9  RSN 15 0.4 3.0LRSN                1
 GAP=135        0.93       3.2     3.8  5.8 -0.2247E+01  0.6828E+01  0.2065E+01E
 Epicentro: LOS SANTOS - SANTANDER                                             3
 ACTION:UP  12-07-05 12:01 OP:pat  STATUS:               ID:20120503200336 L   I
 2012-05-03-2000-00M.COL___189                                                 6
 STAT SP IPHASW D HRMM SECON CODA AMPLIT PERI AZIMU VELO SNR AR TRES W  DIS CAZ7
 BAR2 SZ EP   1   20 3 55.83                             169     0.2 7   26 188 
 BAR2 SZ ES   1   20 4 10.41                             169     0.0 7   26 188 
 BAR2 SZ I        20 4 11.72       348.4 0.28                            26 188 
 BRR  HZ EP       20 3 57.65                             152     0.510   70 297 
 BRR  HZ I        20 3 57.95       304.9 0.21                            70 297 
 BRR  HN ES   1   20 4 13.07                             152     0.1 7   70 297 
 PAM  SZ EP       20 3 58.58                             150     0.410   76  41 
 PAM  SZ I        20 3 58.90       152.6 0.26                            76  41 
 PAM  SN ES   1   20 4 15.10                             150     0.2 7   76  41 
 RUS  HZ EP   1   20 3 59.78                             142    -0.3 7  103 176 
 RUS  HN ES   1   20 4 17.46                             142    -0.8 7  103 176 
 RUS  HZ I        20 4 19.42        99.0 0.19                           103 176 
 PTB  HZ EP   1   20 4  2.43                             130    -0.8 7  148 258 
 PTB  HN ES   1   20 4 23.52                             130    -0.3 7  148 258 
 PTB  HZ I        20 4 26.74        71.1 0.18                           148 258 
 ZAR  HZ EP   1   20 4  8.54                             121    -0.1 6  203 292 
 ZAR  HN ES   1   20 4 33.87                             121     0.3 6  203 292 
 ZAR  HZ I        20 4 40.39       173.4 0.36                           203 292 
 NOR  SZ EP   1   20 4 12.20                             117    -0.1 6  236 234 
 NOR  SN ES       20 4 39.84                             117    -0.1 8  236 234 
 CHI  HZ EP   1   20 4 13.96                             115    -0.4 6  251 195 
 CHI  HN ES   1   20 4 43.79                             115     0.1 6  251 195 
 CHI  HZ I        20 4 50.10        48.9 0.26                           251 195 
 ROSC BZ EP   1   20 4 15.59                             115     0.8 6  255 211 
 ROSC BN ES   1   20 4 44.47                             115     0.1 6  255 211 
 ROSC BZ I        20 4 52.57        65.4 0.14                           255 211 
 HEL  HZ EP   1   20 4 16.97                             113     0.3 6  272 255 
 HEL  HE ES       20 4 48.24                             113     0.4 8  272 255 
 HEL  HZ I        20 4 54.20        42.9 0.53                           272 255 
 URE  HN ES   1   20 4 48.06                             112    -1.0 6  282 291 
 URE  HZ I        20 5  2.10        77.8 0.17                           282 291 
 GUY  SZ EP   1   20 4 20.46                             111     0.0 5  305 235 
 GUY  SN ES   1   20 4 54.79                             111     0.2 5  305 235 
 RREF HZ EP   1   20 4 23.22                             109     0.4 5  323 229 
 RREF HN ES   1   20 4 58.48                             109    -0.2 5  323 229 
 RREF HZ I        20 5  7.49        59.5 0.32                           323 229 
 COD  HZ EP   1   20 4 23.68                             108    -0.9 5  346 355 
 COD  HN ES   1   20 5  1.49                             108    -0.4 5  346 355 
 PRA  HZ EP   1   20 4 30.02                             105    -0.3 4  394 209 
 PRA  HN ES   1   20 5 12.39                             105     0.3 4  394 209 
                                                                                
