 2017  6 3 2025 16.9 L   6.807 -73.150147.8  RSN  8 0.3 2.1LRSN                1
 GAP=213        0.98       4.5     4.6  6.7  0.1067E+02 -0.1750E+00  0.2211E+01E
 Epicentro: LOS SANTOS - SANTANDER                                             3
 ACTION:UPD 17-09-14 16:49 OP:jn   STATUS:               ID:20170603202516 L   I
 OLDACT:REG 17-06-04 08:14 OP:lv   STATUS:               ID:20170603201737     3
 2017-06-03-2018-00M.COL___362                                                 6
 STAT SP IPHASW D HRMM SECON CODA AMPLIT PERI AZIMU VELO AIN AR TRES W  DIS CAZ7
 BRR  HZ EP       2025 38.28                             153    0.0110 70.4 298 
 BRR  HE ES       2025 55.18                             153    0.2710 70.4 298 
 BRR  HZ I        2025 59.37        19.1 0.15            156           70.4 298 
 RUS  HZ EP       2025 40.52                             144   -0.4410  101 176 
 RUS  HN ES       2025 59.22                             144   -0.4710  101 176 
 PTB  HZ EP   9   2025 43.26                             132   -0.79 0  147 258 
 PTB  HN ES       2026  3.52                                   -0.88 9  147 258 
 PTB  HZ I        2026  6.89        10.6 0.19            136            147 258 
 YPLC HZ EP       2025 46.95                             126   -0.03 9  178 151 
 YPLC HN ES       2026 10.98                             126    0.57 9  178 151 
 YPLC HZ I        2026 13.96        24.1 0.05            129            178 151 
 ZAR  HZ EP       2025 49.19                             122   -0.26 9  203 292 
 ZAR  HN ES       2026 14.86                             122    0.06 9  203 292 
 NOR  HZ EP       2025 52.85                             119    0.05 8  235 234 
 NOR  HN ES       2026 20.38                             119   -0.39 8  235 234 
 CHI  HZ EP       2025 55.21                             117    0.38 8  249 195 
 CHI  HN ES       2026 24.63                             117    0.25 8  249 195 
 HEL  HN ES   1   2026 29.20                             115    0.54 6  272 256 
                                                                                
