 2010  8 3 2205  7.8 L   7.498 -73.052156.5  RSN  4 0.2 1.7LRSN                1
 GAP=160        0.55       6.1    11.6 12.9 -0.2260E+01 -0.8252E+02  0.1272E+02E
 Epicentro: SURATA - SANTANDER                                                 3
 ACTION:UP  10-09-07 10:51 OP:vdl  STATUS:               ID:20100803220508 L   I
 2010-08-03-2201-50S.COL___125                                                 6
 STAT SP IPHASW D HRMM SECON CODA AMPLIT PERI AZIMU VELO SNR AR TRES W  DIS CAZ7
 GUE  SZ EP   1   22 5 29.25                             165     0.1 7   39  21 
 BRR  HZ EP       22 5 30.60                             150    -0.210   85 239 
 BRR  HE ES   2   22 5 49.09                             150     0.3 5   85 239 
 BRR  HZ I        22 5 52.77        13.3 0.17                            85 239 
 BAR2 SZ IP       22 5 32.28                             145     0.010  101 188 
 BAR2 SZ I        22 5 54.47         6.5 0.14                           101 188 
 RUS  HZ EP       22 5 39.19                             129     0.2 9  178 181 
 RUS  HZ I        22 5 39.40         2.6 0.22                           178 181 
 RUS  HN ES   2   22 6  2.95                             129    -0.4 4  178 181 
                                                                                
