 2013 10 3 2357 25.4 L   6.773 -73.165148.0  RSN  9 0.4 1.8LRSN                1
 GAP=135        0.91       3.7     4.0  6.4 -0.1994E+01  0.7828E+01 -0.8998E+00E
 Epicentro: LOS SANTOS - SANTANDER                                             3
 ACTION:UPD 13-11-25 09:19 OP:ep   STATUS:               ID:20131003235725 L   I
 OLDACT:DUP 13-10-04 01:00 OP:jn   STATUS:               ID:20131003234960d    3
 OLDACT:REG 13-10-03 21:52 OP:jn   STATUS:               ID:20131003234959     3
 2013-10-03-2349-59M.COL___273                                                 6
 STAT SP IPHASW D HRMM SECON CODA AMPLIT PERI AZIMU VELO AIN AR TRES W  DIS CAZ7
 BAR2 SZ ES       2358  0.33                             172   -0.3410 20.1 185 
 BAR2 SZ I        2358  3.39        18.2 0.36            172           20.1 185 
 BRR  HZ EP       2357 47.20                             153    0.4710 70.8 301 
 BRR  HN ES   1   2358  4.25                             153    0.86 7 70.8 301 
 BRR  HZ I        2358  9.63         9.0 0.24            155           70.8 301 
 PAM  SZ EP       2357 47.92                             150   -0.1110 81.1  39 
 PAM  SN ES       2358  5.34                             150   -0.3810 81.1  39 
 PAM  SZ I        2358  7.93         7.7 0.52            155           81.1  39 
 RUS  HZ EP       2357 49.21                             145    0.0810 97.8 175 
 RUS  HN ES       2358  7.98                             145    0.3110 97.8 175 
 RUS  HZ I        2358 10.61         5.6 0.34            148           97.8 175 
 PTB  HZ EP       2357 51.83                             133   -0.44 9  145 260 
 PTB  HN ES       2358 13.19                             133   -0.06 9  145 260 
 PTB  HZ I        2358 15.26         9.2 0.12            136            145 260 
 SPBC HZ EP       2357 54.03                             130    0.35 9  159 219 
 SPBC HN ES       2358 15.56                             130   -0.21 9  159 219 
 SPBC HZ I        2358 21.94         9.0 0.12            133            159 219 
 ZAR  HE ES   1   2358 23.41                             123    0.20 6  203 293 
 SML  HE ES   1   2358 31.13                             118    0.01 6  246 336 
 HEL  HN ES   1   2358 35.77                             115   -0.81 6  269 256 
                                                                                
