 2010 10 3 2333 21.1 L   6.739 -73.212142.3  RSN  4 0.5 1.3LRSN                1
 GAP=155        0.59       6.6    16.5 12.0  0.6170E+02 -0.1282E+03 -0.5664E+02E
 Epicentro: VILLANUEVA - SANTANDER                                             3
 ACTION:UP  11-02-18 11:07 OP:tino STATUS:               ID:20101003233321 L   I
 2010-10-03-2330-55S.COL___122                                                 6
 STAT SP IPHASW D HRMM SECON CODA AMPLIT PERI AZIMU VELO SNR AR TRES W  DIS CAZ7
 BAR2 SZ EP   3   2333 38.84                             173    -1.4 3   17 169 
 BAR2 SZ ES   2   2333 55.15                             173     0.0 5   17 169 
 BAR2 SZ I        2333 56.36         7.1 0.12                            17 169 
 BRR  HZ EP   3   2333 42.89                             153     1.1 3   69 306 
 BRR  HE ES   2   2333 57.73                             153    -0.1 5   69 306 
 RUS  HZ EP   2   2333 43.89                             145    -0.2 5   95 171 
 RUS  HE ES   1   2334  2.16                             145     0.1 8   95 171 
 RUS  HZ I        2334  4.42         2.0 0.40                            95 171 
 GUE  SZ EP       2333 46.26                             137     0.010  125  15 
                                                                                
