 2017 11 3 2331 46.8 L   6.796 -73.157145.0  RSN 12 0.6 1.6LRSN                1
 GAP=111        1.49       5.0     5.1  7.9  0.3272E+01  0.1140E+02  0.1339E+02E
 Epicentro: LOS SANTOS - SANTANDER                                             3
 ACTION:UPD 17-12-12 19:51 OP:rebc STATUS:               ID:20171103233146 L   I
 OLDACT:REG 17-11-04 05:47 OP:osc  STATUS:               ID:20171103232742     3
 2017-11-03-2328-00M.COL___429                                                 6
 STAT SP IPHASW D HRMM SECON CODA AMPLIT PERI AZIMU VELO AIN AR TRES W  DIS CAZ7
 BAR2 EZ EP       2332  5.95                             171   -0.3410 22.7 187 
 BAR2 EZ ES       2332 21.36                             171   -0.1610 22.7 187 
 BAR2 EZ I        2332 22.59        10.1 0.16            169           22.7 187 
 BRR  HZ EP       2332  7.87                             153    0.0910 70.3 299 
 BRR  HN ES       2332 24.98                             153    0.8110 70.3 299 
 PAM  EZ EP       2332  8.95                             150   -0.0210 78.6  40 
 PAM  EN ES       2332 26.03                             150   -0.2610 78.6  40 
 PAM  EZ I        2332 30.53         6.0 0.50            154           78.6  40 
 RUS  HZ EP       2332  9.97                             144   -0.4510  100 175 
 RUS  HN ES       2332 28.88                             144    0.0210  100 175 
 RUS  HZ I        2332 30.71         4.0 0.22            145            100 175 
 PTB  HZ EP       2332 12.37                             132   -1.18 9  146 259 
 PTB  HN ES       2332 33.86                             132   -0.58 9  146 259 
 PTB  HZ I        2332 38.87         3.7 0.10            133            146 259 
 YPLC HZ EP       2332 16.41                             126   -0.12 9  177 151 
 YPLC HE ES       2332 40.63                             126    0.89 9  177 151 
 YPLC HZ I        2332 44.05         6.2 0.48            129            177 151 
 ZAR  HZ EP       2332 18.72                             122   -0.34 9  203 292 
 ZAR  HE ES       2332 44.95                             122    0.70 9  203 292 
 ZAR  HZ I        2332 51.94         4.7 0.52            124            203 292 
 NOR  HZ EP       2332 22.12                             118   -0.19 8  233 234 
 NOR  HN ES       2332 50.41                             118    0.37 8  233 234 
 NOR  HZ I        2332 57.92         3.5 0.14            120            233 234 
 CHI  HZ EP       2332 24.16                             117   -0.18 8  248 195 
 CHI  HN ES       2332 53.18                             117   -0.46 8  248 195 
 CHI  HZ I        2332 59.42         1.9 0.62            119            248 195 
 ROSC BZ EP       2332 26.67                             117    1.94 8  252 211 
 GUY2CHZ EP       2332 31.09                             112    0.90 7  300 235 
 GUY2CHE ES       2333  3.85                             112   -0.21 7  300 235 
 GUY2CHZ I        2333 11.19         2.3 0.54                           300 235 
 PRA  HZ EP       2332 40.03                             106   -0.11 6  391 209 
 PRA  HE ES       2333 21.02                             106   -0.75 6  391 209 
                                                                                
