 2012 12 3 2232 20.0 L   6.787 -73.185143.3  RSN  4 0.2 1.7LRSN                1
 GAP=142        0.46       3.4     3.5  4.9 -0.5183E+01  0.4782E+01 -0.1549E+01E
 Epicentro: LOS SANTOS - SANTANDER                                             3
 ACTION:UPD 13-01-04 14:25 OP:ep   STATUS:               ID:20121203223220 L   I
 2012-12-03-2230-00M.COL___232                                                 6
 STAT SP IPHASW D HRMM SECON CODA AMPLIT PERI AZIMU VELO AIN AR TRES W  DIS CAZ7
 BAR2 SZ ES   1   2232 54.70                             171    0.36 7 21.5 179 
 BAR2 SZ I        2232 57.28        12.5 0.29                          21.5 179 
 PAM  SZ EP       2232 42.23                             149    0.0410 81.3  41 
 PAM  SZ I        2232 42.40         9.7 0.23                          81.3  41 
 PAM  SN ES       2232 59.37                             149   -0.1310 81.3  41 
 RUS  HZ EP   1   2232 43.43                             144    0.01 7 99.5 173 
 RUS  HE ES   1   2233  1.50                             144   -0.20 7 99.5 173 
 RUS  HE I        2233  3.07         8.1 0.48                          99.5 173 
 PTB  HZ EP   1   2232 46.52                             132    0.18 7  143 259 
 PTB  HN ES   1   2233  6.70                             132   -0.19 7  143 259 
 PTB  HZ I        2233 13.27         5.2 0.24                           143 259 
                                                                                
