 2010  9 3 2137 23.5 L   6.760 -73.090138.8  RSN  8 0.4 2.1LRSN                1
 GAP=165        0.89       4.4     8.1  8.0 -0.9613E+00 -0.1449E+02  0.3445E+00E
 Epicentro: LOS SANTOS - SANTANDER                                             3
 ACTION:UP  11-02-18 10:59 OP:tino STATUS:               ID:20100903213723 L   I
 2010-09-03-2133-37S.COL___120                                                 6
 STAT SP IPHASW D HRMM SECON CODA AMPLIT PERI AZIMU VELO SNR AR TRES W  DIS CAZ7
 BAR2 SZ ES   1   2137 56.65                             171    -0.2 7   21 209 
 BAR2 SZ I        2137 58.53        32.7 0.44                            21 209 
 BRR  HZ EP       2137 44.17                             149    -0.210   79 299 
 BRR  HN ES       2138  0.85                             149     0.210   79 299 
 BRR  HZ I        2138  5.58        29.7 0.34                            79 299 
 RUS  HZ EP       2137 46.20                             144     0.010   96 180 
 RUS  HN ES   1   2138  4.11                             144     0.2 7   96 180 
 RUS  HZ I        2138  5.75        12.5 0.28                            96 180 
 GUE  SZ EP   1   2137 47.35                             137    -0.5 7  120   9 
 GUE  SZ I        2137 48.64         5.8 0.10                           120   9 
 GUE  SZ ES   2   2138  6.18                             137    -0.6 5  120   9 
 GRA  SZ EP   1   2137 49.18                             135     0.8 7  128  14 
 GRA  SZ I        2138  9.50        19.2 0.63                           128  14 
 CHI  HN ES   2   2138 29.37                             116     0.0 4  246 197 
 GUY  SE ES   2   2138 41.00                             111    -0.1 4  304 236 
 GUY  SZ I        2138 46.86        12.1 0.91                           304 236 
 PRA  HN ES   2   2138 57.96                             105    -0.2 3  391 211 
 PRA  HZ I        2139  3.95         6.3 0.39                           391 211 
                                                                                
