 2013  5 3 2056 43.2 L   6.740 -73.200150.4  RSN  4 0.1 1.7LRSN                1
 GAP=226        0.37       3.3     3.0  4.2  0.4908E+01 -0.1944E+01 -0.3310E+01E
 Epicentro: VILLANUEVA - SANTANDER                                             3
 ACTION:UPD 13-06-20 09:47 OP:ep   STATUS:               ID:20130503205643 L   I
 2013-05-03-2050-00M.COL___253                                                 6
 STAT SP IPHASW D HRMM SECON CODA AMPLIT PERI AZIMU VELO AIN AR TRES W  DIS CAZ7
 BAR2 SZ EP       2057  3.07                             173   -0.2110 16.4 173 
 BAR2 SZ I        2057 19.08        18.0 0.30            171           16.4 173 
 BRR  HZ EP       2057  4.89                             154    0.1110 69.7 306 
 BRR  HN ES   1   2057 21.65                             154    0.05 7 69.7 306 
 BRR  HZ I        2057 24.69        13.6 0.46            152           69.7 306 
 RUS  HZ EP       2057  7.10                             146    0.1010 94.5 172 
 RUS  HN ES       2057 25.58                             146    0.0210 94.5 172 
 RUS  HZ I        2057 26.70         3.7 0.24            150           94.5 172 
 PTB  HZ EP       2057  9.92                             134   -0.02 9  141 261 
 PTB  HN ES       2057 30.75                             134   -0.04 9  141 261 
 PTB  HZ I        2057 33.92         6.6 0.18            138            141 261 
                                                                                
