 2016  9 3 2127 42.7 L   6.771 -73.121145.7  RSN  7 0.4 1.7LRSN                1
 GAP=141        0.92       4.1     3.9  5.8 -0.8075E+00  0.7267E+01  0.1212E+01E
 Epicentro: LOS SANTOS - SANTANDER                                             3
 ACTION:UPD 17-08-17 21:06 OP:lp   STATUS:               ID:20160903212742 L   I
 OLDACT:UP  16-09-04 08:22 OP:and  STATUS:               ID:20160903211729d    3
 OLDACT:UP  16-09-04 08:20 OP:and  STATUS:               ID:20160903211729d    3
 OLDACT:DUP 16-09-04 08:03 OP:and  STATUS:               ID:20160903211729d    3
 OLDACT:REG 16-09-04 03:37 OP:and  STATUS:               ID:20160903211728     3
 2016-09-03-2118-00M.COL___355                                                 6
 STAT SP IPHASW D HRMM SECON CODA AMPLIT PERI AZIMU VELO AIN AR TRES W  DIS CAZ7
 BAR2 EZ IP       2128  2.29                             171    0.0010 20.8 199 
 BAR2 EZ ES       2128 17.04                             171   -0.5110 20.8 199 
 BRR  HZ IP       2128  4.20                             151    0.1210 75.1 300 
 BRR  HN ES       2128 21.28                             151    0.5310 75.1 300 
 PAM  EZ EP       2128  5.12                             151    0.1510 78.3  37 
 PAM  EE ES       2128 22.20                             151   -0.1410 78.3  37 
 PAM  EZ I        2128 25.31         7.5 0.44            152           78.3  37 
 RUS  HZ EP       2128  6.10                             145   -0.1110 97.2 178 
 RUS  HN ES       2128 25.00                             145    0.4510 97.2 178 
 RUS  HZ I        2128 25.70         4.8 0.20            147           97.2 178 
 PTB  HZ EP       2128  9.18                             132   -0.68 9  150 260 
 PTB  HE ES       2128 30.56                             132   -0.48 9  150 260 
 ZAR  HZ EP       2128 15.47                             122   -0.07 8  208 293 
 ZAR  HN ES       2128 41.42                             122    0.28 8  208 293 
 ZAR  HZ I        2128 46.72        10.8 0.26            122            208 293 
 NOR  HZ EP       2128 18.84                             118    0.37 8  235 235 
 NOR  HE ES       2128 46.53                             118    0.17 8  235 235 
 NOR  HZ I        2128 50.60         4.9 0.07            119            235 235 
                                                                                
