 2015  5 3 2347 15.4 L   6.779 -73.114147.7  RSN  6 0.2 1.4LRSN                1
 GAP=142        0.41       2.2     2.5  3.8  0.1490E+00  0.1240E+01 -0.4371E+00E
 Epicentro: LOS SANTOS - SANTANDER                                             3
 ACTION:UPD 15-09-10 22:01 OP:cam  STATUS:               ID:20150503234715 L   I
 OLDACT:REG 15-05-04 04:37 OP:spq  STATUS:               ID:20150503233750     3
 2015-05-03-2337-50M.COL___274                                                 6
 STAT SP IPHASW D HRMM SECON CODA AMPLIT PERI AZIMU VELO AIN AR TRES W  DIS CAZ7
 BAR2 EZ ES   1   2347 50.65                             171   -0.04 7 21.9 200 
 BAR2 EZ I        2347 51.42         7.5 0.18            169           21.9 200 
 BRR  HZ EP       2347 36.91                             151   -0.0710 75.4 299 
 BRR  HN ES       2347 54.00                             151    0.1810 75.4 299 
 BRR  HZ I        2347 56.41         3.6 0.24            147           75.4 299 
 PAM  SZ EP       2347 37.93                             151    0.1410 77.1  36 
 PAM  SE ES   1   2347 55.21                             151   -0.06 7 77.1  36 
 PAM  SZ I        2347 57.30         3.3 0.68            153           77.1  36 
 RUS  HZ EP   1   2347 39.11                             145   -0.04 7 98.1 178 
 RUS  HE ES       2347 57.59                             145   -0.0910 98.1 178 
 RUS  HZ I        2347 58.84         3.1 0.30            146           98.1 178 
 ZAR  HE ES   1   2348 13.72                             122   -0.39 6  208 292 
 ZAR  HZ I        2348 22.12         2.8 0.36            120            208 292 
 NOR  HE ES   1   2348 19.70                             119    0.23 6  236 235 
 NOR  HZ I        2348 24.31         2.3 0.16            118            236 235 
                                                                                
