 2014  3 3 2036 36.2 L   6.762 -73.155147.2  RSN  6 0.4 1.8LRSN                1
 GAP=137        0.89       4.5     4.0  6.3  0.1891E+01  0.4997E+01 -0.1172E+01E
 Epicentro: LOS SANTOS - SANTANDER                                             3
 ACTION:UPD 14-04-09 23:14 OP:nd   STATUS:               ID:20140303203636 L   I
 OLDACT:UP  14-03-03 22:38 OP:cam  STATUS:               ID:20140303202818     3
 OLDACT:REG 14-03-03 22:26 OP:cam  STATUS:               ID:20140303202818     3
 2014-03-03-2028-18M.COL___235                                                 6
 STAT SP IPHASW D HRMM SECON CODA AMPLIT PERI AZIMU VELO AIN AR TRES W  DIS CAZ7
 BAR2 SZ EP       2036 56.01                             172    0.0710 19.0 189 
 BAR2 SZ ES       2037 11.05                             172   -0.2810 19.0 189 
 BAR2 SZ I        2037 12.02        27.3 0.20            173           19.0 189 
 BRR  HZ EP       2036 57.95                             152    0.3610 72.4 302 
 BRR  HN ES       2037 14.94                             152    0.6810 72.4 302 
 BRR  HZ I        2037 18.01        17.9 0.28            151           72.4 302 
 PAM  SZ EP       2036 58.90                             150    0.0710 81.4  38 
 PAM  SN ES       2037 16.03                             150   -0.4310 81.4  38 
 PAM  SZ I        2037 18.19         8.0 0.62            151           81.4  38 
 RUS  HZ EP       2037  0.03                             145    0.2110 96.4 175 
 RUS  HN ES       2037 18.35                             145    0.1210 96.4 175 
 RUS  HZ I        2037 19.68         4.5 0.30            148           96.4 175 
 PTB  HZ EP   1   2037  2.61                             133   -0.53 7  146 260 
 PTB  HN ES       2037 23.69                             133   -0.45 9  146 260 
 PTB  HZ I        2037 26.03         8.8 0.12            133            146 260 
 ZAR  HZ EP   1   2037  8.49                             123   -0.34 6  205 293 
 ZAR  HN ES       2037 34.26                             123   -0.00 9  205 293 
 ZAR  HZ I        2037 40.57         8.7 0.34            123            205 293 
                                                                                
