 2015  5 3 2138  9.6 L   6.818 -73.143151.4  RSN  6 0.3 1.5LRSN                1
 GAP=136        0.71       3.3     4.4  6.4  0.1951E+01  0.3994E+01  0.6219E+01E
 Epicentro: LOS SANTOS - SANTANDER                                             3
 ACTION:UPD 15-09-10 22:01 OP:cam  STATUS:               ID:20150503213809 L   I
 OLDACT:REG 15-05-04 04:25 OP:spq  STATUS:               ID:20150503212748     3
 2015-05-03-2127-48M.COL___274                                                 6
 STAT SP IPHASW D HRMM SECON CODA AMPLIT PERI AZIMU VELO AIN AR TRES W  DIS CAZ7
 BRR  HZ EP       2138 31.50                             154    0.1310 70.5 297 
 BRR  HE ES       2138 48.68                             154    0.3710 70.5 297 
 BRR  HZ I        2138 52.59         5.2 0.25            152           70.5 297 
 PAM  SZ EP       2138 32.68                             152    0.3210 75.7  40 
 PAM  SN ES       2138 49.89                             152   -0.1910 75.7  40 
 PAM  SZ I        2138 52.72         4.1 0.30            156           75.7  40 
 RUS  HZ EP       2138 33.88                             144   -0.2110  103 176 
 RUS  HN ES   1   2138 52.91                             144   -0.25 7  103 176 
 RUS  HZ I        2138 54.35         2.8 0.28            147            103 176 
 ZAR  HE ES   1   2139  7.65                             124   -0.32 6  204 292 
 ZAR  HZ I        2139 13.16         3.6 0.38            124            204 292 
 SML  HE ES   1   2139 14.44                             119   -0.65 6  242 335 
 SML  HZ I        2139 18.01         6.9 0.08            120            242 335 
 CHI  HZ EP   1   2138 48.31                             118    0.44 6  251 195 
 CHI  HE ES   1   2139 17.47                             118   -0.22 6  251 195 
 CHI  HZ I        2139 20.09         1.4 0.28            120            251 195 
                                                                                
