 2017  9 3 2008  2.1 L   6.797 -73.133147.4  RSN  4 0.2 1.2LRSN                1
 GAP=138        0.44       2.9     4.3  4.2 -0.2147E+00 -0.1146E+01  0.3802E+00E
 Epicentro: LOS SANTOS - SANTANDER                                             3
 ACTION:UPD 17-10-05 19:08 OP:rebc STATUS:               ID:20170903200802 L   I
 OLDACT:DUP 17-09-04 04:30 OP:mg   STATUS:               ID:20170903195741d    3
 OLDACT:UP  17-09-04 04:28 OP:mg   STATUS:               ID:20170903195740     3
 OLDACT:REG 17-09-04 03:19 OP:mg   STATUS:               ID:20170903195740     3
 2017-09-03-1958-00M.COL___417                                                 6
 STAT SP IPHASW D HRMM SECON CODA AMPLIT PERI AZIMU VELO AIN AR TRES W  DIS CAZ7
 BAR2 EZ EP   1   20 8 21.70                             171   -0.19 7 23.3 194 
 BAR2 EZ ES   1   20 8 37.67                             171    0.32 7 23.3 194 
 BAR2 EZ I        20 8 39.38         2.7 0.21            170           23.3 194 
 BRR  HZ EP       20 8 23.52                             152    0.0410 72.7 298 
 BRR  HE ES   1   20 8 40.04                             152   -0.13 7 72.7 298 
 BRR  HZ I        20 8 41.17        10.0 0.50            157           72.7 298 
 PAM  EZ EP       20 8 24.59                             151    0.1710 76.8  39 
 PAM  EN ES   1   20 8 41.64                             151   -0.21 7 76.8  39 
 PAM  EZ I        20 8 44.62         1.8 0.48            153           76.8  39 
 RUS  HZ EP       20 8 25.91                             144   -0.0410  100 177 
 RUS  HN ES   1   20 8 44.47                             144   -0.10 7  100 177 
 RUS  HZ I        20 8 47.75         2.0 0.40            146            100 177 
                                                                                
