 2011  1 3 2350  6.9 L   6.714 -72.750138.0  RSN  5 0.3 1.7LRSN                1
 GAP=205        0.83       5.3    23.0 12.7 -0.4087E+02 -0.2027E+03  0.1963E+02E
 Epicentro: MALAGA - SANTANDER                                                 3
 ACTION:UP  11-02-08 08:38 OP:pat  STATUS:               ID:20110103235006 L   I
 2011-01-03-2340-00M.COL___137                                                 6
 STAT SP IPHASW D HRMM SECON CODA AMPLIT PERI AZIMU VELO SNR AR TRES W  DIS CAZ7
 BAR2 SZ IP       2350 26.06                             158    -0.410   50 254 
 BAR2 SZ I        2350 26.18        15.9 0.27                            50 254 
 BAR2 SZ ES   1   2350 41.82                             158     0.1 7   50 254 
 BTL  SZ IP       2350 27.52                             154     0.510   62 292 
 BTL  SZ ES   1   2350 42.67                             154    -0.1 7   62 292 
 GIR2 SZ EP   2   2350 26.23                             153    -0.8 5   63 309 
 RUS  HZ EP       2350 29.90                             142     0.210   98 202 
 RUS  HN ES   1   2350 47.44                             142    -0.1 7   98 202 
 RUS  HZ I        2350 49.85         5.6 0.25                            98 202 
 GRA  SZ ES   1   2350 51.25                             134     0.0 7  130 357 
                                                                                
