 2017  4 3 2013 34.6 L   6.740 -73.172143.6  RSN  6 0.5 1.8LRSN                1
 GAP=136        1.28       6.3     5.6  8.7  0.3655E+01  0.1242E+02 -0.2819E+01E
 Epicentro: VILLANUEVA - SANTANDER                                             3
 ACTION:UPD 17-05-30 21:08 OP:jn   STATUS:               ID:20170403201334 L   I
 OLDACT:REG 17-04-04 02:41 OP:lv   STATUS:               ID:20170403200744     3
 2017-04-03-2008-00M.COL___362                                                 6
 STAT SP IPHASW D HRMM SECON CODA AMPLIT PERI AZIMU VELO AIN AR TRES W  DIS CAZ7
 BAR2 EZ EP       2013 53.98                             173    0.1610 16.4 184 
 BAR2 EZ ES       2014  8.38                             173   -0.4510 16.4 184 
 BAR2 EZ I        2014  9.56        26.4 0.20            173           16.4 184 
 BRR  HZ EP       2013 55.95                             152    0.4110 72.2 304 
 BRR  HE ES       2014 12.88                             152    0.9810 72.2 304 
 PAM  EZ EP       2013 56.99                             148    0.0010 84.4  38 
 PAM  EN ES       2014 13.93                             148   -0.5510 84.4  38 
 PAM  EZ I        2014 16.12        13.1 0.49            150           84.4  38 
 RUS  HZ EP       2013 58.29                             145    0.6410 94.2 174 
 RUS  HN ES       2014 15.60                             145   -0.0610 94.2 174 
 RUS  HZ I        2014 18.03         5.9 0.25            146           94.2 174 
 PTB  HZ EP       2014  0.63                             132   -0.36 9  144 261 
 PTB  HN ES       2014 21.06                             132   -0.55 9  144 261 
 PTB  HZ I        2014 23.96         8.5 0.17            133            144 261 
 ZAR  HZ EP       2014  6.25                             122   -0.62 9  204 294 
 ZAR  HN ES       2014 32.20                             122    0.14 9  204 294 
 ZAR  HZ I        2014 34.26         4.8 0.12            123            204 294 
                                                                                
