 2012  7 3 2331 55.2 L   6.795 -73.163150.2  RSN  6 0.3 2.1LRSN                1
 GAP=135        0.77       5.8     5.3  6.9  0.1109E+02  0.5951E+00 -0.7598E+01E
 Epicentro: LOS SANTOS - SANTANDER                                             3
 ACTION:UPD 12-08-14 11:42 OP:ep   STATUS:               ID:20120703233155 L   I
 2012-07-03-2330-00M.COL___201                                                 6
 STAT SP IPHASW D HRMM SECON CODA AMPLIT PERI AZIMU VELO AIN AR TRES W  DIS CAZ7
 BAR2 SZ EP   1   2332 15.27                             171    -0.1 7   22 185 
 BAR2 SZ ES   1   2332 30.51                             171    -0.5 7   22 185 
 BAR2 SZ I        2332 32.30        23.0 0.12            173             22 185 
 BRR  HZ IP     D 2332 16.91                             154     0.210   70 300 
 BRR  HN ES   1   2332 33.69                             154     0.1 7   70 300 
 BRR  HZ I        2332 35.21        25.9 0.14            154             70 300 
 PAM  SZ EP       2332 17.98                             151     0.010   79  40 
 RUS  HZ EP       2332 19.48                             145     0.110  100 175 
 RUS  HE ES   1   2332 38.61                             145     0.4 7  100 175 
 PTB  HZ EP       2332 21.74                             133    -0.6 9  146 259 
 PTB  HN ES   2   2332 43.45                             133    -0.1 5  146 259 
 ZAR  HZ EP   1   2332 27.87                             124     0.1 6  203 292 
 ZAR  HE ES   1   2332 53.61                             124     0.4 6  203 292 
