 2017  3 3 2101 42.2 L   6.817 -73.171146.3  RSN  7 0.3 1.9LRSN                1
 GAP=133        0.81       3.5     3.8  5.7  0.1472E+00  0.6922E+01  0.3999E+01E
 Epicentro: LOS SANTOS - SANTANDER                                             3
 ACTION:UPD 17-05-25 18:35 OP:jn   STATUS:               ID:20170303210142 L   I
 OLDACT:REG 17-03-04 05:56 OP:cog  STATUS:               ID:20170303205747     3
 2017-03-03-2058-00M.COL___396                                                 6
 STAT SP IPHASW D HRMM SECON CODA AMPLIT PERI AZIMU VELO AIN AR TRES W  DIS CAZ7
 BAR2 EZ EP       21 2  1.74                             170   -0.1510 24.9 183 
 BAR2 EZ ES       21 2 17.01                             170   -0.2710 24.9 183 
 BAR2 EZ I        21 2 18.21        34.0 0.44            164           24.9 183 
 PAM  EZ EP       21 2  4.64                             151    0.1810 77.8  42 
 PAM  EN ES       21 2 22.17                             151    0.3110 77.8  42 
 PAM  EZ I        21 2 24.01         8.2 0.48            144           77.8  42 
 RUS  HZ EP       21 2  5.65                             143   -0.4710  103 175 
 RUS  HE ES       21 2 24.79                             143   -0.0110  103 175 
 RUS  HZ I        21 2 26.05        10.9 0.24            133            103 175 
 PTB  HZ EP       21 2  8.77                             133   -0.19 9  145 258 
 PTB  HE ES       21 2 29.72                             133   -0.14 9  145 258 
 PTB  HZ I        21 2 32.22        10.0 0.12            122            145 258 
 ZAR  HE ES       21 2 39.59                             123    0.22 9  201 292 
 NOR  HZ EP       21 2 17.92                             119    0.13 8  233 234 
 NOR  HZ I        21 2 51.48         6.1 0.18            109            233 234 
 CHI  HZ EP       21 2 19.83                             117   -0.17 8  250 194 
 CHI  HN ES       21 2 50.42                             117    0.90 8  250 194 
 CHI  HZ I        21 2 57.59         2.9 0.38            108            250 194 
                                                                                
