 2014  1 3 2120 37.2 L   6.820 -73.146150.5  RSN  4 0.4 1.5LRSN                1
 GAP=217        0.96       7.3     6.4  8.2 -0.9591E+01  0.1270E+02 -0.2100E+01E
 Epicentro: LOS SANTOS - SANTANDER                                             3
 ACTION:UPD 14-03-13 09:51 OP:ep   STATUS:               ID:20140103212037 L   I
 OLDACT:REG 14-01-03 21:06 OP:nd   STATUS:               ID:20140103212000     3
 2014-01-03-2120-00M.COL___285                                                 6
 STAT SP IPHASW D HRMM SECON CODA AMPLIT PERI AZIMU VELO AIN AR TRES W  DIS CAZ7
 BRR  HZ EP       2120 59.10                             154    0.2810 70.1 297 
 BRR  HN ES       2121 16.20                             154    0.5310 70.1 297 
 BRR  HZ I        2121 19.57         5.8 0.40            148           70.1 297 
 PAM  SZ EP       2121  0.15                             152    0.3110 75.8  41 
 PAM  SN ES       2121 17.03                             152   -0.4610 75.8  41 
 PAM  SZ I        2121 19.49         5.2 0.52            149           75.8  41 
 PTB  HZ EP       2121  4.22                             133   -0.39 9  148 258 
 PTB  HN ES   2   2121 25.17                             133   -0.80 5  148 258 
 PTB  HZ I        2121 26.51         3.5 0.12            133            148 258 
 SML  HZ EP       2121 14.06                             119    0.16 8  242 335 
 SML  HN ES       2121 42.14                             119   -0.37 8  242 335 
 SML  HZ I        2121 51.20         3.4 0.10            118            242 335 
                                                                                
