 2012  5 3 2157  5.7 L   6.821 -73.337118.0  RSN  7 0.4 1.7LRSN                1
 GAP=103        1.03       4.9     4.9  8.0  0.4359E+01  0.8382E+01  0.1031E+02E
 Epicentro: ZAPATOCA - SANTANDER                                               3
 ACTION:UP  12-07-05 12:02 OP:pat  STATUS:               ID:20120503215705 L   I
 2012-05-03-2150-00M.COL___189                                                 6
 STAT SP IPHASW D HRMM SECON CODA AMPLIT PERI AZIMU VELO SNR AR TRES W  DIS CAZ7
 BAR2 SZ EP   1   2157 22.31                             165     0.1 7   31 146 
 BAR2 SZ ES   1   2157 34.95                             165    -0.1 7   31 146 
 BRR  HZ EP   1   2157 22.85                             155     0.1 7   52 307 
 BRR  HN ES       2157 36.65                             155     0.610   52 307 
 BRR  HZ I        2157 37.63        29.0 0.12                            52 307 
 PAM  SZ EP   1   2157 25.79                             141    -0.2 7   91  51 
 PAM  SN ES   1   2157 41.46                             141    -0.4 7   91  51 
 PAM  SZ I        2157 44.72         9.9 0.34                            91  51 
 RUS  HZ EP   1   2157 27.40                             136     0.1 7  106 165 
 RUS  HE ES   1   2157 44.57                             136     0.4 7  106 165 
 RUS  HZ I        2157 46.99         7.7 0.29                           106 165 
 PTB  HZ EP   1   2157 27.79                             130    -0.8 7  128 256 
 PTB  HN ES   1   2157 45.65                             130    -0.8 7  128 256 
 PTB  HZ I        2157 48.90         8.6 0.10                           128 256 
 ZAR  HZ EP   1   2157 34.45                             119     0.2 7  184 294 
 ZAR  HN ES   1   2157 56.92                             119     0.3 7  184 294 
 ZAR  HZ I        2158  2.49         8.3 0.14                           184 294 
 CHI  HZ EP   1   2157 42.30                             111     0.6 6  246 190 
 CHI  HZ I        2157 46.08         3.3 0.07                           246 190 
 CHI  HE ES   1   2158  9.72                             111    -0.1 6  246 190 
                                                                                
