 2012  2 3 2333 18.8 L   6.775 -73.124146.8  RSN  9 0.4 2.0LRSN                1
 GAP=141        0.74       5.1     4.2  7.2 -0.1927E+01  0.4361E+01  0.2246E+02E
 ACTION:UP  12-03-07 16:27 OP:epov STATUS:               ID:20120203233318 L   I
 2012-02-03-2330-00M.COL___188                                                 6
 STAT SP IPHASW D HRMM SECON CODA AMPLIT PERI AZIMU VELO SNR AR TRES W  DIS CAZ7
 BAR2 SZ IP       2333 38.54                             171    0.0010 21.2 198 
 BAR2 SZ I        2333 38.75        38.6 0.40                          21.2 198 
 GIR2 SZ IP       2333 38.67                             166   -0.0410 34.5 347 
 GIR2 SZ ES   1   2333 54.06                             166   -0.16 7 34.5 347 
 BRR  HZ IP     D 2333 40.54                             151    0.2510 74.7 299 
 BRR  HZ I        2333 40.78        27.4 0.26                          74.7 299 
 BRR  HE ES   1   2333 57.34                             151    0.32 7 74.7 299 
 PAM  SZ EP       2333 41.53                             151    0.3410 78.0  37 
 PAM  SN ES   1   2333 58.30                             151   -0.33 7 78.0  37 
 RUS  HZ EP       2333 42.42                             145   -0.0510 97.7 177 
 RUS  HZ I        2333 43.16         8.4 0.22                          97.7 177 
 RUS  HN ES   3   2334  0.74                             145   -0.18 2 97.7 177 
 PTB  HZ EP       2333 45.21                             132   -0.84 9  150 260 
 PTB  HN ES   3   2334  6.17                             132   -1.11 2  150 260 
 PTB  HZ I        2334 10.90        11.4 0.14                           150 260 
 ZAR  HZ EP   3   2333 50.31                             122   -1.37 2  207 293 
 ZAR  HN ES   1   2334 17.53                             122    0.22 6  207 293 
 ZAR  HZ I        2334 22.74        18.2 0.50                           207 293 
 NOR  SZ EP       2333 54.95                             119    0.29 8  235 235 
 NOR  SE ES   1   2334 22.93                             119    0.32 6  235 235 
 CHI  HZ EP       2333 56.46                             117    0.09 8  247 196 
 CHI  HE ES   3   2334 25.71                             117    0.07 2  247 196 
 CHI  HZ I        2334 33.85         3.9 0.50                           247 196 
                                                                                
