 2010  6 3 2209 46.3 L   7.087 -73.180  7.2  RSN  7 0.3 2.3LRSN                1
 GAP=155        0.78       2.0     5.6  2.9 -0.6585E+01 -0.2919E+01 -0.4149E+00E
 Epicentro: GIRON - SANTANDER                                                  3
 ACTION:UP  10-08-24 10:08 OP:vdl  STATUS:               ID:20100603220946 L   I
 2010-06-03-2207-36S.COL___109                                                 6
 STAT SP IPHASW D HRMM SECON CODA AMPLIT PERI AZIMU VELO SNR AR TRES W  DIS CAZ7
 GIR2 SZ IP       22 9 47.73                             167    -0.110    2 239 
 GIR2 SZ ES       22 9 49.24                             167     0.110    2 239 
 BAR2 SZ EP       22 9 55.12                              94    -0.310   55 180 
 BAR2 SZ ES   1   2210  2.50                              94    -0.1 7   55 180 
 GUE  SZ EP       2210  0.95                              92     0.610   87  19 
 GUE  SZ ES   1   2210 11.09                              92    -0.2 7   87  19 
 GRA  SZ EP       2210  1.98                              92     0.210   97  25 
 GRA  SZ ES       2210 13.78                              92    -0.110   97  25 
 OCA  SZ EP   1   2210  6.06                              92    -0.4 7  128 353 
 OCA  SZ ES   1   2210 21.85                              92    -0.4 7  128 353 
 OCA  SZ I        2210 23.84        43.7 0.32                           128 353 
 HEL  HZ EP   2   2210 25.91                              56    -0.5 4  278 249 
 RREF BZ EP   1   2210 35.15                              55     0.6 5  341 225 
 RREF BZ I        2210 45.42         9.3 0.32                           341 225 
 RREF BE ES   2   2211 12.74                              55     0.6 3  341 225 
                                                                                
