 2016  3 3 2309  2.3 L   6.774 -73.171124.4  RSN  5 0.3 1.4LRSN                1
 GAP=135        0.49       3.3     3.6  5.9 -0.2522E+01  0.7759E+01  0.2457E+01E
 Epicentro: LOS SANTOS - SANTANDER                                             3
 ACTION:UPD 16-05-13 21:21 OP:cam  STATUS:               ID:20160303230902 L   I
 OLDACT:REG 16-03-04 04:05 OP:dnl  STATUS:               ID:20160303230746     3
 2016-03-03-2307-46M.COL___331                                                 6
 STAT SP IPHASW D HRMM SECON CODA AMPLIT PERI AZIMU VELO AIN AR TRES W  DIS CAZ7
 BAR2 EZ EP   3   23 9 19.78                             170    0.46 2 20.1 184 
 BAR2 EZ ES   2   23 9 32.80                             170    0.22 5 20.1 184 
 PAM  EZ EP       23 9 22.61                             145    0.0310 81.4  40 
 PAM  EN ES       23 9 38.23                             145   -0.1610 81.4  40 
 PAM  EZ I        23 9 41.44         5.0 0.19            153           81.4  40 
 RUS  HZ EP       23 9 24.01                             139    0.1810 97.9 174 
 RUS  HE ES   2   23 9 40.51                             139   -0.09 5 97.9 174 
 RUS  HZ I        23 9 43.32         2.5 0.30            146           97.9 174 
 PTB  HZ EP   2   23 9 26.83                             127   -0.49 5  144 260 
 PTB  HE ES   2   23 9 46.46                             127   -0.36 5  144 260 
 PTB  HZ I        23 9 52.55         5.0 0.14            129            144 260 
 ZAR  HZ EP   2   23 9 33.03                             117   -0.28 4  203 293 
 ZAR  HN ES   2   23 9 58.18                             117    0.69 4  203 293 
 ZAR  HZ I        2310  4.07         3.1 0.21            120            203 293 
                                                                                
