 2010 10 3 2009 11.1 L   6.784 -73.094137.4  RSN  6 0.4 1.8LRSN                1
 GAP=170        0.48       6.3     7.5  7.4 -0.1633E+02 -0.5294E+01 -0.1513E+02E
 Epicentro: LOS SANTOS - SANTANDER                                             3
 ACTION:UP  11-02-18 11:07 OP:tino STATUS:               ID:20101003200911 L   I
 2010-10-03-2005-56S.COL___122                                                 6
 STAT SP IPHASW D HRMM SECON CODA AMPLIT PERI AZIMU VELO SNR AR TRES W  DIS CAZ7
 BAR2 SZ ES   2   20 9 44.21                             170     0.0 5   23 205 
 BAR2 SZ I        20 9 45.33        17.2 0.31                            23 205 
 BRR  HZ IP     C 20 9 31.52                             149    -0.110   77 298 
 BRR  HE ES   2   20 9 48.08                             149     0.3 5   77 298 
 BRR  HZ I        20 9 52.58        18.6 0.19                            77 298 
 RUS  HZ EP   3   20 9 33.40                             143    -0.4 2   99 179 
 RUS  HN ES   3   20 9 51.97                             143     0.4 2   99 179 
 RUS  HZ I        20 9 54.54         5.6 0.32                            99 179 
 GUE  SZ EP       20 9 35.12                             137     0.110  117   9 
 NOR  SE ES   3   2010 13.96                             117    -0.6 2  238 236 
 RREF HZ EP   3   20 9 58.74                             109     1.5 2  325 230 
 RREF HE ES   3   2010 33.06                             109    -0.2 2  325 230 
 RREF HZ I        2010 40.66         2.6 0.47                           325 230 
                                                                                
