 2010  1 3 2339 47.7 L   6.814 -72.992142.1  RSN 10 0.5 2.2LRSN                1
 GAP=199        1.03       4.1    13.0  8.2 -0.1208E+02  0.4334E+02  0.3834E+00E
 Epicentro: CEPITA - SANTANDER                                                 3
 ACTION:UP  10-08-24 09:42 OP:vdl  STATUS:               ID:20100103233947 L   I
 2010-01-03-2335-34S.COL___097                                                 6
 STAT SP IPHASW D HRMM SECON CODA AMPLIT PERI AZIMU VELO SNR AR TRES W  DIS CAZ7
 BAR2 SZ EP       2340  7.05                             167    -0.110   32 221 
 BAR2 SZ ES   2   2340 21.47                             167    -0.8 5   32 221 
 GIR2 SZ EP       2340  8.12                             165     1.010   37 323 
 GIR2 SZ ES   1   2340 22.77                             165     0.5 7   37 323 
 RUS  BZ EP       2340 11.09                             143    -0.210  102 186 
 RUS  BN ES       2340 29.36                             143    -0.210  102 186 
 RUS  BZ I        2340 31.82        13.8 0.37                           102 186 
 OCA  SZ EP       2340 15.80                             129    -0.1 9  162 347 
 OCA  SZ ES   1   2340 36.91                             129    -0.9 7  162 347 
 CHI  HZ EP   1   2340 25.56                             116    -0.4 6  255 199 
 CHI  HN ES   1   2340 56.14                             116     0.4 6  255 199 
 CHI  HZ I        2341  0.73         5.7 0.91                           255 199 
 ROSC BZ EP   2   2340 26.57                             115    -0.2 4  263 214 
 ROSC BN ES   2   2340 57.42                             115     0.1 4  263 214 
 ROSC BZ I        2341  3.73        16.1 0.52                           263 214 
 HEL  HZ EP   1   2340 29.60                             113     0.0 5  289 256 
 HEL  HZ I        2341  5.58        11.0 0.85                           289 256 
 RREF BZ EP   2   2340 35.71                             109     0.4 3  336 231 
 RREF BN ES   2   2341 12.70                             109     0.3 3  336 231 
 TOL  SZ EP   2   2340 37.08                             108    -0.3 3  357 226 
 PRA  HZ EP   1   2340 42.06                             105    -0.2 4  402 212 
 PRA  HN ES   1   2341 24.53                             105    -0.3 4  402 212 
 PRA  HZ I        2341 28.72         6.4 0.18                           402 212 
                                                                                
