 2017  2 3 2103 36.8 L   6.516 -73.449114.1  RSN  4 0.3 1.1LRSN                1
 GAP=174        0.83       4.3     4.2  8.0  0.4390E+01  0.1067E+02  0.1013E+02E
 Epicentro: SIMACOTA - SANTANDER                                               3
 ACTION:UPD 17-05-24 15:32 OP:jn   STATUS:               ID:20170203210336 L   I
 OLDACT:DUP 17-02-04 03:42 OP:dani STATUS:               ID:20170203205745d    3
 OLDACT:REG 17-02-04 02:48 OP:dani STATUS:               ID:20170203205744     3
 2017-02-03-2058-00M.COL___346                                                 6
 STAT SP IPHASW D HRMM SECON CODA AMPLIT PERI AZIMU VELO AIN AR TRES W  DIS CAZ7
 BRR  HZ EP       21 3 55.26                             145    0.6510 71.6 336 
 BRR  HE ES       21 4  8.27                             145   -0.2710 71.6 336 
 RUS  HZ EP       21 3 55.54                             143   -0.3610 79.9 150 
 RUS  HN ES       21 4 11.01                             143    0.1710 79.9 150 
 RUS  HZ I        21 4 12.26         2.2 0.29            145           79.9 150 
 PTB  HZ EP       21 3 57.70                             132   -0.1510  111 271 
 PTB  HN ES       21 4 14.24                             132   -0.0710  111 271 
 PTB  HZ I        21 4 17.35         2.5 0.24            133            111 271 
 NOR  HZ EP       21 4  5.58                             116   -0.21 9  189 236 
 NOR  HN ES       21 4 28.68                             116    0.25 9  189 236 
 NOR  HZ I        21 4 31.93         1.7 0.21            118            189 236 
                                                                                
