 2017  2 3 2247 28.0 L   6.768 -73.124147.1  RSN  7 0.4 1.5LRSN                1
 GAP=141        0.85       4.0     3.9  6.4 -0.1158E+00  0.4901E+01  0.2436E+01E
 Epicentro: LOS SANTOS - SANTANDER                                             3
 ACTION:UPD 17-05-24 15:32 OP:jn   STATUS:               ID:20170203224728 L   I
 OLDACT:UP  17-02-04 04:15 OP:dani STATUS:               ID:20170203223742     3
 OLDACT:UP  17-02-04 04:15 OP:dani STATUS:               ID:20170203223742     3
 OLDACT:UP  17-02-04 04:15 OP:dani STATUS:               ID:20170203223742     3
 OLDACT:UP  17-02-04 04:14 OP:dani STATUS:               ID:20170203223742     3
 OLDACT:REG 17-02-04 02:54 OP:dani STATUS:               ID:20170203223742     3
 2017-02-03-2238-00M.COL___340                                                 6
 STAT SP IPHASW D HRMM SECON CODA AMPLIT PERI AZIMU VELO AIN AR TRES W  DIS CAZ7
 BRR  HZ EP       2247 49.87                             151    0.3210 75.0 300 
 BRR  HE ES       2248  6.67                             151    0.3410 75.0 300 
 BRR  HZ I        2248 11.07         5.4 0.17            150           75.0 300 
 PAM  EZ EP       2247 50.73                             151    0.2610 78.7  37 
 PAM  EN ES       2248  7.46                             151   -0.5110 78.7  37 
 PAM  EZ I        2248  8.18         2.6 0.23            157           78.7  37 
 RUS  HZ EP       2247 51.66                             145   -0.0010 96.9 177 
 RUS  HE ES       2248 10.28                             145    0.1910 96.9 177 
 RUS  HZ I        2248 11.79         3.9 0.38            143           96.9 177 
 PTB  HZ EP       2247 54.55                             132   -0.72 9  149 260 
 PTB  HN ES       2248 16.31                             132   -0.20 9  149 260 
 PTB  HZ I        2248 18.60         6.5 0.13            130            149 260 
 ZAR  HN ES       2248 26.71                             122    0.11 8  208 293 
 ZAR  HZ I        2248 31.77         4.3 0.31            122            208 293 
 NOR  HZ EP       2248  4.07                             119    0.23 8  235 236 
 NOR  HN ES   3   2248 31.08                             119   -0.69 2  235 236 
 NOR  HZ I        2248 38.93         2.5 0.14            118            235 236 
 CHI  HZ EP   9   2248  7.55                             118    2.03 0  246 196 
 CHI  HN ES       2248 36.53                             117   -0.25 8  246 196 
 CHI  HZ I        2248 45.22         1.1 0.58            117            246 196 
                                                                                
