 2017  4 3 2232 18.0 L   6.804 -73.152149.1  RSN 14 0.4 2.2LRSN                1
 GAP=111        0.87       2.9     3.1  4.5 -0.6759E+00  0.9778E+00  0.3676E+01E
 Epicentro: LOS SANTOS - SANTANDER                                             3
 ACTION:UPD 17-05-30 21:08 OP:jn   STATUS:               ID:20170403223218 L   I
 OLDACT:REG 17-04-04 03:02 OP:lv   STATUS:               ID:20170403222748     3
 2017-04-03-2228-00M.COL___371                                                 6
 STAT SP IPHASW D HRMM SECON CODA AMPLIT PERI AZIMU VELO AIN AR TRES W  DIS CAZ7
 BAR2 EZ EP       2232 38.02                             171   -0.0510 23.6 188 
 BAR2 EZ ES       2232 53.58                             171   -0.1110 23.6 188 
 BAR2 EZ I        2232 54.24        52.3 0.22            169           23.6 188 
 BRR  HZ IP     C 2232 39.71                             153    0.2110 70.4 299 
 BRR  HN ES       2232 56.88                             153    0.6410 70.4 299 
 BRR  HZ I        2233  0.95        34.5 0.42            151           70.4 299 
 PAM  EZ EP       2232 40.86                             151    0.2510 77.5  40 
 PAM  EE ES       2232 58.12                             151   -0.1010 77.5  40 
 PAM  EZ I        2233  0.39        50.0 0.61            156           77.5  40 
 RUS  HZ EP       2232 42.09                             144   -0.0510  101 176 
 RUS  HN ES       2233  0.78                             144   -0.1710  101 176 
 RUS  HZ I        2233  1.58        10.2 0.24            145            101 176 
 PTB  HZ EP       2232 44.99                             133   -0.23 9  147 259 
 PTB  HN ES       2233  5.72                             133   -0.70 9  147 259 
 PTB  HZ I        2233 10.83         9.3 0.07            132            147 259 
 SPBC HZ EP       2232 47.07                             130    0.30 9  163 219 
 SPBC HN ES       2233  9.19                             130   -0.00 9  163 219 
 SPBC HZ I        2233 13.73        24.8 0.29            130            163 219 
 YPLC HZ EP       2232 48.33                             127    0.19 9  178 151 
 YPLC HE ES   4   2233 12.77                             127    1.15 0  178 151 
 YPLC HZ I        2233 13.24        13.1 0.31            129            178 151 
 ZAR  HZ EP       2232 50.48                             123   -0.13 9  203 292 
 ZAR  HN ES       2233 15.72                             123   -0.30 9  203 292 
 ZAR  HZ I        2233 22.66        15.0 0.24            123            203 292 
 NOR  HN ES       2233 21.95                             119    0.04 8  234 234 
 NOR  HZ I        2233 25.02         6.5 0.14            119            234 234 
 CHI  HZ EP       2232 56.25                             118    0.31 8  249 195 
 CHI  HN ES       2233 25.48                             118   -0.02 8  249 195 
 CHI  HZ I        2233 29.15         6.0 0.51            119            249 195 
 ROSC BZ EP   9   2232 57.75                             117    1.42 0  253 211 
 ROSC BN ES       2233 28.38                                    0.76 8  253 211 
 ROSC BZ I        2233 32.50        12.8 0.35            118            253 211 
 PTGC HZ EP       2233  1.10                             112   -1.01 7  309 159 
 PTGC HN ES   4   2233 32.71                             112   -3.78 0  309 159 
 PTGC HZ I        2233 34.60        14.6 0.33            114            309 159 
 PRA  HZ EP       2233 12.04                             107    0.37 6  392 209 
 PRA  HN ES       2233 53.83                             107    0.33 6  392 209 
 PRA  HZ I        2233 59.66         5.3 0.35            108            392 209 
 ORTC HN ES       2233 54.66                             107    0.47 6  395 216 
 ORTC HZ I        2233 58.69         5.2 0.08            108            395 216 
 SJC  HZ EP   4   2233 12.02                             106   -1.60 0  408 327 
 SJC  HN ES   4   2233 49.23                             106   -7.75 0  408 327 
                                                                                
