 2011 10 3 2246 52.5 L   7.442 -73.132133.5  RSN  5 0.3 1.8LRSN                1
 GAP=191        0.57       8.7     4.5  7.2 -0.2383E+01  0.8782E+01 -0.1188E+02E
 Epicentro: EL PLAYON - SANTANDER                                              3
 ACTION:UPD 12-07-13 16:01 OP:ep   STATUS:               ID:20111003224652 L   I
 2011-10-03-2245-02S.COL___171                                                 6
 STAT SP IPHASW D HRMM SECON CODA AMPLIT PERI AZIMU VELO AIN AR TRES W  DIS CAZ7
 PAM  SZ EP   1   2247 12.28                             159    0.39 7 49.1 103 
 PAM  SN ES   1   2247 26.70                             159   -0.31 7 49.1 103 
 BRR  HZ EP   1   2247 12.41                             149   -0.09 7 73.9 240 
 BRR  HZ I        2247 12.93        20.8 0.11                          73.9 240 
 BRR  HE ES   1   2247 28.49                             149    0.39 7 73.9 240 
 BAR2 SZ ES   2   2247 30.79                             143   -0.37 5 94.1 183 
 BAR2 SZ I        2247 32.75        10.3 0.23                          94.1 183 
 RUS  HZ EP   2   2247 21.52                             125    0.09 4  171 178 
 ZAR  HZ EP   2   2247 22.36                             121   -0.39 4  191 272 
 ZAR  HN ES   2   2247 46.02                             121   -0.33 4  191 272 
 ZAR  HZ I        2247 51.77         6.5 0.12                           191 272 
                                                                                
