 2013  6 3 2004 38.9 L   6.824 -73.169148.8  RSN  6 0.5 1.9LRSN                1
 GAP=180        1.27       6.1     8.3  8.7  0.1617E+02  0.1008E+02 -0.1581E+01E
 Epicentro: LOS SANTOS - SANTANDER                                             3
 ACTION:UPD 14-01-08 09:52 OP:ep   STATUS:               ID:20130603200438 L   I
 2013-06-03-1958-51M.COL___225                                                 6
 STAT SP IPHASW D HRMM SECON CODA AMPLIT PERI AZIMU VELO AIN AR TRES W  DIS CAZ7
 BAR2 SZ EP       20 4 58.99                             170    0.0710 25.6 183 
 BAR2 SZ ES       20 5 13.79                             170   -0.7610 25.6 183 
 BAR2 SZ I        20 5 15.14        11.7 0.26            166           25.6 183 
 GIR2 SZ EP       20 4 59.20                             168    0.3710 28.3 354 
 GIR2 SZ ES       20 5 14.38                             168   -0.0210 28.3 354 
 BRR  HZ IP     C 20 5  0.70                             154    0.5410 67.7 298 
 BRR  HE ES       20 5 17.68                             154    0.9110 67.7 298 
 BRR  HN I        20 5 18.53        47.4 0.24            151           67.7 298 
 RUS  HZ EP       20 5  3.22                             144    0.0910  103 175 
 RUS  HN ES       20 5 21.81                             144   -0.2310  103 175 
 RUS  HE I        20 5 23.60         7.7 0.26            143            103 175 
 PTB  HZ EP       20 5  5.70                             133   -0.21 9  146 258 
 PTB  HN ES       20 5 26.73                             133   -0.28 9  146 258 
 PTB  HE I        20 5 32.72         9.2 0.36            130            146 258 
 SML  HN ES       20 5 42.86                             118   -0.85 8  240 336 
                                                                                
