 2017  8 3 2035 53.0 L   6.804 -73.138144.1  RSN 12 0.4 1.8LRSN                1
 GAP=112        0.72       2.7     2.8  4.9 -0.2396E+00  0.6928E+00  0.5105E+01E
 Epicentro: LOS SANTOS - SANTANDER                                             3
 *PTB-PAM-BAR2-RUS                                                             3
 ACTION:UPD 17-09-04 20:16 OP:rebc STATUS:               ID:20170803203553 L   I
 OLDACT:UP  17-08-04 09:39 OP:and  STATUS:               ID:20170803202736     3
 OLDACT:UP  17-08-04 09:33 OP:and  STATUS:               ID:20170803202736     3
 OLDACT:REG 17-08-04 04:14 OP:mg   STATUS:               ID:20170803202736     3
 2017-08-03-2028-00M.COL___374                                                 6
 STAT SP IPHASW D HRMM SECON CODA AMPLIT PERI AZIMU VELO AIN AR TRES W  DIS CAZ7
 BAR2 EZ EP     C 2036 12.05                             170   -0.4310 24.0 192 
 BAR2 HE ES   2   2036 27.45                             170   -0.20 5 24.0 192 
 BAR2 EZ I        2036 28.44        13.6 0.20            167           24.0 192 
 BRR  HZ EP   2   2036 13.99                             152   -0.05 5 71.7 298 
 BRR  HN ES       2036 30.78                             152    0.3710 71.7 298 
 PAM  EZ EP     C 2036 14.98                             151   -0.0410 76.5  39 
 PAM  EN ES       2036 32.10                             151   -0.0710 76.5  39 
 PAM  EZ I        2036 34.50         6.3 0.38            155           76.5  39 
 RUS  HZ EP       2036 16.42                             143   -0.2410  101 177 
 RUS  HN ES   2   2036 34.36                             143   -0.72 5  101 177 
 RUS  HZ I        2036 36.75         6.9 0.33            143            101 177 
 PTB  HZ EP   9   2036 18.84                             132   -1.11 0  149 259 
 PTB  HN ES       2036 39.64                             131   -0.19 9  149 259 
 PTB  HZ I        2036 45.37         5.3 0.14            130            149 259 
 SPBC HZ IP     D 2036 21.35                             129   -0.15 9  164 219 
 SPBC HN ES       2036 43.41                             129   -0.28 9  164 219 
 SPBC HZ I        2036 48.42        10.9 0.23            128            164 219 
 YPLC HZ EP   2   2036 22.61                             126   -0.10 4  177 152 
 YPLC HN ES       2036 46.76                             126    0.90 9  177 152 
 YPLC HZ I        2036 47.34        11.6 0.28            127            177 152 
 ZAR  HZ EP   2   2036 25.81                             122    0.37 4  205 292 
 ZAR  HN ES       2036 50.87                             122    0.16 9  205 292 
 ZAR  HZ I        2036 57.44         6.8 0.28            122            205 292 
 NOR  HZ EP   2   2036 28.70                             118   -0.08 4  236 234 
 NOR  HN ES       2036 56.66                             118    0.01 8  236 234 
 NOR  HZ I        2037  2.09         4.9 0.16            118            236 234 
 CHI  HZ EP       2036 30.49                             117   -0.23 8  249 195 
 CHI  HN ES       2037  0.39                             117    0.28 8  249 195 
 CHI  HZ I        2037  7.60         3.2 0.44            117            249 195 
 GUY2CHZ EP   2   2036 37.37                             112    0.69 4  302 235 
 GUY2CHN ES   4   2037 14.58                             112    3.86 0  302 235 
 GUY2CHZ I        2037 18.76         3.4 0.30                           302 235 
 PRA  HZ EP   2   2036 46.78                             106    0.18 3  393 210 
 PRA  HN ES   2   2037 28.41                             106    0.03 3  393 210 
 PRA  HZ I        2037 34.67         5.4 0.60            106            393 210 
                                                                                
