 2011  4 3 2140 32.7 L   6.763 -73.094143.6  RSN  9 0.2 1.9LRSN                1
 GAP=162        0.62       5.2     6.3  5.6 -0.1425E+02 -0.1647E+01 -0.2538E+01E
 Epicentro: LOS SANTOS - SANTANDER                                             3
 ACTION:UP  11-06-22 15:28 OP:REBC STATUS:               ID:20110403214032 L   I
 2011-04-03-2139-33S.COL___138                                                 6
 STAT SP IPHASW D HRMM SECON CODA AMPLIT PERI AZIMU VELO SNR AR TRES W  DIS CAZ7
 BAR2 SZ EP   1   2140 51.65                             171    -0.4 7   21 207 
 BAR2 SZ ES   1   2141  6.94                             171    -0.1 7   21 207 
 BAR2 SZ I        2141  8.41        26.8 0.37                            21 207 
 BTL  SZ EP       2140 52.33                             169     0.210   26 312 
 GIR2 SZ EP       2140 52.12                                    -0.110   37 343 
 PAM  SZ EP       2140 54.93                             150     0.310   77  34 
 PAM  SN ES   1   2141 11.87                             150     0.1 7   77  34 
 PAM  SZ I        2141 14.40         6.3 0.42                            77  34 
 BRR  HZ EP   1   2140 53.73                             150    -0.3 7   78 299 
 BRR  HZ I        2140 54.40        38.6 0.12                            78 299 
 BRR  HN ES   1   2141 10.94                             150     0.3 7   78 299 
 GRA  SZ EP       2140 58.00                             136     0.110  128  14 
 GRA  SZ ES   1   2141 17.42                             136    -0.2 7  128  14 
 GRA  SZ I        2141 21.91         8.5 0.39                           128  14 
 OCA  SZ EP   1   2141  0.97                             128    -0.3 7  165 351 
 OCA  SZ I        2141 27.08        10.6 0.28                           165 351 
 CHI  HE ES   3   2141 39.25                                     0.1 2  246 197 
 CHI  HZ I        2141 46.26         2.8 0.54                           246 197 
 HEL  HZ EP   3   2141 13.95                                     0.7 2  277 257 
 HEL  HZ I        2141 53.50         3.4 0.13                           277 257 
                                                                                
