 2013  6 3 2152 41.3 L   6.777 -73.700 88.1  RSN  7 0.6 1.9LRSN                1
 GAP=105        1.47       7.0     4.7 11.3 -0.3660E+01  0.1390E+02  0.4310E+02E
 Epicentro: EL CARMEN DE CHUCURI - SANTANDER                                   3
 ACTION:UPD 14-01-08 09:52 OP:ep   STATUS:               ID:20130603215241 L   I
 2013-06-03-2148-54M.COL___221                                                 6
 STAT SP IPHASW D HRMM SECON CODA AMPLIT PERI AZIMU VELO AIN AR TRES W  DIS CAZ7
 BRR  HZ EP       2152 54.19                             156   -0.0410 36.5 358 
 BRR  HN ES       2153  5.52                             156    1.1910 36.5 358 
 BRR  HE I        2153  6.36        98.9 0.28            162           36.5 358 
 GIR2 SZ EP       2152 56.09                             141   -0.2210 65.2  59 
 GIR2 SZ ES       2153  7.21                             141   -0.8310 65.2  59 
 PTB  HZ EP       2152 57.93                             131   -0.1410 87.6 253 
 PTB  HE ES       2153 10.39                             131   -0.7710 87.6 253 
 PTB  HN I        2153 12.78        18.2 0.22            133           87.6 253 
 RUS  HZ EP       2153  2.43                             123    0.6010  119 145 
 RUS  HN ES       2153 17.89                             123    0.0310  119 145 
 RUS  HE I        2153 20.44         7.8 0.60            125            119 145 
 NOR  HZ EP       2153  8.32                             110   -0.40 9  186 224 
 NOR  HE ES       2153 30.10                             110   -0.03 9  186 224 
 NOR  HN I        2153 33.91        22.9 0.42            112            186 224 
 HEL  HZ EP       2153 11.73                             108   -0.41 8  212 252 
 HEL  HE ES       2153 36.72                             108    0.50 8  212 252 
 HEL  HN I        2153 42.09         4.2 0.30            110            212 252 
 GUY2CHZ EP       2153 17.74                             105    0.78 8  252 227 
                                                                                
