 2013 12 3 2306 51.9 L   6.384 -73.664103.3  RSN 10 0.4 2.0LRSN                1
 GAP= 64        0.96       2.3     2.8  6.0 -0.5210E+00  0.2947E+01 -0.1948E+01E
 Epicentro: SANTA HELENA DEL OPON - SANTANDER                                  3
 ACTION:UPD 14-01-13 10:15 OP:ep   STATUS:               ID:20131203230651 L   I
 OLDACT:UP  13-12-03 23:41 OP:mh   STATUS:               ID:20131203230000     3
 OLDACT:REG 13-12-03 23:30 OP:mh   STATUS:               ID:20131203230000     3
 2013-12-03-2300-00M.COL___282                                                 6
 STAT SP IPHASW D HRMM SECON CODA AMPLIT PERI AZIMU VELO AIN AR TRES W  DIS CAZ7
 BAR2 SZ EP   1   23 7  8.53                             148    0.43 7 58.0  67 
 BAR2 SZ ES   1   23 7 21.28                             148    0.55 7 58.0  67 
 BAR2 SZ I        23 7 23.33        89.9 0.49            151           58.0  67 
 BRR  HZ EP   1   23 7  9.60                             139    0.24 7 80.1 356 
 BRR  HN ES   1   23 7 23.43                             139    0.45 7 80.1 356 
 BRR  HZ I        23 7 30.69        13.5 0.09            142           80.1 356 
 RUS  HZ EP       23 7 10.36                             138   -0.0110 84.2 130 
 RUS  HN ES       23 7 24.50                             138   -0.2710 84.2 130 
 RUS  HZ I        23 7 28.67         7.6 0.36            143           84.2 130 
 PTB  HZ EP       23 7  9.52                             136   -0.6310 89.3 281 
 PTB  HN ES       23 7 23.52                             136   -0.8510 89.3 281 
 PTB  HZ I        23 7 26.35        29.7 0.09            140           89.3 281 
 SPBC HZ EP   1   23 7 10.55                             134    0.01 7 92.7 209 
 SPBC HN ES       23 7 25.32                             134    0.2510 92.7 209 
 SPBC HZ I        23 7 27.81        41.6 0.23            140           92.7 209 
 PAM  SZ EP   1   23 7 16.59                             120   -0.08 7  150  45 
 PAM  SN ES       23 7 35.60                             120   -0.38 9  150  45 
 PAM  SZ I        23 7 41.43         9.3 0.45            124            150  45 
 NOR  HZ EP       23 7 17.70                             117    0.39 9  161 236 
 NOR  HN ES       23 7 37.43                             117    0.30 9  161 236 
 NOR  HZ I        23 7 40.38        21.1 0.14            123            161 236 
 ZAR  HZ EP       23 7 19.30                             114   -0.01 9  180 313 
 ZAR  HN ES       23 7 40.94                             114    0.26 9  180 313 
 ZAR  HZ I        23 7 44.99        17.5 0.20            119            180 313 
 CHI  HZ EP       23 7 21.04                             112   -0.35 9  194 182 
 CHI  HN ES       23 7 44.73                             112    0.34 9  194 182 
 CHI  HZ I        23 7 48.48         5.8 0.25            118            194 182 
 SML  HZ EP       23 7 29.54                             104   -0.23 8  271 350 
 SML  HN ES       23 7 59.83                             104    0.53 8  271 350 
 SML  HZ I        23 8  3.87        14.6 0.09            108            271 350 
                                                                                
