 2017 10 3 2327  0.6 L   6.150 -73.730107.6  RSN  4 0.2 1.2LRSN                1
 GAP=106        0.54       3.2     2.6  5.8  0.2470E+00  0.4668E+01 -0.9468E+01E
 Epicentro: LANDAZURI - SANTANDER                                              3
 ACTION:UPD 17-11-07 19:28 OP:rebc STATUS:               ID:20171003232700 L   I
 OLDACT:REG 17-10-04 03:44 OP:edw  STATUS:               ID:20171003231740     3
 2017-10-03-2318-00M.COL___447                                                 6
 STAT SP IPHASW D HRMM SECON CODA AMPLIT PERI AZIMU VELO AIN AR TRES W  DIS CAZ7
 SPBC HN ES       2327 31.01                             146    0.1110 66.8 215 
 RUS  HZ EP       2327 18.99                             142    0.0410 77.1 112 
 RUS  HN ES       2327 32.92                             142   -0.3110 77.1 112 
 RUS  HZ I        2327 34.79         2.4 0.40            146           77.1 112 
 BAR2 EZ EP       2327 18.95                             141    0.3010 77.9  51 
 BAR2 EZ ES       2327 32.76                             141    0.0610 77.9  51 
 BAR2 EZ I        2327 34.72         7.8 0.14            143           77.9  51 
 ZAR  HZ EP       2327 29.56                             114   -0.22 9  194 320 
 ZAR  HN ES       2327 52.45                             114   -0.05 9  194 320 
 ZAR  HZ I        2327 56.47         2.1 0.38            116            194 320 
                                                                                
