 2013 10 3 2352 43.3 L   6.503 -73.577106.0  RSN  9 0.5 1.9LRSN                1
 GAP= 89        1.06       3.8     3.9  7.7  0.1138E+00  0.1510E+02  0.4323E+01E
 Epicentro: SANTA HELENA DEL OPON - SANTANDER                                  3
 ACTION:UPD 13-11-25 09:19 OP:ep   STATUS:               ID:20131003235243 L   I
 OLDACT:REG 13-10-03 21:52 OP:jn   STATUS:               ID:20131003234959     3
 2013-10-03-2349-59M.COL___273                                                 6
 STAT SP IPHASW D HRMM SECON CODA AMPLIT PERI AZIMU VELO AIN AR TRES W  DIS CAZ7
 BAR2 SZ EP       2352 58.91                             156   -0.0910 44.7  77 
 BAR2 SZ ES       2353 11.60                             156    0.3310 44.7  77 
 BAR2 SZ I        2353 12.64       201.7 0.46            168           44.7  77 
 BRR  HZ EP       2352 59.86                             145   -0.2510 68.4 347 
 BRR  HN ES       2353 13.52                             145    0.2810 68.4 347 
 BRR  HZ I        2353 23.38        10.3 0.20            149           68.4 347 
 RUS  HZ EP       2353  2.02                             138   -0.1910 86.9 141 
 RUS  HE ES       2353 16.64                             138   -0.3310 86.9 141 
 RUS  HZ I        2353 17.94         9.3 0.24            150           86.9 141 
 PTB  HZ EP     C 2353  1.79                             134   -0.6510 97.3 272 
 PTB  HN ES   1   2353 16.63                             134   -0.76 7 97.3 272 
 PTB  HZ I        2353 21.48        13.2 0.24            138           97.3 272 
 SPBC HZ EP       2353  3.78                             131    0.1910  109 210 
 SPBC HN ES       2353 20.03                             131    0.6010  109 210 
 SPBC HZ I        2353 27.43        16.5 0.20            137            109 210 
 NOR  HZ EP       2353 10.57                             116    0.06 9  177 234 
 NOR  HE ES       2353 31.86                             116    0.11 9  177 234 
 NOR  HZ I        2353 37.17         6.9 0.16            122            177 234 
 ZAR  HN ES   2   2353 33.57                             116    1.51 4  179 308 
 ZAR  HZ I        2353 35.95        11.9 0.36            122            179 308 
 HEL  HZ EP       2353 16.23                             111    0.61 8  219 261 
 HEL  HE ES       2353 40.37                             111   -0.47 8  219 261 
 HEL  HZ I        2353 45.94         3.6 0.24            117            219 261 
 SML  HE ES   2   2353 48.67                             107    0.17 4  260 348 
                                                                                
