 2015  2 3 2305 41.9 L   6.771 -73.138148.7  RSN  6 0.3 1.4LRSN                1
 GAP=139        0.76       4.5     4.3  6.5 -0.6986E+01  0.4730E+01  0.2035E+00E
 Epicentro: LOS SANTOS - SANTANDER                                             3
 ACTION:UPD 15-04-30 21:21 OP:nd   STATUS:               ID:20150203230541 L   I
 OLDACT:REG 15-02-04 02:27 OP:spq  STATUS:               ID:20150203225748     3
 2015-02-03-2257-48M.COL___274                                                 6
 STAT SP IPHASW D HRMM SECON CODA AMPLIT PERI AZIMU VELO AIN AR TRES W  DIS CAZ7
 BAR2 EZ EP   1   23 6  1.63                             172   -0.18 7 20.4 194 
 BAR2 EZ ES   1   23 6 17.41                             172    0.06 7 20.4 194 
 BAR2 EZ I        23 6 19.87         4.7 0.46            172           20.4 194 
 BRR  HZ EP       23 6  3.72                             152    0.2510 73.5 300 
 BRR  HE ES   1   23 6 21.04                             152    0.73 7 73.5 300 
 BRR  HZ I        23 6 25.99         5.6 0.38            152           73.5 300 
 PAM  SZ EP       23 6  4.54                             151    0.0210 79.4  38 
 PAM  SN ES       23 6 21.82                             151   -0.3610 79.4  38 
 PAM  SZ I        23 6 23.87         4.3 0.58            155           79.4  38 
 RUS  HZ EP   1   23 6  6.23                             145    0.54 7 97.4 176 
 RUS  HN ES   1   23 6 24.25                             145   -0.02 7 97.4 176 
 RUS  HZ I        23 6 26.06         2.7 0.26            149           97.4 176 
 PTB  HZ EP       23 6  8.88                             133   -0.22 9  148 260 
 PTB  HE ES       23 6 30.00                             133   -0.34 9  148 260 
 PTB  HZ I        23 6 33.21         3.3 0.14            135            148 260 
 SPBC HN ES   1   23 6 32.57                             130   -0.11 7  161 220 
 SPBC HZ I        23 6 35.65         6.6 0.33            133            161 220 
                                                                                
