 2011  7 3 2347  2.0 L   6.725 -73.073154.9  RSN  4 0.2 1.2LRSN                1
 GAP=168        0.42       4.4     8.6  6.9  0.1585E+02 -0.3722E+02 -0.9168E+01E
 Epicentro: JORDAN - SANTANDER                                                 3
 ACTION:UPD 12-07-25 13:58 OP:epov STATUS:               ID:20110703234702 L   I
 2011-07-03-2341-53S.COL___140                                                 6
 STAT SP IPHASW D HRMM SECON CODA AMPLIT PERI AZIMU VELO AIN AR TRES W  DIS CAZ7
 BTL  SZ EP   1   2347 22.85                             168   -0.03 7 30.3 315 
 BTL  SZ ES   2   2347 38.87                             168   -0.30 5 30.3 315 
 BRR  HZ EP   1   2347 24.86                             151    0.09 7 82.2 301 
 BRR  HZ I        2347 25.66         6.2 0.34                          82.2 301 
 BRR  HN ES   1   2347 42.54                             151    0.01 7 82.2 301 
 RUS  HZ EP   1   2347 25.86                             148   -0.23 7 92.1 181 
 RUS  HN ES   2   2347 45.30                             148    0.42 5 92.1 181 
 RUS  HZ I        2347 46.10         1.7 0.43                          92.1 181 
 GRA  SZ EP   1   2347 28.67                             138    0.12 7  132  13 
 GRA  SZ I        2347 44.49         1.6 0.38                           132  13 
                                                                                
