 2014  6 3 2105 42.8 L   6.794 -73.147151.3  RSN  8 0.4 1.9LRSN                1
 GAP=137        1.08       3.6     5.4  6.9 -0.2141E+01  0.3743E+01  0.7044E+00E
 Epicentro: LOS SANTOS - SANTANDER                                             3
 ACTION:UPD 14-07-01 22:50 OP:nd   STATUS:               ID:20140603210542 L   I
 OLDACT:UP  14-06-04 03:15 OP:cam  STATUS:               ID:20140603210000     3
 OLDACT:UP  14-06-04 03:15 OP:cam  STATUS:               ID:20140603210000     3
 OLDACT:REG 14-06-04 02:31 OP:cam  STATUS:               ID:20140603210000     3
 2014-06-03-2100-00M.COL___276                                                 6
 STAT SP IPHASW D HRMM SECON CODA AMPLIT PERI AZIMU VELO AIN AR TRES W  DIS CAZ7
 BAR2 SZ EP       21 6  3.03                             171   -0.0210 22.6 190 
 BAR2 SZ ES       21 6 18.29                             171   -0.5810 22.6 190 
 BAR2 SZ I        21 6 19.42        22.1 0.12            171           22.6 190 
 BRR  HZ EP       21 6  4.85                             153    0.3210 71.5 299 
 BRR  HN ES       21 6 22.41                             153    0.9010 71.5 299 
 BRR  HZ I        21 6 24.74         9.9 0.26            154           71.5 299 
 PAM  SZ EP     D 21 6  5.89                             152    0.2810 78.0  39 
 PAM  SN ES       21 6 23.55                             152    0.1210 78.0  39 
 PAM  SZ I        21 6 25.29        10.2 0.48            153           78.0  39 
 RUS  HZ EP       21 6  6.87                             145   -0.1510 99.9 176 
 RUS  HE ES       21 6 25.68                             145   -0.2510 99.9 176 
 RUS  HZ I        21 6 26.84         8.2 0.28            147           99.9 176 
 PTB  HN ES       21 6 31.11                             133   -0.44 9  148 259 
 PTB  HZ I        21 6 32.43         7.4 0.20            134            148 259 
 SPBC HZ EP   1   21 6 11.99                             130    0.35 7  163 219 
 SPBC HN ES       21 6 34.23                             130    0.07 9  163 219 
 SPBC HZ I        21 6 36.79        18.3 0.26            132            163 219 
 SML  HZ EP   1   21 6 19.79                             118    0.02 6  244 335 
 SML  HN ES       21 6 47.82                             118   -0.82 8  244 335 
 CHI  HZ EP   1   21 6 20.07                             118   -0.63 6  248 195 
 CHI  HN ES       21 6 50.74                             118    0.45 8  248 195 
 GUY2CHZ EP   4   21 6 28.25                             113    1.67 0  301 235 
                                                                                
