 2017  1 3 2142 54.5 L   6.786 -73.152149.6  RSN  4 0.4 1.2LRSN                1
 GAP=136        1.12       6.2     5.9  9.8 -0.4287E+01  0.4805E+01  0.8037E+01E
 Epicentro: LOS SANTOS - SANTANDER                                             3
 ACTION:UPD 17-05-22 15:55 OP:jn   STATUS:               ID:20170103214254 L   I
 OLDACT:REG 17-01-04 02:42 OP:cog  STATUS:               ID:20170103213749     3
 2017-01-03-2138-00M.COL___369                                                 6
 STAT SP IPHASW D HRMM SECON CODA AMPLIT PERI AZIMU VELO AIN AR TRES W  DIS CAZ7
 BRR  HZ EP       2143 16.37                             153    0.2810 71.4 300 
 BRR  HN ES       2143 33.65                             153    0.7310 71.4 300 
 PAM  EZ EP       2143 17.27                             151    0.0410 79.0  39 
 PAM  EN ES       2143 34.40                             151   -0.5510 79.0  39 
 PAM  EZ I        2143 36.90         2.2 0.36            154           79.0  39 
 RUS  HZ EP       2143 18.80                             145    0.2610 99.1 176 
 RUS  HE ES       2143 37.30                             145    0.0210 99.1 176 
 RUS  HZ I        2143 39.13         1.8 0.40            146           99.1 176 
 PTB  HZ EP       2143 21.46                             133   -0.25 9  147 259 
 PTB  HN ES       2143 42.27                             133   -0.66 9  147 259 
 PTB  HZ I        2143 46.74         3.0 0.18            134            147 259 
                                                                                
