 2012  8 3 2050 14.2 L   6.577 -73.423121.2  RSN  6 0.4 1.7LRSN                1
 GAP=114        0.85       5.2     5.5  8.5  0.8259E+01  0.1880E+02  0.5508E+01E
 Epicentro: HATO - SANTANDER                                                   3
 ACTION:UPD 12-09-10 11:54 OP:ep   STATUS:               ID:20120803205014 L   I
 2012-08-03-2050-00M.COL___215                                                 6
 STAT SP IPHASW D HRMM SECON CODA AMPLIT PERI AZIMU VELO AIN AR TRES W  DIS CAZ7
 BAR2 SZ EP   1   2050 30.98                             167   -0.01 7 26.7  86 
 BAR2 SZ ES   1   2050 44.06                             167   -0.02 7 26.7  86 
 BAR2 SZ I        2050 44.96        19.7 0.31                          26.7  86 
 BRR  HZ EP       2050 32.74                             149    0.2510 66.7 331 
 BRR  HZ I        2050 32.95        42.1 0.13                          66.7 331 
 BRR  HN ES   1   2050 47.28                             149    0.54 7 66.7 331 
 RUS  HZ EP       2050 34.70                             143    0.3010 84.5 154 
 RUS  HN ES   1   2050 50.11                             143   -0.03 7 84.5 154 
 RUS  HZ I        2050 52.00         5.7 0.28                          84.5 154 
 PTB  HZ EP   1   2050 35.62                             134   -0.54 7  114 268 
 PTB  HN ES   2   2050 52.31                             134   -0.96 5  114 268 
 PTB  HZ I        2050 56.31         3.5 0.15                           114 268 
 PAM  SN ES   1   2050 53.98                             134   -0.74 7  116  43 
 ZAR  HZ EP   1   2050 43.40                             119   -0.07 7  188 303 
 ZAR  HN ES   2   2051  6.92                             119    0.64 4  188 303 
 ZAR  HZ I        2051 10.04         6.5 0.41                           188 303 
                                                                                
