 2011  5 3 2343 13.7 L   6.343 -73.644104.0  RSN  7 0.2 1.9LRSN                1
 GAP=117        0.59       3.1     3.8  5.6 -0.2639E+01  0.7022E+01  0.3863E+00E
 Epicentro: SANTA HELENA DEL OPON - SANTANDER                                  3
 ACTION:UP  11-06-29 08:50 OP:tino STATUS:               ID:20110503234313 L   I
 2011-05-03-2338-22S.COL___133                                                 6
 STAT SP IPHASW D HRMM SECON CODA AMPLIT PERI AZIMU VELO SNR AR TRES W  DIS CAZ7
 BAR2 SZ IP       2343 29.99                             149     0.110   58  62 
 BAR2 SZ ES   1   2343 42.74                             149     0.1 7   58  62 
 BAR2 SZ I        2343 43.90        78.3 0.12                            58  62 
 BTL  SZ EP   1   2343 31.25                             141     0.0 7   76  33 
 BTL  SZ ES   1   2343 45.20                             141     0.3 7   76  33 
 RUS  HZ EP   1   2343 31.96                             140     0.1 7   80 129 
 RUS  HE ES   1   2343 45.67                             140    -0.3 7   80 129 
 RUS  HZ I        2343 47.71        12.1 0.30                            80 129 
 BRR  HZ EP   1   2343 30.92                             137    -0.7 7   85 355 
 BRR  HZ I        2343 39.63        26.3 0.13                            85 355 
 BRR  HN ES   1   2343 45.45                             137    -0.1 7   85 355 
 PAM  SZ EP   1   2343 38.59                             120    -0.1 7  152  43 
 PAM  SN ES   1   2343 58.12                             120     0.0 7  152  43 
 NOR  SZ EP   1   2343 39.27                             118     0.2 7  161 238 
 NOR  SN ES   2   2343 58.97                             118     0.1 5  161 238 
 BRI  SZ EP   1   2343 41.34                             115     0.2 7  178  32 
 BRI  SZ I        2344  4.90         5.0 0.30                           178  32 
                                                                                
