 2017  1 3 2244 55.4 L   6.782 -73.147141.2  RSN 12 0.5 2.3LRSN                1
 GAP= 99        1.08       4.1     3.3  5.8  0.2254E+01  0.5063E+01  0.3662E+01E
 Epicentro: LOS SANTOS - SANTANDER                                             3
 ACTION:UPD 17-05-22 15:55 OP:jn   STATUS:               ID:20170103224455 L   I
 OLDACT:UP  17-01-04 04:56 OP:cog  STATUS:               ID:20170103223748     3
 OLDACT:UP  17-01-04 04:55 OP:cog  STATUS:               ID:20170103223748     3
 OLDACT:REG 17-01-04 02:48 OP:cog  STATUS:               ID:20170103223748     3
 2017-01-03-2238-00M.COL___369                                                 6
 STAT SP IPHASW D HRMM SECON CODA AMPLIT PERI AZIMU VELO AIN AR TRES W  DIS CAZ7
 BAR2 EZ EP       2245 14.26                             171   -0.1310 21.3 191 
 BAR2 EZ ES       2245 28.52                             171   -0.7210 21.3 191 
 BAR2 EZ I        2245 31.25        29.3 0.14            167           21.3 191 
 BRR  HZ EP       2245 16.01                             151   -0.0510 72.1 300 
 BRR  HN ES       2245 33.09                             151    0.8810 72.1 300 
 BRR  HZ I        2245 36.99        59.0 0.12            150           72.1 300 
 PAM  EZ EP       2245 16.97                             149   -0.2210 79.0  39 
 PAM  EE ES       2245 34.15                             149   -0.0610 79.0  39 
 PAM  EZ I        2245 34.74        35.3 0.18            155           79.0  39 
 RUS  HZ EP       2245 18.24                             143   -0.2710 98.6 176 
 RUS  HN ES       2245 36.87                             143    0.3010 98.6 176 
 RUS  HZ I        2245 38.31        29.6 0.26            143           98.6 176 
 PTB  HZ EP       2245 21.29                             131   -0.61 9  147 260 
 PTB  HN ES       2245 42.17                             131   -0.44 9  147 260 
 PTB  HZ I        2245 47.22        32.8 0.20            130            147 260 
 TAM  HZ EP       2245 22.82                             130    0.18 9  155 104 
 TAM  HN ES       2245 44.33                             130    0.41 9  155 104 
 TAM  HZ I        2245 44.82        28.2 0.28            133            155 104 
 ZAR  HZ EP       2245 26.89                             121   -0.68 9  205 293 
 ZAR  HN ES       2245 53.37                             121    0.67 9  205 293 
 ZAR  HZ I        2245 58.64        52.1 0.28            121            205 293 
 CHI  HZ EP       2245 32.66                             116    0.07 8  247 195 
 CHI  HN ES       2246  1.91                             116    0.29 8  247 195 
 CHI  HZ I        2246 10.02         8.4 0.40            116            247 195 
 GUY2CHZ EP   3   2245 39.97                             112    1.36 2  300 235 
 GUY2CHN ES   3   2246 13.81                             112    1.46 2  300 235 
 GUY2CHZ  IAML    2246 21.31         9.0 0.30                           300 235 
 PTGC HN ES   4   2246 11.12                             111   -1.57 0  307 158 
 ELA  HZ EP   4   2245 44.14                             110    2.29 0  328 230 
 ELA  HN ES   4   2246 20.01                             110    1.89 0  328 230 
 ELA  HZ I        2246 26.22         7.9 0.34            110            328 230 
 CBOC HZ EP       2245 42.64                             109    0.64 7  333 252 
 CBOC HN ES   4   2246 20.24                             109    1.87 0  333 252 
 DBB  EZ EP       2245 42.91                             109    0.26 7  339 275 
 DBB  EN ES       2246 19.50                             109   -0.04 7  339 275 
 DBB  EZ I        2246 31.14         5.4 0.56            109            339 275 
                                                                                
