 2017 12 3 2345 45.0 L   6.830 -73.159138.0  RSN 14 0.6 1.8LRSN                1
 GAP=109        1.13       2.9     3.9  6.1 -0.2275E+00  0.6753E+01  0.2468E+01E
 Epicentro: LOS SANTOS - SANTANDER                                             3
 ACTION:UPD 18-01-04 13:16 OP:rebc STATUS:               ID:20171203234545 L   I
 OLDACT:UP  17-12-04 05:14 OP:dhb  STATUS:               ID:20171203233743     3
 OLDACT:REG 17-12-04 04:51 OP:edw  STATUS:               ID:20171203233743     3
 2017-12-03-2338-00M.COL___495                                                 6
 STAT SP IPHASW D HRMM SECON CODA AMPLIT PERI AZIMU VELO AIN AR TRES W  DIS CAZ7
 BAR2 EZ IP     C 2346  3.59                             169   -0.1710 26.4 186 
 BAR2 EZ ES       2346 18.06                             169   -0.3310 26.4 186 
 BAR2 EZ I        2346 20.99        11.7 0.24            169           26.4 186 
 PAM  EZ EP       2346  6.38                             150    0.0910 75.8  42 
 PAM  EN ES       2346 23.54                             150    0.6410 75.8  42 
 PAM  EZ I        2346 24.14        10.3 0.20            150           75.8  42 
 RUS  HZ EP       2346  7.62                             141   -0.6210  104 175 
 RUS  HN ES       2346 26.32                             141   -0.0610  104 175 
 RUS  HZ I        2346 26.95         7.1 0.44            141            104 175 
 PTB  HZ EP       2346 10.62                             130   -0.64 9  147 257 
 PTB  HN ES       2346 31.50                             130   -0.26 9  147 257 
 PTB  HZ I        2346 38.81         5.5 0.50            127            147 257 
 OCA  HZ EP       2346 12.10                             128   -0.28 9  157 354 
 OCA  HN ES       2346 33.62                             128   -0.12 9  157 354 
 OCA  HZ I        2346 38.23        16.6 0.20            126            157 354 
 SPBC HZ EP       2346 12.55                             127   -0.52 9  165 218 
 SPBC HN ES       2346 35.23                             127    0.26 9  165 218 
 SPBC HZ I        2346 40.88        11.1 0.26            125            165 218 
 YPLC HZ IP     C 2346 14.09                             124   -0.50 9  180 151 
 YPLC HN ES       2346 38.23                             124    0.55 9  180 151 
 YPLC HZ I        2346 39.87         5.2 0.24            124            180 151 
 ZAR  HZ EP       2346 17.29                             121    0.62 9  201 291 
 ZAR  HE ES       2346 41.71                             121    0.33 9  201 291 
 ZAR  HZ I        2346 47.49        13.3 0.44            118            201 291 
 NOR  HZ IP     C 2346 20.05                             117   -0.31 8  235 234 
 NOR  HE ES       2346 48.05                             117    0.10 8  235 234 
 NOR  HZ I        2346 52.67         6.1 0.22            115            235 234 
 CHI  HZ EP       2346 22.55                             115   -0.03 8  251 195 
 CHI  HE ES       2346 52.95                             115    1.05 8  251 195 
 CHI  HZ I        2346 58.50         2.5 0.46            114            251 195 
 DRL03HE ES   2   2346 59.24                             112    1.53 4  285 353 
 GUY2CHZ EP       2346 27.97                             111   -0.36 7  302 234 
 GUY2CHE ES   3   2347  5.10                             111    2.96 2  302 234 
 GUY2CHZ I        2347 12.60         3.3 0.50                           302 234 
 PRA  HZ EP       2346 39.14                             105    0.63 6  394 209 
 PRA  HE ES       2347 20.88                             105    0.63 6  394 209 
 PRA  HZ I        2347 24.78         2.7 0.30            104            394 209 
 SJC  HZ EP   9   2346 37.96                             105   -1.93 0  406 327 
 SJC  HZ I        2347 15.18         1.6 0.78            103            406 327 
 SJC  HN ES       2347 21.61                             105    0.83 6  406 327 
                                                                                
