 2015 12 3 2135 24.1 L   6.812 -73.091147.9  RSN 10 0.4 1.9LRSN                1
 GAP=189        0.87       2.7     5.0  5.5 -0.9483E+00  0.1007E+02 -0.1400E+01E
 Epicentro: LOS SANTOS - SANTANDER                                             3
 ACTION:UPD 16-02-04 15:02 OP:cam  STATUS:               ID:20151203213524 L   I
 OLDACT:REG 15-12-04 04:07 OP:ak   STATUS:               ID:20151203212750     3
 2015-12-03-2127-50M.COL___319                                                 6
 STAT SP IPHASW D HRMM SECON CODA AMPLIT PERI AZIMU VELO AIN AR TRES W  DIS CAZ7
 BAR2 EZ EP       2135 44.30                             169    0.2510 26.3 203 
 BAR2 EZ ES       2135 59.55                             169   -0.0610 26.3 203 
 BAR2 EZ I        2136  0.70        18.5 0.14            167           26.3 203 
 BRR  HZ EP       2135 46.06                             151    0.3010 76.0 296 
 BRR  HN ES       2136  3.08                             151    0.4410 76.0 296 
 RUS  HZ EP   2   2135 47.84                             144   -0.30 5  102 180 
 RUS  HN ES       2136  6.98                             144    0.1010  102 180 
 RUS  HZ I        2136  7.94         8.4 0.30            145            102 180 
 PTB  HZ EP       2135 51.04                             131   -0.77 9  154 259 
 PTB  HN ES   4   2136 11.99                             131   -1.42 0  154 259 
 PTB  HZ I        2136 15.32         8.1 0.19            130            154 259 
 OCA  HN ES       2136 14.33                             130   -0.38 9  160 351 
 SPBC HZ EP       2135 53.07                             129   -0.15 9  168 220 
 SPBC HN ES       2136 15.48                             129   -0.46 9  168 220 
 ZAR  HZ EP       2135 57.56                             122    0.34 8  209 291 
 ZAR  HN ES       2136 23.10                             122    0.06 8  209 291 
 ZAR  HZ I        2136 28.47         8.5 0.10            122            209 291 
 NOR  HZ EP       2136  0.81                             118    0.25 8  240 235 
 NOR  HN ES       2136 28.59                             118   -0.41 8  240 235 
 NOR  HZ I        2136 35.03         7.9 0.36            118            240 235 
 SML  HZ EP       2136  1.22                             118    0.22 8  245 334 
 SML  HN ES       2136 29.47                             118   -0.31 8  245 334 
 GUY2CHZ EP   2   2136  9.41                             112    0.96 4  307 235 
 GUY2CHE ES       2136 43.60                             112    0.56 7  307 235 
 GUY2CHZ I        2136 50.69         5.6 0.30                           307 235 
                                                                                
