 2011  4 3 2257 42.6 L   6.776 -73.103147.2  RSN  9 0.3 2.0LRSN                1
 GAP=161        0.59       3.6     5.6  5.0 -0.9212E+01 -0.1088E+01  0.1884E+01E
 Epicentro: LOS SANTOS - SANTANDER                                             3
 ACTION:UP  11-06-22 15:28 OP:REBC STATUS:               ID:20110403225742 L   I
 2011-04-03-2255-48S.COL___138                                                 6
 STAT SP IPHASW D HRMM SECON CODA AMPLIT PERI AZIMU VELO SNR AR TRES W  DIS CAZ7
 BAR2 SZ EP   1   2258  2.30                             171    -0.1 7   22 203 
 BAR2 SZ ES   1   2258 18.03                             171     0.2 7   22 203 
 BAR2 SZ I        2258 20.00        23.4 0.27                            22 203 
 BTL  SZ EP   1   2258  2.58                             170     0.1 7   24 311 
 GIR2 SZ EP   1   2258  2.41                             166    -0.1 7   35 343 
 PAM  SZ EP   1   2258  5.06                             151     0.1 7   77  36 
 PAM  SN ES   1   2258 22.19                             151    -0.2 7   77  36 
 PAM  SZ I        2258 24.49         7.7 0.53                            77  36 
 BRR  HZ EP       2258  4.17                             151    -0.110   77 299 
 BRR  HN ES   1   2258 21.19                             151     0.1 7   77 299 
 BRR  HZ I        2258 23.33        29.9 0.15                            77 299 
 GRA  SZ EP       2258  8.11                             137     0.010  127  15 
 GRA  SZ I        2258 29.39        11.6 0.29                           127  15 
 OCA  SZ EP   1   2258 11.11                             129    -0.2 7  164 352 
 OCA  SZ I        2258 37.15        16.4 0.00                           164 352 
 NOR  SN ES   2   2258 46.73                             118    -0.1 4  237 236 
 CHI  HZ EP   1   2258 20.93                             118     0.7 6  247 196 
 CHI  HE ES   1   2258 49.05                             118    -0.6 6  247 196 
 CHI  HZ I        2258 59.21         5.6 0.60                           247 196 
                                                                                
