 2017 12 3 2122 19.2 L   6.806 -73.198130.8  RSN  7 0.4 1.5LRSN                1
 GAP=130        1.06       4.3     4.5  7.9 -0.4046E+01  0.1567E+02 -0.3691E+01E
 Epicentro: ZAPATOCA - SANTANDER                                               3
 ACTION:UPD 18-01-04 13:16 OP:rebc STATUS:               ID:20171203212219 L   I
 OLDACT:UP  17-12-04 05:20 OP:edw  STATUS:               ID:20171203211737     3
 OLDACT:UP  17-12-04 05:20 OP:edw  STATUS:               ID:20171203211737     3
 OLDACT:UP  17-12-04 05:19 OP:edw  STATUS:               ID:20171203211737     3
 OLDACT:REG 17-12-04 04:44 OP:edw  STATUS:               ID:20171203211737     3
 2017-12-03-2118-00M.COL___495                                                 6
 STAT SP IPHASW D HRMM SECON CODA AMPLIT PERI AZIMU VELO AIN AR TRES W  DIS CAZ7
 BAR2 EZ ES       2122 50.64                             169   -0.3710 23.6 176 
 PAM  EZ EP       2122 39.72                             147   -0.3910 80.7  43 
 PAM  EN ES       2122 56.90                             147    0.5110 80.7  43 
 PAM  EZ I        2122 59.11         4.9 0.72            151           80.7  43 
 RUS  HZ EP       2122 41.16                             140   -0.4910  102 173 
 RUS  HN ES       2122 59.32                             140    0.2010  102 173 
 RUS  HZ I        2123  0.17         3.0 0.36            145            102 173 
 PTB  HZ EP       2122 44.00                             129   -0.52 9  142 258 
 PTB  HN ES       2123  4.28                             129    0.05 9  142 258 
 PTB  HZ I        2123  8.38         3.5 0.16            131            142 258 
 SPBC HZ EP       2122 47.27                             126    0.93 9  160 217 
 SPBC HE ES       2123  7.60                             126    0.13 9  160 217 
 SPBC HZ I        2123 12.07         5.3 0.20            128            160 217 
 ZAR  HZ EP       2122 50.40                             120    0.23 9  199 293 
 ZAR  HN ES       2123 14.29                             120   -0.01 9  199 293 
 ZAR  HZ I        2123 20.86         4.7 0.24            121            199 293 
 NOR  HZ EP   4   2122 56.03                             116    2.35 0  230 234 
 NOR  HN ES       2123 20.38                             116   -0.16 8  230 234 
 NOR  HZ I        2123 23.31         2.6 0.30            118            230 234 
                                                                                
