 2017  1 3 2344 57.5 L   6.793 -73.096148.0  RSN  8 0.5 2.2LRSN                1
 GAP=124        1.12       4.3     5.6  6.6  0.7426E+01  0.8186E+01  0.9651E+01E
 Epicentro: LOS SANTOS - SANTANDER                                             3
 ACTION:UPD 17-05-22 15:55 OP:jn   STATUS:               ID:20170103234457 L   I
 OLDACT:UP  17-01-04 05:16 OP:cog  STATUS:               ID:20170103233749d    3
 OLDACT:DUP 17-01-04 05:11 OP:cog  STATUS:               ID:20170103233749d    3
 2017-01-03-2338-00M.COL___369                                                 6
 STAT SP IPHASW D HRMM SECON CODA AMPLIT PERI AZIMU VELO AIN AR TRES W  DIS CAZ7
 BAR2 EZ EP       2345 17.30                             170   -0.1410 24.2 203 
 BAR2 EZ ES       2345 32.39                             170   -0.5810 24.2 203 
 BAR2 EZ I        2345 35.12        33.4 0.50            168           24.2 203 
 PAM  EZ EP       2345 20.26                             152    0.4510 74.6  36 
 PAM  EN ES       2345 37.52                             152    0.3210 74.6  36 
 PAM  EZ I        2345 39.50        44.2 0.50            156           74.6  36 
 BRR  HZ EP       2345 18.99                             151   -0.2210 76.4 297 
 BRR  HN ES       2345 36.37                             151    0.2410 76.4 297 
 BRR  HZ I        2345 40.25        25.9 0.18            150           76.4 297 
 RUS  HZ EP       2345 21.57                             144    0.1510 99.6 179 
 RUS  HE ES       2345 40.26                             144    0.2010 99.6 179 
 RUS  HZ I        2345 41.19        20.2 0.36            146           99.6 179 
 ZAR  HZ EP       2345 30.48                             122   -0.18 8  209 292 
 ZAR  HN ES       2345 55.80                             122   -0.72 8  209 292 
 ZAR  HZ I        2346  1.17        16.9 0.18            123            209 292 
 CHI  HZ EP       2345 35.61                             117    0.19 8  249 196 
 CHI  HE ES       2346  5.84                             117    0.85 8  249 196 
 CHI  HZ I        2346 10.73         7.1 0.66            119            249 196 
 GUY2CHZ EP       2345 42.40                             112    0.71 7  305 235 
 GUY2CHN ES   4   2346 19.65                             112    3.51 0  305 235 
 GUY2CHZ  IAML    2346 23.31         7.9 0.36                           305 235 
 PTGC HZ EP       2345 40.56                             112   -0.61 7  306 160 
 PTGC HN ES       2346 14.28                             112   -0.94 7  306 160 
                                                                                
