 2015 11 3 2308 37.3 L   6.813 -73.157143.5  RSN 23 0.5 2.6LRSN                1
 GAP= 70        0.99       2.4     2.9  4.7 -0.3044E+00  0.3719E+01  0.2242E+01E
 Epicentro: LOS SANTOS - SANTANDER                                             3
 ACTION:UPD 15-12-28 16:08 OP:cam  STATUS:               ID:20151103230837 L   I
 OLDACT:UP  15-12-17 21:00 OP:cam  STATUS:               ID:20151103230837 L   3
 OLDACT:UP  15-11-19 06:49 OP:CARA STATUS:               ID:20151103230837 L   3
 OLDACT:UP  15-11-04 05:05 OP:mh   STATUS:               ID:20151103230748     3
 OLDACT:UP  15-11-04 04:03 OP:mh   STATUS:               ID:20151103230748     3
 OLDACT:UP  15-11-04 04:03 OP:mh   STATUS:               ID:20151103230748     3
 OLDACT:UP  15-11-04 04:01 OP:mh   STATUS:               ID:20151103230748     3
 OLDACT:UP  15-11-04 03:59 OP:mh   STATUS:               ID:20151103230748     3
 OLDACT:UP  15-11-04 03:58 OP:mh   STATUS:               ID:20151103230748     3
 OLDACT:UP  15-11-04 03:57 OP:mh   STATUS:               ID:20151103230748     3
 OLDACT:UP  15-11-04 03:53 OP:mh   STATUS:               ID:20151103230748     3
 OLDACT:REG 15-11-04 03:13 OP:mh   STATUS:               ID:20151103230748     3
 2015-11-03-2307-48M.COL___310                                                 6
 STAT SP IPHASW D HRMM SECON CODA AMPLIT PERI AZIMU VELO AIN AR TRES W  DIS CAZ7
 BAR2 EZ EP       23 8 56.66                             170   -0.0310 24.6 187 
 BAR2 EZ ES       23 9 11.12                             170   -0.6810 24.6 187 
 BAR2 EZ I        23 9 13.15        55.0 0.18            168           24.6 187 
 BRR  HZ EP       23 8 58.51                             153    0.4010 69.4 298 
 BRR  HN ES       23 9 15.14                             153    0.8110 69.4 298 
 BRR  HZ I        23 9 19.27        84.8 0.48            148           69.4 298 
 PAM  EZ EP     C 23 8 59.74                             150    0.4810 77.1  41 
 PAM  EN ES       23 9 16.63                             150    0.2510 77.1  41 
 PAM  EZ I        23 9 18.59       140.1 0.48            153           77.1  41 
 RUS  HZ EP       23 9  0.56                             143   -0.3810  102 175 
 RUS  HN ES       23 9 19.53                             143    0.1510  102 175 
 RUS  HZ I        23 9 20.49        45.1 0.30            144            102 175 
 TAM  HZ IP     D 23 9  5.11                             130    0.16 9  157 105 
 TAM  HE ES       23 9 26.59                             130    0.08 9  157 105 
 OCA  HZ EP   1   23 9  4.69                             129   -0.60 7  159 354 
 OCA  HN ES       23 9 26.40                             129   -0.72 9  159 354 
 OCA  HZ I        23 9 31.49        82.7 0.22            129            159 354 
 SPBC HZ EP   1   23 9  5.64                             128   -0.02 7  164 218 
 SPBC HN ES       23 9 27.08                             128   -0.70 9  164 218 
 SPBC HZ I        23 9 30.06        62.2 0.36            127            164 218 
 ZAR  HZ EP   1   23 9  9.86                             122    0.43 6  202 292 
 ZAR  HN ES       23 9 34.67                             122    0.18 9  202 292 
 ZAR  HZ I        23 9 40.80        47.5 0.23            120            202 292 
 NOR  HZ EP   1   23 9 12.96                             118    0.07 6  235 234 
 NOR  HN ES   1   23 9 40.94                             118    0.30 6  235 234 
 NOR  HZ I        23 9 44.96        20.6 0.16            117            235 234 
 SML  HZ EP   1   23 9 12.99                             117   -0.62 6  242 335 
 SML  HN ES   1   23 9 41.58                             117   -0.34 6  242 335 
 SML  HZ I        23 9 44.73        57.8 0.10            117            242 335 
 CHI  HZ EP     C 23 9 14.94                             116   -0.06 8  250 195 
 CHI  HN ES       23 9 44.02                             116   -0.37 8  250 195 
 CHI  HZ I        23 9 47.34        27.1 0.38            117            250 195 
 ROSC BZ EP       23 9 16.35                             116    0.98 8  253 211 
 ROSC BN ES       23 9 45.51                             116    0.45 8  253 211 
 ROSC BZ I        23 9 50.07        50.1 0.30            116            253 211 
 HEL  HN ES       23 9 48.13                             114   -0.38 8  271 255 
 HEL  HZ I        23 9 54.03        11.2 0.32            113            271 255 
 URE  HZ EP   1   23 9 18.69                             113    0.61 6  282 292 
 URE  HN ES   4   23 9 47.35                             113   -2.53 0  282 292 
 GUY2CHZ EP       23 9 20.47                             112   -0.32 7  301 234 
 GUY2CHN ES   4   23 9 57.56                             112    2.85 0  301 234 
 GUY2CHZ I        2310  2.19        13.7 0.30                           301 234 
 VIL  SZ EP       23 9 20.52                             111   -0.23 7  305 191 
 VIL  SE ES   1   23 9 54.38                             111   -0.26 5  305 191 
 PTGC HZ EP   4   23 9 19.56                             111   -1.70 0  310 159 
 PTGC HN ES   4   23 9 53.38                             111   -2.17 0  310 159 
 PTGC HZ I        23 9 57.68        37.4 0.28            112            310 159 
 DBB  SZ EP       23 9 24.10                             109   -0.44 7  338 274 
 DBB  SZ ES   4   23 9 58.29                             109   -3.09 0  338 274 
 MON  HZ EP   9   23 9 24.29                             108   -1.71 0  352 308 
 MON  HN ES       2310  2.01                             108   -0.26 6  352 308 
 MON  HZ I        2310 24.58         9.1 0.62            108            352 308 
 ANIL HE ES   4   2310  7.48                             108    1.64 0  358 224 
 ANIL HZ I        2310 24.45        27.2 0.26            108            358 224 
 ORTC HZ EP   1   23 9 31.07                             106   -0.13 4  396 216 
 ORTC HN ES       2310 13.81                             106    0.57 6  396 216 
 ORTC HZ I        2310 17.80        12.2 0.32            106            396 216 
 PAL  HZ EP   1   23 9 31.94                             105   -0.42 4  405 239 
 PAL  HN ES   1   2310 15.58                             105    0.29 4  405 239 
 PAL  HZ I        2310 20.30         4.6 0.30            105            405 239 
 SJC  HZ EP   4   23 9 30.89                             105   -1.68 0  407 327 
 SJC  HN ES   4   2310 11.72                             105   -3.96 0  407 327 
 SJC  HZ I        2310 16.31         6.8 0.44            105            407 327 
 MACC HZ EP   4   23 9 43.76                             101   -2.35 0  522 188 
 MACC HN ES   4   2310 34.71                             101   -5.06 0  522 188 
                                                                                
