 2012  4 3 2327 17.4 L   6.751 -73.148146.2  RSN  9 0.4 1.9LRSN                1
 GAP=182        0.77       4.7     6.0  7.7  0.7051E+01  0.6317E+01  0.9061E+01E
 Epicentro: LOS SANTOS - SANTANDER                                             3
 ACTION:UPD 12-07-05 11:50 OP:tino STATUS:               ID:20120403232717 L   I
 2012-04-03-2320-00M.COL___195                                                 6
 STAT SP IPHASW D HRMM SECON CODA AMPLIT PERI AZIMU VELO AIN AR TRES W  DIS CAZ7
 BAR2 SZ EP   1   2327 36.83                             173    -0.1 7   18 192 
 BAR2 SZ ES   2   2327 51.66                             173    -0.6 5   18 192 
 BAR2 SZ I        2327 54.60        24.3 0.43                            18 192 
 BRR  HZ EP   1   2327 38.75                             152     0.0 7   74 302 
 BRR  HN ES   1   2327 55.95                             152     0.6 7   74 302 
 BRR  HZ I        2328  0.58        20.5 0.14                            74 302 
 RUS  HZ EP   1   2327 40.87                             145     0.1 7   95 176 
 RUS  HE ES   1   2327 59.30                             145     0.3 7   95 176 
 RUS  HZ I        2328  0.08         7.2 0.36                            95 176 
 PTB  HZ EP   1   2327 43.87                             133    -0.4 7  147 261 
 PTB  HN ES   1   2328  4.71                             133    -0.5 7  147 261 
 PTB  HZ I        2328 10.60        10.8 0.28                           147 261 
 OCA  SZ ES   2   2328  8.44                             129    -0.3 5  166 353 
 ZAR  HN ES   2   2328 15.35                             122    -0.2 4  206 294 
 ZAR  HZ I        2328 25.81        11.2 0.37                           206 294 
 NOR  SZ EP   2   2327 53.24                             119     0.5 4  231 236 
 NOR  SN ES   2   2328 21.04                             119     0.7 4  231 236 
 CHI  HZ EP   1   2327 54.87                             118     0.4 6  243 195 
 CHI  HN ES   2   2328 22.66                             118    -0.8 4  243 195 
 CHI  HZ I        2328 32.71         4.7 0.54                           243 195 
 PRA  HN ES   2   2328 51.85                             107     0.2 3  387 210 
                                                                                
