 2016 11 3 2043 48.7 L   6.780 -73.124142.2  RSN  8 0.3 1.6LRSN                1
 GAP=140        0.78       3.1     3.9  4.8  0.6585E+00  0.1251E+01  0.3867E+01E
 Epicentro: LOS SANTOS - SANTANDER                                             3
 ACTION:UPD 17-10-26 21:04 OP:lp   STATUS:               ID:20161103204348 L   I
 OLDACT:UP  16-11-04 03:26 OP:edw  STATUS:               ID:20161103203749     3
 OLDACT:UP  16-11-04 03:26 OP:edw  STATUS:               ID:20161103203749     3
 OLDACT:REG 16-11-04 02:40 OP:edw  STATUS:               ID:20161103203749     3
 2016-11-03-2038-00M.COL___343                                                 6
 STAT SP IPHASW D HRMM SECON CODA AMPLIT PERI AZIMU VELO AIN AR TRES W  DIS CAZ7
 BAR2 EZ EP       2044  7.53                             171   -0.3410 21.8 197 
 BAR2 EZ ES       2044 22.84                             171    0.0210 21.8 197 
 BAR2 EZ I        2044 23.80        18.0 0.80            171           21.8 197 
 BRR  HZ IP       2044  9.44                             151   -0.2110 74.4 299 
 BRR  HN ES       2044 26.61                             151    0.6210 74.4 299 
 PAM  EZ EP       2044 10.56                             150    0.0210 77.6  37 
 PAM  EN ES       2044 27.65                             150    0.0610 77.6  37 
 PAM  EZ I        2044 29.76         9.7 0.52            150           77.6  37 
 RUS  HZ EP       2044 11.77                             144   -0.1610 98.3 177 
 RUS  HE ES       2044 29.81                             144   -0.2410 98.3 177 
 RUS  HZ I        2044 31.47         2.6 0.32            145           98.3 177 
 PTB  HZ EP   9   2044 14.69                             131   -0.87 0  150 260 
 PTB  HN ES       2044 35.41                             130   -0.23 9  150 260 
 PTB  HZ I        2044 36.32         5.0 0.18            130            150 260 
 ZAR  HZ EP   4   2044 23.69                             121    2.46 0  207 292 
 ZAR  HN ES       2044 46.19                             121   -0.42 8  207 292 
 ZAR  HZ I        2044 51.79         4.6 0.28            121            207 292 
 NOR  HN ES   4   2044 59.48                             118    7.41 0  235 235 
 CHI  HZ EP       2044 26.49                             116    0.45 8  247 196 
 CHI  HN ES       2044 55.26                             116    0.09 8  247 196 
 PRA  HZ EP       2044 42.58                             106    0.56 6  391 210 
 PRA  HN ES   4   2045 22.07                             106   -1.54 0  391 210 
 PRA  HZ I        2045 25.81         1.6 0.30            106            391 210 
                                                                                
