 2013  3 3 2259 53.5 L   6.791 -73.112152.3  RSN 10 0.4 2.0LRSN                1
 GAP=141        1.05       3.5     4.4  6.0 -0.1415E+01  0.8534E+01  0.7969E+00E
 Epicentro: LOS SANTOS - SANTANDER                                             3
 ACTION:UPD 13-04-09 13:59 OP:ep   STATUS:               ID:20130303225953 L   I
 2013-03-03-2300-00M.COL___228                                                 6
 STAT SP IPHASW D HRMM SECON CODA AMPLIT PERI AZIMU VELO AIN AR TRES W  DIS CAZ7
 BAR2 SZ EP       23 0 13.85                             171   -0.0810 23.3 200 
 BAR2 SZ ES       23 0 29.90                             171    0.0510 23.3 200 
 BAR2 SZ I        23 0 32.87        16.0 0.40            170           23.3 200 
 BRR  HZ EP       23 0 15.89                             152    0.3110 75.0 298 
 BRR  HN ES       23 0 33.42                             152    0.6310 75.0 298 
 BRR  HN I        23 0 34.36        39.3 0.20            151           75.0 298 
 PAM  SZ EP       23 0 16.69                             152    0.3510 75.8  37 
 PAM  SN ES       23 0 34.12                             152   -0.0210 75.8  37 
 PAM  SN I        23 0 37.45         7.6 0.30            155           75.8  37 
 RUS  HZ EP       23 0 17.73                             145   -0.1010 99.4 178 
 RUS  HN ES       23 0 36.44                             145   -0.3510 99.4 178 
 RUS  HN I        23 0 37.92        11.2 0.16            146           99.4 178 
 PTB  HZ EP       23 0 20.94                             133   -0.39 9  151 259 
 PTB  HN ES       23 0 42.21                             133   -0.82 9  151 259 
 OCA  HN ES       23 0 44.99                             131   -0.08 9  162 352 
 ZAR  HZ EP       23 0 25.99                             123   -0.80 8  208 292 
 ZAR  HN ES       23 0 52.91                             123    0.17 8  208 292 
 ZAR  HN I        23 0 58.13        14.7 0.20            123            208 292 
 HEL  HZ EP       23 0 35.27                             116    0.83 7  275 256 
 HEL  HN ES       23 1  6.73                             116    0.37 7  275 256 
 HEL  HN I        23 1 15.46         5.5 0.52            116            275 256 
 COD  HN ES       23 1 19.96                             110   -0.42 6  350 354 
 COD  HN I        23 1 23.79         2.8 0.20            111            350 354 
 PRA  HZ EP       23 0 47.44                             107    0.06 6  393 210 
 PRA  HN ES       23 1 30.12                             107    0.72 6  393 210 
 PRA  HN I        23 1 35.59         3.7 0.36            108            393 210 
                                                                                
