 2015  1 3 2345 20.8 L   6.713 -73.169154.0  RSN  7 0.4 1.4LRSN                1
 GAP=137        0.84       4.9     4.9  9.1  0.5249E+01 -0.7164E+01 -0.6658E+01E
 Epicentro: VILLANUEVA - SANTANDER                                             3
 ACTION:UPD 15-03-02 15:36 OP:nd   STATUS:               ID:20150103234520 L   I
 OLDACT:UP  15-01-04 09:33 OP:spq  STATUS:               ID:20150103233751     3
 OLDACT:REG 15-01-04 04:16 OP:spq  STATUS:               ID:20150103233751     3
 2015-01-03-2337-51M.COL___274                                                 6
 STAT SP IPHASW D HRMM SECON CODA AMPLIT PERI AZIMU VELO AIN AR TRES W  DIS CAZ7
 BAR2 EZ EP       2345 41.18                             175   -0.1210 13.5 186 
 BRR  HZ EP       2345 43.04                             153    0.0110 74.2 306 
 BRR  HN ES   1   2346  0.75                             153    0.39 7 74.2 306 
 BRR  HZ I        2346  6.72         6.3 0.46            151           74.2 306 
 PAM  SZ EP       2345 43.99                             149   -0.4810 86.5  37 
 RUS  HZ EP       2345 45.48                             148    0.7110 91.3 174 
 RUS  HN ES   1   2346  3.37                             148   -0.08 7 91.3 174 
 RUS  HZ I        2346  4.46         2.3 0.38            150           91.3 174 
 PTB  HZ EP       2345 48.13                             135    0.01 9  144 262 
 PTB  HN ES       2346  9.14                             135   -0.27 9  144 262 
 PTB  HZ I        2346 15.96         2.5 0.42            135            144 262 
 ZAR  HZ EP   1   2345 54.27                             124    0.30 6  206 295 
 ZAR  HN ES   1   2346 19.89                             124    0.06 6  206 295 
 ZAR  HZ I        2346 25.21         3.9 0.34            125            206 295 
 CHI  HZ EP   4   2345 59.35                             120    1.41 0  239 195 
 CHI  HE ES   1   2346 26.32                             120   -0.57 6  239 195 
 CHI  HZ I        2346 32.36         0.8 0.50            123            239 195 
                                                                                
