 2017  2 3 2011  1.8 L   6.810 -73.115147.6  RSN  4 0.0 1.5LRSN                1
 GAP=140        0.30       1.6     1.7  2.9  0.5792E+00  0.7205E+00  0.4805E+00E
 Epicentro: LOS SANTOS - SANTANDER                                             3
 ACTION:UPD 17-05-24 15:32 OP:jn   STATUS:               ID:20170203201101 L   I
 OLDACT:REG 17-02-04 02:44 OP:dani STATUS:               ID:20170203200744     3
 2017-02-03-2008-00M.COL___346                                                 6
 STAT SP IPHASW D HRMM SECON CODA AMPLIT PERI AZIMU VELO AIN AR TRES W  DIS CAZ7
 BRR  HZ EP       2011 23.41                             152    0.0910 73.6 297 
 BRR  HE ES       2011 40.03                             152   -0.0510 73.6 297 
 BRR  HZ I        2011 44.13        11.9 0.24            152           73.6 297 
 PAM  EZ EP       2011 24.04                             152   -0.0310 74.4  38 
 PAM  EN ES       2011 41.43                             152    0.0110 74.4  38 
 PAM  EZ I        2011 42.03         3.3 0.22            155           74.4  38 
 RUS  HZ EP       2011 25.77                             144   -0.0610  102 178 
 RUS  HN ES       2011 44.59                             144    0.0310  102 178 
 RUS  HZ I        2011 45.34         3.3 0.16            147            102 178 
 ZAR  HE ES       2012  0.28                             122   -0.01 8  207 292 
                                                                                
