 2017 11 3 2115 14.9 L   6.786 -73.191131.5  RSN  4 0.3 0.9LRSN                1
 GAP=142        0.76       4.4     4.2  6.5 -0.5751E+01  0.8139E+01 -0.2955E+01E
 Epicentro: ZAPATOCA - SANTANDER                                               3
 ACTION:UPD 17-12-12 19:51 OP:rebc STATUS:               ID:20171103211514 L   I
 OLDACT:DUP 17-11-04 06:08 OP:osc  STATUS:               ID:20171103210739d    3
 2017-11-03-2108-00M.COL___429                                                 6
 STAT SP IPHASW D HRMM SECON CODA AMPLIT PERI AZIMU VELO AIN AR TRES W  DIS CAZ7
 BAR2 EZ EP       2115 32.74                             170    0.0110 21.4 177 
 BAR2 EZ ES       2115 46.57                             170   -0.1110 21.4 177 
 BAR2 EZ I        2115 48.61         3.9 0.28            173           21.4 177 
 PAM  EZ EP       2115 35.38                             146   -0.4910 81.9  42 
 PAM  EE ES       2115 52.59                             146    0.3310 81.9  42 
 PAM  EZ I        2115 55.93         1.6 0.28            150           81.9  42 
 RUS  HZ EP       2115 37.12                             141   -0.0310 99.5 173 
 RUS  HN ES       2115 54.60                             141    0.0710 99.5 173 
 RUS  HZ I        2115 56.59         1.2 0.30            146           99.5 173 
 PTB  HZ EP       2115 40.69                             130    0.49 9  143 259 
 PTB  HN ES       2115 59.74                             130   -0.24 9  143 259 
 PTB  HZ I        2116  4.54         0.9 0.24            132            143 259 
                                                                                
