 2016  9 3 2032 44.5 L   6.743 -73.135147.1  RSN  4 0.4 1.3LRSN                1
 GAP=140        1.11       6.0     5.9  9.8 -0.3899E+01  0.5305E+01  0.6693E+01E
 Epicentro: LOS SANTOS - SANTANDER                                             3
 ACTION:UPD 17-08-17 21:06 OP:lp   STATUS:               ID:20160903203244 L   I
 OLDACT:REG 16-09-04 03:25 OP:and  STATUS:               ID:20160903202737     3
 2016-09-03-2028-00M.COL___361                                                 6
 STAT SP IPHASW D HRMM SECON CODA AMPLIT PERI AZIMU VELO AIN AR TRES W  DIS CAZ7
 BRR  HZ EP       2033  6.25                             151    0.2310 75.4 302 
 BRR  HE ES       2033 23.18                             151    0.3610 75.4 302 
 PAM  EZ IP     C 2033  7.22                             150    0.1310 81.6  36 
 PAM  EN ES       2033 24.37                             150   -0.3610 81.6  36 
 PAM  EZ I        2033 26.82         5.5 0.54            151           81.6  36 
 RUS  HZ EP       2033  7.37                             146   -0.5510 94.2 177 
 RUS  HN ES       2033 26.60                             146    0.4010 94.2 177 
 RUS  HZ I        2033 27.37         1.9 0.28            147           94.2 177 
 PTB  HZ EP       2033 12.03                             132    0.46 9  148 261 
 PTB  HE ES       2033 32.00                             132   -0.70 9  148 261 
 PTB  HZ I        2033 34.18         3.0 0.14            134            148 261 
                                                                                
