 2012 10 3 2223 54.1 L   6.778 -73.100147.8  RSN  8 0.2 2.3LRSN                1
 GAP=143        0.49       2.6     3.2  3.8 -0.1952E+01  0.2414E+01  0.3311E+01E
 Epicentro: LOS SANTOS - SANTANDER                                             3
 ACTION:UPD 12-11-22 17:01 OP:ep   STATUS:               ID:20121003222354 L   I
 2012-10-03-2220-00M.COL___220                                                 6
 STAT SP IPHASW D HRMM SECON CODA AMPLIT PERI AZIMU VELO AIN AR TRES W  DIS CAZ7
 BAR2 SZ EP       2224 13.75                             171   -0.2310 22.5 204 
 BAR2 SZ ES   1   2224 29.34                             171   -0.13 7 22.5 204 
 BAR2 SZ I        2224 32.76        37.1 0.44                          22.5 204 
 PAM  SZ EP       2224 16.61                             152    0.1310 76.2  35 
 PAM  SN ES   1   2224 34.00                             152    0.08 7 76.2  35 
 PAM  SN I        2224 35.05        40.7 0.50                          76.2  35 
 BRR  HZ EP       2224 15.78                             151   -0.0310 76.8 298 
 BRR  HZ I        2224 17.59        28.9 0.12                          76.8 298 
 BRR  HN ES   1   2224 32.91                             151    0.19 7 76.8 298 
 RUS  HZ EP       2224 17.73                             145   -0.1610 98.0 179 
 RUS  HE ES   1   2224 36.59                             145    0.17 7 98.0 179 
 CHI  HZ EP       2224 32.06                             118    0.23 8  248 196 
 CHI  HN ES   1   2225  1.08                             118   -0.17 6  248 196 
 CHI  HN I        2225  3.73        10.1 0.30                           248 196 
 HEL  HN ES   1   2225  6.23                             115   -0.50 6  276 257 
 HEL  HN I        2225 12.44         9.4 0.40                           276 257 
 RREF HZ EP   1   2224 40.96                             111    0.35 5  324 230 
 RREF HN ES   1   2225 17.51                             111    0.63 5  324 230 
 RREF HZ I        2225 24.74         9.5 0.24                           324 230 
 PRA  HZ EP       2224 47.51                             107   -0.25 6  392 210 
 PRA  HN ES   2   2225 29.83                             107    0.23 3  392 210 
                                                                                
