 2017  3 3 2309  5.1 L   6.771 -73.151143.0  RSN  7 0.5 1.9LRSN                1
 GAP=137        1.34       5.7     5.7  9.0 -0.1321E+01  0.1318E+02 -0.3787E+01E
 Epicentro: LOS SANTOS - SANTANDER                                             3
 ACTION:UPD 17-05-25 18:35 OP:jn   STATUS:               ID:20170303230905 L   I
 OLDACT:REG 17-03-04 06:58 OP:cog  STATUS:               ID:20170303230745     3
 2017-03-03-2308-00M.COL___397                                                 6
 STAT SP IPHASW D HRMM SECON CODA AMPLIT PERI AZIMU VELO AIN AR TRES W  DIS CAZ7
 BAR2 EZ EP       23 9 23.79                             172   -0.5310 20.1 190 
 BAR2 EZ ES       23 9 39.10                             172   -0.2310 20.1 190 
 BAR2 EZ I        23 9 40.16        20.0 0.26            173           20.1 190 
 BRR  HZ EP       23 9 26.19                             152    0.1910 72.3 301 
 BRR  HN ES       23 9 42.99                             152    0.6810 72.3 301 
 BRR  HZ I        23 9 46.04        14.5 0.28            152           72.3 301 
 PAM  EZ EP       23 9 27.39                             149    0.2110 80.2  38 
 PAM  EE ES       23 9 44.12                             149   -0.2910 80.2  38 
 PAM  EZ I        23 9 46.23        19.8 0.50            151           80.2  38 
 RUS  HZ EP       23 9 28.13                             144   -0.2110 97.5 176 
 RUS  HN ES       23 9 46.98                             144    0.5010 97.5 176 
 PTB  HZ EP       23 9 31.05                             132   -0.68 9  147 260 
 PTB  HN ES       23 9 51.68                             132   -0.83 9  147 260 
 PTB  HZ I        23 9 54.26         5.5 0.16            133            147 260 
 SPBC HN ES       23 9 55.39                             129    0.42 9  160 220 
 ZAR  HZ EP       23 9 38.47                             122    1.04 9  205 293 
 ZAR  HN ES       2310  2.51                             122   -0.14 9  205 293 
                                                                                
