 2015  4 3 2052 45.7 L   6.846 -73.169143.4  RSN  5 0.4 1.5LRSN                1
 GAP=208        0.96       4.3     7.2  6.9 -0.2474E+01  0.4552E+01 -0.5484E+01E
 Epicentro: ZAPATOCA - SANTANDER                                               3
 ACTION:UPD 15-06-03 16:52 OP:cam  STATUS:               ID:20150403205245 L   I
 OLDACT:REG 15-04-04 02:58 OP:stll STATUS:               ID:20150403204748     3
 2015-04-03-2047-48M.COL___288                                                 6
 STAT SP IPHASW D HRMM SECON CODA AMPLIT PERI AZIMU VELO AIN AR TRES W  DIS CAZ7
 BAR2 EZ EP       2053  4.95                             168   -0.1610 28.1 183 
 BAR2 EZ ES       2053 19.93                             168   -0.3510 28.1 183 
 BAR2 EZ I        2053 21.24         5.3 0.42            165           28.1 183 
 BRR  HZ EP       2053  6.93                             154    0.6410 66.6 296 
 BRR  HZ I        2053  9.09         3.9 0.32            151           66.6 296 
 BRR  HN ES       2053 22.82                             154    0.4410 66.6 296 
 PTB  HZ EP       2053 12.03                             132   -0.27 9  146 257 
 PTB  HN ES       2053 32.71                             132   -0.37 9  146 257 
 PTB  HZ I        2053 37.56         4.6 0.16            129            146 257 
 SPBC HZ EP       2053 14.02                             128   -0.19 9  166 217 
 SPBC HE ES       2053 36.83                             128    0.36 9  166 217 
 SPBC HZ I        2053 41.83         5.4 0.44            126            166 217 
 SML  HZ EP       2053 21.81                             118    0.28 8  238 335 
 SML  HN ES       2053 49.01                             118   -0.50 8  238 335 
                                                                                
