 2010  5 3 2101  9.5 L   6.777 -73.020141.7  RSN  5 0.4 2.0LRSN                1
 GAP=198        0.51       7.2    12.7  5.9 -0.8149E+02  0.2323E+02 -0.7936E+01E
 Epicentro: CEPITA - SANTANDER                                                 3
 ACTION:UP  10-08-24 10:02 OP:vdl  STATUS:               ID:20100503210109 L   I
 2010-05-03-2059-35S.COL___105                                                 6
 STAT SP IPHASW D HRMM SECON CODA AMPLIT PERI AZIMU VELO SNR AR TRES W  DIS CAZ7
 BAR2 SZ EP   1   21 1 28.41                             168    -0.3 7   27 221 
 BAR2 SZ ES   1   21 1 43.73                             168     0.1 7   27 221 
 BRI  SZ EP   2   21 1 32.81                             141     0.0 5  107  13 
 GRA  SZ EP   1   21 1 34.40                             136     0.2 7  125  11 
 GRA  SZ ES   1   21 1 53.61                             136     0.0 7  125  11 
 RREF BZ EP   2   21 1 56.64                             109     0.2 3  331 231 
 RREF BE ES   1   21 2 33.00                             109    -0.1 5  331 231 
 RREF BZ I        21 2 38.48         2.8 0.56                           331 231 
 PRA  HZ EP   2   21 2  2.77                             106    -0.6 3  397 212 
 PRA  HE ES   2   21 2 46.69                             106     1.2 3  397 212 
 PRA  HZ I        21 2 51.01         4.2 0.26                           397 212 
                                                                                
