 2012  4 3 2344 49.2 L   6.734 -73.172152.5  RSN  7 0.3 1.6LRSN                1
 GAP=136        0.53       5.2     4.3  6.7  0.2915E+01 -0.2405E+01 -0.3310E+01E
 Epicentro: VILLANUEVA - SANTANDER                                             3
 ACTION:UPD 12-07-05 11:50 OP:tino STATUS:               ID:20120403234449 L   I
 2012-04-03-2340-00M.COL___196                                                 6
 STAT SP IPHASW D HRMM SECON CODA AMPLIT PERI AZIMU VELO AIN AR TRES W  DIS CAZ7
 BAR2 SZ EP   2   2345  9.66                             174     0.2 5   16 184 
 BAR2 SZ ES   2   2345 24.82                             174    -0.5 5   16 184 
 BRR  HZ EP   1   2345 11.31                             153     0.2 7   72 305 
 BRR  HZ I        2345 18.46        10.4 0.14                            72 305 
 BRR  HE ES   2   2345 28.73                             153     0.5 5   72 305 
 PAM  SZ EP   1   2345 12.42                             150    -0.1 7   85  38 
 RUS  HZ EP   2   2345 13.21                             147     0.1 5   94 174 
 RUS  HN ES   2   2345 31.92                             147     0.1 5   94 174 
 RUS  HZ I        2345 34.28         3.9 0.36                            94 174 
 PTB  HZ EP   1   2345 16.50                             134     0.2 7  144 261 
 PTB  HE ES   1   2345 37.53                             134     0.0 7  144 261 
 PTB  HZ I        2345 44.07         3.2 0.38                           144 261 
 ZAR  HN ES   2   2345 47.14                             124    -0.6 4  204 294 
 ZAR  HZ I        2345 52.69         5.0 0.46                           204 294 
 CHI  HZ EP   2   2345 26.11                             119    -0.3 4  241 195 
                                                                                
