 2012  5 3 2314 58.6 L   6.833 -73.310117.0  RSN 14 0.4 2.6LRSN                1
 GAP=102        0.86       3.0     3.6  5.4 -0.1221E+00  0.5921E+01  0.2096E+01E
 Epicentro: ZAPATOCA - SANTANDER                                               3
 ACTION:UP  12-07-05 12:02 OP:pat  STATUS:               ID:20120503231458 L   I
 2012-05-03-2310-00M.COL___189                                                 6
 STAT SP IPHASW D HRMM SECON CODA AMPLIT PERI AZIMU VELO SNR AR TRES W  DIS CAZ7
 BAR2 SZ EP   1   2315 15.22                             165     0.2 7   30 152 
 BAR2 SZ ES   1   2315 28.13                             165     0.4 7   30 152 
 BRR  HZ EP       2315 15.61                             154     0.010   54 304 
 BRR  HN ES   1   2315 29.30                             154     0.3 7   54 304 
 BRR  HZ I        2315 30.43       145.2 0.14                            54 304 
 PAM  SZ EP   1   2315 18.25                             141    -0.4 7   88  50 
 PAM  SZ I        2315 19.48        40.9 0.17                            88  50 
 PAM  SN ES   1   2315 33.89                             141    -0.3 7   88  50 
 RUS  HZ EP   1   2315 19.99                             135    -0.2 7  107 166 
 RUS  HN ES   1   2315 37.30                             135     0.3 7  107 166 
 RUS  HZ I        2315 38.91        41.5 0.27                           107 166 
 PTB  HN ES   1   2315 38.88                             128    -0.9 7  131 256 
 PTB  HZ I        2315 42.34        49.5 0.13                           131 256 
 ZAR  HZ EP   1   2315 27.24                             118    -0.1 7  186 293 
 ZAR  HN ES   1   2315 50.40                             118     0.6 7  186 293 
 ZAR  HZ I        2315 54.29        58.0 0.33                           186 293 
 NOR  SZ EP   1   2315 31.29                             113    -0.2 6  222 231 
 NOR  SN ES   1   2315 56.49                             113    -0.6 6  222 231 
 CHI  HZ EP   1   2315 35.14                             111     0.3 6  248 191 
 CHI  HZ I        2315 35.67        25.7 0.15                           248 191 
 CHI  HN ES   1   2316  2.88                             111    -0.2 6  248 191 
 HEL  HZ EP   1   2315 36.44                             110     0.8 6  255 254 
 HEL  HN ES   1   2316  4.28                             110    -0.2 6  255 254 
 HEL  HZ I        2316  9.74        23.9 0.26                           255 254 
 URE  HZ EP   1   2315 36.32                             109     0.0 6  266 293 
 URE  HZ I        2316  5.61        35.5 0.12                           266 293 
 VIL  SZ EP   1   2315 40.78                             106    -0.1 5  304 188 
 VIL  SN ES   1   2316 13.68                             106    -0.3 5  304 188 
 VIL  SZ I        2316 21.31        17.6 0.34                           304 188 
 RREF HZ EP   1   2315 43.11                             106     0.8 5  311 227 
 RREF HZ I        2316 25.00        14.4 0.40                           311 227 
 COD  HZ EP   1   2315 45.53                             103     0.1 5  343 358 
 COD  HN ES   1   2316 21.67                             103    -0.3 5  343 358 
 COD  HZ I        2316 29.24        25.3 0.37                           343 358 
 PRA  HZ EP   1   2315 50.93                             101     0.3 4  387 207 
                                                                                
