 2016  6 3 2043 24.0 L   6.802 -73.143148.8  RSN 14 0.3 2.5LRSN                1
 GAP=112        0.74       2.5     2.5  4.0 -0.8687E+00  0.8564E+00  0.1395E+01E
 Epicentro: LOS SANTOS - SANTANDER                                             3
 ACTION:UPD 16-07-21 22:15 OP:rebc STATUS:               ID:20160603204324 L   I
 OLDACT:REG 16-06-04 04:06 OP:mh   STATUS:               ID:20160603203746     3
 2016-06-03-2037-46M.COL___322                                                 6
 STAT SP IPHASW D HRMM SECON CODA AMPLIT PERI AZIMU VELO AIN AR TRES W  DIS CAZ7
 BAR2 EZ EP       2043 43.85                             171   -0.1210 23.6 190 
 BAR2 EZ ES       2043 59.70                             171    0.1210 23.6 190 
 BAR2 EZ I        2044  0.39        77.1 0.18                          23.6 190 
 BRR  HZ EP   2   2043 45.84                             153    0.38 5 71.3 298 
 BRR  HN ES       2044  2.63                             153    0.4210 71.3 298 
 BRR  HZ I        2044  5.53        38.0 0.32                          71.3 298 
 RUS  HZ EP       2043 47.77                             144   -0.2710  101 176 
 RUS  HE ES       2044  6.60                             144   -0.2110  101 176 
 RUS  HZ I        2044  8.18        19.6 0.24                           101 176 
 PTB  HZ EP       2043 50.62                             133   -0.59 9  148 259 
 PTB  HN ES       2044 11.83                             133   -0.63 9  148 259 
 PTB  HZ I        2044 16.97        26.7 0.18                           148 259 
 TAM  HZ EP       2043 51.93                             131    0.05 9  155 105 
 TAM  HZ I        2044 12.98        22.9 0.38                           155 105 
 TAM  HE ES       2044 13.74                             131    0.10 9  155 105 
 OCA  HZ EP       2043 52.44                             130   -0.06 9  160 353 
 OCA  HN ES       2044 15.00                             130    0.25 9  160 353 
 OCA  HZ I        2044 18.59        52.0 0.36                           160 353 
 SPBC HZ EP       2043 52.86                             130    0.12 9  164 219 
 SPBC HN ES       2044 15.20                             130    0.03 9  164 219 
 SPBC HZ I        2044 21.00        40.6 0.22                           164 219 
 NOR  HZ EP       2043 59.94                             119    0.02 8  235 234 
 NOR  HN ES       2044 28.29                             119    0.34 8  235 234 
 NOR  HZ I        2044 30.27        14.4 0.20                           235 234 
 HEL  HZ EP   2   2044  4.74                             115    0.37 4  272 256 
 HEL  HN ES   4   2044 39.15                             115    3.26 0  272 256 
 HEL  HZ I        2044 42.88        14.5 0.36                           272 256 
 URE  HE ES   4   2044 34.40                             114   -2.97 0  284 292 
 URE  HZ I        2044 38.41        31.6 0.22                           284 292 
 ANIL HZ EP   2   2044 14.09                             109    0.16 3  358 225 
 ANIL HN ES   4   2044 55.62                             109    2.72 0  358 225 
 ANIL HZ I        2044 57.90        26.3 0.48                           358 225 
 PRA  HZ EP       2044 17.63                             107   -0.01 6  392 210 
 PRA  HN ES       2045  0.48                             107    0.98 6  392 210 
 PRA  HZ I        2045  8.40         9.6 0.32                           392 210 
 ORTC HZ EP       2044 17.88                             107   -0.16 6  396 216 
 ORTC HE ES   2   2045  0.64                             107    0.43 3  396 216 
 ORTC HZ I        2045  7.02         7.8 0.52                           396 216 
 CRJC HZ EP   4   2044 24.27                             104   -2.26 0  467   4 
 CRJC HN ES   4   2045 11.62                             104   -3.70 0  467   4 
 CRJC HZ I        2045 17.90         4.5 0.21                           467   4 
                                                                                
