 2012  8 3 2132 48.2 L   6.769 -73.097147.6  RSN  5 0.3 1.8LRSN                1
 GAP=144        0.61       4.2     4.9  5.8  0.1697E+01  0.2561E+01 -0.2544E+01E
 Epicentro: LOS SANTOS - SANTANDER                                             3
 ACTION:UPD 12-09-10 11:54 OP:ep   STATUS:               ID:20120803213248 L   I
 2012-08-03-2130-00M.COL___215                                                 6
 STAT SP IPHASW D HRMM SECON CODA AMPLIT PERI AZIMU VELO AIN AR TRES W  DIS CAZ7
 BAR2 SZ EP   1   2133  7.71                             171   -0.28 7 21.8 206 
 BAR2 SZ ES   1   2133 23.10                             171   -0.35 7 21.8 206 
 BAR2 SZ I        2133 25.45        10.7 0.25                          21.8 206 
 PAM  SZ EP       2133 10.66                             151    0.1110 76.8  35 
 PAM  SN ES   1   2133 27.96                             151   -0.04 7 76.8  35 
 BRR  HZ EP       2133  9.86                             151   -0.0210 77.6 299 
 BRR  HZ I        2133 12.22        16.1 0.15                          77.6 299 
 BRR  HN ES   1   2133 27.37                             151    0.55 7 77.6 299 
 RUS  HZ EP   1   2133 11.72                             145   -0.13 7 97.0 179 
 RUS  HN ES   1   2133 30.52                             145    0.21 7 97.0 179 
 RUS  HZ I        2133 32.20         5.6 0.36                          97.0 179 
 ZAR  HZ EP   2   2133 21.77                             122    0.39 4  210 292 
 ZAR  HN ES   2   2133 46.51                             122   -0.78 4  210 292 
 ZAR  HZ I        2133 50.16         6.4 0.15                           210 292 
                                                                                
