 2013  8 3 2204 28.3 L   6.798 -73.154144.1  RSN 13 0.5 2.5LRSN                1
 GAP=136        0.98       2.9     4.2  5.5 -0.2477E+00  0.4647E+01  0.1085E+01E
 Epicentro: LOS SANTOS - SANTANDER                                             3
 ACTION:UPD 14-01-14 08:58 OP:ep   STATUS:               ID:20130803220428 L   I
 OLDACT:UP  13-08-03 21:56 OP:mh   STATUS:               ID:20130803215959     3
 OLDACT:REG 13-08-03 21:23 OP:mh   STATUS:               ID:20130803215959     3
 2013-08-03-2159-59M.COL___269                                                 6
 STAT SP IPHASW D HRMM SECON CODA AMPLIT PERI AZIMU VELO AIN AR TRES W  DIS CAZ7
 BAR2 SZ EP       22 4 47.92                             171    0.2310 23.0 188 
 BAR2 SZ ES   1   22 5  2.42                             171   -0.42 7 23.0 188 
 BAR2 SZ I        22 5  4.20        45.9 0.16            168           23.0 188 
 GIR2 SZ EP   1   22 4 47.94                             167    0.19 7 31.3 352 
 GIR2 SZ ES   1   22 5  2.57                             167   -0.37 7 31.3 352 
 GIR2 SZ I        22 5  4.54        59.0 0.44            166           31.3 352 
 BRR  HZ EP       22 4 49.77                             152    0.5710 70.5 299 
 BRR  HN ES       22 5  6.27                             152    0.7510 70.5 299 
 BRR  HN I        22 5  9.73       124.5 0.16            149           70.5 299 
 PAM  SZ EP       22 4 50.90                             150    0.5510 78.1  40 
 PAM  SN ES   1   22 5  7.68                             150    0.10 7 78.1  40 
 PAM  SN I        22 5  8.82        77.2 0.44            155           78.1  40 
 RUS  HZ EP   1   22 4 51.92                             143    0.07 7  100 176 
 RUS  HN ES       22 5  9.70                             143   -0.5410  100 176 
 RUS  HN I        22 5 12.24        23.1 0.50            145            100 176 
 PTB  HZ EP   1   22 4 54.68                             132   -0.34 7  147 259 
 PTB  HN ES       22 5 15.29                             132   -0.59 9  147 259 
 PTB  HN I        22 5 20.95        46.3 0.60            131            147 259 
 OCA  HZ EP   1   22 4 55.90                             129   -0.56 7  160 353 
 OCA  HN ES   1   22 5 17.90                             129   -0.55 7  160 353 
 OCA  HN I        22 5 24.69        75.1 0.18            131            160 353 
 SPBC HZ EP       22 4 56.93                             129    0.36 9  162 219 
 SPBC HE ES   2   22 5 18.90                             129    0.26 5  162 219 
 SPBC HE I        22 5 26.31        24.3 0.26            129            162 219 
 ZAR  HZ EP   1   22 5  0.69                             122    0.16 6  203 292 
 ZAR  HN ES       22 5 25.79                             122    0.10 9  203 292 
 ZAR  HN I        22 5 30.79        33.8 0.36            122            203 292 
 NOR  HZ EP   1   22 5  4.24                             118    0.43 6  234 234 
 NOR  HE ES   1   22 5 31.93                             118    0.40 6  234 234 
 NOR  HE I        22 5 39.51        23.1 0.16            118            234 234 
 SML  HZ EP   1   22 5  4.25                             117   -0.53 6  244 336 
 SML  HN ES       22 5 32.67                             117   -0.59 8  244 336 
 SML  HN I        22 5 36.99        47.2 0.10            118            244 336 
 CHI  HZ EP   1   22 5  4.98                             117   -0.85 6  248 195 
 CHI  HN ES   1   22 5 35.25                             117    0.13 6  248 195 
 CHI  HN I        22 5 38.23        37.7 0.62            118            248 195 
 PRA  HZ EP   1   22 5 21.51                             106   -0.15 4  391 209 
 PRA  HN ES   2   22 6  2.36                             106   -0.94 3  391 209 
 PRA  HN I        22 6  8.23         8.7 0.30            107            391 209 
 SJC  HZ EP   4   22 5 22.22                             105   -1.52 0  409 327 
 SJC  HN ES   4   22 6  0.62                             105   -6.38 0  409 327 
                                                                                
