 2017  4 3 2322 20.0 L   6.837 -73.154146.6  RSN 24 0.5 2.7LRSN                1
 GAP=110        1.06       2.6     3.4  4.5  0.5422E+00  0.4085E+01  0.1687E+01E
 Epicentro: LOS SANTOS - SANTANDER                                             3
 ACTION:UPD 17-05-30 21:08 OP:jn   STATUS:               ID:20170403232220 L   I
 OLDACT:REG 17-04-04 03:06 OP:lv   STATUS:               ID:20170403231747     3
 2017-04-03-2318-00M.COL___365                                                 6
 STAT SP IPHASW D HRMM SECON CODA AMPLIT PERI AZIMU VELO AIN AR TRES W  DIS CAZ7
 BAR2 EZ EP       2322 39.75                             169   -0.1010 27.2 187 
 BAR2 EZ ES       2322 54.98                             169   -0.3310 27.2 187 
 BAR2 EZ I        2322 57.67        75.2 0.11            167           27.2 187 
 BRR  HZ EP       2322 41.55                             153    0.4210 68.6 296 
 BRR  HN ES       2322 57.79                             153    0.2110 68.6 296 
 BRR  HZ I        2323  1.01        65.4 0.08            149           68.6 296 
 PAM  EZ EP       2322 42.73                             152    0.5310 74.9  42 
 PAM  EN ES       2322 59.96                             152    0.4810 74.9  42 
 PAM  EZ I        2323  2.00       118.7 0.39            154           74.9  42 
 RUS  HZ EP       2322 43.75                             143   -0.4210  105 176 
 RUS  HN ES       2323  2.44                             143   -0.5510  105 176 
 RUS  HZ I        2323  3.66        57.4 0.37            141            105 176 
 PTB  HZ EP       2322 46.45                             132   -0.62 9  148 257 
 PTB  HE ES       2323  7.83                             132   -0.33 9  148 257 
 PTB  HZ I        2323 10.16        47.2 0.15            128            148 257 
 SPBC HZ EP       2322 48.71                             129   -0.14 9  166 218 
 SPBC HN ES       2323 10.57                             129   -0.75 9  166 218 
 SPBC HZ I        2323 13.38        85.9 0.31            126            166 218 
 YPLC HZ EP       2322 50.17                             126   -0.11 9  181 152 
 YPLC HN ES       2323 14.22                             126    0.35 9  181 152 
 YPLC HZ I        2323 15.27        68.5 0.23            126            181 152 
 ZAR  HZ EP       2322 52.24                             123   -0.06 9  202 291 
 ZAR  HN ES       2323 18.11                             123    0.64 9  202 291 
 ZAR  HZ I        2323 23.63        54.3 0.30            120            202 291 
 TABC EZ EP       2322 57.34                             119    1.18 8  233 210 
 TABC EZ ES   4   2323 26.76                             119    2.43 0  233 210 
 TABC EZ I        2323 31.43        44.7 0.44            117            233 210 
 NOR  HZ EP       2322 55.93                             118   -0.06 8  236 234 
 NOR  HN ES   4   2323 22.29                             118   -1.75 0  236 234 
 NOR  HZ I        2323 28.96        25.8 0.24            116            236 234 
 CHI  HZ EP       2322 58.06                             117   -0.12 8  252 195 
 CHI  HN ES       2323 27.84                             117   -0.09 8  252 195 
 CHI  HZ I        2323 33.47        22.0 0.39            115            252 195 
 ROSC BZ EP   9   2323  0.33                             116    1.80 0  256 210 
 ROSC BN ES       2323 31.04                                    0.68 8  256 210 
 ROSC BZ I        2323 34.50        63.1 0.28            115            256 210 
 HEL  HZ EP   4   2323  1.47                             115    1.16 0  272 255 
 HEL  HZ I        2323 38.76        26.2 0.41            113            272 255 
 URE  HZ EP   4   2323  0.26                             114   -0.63 0  282 291 
 URE  HN ES   4   2323 30.30                             114   -2.46 0  282 291 
 URE  HZ I        2323 42.12        22.0 0.07            112            282 291 
 LL1C HZ EP   4   2323  5.17                             112    1.97 0  302 352 
 LL1C HN ES   4   2323 39.48                             112    2.61 0  302 352 
 VIL  EZ EP       2323  3.52                             112   -0.40 7  307 191 
 VIL  EE ES       2323 38.27                             112    0.12 7  307 191 
 VIL  EZ I        2323 40.96        22.7 0.20            111            307 191 
 PTGC HZ EP   4   2323  2.88                             111   -1.51 0  313 159 
 PTGC HN ES   4   2323 36.38                             111   -2.61 0  313 159 
 PTGC HZ I    4   2323 41.30        34.1 0.11            111            313 159 
 ELA  HZ EP   4   2323  9.44                             110    2.29 0  331 229 
 ELA  HN ES   4   2323 41.70                             110   -2.20 0  331 229 
 CBOC HZ EP       2323  7.28                             110    0.24 7  334 251 
 CBOC HN ES       2323 44.10                             110    0.41 7  334 251 
 DBB  EZ EP       2323  7.41                             110   -0.01 7  338 274 
 DBB  EN ES   4   2323 41.49                             110   -2.88 0  338 274 
 DBB  EZ I        2323 44.93         9.3 0.24            108            338 274 
 ARGC HN ES       2323 46.96                             109   -0.68 6  355 340 
 ANIL HZ EP   9   2323 12.00                             108    1.86 0  360 224 
 ANIL HE ES       2323 51.30                                    0.22 6  360 224 
 PRA  HZ EP       2323 13.56                             106   -0.39 6  395 209 
 PRA  HN ES       2323 56.77                             106    0.77 6  395 209 
 PRA  HZ I        2324  2.16        20.5 0.07            105            395 209 
 ORTC HZ EP       2323 14.85                             106    0.54 6  398 216 
 ORTC HN ES       2323 57.71                             106    1.07 6  398 216 
 ORTC HZ I        2324  2.98        15.9 0.17            105            398 216 
 SJC  HZ EP       2323 14.46                             106   -0.71 6  405 327 
 SJC  HN ES   4   2323 54.83                             106   -3.35 0  405 327 
 SJC  HZ I        2323 58.50         5.7 0.13            105            405 327 
 PAL  HZ EP       2323 15.34                             106   -0.04 6  407 239 
 PAL  HN ES       2323 57.98                             106   -0.57 6  407 239 
 PAL  HZ I        2324  1.67         6.9 0.21            105            407 239 
 SMAR HZ EP       2323 25.29                             102   -0.15 4  493 346 
 SMAR HN ES   4   2324 12.60                             102   -3.85 0  493 346 
                                                                                
