 2013  5 3 2001 37.1 L   6.793 -73.185136.0  RSN  9 0.4 1.9LRSN 2.3WRSN        1
 SPEC AVERAGE  MO 12.5 ST0.231 OM  1.6 f0 3.63 R0.4332 AL 2.00 WI  6.5 MW  2.3 3
 SPEC SD       MO  0.1 ST0.165 OM  0.7 f00.414 R0.0447 AL      WI      MW  0.1 3
 GAP=132        0.84       4.6     4.7  6.4 -0.7415E+01  0.6893E+01  0.1208E+02E
 Epicentro: LOS SANTOS - SANTANDER                                             3
 SPEC PAM SH Z MO 12.4 ST0.123 OM  0.8 f0 3.49 R0.4453 AL 2.54 WI  6.5 MW  2.2 3
 SPEC PAM SH Z T20 215 K 0.000 GD  158 VS 4.20 DE 3.20 Q0300.0 QA 0.60 VS 4.20 3
 SPEC BRR HH Z MO 12.6 ST0.152 OM  1.0 f0 3.25 R0.4782 AL 1.35 WI  6.0 MW  2.3 3
 SPEC BRR HH Z T20 214 K 0.000 GD  151 VS 4.20 DE 3.20 Q0300.0 QA 0.60 VS 4.20 3
 SPEC GIR2SH Z MO 12.4 ST0.133 OM  0.9 f0 3.45 R0.4504 AL 1.90 WI  5.4 MW  2.2 3
 SPEC GIR2SH Z T20 210 K 0.000 GD  139 VS 4.20 DE 3.20 Q0300.0 QA 0.60 VS 4.20 3
 SPEC BAR2SH Z MO 12.7 ST0.516 OM  1.2 f0 4.33 R0.3589 AL 2.21 WI  8.1 MW  2.4 3
 SPEC BAR2SH Z T20 210 K 0.000 GD  137 VS 4.20 DE 3.20 Q0300.0 QA 0.60 VS 4.20 3
 ACTION:UPD 13-06-20 09:47 OP:ep   STATUS:               ID:20130503200137 L   I
 2013-05-03-2000-00M.COL___253                                                 6
 STAT SP IPHASW D HRMM SECON CODA AMPLIT PERI AZIMU VELO AIN AR TRES W  DIS CAZ7
 BAR2 SZ EP       20 1 55.56                             170    0.0210 22.3 179 
 BAR2 SZ I        20 2 12.08        28.1 0.16            169           22.3 179 
 GIR2 SZ EP       20 1 55.49                             166   -0.1410 31.6 358 
 GIR2 SZ ES       20 2 10.13                             166    0.0510 31.6 358 
 GIR2 SZ I        20 2 12.03        22.5 0.32            169           31.6 358 
 BRR  HZ EP     D 20 1 57.38                             152    0.3710 67.8 301 
 BRR  HN ES   2   20 2 12.40                             152   -0.14 5 67.8 301 
 BRR  HZ I        20 2 17.38        20.3 0.16            154           67.8 301 
 PAM  SZ EP       20 1 58.35                             148   -0.1610 80.7  42 
 PAM  SN ES       20 2 15.26                             148    0.0610 80.7  42 
 PAM  SZ I        20 2 17.61        16.5 0.46            150           80.7  42 
 RUS  HZ EP       20 1 59.59                             142   -0.3010  100 174 
 RUS  HN ES   1   20 2 18.03                             142    0.38 7  100 174 
 RUS  HZ I        20 2 19.17         4.7 0.22            142            100 174 
 PTB  HZ EP       20 2  2.27                             131   -0.62 9  143 259 
 PTB  HN ES   1   20 2 23.03                             131    0.03 7  143 259 
 PTB  HZ I        20 2 26.40        12.8 0.18            132            143 259 
 NOR  HZ EP       20 2 12.78                             117    0.92 8  231 234 
 NOR  HN ES   1   20 2 38.81                             117   -0.16 6  231 234 
 NOR  HZ I        20 2 41.25         3.6 0.14            118            231 234 
 PRA  HZ EP       20 2 30.27                             105    0.28 6  389 209 
 PRA  HN ES       20 3 10.70                             105   -0.53 6  389 209 
 PRA  HZ I        20 3 18.86         3.8 0.28            106            389 209 
 SJC  HZ EP   4   20 2 29.49                             104   -2.67 0  408 328 
 SJC  HN ES   4   20 3 10.99                             104   -4.12 0  408 328 
 SJC  HZ I        20 3 14.91         2.1 0.56            105            408 328 
                                                                                
