 2014 10 3 2011 11.0 L   6.745 -73.155147.9  RSN  4 0.2 1.3LRSN                1
 GAP=232        0.61       5.3     4.7  5.4  0.1115E+02  0.2457E+00  0.2385E+01E
 Epicentro: LOS SANTOS - SANTANDER                                             3
 ACTION:UPD 14-11-29 23:46 OP:nd   STATUS:               ID:20141003201111 L   I
 OLDACT:REG 14-10-04 06:56 OP:spq  STATUS:               ID:20141003200748     3
 2014-10-03-2007-48M.COL___289                                                 6
 STAT SP IPHASW D HRMM SECON CODA AMPLIT PERI AZIMU VELO AIN AR TRES W  DIS CAZ7
 BAR2 SZ EP       2011 30.60                             173   -0.1810 17.2 190 
 BAR2 SZ ES   1   2011 45.98                             173   -0.23 7 17.2 190 
 BAR2 SZ I        2011 49.42         8.8 0.38            172           17.2 190 
 BRR  HZ EP       2011 32.65                             152    0.1410 73.4 303 
 BRR  HN ES       2011 49.40                             152    0.1210 73.4 303 
 BRR  HZ I        2011 53.47        11.7 0.48            156           73.4 303 
 RUS  HZ EP       2011 34.89                             146    0.3410 94.6 175 
 RUS  HE ES   1   2011 52.86                             146   -0.05 7 94.6 175 
 RUS  HZ I        2011 56.98         1.0 0.41            149           94.6 175 
 PTB  HZ EP       2011 37.56                             133   -0.40 9  146 261 
 PTB  HE ES       2011 59.09                             133    0.11 9  146 261 
 PTB  HZ I        2012  1.12         2.0 0.53            137            146 261 
                                                                                
