 2016  4 3 2145 10.0 L   6.791 -73.118147.7  RSN  5 0.4 1.7LRSN                1
 GAP=140        0.94       3.6     5.4  8.3 -0.7568E+01  0.1197E+02 -0.3273E+01E
 Epicentro: LOS SANTOS - SANTANDER                                             3
 ACTION:UPD 16-05-05 14:18 OP:rebc STATUS:               ID:20160403214510 L   I
 OLDACT:UP  16-04-04 09:24 OP:ar   STATUS:               ID:20160403213741     3
 OLDACT:REG 16-04-04 05:31 OP:ar   STATUS:               ID:20160403213741     3
 2016-04-03-2137-41M.COL___319                                                 6
 STAT SP IPHASW D HRMM SECON CODA AMPLIT PERI AZIMU VELO AIN AR TRES W  DIS CAZ7
 PAM  EZ EP       2145 32.68                             151    0.3110 76.3  37 
 PAM  EZ ES       2145 49.76                             151   -0.0510 76.3  37 
 PAM  EN ES       2145 50.02                                           76.3  37 
 PAM  EZ I        2145 51.73         4.6 0.34            156           76.3  37 
 RUS  HZ EP       2145 33.50                             145   -0.3710 99.4 178 
 RUS  HN ES       2145 52.27                             145   -0.2110 99.4 178 
 RUS  HZ I        2145 53.60         3.1 0.40            150           99.4 178 
 PTB  HZ EP       2145 37.30                             132   -0.08 9  151 259 
 PTB  HN ES       2145 58.22                             132   -0.52 9  151 259 
 PTB  HZ I        2146  5.18         6.5 0.50            132            151 259 
 OCA  HZ EP       2145 38.40                             130   -0.20 9  162 352 
 OCA  HN ES       2146  1.17                             130    0.26 9  162 352 
 OCA  HZ I        2146  8.29        12.1 0.20            132            162 352 
 SPBC HZ EP       2145 38.86                             129    0.10 9  164 220 
 SPBC HN ES       2146  2.04                             129    0.85 9  164 220 
 SPBC HZ I        2146  7.96         9.8 0.36            132            164 220 
                                                                                
