 2011  9 3 2058 28.1 L   6.659 -73.192151.4  RSN  6 0.3 1.7LRSN                1
 GAP=172        0.66       4.9     5.3  7.4  0.7709E+01  0.7747E+01 -0.8296E-01E
 Epicentro: VILLANUEVA - SANTANDER                                             3
 ACTION:UPD 12-07-13 15:55 OP:ep   STATUS:               ID:20110903205828 L   I
 2011-09-03-2054-54S.COL___171                                                 6
 STAT SP IPHASW D HRMM SECON CODA AMPLIT PERI AZIMU VELO AIN AR TRES W  DIS CAZ7
 BAR2 SZ EP   1   2058 48.03                             177   -0.16 7 7.45 172 
 BAR2 SZ ES   1   2059  3.43                             177   -0.44 7 7.45 172 
 BAR2 SZ I        2059  4.65        15.8 0.18                          7.45 172 
 GIR2 SZ EP   1   2058 48.65                             162   -0.26 7 46.4 360 
 BRR  HZ EP   1   2058 50.30                             152    0.19 7 75.9 311 
 BRR  HE ES   1   2059  7.39                             152    0.10 7 75.9 311 
 BRR  HZ I        2059  9.83        11.1 0.14                          75.9 311 
 RUS  HZ EP   1   2058 51.48                             149    0.08 7 85.6 172 
 RUS  HN ES   1   2059 10.13                             149    0.54 7 85.6 172 
 RUS  HZ I        2059 12.36         5.3 0.31                          85.6 172 
 ZAR  HN ES   1   2059 27.21                             123    0.37 6  206 297 
 NOR  SN ES   1   2059 29.39                             121   -0.46 6  222 237 
                                                                                
