 2012  6 3 2244 27.4 L   6.828 -73.269140.2  RSN  6 0.5 1.6LRSN                1
 GAP=152        0.65       4.5     6.8  7.7 -0.9940E+01  0.2748E+02  0.2344E+00E
 Epicentro: ZAPATOCA - SANTANDER                                               3
 ACTION:UPD 12-08-06 17:47 OP:ep   STATUS:               ID:20120603224429 L   I
 2012-06-03-2240-00M.COL___201                                                 6
 STAT SP IPHASW D HRMM SECON CODA AMPLIT PERI AZIMU VELO AIN AR TRES W  DIS CAZ7
 BAR2 SZ EP   3   2244 46.94                             169    0.48 2 27.8 160 
 BAR2 SZ ES   2   2245  0.93                             169   -0.39 5 27.8 160 
 PAM  SZ EP       2244 49.52                             148    0.0410 84.6  48 
 PAM  SN ES   1   2245  6.35                             148   -0.35 7 84.6  48 
 PAM  SZ I        2245  9.19         4.1 0.48            142           84.6  48 
 RUS  HZ EP       2244 50.76                             141   -0.2110  105 169 
 RUS  HN ES   1   2245  9.51                             141    0.15 7  105 169 
 RUS  HZ I        2245 10.20         8.7 0.24            139            105 169 
 PTB  HZ EP       2244 53.24                             133    0.4810  135 256 
 PTB  HZ I        2245 20.96         6.9 0.46            115            135 256 
 CHI  HZ EP       2245  4.76                             116   -0.01 8  248 192 
 CHI  HN ES   3   2245 33.85                             116   -0.07 2  248 192 
 HEL  HN ES   3   2245 33.97                             114   -2.05 2  260 254 
                                                                                
