 2017  8 3 2138 23.2 L   6.807 -73.097146.0  RSN  9 0.4 1.5LRSN                1
 GAP=142        0.65       4.3     4.4  6.7 -0.8852E+01 -0.1789E+01 -0.4364E+00E
 Epicentro: LOS SANTOS - SANTANDER                                             3
 ACTION:UPD 17-09-04 20:16 OP:rebc STATUS:               ID:20170803213823 L   I
 OLDACT:UP  17-08-04 10:11 OP:and  STATUS:               ID:20170803213744     3
 OLDACT:UP  17-08-04 10:10 OP:and  STATUS:               ID:20170803213744     3
 OLDACT:UP  17-08-04 10:09 OP:and  STATUS:               ID:20170803213744     3
 OLDACT:UP  17-08-04 10:08 OP:and  STATUS:               ID:20170803213744     3
 OLDACT:UP  17-08-04 10:08 OP:and  STATUS:               ID:20170803213744     3
 OLDACT:UP  17-08-04 10:07 OP:and  STATUS:               ID:20170803213744     3
 OLDACT:REG 17-08-04 04:44 OP:mg   STATUS:               ID:20170803213744     3
 2017-08-03-2138-00M.COL___374                                                 6
 STAT SP IPHASW D HRMM SECON CODA AMPLIT PERI AZIMU VELO AIN AR TRES W  DIS CAZ7
 BAR2 EZ EP       2138 42.73                             169   -0.1710 25.5 202 
 BAR2 EZ ES   2   2138 57.65                             169   -0.62 5 25.5 202 
 BAR2 EZ I        2139  0.18         7.5 0.19            169           25.5 202 
 PAM  EZ EP       2138 45.46                             152    0.2510 73.5  37 
 PAM  EN ES   2   2139  2.58                             152    0.20 5 73.5  37 
 PAM  EZ I        2139  4.17         3.3 0.22            155           73.5  37 
 BRR  HZ EP       2138 44.54                             151   -0.0910 75.7 296 
 RUS  HZ EP       2138 46.89                             143   -0.1210  101 179 
 RUS  HN ES   2   2139  5.31                             143   -0.27 5  101 179 
 RUS  HZ I        2139  7.30         3.0 0.22            146            101 179 
 PTB  HZ EP   9   2138 49.46                             130   -1.22 0  153 259 
 PTB  HN ES       2139 10.53                             132   -0.37 9  153 259 
 PTB  HZ I        2139 12.66         3.1 0.12            131            153 259 
 SPBC HZ EP   2   2138 51.79                             128   -0.30 5  167 220 
 SPBC HN ES       2139 15.16                             128    0.53 9  167 220 
 SPBC HZ I        2139 19.18         6.1 0.08            130            167 220 
 ZAR  HN ES   2   2139 22.04                             121    0.19 4  209 291 
 ZAR  HZ I        2139 26.90         3.3 0.10            123            209 291 
 NOR  HZ EP   2   2138 58.70                             118   -0.76 4  240 235 
 NOR  HN ES   1   2139 27.67                             118   -0.07 6  240 235 
 NOR  HZ I        2139 30.24         3.3 0.24            119            240 235 
 GUY2CHN ES   3   2139 43.24                             112    1.43 2  306 235 
 GUY2CHZ I        2139 47.92         2.5 0.26                           306 235 
                                                                                
