 2017 10 3 2053  4.9 L   5.769 -73.946 56.5  RSN  4 0.2 1.0LRSN                1
 GAP=145        0.51       5.6     2.2  9.4 -0.8661E+01  0.7626E+01 -0.3207E+02E
 Epicentro: ALBANIA - SANTANDER                                                3
 ACTION:UPD 17-11-07 19:28 OP:rebc STATUS:               ID:20171003205304 L   I
 OLDACT:DUP 17-10-04 05:03 OP:edw  STATUS:               ID:20171003204746d    3
 2017-10-03-2048-00M.COL___447                                                 6
 STAT SP IPHASW D HRMM SECON CODA AMPLIT PERI AZIMU VELO AIN AR TRES W  DIS CAZ7
 SPBC HZ EP       2053 13.75                             159    0.2010 19.1 227 
 RUS  HZ EP       2053 21.34                             112    0.2110 96.5  82 
 RUS  HN ES       2053 33.54                             112   -0.2610 96.5  82 
 NOR  HZ EP       2053 21.53                             110   -0.0110  105 257 
 NOR  HE ES       2053 34.37                             110   -0.1510  105 257 
 NOR  HZ I        2053 35.87         2.7 0.26            111            105 257 
 PAM  EE ES       2054  0.62                              97    0.02 8  222  38 
 PAM  EZ I        2054  2.90         1.2 0.08             98            222  38 
                                                                                
