 2014 10 3 2347 36.5 L   6.770 -73.137141.5  RSN 12 0.4 1.7LRSN                1
 GAP= 73        0.96       3.0     3.0  5.9  0.4016E+00  0.1370E+01 -0.5934E+00E
 Epicentro: LOS SANTOS - SANTANDER                                             3
 ACTION:UPD 14-11-29 23:46 OP:nd   STATUS:               ID:20141003234736 L   I
 OLDACT:REG 14-10-04 09:19 OP:spq  STATUS:               ID:20141003233749     3
 2014-10-03-2337-49M.COL___286                                                 6
 STAT SP IPHASW D HRMM SECON CODA AMPLIT PERI AZIMU VELO AIN AR TRES W  DIS CAZ7
 BAR2 SZ EP       2347 55.57                             171   -0.0110 20.2 194 
 BAR2 SZ ES   1   2348 10.15                             171   -0.29 7 20.2 194 
 BAR2 SZ I        2348 11.47        16.7 0.05            173           20.2 194 
 BRR  HZ EP       2347 57.70                             151    0.3410 73.6 300 
 BRR  HN ES       2348 14.27                             151    0.6710 73.6 300 
 BRR  HZ I        2348 18.90         8.8 0.07            151           73.6 300 
 PAM  SZ EP       2347 58.60                             149    0.1910 79.4  37 
 PAM  SN ES       2348 15.60                             149    0.1210 79.4  37 
 PAM  SZ I        2348 17.76         5.9 0.50            151           79.4  37 
 RUS  HZ EP       2347 59.80                             144    0.1910 97.2 176 
 RUS  HN ES       2348 17.88                             144    0.2710 97.2 176 
 RUS  HZ I        2348 18.96         6.8 0.32            148           97.2 176 
 PTB  HZ EP       2348  2.67                             131   -0.50 9  148 260 
 PTB  HN ES       2348 23.25                             131   -0.71 9  148 260 
 PTB  HZ I        2348 24.33         2.8 0.16            133            148 260 
 TAM  HZ EP       2348  3.85                             130    0.14 9  153 104 
 TAM  HE ES       2348 24.35                             130   -0.55 9  153 104 
 TAM  HZ I        2348 25.98         6.7 0.36            133            153 104 
 SPBC HZ EP       2348  4.50                             128   -0.01 9  161 220 
 SPBC HN ES       2348 26.36                             128    0.03 9  161 220 
 SPBC HZ I        2348 27.37         7.5 0.20            131            161 220 
 OCA  HN ES       2348 26.26                             128   -0.65 9  164 353 
 OCA  HZ I        2348 30.32         5.8 0.14            129            164 353 
 ZAR  HN ES       2348 34.23                             121    0.05 8  206 293 
 ZAR  HZ I        2348 40.63         5.1 0.26            123            206 293 
 SML  HZ EP       2348 13.77                             116    0.48 8  247 335 
 SML  HN ES   1   2348 41.92                             116   -0.04 6  247 335 
 SML  HZ I        2348 43.28         6.1 0.22            118            247 335 
 GUY2CHN ES   4   2348 55.40                             112    1.84 0  300 235 
 GUY2CHZ I        2348 59.91         1.8 0.30                           300 235 
 CVALLEE E      C 2349 47.08                                            414 358 
                                                                                
