 2016  2 3 2027  6.8 L   5.789 -73.992104.3  RSN  5 0.1 1.5LRSN                1
 GAP=150        0.42       2.1     2.0  3.7 -0.1092E+01 -0.9712E+00  0.1204E+01E
 Epicentro: FLORIAN - SANTANDER                                                3
 ACTION:UPD 16-03-04 21:23 OP:rebc STATUS:               ID:20160203202706 L   I
 OLDACT:REG 16-02-04 03:01 OP:ar   STATUS:               ID:20160203202224     3
 2016-02-03-2022-23S.COL___226                                                 6
 STAT SP IPHASW D HRMM SECON CODA AMPLIT PERI AZIMU VELO AIN AR TRES W  DIS CAZ7
 SPBC HZ EP       2027 20.94                             170   -0.1210 17.5 211 
 SPBC HN ES       2027 32.27                             170    0.0610 17.5 211 
 SPBC HZ I        2027 33.11        26.1 0.14            151           17.5 211 
 NOR  HZ EP       2027 25.96                             132   -0.1310  100 256 
 NOR  HN ES       2027 41.25                             132    0.0810  100 256 
 NOR  HZ I        2027 43.27        16.3 0.38            119            100 256 
 RUS  HZ EP   4   2027 18.79                             133   -7.97 0  101  83 
 RUS  HN ES   4   2027 25.67                             133   -16.7 0  101  83 
 RUS  HZ I        2027 26.14         2.6 0.28            138            101  83 
 BAR2 EZ ES       2027 45.98                             125    0.0110  126  45 
 CHI  HZ EP       2027 29.79                             124    0.2510  131 167 
 CHI  HN ES       2027 47.19                             124   -0.1310  131 167 
 CHI  HZ I        2027 50.22         3.0 0.34            118            131 167 
                                                                                
