 2011  4 3 2228 22.1 L   6.770 -73.102141.5  RSN  8 0.3 1.6LRSN                1
 GAP=169        0.61       5.1     5.5  7.4 -0.1015E+02 -0.5497E+01  0.6558E+01E
 Epicentro: LOS SANTOS - SANTANDER                                             3
 ACTION:UP  11-06-22 15:28 OP:REBC STATUS:               ID:20110403222822 L   I
 2011-04-03-2224-04S.COL___138                                                 6
 STAT SP IPHASW D HRMM SECON CODA AMPLIT PERI AZIMU VELO SNR AR TRES W  DIS CAZ7
 BAR2 SZ EP   1   2228 41.14                             171     0.0 7   22 204 
 BAR2 SZ I        2228 57.06         8.5 0.17                            22 204 
 BTL  SZ EP   1   2228 41.54                             170     0.3 7   25 312 
 GIR2 SZ EP   1   2228 41.30                                    -0.1 7   36 344 
 BRR  HE ES   1   2228 59.78                             150     0.2 7   77 299 
 PAM  SZ EP       2228 44.11                             150     0.310   77  35 
 PAM  SN ES   1   2229  0.42                             150    -0.4 7   77  35 
 PAM  SZ I        2229  3.63         2.0 0.27                            77  35 
 BRR  HZ EP   1   2228 43.06                             150    -0.1 7   77 299 
 BRR  HZ I        2229  1.05        11.9 0.15                            77 299 
 GRA  SZ EP   1   2228 47.12                             136     0.0 7  128  15 
 GRA  SZ I        2229  7.62         5.6 0.32                           128  15 
 OCA  SZ EP   1   2228 50.15                             128    -0.3 7  164 352 
 OCA  SZ ES   1   2229 12.51                             128    -0.1 7  164 352 
 OCA  SZ I        2229 15.49         7.8 0.57                           164 352 
 NOR  SN ES   2   2229 25.04                             117    -0.6 4  237 236 
                                                                                
