 2016 11 3 2303 25.4 L   6.770 -73.123138.3  RSN  7 0.3 1.8LRSN                1
 GAP=141        0.75       2.9     3.3  4.6  0.1092E+01  0.3947E+01  0.2300E+01E
 Epicentro: LOS SANTOS - SANTANDER                                             3
 ACTION:UPD 17-10-26 21:04 OP:lp   STATUS:               ID:20161103230325 L   I
 OLDACT:REG 16-11-04 02:58 OP:edw  STATUS:               ID:20161103225745     3
 2016-11-03-2258-00M.COL___343                                                 6
 STAT SP IPHASW D HRMM SECON CODA AMPLIT PERI AZIMU VELO AIN AR TRES W  DIS CAZ7
 BAR2 EZ EP       23 3 44.18                             171    0.1110 20.7 198 
 BAR2 EZ ES       23 3 58.75                             171    0.1110 20.7 198 
 BAR2 EZ I        23 4  0.55        21.8 0.18            169           20.7 198 
 BRR  HZ EP       23 3 45.76                             150   -0.2110 75.0 300 
 BRR  HN ES       23 4  2.39                             150    0.3810 75.0 300 
 BRR  HZ I        23 4  5.76        17.6 0.36            150           75.0 300 
 PAM  EZ EP       23 3 47.05                             149    0.1610 78.4  37 
 PAM  EN ES       23 4  3.15                             149   -0.4910 78.4  37 
 PAM  EZ I        23 4  6.09        17.6 0.44            153           78.4  37 
 RUS  HZ EP       23 3 48.20                             143    0.0410 97.1 177 
 RUS  HN ES       23 4  6.16                             143    0.2410 97.1 177 
 RUS  HZ I        23 4  8.69         5.5 0.26            144           97.1 177 
 PTB  HZ EP       23 3 51.67                             130   -0.27 9  150 260 
 PTB  HN ES       23 4 12.53                             130   -0.11 9  150 260 
 PTB  HZ I        23 4 14.30         6.2 0.32            130            150 260 
 ZAR  HZ EP       23 3 58.06                             120    0.32 8  208 293 
 ZAR  HN ES       23 4 22.84                             120   -0.13 8  208 293 
 ZAR  HZ I        23 4 29.01         6.4 0.46            121            208 293 
 CHI  HZ EP       23 4  2.80                             116    0.38 8  246 196 
 CHI  HN ES       23 4 30.68                             116   -0.61 8  246 196 
 CHI  HZ I        23 4 39.00         2.7 0.68            117            246 196 
                                                                                
