 2012  3 3 2103 10.1 L   6.694 -73.220143.8  RSN  4 0.4 1.7LRSN                1
 GAP=209        0.89       9.1     8.6  9.6  0.3820E+02  0.1219E+02  0.5506E+01E
 ACTION:UP  12-03-31 23:16 OP:EP   STATUS:               ID:20120303210310 L   I
 2012-03-03-2100-00M.COL___191                                                 6
 STAT SP IPHASW D HRMM SECON CODA AMPLIT PERI AZIMU VELO SNR AR TRES W  DIS CAZ7
 BAR2 SZ EP   1   21 3 28.95                             175    -0.3 7   12 160 
 BAR2 SZ ES   1   21 3 43.72                             175    -0.5 7   12 160 
 BAR2 SZ I        21 3 45.01        13.1 0.22                            12 160 
 BRR  HZ EP   1   21 3 30.81                             152    -0.2 7   71 310 
 BRR  HN ES   1   21 3 47.95                             152     0.7 7   71 310 
 BRR  HZ I        21 3 53.14        13.3 0.43                            71 310 
 RUS  HZ EP   1   21 3 33.06                             146     0.2 7   90 170 
 RUS  HN ES   1   21 3 50.99                             146     0.3 7   90 170 
 RUS  HZ I        21 3 52.69         4.7 0.32                            90 170 
 PTB  HZ EP   1   21 3 36.11                             134     0.2 7  138 263 
 PTB  HN ES   1   21 3 55.80                             134    -0.4 7  138 263 
                                                                                
