 2015  2 3 2043 22.9 L   6.795 -73.156148.5  RSN  8 0.3 1.7LRSN                1
 GAP=135        0.68       3.1     3.7  5.1 -0.4519E+01  0.6646E+01 -0.1674E+01E
 Epicentro: LOS SANTOS - SANTANDER                                             3
 ACTION:UPD 15-04-30 21:21 OP:nd   STATUS:               ID:20150203204322 L   I
 OLDACT:DUP 15-02-04 03:37 OP:spq  STATUS:               ID:20150203203749d    3
 2015-02-03-2037-48M.COL___271                                                 6
 STAT SP IPHASW D HRMM SECON CODA AMPLIT PERI AZIMU VELO AIN AR TRES W  DIS CAZ7
 BAR2 EZ ES   1   2043 58.34                             171   -0.07 7 22.6 187 
 BAR2 EZ I        2043 59.79        12.0 0.16            172           22.6 187 
 PAM  SZ EP       2043 45.65                             151    0.1810 78.5  40 
 PAM  SE ES       2044  3.06                             151   -0.0210 78.5  40 
 PAM  SZ I        2044  6.85         4.4 0.30            154           78.5  40 
 RUS  HZ EP       2043 47.10                             144    0.2110  100 175 
 RUS  HE ES   1   2044  5.21                             144   -0.39 7  100 175 
 RUS  HZ I        2044  7.09         4.9 0.32            149            100 175 
 PTB  HZ EP       2043 49.32                             133   -0.66 9  147 259 
 PTB  HE ES       2044 11.32                             133    0.22 9  147 259 
 PTB  HZ I        2044 15.34         8.5 0.30            134            147 259 
 SPBC HZ EP       2043 51.55                             130    0.05 9  162 219 
 SPBC HN ES       2044 14.07                             130    0.26 9  162 219 
 SPBC HZ I        2044 15.89         8.0 0.00            132            162 219 
 NOR  HZ EP   1   2043 58.73                             119    0.08 6  233 234 
 NOR  HN ES   1   2044 26.24                             119   -0.30 6  233 234 
 NOR  HZ I        2044 31.03         5.1 0.20            121            233 234 
 SML  HZ EP   1   2043 59.31                             118   -0.37 6  244 336 
 SML  HE ES   1   2044 28.65                             118    0.28 6  244 336 
 SML  HZ I        2044 32.45         6.8 0.22            120            244 336 
 GUY2CHZ EP   1   2044  6.99                             113    0.50 5  300 235 
                                                                                
