 2017  9 3 2319 11.0 L   6.850 -73.290119.6  RSN  8 0.3 1.6LRSN                1
 GAP=109        0.60       2.6     3.2  4.3  0.2140E+01  0.2536E+01  0.2922E+01E
 Epicentro: ZAPATOCA - SANTANDER                                               3
 ACTION:UPD 17-10-05 19:08 OP:rebc STATUS:               ID:20170903231911 L   I
 OLDACT:UP  17-09-04 06:23 OP:mg   STATUS:               ID:20170903231739     3
 OLDACT:UP  17-09-04 06:23 OP:mg   STATUS:               ID:20170903231739     3
 OLDACT:REG 17-09-04 04:08 OP:mg   STATUS:               ID:20170903231739     3
 2017-09-03-2318-00M.COL___417                                                 6
 STAT SP IPHASW D HRMM SECON CODA AMPLIT PERI AZIMU VELO AIN AR TRES W  DIS CAZ7
 BAR2 EZ EP     D 2319 27.68                             165    0.0010 30.9 157 
 BAR2 EZ ES   1   2319 40.46                             165   -0.25 7 30.9 157 
 BRR  HZ IP     C 2319 28.00                             154   -0.3610 54.7 301 
 BRR  HN ES       2319 42.10                             154    0.1810 54.7 301 
 BRR  HZ I        2319 47.94        13.3 0.26            154           54.7 301 
 PAM  EZ EP       2319 31.32                             143    0.3210 84.7  50 
 PAM  EN ES   3   2319 47.57                             143    0.94 2 84.7  50 
 PAM  EZ I        2319 49.40        11.0 0.21            148           84.7  50 
 RUS  HZ EP     C 2319 32.70                             135   -0.2010  108 168 
 RUS  HN ES   1   2319 49.94                             135   -0.07 7  108 168 
 RUS  HZ I        2319 51.35         5.9 0.20            139            108 168 
 ZAR  HZ EP       2319 40.04                             118    0.01 9  187 292 
 ZAR  HN ES   1   2320  2.55                             118   -0.15 7  187 292 
 ZAR  HZ I        2320  7.23         9.2 0.28            121            187 292 
 CHI  HZ EP       2319 47.38                             111   -0.18 8  250 191 
 CHI  HN ES       2320 16.42                             111    0.32 8  250 191 
 CHI  HZ I        2320 21.67         2.1 0.19            114            250 191 
 GUY2CHE ES   1   2320 25.26                             107    0.54 5  292 232 
 GUY2CHZ I        2320 31.05         1.5 0.30                           292 232 
 SJC  HZ EP   4   2320  2.48                             101   -1.74 0  396 328 
 SJC  HN ES   4   2320 41.33                             101   -4.42 0  396 328 
 SJC  HZ I        2320 47.33         1.3 0.33            104            396 328 
                                                                                
