 2015  9 3 2203 14.3 L   6.385 -73.634103.6  RSN 17 0.3 2.1LRSN                1
 GAP= 66        0.70       1.5     1.9  3.5 -0.8551E+00  0.2137E+01  0.1113E-01E
 Epicentro: SANTA HELENA DEL OPON - SANTANDER                                  3
 ACTION:UPD 15-10-28 16:23 OP:cam  STATUS:               ID:20150903220314 L   I
 OLDACT:REG 15-09-04 07:33 OP:spq  STATUS:               ID:20150903215748     3
 2015-09-03-2157-48M.COL___355                                                 6
 STAT SP IPHASW D HRMM SECON CODA AMPLIT PERI AZIMU VELO AIN AR TRES W  DIS CAZ7
 BAR2 EZ EP     D 22 3 30.55                             150    0.2110 55.0  65 
 BAR2 EZ ES   1   22 3 43.39                             150    0.54 7 55.0  65 
 BAR2 EZ I        22 3 44.74        70.7 0.40            153           55.0  65 
 BRR  HZ EP       22 3 31.75                             139   -0.0610 80.4 354 
 BRR  HE ES       22 3 45.84                             139    0.3810 80.4 354 
 BRR  HZ I        22 3 54.11        21.1 0.15            141           80.4 354 
 RUS  HZ EP       22 3 32.35                             139   -0.2510 81.7 132 
 RUS  HN ES       22 3 46.75                             139   -0.1210 81.7 132 
 RUS  HZ I        22 3 49.74        15.1 0.42            143           81.7 132 
 PTB  HZ EP   9 C 22 3 31.59                             135   -1.26 0 92.6 281 
 PTB  HN ES       22 3 45.74                                   -0.3110 92.6 281 
 PTB  HZ I        22 3 48.34        37.8 0.18            136           92.6 281 
 SPBC HZ EP     C 22 3 32.64                             134   -0.4810 94.4 211 
 SPBC HE ES       22 3 47.43                             134   -0.3510 94.4 211 
 SPBC HZ I        22 3 49.38        36.7 0.14            137           94.4 211 
 PAM  EZ EP       22 3 38.85                             121    0.01 9  148  44 
 PAM  EE ES       22 3 58.10                             121    0.14 9  148  44 
 PAM  EZ I        22 4  2.31        11.5 0.38            123            148  44 
 NOR  HZ EP       22 3 40.06                             117    0.03 9  164 236 
 NOR  HE ES       22 3 59.82                             117   -0.28 9  164 236 
 NOR  HZ I        22 4  1.45        17.8 0.12            119            164 236 
 ZAR  HZ EP       22 3 41.78                             114   -0.21 9  182 312 
 ZAR  HE ES       22 4  3.42                             114   -0.16 9  182 312 
 ZAR  HZ I        22 4  7.86        15.2 0.28            116            182 312 
 CHI  HZ EP       22 3 43.44                             113   -0.40 9  194 183 
 CHI  HE ES       22 4  7.09                             113    0.22 9  194 183 
 CHI  HZ I        22 4 10.29         5.4 0.24            115            194 183 
 OCA  HZ EP   1   22 3 44.99                             111   -0.06 6  208  10 
 OCA  HN ES       22 4  9.10                             111    0.08 8  208  10 
 HEL  HZ EP       22 3 45.84                             111    0.20 8  211 264 
 HEL  HN ES   1   22 4  9.91                             111   -0.16 6  211 264 
 HEL  HZ I        22 4 12.90        14.2 0.26            113            211 264 
 GUY2CHZ EP       22 3 48.07                             108    0.01 8  231 236 
 GUY2CHE ES       22 4 14.90                             108    0.51 8  231 236 
 GUY2CHZ I        22 4 18.96         7.8 0.64                           231 236 
 ELA  HZ EP   1   22 3 51.69                             106    0.35 6  258 229 
 ELA  HE ES       22 4 20.29                             106    0.07 8  258 229 
 ELA  HZ I        22 4 25.71         7.0 0.48            108            258 229 
 SML  HZ EP       22 3 51.83                             105   -0.41 8  272 350 
 SML  HN ES   1   22 4 21.61                             105   -0.21 6  272 350 
 SML  HZ I        22 4 26.95        16.5 0.10            107            272 350 
 TOL  SZ EP       22 3 53.21                             105    0.38 8  273 223 
 PRA  HZ EP       22 3 58.54                             101   -0.28 7  326 205 
 PRA  HN ES   1   22 4 34.23                             101    0.70 5  326 205 
 PRA  HZ I        22 4 41.60         7.1 0.24            103            326 205 
 ORTC HZ EP       22 3 59.49                             101    0.60 7  327 213 
 ORTC HN ES   4   22 4 35.02                             101    1.37 0  327 213 
 ORTC HZ I        22 4 40.43         4.3 0.40            103            327 213 
                                                                                
