 2010 12 3 2107 48.7 L   6.746 -73.020133.4  RSN  6 0.4 1.8LRSN                1
 GAP=261        0.72       5.6     8.8  7.9  0.4677E+00  0.1952E+02  0.2007E+02E
 Epicentro: CEPITA - SANTANDER                                                 3
 ACTION:UP  11-01-14 15:22 OP:pat  STATUS:               ID:20101203210748 L   I
 2010-12-03-2106-27S.COL___133                                                 6
 STAT SP IPHASW D HRMM SECON CODA AMPLIT PERI AZIMU VELO SNR AR TRES W  DIS CAZ7
 BAR2 SZ EP   1   21 8  7.25                             169     0.4 7   25 227 
 BAR2 SZ I        21 8  7.62        14.0 0.13                            25 227 
 BAR2 SZ ES   1   21 8 21.14                             169     0.1 7   25 227 
 BRR  HZ IP     C 21 8  9.13                             145    -0.410   86 298 
 BRR  HZ I        21 8 11.74        19.9 0.22                            86 298 
 BRR  HN ES   1   21 8 25.79                             145     0.1 7   86 298 
 CHI  HZ EP   2   21 8 26.02                             115     0.5 4  247 199 
 CHI  HZ I        21 8 26.49         2.9 0.08                           247 199 
 CHI  HE ES   2   21 8 53.24                             115    -1.0 4  247 199 
 HEL  HZ EP   2   21 8 29.40                             111    -0.3 4  284 258 
 HEL  HE ES   2   21 9  2.44                             111     0.8 4  284 258 
 RREF HZ EP   2   21 8 35.32                             108     0.2 3  329 232 
 RREF HE ES   2   21 9 11.13                             108    -0.2 3  329 232 
 RREF HZ I        21 9 19.29         3.0 0.25                           329 232 
 PRA  HN ES       21 9 23.74                             104     0.1 6  394 212 
                                                                                
