 2010  8 3 2021 55.6 L   6.792 -73.084147.4  RSN 11 0.3 2.4LRSN                1
 GAP=166        0.76       3.4     5.3  6.9 -0.5518E+01  0.2580E+01  0.1615E+01E
 Epicentro: LOS SANTOS - SANTANDER                                             3
 ACTION:UP  10-09-07 10:51 OP:vdl  STATUS:               ID:20100803202155 L   I
 2010-08-03-2018-35S.COL___125                                                 6
 STAT SP IPHASW D HRMM SECON CODA AMPLIT PERI AZIMU VELO SNR AR TRES W  DIS CAZ7
 BTL  SZ IP       2022 15.54                             170     0.110   25 305 
 BAR2 SZ IP       2022 15.42                             171     0.010   25 207 
 BAR2 SZ I        2022 32.16       103.1 0.21                            25 207 
 BRR  HZ IP     C 2022 17.23                             151     0.010   78 297 
 BRR  HE ES   1   2022 34.59                             151     0.4 7   78 297 
 BRR  HZ I        2022 37.05        52.4 0.18                            78 297 
 RUS  HZ IP     D 2022 19.25                             145    -0.110   99 180 
 RUS  HE ES   1   2022 37.84                             145    -0.1 7   99 180 
 RUS  HZ I        2022 39.30        32.0 0.26                            99 180 
 GUE  SZ EP       2022 20.36                                     0.010  116   9 
 GUE  SZ I        2022 49.93         9.7 0.15                           116   9 
 GRA  SZ IP       2022 21.21                             137     0.310  125  14 
 GRA  SZ ES   1   2022 40.13                             137    -0.5 7  125  14 
 GRA  SZ I        2022 42.37        25.2 0.29                           125  14 
 OCA  SZ EP   1   2022 23.92                             129    -0.2 7  162 351 
 OCA  SZ I        2022 50.13        27.4 0.38                           162 351 
 CHI  HZ EP   1   2022 33.45                             117     0.0 6  250 197 
 CHI  HZ I        2022 33.80        13.1 0.21                           250 197 
 CHI  HE ES   2   2023  3.37                             117     0.4 4  250 197 
 HEL  HZ EP   1   2022 36.89                             115     0.3 6  278 256 
 HEL  HN ES   1   2023  7.72                             115    -0.8 6  278 256 
 HEL  HZ I        2023 13.27         8.1 0.35                           278 256 
 RREF HN ES   2   2023 19.45                             111     0.7 3  326 230 
 RREF HZ I        2023 24.30        13.4 0.24                           326 230 
 PRA  HZ EP   1   2022 49.16                             107    -0.3 4  395 211 
 PRA  HZ I        2023 36.55        17.3 0.30                           395 211 
                                                                                
