 2010  7 3 2343 59.1 L   6.777 -73.067149.1  RSN  9 0.3 2.1LRSN                1
 GAP=165        0.56       2.4     4.4  4.4 -0.4446E+01  0.7479E+00  0.3350E+00E
 Epicentro: LOS SANTOS - SANTANDER                                             3
 ACTION:UPD 10-12-01 15:14 OP:pat  STATUS:               ID:20100703234359 L   I
 2010-07-03-2341-45S.COL___118                                                 6
 STAT SP IPHASW D HRMM SECON CODA AMPLIT PERI AZIMU VELO AIN AR TRES W  DIS CAZ7
 BAR2 SZ IP       2344 19.06                             170    -0.110   24 212 
 BAR2 SZ ES   1   2344 35.03                             170     0.2 7   24 212 
 BRR  HZ IP     D 2344 21.21                             150     0.110   80 297 
 BRR  HE ES   1   2344 38.32                             150     0.0 7   80 297 
 BRR  HZ I        2344 40.12        24.7 0.14                            80 297 
 RUS  HZ EP   1   2344 22.85                             145    -0.2 7   98 181 
 RUS  HN ES   1   2344 41.49                             145    -0.2 7   98 181 
 RUS  HZ I        2344 43.05        10.7 0.10                            98 181 
 BRI  SZ EP       2344 23.63                             142     0.310  108  16 
 BRI  SZ ES   1   2344 41.94                             142    -0.2 7  108  16 
 GRA  SZ IP       2344 24.82                             138     0.110  126  13 
 GRA  SZ ES   1   2344 44.53                             138    -0.1 7  126  13 
 OCA  SZ EP   1   2344 27.52                             130    -0.5 7  164 350 
 OCA  SZ ES   2   2344 51.03                             130     0.4 5  164 350 
 OCA  SZ I        2344 55.42        17.0 0.35                           164 350 
 CHI  HZ EP   1   2344 37.06                             118     0.0 6  249 197 
 CHI  HN ES   2   2345  6.71                             118     0.1 4  249 197 
 CHI  HZ I        2345 12.21         6.3 0.29                           249 197 
 HEL  HE ES   2   2345 11.96                             115    -0.6 4  280 257 
 RREF HN ES   1   2345 22.90                             111     0.4 5  327 231 
 RREF HZ I        2345 30.76         8.8 0.23                           327 231 
                                                                                
