 2013  1 3 2352 52.2 L   6.705 -73.213142.8  RSN  5 0.3 1.6LRSN                1
 GAP=216        0.56       5.8     5.7  6.3  0.2120E+02  0.9899E+01  0.3868E+01E
 Epicentro: VILLANUEVA - SANTANDER                                             3
 ACTION:UPD 13-02-15 09:11 OP:ep   STATUS:               ID:20130103235252 L   I
 2013-01-03-2350-00M.COL___242                                                 6
 STAT SP IPHASW D HRMM SECON CODA AMPLIT PERI AZIMU VELO AIN AR TRES W  DIS CAZ7
 BAR2 SZ ES   1   2353 25.74                             175   -0.48 7 12.9 165 
 BRR  HZ EP   1   2353 13.16                             152    0.14 7 70.8 309 
 BRR  HN ES   1   2353 29.65                             152    0.40 7 70.8 309 
 BRR  HZ I        2353 30.74         9.6 0.28            149           70.8 309 
 RUS  HZ EP   1   2353 14.89                             146   -0.10 7 90.9 171 
 RUS  HN ES   1   2353 33.02                             146    0.26 7 90.9 171 
 RUS  HZ I        2353 34.54         3.8 0.28            145           90.9 171 
 PTB  HZ EP   1   2353 18.11                             133   -0.01 7  139 263 
 PTB  HN ES   1   2353 38.30                             133   -0.02 7  139 263 
 PTB  HZ I        2353 41.78         6.1 0.14            130            139 263 
 ZAR  HN ES   1   2353 48.88                             122   -0.27 6  201 296 
 ZAR  HZ I        2353 55.05         5.2 0.32            121            201 296 
 MON  HZ EP   4   2353 38.91                             108   -2.30 0  355 310 
                                                                                
