 2012  7 3 2338 16.1 L   6.721 -73.413120.1  RSN  4 0.3 1.9LRSN                1
 GAP=157        0.83       9.8     7.5  9.5  0.3761E+02  0.2594E+02  0.4662E+02E
 Epicentro: EL CARMEN DE CHUCURI - SANTANDER                                   3
 ACTION:UPD 12-08-14 11:42 OP:ep   STATUS:               ID:20120703233816 L   I
 2012-07-03-2330-00M.COL___201                                                 6
 STAT SP IPHASW D HRMM SECON CODA AMPLIT PERI AZIMU VELO AIN AR TRES W  DIS CAZ7
 BAR2 SZ IP     C 2338 32.73                             165    -0.110   29 119 
 BAR2 SZ ES   1   2338 45.50                             165    -0.4 7   29 119 
 BAR2 SZ I        2338 47.16        64.8 0.18            139             29 119 
 BRR  HZ IP     D 2338 33.33                             154    -0.210   54 322 
 BRR  HZ I        2338 33.47        15.8 0.12            158             54 322 
 BRR  HN ES   1   2338 47.60                             154     0.5 7   54 322 
 RUS  HZ EP       2338 37.66                             138     0.410   99 158 
 RUS  HZ I        2338 57.15         9.8 0.22            117             99 158 
 PTB  HZ EP       2338 38.11                             132    -0.110  117 260 
 PTB  HN ES   2   2338 55.36                             132    -0.1 5  117 260 
 PTB  HZ I        2339  0.38        12.2 0.44            119            117 260 
