 2017  1 3 2206 26.9 L   6.858 -73.168149.8  RSN 17 0.6 2.8LRSN                1
 GAP= 63        1.35       4.4     4.2  6.3 -0.2082E+01  0.8376E+01 -0.3164E+00E
 Epicentro: ZAPATOCA - SANTANDER                                               3
 ACTION:UPD 17-05-22 15:55 OP:jn   STATUS:               ID:20170103220627 L   I
 OLDACT:UP  17-01-04 05:52 OP:cog  STATUS:               ID:20170103220627 L   3
 OLDACT:UP  17-01-04 04:50 OP:cog  STATUS:               ID:20170103215748     3
 OLDACT:REG 17-01-04 02:44 OP:cog  STATUS:               ID:20170103215748     3
 2017-01-03-2158-00M.COL___369                                                 6
 STAT SP IPHASW D HRMM SECON CODA AMPLIT PERI AZIMU VELO AIN AR TRES W  DIS CAZ7
 BAR2 EZ EP       22 6 47.15                             169    0.0310 29.5 183 
 BAR2 EZ ES       22 7  2.33                             169   -0.5810 29.5 183 
 BAR2 EZ I        22 7  3.36       195.9 0.24            168           29.5 183 
 BRR  HZ EP       22 6 48.93                             154    0.7510 66.1 295 
 BRR  HN ES       22 7  6.08                             154    1.2810 66.1 295 
 BRR  HZ I        22 7 10.18        93.5 0.16            154           66.1 295 
 PAM  EZ EP       22 6 49.94                             152    0.6110 74.3  44 
 PAM  EN ES       22 7  6.93                             152    0.0710 74.3  44 
 PAM  EZ I        22 7  9.32       207.0 0.50            150           74.3  44 
 RUS  HZ EP       22 6 51.02                             143   -0.4710  107 175 
 RUS  HE ES       22 7 10.24                             143   -0.4610  107 175 
 RUS  HZ I        22 7 10.88        72.3 0.26            141            107 175 
 PTB  HZ EP       22 6 53.81                             133   -0.26 9  147 256 
 PTB  HE ES       22 7 14.83                             133   -0.46 9  147 256 
 PTB  HZ I        22 7 17.83        49.3 0.16            132            147 256 
 TAM  HZ IP     D 22 6 55.50                             131    0.25 9  159 107 
 TAM  HZ I        22 7 16.35        23.2 0.42            128            159 107 
 TAM  HE ES       22 7 17.18                             131   -0.21 9  159 107 
 ZAR  HZ EP       22 6 59.41                             124    0.31 9  199 291 
 ZAR  HE ES   3   22 7 22.58                             124   -1.66 2  199 291 
 ZAR  HZ I        22 7 31.77        52.9 0.29            122            199 291 
 CHI  HZ EP       22 7  5.13                             118   -0.26 8  254 194 
 CHI  HE ES   4   22 7 34.55                             118   -0.90 0  254 194 
 CHI  HZ I        22 7 38.36        42.9 0.52            116            254 194 
 ROSC BZ EP   4   22 7  7.28                             117    1.61 0  257 210 
 ROSC BN ES       22 7 35.75                             117   -0.19 8  257 210 
 ROSC BZ I        22 7 40.96        75.6 0.45            116            257 210 
 URE  HZ EP   4   22 7  4.78                             115   -2.83 0  279 291 
 GUY2CHZ EP   4   22 7 12.26                             113    1.40 0  303 233 
 GUY2CHE ES   4   22 7 49.37                             113    4.20 0  303 233 
 GUY2CHZ  IAML    22 7 53.41        33.2 0.32                           303 233 
 PTGC HZ EP   9   22 7 10.31                             112   -1.38 0  316 159 
 PTGC HN ES       22 7 43.87                             112   -1.40 7  316 159 
 PTGC HZ I        22 7 48.53        43.8 0.30            110            316 159 
 ELA  HZ EP       22 7 14.48                             111    0.32 7  331 228 
 ELA  HE ES       22 7 51.71                             111    0.67 7  331 228 
 ELA  HZ I        22 8  0.10        20.9 0.36            110            331 228 
 DBB  EZ IPg      22 7 14.44                             110    0.27 7  337 273 
 DBB  EZ EP       22 7 14.61                             110    0.44 7  337 273 
 DBB  EN ES       22 7 50.35                             110   -0.72 7  337 273 
 ORTC HZ EP       22 7 21.33                             107   -0.03 6  399 215 
 ORTC HN ES       22 8  3.57                             107   -0.30 6  399 215 
 ORTC HZ I        22 8  8.34        20.4 0.46            106            399 215 
 SJC  HZ EP       22 7 21.26                             107   -0.51 6  402 327 
 SJC  HE ES   4   22 8  2.63                             107   -1.97 0  402 327 
 PAL  HZ EP       22 7 22.49                             107    0.19 6  407 238 
 PAL  HN ES   4   22 8  7.17                             107    1.63 0  407 238 
 PAL  HZ I        22 8  9.51        10.3 0.20            105            407 238 
 CRJC HZ EP       22 7 27.44                             104   -1.30 5  461   4 
 CRJC HN ES       22 8 15.17                             104   -1.83 5  461   4 
                                                                                
