 2014  7 4 0512 46.5 L   6.814 -73.126134.3  RSN  4 0.3 1.2LRSN                1
 GAP=203        0.69       3.8     5.4 10.4  0.4836E+01  0.2130E+01 -0.1908E+02E
 Epicentro: LOS SANTOS - SANTANDER                                             3
 ACTION:UPD 15-03-16 20:41 OP:nd   STATUS:               ID:20140704051246 L   I
 OLDACT:REG 14-07-04 12:47 OP:cam  STATUS:               ID:20140704051000     3
 2014-07-04-0510-00M.COL___279                                                 6
 STAT SP IPHASW D HRMM SECON CODA AMPLIT PERI AZIMU VELO AIN AR TRES W  DIS CAZ7
 RUS  HZ EP   1    513  9.93                             141    0.64 7  102 177 
 RUS  HN ES        513 26.85                             141   -0.1910  102 177 
 RUS  HZ I         513 30.84         1.1 0.40            144            102 177 
 PTB  HZ EP        513 12.57                             129   -0.26 9  150 258 
 PTB  HN ES        513 33.66                             129    0.32 9  150 258 
 PTB  HZ I         513 36.26         2.4 0.40            132            150 258 
 SPBC HZ EP   1    513 14.37                             126   -0.07 7  166 219 
 SPBC HN ES        513 36.03                             126   -0.17 9  166 219 
 SPBC HZ I         513 40.43         3.0 0.24            129            166 219 
 SML  HN ES        513 50.46                             115   -0.09 8  243 335 
                                                                                
