 2017 10 4 0501 13.9 L   6.824 -73.161141.1  RSN  4 0.3 1.2LRSN                1
 GAP=184        0.73       5.6     8.8  6.6 -0.3749E+02  0.1318E+02 -0.4023E+01E
 Epicentro: LOS SANTOS - SANTANDER                                             3
 ACTION:UPD 17-11-07 19:28 OP:rebc STATUS:               ID:20171004050113 L   I
 OLDACT:REG 17-10-04 12:55 OP:dnl  STATUS:               ID:20171004045643     3
 2017-10-04-0457-00M.COL___447                                                 6
 STAT SP IPHASW D HRMM SECON CODA AMPLIT PERI AZIMU VELO AIN AR TRES W  DIS CAZ7
 BAR2 EZ EP        5 1 33.16                             169    0.1210 25.7 185 
 BAR2 EZ ES        5 1 48.09                             169    0.1410 25.7 185 
 BAR2 EZ I         5 1 50.51         8.2 0.34            171           25.7 185 
 PAM  EZ EP        5 1 36.04                             150    0.4610 76.5  42 
 PAM  EE ES        5 1 52.05                             150   -0.4310 76.5  42 
 PAM  EZ I         5 1 55.32         2.3 0.32            152           76.5  42 
 RUS  HZ EP     D  5 1 37.12                             142   -0.2910  103 175 
 RUS  HN ES        5 1 55.86                             142    0.1210  103 175 
 RUS  HZ I         5 1 56.62         1.6 0.40            146            103 175 
 SPBC HZ EP   2    5 1 41.81                             128   -0.35 5  164 218 
 SPBC HN ES        5 2  4.12                             128   -0.06 9  164 218 
 SPBC HZ I         5 2  5.68         2.5 0.10            130            164 218 
                                                                                
