 2015  6 4 0708 50.4 L   6.821 -73.128142.8  RSN 15 0.5 1.9LRSN                1
 GAP=185        1.04       2.7     4.6  5.4 -0.1781E+01  0.8035E+01  0.6652E+00E
 Epicentro: LOS SANTOS - SANTANDER                                             3
 ACTION:UPD 15-09-10 22:09 OP:cam  STATUS:               ID:20150604070850 L   I
 OLDACT:REG 15-06-04 13:15 OP:ak   STATUS:               ID:20150604070748     3
 2015-06-04-0707-48M.COL___294                                                 6
 STAT SP IPHASW D HRMM SECON CODA AMPLIT PERI AZIMU VELO AIN AR TRES W  DIS CAZ7
 BAR2 EZ EP        7 9  9.89                             169    0.1510 26.0 193 
 BAR2 EZ ES        7 9 24.68                             169   -0.1410 26.0 193 
 BAR2 EZ I         7 9 26.96        14.3 0.20            167           26.0 193 
 BRR  HZ IP     C  7 9 11.79                             152    0.5110 71.9 296 
 BRR  HN ES        7 9 28.23                             152    0.6710 71.9 296 
 BRR  HZ I         7 9 30.23        11.1 0.14            147           71.9 296 
 RUS  HZ EP        7 9 14.31                             143    0.2810  103 177 
 RUS  HN ES        7 9 31.84                             143   -0.6210  103 177 
 RUS  HZ I         7 9 34.13         5.1 0.18            145            103 177 
 OCA  HZ EP        7 9 18.05                             129   -0.24 9  158 352 
 OCA  HN ES        7 9 40.37                             129    0.33 9  158 352 
 OCA  HZ I         7 9 45.86        25.6 0.22            130            158 352 
 SPBC HZ EP        7 9 18.92                             128   -0.06 9  166 219 
 SPBC HZ IP        7 9 18.92                             128            166 219 
 SPBC HN ES        7 9 41.10                             128   -0.16 9  166 219 
 SPBC HZ I         7 9 43.92        14.9 0.31            128            166 219 
 ZAR  HZ EP        7 9 21.82                             122   -0.94 9  205 291 
 ZAR  HN ES        7 9 47.44                             122   -0.56 9  205 291 
 ZAR  HZ I         7 9 53.79        10.5 0.34            121            205 291 
 NOR  HZ EP        7 9 26.43                             117    0.14 8  238 234 
 NOR  HE ES        7 9 53.72                             117   -0.56 8  238 234 
 NOR  HZ I         7 9 57.20         6.6 0.16            118            238 234 
 SML  HZ EP        7 9 26.93                             117    0.20 8  242 335 
 SML  HN ES        7 9 54.35                             117   -0.71 8  242 335 
 HEL  HZ EP   1    7 9 31.36                             114    0.61 6  275 255 
 HEL  HN ES        710  2.86                             114    0.64 8  275 255 
 HEL  HZ I         710  9.57         3.5 0.30            114            275 255 
 URE  HZ EP   4    7 9 34.10                             113    2.66 0  285 291 
 URE  HE ES   4    710  1.73                             113   -1.72 0  285 291 
 URE  HZ I         710 10.92         4.9 0.24            113            285 291 
 GUY2CHZ EP   1    7 9 35.04                             111    0.82 5  304 235 
 GUY2CHN ES        710  9.07                             111    0.68 7  304 235 
 GUY2CHZ I         710 16.17         3.1 0.46                           304 235 
 CBOC HZ EP   1    7 9 37.58                             109    0.08 5  336 252 
 CBOC HN ES   1    710 13.53                             109   -0.70 5  336 252 
 CBOC HZ I         710 23.41         1.8 0.50            109            336 252 
 TOL  SZ EP        7 9 39.41                             109    0.51 6  347 225 
 TOL  SN ES        710 16.48                             109   -0.24 6  347 225 
 TOL  SZ I         710 23.53         3.8 0.22            109            347 225 
 MON  HZ EP   4    7 9 37.22                             108   -2.09 0  354 308 
 MON  HN ES   4    710 14.10                             108   -3.35 0  354 308 
 PRA  HZ EP        7 9 43.74                             106   -0.44 6  395 210 
 PRA  HN ES        710 26.27                             106    0.15 6  395 210 
 PRA  HZ I         710 31.86         2.3 0.49            107            395 210 
 ORTC HZ EP   1    7 9 44.01                             106   -0.58 4  398 216 
 ORTC HN ES        710 27.01                             106    0.16 6  398 216 
 ORTC HZ I         710 31.25         1.6 0.18            107            398 216 
                                                                                
