 2012  1 4 0120 32.1 L   6.713 -73.423117.8  RSN 10 0.3 1.7LRSN                1
 GAP= 68        0.62       2.7     3.0  5.1  0.3989E+00  0.6217E+01  0.3668E+01E
 Epicentro: EL CARMEN DE CHUCURI - SANTANDER                                   3
 ACTION:UP  12-02-03 08:13 OP:REBC STATUS:               ID:20120104012032 L   I
 2012-01-04-0120-00M.COL___183                                                 6
 STAT SP IPHASW D HRMM SECON CODA AMPLIT PERI AZIMU VELO SNR AR TRES W  DIS CAZ7
 BAR2 SZ EP        120 48.50                             165     0.010   30 117 
 BAR2 SZ I         120 48.85        41.4 0.28                            30 117 
 BAR2 SZ ES   1    121  1.29                             165    -0.1 7   30 117 
 BRR  HZ EP   1    120 49.06                             154    -0.2 7   54 324 
 BRR  HZ I         121  2.73        15.3 0.12                            54 324 
 BRR  HN ES   1    121  3.03                             154     0.4 7   54 324 
 RUS  HZ EP        120 52.57                             138    -0.410   98 157 
 RUS  HZ I         120 53.16         6.7 0.25                            98 157 
 RUS  HN ES   1    121  9.35                             138     0.0 7   98 157 
 PAM  SZ EP   1    120 53.86                             135     0.2 7  106  49 
 PAM  SE ES   2    121 10.61                             135     0.2 5  106  49 
 OCA  SZ ES   2    121 20.23                             121    -0.3 5  169   4 
 ZAR  HZ EP   2    121  0.25                             119     0.0 4  180 299 
 ZAR  HN ES   1    121 22.09                             119    -0.2 7  180 299 
 ZAR  HZ I         121 27.04         7.9 0.36                           180 299 
 NOR  SZ EP   1    121  3.21                             115     0.2 6  204 232 
 NOR  SE ES   1    121 26.75                             115    -0.3 6  204 232 
 CHI  HZ EP   1    121  7.18                             112     0.6 6  233 188 
 CHI  HN ES   2    121 34.29                             112     0.7 4  233 188 
 CHI  HZ I         121 36.32         2.7 0.56                           233 188 
 HEL  HZ EP   1    121  7.48                             111     0.1 6  240 256 
 HEL  HE ES   2    121 35.08                             111     0.2 4  240 256 
 HEL  HZ I         121 39.72         4.4 0.75                           240 256 
 RREF HZ EP   2    121 13.79                             107     0.1 4  293 227 
 RREF HE ES   1    121 46.08                             107    -0.1 5  293 227 
 RREF HZ I         121 57.58         2.5 0.67                           293 227 
                                                                                
