 2017 11 4 0405 49.7 L   6.683 -73.204138.0  RSN  5 0.4 1.2LRSN                1
 GAP=217        0.90       6.7     6.3  7.6  0.2336E+02  0.1265E+02 -0.2376E+01E
 Epicentro: VILLANUEVA - SANTANDER                                             3
 ACTION:UPD 17-12-12 19:51 OP:rebc STATUS:               ID:20171104040549 L   I
 OLDACT:DUP 17-11-04 15:11 OP:dnl  STATUS:               ID:20171104035742d    3
 2017-11-04-0358-00M.COL___423                                                 6
 STAT SP IPHASW D HRMM SECON CODA AMPLIT PERI AZIMU VELO AIN AR TRES W  DIS CAZ7
 BAR2 EZ EP        4 6  7.74                             176   -0.4310 10.3 167 
 BAR2 EZ ES        4 6 22.42                             176   -0.1810 10.3 167 
 BAR2 EZ I         4 6 23.74         7.8 0.64            178           10.3 167 
 BRR  HZ EP        4 6  9.94                             151   -0.1710 73.2 310 
 BRR  HE ES        4 6 26.46                             151    0.4110 73.2 310 
 BRR  HZ I         4 6 35.78         6.5 0.46            150           73.2 310 
 RUS  HZ EP   2    4 6 11.97                             146    0.17 5 88.4 171 
 RUS  HN ES        4 6 29.55                             146    0.5010 88.4 171 
 RUS  HZ I         4 6 30.79         2.2 0.24            154           88.4 171 
 PTB  HZ EP        4 6 14.94                             132   -0.31 9  139 264 
 PTB  HE ES        4 6 34.88                             132   -0.32 9  139 264 
 PTB  HZ I         4 6 38.59         1.0 0.30            136            139 264 
 ZAR  HZ EP   2    4 6 22.60                             121    1.03 4  203 296 
 ZAR  HN ES        4 6 46.74                             121    0.30 9  203 296 
 ZAR  HZ I         4 6 49.34         1.5 0.44            124            203 296 
                                                                                
