 2012 10 4 0146 59.2 L   6.894 -73.108151.4  RSN  7 0.3 1.7LRSN                1
 GAP=136        0.65       4.4     4.5  5.8  0.8206E+00  0.4719E+01  0.1011E+02E
 Epicentro: PIEDECUESTA - SANTANDER                                            3
 ACTION:UPD 12-11-22 17:01 OP:ep   STATUS:               ID:20121004014659 L   I
 2012-10-04-0140-00M.COL___220                                                 6
 STAT SP IPHASW D HRMM SECON CODA AMPLIT PERI AZIMU VELO AIN AR TRES W  DIS CAZ7
 GIR2 SZ EP   1    147 19.18                             171   -0.17 7 22.5 335 
 BAR2 SZ EP   1    147 19.43                             167   -0.34 7 34.3 194 
 BAR2 SZ I         147 19.99        14.8 0.22                          34.3 194 
 BAR2 SZ ES   2    147 36.30                             167    0.49 5 34.3 194 
 PAM  SZ EP   1    147 21.40                             155   -0.04 7 66.8  42 
 PAM  SN ES        147 38.93                             155    0.1410 66.8  42 
 PAM  SZ I         147 39.96        14.0 0.28                          66.8  42 
 BRR  HZ EP   1    147 20.80                             154   -0.14 7 70.8 290 
 BRR  HZ I         147 21.18        13.7 0.13                          70.8 290 
 BRR  HN ES        147 37.68                             154   -0.2110 70.8 290 
 RUS  HZ EP   1    147 23.97                             142   -0.28 7  111 179 
 RUS  HE ES   2    147 44.25                             142    0.47 5  111 179 
 RUS  HZ I         147 47.00         0.9 0.21                           111 179 
 ZAR  HZ EP   1    147 32.99                             123    0.95 6  204 289 
 ZAR  HN ES   2    147 57.42                             123   -0.24 4  204 289 
 ZAR  HZ I         148  2.19        12.6 0.42                           204 289 
 CHI  HZ EP   1    147 38.49                             117    0.07 6  260 195 
 CHI  HN ES   2    148  9.02                             117    0.02 4  260 195 
 CHI  HZ I         148 11.20         2.4 0.35                           260 195 
                                                                                
