 2017  3 4 0843 19.9 L   6.799 -73.345117.1  RSN 14 0.4 1.4LRSN                1
 GAP=100        0.92       2.9     2.9  4.8 -0.4308E+00  0.4753E+01  0.1376E+01E
 Epicentro: ZAPATOCA - SANTANDER                                               3
 ACTION:UPD 17-05-25 18:36 OP:jn   STATUS:               ID:20170304084319 L   I
 OLDACT:UP  17-03-04 17:47 OP:and  STATUS:               ID:20170304083747     3
 OLDACT:UP  17-03-04 17:46 OP:and  STATUS:               ID:20170304083747     3
 OLDACT:UP  17-03-04 17:44 OP:and  STATUS:               ID:20170304083747     3
 OLDACT:UP  17-03-04 17:44 OP:and  STATUS:               ID:20170304083747     3
 OLDACT:UP  17-03-04 17:44 OP:and  STATUS:               ID:20170304083747     3
 OLDACT:UP  17-03-04 17:43 OP:and  STATUS:               ID:20170304083747     3
 OLDACT:UP  17-03-04 17:42 OP:and  STATUS:               ID:20170304083747     3
 OLDACT:UP  17-03-04 17:42 OP:and  STATUS:               ID:20170304083747     3
 OLDACT:UP  17-03-04 17:39 OP:and  STATUS:               ID:20170304083747     3
 OLDACT:REG 17-03-04 12:37 OP:lv   STATUS:               ID:20170304083747     3
 2017-03-04-0838-00M.COL___391                                                 6
 STAT SP IPHASW D HRMM SECON CODA AMPLIT PERI AZIMU VELO AIN AR TRES W  DIS CAZ7
 BAR2 EZ IP     D  843 35.92                             165   -0.3310 29.1 142 
 BAR2 EZ ES        843 49.21                             165    0.2010 29.1 142 
 BAR2 EZ I         843 49.64        15.2 0.25            163           29.1 142 
 BRR  HZ EP        843 36.46                             154   -0.4610 53.0 310 
 BRR  HN ES        843 50.24                             154    0.0410 53.0 310 
 BRR  HZ I         843 50.90        16.9 0.14            154           53.0 310 
 PAM  EZ EP        843 40.64                             139    0.3110 93.1  50 
 PAM  EN ES        843 56.70                             139    0.4210 93.1  50 
 PAM  EZ I         843 58.00         3.7 0.22            142           93.1  50 
 RUS  HZ EP        843 40.95                             136   -0.3110  104 164 
 RUS  HN ES        843 57.56                             136   -0.3710  104 164 
 RUS  HZ I         843 58.55         6.4 0.20            133            104 164 
 SPBC HZ EP        843 45.57                             124    0.54 9  150 212 
 SPBC HN ES        844  4.32                             124   -0.32 9  150 212 
 SPBC HZ I         844  8.19         3.4 0.08            122            150 212 
 TAM  HZ EP        843 47.47                             119   -0.23 9  176 103 
 ZAR  HZ EP        843 48.17                             118   -0.28 9  184 295 
 ZAR  HN ES        844 10.82                             118    0.09 9  184 295 
 ZAR  HZ I         844 15.09         3.6 0.03            118            184 295 
 NOR  HZ EP        843 52.04                             114   -0.11 8  217 231 
 NOR  HN ES        844 17.94                             114    0.63 8  217 231 
 NOR  HZ I         844 21.33         2.1 0.24            112            217 231 
 CHI  HZ EP        843 56.17                             111    0.56 8  244 190 
 CHI  HN ES   4    844 25.26                             111    1.79 0  244 190 
 CHI  HZ I         844 34.23         0.8 0.31            110            244 190 
 URE  HZ EP        843 56.87                             109   -0.52 8  264 294 
 URE  HN ES   4    844 24.07                             109   -2.57 0  264 294 
 URE  HZ I         844 28.14         2.7 0.16            108            264 294 
 CBOC HZ EP        844  4.13                             105    0.82 7  313 251 
 CBOC HN ES        844 36.84                             105   -0.34 7  313 251 
 CBOC HZ I         844 38.49         0.4 0.37            104            313 251 
 PTGC HZ EP   9    844  2.07                             105   -1.57 0  317 155 
 PTGC HN ES        844 36.40                             105    0.21 7  317 155 
 PRA  HZ EP   9    844 12.98                             102    1.66 0  381 207 
 PRA  HE ES        844 53.04                             101   -0.05 6  381 207 
 PRA  HZ I         844 58.79         1.4 0.20            101            381 207 
 ORTC HN ES   4    844 55.57                             101    3.89 0  383 213 
 ORTC HZ I         844 59.97         0.9 0.31            101            383 213 
 SJC  HZ EP   4    844 10.85                             101   -2.44 0  398 330 
 SJC  HN ES   4    844 51.35                             101   -3.58 0  398 330 
                                                                                
