 2014  1 4 0720 57.6 L   6.778 -73.132141.0  RSN 11 0.5 1.8LRSN                1
 GAP= 75        1.06       4.0     3.3  5.7 -0.4718E+01  0.4407E+01 -0.2156E+01E
 Epicentro: LOS SANTOS - SANTANDER                                             3
 ACTION:UPD 14-03-13 09:51 OP:ep   STATUS:               ID:20140104072057 L   I
 OLDACT:REG 14-01-04 07:53 OP:stll STATUS:               ID:20140104071810     3
 2014-01-04-0718-10M.COL___231                                                 6
 STAT SP IPHASW D HRMM SECON CODA AMPLIT PERI AZIMU VELO AIN AR TRES W  DIS CAZ7
 BAR2 SZ IP     D  721 16.94                             171    0.3010 21.3 195 
 BAR2 SZ I         721 17.08        29.3 0.40            168           21.3 195 
 BAR2 SZ ES        721 31.36                             171   -0.1210 21.3 195 
 PAM  SZ EP        721 19.86                             150    0.4710 78.3  38 
 PAM  SZ I         721 20.21        15.4 0.28            152           78.3  38 
 PAM  SN ES        721 36.69                             150    0.3110 78.3  38 
 RUS  HZ EP        721 20.70                             143   -0.0310 98.1 177 
 RUS  HN ES        721 38.69                             143   -0.0710 98.1 177 
 RUS  HZ I         721 40.09         6.8 0.44            142           98.1 177 
 PTB  HZ EP        721 23.97                             131   -0.33 9  149 260 
 PTB  HN ES        721 44.67                             131   -0.44 9  149 260 
 PTB  HZ I         721 46.49        11.9 0.14            129            149 260 
 TAM  HZ EP        721 25.17                             130    0.43 9  153 104 
 TAM  HE ES        721 45.66                             130   -0.23 9  153 104 
 SPBC HZ EP        721 25.88                             128    0.20 9  162 220 
 SPBC HN ES        721 47.30                             128   -0.26 9  162 220 
 NOR  HZ EP        721 33.00                             117   -0.06 8  235 235 
 NOR  HN ES        722  0.25                             117   -0.46 8  235 235 
 NOR  HZ I         722  6.26         6.8 0.20            116            235 235 
 SML  HZ EP        721 33.44                             116   -0.85 8  246 335 
 CHI  HZ EP        721 34.55                             116   -0.30 8  247 196 
 CHI  HN ES        722  4.11                             116    0.21 8  247 196 
 CHI  HZ I         722  9.98         1.7 0.28            115            247 196 
 HEL  HZ EP        721 38.86                             114    1.16 8  273 256 
 HEL  HN ES        722  9.60                             114    0.65 8  273 256 
 HEL  HZ I         722 15.73         4.5 0.36            113            273 256 
 SOCV BZ EP        721 39.66                             111   -0.80 7  301  56 
                                                                                
