 2012  7 4 0838 43.6 L   6.765 -73.156140.8  RSN 13 0.4 2.7LRSN                1
 GAP= 65        1.06       3.6     3.8  6.2  0.7106E+00  0.2162E+01  0.3569E+01E
 Epicentro: LOS SANTOS - SANTANDER                                             3
 ACTION:UPD 12-08-14 11:42 OP:ep   STATUS:               ID:20120704083843 L   I
 2012-07-04-0837-50M.COL___199                                                 6
 STAT SP IPHASW D HRMM SECON CODA AMPLIT PERI AZIMU VELO AIN AR TRES W  DIS CAZ7
 BAR2 SZ EP        839  2.75                             172     0.210   19 189 
 BAR2 SZ ES   1    839 16.97                             172    -0.4 7   19 189 
 BAR2 SZ I         839 18.84       101.7 0.33            171             19 189 
 BRR  HZ EP        839  4.65                             151     0.410   72 302 
 BRR  HN ES        839 21.22                             151     0.810   72 302 
 BRR  HZ I         839 23.01       106.0 0.15            149             72 302 
 PAM  SZ EP        839  5.58                             149     0.110   81  38 
 PAM  SN ES        839 22.46                             149    -0.110   81  38 
 RUS  HZ EP   1    839  6.67                             144     0.1 7   97 175 
 RUS  HN ES        839 24.56                             144     0.010   97 175 
 PTB  HZ EP   1    839  9.39                             131    -0.6 7  146 260 
 PTB  HN ES        839 30.24                             131    -0.3 9  146 260 
 PTB  HZ I         839 33.91        39.1 0.15            130            146 260 
 TAM  HZ EP        839 10.98                             129     0.1 9  155 104 
 TAM  HZ I         839 11.24        92.5 0.20            132            155 104 
 OCA  HZ EP   1    839 11.09                             128    -0.8 7  164 354 
 OCA  HN ES   1    839 33.13                             128    -0.8 7  164 354 
 OCA  HZ I         839 36.27       100.9 0.29            128            164 354 
 YOP  SZ EP   1    839 13.31                             126     0.3 7  176 152 
 ZAR  HZ EP   1    839 16.09                             121     0.3 6  204 293 
 ZAR  HN ES        839 40.53                             121    -0.3 9  204 293 
 ZAR  HZ I         839 43.77        40.7 0.30            120            204 293 
 CHI  HZ EP   1    839 20.58                             116     0.0 6  245 195 
 CHI  HN ES        839 48.80                             116    -0.6 8  245 195 
 HEL  HZ EP   1    839 24.04                             114     0.7 6  270 257 
 HEL  HE ES   2    839 54.37                             114     0.0 4  270 257 
 HEL  HZ I         840  3.26        18.4 0.28            114            270 257 
 DBB  SZ EP   1    839 31.24                             109     0.5 5  339 275 
 PRA  HZ EP   1    839 36.59                             106     0.1 4  388 210 
