 2017  2 4 0942 50.7 L   6.813 -73.159145.7  RSN  8 0.4 1.7LRSN                1
 GAP=220        0.77       4.4     4.8  5.3  0.1186E+02  0.1815E+01 -0.2384E+01E
 Epicentro: LOS SANTOS - SANTANDER                                             3
 ACTION:UPD 17-05-24 15:32 OP:jn   STATUS:               ID:20170204094250 L   I
 OLDACT:UP  17-02-04 16:32 OP:and  STATUS:               ID:20170204093750     3
 OLDACT:UP  17-02-04 16:29 OP:and  STATUS:               ID:20170204093750     3
 OLDACT:UP  17-02-04 16:28 OP:and  STATUS:               ID:20170204093750     3
 OLDACT:REG 17-02-04 12:52 OP:dnl  STATUS:               ID:20170204093750     3
 2017-02-04-0938-00M.COL___328                                                 6
 STAT SP IPHASW D HRMM SECON CODA AMPLIT PERI AZIMU VELO AIN AR TRES W  DIS CAZ7
 BAR2 EZ IP     D  943 10.39                             170    0.0910 24.6 186 
 BAR2 EZ ES        943 25.32                             170   -0.3110 24.6 186 
 BAR2 EZ I         943 26.20        13.6 0.30            169           24.6 186 
 BRR  HZ EP     C  943 11.98                             153    0.2910 69.2 298 
 BRR  HN ES   3    943 29.12                             153    1.02 2 69.2 298 
 BRR  HZ I         943 31.45        12.1 0.32            151           69.2 298 
 RUS  HZ EP        943 14.68                             143    0.1710  102 175 
 RUS  HN ES        943 33.10                             143   -0.0210  102 175 
 RUS  HZ I         943 33.97         3.8 0.24            145            102 175 
 PTB  HZ EP   2    943 16.86                             132   -0.65 5  147 258 
 PTB  HN ES        943 38.06                             132   -0.41 9  147 258 
 PTB  HZ I         943 41.00         5.5 0.28            131            147 258 
 ZAR  HZ EP        943 23.30                             122    0.40 9  202 292 
 ZAR  HN ES        943 48.17                             122    0.11 9  202 292 
 ZAR  HZ I         943 53.36         4.6 0.19            123            202 292 
 CHI  HZ EP   2    943 28.76                             117    0.30 4  250 195 
 CHI  HN ES        943 58.47                             117    0.52 8  250 195 
 CHI  HZ I         944  0.24         3.3 0.32            118            250 195 
 URE  HZ EP        943 31.07                             113   -0.44 7  282 292 
 URE  HN ES   4    944  1.51                             113   -1.87 0  282 292 
 PTGC HZ EP        943 34.15                             111   -0.57 7  311 159 
                                                                                
