 2010  3 4 0615 27.2 L   6.799 -73.047148.0  RSN  4 0.3 1.7LRSN                1
 GAP=193        0.53       5.6    12.2  7.6  0.4834E+02 -0.5607E+02 -0.2614E+02E
 Epicentro: LOS SANTOS - SANTANDER                                             3
 *BAR2-RUS-BRR                                                                 3
 ACTION:UP  10-08-24 09:51 OP:vdl  STATUS:               ID:20100304061015 L   I
 2010-03-04-0610-15S.COL___096                                                 6
 STAT SP IPHASW D HRMM SECON CODA AMPLIT PERI AZIMU VELO SNR AR TRES W  DIS CAZ7
 BAR2 SZ EP   1    615 47.25                             168     0.1 7   27 213 
 BAR2 SZ ES   1    616  2.38                             168    -0.4 7   27 213 
 BRR  HZ EP   1    615 48.98                             149    -0.2 7   81 295 
 BRR  HN ES   1    616  6.48                             149     0.2 7   81 295 
 BRR  HZ I         616  8.32         6.7 0.10                            81 295 
 RUS  BZ EP   1    615 51.23                             143     0.1 7  100 182 
 RUS  BE ES   1    616  9.93                             143     0.1 7  100 182 
 RUS  BZ I         616 10.86         5.1 0.34                           100 182 
 OCA  SZ EP   1    615 55.64                             130    -0.2 7  162 349 
 OCA  SZ ES   3    616 19.01                             130     0.8 2  162 349 
 OCA  SZ I         616 20.61         9.0 0.17                           162 349 
                                                                                
