 2015  1 4 0053  3.0 L   6.806 -73.162140.3  RSN 30 0.4 2.8LRSN                1
 GAP= 53        1.41       2.9     3.4  5.8 -0.5907E+00  0.6279E+01  0.3101E+01E
 Epicentro: LOS SANTOS - SANTANDER                                             3
       5.0      35.0      -2.0  7.0  4.0  6.0  0.1  0.1           RSN FPFIT    F
 ACTION:UPD 15-03-02 15:36 OP:nd   STATUS:               ID:20150104005303 L   I
 OLDACT:DUP 15-01-04 15:19 OP:stll STATUS:               ID:20150104004752d    3
 2015-01-04-0047-51M.COL___274                                                 6
 STAT SP IPHASW D HRMM SECON CODA AMPLIT PERI AZIMU VELO AIN AR TRES W  DIS CAZ7
 BAR2 EZ IP     D  053 22.14                             170    0.1410 23.7 185 
 BAR2 EZ ES        053 36.77                             170   -0.0410 23.7 185 
 BAR2 EZ I         053 38.15       202.1 0.16            169           23.7 185 
 BRR  HZ IP     C  053 24.12                             152    0.6510 69.3 299 
 BRR  HN ES        053 39.82                             152    0.3910 69.3 299 
 BRR  HZ I         053 43.70       131.0 0.16            150           69.3 299 
 PAM  SZ IP     C  053 25.03                             150    0.3310 78.1  41 
 PAM  SZ I         053 25.37       178.2 0.26            153           78.1  41 
 PAM  SN ES        053 41.57                             150   -0.0410 78.1  41 
 RUS  HZ IP     D  053 26.13                             142   -0.1710  101 175 
 RUS  HZ I         053 27.01        53.8 0.48            144            101 175 
 RUS  HE ES        053 44.34                             142   -0.1110  101 175 
 PTB  HZ IP     D  053 28.67                             131   -0.72 9  146 258 
 PTB  HN ES        053 49.55                             131   -0.42 9  146 258 
 PTB  HZ I         053 55.42       101.0 0.36            130            146 258 
 TAM  HZ IP     D  053 30.51                             129    0.06 9  157 105 
 TAM  HZ I         053 30.63        22.7 0.18            133            157 105 
 TAM  HE ES        053 51.58                             129   -0.27 9  157 105 
 OCA  HZ EP     C  053 30.46                             128   -0.37 9  159 354 
 OCA  HN ES        053 52.52                             128   -0.01 9  159 354 
 OCA  HZ I         053 57.31        91.5 0.16            130            159 354 
 SPBC HZ IP     D  053 31.05                             127    0.01 9  163 218 
 SPBC HZ I         053 31.48       109.3 0.22            128            163 218 
 SPBC HE ES        053 52.99                             127    0.09 9  163 218 
 ZAR  HZ EP     D  053 35.23                             121    0.32 9  202 292 
 ZAR  HE ES        053 59.93                             121    0.14 9  202 292 
 ZAR  HZ I         054  6.07       108.6 0.54            121            202 292 
 NOR  HZ EP        053 38.04                             117   -0.28 8  234 234 
 NOR  HN ES        054  5.94                             117    0.09 8  234 234 
 NOR  HZ I         054 13.43        36.5 0.20            118            234 234 
 SML  HZ EP        053 38.51                             116   -0.69 8  242 336 
 SML  HE ES        054  7.50                             116    0.08 8  242 336 
 SML  HZ I         054 16.47        71.5 0.10            117            242 336 
 CHI  HZ EP        053 40.04                             116   -0.39 8  249 195 
 CHI  HN ES        054  9.16                             116   -0.46 8  249 195 
 CHI  HZ I         054 16.02        26.1 0.42            117            249 195 
 ROSC BZ IP     D  053 41.98                             115    1.18 8  252 211 
 ROSC BE ES        054 10.45                             115    0.18 8  252 211 
 ROSC BZ I         054 18.26        60.8 0.45            116            252 211 
 HEL  HZ EP        053 42.70                             113   -0.08 8  270 256 
 HEL  HN ES        054 13.81                             113    0.02 8  270 256 
 HEL  HZ I         054 24.00        30.0 0.78            114            270 256 
 URE  HZ EP        053 42.92                             112   -0.69 7  282 292 
 URE  HN ES        054 14.69                             112   -0.59 7  282 292 
 URE  HZ I         054 24.51        33.5 0.36            113            282 292 
 SOCV BZ EP   9    053 45.06                             111   -0.90 0  302  57 
 SOCV BN ES        054 16.37                                   -2.18 7  302  57 
 VIL  SZ EP        053 45.96                             111   -0.26 7  304 191 
 VIL  SE ES        054 19.41                             111   -0.51 7  304 191 
 VIL  SZ I         054 25.75        37.7 0.34            112            304 191 
 PTGC HZ EP   9    053 45.31                             110   -1.47 0  310 158 
 PTGC HE ES        054 18.05                                   -1.39 7  310 158 
 PTGC HZ I         054 20.48        31.5 0.20            112            310 158 
 RREF HZ EP        053 49.07                             110    0.25 7  321 229 
 RREF HE ES        054 24.79                             110    0.25 7  321 229 
 RREF HZ I         054 30.88        22.2 0.50            110            321 229 
 CBOC HZ IP     D  053 50.29                             109    0.76 7  332 252 
 CBOC HZ I         053 51.89        18.8 0.16            109            332 252 
 CBOC HE ES        054 25.98                             109    0.16 7  332 252 
 DBB  SZ EP        053 49.96                             108   -0.10 7  338 274 
 TOL  SZ EP        053 51.55                             108    0.59 7  343 224 
 TOL  SN ES        054 28.77                             108    0.41 7  343 224 
 MON  HZ IP   9 D  053 50.12                             107   -1.48 0  352 308 
 MON  HN ES        054 28.33                                    0.31 6  352 308 
 MON  HZ I         054 29.40        16.7 0.18            108            352 308 
 ANIL HZ EP        053 52.64                             107    0.12 6  357 224 
 ANIL HE ES        054 31.51                             107    0.38 6  357 224 
 ARGC HZ EP   9    053 53.18                             107    0.85 0  358 341 
 ARGC HE ES        054 31.52                                   -0.12 6  358 341 
 SDV  BZ EP   9    053 51.59                             107   -1.38 0  361  50 
 SDV  BE ES        054 27.88                                   -2.67 6  361  50 
 SDV  BZ I         054 32.13        13.8 0.35            109            361  50 
 ORTC HZ EP        053 57.12                             105    0.43 6  395 216 
 ORTC HE ES        054 38.52                             105   -0.03 6  395 216 
 ORTC HZ I         054 45.46        18.0 0.48            106            395 216 
 PAL  HZ IP     C  053 58.23                             105    0.37 6  404 239 
 PAL  HZ I         053 59.96        13.7 0.20            106            404 239 
 PAL  HE ES        054 39.98                             105   -0.65 6  404 239 
 SJC  HZ EP   9    053 56.45                             105   -1.78 0  408 327 
 SJC  HN ES        054 37.71                                   -1.80 6  408 327 
 SJC  HZ I         054 42.08        20.1 0.46            106            408 327 
 CRJC HZ EP   9    054  2.89                             102   -2.42 0  467   4 
 CRJC HE ES        054 48.70                                   -2.78 5  467   4 
 CRJC HZ I         054 54.89        22.1 0.40            104            467   4 
                                                                                
