 2013 10 4 0834  2.0 L   6.834 -73.185143.8  RSN 11 0.5 2.0LRSN                1
 GAP=130        1.21       3.4     5.2  6.6 -0.4725E+01  0.1117E+02 -0.2240E+01E
 Epicentro: ZAPATOCA - SANTANDER                                               3
 ACTION:UPD 13-11-25 09:19 OP:ep   STATUS:               ID:20131004083402 L   I
 OLDACT:REG 13-10-04 10:52 OP:nd   STATUS:               ID:20131004082959     3
 2013-10-04-0829-59M.COL___273                                                 6
 STAT SP IPHASW D HRMM SECON CODA AMPLIT PERI AZIMU VELO AIN AR TRES W  DIS CAZ7
 BAR2 SZ EP        834 21.25                             169   -0.2510 26.7 179 
 BAR2 SZ ES        834 36.34                             169   -0.3410 26.7 179 
 BAR2 SZ I         834 37.09        36.0 0.32            168           26.7 179 
 BRR  HZ EP        834 22.99                             154    0.3310 65.6 297 
 BRR  HN ES        834 39.27                             154    0.5210 65.6 297 
 BRR  HZ I         834 43.64        21.4 0.12            151           65.6 297 
 PAM  SZ EP        834 24.13                             150    0.0910 77.4  44 
 PAM  SN ES        834 41.16                             150   -0.0410 77.4  44 
 PAM  SZ I         834 43.09        25.8 0.52            155           77.4  44 
 RUS  HN ES        834 44.47                             142   -0.0310  105 174 
 RUS  HZ I         834 45.74         7.7 0.32            145            105 174 
 PTB  HZ EP        834 27.85                             132   -0.68 9  144 257 
 PTB  HN ES        834 48.76                             132   -0.43 9  144 257 
 PTB  HZ I         834 54.25        11.2 0.24            131            144 257 
 OCA  HZ EP        834 30.15                             130    0.36 9  156 355 
 OCA  HE ES        834 51.74                             130    0.29 9  156 355 
 OCA  HZ I         834 55.27         9.6 0.20            132            156 355 
 SPBC HZ EP   1    834 30.36                             128   -0.05 7  164 217 
 SPBC HE ES        834 53.03                             128    0.49 9  164 217 
 SPBC HZ I         834 59.43         8.1 0.42            129            164 217 
 ZAR  HZ EP        834 35.09                             123    1.30 9  199 292 
 ZAR  HN ES   1    834 59.01                             123    0.44 6  199 292 
 ZAR  HZ I         835  5.14        14.1 0.52            123            199 292 
 NOR  HZ EP        834 37.07                             118   -0.44 8  233 233 
 NOR  HE ES        835  4.89                             118   -0.30 8  233 233 
 NOR  HZ I         835 11.52         5.7 0.16            119            233 233 
 SML  HZ EP        834 37.55                             118   -0.43 8  239 336 
 SML  HN ES        835  4.83                             118   -1.19 8  239 336 
 SML  HZ I         835 10.49        15.3 0.26            119            239 336 
 PRA  HZ EP        834 55.95                             106    0.32 6  393 209 
 PRA  HN ES        835 37.60                             106    0.17 6  393 209 
 PRA  HZ I         835 44.98         3.3 0.64            107            393 209 
                                                                                
