 2017 12 4 0245 19.0 L   6.765 -73.279134.5  RSN 14 0.7 1.6LRSN                1
 GAP= 64        1.54       4.1     3.9  8.6  0.4489E+00  0.9095E+01 -0.3062E+01E
 Epicentro: ZAPATOCA - SANTANDER                                               3
 ACTION:UPD 18-01-04 13:16 OP:rebc STATUS:               ID:20171204024519 L   I
 OLDACT:UP  17-12-04 15:53 OP:leo  STATUS:               ID:20171204023742     3
 OLDACT:UP  17-12-04 15:49 OP:leo  STATUS:               ID:20171204023742     3
 OLDACT:REG 17-12-04 13:27 OP:leo  STATUS:               ID:20171204023742     3
 2017-12-04-0238-00M.COL___489                                                 6
 STAT SP IPHASW D HRMM SECON CODA AMPLIT PERI AZIMU VELO AIN AR TRES W  DIS CAZ7
 BAR2 EZ EP        245 36.97                             170   -0.2710 21.9 151 
 BAR2 EZ ES        245 51.70                             170    0.2310 21.9 151 
 BAR2 EZ I         245 53.96        15.2 0.32            172           21.9 151 
 PAM  EE EP        245 41.22                             144    0.3410 90.2  45 
 RUS  HZ EP        245 40.95                             142   -0.5710 98.9 167 
 RUS  HN ES        245 58.85                             142   -0.2510 98.9 167 
 RUS  HZ I         245 59.58         6.7 0.28            145           98.9 167 
 PTB  HZ EP        245 42.55                             133   -1.1110  133 259 
 PTB  HE ES        246  2.12                             133   -0.7910  133 259 
 PTB  HZ I         246 11.08         4.7 0.30            134            133 259 
 SPBC HZ EP        245 45.71                             129    0.22 9  151 216 
 SPBC HN ES        246  6.13                             129   -0.03 9  151 216 
 OCA  HZ EP        245 46.61                             126   -0.11 9  163 358 
 OCA  HN ES        246  8.38                             126    0.03 9  163 358 
 TAM  HZ EP        245 47.13                             125    0.02 9  168 102 
 TAM  HE ES        246  9.41                             125    0.36 9  168 102 
 YPLC HE ES        246 12.13                             123    0.74 9  181 147 
 ZAR  HZ EP        245 49.62                             121    0.15 9  192 295 
 ZAR  HE ES        246 14.55                             121    1.31 9  192 295 
 ZAR  HZ I         246 19.94         8.5 0.24            123            192 295 
 NOR  HZ EP        245 52.38                             118   -0.17 8  221 233 
 NOR  HN ES        246 19.26                             118    0.53 8  221 233 
 NOR  HZ I         246 21.04         4.4 0.18            120            221 233 
 CHI  HZ EP        245 55.07                             115   -0.22 8  241 192 
 CHI  HN ES        246 22.46                             115   -1.15 8  241 192 
 CHI  HZ I         246 29.86         1.2 0.38            118            241 192 
 URE  HZ EP        245 57.23                             112   -0.94 8  272 294 
 URE  HN ES        246 27.90                             112   -0.83 8  272 294 
 GUY2CHZ EP        246  1.89                             111    1.41 7  287 234 
 GUY2CHN ES        246 34.00                             111    1.16 7  287 234 
 PTGC HN ES   4    246 34.84                             109   -1.80 0  311 156 
 CBOC HZ EP        246  3.91                             109    0.21 7  318 252 
 CBOC HE ES        246 39.25                             109    0.67 7  318 252 
                                                                                
