 2013  6 4 0415 12.5 L   6.820 -73.225162.8  RSN  6 0.4 1.8LRSN                1
 GAP=173        0.77       5.1     8.3  8.5 -0.2542E+02 -0.1693E+02  0.7477E+01E
 Epicentro: ZAPATOCA - SANTANDER                                               3
 ACTION:UPD 14-01-08 09:52 OP:ep   STATUS:               ID:20130604041512 L   I
 2013-06-04-0410-00M.COL___257                                                 6
 STAT SP IPHASW D HRMM SECON CODA AMPLIT PERI AZIMU VELO AIN AR TRES W  DIS CAZ7
 BAR2 SZ EP   1    415 33.64                             171   -0.60 7 25.7 169 
 BAR2 SZ I         415 50.43         4.6 0.44            155           25.7 169 
 BRR  HZ EP   1    415 35.60                             158    0.50 7 62.4 301 
 BRR  HN ES        415 52.89                             158    0.1710 62.4 301 
 BRR  HN I         415 53.32        10.4 0.34            168           62.4 301 
 PTB  HZ EP   1    415 40.41                             137    0.18 7  140 257 
 PTB  HN ES        416  1.77                             137   -0.08 9  140 257 
 PTB  HN I         416  7.01         8.0 0.36            135            140 257 
 OCA  HN ES        416  4.92                             134    0.05 9  157 356 
 OCA  HN I         416  7.27        16.7 0.34            131            157 356 
 NOR  HE ES   1    416 16.78                             123   -0.13 6  229 233 
 NOR  HZ I         416 25.07         1.7 0.14            117            229 233 
 SML  HZ EP   1    415 50.03                             121    0.46 6  238 337 
 SML  HN ES   1    416 17.68                             121   -0.78 6  238 337 
 SML  HN I         416 25.22        10.7 0.26            119            238 337 
                                                                                
