 2016 10 4 0025 38.8 L   6.758 -73.190153.7  RSN  4 0.2 1.1LRSN                1
 GAP=133        0.68       4.5     4.4  6.8  0.4720E+01 -0.7203E+01 -0.5440E+01E
 Epicentro: LOS SANTOS - SANTANDER                                             3
 *RUS-PAM                                                                      3
 ACTION:UPD 16-11-09 19:16 OP:rebc STATUS:               ID:20161004001745dL   I
 OLDACT:DUP 16-10-04 13:50 OP:dani STATUS:               ID:20161004001745dL   3
 2016-10-04-0018-00M.COL___366                                                 6
 STAT SP IPHASW D HRMM SECON CODA AMPLIT PERI AZIMU VELO AIN AR TRES W  DIS CAZ7
 BRR  HZ EP        026  1.00                             154    0.2510 69.4 304 
 BRR  HN ES        026 18.01                             154    0.1710 69.4 304 
 BRR  HZ I         026 20.24         3.8 0.41            152           69.4 304 
 PAM  EZ EP        026  1.95                             150   -0.3410 84.1  40 
 RUS  HZ EP        026  3.45                             146    0.3610 96.4 173 
 RUS  HN ES        026 21.86                             146   -0.1410 96.4 173 
 RUS  HZ I         026 22.90         1.4 0.35            147           96.4 173 
 PTB  HZ EP        026  5.80                             135   -0.16 9  142 260 
 PTB  HE ES        026 26.94                             135   -0.18 9  142 260 
 PTB  HZ I         026 33.50         1.2 0.16            133            142 260 
                                                                                
