 2016  7 4 0356 14.5 L   6.736 -73.194146.0  RSN  7 0.4 1.6LRSN                1
 GAP=227        0.96       7.6     6.7  7.0  0.2490E+02  0.1300E+02  0.8183E+01E
 Epicentro: VILLANUEVA - SANTANDER                                             3
 ACTION:UPD 17-03-29 16:46 OP:lp   STATUS:               ID:20160704035614 L   I
 OLDACT:UP  16-07-04 17:11 OP:dani STATUS:               ID:20160704034744d    3
 OLDACT:UP  16-07-04 17:11 OP:dani STATUS:               ID:20160704034744d    3
 OLDACT:UP  16-07-04 17:09 OP:dani STATUS:               ID:20160704034744d    3
 OLDACT:DUP 16-07-04 17:02 OP:dani STATUS:               ID:20160704034744d    3
 OLDACT:UP  16-07-04 17:02 OP:dani STATUS:               ID:20160704034743     3
 OLDACT:REG 16-07-04 13:09 OP:dani STATUS:               ID:20160704034743     3
 2016-07-04-0347-43M.COL___328                                                 6
 STAT SP IPHASW D HRMM SECON CODA AMPLIT PERI AZIMU VELO AIN AR TRES W  DIS CAZ7
 BAR2 EZ EP        356 33.61                             173   -0.4710 15.9 175 
 BAR2 EZ ES        356 49.31                             173   -0.0010 15.9 175 
 BAR2 EZ I         356 49.86         8.1 0.20            168           15.9 175 
 BRR  HZ EP        356 35.51                             153   -0.1710 70.5 306 
 BRR  HE ES        356 52.61                             153    0.4510 70.5 306 
 BRR  HZ I         356 54.39         5.5 0.24            150           70.5 306 
 RUS  HZ EP   2    356 37.86                             146    0.00 5 94.0 173 
 RUS  HE ES   2    356 56.25                             146    0.21 5 94.0 173 
 RUS  HZ I         356 56.60         3.9 0.28            145           94.0 173 
 PTB  HZ EP        356 40.51                             133   -0.44 9  141 261 
 PTB  HN ES        357  1.43                             133   -0.12 9  141 261 
 PTB  HZ I         357  3.86         4.2 0.16            131            141 261 
 SPBC HZ EP        356 42.69                             131    0.46 9  154 219 
 SPBC HN ES   4    357  4.78                             131    0.96 0  154 219 
 SPBC HZ I         357  9.41         6.0 0.32            129            154 219 
 ZAR  HZ EP        356 47.55                             123    0.76 9  202 295 
 ZAR  HE ES        357 11.51                             123   -0.43 9  202 295 
 ZAR  HZ I         357 17.93         5.7 0.44            122            202 295 
 GUY2CHZ EP   4    357  0.18                             113    2.97 0  293 235 
 GUY2CHN ES   4    357 35.89                             113    5.40 0  293 235 
 GUY2CHZ I         357 38.64         2.1 0.38                           293 235 
                                                                                
