 2016  6 4 0739 17.7 L   7.373 -73.128130.9  RSN  6 0.2 1.7LRSN                1
 GAP=191        0.66       2.3     4.4  5.3 -0.8468E+00 -0.2012E+01  0.1796E+01E
 Epicentro: RIONEGRO - SANTANDER                                               3
 ACTION:UPD 16-07-21 22:15 OP:rebc STATUS:               ID:20160604073917 L   I
 OLDACT:REG 16-06-04 13:15 OP:ak   STATUS:               ID:20160604072739     3
 2016-06-04-0727-39M.COL___313                                                 6
 STAT SP IPHASW D HRMM SECON CODA AMPLIT PERI AZIMU VELO AIN AR TRES W  DIS CAZ7
 BRR  HZ EP        739 37.41                             150    0.1410 70.9 245 
 BRR  HE ES        739 52.74                             150    0.2210 70.9 245 
 BRR  HZ I         739 53.31        13.8 0.12                          70.9 245 
 BAR2 EZ EP        739 39.07                             145    0.4210 86.6 184 
 BAR2 EZ ES        739 55.12                             145    0.1410 86.6 184 
 BAR2 EZ I         739 56.84        19.6 0.12                          86.6 184 
 OCA  HZ EP        739 39.29                             141   -0.0910 98.0 348 
 OCA  HN ES        739 56.02                             141   -0.2510 98.0 348 
 OCA  HZ I         739 57.52         7.1 0.28                          98.0 348 
 RUS  HZ EP        739 45.83                             126    0.10 9  164 178 
 RUS  HN ES        740  7.03                             126   -0.54 9  164 178 
 PTB  HZ EP        739 46.01                             124   -0.05 9  173 238 
 PTB  HN ES        740  8.06                             124   -0.09 9  173 238 
 PTB  HZ I         740 10.79         5.3 0.12                           173 238 
 SPBC HN ES        740 16.36                             117   -0.17 8  217 209 
 SPBC HZ I         740 24.86         4.3 0.68                           217 209 
                                                                                
