 2016  8 4 0254 42.0 L   6.760 -73.141144.0  RSN  9 0.4 1.7LRSN                1
 GAP=121        0.95       4.7     5.2  7.6  0.3928E+01 -0.4425E+01  0.9238E+01E
 Epicentro: LOS SANTOS - SANTANDER                                             3
 ACTION:UPD 16-10-29 15:31 OP:rebc STATUS:               ID:20160804025442 L   I
 OLDACT:UP  16-08-04 14:56 OP:dani STATUS:               ID:20160804024734     3
 OLDACT:REG 16-08-04 12:18 OP:dani STATUS:               ID:20160804024734     3
 2016-08-04-0248-00M.COL___323                                                 6
 STAT SP IPHASW D HRMM SECON CODA AMPLIT PERI AZIMU VELO AIN AR TRES W  DIS CAZ7
 BAR2 EZ EP        255  1.25                             172   -0.1110 19.1 194 
 BAR2 EZ I         255 18.97        10.5 0.30                          19.1 194 
 BRR  HZ EP        255  3.02                             151   -0.1110 73.8 301 
 BRR  HN ES        255 20.07                             151    0.4810 73.8 301 
 BRR  HZ I         255 20.84        10.2 0.32                          73.8 301 
 PAM  EZ EP        255  4.18                             150   -0.0610 80.5  37 
 PAM  EZ I         255 21.97         5.8 0.22                          80.5  37 
 RUS  HZ EP        255  5.49                             145    0.2110 96.2 176 
 RUS  HE ES   2    255 23.60                             145    0.17 5 96.2 176 
 RUS  HZ I         255 25.26         3.2 0.30                          96.2 176 
 SPBC HZ EP        255 10.18                             129    0.09 9  160 220 
 SPBC HE ES        255 31.62                             129   -0.37 9  160 220 
 SPBC HZ I         255 38.45         6.6 0.26                           160 220 
 ZAR  HZ EP        255 14.70                             122    0.13 8  206 293 
 ZAR  HN ES        255 39.28                             122   -0.68 8  206 293 
 ZAR  HZ I         255 44.68         5.9 0.35                           206 293 
 GUY2CHZ EP        255 25.96                             112    0.65 7  299 236 
 GUY2CHE ES   4    256  0.72                             112    1.65 0  299 236 
 GUY2CHZ I         256  8.56         1.9 0.34                           299 236 
 PTGC HZ EP        255 24.45                             112   -0.86 7  304 158 
 PRA  HZ EP        255 35.86                             106    0.80 6  388 210 
 PRA  HZ I         256 23.41         2.9 0.48                           388 210 
                                                                                
