 2017  4 4 0929 22.7 L   6.776 -73.167146.9  RSN  8 0.4 1.6LRSN                1
 GAP=233        0.94       4.8     5.4  5.8  0.1015E+02  0.6899E+01 -0.5772E+00E
 Epicentro: LOS SANTOS - SANTANDER                                             3
 ACTION:UPD 17-05-30 21:08 OP:jn   STATUS:               ID:20170404092922 L   I
 OLDACT:UP  17-04-04 17:32 OP:and  STATUS:               ID:20170404092740     3
 OLDACT:UP  17-04-04 17:32 OP:and  STATUS:               ID:20170404092740     3
 OLDACT:UP  17-04-04 17:30 OP:and  STATUS:               ID:20170404092740     3
 OLDACT:UP  17-04-04 17:30 OP:and  STATUS:               ID:20170404092740     3
 OLDACT:REG 17-04-04 12:44 OP:and  STATUS:               ID:20170404092740     3
 2017-04-04-0928-00M.COL___359                                                 6
 STAT SP IPHASW D HRMM SECON CODA AMPLIT PERI AZIMU VELO AIN AR TRES W  DIS CAZ7
 BAR2 EZ EP        929 42.12                             172   -0.2610 20.4 185 
 BAR2 EZ ES        929 57.31                             172   -0.4410 20.4 185 
 BAR2 EZ I         929 58.38         9.4 0.14            167           20.4 185 
 BRR  HZ EP        929 44.01                             153    0.1110 70.5 301 
 BRR  HN ES        930  1.28                             153    0.8310 70.5 301 
 RUS  HZ EP        929 46.55                             145    0.1910 98.2 175 
 RUS  HN ES        930  4.84                             145    0.0110 98.2 175 
 RUS  HZ I         930  6.31         3.1 0.32            145           98.2 175 
 PTB  HZ EP   2    929 48.80                             133   -0.68 5  145 260 
 PTB  HE ES        930  9.80                             133   -0.58 9  145 260 
 PTB  HZ I         930 14.21         2.4 0.12            129            145 260 
 SPBC HZ EP        929 51.42                             130    0.50 9  160 219 
 SPBC HN ES        930 12.89                             130   -0.07 9  160 219 
 SPBC HZ I         930 15.90         6.4 0.24            128            160 219 
 ZAR  HZ EP        929 54.94                             123   -0.13 9  203 293 
 ZAR  HN ES        930 20.33                             123   -0.01 9  203 293 
 ZAR  HZ I         930 28.36         4.0 0.38            121            203 293 
 NOR  HZ EP        929 58.21                             119    0.11 8  231 235 
 NOR  HN ES   3    930 27.12                             119    1.39 2  231 235 
 NOR  HZ I         930 31.27         2.9 0.28            118            231 235 
 URE  HZ EP        930  3.33                             114   -0.33 7  283 293 
 URE  HN ES   4    930 33.69                             114   -1.94 0  283 293 
 URE  HZ I         930 42.72         2.7 0.16            113            283 293 
                                                                                
