 2017 10 4 0947 41.2 L   6.852 -73.174130.0  RSN  4 0.3 1.4LRSN                1
 GAP=244        0.63       4.6     6.0  8.0  0.1426E+02  0.2723E+02  0.3832E+01E
 Epicentro: ZAPATOCA - SANTANDER                                               3
 ACTION:UPD 17-11-07 19:28 OP:rebc STATUS:               ID:20171004094741 L   I
 OLDACT:DUP 17-10-04 16:31 OP:dnl  STATUS:               ID:20171004093748d    3
 2017-10-04-0938-00M.COL___437                                                 6
 STAT SP IPHASW D HRMM SECON CODA AMPLIT PERI AZIMU VELO AIN AR TRES W  DIS CAZ7
 BAR2 EZ EP   2    947 59.37                             167    0.28 5 28.8 182 
 BAR2 EZ ES        948 12.72                             167   -0.3110 28.8 182 
 BAR2 EZ I         948 15.50        12.5 0.74            161           28.8 182 
 RUS  HZ EP   2    948  3.77                             138   -0.15 5  107 175 
 RUS  HE ES        948 22.03                             138    0.3910  107 175 
 RUS  HZ I         948 23.21         2.6 0.38            139            107 175 
 SPBC HZ EP   2    948  8.30                             124   -0.51 5  166 217 
 SPBC HN ES        948 30.17                             124   -0.17 9  166 217 
 SPBC HZ I         948 37.25         4.3 0.22            124            166 217 
 ZAR  HZ EP   2    948 11.96                             119   -0.18 4  199 291 
 ZAR  HN ES        948 36.50                             119    0.23 9  199 291 
 ZAR  HZ I         948 41.52         1.3 0.12            120            199 291 
                                                                                
