 2017  5 4 0209  8.4 L   6.368 -73.618105.2  RSN  8 0.4 1.6LRSN                1
 GAP=135        0.99       3.3     3.3  6.6  0.3076E+01  0.2963E+01 -0.4436E+00E
 Epicentro: SANTA HELENA DEL OPON - SANTANDER                                  3
 ACTION:UPD 17-06-16 13:32 OP:jn   STATUS:               ID:20170504020908 L   I
 OLDACT:UP  17-05-04 16:06 OP:edw  STATUS:               ID:20170504020743     3
 OLDACT:UP  17-05-04 15:46 OP:edw  STATUS:               ID:20170504020743     3
 OLDACT:REG 17-05-04 12:51 OP:edw  STATUS:               ID:20170504020743     3
 2017-05-04-0208-00M.COL___371                                                 6
 STAT SP IPHASW D HRMM SECON CODA AMPLIT PERI AZIMU VELO AIN AR TRES W  DIS CAZ7
 RUS  HZ EP        2 9 27.06                             140    0.3810 79.2 132 
 RUS  HE ES        2 9 40.78                             140   -0.1310 79.2 132 
 BRR  HZ EP        2 9 26.22                             139   -0.0210 82.4 353 
 BRR  HN ES        2 9 40.56                             139    0.4310 82.4 353 
 SPBC HN ES        2 9 42.08                             135    0.0310 93.8 212 
 PTB  HZ EP   9    2 9 26.20                             134   -1.09 0 94.6 282 
 PTB  HN ES        2 9 40.65                             135   -0.2610 94.6 282 
 PTB  HZ I         2 9 42.96         7.0 0.42            133           94.6 282 
 NOR  HZ EP        2 9 34.26                             117   -0.04 9  165 237 
 NOR  HN ES        2 9 54.51                             117    0.04 9  165 237 
 NOR  HZ I         2 9 57.00         5.4 0.34            116            165 237 
 YPLC HZ EP   1    2 9 36.15                             116    0.79 7  174 128 
 YPLC HN ES        2 9 55.62                             116   -0.75 9  174 128 
 YPLC HZ I         210  0.04         7.4 0.28            115            174 128 
 ZAR  HZ EP        2 9 35.97                             114   -0.50 9  185 312 
 ZAR  HN ES        2 9 57.82                             114   -0.53 9  185 312 
 ZAR  HZ I         210  2.33         6.5 0.36            113            185 312 
 HEL  HZ EP        2 9 40.50                             111    0.49 8  212 265 
 HEL  HE ES   4    210  5.37                             111    0.73 0  212 265 
 HEL  HZ I         210  7.83         2.8 0.34            110            212 265 
 VIL  HZ EP   4    2 9 41.80                             107   -2.21 0  250 182 
 VIL  HN ES   4    210  1.68                             107   -10.1 0  250 182 
 CBOC HZ EP   4    2 9 47.56                             105    1.02 0  271 258 
 CBOC HE ES   4    210  9.30                             105   -6.97 0  271 258 
                                                                                
