 2012  2 4 0723 31.5 L   6.760 -73.169148.9  RSN  9 0.4 1.7LRSN                1
 GAP=135        0.81       4.0     4.3  7.3 -0.6925E-01  0.3498E+01  0.7941E+01E
 ACTION:UP  12-03-07 16:27 OP:epov STATUS:               ID:20120204072331 L   I
 2012-02-04-0720-00M.COL___188                                                 6
 STAT SP IPHASW D HRMM SECON CODA AMPLIT PERI AZIMU VELO SNR AR TRES W  DIS CAZ7
 BAR2 SZ EP   1    723 51.66                             173    0.27 7 18.6 185 
 BAR2 SZ I         723 52.34        12.4 0.10                          18.6 185 
 GIR2 SZ EP   1    723 51.80                             166    0.17 7 35.4 356 
 BRR  HZ EP   1    723 53.55                             153    0.59 7 71.3 303 
 BRR  HZ I         723 53.80        22.8 0.15                          71.3 303 
 BRR  HN ES        724 10.23                             153    0.5010 71.3 303 
 PAM  SZ EP   1    723 54.45                             150    0.13 7 82.4  39 
 PAM  SZ I         723 54.89         7.2 0.13                          82.4  39 
 PAM  SN ES   1    724 11.33                             150   -0.82 7 82.4  39 
 RUS  HZ EP   1    723 55.33                             146    0.10 7 96.4 174 
 RUS  HZ I         723 56.71         2.7 0.14                          96.4 174 
 RUS  HN ES   1    724 13.54                             146   -0.23 7 96.4 174 
 PTB  HZ EP   1    723 58.12                             133   -0.28 7  144 260 
 PTB  HN ES   1    724 18.80                             133   -0.60 7  144 260 
 PTB  HZ I         724 24.40                                            144 260 
 ZAR  HZ EP   1    724  3.47                             123   -0.58 6  203 294 
 ZAR  HN ES   1    724 29.50                             123    0.03 6  203 294 
 NOR  SN ES   1    724 34.50                             120   -0.01 6  230 235 
 CHI  HZ EP   1    724  8.78                             118   -0.03 6  244 195 
 CHI  HN ES   1    724 38.09                             118    0.16 6  244 195 
 CHI  HZ I         724 43.31         2.8 0.28                           244 195 
                                                                                
