 2015 12 4 0853 35.3 L   6.820 -73.106145.6  RSN 21 0.6 2.4LRSN                1
 GAP=122        1.15       2.9     3.7  5.2 -0.1816E+01  0.5413E+01 -0.4705E+00E
 Epicentro: LOS SANTOS - SANTANDER                                             3
 ACTION:UPD 16-02-04 15:02 OP:cam  STATUS:               ID:20151204085335 L   I
 OLDACT:UP  15-12-04 18:16 OP:ar   STATUS:               ID:20151204084748     3
 OLDACT:UP  15-12-04 17:53 OP:mh   STATUS:               ID:20151204084748     3
 OLDACT:UP  15-12-04 17:53 OP:mh   STATUS:               ID:20151204084748     3
 OLDACT:REG 15-12-04 13:04 OP:mh   STATUS:               ID:20151204084748     3
 2015-12-04-0847-48M.COL___309                                                 6
 STAT SP IPHASW D HRMM SECON CODA AMPLIT PERI AZIMU VELO AIN AR TRES W  DIS CAZ7
 BAR2 EZ EP   1    853 55.25                             169    0.25 7 26.6 199 
 BAR2 EZ ES        854  9.98                             169   -0.3710 26.6 199 
 PAM  EZ EP        853 58.15                             152    0.8910 72.9  38 
 PAM  EN ES        854 14.18                             152   -0.1810 72.9  38 
 PAM  EZ I         854 17.46        41.0 0.70            156           72.9  38 
 BRR  HZ IP     C  853 57.24                             151    0.6210 74.1 295 
 BRR  HN ES        854 14.08                             151    0.8510 74.1 295 
 BRR  HZ I         854 18.53        24.4 0.30            150           74.1 295 
 RUS  HZ EP        853 58.92                             143   -0.2810  103 179 
 RUS  HN ES        854 17.57                             143   -0.2610  103 179 
 PTB  HZ EP   1    854  2.13                             131   -0.58 7  153 258 
 PTB  HN ES        854 23.53                             131   -0.54 9  153 258 
 PTB  HZ I         854 26.61        21.1 0.12            131            153 258 
 OCA  HZ EP   1    854  3.55                             130    0.08 7  159 351 
 OCA  HN ES        854 25.31                             130   -0.11 9  159 351 
 OCA  HZ I         854 28.77        35.8 0.26            132            159 351 
 SPBC HZ EP        854  3.68                             128   -0.56 9  168 220 
 SPBC HN ES        854 26.44                             128   -0.35 9  168 220 
 SPBC HZ I         854 31.56        24.2 0.22            128            168 220 
 ZAR  HZ EP   1    854  8.19                             122    0.09 6  207 291 
 ZAR  HN ES        854 33.87                             122    0.21 8  207 291 
 ZAR  HZ I         854 39.90        41.8 0.54            122            207 291 
 NOR  HZ EP   1    854 11.77                             118    0.20 6  240 235 
 NOR  HN ES        854 39.47                             118   -0.37 8  240 235 
 NOR  HZ I         854 44.01        16.5 0.22            118            240 235 
 SML  HZ EP   1    854 11.54                             117   -0.39 6  244 334 
 SML  HN ES        854 40.36                             117   -0.11 8  244 334 
 SML  HZ I         854 44.70        27.3 0.10            119            244 334 
 ROSC BZ EP   4    854 15.39                             116    1.50 0  257 212 
 ROSC BN ES   4    854 47.14                             116    3.17 0  257 212 
 ROSC BZ I         854 50.38        21.9 0.40            117            257 212 
 HEL  HZ EP   1    854 15.94                             114   -0.12 6  277 256 
 HEL  HN ES        854 48.58                             114    0.74 7  277 256 
 HEL  HZ I         854 55.74         9.7 0.28            115            277 256 
 URE  HZ EP        854 16.27                             113   -0.48 7  287 291 
 URE  HN ES   4    854 45.88                             113   -3.18 0  287 291 
 SOCV BZ EP        854 17.14                             112   -0.67 7  296  57 
 SOCV BN ES   4    854 48.37                             112   -2.58 0  296  57 
 GUY2CHZ EP   1    854 19.51                             112    0.03 5  306 235 
 GUY2CHN ES   4    854 53.56                             112   -0.35 0  306 235 
 PTGC HZ EP   4    854 18.03                             111   -1.20 0  309 160 
 PTGC HN ES   4    854 50.37                             111   -3.11 0  309 160 
 LL6C HZ EP   2    854 19.71                             110   -1.08 3  323 357 
 LL6C HE ES   2    854 56.55                             110    0.30 3  323 357 
 DBB  SZ EP        854 23.64                             109    0.36 7  344 274 
 DBB  SZ ES        854 59.86                             109   -0.83 7  344 274 
 DBB  SZ I         855  3.38        30.8 0.74            110            344 274 
 MON  HZ EP        854 25.70                             108    1.14 6  356 308 
 MON  HN ES        855  1.91                             108   -1.05 6  356 308 
 MON  HZ I         855  4.33         6.0 0.58            109            356 308 
 ANIL HN ES   4    855  7.79                             108    2.86 0  362 225 
 ANIL HZ I         855 12.68        17.8 0.26            109            362 225 
 PRA  HZ EP        854 29.55                             106    0.23 6  396 210 
 PRA  HN ES        855 12.10                             106    0.66 6  396 210 
 PRA  HZ I         855 18.34         7.0 0.40            107            396 210 
 ORTC HZ EP        854 29.95                             106    0.20 6  400 216 
 ORTC HE ES        855 13.50                             106    1.29 6  400 216 
 ORTC HZ I         855 21.45         4.7 0.46            107            400 216 
                                                                                
