 2013  6 4 0718 29.7 L   6.197 -73.748113.4  RSN  4 0.4 1.8LRSN                1
 GAP=241        1.00      10.7     5.6 12.6 -0.6615E+01 -0.6242E+01  0.4863E+02E
 Epicentro: LANDAZURI - SANTANDER                                              3
 ACTION:UPD 14-01-08 09:52 OP:ep   STATUS:               ID:20130604071829 L   I
 2013-06-04-0717-53M.COL___217                                                 6
 STAT SP IPHASW D HRMM SECON CODA AMPLIT PERI AZIMU VELO AIN AR TRES W  DIS CAZ7
 BAR2 SZ EP        718 48.34                             144    0.2010 76.3  55 
 BAR2 SZ ES   1    719  2.36                             144   -0.18 7 76.3  55 
 BAR2 SZ I         719  3.95        12.6 0.36            145           76.3  55 
 PTB  HZ EP     C  718 47.95                             140   -0.6910 87.0 296 
 PTB  HN ES        719  3.81                             140    0.3910 87.0 296 
 PTB  HN I         719  5.21        17.0 0.24            140           87.0 296 
 BRR  HZ IP     C  718 50.23                             135    0.4910  101   2 
 BRR  HN ES        719  5.10                             135   -0.2910  101   2 
 BRR  HN I         719  6.34        10.8 0.16            136            101   2 
 ZAR  HN ES   2    719 21.10                             116    0.05 4  189 319 
 ZAR  HN I         719 23.32         7.6 0.28            117            189 319 
                                                                                
