 2013 11 4 0353 20.4 L   6.793 -73.152145.5  RSN 11 0.6 1.9LRSN                1
 GAP=136        1.50       4.2     5.3  8.1 -0.6919E+01  0.8948E+01 -0.3666E+01E
 Epicentro: LOS SANTOS - SANTANDER                                             3
 ACTION:UPD 14-01-09 16:25 OP:ep   STATUS:               ID:20131104035320 L   I
 OLDACT:UP  13-11-04 09:18 OP:stll STATUS:               ID:20131104034847     3
 OLDACT:REG 13-11-04 08:39 OP:stll STATUS:               ID:20131104034847     3
 2013-11-04-0348-47M.COL___214                                                 6
 STAT SP IPHASW D HRMM SECON CODA AMPLIT PERI AZIMU VELO AIN AR TRES W  DIS CAZ7
 BAR2 SZ EP        353 40.24                             171    0.3010 22.5 189 
 BAR2 SZ I         353 40.60        19.0 0.32            171           22.5 189 
 BAR2 SZ ES        353 54.82                             171   -0.3910 22.5 189 
 BRR  HZ IP     C  353 42.15                             152    0.6910 71.0 299 
 BRR  HZ I         353 42.43        17.9 0.26            151           71.0 299 
 BRR  HN ES        353 59.17                             152    1.2510 71.0 299 
 PAM  SZ EP        353 43.05                             150    0.4510 78.4  40 
 PAM  SN ES        354  0.11                             150    0.1610 78.4  40 
 RUS  HZ EP        353 44.31                             144    0.2810 99.9 176 
 RUS  HN ES        354  1.82                             144   -0.6810 99.9 176 
 RUS  HZ I         354  3.94         6.8 0.26            146           99.9 176 
 PTB  HZ EP        353 46.79                             132   -0.44 9  147 259 
 PTB  HN ES        354  7.64                             132   -0.55 9  147 259 
 PTB  HZ I         354 14.01         5.2 0.16            132            147 259 
 CAPV BZ EP        353 48.01                             131    0.19 9  150  38 
 CAPV BZ ES        354  8.77                             131   -0.47 9  150  38 
 OCA  HZ EP        353 48.70                             129   -0.01 9  161 353 
 OCA  HE ES        354 10.54                             129   -0.28 9  161 353 
 OCA  HZ I         354 15.90         9.4 0.30            130            161 353 
 SPBC HZ EP        353 49.00                             129    0.26 9  162 219 
 SPBC HN ES        354 10.46                             129   -0.42 9  162 219 
 SPBC HZ I         354 15.29        12.4 0.24            130            162 219 
 ZAR  HN ES        354 18.78                             122    0.77 9  204 292 
 SML  HZ EP        353 56.71                             117   -0.30 8  244 336 
 SML  HN ES        354 24.01                             117   -1.59 8  244 336 
 SML  HZ I         354 28.77        16.5 0.10            118            244 336 
 GUY2CHZ EP        354  4.44                             112    0.60 7  300 235 
 GUY2CHN ES        354 37.24                             112   -0.52 7  300 235 
 GUY2CHZ I         354 48.16         2.9 0.58                           300 235 
                                                                                
