 2017  7 4 0052 53.9 L   6.787 -73.127147.5  RSN  6 0.2 1.2LRSN                1
 GAP=158        0.75       6.8     4.4  6.4  0.5269E+01 -0.5542E+01 -0.1167E+02E
 Epicentro: LOS SANTOS - SANTANDER                                             3
 ACTION:UPD 17-08-30 15:29 OP:rebc STATUS:               ID:20170704005253 L   I
 OLDACT:UP  17-07-04 13:40 OP:edw  STATUS:               ID:20170704004742     3
 OLDACT:UP  17-07-04 13:40 OP:edw  STATUS:               ID:20170704004742     3
 OLDACT:REG 17-07-04 12:24 OP:edw  STATUS:               ID:20170704004742     3
 2017-07-04-0048-00M.COL___377                                                 6
 STAT SP IPHASW D HRMM SECON CODA AMPLIT PERI AZIMU VELO AIN AR TRES W  DIS CAZ7
 BAR2 EZ EP        053 13.59                             171   -0.1410 22.4 196 
 BAR2 EZ ES        053 29.19                             171   -0.0010 22.4 196 
 BAR2 EZ I         053 30.31         4.2 0.26            170           22.4 196 
 BRR  HZ EP        053 15.35                             152   -0.0410 73.7 299 
 BRR  HN ES        053 32.48                             152    0.3410 73.7 299 
 PAM  EZ EP     D  053 16.41                             151    0.1210 77.2  38 
 PAM  EE ES   2    053 33.10                             151   -0.66 5 77.2  38 
 PAM  EZ I         053 34.90         2.5 0.26            153           77.2  38 
 PTB  HZ EP   9    053 20.30                             132   -0.88 0  150 260 
 PTB  HN ES        053 40.89                             132   -0.68 9  150 260 
 PTB  HZ I         053 44.96         1.5 0.12            133            150 260 
 SPBC HZ EP   4    053 26.16                             129    3.60 0  163 220 
 SPBC HN ES   2    053 44.79                             129   -0.13 5  163 220 
 ZAR  HN ES        053 52.19                             122   -0.13 8  207 292 
                                                                                
