 2015  7 4 0453 33.6 L   6.020 -73.660129.5  RSN  5 0.3 1.9LRSN                1
 GAP=168        0.76       3.5     4.2  9.4 -0.1233E+01  0.1766E+02  0.1052E+02E
 Epicentro: VELEZ - SANTANDER                                                  3
 ACTION:UPD 15-09-08 21:46 OP:cam  STATUS:               ID:20150704045333 L   I
 OLDACT:UP  15-07-04 18:49 OP:mh   STATUS:               ID:20150704044749     3
 OLDACT:UP  15-07-04 18:10 OP:mh   STATUS:               ID:20150704044749     3
 OLDACT:UP  15-07-04 17:01 OP:mh   STATUS:               ID:20150704044749     3
 OLDACT:UP  15-07-04 17:00 OP:mh   STATUS:               ID:20150704044749     3
 OLDACT:REG 15-07-04 13:33 OP:mh   STATUS:               ID:20150704044749     3
 2015-07-04-0447-49M.COL___332                                                 6
 STAT SP IPHASW D HRMM SECON CODA AMPLIT PERI AZIMU VELO AIN AR TRES W  DIS CAZ7
 BAR2 EZ EP        453 54.47                             146    0.3510 82.4  40 
 BAR2 EZ ES        454  9.89                             146   -0.2110 82.4  40 
 BAR2 EZ I         454 11.18        31.3 0.05            149           82.4  40 
 HEL  HN ES        454 31.60                             118    0.47 8  208 275 
 ZAR  HZ EP        454  5.23                             118   -0.46 8  210 321 
 ZAR  HN ES        454 30.42                             118   -0.29 8  210 321 
 ZAR  HZ I         454 30.63         6.1 0.44            120            210 321 
 OCA  HN ES   1    454 38.99                             113    0.44 6  248   9 
 PRA  HZ EP        454 14.58                             110   -0.01 7  289 208 
 PRA  HN ES        454 46.38                             110   -0.17 7  289 208 
 PRA  HZ I         454 52.04         2.4 0.40            111            289 208 
                                                                                
