 2010  9 4 0022 51.6 L   6.643 -73.658 94.5  RSN 11 0.4 2.3LRSN                1
 GAP= 97        0.85       3.4     4.9  7.7 -0.5551E+01  0.1894E+02 -0.3093E+01E
 Epicentro: EL CARMEN DE CHUCURI - SANTANDER                                   3
 ACTION:UP  11-02-18 10:59 OP:tino STATUS:               ID:20100904002251 L   I
 2010-09-04-0019-29S.COL___120                                                 6
 STAT SP IPHASW D HRMM SECON CODA AMPLIT PERI AZIMU VELO SNR AR TRES W  DIS CAZ7
 BRR  HZ IP     D  023  5.75                             149    -0.410   52 353 
 BRR  HE ES   2    023 17.52                             149     0.1 5   52 353 
 BRR  HZ I         023 21.23        55.5 0.06                            52 353 
 BAR2 SZ IP        023  6.75                             149     0.210   53  96 
 BAR2 SZ ES   1    023 18.48                             149     0.3 7   53  96 
 BAR2 SZ I         023 20.65        93.4 0.32                            53  96 
 GIR2 SZ EP        023  7.72                             141     0.110   70  47 
 RUS  HZ EP   1    023 10.97                             129    -0.2 7  105 143 
 RUS  HN ES   1    023 25.89                             129    -0.5 7  105 143 
 RUS  HZ I         023 28.28        19.6 0.19                           105 143 
 GUE  SZ IP     D  023 15.87                             117    -0.2 9  154  32 
 GUE  SZ I         023 36.19        27.1 0.12                           154  32 
 GRA  SZ EP   1    023 17.34                             115     0.1 7  167  34 
 GRA  SZ ES   1    023 37.66                             115     0.5 7  167  34 
 GRA  SZ I         023 39.68        53.7 0.59                           167  34 
 OCA  SZ EP   1    023 18.34                             113    -0.4 7  180  12 
 OCA  SZ I         023 43.10        23.1 0.38                           180  12 
 ROSC BZ EP   1    023 23.78                             110     1.0 6  212 200 
 HEL  HZ EP   1    023 22.49                             110    -0.3 6  213 257 
 HEL  HN ES   2    023 47.37                             110     0.3 4  213 257 
 HEL  HZ I         023 49.73        18.1 0.09                           213 257 
 RREF HZ EP   1    023 29.95                             105     0.3 6  269 224 
 RREF HN ES   2    023 59.38                             105     0.0 4  269 224 
 RREF HZ I         024  5.83        15.8 0.31                           269 224 
 PRA  HZ EP   1    023 38.79                             101    -0.1 5  351 203 
 PRA  HN ES   2    024 15.05                             101    -0.8 3  351 203 
 PRA  HZ I         024 21.93         6.7 0.30                           351 203 
                                                                                
