 2015  9 4 0219 32.5 L   6.792 -73.153146.3  RSN  8 0.3 1.5LRSN                1
 GAP=136        0.56       3.0     3.9  5.8 -0.2792E+01  0.5958E+01  0.1990E+01E
 Epicentro: LOS SANTOS - SANTANDER                                             3
 ACTION:UPD 15-10-28 16:23 OP:cam  STATUS:               ID:20150904021932 L   I
 OLDACT:REG 15-09-04 12:28 OP:ak   STATUS:               ID:20150904021749     3
 2015-09-04-0217-49M.COL___355                                                 6
 STAT SP IPHASW D HRMM SECON CODA AMPLIT PERI AZIMU VELO AIN AR TRES W  DIS CAZ7
 BRR  HZ EP   2    219 54.08                             153    0.44 5 71.0 299 
 BRR  HN ES   2    220 10.86                             153    0.69 5 71.0 299 
 BRR  HZ I         220 14.50         6.8 0.72            149           71.0 299 
 PAM  EZ EP        219 54.98                             151    0.1910 78.6  40 
 PAM  EN ES        220 11.90                             151   -0.3210 78.6  40 
 PAM  EZ I         220 14.18         5.4 0.28            154           78.6  40 
 RUS  HZ EP        219 56.02                             144   -0.1710 99.7 176 
 RUS  HN ES        220 14.94                             144    0.2310 99.7 176 
 RUS  HZ I         220 15.43         2.3 0.30            146           99.7 176 
 PTB  HZ EP   2    219 59.17                             132   -0.21 5  147 259 
 PTB  HN ES   2    220 19.92                             132   -0.46 5  147 259 
 PTB  HZ I         220 22.63         2.5 0.16            130            147 259 
 SPBC HZ EP   2    220  0.95                             129    0.07 5  162 219 
 SPBC HN ES   2    220 22.68                             129   -0.37 5  162 219 
 SPBC HZ I         220 28.10         5.1 0.20            129            162 219 
 ZAR  HE ES   2    220 30.30                             122    0.10 4  204 292 
 ZAR  HZ I         220 36.51         1.8 0.22            122            204 292 
 GUY2CHZ EP   4    220 19.44                             112    3.48 0  300 235 
 GUY2CHN ES   4    220 52.80                             112    2.91 0  300 235 
 GUY2CHZ I         220 59.46         1.5 0.32                           300 235 
 PRA  HZ EP   2    220 26.16                             107    0.30 3  391 210 
 PRA  HE ES   2    221  6.93                             107   -0.58 3  391 210 
 PRA  HZ I         221 15.26         1.8 0.62            107            391 210 
                                                                                
