 2014 11 4 0956 16.6 L   6.484 -73.465115.0  RSN  4 0.2 1.4LRSN                1
 GAP=156        0.63       4.7     2.9  6.4  0.1533E+01  0.8433E+01  0.4795E+01E
 Epicentro: SIMACOTA - SANTANDER                                               3
 ACTION:UPD 14-12-19 15:39 OP:nd   STATUS:               ID:20141104095616 L   I
 OLDACT:REG 14-11-04 12:42 OP:carl STATUS:               ID:20141104094750     3
 2014-11-04-0947-50M.COL___268                                                 6
 STAT SP IPHASW D HRMM SECON CODA AMPLIT PERI AZIMU VELO AIN AR TRES W  DIS CAZ7
 BAR2 SZ EP        956 33.18                             163    0.3410 33.5  69 
 BAR2 SZ ES        956 45.62                             163    0.1010 33.5  69 
 BAR2 SZ I         956 48.65        10.4 0.32            166           33.5  69 
 BRR  HZ EP   4    956 35.04                             145    0.34 0 74.1 338 
 BRR  HE ES   4    956 51.44                             145    2.60 0 74.1 338 
 RUS  HZ EP        956 35.53                             144   -0.1410 77.9 147 
 RUS  HE ES        956 50.39                             144   -0.1710 77.9 147 
 RUS  HZ I         956 51.94         4.5 0.20            150           77.9 147 
 PTB  HZ EP        956 37.35                             133   -0.2510  110 273 
 PTB  HN ES        956 53.82                             133   -0.1710  110 273 
 PTB  HZ I         956 57.69         5.4 0.56            136            110 273 
 NOR  HN ES        957  8.02                             117    0.35 9  186 237 
                                                                                
