 2017  1 4 0708 25.6 L   6.806 -73.156145.7  RSN 12 0.4 1.8LRSN                1
 GAP=102        1.00       3.4     3.1  5.7  0.1160E+00  0.3121E+01  0.3620E+01E
 Epicentro: LOS SANTOS - SANTANDER                                             3
 ACTION:UPD 17-05-22 15:55 OP:jn   STATUS:               ID:20170104070825 L   I
 OLDACT:DUP 17-01-04 15:52 OP:lv   STATUS:               ID:20170104065747d    3
 2017-01-04-0658-00M.COL___369                                                 6
 STAT SP IPHASW D HRMM SECON CODA AMPLIT PERI AZIMU VELO AIN AR TRES W  DIS CAZ7
 BAR2 EZ EP        7 8 45.19                             170   -0.0710 23.8 187 
 BAR2 EZ ES        7 9  0.14                             170   -0.4310 23.8 187 
 BAR2 EZ I         7 9  1.53        16.4 0.22            171           23.8 187 
 BRR  HZ EP        7 8 47.06                             153    0.3710 69.9 299 
 BRR  HN ES        7 9  3.73                             153    0.6010 69.9 299 
 BRR  HZ I         7 9  8.22        10.2 0.12            150           69.9 299 
 PAM  EZ EP        7 8 48.21                             151    0.3610 77.7  40 
 PAM  EE ES        7 9  5.45                             151    0.2610 77.7  40 
 PAM  EZ I         7 9  7.36        19.0 0.52            144           77.7  40 
 RUS  HZ EP        7 8 49.31                             144   -0.1110  101 175 
 RUS  HN ES        7 9  8.13                             144    0.1510  101 175 
 RUS  HZ I         7 9  8.96         9.0 0.24            141            101 175 
 PTB  HZ EP        7 8 51.93                             132   -0.56 9  147 259 
 PTB  HN ES        7 9 13.00                             132   -0.45 9  147 259 
 PTB  HZ I         7 9 15.89         6.0 0.16            129            147 259 
 TAM  HZ EP        7 8 53.58                             130    0.16 9  156 105 
 TAM  HZ I         7 9 14.62         3.8 0.42            125            156 105 
 TAM  HN ES        7 9 14.65                             130   -0.44 9  156 105 
 ZAR  HZ EP        7 8 57.54                             122   -0.39 9  203 292 
 ZAR  HN ES        7 9 22.64                             122   -0.49 9  203 292 
 ZAR  HZ I         7 9 30.97         3.7 0.08            118            203 292 
 CHI  HZ EP        7 9  3.49                             117    0.14 8  249 195 
 CHI  HN ES        7 9 32.52                             117   -0.26 8  249 195 
 CHI  HZ I         7 9 36.18         4.7 0.52            113            249 195 
 ROSC BZ EP   4    7 9  6.08                             117    2.35 0  253 211 
 ROSC BN ES        7 9 33.83                             117    0.37 8  253 211 
 ROSC BZ I         7 9 37.48         7.0 0.42            113            253 211 
 GUY2CHZ EP   4    7 9 10.52                             112    1.36 0  301 235 
 GUY2CHE ES        7 9 44.07                             112    0.95 7  301 235 
 GUY2CHZ I         7 9 51.47         3.2 0.36                           301 235 
 PTGC HZ EP   9    7 9  8.37                             111   -1.22 0  310 158 
 PTGC HN ES        7 9 42.27                                   -0.39 7  310 158 
 ORTC HN ES   4    710  3.00                             106    1.44 0  395 216 
 ORTC HZ I         710  6.52         2.3 0.34            103            395 216 
                                                                                
