 2017 11 4 0145 27.2 L   6.774 -73.151137.7  RSN  7 0.5 1.5LRSN                1
 GAP=112        1.21       4.8     5.1  8.5 -0.7782E-01  0.2198E+01  0.8747E+01E
 Epicentro: LOS SANTOS - SANTANDER                                             3
 ACTION:UPD 17-12-12 19:51 OP:rebc STATUS:               ID:20171104014527 L   I
 OLDACT:REG 17-11-04 13:08 OP:dnl  STATUS:               ID:20171104013744     3
 2017-11-04-0138-00M.COL___429                                                 6
 STAT SP IPHASW D HRMM SECON CODA AMPLIT PERI AZIMU VELO AIN AR TRES W  DIS CAZ7
 BAR2 EZ EP   2    145 46.06                             171    0.25 5 20.4 190 
 BAR2 EZ ES        145 59.32                             171   -0.9910 20.4 190 
 BAR2 EZ I         146  1.37         8.6 0.36            169           20.4 190 
 BRR  HZ EP        145 47.65                             150    0.1110 72.1 301 
 BRR  HN ES        146  4.40                             150    1.0010 72.1 301 
 BRR  HZ I         146  7.04         8.4 0.30            151           72.1 301 
 PAM  EZ EP        145 48.67                             148   -0.0610 80.0  39 
 PAM  EN ES        146  5.30                             148   -0.2210 80.0  39 
 PAM  EZ I         146  7.68         5.7 0.56            152           80.0  39 
 RUS  HZ EP        145 49.94                             143   -0.0210 97.8 176 
 RUS  HN ES        146  8.06                             143    0.3510 97.8 176 
 RUS  HZ I         146  8.96         3.0 0.36            143           97.8 176 
 PTB  HZ EP   2    145 52.73                             130   -0.69 5  147 260 
 PTB  HN ES        146 13.64                             130   -0.23 9  147 260 
 PTB  HZ I         146 16.44         3.5 0.12            131            147 260 
 SPBC HZ EP        145 55.02                             127    0.17 9  161 219 
 SPBC HN ES        146 16.00                             127   -0.40 9  161 219 
 SPBC HZ I         146 23.36         4.0 0.30            128            161 219 
 YPLC HZ EP   2    145 55.62                             125   -0.58 4  175 151 
 YPLC HN ES        146 19.36                             125    0.54 9  175 151 
 YPLC HZ I         146 22.36         4.8 0.26            126            175 151 
                                                                                
