 2013  7 4 0544 46.7 L   6.737 -73.081137.5  RSN  7 0.3 2.1LRSN                1
 GAP=163        0.85       4.2     5.1  5.1 -0.1184E+02 -0.1457E+01  0.7485E+01E
 Epicentro: JORDAN - SANTANDER                                                 3
 ACTION:UPD 13-08-12 10:35 OP:ep   STATUS:               ID:20130704054446 L   I
 OLDACT:UP  13-07-05 02:36 OP:CF   STATUS:               ID:20130704054446 L   3
 OLDACT:REG 13-07-04 08:14 OP:stll STATUS:               ID:20130704053835     3
 2013-07-04-0538-35M.COL___234                                                 6
 STAT SP IPHASW D HRMM SECON CODA AMPLIT PERI AZIMU VELO AIN AR TRES W  DIS CAZ7
 BAR2 SZ IP        545  5.14                             171   -0.1110 19.5 215 
 BAR2 SZ I         545  5.19        24.6 0.42            168           19.5 215 
 BAR2 SZ ES        545 20.04                             171    0.3210 19.5 215 
 GIR2 SZ EP        545  5.27                             163   -0.3810 39.7 342 
 GIR2 SZ ES        545 20.23                             163   -0.2010 39.7 342 
 BRR  HZ IP     C  545  7.07                             148   -0.4710 80.8 300 
 BRR  HN ES        545 23.81                             148    0.0010 80.8 300 
 BRR  HN I         545 26.93        35.1 0.22            145           80.8 300 
 CAPV BZ IP        545 13.28                             130   -0.27 9  151  34 
 CAPV BZ ES        545 35.18                             130    0.67 9  151  34 
 CHI  HZ EP        545 23.51                             116    0.08 8  244 197 
 CHI  HN ES        545 51.87                             116   -0.21 8  244 197 
 CHI  HN I         545 57.24         6.6 0.28            116            244 197 
 HEL  HZ EP        545 27.27                             113    0.18 7  277 258 
 HEL  HN ES   4    545 56.31                             113   -2.29 0  277 258 
 HEL  HN I         546  4.66         6.1 0.40            112            277 258 
 GUY2CHZ EP        545 30.63                             111    0.48 7  303 237 
 GUY2CHN ES        546  4.52                             111    0.47 7  303 237 
 GUY2CHN I         546 12.68         5.8 0.58                           303 237 
                                                                                
