 2017  9 4 0448 48.2 L   6.815 -73.170147.6  RSN  7 0.5 1.4LRSN                1
 GAP=133        1.13       4.3     5.6  8.1 -0.4200E+00  0.8318E+01  0.5444E+01E
 Epicentro: LOS SANTOS - SANTANDER                                             3
 ACTION:UPD 17-10-05 19:08 OP:rebc STATUS:               ID:20170904044848 L   I
 OLDACT:REG 17-09-04 12:29 OP:dnl  STATUS:               ID:20170904043742     3
 2017-09-04-0438-00M.COL___417                                                 6
 STAT SP IPHASW D HRMM SECON CODA AMPLIT PERI AZIMU VELO AIN AR TRES W  DIS CAZ7
 BAR2 EZ EP        449  7.93                             170   -0.1510 24.7 183 
 BAR2 EZ ES        449 22.83                             170   -0.7610 24.7 183 
 BAR2 EZ I         449 25.74         6.9 0.20            168           24.7 183 
 BRR  HZ EP        449  9.64                             154    0.2610 68.1 298 
 BRR  HN ES        449 26.76                             154    0.8710 68.1 298 
 BRR  HZ I         449 29.93         5.0 0.26            150           68.1 298 
 PAM  EZ EP        449 10.91                             151    0.2710 77.8  42 
 PAM  EN ES        449 28.05                             151   -0.0910 77.8  42 
 PAM  EZ I         449 30.36         3.7 0.60            155           77.8  42 
 RUS  HZ EP        449 12.16                             144   -0.1110  103 175 
 RUS  HN ES        449 31.12                             144    0.0710  103 175 
 RUS  HZ I         449 31.67         2.9 0.24            145            103 175 
 SPBC HZ EP   2    449 16.68                             129   -0.13 5  163 218 
 SPBC HE ES        449 39.65                             129    0.52 9  163 218 
 SPBC HZ I         449 44.84         5.0 0.44            129            163 218 
 ZAR  HZ EP   2    449 20.55                             123    0.10 4  201 292 
 ZAR  HE ES        449 44.66                             123   -0.94 9  201 292 
 ZAR  HZ I         449 53.70         3.2 0.40            123            201 292 
 CHI  HZ EP   2    449 26.05                             117   -0.05 4  250 194 
 CHI  HE ES        449 55.51                             117   -0.16 8  250 194 
 CHI  HZ I         450  0.99         1.7 0.40            118            250 194 
                                                                                
