 2012  5 4 0317 26.2 L   6.649 -73.196145.1  RSN  4 0.3 1.1LRSN                1
 GAP=220        0.62       6.7     6.8  8.4  0.3001E+02  0.1745E+01 -0.3786E+01E
 Epicentro: BARICHARA - SANTANDER                                              3
 ACTION:UP  12-07-05 12:02 OP:pat  STATUS:               ID:20120504031726 L   I
 2012-05-04-0310-00M.COL___189                                                 6
 STAT SP IPHASW D HRMM SECON CODA AMPLIT PERI AZIMU VELO SNR AR TRES W  DIS CAZ7
 BRR  HZ EP   1    317 47.15                             151    -0.4 7   76 312 
 BRR  HZ I         317 49.45         2.7 0.13                            76 312 
 BRR  HE ES   1    318  4.49                             151     0.2 7   76 312 
 RUS  HZ EP   1    317 49.23                             148     0.4 7   85 171 
 RUS  HN ES   1    318  6.22                             148    -0.2 7   85 171 
 RUS  HZ I         318  9.04         1.6 0.33                            85 171 
 PTB  HZ EP   1    317 52.42                             133     0.0 7  140 265 
 PTB  HE ES   1    318 12.83                             133     0.0 7  140 265 
 ZAR  HE ES   1    318 24.30                             122     0.1 6  206 297 
                                                                                
