 2015  3 4 0828 19.4 L   6.807 -73.112150.0  RSN 10 0.4 1.5LRSN                1
 GAP=141        0.81       2.9     4.5  5.7 -0.1470E+01  0.4757E+01  0.3046E+01E
 Epicentro: LOS SANTOS - SANTANDER                                             3
 ACTION:UPD 15-04-30 16:23 OP:nd   STATUS:               ID:20150304082819 L   I
 OLDACT:DUP 15-03-04 13:56 OP:spq  STATUS:               ID:20150304081741d    3
 2015-03-04-0817-40M.COL___284                                                 6
 STAT SP IPHASW D HRMM SECON CODA AMPLIT PERI AZIMU VELO AIN AR TRES W  DIS CAZ7
 BAR2 EZ EP     D  828 39.33                             170   -0.2310 25.0 198 
 BAR2 EZ ES   1    828 54.82                             170   -0.48 7 25.0 198 
 BAR2 EZ I         828 57.57         5.1 0.46            168           25.0 198 
 BRR  HZ EP   1    828 41.31                             152    0.14 7 74.2 297 
 BRR  HE ES        828 58.74                             152    0.5910 74.2 297 
 BRR  HZ I         829  3.64         4.2 0.22            150           74.2 297 
 PAM  SZ EP        828 42.11                             153    0.2210 74.4  38 
 PAM  SE ES        828 59.63                             153    0.1910 74.4  38 
 PAM  SZ I         829  1.50         4.2 0.20            157           74.4  38 
 RUS  HZ EP   1    828 43.47                             145   -0.13 7  101 178 
 RUS  HE ES   1    829  2.31                             145   -0.17 7  101 178 
 RUS  HZ I         829  4.75         1.8 0.40            147            101 178 
 OCA  HN ES   1    829  9.48                             131   -0.85 7  160 352 
 OCA  HZ I         829 14.24         2.9 0.32            133            160 352 
 SPBC HZ EP        828 48.21                             129   -0.29 9  166 220 
 SPBC HE ES        829 11.23                             129    0.03 9  166 220 
 SPBC HZ I         829 16.16         7.3 0.14            131            166 220 
 ZAR  HN ES   1    829 17.53                             123   -0.70 6  207 292 
 ZAR  HZ I         829 24.18         3.9 0.48            124            207 292 
 SML  HZ EP   2    828 56.48                             118    0.12 4  245 334 
 SML  HE ES   1    829 25.58                             118    0.39 6  245 334 
 SML  HZ I         829 27.25         3.6 0.00            120            245 334 
 CHI  HZ EP   1    828 57.64                             118    0.13 6  250 196 
 CHI  HN ES   1    829 27.66                             118    0.41 6  250 196 
 CHI  HZ I         829 31.90         1.2 0.52            120            250 196 
 GUY2CHZ EP   1    829  4.11                             113    0.52 5  305 235 
 GUY2CHE ES   4    829 39.96                             113    1.89 0  305 235 
 GUY2CHZ I         829 46.17         2.5 0.76                           305 235 
                                                                                
