 2012  2 4 0703 54.4 L   6.755 -73.210150.3  RSN  5 0.2 1.3LRSN                1
 GAP=225        0.52       7.2     5.2  7.3  0.1204E+02 -0.3651E+01  0.2364E+02E
 ACTION:UP  12-03-07 16:27 OP:epov STATUS:               ID:20120204070354 L   I
 2012-02-04-0700-00M.COL___188                                                 6
 STAT SP IPHASW D HRMM SECON CODA AMPLIT PERI AZIMU VELO SNR AR TRES W  DIS CAZ7
 BAR2 SZ EP   1    7 4 14.01                             173   -0.50 7 18.2 170 
 BAR2 SZ I         7 4 30.72         4.6 0.16                          18.2 170 
 BRR  HZ EP   1    7 4 16.17                             154    0.29 7 67.8 305 
 BRR  HN ES        7 4 32.69                             154    0.0810 67.8 305 
 BRR  HZ I         7 4 33.88         4.8 0.18                          67.8 305 
 RUS  HZ EP   1    7 4 18.52                             146    0.19 7 96.4 172 
 RUS  HZ I         7 4 19.54         2.6 0.19                          96.4 172 
 PTB  HZ EP   1    7 4 21.20                             135    0.13 7  140 260 
 PTB  HN ES   1    7 4 41.72                             135   -0.13 7  140 260 
 PTB  HZ I         7 4 45.68         0.0 0.17                           140 260 
 ZAR  HZ EP   2    7 4 26.46                             124   -0.25 4  199 294 
 ZAR  HN ES   2    7 4 51.77                             124   -0.11 4  199 294 
 ZAR  HZ I         7 4 57.89         2.1 0.09                           199 294 
                                                                                
