 2011 12 4 0058 47.9 L   6.770 -73.101139.3  RSN  5 0.2 1.6LRSN                1
 GAP=144        0.48       3.0     4.5  5.0 -0.2256E+00 -0.1429E+01  0.1036E+01E
 Epicentro: LOS SANTOS - SANTANDER                                             3
 ACTION:UPD 12-07-13 16:14 OP:ep   STATUS:               ID:20111204005847 L   I
 2011-12-04-0050-00M.COL___182                                                 6
 STAT SP IPHASW D HRMM SECON CODA AMPLIT PERI AZIMU VELO AIN AR TRES W  DIS CAZ7
 BAR2 SZ EP        059  6.60                             171   -0.0910 21.6 205 
 BAR2 SZ I         059  6.96        10.6 0.36                          21.6 205 
 BAR2 SZ ES   2    059 21.28                             171   -0.08 5 21.6 205 
 GIR2 SZ EP        059  6.69                             165   -0.2210 35.7 343 
 GIR2 SZ ES   3    059 21.24                             165   -0.51 2 35.7 343 
 PAM  SZ EP        059  9.58                             150    0.2010 77.1  35 
 PAM  SE ES   1    059 26.14                             150   -0.02 7 77.1  35 
 BRR  HZ EP        059  8.50                             149   -0.1810 77.1 299 
 BRR  HZ I         059  8.98        12.7 0.10                          77.1 299 
 BRR  HE ES   1    059 25.28                             149    0.36 7 77.1 299 
 RUS  HZ EP        059 10.92                             143    0.1910 97.0 179 
 RUS  HN ES   1    059 28.48                             143   -0.08 7 97.0 179 
 RUS  HZ I         059 30.14         4.3 0.38                          97.0 179 
                                                                                
