 2015 10 4 0218  7.1 L   6.720 -73.163146.0  RSN  5 0.4 1.5LRSN                1
 GAP=229        1.15       6.4     7.8  9.5  0.2371E+02 -0.9216E+00 -0.7498E+01E
 Epicentro: VILLANUEVA - SANTANDER                                             3
 ACTION:UPD 15-12-22 20:37 OP:cam  STATUS:               ID:20151004021807 L   I
 OLDACT:UP  15-10-04 14:44 OP:drio STATUS:               ID:20151004020749d    3
 OLDACT:DUP 15-10-04 14:41 OP:drio STATUS:               ID:20151004020749d    3
 2015-10-04-0207-48M.COL___355                                                 6
 STAT SP IPHASW D HRMM SECON CODA AMPLIT PERI AZIMU VELO AIN AR TRES W  DIS CAZ7
 BRR  HZ EP        218 27.55                             152   -0.8510 74.2 305 
 BRR  HN ES        218 45.66                             152    0.6110 74.2 305 
 RUS  HZ EP        218 30.48                             146    0.2510 92.0 174 
 RUS  HN ES        218 48.04                             146   -0.2610 92.0 174 
 RUS  HZ I         218 50.23         3.7 0.24            144           92.0 174 
 PTB  HZ EP        218 33.46                             133   -0.28 9  144 262 
 PTB  HN ES        218 54.12                             133   -0.43 9  144 262 
 PTB  HZ I         218 56.53         5.0 0.16            131            144 262 
 SPBC HZ EP        218 35.34                             131    0.52 9  155 220 
 SPBC HN ES        218 56.63                             131    0.15 9  155 220 
 SPBC HZ I         219  2.39         4.3 0.34            128            155 220 
 ZAR  HZ EP        218 40.12                             122    0.43 8  206 295 
 ZAR  HN ES        219  5.16                             122    0.01 8  206 295 
                                                                                
