 2014  2 4 0813 39.0 L   6.802 -73.181139.3  RSN  9 0.4 1.6LRSN                1
 GAP= 78        0.85       3.0     3.8  7.2  0.7816E+00  0.5916E+01 -0.5029E+01E
 Epicentro: LOS SANTOS - SANTANDER                                             3
 ACTION:UPD 14-03-10 08:07 OP:ep   STATUS:               ID:20140204081339 L   I
 OLDACT:REG 14-02-04 08:23 OP:mh   STATUS:               ID:20140204081000     3
 2014-02-04-0810-00M.COL___288                                                 6
 STAT SP IPHASW D HRMM SECON CODA AMPLIT PERI AZIMU VELO AIN AR TRES W  DIS CAZ7
 BAR2 SZ EP        813 57.88                             170    0.0510 23.2 180 
 BAR2 SZ ES   1    814 12.61                             170    0.08 7 23.2 180 
 BAR2 SZ I         814 14.31        16.5 0.23            169           23.2 180 
 PAM  SZ EP   1    814  1.14                             149    0.48 7 79.8  42 
 PAM  SN ES   2    814 17.71                             149    0.14 5 79.8  42 
 PAM  SZ I         814 20.48         4.6 0.27            154           79.8  42 
 RUS  HZ EP   1    814  2.28                             142    0.14 7  101 174 
 RUS  HN ES   1    814 20.07                             142   -0.13 7  101 174 
 RUS  HZ I         814 21.98         3.5 0.25            145            101 174 
 PTB  HZ EP        814  4.56                             131   -0.51 9  144 258 
 PTB  HN ES   2    814 25.55                             131    0.13 5  144 258 
 PTB  HZ I         814 28.11         8.1 0.28            131            144 258 
 TAM  HZ EP   1    814  7.42                             128    0.90 7  159 105 
 TAM  HN ES        814 27.55                             128   -0.45 9  159 105 
 OCA  HZ EP   1    814  6.22                             128   -0.51 7  160 355 
 OCA  HN ES        814 28.20                             128   -0.18 9  160 355 
 OCA  HZ I         814 32.36         6.7 0.16            131            160 355 
 SPBC HZ EP   1    814  7.18                             128    0.42 7  161 218 
 SPBC HN ES   1    814 28.52                             128    0.08 7  161 218 
 SPBC HZ I         814 35.54         3.2 0.17            129            161 218 
 SML  HZ EP        814 14.63                             116   -0.42 8  242 336 
 SML  HN ES        814 43.80                             116    0.61 8  242 336 
 SML  HZ I         814 47.30         6.9 0.09            118            242 336 
 HEL  HZ EP   4    814 19.94                             114    1.50 0  268 256 
 HEL  HN ES   4    814 52.90                             114    3.67 0  268 256 
 HEL  HZ I         814 59.02         2.3 0.21            115            268 256 
 PRA  HN ES   4    815 14.90                             105    1.42 0  390 209 
                                                                                
