 2017  3 4 0943 52.4 L   6.817 -73.145140.0  RSN  9 0.4 1.6LRSN                1
 GAP=136        0.88       3.8     3.8  5.5 -0.1139E+01  0.6652E+01 -0.2571E+01E
 Epicentro: LOS SANTOS - SANTANDER                                             3
 ACTION:UPD 17-05-25 18:36 OP:jn   STATUS:               ID:20170304094352 L   I
 OLDACT:UP  17-03-04 17:17 OP:and  STATUS:               ID:20170304093745d    3
 OLDACT:UP  17-03-04 17:17 OP:and  STATUS:               ID:20170304093745d    3
 OLDACT:UP  17-03-04 17:16 OP:and  STATUS:               ID:20170304093745d    3
 OLDACT:UP  17-03-04 17:16 OP:and  STATUS:               ID:20170304093745d    3
 OLDACT:UP  17-03-04 17:14 OP:and  STATUS:               ID:20170304093745d    3
 OLDACT:UP  17-03-04 17:13 OP:and  STATUS:               ID:20170304093745d    3
 OLDACT:DUP 17-03-04 17:10 OP:and  STATUS:               ID:20170304093745d    3
 OLDACT:UP  17-03-04 17:07 OP:and  STATUS:               ID:20170304093744     3
 OLDACT:UP  17-03-04 17:07 OP:and  STATUS:               ID:20170304093744     3
 OLDACT:UP  17-03-04 17:06 OP:and  STATUS:               ID:20170304093744     3
 OLDACT:UP  17-03-04 17:05 OP:and  STATUS:               ID:20170304093744     3
 OLDACT:UP  17-03-04 17:05 OP:and  STATUS:               ID:20170304093744     3
 OLDACT:REG 17-03-04 12:40 OP:lv   STATUS:               ID:20170304093744     3
 2017-03-04-0938-00M.COL___391                                                 6
 STAT SP IPHASW D HRMM SECON CODA AMPLIT PERI AZIMU VELO AIN AR TRES W  DIS CAZ7
 BAR2 EZ EP        944 11.07                             169   -0.3110 25.2 190 
 BAR2 EZ ES        944 25.99                             169   -0.1910 25.2 190 
 BAR2 EZ I         944 26.51         8.4 0.14            170           25.2 190 
 BRR  HZ EP        944 12.85                             151   -0.0410 70.4 297 
 BRR  HN ES   3    944 29.91                             151    1.04 2 70.4 297 
 BRR  HZ I         944 30.70         6.9 0.31            152           70.4 297 
 PAM  EZ EP        944 13.91                             150   -0.0110 75.9  40 
 PAM  EN ES        944 30.80                             150    0.1010 75.9  40 
 PAM  EZ I         944 33.82         6.7 0.44            151           75.9  40 
 RUS  HZ EP        944 15.78                             141    0.0510  102 176 
 RUS  HN ES        944 33.80                             141   -0.1210  102 176 
 RUS  HZ I         944 34.61         8.0 0.32            143            102 176 
 PTB  HZ EP   9    944 18.10                             130   -0.85 0  148 258 
 PTB  HN ES        944 38.41                             131   -0.40 9  148 258 
 PTB  HZ I         944 40.48         3.9 0.18            131            148 258 
 ZAR  HZ EP        944 24.42                             121   -0.00 9  203 292 
 ZAR  HN ES        944 49.61                             121    0.22 9  203 292 
 NOR  HZ EP        944 29.06                             117    1.13 8  236 234 
 NOR  HN ES        944 55.34                             117   -0.31 8  236 234 
 NOR  HZ I         944 58.83         2.8 0.16            118            236 234 
 URE  HZ EP   9    944 32.32                             112   -0.82 0  283 292 
 URE  HN ES        945  3.72                             112   -0.37 7  283 292 
 URE  HZ I         945  4.57         2.1 0.18            113            283 292 
 SJC  HZ EP        944 46.88                             104   -0.73 6  408 327 
 SJC  HN ES   4    945 26.98                             104   -3.69 0  408 327 
                                                                                
