 2016 12 4 0014 41.0 L   6.665 -73.196147.0  RSN  4 0.3 1.4LRSN                1
 GAP=219        0.76       8.8     5.8  8.1  0.1077E+02 -0.2741E+01  0.1317E+02E
 Epicentro: VILLANUEVA - SANTANDER                                             3
 ACTION:UPD 17-01-11 20:12 OP:rebc STATUS:               ID:20161204001441 L   I
 OLDACT:REG 16-12-04 12:22 OP:dani STATUS:               ID:20161204000745     3
 2016-12-04-0008-00M.COL___349                                                 6
 STAT SP IPHASW D HRMM SECON CODA AMPLIT PERI AZIMU VELO AIN AR TRES W  DIS CAZ7
 BAR2 EZ EP        015  0.34                             177   -0.2610 8.24 170 
 BAR2 EZ I         015 16.55         5.7 0.18            165           8.24 170 
 BRR  HZ EP        015  2.48                             151   -0.0510 75.1 311 
 BRR  HN ES        015 19.54                             151    0.2410 75.1 311 
 PTB  HZ EP        015  7.42                             134    0.01 9  140 264 
 PTB  HE ES        015 28.08                             134    0.09 9  140 264 
 PTB  HZ I         015 34.56         1.5 0.13            137            140 264 
 ZAR  HZ EP        015 14.19                             122    0.52 9  205 297 
 ZAR  HN ES        015 38.58                             122   -0.54 9  205 297 
 ZAR  HZ I         015 44.73         3.7 0.34            127            205 297 
                                                                                
