 2014  1 4 0337 37.5 L   6.530 -73.592108.1  RSN  6 0.4 1.3LRSN                1
 GAP= 93        1.00       5.0     4.2  8.8  0.3704E+00  0.6859E+01 -0.1764E+02E
 Epicentro: EL CARMEN DE CHUCURI - SANTANDER                                   3
 ACTION:UPD 14-03-13 09:51 OP:ep   STATUS:               ID:20140104033737 L   I
 OLDACT:DUP 14-01-04 12:06 OP:stll STATUS:               ID:20140104032806d    3
 2014-01-04-0328-05M.COL___240                                                 6
 STAT SP IPHASW D HRMM SECON CODA AMPLIT PERI AZIMU VELO AIN AR TRES W  DIS CAZ7
 BAR2 SZ EP        337 53.68                             155    0.1610 45.8  81 
 BAR2 SZ ES        338  6.21                             155    0.2110 45.8  81 
 BAR2 SZ I         338  7.26        28.7 0.42            155           45.8  81 
 BRR  HZ EP        337 54.62                             146    0.3010 65.2 348 
 RUS  HZ EP        337 56.41                             137   -0.4910 90.2 141 
 RUS  HN ES        338 11.71                             137   -0.3110 90.2 141 
 RUS  HZ I         338 13.25         1.3 0.40            138           90.2 141 
 PTB  HZ EP        337 56.84                             135    0.1410 95.6 271 
 PTB  HZ I         337 56.89         3.2 0.24            137           95.6 271 
 PTB  HN ES        338 11.06                             135   -0.6010 95.6 271 
 SPBC HN ES        338 14.86                             131    0.6210  111 209 
 SML  HZ EP        338 13.83                             107   -0.01 8  257 348 
                                                                                
