 2012  1 4 0412 31.8 L   6.456 -73.610117.3  RSN  5 0.3 1.1LRSN                1
 GAP=146        0.54       4.3     4.0  9.7  0.1709E+01  0.4576E+01  0.5910E+01E
 Epicentro: SANTA HELENA DEL OPON - SANTANDER                                  3
 ACTION:UP  12-02-03 08:13 OP:REBC STATUS:               ID:20120104041231 L   I
 2012-01-04-0410-00M.COL___183                                                 6
 STAT SP IPHASW D HRMM SECON CODA AMPLIT PERI AZIMU VELO SNR AR TRES W  DIS CAZ7
 BRR  HZ EP   2    412 50.39                             146     0.3 5   73 351 
 BRR  HZ I         413  3.09         3.4 0.59                            73 351 
 BRR  HN ES   2    413  4.12                             146    -0.2 5   73 351 
 RUS  HZ EP   2    412 52.02                             142     0.4 5   85 137 
 RUS  HZ I         413  5.51         2.7 0.70                            85 137 
 RUS  HN ES   2    413  6.89                             142    -0.2 5   85 137 
 PTB  HZ EP   1    412 51.22                             139    -0.4 7   94 276 
 PTB  HN ES   1    413  7.37                             139     0.2 7   94 276 
 NOR  SE ES   1    413 20.33                             120     0.1 7  171 235 
 ZAR  HE ES   2    413 21.71                             119     0.0 4  179 310 
                                                                                
