 2015  9 4 0417 53.3 L   6.808 -73.134141.7  RSN 22 0.6 2.5LRSN                1
 GAP= 66        1.22       2.7     3.1  5.2 -0.8267E+00  0.4002E+01  0.2439E+01E
 Epicentro: LOS SANTOS - SANTANDER                                             3
 ACTION:UPD 15-10-28 16:23 OP:cam  STATUS:               ID:20150904041753 L   I
 OLDACT:UP  15-09-08 11:01 OP:AK   STATUS:               ID:20150904041753 L   3
 OLDACT:REG 15-09-04 12:42 OP:ak   STATUS:               ID:20150904040750     3
 2015-09-04-0407-50M.COL___352                                                 6
 STAT SP IPHASW D HRMM SECON CODA AMPLIT PERI AZIMU VELO AIN AR TRES W  DIS CAZ7
 BAR2 EZ IP     C  418 12.59                             170    0.1510 24.5 193 
 BAR2 EZ ES        418 27.20                             170   -0.1910 24.5 193 
 BAR2 EZ I         418 28.76        96.4 0.18            169           24.5 193 
 BRR  HZ EP   1    418 14.27                             152    0.24 7 72.0 297 
 BRR  HN ES        418 31.07                             152    0.8610 72.0 297 
 BRR  HZ I         418 36.30        63.2 0.16            152           72.0 297 
 PAM  EZ EP        418 15.54                             151    0.5810 75.9  39 
 PAM  EN ES        418 32.13                             151    0.2510 75.9  39 
 PAM  EZ I         418 34.38        83.5 0.44            151           75.9  39 
 RUS  HZ EP   1    418 16.66                             143   -0.02 7  101 177 
 RUS  HN ES        418 34.93                             143   -0.0210  101 177 
 RUS  HZ I         418 36.86        35.2 0.40            142            101 177 
 PTB  HZ EP        418 19.35                             131   -0.70 9  149 259 
 PTB  HN ES        418 39.95                             131   -0.98 9  149 259 
 PTB  HZ I         418 42.98        48.7 0.14            131            149 259 
 TAM  HZ IP     C  418 21.01                             130    0.48 9  154 105 
 TAM  HZ I         418 40.88        17.2 0.16            130            154 105 
 TAM  HN ES        418 41.92                             130    0.13 9  154 105 
 OCA  HZ EP        418 20.92                             129   -0.28 9  160 353 
 OCA  HN ES        418 42.42                             129   -0.57 9  160 353 
 OCA  HZ I         418 45.84        91.2 0.36            129            160 353 
 SPBC HZ EP        418 21.69                             128    0.08 9  165 219 
 SPBC HN ES        418 43.39                             128   -0.32 9  165 219 
 SPBC HZ I         418 51.35        48.6 0.20            128            165 219 
 ZAR  HZ EP        418 25.94                             121    0.39 9  205 292 
 ZAR  HN ES        418 51.54                             121    0.82 9  205 292 
 ZAR  HZ I         418 57.17        36.0 0.28            122            205 292 
 NOR  HZ EP        418 29.29                             117    0.35 8  236 234 
 NOR  HN ES        418 56.69                             117   -0.07 8  236 234 
 NOR  HZ I         419  0.57        24.4 0.16            117            236 234 
 SML  HZ EP        418 29.15                             117   -0.49 8  243 335 
 SML  HN ES        418 57.33                             117   -0.69 8  243 335 
 SML  HZ I         419  2.71        38.1 0.22            117            243 335 
 CHI  HZ EP        418 30.98                             116    0.10 8  250 195 
 CHI  HN ES        418 59.33                             116   -0.88 8  250 195 
 CHI  HZ I         419  3.71        12.5 0.26            116            250 195 
 ROSC BZ EP   4    418 33.14                             116    1.81 0  254 211 
 ROSC BN ES   4    419  3.53                             116    2.52 0  254 211 
 ROSC BZ I         419  6.32        22.4 0.35            116            254 211 
 HEL  HZ EP        418 34.27                             114    0.82 8  274 256 
 HEL  HN ES        419  3.97                             114   -0.81 8  274 256 
 HEL  HZ I         419 10.97        13.0 0.44            114            274 256 
 GUY2CHZ EP        418 37.38                             111    0.51 7  303 235 
 GUY2CHN ES        419 11.37                             111    0.49 7  303 235 
 GUY2CHZ I         419 19.43        12.0 0.24                           303 235 
 VIL  SZ EP   1    418 36.21                             111   -0.42 5  304 192 
 VIL  SE ES        419  9.84                             111   -0.62 7  304 192 
 PTGC HZ EP        418 35.98                             111   -1.01 7  309 159 
 PTGC HN ES   4    419  8.82                             111   -2.26 0  309 159 
 CBOC HZ EP        418 40.55                             109    0.35 7  335 252 
 CBOC HE ES        419 16.99                             109    0.19 7  335 252 
 CBOC HZ I         419 21.98         3.7 0.30            109            335 252 
 TOL  SZ EP        418 42.26                             108    0.71 7  345 225 
 TOL  SN ES        419 19.44                             108    0.24 7  345 225 
 TOL  SZ I         419 28.42        12.4 0.32            108            345 225 
 PRA  HZ EP        418 46.78                             106   -0.04 6  393 210 
 PRA  HE ES        419 28.57                             106   -0.02 6  393 210 
 PRA  HZ I         419 33.97        12.0 0.62            106            393 210 
 ORTC HZ EP        418 48.02                             106    0.79 6  397 216 
 ORTC HN ES        419 30.04                             106    0.72 6  397 216 
 ORTC HZ I         419 33.60         7.9 0.38            106            397 216 
 SJC  HZ EP        418 47.23                             105   -1.47 6  409 327 
 SJC  HN ES   4    419 28.62                             105   -3.31 0  409 327 
 SJC  HZ I         419 32.15        12.8 0.50            105            409 327 
 CRJC HZ EP   4    418 53.16                             103   -2.38 0  467   3 
 CRJC HN ES   4    419 40.33                             103   -3.79 0  467   3 
                                                                                
