 2011 12 4 0540 46.8 L   6.771 -73.115135.8  RSN  5 0.2 1.7LRSN                1
 GAP=142        0.59       3.5     5.4  5.3 -0.2324E+00 -0.2122E+01  0.1005E+01E
 Epicentro: LOS SANTOS - SANTANDER                                             3
 ACTION:UPD 12-07-13 16:14 OP:ep   STATUS:               ID:20111204054046 L   I
 2011-12-04-0540-00M.COL___183                                                 6
 STAT SP IPHASW D HRMM SECON CODA AMPLIT PERI AZIMU VELO AIN AR TRES W  DIS CAZ7
 BAR2 SZ EP        541  5.09                             171   -0.1110 21.1 201 
 BAR2 SZ ES   1    541 19.36                             171   -0.18 7 21.1 201 
 BAR2 SZ I         541 20.76        15.6 0.24                          21.1 201 
 GIR2 SZ EP        541  5.16                             165   -0.2610 35.2 346 
 GIR2 SZ ES   2    541 19.89                             165   -0.05 5 35.2 346 
 BRR  HZ EP        541  6.99                             149   -0.1910 75.8 299 
 BRR  HE ES   1    541 23.40                             149    0.35 7 75.8 299 
 BRR  HZ I         541 28.28        12.9 0.14                          75.8 299 
 PAM  SZ EP        541  8.05                             149    0.0410 77.9  36 
 PAM  SN ES   1    541 24.75                             149    0.21 7 77.9  36 
 RUS  HZ EP        541  9.77                             143    0.4310 97.1 178 
 RUS  HN ES   1    541 26.73                             143   -0.18 7 97.1 178 
 RUS  HZ I         541 29.58         4.1 0.28                          97.1 178 
                                                                                
