 2012  6 4 0124 15.9 L   5.803 -74.153101.1  RSN 11 0.4 2.0LRSN                1
 GAP= 75        0.71       2.2     2.5  5.9 -0.5324E+00 -0.1472E+01 -0.1671E+01E
 Epicentro: FLORIAN - SANTANDER                                                3
 ACTION:UPD 12-08-06 17:47 OP:ep   STATUS:               ID:20120604012420 L   I
 2012-06-04-0120-00M.COL___201                                                 6
 STAT SP IPHASW D HRMM SECON CODA AMPLIT PERI AZIMU VELO AIN AR TRES W  DIS CAZ7
 NOR  SZ EP        124 33.40                             137   -0.1610 83.6 252 
 NOR  SN ES   1    124 47.01                             137   -0.29 7 83.6 252 
 PTB  HZ EP        124 33.63                             135   -0.2510 88.1 338 
 PTB  HE ES   1    124 47.76                             135   -0.11 7 88.1 338 
 PTB  HZ I         124 48.85        27.5 0.09                          88.1 338 
 ROSC BZ EP   1    124 36.52                             129    0.32 7  108 190 
 ROSC BE ES        124 52.45                             129    0.4510  108 190 
 ROSC BZ I         124 55.05        25.3 0.36                           108 190 
 RUS  HZ EP   1    124 37.16                             126   -0.21 7  119  85 
 RUS  HN ES   1    124 53.82                             126   -0.26 7  119  85 
 RUS  HZ I         124 55.00         7.3 0.06                           119  85 
 CHI  HZ EP   1    124 38.82                             122   -0.37 7  138 160 
 CHI  HE ES   1    124 57.13                             122   -0.19 7  138 160 
 CHI  HZ I         125  1.15        10.5 0.35                           138 160 
 BAR2 SZ EP   1    124 39.36                             121    0.35 7  138  51 
 BAR2 SZ ES   1    124 57.22                             121    0.22 7  138  51 
 BAR2 SZ I         124 58.25        25.5 0.30                           138  51 
 HEL  HZ EP   1    124 41.80                             118    0.51 7  158 286 
 HEL  HE ES   1    125  1.40                             118    0.34 7  158 286 
 HEL  HZ I         125  6.80        12.4 0.47                           158 286 
 ZAR  HZ EP   1    124 45.01                             111   -0.74 6  202 337 
 ZAR  HZ I         125 14.93        16.2 0.31             56            202 337 
 PAM  SZ EP   1    124 50.38                             107    0.40 6  234  43 
 PRA  HZ EP   1    124 50.50                             106   -0.22 6  245 199 
 PRA  HN ES   1    125 17.57                             106   -0.27 6  245 199 
 OCA  HZ EP   1    124 56.11                             103    0.56 6  285  19 
 OCA  HZ I         125 37.13        14.2 0.20                           285  19 
                                                                                
