 2016  6 4 0933  0.1 L   6.751 -73.174148.5  RSN  5 0.2 1.4LRSN                1
 GAP=230        0.52       3.1     3.3  4.1  0.2190E+01  0.1298E+01  0.8983E-01E
 Epicentro: LOS SANTOS - SANTANDER                                             3
 ACTION:UPD 16-07-21 22:15 OP:rebc STATUS:               ID:20160604093300 L   I
 OLDACT:DUP 16-06-04 14:29 OP:cara STATUS:               ID:20160604092742d    3
 OLDACT:DUP 16-06-04 14:25 OP:cara STATUS:               ID:20160604092741d    3
 2016-06-04-0927-40M.COL___313                                                 6
 STAT SP IPHASW D HRMM SECON CODA AMPLIT PERI AZIMU VELO AIN AR TRES W  DIS CAZ7
 BAR2 EZ EP        933 19.67                             173   -0.2610 17.6 183 
 BAR2 EZ ES        933 35.28                             173   -0.1410 17.6 183 
 BAR2 EZ I         933 36.06         5.7 0.26                          17.6 183 
 BRR  HZ EP        933 21.53                             153    0.0110 71.3 304 
 BRR  HN ES        933 38.52                             153    0.2710 71.3 304 
 BRR  HZ I         933 42.45         5.4 0.52                          71.3 304 
 RUS  HZ EP        933 24.01                             146    0.2710 95.5 174 
 RUS  HN ES        933 42.17                             146   -0.0210 95.5 174 
 RUS  HZ I         933 43.40         4.1 0.26                          95.5 174 
 PTB  HZ EP        933 26.83                             133   -0.08 9  144 261 
 PTB  HE ES        933 47.66                             133   -0.17 9  144 261 
 PTB  HZ I         933 49.00         2.5 0.40                           144 261 
 SPBC HN ES        933 50.26                             131    0.11 9  157 219 
 SPBC HZ I         933 52.30         4.7 0.18                           157 219 
                                                                                
