 2017  1 4 0915 58.0 L   6.768 -73.135149.0  RSN  8 0.4 1.6LRSN                1
 GAP=139        0.91       3.5     3.8  5.6  0.4125E+00  0.5992E+01  0.3713E+01E
 Epicentro: LOS SANTOS - SANTANDER                                             3
 ACTION:UPD 17-05-22 15:55 OP:jn   STATUS:               ID:20170104091558 L   I
 OLDACT:DUP 17-01-04 17:01 OP:lv   STATUS:               ID:20170104090747d    3
 2017-01-04-0908-00M.COL___360                                                 6
 STAT SP IPHASW D HRMM SECON CODA AMPLIT PERI AZIMU VELO AIN AR TRES W  DIS CAZ7
 BAR2 EZ EP        916 17.99                             172    0.0210 20.1 195 
 BAR2 EZ ES        916 33.15                             172   -0.3910 20.1 195 
 BAR2 EZ I         916 34.12        12.0 0.28            170           20.1 195 
 BRR  HZ IP     C  916 19.77                             152    0.1010 74.0 300 
 BRR  HE ES        916 37.38                             152    0.8110 74.0 300 
 BRR  HZ I         916 40.81         7.8 0.09            150           74.0 300 
 PAM  EZ EP        916 20.76                             151    0.0710 79.4  37 
 PAM  EN ES        916 38.14                             151   -0.2510 79.4  37 
 PAM  EZ I         916 40.46         6.0 0.62            155           79.4  37 
 RUS  HZ EP        916 22.10                             145    0.2710 96.9 177 
 RUS  HN ES        916 40.52                             145    0.1110 96.9 177 
 RUS  HZ I         916 41.83         3.7 0.20            147           96.9 177 
 PTB  HZ EP        916 24.67                             133   -0.63 9  148 260 
 PTB  HE ES        916 46.17                             133   -0.41 9  148 260 
 PTB  HZ I         916 53.17         6.8 0.44            132            148 260 
 ZAR  HZ EP        916 30.86                             123   -0.07 8  207 293 
 ZAR  HE ES        916 56.53                             123   -0.07 8  207 293 
 ZAR  HZ I         917  3.14         6.2 0.29            123            207 293 
 CHI  HZ EP        916 35.88                             118    0.32 8  246 196 
 CHI  HN ES        917  4.61                             118   -0.23 8  246 196 
 CHI  HZ I         917 10.97         0.7 0.17            120            246 196 
 GUY2CHZ EP   4    916 44.06                             113    2.40 0  300 235 
 GUY2CHN ES        917 16.10                             113    0.40 7  300 235 
 GUY2CHZ I         917 25.06         1.7 0.48                           300 235 
 SJC  HZ EP   4    916 52.11                             106   -2.00 0  413 327 
 SJC  HN ES   4    917 34.90                             106   -2.97 0  413 327 
                                                                                
