 2012  7 4 0028 45.3 L   6.762 -73.112146.0  RSN  5 0.4 1.6LRSN                1
 GAP=143        1.06       7.3     7.0  9.9 -0.1082E+01  0.3081E+01  0.8342E+01E
 Epicentro: LOS SANTOS - SANTANDER                                             3
 ACTION:UPD 12-08-14 11:42 OP:ep   STATUS:               ID:20120704002845 L   I
 2012-07-04-0026-37M.COL___208                                                 6
 STAT SP IPHASW D HRMM SECON CODA AMPLIT PERI AZIMU VELO AIN AR TRES W  DIS CAZ7
 BAR2 SZ EP   1    029  4.25                             172    -0.7 7   20 202 
 BAR2 SZ I         029  5.44         7.2 0.19            169             20 202 
 BAR2 SZ ES   1    029 19.61                             172    -0.6 7   20 202 
 BRR  HZ EP   1    029  7.11                             151     0.3 7   76 300 
 BRR  HN ES        029 24.02                             151     0.410   76 300 
 BRR  HZ I         029 27.94        10.6 0.15            147             76 300 
 PAM  SZ EP   1    029  7.82                             151     0.2 7   78  36 
 PAM  SZ I         029  8.22         4.1 0.18            152             78  36 
 PAM  SN ES   1    029 24.91                             151    -0.1 7   78  36 
 RUS  HZ EP   1    029  9.08                             145     0.3 7   96 178 
 RUS  HN ES   1    029 27.68                             145     0.6 7   96 178 
 PTB  HZ EP   1    029 12.22                             132    -0.4 7  151 261 
 PTB  HN ES   1    029 33.52                             132    -0.3 7  151 261 
 PTB  HZ I         029 39.06         5.1 0.24            130            151 261 
