 2012  2 4 0804  4.3 L   6.315 -73.101121.4  RSN  4 0.2 1.7LRSN                1
 GAP=296        0.41       6.4     4.5  7.5  0.7392E+01  0.5515E+01  0.1797E+02E
 ACTION:UP  12-03-07 16:27 OP:epov STATUS:               ID:20120204080404 L   I
 2012-02-04-0800-00M.COL___188                                                 6
 STAT SP IPHASW D HRMM SECON CODA AMPLIT PERI AZIMU VELO SNR AR TRES W  DIS CAZ7
 BAR2 SZ EP   1    8 4 21.35                             164    0.09 7 31.9 344 
 BRR  HZ I         8 4 25.20         8.8 0.15                           111 322 
 BRR  HN ES   1    8 4 42.68                             135   -0.09 7  111 322 
 PTB  HZ EP   1    8 4 29.97                             125    0.14 7  152 279 
 PTB  HN ES   1    8 4 49.62                             125   -0.11 7  152 279 
 PTB  HZ I         8 4 56.98                                            152 279 
 ZAR  HZ EP   1    8 4 38.29                             113   -0.30 6  234 304 
 ZAR  HN ES   1    8 5  5.59                             113    0.26 6  234 304 
                                                                                
