 2011  2 4 0117 23.6 L   6.536 -73.485108.7  RSN 15 0.4 2.7LRSN                1
 GAP= 85        0.93       3.5     5.0  7.8 -0.1627E+01  0.1626E+02  0.2998E+01E
 Epicentro: EL CARMEN DE CHUCURI - SANTANDER                                   3
 ACTION:UP  11-03-28 15:05 OP:jfem STATUS:               ID:20110204011723 L   I
 2011-02-04-0115-20S.COL___137                                                 6
 STAT SP IPHASW D HRMM SECON CODA AMPLIT PERI AZIMU VELO SNR AR TRES W  DIS CAZ7
 BAR2 SZ EP        117 39.22                             161     0.010   34  79 
 BAR2 SZ ES   2    117 51.07                             161    -0.2 5   34  79 
 BAR2 SZ I         117 53.94       302.1 0.20                            34  79 
 BTL  SZ EP        117 40.05                             154     0.210   49  30 
 BTL  SZ ES   2    117 52.13                             154    -0.4 5   49  30 
 GIR2 SZ EP   1    117 40.67                             145    -0.2 7   68  28 
 URB  SZ EP   2    117 42.08                             141     0.4 5   79  12 
 URB  SZ ES   2    117 56.31                             141     0.6 5   79  12 
 RUS  HZ EP        117 42.56                             140     0.010   84 148 
 RUS  HE ES   2    117 57.70                             140     0.4 5   84 148 
 RUS  HZ I         117 59.67       131.3 0.26                            84 148 
 GRA  SZ EP        117 51.03                             118     0.9 9  167  27 
 GRA  SZ I         118 19.05        56.7 0.25                           167  27 
 YOP  SZ EP        117 50.99                             117     0.0 9  176 138 
 YOP  SE ES   2    118 11.70                             117    -0.6 4  176 138 
 YOP  SZ I         118 14.81       106.5 0.31                           176 138 
 NOR  SZ EP   1    117 51.92                             115    -0.3 7  187 235 
 NOR  SE ES   2    118 14.36                             115    -0.1 4  187 235 
 OCA  SZ EP        117 51.70                             115    -0.8 9  189   6 
 OCA  SZ ES   2    118 14.36                             115    -0.7 4  189   6 
 OCA  SZ I         118 19.07        71.0 0.30                           189   6 
 ROSC BZ EP   2    117 54.82                             112    -0.2 4  209 206 
 ROSC BZ I         118 29.35        43.9 0.30                           209 206 
 CHI  HZ EP   1    117 55.61                             112     0.2 6  213 187 
 CHI  HE ES   2    118 19.70                             112    -0.6 4  213 187 
 CHI  HZ I         118 29.76        33.6 0.64                           213 187 
 HEL  HZ EP   1    117 57.25                             110    -0.1 6  229 261 
 HEL  HN ES   2    118 24.10                             110     0.5 4  229 261 
 HEL  HZ I         118 30.46        35.6 0.42                           229 261 
 RREF HZ EP   2    118  3.56                             106     0.7 4  274 229 
 RREF HZ I         118 42.66        39.6 0.49                           274 229 
 TOL  SZ EP   2    118  5.43                             104     0.3 4  296 223 
 DBB  SZ EP   1    118  5.35                             104    -0.5 5  306 280 
                                                                                
