 2010  4 4 0103 33.7 L   6.820 -73.000138.0  RSN  6 0.3 2.1LRSN                1
 GAP=211        0.63       3.8     7.8  6.9 -0.3062E+01 -0.1382E+02  0.6068E+01E
 Epicentro: CEPITA - SANTANDER                                                 3
 ACTION:UP  10-08-24 09:57 OP:vdl  STATUS:               ID:20100404010334 L   I
 2010-04-04-0058-12S.COL___098                                                 6
 STAT SP IPHASW D HRMM SECON CODA AMPLIT PERI AZIMU VELO AIN AR TRES W  DIS CAZ7
 BAR2 SZ IP        1 3 52.86                             166     0.310   32 219 
 BAR2 SZ ES   2    1 4  6.85                             166    -0.5 5   32 219 
 BRR  HZ IP        1 3 54.85                             147     0.010   85 292 
 BRR  HZ I         1 3 55.02        21.3 0.18                            85 292 
 BRR  HN ES   1    1 4 11.58                             147     0.2 7   85 292 
 OCA  SZ EP        1 4  1.36                             128    -0.1 9  161 347 
 OCA  SZ ES   2    1 4 22.67                             128    -0.4 5  161 347 
 OCA  SZ I         1 4 27.81        33.5 0.36                           161 347 
 CHI  HZ EP        1 4 11.37                             115    -0.3 8  255 199 
 CHI  HZ I         1 4 13.98         3.1 0.54                           255 199 
 CHI  HN ES   2    1 4 41.51                             115     0.2 4  255 199 
 HEL  HE ES   2    1 4 47.30                             112    -0.5 4  288 256 
 HEL  HZ I         1 4 51.45         6.8 0.60                           288 256 
 RREF BZ EP   2    1 4 21.59                             109     0.5 3  336 231 
 RREF BZ I         1 5  4.97         6.4 0.31                           336 231 
                                                                                
