 2016  5 4 0413 38.1 L   6.817 -73.128143.5  RSN 12 0.5 2.0LRSN                1
 GAP=138        1.26       3.6     4.8  6.8 -0.2230E+01  0.6884E+01  0.1090E+01E
 Epicentro: LOS SANTOS - SANTANDER                                             3
 ACTION:UPD 16-08-18 17:41 OP:cam  STATUS:               ID:20160504041338 L   I
 OLDACT:REG 16-05-04 12:49 OP:ak   STATUS:               ID:20160504040742     3
 2016-05-04-0407-42M.COL___292                                                 6
 STAT SP IPHASW D HRMM SECON CODA AMPLIT PERI AZIMU VELO AIN AR TRES W  DIS CAZ7
 BAR2 EZ IP     D  413 57.62                             169    0.0910 25.6 194 
 BAR2 EZ ES        414 12.52                             169   -0.1510 25.6 194 
 BAR2 EZ I         414 13.50         9.5 0.36            168           25.6 194 
 BRR  HZ IP     D  413 59.32                             152    0.2410 72.1 296 
 BRR  HN ES        414 16.10                             152    0.6810 72.1 296 
 BRR  HZ I         414 19.19        12.4 0.26            150           72.1 296 
 PAM  EZ IP     D  414  0.26                             151    0.3310 74.6  39 
 PAM  EN ES        414 17.29                             151    0.3410 74.6  39 
 PAM  EZ I         414 19.58        15.8 0.24            155           74.6  39 
 RUS  HZ EP        414  1.71                             143   -0.0710  102 177 
 RUS  HN ES        414 20.01                             143   -0.2310  102 177 
 RUS  HZ I         414 21.82        14.9 0.24            144            102 177 
 PTB  HZ EP   1    414  4.27                             131   -0.85 7  150 258 
 PTB  HN ES        414 25.37                             131   -0.81 9  150 258 
 PTB  HZ I         414 31.81        10.6 0.30            130            150 258 
 OCA  HZ EP        414  5.89                             130   -0.21 9  159 352 
 OCA  HN ES        414 27.08                             130   -0.85 9  159 352 
 OCA  HZ I         414 31.17        22.4 0.18            131            159 352 
 SPBC HZ EP        414  6.92                             128    0.21 9  166 219 
 SPBC HN ES        414 28.67                             128   -0.34 9  166 219 
 SPBC HZ I         414 31.30        18.1 0.16            128            166 219 
 ZAR  HZ EP        414 11.39                             122    0.85 9  205 291 
 ZAR  HN ES        414 35.78                             122   -0.04 9  205 291 
 ZAR  HZ I         414 41.43        16.3 0.26            122            205 291 
 CHI  HZ EP        414 15.11                             116   -0.84 8  251 195 
 CHI  HN ES        414 46.01                             116    0.54 8  251 195 
 CHI  HZ I         414 52.04         3.8 0.32            118            251 195 
 ROSC BZ EP   9    414 17.82                             116    1.41 0  255 211 
 ROSC BN ES        414 48.58                                    0.89 8  255 211 
 ROSC BZ I         414 51.14        11.4 0.45            117            255 211 
 HEL  HZ EP   1    414 18.85                             114    0.36 6  274 256 
 HEL  HN ES        414 50.63                             114    0.66 8  274 256 
 HEL  HZ I         414 56.96         3.5 0.30            115            274 256 
 SJC  HZ EP   4    414 31.46                             105   -2.09 0  409 327 
 SJC  HN ES   4    415 12.31                             105   -4.47 0  409 327 
 SJC  HZ I         415 16.11         2.2 0.11            106            409 327 
                                                                                
