 2013 11 4 0741 58.9 L   6.828 -73.138142.0  RSN 11 0.6 1.6LRSN                1
 GAP=136        1.40       4.4     5.2  7.8 -0.6954E+01  0.6765E+01 -0.1422E+01E
 Epicentro: LOS SANTOS - SANTANDER                                             3
 ACTION:UPD 14-01-09 16:25 OP:ep   STATUS:               ID:20131104074158 L   I
 OLDACT:REG 13-11-04 08:46 OP:stll STATUS:               ID:20131104073839     3
 2013-11-04-0738-39M.COL___214                                                 6
 STAT SP IPHASW D HRMM SECON CODA AMPLIT PERI AZIMU VELO AIN AR TRES W  DIS CAZ7
 BAR2 SZ EP        742 18.30                             169    0.1210 26.5 191 
 BAR2 SZ ES        742 32.64                             169   -0.5510 26.5 191 
 BAR2 SZ I         742 34.89        10.1 0.18            170           26.5 191 
 BRR  HZ EP        742 20.18                             152    0.5410 70.5 296 
 BRR  HN ES        742 36.79                             152    1.0010 70.5 296 
 BRR  HZ I         742 38.91         4.1 0.52            143           70.5 296 
 PAM  SZ EP        742 20.98                             151    0.4110 74.4  41 
 PAM  SN ES        742 38.14                             151    0.6910 74.4  41 
 PAM  SZ I         742 40.36         7.0 0.50            146           74.4  41 
 RUS  HZ EP        742 22.35                             142   -0.1910  104 177 
 RUS  HN ES        742 40.73                             142   -0.2310  104 177 
 RUS  HZ I         742 41.79         2.9 0.28            141            104 177 
 CAPV BZ IP     C  742 26.00                             132    0.25 9  146  38 
 CAPV BZ ES        742 46.12                             132   -0.55 9  146  38 
 PTB  HZ EP        742 25.25                             131   -0.48 9  149 258 
 PTB  HN ES        742 46.50                             131   -0.13 9  149 258 
 PTB  HZ I         742 53.73         5.5 0.30            124            149 258 
 OCA  HN ES        742 47.51                             129   -0.79 9  157 353 
 OCA  HZ I         742 53.94         4.1 0.26            122            157 353 
 SPBC HZ EP        742 27.18                             128   -0.25 9  166 219 
 SPBC HN ES        742 49.29                             128   -0.37 9  166 219 
 SPBC HZ I         742 54.19         7.8 0.24            123            166 219 
 ZAR  HN ES        742 55.83                             122   -0.36 9  204 291 
 ZAR  HZ I         743  1.72         4.6 0.34            115            204 291 
 SML  HZ EP        742 34.64                             117   -0.44 8  241 335 
 SML  HZ I         743  7.84         5.8 0.10            111            241 335 
 GUY2CHZ EP        742 44.03                             111    1.38 7  304 234 
 GUY2CHZ I         743 24.82         2.3 0.46                           304 234 
                                                                                
