 2014 12 4 0730 26.9 L   6.798 -73.139148.8  RSN 11 0.5 1.8LRSN                1
 GAP=138        1.10       2.9     4.5  5.9 -0.8976E+00  0.7192E+01  0.1083E+01E
 Epicentro: LOS SANTOS - SANTANDER                                             3
 ACTION:UPD 15-02-10 17:00 OP:nd   STATUS:               ID:20141204073026 L   I
 OLDACT:REG 14-12-04 12:56 OP:carl STATUS:               ID:20141204072740     3
 2014-12-04-0727-40M.COL___300                                                 6
 STAT SP IPHASW D HRMM SECON CODA AMPLIT PERI AZIMU VELO AIN AR TRES W  DIS CAZ7
 BAR2 SZ EP        730 46.78                             171   -0.0910 23.3 192 
 BAR2 SZ ES        731  2.14                             171   -0.3210 23.3 192 
 BAR2 SZ I         731  3.52        10.6 0.22            169           23.3 192 
 BRR  HZ EP        730 48.71                             153    0.3110 72.0 298 
 BRR  HN ES        731  6.16                             153    0.9810 72.0 298 
 BRR  HZ I         731 10.99         7.7 0.14            151           72.0 298 
 PAM  SZ EP        730 49.78                             152    0.3810 77.1  39 
 PAM  SN ES        731  7.02                             152    0.0610 77.1  39 
 PAM  SZ I         731  8.99        14.9 0.52            157           77.1  39 
 RUS  HZ EP        730 50.60                             145   -0.3110  100 176 
 RUS  HN ES        731  9.76                             145    0.1110  100 176 
 RUS  HZ I         731 11.04         4.5 0.48            147            100 176 
 PTB  HZ EP        730 53.69                             133   -0.47 9  148 259 
 PTB  HN ES        731 14.91                             133   -0.52 9  148 259 
 PTB  HZ I         731 20.59         7.9 0.26            133            148 259 
 OCA  HN ES        731 17.61                             130   -0.13 9  161 353 
 SPBC HZ EP        730 55.85                             130    0.21 9  164 219 
 SPBC HN ES        731 17.71                             130   -0.36 9  164 219 
 SPBC HZ I         731 26.31         9.7 0.24            131            164 219 
 ZAR  HZ EP        730 59.43                             123   -0.17 9  205 292 
 ZAR  HN ES        731 25.03                             123   -0.10 9  205 292 
 ZAR  HZ I         731 31.27         7.1 0.62            124            205 292 
 SML  HZ EP        731  3.60                             118   -0.13 8  244 335 
 SML  HN ES        731 31.87                             118   -0.60 8  244 335 
 SML  HZ I         731 34.61         7.9 0.10            120            244 335 
 CHI  HZ EP        731  4.95                             118    0.21 8  249 195 
 CHI  HN ES        731 33.70                             118   -0.58 8  249 195 
 CHI  HZ I         731 38.28         2.4 0.36            120            249 195 
 GUY2CHZ EP        731 11.16                             113    0.48 7  302 235 
 GUY2CHN ES        731 46.06                             113    1.21 7  302 235 
 GUY2CHZ I         731 53.61         4.6 0.72                           302 235 
                                                                                
