 2016 11 4 0246 38.5 L   6.775 -73.130148.4  RSN  9 0.4 1.7LRSN                1
 GAP=121        1.05       4.2     4.3  6.2 -0.5919E+00  0.3036E+01  0.7488E+01E
 Epicentro: LOS SANTOS - SANTANDER                                             3
 ACTION:UPD 17-10-26 21:04 OP:lp   STATUS:               ID:20161104024638 L   I
 OLDACT:UP  16-11-04 14:29 OP:dani STATUS:               ID:20161104023745     3
 OLDACT:REG 16-11-04 12:43 OP:dani STATUS:               ID:20161104023745     3
 2016-11-04-0238-00M.COL___343                                                 6
 STAT SP IPHASW D HRMM SECON CODA AMPLIT PERI AZIMU VELO AIN AR TRES W  DIS CAZ7
 BAR2 EZ EP        246 58.10                             172   -0.2610 21.0 196 
 BAR2 EZ ES        247 13.28                             172   -0.6010 21.0 196 
 BAR2 EZ I         247 16.15        14.0 0.42            169           21.0 196 
 BRR  HZ EP        247  0.25                             152    0.2010 74.0 300 
 BRR  HN ES        247 17.57                             152    0.6810 74.0 300 
 BRR  HZ I         247 19.16         7.0 0.13            150           74.0 300 
 PAM  EZ EP        247  1.23                             151    0.2110 78.5  37 
 PAM  EN ES        247 18.59                             151   -0.0210 78.5  37 
 PAM  EZ I         247 20.75         7.8 0.64            155           78.5  37 
 RUS  HZ EP        247  2.36                             145    0.0910 97.8 177 
 RUS  HN ES        247 21.11                             145    0.2710 97.8 177 
 RUS  HZ I         247 22.29         5.3 0.35            146           97.8 177 
 PTB  HZ EP        247  5.21                             132   -0.54 9  149 260 
 PTB  HN ES        247 26.27                             132   -0.76 9  149 260 
 PTB  HZ I         247 33.72         5.9 0.20            132            149 260 
 SPBC HZ EP        247  7.45                             130    0.39 9  162 220 
 SPBC HN ES        247 29.67                             130    0.30 9  162 220 
 SPBC HZ I         247 32.97        10.4 0.14            130            162 220 
 ZAR  HE ES        247 37.04                             123    0.05 8  207 293 
 ZAR  HZ I         247 42.57         6.1 0.27            123            207 293 
 PTGC HZ EP        247 21.38                             112   -0.70 7  306 159 
 PRA  HZ EP        247 32.33                             107    0.44 6  390 210 
 PRA  HN ES        248 13.96                             107    0.39 6  390 210 
 PRA  HZ I         248 20.93         2.3 0.29            108            390 210 
                                                                                
