 2010  5 4 0247 11.2 L   6.611 -73.672102.3  RSN  6 0.3 1.7LRSN                1
 GAP=165        0.48       4.6     3.0  6.2 -0.7220E+01  0.9649E+01 -0.6393E+01E
 Epicentro: EL CARMEN DE CHUCURI - SANTANDER                                   3
 ACTION:UP  10-08-24 10:02 OP:vdl  STATUS:               ID:20100504024711 L   I
 2010-05-04-0245-47S.COL___105                                                 6
 STAT SP IPHASW D HRMM SECON CODA AMPLIT PERI AZIMU VELO AIN AR TRES W  DIS CAZ7
 BAR2 SZ IP        247 27.09                             150     0.110   54  92 
 BAR2 SZ ES   1    247 39.30                             150    -0.1 7   54  92 
 BRR  HN ES   2    247 39.05                             149     0.2 5   55 355 
 GIR2 SZ EP   3    247 28.34                             141     0.1 2   74  46 
 GUE  SZ EP   1    247 36.76                             118     0.2 7  158  31 
 GUE  SZ ES   2    247 55.53                             118    -0.7 5  158  31 
 OCA  SZ ES   3    248  1.58                             113     0.6 2  184  12 
 OCA  SZ I         248  9.69         6.3 0.25                           184  12 
 HEL  HZ EP   2    247 42.45                             110     0.0 4  211 257 
 HEL  HE ES        248  6.72                             110    -0.1 8  211 257 
 HEL  HZ I         248  9.24         4.6 0.24                           211 257 
                                                                                
