 2011 11 4 0906 19.4 L   7.646 -73.209135.4  RSN  7 0.4 1.4LRSN                1
 GAP=132        0.67       5.0     5.3  7.2  0.1864E+01  0.1663E+02 -0.7842E+01E
 Epicentro: EL PLAYON - SANTANDER                                              3
 ACTION:UPD 12-07-13 16:08 OP:ep   STATUS:               ID:20111104090619 L   I
 2011-11-04-0904-39S.COL___175                                                 6
 STAT SP IPHASW D HRMM SECON CODA AMPLIT PERI AZIMU VELO AIN AR TRES W  DIS CAZ7
 PAM  SZ EP   1    9 6 39.94                             153    0.09 7 65.7 121 
 PAM  SN ES        9 6 55.59                             153   -0.1910 65.7 121 
 OCA  SZ EP   1    9 6 39.99                             152    0.57 7 66.6 349 
 OCA  SZ I         9 6 59.37         3.4 0.11                          66.6 349 
 BRR  HZ EP        9 6 40.19                             147    0.0810 81.5 223 
 BRR  HE ES   2    9 6 56.12                             147   -0.12 5 81.5 223 
 BRR  HZ I         9 7  1.30         8.6 0.16                          81.5 223 
 BAR2 SZ EP        9 6 42.98                             137   -0.1110  117 179 
 BAR2 SZ ES   1    9 7  1.35                             137   -0.20 7  117 179 
 BAR2 SZ I         9 7  4.44         7.0 0.32                           117 179 
 ZAR  HN ES   2    9 7 12.34                             123    0.27 4  183 265 
 ZAR  HZ I         9 7 16.30         4.6 0.15                           183 265 
 RUS  HZ EP   1    9 6 51.21                             121    0.38 6  194 176 
 RUS  HZ I         9 7 18.74         1.0 0.59                           194 176 
 SJC  HZ EP   1    9 7  4.43                             108   -0.94 5  330 319 
                                                                                
