 2017  8 4 0126 30.8 L   6.750 -73.204154.2  RSN  4 0.1 1.1LRSN                1
 GAP=227        0.44       3.7     3.7  4.4  0.9065E+01 -0.5051E+00 -0.1111E+01E
 Epicentro: VILLANUEVA - SANTANDER                                             3
 ACTION:UPD 17-09-04 20:16 OP:rebc STATUS:               ID:20170804012630 L   I
 OLDACT:DUP 17-08-04 14:20 OP:osc  STATUS:               ID:20170804011741d    3
 OLDACT:REG 17-08-04 12:39 OP:osc  STATUS:               ID:20170804011740     3
 2017-08-04-0118-00M.COL___374                                                 6
 STAT SP IPHASW D HRMM SECON CODA AMPLIT PERI AZIMU VELO AIN AR TRES W  DIS CAZ7
 BRR  HZ EP        126 52.83                             155    0.1110 68.7 305 
 BRR  HE ES        127  9.66                             155   -0.1610 68.7 305 
 RUS  HZ EP        126 54.96                             147   -0.0810 95.7 172 
 RUS  HN ES        127 14.10                             147    0.1410 95.7 172 
 PTB  HZ EP        126 57.67                             135   -0.15 9  140 261 
 PTB  HE ES        127 18.83                             135   -0.07 9  140 261 
 PTB  HZ I         127 23.71         1.4 0.40            132            140 261 
 ZAR  HZ EP   4    126 55.89                             125   -7.53 0  200 294 
 ZAR  HN ES        127 29.11                             125    0.24 9  200 294 
                                                                                
