 2017  9 4 0912  5.3 L   6.800 -73.154142.2  RSN 20 0.4 2.2LRSN                1
 GAP= 65        0.89       2.5     2.5  4.5  0.9978E-01  0.3266E+01  0.3869E+00E
 Epicentro: LOS SANTOS - SANTANDER                                             3
 ACTION:UPD 17-10-05 19:09 OP:rebc STATUS:               ID:20170904091205 L   I
 OLDACT:UP  17-09-04 18:34 OP:dnl  STATUS:               ID:20170904090643d    3
 OLDACT:UP  17-09-04 18:34 OP:dnl  STATUS:               ID:20170904090643d    3
 OLDACT:DUP 17-09-04 18:26 OP:dnl  STATUS:               ID:20170904090643d    3
 2017-09-04-0908-00M.COL___408                                                 6
 STAT SP IPHASW D HRMM SECON CODA AMPLIT PERI AZIMU VELO AIN AR TRES W  DIS CAZ7
 BAR2 EZ EP        912 24.37                             170   -0.1110 23.2 188 
 BAR2 EZ ES        912 39.03                             170   -0.4210 23.2 188 
 BAR2 EZ I         912 40.56        69.6 0.20            169           23.2 188 
 BRR  HZ IP     C  912 26.27                             152    0.2710 70.4 299 
 BRR  HN ES        912 43.01                             152    0.8510 70.4 299 
 BRR  HZ I         912 47.61        43.9 0.14            148           70.4 299 
 PAM  EZ IP     C  912 27.26                             150    0.1110 78.0  40 
 PAM  EN ES        912 44.10                             150   -0.1110 78.0  40 
 PAM  EZ I         912 46.21        53.9 0.64            152           78.0  40 
 RUS  HZ EP        912 28.59                             143   -0.1010  101 176 
 RUS  HN ES        912 46.64                             143   -0.3010  101 176 
 RUS  HZ I         912 47.61        20.0 0.22            144            101 176 
 TAM  HZ IP     D  912 32.70                             130   -0.06 9  156 105 
 TAM  HN ES        912 54.16                             130   -0.03 9  156 105 
 TAM  HZ I         912 54.83        13.8 0.24            133            156 105 
 SPBC HZ EP        912 33.61                             128    0.16 9  163 219 
 SPBC HN ES        912 55.18                             128   -0.24 9  163 219 
 SPBC HZ I         913  1.13        16.2 0.36            127            163 219 
 YPLC HZ IP     D  912 34.81                             126   -0.05 9  177 151 
 YPLC HN ES        912 58.44                             126    0.51 9  177 151 
 YPLC HZ I         913  1.22        25.9 0.28            128            177 151 
 ZAR  HZ EP        912 37.52                             122    0.11 9  203 292 
 ZAR  HN ES   4    913  3.73                             122    1.27 0  203 292 
 ZAR  HZ I         913 10.28        25.6 0.28            120            203 292 
 NOR  HZ EP        912 41.14                             118    0.42 8  234 234 
 NOR  HN ES        913  8.62                             118    0.25 8  234 234 
 NOR  HZ I         913 15.12         8.5 0.16            117            234 234 
 CHI  HZ EP   4    912 43.83                             116    1.07 0  248 195 
 CHI  HN ES        913 11.46                             116   -0.53 8  248 195 
 CHI  HZ I         913 15.03         6.5 0.28            117            248 195 
 HEL  HZ EP   2    912 45.80                             114    0.59 4  271 256 
 HEL  HE ES        913 16.16                             114   -0.20 8  271 256 
 HEL  HZ I         913 24.13         6.3 0.20            113            271 256 
 URE  HZ EP        912 44.88                             113   -1.20 7  283 292 
 URE  HN ES   4    913 15.81                             113   -2.10 0  283 292 
 URE  HZ I         913 32.17        13.8 0.22            112            283 292 
 GUY2CHZ EP   9    912 50.67                             112    2.03 0  300 235 
 GUY2CHN ES        913 24.98                             112    0.49 7  300 235 
 GUY2CHZ I         913 27.76         4.3 0.58                           300 235 
 PTGC HZ EP   4    912 47.66                             111   -1.36 0  309 158 
 PTGC HN ES   4    913 20.82                             111   -2.31 0  309 158 
 PTGC HZ I         913 23.13         9.9 0.38            112            309 158 
 DBB  EZ EP   2    912 52.49                             109   -0.02 3  339 274 
 DBB  EN ES   4    913 27.61                             109   -1.73 0  339 274 
 DBB  EZ I         913 33.15         5.4 0.34            108            339 274 
 ARGC HZ EP   4    912 55.82                             108    1.05 0  359 340 
 ARGC HE ES        913 33.63                             108    0.26 6  359 340 
 ARGC HZ I         913 47.08         6.4 0.36            107            359 340 
 PRA  HZ EP   2    912 59.05                             106    0.42 3  392 209 
 PRA  HE ES        913 40.69                             106    0.46 6  392 209 
 PRA  HZ I         913 48.73         6.4 0.22            106            392 209 
 ORTC HZ EP   2    912 59.58                             106    0.56 3  395 216 
 ORTC HN ES   4    913 42.18                             106    1.25 0  395 216 
 ORTC HZ I         913 47.61         4.9 0.40            106            395 216 
 APAC HZ EP   2    912 58.96                             106   -0.29 3  397 288 
 APAC HN ES        913 40.67                             106   -0.67 6  397 288 
 APAC HZ I         913 43.71         3.1 0.38            105            397 288 
 SJC  HZ EP   4    912 59.35                             105   -1.32 0  409 327 
 SJC  HE ES   4    913 41.05                             105   -2.82 0  409 327 
 SJC  HZ I         913 44.67        10.1 0.66            105            409 327 
                                                                                
