 2013  8 4 0101 56.2 L   6.784 -73.155147.4  RSN  7 0.5 1.7LRSN                1
 GAP=183        1.00       5.7     6.7  9.0  0.9371E+01  0.1764E+02  0.7961E+01E
 Epicentro: LOS SANTOS - SANTANDER                                             3
 ACTION:UPD 14-01-14 08:58 OP:ep   STATUS:               ID:20130804010156 L   I
 OLDACT:REG 13-08-04 07:40 OP:carl STATUS:               ID:20130804005959     3
 2013-08-04-0059-59M.COL___270                                                 6
 STAT SP IPHASW D HRMM SECON CODA AMPLIT PERI AZIMU VELO AIN AR TRES W  DIS CAZ7
 BAR2 SZ ES   1    1 2 31.35                             171   -0.07 8 21.4 188 
 BAR2 SZ I         1 2 32.55        10.3 0.26            170           21.4 188 
 GIR2 SZ EP   1    1 2 15.35                             167   -0.76 8 32.8 353 
 GIR2 SZ ES   1    1 2 31.24                             167   -0.39 8 32.8 353 
 GIR2 SZ I         1 2 32.43         7.3 0.42            168           32.8 353 
 BRR  HZ EP   1    1 2 17.79                             153    0.27 8 71.1 300 
 BRR  HN ES   1    1 2 34.83                             153    0.68 8 71.1 300 
 BRR  HN I         1 2 35.77        30.9 0.18            153           71.1 300 
 RUS  HZ EP   1    1 2 20.49                             145    0.50 8 98.9 175 
 RUS  HN ES   1    1 2 38.83                             145    0.28 8 98.9 175 
 RUS  HZ I         1 2 39.91         6.4 0.32            145           98.9 175 
 PTB  HZ EP   1    1 2 22.55                             133   -0.62 8  146 259 
 PTB  HN ES   1    1 2 43.38                             133   -0.83 8  146 259 
 PTB  HZ I         1 2 46.65         3.3 0.28            133            146 259 
 SPBC HZ EP   1    1 2 24.98                             130    0.35 7  161 219 
 SPBC HE ES        1 2 46.72                             130   -0.0910  161 219 
 SPBC HZ I         1 2 48.67         6.0 0.24            131            161 219 
 ZAR  HN ES        1 2 54.54                             123    0.46 9  204 293 
                                                                                
