 2010  3 4 0810 22.8 L   6.815 -72.976150.4  RSN  8 0.3 2.0LRSN                1
 GAP=200        0.56       2.5     5.2  4.2  0.7568E+00  0.6514E+00  0.2371E+01E
 Epicentro: CEPITA - SANTANDER                                                 3
 ACTION:UP  10-08-24 09:51 OP:vdl  STATUS:               ID:20100304081023 L   I
 2010-03-04-0808-48S.COL___096                                                 6
 STAT SP IPHASW D HRMM SECON CODA AMPLIT PERI AZIMU VELO SNR AR TRES W  DIS CAZ7
 BAR2 SZ EP        810 43.41                             167     0.210   34 223 
 BAR2 SZ ES   1    810 59.20                             167     0.0 7   34 223 
 BRR  HZ IP        810 45.34                             148    -0.110   88 292 
 BRR  HZ I         810 45.64        31.9 0.22                            88 292 
 BRR  HN ES        811  2.97                             148    -0.110   88 292 
 RUS  BZ EP        810 47.27                             144     0.110  103 187 
 RUS  BN ES   1    811  6.18                             144     0.0 7  103 187 
 OCA  SZ EP   1    810 51.86                             130     0.2 7  162 346 
 OCA  SZ ES   1    811 13.76                             130    -0.4 7  162 346 
 CHI  HZ EP   1    811  1.42                             117    -0.1 6  256 199 
 CHI  HN ES   1    811 31.38                             117    -0.3 6  256 199 
 CHI  HZ I         811 36.35         2.1 0.41                           256 199 
 HEL  HZ EP   1    811  5.26                             114     0.0 5  291 256 
 HEL  HZ I         811 42.41         3.8 0.32                           291 256 
 RREF BZ EP   2    811 11.32                             110     0.4 3  337 231 
 RREF BN ES   1    811 49.04                             110     0.6 5  337 231 
 RREF BZ I         811 53.16         4.2 1.15                           337 231 
 PRA  HZ EP        811 17.78                             107     0.0 6  403 212 
 PRA  HE ES   2    811 59.40                             107    -1.2 3  403 212 
 PRA  HZ I         812  4.94         2.9 0.11                           403 212 
                                                                                
