 2014  7 4 0748 52.4 L   6.857 -73.158144.9  RSN  4 0.1 1.3LRSN                1
 GAP=279        0.34       3.9     2.6  3.3 -0.1756E+01  0.1466E+01 -0.4400E+00E
 Epicentro: LOS SANTOS - SANTANDER                                             3
 ACTION:UPD 15-03-16 20:41 OP:nd   STATUS:               ID:20140704074852 L   I
 OLDACT:UP  14-07-04 17:55 OP:cam  STATUS:               ID:20140704074750     3
 OLDACT:REG 14-07-04 17:30 OP:cam  STATUS:               ID:20140704074750     3
 2014-07-04-0747-50M.COL___253                                                 6
 STAT SP IPHASW D HRMM SECON CODA AMPLIT PERI AZIMU VELO AIN AR TRES W  DIS CAZ7
 BAR2 SZ EP        749 12.16                             168    0.0810 29.4 185 
 BAR2 SZ ES        749 27.38                             168   -0.0410 29.4 185 
 RUS  HZ EP   1    749 16.56                             142    0.01 7  107 176 
 PTB  HZ EP        749 19.15                             132   -0.16 9  148 256 
 PTB  HN ES        749 40.38                             132    0.09 9  148 256 
 PTB  HZ I         749 47.29         2.2 0.28            129            148 256 
 SPBC HZ EP   1    749 21.36                             128    0.12 7  167 217 
 SPBC HN ES        749 43.67                             128   -0.05 9  167 217 
 SPBC HZ I         749 46.96         2.6 0.18            127            167 217 
                                                                                
