 2013  9 4 0512 42.3 L   6.775 -73.146151.2  RSN  7 0.4 1.5LRSN                1
 GAP=235        0.95       6.0     6.3  6.8  0.1691E+02  0.7583E+01  0.5615E+01E
 Epicentro: LOS SANTOS - SANTANDER                                             3
 ACTION:UPD 13-10-22 09:19 OP:ep   STATUS:               ID:20130904051242 L   I
 OLDACT:UP  13-09-04 10:55 OP:cam  STATUS:               ID:20130904050959     3
 OLDACT:REG 13-09-04 08:53 OP:cam  STATUS:               ID:20130904050959     3
 2013-09-04-0509-59M.COL___269                                                 6
 STAT SP IPHASW D HRMM SECON CODA AMPLIT PERI AZIMU VELO AIN AR TRES W  DIS CAZ7
 BAR2 SZ EP   1    513  2.37                             172   -0.12 7 20.6 191 
 BAR2 SZ ES        513 17.88                             172   -0.3910 20.6 191 
 BAR2 SZ I         513 19.01         7.0 0.44            166           20.6 191 
 BRR  HZ EP        513  4.07                             153    0.0010 72.5 300 
 BRR  HN ES        513 21.73                             153    0.6510 72.5 300 
 BRR  HZ I         513 27.70         5.2 0.20            148           72.5 300 
 RUS  HZ EP        513  6.54                             146    0.1810 97.9 176 
 RUS  HN ES        513 25.10                             146   -0.0510 97.9 176 
 RUS  HZ I         513 25.78         3.7 0.26            147           97.9 176 
 PTB  HZ EP        513  9.08                             133   -0.54 9  147 260 
 PTB  HN ES        513 30.38                             133   -0.59 9  147 260 
 PTB  HZ I         513 37.78         3.3 0.28            131            147 260 
 SPBC HZ EP        513 11.22                             131    0.24 9  161 220 
 SPBC HE ES   1    513 33.94                             131    0.56 7  161 220 
 SPBC HZ I         513 38.75         4.0 0.26            130            161 220 
 ZAR  HN ES   1    513 41.09                             123    0.26 6  205 293 
 ZAR  HZ I         513 46.25         5.7 0.42            123            205 293 
 CHI  HZ EP   2    513 20.53                             119    0.56 4  246 195 
                                                                                
