 2013  4 4 0128 50.4 L   6.754 -73.164147.0  RSN 10 0.4 1.8LRSN                1
 GAP=180        0.78       3.5     4.7  5.7  0.2140E+01  0.7955E+01  0.6903E+01E
 Epicentro: LOS SANTOS - SANTANDER                                             3
 ACTION:UPD 13-05-22 14:35 OP:EP   STATUS:               ID:20130404012850 L   I
 2013-04-04-0127-39M.COL___215                                                 6
 STAT SP IPHASW D HRMM SECON CODA AMPLIT PERI AZIMU VELO AIN AR TRES W  DIS CAZ7
 BAR2 SZ EP        129  9.96                             173   -0.1510 18.0 187 
 BAR2 SZ ES   1    129 25.37                             173   -0.09 7 18.0 187 
 BAR2 SZ I         129 26.85        27.1 0.20            166           18.0 187 
 GIR2 SZ EP   1    129 10.18                             165   -0.20 7 36.1 355 
 GIR2 SZ ES        129 25.77                             165   -0.1710 36.1 355 
 GIR2 SZ I         129 26.71        11.2 0.10            158           36.1 355 
 BRR  HZ EP   1    129 12.12                             152    0.36 7 72.1 303 
 BRR  HN ES   1    129 29.01                             152    0.62 7 72.1 303 
 RUS  HZ EP        129 13.78                             145   -0.1710 95.7 175 
 RUS  HN ES   1    129 32.27                             145   -0.03 7 95.7 175 
 RUS  HZ I         129 33.98         5.9 0.22            137           95.7 175 
 PTB  HZ EP   1    129 16.48                             133   -0.76 7  145 261 
 PTB  HN ES   1    129 37.72                             133   -0.43 7  145 261 
 PTB  HZ I         129 43.72        10.9 0.12            120            145 261 
 OCA  HE ES   1    129 42.44                             129    0.64 7  165 354 
 OCA  HZ I         129 45.99         5.1 0.12            119            165 354 
 ZAR  HN ES   1    129 47.86                             123   -0.49 6  204 294 
 ZAR  HZ I         129 53.91        10.3 0.36            111            204 294 
 NOR  HZ EP   1    129 25.98                             119    0.24 6  230 235 
 NOR  HN ES   1    129 53.92                             119    0.63 6  230 235 
 NOR  HZ I         130  0.57         7.9 0.20            109            230 235 
 CHI  HZ EP   1    129 27.96                             118    0.35 6  243 195 
 CHI  HN ES   1    129 57.05                             118    0.44 6  243 195 
 CHI  HZ I         130  2.42         3.1 0.28            109            243 195 
 HEL  HZ EP   1    129 30.36                             115    0.00 6  269 257 
 HEL  HZ I         130  8.90         4.9 0.32            105            269 257 
                                                                                
