 2017 11 4 0249 40.4 L   6.746 -73.139140.0  RSN  7 0.4 1.6LRSN                1
 GAP=140        1.00       4.2     4.3  7.5 -0.1131E+01  0.5430E+01  0.4500E+00E
 Epicentro: LOS SANTOS - SANTANDER                                             3
 ACTION:UPD 17-12-12 19:51 OP:rebc STATUS:               ID:20171104024940 L   I
 OLDACT:UP  17-11-04 14:21 OP:dnl  STATUS:               ID:20171104024742     3
 OLDACT:REG 17-11-04 13:10 OP:dnl  STATUS:               ID:20171104024742     3
 2017-11-04-0248-00M.COL___423                                                 6
 STAT SP IPHASW D HRMM SECON CODA AMPLIT PERI AZIMU VELO AIN AR TRES W  DIS CAZ7
 BAR2 EZ IP     C  249 59.14                             172   -0.0710 17.7 196 
 BAR2 EZ ES        250 13.80                             172   -0.1010 17.7 196 
 BAR2 EZ I         250 14.73        12.9 0.34            171           17.7 196 
 BRR  HZ EP        250  1.04                             150   -0.0810 74.8 302 
 BRR  HE ES        250 17.79                             150    0.4910 74.8 302 
 BRR  HZ I         250 21.91         9.6 0.26            150           74.8 302 
 PAM  EZ EP        250  2.06                             148   -0.1910 81.6  36 
 PAM  EN ES        250 19.06                             148   -0.2410 81.6  36 
 PAM  EZ I         250 21.34         8.4 0.40            152           81.6  36 
 RUS  HZ EP        250  3.60                             144    0.4710 94.6 176 
 RUS  HN ES        250 21.05                             144    0.1710 94.6 176 
 RUS  HZ I         250 22.33         3.0 0.26            146           94.6 176 
 PTB  HZ EP   2    250  6.33                             131   -0.52 5  147 261 
 PTB  HN ES        250 26.56                             131   -0.94 9  147 261 
 PTB  HZ I         250 29.13         6.0 0.18            132            147 261 
 SPBC HZ EP   2    250  7.90                             128   -0.15 5  159 221 
 SPBC HE ES        250 29.66                             128    0.03 9  159 221 
 SPBC HZ I         250 35.32         4.3 0.24            130            159 221 
 ZAR  HZ EP   4    250 14.27                             121    1.51 0  207 294 
 ZAR  HE ES        250 38.70                             121    0.67 8  207 294 
 ZAR  HZ I         250 40.29         5.3 0.26            122            207 294 
                                                                                
