 2015  3 4 0546 18.6 L   6.732 -73.085141.4  RSN  5 0.4 0.8LRSN                1
 GAP=148        0.91       5.9     5.8  9.6 -0.7455E+01  0.8325E+01  0.8455E+01E
 Epicentro: JORDAN - SANTANDER                                                 3
 ACTION:UPD 15-04-30 16:22 OP:nd   STATUS:               ID:20150304054618 L   I
 OLDACT:DUP 15-03-04 15:48 OP:spq  STATUS:               ID:20150304053739d    3
 2015-03-04-0537-38M.COL___290                                                 6
 STAT SP IPHASW D HRMM SECON CODA AMPLIT PERI AZIMU VELO AIN AR TRES W  DIS CAZ7
 BAR2 EZ EP        546 37.79                             172    0.1510 18.8 215 
 PAM  SZ EP        546 40.33                             149   -0.1810 79.5  32 
 PAM  SN ES        546 57.54                             149   -0.0410 79.5  32 
 PAM  SZ I         546 57.83         1.5 0.26            154           79.5  32 
 BRR  HZ EP        546 39.61                             149   -0.2710 80.8 301 
 BRR  HE ES   1    546 57.00                             149    0.53 7 80.8 301 
 BRR  HZ I         546 59.89         1.8 0.51            150           80.8 301 
 RUS  HZ EP   1    546 42.35                             145    0.96 7 92.8 180 
 RUS  HE ES   1    546 58.60                             145   -0.55 7 92.8 180 
 RUS  HZ I         547  1.28         0.5 0.20            147           92.8 180 
 PTB  HZ EP   1    546 45.50                             130   -0.24 7  153 262 
 PTB  HN ES   1    547  6.74                             130   -0.15 7  153 262 
 PTB  HZ I         547  8.57         1.4 0.10            132            153 262 
                                                                                
