 2011  6 4 0905  9.6 L   6.783 -73.109142.7  RSN  8 0.1 1.5LRSN                1
 GAP=142        0.36       1.7     3.3  3.3 -0.1708E+01  0.1108E+01 -0.2179E+00E
 Epicentro: LOS SANTOS - SANTANDER                                             3
 ACTION:UP  11-07-14 19:03 OP:ep   STATUS:               ID:20110604090509 L   I
 2011-06-04-0901-47S.COL___132                                                 6
 STAT SP IPHASW D HRMM SECON CODA AMPLIT PERI AZIMU VELO SNR AR TRES W  DIS CAZ7
 BAR2 SZ EP   1    9 5 28.73                             171    -0.1 8   23 201 
 BAR2 SZ ES   1    9 5 43.66                             171    -0.2 8   23 201 
 BAR2 SZ I         9 5 44.99        11.5 0.26                            23 201 
 PAM  SZ EP   1    9 5 31.61                             151     0.2 8   76  36 
 PAM  SN ES   1    9 5 48.65                             151     0.2 8   76  36 
 BRR  HZ EP   1    9 5 30.79                             150     0.1 8   76 298 
 BRR  HN ES   2    9 5 47.44                             150     0.3 5   76 298 
 BRR  HZ I         9 5 52.60         7.0 0.15                            76 298 
 RUS  HZ EP   1    9 5 32.81                             144    -0.1 8   99 178 
 RUS  HN ES   2    9 5 51.29                             144     0.2 5   99 178 
 RUS  HZ I         9 5 52.25         3.3 0.28                            99 178 
 BRI  SZ EP   1    9 5 33.31                             141     0.1 8  109  18 
 BRI  SZ ES   2    9 5 51.53                             141    -0.1 5  109  18 
 GRA  SZ EP   1    9 5 34.53                             136    -0.1 8  126  15 
 GRA  SZ ES   1    9 5 54.14                             136     0.0 8  126  15 
 GRA  SZ I         9 5 56.95         4.1 0.28                           126  15 
 OCA  SZ EP   2    9 5 37.96                             128     0.0 5  163 352 
 OCA  SZ ES        9 5 59.88                             128    -0.110  163 352 
 OCA  SZ I         9 6  3.08         5.6 0.21                           163 352 
 NOR  SN ES   2    9 6 13.42                             118     0.1 4  237 235 
                                                                                
