 2014  8 4 0822  3.4 L   6.279 -73.745 99.6  RSN 12 0.5 1.7LRSN                1
 GAP= 59        1.12       2.5     2.9  6.3 -0.2032E+01  0.4002E+01 -0.3409E+01E
 Epicentro: LANDAZURI - SANTANDER                                              3
 ACTION:UPD 14-09-15 21:46 OP:nd   STATUS:               ID:20140804082203 L   I
 OLDACT:REG 14-08-04 12:36 OP:carl STATUS:               ID:20140804081813     3
 2014-08-04-0818-13M.COL___242                                                 6
 STAT SP IPHASW D HRMM SECON CODA AMPLIT PERI AZIMU VELO AIN AR TRES W  DIS CAZ7
 BAR2 SZ EP        822 20.23                             142    0.1110 71.2  61 
 BAR2 SZ ES        822 33.46                             142    0.2810 71.2  61 
 BAR2 SZ I         822 34.29        32.4 0.32            140           71.2  61 
 SPBC HZ EP        822 20.49                             139    0.0310 78.2 208 
 SPBC HN ES        822 34.25                             139    0.4610 78.2 208 
 SPBC HZ I         822 39.81        11.2 0.18            135           78.2 208 
 PTB  HZ EP        822 20.25                             137   -0.5610 83.8 290 
 PTB  HN ES        822 34.01                             137   -0.4110 83.8 290 
 PTB  HZ I         822 34.61        14.8 0.32            131           83.8 290 
 RUS  HZ EP        822 21.35                             137   -0.2110 84.8 120 
 RUS  HN ES        822 35.59                             137   -0.1610 84.8 120 
 RUS  HZ I         822 36.70         3.6 0.20            135           84.8 120 
 BRR  HZ IP     D  822 21.52                             134    0.0510 91.6   2 
 BRR  HN ES        822 35.70                             134    0.1210 91.6   2 
 BRR  HZ I         822 37.22        13.0 0.12            129           91.6   2 
 NOR  HZ EP        822 26.83                             120   -0.24 9  148 238 
 NOR  HE ES        822 45.24                             120   -0.32 9  148 238 
 NOR  HZ I         822 49.65        13.3 0.16            116            148 238 
 PAM  SZ EP        822 29.40                             117   -0.09 9  165  45 
 PAM  SN ES        822 49.09                             117   -0.76 9  165  45 
 PAM  SZ I         822 51.27         5.2 0.18            114            165  45 
 ZAR  HZ EP        822 31.24                             114    0.44 9  182 318 
 ZAR  HE ES        822 52.76                             114    0.57 9  182 318 
 ZAR  HZ I         822 57.17         9.3 0.24            110            182 318 
 CHI  HN ES        822 53.73                             115    0.53 9  182 180 
 GUY2CHZ EP        822 36.06                             111    1.02 8  214 237 
 GUY2CHN ES        822 58.99                             111   -0.75 8  214 237 
 GUY2CHZ I         823  6.80         2.7 0.40                           214 237 
 OCA  HZ EP        822 35.38                             110   -0.15 8  222  12 
 OCA  HN ES        823  1.25                             110    0.64 8  222  12 
 OCA  HZ I         823  6.86         5.8 0.22            107            222  12 
 SML  HZ EP        822 41.65                             105   -0.68 7  281 353 
 SML  HN ES        823 12.91                             105    0.20 7  281 353 
                                                                                
