 2012  4 4 0850 56.2 L   6.762 -73.157148.8  RSN  5 0.3 1.3LRSN                1
 GAP=150        0.72       8.7     5.0  8.8 -0.1435E+02  0.1599E+02 -0.1180E+02E
 Epicentro: LOS SANTOS - SANTANDER                                             3
 ACTION:UPD 12-07-05 11:50 OP:tino STATUS:               ID:20120404085056 L   I
 2012-04-04-0850-00M.COL___196                                                 6
 STAT SP IPHASW D HRMM SECON CODA AMPLIT PERI AZIMU VELO AIN AR TRES W  DIS CAZ7
 BAR2 SZ EP   1    851 16.30                             172     0.2 7   19 189 
 BAR2 SZ I         851 16.40         4.1 0.24                            19 189 
 BAR2 SZ ES   1    851 31.74                             172     0.1 7   19 189 
 BRR  HZ EP   1    851 18.14                             153     0.4 7   72 302 
 PAM  SZ EP   1    851 19.04                             150     0.1 7   81  38 
 PAM  SZ I         851 19.28         1.4 0.21                            81  38 
 PAM  SN ES   1    851 36.41                             150    -0.3 7   81  38 
 PTB  HZ EP   1    851 22.65                             133    -0.6 7  146 260 
 PTB  HN ES   1    851 44.23                             133    -0.1 7  146 260 
 PTB  HZ I         851 46.06         3.4 0.46                           146 260 
 ZAR  HN ES   1    851 54.51                             123     0.1 6  205 293 
 ZAR  HZ I         852  1.33         2.6 0.48                           205 293 
                                                                                
