 2015  9 4 0252 56.8 L   6.830 -73.180142.4  RSN 11 0.4 1.8LRSN                1
 GAP=131        0.96       2.8     3.8  5.7 -0.1864E+01  0.9156E+01 -0.1280E+01E
 Epicentro: ZAPATOCA - SANTANDER                                               3
 ACTION:UPD 15-10-28 16:23 OP:cam  STATUS:               ID:20150904025256 L   I
 OLDACT:REG 15-09-04 12:31 OP:ak   STATUS:               ID:20150904024746     3
 2015-09-04-0247-46M.COL___352                                                 6
 STAT SP IPHASW D HRMM SECON CODA AMPLIT PERI AZIMU VELO AIN AR TRES W  DIS CAZ7
 BAR2 EZ EP        253 15.97                             169   -0.1310 26.3 181 
 BAR2 EZ ES        253 31.45                             169    0.3010 26.3 181 
 BAR2 EZ I         253 33.62        10.9 0.22            171           26.3 181 
 PAM  EZ EP        253 18.90                             150    0.2310 77.4  43 
 PAM  EN ES        253 36.01                             150    0.3010 77.4  43 
 PAM  EZ I         253 38.05        10.0 0.48            153           77.4  43 
 RUS  HZ EP        253 20.30                             142   -0.2010  104 174 
 RUS  HN ES        253 38.47                             142   -0.5110  104 174 
 RUS  HZ I         253 40.54         5.2 0.24            146            104 174 
 PTB  HZ EP        253 23.29                             132    0.06 9  145 257 
 PTB  HN ES        253 44.11                             132    0.27 9  145 257 
 PTB  HZ I         253 47.71         7.5 0.12            133            145 257 
 OCA  HZ EP        253 24.30                             130   -0.21 9  157 354 
 OCA  HE ES        253 45.51                             130   -0.60 9  157 354 
 OCA  HZ I         253 49.30        15.4 0.36            132            157 354 
 ZAR  HZ EP   1    253 29.49                             122    0.94 6  199 292 
 ZAR  HN ES        253 53.61                             122    0.30 9  199 292 
 ZAR  HZ I         253 59.34         4.6 0.12            124            199 292 
 SML  HZ EP        253 32.62                             117   -0.13 8  239 336 
 SML  HE ES        254  0.96                             117    0.17 8  239 336 
 SML  HZ I         254  4.42         9.1 0.08            119            239 336 
 HEL  HZ EP   1    253 36.47                             114   -0.08 6  269 255 
 HEL  HE ES        254  6.65                             114   -0.89 8  269 255 
 GUY2CHZ EP        253 40.87                             112    0.73 7  300 234 
 GUY2CHE ES        254 13.69                             112   -0.25 7  300 234 
 GUY2CHZ I         254 22.57         2.6 0.38                           300 234 
 PRA  HZ EP        253 50.99                             106    0.65 6  393 209 
 PRA  HN ES        254 32.19                             106    0.09 6  393 209 
 SJC  HZ EP   1    253 50.62                             105   -1.08 4  404 327 
 SJC  HN ES   4    254 31.77                             105   -2.74 0  404 327 
                                                                                
