 2017 11 4 0009 20.8 L   6.799 -73.129144.5  RSN 13 0.5 2.0LRSN                1
 GAP=113        1.06       3.7     3.7  5.7 -0.5114E+00  0.3115E+01  0.5285E+01E
 Epicentro: LOS SANTOS - SANTANDER                                             3
 ACTION:UPD 17-12-12 19:51 OP:rebc STATUS:               ID:20171104000920 L   I
 OLDACT:REG 17-11-04 13:00 OP:dnl  STATUS:               ID:20171103235959     3
 2017-11-04-0000-15M.COL___429                                                 6
 STAT SP IPHASW D HRMM SECON CODA AMPLIT PERI AZIMU VELO AIN AR TRES W  DIS CAZ7
 BAR2 EZ IP     C  0 9 40.22                             170   -0.0310 23.6 194 
 BAR2 EZ ES        0 9 55.18                             170   -0.2710 23.6 194 
 BAR2 EZ I         0 9 56.49        25.9 0.20            167           23.6 194 
 BRR  HZ EP        0 9 42.08                             152    0.2110 72.8 298 
 BRR  HN ES        0 9 58.80                             152    0.4610 72.8 298 
 BRR  HZ I         010  3.21        16.4 0.18            153           72.8 298 
 PAM  EZ IP     D  0 9 43.21                             151    0.4210 76.4  38 
 PAM  EN ES        0 9 59.91                             151   -0.0510 76.4  38 
 PAM  EZ I         010  0.64        14.2 0.20            155           76.4  38 
 RUS  HZ EP        0 9 44.29                             144   -0.0910  100 177 
 RUS  HN ES        010  2.93                             144    0.1410  100 177 
 RUS  HZ I         010  4.62        10.0 0.22            143            100 177 
 PTB  HZ EP        0 9 47.17                             131   -0.62 9  149 259 
 PTB  HE ES        010  7.83                             131   -1.04 9  149 259 
 PTB  HZ I         010 10.09         9.9 0.24            132            149 259 
 SPBC HZ EP        0 9 49.33                             129    0.06 9  164 220 
 SPBC HN ES        010 11.19                             129   -0.31 9  164 220 
 SPBC HZ I         010 16.96        19.8 0.24            129            164 220 
 YPLC HZ IP     C  0 9 50.84                             126    0.47 9  176 152 
 YPLC HE ES   4    010 15.20                             126    1.73 0  176 152 
 YPLC HZ I         010 17.67         6.6 0.30            127            176 152 
 ZAR  HE ES        010 18.93                             122    0.24 8  206 292 
 ZAR  HZ I         010 23.99        17.1 0.22            124            206 292 
 NOR  HZ EP        0 9 56.85                             118    0.28 8  236 235 
 NOR  HN ES        010 25.10                             118    0.60 8  236 235 
 NOR  HZ I         010 27.19        12.2 0.24            119            236 235 
 CHI  HZ EP   2    0 9 58.81                             117    0.38 4  249 196 
 CHI  HN ES        010 27.78                             117   -0.03 8  249 196 
 CHI  HZ I         010 35.48         3.8 0.28            117            249 196 
 URE  HZ EP        010  1.34                             113   -0.63 7  286 292 
 URE  HN ES   4    010 31.29                             113   -2.81 0  286 292 
 URE  HZ I         010 33.35         7.3 0.12            115            286 292 
 GUY2CHZ EP   2    010  4.53                             112    0.05 4  303 235 
 GUY2CHN ES        010 39.40                             112    0.83 7  303 235 
 GUY2CHZ I         010 46.53         4.1 0.50                           303 235 
 PTGC HZ EP        010  3.66                             111   -0.82 7  308 159 
 PTGC HN ES   4    010 37.07                             111   -1.50 0  308 159 
 PTGC HZ I         010 44.88         8.2 0.44            112            308 159 
                                                                                
