 2013 11 4 0606 40.1 L   6.944 -73.344124.3  RSN  9 0.5 1.8LRSN                1
 GAP= 97        1.36       4.4     4.3  7.9 -0.2965E+01  0.5495E+01 -0.8143E+01E
 Epicentro: BETULIA - SANTANDER                                                3
 ACTION:UPD 14-01-09 16:25 OP:ep   STATUS:               ID:20131104060640 L   I
 OLDACT:REG 13-11-04 08:43 OP:stll STATUS:               ID:20131104055848     3
 2013-11-04-0558-48M.COL___214                                                 6
 STAT SP IPHASW D HRMM SECON CODA AMPLIT PERI AZIMU VELO AIN AR TRES W  DIS CAZ7
 BAR2 SZ EP        6 6 58.19                             160    0.3510 42.8 155 
 BAR2 SZ ES        6 7 11.83                             160    0.1910 42.8 155 
 BAR2 SZ I         6 7 12.88        24.0 0.26            158           42.8 155 
 BRR  HZ IP     D  6 6 57.82                             159    0.2610 44.4 294 
 BRR  HZ I         6 6 57.94        59.1 0.14            153           44.4 294 
 BRR  HN ES        6 7 11.78                             159    0.6410 44.4 294 
 PAM  SZ EP        6 7  0.60                             144    0.0510 83.6  58 
 PAM  SN ES        6 7 16.70                             144    0.2310 83.6  58 
 PAM  SZ I         6 7 19.81         6.7 0.66            137           83.6  58 
 RUS  HZ EP        6 7  3.75                             133    0.2810  120 166 
 RUS  HN ES        6 7 21.24                             133   -0.4310  120 166 
 RUS  HZ I         6 7 23.46         5.1 0.26            128            120 166 
 PTB  HZ EP        6 7  3.30                             130   -0.5310  131 250 
 PTB  HN ES        6 7 21.20                             130   -1.1110  131 250 
 PTB  HZ I         6 7 22.57        10.7 0.20            123            131 250 
 OCA  HZ EP        6 7  5.61                             128    0.42 9  143   1 
 OCA  HN ES        6 7 24.00                             128   -0.73 9  143   1 
 OCA  HZ I         6 7 25.26         5.4 0.18            119            143   1 
 CAPV BZ EP        6 7  6.51                             126    0.30 9  153  48 
 CAPV BZ ES        6 7 25.79                             126   -0.75 9  153  48 
 ZAR  HZ EP        6 7  9.19                             121    0.70 9  178 290 
 ZAR  HN ES        6 7 31.07                             121    0.47 9  178 290 
 ZAR  HZ I         6 7 34.78        12.7 0.14            114            178 290 
 SML  HZ EP        6 7 12.57                             115   -0.50 8  220 339 
 SML  HZ I         6 7 43.63         8.5 0.10            108            220 339 
                                                                                
