 2014 11 4 0433  7.5 L   6.803 -73.144144.0  RSN 13 0.5 2.4LRSN                1
 GAP= 71        1.12       3.4     3.3  5.5 -0.3009E+01  0.3972E+01  0.3697E+01E
 Epicentro: LOS SANTOS - SANTANDER                                             3
 ACTION:UPD 14-12-19 15:39 OP:nd   STATUS:               ID:20141104043307 L   I
 OLDACT:DUP 14-11-04 16:55 OP:carl STATUS:               ID:20141104042743d    3
 2014-11-04-0427-42M.COL___271                                                 6
 STAT SP IPHASW D HRMM SECON CODA AMPLIT PERI AZIMU VELO AIN AR TRES W  DIS CAZ7
 BAR2 SZ IP     C  433 26.91                             170   -0.0410 23.7 190 
 BAR2 SZ ES        433 41.66                             170   -0.4410 23.7 190 
 BAR2 SZ I         433 42.89        63.2 0.16            170           23.7 190 
 BRR  HZ IP     C  433 28.78                             152    0.2910 71.3 298 
 BRR  HN ES        433 45.86                             152    1.0210 71.3 298 
 BRR  HZ I         433 47.36        60.8 0.14            151           71.3 298 
 PAM  SZ IP     D  433 29.75                             151    0.2210 77.0  40 
 PAM  SN ES        433 46.79                             151    0.0910 77.0  40 
 PAM  SZ I         433 49.15        53.8 0.66            152           77.0  40 
 RUS  HZ EP        433 30.88                             143   -0.2510  101 176 
 RUS  HN ES        433 49.46                             143   -0.0710  101 176 
 RUS  HZ I         433 50.52        22.8 0.32            145            101 176 
 PTB  HZ EP        433 33.58                             132   -0.80 9  148 259 
 PTB  HE ES        433 55.30                             132   -0.02 9  148 259 
 PTB  HZ I         433 56.92        50.0 0.12            131            148 259 
 TAM  HZ IP     D  433 35.24                             130    0.19 9  155 105 
 TAM  HN ES        433 56.70                             130    0.18 9  155 105 
 TAM  HZ I         433 57.39        14.1 0.42            133            155 105 
 OCA  HZ EP        433 35.51                             129   -0.17 9  160 353 
 OCA  HN ES        433 56.80                             129   -0.83 9  160 353 
 OCA  HZ I         434  4.79        23.7 0.22            130            160 353 
 SPBC HZ EP        433 35.87                             129   -0.06 9  164 219 
 SPBC HN ES        433 58.20                             129    0.12 9  164 219 
 SPBC HZ I         434  3.68        20.6 0.20            129            164 219 
 NOR  HZ EP        433 43.23                             118    0.04 8  235 234 
 NOR  HN ES        434 10.25                             118   -0.76 8  235 234 
 NOR  HZ I         434 16.14        22.6 0.18            118            235 234 
 HEL  HZ EP        433 48.81                             114    1.13 8  272 256 
 HEL  HN ES        434 18.68                             114   -0.32 8  272 256 
 HEL  HZ I         434 26.03        14.4 0.48            115            272 256 
 GUY2CHZ EP        433 51.42                             112    0.32 7  302 235 
 GUY2CHN ES        434 25.78                             112    0.70 7  302 235 
 GUY2CHZ I         434 33.44        12.6 0.50                           302 235 
 MON  HZ EP   4    433 53.68                             108   -2.78 0  354 308 
 MON  HN ES   4    434 33.14                             108   -1.49 0  354 308 
 PRA  HZ EP        434  0.78                             106   -0.25 6  392 210 
 PRA  HN ES        434 42.20                             106   -0.56 6  392 210 
 PRA  HZ I         434 47.95         9.1 0.28            107            392 210 
 ORTC HZ EP        434  1.58                             106    0.15 6  396 216 
 ORTC HN ES        434 43.72                             106    0.25 6  396 216 
 ORTC HZ I         434 49.96         7.3 0.36            107            396 216 
                                                                                
