 2016  4 4 0058  9.6 L   6.813 -73.107147.5  RSN  4 0.3 1.7LRSN                1
 GAP=153        0.76       3.2    10.6  6.4 -0.4177E+01  0.1507E+02 -0.4675E+01E
 Epicentro: LOS SANTOS - SANTANDER                                             3
 ACTION:UPD 16-05-05 14:18 OP:rebc STATUS:               ID:20160404005809 L   I
 OLDACT:UP  16-04-04 19:26 OP:mh   STATUS:               ID:20160404005744     3
 OLDACT:UP  16-04-04 16:13 OP:mh   STATUS:               ID:20160404005744     3
 OLDACT:UP  16-04-04 16:10 OP:mh   STATUS:               ID:20160404005744     3
 OLDACT:UP  16-04-04 16:07 OP:mh   STATUS:               ID:20160404005744     3
 OLDACT:REG 16-04-04 12:25 OP:mh   STATUS:               ID:20160404005744     3
 2016-04-04-0057-44M.COL___316                                                 6
 STAT SP IPHASW D HRMM SECON CODA AMPLIT PERI AZIMU VELO AIN AR TRES W  DIS CAZ7
 BAR2 EZ EP   1    058 30.26                             170    0.78 7 25.8 199 
 BAR2 EZ ES        058 45.06                             170    0.0710 25.8 199 
 BAR2 EZ I         058 45.94        37.5 0.91            172           25.8 199 
 PAM  EZ EP        058 32.07                             152    0.2910 73.6  38 
 PAM  EE ES        058 48.93                             152   -0.1410 73.6  38 
 PAM  EZ I         058 51.52         4.6 0.23            152           73.6  38 
 RUS  HZ EP        058 33.40                             144   -0.2010  102 179 
 RUS  HN ES        058 52.16                             144   -0.1710  102 179 
 RUS  HZ I         058 52.75         3.7 0.38            147            102 179 
 OCA  HZ EP        058 37.62                             130   -0.34 9  159 352 
 OCA  HN ES        059  0.09                             130    0.00 9  159 352 
 OCA  HZ I         059  3.55        10.6 0.11            131            159 352 
                                                                                
