 2012  7 4 0135  9.1 L   6.765 -73.133137.2  RSN  6 0.4 1.5LRSN                1
 GAP=140        1.06       6.3     5.6  9.7  0.5482E+00  0.1208E+02  0.8033E+01E
 Epicentro: LOS SANTOS - SANTANDER                                             3
 ACTION:UPD 12-08-14 11:42 OP:ep   STATUS:               ID:20120704013509 L   I
 2012-07-04-0130-00M.COL___200                                                 6
 STAT SP IPHASW D HRMM SECON CODA AMPLIT PERI AZIMU VELO AIN AR TRES W  DIS CAZ7
 BAR2 SZ EP   1    135 27.86                             171     0.2 7   20 196 
 BAR2 SZ ES   1    135 42.62                             171     0.5 7   20 196 
 BAR2 SZ I         135 43.95         8.7 0.21            168             20 196 
 BRR  HZ EP   1    135 29.92                             150     0.4 7   74 301 
 BRR  HZ I         135 30.38        21.1 0.10            150             74 301 
 BRR  HN ES        135 45.46                             150     0.010   74 301 
 PAM  SZ EP   1    135 30.70                             149     0.2 7   80  37 
 PAM  SZ I         135 31.32         3.8 0.26            152             80  37 
 PAM  SN ES        135 46.78                             149    -0.510   80  37 
 RUS  HZ EP   1    135 31.98                             143     0.3 7   97 177 
 RUS  HN ES   1    135 49.32                             143     0.0 7   97 177 
 RUS  HZ I         135 51.55         3.7 0.24            142             97 177 
 PTB  HZ EP   1    135 34.73                             130    -0.7 7  148 260 
 PTB  HN ES   1    135 55.39                             130    -0.6 7  148 260 
 PTB  HZ I         135 59.83         3.4 0.20            129            148 260 
 ZAR  HN ES   1    136  7.02                             120     0.6 6  207 293 
