 2013 12 4 0745 57.8 L   6.793 -73.147146.9  RSN 12 0.5 2.0LRSN                1
 GAP=137        1.13       2.9     4.4  5.8 -0.1636E+01  0.6500E+01 -0.7020E-03E
 Epicentro: LOS SANTOS - SANTANDER                                             3
 ACTION:UPD 14-01-13 10:15 OP:ep   STATUS:               ID:20131204074557 L   I
 OLDACT:REG 13-12-04 07:47 OP:carl STATUS:               ID:20131204074000     3
 2013-12-04-0740-00M.COL___285                                                 6
 STAT SP IPHASW D HRMM SECON CODA AMPLIT PERI AZIMU VELO AIN AR TRES W  DIS CAZ7
 BAR2 SZ EP     C  746 17.60                             171    0.0010 22.6 190 
 BAR2 SZ ES        746 33.00                             171   -0.0010 22.6 190 
 BAR2 SZ I         746 33.54        34.0 0.28            172           22.6 190 
 BRR  HZ EP     D  746 19.64                             153    0.5110 71.4 299 
 BRR  HN ES        746 36.80                             153    1.0710 71.4 299 
 BRR  HZ I         746 40.92        18.8 0.12            150           71.4 299 
 PAM  SZ EP        746 20.63                             151    0.4110 78.0  39 
 PAM  SE ES        746 37.54                             151   -0.1310 78.0  39 
 PAM  SZ I         746 39.72        18.9 0.60            153           78.0  39 
 RUS  HZ EP        746 21.62                             144   -0.0410 99.9 176 
 RUS  HN ES        746 40.23                             144    0.0010 99.9 176 
 RUS  HZ I         746 41.52        15.4 0.28            148           99.9 176 
 PTB  HZ EP        746 24.36                             132   -0.52 9  147 259 
 PTB  HN ES        746 45.36                             132   -0.60 9  147 259 
 PTB  HZ I         746 48.57         9.4 0.10            132            147 259 
 OCA  HZ EP        746 26.14                             130   -0.17 9  161 353 
 OCA  HN ES        746 47.89                             130   -0.62 9  161 353 
 OCA  HZ I         746 55.21        13.1 0.26            130            161 353 
 SPBC HZ EP        746 26.17                             129   -0.20 9  163 219 
 SPBC HN ES        746 48.26                             129   -0.36 9  163 219 
 SPBC HZ I         746 50.95        12.0 0.32            131            163 219 
 ZAR  HZ EP        746 30.32                             123   -0.06 9  204 292 
 ZAR  HN ES        746 55.54                             123   -0.21 9  204 292 
 ZAR  HZ I         747  1.78         9.1 0.28            123            204 292 
 NOR  HZ EP        746 34.04                             119    0.46 8  234 235 
 NOR  HN ES        747  1.70                             119    0.25 8  234 235 
 NOR  HZ I         747  7.00         7.0 0.30            120            234 235 
 SML  HZ EP        746 34.20                             118   -0.40 8  244 335 
 SML  HE ES        747  3.16                             118   -0.11 8  244 335 
 SML  HZ I         747 10.86        16.2 0.24            118            244 335 
 CHI  HZ EP        746 35.85                             117    0.32 8  248 195 
 CHI  HN ES        747  4.26                             117   -0.66 8  248 195 
 CHI  HZ I         747  6.88         2.9 0.26            120            248 195 
 CBOC HZ EP        746 45.95                             110    1.19 7  333 252 
                                                                                
