 2016 12 4 0827 23.4 L   7.397 -73.174133.6  RSN  4 0.3 0.9LRSN                1
 GAP=267        0.80       9.1     6.9  8.4  0.2838E+02  0.2368E+01 -0.3483E+02E
 Epicentro: EL PLAYON - SANTANDER                                              3
 ACTION:UPD 17-01-11 20:12 OP:rebc STATUS:               ID:20161204082723 L   I
 OLDACT:UP  16-12-04 16:57 OP:dani STATUS:               ID:20161204081745d    3
 OLDACT:DUP 16-12-04 16:55 OP:dani STATUS:               ID:20161204081745d    3
 OLDACT:DUP 16-12-04 16:53 OP:dani STATUS:               ID:20161204081744d    3
 OLDACT:UP  16-12-04 16:52 OP:dani STATUS:               ID:20161204081743     3
 OLDACT:REG 16-12-04 12:56 OP:dani STATUS:               ID:20161204081743     3
 2016-12-04-0818-00M.COL___346                                                 6
 STAT SP IPHASW D HRMM SECON CODA AMPLIT PERI AZIMU VELO AIN AR TRES W  DIS CAZ7
 BRR  HZ EP        827 42.59                             152   -0.4410 67.5 242 
 BRR  HN ES        827 58.40                             152    0.0710 67.5 242 
 BRR  HZ I         827 58.99         1.4 0.08            149           67.5 242 
 BAR2 EZ ES        828  1.57                             144    0.1510 88.9 181 
 PTB  HZ EP        827 51.41                             125   -0.21 9  170 236 
 PTB  HN ES        828 13.64                             125    0.01 9  170 236 
 PTB  HZ I         828 15.10         0.9 0.05            124            170 236 
 ZAR  HZ EP        827 53.87                             122    0.66 9  186 273 
 ZAR  HN ES        828 16.30                             122   -0.16 9  186 273 
 ZAR  HZ I         828 20.73         0.8 0.11            121            186 273 
                                                                                
