 2012  7 4 0156 49.1 L   6.886 -73.288125.5  RSN  7 0.4 1.8LRSN                1
 GAP=162        1.01       4.9     5.6  8.9  0.2509E+01  0.1178E+02 -0.3085E+01E
 Epicentro: BETULIA - SANTANDER                                                3
 ACTION:UPD 12-08-14 11:42 OP:ep   STATUS:               ID:20120704015649 L   I
 2012-07-04-0150-00M.COL___200                                                 6
 STAT SP IPHASW D HRMM SECON CODA AMPLIT PERI AZIMU VELO AIN AR TRES W  DIS CAZ7
 BAR2 SZ EP   1    157  7.07                             164     0.5 7   34 160 
 BAR2 SZ ES   1    157 20.38                             164     0.1 7   34 160 
 BAR2 SZ I         157 21.39        35.7 0.23            169             34 160 
 BRR  HZ EP   1    157  7.37                             156     0.3 7   53 298 
 BRR  HN ES   1    157 21.12                             156     0.1 7   53 298 
 BRR  HZ I         157 22.39        23.4 0.12            152             53 298 
 RUS  HZ EP   1    157 12.21                             136     0.4 7  112 168 
 RUS  HE ES   1    157 29.29                             136    -0.3 7  112 168 
 PTB  HZ EP   1    157 12.41                             130    -0.8 7  135 254 
 PTB  HN ES   1    157 31.33                             130    -0.7 7  135 254 
 PTB  HZ I         157 34.70         5.7 0.13            130            135 254 
 OCA  HZ EP   1    157 14.33                             127    -0.5 7  150 359 
 OCA  HN ES   1    157 34.90                             127     0.0 7  150 359 
 OCA  HZ I         157 38.85        10.1 0.13            127            150 359 
 ZAR  HN ES   1    157 41.58                             120     0.4 7  186 291 
 ZAR  HZ I         157 47.47         5.7 0.18            120            186 291 
 HEL  HZ EP   1    157 27.03                             112     0.1 6  260 253 
 HEL  HE ES   1    157 57.06                             112     0.6 6  260 253 
