 2013  4 4 0035 22.7 L   6.774 -73.177140.0  RSN  8 0.4 1.6LRSN                1
 GAP=177        0.69       3.7     4.7  6.4  0.3307E+01  0.1045E+02  0.6417E+00E
 Epicentro: LOS SANTOS - SANTANDER                                             3
 ACTION:UPD 13-05-22 14:35 OP:EP   STATUS:               ID:20130404003522 L   I
 2013-04-04-0030-00M.COL___245                                                 6
 STAT SP IPHASW D HRMM SECON CODA AMPLIT PERI AZIMU VELO AIN AR TRES W  DIS CAZ7
 BAR2 SZ ES   1    035 56.36                             171    0.05 7 20.1 182 
 BAR2 SZ I         035 58.86        15.8 0.30            172           20.1 182 
 GIR2 SZ EP   1    035 41.74                             166   -0.03 7 33.7 357 
 GIR2 SZ ES   1    035 56.64                             166    0.00 7 33.7 357 
 GIR2 SZ I         035 58.68         6.5 0.34            167           33.7 357 
 BRR  HZ EP   1    035 43.65                             152    0.50 7 69.6 302 
 BRR  HN ES   1    035 59.14                             152    0.05 7 69.6 302 
 BRR  HZ I         036  5.10         7.9 0.28            153           69.6 302 
 RUS  HZ EP   1    035 45.77                             143    0.05 7 98.1 174 
 RUS  HN ES   1    036  3.56                             143   -0.10 7 98.1 174 
 RUS  HZ I         036  5.78         6.5 0.28            148           98.1 174 
 PTB  HZ EP   1    035 48.67                             131   -0.19 7  144 260 
 PTB  HN ES   1    036  8.72                             131   -0.53 7  144 260 
 PTB  HZ I         036 12.41         7.0 0.34            134            144 260 
 ZAR  HN ES   1    036 20.20                             121    0.78 6  202 293 
 NOR  HE ES   1    036 24.85                             118   -0.02 6  230 235 
 SML  HN ES   1    036 26.86                             116   -0.71 6  245 336 
                                                                                
