 2017  5 4 0423 39.1 L   6.802 -73.118150.5  RSN 13 0.5 2.0LRSN                1
 GAP=114        1.05       3.6     3.6  6.0  0.1804E+01  0.7251E+01  0.5127E+01E
 Epicentro: LOS SANTOS - SANTANDER                                             3
 ACTION:UPD 17-06-16 13:32 OP:jn   STATUS:               ID:20170504042339 L   I
 OLDACT:UP  17-05-05 14:35 OP:nlst STATUS:               ID:20170504042339 L   3
 OLDACT:UP  17-05-04 17:06 OP:edw  STATUS:               ID:20170504041738     3
 OLDACT:UP  17-05-04 17:06 OP:edw  STATUS:               ID:20170504041738     3
 OLDACT:UP  17-05-04 17:04 OP:edw  STATUS:               ID:20170504041738     3
 OLDACT:REG 17-05-04 12:59 OP:edw  STATUS:               ID:20170504041738     3
 2017-05-04-0418-00M.COL___371                                                 6
 STAT SP IPHASW D HRMM SECON CODA AMPLIT PERI AZIMU VELO AIN AR TRES W  DIS CAZ7
 BRR  HZ IP     C  424  0.99                             152    0.0610 73.8 297 
 BRR  HE ES        424 18.42                             152    0.4710 73.8 297 
 BRR  HZ I         424 19.96        29.3 0.14            145           73.8 297 
 PAM  EZ EP     C  424  2.12                             152    0.3910 75.3  38 
 PAM  EN ES        424 19.33                             152   -0.0310 75.3  38 
 PAM  EZ I         424 19.93        10.2 0.32            151           75.3  38 
 RUS  HZ EP     C  424  2.83                             145   -0.5210  101 178 
 RUS  HN ES        424 21.59                             145   -0.6510  101 178 
 RUS  HZ I         424 22.58         9.5 0.44            142            101 178 
 PTB  HZ EP   9    424  5.53                             132   -1.23 0  151 259 
 PTB  HN ES        424 26.91                             132   -0.17 9  151 259 
 PTB  HZ I         424 34.31        13.2 0.36            126            151 259 
 SPBC HZ EP     C  424  7.85                             130   -0.34 9  165 220 
 SPBC HN ES   4    424 29.02                             130   -1.83 0  165 220 
 SPBC HZ I         424 34.69        25.0 0.16            125            165 220 
 YPLC HZ IP     C  424  9.13                             128   -0.01 9  176 152 
 YPLC HE ES        424 32.75                             128    0.19 9  176 152 
 YPLC HZ I         424 33.82         6.4 0.28            125            176 152 
 ZAR  HZ EP        424 12.36                             123    0.19 8  207 292 
 ZAR  HN ES        424 37.62                             123   -0.32 8  207 292 
 ZAR  HZ I         424 44.10        19.0 0.48            118            207 292 
 NOR  HZ EP        424 15.18                             119   -0.23 8  237 235 
 NOR  HE ES        424 43.36                             119   -0.35 8  237 235 
 NOR  HZ I         424 47.74        10.4 0.20            115            237 235 
 CHI  HE ES   4    424 48.56                             118    1.67 0  250 196 
 ROSC BZ EP   4    424 19.26                             117    1.56 0  255 212 
 ROSC BE ES        424 49.06                             117    1.28 8  255 212 
 ROSC BZ I         424 53.10        10.0 0.40            113            255 212 
 HEL  HZ EP        424 20.61                             115    0.70 8  275 256 
 HEL  HZ I         424 58.51         6.6 0.22            111            275 256 
 PTGC HZ EP   4    424 21.83                             112   -1.26 0  308 159 
 PTGC HE ES   4    424 54.83                             112   -2.56 0  308 159 
 ELA  HE ES   4    425  5.02                             111    1.64 0  332 230 
 CBOC HZ EP        424 26.92                             110    0.34 7  337 252 
 CBOC HE ES        425  3.03                             110   -0.56 7  337 252 
 CBOC HZ I         425  9.86         2.3 0.40            107            337 252 
 DBB  EZ EP        424 26.32                             110   -0.83 7  343 274 
 DBB  EN ES        425  4.58                             110   -0.02 7  343 274 
 DBB  EZ I         425 12.10         2.9 0.14            106            343 274 
 ANIL HE ES   4    425 12.15                             109    3.57 0  360 225 
 ORTC HZ EP        424 33.58                             107    0.14 6  397 217 
 ORTC HE ES        425 16.17                             107    0.37 6  397 217 
                                                                                
