 2014  8 4 0403 13.3 L   6.782 -73.169142.7  RSN  6 0.5 1.3LRSN                1
 GAP=234        1.19       5.9     7.4  8.7  0.9368E+01  0.9895E+01  0.1053E+02E
 Epicentro: LOS SANTOS - SANTANDER                                             3
 ACTION:UPD 14-09-15 21:46 OP:nd   STATUS:               ID:20140804040313 L   I
 OLDACT:DUP 14-08-04 14:00 OP:carl STATUS:               ID:20140804035806d    3
 2014-08-04-0358-05M.COL___245                                                 6
 STAT SP IPHASW D HRMM SECON CODA AMPLIT PERI AZIMU VELO AIN AR TRES W  DIS CAZ7
 BAR2 SZ EP        4 3 32.50                             171   -0.0210 21.1 184 
 BAR2 SZ ES        4 3 46.69                             171   -0.8210 21.1 184 
 BAR2 SZ I         4 3 51.06         3.2 0.60            168           21.1 184 
 BRR  HZ EP        4 3 34.20                             152    0.1510 69.9 301 
 BRR  HN ES        4 3 51.12                             152    0.8910 69.9 301 
 BRR  HZ I         4 3 51.68         4.7 0.32            154           69.9 301 
 RUS  HZ EP        4 3 36.79                             144    0.1610 98.9 174 
 RUS  HN ES        4 3 54.99                             144    0.1710 98.9 174 
 RUS  HZ I         4 3 57.37         2.1 0.36            144           98.9 174 
 PTB  HZ EP        4 3 39.10                             132   -0.66 9  145 259 
 PTB  HN ES        4 4  0.13                             132   -0.26 9  145 259 
 PTB  HZ I         4 4  1.61         3.3 0.20            133            145 259 
 SPBC HZ EP        4 3 41.31                             129    0.04 9  160 219 
 SPBC HN ES        4 4  2.96                             129   -0.12 9  160 219 
 SPBC HZ I         4 4 10.42         2.3 0.30            130            160 219 
 CHI  HN ES        4 4 20.15                             117    0.54 8  246 195 
                                                                                
