 2017  2 4 0233 55.2 L   6.776 -73.153143.6  RSN  7 0.3 1.6LRSN                1
 GAP= 98        0.74       3.2     3.5  4.9 -0.1966E+01 -0.2174E+01  0.4248E+01E
 Epicentro: LOS SANTOS - SANTANDER                                             3
 ACTION:UPD 17-05-24 15:32 OP:jn   STATUS:               ID:20170204023355 L   I
 OLDACT:DUP 17-02-04 14:11 OP:dnl  STATUS:               ID:20170204022746d    3
 OLDACT:DUP 17-02-04 14:04 OP:dnl  STATUS:               ID:20170204022745d    3
 OLDACT:UP  17-02-04 14:03 OP:dnl  STATUS:               ID:20170204022744     3
 OLDACT:UP  17-02-04 14:02 OP:dnl  STATUS:               ID:20170204022744     3
 OLDACT:REG 17-02-04 12:29 OP:dnl  STATUS:               ID:20170204022744     3
 2017-02-04-0228-00M.COL___346                                                 6
 STAT SP IPHASW D HRMM SECON CODA AMPLIT PERI AZIMU VELO AIN AR TRES W  DIS CAZ7
 BAR2 EZ EP        234 14.37                             171   -0.1110 20.6 189 
 BAR2 EZ ES        234 29.20                             171   -0.3410 20.6 189 
 BAR2 EZ I         234 31.03         8.0 0.18            171           20.6 189 
 BRR  HZ EP        234 16.12                             152    0.0110 71.8 301 
 BRR  HN ES        234 33.13                             152    0.6810 71.8 301 
 BRR  HZ I         234 36.94        11.3 0.46            152           71.8 301 
 PAM  EZ EP     C  234 17.38                             150    0.0810 79.9  39 
 PAM  EN ES        234 34.34                             150   -0.2210 79.9  39 
 PAM  EZ I         234 36.50        14.7 0.54            152           79.9  39 
 RUS  HZ EP   2    234 18.21                             144   -0.30 5 98.0 175 
 RUS  HN ES        234 36.87                             144    0.1410 98.0 175 
 RUS  HZ I         234 38.18         5.5 0.36            145           98.0 175 
 PTB  HZ EP   2    234 21.38                             132   -0.46 5  147 260 
 PTB  HE ES        234 42.24                             132   -0.40 9  147 260 
 PTB  HZ I         234 44.06         3.8 0.16            133            147 260 
 TAM  HZ EP     D  234 22.77                             130    0.09 9  155 104 
 CHI  HZ EP        234 32.61                             117    0.17 8  246 195 
 CHI  HE ES        235  1.67                             117    0.15 8  246 195 
 CHI  HZ I         235  5.34         3.0 0.38            118            246 195 
 SJC  HZ EP   4    234 48.61                             105   -2.25 0  411 327 
                                                                                
