 2011 11 4 0153  5.3 L   6.794 -73.103144.0  RSN  4 0.3 1.4LRSN                1
 GAP=142        0.63       5.6     6.8  7.6  0.8216E+01 -0.1545E+02  0.5014E+01E
 Epicentro: LOS SANTOS - SANTANDER                                             3
 ACTION:UPD 12-07-13 16:07 OP:ep   STATUS:               ID:20111104015305 L   I
 2011-11-04-0149-32S.COL___175                                                 6
 STAT SP IPHASW D HRMM SECON CODA AMPLIT PERI AZIMU VELO AIN AR TRES W  DIS CAZ7
 BAR2 SZ EP        153 24.52                             170   -0.2010 23.9 201 
 BAR2 SZ I         153 24.97         5.0 0.05                          23.9 201 
 BAR2 SZ ES   2    153 39.18                             170   -0.70 5 23.9 201 
 PAM  SZ EP   1    153 27.28                             151    0.10 7 75.0  36 
 PAM  SN ES   2    153 44.48                             151    0.23 5 75.0  36 
 BRR  HZ EP        153 26.26                             151   -0.2510 75.7 297 
 BRR  HZ I         153 26.65         7.8 0.13                          75.7 297 
 BRR  HE ES        153 43.31                             151    0.2510 75.7 297 
 RUS  HZ EP   1    153 29.20                             144    0.40 7 99.7 179 
 RUS  HE ES   2    153 47.34                             144    0.20 5 99.7 179 
 RUS  HZ I         153 48.92         2.4 0.26                          99.7 179 
                                                                                
