 2010 10 4 0414 51.3 L   6.801 -73.127140.0  RSN 11 0.3 1.9LRSN                1
 GAP=161        0.69       2.6     5.0  5.0 -0.4615E+01  0.2799E+01  0.8159E+00E
 Epicentro: LOS SANTOS - SANTANDER                                             3
 ACTION:UP  11-02-18 11:07 OP:tino STATUS:               ID:20101004041451 L   I
 2010-10-04-0411-51S.COL___122                                                 6
 STAT SP IPHASW D HRMM SECON CODA AMPLIT PERI AZIMU VELO SNR AR TRES W  DIS CAZ7
 BAR2 SZ EP   2    415  9.85                             170    -0.4 5   24 195 
 BAR2 SZ ES   1    415 24.52                             170    -0.5 8   24 195 
 BAR2 SZ I         415 26.38        17.4 0.18                            24 195 
 BRR  HZ EP   1    415 12.24                             151     0.3 8   73 298 
 BRR  HZ I         415 15.89        20.5 0.08                            73 298 
 BRR  HE ES   1    415 28.40                             151     0.4 8   73 298 
 RUS  HZ EP        415 14.38                             143    -0.110  101 177 
 RUS  HE ES   1    415 32.70                             143     0.2 7  101 177 
 RUS  HZ I         415 34.20        12.1 0.35                           101 177 
 GUE  SZ EP   1    415 15.41                             138     0.0 7  116  11 
 GUE  SZ I         415 17.04         4.4 0.08                           116  11 
 GRA  SZ IP        415 16.41                             136     0.510  125  17 
 GRA  SZ ES   1    415 35.33                             136     0.1 7  125  17 
 GRA  SZ I         415 36.51        20.6 0.25                           125  17 
 OCA  SZ IP        415 18.94                             128    -0.2 9  160 352 
 OCA  SZ ES   1    415 40.37                             128    -0.5 7  160 352 
 OCA  SZ I         415 44.13        16.7 0.46                           160 352 
 NOR  SZ EP   2    415 26.79                             117    -0.1 4  237 235 
 NOR  SN ES   2    415 55.08                             117     0.4 4  237 235 
 CHI  HZ EP   1    415 28.71                             116     0.0 6  249 196 
 CHI  HE ES   2    415 58.20                             116     0.3 4  249 196 
 CHI  HZ I         416  4.18         2.3 0.23                           249 196 
 HEL  HZ EP   2    415 31.50                             113     0.1 4  274 256 
 HEL  HN ES   2    416  2.37                             113    -0.4 4  274 256 
 HEL  HZ I         416  9.10         4.9 0.47                           274 256 
 RREF HZ EP   2    415 37.20                             110    -0.2 3  323 230 
 RREF HN ES   2    416 12.93                             110    -0.4 3  323 230 
 RREF HZ I         416 23.35         4.4 0.37                           323 230 
 PRA  HZ EP   1    415 44.10                             105    -0.6 4  393 210 
 PRA  HE ES   1    416 26.76                             105     0.3 4  393 210 
                                                                                
