 2013  8 4 0642 35.3 L   6.805 -73.129150.0  RSN  6 0.4 1.5LRSN                1
 GAP=207        0.90       6.0     6.7  8.1  0.5375E+01  0.1325E+02  0.3854E+01E
 Epicentro: LOS SANTOS - SANTANDER                                             3
 ACTION:UPD 14-01-14 08:58 OP:ep   STATUS:               ID:20130804064235 L   I
 OLDACT:REG 13-08-04 07:46 OP:carl STATUS:               ID:20130804063959     3
 2013-08-04-0639-59M.COL___268                                                 6
 STAT SP IPHASW D HRMM SECON CODA AMPLIT PERI AZIMU VELO AIN AR TRES W  DIS CAZ7
 BAR2 SZ EP   2    642 55.71                             170    0.22 5 24.3 194 
 BAR2 SZ ES        643 10.82                             170   -0.3910 24.3 194 
 GIR2 SZ EP   1    642 55.34                             168   -0.16 7 31.1 347 
 GIR2 SZ I         643 19.16         4.5 0.48            150           31.1 347 
 BRR  HZ EP   1    642 57.32                             153    0.31 7 72.6 297 
 BRR  HN ES   1    643 14.61                             153    0.68 7 72.6 297 
 BRR  HN I         643 15.23         7.6 0.22            145           72.6 297 
 PTB  HZ EP   1    643  2.47                             132   -0.35 7  150 259 
 PTB  HN ES   1    643 23.41                             132   -0.85 7  150 259 
 PTB  HZ I         643 29.43         2.1 0.28            127            150 259 
 SPBC HZ EP        643  4.29                             130   -0.02 9  165 219 
 SPBC HN ES        643 27.39                             130    0.48 9  165 219 
 SPBC HZ I         643 31.43         2.6 0.20            124            165 219 
 ZAR  HE ES        643 33.94                             123    0.08 8  206 292 
 ZAR  HE I         643 41.93         7.0 0.16            113            206 292 
                                                                                
