 2017  2 4 0237  0.6 L   6.772 -73.150150.2  RSN  5 0.3 1.3LRSN                1
 GAP=137        0.84       5.0     4.8  6.9 -0.1839E+01  0.9345E+01  0.3331E+00E
 Epicentro: LOS SANTOS - SANTANDER                                             3
 ACTION:UPD 17-05-24 15:32 OP:jn   STATUS:               ID:20170204023700 L   I
 OLDACT:DUP 17-02-04 14:16 OP:dnl  STATUS:               ID:20170204022747d    3
 OLDACT:UP  17-02-04 14:03 OP:dnl  STATUS:               ID:20170204022744     3
 OLDACT:UP  17-02-04 14:02 OP:dnl  STATUS:               ID:20170204022744     3
 OLDACT:REG 17-02-04 12:29 OP:dnl  STATUS:               ID:20170204022744     3
 2017-02-04-0228-00M.COL___346                                                 6
 STAT SP IPHASW D HRMM SECON CODA AMPLIT PERI AZIMU VELO AIN AR TRES W  DIS CAZ7
 BAR2 EZ EP        237 20.77                             172    0.0210 20.2 190 
 BAR2 EZ ES        237 36.02                             172   -0.4210 20.2 190 
 BAR2 EZ I         237 37.23         6.9 0.72            175           20.2 190 
 BRR  HZ EP        237 22.47                             153    0.1310 72.3 301 
 BRR  HN ES        237 39.88                             153    0.6210 72.3 301 
 BRR  HZ I         237 44.96         5.2 0.35            152           72.3 301 
 PAM  EZ EP   2    237 23.97                             151    0.47 5 80.1  38 
 PAM  EN ES        237 41.01                             151   -0.3110 80.1  38 
 PAM  EZ I         237 45.45         2.1 0.46            151           80.1  38 
 RUS  HZ EP   2    237 24.90                             146    0.28 5 97.5 176 
 RUS  HN ES        237 43.56                             146    0.2310 97.5 176 
 RUS  HZ I         237 44.26         2.4 0.36            151           97.5 176 
 PTB  HZ EP        237 27.50                             133   -0.39 9  147 260 
 PTB  HE ES        237 49.00                             133   -0.14 9  147 260 
 PTB  HZ I         237 51.13         3.4 0.20            136            147 260 
                                                                                
