 2012 12 4 0105  3.7 L   5.906 -73.618117.9  RSN  7 0.2 1.8LRSN                1
 GAP=119        0.44       2.1     2.4  4.4 -0.5448E+00  0.3367E+01  0.1558E+01E
 Epicentro: BARBOSA - SANTANDER                                                3
 ACTION:UPD 13-01-04 14:25 OP:ep   STATUS:               ID:20121204010503 L   I
 2012-12-04-0100-00M.COL___236                                                 6
 STAT SP IPHASW D HRMM SECON CODA AMPLIT PERI AZIMU VELO AIN AR TRES W  DIS CAZ7
 RUS  HZ EP   1    1 5 21.81                             152   -0.05 8 59.3  91 
 RUS  HN ES   1    1 5 36.19                             152    0.15 8 59.3  91 
 RUS  HZ I         1 5 37.42         7.2 0.40                          59.3  91 
 BAR2 SZ EP   2    1 5 23.73                             140    0.13 5 89.9  32 
 BAR2 SZ ES   1    1 5 39.27                             140    0.14 8 89.9  32 
 BAR2 SZ I         1 5 41.50        33.1 0.24                          89.9  32 
 PTB  HZ EP   1    1 5 25.60                             132    0.08 8  116 307 
 PTB  HN ES   1    1 5 42.54                             132   -0.01 8  116 307 
 PTB  HZ I         1 5 49.15         6.3 0.14                           116 307 
 GIR2 SZ EP     D  1 5 27.71                             127   -0.0210  138  20 
 GIR2 SZ ES   1    1 5 45.95                             127   -0.54 7  138  20 
 GIR2 SZ I         1 5 48.14         9.1 0.52                           138  20 
 PAM  SZ EP   1    1 5 33.72                             118    0.34 7  188  33 
 PAM  SN ES   2    1 5 56.30                             118   -0.24 5  188  33 
 ZAR  HN ES   1    1 6  2.33                             113    0.16 7  223 322 
 PRA  HZ EP   1    1 5 43.15                             108   -0.02 6  280 210 
 PRA  HE ES   1    1 6 13.72                             108   -0.25 6  280 210 
 PRA  HZ I         1 6 17.91         4.4 0.28                           280 210 
                                                                                
