 2011 12 4 0131 29.4 L   6.770 -73.096147.1  RSN  6 0.3 1.7LRSN                1
 GAP=144        0.53       3.5     4.5  4.9 -0.2721E+01  0.2911E+00  0.5739E+00E
 Epicentro: LOS SANTOS - SANTANDER                                             3
 ACTION:UPD 12-07-13 16:14 OP:ep   STATUS:               ID:20111204013129 L   I
 2011-12-04-0130-00M.COL___183                                                 6
 STAT SP IPHASW D HRMM SECON CODA AMPLIT PERI AZIMU VELO AIN AR TRES W  DIS CAZ7
 BAR2 SZ IP        131 49.12                             171   -0.0710 21.9 206 
 BAR2 SZ ES   1    132  4.40                             171   -0.20 7 21.9 206 
 BAR2 SZ I         132  7.03        11.5 0.22                          21.9 206 
 GIR2 SZ EP   2    131 48.88                             166   -0.50 5 35.8 342 
 GIR2 SZ ES   2    132  4.55                             166   -0.40 5 35.8 342 
 PAM  SZ EP        131 51.98                             151    0.2410 76.7  35 
 PAM  SN ES   1    132  9.02                             151   -0.12 7 76.7  35 
 BRR  HZ IP     C  131 50.98                             151   -0.1110 77.6 299 
 BRR  HN ES   1    132  8.43                             151    0.45 7 77.6 299 
 BRR  HZ I         132 10.65        19.0 0.14                          77.6 299 
 RUS  HZ EP   1    131 53.09                             145    0.03 7 97.1 179 
 RUS  HN ES   1    132 11.70                             145    0.21 7 97.1 179 
 RUS  HZ I         132 12.81         5.0 0.36                          97.1 179 
 NOR  SN ES   2    132 33.36                             118   -0.31 4  237 236 
                                                                                
