 2016 11 4 0511 14.3 L   6.788 -73.114151.7  RSN  5 0.3 1.1LRSN                1
 GAP=240        0.74       4.5     5.3  6.7  0.1142E+02 -0.1636E+01 -0.9601E+00E
 Epicentro: LOS SANTOS - SANTANDER                                             3
 ACTION:UPD 17-10-26 21:04 OP:lp   STATUS:               ID:20161104051114 L   I
 OLDACT:UP  16-11-04 15:27 OP:dani STATUS:               ID:20161104050744     3
 OLDACT:UP  16-11-04 15:26 OP:dani STATUS:               ID:20161104050744     3
 OLDACT:UP  16-11-04 15:26 OP:dani STATUS:               ID:20161104050744     3
 OLDACT:UP  16-11-04 15:26 OP:dani STATUS:               ID:20161104050744     3
 OLDACT:REG 16-11-04 13:02 OP:dani STATUS:               ID:20161104050744     3
 2016-11-04-0508-00M.COL___349                                                 6
 STAT SP IPHASW D HRMM SECON CODA AMPLIT PERI AZIMU VELO AIN AR TRES W  DIS CAZ7
 BRR  HZ EP        511 36.23                             152   -0.0710 75.0 298 
 BRR  HN ES        511 53.38                             152   -0.0810 75.0 298 
 BRR  HZ I         511 58.64         2.7 0.23            154           75.0 298 
 RUS  HZ EP        511 39.00                             145    0.4710 99.0 178 
 RUS  HN ES        511 57.29                             145   -0.1410 99.0 178 
 RUS  HZ I         511 57.91         1.0 0.38            150           99.0 178 
 PTB  HZ EP        511 41.54                             133   -0.51 9  151 260 
 PTB  HN ES        512  4.09                             133    0.40 9  151 260 
 SPBC HZ EP        511 43.39                             130    0.02 9  164 220 
 SPBC HN ES        512  5.85                             130   -0.20 9  164 220 
 SPBC HZ I         512  8.03         2.6 0.19            134            164 220 
 ZAR  HE ES        512 13.53                             123    0.09 8  208 292 
                                                                                
