 2015  9 4 0729  4.1 L   6.781 -73.106148.1  RSN  8 0.4 1.5LRSN                1
 GAP=240        0.60       4.7     5.9  5.4  0.8159E+01  0.7777E+01  0.6486E+01E
 Epicentro: LOS SANTOS - SANTANDER                                             3
 ACTION:UPD 15-10-28 16:24 OP:cam  STATUS:               ID:20150904072904 L   I
 OLDACT:REG 15-09-04 12:58 OP:ak   STATUS:               ID:20150904072747     3
 2015-09-04-0727-47M.COL___349                                                 6
 STAT SP IPHASW D HRMM SECON CODA AMPLIT PERI AZIMU VELO AIN AR TRES W  DIS CAZ7
 BAR2 EZ EP        729 23.93                             171   -0.0210 22.5 202 
 BAR2 EZ ES        729 39.30                             171   -0.1610 22.5 202 
 BAR2 EZ I         729 39.80         5.2 0.28            162           22.5 202 
 BRR  HZ EP        729 25.77                             151    0.0410 76.0 298 
 BRR  HN ES        729 42.92                             151    0.2810 76.0 298 
 BRR  HZ I         729 44.46         4.9 0.24            147           76.0 298 
 RUS  HZ EP   2    729 27.88                             145    0.00 5 98.3 179 
 RUS  HN ES   2    729 46.71                             145    0.26 5 98.3 179 
 RUS  HZ I         729 48.28         2.6 0.34            142           98.3 179 
 PTB  HZ EP   2    729 30.80                             132   -0.77 5  152 260 
 PTB  HN ES   4    729 51.37                             132   -1.65 0  152 260 
 PTB  HZ I         729 58.78         3.5 0.14            128            152 260 
 SPBC HZ EP   2    729 33.14                             129    0.29 5  164 221 
 SPBC HN ES   2    729 54.47                             129   -0.83 5  164 221 
 ZAR  HE ES   2    730  2.46                             122   -0.50 4  209 292 
 GUY2CHZ EP   4    729 49.45                             113    1.41 0  304 236 
 GUY2CHN ES   2    730 22.74                             113    0.39 4  304 236 
 GUY2CHZ I         730 30.19         2.9 0.52                           304 236 
 PTGC HE ES   4    730 56.07                             112   34.47 0  305 159 
 PRA  HZ EP   2    729 57.92                             107    0.22 3  392 210 
 PRA  HE ES   2    730 40.67                             107    1.13 3  392 210 
 PRA  HZ I         730 46.36         1.5 0.22            107            392 210 
                                                                                
