 2012  7 4 0238 46.7 L   6.752 -73.492115.2  RSN  4 0.3 1.3LRSN                1
 GAP=149        0.62       5.2     4.6  6.8  0.1152E+02  0.7769E+01  0.1420E+02E
 Epicentro: EL CARMEN DE CHUCURI - SANTANDER                                   3
 ACTION:UP  12-08-14 11:42 OP:ep   STATUS:               ID:20120704023846 L   I
 2012-07-04-0237-50M.COL___208                                                 6
 STAT SP IPHASW D HRMM SECON CODA AMPLIT PERI AZIMU VELO AIN AR TRES W  DIS CAZ7
 BAR2 SZ EP   1    239  2.58                             160    -0.6 7   38 117 
 BAR2 SZ I         239  3.54         4.8 0.14            160             38 117 
 BAR2 SZ ES   1    239 15.90                             160    -0.1 7   38 117 
 BRR  HZ EP   1    239  3.43                             157     0.3 7   46 328 
 BRR  HZ I         239  3.68         8.3 0.11            156             46 328 
 BRR  HN ES        239 16.04                             157     0.110   46 328 
 RUS  HZ EP   1    239  8.26                             135     0.3 7  105 155 
 RUS  HE ES   1    239 24.64                             135     0.1 7  105 155 
 PTB  HZ EP   1    239  7.48                             133    -0.2 7  109 258 
 PTB  HE ES   1    239 23.97                             133     0.0 7  109 258 
