 2010  6 4 0209 44.6 L   6.859 -73.357122.1  RSN  5 0.2 1.7LRSN                1
 GAP=215        0.44       3.8    15.8  6.9 -0.1593E+02  0.4721E+02 -0.1521E+02E
 Epicentro: SAN VICENTE DE CHUCURI - SANTANDER                                 3
 ACTION:UP  10-08-24 10:08 OP:vdl  STATUS:               ID:20100604020944 L   I
 2010-06-04-0206-35S.COL___109                                                 6
 STAT SP IPHASW D HRMM SECON CODA AMPLIT PERI AZIMU VELO SNR AR TRES W  DIS CAZ7
 GIR2 SZ EP   1    210  1.48                             165     0.1 7   30  37 
 BAR2 SZ IP        210  1.85                             163     0.110   35 147 
 BAR2 SZ ES   1    210 14.96                             163    -0.1 7   35 147 
 GUE  SZ EP   1    210  6.91                             133    -0.4 7  118  24 
 GUE  SZ ES   2    210 25.30                             133     0.3 5  118  24 
 GRA  SZ EP   2    210  8.26                             130     0.2 5  129  28 
 OCA  SZ EP   1    210 10.40                             125     0.0 7  153   2 
 OCA  SZ ES   2    210 30.44                             125    -0.1 5  153   2 
 OCA  SZ I         210 35.83         7.0 0.52                           153   2 
                                                                                
