 2017 12 4 0344 41.8 L   6.782 -73.131136.0  RSN  6 0.5 1.4LRSN                1
 GAP=184        1.11       4.3     5.8  9.6 -0.7630E-01  0.1053E+02 -0.1340E+02E
 Epicentro: LOS SANTOS - SANTANDER                                             3
 ACTION:UPD 18-01-04 13:16 OP:rebc STATUS:               ID:20171204034441 L   I
 OLDACT:UP  17-12-04 16:32 OP:leo  STATUS:               ID:20171204033743     3
 OLDACT:REG 17-12-04 13:34 OP:leo  STATUS:               ID:20171204033743     3
 2017-12-04-0338-00M.COL___489                                                 6
 STAT SP IPHASW D HRMM SECON CODA AMPLIT PERI AZIMU VELO AIN AR TRES W  DIS CAZ7
 BAR2 EZ EP        345  0.40                             170    0.2210 21.8 195 
 BAR2 EZ ES        345 15.03                             170    0.4710 21.8 195 
 BAR2 EZ I         345 15.90         7.2 0.38            170           21.8 195 
 RUS  HZ EP        345  4.57                             142    0.1610 98.5 177 
 RUS  HZ ES        345 21.70                             142   -0.3810 98.5 177 
 PTB  HZ EP        345  7.39                             129   -0.67 9  149 260 
 PTB  HE ES        345 28.72                             129    0.14 9  149 260 
 PTB  HZ I         345 30.31         3.0 0.18            129            149 260 
 OCA  HZ EP        345 10.13                             127    0.59 9  162 353 
 OCA  HN ES        345 30.40                             127   -0.80 9  162 353 
 SPBC HN ES        345 30.91                             127   -0.19 9  163 220 
 ZAR  HZ EP   3    345 14.91                             120    1.09 2  206 292 
 ZAR  HN ES        345 39.22                             120    0.39 8  206 292 
 ZAR  HZ I         345 48.10         2.4 0.22            119            206 292 
                                                                                
