 2010  1 4 0338 20.2 L   6.767 -73.097151.0  RSN  9 0.4 2.4LRSN                1
 GAP=188        0.94       5.5     8.8  7.3 -0.5611E+01  0.3048E+02  0.4537E+01E
 Epicentro: LOS SANTOS - SANTANDER                                             3
 ACTION:UP  10-08-24 09:42 OP:vdl  STATUS:               ID:20100104033820 L   I
 2010-01-04-0320-00S.COL___096                                                 6
 STAT SP IPHASW D HRMM SECON CODA AMPLIT PERI AZIMU VELO SNR AR TRES W  DIS CAZ7
 BAR2 SZ IP        338 40.24                             172    -0.210   22 206 
 BAR2 SZ ES   1    338 55.92                             172    -0.3 7   22 206 
 GIR2 SZ EP        338 41.47                             166     0.810   36 343 
 GIR2 SZ ES   1    338 56.77                             166     0.2 7   36 343 
 RUS  BZ EP        338 44.13                             146    -0.110   97 179 
 RUS  BN ES   2    339  2.37                             146    -0.6 5   97 179 
 RUS  BZ I         339  4.18        20.3 0.21                            97 179 
 OCA  SZ EP        338 48.89                             130    -0.4 9  165 351 
 OCA  SZ I         339 16.50        77.1 0.25                           165 351 
 CHI  HZ EP        338 58.10                             118     0.1 8  247 197 
 CHI  HZ I         339 33.61        11.4 0.46                           247 197 
 HEL  HZ EP        339  1.52                             115     0.3 7  276 257 
 HEL  HN ES   2    339 32.88                             115    -0.2 4  276 257 
 HEL  HZ I         339 40.81        10.9 0.30                           276 257 
 RREF BZ EP   2    339  7.18                             112     0.4 3  324 230 
 RREF BE ES   2    339 43.42                             112     0.3 3  324 230 
 RREF BZ I         339 48.72        18.6 0.28                           324 230 
 DBB  SZ EP        339  7.96                             110    -0.6 7  345 275 
 PRA  HZ EP        339 13.67                             107    -0.2 6  392 211 
 PRA  HN ES   2    339 56.08                             107     0.4 3  392 211 
                                                                                
