 2010 10 4 0447 20.4 L   6.832 -72.931140.6  RSN  6 0.4 1.6LRSN                1
 GAP=205        0.72       3.3    10.8  9.1  0.6533E+01 -0.2572E+02  0.3272E+00E
 Epicentro: CEPITA - SANTANDER                                                 3
 ACTION:UP  11-02-18 11:07 OP:tino STATUS:               ID:20101004044720 L   I
 2010-10-04-0443-18S.COL___122                                                 6
 STAT SP IPHASW D HRMM SECON CODA AMPLIT PERI AZIMU VELO SNR AR TRES W  DIS CAZ7
 BAR2 SZ EP   2    447 39.41                             165    -0.4 5   39 227 
 BAR2 SZ I         447 56.71        10.7 0.67                            39 227 
 BRR  HZ IP     C  447 41.94                             146    -0.310   92 289 
 BRR  HE ES   1    447 59.42                             146     0.1 7   92 289 
 BRR  HZ I         448  1.58         6.7 0.16                            92 289 
 RUS  HZ EP   1    447 43.95                             142     0.0 7  105 189 
 RUS  HE ES   1    448  2.64                             142     0.3 7  105 189 
 OCA  SZ EP   1    447 48.96                             129     0.6 7  161 345 
 OCA  SZ ES        448 10.30                             129     0.0 9  161 345 
 OCA  SZ I         448 22.81         5.0 0.37                           161 345 
 CHI  HZ EP   2    447 58.12                             115    -0.8 4  259 200 
 CHI  HN ES   2    448 29.63                             115     0.6 4  259 200 
 CHI  HZ I         448 33.50         1.9 0.33                           259 200 
 RREF HZ EP   2    448  8.69                             109     0.0 3  342 232 
 RREF HE ES   3    448 46.98                             109     0.6 2  342 232 
 RREF HZ I         448 52.05         2.7 0.25                           342 232 
                                                                                
