 2012 12 4 0745 27.0 L   6.787 -73.165149.5  RSN  5 0.3 1.2LRSN                1
 GAP=199        0.56       4.9     5.6 10.8  0.1345E+02 -0.1620E+02 -0.3393E+02E
 Epicentro: LOS SANTOS - SANTANDER                                             3
 ACTION:UPD 13-01-04 14:25 OP:ep   STATUS:               ID:20121204074527 L   I
 2012-12-04-0740-00M.COL___236                                                 6
 STAT SP IPHASW D HRMM SECON CODA AMPLIT PERI AZIMU VELO AIN AR TRES W  DIS CAZ7
 BAR2 SZ EP   2    745 46.90                             171   -0.18 5 21.7 185 
 RUS  HZ EP   1    745 51.56                             145    0.50 7 99.4 175 
 RUS  HN ES   1    746  9.62                             145   -0.19 7 99.4 175 
 RUS  HZ I         746 10.73         1.1 0.28                          99.4 175 
 PTB  HZ EP   1    745 53.84                             133   -0.25 7  145 259 
 PTB  HN ES   1    746 15.07                             133   -0.13 7  145 259 
 PTB  HZ I         746 22.58         2.1 0.46                           145 259 
 ZAR  HN ES   2    746 25.58                             123    0.63 4  203 293 
 ZAR  HZ I         746 32.05         1.8 0.26                           203 293 
 SML  HZ EP   1    746  3.65                             118   -0.25 6  244 336 
 SML  HN ES   1    746 32.75                             118    0.08 6  244 336 
 SML  HZ I         746 35.61         1.8 0.10                           244 336 
                                                                                
