 2012 10 4 0307 40.3 L   6.778 -73.157143.6  RSN  7 0.3 2.5LRSN                1
 GAP=105        0.53       4.7     3.2  5.8  0.7147E+01 -0.1464E+01 -0.1337E+01E
 Epicentro: LOS SANTOS - SANTANDER                                             3
 ACTION:UPD 12-11-22 17:01 OP:ep   STATUS:               ID:20121004030740 L   I
 2012-10-04-0300-00M.COL___220                                                 6
 STAT SP IPHASW D HRMM SECON CODA AMPLIT PERI AZIMU VELO AIN AR TRES W  DIS CAZ7
 BAR2 SZ EP   1    3 7 59.61                             171   -0.03 8 20.7 188 
 BAR2 SZ ES   2    3 8 14.12                             171   -0.59 5 20.7 188 
 GIR2 SZ EP   1    3 7 59.61                             166   -0.19 8 33.5 353 
 BRR  HZ EP   1    3 8  1.39                             152    0.15 8 71.3 301 
 BRR  HN ES   2    3 8 18.46                             152    0.90 5 71.3 301 
 BRR  HN I         3 8 19.04       142.0 0.17                          71.3 301 
 BRR  HZ I         3 8 19.11        35.0 0.11                          71.3 301 
 PAM  SZ EP   1    3 8  2.53                             149    0.06 8 80.1  39 
 PAM  SN ES   2    3 8 19.52                             149   -0.23 5 80.1  39 
 PAM  SN I         3 8 20.69        34.2 0.45                          80.1  39 
 RUS  HZ EP   1    3 8  3.71                             144    0.02 8 98.2 175 
 RUS  HN ES   2    3 8 21.98                             144    0.06 5 98.2 175 
 TAM  HZ EP        3 8  8.05                             130    0.1710  156 104 
 ZAR  HZ EP   1    3 8 12.29                             122   -0.31 7  204 293 
 ZAR  HN ES        3 8 37.68                             122   -0.10 9  204 293 
 ZAR  HN I         3 8 43.65        26.1 0.26                           204 293 
                                                                                
