 2017 10 4 0249 21.4 L   6.853 -73.303114.0  RSN  4 0.2 1.4LRSN                1
 GAP=223        0.48       3.5     3.4  9.6  0.5340E+01  0.3226E+01 -0.1273E+02E
 Epicentro: ZAPATOCA - SANTANDER                                               3
 ACTION:UPD 17-11-07 19:28 OP:rebc STATUS:               ID:20171004024921 L   I
 OLDACT:REG 17-10-04 12:42 OP:dnl  STATUS:               ID:20171004024739     3
 2017-10-04-0248-00M.COL___447                                                 6
 STAT SP IPHASW D HRMM SECON CODA AMPLIT PERI AZIMU VELO AIN AR TRES W  DIS CAZ7
 BAR2 EZ EP        249 37.65                             164    0.1210 31.8 155 
 BAR2 EZ I         249 51.79        12.8 0.34            166           31.8 155 
 RUS  HZ EP        249 42.68                             134   -0.2710  109 167 
 RUS  HN ES        249 59.81                             134    0.0810  109 167 
 RUS  HZ I         250  1.32         1.6 0.26            143            109 167 
 SPBC HZ EP   2    249 47.76                             122    0.61 5  158 213 
 SPBC HN ES        250  7.16                             122   -0.05 9  158 213 
 SPBC HZ I         250  8.89         5.3 0.12            132            158 213 
 ZAR  HZ EP   2    249 49.98                             118   -0.05 4  186 292 
 ZAR  HN ES        250 12.30                             118   -0.02 9  186 292 
 ZAR  HZ I         250 17.25         4.3 0.42            121            186 292 
                                                                                
