 2011  8 4 0302 51.4 L   6.758 -73.094142.6  RSN  5 0.2 1.6LRSN                1
 GAP=145        0.39       3.0     4.5  4.3  0.1732E+01 -0.2580E+01 -0.2821E+01E
 Epicentro: LOS SANTOS - SANTANDER                                             3
 ACTION:UPD 12-07-25 14:05 OP:epov STATUS:               ID:20110804030251 L   I
 2011-08-04-0301-53S.COL___139                                                 6
 STAT SP IPHASW D HRMM SECON CODA AMPLIT PERI AZIMU VELO AIN AR TRES W  DIS CAZ7
 BAR2 SZ EP   1    3 3 10.69                             171    0.06 7 20.8 208 
 BAR2 SZ ES   1    3 3 25.45                             171   -0.15 7 20.8 208 
 BAR2 SZ I         3 3 27.46         9.0 0.47                          20.8 208 
 PAM  SZ EP   1    3 3 13.47                             150    0.14 7 77.7  34 
 PAM  SN ES   2    3 3 30.24                             150   -0.16 5 77.7  34 
 BRR  HZ EP        3 3 12.50                             150   -0.1710 78.4 300 
 BRR  HN ES   1    3 3 29.36                             150    0.13 7 78.4 300 
 BRR  HZ I         3 3 32.31         7.8 0.27                          78.4 300 
 RUS  HZ EP   2    3 3 14.27                             145   -0.25 5 95.7 179 
 RUS  HN ES   2    3 3 32.95                             145    0.42 5 95.7 179 
 RUS  HZ I         3 3 34.51         3.9 0.21                          95.7 179 
 OCA  SZ EP   2    3 3 20.24                             128    0.23 5  166 351 
 OCA  SZ ES   2    3 3 42.42                             128    0.12 5  166 351 
 OCA  SZ I         3 3 45.32         6.4 0.23                           166 351 
                                                                                
