 2012  3 4 0525 20.7 L   6.809 -73.253113.3  RSN  4 0.4 1.1LRSN                1
 GAP=219        0.75       7.9     9.2 11.2  0.3006E+02  0.3339E+02 -0.1797E+02E
 ACTION:UP  12-03-31 23:16 OP:EP   STATUS:               ID:20120304052520 L   I
 2012-03-04-0520-00M.COL___191                                                 6
 STAT SP IPHASW D HRMM SECON CODA AMPLIT PERI AZIMU VELO SNR AR TRES W  DIS CAZ7
 BAR2 SZ EP   1    525 36.11                             167    -0.4 7   25 162 
 BAR2 SZ I         525 36.57         3.9 0.07                            25 162 
 BAR2 SZ ES   1    525 48.72                             167    -0.1 7   25 162 
 BRR  HZ EP        525 37.92                             150     0.210   60 303 
 BRR  HZ I         525 38.38         4.1 0.39                            60 303 
 RUS  HZ EP   2    525 40.94                             135    -0.7 5  103 169 
 RUS  HE ES   1    525 58.28                             135     0.3 7  103 169 
 PTB  HZ EP   2    525 44.58                             126     0.5 5  136 257 
 PTB  HN ES   2    526  1.78                             126    -0.5 5  136 257 
                                                                                
