 2011 11 4 0842 39.5 L   6.051 -73.739108.6  RSN  5 0.1 1.3LRSN                1
 GAP=131        0.29       2.4     4.0  6.0  0.2957E+01  0.1941E+02  0.5877E+01E
 Epicentro: BOLIVAR - SANTANDER                                                3
 ACTION:UPD 12-07-13 16:08 OP:ep   STATUS:               ID:20111104084239 L   I
 2011-11-04-0839-07S.COL___175                                                 6
 STAT SP IPHASW D HRMM SECON CODA AMPLIT PERI AZIMU VELO AIN AR TRES W  DIS CAZ7
 RUS  HZ EP        842 57.85                             143    0.0810 74.7 104 
 RUS  HE ES   1    843 11.93                             143   -0.06 7 74.7 104 
 BAR2 SZ EP        842 58.26                             139   -0.0110 85.8  46 
 BAR2 SZ I         842 58.56         6.1 0.10                          85.8  46 
 BAR2 SZ ES        843 12.84                             139   -0.0310 85.8  46 
 BRR  HZ EP   2    843  0.53                             129   -0.14 5  117   1 
 BRR  HE ES   2    843 17.27                             129    0.13 5  117   1 
 HEL  HZ EP   2    843  9.78                             114    0.05 4  199 275 
 HEL  HZ I         843 36.63         2.6 0.53                           199 275 
 RREF HZ EP   2    843 12.25                             111   -0.10 4  219 235 
 RREF HZ I         843 42.24         1.4 0.26                           219 235 
                                                                                
