 2013  8 4 0502 36.7 L   6.812 -73.138143.1  RSN 17 0.5 2.5LRSN 3.1WRSN        1
 SPEC AVERAGE  MO 13.7 ST 28.7 OM  2.5 f0 6.66 R0.3591 AL 0.00 WI  7.0 MW  3.1 3
 SPEC SD       MO  0.4 ST 26.9 OM  0.6 f0 3.29 R0.2811 AL      WI      MW  0.3 3
 GAP= 71        0.94       2.4     3.0  4.8 -0.1392E+01  0.3730E+01  0.5825E+00E
 Epicentro: LOS SANTOS - SANTANDER                                             3
 SPEC ZAR HH N MO 13.8 ST 72.5 OM  2.0 f0 10.0 R0.1554 AL 0.00 WI 11.5 MW  3.1 3
 SPEC ZAR HH N T 5 334 K 0.000 GD  249 VS 4.20 DE 3.20 Q0300.0 QA 0.60 VS 4.20 3
 SPEC RUS HH N MO 13.3 ST0.896 OM  1.7 f0 3.27 R0.4752 AL 0.00 WI  6.5 MW  2.8 3
 SPEC RUS HH N T 5 317 K 0.000 GD  175 VS 4.20 DE 3.20 Q0300.0 QA 0.60 VS 4.20 3
 SPEC OCA HH N MO 14.2 ST 41.9 OM  2.5 f0 5.97 R0.2603 AL 0.00 WI  4.8 MW  3.4 3
 SPEC OCA HH N T 5 326 K 0.000 GD  213 VS 4.20 DE 3.20 Q0300.0 QA 0.60 VS 4.20 3
 SPEC PAM SH N MO 14.0 ST0.542 OM  2.4 f0 1.66 R0.9361 AL 0.00 WI  7.4 MW  3.3 3
 SPEC PAM SH N T 5 315 K 0.000 GD  161 VS 4.20 DE 3.20 Q0300.0 QA 0.60 VS 4.20 3
 SPEC BRR HH N MO 13.6 ST 46.6 OM  2.0 f0 10.0 R0.1554 AL 0.00 WI  6.4 MW  3.0 3
 SPEC BRR HH N T 5 314 K 0.000 GD  159 VS 4.20 DE 3.20 Q0300.0 QA 0.60 VS 4.20 3
 SPEC BAR2SH Z MO 13.1 ST  9.8 OM  1.5 f0 9.03 R0.1721 AL 0.00 WI  5.5 MW  2.6 3
 SPEC BAR2SH Z T 5 3 9 K 0.000 GD  145 VS 4.20 DE 3.20 Q0300.0 QA 0.60 VS 4.20 3
 ACTION:UPD 14-01-14 08:58 OP:ep   STATUS:               ID:20130804050236 L   I
 OLDACT:UP  13-08-04 11:10 OP:carl STATUS:               ID:20130804045959     3
 OLDACT:REG 13-08-04 07:43 OP:carl STATUS:               ID:20130804045959     3
 2013-08-04-0459-59M.COL___269                                                 6
 STAT SP IPHASW D HRMM SECON CODA AMPLIT PERI AZIMU VELO AIN AR TRES W  DIS CAZ7
 BAR2 SZ IP     C  5 2 56.02                             170    0.0110 24.8 191 
 BAR2 SZ ES   1    5 3 10.44                             170   -0.66 7 24.8 191 
 BAR2 SZ I         5 3 11.80        70.6 0.18            170           24.8 191 
 GIR2 SZ EP        5 2 56.15                             168    0.1610 30.2 348 
 GIR2 SZ ES   1    5 3 10.87                             168   -0.20 7 30.2 348 
 GIR2 SZ I         5 3 13.09        84.7 0.46            166           30.2 348 
 BRR  HZ IP     C  5 2 57.96                             152    0.4210 71.4 297 
 BRR  HN ES   1    5 3 14.69                             152    0.87 7 71.4 297 
 BRR  HN I         5 3 15.09       242.6 0.24            150           71.4 297 
 PAM  SZ IP     C  5 2 59.05                             151    0.5410 75.8  40 
 PAM  SE ES        5 3 15.89                             151    0.3510 75.8  40 
 PAM  SZ I         5 3 18.19        84.5 0.60            152           75.8  40 
 RUS  HZ EP   1    5 3  0.39                             143    0.14 7  102 177 
 RUS  HE ES   1    5 3 18.48                             143   -0.16 7  102 177 
 RUS  HZ I         5 3 19.62        27.2 0.28            144            102 177 
 PTB  HZ EP        5 3  2.97                             131   -0.55 9  149 258 
 PTB  HN ES   1    5 3 23.75                             131   -0.72 7  149 258 
 PTB  HZ I         5 3 26.52        54.2 0.12            131            149 258 
 TAM  HZ IP     D  5 3  4.38                             130    0.29 9  155 106 
 TAM  HZ I         5 3  4.44        61.2 0.20            132            155 106 
 TAM  HE ES   1    5 3 25.07                             130   -0.41 7  155 106 
 OCA  HZ EP   1    5 3  4.45                             129   -0.21 7  159 353 
 OCA  HN ES   1    5 3 26.37                             129   -0.12 7  159 353 
 OCA  HZ I         5 3 30.30        69.8 0.54            129            159 353 
 SPBC HZ EP   1    5 3  5.00                             128   -0.11 7  165 219 
 SPBC HE ES        5 3 27.47                             128    0.17 9  165 219 
 SPBC HZ I         5 3 31.90        26.5 0.28            128            165 219 
 ZAR  HZ IP     C  5 3  9.23                             122    0.26 9  204 292 
 ZAR  HN ES   1    5 3 34.37                             122    0.20 6  204 292 
 ZAR  HZ I         5 3 40.96        44.6 0.34            122            204 292 
 NOR  HZ EP   1    5 3 12.37                             118   -0.03 6  236 234 
 NOR  HE ES   1    5 3 40.72                             118    0.45 6  236 234 
 NOR  HZ I         5 3 43.13        19.4 0.24            118            236 234 
 SML  HZ EP   1    5 3 12.55                             117   -0.51 6  243 335 
 SML  HN ES        5 3 41.21                             117   -0.23 8  243 335 
 SML  HZ I         5 3 44.04        46.2 0.26            117            243 335 
 CHI  HZ EP   1    5 3 13.62                             116   -0.76 6  250 195 
 CHI  HN ES   1    5 3 42.99                             116   -0.81 6  250 195 
 CHI  HZ I         5 3 49.75         5.4 0.28            117            250 195 
 HEL  HZ EP   1    5 3 17.72                             114    0.84 6  273 256 
 HEL  HN ES        5 3 47.67                             114   -0.57 8  273 256 
 HEL  HZ I         5 3 50.22        10.3 0.22            114            273 256 
 URE  HZ EP   4    5 3 16.61                             113   -1.04 0  284 292 
 URE  HN ES   4    5 3 48.43                             113   -1.18 0  284 292 
 GUY2CHZ EP   1    5 3 21.05                             112    0.73 5  303 235 
 GUY2CHE ES        5 3 54.79                             112    0.42 7  303 235 
 GUY2CHZ I         5 4  1.43        13.7 0.28                           303 235 
 COD  HZ EP   1    5 3 24.39                             109   -0.41 5  347 354 
 COD  HN ES        5 4  1.40                             109   -0.94 6  347 354 
 COD  HZ I         5 4 10.99         3.5 0.56            109            347 354 
 PRA  HZ EP        5 3 30.57                             106    0.29 6  394 210 
 PRA  HN ES        5 4 11.66                             106   -0.44 6  394 210 
 PRA  HZ I         5 4 17.91        10.3 0.30            106            394 210 
                                                                                
