 2013  3 4 0131 34.3 L   6.798 -73.161158.0  RSN  7 0.5 1.3LRSN                1
 GAP=135        0.98       4.0     5.4  8.4  0.1081E+00  0.9562E+01  0.9726E+00E
 Epicentro: LOS SANTOS - SANTANDER                                             3
 *BRR-RUS-PTB                                                                  3
 ACTION:UPD 13-04-09 13:59 OP:ep   STATUS:               ID:20130304013134 L   I
 2013-03-04-0130-00M.COL___228                                                 6
 STAT SP IPHASW D HRMM SECON CODA AMPLIT PERI AZIMU VELO AIN AR TRES W  DIS CAZ7
 BRR  HZ EP        131 57.34                             155    0.6110 69.8 299 
 BRR  HN ES        132 14.34                             155    0.1310 69.8 299 
 BRR  HZ I         132 15.14         3.7 0.15            154           69.8 299 
 PAM  SZ EP   2    131 58.03                             152    0.11 5 78.6  40 
 PAM  SN ES        132 15.85                             152   -0.4810 78.6  40 
 PAM  SZ I         132 16.20         2.3 0.32            154           78.6  40 
 RUS  HZ EP        131 59.56                             146    0.2710  101 175 
 RUS  HN ES        132 18.78                             146    0.0110  101 175 
 RUS  HZ I         132 18.83         2.3 0.42            147            101 175 
 PTB  HZ EP        132  1.61                             135   -0.55 9  146 259 
 PTB  HN ES        132 23.57                             135   -0.31 9  146 259 
 PTB  HZ I         132 25.33         3.8 0.42            135            146 259 
 OCA  HN ES        132 26.84                             132    0.39 9  160 354 
 ZAR  HN ES   2    132 34.27                             125    1.00 4  203 292 
 SML  HZ EP   2    132 10.78                             120   -0.82 4  243 336 
 SML  HE ES   1    132 40.14                             120   -0.54 6  243 336 
                                                                                
