 2013  1 4 0146 13.7 L   7.161 -73.134152.8  RSN  8 0.6 2.1LRSN                1
 GAP=187        1.38       5.0     8.0  9.1  0.1307E+02  0.9135E+01 -0.2628E+01E
 Epicentro: BUCARAMANGA - SANTANDER                                            3
 ACTION:UPD 13-02-15 09:12 OP:ep   STATUS:               ID:20130104014613 L   I
 2013-01-04-0139-37M.COL___208                                                 6
 STAT SP IPHASW D HRMM SECON CODA AMPLIT PERI AZIMU VELO AIN AR TRES W  DIS CAZ7
 BAR2 SZ EP        146 35.89                             156    0.3810 63.1 185 
 BAR2 SZ ES        146 52.00                             156   -0.5510 63.1 185 
 BAR2 SZ I         146 55.32        33.7 0.42            160           63.1 185 
 BRR  HZ EP        146 35.68                             156    0.4710 64.1 265 
 BRR  HN ES        146 52.57                             156    0.5510 64.1 265 
 BRR  HN I         146 54.18        26.5 0.18            157           64.1 265 
 OCA  HN ES        146 59.07                             139    0.0310  121 350 
 OCA  HN I         147  4.24        27.7 0.18            141            121 350 
 RUS  HZ EP        146 41.45                             135    0.23 9  140 178 
 RUS  HN ES        147  1.96                             135   -0.76 9  140 178 
 RUS  HN I         147  4.20         9.5 0.28            139            140 178 
 PTB  HZ EP        146 42.85                             131    0.40 9  161 245 
 PTB  HZ I         146 43.39        11.1 0.22            133            161 245 
 PTB  HN ES        147  4.53                             131   -0.38 9  161 245 
 ZAR  HZ EP        146 46.27                             125    0.72 9  194 281 
 ZAR  HN ES        147 10.40                             125   -0.02 9  194 281 
 ZAR  HN I         147 15.63        15.7 0.24            127            194 281 
 CHI  HN ES        147 28.82                             114   -0.23 7  288 193 
 SJC  HN EP        147  5.50                             108   -0.24 6  377 323 
 SJC  HN I         147  5.61         2.1 0.22            110            377 323 
 SJC  HN ES        147 44.36                             108   -1.99 6  377 323 
                                                                                
