 2013 12 4 0645 10.5 L   6.785 -73.324131.6  RSN  7 0.5 1.7LRSN                1
 GAP=144        1.28       4.4     5.8  9.3  0.2388E+01  0.4260E+01 -0.7362E+01E
 Epicentro: ZAPATOCA - SANTANDER                                               3
 ACTION:UPD 14-01-13 10:15 OP:ep   STATUS:               ID:20131204064510 L   I
 OLDACT:REG 13-12-04 07:45 OP:carl STATUS:               ID:20131204064000     3
 2013-12-04-0640-00M.COL___285                                                 6
 STAT SP IPHASW D HRMM SECON CODA AMPLIT PERI AZIMU VELO AIN AR TRES W  DIS CAZ7
 BAR2 SZ EP        645 29.06                             168    0.5810 26.5 144 
 BAR2 SZ ES        645 42.57                             168    0.0410 26.5 144 
 BAR2 SZ I         645 43.30        15.5 0.26            171           26.5 144 
 BRR  HZ EP        645 29.79                             156    0.5410 55.7 310 
 BRR  HN ES        645 44.16                             156    0.2710 55.7 310 
 BRR  HZ I         645 44.69         6.8 0.10            154           55.7 310 
 RUS  HZ EP        645 33.21                             140    0.2210  102 165 
 RUS  HN ES        645 50.12                             140   -0.4310  102 165 
 RUS  HZ I         645 52.29         3.7 0.28            142            102 165 
 PTB  HZ EP        645 34.01                             133   -0.5010  128 258 
 PTB  HE ES        645 52.42                             133   -0.8410  128 258 
 PTB  HZ I         645 56.63         6.2 0.16            133            128 258 
 SPBC HE ES        645 57.28                             128    0.19 9  150 214 
 OCA  HZ EP        645 37.46                             126   -0.31 9  161   0 
 OCA  HN ES        645 58.47                             126   -0.59 9  161   0 
 OCA  HZ I         646  3.80         7.0 0.30            126            161   0 
 ZAR  HN ES        646  4.18                             122    0.79 9  187 295 
 ZAR  HN I         646  7.90        12.7 0.46            121            187 295 
                                                                                
