 2012  5 4 0401  5.0 L   6.732 -73.173145.6  RSN  6 0.3 1.5LRSN                1
 GAP=136        0.72       5.2     4.7  9.0  0.5370E+01  0.1251E+02  0.9653E+01E
 Epicentro: VILLANUEVA - SANTANDER                                             3
 ACTION:UP  12-07-05 12:02 OP:pat  STATUS:               ID:20120504040105 L   I
 2012-05-04-0400-00M.COL___189                                                 6
 STAT SP IPHASW D HRMM SECON CODA AMPLIT PERI AZIMU VELO SNR AR TRES W  DIS CAZ7
 BAR2 SZ EP   1    4 1 24.54                             174     0.1 7   16 184 
 BRR  HZ EP   1    4 1 26.61                             152     0.4 7   73 305 
 BRR  HZ I         4 1 27.42         7.3 0.11                            73 305 
 BRR  HE ES   1    4 1 42.97                             152     0.2 7   73 305 
 PAM  SN ES   1    4 1 44.98                             148    -0.4 7   85  38 
 RUS  HZ EP   1    4 1 28.25                             146     0.0 7   93 174 
 RUS  HZ I         4 1 29.46         4.5 0.17                            93 174 
 RUS  HN ES   1    4 1 46.48                             146     0.2 7   93 174 
 PTB  HZ EP   1    4 1 31.13                             133    -0.4 7  144 262 
 PTB  HN ES   1    4 1 51.86                             133    -0.4 7  144 262 
 PTB  HZ I         4 1 53.31         3.0 0.11                           144 262 
 ZAR  HN ES   1    4 2  2.98                             122     0.2 6  204 294 
 ZAR  HZ I         4 2  8.69         4.3 0.28                           204 294 
                                                                                
