 2012  9 4 0251  5.5 L   6.810 -73.142149.3  RSN  4 0.2 1.4LRSN                1
 GAP=239        0.42       4.4     4.5  5.0  0.9916E+01 -0.2996E+01 -0.3357E+01E
 Epicentro: LOS SANTOS - SANTANDER                                             3
 ACTION:UPD 12-10-22 14:17 OP:ep   STATUS:               ID:20120904025105 L   I
 2012-09-04-0249-59M.COL___220                                                 6
 STAT SP IPHASW D HRMM SECON CODA AMPLIT PERI AZIMU VELO AIN AR TRES W  DIS CAZ7
 BAR2 SZ EP   1    251 25.38                             170   -0.23 7 24.5 190 
 BAR2 SZ I         251 25.73         5.9 0.32                          24.5 190 
 BAR2 SZ ES   1    251 41.09                             170   -0.18 7 24.5 190 
 BRR  HZ EP        251 27.18                             153    0.1210 71.0 298 
 BRR  HZ I         251 27.58         4.8 0.10                          71.0 298 
 BRR  HN ES   1    251 43.96                             153    0.12 7 71.0 298 
 RUS  HZ EP   1    251 29.67                             144   -0.04 7  102 176 
 RUS  HZ I         251 30.25         1.8 0.12                           102 176 
 RUS  HN ES   1    251 48.80                             144    0.23 7  102 176 
 PTB  HN ES   1    251 54.02                             133   -0.13 7  148 258 
 PTB  HN I         251 56.20         4.1 0.20                           148 258 
                                                                                
