 2011 11 4 0912 19.4 L   6.750 -73.131141.6  RSN 10 0.4 2.8LRSN                1
 GAP=117        0.74       2.9     4.0  4.6  0.2300E+00  0.2190E+01  0.8109E+00E
 Epicentro: LOS SANTOS - SANTANDER                                             3
 ACTION:UPD 12-07-13 16:08 OP:ep   STATUS:               ID:20111104091219 L   I
 2011-11-04-0910-45S.COL___175                                                 6
 STAT SP IPHASW D HRMM SECON CODA AMPLIT PERI AZIMU VELO AIN AR TRES W  DIS CAZ7
 BAR2 SZ EP        912 38.67                             172    0.2310 18.3 198 
 BAR2 SZ ES        912 53.09                             172   -0.2010 18.3 198 
 BAR2 SZ I         912 54.49       160.3 0.34                          18.3 198 
 BRR  HZ EP   2    912 40.60                             150    0.25 5 75.4 302 
 BRR  HZ I         912 41.06       103.0 0.23                          75.4 302 
 BRR  HN ES        912 57.31                             150    0.6210 75.4 302 
 PAM  SZ IP     D  912 41.63                             149    0.2410 80.8  36 
 PAM  SN ES        912 58.28                             149   -0.2610 80.8  36 
 RUS  HZ EP        912 42.52                             145    0.1710 94.9 177 
 RUS  HE ES        912 60.00                             145   -0.2310 94.9 177 
 RUS  HZ I         913  2.10        51.6 0.34                          94.9 177 
 OCA  SZ EP        912 47.25                             128   -0.70 9  166 353 
 OCA  SZ ES   2    913 10.08                             128   -0.12 5  166 353 
 OCA  SZ I         913 14.51       130.7 0.19                           166 353 
 YOP  SZ EP   1    912 49.10                             126    0.50 7  173 153 
 YOP  SE ES   2    913 10.86                             126   -0.50 4  173 153 
 YOP  SZ I         913 13.67        25.1 0.35                           173 153 
 ZAR  HZ EP   2    912 51.88                             121   -0.08 4  208 293 
 ZAR  HN ES   2    913 17.18                             121   -0.17 4  208 293 
 ZAR  HZ I         913 23.50        94.3 0.35                           208 293 
 NOR  SE ES   2    913 22.03                             118   -0.19 4  233 236 
 HEL  HZ EP   2    912 59.36                             114   -0.08 4  272 257 
 HEL  HN ES   2    913 29.99                             114   -0.67 4  272 257 
 HEL  HZ I         913 37.02        24.5 0.37                           272 257 
 PRA  HZ EP   1    913 12.37                             106    0.05 4  388 210 
 PRA  HN ES   2    913 53.78                             106    0.19 3  388 210 
 PRA  HZ I         913 57.49        54.4 0.29                           388 210 
                                                                                
