 2017  4 4 0746  1.8 L   6.694 -73.179144.0  RSN  6 0.5 1.2LRSN                1
 GAP=225        0.68       7.4     4.9  6.7  0.1465E+02  0.7473E+01 -0.9696E+01E
 Epicentro: VILLANUEVA - SANTANDER                                             3
 ACTION:UPD 17-05-30 21:08 OP:jn   STATUS:               ID:20170404074601 L   I
 OLDACT:UP  17-04-04 16:11 OP:and  STATUS:               ID:20170404073750d    3
 OLDACT:UP  17-04-04 16:11 OP:and  STATUS:               ID:20170404073750d    3
 OLDACT:UP  17-04-04 16:10 OP:and  STATUS:               ID:20170404073750d    3
 OLDACT:UP  17-04-04 16:10 OP:and  STATUS:               ID:20170404073750d    3
 OLDACT:UP  17-04-04 16:10 OP:and  STATUS:               ID:20170404073750d    3
 OLDACT:UP  17-04-04 16:10 OP:and  STATUS:               ID:20170404073750d    3
 OLDACT:UP  17-04-04 16:09 OP:and  STATUS:               ID:20170404073750d    3
 OLDACT:DUP 17-04-04 16:07 OP:and  STATUS:               ID:20170404073750d    3
 OLDACT:UP  17-04-04 16:07 OP:and  STATUS:               ID:20170404073749     3
 OLDACT:UP  17-04-04 16:06 OP:and  STATUS:               ID:20170404073749     3
 OLDACT:UP  17-04-04 16:06 OP:and  STATUS:               ID:20170404073749     3
 OLDACT:UP  17-04-04 16:05 OP:and  STATUS:               ID:20170404073749     3
 OLDACT:UP  17-04-04 16:05 OP:and  STATUS:               ID:20170404073749     3
 OLDACT:UP  17-04-04 16:04 OP:and  STATUS:               ID:20170404073749     3
 OLDACT:UP  17-04-04 16:04 OP:and  STATUS:               ID:20170404073749     3
 OLDACT:UP  17-04-04 16:03 OP:and  STATUS:               ID:20170404073749     3
 OLDACT:UP  17-04-04 15:55 OP:and  STATUS:               ID:20170404073749     3
 OLDACT:UP  17-04-04 15:55 OP:and  STATUS:               ID:20170404073749     3
 OLDACT:UP  17-04-04 15:51 OP:and  STATUS:               ID:20170404073749     3
 OLDACT:UP  17-04-04 15:49 OP:and  STATUS:               ID:20170404073749     3
 OLDACT:UP  17-04-04 15:48 OP:and  STATUS:               ID:20170404073749     3
 OLDACT:UP  17-04-04 15:41 OP:and  STATUS:               ID:20170404073749     3
 OLDACT:REG 17-04-04 12:33 OP:and  STATUS:               ID:20170404073749     3
 2017-04-04-0738-00M.COL___359                                                 6
 STAT SP IPHASW D HRMM SECON CODA AMPLIT PERI AZIMU VELO AIN AR TRES W  DIS CAZ7
 BAR2 EZ EP        746 20.90                             175   -0.1410 11.2 182 
 BAR2 EZ ES        746 36.10                             175    0.0610 11.2 182 
 BRR  HZ EP        746 23.05                             151    0.0910 74.6 308 
 BRR  HN ES   2    746 39.97                             151    0.51 5 74.6 308 
 RUS  HZ EP   3    746 25.60                             147    1.01 2 89.2 173 
 RUS  HN ES   2    746 41.85                             147   -0.51 5 89.2 173 
 RUS  HZ I         746 45.69         1.4 0.26            136           89.2 173 
 PTB  HZ EP        746 28.00                             133   -0.13 9  142 263 
 PTB  HN ES        746 48.95                             133    0.28 9  142 263 
 PTB  HZ I         746 51.65         2.1 0.11            125            142 263 
 SPBC HN ES   4    746 53.08                             131    2.69 0  152 221 
 SPBC HZ I         747  0.44         2.0 0.14            122            152 221 
 ZAR  HZ EP   3    746 36.18                             122    1.90 2  205 296 
 ZAR  HN ES        746 59.19                             122   -0.42 8  205 296 
 ZAR  HZ I         747  5.44         2.6 0.28            119            205 296 
                                                                                
