 2016  5 4 0549 33.4 L   6.800 -73.110150.4  RSN 19 0.4 2.1LRSN                1
 GAP=122        0.95       2.6     3.0  4.5 -0.4373E+00  0.4017E+01  0.2193E+01E
 Epicentro: LOS SANTOS - SANTANDER                                             3
 ACTION:UPD 16-08-18 17:41 OP:cam  STATUS:               ID:20160504054933 L   I
 OLDACT:UP  16-05-04 14:24 OP:edw  STATUS:               ID:20160504054746     3
 OLDACT:REG 16-05-04 12:49 OP:edw  STATUS:               ID:20160504054746     3
 2016-05-04-0547-46M.COL___295                                                 6
 STAT SP IPHASW D HRMM SECON CODA AMPLIT PERI AZIMU VELO AIN AR TRES W  DIS CAZ7
 BAR2 EZ EP        549 53.65                             170    0.0710 24.4 199 
 BAR2 EZ ES        550  8.97                             170   -0.3710 24.4 199 
 BAR2 EZ I         550 12.84        24.4 0.32            168           24.4 199 
 BRR  HZ IP     C  549 55.47                             152    0.2510 74.7 297 
 BRR  HE ES        550 13.03                             152    0.7810 74.7 297 
 BRR  HZ I         550 16.71        15.1 0.48            150           74.7 297 
 PAM  EZ EP        549 56.38                             152    0.4410 74.9  37 
 PAM  EN ES        550 13.95                             152    0.4110 74.9  37 
 PAM  EZ I         550 16.21         7.0 0.56            157           74.9  37 
 RUS  HZ EP        549 57.56                             145   -0.0110  100 178 
 RUS  HN ES        550 16.39                             145   -0.0510  100 178 
 RUS  HZ I         550 17.50        19.8 0.26            146            100 178 
 PTB  HZ EP        550  0.44                             132   -0.63 9  152 259 
 PTB  HE ES        550 22.36                             132   -0.31 9  152 259 
 PTB  HZ I         550 23.67        11.1 0.18            132            152 259 
 OCA  HZ EP        550  1.55                             131   -0.54 9  161 352 
 OCA  HE ES        550 24.08                             131   -0.41 9  161 352 
 OCA  HZ I         550 27.50        20.5 0.20            133            161 352 
 SPBC HZ EP        550  2.59                             130    0.12 9  166 220 
 SPBC HN ES        550 24.76                             130   -0.40 9  166 220 
 SPBC HZ I         550 27.36        32.0 0.20            130            166 220 
 ZAR  HZ EP        550  6.20                             123   -0.29 8  208 292 
 ZAR  HN ES        550 32.06                             123   -0.27 8  208 292 
 ZAR  HZ I         550 37.86         8.2 0.62            123            208 292 
 NOR  HZ EP        550 10.18                             119    0.46 8  238 235 
 NOR  HN ES        550 37.60                             119   -0.47 8  238 235 
 NOR  HZ I         550 40.89        10.4 0.14            120            238 235 
 CHI  HZ EP        550 11.64                             118    0.19 8  250 196 
 CHI  HN ES        550 41.10                             118   -0.05 8  250 196 
 CHI  HZ I         550 46.84         5.1 0.52            119            250 196 
 ROSC BZ EP   4    550 13.67                             117    1.70 0  255 212 
 ROSC BE ES   4    550 45.96                             117    3.88 0  255 212 
 ROSC BZ I         550 48.69        13.5 0.50            118            255 212 
 HEL  HZ EP        550 14.59                             115    0.35 7  276 256 
 HEL  HN ES        550 46.14                             115    0.01 7  276 256 
 HEL  HZ I         550 52.43         5.5 0.60            116            276 256 
 URE  HZ EP   4    550 14.21                             114   -0.86 0  287 292 
 URE  HE ES        550 47.38                             114   -0.22 7  287 292 
 URE  HZ I         550 55.39         5.4 0.16            115            287 292 
 PTGC HZ EP        550 16.50                             112   -0.78 7  307 159 
 PTGC HN ES   4    550 49.20                             112   -2.33 0  307 159 
 PTGC HZ I         550 51.05                             114            307 159 
 CBOC HZ EP        550 21.56                             110    0.65 7  337 252 
 CBOC HN ES        550 57.61                             110   -0.38 7  337 252 
 CBOC HZ I         551 11.17         1.8 0.50            111            337 252 
 DBB  SZ EP   2    550 21.25                             110   -0.24 3  343 274 
 DBB  SZ ES        550 59.52                             110    0.50 7  343 274 
 DBB  SZ I         551  2.70         7.7 0.32            111            343 274 
 ANIL HN ES   4    551  6.47                             109    3.55 0  360 225 
 ORTC HZ EP        550 28.30                             107    0.57 6  398 217 
 ORTC HN ES        551 11.02                             107    0.89 6  398 217 
 ORTC HZ I         551 17.21         4.7 0.46            108            398 217 
 PAL  HZ EP        550 28.78                             106   -0.31 6  409 239 
 PAL  HE ES        551 13.29                             106    0.75 6  409 239 
 PAL  HZ I         551 18.99         1.5 0.20            107            409 239 
 SJC  HZ EP   4    550 27.97                             106   -1.37 0  411 326 
 SJC  HN ES   4    551  9.02                             106   -3.97 0  411 326 
 CRJC HZ EP   9    550 33.93                             104   -2.04 0  467   3 
 CRJC HN ES        551 22.61                                   -0.15 5  467   3 
 CRJC HZ I         551 23.14         2.4 0.37            105            467   3 
                                                                                
