 2012  1 4 0516 26.9 L   6.775 -73.203148.5  RSN  5 0.2 1.4LRSN                1
 GAP=229        0.46       5.5     5.6  5.0  0.2083E+02  0.5699E+01  0.3747E+01E
 Epicentro: ZAPATOCA - SANTANDER                                               3
 ACTION:UP  12-02-03 08:13 OP:REBC STATUS:               ID:20120104051626 L   I
 2012-01-04-0510-00M.COL___183                                                 6
 STAT SP IPHASW D HRMM SECON CODA AMPLIT PERI AZIMU VELO SNR AR TRES W  DIS CAZ7
 BAR2 SZ EP   1    516 46.65                             172    -0.1 7   20 174 
 BAR2 SZ ES   1    517  2.07                             172    -0.2 7   20 174 
 BAR2 SZ I         517  3.71         5.9 0.42                            20 174 
 BRR  HZ EP   2    516 48.54                             154     0.5 5   67 303 
 BRR  HZ I         517  4.52         4.5 0.34                            67 303 
 BRR  HE ES   1    517  4.68                             154     0.0 7   67 303 
 RUS  HZ EP   1    516 50.64                             145    -0.1 7   98 172 
 RUS  HZ I         517  8.92         3.5 0.51                            98 172 
 RUS  HE ES   1    517  9.62                             145     0.3 7   98 172 
 PTB  HZ EP   1    516 53.31                             134    -0.1 7  141 259 
 PTB  HN ES   2    517 14.16                             134     0.0 5  141 259 
 ZAR  HE ES   2    517 24.25                             124     0.2 4  199 294 
                                                                                
