 2010 10 4 0635 54.9 L   6.778 -73.074151.2  RSN  5 0.1 1.6LRSN                1
 GAP=190        0.36       2.0     5.1  4.5  0.1958E+01 -0.4697E+01 -0.6423E+00E
 Epicentro: LOS SANTOS - SANTANDER                                             3
 ACTION:UP  11-02-18 11:07 OP:tino STATUS:               ID:20101004063554 L   I
 2010-10-04-0631-58S.COL___122                                                 6
 STAT SP IPHASW D HRMM SECON CODA AMPLIT PERI AZIMU VELO SNR AR TRES W  DIS CAZ7
 BRR  HZ EP   1    636 16.96                             151    -0.2 7   79 297 
 BRR  HN ES   1    636 34.49                             151     0.0 7   79 297 
 BRR  HZ I         636 36.84         7.9 0.11                            79 297 
 RUS  HZ EP   1    636 19.04                             146     0.0 7   98 181 
 RUS  HN ES   1    636 37.88                             146     0.0 7   98 181 
 RUS  HZ I         636 39.22         3.4 0.57                            98 181 
 OCA  SZ EP   1    636 24.21                             130     0.2 7  164 351 
 OCA  SZ ES   1    636 46.64                             130     0.0 7  164 351 
 OCA  SZ I         636 51.59         4.4 0.28                           164 351 
 CHI  HZ EP   2    636 32.77                             118    -0.2 4  248 197 
 CHI  HZ I         637  8.28         2.2 0.33                           248 197 
 RREF HN ES   2    637 18.53                             112     0.1 3  326 231 
 RREF HZ I         637 24.93         3.0 0.37                           326 231 
                                                                                
