 2010 10 4 0342 47.4 L   6.779 -73.091148.9  RSN  9 0.2 1.9LRSN                1
 GAP=165        0.44       2.2     4.3  3.7 -0.2641E+01  0.1877E+01  0.6430E+00E
 Epicentro: LOS SANTOS - SANTANDER                                             3
 ACTION:UP  11-02-18 11:07 OP:tino STATUS:               ID:20101004034247 L   I
 2010-10-04-0338-38S.COL___122                                                 6
 STAT SP IPHASW D HRMM SECON CODA AMPLIT PERI AZIMU VELO SNR AR TRES W  DIS CAZ7
 BAR2 SZ EP   1    343  7.29                             171    -0.1 7   23 206 
 BAR2 SZ ES   1    343 22.80                             171    -0.2 7   23 206 
 BAR2 SZ I         343 24.12        20.3 0.24                            23 206 
 BRR  HZ IP     C  343  9.25                             151     0.010   78 298 
 BRR  HN ES   1    343 26.37                             151     0.1 7   78 298 
 BRR  HZ I         343 30.24        17.0 0.31                            78 298 
 RUS  HZ EP   1    343 11.11                             145    -0.1 7   98 180 
 RUS  HZ I         343 12.07         3.8 0.27                            98 180 
 RUS  HN ES   1    343 29.84                             145     0.0 7   98 180 
 GUE  SZ EP   2    343 12.45                             140     0.0 5  118   9 
 GRA  SZ EP   1    343 13.19                             137     0.3 7  126  15 
 GRA  SZ ES   1    343 32.85                             137     0.0 7  126  15 
 GRA  SZ I         343 34.45         8.0 0.30                           126  15 
 CHI  HZ EP   2    343 25.06                             118    -0.1 4  248 197 
 CHI  HN ES   2    343 55.30                             118     0.7 4  248 197 
 CHI  HZ I         344  4.26         4.0 0.50                           248 197 
 HEL  HZ EP   2    343 27.63                             115    -0.7 4  277 257 
 HEL  HZ I         344  6.86         3.0 0.32                           277 257 
 RREF HZ EP   2    343 34.07                             111     0.1 3  325 230 
 RREF HN ES   2    344 10.59                             111     0.2 3  325 230 
 RREF HZ I         344 19.86         5.0 0.33                           325 230 
 PRA  HZ EP   2    343 40.59                             107    -0.5 3  393 211 
 PRA  HN ES   2    344 23.11                             107     0.1 3  393 211 
 PRA  HZ I         344 27.38         8.8 0.27                           393 211 
                                                                                
