 2014  8 4 0509 36.7 L   6.785 -73.176139.9  RSN  9 0.5 1.8LRSN                1
 GAP=133        1.16       3.5     4.8  6.9 -0.8828E+00  0.8917E+01 -0.3199E+01E
 Epicentro: LOS SANTOS - SANTANDER                                             3
 ACTION:UPD 14-09-15 21:46 OP:nd   STATUS:               ID:20140804050936 L   I
 OLDACT:REG 14-08-04 12:33 OP:carl STATUS:               ID:20140804050821     3
 2014-08-04-0508-21M.COL___245                                                 6
 STAT SP IPHASW D HRMM SECON CODA AMPLIT PERI AZIMU VELO AIN AR TRES W  DIS CAZ7
 BAR2 SZ EP        5 9 55.81                             171    0.1910 21.3 182 
 BAR2 SZ ES        510 10.11                             171   -0.2310 21.3 182 
 BAR2 SZ I         510 11.61        16.5 0.18            174           21.3 182 
 BRR  HZ IP     C  5 9 57.76                             152    0.6310 69.1 301 
 BRR  HN ES        510 13.96                             152    0.9210 69.1 301 
 BRR  HZ I         510 15.79         8.3 0.34            151           69.1 301 
 PAM  SZ IP     C  5 9 58.92                             149    0.3810 80.8  41 
 PAM  SN ES        510 15.57                             149    0.0310 80.8  41 
 PAM  SZ I         510 18.22        11.9 0.58            150           80.8  41 
 RUS  HZ EP        5 9 59.63                             143   -0.1810 99.2 174 
 RUS  HN ES        510 17.52                             143   -0.2910 99.2 174 
 RUS  HZ I         510 19.02         5.1 0.24            147           99.2 174 
 PTB  HZ EP        510  2.52                             131   -0.38 9  144 259 
 PTB  HN ES        510 22.76                             131   -0.55 9  144 259 
 PTB  HZ I         510 25.78        10.2 0.20            133            144 259 
 SPBC HZ EP        510  4.81                             128    0.35 9  160 218 
 SPBC HN ES        510 25.82                             128   -0.27 9  160 218 
 SPBC HZ I         510 28.68         6.3 0.20            131            160 218 
 OCA  HN ES        510 25.70                             128   -0.84 9  162 354 
 OCA  HZ I         510 33.68         7.7 0.50            129            162 354 
 ZAR  HZ EP        510  8.92                             121    0.37 9  202 293 
 ZAR  HN ES        510 33.63                             121    0.27 9  202 293 
 ZAR  HZ I         510 37.40         5.6 0.14            123            202 293 
 SML  HZ EP        510 12.83                             116   -0.22 8  244 336 
 SML  HN ES        510 40.86                             116   -0.52 8  244 336 
 SML  HZ I         510 43.95         9.7 0.26            117            244 336 
                                                                                
