 2012  8 4 0930 22.2 L   6.774 -73.122148.4  RSN  8 0.4 1.7LRSN                1
 GAP=141        0.72       3.9     4.3  6.5  0.2664E+00  0.7405E+01  0.8310E+00E
 Epicentro: LOS SANTOS - SANTANDER                                             3
 ACTION:UPD 12-09-10 11:54 OP:ep   STATUS:               ID:20120804093022 L   I
 2012-08-04-0930-00M.COL___215                                                 6
 STAT SP IPHASW D HRMM SECON CODA AMPLIT PERI AZIMU VELO AIN AR TRES W  DIS CAZ7
 BAR2 SZ EP   1    930 42.16                             171    0.05 7 21.2 198 
 BAR2 SZ ES   1    930 57.42                             171   -0.21 7 21.2 198 
 BAR2 SZ I         930 59.82        11.3 0.20                          21.2 198 
 BRR  HZ EP   1    930 44.14                             152    0.30 7 74.9 299 
 BRR  HN ES   1    931  1.37                             152    0.65 7 74.9 299 
 BRR  HZ I         931  3.82        16.8 0.15                          74.9 299 
 PAM  SZ EP   1    930 45.00                             151    0.27 7 78.0  37 
 PAM  SN ES   1    931  2.32                             151    0.02 7 78.0  37 
 RUS  HZ EP   1    930 46.03                             145    0.03 7 97.6 177 
 RUS  HN ES   1    931  4.44                             145   -0.12 7 97.6 177 
 RUS  HZ I         931  6.02         4.0 0.35                          97.6 177 
 PTB  HZ EP   1    930 48.88                             132   -0.69 7  150 260 
 PTB  HN ES   1    931 10.67                             132   -0.25 7  150 260 
 PTB  HZ I         931 16.05         6.9 0.27                           150 260 
 OCA  HN ES   1    931 12.87                             130   -0.61 7  163 352 
 ZAR  HN ES   1    931 20.94                             122    0.04 6  208 293 
 HEL  HZ EP   1    931  3.28                             115    0.52 6  274 257 
 HEL  HZ I         931 39.77         3.4 0.42                           274 257 
                                                                                
