 2013  3 4 0447 10.2 L   6.781 -73.152141.7  RSN  9 0.5 1.8LRSN                1
 GAP=137        0.95       4.5     4.3  6.5 -0.1839E+01  0.9922E+01 -0.3713E+01E
 Epicentro: LOS SANTOS - SANTANDER                                             3
 ACTION:UPD 13-04-09 13:59 OP:ep   STATUS:               ID:20130304044710 L   I
 2013-03-04-0440-00M.COL___228                                                 6
 STAT SP IPHASW D HRMM SECON CODA AMPLIT PERI AZIMU VELO AIN AR TRES W  DIS CAZ7
 BAR2 SZ EP   1    447 29.10                             171   -0.24 7 21.1 189 
 BAR2 SZ ES        447 44.03                             171   -0.2010 21.1 189 
 BRR  HN ES   1    447 47.72                             152    0.57 7 71.6 300 
 BRR  HZ I         447 49.48        10.4 0.15            140           71.6 300 
 PAM  SZ EP        447 32.31                             149    0.1610 79.5  39 
 PAM  SZ I         447 32.56        19.7 0.16            144           79.5  39 
 PAM  SN ES        447 49.53                             149    0.2910 79.5  39 
 RUS  HZ EP   1    447 33.46                             143    0.02 7 98.5 176 
 RUS  HE ES   1    447 51.55                             143    0.02 7 98.5 176 
 RUS  HE I         447 52.93         9.5 0.19            129           98.5 176 
 PTB  HZ EP        447 36.35                             131   -0.43 9  147 260 
 PTB  HN ES        447 57.15                             131   -0.33 9  147 260 
 PTB  HZ I         447 59.49         8.7 0.13            118            147 260 
 OCA  HN ES   1    447 59.65                             128   -0.77 7  162 353 
 ZAR  HZ EP        447 43.01                             121    0.57 9  204 293 
 ZAR  HN ES        448  7.76                             121    0.20 9  204 293 
 ZAR  HZ I         448 12.77         6.7 0.30            111            204 293 
 SML  HZ EP   1    447 46.00                             116   -0.82 6  245 336 
 HEL  HZ EP   1    447 51.05                             114    0.93 6  271 256 
 HEL  HZ I         448 29.65         3.1 0.31            105            271 256 
                                                                                
