 2017 10 4 0543  4.1 L   5.921 -73.716123.1  RSN  4 0.2 1.0LRSN                1
 GAP=165        0.57       3.2     4.2  5.3 -0.7336E+01 -0.2295E+00  0.2010E+00E
 Epicentro: GUAVATA - SANTANDER                                                3
 ACTION:UPD 17-11-07 19:28 OP:rebc STATUS:               ID:20171004054304 L   I
 OLDACT:REG 17-10-04 12:56 OP:dnl  STATUS:               ID:20171004053738     3
 2017-10-04-0538-00M.COL___447                                                 6
 STAT SP IPHASW D HRMM SECON CODA AMPLIT PERI AZIMU VELO AIN AR TRES W  DIS CAZ7
 SPBC HZ EP        543 21.60                             157   -0.1210 49.4 233 
 SPBC HN ES        543 35.66                             157    0.1810 49.4 233 
 SPBC HZ I         543 37.74         5.6 0.10            156           49.4 233 
 RUS  HZ EP        543 23.84                             149    0.3810 70.1  93 
 RUS  HN ES        543 38.62                             149    0.0410 70.1  93 
 RUS  HZ I         543 40.77         1.4 0.38            149           70.1  93 
 BAR2 EZ EP        543 24.72                             140   -0.1410 94.9  38 
 BAR2 EZ ES        543 40.91                             140   -0.1710 94.9  38 
 CHI  HZ EP   2    543 29.60                             128    0.26 5  143 181 
 CHI  HN ES        543 48.78                             128   -0.27 9  143 181 
 CHI  HZ I         543 53.86         1.1 0.40            127            143 181 
                                                                                
