 2016  7 4 0250  3.6 L   6.779 -73.170149.5  RSN  7 0.4 1.5LRSN                1
 GAP=233        0.86       4.9     5.4  6.8  0.1116E+02  0.4409E+01  0.3351E+01E
 Epicentro: LOS SANTOS - SANTANDER                                             3
 ACTION:UPD 17-03-29 16:46 OP:lp   STATUS:               ID:20160704025003 L   I
 OLDACT:UP  16-07-04 16:39 OP:dani STATUS:               ID:20160704024749     3
 OLDACT:UP  16-07-04 16:39 OP:dani STATUS:               ID:20160704024749     3
 OLDACT:UP  16-07-04 16:39 OP:dani STATUS:               ID:20160704024749     3
 OLDACT:REG 16-07-04 13:02 OP:dani STATUS:               ID:20160704024749     3
 2016-07-04-0247-49M.COL___328                                                 6
 STAT SP IPHASW D HRMM SECON CODA AMPLIT PERI AZIMU VELO AIN AR TRES W  DIS CAZ7
 BRR  HZ EP        250 25.28                             154    0.2010 70.0 301 
 BRR  HN ES        250 42.32                             154    0.4710 70.0 301 
 BRR  HZ I         250 43.31         3.9 0.38            152           70.0 301 
 RUS  HZ EP        250 27.25                             145   -0.3210 98.5 174 
 RUS  HE ES        250 46.15                             145   -0.1310 98.5 174 
 RUS  HZ I         250 47.20         3.4 0.22            144           98.5 174 
 PTB  HZ EP   4    250 27.54                             134   -3.05 0  145 260 
 PTB  HE ES        250 51.16                             134   -0.49 9  145 260 
 PTB  HZ I         250 58.57         3.4 0.44            132            145 260 
 SPBC HZ EP        250 32.25                             131    0.19 9  160 219 
 SPBC HN ES   4    250 53.29                             131   -0.97 0  160 219 
 SPBC HZ I         251  0.44         6.1 0.20            129            160 219 
 ZAR  HZ EP        250 35.80                             123   -0.32 9  202 293 
 ZAR  HE ES        251  1.21                             123   -0.28 9  202 293 
 NOR  HE ES        251  7.17                             120    0.26 8  231 235 
 GUY2CHZ EP        250 47.60                             113    0.62 7  298 235 
 GUY2CHN ES   4    251 22.76                             113    1.94 0  298 235 
 GUY2CHZ I         251 33.41         1.9 0.62                           298 235 
                                                                                
