 2014 12 4 0749 28.3 L   6.842 -73.111143.5  RSN 11 0.5 2.0LRSN                1
 GAP=156        1.06       3.3     4.5  6.1 -0.3428E+01  0.9279E+01  0.1763E+01E
 Epicentro: LOS SANTOS - SANTANDER                                             3
 ACTION:UPD 15-02-10 17:00 OP:nd   STATUS:               ID:20141204074928 L   I
 OLDACT:REG 14-12-04 12:57 OP:carl STATUS:               ID:20141204074737     3
 2014-12-04-0747-37M.COL___300                                                 6
 STAT SP IPHASW D HRMM SECON CODA AMPLIT PERI AZIMU VELO AIN AR TRES W  DIS CAZ7
 BAR2 SZ EP        749 47.42                             168   -0.3310 28.7 196 
 BAR2 SZ ES        750  2.45                             168   -0.5010 28.7 196 
 BAR2 SZ I         750  3.55        19.8 0.18            169           28.7 196 
 PAM  SZ EP        749 50.30                             152    0.4110 71.4  40 
 PAM  SN ES        750  7.16                             152    0.4010 71.4  40 
 PAM  SZ I         750  9.58        20.7 0.60            154           71.4  40 
 BRR  HZ IP     C  749 49.33                             152    0.0810 72.5 294 
 BRR  HN ES        750  6.21                             152    0.5910 72.5 294 
 BRR  HZ I         750 10.52        20.2 0.10            149           72.5 294 
 PTB  HZ EP   4    749 54.06                             131   -1.42 0  152 257 
 PTB  HN ES   4    750 15.23                             131   -1.48 0  152 257 
 PTB  HZ I         750 17.90        17.7 0.10            131            152 257 
 OCA  HZ EP        749 55.63                             130   -0.39 9  156 352 
 OCA  HN ES        750 17.56                             130   -0.10 9  156 352 
 OCA  HZ I         750 21.89        14.0 0.32            131            156 352 
 ZAR  HZ EP        750  0.52                             122   -0.24 8  206 291 
 ZAR  HN ES        750 25.62                             122   -0.48 8  206 291 
 ZAR  HZ I         750 32.13        12.1 0.26            122            206 291 
 NOR  HN ES        750 32.34                             117   -0.41 8  240 234 
 SML  HZ EP        750  3.94                             117   -0.55 8  241 334 
 SML  HN ES        750 32.67                             117   -0.07 8  241 334 
 SML  HZ I         750 35.70        11.7 0.10            118            241 334 
 CHI  HZ EP        750  6.31                             116   -0.13 8  254 196 
 CHI  HN ES        750 35.86                             116   -0.36 8  254 196 
 HEL  HZ EP        750 10.07                             114    1.16 7  277 255 
 HEL  HN ES        750 40.67                             114    0.07 7  277 255 
 HEL  HZ I         750 46.43         4.2 0.28            115            277 255 
 GUY2CHZ EP        750 13.13                             111    0.70 7  307 234 
 GUY2CHN ES        750 47.29                             111    0.42 7  307 234 
 GUY2CHZ I         750 52.77         4.1 0.32                           307 234 
                                                                                
