 2017  3 4 0528 57.2 L   6.770 -73.135146.2  RSN  6 0.4 1.1LRSN                1
 GAP=236        1.03       5.8     6.1  7.6  0.1440E+02  0.7775E+01  0.2752E+01E
 Epicentro: LOS SANTOS - SANTANDER                                             3
 ACTION:UPD 17-05-25 18:35 OP:jn   STATUS:               ID:20170304052857 L   I
 OLDACT:REG 17-03-04 12:27 OP:lv   STATUS:               ID:20170304052549     3
 2017-03-04-0528-00M.COL___397                                                 6
 STAT SP IPHASW D HRMM SECON CODA AMPLIT PERI AZIMU VELO AIN AR TRES W  DIS CAZ7
 BAR2 EZ EP        529 16.59                             172   -0.2110 20.4 195 
 BAR2 EZ ES        529 31.99                             172   -0.1110 20.4 195 
 BAR2 EZ I         529 32.82         3.4 0.44            170           20.4 195 
 BRR  HZ EP        529 18.58                             152    0.0710 73.8 300 
 BRR  HN ES        529 35.60                             152    0.4410 73.8 300 
 BRR  HZ I         529 37.25         2.5 0.09            152           73.8 300 
 RUS  HZ EP        529 21.01                             145    0.2810 97.2 177 
 RUS  HN ES        529 38.81                             145   -0.2910 97.2 177 
 RUS  HZ I         529 40.57         1.2 0.25            145           97.2 177 
 PTB  HZ EP        529 23.68                             132   -0.54 9  148 260 
 PTB  HN ES        529 44.56                             132   -0.76 9  148 260 
 PTB  HZ I         529 46.22         1.6 0.20            132            148 260 
 SPBC HZ EP        529 25.79                             129    0.26 9  161 220 
 SPBC HN ES        529 48.30                             129    0.65 9  161 220 
 SPBC HZ I         529 50.48         2.8 0.05            130            161 220 
 ZAR  HN ES        529 55.65                             122    0.26 8  206 293 
                                                                                
