 2016 10 4 0054 34.0 L   6.853 -73.251128.4  RSN  5 0.2 1.3LRSN                1
 GAP=168        0.59       2.5     3.5  4.7  0.1816E+01  0.1466E+01 -0.4957E-01E
 Epicentro: ZAPATOCA - SANTANDER                                               3
 ACTION:UPD 16-11-09 19:16 OP:rebc STATUS:               ID:20161004004742dL   I
 OLDACT:DUP 16-10-04 14:12 OP:dani STATUS:               ID:20161004004742dL   3
 2016-10-04-0048-00M.COL___366                                                 6
 STAT SP IPHASW D HRMM SECON CODA AMPLIT PERI AZIMU VELO AIN AR TRES W  DIS CAZ7
 BAR2 EZ EP        054 51.64                             166   -0.1110 29.8 165 
 BAR2 EZ ES        055  5.57                             166    0.0110 29.8 165 
 BAR2 EZ I         055  6.66        11.1 0.44            166           29.8 165 
 BRR  HZ EP        054 52.79                             154    0.2110 58.2 299 
 BRR  HE ES        055  6.92                             154   -0.1210 58.2 299 
 BRR  HZ I         055  8.28         5.5 0.22            155           58.2 299 
 RUS  HZ EP        054 56.98                             138    0.2810  108 170 
 RUS  HE ES        055 14.27                             138   -0.1110  108 170 
 RUS  HZ I         055 16.09         1.6 0.23            139            108 170 
 PTB  HZ EP        054 58.25                             130   -0.44 9  138 255 
 PTB  HN ES        055 18.17                             130    0.25 9  138 255 
 PTB  HZ I         055 19.49         3.1 0.17            131            138 255 
 OCA  HE ES        055 20.95                             127    0.02 9  153 357 
                                                                                
