 2012  5 4 0754 29.6 L   6.823 -73.168147.4  RSN  5 0.4 1.2LRSN                1
 GAP=133        0.79       5.6     4.8  9.2  0.1854E+01  0.7188E+01  0.6102E+01E
 Epicentro: LOS SANTOS - SANTANDER                                             3
 ACTION:UP  12-07-05 12:02 OP:pat  STATUS:               ID:20120504075429 L   I
 2012-05-04-0750-00M.COL___189                                                 6
 STAT SP IPHASW D HRMM SECON CODA AMPLIT PERI AZIMU VELO SNR AR TRES W  DIS CAZ7
 BRR  HZ EP   1    754 51.12                             154     0.4 7   68 298 
 BRR  HE ES   1    755  7.72                             154     0.5 7   68 298 
 BRR  HZ I         755 10.49         4.7 0.25                            68 298 
 PAM  SZ EP   1    754 52.16                             151     0.2 7   77  42 
 PAM  SN ES   1    755  8.83                             151    -0.6 7   77  42 
 RUS  HZ EP   1    754 53.69                             143     0.0 7  103 175 
 RUS  HZ I         754 54.66         1.9 0.15                           103 175 
 RUS  HE ES   1    755 12.62                             143     0.1 7  103 175 
 PTB  HZ EP   1    754 56.15                             133    -0.4 7  146 258 
 PTB  HN ES   1    755 17.05                             133    -0.5 7  146 258 
 ZAR  HN ES   1    755 26.92                             123     0.0 6  201 292 
                                                                                
