 2017  3 4 0620 30.4 L   6.853 -73.292115.6  RSN  5 0.3 1.3LRSN                1
 GAP=216        0.78       5.2     4.8  5.7  0.1598E+02  0.6588E+01  0.1210E+01E
 Epicentro: ZAPATOCA - SANTANDER                                               3
 ACTION:UPD 17-05-25 18:35 OP:jn   STATUS:               ID:20170304062030 L   I
 OLDACT:REG 17-03-04 12:30 OP:lv   STATUS:               ID:20170304061744     3
 2017-03-04-0618-00M.COL___397                                                 6
 STAT SP IPHASW D HRMM SECON CODA AMPLIT PERI AZIMU VELO AIN AR TRES W  DIS CAZ7
 BAR2 EZ EP        620 46.48                             164   -0.1410 31.3 157 
 BAR2 EZ ES        620 59.57                             164    0.2710 31.3 157 
 BAR2 EZ I         621  0.64         6.3 0.27            164           31.3 157 
 BRR  HZ EP        620 46.90                             153   -0.4010 54.3 301 
 BRR  HE ES        621  0.34                             153   -0.1710 54.3 301 
 RUS  HZ EP        620 51.91                             134   -0.0710  109 168 
 RUS  HN ES        621  9.06                             134    0.2110  109 168 
 PTB  HZ EP        620 53.35                             127   -0.2810  133 255 
 PTB  HN ES        621 11.57                             127   -0.2110  133 255 
 ZAR  HZ EP        620 59.76                             117    0.60 9  187 292 
 ZAR  HN ES        621 21.98                             117    0.36 9  187 292 
                                                                                
