 2015  3 4 0825 11.2 L   6.765 -73.146146.0  RSN  9 0.3 1.4LRSN                1
 GAP=183        0.58       2.3     4.2  4.3  0.1160E+01 -0.7739E+00  0.5171E+00E
 Epicentro: LOS SANTOS - SANTANDER                                             3
 ACTION:UPD 15-04-30 16:22 OP:nd   STATUS:               ID:20150304082511 L   I
 OLDACT:REG 15-03-04 12:56 OP:spq  STATUS:               ID:20150304081740     3
 2015-03-04-0817-40M.COL___284                                                 6
 STAT SP IPHASW D HRMM SECON CODA AMPLIT PERI AZIMU VELO AIN AR TRES W  DIS CAZ7
 BAR2 EZ EP        825 30.57                             172   -0.2410 19.5 192 
 BAR2 EZ ES   1    825 46.30                             172    0.21 7 19.5 192 
 BAR2 EZ I         825 47.99         4.2 0.24            171           19.5 192 
 BRR  HZ EP   1    825 32.43                             152   -0.08 7 73.1 301 
 BRR  HN ES        825 49.13                             152    0.0210 73.1 301 
 BRR  HZ I         825 52.62         4.5 0.48            150           73.1 301 
 RUS  HZ EP        825 34.41                             145   -0.3110 96.7 176 
 RUS  HN ES   1    825 53.14                             145    0.09 7 96.7 176 
 RUS  HZ I         825 55.21         1.3 0.34            147           96.7 176 
 PTB  HZ EP   1    825 37.97                             132   -0.17 7  147 260 
 PTB  HE ES   1    825 58.55                             132   -0.58 7  147 260 
 PTB  HZ I         826  2.84         2.8 0.10            132            147 260 
 SPBC HZ EP        825 39.57                             130    0.12 9  160 220 
 SPBC HN ES        826  1.65                             130    0.18 9  160 220 
 SPBC HZ I         826  6.46         3.7 0.21            130            160 220 
 OCA  HN ES   2    826  2.38                             129    0.08 5  164 353 
 OCA  HZ I         826  5.79         2.6 0.13            130            164 353 
 CHI  HZ EP   1    825 48.67                             118    0.15 6  245 195 
 CHI  HE ES   1    826 18.16                             118    0.54 6  245 195 
 CHI  HZ I         826 22.59         3.1 0.96            119            245 195 
 SML  HZ EP   1    825 48.47                             117    0.22 6  247 336 
 SML  HE ES   1    826 17.64                             117    0.52 6  247 336 
 SML  HZ I         826 20.98         2.7 0.22            118            247 336 
 GUY2CHE ES   4    826 29.55                             113    1.14 0  299 235 
 GUY2CHZ I         826 36.92         1.2 0.54                           299 235 
                                                                                
