 2017  8 4 0327 56.2 L   6.788 -73.203141.4  RSN  6 0.4 1.0LRSN                1
 GAP=130        0.97       4.9     5.3  6.9 -0.1385E+00  0.1077E+01 -0.2586E+00E
 Epicentro: ZAPATOCA - SANTANDER                                               3
 ACTION:UPD 17-09-04 20:16 OP:rebc STATUS:               ID:20170804032757dL   I
 OLDACT:REG 17-08-04 12:55 OP:osc  STATUS:               ID:20170804032739     3
 2017-08-04-0328-00M.COL___374                                                 6
 STAT SP IPHASW D HRMM SECON CODA AMPLIT PERI AZIMU VELO AIN AR TRES W  DIS CAZ7
 BAR2 EZ ES        328 29.93                             171   -0.2110 21.8 174 
 BRR  HZ EP        328 16.87                             153    0.2810 66.3 302 
 BRR  HN ES        328 33.07                             153    0.5710 66.3 302 
 PAM  EZ EP        328 17.81                             148   -0.4510 82.5  42 
 PAM  EZ I         328 37.92         2.7 0.46                          82.5  42 
 RUS  HZ EP        328 19.91                             143    0.4510 99.9 172 
 RUS  HN ES        328 37.44                             143   -0.1810 99.9 172 
 RUS  HZ I         328 38.75         2.0 0.38             96           99.9 172 
 PTB  HZ EP        328 21.86                             132   -0.35 9  141 259 
 PTB  HN ES        328 41.97                             132   -0.53 9  141 259 
 PTB  HZ I         328 48.07         1.1 0.46             90            141 259 
 SPBC HZ EP        328 24.11                             129    0.23 9  158 217 
 SPBC HN ES        328 45.62                             129    0.14 9  158 217 
                                                                                
