 2013  4 4 0300 54.5 L   6.785 -73.172144.0  RSN  7 0.4 1.7LRSN                1
 GAP=179        0.73       4.9     4.7  5.9  0.5103E+01  0.9753E+01  0.6187E+01E
 Epicentro: LOS SANTOS - SANTANDER                                             3
 ACTION:UPD 13-05-22 14:35 OP:EP   STATUS:               ID:20130404030054 L   I
 2013-04-04-0300-00M.COL___245                                                 6
 STAT SP IPHASW D HRMM SECON CODA AMPLIT PERI AZIMU VELO AIN AR TRES W  DIS CAZ7
 BAR2 SZ EP        3 1 13.89                             171   -0.0110 21.4 183 
 BAR2 SZ ES        3 1 29.16                             171    0.1510 21.4 183 
 BAR2 SZ I         3 1 30.33        11.7 0.13            170           21.4 183 
 GIR2 SZ EP   1    3 1 13.84                             167   -0.18 7 32.5 356 
 GIR2 SZ ES   1    3 1 28.48                             167   -0.74 7 32.5 356 
 GIR2 SZ I         3 1 30.60        10.5 0.38            166           32.5 356 
 BRR  HZ EP   1    3 1 15.69                             153    0.31 7 69.5 301 
 BRR  HN ES   1    3 1 32.32                             153    0.67 7 69.5 301 
 BRR  HZ I         3 1 35.63        15.3 0.30            150           69.5 301 
 RUS  HZ EP   1    3 1 17.99                             144   -0.01 7 99.2 174 
 RUS  HN ES   1    3 1 36.50                             144    0.19 7 99.2 174 
 RUS  HZ I         3 1 38.02         4.6 0.22            146           99.2 174 
 PTB  HZ EP   1    3 1 20.69                             132   -0.37 7  145 259 
 PTB  HN ES   1    3 1 41.33                             132   -0.43 7  145 259 
 PTB  HZ I         3 1 44.03         6.1 0.18            132            145 259 
 ZAR  HN ES   1    3 1 51.90                             122    0.21 6  202 293 
 ZAR  HZ I         3 1 57.43         8.5 0.22            123            202 293 
 NOR  HZ EP   1    3 1 30.10                             118    0.31 6  231 234 
 NOR  HN ES   1    3 1 57.08                             118   -0.22 6  231 234 
 NOR  HZ I         3 2  0.44         3.6 0.22            119            231 234 
                                                                                
