 2013  2 4 0718 25.9 L   6.781 -73.152142.7  RSN  8 0.4 2.0LRSN                1
 GAP=137        0.97       3.8     4.2  6.8  0.5298E+00  0.5519E+01  0.3999E+01E
 Epicentro: LOS SANTOS - SANTANDER                                             3
 ACTION:UPD 13-03-12 09:30 OP:ep   STATUS:               ID:20130204071825 L   I
 2013-02-04-0717-36M.COL___176                                                 6
 STAT SP IPHASW D HRMM SECON CODA AMPLIT PERI AZIMU VELO AIN AR TRES W  DIS CAZ7
 BAR2 SZ EP        718 45.18                             171    0.0410 21.2 189 
 BAR2 SZ ES   1    719  0.19                             171    0.06 7 21.2 189 
 BAR2 SZ I         719  1.60        18.8 0.38            168           21.2 189 
 BRR  HZ IP     C  718 46.96                             152    0.2010 71.6 300 
 BRR  HN ES        719  3.80                             152    0.7910 71.6 300 
 BRR  HN I         719  4.38        53.9 0.22            153           71.6 300 
 PAM  SZ EP        718 48.05                             150    0.1210 79.4  39 
 PAM  SN ES        719  4.90                             150   -0.2010 79.4  39 
 PAM  SN I         719  6.67        13.2 0.44            154           79.4  39 
 RUS  HZ EP        718 49.29                             144    0.0710 98.6 176 
 RUS  HN ES   1    719  7.00                             144   -0.40 7 98.6 176 
 RUS  HN I         719 10.76         6.2 0.28            143           98.6 176 
 PTB  HZ EP   1    718 52.06                             131   -0.47 7  147 260 
 PTB  HN ES        719 12.49                             131   -0.81 9  147 260 
 PTB  HN I         719 18.08        22.9 0.38            132            147 260 
 OCA  HN ES        719 15.77                             129   -0.45 9  162 353 
 OCA  HN I         719 18.09        33.3 0.26            132            162 353 
 ZAR  HZ EP        718 58.14                             122   -0.04 9  204 293 
 ZAR  HE ES        719 23.68                             122    0.34 9  204 293 
 CHI  HZ EP   1    719  3.69                             117    0.48 6  246 195 
 CHI  HE ES   2    719 32.86                             117    0.57 4  246 195 
 CHI  HE I         719 39.62         5.0 0.42            117            246 195 
                                                                                
