 2016 10 4 0848 54.2 L   6.524 -73.570109.8  RSN  6 0.4 1.1LRSN                1
 GAP= 92        1.07       4.8     4.1  8.0  0.3322E-01  0.2543E+01  0.1620E+01E
 Epicentro: EL CARMEN - SANTANDER                                              3
 ACTION:UPD 16-11-09 19:16 OP:rebc STATUS:               ID:20161004084854 L   I
 OLDACT:REG 16-10-04 13:31 OP:dani STATUS:               ID:20161004084743     3
 2016-10-04-0848-00M.COL___360                                                 6
 STAT SP IPHASW D HRMM SECON CODA AMPLIT PERI AZIMU VELO AIN AR TRES W  DIS CAZ7
 BAR2 EZ EP        849 10.69                             157    0.3910 43.5  80 
 BAR2 EZ ES        849 23.00                             157    0.1510 43.5  80 
 BRR  HZ EP        849 11.62                             146    0.3510 66.3 346 
 BRR  HN ES        849 25.19                             146    0.6110 66.3 346 
 RUS  HZ EP        849 13.77                             139    0.1810 88.2 142 
 RUS  HN ES        849 28.57                             139   -0.1410 88.2 142 
 RUS  HZ I         849 29.59         1.1 0.20            139           88.2 142 
 PTB  HZ EP        849 13.44                             135   -0.3110 98.0 271 
 PTB  HN ES        849 28.35                             135   -0.6510 98.0 271 
 PTB  HZ I         849 29.55         3.5 0.30            136           98.0 271 
 PAM  EZ EP        849 17.36                             126   -0.1810  132  47 
 PAM  EN ES        849 35.12                             126   -0.6110  132  47 
 PAM  EZ I         849 36.79         2.9 0.26            127            132  47 
 GUY2CHZ EP   2    849 30.83                             109    0.94 4  245 234 
 GUY2CHE ES   4    850  0.46                             109    2.75 0  245 234 
 GUY2CHZ I         850  5.30         1.3 0.36                           245 234 
                                                                                
