 2017  3 4 0157 33.2 L   6.757 -73.090146.2  RSN  6 0.3 1.2LRSN                1
 GAP=240        0.78       4.5     5.7  5.8  0.1191E+02  0.7531E+01  0.2254E+01E
 Epicentro: LOS SANTOS - SANTANDER                                             3
 ACTION:UPD 17-05-25 18:35 OP:jn   STATUS:               ID:20170304015733 L   I
 OLDACT:DUP 17-03-04 14:31 OP:lv   STATUS:               ID:20170304014746d    3
 2017-03-04-0148-00M.COL___397                                                 6
 STAT SP IPHASW D HRMM SECON CODA AMPLIT PERI AZIMU VELO AIN AR TRES W  DIS CAZ7
 BAR2 EZ EP        157 52.92                             171    0.0610 20.9 209 
 BAR2 EZ ES        158  7.72                             171   -0.4510 20.9 209 
 BAR2 EZ I         158  8.29         3.1 0.20            166           20.9 209 
 BRR  HZ EP        157 54.92                             150    0.0510 78.9 299 
 BRR  HN ES        158 12.14                             150    0.3910 78.9 299 
 RUS  HZ EP        157 56.87                             145    0.2010 95.6 180 
 RUS  HN ES        158 15.02                             145    0.0710 95.6 180 
 RUS  HZ I         158 15.83         1.3 0.19            143           95.6 180 
 PTB  HZ EP        158  0.06                             131   -0.65 9  153 261 
 PTB  HN ES   4    158 20.86                             131   -1.28 0  153 261 
 PTB  HZ I         158 23.07         3.3 0.17            129            153 261 
 SPBC HZ EP        158  2.00                             129    0.21 9  164 222 
 SPBC HE ES        158 24.13                             129    0.06 9  164 222 
 SPBC HZ I         158 28.91         3.3 0.18            127            164 222 
 ZAR  HN ES        158 32.42                             121    0.01 8  212 293 
                                                                                
