 2016  5 4 0104 44.7 L   6.797 -73.124146.2  RSN 17 0.5 2.2LRSN                1
 GAP=121        1.17       3.1     3.9  5.6 -0.1720E+01  0.4277E+01  0.8018E+00E
 Epicentro: LOS SANTOS - SANTANDER                                             3
 ACTION:UPD 16-08-18 17:41 OP:cam  STATUS:               ID:20160504010444 L   I
 OLDACT:REG 16-05-04 12:17 OP:ak   STATUS:               ID:20160504005743     3
 2016-05-04-0057-43M.COL___298                                                 6
 STAT SP IPHASW D HRMM SECON CODA AMPLIT PERI AZIMU VELO AIN AR TRES W  DIS CAZ7
 BAR2 EZ EP        1 5  4.59                             170    0.2210 23.6 196 
 BAR2 EZ ES        1 5 19.10                             170   -0.6310 23.6 196 
 BAR2 EZ I         1 5 20.55        22.2 0.16            169           23.6 196 
 BRR  HZ IP     C  1 5  6.61                             152    0.6010 73.5 298 
 BRR  HN ES        1 5 23.30                             152    0.6610 73.5 298 
 BRR  HZ I         1 5 26.71        24.8 0.26            150           73.5 298 
 PAM  EZ EP     C  1 5  7.45                             151    0.5810 76.1  38 
 PAM  EN ES        1 5 24.42                             151    0.2510 76.1  38 
 PAM  EZ I         1 5 26.68        45.6 0.52            155           76.1  38 
 RUS  HZ EP        1 5  8.97                             144    0.5310  100 177 
 RUS  HN ES        1 5 26.60                             144   -0.3810  100 177 
 RUS  HZ I         1 5 28.05        16.3 0.32            145            100 177 
 PTB  HZ EP        1 5 11.68                             132   -0.22 9  150 259 
 PTB  HN ES        1 5 32.92                             132   -0.21 9  150 259 
 PTB  HZ I         1 5 35.18        32.3 0.05            131            150 259 
 OCA  HZ EP        1 5 12.41                             130   -0.67 9  161 352 
 OCA  HN ES        1 5 34.73                             130   -0.51 9  161 352 
 OCA  HZ I         1 5 38.25        54.0 0.44            131            161 352 
 SPBC HZ EP        1 5 13.78                             129    0.44 9  164 220 
 SPBC HN ES        1 5 35.29                             129   -0.40 9  164 220 
 SPBC HZ I         1 5 42.15        19.8 0.10            129            164 220 
 ZAR  HZ EP   2    1 5 18.01                             122    0.61 4  206 292 
 ZAR  HN ES        1 5 43.47                             122    0.55 8  206 292 
 ZAR  HZ I         1 5 48.74        15.3 0.20            123            206 292 
 NOR  HZ EP        1 5 21.19                             118    0.56 8  237 235 
 NOR  HN ES        1 5 48.48                             118   -0.19 8  237 235 
 NOR  HZ I         1 5 54.34        10.6 0.18            119            237 235 
 CHI  HZ EP        1 5 22.22                             117   -0.22 8  249 196 
 CHI  HN ES        1 5 51.95                             117    0.06 8  249 196 
 CHI  HZ I         1 5 58.08         4.0 0.42            118            249 196 
 ROSC BN ES   2    1 5 53.83                             117    1.06 4  254 212 
 HEL  HZ EP   4    1 5 27.20                             115    2.03 0  274 256 
 HEL  HE ES        1 5 55.82                             115   -0.93 8  274 256 
 HEL  HZ I         1 6  3.78         7.5 0.44            115            274 256 
 PTGC HZ EP        1 5 27.79                             112   -0.63 7  308 159 
 PTGC HN ES   4    1 6  0.48                             112   -2.06 0  308 159 
 LL6C HZ EP        1 5 29.65                             110   -0.80 7  325 357 
 DBB  SZ EP        1 5 32.93                             109    0.47 7  342 274 
 DBB  SZ ES        1 6  9.53                             109   -0.19 7  342 274 
 ANIL HE ES   2    1 6 14.07                             108    0.40 3  359 225 
 SJC  HZ EP        1 5 39.60                             106   -0.84 6  411 327 
 SJC  HN ES   4    1 6 20.96                             106   -2.98 0  411 327 
 SJC  HZ I         1 6 25.63         2.1 0.28            107            411 327 
 CRJC HZ EP   4    1 5 45.07                             103   -2.14 0  468   3 
 CRJC HN ES   4    1 6 32.34                             103   -3.65 0  468   3 
                                                                                
