 2013  2 4 0803 13.0 L   6.802 -73.169146.4  RSN  9 0.5 1.7LRSN                1
 GAP=134        0.90       4.0     6.0  8.5  0.2071E+01  0.1315E+02  0.6257E+01E
 Epicentro: LOS SANTOS - SANTANDER                                             3
 ACTION:UPD 13-03-12 09:30 OP:ep   STATUS:               ID:20130204080313 L   I
 2013-02-04-0800-00M.COL___241                                                 6
 STAT SP IPHASW D HRMM SECON CODA AMPLIT PERI AZIMU VELO AIN AR TRES W  DIS CAZ7
 BAR2 SZ EP        8 3 32.53                             171   -0.1810 23.2 184 
 BAR2 SZ ES   1    8 3 47.88                             171   -0.20 7 23.2 184 
 BAR2 SZ I         8 3 48.64         6.4 0.18            169           23.2 184 
 BRR  HZ EP   1    8 3 34.32                             153    0.23 7 68.9 299 
 BRR  HN ES   1    8 3 51.20                             153    0.66 7 68.9 299 
 BRR  HN I         8 3 51.72        12.0 0.20            149           68.9 299 
 PAM  SN ES   1    8 3 52.43                             150   -0.40 7 78.9  41 
 PAM  SN I         8 3 54.28         4.3 0.36            153           78.9  41 
 RUS  HZ EP   1    8 3 36.82                             144   -0.02 7  101 175 
 RUS  HN ES   1    8 3 55.50                             144    0.06 7  101 175 
 PTB  HZ EP   1    8 3 39.57                             133   -0.23 7  145 259 
 PTB  HN ES   1    8 3 59.79                             133   -0.91 7  145 259 
 PTB  HN I         8 4  5.54         6.5 0.38            129            145 259 
 OCA  HN ES   1    8 4  4.04                             130    0.64 7  160 354 
 OCA  HN I         8 4  5.58        11.7 0.22            129            160 354 
 ZAR  HE ES   2    8 4 10.95                             123    0.57 4  202 292 
 ZAR  HE I         8 4 16.85         7.5 0.22            120            202 292 
 SML  HN ES   2    8 4 17.15                             118   -0.87 4  242 336 
 SML  HN I         8 4 21.95         8.3 0.10            116            242 336 
 CHI  HZ EP   2    8 3 50.47                             117   -0.21 4  248 195 
 CHI  HN ES   1    8 4 20.97                             117    0.90 6  248 195 
 CHI  HN I         8 4 26.17         2.8 0.44            116            248 195 
                                                                                
