 2011 12 4 0738 27.8 L   6.769 -73.091146.5  RSN  4 0.3 1.6LRSN                1
 GAP=145        0.66       4.9     6.5  6.5 -0.2074E+01 -0.3921E+01  0.4863E+01E
 Epicentro: LOS SANTOS - SANTANDER                                             3
 ACTION:UPD 12-07-13 16:14 OP:ep   STATUS:               ID:20111204073827 L   I
 2011-12-04-0730-00M.COL___183                                                 6
 STAT SP IPHASW D HRMM SECON CODA AMPLIT PERI AZIMU VELO AIN AR TRES W  DIS CAZ7
 BAR2 SZ EP        738 47.32                             171   -0.1610 22.0 207 
 BAR2 SZ ES   1    739  2.41                             171   -0.43 7 22.0 207 
 BAR2 SZ I         739 12.00        14.7 0.64                          22.0 207 
 PAM  SZ EP        738 50.20                             151    0.1710 76.5  34 
 PAM  SE ES   1    739  7.38                             151    0.00 7 76.5  34 
 BRR  HZ EP        738 49.12                             150   -0.3010 78.1 299 
 BRR  HZ I         738 54.53         4.0 0.46                          78.1 299 
 BRR  HN ES   1    739  6.75                             150    0.46 7 78.1 299 
 RUS  HZ EP        738 51.54                             145    0.1810 96.9 179 
 RUS  HE ES   2    739 10.12                             145    0.39 5 96.9 179 
                                                                                
