 2011  5 4 0414 49.1 L   6.813 -73.098139.6  RSN  7 0.3 1.6LRSN                1
 GAP=161        0.66       3.3     8.9  7.8 -0.2472E+01 -0.1387E+02 -0.4239E+00E
 Epicentro: LOS SANTOS - SANTANDER                                             3
 ACTION:UP  11-06-29 08:50 OP:tino STATUS:               ID:20110504041449 L   I
 2011-05-04-0413-14S.COL___132                                                 6
 STAT SP IPHASW D HRMM SECON CODA AMPLIT PERI AZIMU VELO SNR AR TRES W  DIS CAZ7
 BTL  SZ EP   1    415  7.99                             171     0.0 8   22 302 
 BAR2 SZ EP   1    415  7.87                             169    -0.2 8   26 201 
 BAR2 SZ ES   2    415 22.66                             169    -0.2 5   26 201 
 BAR2 SZ I         415 24.06         7.5 0.17                            26 201 
 BRR  HZ EP   1    415 10.03                             150     0.2 8   75 296 
 BRR  HE ES   2    415 26.43                             150     0.4 5   75 296 
 BRR  HZ I         415 31.28         9.1 0.15                            75 296 
 RUS  HZ EP        415 12.41                             142     0.110  102 179 
 RUS  HN ES   2    415 30.32                             142    -0.2 5  102 179 
 BRI  SZ EP   1    415 12.25                             141     0.1 7  105  18 
 BRI  SZ ES   2    415 29.96                             141    -0.2 5  105  18 
 BRI  SZ I         415 36.52         7.0 0.60                           105  18 
 GRA  SZ EP   1    415 13.64                             136     0.1 7  123  15 
 GRA  SZ ES   2    415 33.51                             136     0.9 5  123  15 
 GRA  SZ I         415 35.23         7.1 0.27                           123  15 
 OCA  SZ EP   1    415 16.86                             128     0.0 7  160 351 
 OCA  SZ ES   1    415 37.84                             128    -0.7 7  160 351 
 OCA  SZ I         415 41.58         6.7 0.39                           160 351 
                                                                                
