 2015 12 4 0434  0.1 L   6.802 -73.143149.0  RSN  6 0.5 1.4LRSN                1
 GAP=238        1.15       7.1     7.4  9.4  0.1878E+02  0.1434E+02 -0.1648E+02E
 Epicentro: LOS SANTOS - SANTANDER                                             3
 ACTION:UPD 16-02-04 15:02 OP:cam  STATUS:               ID:20151204043400 L   I
 OLDACT:UP  15-12-04 14:54 OP:mh   STATUS:               ID:20151204042745d    3
 OLDACT:DUP 15-12-04 14:49 OP:mh   STATUS:               ID:20151204042745d    3
 2015-12-04-0427-44M.COL___309                                                 6
 STAT SP IPHASW D HRMM SECON CODA AMPLIT PERI AZIMU VELO AIN AR TRES W  DIS CAZ7
 BAR2 EZ EP        434 20.28                             171    0.1610 23.6 191 
 BAR2 EZ ES        434 35.51                             171   -0.2310 23.6 191 
 BAR2 EZ I         434 37.17         4.6 0.28            169           23.6 191 
 BRR  HZ EP        434 22.38                             153    0.7810 71.3 298 
 RUS  HZ EP        434 24.46                             144    0.2810  101 176 
 RUS  HN ES        434 42.59                             144   -0.3810  101 176 
 RUS  HZ I         434 44.35         2.4 0.52            147            101 176 
 PTB  HZ EP        434 27.14                             133   -0.22 9  148 259 
 PTB  HN ES   1    434 48.51                             133   -0.11 7  148 259 
 PTB  HZ I         434 51.64         3.1 0.16            132            148 259 
 SPBC HZ EP        434 28.11                             130   -0.77 9  164 219 
 SPBC HE ES        434 52.09                             130    0.76 9  164 219 
 SPBC HZ I         434 54.04         3.7 0.10            131            164 219 
 ZAR  HZ EP        434 32.44                             123   -0.33 9  204 292 
 ZAR  HN ES        434 58.08                             123   -0.17 9  204 292 
 ZAR  HZ I         435  5.97         2.6 0.56            123            204 292 
                                                                                
