 2010  7 4 0605 30.1 L   6.806 -73.079141.7  RSN  4 0.2 1.3LRSN                1
 GAP=163        0.52       6.1    10.5  7.9  0.4227E+02 -0.4404E+02 -0.1507E+02E
 Epicentro: LOS SANTOS - SANTANDER                                             3
 ACTION:UPD 10-12-01 15:14 OP:pat  STATUS:               ID:20100704060530 L   I
 2010-07-04-0604-16S.COL___118                                                 6
 STAT SP IPHASW D HRMM SECON CODA AMPLIT PERI AZIMU VELO AIN AR TRES W  DIS CAZ7
 BAR2 SZ EP        6 5 49.30                             169    -0.110   26 206 
 BAR2 SZ ES   2    6 6  3.84                             169    -0.5 5   26 206 
 BRR  HZ EP        6 5 51.06                             150    -0.210   78 295 
 BRR  HN ES   1    6 6  7.92                             150     0.2 7   78 295 
 BRR  HZ I         6 6  8.83         6.9 0.11                            78 295 
 RUS  HZ EP        6 5 53.60                             143     0.110  101 180 
 RUS  HE ES   2    6 6 12.01                             143     0.2 5  101 180 
 RUS  HZ I         6 6 13.05         2.0 0.22                           101 180 
 BRI  SZ EP   2    6 5 53.71                             141     0.3 5  105  17 
                                                                                
