 2016 11 4 0912 15.9 L   6.853 -73.156149.4  RSN 10 0.5 1.7LRSN                1
 GAP=132        1.11       4.3     4.5  6.4 -0.2109E+01  0.9210E+01 -0.2941E+01E
 Epicentro: LOS SANTOS - SANTANDER                                             3
 ACTION:UPD 17-10-26 21:04 OP:lp   STATUS:               ID:20161104091215 L   I
 OLDACT:UP  16-11-04 17:42 OP:dani STATUS:               ID:20161104090745     3
 OLDACT:UP  16-11-04 17:40 OP:dani STATUS:               ID:20161104090745     3
 OLDACT:REG 16-11-04 13:24 OP:dani STATUS:               ID:20161104090745     3
 2016-11-04-0908-00M.COL___343                                                 6
 STAT SP IPHASW D HRMM SECON CODA AMPLIT PERI AZIMU VELO AIN AR TRES W  DIS CAZ7
 BAR2 EZ EP     D  912 36.05                             169   -0.0210 29.0 186 
 BAR2 HN ES        912 51.45                             169   -0.3710 29.0 186 
 BAR2 EZ I         912 55.28         7.7 0.42            170           29.0 186 
 BRR  HZ IP     D  912 37.58                             154    0.3610 67.5 295 
 BRR  HN ES        912 54.51                             154    0.6410 67.5 295 
 BRR  HZ I         912 59.05        10.5 0.12            152           67.5 295 
 PAM  EZ EP        912 38.68                             152    0.4110 73.7  43 
 PAM  EN ES        912 55.26                             152   -0.4810 73.7  43 
 PAM  EZ I         912 57.50         7.9 0.50            156           73.7  43 
 RUS  HZ EP        912 40.98                             143    0.5710  107 176 
 RUS  HN ES        912 59.49                             143   -0.0710  107 176 
 RUS  HZ I         913  0.85         2.2 0.27            147            107 176 
 PTB  HZ EP        912 42.82                             133   -0.33 9  148 256 
 PTB  HN ES        913  3.58                             133   -0.85 9  148 256 
 PTB  HZ I         913  7.55         6.4 0.14            134            148 256 
 SPBC HZ EP        912 44.96                             129   -0.06 9  167 217 
 SPBC HE ES        913  7.79                             129    0.03 9  167 217 
 SPBC HZ I         913 11.32         6.8 0.28            132            167 217 
 ZAR  HZ EP        912 48.57                             123    0.35 9  201 291 
 ZAR  HN ES        913 13.90                             123    0.44 9  201 291 
 ZAR  HZ I         913 20.08        10.8 0.50            125            201 291 
 NOR  HE ES        913 20.38                             119    0.05 8  237 233 
 URE  HZ EP        912 56.20                             114   -0.56 7  281 291 
 URE  HN ES   4    913 25.45                             114   -3.20 0  281 291 
 URE  HZ I         913 35.73         5.6 0.28            116            281 291 
 SJC  HZ EP        913  9.94                             106   -0.96 6  404 327 
 SJC  HE ES   4    913 51.45                             106   -2.37 0  404 327 
 SJC  HZ I         913 55.26         1.1 0.29            108            404 327 
                                                                                
