 2010  8 4 0847 52.5 L   6.798 -73.041148.9  RSN  4 0.1 1.3LRSN                1
 GAP=245        0.36       7.5    12.6  6.0  0.7010E+02 -0.2962E+02 -0.1988E+02E
 Epicentro: LOS SANTOS - SANTANDER                                             3
 ACTION:UP  10-09-07 10:52 OP:vdl  STATUS:               ID:20100804084751 L   I
 2010-08-04-0845-10S.COL___125                                                 6
 STAT SP IPHASW D HRMM SECON CODA AMPLIT PERI AZIMU VELO SNR AR TRES W  DIS CAZ7
 BAR2 SZ EP   1    848 12.64                             174     0.0 7   28 215 
 BAR2 SZ I         848 14.92         4.7 0.67                            28 215 
 BAR2 SZ ES   2    848 28.13                             174    -0.2 5   28 215 
 BTL  SZ EP   1    848 12.82                             168     0.2 7   28 298 
 BTL  SZ ES   2    848 28.31                             168     0.0 5   28 298 
 BRR  HZ EP   1    848 14.49                             151    -0.2 7   82 295 
 BRR  HZ I         848 14.73         6.9 0.19                            82 295 
 BRR  HE ES   2    848 32.05                             151     0.2 5   82 295 
 RUS  HZ I         848 33.86         1.8 0.50                           100 183 
 RUS  HE ES   2    848 35.38                             149     0.1 5  100 183 
                                                                                
