 2017 10 4 0400 54.2 L   6.823 -73.143144.0  RSN 12 0.3 2.1LRSN                1
 GAP=136        0.63       2.7     3.1  4.3 -0.2004E+01  0.4825E+01  0.1793E+01E
 Epicentro: LOS SANTOS - SANTANDER                                             3
 ACTION:UPD 17-11-07 19:28 OP:rebc STATUS:               ID:20171004040054 L   I
 OLDACT:REG 17-10-04 12:45 OP:dnl  STATUS:               ID:20171004035740     3
 2017-10-04-0358-00M.COL___447                                                 6
 STAT SP IPHASW D HRMM SECON CODA AMPLIT PERI AZIMU VELO AIN AR TRES W  DIS CAZ7
 BAR2 EZ IP     D  4 1 13.44                             169   -0.1910 25.8 190 
 BAR2 EZ ES        4 1 28.70                             169   -0.1210 25.8 190 
 BAR2 EZ I         4 1 29.81        17.0 0.56            164           25.8 190 
 PAM  EZ EP        4 1 16.17                             151    0.1110 75.3  41 
 PAM  EE ES        4 1 33.25                             151    0.1010 75.3  41 
 PAM  EZ I         4 1 35.21        24.5 0.52            144           75.3  41 
 RUS  HZ EP        4 1 17.46                             143   -0.4610  103 176 
 RUS  HN ES        4 1 36.87                             143    0.4210  103 176 
 RUS  HZ I         4 1 38.09        15.2 0.26            133            103 176 
 SPBC HZ EP        4 1 22.56                             128   -0.16 9  165 219 
 SPBC HN ES        4 1 45.19                             128    0.19 9  165 219 
 SPBC HZ I         4 1 47.23        20.0 0.10            119            165 219 
 ZAR  HZ EP   2    4 1 27.38                             122    0.96 4  203 291 
 ZAR  HE ES        4 1 51.59                             122    0.01 9  203 291 
 ZAR  HZ I         4 1 57.24        23.9 0.80            113            203 291 
 NOR  HZ EP   2    4 1 29.98                             118    0.02 4  236 234 
 NOR  HE ES        4 1 57.65                             118   -0.24 8  236 234 
 NOR  HZ I         4 2  5.01         6.6 0.22            109            236 234 
 CHI  HZ EP        4 1 31.85                             117   -0.18 8  251 195 
 CHI  HE ES   4    4 2  0.61                             117   -0.96 0  251 195 
 CHI  HZ I         4 2  4.77         4.3 0.72            108            251 195 
 ROSC BZ EP   2    4 1 33.12                             116    0.69 4  255 211 
 ROSC BZ I         4 2  8.29         9.9 0.45            108            255 211 
 URE  HE ES   4    4 2  2.45                             113   -4.52 0  283 291 
 GUY2CHZ EP   4    4 1 39.18                             112    1.31 0  303 234 
 GUY2CHE ES   4    4 2 15.53                             112    3.56 0  303 234 
 GUY2CHZ I         4 2 21.54         5.1 0.66                           303 234 
 PRA  HZ EP   2    4 1 47.58                             106   -0.31 3  394 209 
 PRA  HN ES        4 2 30.09                             106    0.29 6  394 209 
 PRA  HZ I         4 2 34.63         6.6 0.80             99            394 209 
 ORTC HZ EP   2    4 1 48.41                             106    0.14 3  398 216 
 ORTC HN ES   4    4 2 32.09                             106    1.61 0  398 216 
 ORTC HZ I         4 2 38.09         3.8 0.56             99            398 216 
 SJC  HZ EP   4    4 1 47.38                             106   -2.05 0  407 327 
 SJC  HN ES   4    4 2 28.14                             106   -4.41 0  407 327 
 SJC  HZ I         4 2 33.10         2.3 0.56             99            407 327 
                                                                                
