 2013  3 4 0806 38.1 L   6.791 -73.130142.8  RSN  6 0.4 1.6LRSN                1
 GAP=139        0.98       5.0     7.0  7.5  0.6274E+01  0.6561E+01 -0.2321E+01E
 Epicentro: LOS SANTOS - SANTANDER                                             3
 ACTION:UPD 13-04-09 13:59 OP:ep   STATUS:               ID:20130304080638 L   I
 2013-03-04-0800-00M.COL___228                                                 6
 STAT SP IPHASW D HRMM SECON CODA AMPLIT PERI AZIMU VELO AIN AR TRES W  DIS CAZ7
 BAR2 SZ EP        8 6 57.50                             171    0.1610 22.7 195 
 BAR2 SZ ES   1    8 7 11.73                             171   -0.63 7 22.7 195 
 BAR2 SZ I         8 7 14.02         6.2 0.31            173           22.7 195 
 BRR  HZ IP     C  8 6 59.35                             151    0.3310 73.2 299 
 BRR  HN ES        8 7 15.82                             151    0.4610 73.2 299 
 BRR  HN I         8 7 16.82        16.6 0.49            153           73.2 299 
 PAM  SZ EP        8 7  0.35                             150    0.3910 77.1  38 
 PAM  SE ES   1    8 7 16.61                             150   -0.42 7 77.1  38 
 PAM  SZ I         8 7 19.61         5.3 0.51            150           77.1  38 
 RUS  HZ EP        8 7  1.62                             144    0.1610 99.4 177 
 RUS  HN ES   1    8 7 19.60                             144   -0.09 7 99.4 177 
 PTB  HZ EP        8 7  4.34                             131   -0.60 9  149 259 
 SML  HZ EP   1    8 7 13.84                             117   -0.88 6  245 335 
 SML  HE ES   1    8 7 43.24                             117   -0.06 6  245 335 
                                                                                
