 2016  9 4 0646 15.3 L   6.809 -73.180139.4  RSN  6 0.3 1.4LRSN                1
 GAP=235        0.84       5.0     4.9  6.8  0.8533E+01  0.6417E+01 -0.8004E+01E
 Epicentro: ZAPATOCA - SANTANDER                                               3
 ACTION:UPD 17-08-17 21:06 OP:lp   STATUS:               ID:20160904064615 L   I
 OLDACT:UP  16-09-04 16:39 OP:drio STATUS:               ID:20160904063739d    3
 OLDACT:DUP 16-09-04 16:35 OP:drio STATUS:               ID:20160904063739d    3
 2016-09-04-0638-00M.COL___344                                                 6
 STAT SP IPHASW D HRMM SECON CODA AMPLIT PERI AZIMU VELO AIN AR TRES W  DIS CAZ7
 BAR2 EZ EP        646 34.19                             170    0.0510 24.0 181 
 BAR2 EZ ES        646 48.48                             170   -0.3910 24.0 181 
 BAR2 EZ I         646 50.15        10.7 0.46            171           24.0 181 
 BRR  HZ EP        646 36.01                             153    0.5110 67.3 299 
 BRR  HE ES   4    646 53.19                             153    1.90 0 67.3 299 
 BRR  HZ I         646 56.32         5.8 0.28            153           67.3 299 
 RUS  HZ EP        646 38.13                             142   -0.3610  102 174 
 RUS  HN ES        646 57.06                             142    0.4410  102 174 
 RUS  HZ I         646 58.81         2.2 0.22            147            102 174 
 PTB  HZ EP        646 40.89                             131   -0.50 9  144 258 
 PTB  HE ES        647  1.94                             131    0.17 9  144 258 
 PTB  HZ I         647  6.96         4.0 0.22            134            144 258 
 SPBC HZ EP        646 43.13                             128    0.00 9  162 218 
 SPBC HN ES        647  4.84                             128   -0.02 9  162 218 
 ZAR  HZ EP        646 47.13                             121    0.25 9  200 292 
 ZAR  HN ES        647 11.38                             121   -0.17 9  200 292 
                                                                                
