 2017  3 4 0335 16.9 L   5.964 -73.698118.5  RSN  5 0.3 1.2LRSN                1
 GAP=134        0.84       4.8     3.2  6.7 -0.4612E+01  0.4285E+01 -0.2640E+01E
 Epicentro: GUAVATA - SANTANDER                                                3
 ACTION:UPD 17-05-25 18:35 OP:jn   STATUS:               ID:20170304033516 L   I
 OLDACT:REG 17-03-04 12:19 OP:lv   STATUS:               ID:20170304032741     3
 2017-03-04-0328-00M.COL___397                                                 6
 STAT SP IPHASW D HRMM SECON CODA AMPLIT PERI AZIMU VELO AIN AR TRES W  DIS CAZ7
 SPBC HZ EP        335 33.87                             154   -0.3410 53.9 230 
 SPBC HE ES        335 47.90                             154    0.1510 53.9 230 
 SPBC HZ I         335 50.36         2.8 0.07            155           53.9 230 
 RUS  HZ EP        335 35.71                             148    0.0610 68.5  97 
 RUS  HN ES        335 50.02                             148   -0.3010 68.5  97 
 BAR2 EZ EP        335 37.41                             140    0.5910 89.9  39 
 BAR2 EZ ES        335 52.48                             140    0.0910 89.9  39 
 BAR2 EZ I         335 54.05         5.7 0.24            144           89.9  39 
 PTB  HZ EP        335 37.27                             135   -0.5110  105 307 
 PTB  HN ES        335 54.02                             135   -0.0810  105 307 
 PTB  HZ I         335 55.32         1.2 0.14            137            105 307 
 NOR  HZ EP        335 40.78                             127    0.03 9  137 251 
 NOR  HN ES        335 59.72                             127    0.34 9  137 251 
 NOR  HZ I         336  1.94         4.3 0.30            129            137 251 
                                                                                
