 2015 10 4 0226 27.0 L   6.801 -73.148146.6  RSN 11 0.4 1.8LRSN                1
 GAP=136        1.06       2.7     4.7  5.7 -0.1118E+01  0.8816E+01  0.2011E+00E
 Epicentro: LOS SANTOS - SANTANDER                                             3
 ACTION:UPD 15-12-22 20:37 OP:cam  STATUS:               ID:20151004022627 L   I
 OLDACT:DUP 15-10-04 14:13 OP:drio STATUS:               ID:20151004021751d    3
 2015-10-04-0217-50M.COL___355                                                 6
 STAT SP IPHASW D HRMM SECON CODA AMPLIT PERI AZIMU VELO AIN AR TRES W  DIS CAZ7
 BAR2 EZ EP        226 46.86                             171    0.1310 23.4 189 
 BAR2 EZ ES        227  2.18                             171    0.0610 23.4 189 
 BAR2 EZ I         227  3.12        13.3 0.22            169           23.4 189 
 BRR  HZ EP        226 48.64                             153    0.4210 70.9 299 
 BRR  HN ES        227  5.64                             153    0.8710 70.9 299 
 BRR  HZ I         227  9.21         8.5 0.30            149           70.9 299 
 PAM  EZ EP        226 49.74                             151    0.4410 77.5  40 
 PAM  EN ES        227  6.67                             151   -0.0410 77.5  40 
 PAM  EZ I         227  9.08         8.4 0.52            156           77.5  40 
 RUS  HZ EP        226 50.77                             144   -0.0610  101 176 
 RUS  HE ES        227  8.87                             144   -0.5610  101 176 
 RUS  HZ I         227 10.75         9.4 0.34            147            101 176 
 PTB  HZ EP        226 53.61                             132   -0.40 9  148 259 
 PTB  HE ES   4    227 12.98                             132   -2.10 0  148 259 
 PTB  HZ I         227 22.13         5.9 0.26            132            148 259 
 OCA  HZ EP        226 55.62                             130    0.26 9  160 353 
 OCA  HN ES        227 16.60                             130   -0.88 9  160 353 
 OCA  HZ I         227 21.60        14.3 0.30            132            160 353 
 SPBC HZ EP        226 55.69                             129    0.14 9  163 219 
 SPBC HN ES        227 17.69                             129   -0.13 9  163 219 
 SPBC HZ I         227 20.53        16.4 0.24            130            163 219 
 ZAR  HZ EP        226 59.88                             123    0.42 9  204 292 
 ZAR  HE ES        227 24.93                             123    0.14 9  204 292 
 ZAR  HZ I         227 34.42         6.4 0.12            123            204 292 
 SML  HZ EP        227  3.43                             118   -0.22 8  244 335 
 SML  HN ES        227 31.44                             118   -0.80 8  244 335 
 SML  HZ I         227 36.61        12.5 0.10            119            244 335 
 CHI  HZ EP        227  4.90                             117    0.16 8  249 195 
 CHI  HE ES        227 33.99                             117   -0.19 8  249 195 
 CHI  HZ I         227 40.06         2.2 0.64            120            249 195 
 GUY2CHZ EP        227 10.89                             112    0.27 7  301 235 
 GUY2CHN ES        227 44.09                             112   -0.56 7  301 235 
 GUY2CHZ I         227 54.37         2.6 0.64                           301 235 
                                                                                
