 2016 10 4 0102 58.6 L   6.792 -73.122143.8  RSN  9 0.5 1.5LRSN                1
 GAP=140        1.13       5.3     5.1  7.1  0.3042E+01  0.7218E+01  0.9093E+01E
 Epicentro: LOS SANTOS - SANTANDER                                             3
 ACTION:UPD 16-11-09 19:16 OP:rebc STATUS:               ID:20161004005741 L   I
 OLDACT:UP  16-10-04 14:24 OP:dani STATUS:               ID:20161004005741 L   3
 OLDACT:UP  16-10-04 14:23 OP:dani STATUS:               ID:20161004005741 L   3
 OLDACT:UP  16-10-04 14:22 OP:dani STATUS:               ID:20161004005741 L   3
 OLDACT:UPD 16-10-04 12:58 OP:edw  STATUS:               ID:20161004005741 L   3
 2016-10-04-0058-00M.COL___366                                                 6
 STAT SP IPHASW D HRMM SECON CODA AMPLIT PERI AZIMU VELO AIN AR TRES W  DIS CAZ7
 BAR2 EZ EP        1 3 17.36                             170   -0.6010 23.1 197 
 BAR2 EZ ES        1 3 32.82                             170   -0.2710 23.1 197 
 BAR2 EZ I         1 3 35.20         7.5 0.16            162           23.1 197 
 BRR  HZ EP        1 3 19.70                             151    0.0310 74.0 298 
 BRR  HE ES        1 3 36.69                             151    0.5610 74.0 298 
 BRR  HZ I         1 3 41.37         5.3 0.40            148           74.0 298 
 PAM  EZ EP        1 3 20.78                             151    0.2610 76.4  38 
 PAM  EN ES        1 3 37.76                             151    0.1210 76.4  38 
 PAM  EZ I         1 3 38.36         3.9 0.19            148           76.4  38 
 RUS  HZ EP        1 3 21.75                             144   -0.3110 99.6 178 
 RUS  HN ES        1 3 40.39                             144    0.0110 99.6 178 
 RUS  HZ I         1 3 42.60         3.2 0.32            133           99.6 178 
 PTB  HZ EP        1 3 24.88                             131   -0.72 9  150 259 
 PTB  HN ES        1 3 46.93                             131    0.24 9  150 259 
 PTB  HZ I         1 3 48.64         3.3 0.10            124            150 259 
 ZAR  HN ES        1 3 56.33                             122   -0.28 8  207 292 
 CHI  HZ EP        1 3 37.22                             117    1.07 8  249 196 
 CHI  HZ I         1 4 11.47         1.8 0.38            109            249 196 
 GUY2CHZ EP   4    1 3 44.73                             112    2.45 0  303 235 
 GUY2CHZ I         1 4 23.22         1.8 0.31                           303 235 
 PRA  HZ EP        1 3 52.50                             106    0.41 6  393 210 
 PRA  HN ES   4    1 4 37.46                             106    3.62 0  393 210 
 PRA  HZ I         1 4 39.79         2.0 0.24            100            393 210 
                                                                                
