 2011  3 4 0843 44.5 L   6.780 -73.077145.6  RSN  6 0.2 1.4LRSN                1
 GAP=167        0.45       2.4     9.1  4.6 -0.9733E+01  0.5560E+01 -0.1267E+01E
 Epicentro: LOS SANTOS - SANTANDER                                             3
 ACTION:UP  11-06-16 14:31 OP:jfem STATUS:               ID:20110304084344 L   I
 2011-03-04-0841-33S.COL___136                                                 6
 STAT SP IPHASW D HRMM SECON CODA AMPLIT PERI AZIMU VELO SNR AR TRES W  DIS CAZ7
 BAR2 SZ EP   1    844  4.17                             170     0.0 8   24 210 
 BAR2 SZ ES   1    844 19.36                             170    -0.1 8   24 210 
 BAR2 SZ I         844 20.32         6.4 0.40                            24 210 
 RUS  HZ EP   1    844  8.18                             144     0.1 8   98 180 
 RUS  HE ES   2    844 26.48                             144     0.0 5   98 180 
 RUS  HZ I         844 28.32         2.7 0.21                            98 180 
 GRA  SZ EP        844  9.99                             137     0.210  126  14 
 GRA  SZ ES   1    844 29.41                             137    -0.1 7  126  14 
 GRA  SZ I         844 31.04         3.8 0.47                           126  14 
 OCA  SZ EP   1    844 12.72                             129    -0.4 7  164 351 
 OCA  SZ ES   1    844 35.58                             129     0.1 7  164 351 
 OCA  SZ I         844 40.55         4.2 0.27                           164 351 
 CHI  HZ EP   3    844 21.81                             117    -0.4 2  249 197 
 CHI  HN ES   3    844 51.74                             117     0.1 2  249 197 
 CHI  HZ I         844 56.89         1.5 0.47                           249 197 
 PRA  HZ EP   2    844 37.97                             106    -0.3 3  394 211 
 PRA  HN ES   2    845 20.77                             106     0.6 3  394 211 
                                                                                
