 2016  5 4 0611 46.7 L   6.809 -73.132143.2  RSN 15 0.5 1.9LRSN                1
 GAP=120        1.11       3.2     3.8  5.7 -0.2107E+01  0.4834E+01  0.2081E+01E
 Epicentro: LOS SANTOS - SANTANDER                                             3
 ACTION:UPD 16-08-18 17:41 OP:cam  STATUS:               ID:20160504061146 L   I
 OLDACT:UP  16-05-04 14:33 OP:edw  STATUS:               ID:20160504060745     3
 OLDACT:REG 16-05-04 12:55 OP:edw  STATUS:               ID:20160504060745     3
 2016-05-04-0607-45M.COL___289                                                 6
 STAT SP IPHASW D HRMM SECON CODA AMPLIT PERI AZIMU VELO AIN AR TRES W  DIS CAZ7
 BAR2 EZ IP     C  612  6.16                             170    0.0810 24.6 193 
 BAR2 EZ ES        612 20.97                             170   -0.2010 24.6 193 
 BAR2 EZ I         612 22.30        16.5 0.20            168           24.6 193 
 BRR  HZ EP        612  7.99                             152    0.3410 72.1 297 
 BRR  HN ES        612 24.73                             152    0.7610 72.1 297 
 BRR  HZ I         612 28.05        11.5 0.16            151           72.1 297 
 PAM  EZ EP        612  9.03                             151    0.4610 75.7  39 
 PAM  EE ES        612 25.79                             151    0.1810 75.7  39 
 PAM  EZ I         612 27.89        22.9 0.50            155           75.7  39 
 RUS  HZ EP        612 10.21                             143   -0.0910  101 177 
 RUS  HE ES        612 28.48                             143   -0.1910  101 177 
 RUS  HZ I         612 30.39        10.5 0.42            144            101 177 
 PTB  HZ EP        612 13.47                             131   -0.17 9  149 259 
 PTB  HE ES        612 33.82                             131   -0.81 9  149 259 
 PTB  HZ I         612 36.53        13.2 0.16            131            149 259 
 OCA  HZ EP        612 14.14                             129   -0.63 9  159 353 
 OCA  HN ES        612 35.90                             129   -0.74 9  159 353 
 OCA  HZ I         612 39.38        22.2 0.32            131            159 353 
 SPBC HZ EP   2    612 14.51                             128   -0.69 5  165 219 
 SPBC HN ES        612 37.03                             128   -0.37 9  165 219 
 SPBC HZ I         612 44.84        17.4 0.22            128            165 219 
 ZAR  HZ EP   2    612 18.70                             122   -0.42 4  205 292 
 ZAR  HE ES        612 44.99                             122    0.61 9  205 292 
 ZAR  HZ I         612 50.01         7.6 0.50            122            205 292 
 NOR  HZ EP        612 22.79                             118    0.28 8  236 234 
 NOR  HE ES        612 50.16                             118   -0.25 8  236 234 
 NOR  HZ I         612 52.15         6.6 0.14            118            236 234 
 CHI  HZ EP        612 25.32                             116    0.89 8  250 195 
 CHI  HE ES        612 54.14                             116    0.30 8  250 195 
 CHI  HZ I         612 57.23         3.3 0.32            117            250 195 
 ROSC BZ EP   9    612 27.76                             116    2.87 0  254 211 
 ROSC BN ES        612 57.34                                   -0.18 8  254 211 
 ROSC BZ I         612 59.97         6.8 0.35            117            254 211 
 HEL  HZ EP   2    612 26.03                             114   -0.97 4  274 256 
 HEL  HN ES        612 59.08                             114    0.67 8  274 256 
 HEL  HZ I         613  4.00         3.0 0.20            115            274 256 
 PTGC HZ EP   1    612 29.67                             111   -0.85 5  309 159 
 PTGC HN ES   4    613  2.89                             111   -1.78 0  309 159 
 PTGC HZ I         613  5.16         5.4 0.38            112            309 159 
 CBOC HZ EP        612 34.04                             109    0.30 7  335 252 
 CBOC HN ES        613  9.90                             109   -0.50 7  335 252 
 CBOC HZ I         613 12.74         1.2 0.23            110            335 252 
 ORTC HZ EP   2    612 41.50                             106    0.74 3  397 216 
 ORTC HN ES   4    613 25.49                             106    2.59 0  397 216 
 ORTC HZ I         613 29.47         2.3 0.26            107            397 216 
 SJC  HN ES   4    613 22.08                             105   -3.40 0  409 327 
                                                                                
