 2010  9 4 0223 29.4 L   6.733 -73.193145.3  RSN  6 0.3 1.9LRSN                1
 GAP=227        0.74       5.6     8.0  7.2  0.1378E+02  0.1844E+02  0.1381E+02E
 Epicentro: VILLANUEVA - SANTANDER                                             3
 ACTION:UP  11-02-18 11:00 OP:tino STATUS:               ID:20100904022329 L   I
 2010-09-04-0221-02S.COL___120                                                 6
 STAT SP IPHASW D HRMM SECON CODA AMPLIT PERI AZIMU VELO SNR AR TRES W  DIS CAZ7
 BAR2 SZ IP        223 48.63                             174    -0.210   16 176 
 BAR2 SZ ES   1    224  3.54                             174    -0.4 7   16 176 
 BRR  HZ IP     D  223 50.50                             153     0.010   71 306 
 BRR  HN ES   1    224  7.15                             153     0.3 7   71 306 
 BRR  HZ I         224 11.30        15.7 0.06                            71 306 
 RUS  HZ EP   1    223 52.57                             146     0.0 7   94 173 
 RUS  HN ES   1    224 11.17                             146     0.5 7   94 173 
 RUS  HZ I         224 12.98         9.3 0.53                            94 173 
 CHI  HZ EP   2    224  6.62                             118     0.5 4  240 194 
 CHI  HZ I         224  7.28         4.7 0.21                           240 194 
 HEL  HN ES   2    224 39.54                             115     0.0 4  265 257 
 HEL  HZ I         224 49.03         5.9 0.25                           265 257 
 PRA  HZ EP   1    224 22.20                             107     0.4 4  383 209 
 PRA  HE ES   1    225  2.02                             107    -0.7 4  383 209 
 PRA  HZ I         225 10.24         4.4 0.62                           383 209 
                                                                                
