 2013  3 4 0842 22.8 L   6.669 -73.193144.0  RSN  4 0.3 1.1LRSN                1
 GAP=222        0.62      11.8     9.4  6.7  0.8000E+02  0.3306E+02  0.3488E+02E
 Epicentro: VILLANUEVA - SANTANDER                                             3
 ACTION:UPD 13-04-09 13:59 OP:ep   STATUS:               ID:20130304084223 L   I
 2013-03-04-0840-00M.COL___228                                                 6
 STAT SP IPHASW D HRMM SECON CODA AMPLIT PERI AZIMU VELO AIN AR TRES W  DIS CAZ7
 BAR2 SZ EP   1    842 42.06                             176    0.03 7 8.61 172 
 BAR2 SZ ES   1    842 56.97                             176   -0.05 7 8.61 172 
 BAR2 SZ I         842 59.28         4.1 0.17            167           8.61 172 
 BRR  HZ EP        842 43.67                             151   -0.3310 75.0 310 
 BRR  HZ I         842 43.88         2.9 0.16            148           75.0 310 
 BRR  HN ES        843  0.83                             151    0.3110 75.0 310 
 PTB  HZ EP        842 49.06                             133    0.08 9  140 264 
 ZAR  HZ EP   1    842 55.63                             122    0.36 6  205 296 
 ZAR  HN ES   1    843 20.15                             122   -0.43 6  205 296 
 ZAR  HZ I         843 26.00         0.8 0.26            122            205 296 
                                                                                
