 2012  2 4 0126 57.6 L   6.217 -73.751104.7  RSN  4 0.2 1.6LRSN                1
 GAP=183        0.46       4.3     3.1  8.1 -0.7464E+01 -0.3732E+01  0.1074E+02E
 ACTION:UP  12-03-07 16:27 OP:epov STATUS:               ID:20120204012657 L   I
 2012-02-04-0120-00M.COL___188                                                 6
 STAT SP IPHASW D HRMM SECON CODA AMPLIT PERI AZIMU VELO SNR AR TRES W  DIS CAZ7
 BAR2 SZ EP   1    127 14.89                             142   -0.20 7 75.3  57 
 BAR2 SZ I         127 15.33        10.5 0.19                          75.3  57 
 BAR2 SZ ES   1    127 28.92                             142    0.15 7 75.3  57 
 PTB  HN ES   1    127 29.82                             137    0.11 7 85.8 295 
 PTB  HZ I         127 32.09                                           85.8 295 
 BRR  HZ EP   1    127 16.96                             133    0.28 7 98.5   2 
 BRR  HZ I         127 17.57         8.0 0.10                          98.5   2 
 BRR  HE ES   1    127 31.35                             133   -0.26 7 98.5   2 
 NOR  SN ES   1    127 39.43                             121   -0.08 7  143 240 
                                                                                
