 2012  3 4 0222 52.8 L   6.759 -73.172147.2  RSN  7 0.2 1.9LRSN                1
 GAP=180        0.57       2.9     3.6  5.1  0.6377E+00  0.2707E+01 -0.2597E+01E
 ACTION:UP  12-03-31 23:16 OP:EP   STATUS:               ID:20120304022252 L   I
 2012-03-04-0220-00M.COL___191                                                 6
 STAT SP IPHASW D HRMM SECON CODA AMPLIT PERI AZIMU VELO SNR AR TRES W  DIS CAZ7
 BAR2 SZ EP        223 12.44                             173    -0.110   19 183 
 BAR2 SZ ES   1    223 27.60                             173    -0.3 7   19 183 
 BAR2 SZ I         223 28.87        20.2 0.15                            19 183 
 BRR  HZ EP        223 14.31                             153     0.210   71 303 
 BRR  HZ I         223 14.74        15.5 0.14                            71 303 
 BRR  HN ES   1    223 31.17                             153     0.5 7   71 303 
 RUS  HZ EP   1    223 16.66                             145     0.3 7   96 174 
 RUS  HE ES   1    223 34.63                             145    -0.1 7   96 174 
 RUS  HZ I         223 36.49        10.6 0.38                            96 174 
 PTB  HZ EP   1    223 19.42                             133    -0.1 7  144 260 
 PTB  HN ES   1    223 40.10                             133    -0.3 7  144 260 
 OCA  SZ EP   1    223 21.48                             129    -0.1 7  164 354 
 OCA  SZ ES   1    223 43.90                             129    -0.2 7  164 354 
 ZAR  HZ EP   1    223 25.02                             123    -0.2 6  203 294 
 ZAR  HE ES   1    223 50.44                             123    -0.1 6  203 294 
 ZAR  HZ I         223 57.07         7.7 0.32                           203 294 
 NOR  SN ES   1    223 55.70                             119     0.1 6  230 235 
                                                                                
