 2015  2 4 0920 38.5 L   6.655 -73.205151.6  RSN  4 0.1 1.3LRSN                1
 GAP=147        0.35       4.8     2.1  3.0  0.1765E+01 -0.1028E+01  0.3226E+01E
 Epicentro: BARICHARA - SANTANDER                                              3
 ACTION:UPD 15-04-30 21:21 OP:nd   STATUS:               ID:20150204092038 L   I
 OLDACT:DUP 15-02-04 19:05 OP:stll STATUS:               ID:20150204091740d    3
 2015-02-04-0917-39M.COL___271                                                 6
 STAT SP IPHASW D HRMM SECON CODA AMPLIT PERI AZIMU VELO AIN AR TRES W  DIS CAZ7
 BAR2 EZ EP        920 58.65                             177    0.0410 7.32 160 
 BAR2 EZ ES        921 14.23                             177   -0.0910 7.32 160 
 BAR2 EZ I         921 15.21         7.3 0.20            172           7.32 160 
 BRR  HZ EP        921  0.47                             152   -0.0210 75.2 312 
 BRR  HN ES        921 17.68                             152    0.0310 75.2 312 
 PTB  HZ EP        921  5.01                             135   -0.16 9  139 265 
 PTB  HN ES        921 26.12                             135    0.13 9  139 265 
 PTB  HZ I         921 29.30         1.3 0.40            134            139 265 
 TAM  HZ EP        921  7.00                             131    0.09 9  158  99 
                                                                                
