 2012  7 4 0502 12.4 L   6.790 -73.080142.0  RSN  8 0.4 2.0LRSN                1
 GAP=190        1.01       4.4     5.8  8.0 -0.2097E+01  0.1161E+02 -0.1517E+01E
 Epicentro: LOS SANTOS - SANTANDER                                             3
 ACTION:UP  12-08-14 11:42 OP:ep   STATUS:               ID:20120704050212 L   I
 2012-07-04-0500-00M.COL___200                                                 6
 STAT SP IPHASW D HRMM SECON CODA AMPLIT PERI AZIMU VELO AIN AR TRES W  DIS CAZ7
 BAR2 SZ EP   1    5 2 32.08                             170     0.5 7   25 207 
 BAR2 SZ ES   1    5 2 46.14                             170    -0.4 7   25 207 
 BAR2 SZ I         5 2 48.37        15.7 0.22            169             25 207 
 BRR  HZ EP   1    5 2 33.95                             150     0.4 7   78 297 
 BRR  HZ I         5 2 34.36        29.3 0.09            148             78 297 
 BRR  HN ES        5 2 50.41                             150     0.410   78 297 
 RUS  HZ EP   1    5 2 35.82                             143     0.1 7   99 180 
 RUS  HN ES   1    5 2 53.93                             143     0.1 7   99 180 
 RUS  HZ I         5 2 56.00         8.3 0.36            145             99 180 
 PTB  HZ EP   1    5 2 38.92                             130    -0.8 7  155 260 
 PTB  HE ES   1    5 3  0.20                             130    -0.8 7  155 260 
 PTB  HZ I         5 3  2.26         7.0 0.16            130            155 260 
 OCA  HZ EP   1    5 2 40.41                             128    -0.2 7  162 351 
 OCA  HN ES        5 3  2.31                             128    -0.3 9  162 351 
 OCA  HZ I         5 3  7.38        23.4 0.16            128            162 351 
 ZAR  HZ EP   1    5 2 45.20                             121    -0.1 6  211 292 
 ZAR  HE ES   1    5 3 11.72                             121     0.7 6  211 292 
 ZAR  HZ I         5 3 16.16        14.0 0.24            121            211 292 
 NOR  SN ES   1    5 3 16.45                             117    -0.2 6  240 236 
 HEL  HZ EP   1    5 2 53.42                             113     0.3 6  279 256 
 HEL  HE ES        5 3 25.12                             113     0.1 7  279 256 
 HEL  HZ I         5 3 30.27         4.9 0.39            114            279 256 
