 2011  3 4 0114  6.3 L   6.819 -73.267142.7  RSN  6 0.4 1.7LRSN                1
 GAP=150        0.74       3.5    16.8  8.3 -0.2588E+02  0.7662E+02 -0.7178E+01E
 Epicentro: ZAPATOCA - SANTANDER                                               3
 ACTION:UP  11-06-16 14:31 OP:jfem STATUS:               ID:20110304011406 L   I
 2011-03-04-0111-18S.COL___135                                                 6
 STAT SP IPHASW D HRMM SECON CODA AMPLIT PERI AZIMU VELO SNR AR TRES W  DIS CAZ7
 BAR2 SZ EP   1    114 26.01                             169     0.4 7   27 160 
 BAR2 SZ ES   1    114 40.85                             169     0.1 7   27 160 
 BAR2 SZ I         114 42.27        16.5 0.36                            27 160 
 RUS  HZ EP   2    114 29.98                             142    -0.1 5  104 169 
 RUS  HE ES   1    114 48.30                             142    -0.3 7  104 169 
 RUS  HZ I         114 50.16         5.6 0.26                           104 169 
 GRA  SZ EP   1    114 31.72                             136     0.2 7  128  23 
 GRA  SZ ES   2    114 50.72                             136    -0.4 5  128  23 
 GRA  SZ I         114 54.46         6.3 0.49                           128  23 
 OCA  SZ EP   1    114 34.50                             129     0.4 7  157 358 
 OCA  SZ ES   1    114 55.35                             129    -0.4 7  157 358 
 OCA  SZ I         114 57.00         5.6 0.24                           157 358 
 CHI  HZ EP   1    114 43.11                             116    -0.6 6  248 192 
 CHI  HE ES   1    115 13.27                             116     0.4 6  248 192 
 CHI  HZ I         115 16.24         2.6 0.33                           248 192 
 PRA  HZ EP   1    114 58.90                             106    -0.3 4  387 208 
                                                                                
