 2013  4 4 0958 59.6 L   6.765 -73.142138.3  RSN  8 0.4 1.7LRSN                1
 GAP=183        0.86       4.3     5.7  6.6  0.6902E+01  0.1031E+02  0.4965E+00E
 Epicentro: LOS SANTOS - SANTANDER                                             3
 ACTION:UPD 13-05-22 14:35 OP:EP   STATUS:               ID:20130404095859 L   I
 2013-04-04-0957-36M.COL___206                                                 6
 STAT SP IPHASW D HRMM SECON CODA AMPLIT PERI AZIMU VELO AIN AR TRES W  DIS CAZ7
 BAR2 SZ EP   1    959 18.19                             171   -0.02 7 19.6 193 
 BAR2 SZ ES   1    959 32.84                             171    0.08 7 19.6 193 
 BAR2 SZ I         959 34.71        18.4 0.24            176           19.6 193 
 GIR2 SZ EP        959 18.38                             165   -0.0710 35.2 351 
 GIR2 SZ ES   1    959 32.69                             165   -0.50 7 35.2 351 
 GIR2 SZ I         959 44.43         4.1 0.48            163           35.2 351 
 BRR  HZ EP     D  959 20.16                             151    0.1310 73.5 301 
 BRR  HN ES   1    959 36.33                             151    0.33 7 73.5 301 
 BRR  HZ I         959 43.35         7.2 0.38            152           73.5 301 
 RUS  HZ EP        959 22.97                             143    0.6810 96.7 176 
 RUS  HN ES   1    959 39.87                             143   -0.15 7 96.7 176 
 RUS  HZ I         959 41.56         5.6 0.44            153           96.7 176 
 PTB  HZ EP        959 25.27                             130   -0.62 9  147 260 
 PTB  HN ES   1    959 46.16                             130   -0.27 7  147 260 
 PTB  HZ I         959 48.28         5.5 0.20            136            147 260 
 OCA  HZ EP   4    959 30.26                             127    2.59 0  164 353 
 OCA  HN ES   1    959 49.53                             127   -0.07 7  164 353 
 ZAR  HZ EP        959 31.42                             120   -0.30 8  206 293 
 ZAR  HN ES   1    959 57.55                             120    0.75 6  206 293 
 ZAR  HZ I        10 0  2.36         7.9 0.44            126            206 293 
 SML  HZ EP   4    959 34.49                             115   -1.69 0  247 336 
 SML  HN ES   2   10 0  4.92                             115    0.18 4  247 336 
 SML  HZ I        10 0  7.40         7.0 0.08            120            247 336 
                                                                                
