 2013  5 4 0718 55.4 L   6.890 -73.148150.1  RSN  7 0.4 1.9LRSN                1
 GAP=131        0.96       4.8     5.3  6.9 -0.6058E+01  0.4191E+01  0.3504E+01E
 Epicentro: LOS SANTOS - SANTANDER                                             3
 ACTION:UPD 13-06-20 09:47 OP:ep   STATUS:               ID:20130504071855 L   I
 2013-05-04-0717-41M.COL___219                                                 6
 STAT SP IPHASW D HRMM SECON CODA AMPLIT PERI AZIMU VELO AIN AR TRES W  DIS CAZ7
 GIR2 SZ EP   1    719 15.43                             172    0.01 7 21.4 347 
 GIR2 SZ ES        719 31.12                             172    0.1310 21.4 347 
 BRR  HZ EP        719 17.10                             155    0.2710 66.7 291 
 BRR  HN ES        719 34.19                             155    0.6910 66.7 291 
 BRR  HZ I         719 38.24        24.3 0.46            153           66.7 291 
 PAM  SZ EP        719 18.01                             154    0.2910 70.2  45 
 PAM  SZ I         719 18.25        25.7 0.16            156           70.2  45 
 PAM  SN ES        719 34.75                             154   -0.3510 70.2  45 
 RUS  HZ EP   1    719 20.79                             142    0.44 7  111 176 
 RUS  HN ES   1    719 39.31                             142   -0.47 7  111 176 
 RUS  HZ I         719 40.35         3.5 0.16            145            111 176 
 PTB  HZ EP        719 22.56                             133   -0.39 9  150 255 
 PTB  HN ES        719 44.04                             133   -0.36 9  150 255 
 PTB  HZ I         719 46.80        14.4 0.28            133            150 255 
 OCA  HZ EP   2    719 23.92                             133    0.73 5  150 353 
 OCA  HN ES        719 44.30                             133   -0.53 9  150 353 
 OCA  HZ I         719 48.49        12.0 0.32            133            150 353 
 SML  HZ EP   2    719 30.92                             119   -0.42 4  235 334 
                                                                                
