 2011  6 4 0428 22.7 L   6.804 -73.109146.8  RSN  8 0.3 1.7LRSN                1
 GAP=141        0.55       3.0     5.5  5.3 -0.5976E+01  0.4586E+01 -0.2339E+01E
 Epicentro: LOS SANTOS - SANTANDER                                             3
 ACTION:UP  11-07-14 19:03 OP:ep   STATUS:               ID:20110604042822 L   I
 2011-06-04-0426-43S.COL___132                                                 6
 STAT SP IPHASW D HRMM SECON CODA AMPLIT PERI AZIMU VELO SNR AR TRES W  DIS CAZ7
 BAR2 SZ EP   1    428 42.33                             170    -0.1 7   25 199 
 BAR2 SZ ES   1    428 57.42                             170    -0.5 7   25 199 
 BAR2 SZ I         428 58.20        10.1 0.21                            25 199 
 BRR  HZ EP   1    428 44.04                             151    -0.1 7   75 297 
 BRR  HN ES   2    429  1.09                             151     0.2 5   75 297 
 BRR  HZ I         429  1.71        15.5 0.10                            75 297 
 PAM  SZ EP   1    428 45.17                             152     0.4 7   75  37 
 PAM  SN ES   1    429  1.92                             152    -0.2 7   75  37 
 RUS  HZ EP   1    428 46.58                             144     0.0 7  101 178 
 RUS  HE ES   1    429  5.46                             144     0.3 7  101 178 
 RUS  HZ I         429  6.75         6.6 0.27                           101 178 
 BRI  SZ EP   2    428 46.05                             142    -0.5 5  107  19 
 BRI  SZ ES   2    429  5.15                             142     0.0 5  107  19 
 BRI  SZ I         429  8.28         6.0 0.48                           107  19 
 GRA  SZ EP   1    428 47.92                             137     0.1 7  124  16 
 GRA  SZ ES   2    429  7.70                             137     0.2 5  124  16 
 GRA  SZ I         429  8.74         9.7 0.25                           124  16 
 OCA  SZ EP   2    428 50.80                             130    -0.3 5  160 352 
 OCA  SZ ES   2    429 13.64                             130     0.4 5  160 352 
 OCA  SZ I         429 18.50         7.1 0.41                           160 352 
 NOR  SN ES   2    429 27.05                             118     0.0 4  238 235 
                                                                                
