 2016  5 4 0539 44.9 L   6.812 -73.161147.2  RSN 12 0.4 1.7LRSN                1
 GAP=117        1.01       3.0     3.9  5.6 -0.4805E+00  0.5633E+01  0.2648E+01E
 Epicentro: LOS SANTOS - SANTANDER                                             3
 ACTION:UPD 16-08-18 17:41 OP:cam  STATUS:               ID:20160504053944 L   I
 OLDACT:UP  16-05-04 14:18 OP:edw  STATUS:               ID:20160504052746     3
 OLDACT:REG 16-05-04 12:43 OP:edw  STATUS:               ID:20160504052746     3
 2016-05-04-0527-46M.COL___295                                                 6
 STAT SP IPHASW D HRMM SECON CODA AMPLIT PERI AZIMU VELO AIN AR TRES W  DIS CAZ7
 BAR2 EZ EP        540  4.56                             170   -0.1410 24.4 186 
 BAR2 EZ ES        540 19.83                             170   -0.3310 24.4 186 
 BAR2 EZ I         540 20.81        12.5 0.22            170           24.4 186 
 BRR  HZ EP        540  6.39                             153    0.3310 69.1 298 
 BRR  HN ES        540 23.61                             153    1.0210 69.1 298 
 BRR  HZ I         540 24.48         6.1 0.22            151           69.1 298 
 PAM  EZ EP        540  7.29                             151    0.0410 77.5  41 
 PAM  EN ES        540 24.56                             151   -0.1410 77.5  41 
 PAM  EZ I         540 26.71        10.2 0.46            152           77.5  41 
 RUS  HZ EP        540  8.80                             144   -0.0710  102 175 
 RUS  HE ES        540 27.74                             144    0.1610  102 175 
 RUS  HZ I         540 28.34         7.8 0.28            145            102 175 
 PTB  HZ EP        540 11.65                             133   -0.19 9  146 258 
 PTB  HN ES        540 32.27                             133   -0.59 9  146 258 
 PTB  HZ I         540 34.50         4.9 0.58            131            146 258 
 OCA  HZ EP   2    540 13.50                             130    0.34 5  159 354 
 OCA  HN ES        540 34.73                             130   -0.49 9  159 354 
 OCA  HZ I         540 41.16         7.7 0.14            130            159 354 
 SPBC HZ EP        540 13.30                             129   -0.18 9  163 218 
 SPBC HE ES        540 36.19                             129    0.40 9  163 218 
 SPBC HZ I         540 36.95         9.3 0.13            129            163 218 
 ZAR  HZ EP        540 17.43                             123    0.22 9  202 292 
 ZAR  HN ES        540 42.19                             123   -0.23 9  202 292 
 ZAR  HZ I         540 48.00         2.5 0.28            122            202 292 
 CHI  HZ EP        540 22.46                             117   -0.28 8  249 195 
 CHI  HN ES        540 51.89                             117   -0.39 8  249 195 
 ROSC BZ EP        540 24.04                             117    0.94 8  253 211 
 ROSC BN ES   4    540 55.66                             117    2.74 0  253 211 
 ROSC BZ I         541  2.78         5.3 0.35            117            253 211 
 HEL  HZ EP   2    540 25.51                             115    0.49 4  271 255 
 HEL  HN ES        540 55.89                             115   -0.44 8  271 255 
 HEL  HZ I         541  2.76         3.3 0.32            115            271 255 
 URE  HN ES   4    540 54.71                             114   -2.99 0  282 292 
 PTGC HZ EP   9    540 27.61                             112   -1.40 0  311 158 
 PTGC HN ES        541  1.72                                   -0.31 7  311 158 
 PTGC HZ I         541  3.81         3.1 0.20            112            311 158 
                                                                                
