 2014  6 4 0346  0.3 L   5.996 -73.660111.9  RSN  6 0.4 1.2LRSN                1
 GAP=130        1.03       6.1     4.3  8.3 -0.6392E+01  0.9764E+01  0.3040E+01E
 Epicentro: VELEZ - SANTANDER                                                  3
 ACTION:UPD 14-07-01 22:50 OP:nd   STATUS:               ID:20140604034600 L   I
 OLDACT:UP  14-06-04 16:12 OP:fm   STATUS:               ID:20140604033806     3
 OLDACT:UP  14-06-04 16:11 OP:fm   STATUS:               ID:20140604033806     3
 OLDACT:REG 14-06-04 13:26 OP:fm   STATUS:               ID:20140604033806     3
 2014-06-04-0338-06M.COL___253                                                 6
 STAT SP IPHASW D HRMM SECON CODA AMPLIT PERI AZIMU VELO AIN AR TRES W  DIS CAZ7
 SPBC HE ES        346 30.46                             150   -0.0610 59.4 230 
 RUS  HZ EP        346 18.45                             148    0.2610 64.9 100 
 RUS  HN ES   1    346 31.43                             148   -0.72 7 64.9 100 
 RUS  HZ I         346 36.98         2.2 0.26            153           64.9 100 
 BAR2 SZ ES   1    346 34.71                             140    0.71 7 84.5  39 
 PTB  HZ EP        346 20.13                             133   -0.6610  107 304 
 PTB  HN ES        346 36.69                             133   -0.0710  107 304 
 PTB  HZ I         346 41.51         3.2 0.18            137            107 304 
 NOR  HZ EP        346 24.44                             124    0.20 9  142 250 
 NOR  HE ES        346 43.39                             124    0.48 9  142 250 
 NOR  HZ I         346 46.99         3.6 0.38            129            142 250 
 GUY2CHZ EP        346 31.96                             114    0.20 8  207 246 
 GUY2CHN ES   1    346 55.72                             114   -0.57 6  207 246 
 GUY2CHZ I         347  3.46         1.7 0.26                           207 246 
                                                                                
