 2017 10 4 0613 58.4 L   6.822 -73.181147.7  RSN  6 0.3 1.4LRSN                1
 GAP=131        0.77       3.2     4.3  6.6 -0.2169E+01  0.9282E+01  0.6756E+00E
 Epicentro: ZAPATOCA - SANTANDER                                               3
 ACTION:UPD 17-11-07 19:28 OP:rebc STATUS:               ID:20171004061358 L   I
 OLDACT:UP  17-10-04 15:42 OP:dnl  STATUS:               ID:20171004060739d    3
 OLDACT:DUP 17-10-04 15:39 OP:dnl  STATUS:               ID:20171004060739d    3
 2017-10-04-0608-00M.COL___447                                                 6
 STAT SP IPHASW D HRMM SECON CODA AMPLIT PERI AZIMU VELO AIN AR TRES W  DIS CAZ7
 BAR2 EZ EP        614 18.42                             170    0.1510 25.5 180 
 BAR2 EZ ES        614 33.72                             170   -0.0710 25.5 180 
 BAR2 EZ I         614 35.00        11.5 0.20            169           25.5 180 
 PAM  EZ EP        614 21.23                             151    0.4110 78.1  43 
 PAM  EE ES        614 37.91                             151   -0.4310 78.1  43 
 PAM  EZ I         614 43.22         1.8 0.32            154           78.1  43 
 RUS  HZ EP        614 22.35                             143   -0.1510  103 174 
 RUS  HN ES        614 41.65                             143    0.3210  103 174 
 RUS  HZ I         614 42.69         2.2 0.26            144            103 174 
 SPBC HZ EP   2    614 27.30                             129    0.33 5  163 217 
 SPBC HN ES        614 49.45                             129    0.18 9  163 217 
 SPBC HZ I         614 55.46         5.0 0.20            129            163 217 
 ZAR  HZ EP   2    614 29.83                             123   -0.64 4  200 292 
 ZAR  HN ES        614 55.60                             123    0.09 9  200 292 
 ZAR  HZ I         615  2.57         2.6 0.60            123            200 292 
 CHI  HZ EP   4    614 34.39                             117   -1.93 0  250 194 
 CHI  HN ES        615  5.31                             117   -0.62 8  250 194 
 CHI  HZ I         615 14.39         1.2 0.36            118            250 194 
                                                                                
