 2012  1 4 0403 21.7 L   6.779 -73.121140.7  RSN 10 0.4 2.0LRSN                1
 GAP=141        0.70       3.1     4.5  5.7 -0.1808E+01  0.8665E+01  0.6068E+00E
 Epicentro: LOS SANTOS - SANTANDER                                             3
 ACTION:UP  12-02-03 08:13 OP:REBC STATUS:               ID:20120104040321 L   I
 2012-01-04-0400-00M.COL___183                                                 6
 STAT SP IPHASW D HRMM SECON CODA AMPLIT PERI AZIMU VELO SNR AR TRES W  DIS CAZ7
 BAR2 SZ EP        4 3 40.44                             171    -0.310   22 198 
 BAR2 SZ ES   1    4 3 55.24                             171    -0.3 7   22 198 
 BAR2 SZ I         4 3 56.85        26.8 0.24                            22 198 
 BRR  HZ EP        4 3 42.16                             150    -0.410   75 299 
 BRR  HN ES   2    4 3 59.11                             150     0.3 5   75 299 
 BRR  HZ I         4 4  3.49        25.8 0.16                            75 299 
 PAM  SZ EP   1    4 3 43.39                             150     0.0 7   77  37 
 PAM  SN ES   1    4 4  0.43                             150     0.1 7   77  37 
 RUS  HZ EP   1    4 3 44.60                             143    -0.2 7   98 178 
 RUS  HZ I         4 3 45.81         9.6 0.16                            98 178 
 RUS  HN ES   1    4 4  3.34                             143     0.5 7   98 178 
 PTB  HE ES   2    4 4  9.16                             130    -0.2 5  150 260 
 OCA  SZ EP   1    4 3 49.98                             128     0.1 7  163 352 
 OCA  SZ ES   1    4 4 12.51                             128     0.6 7  163 352 
 OCA  SZ I         4 4 15.93        19.3 0.24                           163 352 
 ZAR  HZ EP   2    4 3 54.38                             121     0.2 4  207 292 
 ZAR  HN ES   2    4 4 18.96                             121    -0.6 4  207 292 
 NOR  SZ EP   1    4 3 57.35                             117     0.1 6  236 235 
 NOR  SE ES   2    4 4 25.16                             117     0.2 4  236 235 
 CHI  HZ EP   1    4 3 59.02                             116     0.0 6  247 196 
 CHI  HE ES   2    4 4 28.55                             116     0.5 4  247 196 
 CHI  HZ I         4 4 35.28         5.3 0.35                           247 196 
 HEL  HZ EP   2    4 4  2.52                             114     0.6 4  274 256 
 HEL  HN ES   2    4 4 33.90                             114     0.6 4  274 256 
 HEL  HZ I         4 4 39.93         5.0 0.40                           274 256 
                                                                                
