 2011 12 4 0102 14.4 L   6.577 -73.020171.6  RSN  6 0.3 1.9LRSN                1
 GAP=163        0.64       5.6    10.0  7.2  0.2353E+02 -0.3381E+02 -0.2105E+02E
 Epicentro: CURITI - SANTANDER                                                 3
 ACTION:UPD 12-07-13 16:14 OP:ep   STATUS:               ID:20111204010214 L   I
 2011-12-04-0100-00M.COL___182                                                 6
 STAT SP IPHASW D HRMM SECON CODA AMPLIT PERI AZIMU VELO AIN AR TRES W  DIS CAZ7
 BAR2 SZ EP        1 2 36.82                             174   -0.2910 18.0 275 
 BAR2 SZ ES   1    1 2 54.37                             174   -0.42 7 18.0 275 
 BAR2 SZ I         1 2 57.32        16.0 0.30                          18.0 275 
 GIR2 SZ EP        1 2 37.95                             160   -0.1310 58.7 341 
 RUS  HZ EP        1 2 39.36                             155   -0.0410 76.0 185 
 RUS  HN ES   1    1 2 59.37                             155    0.51 7 76.0 185 
 PAM  SZ EP        1 2 40.39                             151    0.1410 91.5  23 
 BRR  HZ EP        1 2 39.75                             149   -0.0910 96.4 308 
 BRR  HZ I         1 2 40.21        11.3 0.12                          96.4 308 
 BRR  HE ES   1    1 2 59.87                             149    0.22 7 96.4 308 
 OCA  SZ EP        1 2 47.55                             130    0.30 9  187 350 
                                                                                
