 2012  1 4 0306  4.9 L   6.877 -73.269122.6  RSN  7 0.3 1.5LRSN                1
 GAP=113        0.53       3.9     3.9  5.3  0.6511E+01  0.6458E+01  0.6771E+01E
 Epicentro: BETULIA - SANTANDER                                                3
 ACTION:UP  12-02-03 08:13 OP:REBC STATUS:               ID:20120104030604 L   I
 2012-01-04-0300-00M.COL___183                                                 6
 STAT SP IPHASW D HRMM SECON CODA AMPLIT PERI AZIMU VELO SNR AR TRES W  DIS CAZ7
 BAR2 SZ EP        3 6 22.16                             164     0.210   33 163 
 BAR2 SZ ES   1    3 6 35.40                             164     0.1 7   33 163 
 BAR2 SZ I         3 6 36.58        13.3 0.29                            33 163 
 BRR  HZ EP   1    3 6 22.54                             154    -0.1 7   55 298 
 BRR  HE ES   1    3 6 36.77                             154     0.3 7   55 298 
 BRR  HZ I         3 6 37.37        13.7 0.13                            55 298 
 PAM  SN ES   2    3 6 39.97                             145    -0.6 5   81  51 
 RUS  HZ EP   2    3 6 27.11                             135    -0.1 5  111 169 
 RUS  HN ES   2    3 6 44.56                             135    -0.2 5  111 169 
 RUS  HZ I         3 6 46.71         3.0 0.39                           111 169 
 PTB  HN ES   2    3 6 47.25                             129    -0.5 5  136 254 
 ZAR  HZ EP   2    3 6 34.40                             119     0.2 4  188 291 
 ZAR  HN ES   1    3 6 56.82                             119    -0.3 7  188 291 
 CHI  HZ EP   1    3 6 42.16                             111     0.2 6  254 192 
 CHI  HN ES   2    3 7 10.60                             111    -0.3 4  254 192 
                                                                                
