 2013  7 4 0500 17.9 L   6.812 -73.172133.0  RSN  9 0.4 2.0LRSN                1
 GAP=133        1.06       3.7     4.8  7.9 -0.4590E+01  0.1322E+02 -0.5223E+01E
 Epicentro: LOS SANTOS - SANTANDER                                             3
 ACTION:UPD 13-08-12 10:35 OP:ep   STATUS:               ID:20130704050017 L   I
 OLDACT:UP  13-07-05 09:47 OP:ep   STATUS:               ID:20130704050017 L   3
 OLDACT:UP  13-07-05 02:35 OP:CF   STATUS:               ID:20130704050017 L   3
 OLDACT:REG 13-07-04 08:13 OP:stll STATUS:               ID:20130704045850     3
 2013-07-04-0458-50M.COL___235                                                 6
 STAT SP IPHASW D HRMM SECON CODA AMPLIT PERI AZIMU VELO AIN AR TRES W  DIS CAZ7
 BAR2 SZ EP        5 0 36.06                             169    0.0510 24.4 183 
 BAR2 SZ ES        5 0 49.78                             169   -0.3610 24.4 183 
 BAR2 SZ I         5 0 51.90         9.9 0.26            170           24.4 183 
 GIR2 SZ EP        5 0 35.99                             167   -0.0010 29.5 355 
 BRR  HZ IP        5 0 37.80                             151    0.3210 68.0 299 
 BRR  HN ES   4    5 0 54.49                             151    1.73 0 68.0 299 
 BRR  HN I         5 0 55.20        31.4 0.32            150           68.0 299 
 PAM  SZ EP        5 0 38.82                             148    0.0110 78.2  42 
 PAM  SN ES        5 0 55.69                             148    0.5510 78.2  42 
 PAM  SN I         5 0 56.74        26.1 0.48            151           78.2  42 
 RUS  HZ EP        5 0 40.78                             140    0.2510  102 174 
 RUS  HN ES        5 0 58.07                             140   -0.1210  102 174 
 RUS  HN I         5 0 59.84         9.9 0.18            144            102 174 
 GRA  SZ EP        5 0 41.62                             134   -0.3610  125  19 
 GRA  SZ ES        5 1  0.95                             134    0.1710  125  19 
 PTB  HZ EP        5 0 42.80                             129   -0.80 9  145 258 
 PTB  HN ES        5 1  3.83                             129    0.18 9  145 258 
 PTB  HN I         5 1  4.93        14.3 0.26            130            145 258 
 OCA  HN ES        5 1  5.59                             127   -0.69 9  159 354 
 OCA  HN I         5 1  8.67        33.9 0.20            129            159 354 
 ZAR  HZ EP   1    5 0 50.26                             120    1.07 6  201 292 
 ZAR  HE ES   1    5 1 14.01                             120    0.40 6  201 292 
 ZAR  HZ I         5 1 21.10         6.8 0.31            121            201 292 
                                                                                
