 2010  6 4 0905  7.6 L   6.778 -73.039153.7  RSN  4 0.3 1.8LRSN                1
 GAP=206        0.52       6.2    20.2  8.1 -0.4439E+02 -0.2496E+02 -0.4373E+01E
 Epicentro: CEPITA - SANTANDER                                                 3
 ACTION:UP  10-08-24 10:08 OP:vdl  STATUS:               ID:20100604090507 L   I
 2010-06-04-0902-35S.COL___109                                                 6
 STAT SP IPHASW D HRMM SECON CODA AMPLIT PERI AZIMU VELO SNR AR TRES W  DIS CAZ7
 BAR2 SZ EP   2    9 5 28.29                             170     0.1 5   26 218 
 BAR2 SZ ES   2    9 5 44.38                             170     0.1 5   26 218 
 GUE  SZ IP        9 5 32.84                             141    -0.210  117   6 
 GUE  SZ ES   2    9 5 52.57                             141    -0.4 5  117   6 
 GRA  SZ EP   2    9 5 34.08                             139     0.6 5  125  12 
 GRA  SZ ES   2    9 5 54.13                             139     0.4 5  125  12 
 OCA  SZ EP   2    9 5 37.05                             131     0.1 5  164 349 
 OCA  SZ ES   2    9 5 59.89                             131     0.1 5  164 349 
 OCA  SZ I         9 6  4.73         6.4 0.28                           164 349 
                                                                                
