 2017  2 4 0228 36.0 L   6.821 -73.141152.5  RSN 21 0.5 2.8LRSN                1
 GAP=104        1.04       3.6     2.9  5.0  0.3714E-01  0.4944E+01  0.2031E+01E
 Epicentro: LOS SANTOS - SANTANDER                                             3
 ACTION:UPD 17-05-24 15:32 OP:jn   STATUS:               ID:20170204022836 L   I
 OLDACT:UP  17-02-04 14:03 OP:dnl  STATUS:               ID:20170204022744     3
 OLDACT:UP  17-02-04 14:02 OP:dnl  STATUS:               ID:20170204022744     3
 OLDACT:REG 17-02-04 12:29 OP:dnl  STATUS:               ID:20170204022744     3
 2017-02-04-0228-00M.COL___346                                                 6
 STAT SP IPHASW D HRMM SECON CODA AMPLIT PERI AZIMU VELO AIN AR TRES W  DIS CAZ7
 BAR2 EZ IP     D  228 56.38                             170   -0.1010 25.7 190 
 BAR2 EZ ES        229 12.31                             170   -0.1510 25.7 190 
 BAR2 EZ I         229 13.02       358.8 0.20            171           25.7 190 
 BRR  HZ IP     D  228 58.26                             154    0.4210 70.6 297 
 BRR  HN ES        229 15.56                             154    0.6810 70.6 297 
 BRR  HZ I         229 19.53       101.1 0.26            152           70.6 297 
 PAM  EZ IP     C  228 59.19                             153    0.3910 75.2  40 
 PAM  EN ES        229 16.54                             153   -0.0610 75.2  40 
 PAM  EZ I         229 21.26        56.8 0.24            150           75.2  40 
 RUS  HZ IP     D  229  0.21                             145   -0.3610  103 176 
 RUS  HN ES        229 19.02                             145   -0.7210  103 176 
 RUS  HZ I         229 20.27        81.0 0.24            143            103 176 
 PTB  HZ EP        229  2.91                             133   -0.69 9  149 258 
 PTB  HE ES        229 25.14                             133   -0.00 9  149 258 
 PTB  HZ I         229 30.22        69.8 0.26            132            149 258 
 TAM  HZ IP     C  229  4.63                             132    0.41 9  155 106 
 TAM  HZ I         229 25.53        52.6 0.36            130            155 106 
 TAM  HN ES        229 26.14                             132   -0.09 9  155 106 
 ZAR  HZ EP        229  8.91                             124    0.06 9  204 291 
 ZAR  HE ES        229 34.61                             124    0.14 9  204 291 
 ZAR  HZ I         229 40.57        63.3 0.56            122            204 291 
 NOR  HZ EP        229 12.21                             120   -0.10 8  236 234 
 NOR  HN ES        229 40.61                             120   -0.03 8  236 234 
 NOR  HZ I         229 44.46        76.3 0.18            118            236 234 
 CHI  HZ EP        229 14.35                             118    0.03 8  251 195 
 CHI  HE ES        229 44.80                             118    0.57 8  251 195 
 CHI  HZ I         229 49.56        37.2 0.58            117            251 195 
 ROSC BZ EP   9    229 15.98                             118    1.25 0  255 211 
 ROSC BN ES        229 46.83                             118    0.63 8  255 211 
 ROSC BZ I         229 52.78        94.3 0.45            116            255 211 
 URE  HZ EP        229 16.12                             115   -1.23 7  283 291 
 URE  HE ES   4    229 47.59                             115   -2.03 0  283 291 
 URE  HZ I         229 58.89        44.3 0.22            113            283 291 
 PTGC HZ IP   4 D  229 19.24                             113   -1.13 0  311 159 
 PTGC HE ES   4    229 52.52                             113   -2.48 0  311 159 
 PTGC HZ I         229 54.61        21.9 0.52            111            311 159 
 CBOC HZ EP        229 23.93                             111    0.60 7  335 252 
 CBOC HN ES        230  0.79                             111    0.53 7  335 252 
 CBOC HZ I         230  9.99        10.8 0.52            109            335 252 
 DBB  EZ EP        229 23.83                             111    0.04 7  340 274 
 DBB  EN ES   4    229 59.65                             111   -1.42 0  340 274 
 DBB  EZ I         230  2.86        15.1 0.52            109            340 274 
 ORTC HZ EP   2    229 30.81                             107    0.41 3  398 216 
 ORTC HN ES        230 13.72                             107    0.88 6  398 216 
 ORTC HZ I         230 19.93        32.0 0.46            106            398 216 
 APAC HZ EP   2    229 30.22                             107   -0.17 3  398 288 
 APAC HN ES        230 12.19                             107   -0.63 6  398 288 
 APAC HZ I         230 16.47        10.6 0.28            106            398 288 
 PAL  HZ EP        229 31.69                             107    0.12 6  407 239 
 PAL  HN ES        230 14.31                             107   -0.62 6  407 239 
 PAL  HZ I         230 18.49        10.3 0.28            105            407 239 
 SJC  HZ IP   4    229 30.53                             107   -1.06 0  408 327 
 SJC  HN ES   4    230 11.73                             107   -3.22 0  408 327 
 SJC  HZ I         230 16.92        15.9 0.30            105            408 327 
 CRJC HZ EP   4    229 36.74                             104   -1.66 0  465   3 
 CRJC HN ES   4    230 24.62                             104   -2.47 0  465   3 
 CRJC HZ I         230 31.38        17.5 0.22            103            465   3 
 MACC HZ EP   4    229 42.93                             103   -2.22 0  523 189 
 MACC HN ES   4    230 34.37                             103   -4.73 0  523 189 
 MACC HZ I         230 40.76         6.3 0.42            101            523 189 
 GARC HZ EP   4    229 59.26                             101    7.59 0  575 207 
 GARC HN ES   4    230 46.07                             101   -4.63 0  575 207 
 GARC HZ I         230 49.91        15.5 0.74            100            575 207 
                                                                                
