 2010 11 4 0801 47.5 L   6.803 -73.101148.1  RSN  6 0.2 1.4LRSN                1
 GAP=164        0.42       3.2     6.6  6.9 -0.8387E+00 -0.2176E+02  0.3380E+01E
 Epicentro: LOS SANTOS - SANTANDER                                             3
 ACTION:UP  10-12-17 16:50 OP:REBC STATUS:               ID:20101104080147 L   I
 2010-11-04-0758-35S.COL___127                                                 6
 STAT SP IPHASW D HRMM SECON CODA AMPLIT PERI AZIMU VELO SNR AR TRES W  DIS CAZ7
 BAR2 SZ EP   1    8 2  7.36                             170    -0.1 7   25 201 
 BAR2 SZ I         8 2  7.71         6.4 0.12                            25 201 
 BRR  HZ EP        8 2  9.14                             151     0.010   75 297 
 BRR  HN ES   1    8 2 26.11                             151     0.1 7   75 297 
 BRR  HZ I         8 2 26.92         8.4 0.17                            75 297 
 RUS  HZ EP   1    8 2 11.42                             144    -0.1 7  101 179 
 RUS  HN ES   3    8 2 30.46                             144     0.2 2  101 179 
 RUS  HZ I         8 2 31.15         2.1 0.15                           101 179 
 GUE  SZ EP   2    8 2 12.61                             140     0.3 5  115  10 
 GRA  SZ ES   2    8 2 32.59                             138     0.0 5  124  15 
 GRA  SZ I         8 2 38.22         2.2 0.46                           124  15 
 OCA  SZ EP   1    8 2 16.19                             130     0.2 7  161 351 
 OCA  SZ ES   2    8 2 37.77                             130    -0.5 5  161 351 
 OCA  SZ I         8 2 42.51         3.9 0.23                           161 351 
                                                                                
