 2010  8 4 0834 38.4 L   6.748 -73.104146.7  RSN  9 0.4 1.9LRSN                1
 GAP=164        0.71       4.1     9.6  6.3 -0.7254E+01 -0.7187E+01 -0.1062E+01E
 Epicentro: LOS SANTOS - SANTANDER                                             3
 ACTION:UP  10-09-07 10:52 OP:vdl  STATUS:               ID:20100804083438 L   I
 2010-08-04-0832-02S.COL___125                                                 6
 STAT SP IPHASW D HRMM SECON CODA AMPLIT PERI AZIMU VELO SNR AR TRES W  DIS CAZ7
 BAR2 SZ EP        834 58.01                             171     0.010   19 207 
 BAR2 SZ I         834 58.32        27.8 0.07                            19 207 
 BAR2 SZ ES   2    835 12.87                             171    -0.5 5   19 207 
 BTL  SZ EP        834 58.14                             169     0.010   26 316 
 BTL  SZ ES   2    835 13.78                             169     0.2 5   26 316 
 GIR2 SZ EP   1    834 58.09                             165    -0.2 7   38 345 
 GIR2 SZ ES   2    835 14.19                             165     0.3 5   38 345 
 BRR  HZ IP     C  834 59.88                             150    -0.110   78 301 
 BRR  HE ES   2    835 17.31                             150     0.4 5   78 301 
 BRR  HZ I         835 19.65        22.4 0.17                            78 301 
 RUS  HZ EP   1    835  1.90                             145     0.1 7   95 179 
 RUS  HN ES   2    835 20.09                             145     0.0 5   95 179 
 RUS  HZ I         835 21.89         8.9 0.39                            95 179 
 GUE  SZ EP        835  4.11                             139     0.610  121   9 
 GRA  SZ EP   1    835  3.83                             137    -0.2 7  130  15 
 GRA  SZ ES   2    835 23.66                             137    -0.4 5  130  15 
 GRA  SZ I         835 24.48         8.5 0.36                           130  15 
 OCA  SZ EP   1    835  6.82                             129    -0.5 7  167 352 
 OCA  SZ ES   2    835 29.86                             129    -0.1 5  167 352 
 OCA  SZ I         835 35.19         7.6 0.29                           167 352 
 PRA  HZ EP   1    835 32.16                             107     0.6 4  389 211 
 PRA  HN ES   3    836 11.26                                    -1.9 1  389 211 
 PRA  HZ I         836 19.20         3.0 0.29                           389 211 
                                                                                
