 2012  1 4 0805 49.5 L   6.722 -73.238158.4  RSN  4 0.3 1.4LRSN                1
 GAP=220        0.54       7.5     7.4  8.3  0.4223E+02 -0.4156E+01 -0.1275E+02E
 Epicentro: VILLANUEVA - SANTANDER                                             3
 ACTION:UP  12-02-03 08:14 OP:REBC STATUS:               ID:20120104080549 L   I
 2012-01-04-0800-00M.COL___183                                                 6
 STAT SP IPHASW D HRMM SECON CODA AMPLIT PERI AZIMU VELO SNR AR TRES W  DIS CAZ7
 BRR  HZ EP   1    8 6 11.99                             156     0.1 7   68 309 
 BRR  HZ I         8 6 12.43         3.9 0.17                            68 309 
 BRR  HE ES   2    8 6 29.57                             156     0.3 5   68 309 
 RUS  HZ EP   1    8 6 14.27                             148     0.2 7   93 169 
 RUS  HN ES   1    8 6 32.93                             148    -0.3 7   93 169 
 PTB  HZ EP   1    8 6 16.54                             137     0.0 7  136 262 
 PTB  HN ES   2    8 6 38.13                             137     0.4 5  136 262 
 ZAR  HE ES   1    8 6 47.38                             126    -0.4 6  198 296 
                                                                                
