 2012  1 4 0437 27.4 L   7.300 -73.159137.3  RSN  7 0.3 1.6LRSN                1
 GAP= 95        0.55       3.7     3.2  5.2  0.6237E+00  0.4034E+01  0.2312E+01E
 Epicentro: RIONEGRO - SANTANDER                                               3
 ACTION:UP  12-02-03 08:13 OP:REBC STATUS:               ID:20120104043727 L   I
 2012-01-04-0430-00M.COL___183                                                 6
 STAT SP IPHASW D HRMM SECON CODA AMPLIT PERI AZIMU VELO SNR AR TRES W  DIS CAZ7
 PAM  SZ EP   1    437 47.29                             159     0.0 7   51  85 
 PAM  SN ES   1    438  2.57                             159    -0.3 7   51  85 
 BRR  HZ EP   1    437 47.25                             153     0.0 7   65 251 
 BRR  HE ES   1    438  2.91                             153     0.1 7   65 251 
 BRR  HZ I         438  3.45        11.6 0.14                            65 251 
 BAR2 SZ EP   1    437 48.65                             149     0.2 7   78 182 
 BAR2 SZ ES   1    438  4.87                             149     0.0 7   78 182 
 BAR2 SZ I         438  5.51        13.6 0.45                            78 182 
 OCA  SZ ES   2    438  8.52                             140     0.5 5  105 350 
 OCA  SZ I         438 10.11         6.5 0.27                           105 350 
 RUS  HZ EP   1    437 55.14                             129     0.0 7  156 177 
 RUS  HZ I         437 55.91         2.0 0.13                           156 177 
 RUS  HN ES   2    438 16.76                             129     0.0 5  156 177 
 PTB  HZ EP   1    437 55.29                             126    -0.2 7  166 240 
 PTB  HN ES   1    438 17.64                             126     0.3 7  166 240 
 ZAR  HZ EP   2    437 58.04                             123     0.3 4  189 277 
 ZAR  HN ES   1    438 20.78                             123    -0.6 7  189 277 
                                                                                
