 2016 12 4 0835 13.9 L   6.604 -73.394121.3  RSN  4 0.3 1.3LRSN                1
 GAP=173        0.67       6.4     4.3  6.9  0.4048E+01  0.2027E+01  0.9299E+01E
 Epicentro: HATO - SANTANDER                                                   3
 ACTION:UPD 17-01-11 20:12 OP:rebc STATUS:               ID:20161204083513 L   I
 OLDACT:REG 16-12-04 12:58 OP:dani STATUS:               ID:20161204082742     3
 2016-12-04-0828-00M.COL___346                                                 6
 STAT SP IPHASW D HRMM SECON CODA AMPLIT PERI AZIMU VELO AIN AR TRES W  DIS CAZ7
 BAR2 EZ EP        835 31.02                             168    0.3910 23.4  93 
 BRR  HZ EP        835 31.86                             150   -0.2910 65.8 328 
 BRR  HN ES        835 46.22                             150   -0.1410 65.8 328 
 BRR  HZ I         835 46.95         7.2 0.13            148           65.8 328 
 PTB  HZ EP        835 35.95                             133   -0.2310  118 267 
 PTB  HN ES        835 53.54                             133    0.0010  118 267 
 PTB  HZ I         835 57.83         2.3 0.11            130            118 267 
 ZAR  HZ EP        835 43.28                             118   -0.03 9  189 301 
 ZAR  HN ES        836  6.58                             118    0.36 9  189 301 
 ZAR  HZ I         836 10.29         2.4 0.18            118            189 301 
                                                                                
