 2010  1 4 0746  1.5 L   6.837 -73.179139.7  RSN  5 0.6 1.9LRSN                1
 GAP=233        0.99       8.9    16.1 12.5  0.4710E+02  0.1372E+03  0.4384E+02E
 Epicentro: ZAPATOCA - SANTANDER                                               3
 ACTION:UP  10-08-24 09:42 OP:vdl  STATUS:               ID:20100104074601 L   I
 2010-01-04-0740-00S.COL___096                                                 6
 STAT SP IPHASW D HRMM SECON CODA AMPLIT PERI AZIMU VELO SNR AR TRES W  DIS CAZ7
 BAR2 SZ EP        746 20.36                             169    -0.110   27 181 
 BAR2 SZ ES   1    746 35.41                             169     0.1 7   27 181 
 CHI  HZ EP        746 39.08                             115    -0.1 8  252 194 
 CHI  HE ES   1    747  7.90                             115    -0.7 6  252 194 
 CHI  HZ I         747 13.40         3.0 0.71                           252 194 
 HEL  HZ EP        746 41.79                             114     0.7 8  270 255 
 HEL  HZ I         747 19.10         3.9 0.29                           270 255 
 MON  HN ES   2    747 25.32                             108    -1.8 3  347 308 
 PRA  HZ EP        746 55.19                             105     0.2 6  394 209 
 PRA  HE ES   2    747 36.85                             105     0.1 3  394 209 
 PRA  HZ I         747 42.24         3.5 0.32                           394 209 
                                                                                
