 2013  1 4 0229 11.3 L   6.662 -73.260134.6  RSN  4 0.5 1.6LRSN                1
 GAP=177        1.24      11.2    10.1 12.1  0.7233E+02  0.5409E+02  0.5539E+02E
 Epicentro: GALAN - SANTANDER                                                  3
 ACTION:UPD 13-02-15 09:12 OP:ep   STATUS:               ID:20130104022911 L   I
 2013-01-04-0219-37M.COL___208                                                 6
 STAT SP IPHASW D HRMM SECON CODA AMPLIT PERI AZIMU VELO AIN AR TRES W  DIS CAZ7
 BAR2 SZ ES        229 42.81                             175   -0.6810 11.6 132 
 BAR2 SZ I         229 44.02         7.8 0.22            174           11.6 132 
 BRR  HE ES        229 47.22                             151    0.5410 70.1 315 
 BRR  HE I         229 47.58        13.5 0.24            150           70.1 315 
 RUS  HZ EP        229 33.44                             145    0.4510 87.3 167 
 RUS  HN ES        229 50.09                             145    0.1810 87.3 167 
 PTB  HZ EP        229 35.35                             132   -0.6510  133 264 
 PTB  HN ES        229 55.38                             132    0.1110  133 264 
 PTB  HN I         229 58.96         5.5 0.22            131            133 264 
                                                                                
