 2017  5 4 0610 32.4 L   6.740 -73.157142.0  RSN  8 0.4 1.4LRSN                1
 GAP=138        0.96       5.0     5.3  8.2 -0.9161E+00 -0.1500E+01 -0.4065E+01E
 Epicentro: LOS SANTOS - SANTANDER                                             3
 ACTION:UPD 17-06-16 13:32 OP:jn   STATUS:               ID:20170504061032 L   I
 OLDACT:UP  17-05-04 18:02 OP:edw  STATUS:               ID:20170504060741     3
 OLDACT:REG 17-05-04 13:04 OP:edw  STATUS:               ID:20170504060741     3
 2017-05-04-0608-00M.COL___370                                                 6
 STAT SP IPHASW D HRMM SECON CODA AMPLIT PERI AZIMU VELO AIN AR TRES W  DIS CAZ7
 BRR  HZ EP        610 53.10                             151   -0.1710 73.6 304 
 BRR  HN ES        611 10.18                             151    0.6210 73.6 304 
 BRR  HZ I         611 13.97         4.7 0.28            150           73.6 304 
 PAM  EZ EP     D  610 54.13                             148   -0.4510 83.3  37 
 RUS  HZ EP        610 55.58                             145    0.2710 94.1 175 
 RUS  HN ES        611 13.30                             145    0.1210 94.1 175 
 RUS  HZ I         611 15.23         4.3 0.32            150           94.1 175 
 PTB  HZ EP        610 58.74                             132   -0.10 9  145 261 
 PTB  HN ES        611 18.96                             132   -0.51 9  145 261 
 PTB  HZ I         611 25.58         2.5 0.36            133            145 261 
 SPBC HZ EP   4    611  7.66                             130    7.62 0  157 220 
 SPBC HN ES        611 21.31                             130   -0.30 9  157 220 
 ZAR  HN ES   4    611 26.91                             122   -3.07 0  206 294 
 ZAR  HZ I         611 34.50         4.0 0.38            123            206 294 
 NOR  HN ES   2    611 35.12                             118    0.44 4  230 236 
 CBOC HZ EP        611 19.49                             110    0.70 7  330 253 
 CBOC HE ES   4    611 52.03                             110   -2.95 0  330 253 
                                                                                
