 2015 10 4 0428 22.9 L   6.777 -73.136141.8  RSN 11 0.4 1.9LRSN                1
 GAP=139        0.87       2.6     3.6  5.4 -0.1672E+01  0.5788E+01 -0.5116E-01E
 Epicentro: LOS SANTOS - SANTANDER                                             3
 ACTION:UPD 15-12-22 20:37 OP:cam  STATUS:               ID:20151004042822 L   I
 OLDACT:UP  15-10-04 15:32 OP:drio STATUS:               ID:20151004041743     3
 OLDACT:REG 15-10-04 12:26 OP:drio STATUS:               ID:20151004041743     3
 2015-10-04-0417-43M.COL___349                                                 6
 STAT SP IPHASW D HRMM SECON CODA AMPLIT PERI AZIMU VELO AIN AR TRES W  DIS CAZ7
 BRR  HZ EP        428 44.08                             151    0.3010 73.4 300 
 BRR  HN ES        429  0.32                             151    0.2810 73.4 300 
 BRR  HZ I         429  4.25        13.1 0.38            149           73.4 300 
 PAM  EZ EP        428 45.02                             150    0.2110 78.6  38 
 PAM  EE ES        429  2.09                             150    0.2210 78.6  38 
 PAM  EZ I         429  4.50        12.6 0.52            154           78.6  38 
 RUS  HZ EP        428 45.96                             144   -0.1510 98.0 177 
 RUS  HE ES        429  4.17                             144   -0.0210 98.0 177 
 RUS  HZ I         429  5.25         7.3 0.28            148           98.0 177 
 SPBC HZ EP        428 51.16                             128    0.15 9  162 220 
 SPBC HN ES        429 12.20                             128   -0.71 9  162 220 
 SPBC HZ I         429 18.41         6.6 0.24            130            162 220 
 OCA  HZ EP        428 50.91                             128   -0.28 9  163 353 
 OCA  HE ES        429 12.63                             128   -0.60 9  163 353 
 OCA  HZ I         429 15.81        17.9 0.28            130            163 353 
 ZAR  HZ EP        428 55.74                             121    0.41 8  206 293 
 ZAR  HE ES        429 20.55                             121   -0.04 8  206 293 
 ZAR  HZ I         429 26.84         9.8 0.26            122            206 293 
 SML  HZ EP        428 59.23                             116   -0.41 8  246 335 
 SML  HN ES   4    429 26.96                             116   -1.31 0  246 335 
 SML  HZ I         429 31.26         9.8 0.28            118            246 335 
 CHI  HZ EP        429  0.51                             116    0.33 8  247 196 
 CHI  HN ES   4    429 27.12                             116   -2.12 0  247 196 
 HEL  HZ EP   4    429  3.85                             114    0.85 0  273 256 
 HEL  HE ES        429 34.85                             114    0.60 8  273 256 
 HEL  HZ I         429 38.89         2.3 0.36            116            273 256 
 URE  HZ EP        429  4.09                             113    0.06 7  286 292 
 URE  HE ES   4    429 34.86                             113   -1.23 0  286 292 
 URE  HZ I         429 43.23         4.3 0.26            114            286 292 
 GUY2CHZ EP   4    429  7.86                             112    1.56 0  301 235 
 GUY2CHE ES        429 39.67                             112   -0.46 7  301 235 
 GUY2CHZ I         429 47.11         2.9 0.26                           301 235 
                                                                                
