 2011 10 4 0101 12.5 L   6.768 -73.079140.7  RSN  7 0.4 1.8LRSN                1
 GAP=147        0.84       4.1     6.3  7.7 -0.8357E+01  0.1167E+02 -0.1457E+01E
 Epicentro: LOS SANTOS - SANTANDER                                             3
 ACTION:UPD 12-07-13 16:01 OP:ep   STATUS:               ID:20111004010112 L   I
 2011-10-04-0057-31S.COL___170                                                 6
 STAT SP IPHASW D HRMM SECON CODA AMPLIT PERI AZIMU VELO AIN AR TRES W  DIS CAZ7
 BAR2 SZ EP   1    1 1 31.17                             170   -0.34 7 22.6 210 
 BAR2 SZ ES   1    1 1 45.96                             170   -0.37 7 22.6 210 
 BAR2 SZ I         1 1 48.00        13.9 0.35                          22.6 210 
 PAM  SZ EP   1    1 1 34.04                             150   -0.04 7 75.8  34 
 PAM  SZ I         1 1 34.21         7.1 0.23                          75.8  34 
 PAM  SE ES   1    1 1 51.18                             150    0.26 7 75.8  34 
 BRR  HZ EP   1    1 1 33.09                             149   -0.51 7 79.3 298 
 BRR  HZ I         1 1 33.34        29.3 0.14                          79.3 298 
 BRR  HE ES   1    1 1 50.48                             149    0.43 7 79.3 298 
 RUS  HZ EP   1    1 1 35.19                             144   -0.30 7 96.9 180 
 RUS  HE ES   1    1 1 53.88                             144    0.47 7 96.9 180 
 RUS  HZ I         1 1 55.06         6.3 0.31                          96.9 180 
 OCA  SZ EP   1    1 1 41.73                             128    0.87 7  165 351 
 OCA  SZ ES   1    1 2  2.50                             128   -0.47 7  165 351 
 OCA  SZ I         1 2  5.25         7.8 0.56                           165 351 
 NOR  SE ES   1    1 2 16.15                             117   -0.22 6  239 236 
 RREF HN ES   1    1 2 35.41                             110    0.46 5  325 231 
                                                                                
