 2012  1 4 0647 18.5 L   6.381 -73.730103.7  RSN  8 0.5 1.3LRSN                1
 GAP= 58        0.85       4.7     4.0  9.1 -0.1035E+00  0.3698E+01  0.1127E+02E
 Epicentro: SANTA HELENA DEL OPON - SANTANDER                                  3
 ACTION:UP  12-02-03 08:14 OP:REBC STATUS:               ID:20120104064718 L   I
 2012-01-04-0640-00M.COL___183                                                 6
 STAT SP IPHASW D HRMM SECON CODA AMPLIT PERI AZIMU VELO SNR AR TRES W  DIS CAZ7
 BAR2 SZ EP   1    647 35.07                             145    -0.1 7   65  69 
 BAR2 SZ ES   1    647 48.65                             145     0.4 7   65  69 
 BAR2 SZ I         647 49.38        12.9 0.21                            65  69 
 BRR  HZ EP   1    647 36.11                             139     0.1 7   80   1 
 BRR  HE ES   2    647 50.18                             139     0.5 5   80   1 
 BRR  HZ I         647 51.61         6.1 0.17                            80   1 
 PTB  HZ EP   1    647 35.72                             138    -0.5 7   82 282 
 PTB  HN ES   1    647 49.46                             138    -0.5 7   82 282 
 RUS  HZ EP   1    647 36.93                             136    -0.5 7   90 127 
 RUS  HZ I         647 37.34         2.6 0.21                            90 127 
 RUS  HE ES   2    647 51.83                             136    -0.4 5   90 127 
 NOR  SZ EP   1    647 43.80                             119     0.5 7  155 234 
 NOR  SN ES   2    648  3.34                             119     0.7 5  155 234 
 PAM  SZ EP   1    647 44.15                             119     0.3 7  156  47 
 ZAR  HN ES   2    648  6.59                             115     0.3 4  175 315 
 CHI  HZ EP   2    647 47.57                             113    -0.4 4  194 180 
 CHI  HN ES   2    648 11.63                             113     0.7 4  194 180 
                                                                                
