 2013  3 4 0954 59.0 L   6.555 -73.551110.9  RSN  9 0.3 1.7LRSN                1
 GAP=115        0.74       2.6     2.6  5.1  0.6049E-01  0.3818E+01 -0.2647E+01E
 Epicentro: EL CARMEN DE CHUCURI - SANTANDER                                   3
 ACTION:UPD 13-04-09 13:59 OP:ep   STATUS:               ID:20130304095459 L   I
 2013-03-04-0950-00M.COL___228                                                 6
 STAT SP IPHASW D HRMM SECON CODA AMPLIT PERI AZIMU VELO AIN AR TRES W  DIS CAZ7
 BAR2 SZ IP        955 15.37                             158    0.2610 41.0  84 
 BAR2 SZ ES        955 27.51                             158   -0.1510 41.0  84 
 BAR2 SZ I         955 29.22        94.5 0.40            163           41.0  84 
 BRR  HZ EP        955 16.14                             148    0.1310 63.6 344 
 BRR  HE ES        955 29.60                             148    0.3410 63.6 344 
 BRR  HZ I         955 30.82        10.5 0.07            144           63.6 344 
 RUS  HZ EP        955 18.73                             138    0.1110 89.7 145 
 RUS  HE ES        955 34.11                             138    0.2010 89.7 145 
 PTB  HZ EP        955 18.26                             135   -0.5810  100 269 
 PTB  HE ES   1    955 33.66                             135   -0.64 7  100 269 
 PTB  HZ I         955 33.99         7.4 0.13            128            100 269 
 PAM  SZ EP   1    955 21.97                             127   -0.07 7  128  47 
 PAM  SN ES        955 39.72                             127   -0.2910  128  47 
 PAM  SZ I         955 40.82         4.5 0.19            127            128  47 
 ZAR  HZ EP   1    955 27.18                             117    0.62 7  178 306 
 ZAR  HN ES   1    955 48.46                             117    0.42 7  178 306 
 ZAR  HZ I         955 52.53         6.8 0.26            113            178 306 
 OCA  HZ EP   1    955 27.58                             116   -0.28 7  188   8 
 OCA  HN ES        955 50.30                             116   -0.06 9  188   8 
 OCA  HZ I         955 56.30         6.8 0.32            113            188   8 
 HEL  HN ES   1    955 57.80                             111    0.09 6  222 260 
 HEL  HN I         956 17.46         2.8 0.47            108            222 260 
 SML  HZ EP   1    955 35.30                             108    0.06 6  255 347 
 SML  HN ES   2    956  3.42                             108   -0.08 4  255 347 
                                                                                
