 2011  4 4 0456 40.4 L   6.818 -72.964139.1  RSN  6 0.4 1.7LRSN                1
 GAP=191        0.87       5.5    11.4  8.3 -0.2026E+02 -0.2869E+02  0.4210E+01E
 Epicentro: CEPITA - SANTANDER                                                 3
 ACTION:UP  11-06-22 15:28 OP:REBC STATUS:               ID:20110404045640 L   I
 2011-04-04-0450-49S.COL___138                                                 6
 STAT SP IPHASW D HRMM SECON CODA AMPLIT PERI AZIMU VELO SNR AR TRES W  DIS CAZ7
 BAR2 SZ EP   2    456 59.90                             165     0.4 5   35 224 
 BAR2 SZ ES   1    457 14.78                             165     0.4 7   35 224 
 BAR2 SZ I         457 16.87         9.5 0.43                            35 224 
 BTL  SZ EP   2    457  0.22                             165     0.7 5   35 288 
 BTL  SZ ES   2    457 13.87                             165    -0.6 5   35 288 
 BRR  HZ EP   1    457  1.86                             146    -0.1 7   89 291 
 BRR  HN ES   1    457 18.51                             146    -0.2 7   89 291 
 BRR  HZ I         457 19.64        10.4 0.08                            89 291 
 GRA  SZ EP   1    457  3.96                             137    -0.5 7  119   9 
 GRA  SZ ES   1    457 23.13                             137    -0.2 7  119   9 
 GRA  SZ I         457 28.65         4.5 0.40                           119   9 
 OCA  SZ EP   1    457  9.04                             128     0.7 7  162 346 
 OCA  SZ ES   1    457 30.24                             128     0.1 7  162 346 
 OCA  SZ I         457 35.08         8.7 0.34                           162 346 
 CHI  HZ EP   1    457 18.11                             115    -0.5 6  256 199 
                                                                                
