 2012  1 4 0931 42.7 L   6.788 -73.156145.8  RSN  9 0.4 1.6LRSN                1
 GAP=136        0.77       5.2     4.5  6.8 -0.3048E+01  0.2238E+01  0.3958E+01E
 Epicentro: LOS SANTOS - SANTANDER                                             3
 ACTION:UP  12-02-03 08:14 OP:REBC STATUS:               ID:20120104093142 L   I
 2012-01-04-0930-00M.COL___183                                                 6
 STAT SP IPHASW D HRMM SECON CODA AMPLIT PERI AZIMU VELO SNR AR TRES W  DIS CAZ7
 BAR2 SZ EP   1    932  2.35                             171     0.0 8   22 188 
 BAR2 SZ ES   1    932 17.50                             171    -0.1 8   22 188 
 BAR2 SZ I         932 19.10        13.1 0.26                            22 188 
 BRR  HZ EP   1    932  4.23                             153     0.4 8   71 300 
 BRR  HZ I         932  5.89        11.1 0.14                            71 300 
 BRR  HN ES   2    932 20.90                             153     0.6 5   71 300 
 PAM  SZ EP   1    932  5.14                             150     0.1 8   79  40 
 PAM  SN ES   2    932 22.35                             150    -0.1 5   79  40 
 RUS  HZ EP   1    932  6.46                             144     0.1 8   99 175 
 RUS  HZ I         932  7.27         2.2 0.11                            99 175 
 PTB  HZ EP        932  8.88                             132    -0.710  146 259 
 PTB  HN ES        932 30.18                             132    -0.310  146 259 
 OCA  SZ EP   2    932 11.31                             129     0.2 5  161 354 
 OCA  SZ I         932 37.14         5.7 0.40                           161 354 
 ZAR  HZ EP   1    932 15.28                             123     0.2 7  204 293 
 ZAR  HN ES   2    932 40.79                             123     0.4 5  204 293 
 ZAR  HZ I         932 45.81         4.1 0.35                           204 293 
 NOR  SN ES   2    932 46.59                             119     0.6 4  233 235 
 CHI  HZ EP   1    932 20.38                             117     0.1 6  247 195 
 CHI  HE ES   2    932 50.20                             117     0.7 4  247 195 
                                                                                
