 2015  1 4 0604  8.1 L   6.817 -73.235149.0  RSN  6 0.5 1.3LRSN                1
 GAP=190        1.32       7.0     9.7 11.5  0.6644E+01 -0.2520E+02 -0.2778E+01E
 Epicentro: ZAPATOCA - SANTANDER                                               3
 ACTION:UPD 15-03-02 15:36 OP:nd   STATUS:               ID:20150104060408 L   I
 OLDACT:REG 15-01-04 14:35 OP:stll STATUS:               ID:20150104055749     3
 2015-01-04-0557-49M.COL___274                                                 6
 STAT SP IPHASW D HRMM SECON CODA AMPLIT PERI AZIMU VELO AIN AR TRES W  DIS CAZ7
 BAR2 EZ EP        6 4 27.67                             170   -0.5310 25.5 167 
 BAR2 EZ I         6 4 43.70         5.5 0.22            154           25.5 167 
 BRR  HZ EP        6 4 29.39                             156    0.2510 61.7 301 
 BRR  HZ I         6 4 29.57         3.5 0.24            159           61.7 301 
 BRR  HN ES        6 4 46.20                             156    0.6810 61.7 301 
 PTB  HZ EP        6 4 34.52                             135   -0.03 9  139 257 
 PTB  HN ES        6 4 54.38                             135   -0.78 9  139 257 
 PTB  HZ I         6 5  0.95         1.9 0.26            127            139 257 
 SPBC HZ EP        6 4 36.58                             131    0.12 9  159 216 
 SPBC HZ I         6 5  0.92         3.1 0.26            120            159 216 
 ZAR  HZ EP        6 4 40.83                             125    1.04 9  194 293 
 ZAR  HN ES        6 5  4.52                             125    0.03 9  194 293 
 ZAR  HZ I         6 5 12.49         1.5 0.30            119            194 293 
 SML  HZ EP        6 4 44.05                             119   -0.28 8  238 337 
 SML  HN ES        6 5 11.95                             119   -0.61 8  238 337 
 SML  HZ I         6 5 18.51         2.4 0.10            114            238 337 
                                                                                
