 2014  1 4 0839 40.1 L   6.823 -73.191142.8  RSN 10 0.4 1.5LRSN                1
 GAP=130        1.03       2.9     4.6  6.3 -0.3893E+01  0.1148E+02 -0.4526E+00E
 Epicentro: ZAPATOCA - SANTANDER                                               3
 ACTION:UPD 14-03-13 09:51 OP:ep   STATUS:               ID:20140104083940 L   I
 OLDACT:UP  14-01-04 15:04 OP:stll STATUS:               ID:20140104083805     3
 OLDACT:REG 14-01-04 07:57 OP:stll STATUS:               ID:20140104083805     3
 2014-01-04-0838-05M.COL___231                                                 6
 STAT SP IPHASW D HRMM SECON CODA AMPLIT PERI AZIMU VELO AIN AR TRES W  DIS CAZ7
 BAR2 SZ EP        839 59.40                             169   -0.0310 25.5 178 
 BAR2 SZ ES        840 14.84                             169    0.3410 25.5 178 
 BAR2 SZ I         840 15.90        12.5 0.24            169           25.5 178 
 PAM  SZ EP        840  2.31                             150    0.2110 78.9  44 
 PAM  SZ I         840  2.42         6.1 0.22            153           78.9  44 
 PAM  SN ES        840 19.56                             150    0.3110 78.9  44 
 RUS  HZ EP        840  3.32                             142   -0.4710  104 173 
 RUS  HN ES        840 21.98                             142   -0.2810  104 173 
 RUS  HZ I         840 23.15         3.1 0.30            143            104 173 
 PTB  HZ EP        840  6.22                             132   -0.21 9  143 257 
 PTB  HN ES        840 26.83                             132   -0.14 9  143 257 
 PTB  HZ I         840 28.98         3.2 0.10            132            143 257 
 OCA  HN ES        840 29.74                             129    0.15 9  157 355 
 SPBC HZ EP        840  8.12                             129   -0.15 9  162 217 
 SPBC HN ES        840 29.84                             129   -0.40 9  162 217 
 SPBC HZ I         840 32.78         4.0 0.18            129            162 217 
 NOR  HZ EP        840 15.82                             118    0.43 8  232 233 
 NOR  HN ES        840 43.70                             118    0.80 8  232 233 
 NOR  HZ I         840 48.67         2.2 0.44            119            232 233 
 SML  HZ EP        840 16.43                             117    0.33 8  239 336 
 SML  HE ES        840 43.15                             117   -1.02 8  239 336 
 CHI  HZ EP        840 17.47                             116   -0.30 8  250 194 
 CHI  HZ I         840 18.19         1.5 0.26            117            250 194 
 CHI  HN ES        840 47.05                             116   -0.10 8  250 194 
 GUY2CHZ EP        840 24.34                             112    1.06 7  299 234 
 GUY2CHN ES        840 56.76                             112   -0.20 7  299 234 
 GUY2CHZ I         841  4.92         1.3 0.46                           299 234 
                                                                                
