 2014  4 4 0256 39.3 L   6.809 -73.155144.0  RSN 10 0.5 1.9LRSN                1
 GAP=135        1.03       3.1     4.2  7.2 -0.1545E+01  0.9339E+01  0.3631E+01E
 Epicentro: LOS SANTOS - SANTANDER                                             3
 ACTION:UPD 14-05-13 23:06 OP:nd   STATUS:               ID:20140404025639 L   I
 OLDACT:UP  14-04-04 15:19 OP:cam  STATUS:               ID:20140404024812     3
 OLDACT:REG 14-04-04 13:23 OP:cam  STATUS:               ID:20140404024812     3
 2014-04-04-0248-12M.COL___255                                                 6
 STAT SP IPHASW D HRMM SECON CODA AMPLIT PERI AZIMU VELO AIN AR TRES W  DIS CAZ7
 PAM  SZ EP        257  1.57                             151    0.2110 77.3  41 
 PAM  SN ES        257 19.19                             151    0.6510 77.3  41 
 PAM  SZ I         257 20.94        15.7 0.20            157           77.3  41 
 RUS  HZ EP        257  2.67                             143   -0.3310  102 176 
 RUS  HE ES        257 21.09                             143   -0.3610  102 176 
 RUS  HZ I         257 22.56         7.9 0.36            147            102 176 
 PTB  HZ EP        257  5.53                             132   -0.56 9  147 258 
 PTB  HN ES        257 26.39                             132   -0.57 9  147 258 
 PTB  HZ I         257 32.63        15.6 0.18            133            147 258 
 OCA  HZ EP   1    257  6.88                             129   -0.53 7  159 353 
 OCA  HN ES        257 28.82                             129   -0.48 9  159 353 
 OCA  HZ I         257 34.75        11.8 0.16            134            159 353 
 SPBC HZ EP        257  7.73                             129    0.01 9  163 218 
 SPBC HE ES        257 30.30                             129    0.45 9  163 218 
 SPBC HZ I         257 37.68        16.9 0.22            131            163 218 
 ZAR  HZ EP        257 11.64                             122    0.10 9  203 292 
 ZAR  HN ES        257 37.44                             122    0.79 9  203 292 
 ZAR  HZ I         257 44.24        12.0 0.34            124            203 292 
 CHI  HZ EP        257 16.81                             117   -0.21 8  249 195 
 CHI  HN ES        257 46.48                             117    0.07 8  249 195 
 CHI  HZ I         257 56.07         2.8 0.38            120            249 195 
 HEL  HZ EP   1    257 19.96                             114    0.58 6  271 256 
 HEL  HN ES        257 50.39                             114   -0.22 8  271 256 
 HEL  HZ I         257 57.46         4.2 0.38            117            271 256 
 GUY2CHZ EP   1    257 23.06                             112    0.22 5  301 235 
 PTGC HZ EP   4    257 21.61                             111   -1.66 0  310 159 
 RREF HZ EP   4    257 26.82                             111    1.43 0  322 229 
 PRA  HZ EP        257 33.22                             106    0.37 6  392 209 
 PRA  HN ES        258 15.38                             106    0.80 6  392 209 
                                                                                
