 2017  3 4 0906  3.9 L   6.818 -73.200139.0  RSN  6 0.2 1.4LRSN                1
 GAP=146        0.59       3.3     3.3  5.0 -0.4703E+01  0.4704E+01 -0.1858E+01E
 Epicentro: ZAPATOCA - SANTANDER                                               3
 ACTION:UPD 17-05-25 18:36 OP:jn   STATUS:               ID:20170304090603 L   I
 OLDACT:UP  17-03-04 16:43 OP:and  STATUS:               ID:20170304085745     3
 OLDACT:REG 17-03-04 12:37 OP:lv   STATUS:               ID:20170304085745     3
 2017-03-04-0858-00M.COL___391                                                 6
 STAT SP IPHASW D HRMM SECON CODA AMPLIT PERI AZIMU VELO AIN AR TRES W  DIS CAZ7
 BAR2 EZ IP     C  9 6 22.85                             169    0.0810 25.0 176 
 BAR2 EZ ES        9 6 37.87                             169    0.3910 25.0 176 
 BAR2 EZ I         9 6 40.14         6.9 0.50            173           25.0 176 
 PAM  EZ EP        9 6 25.77                             149    0.1910 79.9  44 
 PAM  EN ES        9 6 42.13                             149   -0.3410 79.9  44 
 PAM  EZ I         9 6 44.78         3.4 0.32            151           79.9  44 
 RUS  HZ EP        9 6 27.29                             142    0.0910  103 173 
 RUS  HN ES        9 6 45.15                             142   -0.2110  103 173 
 RUS  HZ I         9 6 46.53         6.9 0.24            148            103 173 
 PTB  HZ EP        9 6 29.74                             132   -0.10 9  142 258 
 PTB  HN ES        9 6 50.04                             132   -0.02 9  142 258 
 PTB  HZ I         9 6 52.91         3.0 0.20            132            142 258 
 SPBC HN ES        9 6 53.26                             128   -0.11 9  161 217 
 ZAR  HZ EP   4    9 6 39.06                             122    3.79 0  198 292 
 ZAR  HN ES   4    9 7  2.73                             122    3.00 0  198 292 
 ZAR  HZ I         9 7  7.12         2.5 0.33            122            198 292 
                                                                                
