 2014  1 4 0150 48.6 L   6.749 -73.128147.3  RSN  7 0.4 1.4LRSN                1
 GAP=141        1.00       4.1     5.0  6.4 -0.4578E+01  0.2740E+01  0.6469E+01E
 Epicentro: LOS SANTOS - SANTANDER                                             3
 ACTION:UPD 14-03-13 09:51 OP:ep   STATUS:               ID:20140104015048 L   I
 OLDACT:REG 14-01-04 07:42 OP:stll STATUS:               ID:20140104014806     3
 2014-01-04-0148-06M.COL___240                                                 6
 STAT SP IPHASW D HRMM SECON CODA AMPLIT PERI AZIMU VELO AIN AR TRES W  DIS CAZ7
 BAR2 SZ EP        151  8.45                             173    0.0810 18.3 199 
 BAR2 SZ I         151  8.76        10.7 0.36            171           18.3 199 
 BAR2 SZ ES        151 24.42                             173    0.6610 18.3 199 
 BRR  HZ EP        151 10.34                             151    0.1210 75.7 302 
 BRR  HN ES        151 27.09                             151    0.0410 75.7 302 
 PAM  SZ EP        151 11.25                             150    0.0210 80.7  36 
 PAM  SZ I         151 11.54         5.8 0.24            152           80.7  36 
 PAM  SN ES        151 28.34                             150   -0.5010 80.7  36 
 RUS  HZ EP        151 12.27                             146    0.1310 94.8 177 
 RUS  HN ES        151 30.24                             146   -0.2310 94.8 177 
 RUS  HZ I         151 32.28         2.0 0.24            147           94.8 177 
 PTB  HZ EP        151 15.49                             132   -0.33 9  149 261 
 PTB  HE ES        151 36.81                             132   -0.21 9  149 261 
 PTB  HZ I         151 42.23         2.3 0.22            132            149 261 
 SPBC HZ EP        151 16.80                             130   -0.17 9  160 221 
 SPBC HN ES        151 39.37                             130    0.31 9  160 221 
 CHI  HZ EP        151 26.76                             118    0.87 8  244 196 
 CHI  HN ES        151 54.14                             118   -0.81 8  244 196 
                                                                                
