 2010  4 4 0153 15.4 L   6.804 -73.002140.9  RSN  4 0.4 1.8LRSN                1
 GAP=265        0.58      10.0    12.8  8.4  0.6959E+02 -0.1475E+02  0.2148E+02E
 Epicentro: CEPITA - SANTANDER                                                 3
 ACTION:UPD 10-08-24 09:57 OP:vdl  STATUS:               ID:20100404015314 L   I
 2010-04-04-0151-43S.COL___098                                                 6
 STAT SP IPHASW D HRMM SECON CODA AMPLIT PERI AZIMU VELO AIN AR TRES W  DIS CAZ7
 BAR2 SZ IP        153 34.61                             165     0.010   31 221 
 BAR2 SZ ES   2    153 49.37                             165    -0.2 5   31 221 
 BRR  HZ IP        153 36.71                             148    -0.210   85 293 
 BRR  HN ES   1    153 53.79                             148     0.2 7   85 293 
 BRR  HZ I         153 54.58        15.7 0.08                            85 293 
 CHI  HZ EP   2    153 54.26                             115     0.9 4  254 199 
 CHI  HZ I         154 28.89         2.7 0.54                           254 199 
 PRA  HZ EP   2    154  9.32                             105    -0.4 3  401 212 
 PRA  HN ES   3    154 51.37                             105    -0.7 1  401 212 
 PRA  HZ I         154 57.33         2.5 0.26                           401 212 
                                                                                
