 2013  1 4 0934  0.3 L   6.692 -73.198141.2  RSN  5 0.4 1.6LRSN                1
 GAP=222        1.05       8.6     7.9  8.2  0.3771E+02  0.1849E+02  0.2829E+02E
 Epicentro: VILLANUEVA - SANTANDER                                             3
 ACTION:UPD 13-02-15 09:12 OP:ep   STATUS:               ID:20130104093400 L   I
 2013-01-04-0929-37M.COL___182                                                 6
 STAT SP IPHASW D HRMM SECON CODA AMPLIT PERI AZIMU VELO AIN AR TRES W  DIS CAZ7
 BAR2 SZ EP        934 18.69                             175   -0.4810 11.2 171 
 BAR2 SZ ES        934 33.53                             175   -0.3810 11.2 171 
 BAR2 SZ I         934 36.53         8.3 0.36            173           11.2 171 
 BRR  HN ES        934 37.94                             151    0.7110 73.0 309 
 BRR  HN I         934 38.46        10.4 0.42            154           73.0 309 
 RUS  HZ EP        934 22.93                             146    0.1510 89.3 172 
 RUS  HN ES        934 40.51                             146    0.1710 89.3 172 
 RUS  HN I         934 42.97         6.6 0.26            147           89.3 172 
 PTB  HZ EP        934 25.89                             133   -0.29 9  140 263 
 PTB  HN ES        934 46.09                             133   -0.29 9  140 263 
 PTB  HN I         934 47.98         5.4 0.40            134            140 263 
 CHI  HZ EP        934 36.82                             118    0.52 8  236 195 
                                                                                
