 2012 12 4 0455 54.6 L   6.807 -73.158149.4  RSN  6 0.5 1.4LRSN                1
 GAP=182        0.94       5.6     7.1  9.9  0.7756E+01  0.1942E+02  0.8853E+00E
 Epicentro: LOS SANTOS - SANTANDER                                             3
 ACTION:UPD 13-01-04 14:25 OP:ep   STATUS:               ID:20121204045554 L   I
 2012-12-04-0450-00M.COL___236                                                 6
 STAT SP IPHASW D HRMM SECON CODA AMPLIT PERI AZIMU VELO AIN AR TRES W  DIS CAZ7
 BAR2 SZ EP   1    456 15.09                             171    0.38 7 23.9 186 
 BAR2 SZ ES   1    456 30.42                             171    0.05 7 23.9 186 
 BAR2 SZ I         456 31.76        11.2 0.26                          23.9 186 
 GIR2 SZ EP   1    456 15.38                             168    0.67 7 30.3 353 
 GIR2 SZ ES   1    456 30.65                             168    0.28 7 30.3 353 
 GIR2 SZ I         456 32.39         2.9 0.40                          30.3 353 
 RUS  HZ EP   1    456 18.49                             144   -0.31 7  101 175 
 RUS  HN ES   1    456 37.45                             144   -0.21 7  101 175 
 RUS  HZ I         456 38.54         2.8 0.58                           101 175 
 PTB  HZ EP   1    456 21.58                             133   -0.21 7  147 258 
 PTB  HN ES   1    456 42.40                             133   -0.57 7  147 258 
 PTB  HZ I         456 49.43         2.0 0.34                           147 258 
 OCA  HN ES   1    456 44.51                             131   -0.87 7  159 354 
 ZAR  HN ES   1    456 53.27                             123    0.75 6  202 292 
 ZAR  HZ I         457  1.72         3.0 0.48                           202 292 
                                                                                
