 2011  4 4 0426 17.5 L   6.804 -73.060141.3  RSN  8 0.3 1.6LRSN                1
 GAP=176        0.62       4.6     6.5  7.1 -0.9303E+01 -0.7861E+01  0.1247E+01E
 Epicentro: LOS SANTOS - SANTANDER                                             3
 ACTION:UP  11-06-22 15:28 OP:REBC STATUS:               ID:20110404042617 L   I
 2011-04-04-0424-40S.COL___138                                                 6
 STAT SP IPHASW D HRMM SECON CODA AMPLIT PERI AZIMU VELO SNR AR TRES W  DIS CAZ7
 BTL  SZ EP   1    426 36.94                             168     0.3 7   26 299 
 BAR2 SZ EP   1    426 36.18                             168    -0.5 7   27 210 
 BAR2 SZ ES   2    426 51.23                             168    -0.4 5   27 210 
 BAR2 SZ I         426 52.48         7.1 0.21                            27 210 
 GIR2 SZ EP   2    426 36.95                             166     0.3 5   34 334 
 PAM  SZ EP   1    426 39.16                             152     0.3 7   71  34 
 PAM  SN ES   2    426 55.75                             152     0.2 5   71  34 
 BRR  HZ EP   1    426 38.68                             148     0.0 7   79 295 
 BRR  HZ I         426 39.06        10.2 0.11                            79 295 
 BRR  HN ES   1    426 55.39                             148     0.2 7   79 295 
 GRA  SZ EP   1    426 41.78                             136    -0.3 7  123  13 
 GRA  SZ ES   1    427  1.10                             136    -0.2 7  123  13 
 GRA  SZ I         427  3.49         4.3 0.30                           123  13 
 OCA  SZ EP   1    426 45.82                             128     0.3 7  161 350 
 OCA  SZ ES   1    427  7.16                             128    -0.3 7  161 350 
 OCA  SZ I         427 10.67         6.2 0.41                           161 350 
 NOR  SE ES   3    427 21.36                                    -0.8 2  243 236 
                                                                                
