 2014  9 4 0951 20.9 L   6.833 -73.159140.9  RSN  5 0.6 1.4LRSN                1
 GAP=210        1.10       8.8     8.7  9.9  0.1728E+02  0.5508E+01 -0.2730E+02E
 Epicentro: LOS SANTOS - SANTANDER                                             3
 ACTION:UPD 14-10-03 23:02 OP:nd   STATUS:               ID:20140904095120 L   I
 OLDACT:REG 14-09-04 13:21 OP:mh   STATUS:               ID:20140904095000     3
 2014-09-04-0950-00M.COL___282                                                 6
 STAT SP IPHASW D HRMM SECON CODA AMPLIT PERI AZIMU VELO AIN AR TRES W  DIS CAZ7
 BAR2 SZ EP   1    951 39.58                             169   -0.46 7 26.7 186 
 BAR2 SZ ES   1    951 55.06                             169    0.11 7 26.7 186 
 BAR2 SZ I         951 56.88         5.9 0.34            170           26.7 186 
 BRR  HZ EP        951 42.00                             153    0.6310 68.2 296 
 BRR  HN ES        951 57.39                             153    0.0710 68.2 296 
 BRR  HZ I         952  0.80         4.3 0.30            149           68.2 296 
 PTB  HZ EP   1    951 46.95                             131   -0.48 7  147 257 
 PTB  HN ES   1    952  7.19                             131   -0.92 7  147 257 
 PTB  HZ I         952 12.49         2.0 0.16            131            147 257 
 ZAR  HZ EP   1    951 53.54                             122    0.77 6  201 291 
 ZAR  HN ES        952 18.01                             122    0.40 9  201 291 
 ZAR  HZ I         952 23.79         2.1 0.52            122            201 291 
 SML  HZ EP   1    951 56.43                             117   -0.42 6  240 335 
 SML  HN ES   1    952 24.08                             117   -0.79 6  240 335 
 SML  HZ I         952 29.31         4.4 0.10            118            240 335 
                                                                                
