 2012  1 4 0633 28.0 L   6.792 -73.093158.3  RSN  6 0.3 1.3LRSN                1
 GAP=242        0.53       5.3     5.5  6.6  0.1377E+02  0.6249E+00 -0.6921E+00E
 Epicentro: LOS SANTOS - SANTANDER                                             3
 ACTION:UP  12-02-03 08:13 OP:REBC STATUS:               ID:20120104063328 L   I
 2012-01-04-0630-00M.COL___183                                                 6
 STAT SP IPHASW D HRMM SECON CODA AMPLIT PERI AZIMU VELO SNR AR TRES W  DIS CAZ7
 BAR2 SZ EP   1    633 49.07                             171     0.0 7   24 204 
 BAR2 SZ ES   2    634  5.24                             171    -0.4 5   24 204 
 BAR2 SZ I         634  7.62         4.3 0.25                            24 204 
 BRR  HZ EP   1    633 50.87                             153     0.1 7   77 297 
 BRR  HN ES   1    634  8.88                             153     0.3 7   77 297 
 BRR  HZ I         634 10.17         4.0 0.17                            77 297 
 RUS  HZ EP   1    633 53.00                             147     0.1 7   99 179 
 RUS  HN ES   1    634 12.29                             147     0.0 7   99 179 
 RUS  HZ I         634 12.58         2.5 0.25                            99 179 
 PTB  HZ EP   2    633 56.09                             134    -0.4 5  153 260 
 PTB  HE ES   2    634 18.14                             134    -0.6 5  153 260 
 ZAR  HN ES   2    634 28.05                             124    -0.2 4  210 292 
 NOR  SN ES   2    634 34.24                             121     0.5 4  239 235 
                                                                                
