 2010  4 4 0355 16.3 L   6.844 -73.060136.5  RSN  8 0.4 2.1LRSN                1
 GAP=207        0.71       4.2     7.4  5.8 -0.9598E+01  0.4310E+01  0.3889E+01E
 Epicentro: LOS SANTOS - SANTANDER                                             3
 ACTION:UP  10-08-24 09:57 OP:vdl  STATUS:               ID:20100404035516 L   I
 2010-04-04-0352-30S.COL___098                                                 6
 STAT SP IPHASW D HRMM SECON CODA AMPLIT PERI AZIMU VELO AIN AR TRES W  DIS CAZ7
 BAR2 SZ IP        355 34.96                             166    -0.110   31 206 
 BAR2 SZ ES   1    355 49.46                             166    -0.2 7   31 206 
 BRR  HZ IP        355 36.89                             148     0.010   78 292 
 BRR  HN ES   1    355 52.90                             148     0.0 7   78 292 
 BRR  HZ I         355 57.26        21.9 0.19                            78 292 
 OCA  SZ EP        355 43.50                             128    -0.1 9  157 350 
 OCA  SZ ES   2    356  5.51                             128     0.6 5  157 350 
 OCA  SZ I         356 10.74        27.3 0.16                           157 350 
 CHI  HZ EP   2    355 53.70                             114    -0.6 4  256 197 
 CHI  HZ I         356 29.84         4.0 0.61                           256 197 
 ROSC BZ EP   1    355 55.86                             114     0.9 6  262 212 
 ROSC BE ES   2    356 25.95                             114     0.8 4  262 212 
 ROSC BZ I         356 29.88         6.6 0.34                           262 212 
 HEL  HZ EP   2    355 57.06                             112    -0.2 4  282 255 
 HEL  HN ES   2    356 28.65                             112    -0.5 4  282 255 
 HEL  HZ I         356 33.81         7.9 0.36                           282 255 
 RREF BZ EP        356  3.11                             108    -0.2 7  332 230 
 RREF BN ES   2    356 39.89                             108     0.0 3  332 230 
 RREF BZ I         356 48.15         5.4 0.43                           332 230 
 PRA  HE ES   2    356 52.66                             104    -0.3 3  401 210 
 PRA  HZ I         356 57.44         5.9 0.20                           401 210 
                                                                                
