 2012  1 4 0430 35.5 L   6.786 -73.137151.7  RSN  9 0.4 2.0LRSN                1
 GAP=138        0.74       4.1     5.1  6.4 -0.1624E+01  0.4273E+01  0.1998E+01E
 Epicentro: LOS SANTOS - SANTANDER                                             3
 ACTION:UP  12-02-03 08:13 OP:REBC STATUS:               ID:20120104043035 L   I
 2012-01-04-0430-00M.COL___183                                                 6
 STAT SP IPHASW D HRMM SECON CODA AMPLIT PERI AZIMU VELO SNR AR TRES W  DIS CAZ7
 BAR2 SZ EP   1    430 55.57                             171    -0.2 7   22 193 
 BAR2 SZ ES   2    431 11.37                             171    -0.3 5   22 193 
 BAR2 SZ I         431 13.62        16.0 0.41                            22 193 
 BRR  HZ EP   1    430 57.57                             153     0.2 7   73 299 
 BRR  HN ES   1    431 14.95                             153     0.5 7   73 299 
 BRR  HZ I         431 18.38        15.3 0.18                            73 299 
 PAM  SZ EP        430 58.48                             152     0.110   78  38 
 PAM  SN ES   1    431 15.76                             152    -0.4 7   78  38 
 RUS  HZ EP   1    430 59.53                             145    -0.2 7   99 177 
 RUS  HN ES   1    431 18.69                             145     0.1 7   99 177 
 PTB  HZ EP   1    431  2.33                             133    -0.6 7  148 260 
 PTB  HN ES   2    431 23.93                             133    -0.5 5  148 260 
 OCA  SZ EP   1    431  4.66                             131     0.3 7  162 353 
 OCA  SZ I         431 34.68        11.1 0.35                           162 353 
 ZAR  HN ES   2    431 34.24                             123     0.1 4  206 292 
 ZAR  HZ I         431 40.10         8.8 0.34                           206 292 
 CHI  HZ EP   1    431 13.74                             118     0.4 6  247 195 
 CHI  HN ES   2    431 43.46                             118     0.6 4  247 195 
 HEL  HZ EP   2    431 15.55                             116    -0.5 4  273 256 
 HEL  HZ I         431 46.96         7.9 0.28                           273 256 
                                                                                
