 2015  7 4 0400 22.5 L   6.803 -73.146152.6  RSN  6 0.4 2.2LRSN                1
 GAP=136        0.84       3.6     5.2  7.7  0.2184E+01  0.2069E+02  0.2016E+01E
 Epicentro: LOS SANTOS - SANTANDER                                             3
 ACTION:UPD 15-09-08 21:46 OP:cam  STATUS:               ID:20150704040022 L   I
 OLDACT:UP  15-07-04 16:49 OP:mh   STATUS:               ID:20150704035749     3
 OLDACT:UP  15-07-04 16:42 OP:mh   STATUS:               ID:20150704035749     3
 OLDACT:REG 15-07-04 13:30 OP:mh   STATUS:               ID:20150704035749     3
 2015-07-04-0357-49M.COL___334                                                 6
 STAT SP IPHASW D HRMM SECON CODA AMPLIT PERI AZIMU VELO AIN AR TRES W  DIS CAZ7
 PAM  EZ EP        4 0 45.90                             152    0.4210 77.2  40 
 PAM  EN ES        4 1  3.40                             152    0.0310 77.2  40 
 PAM  EZ I         4 1  5.31        12.9 0.43            154           77.2  40 
 RUS  HZ EP   1    4 0 46.44                             145   -0.55 7  101 176 
 RUS  HN ES   1    4 1  5.88                             145   -0.19 7  101 176 
 OCA  HZ EP        4 0 51.07                             131   -0.29 9  160 353 
 OCA  HN ES        4 1 14.16                             131    0.32 9  160 353 
 OCA  HZ I         4 1 17.60        27.5 0.18            132            160 353 
 ZAR  HZ EP        4 0 55.97                             124    0.55 9  204 292 
 ZAR  HN ES        4 1 21.03                             124   -0.04 9  204 292 
 ZAR  HZ I         4 1 26.92        15.4 0.20            124            204 292 
 SML  HZ EP        4 0 59.21                             119   -0.32 8  243 335 
 SML  HN ES        4 1 27.83                             119   -0.55 8  243 335 
 SML  HZ I         4 1 36.73        18.2 0.10            120            243 335 
 GUY2CHZ EP        4 1  6.74                             114    0.25 7  301 235 
 GUY2CHN ES   4    4 1 45.14                             114    4.37 0  301 235 
 GUY2CHZ I         4 1 50.47         4.4 0.26                           301 235 
                                                                                
