 2017  9 4 0652 58.3 L   6.802 -73.117146.9  RSN 13 0.4 2.0LRSN                1
 GAP=121        0.78       2.7     3.2  4.6 -0.6337E+00  0.3919E+01  0.2882E+01E
 Epicentro: LOS SANTOS - SANTANDER                                             3
 ACTION:UPD 17-10-05 19:08 OP:rebc STATUS:               ID:20170904065258 L   I
 OLDACT:UP  17-09-04 16:14 OP:dnl  STATUS:               ID:20170904064736     3
 OLDACT:REG 17-09-04 12:49 OP:dnl  STATUS:               ID:20170904064736     3
 2017-09-04-0648-00M.COL___402                                                 6
 STAT SP IPHASW D HRMM SECON CODA AMPLIT PERI AZIMU VELO AIN AR TRES W  DIS CAZ7
 BAR2 EZ EP        653 17.93                             170   -0.1110 24.2 197 
 BAR2 EZ ES        653 33.45                             170   -0.0210 24.2 197 
 BAR2 EZ I         653 33.82        39.9 0.32            167           24.2 197 
 BRR  HZ IP     D  653 19.65                             152   -0.0310 73.9 297 
 BRR  HE ES        653 36.66                             152    0.2710 73.9 297 
 BRR  HZ I         653 39.64        21.2 0.40            151           73.9 297 
 PAM  EZ EP        653 20.87                             152    0.4010 75.3  38 
 PAM  EE ES        653 37.94                             152    0.1410 75.3  38 
 PAM  EZ I         653 39.81        16.5 0.52            156           75.3  38 
 RUS  HZ EP   2    653 21.89                             144   -0.23 5  101 178 
 RUS  HN ES        653 40.34                             144   -0.3910  101 178 
 RUS  HZ I         653 41.64         5.5 0.40            143            101 178 
 SPBC HZ EP        653 27.25                             129    0.21 9  165 220 
 SPBC HE ES        653 49.66                             129    0.17 9  165 220 
 SPBC HZ I         653 52.79        17.7 0.78            128            165 220 
 ZAR  HZ EP        653 30.98                             122   -0.08 8  207 292 
 ZAR  HE ES        653 56.07                             122   -0.58 8  207 292 
 ZAR  HZ I         654  2.39         9.8 0.14            122            207 292 
 NOR  HZ EP   2    653 34.28                             118   -0.05 4  237 235 
 NOR  HN ES        654  1.79                             118   -0.68 8  237 235 
 NOR  HZ I         654  7.70         5.8 0.18            118            237 235 
 CHI  HZ EP   2    653 36.25                             117    0.13 4  250 196 
 CHI  HE ES        654  6.02                             117    0.36 8  250 196 
 CHI  HZ I         654 16.88         3.2 0.38            117            250 196 
 HEL  HZ EP   4    653 39.98                             115    1.12 0  275 256 
 HEL  HE ES        654 10.85                             115    0.31 8  275 256 
 HEL  HZ I         654 16.10         5.9 0.46            115            275 256 
 URE  HZ EP   4    653 41.99                             114    2.30 0  287 292 
 URE  HN ES   4    654  8.93                             114   -3.09 0  287 292 
 URE  HZ I         654 11.14         5.2 0.12            114            287 292 
 GUY2CHZ EP   2    653 42.55                             112    0.34 4  304 235 
 GUY2CHN ES   4    654 17.83                             112    1.33 0  304 235 
 GUY2CHZ I         654 24.15         3.2 0.42                           304 235 
 PTGC HZ EP        653 41.36                             112   -0.69 7  308 159 
 PTGC HN ES   4    654 14.86                             112   -1.35 0  308 159 
 PTGC HZ I         654 16.90         5.2 0.52            112            308 159 
 PRA  HZ EP   2    653 52.21                             107    0.20 3  394 210 
 PRA  HE ES        654 34.74                             107    0.80 6  394 210 
 PRA  HZ I         654 39.05         2.3 0.18            107            394 210 
                                                                                
