 2017  1 4 0804 30.9 L   6.764 -73.160133.6  RSN  5 0.3 0.6LRSN                1
 GAP=136        0.89       4.5     4.4  6.6 -0.1686E+01  0.4026E+01  0.1248E+01E
 Epicentro: LOS SANTOS - SANTANDER                                             3
 ACTION:UPD 17-05-22 15:55 OP:jn   STATUS:               ID:20170104080430 L   I
 OLDACT:REG 17-01-04 12:55 OP:lv   STATUS:               ID:20170104075748     3
 2017-01-04-0758-00M.COL___366                                                 6
 STAT SP IPHASW D HRMM SECON CODA AMPLIT PERI AZIMU VELO AIN AR TRES W  DIS CAZ7
 BAR2 EZ EP        8 4 49.01                             171    0.0710 19.2 187 
 BAR2 EZ ES        8 5  2.45                             171   -0.6010 19.2 187 
 BRR  HZ EP        8 4 51.06                             150    0.3210 71.8 302 
 BRR  HN ES        8 5  6.59                             150    0.3410 71.8 302 
 PAM  EZ EP        8 4 51.84                             147   -0.2210 81.5  39 
 PAM  EE ES        8 5  8.68                             147    0.0910 81.5  39 
 RUS  HZ EP        8 4 52.87                             142   -0.2710 96.8 175 
 RUS  HE ES        8 5 11.07                             142    0.5410 96.8 175 
 PTB  HZ EP        8 4 56.65                             130    0.00 9  145 260 
 PTB  HN ES        8 5 16.46                             130   -0.30 9  145 260 
 PTB  HZ I         8 5 19.86         0.6 0.17            129            145 260 
                                                                                
