 2017 12 4 0533 15.1 L   6.808 -73.104148.9  RSN 10 0.6 1.8LRSN                1
 GAP=168        1.44       3.9     6.6  8.7 -0.6141E+00  0.2231E+01 -0.4582E+01E
 Epicentro: LOS SANTOS - SANTANDER                                             3
 ACTION:UPD 18-01-04 13:16 OP:rebc STATUS:               ID:20171204053315 L   I
 OLDACT:UP  17-12-04 17:17 OP:leo  STATUS:               ID:20171204052741     3
 OLDACT:UP  17-12-04 17:14 OP:leo  STATUS:               ID:20171204052741     3
 OLDACT:REG 17-12-04 13:47 OP:leo  STATUS:               ID:20171204052741     3
 2017-12-04-0528-00M.COL___477                                                 6
 STAT SP IPHASW D HRMM SECON CODA AMPLIT PERI AZIMU VELO AIN AR TRES W  DIS CAZ7
 BAR2 EZ EP        533 35.10                             170   -0.0310 25.3 200 
 BAR2 EZ ES        533 49.95                             170   -0.8210 25.3 200 
 BAR2 EZ I         533 51.71        10.0 0.58            167           25.3 200 
 RUS  HZ EP        533 39.04                             144   -0.1510  101 179 
 RUS  HN ES        533 58.63                             144    0.6410  101 179 
 RUS  HZ I         533 59.32         6.9 0.26            145            101 179 
 PTB  HZ EP        533 42.01                             132   -0.72 9  152 259 
 PTB  HN ES        534  3.78                             132   -0.52 9  152 259 
 PTB  HZ I         534 10.53         8.0 0.44            131            152 259 
 OCA  HZ EP        533 43.56                             130   -0.06 9  160 351 
 OCA  HN ES        534  6.46                             130    0.58 9  160 351 
 OCA  HZ I         534 10.79        18.6 0.44            132            160 351 
 SPBC HZ EP        533 44.03                             129   -0.13 9  167 220 
 SPBC HN ES        534  6.80                             129   -0.04 9  167 220 
 SPBC HZ I         534 13.40        12.0 0.30            129            167 220 
 ZAR  HZ EP        533 47.48                             122   -0.66 8  208 291 
 ZAR  HN ES        534 14.15                             122    0.22 8  208 291 
 ZAR  HZ I         534 19.53         7.6 0.36            122            208 291 
 CHI  HZ EP        533 53.26                             118    0.08 8  251 196 
 CHI  HN ES        534 24.39                             118    1.50 8  251 196 
 CHI  HZ I         534 30.21         1.8 0.30            119            251 196 
 DRL03HZ EP        533 57.47                             114    0.65 7  289 352 
 DRL03HE ES        534 29.94                             114    0.57 7  289 352 
 GUY2CHZ EP   4    534  0.42                             113    1.10 0  305 235 
 GUY2CHE ES     C  534 34.52                             113    0.70 7  305 235 
 GUY2CHZ I         534 41.93         3.4 0.26                           305 235 
 PTGC HZ EP        533 57.89                             112   -1.09 7  308 160 
 PTGC HE ES   4    534 30.85                             112   -2.37 0  308 160 
                                                                                
