 2012  5 4 0433 41.5 L   6.777 -73.163138.0  RSN  5 0.4 1.3LRSN                1
 GAP=234        0.91       9.2     8.6  9.7  0.4547E+02  0.1166E+02  0.2211E+01E
 Epicentro: LOS SANTOS - SANTANDER                                             3
 ACTION:UP  12-07-05 12:02 OP:pat  STATUS:               ID:20120504043341 L   I
 2012-05-04-0430-00M.COL___189                                                 6
 STAT SP IPHASW D HRMM SECON CODA AMPLIT PERI AZIMU VELO SNR AR TRES W  DIS CAZ7
 BAR2 SZ EP   1    434  0.01                             171    -0.1 7   21 186 
 BAR2 SZ ES   1    434 13.97                             171    -0.7 7   21 186 
 BRR  HZ EP   1    434  1.84                             151     0.1 7   71 301 
 BRR  HZ I         434  2.30         6.4 0.13                            71 301 
 BRR  HN ES   1    434 18.03                             151     0.5 7   71 301 
 RUS  HZ EP   1    434  4.64                             143     0.4 7   98 175 
 RUS  HN ES   1    434 22.42                             143     0.3 7   98 175 
 RUS  HZ I         434 24.39         2.5 0.33                            98 175 
 PTB  HZ EP   1    434  6.92                             131    -0.7 7  145 260 
 PTB  HN ES   1    434 27.92                             131     0.0 7  145 260 
 PTB  HZ I         434 28.63         2.6 0.43                           145 260 
 ZAR  HN ES   2    434 38.57                             121     0.4 4  203 293 
                                                                                
