 2010  8 4 0928  6.6 L   6.789 -73.112142.7  RSN  4 0.3 1.6LRSN                1
 GAP=162        0.65       4.8     9.3  9.0 -0.2343E+01 -0.1970E+02 -0.9370E+01E
 Epicentro: LOS SANTOS - SANTANDER                                             3
 ACTION:UP  10-09-07 10:52 OP:vdl  STATUS:               ID:20100804092806 L   I
 2010-08-04-0925-43S.COL___125                                                 6
 STAT SP IPHASW D HRMM SECON CODA AMPLIT PERI AZIMU VELO SNR AR TRES W  DIS CAZ7
 BAR2 SZ EP   1    928 25.58                             171    -0.3 7   23 200 
 BAR2 SZ ES   2    928 40.28                             171    -0.6 5   23 200 
 BAR2 SZ I         928 41.78        10.9 0.58                            23 200 
 BRR  HZ EP        928 27.61                             152    -0.110   75 298 
 BRR  HZ I         928 27.88        12.6 0.23                            75 298 
 BRR  HE ES   2    928 44.49                             152     0.4 5   75 298 
 RUS  HZ EP   1    928 30.15                             144     0.2 7   99 178 
 RUS  HN ES   2    928 48.65                             144     0.5 5   99 178 
 RUS  HZ I         928 50.12         3.6 0.24                            99 178 
 GRA  SZ EP        928 31.60                             136     0.010  126  16 
 GRA  SZ I         928 32.72         5.3 0.25                           126  16 
 GRA  SZ ES   2    928 51.41                             136     0.3 5  126  16 
                                                                                
