 2010  4 4 0728 22.8 L   6.863 -72.950144.0  RSN  6 0.4 1.7LRSN                1
 GAP=229        0.86       6.0    11.5  8.0 -0.1708E+02  0.7054E+01  0.1266E+02E
 Epicentro: CEPITA - SANTANDER                                                 3
 ACTION:UPD 10-08-24 09:57 OP:vdl  STATUS:               ID:20100404072822 L   I
 2010-04-04-0725-37S.COL___098                                                 6
 STAT SP IPHASW D HRMM SECON CODA AMPLIT PERI AZIMU VELO AIN AR TRES W  DIS CAZ7
 BAR2 SZ IP        728 42.89                             164     0.210   40 221 
 BAR2 SZ ES   1    728 57.69                             164    -0.5 7   40 221 
 BRR  HZ IP        728 45.01                             147     0.110   88 288 
 BRR  HZ I         728 45.25         6.7 0.30                            88 288 
 BRR  HN ES   1    729  2.12                             147     0.1 7   88 288 
 OCA  SZ EP   2    728 49.75                             130    -1.0 5  158 345 
 OCA  SZ ES   2    729 12.97                             130     0.4 5  158 345 
 OCA  SZ I         729 17.50         7.6 0.13                           158 345 
 ROSC BZ EP   1    729  3.50                             114     0.7 6  270 214 
 ROSC BE ES   1    729 34.07                             114     0.1 6  270 214 
 ROSC BZ I         729 37.99         2.9 0.27                           270 214 
 HEL  HZ EP   2    729  5.27                             112    -0.2 4  295 256 
 HEL  HZ I         729 42.06         2.5 0.43                           295 256 
 RREF BZ EP        729 10.78                             109    -0.5 7  343 231 
 RREF BN ES   2    729 48.97                             109    -0.2 3  343 231 
 RREF BZ I         729 52.75         1.9 0.48                           343 231 
                                                                                
