 2017  3 4 0256  8.0 L   6.784 -73.180151.2  RSN  5 0.3 1.4LRSN                1
 GAP=232        0.80       4.8     5.1  5.9  0.5177E+01  0.3353E+01  0.2438E+01E
 Epicentro: LOS SANTOS - SANTANDER                                             3
 ACTION:UPD 17-05-25 18:35 OP:jn   STATUS:               ID:20170304025608 L   I
 OLDACT:REG 17-03-04 12:17 OP:lv   STATUS:               ID:20170304024743     3
 2017-03-04-0248-00M.COL___397                                                 6
 STAT SP IPHASW D HRMM SECON CODA AMPLIT PERI AZIMU VELO AIN AR TRES W  DIS CAZ7
 BAR2 EZ EP        256 27.84                             172   -0.3810 21.2 181 
 BAR2 EZ ES        256 44.01                             172    0.0110 21.2 181 
 BAR2 EZ I         256 45.54         5.5 0.37            169           21.2 181 
 BRR  HZ EP        256 29.84                             154    0.2610 68.8 301 
 BRR  HN ES        256 46.74                             154    0.3110 68.8 301 
 BRR  HZ I         256 48.92        14.8 0.40            154           68.8 301 
 RUS  HZ EP        256 32.24                             145    0.0810 99.2 174 
 RUS  HN ES        256 50.83                             145   -0.2010 99.2 174 
 RUS  HZ I         256 51.95         1.5 0.26            146           99.2 174 
 PTB  HZ EP        256 34.87                             134   -0.16 9  144 259 
 PTB  HN ES        256 55.57                             134   -0.56 9  144 259 
 PTB  HZ I         256 57.87         2.6 0.04            134            144 259 
 SPBC HZ EP        256 36.76                             131    0.21 9  159 218 
 SPBC HN ES        256 59.28                             131    0.45 9  159 218 
 SPBC HZ I         257  3.72         3.6 0.21            131            159 218 
                                                                                
