 2017  7 4 0655 11.7 L   6.773 -73.145148.3  RSN  6 0.4 1.4LRSN                1
 GAP=251        0.98       5.7     6.1  8.5  0.3075E+00  0.1116E+02  0.9914E+01E
 Epicentro: LOS SANTOS - SANTANDER                                             3
 ACTION:UPD 17-08-30 15:29 OP:rebc STATUS:               ID:20170704065511 L   I
 OLDACT:UP  17-07-04 16:24 OP:edw  STATUS:               ID:20170704064530d    3
 OLDACT:DUP 17-07-04 16:21 OP:edw  STATUS:               ID:20170704064530d    3
 OLDACT:DUP 17-07-04 16:14 OP:edw  STATUS:               ID:20170704064529d    3
 2017-07-04-0648-00M.COL___371                                                 6
 STAT SP IPHASW D HRMM SECON CODA AMPLIT PERI AZIMU VELO AIN AR TRES W  DIS CAZ7
 BAR2 EZ EP        655 31.44                             172   -0.1610 20.5 192 
 BAR2 EZ ES        655 46.94                             172   -0.1710 20.5 192 
 BAR2 EZ I         655 47.77         9.4 0.18            167           20.5 192 
 BRR  HZ EP        655 33.52                             152    0.2910 72.7 301 
 BRR  HN ES        655 50.32                             152    0.3110 72.7 301 
 BRR  HZ I         655 53.50         2.6 0.28            152           72.7 301 
 PTB  HZ EP   2    655 38.52                             133   -0.34 5  147 260 
 PTB  HN ES        655 59.11                             133   -0.91 9  147 260 
 PTB  HZ I         656  0.96         1.8 0.24            132            147 260 
 SPBC HZ EP        655 40.00                             130   -0.21 9  161 220 
 SPBC HN ES        656  2.95                             130    0.52 9  161 220 
 SPBC HZ I         656  8.25         4.6 0.10            129            161 220 
 ZAR  HN ES        656 10.23                             123    0.24 8  205 293 
 NOR  HN ES        656 15.54                             119    0.26 8  233 235 
 NOR  HZ I         656 22.06         2.0 0.28            119            233 235 
                                                                                
