 2014  5 4 0401 53.1 L   6.904 -73.229142.5  RSN  9 0.3 1.9LRSN                1
 GAP=121        0.76       2.4     3.2  6.4 -0.9608E+00  0.7215E+01 -0.4020E+00E
 Epicentro: BETULIA - SANTANDER                                                3
 OLDACT:UP  14-05-04 14:52 OP:mh   STATUS:               ID:20140504040000     3
 OLDACT:REG 14-05-04 12:58 OP:mh   STATUS:               ID:20140504040000     3
 ACTION:UPD 15-03-16 16:55 OP:nd   STATUS:               ID:20140504040153 L   I
 OLDACT:UP  14-05-04 14:53 OP:mh   STATUS:               ID:20140504040000     3
 2014-05-04-0400-00M.COL___273                                                 6
 STAT SP IPHASW D HRMM SECON CODA AMPLIT PERI AZIMU VELO AIN AR TRES W  DIS CAZ7
 PAM  SZ EP        4 2 15.12                             151    0.2610 75.7  51 
 PAM  SN ES        4 2 31.78                             151   -0.0610 75.7  51 
 PAM  SZ I         4 2 32.94        13.2 0.30            151           75.7  51 
 RUS  HZ EP        4 2 17.39                             140   -0.0810  113 172 
 RUS  HN ES        4 2 36.34                             140   -0.1510  113 172 
 PTB  HZ EP        4 2 18.84                             132   -0.40 9  142 254 
 PTB  HN ES   1    4 2 39.77                             132    0.14 7  142 254 
 PTB  SZ I         4 2 41.48         8.5 0.30            128            142 254 
 SPBC HZ EP   1    4 2 21.72                             128    0.01 7  167 214 
 SPBC HN ES        4 2 44.23                             128    0.19 9  167 214 
 SPBC SZ I         4 2 49.94         8.3 0.12            124            167 214 
 ZAR  HN ES   1    4 2 49.15                             123    1.01 7  191 290 
 SML  HZ EP        4 2 28.31                             118    0.32 8  229 336 
 SML  HN ES        4 2 54.75                             118   -0.46 8  229 336 
 SML  SZ I         4 3  6.40         9.3 0.10            116            229 336 
 NOR  HN ES   1    4 2 55.99                             118   -0.31 6  234 231 
 CHI  HZ EP        4 2 31.71                             115    0.11 8  258 193 
 CHI  HN ES        4 3  1.88                             115    0.24 8  258 193 
 CHI  SZ I         4 3 23.92         5.9 2.26            113            258 193 
 HEL  HZ EP   4    4 2 34.06                             115    1.55 0  266 253 
 HEL  HN ES        4 3  2.78                             115   -0.47 8  266 253 
 HEL  SZ I         4 3 12.22         4.8 2.20            112            266 253 
 SJC  HZ EP   4    4 2 45.92                             106   -0.90 0  395 327 
 SJC  HN ES   4    4 3 26.37                             106   -2.36 0  395 327 
                                                                                
