 2017 11 4 0234 47.2 L   6.738 -73.468124.0  RSN  4 0.4 1.1LRSN                1
 GAP=151        0.97       6.8     5.9  9.6  0.1668E+02  0.8255E+01  0.7407E+01E
 Epicentro: EL CARMEN - SANTANDER                                              3
 ACTION:UPD 17-12-12 19:51 OP:rebc STATUS:               ID:20171104023447 L   I
 OLDACT:REG 17-11-04 13:10 OP:dnl  STATUS:               ID:20171104022737     3
 2017-11-04-0228-00M.COL___423                                                 6
 STAT SP IPHASW D HRMM SECON CODA AMPLIT PERI AZIMU VELO AIN AR TRES W  DIS CAZ7
 BAR2 EZ EP        235  4.20                             163   -0.4010 35.5 117 
 BAR2 EZ ES        235 17.72                             163   -0.4310 35.5 117 
 BAR2 EZ I         235 18.53        14.4 0.50            165           35.5 117 
 BRR  HZ EP        235  4.71                             157   -0.1010 48.9 327 
 BRR  HE ES        235 19.11                             157    0.5910 48.9 327 
 BRR  HZ I         235 20.24         3.8 0.44            159           48.9 327 
 RUS  HZ EP   2    235  9.40                             138    0.32 5  103 156 
 RUS  HN ES        235 26.56                             138    0.4410  103 156 
 RUS  HZ I         235 28.53         0.9 0.42            139            103 156 
 PTB  HZ EP   2    235  9.60                             135    0.45 5  112 259 
 PTB  HN ES        235 25.97                             135   -0.2910  112 259 
 PTB  HZ I         235 29.69         1.3 0.52            135            112 259 
                                                                                
