 2013  2 4 0644 48.3 L   6.783 -73.106138.3  RSN 11 0.5 2.0LRSN                1
 GAP= 74        0.96       3.6     3.5  5.8  0.2010E+01  0.3213E+01  0.2532E+00E
 Epicentro: LOS SANTOS - SANTANDER                                             3
 ACTION:UPD 13-03-12 09:30 OP:ep   STATUS:               ID:20130204064449dL   I
 2013-02-04-0640-00M.COL___241                                                 6
 STAT SP IPHASW D HRMM SECON CODA AMPLIT PERI AZIMU VELO AIN AR TRES W  DIS CAZ7
 BAR2 SZ EP   1    645  6.70                             170   -0.33 7 22.8 202 
 BAR2 SZ ES        645 21.68                             170    0.0510 22.8 202 
 BAR2 SZ I         645 22.84        31.3 0.24            163           22.8 202 
 BRR  HZ EP        645  9.09                             149    0.1510 75.9 298 
 BRR  HN ES   1    645 25.69                             149    0.66 7 75.9 298 
 BRR  HN I         645 29.66        32.6 0.16            129           75.9 298 
 PAM  SZ EP        645 10.01                             150    0.3610 76.1  36 
 PAM  SN ES        645 26.88                             150    0.5710 76.1  36 
 PAM  SN I         645 27.79        24.5 0.46            135           76.1  36 
 RUS  HZ EP     C  645 11.11                             143   -0.0710 98.5 179 
 RUS  HN ES        645 28.50                             143   -0.5210 98.5 179 
 RUS  HN I         645 31.07         9.9 0.36            129           98.5 179 
 TAM  HZ EP        645 15.39                             130    0.44 9  150 105 
 TAM  HE ES        645 35.18                             130   -0.56 9  150 105 
 TAM  HE I         645 38.35        10.4 0.30            117            150 105 
 PTB  HZ EP   1    645 14.83                             129   -0.22 7  152 260 
 PTB  HN ES   2    645 35.68                             129   -0.23 5  152 260 
 OCA  HZ EP   1    645 15.62                             127   -0.66 7  163 352 
 OCA  HN ES   1    645 37.13                             127   -0.97 7  163 352 
 ZAR  HZ EP   2    645 20.62                             120   -0.16 4  209 292 
 ZAR  HN ES        645 46.12                             120    0.01 8  209 292 
 ZAR  HN I         645 48.29        21.3 0.14            106            209 292 
 SML  HZ EP   2    645 24.75                             115   -0.16 4  247 335 
 SML  HN I         646  5.33        16.9 0.10            103            247 335 
 CHI  HZ EP   1    645 25.56                             116    0.02 6  248 196 
 CHI  HN ES   2    645 55.62                             116    1.04 4  248 196 
 CHI  HN I         646  0.29         3.6 0.22            104            248 196 
 HEL  HZ EP   1    645 29.12                             113    0.54 6  276 256 
 HEL  HN I         646  6.41         3.5 0.22            102            276 256 
                                                                                
