 2014 11 4 0435 45.1 L   6.772 -73.144148.3  RSN  6 0.4 1.3LRSN                1
 GAP=138        1.02       5.1     5.5  7.4 -0.3378E+01  0.9606E+01  0.7401E+01E
 Epicentro: LOS SANTOS - SANTANDER                                             3
 ACTION:UPD 14-12-19 15:39 OP:nd   STATUS:               ID:20141104043545 L   I
 OLDACT:DUP 14-11-04 17:02 OP:carl STATUS:               ID:20141104042744d    3
 2014-11-04-0427-42M.COL___271                                                 6
 STAT SP IPHASW D HRMM SECON CODA AMPLIT PERI AZIMU VELO AIN AR TRES W  DIS CAZ7
 BAR2 SZ EP        436  4.93                             172   -0.0810 20.3 192 
 BAR2 SZ ES        436 20.06                             172   -0.4510 20.3 192 
 BAR2 SZ I         436 21.40         7.8 0.12            168           20.3 192 
 BRR  HZ EP        436  6.90                             152    0.2510 72.9 301 
 BRR  HN ES        436 24.21                             152    0.7810 72.9 301 
 BRR  HZ I         436 28.62         2.4 0.32            149           72.9 301 
 PAM  SN ES        436 25.14                             151   -0.2510 79.7  38 
 RUS  HZ EP        436  8.83                             145   -0.0810 97.5 176 
 RUS  HN ES        436 27.79                             145    0.3310 97.5 176 
 RUS  HZ I         436 28.64         2.4 0.36            147           97.5 176 
 PTB  HZ EP        436 12.10                             133   -0.17 9  147 260 
 PTB  HN ES        436 32.73                             133   -0.71 9  147 260 
 PTB  HZ I         436 40.25         2.3 0.28            131            147 260 
 SPBC HZ EP        436 13.78                             130    0.17 9  161 220 
 SPBC HN ES        436 35.95                             130    0.13 9  161 220 
 SPBC HZ I         436 40.74         4.1 0.48            130            161 220 
                                                                                
