 2016  4 4 0436 14.1 L   6.354 -73.551113.8  RSN 10 0.4 1.5LRSN                1
 GAP= 77        0.89       2.5     2.8  5.4 -0.1732E+01  0.4429E+01 -0.1811E+01E
 Epicentro: SANTA HELENA DEL OPON - SANTANDER                                  3
 ACTION:UPD 16-05-05 14:18 OP:rebc STATUS:               ID:20160404043614 L   I
 OLDACT:UP  16-04-04 17:39 OP:mh   STATUS:               ID:20160404042741     3
 OLDACT:UP  16-04-04 17:39 OP:mh   STATUS:               ID:20160404042741     3
 OLDACT:UP  16-04-04 17:38 OP:mh   STATUS:               ID:20160404042741     3
 OLDACT:UP  16-04-04 17:38 OP:mh   STATUS:               ID:20160404042741     3
 OLDACT:UP  16-04-04 17:37 OP:mh   STATUS:               ID:20160404042741     3
 OLDACT:REG 16-04-04 12:29 OP:mh   STATUS:               ID:20160404042741     3
 2016-04-04-0427-41M.COL___312                                                 6
 STAT SP IPHASW D HRMM SECON CODA AMPLIT PERI AZIMU VELO AIN AR TRES W  DIS CAZ7
 BAR2 EZ EP        436 30.95                             155    0.0310 48.5  57 
 BAR2 EZ ES        436 44.17                             155    0.1610 48.5  57 
 BAR2 EZ I         436 45.48        19.4 0.32            155           48.5  57 
 RUS  HZ EP        436 32.33                             146   -0.4110 72.7 135 
 RUS  HN ES   1    436 47.12                             146   -0.14 7 72.7 135 
 RUS  HZ I         436 48.25         3.8 0.20            146           72.7 135 
 SPBC HZ EP        436 33.84                             137   -0.1910 96.7 217 
 SPBC HN ES        436 49.87                             137    0.3310 96.7 217 
 SPBC HZ I         436 51.06         9.3 0.10            137           96.7 217 
 PTB  HZ IP     C  436 33.48                             135   -0.9110  102 282 
 PTB  HE ES        436 50.07                             135   -0.1210  102 282 
 PTB  HZ I         436 51.62         6.9 0.38            135            102 282 
 PAM  EZ EP        436 38.77                             125   -0.18 9  144  41 
 PAM  EN ES        436 58.36                             125    0.05 9  144  41 
 PAM  EZ I         437  3.54         4.0 0.47            124            144  41 
 CHI  HZ EP   1    436 43.55                             116   -0.34 7  192 186 
 CHI  HE ES        437  7.60                             116    0.51 9  192 186 
 CHI  HZ I         437 12.04         1.8 0.46            117            192 186 
 ZAR  HZ EP   1    436 43.19                             116   -0.16 7  192 311 
 ZAR  HN ES        437  6.30                             116    0.17 9  192 311 
 ZAR  HZ I         437  9.60         5.7 0.36            116            192 311 
 OCA  HZ EP        436 45.84                             114    0.27 8  210   7 
 OCA  HE ES        437 10.52                             114    0.43 8  210   7 
 OCA  HZ I         437 16.88         6.7 0.52            113            210   7 
 GUY2CHZ EP        436 49.28                             111    0.30 8  237 238 
 GUY2CHN ES   4    437 20.00                             111    3.84 0  237 238 
 GUY2CHZ I         437 22.19         1.6 0.40                           237 238 
 URE  HN ES   4    437 19.20                             108   -2.36 0  268 305 
 CBOC HZ EP        436 54.03                             107    0.68 7  278 259 
 CBOC HN ES        437 23.83                             107   -0.11 7  278 259 
 CBOC HZ I         437 29.03         0.9 0.40            107            278 259 
                                                                                
