 2012  2 4 0235 43.1 L   6.784 -73.212146.4  RSN  9 0.5 1.8LRSN                1
 GAP=168        0.97       5.0     5.9  8.8  0.5436E+01 -0.3873E+01 -0.4214E+00E
 ACTION:UP  12-03-07 16:27 OP:epov STATUS:               ID:20120204023543 L   I
 2012-02-04-0230-00M.COL___188                                                 6
 STAT SP IPHASW D HRMM SECON CODA AMPLIT PERI AZIMU VELO SNR AR TRES W  DIS CAZ7
 BAR2 SZ EP   1    236  2.33                             171   -0.43 8 21.5 171 
 BAR2 SZ I         236 18.61         7.5 0.25                          21.5 171 
 GIR2 SZ EP   1    236  2.91                             167    0.04 8 32.6   4 
 BRR  HZ EP   1    236  4.35                             155    0.34 8 65.8 303 
 BRR  HN ES   1    236 21.25                             155    0.92 8 65.8 303 
 BRR  HZ I         236 23.44        11.4 0.13                          65.8 303 
 RUS  HZ EP   1    236  6.76                             144   -0.07 8 99.6 172 
 RUS  HN ES   1    236 25.03                             144   -0.32 8 99.6 172 
 RUS  HZ I         236 27.14         5.8 0.27                          99.6 172 
 PTB  HZ EP   1    236  9.46                             134    0.03 7  140 259 
 PTB  HN ES        236 29.11                             134   -0.8810  140 259 
 ZAR  HZ EP   1    236 14.98                             123    0.03 7  198 293 
 ZAR  HN ES   1    236 40.01                             123    0.20 7  198 293 
 ZAR  HZ I         236 45.53         4.6 0.15                           198 293 
 NOR  SZ EP   1    236 17.56                             119   -0.55 7  228 234 
 NOR  SN ES   1    236 46.01                             119    0.58 7  228 234 
 CHI  HZ EP   1    236 21.09                             118    0.65 6  245 194 
 CHI  HN ES   1    236 50.12                             118    0.55 6  245 194 
 COD  HZ EP   1    236 31.47                             109   -0.15 5  349 356 
 COD  HZ I         236 39.66        11.0 0.40                           349 356 
                                                                                
