 2011  9 4 0540 39.9 L   6.849 -73.020139.9  RSN  4 0.2 1.5LRSN                1
 GAP=196        0.36       3.4     7.2  4.7  0.1428E+02 -0.1446E+02 -0.5856E+01E
 Epicentro: CEPITA - SANTANDER                                                 3
 ACTION:UPD 12-07-13 15:55 OP:ep   STATUS:               ID:20110904054039 L   I
 2011-09-04-0538-31S.COL___171                                                 6
 STAT SP IPHASW D HRMM SECON CODA AMPLIT PERI AZIMU VELO AIN AR TRES W  DIS CAZ7
 BAR2 SZ EP   2    540 59.38                             166    0.26 5 33.6 212 
 BAR2 SZ ES   1    541 14.06                             166   -0.03 7 33.6 212 
 BAR2 SZ I         541 15.59         9.3 0.42                          33.6 212 
 BRR  HZ EP        541  1.07                             148   -0.0210 81.6 291 
 BRR  HZ I         541  1.28         9.9 0.14                          81.6 291 
 BRR  HE ES   1    541 17.61                             148    0.01 7 81.6 291 
 RUS  HZ EP   1    541  3.65                             141    0.13 7  106 184 
 RUS  HN ES   2    541 21.67                             141   -0.25 5  106 184 
 RUS  HZ I         541 23.50         2.8 0.21                           106 184 
 OCA  SZ EP   2    541  7.13                             129   -0.37 5  157 348 
 OCA  SZ ES   2    541 29.17                             129    0.16 5  157 348 
 OCA  SZ I         541 32.78         4.8 0.21                           157 348 
                                                                                
