 2017  7 4 0351 12.0 L   6.800 -73.165145.6  RSN 10 0.4 1.8LRSN                1
 GAP=144        0.95       4.8     4.3  6.1 -0.7131E+01  0.4985E+01  0.2126E+01E
 Epicentro: LOS SANTOS - SANTANDER                                             3
 ACTION:UPD 17-08-30 15:29 OP:rebc STATUS:               ID:20170704035112 L   I
 OLDACT:UP  17-07-04 15:18 OP:edw  STATUS:               ID:20170704033732     3
 OLDACT:UP  17-07-04 15:17 OP:edw  STATUS:               ID:20170704033732     3
 OLDACT:REG 17-07-04 12:39 OP:edw  STATUS:               ID:20170704033732     3
 2017-07-04-0348-00M.COL___371                                                 6
 STAT SP IPHASW D HRMM SECON CODA AMPLIT PERI AZIMU VELO AIN AR TRES W  DIS CAZ7
 BAR2 EZ EP     C  351 31.45                             171   -0.1710 23.0 185 
 BAR2 EZ ES        351 46.63                             171   -0.2910 23.0 185 
 BAR2 EZ I         351 48.49        17.0 0.76            166           23.0 185 
 BRR  HZ IP     C  351 33.25                             153    0.2010 69.4 299 
 BRR  HN ES        351 50.24                             153    0.7910 69.4 299 
 BRR  HZ I         351 52.78         8.4 0.28            153           69.4 299 
 PAM  EZ EP     D  351 34.38                             151    0.0810 78.8  41 
 PAM  EN ES        351 51.48                             151   -0.2010 78.8  41 
 PAM  EZ I         351 53.58        10.3 0.46            155           78.8  41 
 PTB  HZ EP   9    351 37.80                             132   -0.98 0  146 259 
 PTB  HN ES        351 58.78                             132    0.10 9  146 259 
 PTB  HZ I         352  0.21         4.5 0.18            131            146 259 
 SPBC HZ EP        351 40.62                             129    0.24 9  162 218 
 SPBC HN ES        352  2.12                             129   -0.38 9  162 218 
 SPBC HZ I         352  5.01         9.4 0.32            128            162 218 
 ZAR  HZ EP        351 44.08                             123   -0.17 9  202 292 
 ZAR  HN ES        352  8.77                             123   -0.63 9  202 292 
 ZAR  HZ I         352 13.53         3.9 0.28            123            202 292 
 NOR  HZ EP   4    351 50.04                             119    2.49 0  233 234 
 NOR  HN ES        352 15.87                             119    0.60 8  233 234 
 NOR  HZ I         352 23.20         4.2 0.20            118            233 234 
 ROSC BZ EP   4    351 51.10                             117    1.09 0  252 211 
 ROSC BN ES   4    352 25.52                             117    5.88 0  252 211 
 ROSC BZ I         352 30.22         4.2 0.40            116            252 211 
 HEL  HN ES   1    352 22.81                             115   -0.37 6  270 256 
 GUY2CHZ EP   4    351 56.79                             112    1.37 0  299 235 
 GUY2CHN ES   4    352 35.28                             112    6.00 0  299 235 
 GUY2CHZ I         352 37.43         3.6 0.30                           299 235 
 PTGC HZ EP   4    351 54.80                             112   -1.15 0  309 158 
 PTGC HN ES   4    352 28.31                             112   -1.91 0  309 158 
 SJC  HZ EP   4    352  5.67                             106   -1.77 0  408 327 
 SJC  HN ES   4    352 44.36                             106   -6.31 0  408 327 
                                                                                
