 2012  4 4 0303 44.4 L   6.765 -73.148142.7  RSN  6 0.3 1.6LRSN                1
 GAP=138        0.87       5.7     5.1  8.4  0.2486E+01  0.8710E+01  0.4671E+00E
 Epicentro: LOS SANTOS - SANTANDER                                             3
 ACTION:UPD 12-07-05 11:50 OP:tino STATUS:               ID:20120404030344 L   I
 2012-04-04-0300-00M.COL___196                                                 6
 STAT SP IPHASW D HRMM SECON CODA AMPLIT PERI AZIMU VELO AIN AR TRES W  DIS CAZ7
 BAR2 SZ EP   1    3 4  3.81                             172     0.2 7   19 191 
 BAR2 SZ ES   1    3 4 18.47                             172    -0.1 7   19 191 
 BAR2 SZ I         3 4 19.87        15.1 0.26                            19 191 
 BRR  HZ EP   1    3 4  5.64                             151     0.3 7   73 301 
 BRR  HN ES   1    3 4 22.31                             151     0.6 7   73 301 
 BRR  HZ I         3 4 26.96        15.6 0.14                            73 301 
 PAM  SZ EP   1    3 4  6.73                             149     0.2 7   81  38 
 PAM  SZ I         3 4  6.96         6.6 0.16                            81  38 
 PAM  SN ES   1    3 4 23.17                             149    -0.6 7   81  38 
 RUS  HZ EP   1    3 4  7.71                             144     0.1 7   97 176 
 RUS  HZ I         3 4  8.89         3.1 0.15                            97 176 
 RUS  HN ES   1    3 4 25.76                             144     0.1 7   97 176 
 PTB  HZ EP   1    3 4 10.59                             131    -0.5 7  147 260 
 PTB  HN ES   1    3 4 31.43                             131    -0.4 7  147 260 
 PTB  HZ I         3 4 33.61         2.8 0.23                           147 260 
 ZAR  HN ES   1    3 4 42.02                             121     0.0 6  205 293 
 ZAR  HZ I         3 4 48.80         4.4 0.33                           205 293 
                                                                                
