 2016 10 4 0924 58.3 L   6.554 -73.226122.0  RSN  4 0.2 1.1LRSN                1
 GAP=220        0.37       6.3     2.8  4.4  0.2827E+01  0.5348E+01 -0.8588E+00E
 Epicentro: CABRERA - SANTANDER                                                3
 ACTION:UPD 16-11-09 19:16 OP:rebc STATUS:               ID:20161004092458 L   I
 OLDACT:REG 16-10-04 13:34 OP:dani STATUS:               ID:20161004091744     3
 2016-10-04-0918-00M.COL___360                                                 6
 STAT SP IPHASW D HRMM SECON CODA AMPLIT PERI AZIMU VELO AIN AR TRES W  DIS CAZ7
 BAR2 EZ EP        925 14.74                             177   -0.0810 6.41  49 
 BAR2 EZ ES        925 27.73                             177    0.0310 6.41  49 
 BAR2 EZ I         925 31.82         5.0 0.88            171           6.41  49 
 BRR  HZ EP   4    925 16.91                             144   -0.73 0 81.4 319 
 BRR  HE ES   2    925 32.87                             144    0.15 5 81.4 319 
 BRR  HZ I         925 33.35         8.0 0.30            141           81.4 319 
 PTB  HZ EP   2    925 22.39                             128    0.08 5  136 269 
 PTB  HN ES        925 41.04                             128    0.01 9  136 269 
 PTB  HZ I         925 42.51         0.7 0.30            129            136 269 
 ZAR  HZ EP   2    925 30.13                             116    0.38 4  208 300 
 ZAR  HE ES   2    925 53.87                             116   -0.41 4  208 300 
 ZAR  HZ I         926  0.49         0.9 0.50            116            208 300 
                                                                                
