 2017 11 4 0828 10.9 L   6.801 -73.125146.0  RSN  7 0.4 1.7LRSN                1
 GAP=139        0.93       3.9     4.4  6.4 -0.1948E+01  0.8181E+01  0.3143E+01E
 Epicentro: LOS SANTOS - SANTANDER                                             3
 ACTION:UPD 17-12-12 19:51 OP:rebc STATUS:               ID:20171104082810 L   I
 OLDACT:REG 17-11-04 13:54 OP:dnl  STATUS:               ID:20171104081739     3
 2017-11-04-0818-00M.COL___407                                                 6
 STAT SP IPHASW D HRMM SECON CODA AMPLIT PERI AZIMU VELO AIN AR TRES W  DIS CAZ7
 BAR2 EZ EP        828 30.37                             170   -0.1910 23.9 195 
 BAR2 EZ ES        828 45.68                             170   -0.2210 23.9 195 
 BAR2 EZ I         828 46.35        16.0 0.40            170           23.9 195 
 BRR  HZ EP        828 32.12                             152   -0.0610 73.2 298 
 BRR  HN ES        828 49.18                             152    0.4010 73.2 298 
 BRR  HZ I         828 53.12        11.7 0.40            150           73.2 298 
 PAM  EZ EP        828 33.24                             152    0.1910 75.9  38 
 PAM  EE ES        828 50.64                             152    0.3210 75.9  38 
 PAM  EZ I         828 52.45        10.2 0.56            154           75.9  38 
 RUS  HZ EP        828 34.32                             144   -0.3410  101 177 
 RUS  HN ES        828 53.13                             144   -0.0710  101 177 
 RUS  HZ I         828 54.42         3.1 0.26            147            101 177 
 SPBC HZ EP        828 39.24                             129   -0.31 9  165 220 
 SPBC HN ES        829  2.09                             129    0.19 9  165 220 
 SPBC HZ I         829  5.70         7.5 0.20            130            165 220 
 ZAR  HZ EP   2    828 44.10                             122    0.53 4  206 292 
 ZAR  HE ES        829  8.24                             122   -0.81 8  206 292 
 ZAR  HZ I         829 15.05         5.8 0.36            123            206 292 
 GUY2CHZ EP   2    828 55.49                             112    0.77 4  303 235 
 GUY2CHE ES        829 29.82                             112    0.91 7  303 235 
 GUY2CHZ I         829 36.73         1.9 0.58                           303 235 
                                                                                
