 2016  6 4 0930 41.1 L   6.807 -73.154148.7  RSN  4 0.2 1.1LRSN                1
 GAP=237        0.67       5.5     5.3  6.0  0.1215E+02  0.5626E+01 -0.3023E+01E
 Epicentro: LOS SANTOS - SANTANDER                                             3
 ACTION:UPD 16-07-21 22:15 OP:rebc STATUS:               ID:20160604093041 L   I
 OLDACT:DUP 16-06-04 14:25 OP:cara STATUS:               ID:20160604092741d    3
 2016-06-04-0927-40M.COL___313                                                 6
 STAT SP IPHASW D HRMM SECON CODA AMPLIT PERI AZIMU VELO AIN AR TRES W  DIS CAZ7
 BAR2 EZ IP        931  1.17                             170    0.0210 24.0 187 
 BAR2 EZ ES        931 16.34                             170   -0.4110 24.0 187 
 BAR2 EZ I         931 18.84         2.0 0.16                          24.0 187 
 BRR  HZ EP        931  2.75                             153    0.2010 70.0 298 
 BRR  HN ES        931 19.44                             153    0.1910 70.0 298 
 BRR  HZ I         931 19.55         5.3 0.26                          70.0 298 
 RUS  HN ES        931 24.31                             144    0.2610  101 176 
 RUS  HZ I         931 25.26         1.2 0.42                           101 176 
 PTB  HZ EP        931  7.96                             133   -0.33 9  147 258 
 PTB  HN ES        931 29.48                             133    0.02 9  147 258 
 PTB  HZ I         931 32.44         2.1 0.46                           147 258 
                                                                                
