 2014 12 4 0755 46.1 L   6.712 -73.111139.7  RSN  4 0.3 1.4LRSN                1
 GAP=178        0.85       8.0     4.7  6.7  0.1111E+01  0.9086E+01 -0.5100E+01E
 Epicentro: JORDAN - SANTANDER                                                 3
 ACTION:UPD 15-02-10 17:00 OP:nd   STATUS:               ID:20141204075546 L   I
 OLDACT:DUP 14-12-04 15:36 OP:carl STATUS:               ID:20141204074738d    3
 2014-12-04-0747-37M.COL___300                                                 6
 STAT SP IPHASW D HRMM SECON CODA AMPLIT PERI AZIMU VELO AIN AR TRES W  DIS CAZ7
 BAR2 SZ EP        756  4.86                             173    0.0310 15.4 211 
 BAR2 SZ ES        756 19.25                             173   -0.2110 15.4 211 
 BAR2 SZ I         756 21.02         5.2 0.34            169           15.4 211 
 BRR  HZ EP        756  6.99                             149   -0.0810 79.5 303 
 BRR  HN ES        756 24.07                             149    0.6210 79.5 303 
 BRR  HZ I         756 31.76         6.3 0.42            144           79.5 303 
 PAM  SZ EP        756  8.17                             148    0.1710 83.0  33 
 PAM  SN ES        756 24.87                             148   -0.2310 83.0  33 
 PAM  SZ I         756 27.00         4.5 0.50            148           83.0  33 
 ZAR  HZ EP        756 19.10                             120    0.20 8  211 294 
 ZAR  HN ES        756 43.91                             120   -0.60 8  211 294 
 ZAR  HZ I         756 51.74         2.2 0.14            120            211 294 
                                                                                
