 2017 12 4 0604 53.7 L   6.801 -73.127140.7  RSN 11 0.6 1.6LRSN                1
 GAP=114        1.36       3.8     4.9  8.2 -0.7528E+00  0.1095E+02  0.9868E+00E
 Epicentro: LOS SANTOS - SANTANDER                                             3
 ACTION:UPD 18-01-04 13:16 OP:rebc STATUS:               ID:20171204060453 L   I
 OLDACT:UP  17-12-04 17:29 OP:leo  STATUS:               ID:20171204055742     3
 OLDACT:REG 17-12-04 13:50 OP:leo  STATUS:               ID:20171204055742     3
 2017-12-04-0558-00M.COL___486                                                 6
 STAT SP IPHASW D HRMM SECON CODA AMPLIT PERI AZIMU VELO AIN AR TRES W  DIS CAZ7
 BAR2 EZ EP        6 5 12.67                             170   -0.0910 23.9 195 
 BAR2 EZ ES        6 5 26.88                             170   -0.7310 23.9 195 
 BAR2 EZ I         6 5 29.93         7.8 0.28            169           23.9 195 
 PAM  EZ EP        6 5 15.78                             150    0.4610 76.0  38 
 PAM  EN ES        6 5 32.66                             150    0.4910 76.0  38 
 RUS  HZ EP        6 5 16.83                             143   -0.1610  101 177 
 RUS  HN ES        6 5 35.27                             143    0.1410  101 177 
 RUS  HZ I         6 5 35.94         7.0 0.24            144            101 177 
 PTB  HZ EP        6 5 20.04                             130   -0.43 9  150 259 
 PTB  HE ES        6 5 42.42                             130    1.08 9  150 259 
 PTB  HZ I         6 5 43.14         3.4 0.20            131            150 259 
 OCA  HZ EP        6 5 21.29                             128   -0.37 9  160 352 
 OCA  HN ES        6 5 42.99                             128   -0.46 9  160 352 
 OCA  HZ I         6 5 44.33        13.4 0.20            130            160 352 
 SPBC HN ES        6 5 43.78                             128   -0.23 9  165 220 
 YPLC HZ EP        6 5 23.17                             126    0.10 9  176 152 
 ZAR  HZ EP        6 5 26.95                             121    0.91 8  206 292 
 ZAR  HN ES        6 5 51.64                             121    0.40 8  206 292 
 ZAR  HZ I         6 5 57.29         4.8 0.44            122            206 292 
 CHI  HZ EP        6 5 31.19                             116   -0.03 8  249 196 
 CHI  HE ES        6 6  0.06                             116   -0.41 8  249 196 
 CHI  HZ I         6 6  3.28         1.3 0.34            117            249 196 
 URE  HN ES        6 6  5.38                             112   -1.39 7  286 292 
 GUY2CHN ES        6 6 11.70                             111    0.41 7  303 235 
                                                                                
