 2017  5 4 0645 47.4 L   6.757 -73.077147.9  RSN  4 0.3 1.1LRSN                1
 GAP=241        0.64       5.4     5.9  7.0  0.1996E+02  0.2342E+01 -0.5784E+01E
 Epicentro: LOS SANTOS - SANTANDER                                             3
 ACTION:UPD 17-06-16 13:32 OP:jn   STATUS:               ID:20170504064547 L   I
 OLDACT:UP  17-05-04 18:09 OP:edw  STATUS:               ID:20170504063738     3
 OLDACT:REG 17-05-04 13:06 OP:edw  STATUS:               ID:20170504063738     3
 2017-05-04-0638-00M.COL___370                                                 6
 STAT SP IPHASW D HRMM SECON CODA AMPLIT PERI AZIMU VELO AIN AR TRES W  DIS CAZ7
 BRR  HZ EP        646  9.35                             150    0.0610 80.1 299 
 BRR  HE ES        646 26.54                             150    0.1710 80.1 299 
 BRR  HZ I         646 31.18         2.3 0.44            152           80.1 299 
 RUS  HZ EP   2    646 10.84                             146   -0.17 5 95.6 180 
 RUS  HN ES        646 29.24                             146   -0.1910 95.6 180 
 PTB  HZ EP        646 15.37                             131    0.24 9  154 261 
 PTB  HN ES        646 36.98                             131    0.21 9  154 261 
 PTB  HZ I         646 37.66         1.2 0.28            136            154 261 
 ZAR  HN ES        646 46.46                             122   -0.54 8  213 293 
                                                                                
