 2017 12 4 0903 45.9 L   6.820 -73.148149.1  RSN 10 0.6 1.7LRSN                1
 GAP=113        1.19       3.5     5.5  7.4  0.4586E+01  0.1888E+01 -0.3289E+01E
 Epicentro: LOS SANTOS - SANTANDER                                             3
 ACTION:UPD 18-01-04 13:16 OP:rebc STATUS:               ID:20171204090345 L   I
 OLDACT:REG 17-12-04 14:28 OP:leo  STATUS:               ID:20171204085739     3
 2017-12-04-0858-00M.COL___462                                                 6
 STAT SP IPHASW D HRMM SECON CODA AMPLIT PERI AZIMU VELO AIN AR TRES W  DIS CAZ7
 BAR2 EZ IP     C  9 4  6.43                             170    0.4410 25.4 189 
 BAR2 EZ ES        9 4 21.55                             170   -0.1010 25.4 189 
 BAR2 EZ I         9 4 23.73         9.8 0.18            171           25.4 189 
 RUS  HZ EP   2    9 4 10.61                             144    0.46 5  103 176 
 RUS  HN ES        9 4 28.91                             144   -0.1510  103 176 
 RUS  HZ I         9 4 30.94         3.5 0.22            146            103 176 
 PTB  HZ EP        9 4 13.02                             133   -0.16 9  148 258 
 PTB  HN ES        9 4 34.07                             133   -0.37 9  148 258 
 PTB  HZ I         9 4 35.64         4.6 0.20            133            148 258 
 TAM  HZ EP   2    9 4 14.54                             131    0.61 5  156 106 
 OCA  HZ EP        9 4 14.76                             131    0.47 9  158 353 
 OCA  HE ES        9 4 36.26                             131   -0.15 9  158 353 
 OCA  HZ I         9 4 40.92        12.9 0.56            131            158 353 
 SPBC HZ EP        9 4 15.68                             129    0.86 9  165 218 
 SPBC HN ES        9 4 37.38                             129    0.02 9  165 218 
 SPBC HZ I         9 4 40.01         6.5 0.22            131            165 218 
 ZAR  HZ EP        9 4 18.96                             123    0.48 9  203 292 
 ZAR  HN ES        9 4 44.14                             123    0.27 9  203 292 
 ZAR  HZ I         9 4 49.70         6.7 0.36            124            203 292 
 CHI  HZ EP        9 4 24.06                             118    0.04 8  251 195 
 CHI  HN ES        9 4 53.63                             118   -0.11 8  251 195 
 CHI  HZ I         9 4 57.10         3.1 0.34            119            251 195 
 PTGC HZ EP   2    9 4 30.02                             112   -0.14 3  311 159 
 PTGC HE ES        9 5  3.33                             112   -1.34 7  311 159 
 PTGC HZ I         9 5  6.32         3.1 0.32            113            311 159 
 SJC  HZ EP        9 4 40.64                             106   -0.72 6  407 327 
 SJC  HN ES        9 5 22.80                             106   -1.81 6  407 327 
 SJC  HZ I         9 5 31.01         1.6 0.84            107            407 327 
                                                                                
