 2015  9 4 0016 35.8 L   6.790 -73.140142.1  RSN 24 0.4 2.7LRSN                1
 GAP=120        0.96       2.1     2.9  4.2 -0.5845E+00  0.3482E+01  0.1473E+01E
 Epicentro: LOS SANTOS - SANTANDER                                             3
 ACTION:UPD 15-10-28 16:23 OP:cam  STATUS:               ID:20150904001635 L   I
 OLDACT:UP  15-09-08 11:00 OP:AK   STATUS:               ID:20150904001635 L   3
 OLDACT:REG 15-09-04 12:13 OP:ak   STATUS:               ID:20150904000743     3
 2015-09-04-0007-43M.COL___352                                                 6
 STAT SP IPHASW D HRMM SECON CODA AMPLIT PERI AZIMU VELO AIN AR TRES W  DIS CAZ7
 BAR2 EZ EP        016 55.16                             171    0.1810 22.4 192 
 BAR2 EZ ES        017  9.79                             171   -0.1410 22.4 192 
 BAR2 EZ I         017 10.94       236.2 0.20            168           22.4 192 
 BRR  HZ IP     C  016 57.07                             151    0.4410 72.3 299 
 BRR  HN ES        017 13.33                             151    0.4710 72.3 299 
 BRR  HZ I         017 14.97        95.1 0.16            150           72.3 299 
 PAM  EZ IP     D  016 58.09                             150    0.4310 77.8  39 
 PAM  EN ES        017 14.89                             150    0.1910 77.8  39 
 PAM  EZ I         017 17.35       112.4 0.66            154           77.8  39 
 RUS  HZ EP        016 59.10                             143   -0.0210 99.5 176 
 RUS  HN ES        017 17.54                             143    0.2410 99.5 176 
 RUS  HZ I         017 19.24       102.2 0.38            143           99.5 176 
 PTB  HZ EP        017  1.73                             131   -0.79 9  148 259 
 PTB  HN ES        017 22.52                             131   -0.84 9  148 259 
 PTB  HZ I         017 25.95        64.2 0.16            130            148 259 
 OCA  HZ EP        017  3.59                             129   -0.36 9  161 353 
 OCA  HN ES        017 25.10                             129   -0.79 9  161 353 
 OCA  HZ I         017 31.07       102.7 0.22            130            161 353 
 SPBC HZ EP        017  4.07                             128    0.08 9  163 219 
 SPBC HN ES        017 25.93                             128   -0.04 9  163 219 
 SPBC HZ I         017 30.11        78.8 0.16            128            163 219 
 ZAR  HZ EP        017  8.58                             121    0.45 9  205 292 
 ZAR  HN ES        017 33.22                             121   -0.11 9  205 292 
 ZAR  HZ I         017 39.01        68.9 0.30            122            205 292 
 NOR  HZ EP        017 11.27                             118   -0.05 8  235 235 
 NOR  HN ES        017 39.28                             118    0.26 8  235 235 
 NOR  HZ I         017 43.43        33.7 0.28            118            235 235 
 SML  HZ EP        017 11.89                             116   -0.48 8  245 335 
 SML  HN ES        017 41.50                             116    0.62 8  245 335 
 SML  HZ I         017 45.60        35.1 0.10            118            245 335 
 CHI  HZ EP        017 13.59                             116    0.37 8  248 195 
 CHI  HN ES        017 41.88                             116   -0.51 8  248 195 
 CHI  HZ I         017 45.94        24.4 0.52            117            248 195 
 ROSC BZ EP   4    017 15.34                             116    1.67 0  252 211 
 ROSC BN ES   4    017 46.02                             116    2.82 0  252 211 
 ROSC BZ I         017 51.25        31.6 0.50            116            252 211 
 HEL  HZ EP   1    017 15.89                             114    0.01 6  272 256 
 HEL  HN ES        017 47.03                             114   -0.11 8  272 256 
 HEL  HZ I         017 54.58        29.8 0.19            114            272 256 
 URE  HZ EP        017 16.33                             113   -0.49 7  285 292 
 URE  HN ES   4    017 46.44                             113   -2.36 0  285 292 
 URE  HZ I         017 51.02        37.4 0.24            113            285 292 
 GUY2CHZ EP        017 19.80                             112    0.55 7  301 235 
 GUY2CHN ES        017 53.42                             112    0.30 7  301 235 
 GUY2CHZ I         018  0.37        22.5 0.28                           301 235 
 VIL  SZ EP        017 19.21                             111    0.25 7  302 192 
 VIL  SN ES        017 52.20                             111   -0.42 7  302 192 
 VIL  SZ I         018  4.20        31.0 0.32            112            302 192 
 PTGC HZ EP        017 18.55                             111   -0.82 7  307 159 
 PTGC HN ES   4    017 50.67                             111   -2.67 0  307 159 
 ELA  HZ EP   4    017 24.47                             110    1.98 0  329 230 
 ELA  HN ES   4    018  4.43                             110    5.53 0  329 230 
 ELA  HZ I         018  8.38        13.3 0.68            110            329 230 
 CBOC HZ EP        017 23.37                             109    0.76 7  334 252 
 CBOC HE ES        017 59.66                             109    0.54 7  334 252 
 DBB  SZ EP        017 23.35                             109    0.12 7  340 274 
 DBB  SZ ES        017 59.70                             109   -0.51 7  340 274 
 TOL  SZ EP        017 24.43                             109    0.54 7  343 225 
 TOL  SN ES        018  1.36                             109   -0.03 7  343 225 
 TOL  SZ I         018 12.43        15.9 0.28            109            343 225 
 PRA  HZ EP        017 28.98                             106   -0.16 6  391 210 
 PRA  HN ES        018 10.60                             106   -0.13 6  391 210 
 PRA  HZ I         018 16.83        17.4 0.22            106            391 210 
 ORTC HZ EP   2    017 30.31                             106    0.76 3  395 216 
 ORTC HN ES        018 11.36                             106   -0.11 6  395 216 
 ORTC HZ I         018 19.97        15.3 0.42            106            395 216 
 SJC  HZ EP   4    017 29.64                             105   -1.77 0  410 327 
 SJC  HN ES   4    018 11.61                             105   -3.15 0  410 327 
 SJC  HZ I         018 15.04         8.6 0.56            106            410 327 
 CRJC HZ EP   4    017 36.08                             103   -2.25 0  469   3 
 CRJC HN ES   4    018 22.40                             103   -4.70 0  469   3 
                                                                                
