 2016 11 4 0443 32.1 L   6.810 -73.172153.8  RSN  4 0.2 1.1LRSN                1
 GAP=236        0.60       4.2     5.2  6.4  0.8762E+00 -0.1054E+02  0.6413E+01E
 Epicentro: LOS SANTOS - SANTANDER                                             3
 ACTION:UPD 17-10-26 21:04 OP:lp   STATUS:               ID:20161104044332 L   I
 OLDACT:UP  16-11-04 15:09 OP:dani STATUS:               ID:20161104043741     3
 OLDACT:REG 16-11-04 13:01 OP:dani STATUS:               ID:20161104043741     3
 2016-11-04-0438-00M.COL___349                                                 6
 STAT SP IPHASW D HRMM SECON CODA AMPLIT PERI AZIMU VELO AIN AR TRES W  DIS CAZ7
 BRR  HZ EP        443 54.35                             155    0.3810 68.2 299 
 BRR  HE ES        444 10.93                             155   -0.0810 68.2 299 
 BRR  HZ I         444 14.90         2.4 0.15            158           68.2 299 
 RUS  HZ EP        443 56.45                             145   -0.2910  102 174 
 RUS  HE ES   2    444 16.03                             145    0.07 5  102 174 
 RUS  HZ I         444 18.70         0.9 0.30            147            102 174 
 PTB  HZ EP        443 59.47                             134   -0.04 9  145 258 
 PTB  HN ES        444 20.67                             134   -0.22 9  145 258 
 PTB  HZ I         444 23.78         1.6 0.27            137            145 258 
 SPBC HZ EP        444  1.10                             131   -0.04 9  162 218 
 SPBC HN ES        444 24.08                             131    0.29 9  162 218 
 SPBC HZ I         444 28.77         2.4 0.19            134            162 218 
                                                                                
