 2014 10 4 0402 56.9 L   6.763 -73.135143.2  RSN  7 0.1 1.5LRSN                1
 GAP= 96        0.35       1.7     1.6  2.5 -0.9385E+00 -0.8688E+00  0.1184E+01E
 Epicentro: LOS SANTOS - SANTANDER                                             3
 ACTION:UPD 14-11-29 23:46 OP:nd   STATUS:               ID:20141004040256 L   I
 OLDACT:REG 14-10-04 12:25 OP:stl  STATUS:               ID:20141004035748     3
 2014-10-04-0357-48M.COL___286                                                 6
 STAT SP IPHASW D HRMM SECON CODA AMPLIT PERI AZIMU VELO AIN AR TRES W  DIS CAZ7
 BAR2 SZ EP        4 3 16.20                             172    0.0110 19.6 195 
 BAR2 SZ ES        4 3 31.19                             172   -0.0210 19.6 195 
 BAR2 SZ I         4 3 32.74        13.6 0.18            171           19.6 195 
 BRR  HN ES        4 3 34.39                             151   -0.0210 74.2 301 
 PAM  SZ EP        4 3 19.21                             150    0.1810 79.8  37 
 PAM  SN ES        4 3 36.29                             150    0.0210 79.8  37 
 PAM  SZ I         4 3 38.49         5.0 0.52            152           79.8  37 
 RUS  HZ EP        4 3 20.17                             144    0.0310 96.5 177 
 RUS  HN ES        4 3 38.26                             144    0.0210 96.5 177 
 RUS  HZ I         4 3 41.46         2.1 0.42            145           96.5 177 
 PTB  HN ES        4 3 44.49                             131   -0.15 9  148 260 
 PTB  HZ I         4 3 47.13         2.5 0.48            133            148 260 
 TAM  HZ EP        4 3 23.97                             130   -0.24 9  153 104 
 SPBC HZ EP        4 3 25.09                             129    0.07 9  161 220 
 SPBC HN ES        4 3 47.00                             129    0.08 9  161 220 
 SPBC HZ I         4 3 49.96         5.7 0.24            130            161 220 
                                                                                
