 2013  2 4 0846 19.3 L   6.806 -73.131144.4  RSN  9 0.5 1.9LRSN                1
 GAP=138        0.99       3.7     5.3  7.0  0.2263E+01  0.4552E+01  0.1991E+01E
 Epicentro: LOS SANTOS - SANTANDER                                             3
 ACTION:UPD 13-03-12 09:30 OP:ep   STATUS:               ID:20130204084618 L   I
 2013-02-04-0840-00M.COL___241                                                 6
 STAT SP IPHASW D HRMM SECON CODA AMPLIT PERI AZIMU VELO AIN AR TRES W  DIS CAZ7
 BAR2 SZ EP        846 38.77                             170    0.0210 24.2 193 
 BAR2 SZ ES   1    846 53.43                             170   -0.52 7 24.2 193 
 BAR2 SZ I         846 54.87        17.2 0.20            169           24.2 193 
 BRR  HZ EP        846 40.80                             152    0.4710 72.3 298 
 BRR  HN ES        846 57.52                             152    0.7610 72.3 298 
 BRR  HN I         846 58.06        23.8 0.18            146           72.3 298 
 PAM  SZ EP        846 41.56                             151    0.3110 75.9  39 
 PAM  SN ES   1    846 58.24                             151   -0.15 7 75.9  39 
 PAM  SN I         846 59.59        10.5 0.46            151           75.9  39 
 RUS  HZ EP        846 42.68                             143   -0.2410  101 177 
 RUS  HN ES   1    847  0.87                             143   -0.50 7  101 177 
 PTB  HZ EP   1    846 46.16                             131   -0.11 7  149 259 
 PTB  HN ES   1    847  6.65                             131   -0.69 7  149 259 
 PTB  HN I         847  9.14         7.4 0.28            128            149 259 
 OCA  HN ES   2    847  9.38                             129   -0.02 5  160 353 
 ZAR  HZ EP   1    846 51.63                             122   -0.12 6  205 292 
 ZAR  HN ES   1    847 17.09                             122    0.01 6  205 292 
 ZAR  HN I         847 25.47         5.5 0.22            119            205 292 
 SML  HZ EP   1    846 55.89                             117    0.06 6  244 335 
 SML  HN ES   1    847 23.01                             117   -1.33 6  244 335 
 SML  HN I         847 34.01        11.2 0.30            115            244 335 
 CHI  HZ EP   1    846 56.92                             117   -0.08 6  250 195 
 CHI  HN ES        847 26.83                             117    0.40 8  250 195 
 CHI  HN I         847 31.83         4.6 0.42            116            250 195 
                                                                                
