 2013 10 4 0444 25.4 L   6.777 -73.486134.0  RSN  4 0.5 1.3LRSN                1
 GAP=156        0.93       9.2    13.3 11.9  0.1456E+02 -0.1956E+02  0.4126E+02E
 Epicentro: EL CARMEN DE CHUCURI - SANTANDER                                   3
 ACTION:UPD 13-11-25 09:19 OP:ep   STATUS:               ID:20131004044426 L   I
 OLDACT:UP  13-11-18 09:26 OP:ep   STATUS:               ID:20131004044426 L   3
 OLDACT:REG 13-10-04 09:57 OP:nd   STATUS:               ID:20131004043959     3
 2013-10-04-0439-59M.COL___273                                                 6
 STAT SP IPHASW D HRMM SECON CODA AMPLIT PERI AZIMU VELO AIN AR TRES W  DIS CAZ7
 BAR2 SZ EP        444 44.43                             163    0.3610 39.3 121 
 BAR2 SZ ES   2    444 57.82                             163   -0.82 5 39.3 121 
 BAR2 SZ I         444 58.77        21.5 0.40            160           39.3 121 
 BRR  HZ EP        444 43.26                             161   -0.6410 44.3 326 
 BRR  HN ES        444 58.77                             161    0.4210 44.3 326 
 BRR  HZ I         444 59.88         7.3 0.32            160           44.3 326 
 RUS  HZ EP   3    444 49.67                             140    1.14 2  107 155 
 RUS  HN ES   3    445  6.51                             140   -0.08 2  107 155 
 RUS  HZ I         445 10.94         0.9 0.64            136            107 155 
 SPBC HZ EP   2    444 50.89                             131    0.07 5  140 208 
 SPBC HN ES   2    445 10.59                             131   -0.07 5  140 208 
 SPBC HZ I         445 18.05         1.7 0.28            126            140 208 
                                                                                
