 2011  7 4 0824  3.4 L   6.752 -73.096149.4  RSN  8 0.4 1.7LRSN                1
 GAP=162        0.80       4.0     5.6  7.5 -0.8818E+01  0.6736E+01  0.8868E+00E
 Epicentro: LOS SANTOS - SANTANDER                                             3
 ACTION:UPD 12-07-25 13:58 OP:epov STATUS:               ID:20110704082403 L   I
 2011-07-04-0822-56S.COL___140                                                 6
 STAT SP IPHASW D HRMM SECON CODA AMPLIT PERI AZIMU VELO AIN AR TRES W  DIS CAZ7
 GIR2 SZ EP   1    824 23.76                             165    0.08 8 37.7 343 
 BRR  HZ EP   1    824 25.58                             151    0.22 8 78.6 300 
 BRR  HN ES   1    824 42.81                             151    0.32 8 78.6 300 
 BRR  HZ I         824 47.26        14.2 0.42                          78.6 300 
 RUS  HZ EP   1    824 26.75                             146   -0.36 8 95.0 179 
 RUS  HN ES   1    824 45.78                             146    0.16 8 95.0 179 
 RUS  HZ I         824 47.52         7.5 0.31                          95.0 179 
 BRI  SZ EP   1    824 28.13                             141    0.25 8  112  17 
 BRI  SZ ES   1    824 46.56                             141   -0.42 8  112  17 
 BRI  SZ I         824 52.44         8.0 0.55                           112  17 
 GRA  SZ EP        824 29.68                             137    0.4210  129  14 
 GRA  SZ ES   2    824 49.13                             137   -0.31 5  129  14 
 GRA  SZ I         824 50.40         6.6 0.35                           129  14 
 OCA  SZ EP   1    824 33.00                             129    0.45 7  166 352 
 OCA  SZ ES   1    824 54.51                             129   -0.79 7  166 352 
 OCA  SZ I         824 58.92         8.6 0.20                           166 352 
 NOR  SZ EP   1    824 39.00                             119   -0.49 6  236 236 
 NOR  SN ES   2    825  7.00                             119   -0.64 4  236 236 
 NOR  SZ I         825 11.87         0.8 0.34                           236 236 
 HEL  HZ EP   1    824 43.60                             115   -0.64 6  276 257 
 HEL  HN ES   1    825 16.70                             115    0.60 6  276 257 
 HEL  HZ I         825 22.18         5.3 0.42                           276 257 
                                                                                
