 2016  5 4 0245  2.1 L   6.840 -73.167143.2  RSN  4 0.3 1.0LRSN                1
 GAP=146        0.72       4.4     4.3  6.1 -0.5980E+01  0.7407E+01 -0.2330E+01E
 Epicentro: ZAPATOCA - SANTANDER                                               3
 ACTION:UPD 16-08-18 17:41 OP:cam  STATUS:               ID:20160504024502 L   I
 OLDACT:REG 16-05-04 12:42 OP:ak   STATUS:               ID:20160504023749     3
 2016-05-04-0237-49M.COL___292                                                 6
 STAT SP IPHASW D HRMM SECON CODA AMPLIT PERI AZIMU VELO AIN AR TRES W  DIS CAZ7
 BAR2 EZ EP        245 21.71                             169    0.1510 27.5 184 
 BAR2 EZ ES        245 36.87                             169    0.1710 27.5 184 
 BAR2 EZ I         245 37.87         3.6 0.32            171           27.5 184 
 PAM  EZ EP        245 24.44                             151    0.4610 75.6  43 
 PAM  EE ES        245 40.63                             151   -0.3810 75.6  43 
 PAM  EZ I         245 44.18         1.8 0.38            153           75.6  43 
 RUS  HZ EP        245 25.83                             142   -0.1610  105 175 
 RUS  HN ES        245 44.54                             142   -0.0410  105 175 
 RUS  HZ I         245 45.70         1.3 0.42            146            105 175 
 PTB  HZ EP        245 28.43                             132   -0.35 9  146 257 
 PTB  HE ES        245 49.67                             132    0.12 9  146 257 
 PTB  HZ I         245 53.77         1.3 0.22            133            146 257 
                                                                                
