 2011 12 4 0819 57.2 L   6.765 -73.112144.0  RSN  5 0.2 1.5LRSN                1
 GAP=142        0.46       4.6     6.1  6.9  0.5846E+01 -0.2542E+02  0.4028E+01E
 Epicentro: LOS SANTOS - SANTANDER                                             3
 ACTION:UPD 12-07-13 16:14 OP:ep   STATUS:               ID:20111204081957 L   I
 2011-12-04-0820-00M.COL___183                                                 6
 STAT SP IPHASW D HRMM SECON CODA AMPLIT PERI AZIMU VELO AIN AR TRES W  DIS CAZ7
 BAR2 SZ EP        820 16.41                             172   -0.1210 20.7 202 
 BAR2 SZ ES   2    820 31.46                             172   -0.18 5 20.7 202 
 BAR2 SZ I         820 32.62         8.6 0.29                          20.7 202 
 GIR2 SZ EP   2    820 16.34                             165   -0.42 5 35.8 345 
 BRR  HZ EP        820 18.28                             151   -0.1410 76.3 300 
 BRR  HZ I         820 18.56         4.6 0.30                          76.3 300 
 BRR  HN ES        820 35.16                             151    0.1510 76.3 300 
 PAM  SZ EP        820 19.36                             150    0.1210 78.1  36 
 RUS  HZ EP        820 20.60                             145    0.1410 96.6 178 
                                                                                
