 2016  5 4 0859 52.8 L   6.833 -73.196139.1  RSN  4 0.2 1.0LRSN                1
 GAP=129        0.52       2.1     3.0  5.4 -0.1340E+01  0.3144E+01 -0.1694E+01E
 Epicentro: ZAPATOCA - SANTANDER                                               3
 ACTION:UPD 16-08-18 17:41 OP:cam  STATUS:               ID:20160504085952 L   I
 OLDACT:REG 16-05-04 13:37 OP:edw  STATUS:               ID:20160504085748     3
 2016-05-04-0857-48M.COL___285                                                 6
 STAT SP IPHASW D HRMM SECON CODA AMPLIT PERI AZIMU VELO AIN AR TRES W  DIS CAZ7
 PAM  EZ EP        9 0 14.41                             149   -0.0010 78.4  44 
 PAM  EE ES        9 0 31.28                             149    0.0410 78.4  44 
 PAM  EZ I         9 0 33.46         3.1 0.56            152           78.4  44 
 RUS  HZ EP        9 0 16.54                             141    0.2810  105 173 
 RUS  HE ES        9 0 34.29                             141   -0.2310  105 173 
 RUS  HZ I         9 0 35.42         0.7 0.38            144            105 173 
 PTB  HZ EP   2    9 0 18.24                             131   -0.60 5  143 257 
 PTB  HN ES        9 0 39.27                             131    0.16 9  143 257 
 PTB  HZ I         9 0 41.35         1.9 0.16            133            143 257 
 OCA  HZ EP        9 0 20.14                             129   -0.10 9  156 355 
 OCA  HN ES        9 0 41.59                             129   -0.01 9  156 355 
                                                                                
