 2016  1 4 0324 53.5 L   7.187 -73.396115.8  RSN 11 0.4 2.0LRSN                1
 GAP= 83        1.09       3.0     3.6  6.3 -0.1207E+01  0.4530E+01 -0.1561E+01E
 Epicentro: LEBRIJA - SANTANDER                                                3
 ACTION:UPD 16-03-09 23:22 OP:cam  STATUS:               ID:20160104032453 L   I
 OLDACT:UP  16-02-15 15:06 OP:cam  STATUS:               ID:20160104032453 L   3
 OLDACT:UP  16-02-01 09:15 OP:mHER STATUS:               ID:20160104032453 L   3
 OLDACT:REG 16-01-04 13:00 OP:drio STATUS:               ID:20160104031738     3
 2016-01-04-0317-38M.COL___314                                                 6
 STAT SP IPHASW D HRMM SECON CODA AMPLIT PERI AZIMU VELO AIN AR TRES W  DIS CAZ7
 BRR  HZ IP     C  325  9.87                             161    0.3010 36.0 256 
 BRR  HN ES        325 22.60                             161    0.4810 36.0 256 
 BRR  HZ I         325 22.91        38.1 0.12            158           36.0 256 
 BAR2 EZ EP        325 12.20                             147    0.4710 69.9 160 
 BAR2 EZ ES        325 25.90                             147   -0.0610 69.9 160 
 PAM  EZ EP        325 13.35                             144    0.6510 78.7  78 
 PAM  EN ES        325 27.28                             144   -0.4110 78.7  78 
 PAM  EZ I         325 30.25         9.1 0.36            146           78.7  78 
 OCA  HZ EP        325 15.25                             131   -0.1110  117   4 
 OCA  HN ES        325 32.06                             131   -0.3710  117   4 
 OCA  HZ I         325 32.96        40.6 0.20            132            117   4 
 PTB  HZ EP        325 17.02                             126   -0.13 9  137 239 
 PTB  HN ES        325 34.68                             126   -0.93 9  137 239 
 PTB  HZ I         325 38.18        10.7 0.14            125            137 239 
 RUS  HZ EP        325 18.62                             125   -0.14 9  147 166 
 RUS  HE ES   4    325 37.25                             125   -1.23 0  147 166 
 ZAR  HZ EP        325 20.36                             121    0.42 9  165 282 
 ZAR  HN ES        325 41.29                             121    0.70 9  165 282 
 ZAR  HZ I         325 44.23        17.6 0.54            120            165 282 
 SPBC HZ EP        325 22.32                             117    0.08 9  185 204 
 SPBC HN ES        325 44.25                             117   -0.42 9  185 204 
 SPBC HZ I         325 51.61         7.1 0.24            117            185 204 
 SML  HZ EP        325 22.50                             116   -0.48 9  193 337 
 SML  HE ES        325 45.70                             116   -0.29 9  193 337 
 SML  HZ I         325 52.54        23.5 0.10            116            193 337 
 HEL  HZ EP   9    325 32.82                             109    1.83 0  260 245 
 HEL  HN ES        326  2.14                             109    0.06 8  260 245 
 HEL  HZ I         326  7.10         3.1 0.38            108            260 245 
 GUY2CHZ EP   9    325 39.24                             105    2.61 0  308 225 
 GUY2CHE ES        326 12.73                             105   -0.17 7  308 225 
 GUY2CHZ I         326 20.21         3.9 0.68                           308 225 
                                                                                
