 2011 12 4 0106 48.5 L   6.780 -73.122145.0  RSN  5 0.2 1.2LRSN                1
 GAP=141        0.46       3.0     4.4  5.3 -0.1898E+00 -0.1293E+01  0.1830E+01E
 Epicentro: LOS SANTOS - SANTANDER                                             3
 ACTION:UPD 12-07-13 16:14 OP:ep   STATUS:               ID:20111204010648 L   I
 2011-12-04-0100-00M.COL___182                                                 6
 STAT SP IPHASW D HRMM SECON CODA AMPLIT PERI AZIMU VELO AIN AR TRES W  DIS CAZ7
 BAR2 SZ EP        1 7  7.93                             171   -0.0910 21.8 198 
 GIR2 SZ EP        1 7  7.97                             166   -0.2010 34.0 346 
 BRR  HZ EP        1 7  9.75                             151   -0.0310 74.6 299 
 BRR  HN ES   1    1 7 26.51                             151    0.15 7 74.6 299 
 PAM  SZ EP        1 7 10.95                             151    0.3010 77.5  37 
 PAM  SN ES   1    1 7 27.75                             151   -0.17 7 77.5  37 
 RUS  HZ EP        1 7 12.01                             144   -0.0110 98.2 178 
 RUS  HN ES   1    1 7 30.45                             144    0.09 7 98.2 178 
 RUS  HZ I         1 7 32.09         2.8 0.26                          98.2 178 
                                                                                
