 2012  1 4 0758  7.7 L   6.723 -73.203148.1  RSN  4 0.4 1.4LRSN                1
 GAP=224        0.63       8.4     8.6  8.7  0.3653E+02 -0.7844E+00  0.4527E+01E
 Epicentro: VILLANUEVA - SANTANDER                                             3
 ACTION:UP  12-02-03 08:14 OP:REBC STATUS:               ID:20120104075807 L   I
 2012-01-04-0750-00M.COL___183                                                 6
 STAT SP IPHASW D HRMM SECON CODA AMPLIT PERI AZIMU VELO SNR AR TRES W  DIS CAZ7
 BAR2 SZ EP   1    758 27.38                             174    -0.1 7   15 171 
 BAR2 SZ ES   2    758 42.04                             174    -0.8 5   15 171 
 BAR2 SZ I         758 44.72         6.8 0.52                            15 171 
 BRR  HZ EP   1    758 29.09                             153     0.0 7   71 307 
 BRR  HE ES   1    758 46.01                             153     0.3 7   71 307 
 BRR  HZ I         758 47.65         4.3 0.17                            71 307 
 RUS  HZ EP   2    758 31.38                             147     0.3 5   93 172 
 RUS  HE ES   2    758 49.77                             147     0.4 5   93 172 
 PTB  HZ EP   2    758 33.78                             134    -0.4 5  140 262 
 PTB  HN ES   2    758 54.68                             134    -0.1 5  140 262 
                                                                                
