 2017  1 4 0628 57.7 L   6.721 -73.264149.5  RSN  4 0.4 1.0LRSN                1
 GAP=217        0.98       7.9     7.8  9.7  0.4085E+02  0.8245E+00 -0.2065E+01E
 Epicentro: GALAN - SANTANDER                                                  3
 ACTION:UPD 17-05-22 15:55 OP:jn   STATUS:               ID:20170104062857 L   I
 OLDACT:REG 17-01-04 12:51 OP:lv   STATUS:               ID:20170104062745     3
 2017-01-04-0628-00M.COL___369                                                 6
 STAT SP IPHASW D HRMM SECON CODA AMPLIT PERI AZIMU VELO AIN AR TRES W  DIS CAZ7
 BRR  HZ EP        629 18.26                             155   -0.6510 65.4 311 
 BRR  HN ES        629 35.63                             155    0.1510 65.4 311 
 RUS  HZ EP        629 21.79                             146    0.4810 93.7 168 
 RUS  HN ES        629 39.70                             146   -0.0610 93.7 168 
 RUS  HZ I         629 40.30         1.7 0.36            146           93.7 168 
 PTB  HZ EP        629 23.60                             136   -0.0810  133 261 
 PTB  HE ES        629 43.69                             136   -0.2810  133 261 
 PTB  HZ I         629 47.89         1.2 0.18            132            133 261 
 ZAR  HN ES        629 54.86                             124    0.53 9  196 296 
 ZAR  HZ I         630  0.20         1.2 0.21            123            196 296 
                                                                                
