 2012  8 4 0108  0.3 L   6.560 -73.518113.6  RSN 13 0.4 2.3LRSN                1
 GAP= 53        0.88       3.1     3.4  6.6 -0.5194E+00  0.9154E+01  0.2616E+01E
 Epicentro: EL CARMEN DE CHUCURI - SANTANDER                                   3
 ACTION:UPD 12-09-10 11:54 OP:ep   STATUS:               ID:20120804010800 L   I
 2012-08-04-0106-39M.COL___211                                                 6
 STAT SP IPHASW D HRMM SECON CODA AMPLIT PERI AZIMU VELO AIN AR TRES W  DIS CAZ7
 BAR2 SZ IP        1 8 16.86                             160    0.3410 37.3  85 
 BAR2 SZ ES   1    1 8 29.09                             160   -0.10 7 37.3  85 
 BRR  HZ EP        1 8 17.56                             148   -0.0310 64.1 341 
 BRR  HZ I         1 8 17.86        83.8 0.14                          64.1 341 
 BRR  HN ES   1    1 8 31.51                             148    0.42 7 64.1 341 
 RUS  HZ EP   1    1 8 19.97                             140   -0.04 7 88.1 147 
 RUS  HN ES   1    1 8 35.19                             140   -0.20 7 88.1 147 
 RUS  HZ I         1 8 36.96        27.5 0.26                          88.1 147 
 PTB  HZ EP        1 8 19.68                             134   -0.9710  104 269 
 PTB  HZ I         1 8 19.98        42.1 0.18                           104 269 
 PAM  SZ EP   1    1 8 23.40                             129    0.18 7  125  46 
 PAM  SN ES   1    1 8 40.88                             129   -0.24 7  125  46 
 ZAR  HZ EP   1    1 8 28.85                             118    0.59 7  180 305 
 ZAR  HN ES   1    1 8 50.67                             118    0.59 7  180 305 
 YOP  SZ EP   1    1 8 29.00                             118    0.61 7  180 138 
 YOP  SZ I         1 8 29.45        15.4 0.26                           180 138 
 NOR  SZ EP   1    1 8 28.28                             117   -0.62 7  186 234 
 NOR  SN ES   1    1 8 51.23                             117    0.01 7  186 234 
 OCA  HZ EP   1    1 8 28.85                             117   -0.31 7  187   7 
 OCA  HN ES   1    1 8 51.67                             117   -0.01 7  187   7 
 CHI  HZ EP   1    1 8 32.76                             113    0.19 6  215 186 
 HEL  HZ EP   1    1 8 34.16                             112    0.37 6  226 260 
 HEL  HN ES   1    1 8 59.97                             112    0.04 6  226 260 
 HEL  HZ I         1 9  5.09        16.8 0.26                           226 260 
 URE  HZ EP   1    1 8 36.65                             108   -0.41 6  259 301 
 PRA  HN ES   1    1 9 25.49                             102    0.66 5  349 206 
                                                                                
