 2015  2 4 0443 10.2 L   6.811 -73.166142.1  RSN  7 0.6 1.7LRSN                1
 GAP=199        1.52       5.9     7.9  9.6  0.4774E+01  0.1645E+02 -0.9083E+01E
 Epicentro: LOS SANTOS - SANTANDER                                             3
 ACTION:UPD 15-04-30 21:21 OP:nd   STATUS:               ID:20150204044310 L   I
 OLDACT:DUP 15-02-04 16:28 OP:stll STATUS:               ID:20150204043745d    3
 2015-02-04-0437-44M.COL___265                                                 6
 STAT SP IPHASW D HRMM SECON CODA AMPLIT PERI AZIMU VELO AIN AR TRES W  DIS CAZ7
 BAR2 EZ EP        443 29.57                             170    0.1810 24.3 184 
 BAR2 EZ ES        443 44.36                             170   -0.0110 24.3 184 
 BAR2 EZ I         443 46.93         9.3 0.16            172           24.3 184 
 BRR  HZ EP        443 31.32                             153    0.5310 68.6 299 
 BRR  HZ I         443 31.45        13.2 0.14            149           68.6 299 
 BRR  HN ES        443 47.69                             153    0.8310 68.6 299 
 RUS  HZ EP        443 33.97                             143    0.2910  102 175 
 RUS  HN ES        443 51.81                             143   -0.1910  102 175 
 RUS  HZ I         443 53.26         5.7 0.26            146            102 175 
 PTB  HZ EP        443 35.90                             132   -0.77 9  146 258 
 PTB  HN ES        443 56.82                             132   -0.51 9  146 258 
 PTB  HZ I         443 59.32         7.3 0.14            131            146 258 
 SPBC HZ EP        443 38.16                             129   -0.20 9  163 218 
 SPBC HN ES        443 59.54                             129   -0.79 9  163 218 
 SPBC HZ I         444  4.62         7.8 0.26            130            163 218 
 SML  HZ EP        443 45.73                             117   -0.65 8  242 336 
 SML  HE ES        444 13.95                             117   -0.67 8  242 336 
 SML  HZ I         444 26.75         5.8 0.24            117            242 336 
 HEL  HZ EP        443 51.56                             114    1.56 8  270 255 
 HEL  HN ES        444 21.49                             114    0.43 8  270 255 
 HEL  HZ I         444 29.00         2.0 0.26            115            270 255 
                                                                                
