 2017  2 4 0402 44.6 L   6.765 -73.183146.0  RSN  5 0.3 1.1LRSN                1
 GAP=230        0.82       4.7     6.1  7.2  0.9998E+01  0.7543E+01  0.8120E+01E
 Epicentro: LOS SANTOS - SANTANDER                                             3
 ACTION:UPD 17-05-24 15:32 OP:jn   STATUS:               ID:20170204040244 L   I
 OLDACT:REG 17-02-04 12:34 OP:dnl  STATUS:               ID:20170204035741     3
 2017-02-04-0358-00M.COL___346                                                 6
 STAT SP IPHASW D HRMM SECON CODA AMPLIT PERI AZIMU VELO AIN AR TRES W  DIS CAZ7
 BAR2 EZ EP        4 3  3.76                             172   -0.3810 19.1 180 
 BAR2 EZ ES        4 3 19.11                             172   -0.3010 19.1 180 
 BAR2 EZ I         4 3 19.71         4.1 0.36            171           19.1 180 
 BRR  HZ EP        4 3  5.78                             153    0.1310 69.6 303 
 BRR  HN ES        4 3 22.64                             153    0.5510 69.6 303 
 BRR  HZ I         4 3 27.19         3.7 0.54            152           69.6 303 
 RUS  HZ EP   2    4 3  8.19                             145    0.10 5 97.1 173 
 RUS  HN ES        4 3 26.59                             145    0.1510 97.1 173 
 RUS  HZ I         4 3 27.46         0.9 0.24            146           97.1 173 
 PTB  HZ EP   2    4 3 11.39                             133    0.27 5  143 260 
 PTB  HE ES        4 3 31.35                             133   -0.48 9  143 260 
 PTB  HZ I         4 3 33.54         1.5 0.18            132            143 260 
 CHI  HZ EP   2    4 3 21.49                             118   -0.27 4  244 194 
 CHI  HN ES        4 3 51.13                             118    0.37 8  244 194 
 CHI  HZ I         4 3 54.69         1.1 0.64            118            244 194 
                                                                                
