 2016  6 4 0701 53.9 L   6.655 -73.654100.1  RSN  4 0.2 1.3LRSN                1
 GAP=119        0.55       3.3     2.5  5.1  0.3164E+01  0.2865E+01  0.6181E+01E
 Epicentro: EL CARMEN - SANTANDER                                              3
 ACTION:UPD 16-07-21 22:15 OP:rebc STATUS:               ID:20160604070153 L   I
 OLDACT:REG 16-06-04 13:14 OP:ak   STATUS:               ID:20160604065741     3
 2016-06-04-0657-41M.COL___313                                                 6
 STAT SP IPHASW D HRMM SECON CODA AMPLIT PERI AZIMU VELO AIN AR TRES W  DIS CAZ7
 BRR  HZ IP        7 2  8.75                             151   -0.1510 50.4 353 
 BRR  HN ES        7 2 20.94                             151    0.3010 50.4 353 
 BRR  HZ I         7 2 25.97         3.9 0.36                          50.4 353 
 BAR2 EZ IP        7 2  9.40                             150    0.0210 52.6  98 
 BAR2 EZ ES        7 2 21.17                             150   -0.3210 52.6  98 
 BAR2 EZ I         7 2 22.93        19.6 0.28                          52.6  98 
 PTB  HZ EP        7 2 11.72                             134   -0.1310 89.7 262 
 PTB  HN ES        7 2 25.87                             134   -0.0210 89.7 262 
 PTB  HZ I         7 2 29.73         3.8 0.18                          89.7 262 
 RUS  HZ EP        7 2 14.10                             130    0.1810  105 143 
 RUS  HE ES        7 2 29.68                             130    0.1210  105 143 
 RUS  HZ I         7 2 31.15         3.4 0.14                           105 143 
                                                                                
