 2011  9 4 0931 27.3 L   6.854 -73.305124.0  RSN  4 0.1 1.1LRSN                1
 GAP=135        0.32       4.4     6.5  4.2  0.2013E+02 -0.9956E+01 -0.5543E+01E
 Epicentro: ZAPATOCA - SANTANDER                                               3
 ACTION:UPD 12-07-13 15:55 OP:ep   STATUS:               ID:20110904093127 L   I
 2011-09-04-0930-04S.COL___171                                                 6
 STAT SP IPHASW D HRMM SECON CODA AMPLIT PERI AZIMU VELO AIN AR TRES W  DIS CAZ7
 GIR2 SZ EP        931 44.32                             167    0.0010 27.8  26 
 BAR2 SZ EP   1    931 44.63                             165    0.04 7 32.0 155 
 BAR2 SZ I         931 44.89         7.9 0.16                          32.0 155 
 BAR2 SZ ES   1    931 58.05                             165    0.00 7 32.0 155 
 BRR  HZ EP   1    931 44.96                             155   -0.16 7 53.0 302 
 BRR  HN ES   1    931 59.08                             155    0.09 7 53.0 302 
 BRR  HZ I         931 59.37         5.2 0.62                          53.0 302 
 RUS  HZ EP   2    931 49.88                             136    0.17 5  109 167 
 RUS  HE ES   2    932  7.06                             136   -0.11 5  109 167 
 RUS  HZ I         932 11.03         0.8 0.94                           109 167 
                                                                                
