 2017  1 4 0422 23.2 L   6.664 -73.228143.2  RSN  6 0.2 1.3LRSN                1
 GAP=195        0.50       3.2     3.8  4.7  0.7920E+01  0.8948E+01  0.6659E+01E
 Epicentro: BARICHARA - SANTANDER                                              3
 ACTION:UPD 17-05-22 15:55 OP:jn   STATUS:               ID:20170104042223 L   I
 OLDACT:DUP 17-01-04 14:21 OP:lv   STATUS:               ID:20170104041746d    3
 2017-01-04-0418-00M.COL___369                                                 6
 STAT SP IPHASW D HRMM SECON CODA AMPLIT PERI AZIMU VELO AIN AR TRES W  DIS CAZ7
 BAR2 EZ ES        422 57.37                             176    0.1410 9.38 148 
 BRR  HN ES        423  0.63                             152    0.1410 72.6 313 
 RUS  HZ EP        422 45.62                             147   -0.1210 86.8 169 
 RUS  HN ES        423  3.10                             147   -0.2210 86.8 169 
 RUS  HZ I         423  5.69         2.2 0.36            148           86.8 169 
 PTB  HZ EP        422 49.03                             134    0.07 9  137 264 
 PTB  HN ES        423  8.83                             134   -0.21 9  137 264 
 PTB  HZ I         423 13.07         2.2 0.24            132            137 264 
 ZAR  HZ EP   4    422 58.22                             122    2.94 0  202 297 
 ZAR  HE ES        423 20.27                             122   -0.02 9  202 297 
 ZAR  HZ I         423 25.09         2.7 0.09            122            202 297 
 CHI  HN ES        423 27.13                             118    0.32 8  232 194 
                                                                                
