 2011  5 4 0002 46.4 L   6.789 -73.128138.2  RSN  8 0.4 1.6LRSN                1
 GAP=139        0.95       6.6     8.8  9.1 -0.2875E+02  0.1979E+02 -0.9264E+01E
 Epicentro: LOS SANTOS - SANTANDER                                             3
 ACTION:UP  11-06-29 08:50 OP:tino STATUS:               ID:20110504000246 L   I
 2011-05-04-0001-14S.COL___133                                                 6
 STAT SP IPHASW D HRMM SECON CODA AMPLIT PERI AZIMU VELO SNR AR TRES W  DIS CAZ7
 BTL  SZ EP   1    0 3  5.71                             171     0.6 7   21 313 
 BAR2 SZ EP   1    0 3  4.84                             170    -0.3 7   23 195 
 BAR2 SZ ES   1    0 3 19.14                             170    -0.6 7   23 195 
 BAR2 SZ I         0 3 21.13        13.1 0.18                            23 195 
 BRR  HZ EP   1    0 3  6.67                             150    -0.2 7   74 299 
 BRR  HN ES   2    0 3 23.32                             150     0.5 5   74 299 
 BRR  HZ I         0 3 26.22        10.4 0.09                            74 299 
 PAM  SZ EP   1    0 3  7.76                             149     0.0 7   77  38 
 PAM  SE ES        0 3 24.68                             149     0.210   77  38 
 RUS  HZ EP   2    0 3  8.91                             142    -0.4 5   99 177 
 RUS  HN ES   2    0 3 27.81                             142     0.6 5   99 177 
 RUS  HZ I         0 3 29.22         5.1 0.27                            99 177 
 BRI  SZ EP   1    0 3 10.22                             139     0.6 7  109  20 
 BRI  SZ I         0 3 32.66         5.8 0.41                           109  20 
 GRA  SZ EP   1    0 3 10.60                             135    -0.4 7  126  16 
 GRA  SZ ES   1    0 3 29.82                             135    -0.4 7  126  16 
 GRA  SZ I         0 3 31.13         3.7 0.45                           126  16 
 HEL  HN ES   2    0 3 57.62                             113     0.0 4  274 256 
 HEL  HZ I         0 4  3.28         5.3 0.43                           274 256 
                                                                                
