 2017 11 4 0441 58.9 L   6.284 -73.667103.8  RSN  4 0.3 1.1LRSN                1
 GAP=164        0.69       5.3     3.5  7.4  0.7846E+01  0.2939E+01 -0.3086E+01E
 Epicentro: SANTA HELENA DEL OPON - SANTANDER                                  3
 ACTION:UPD 17-12-12 19:51 OP:rebc STATUS:               ID:20171104044158 L   I
 OLDACT:UP  17-11-04 15:24 OP:dnl  STATUS:               ID:20171104043741     3
 OLDACT:UP  17-11-04 15:24 OP:dnl  STATUS:               ID:20171104043741     3
 OLDACT:REG 17-11-04 13:46 OP:dnl  STATUS:               ID:20171104043741     3
 2017-11-04-0438-00M.COL___414                                                 6
 STAT SP IPHASW D HRMM SECON CODA AMPLIT PERI AZIMU VELO AIN AR TRES W  DIS CAZ7
 BAR2 EZ EP        442 15.62                             146    0.1410 63.5  57 
 BAR2 EZ ES        442 28.58                             146    0.1510 63.5  57 
 BAR2 EZ I         442 29.80        12.2 0.50            156           63.5  57 
 RUS  HZ EP        442 17.23                             141    0.3510 77.7 124 
 RUS  HN ES        442 30.56                             141   -0.3510 77.7 124 
 RUS  HZ I         442 32.01         1.2 0.30            156           77.7 124 
 BRR  HZ EP        442 16.96                             135   -0.3410 91.2 357 
 BRR  HE ES   4    442 33.16                             135    1.50 0 91.2 357 
 BRR  HZ I         442 38.21         6.9 0.88            139           91.2 357 
 PTB  HZ EP   2    442 17.11                             135   -0.26 5 91.8 288 
 PTB  HN ES        442 31.92                             135    0.1210 91.8 288 
 PTB  HZ I         442 41.80         1.8 0.14            136           91.8 288 
                                                                                
