 2015  6 4 0721 12.1 L   7.126 -73.043  4.0  RSN 17 0.6 2.2LRSN                1
 GAP=124        1.32       2.2     3.0  5.6 -0.1011E+01  0.4843E+01 -0.6925E+00E
 Epicentro: FLORIDABLANCA - SANTANDER                                          3
 ACTION:UPD 15-09-10 22:09 OP:cam  STATUS:               ID:20150604072112 L   I
 OLDACT:UP  15-06-11 08:26 OP:AR   STATUS:               ID:20150604072112 L   3
 OLDACT:UP  15-06-04 18:09 OP:ak   STATUS:               ID:20150604071751d    3
 OLDACT:DUP 15-06-04 17:51 OP:ak   STATUS:               ID:20150604071751d    3
 2015-06-04-0717-50M.COL___294                                                 6
 STAT SP IPHASW D HRMM SECON CODA AMPLIT PERI AZIMU VELO AIN AR TRES W  DIS CAZ7
 PAM  SZ IP     D  721 20.45                              47    0.5210 44.7  58 
 PAM  SE ES        721 25.53                              47   -0.5410 44.7  58 
 PAM  SZ I         721 27.42       311.9 0.24             47           44.7  58 
 BAR2 EZ IP     C  721 21.90                              47   -0.2410 61.0 195 
 BAR2 EZ ES        721 29.38                              47   -0.6310 61.0 195 
 BAR2 EZ I         721 30.52       125.7 0.13             47           61.0 195 
 BRR  HZ IP     D  721 23.96                              47    0.1110 73.9 268 
 BRR  HN ES        721 32.29                              47   -0.7610 73.9 268 
 OCA  HZ IP     D  721 31.84                              47   -0.1810  127 346 
 OCA  HN ES        721 47.16                              47   -0.4310  127 346 
 OCA  HZ I         721 52.28        92.6 0.19             47            127 346 
 RUS  HZ EP        721 34.12                              47    0.28 9  136 182 
 RUS  HN ES        721 50.18                              47   -0.65 9  136 182 
 RUS  HZ I         721 53.63        27.0 0.22             47            136 182 
 SPBC HZ EP        721 43.25                              37    0.97 9  199 215 
 SPBC HE ES   4    722  7.00                              37    1.15 0  199 215 
 SPBC HZ I         722 12.97        41.9 0.28             37            199 215 
 ZAR  HZ EP        721 43.08                              37    0.20 9  204 282 
 ZAR  HN ES        722  6.22                              37   -0.70 9  204 282 
 ZAR  HZ I         722  9.37        21.6 0.13             37            204 282 
 SML  HZ EP        721 45.32                              37    0.87 8  217 329 
 SML  HN ES        722  9.88                              37    0.16 8  217 329 
 NOR  HZ EP   1    721 51.31                              37    0.70 6  266 230 
 NOR  HE ES        722 21.45                              37    0.77 8  266 230 
 NOR  HZ I         722 25.16        20.3 0.26             37            266 230 
 URE  HZ EP   4    721 54.25                              37    1.49 0  283 284 
 URE  HN ES   4    722 26.54                              37    2.04 0  283 284 
 URE  HZ I         722 34.73         9.5 0.24             37            283 284 
 CHI  HZ EP   4    721 57.97                              37    4.35 0  286 195 
 CHI  HN ES   4    722 32.66                              37    6.63 0  286 195 
 HEL  HZ EP        721 54.76                              36    0.29 7  294 250 
 HEL  HN ES   4    722 26.25                              36   -1.29 0  294 250 
 HEL  HZ I         722 27.88         6.4 0.26             36            294 250 
 GUY2CHZ EP   4    722  0.57                              36    1.23 0  332 231 
 GUY2CHN ES        722 36.38                              36    0.17 7  332 231 
 GUY2CHZ I         722 52.77         6.6 0.46                           332 231 
 PTGC HZ EP   4    722  8.12                              36    8.50 0  339 163 
 PTGC HE ES   4    722 46.16                              36    9.44 0  339 163 
 PTGC HZ I         722 58.28         8.5 0.36             36            339 163 
 MON  HZ EP   4    722  1.15                              36    1.17 0  342 302 
 MON  HN ES        722 37.49                              36    0.14 7  342 302 
 MON  HZ I         722 55.84         2.8 0.66             36            342 302 
 TOL  SZ EP   4    722  7.55                              36    2.77 0  378 222 
 TOL  SE ES        722 47.00                              36    1.10 6  378 222 
 TOL  SZ I         722 51.33         4.6 0.52             36            378 222 
 PRA  HZ EP   4    722 12.40                              36    1.62 0  429 209 
 PRA  HE ES   4    723  0.23                              36    3.64 0  429 209 
 PRA  HZ I         723 13.80         4.2 0.52             36            429 209 
 ORTC HZ EP   4    722 14.08                              36    3.01 0  431 215 
 ORTC HN ES   4    722 59.21                              36    2.10 0  431 215 
 ORTC HZ I         723 15.78         4.6 0.46             36            431 215 
                                                                                
