 2016 12 4 0813 45.2 L   6.727 -73.152153.6  RSN  4 0.1 1.1LRSN                1
 GAP=248        0.32       3.9     2.6  3.4  0.2261E+01 -0.8505E+00  0.2001E+01E
 Epicentro: JORDAN - SANTANDER                                                 3
 ACTION:UPD 17-01-11 20:12 OP:rebc STATUS:               ID:20161204081345 L   I
 OLDACT:DUP 16-12-04 16:38 OP:dani STATUS:               ID:20161204080743d    3
 OLDACT:UP  16-12-04 16:36 OP:dani STATUS:               ID:20161204080742d    3
 OLDACT:DUP 16-12-04 16:33 OP:dani STATUS:               ID:20161204080742d    3
 OLDACT:UP  16-12-04 16:32 OP:dani STATUS:               ID:20161204080741     3
 OLDACT:UP  16-12-04 16:32 OP:dani STATUS:               ID:20161204080741     3
 OLDACT:UP  16-12-04 16:32 OP:dani STATUS:               ID:20161204080741     3
 OLDACT:REG 16-12-04 12:56 OP:dani STATUS:               ID:20161204080741     3
 2016-12-04-0808-00M.COL___346                                                 6
 STAT SP IPHASW D HRMM SECON CODA AMPLIT PERI AZIMU VELO AIN AR TRES W  DIS CAZ7
 BAR2 EZ EP        814  5.55                             174   -0.0910 15.2 192 
 BRR  HZ EP        814  7.51                             153    0.1210 74.8 304 
 BRR  HE ES        814 24.71                             153    0.0110 74.8 304 
 BRR  HZ I         814 28.89         1.9 0.35            149           74.8 304 
 PTB  HZ EP        814 12.61                             134   -0.02 9  146 262 
 PTB  HN ES        814 34.07                             134    0.04 9  146 262 
 PTB  HZ I         814 41.17         1.5 0.28            133            146 262 
 ZAR  HZ EP        814 18.45                             124    0.03 8  207 294 
 ZAR  HN ES        814 44.23                             124   -0.10 8  207 294 
 ZAR  HZ I         814 51.26         1.1 0.22            124            207 294 
                                                                                
