 2016 10 4 0909 55.8 L   7.350 -73.165134.0  RSN  7 0.4 1.6LRSN                1
 GAP=176        0.91       4.5     3.9  6.6  0.4927E+00  0.9060E+01 -0.6211E+00E
 Epicentro: RIONEGRO - SANTANDER                                               3
 ACTION:UPD 16-11-09 19:16 OP:rebc STATUS:               ID:20161004090955 L   I
 OLDACT:REG 16-10-04 13:33 OP:dani STATUS:               ID:20161004090738     3
 2016-10-04-0908-00M.COL___360                                                 6
 STAT SP IPHASW D HRMM SECON CODA AMPLIT PERI AZIMU VELO AIN AR TRES W  DIS CAZ7
 PAM  EZ EP        910 15.54                             158    0.1610 51.4  91 
 PAM  EN ES        910 30.79                             158    0.1610 51.4  91 
 PAM  EZ I         910 33.38        11.4 0.34            160           51.4  91 
 BRR  HZ EP        910 15.28                             152   -0.1410 66.1 246 
 BRR  HE ES        910 30.67                             152   -0.0210 66.1 246 
 BRR  HZ I         910 31.02         7.6 0.38            151           66.1 246 
 BAR2 EZ EP        910 17.11                             146    0.2410 83.9 181 
 BAR2 EZ ES        910 33.27                             146   -0.0210 83.9 181 
 BAR2 EZ I         910 34.67        18.8 0.12            145           83.9 181 
 RUS  HZ EP   2    910 24.24                             127    0.42 5  161 177 
 RUS  HE ES        910 44.77                             127   -0.88 9  161 177 
 RUS  HZ I         910 47.31         1.9 0.32            127            161 177 
 PTB  HZ EP        910 23.70                             125   -0.18 9  169 238 
 PTB  HE ES        910 46.32                             125    0.56 9  169 238 
 PTB  HZ I         910 49.12         3.7 0.18            125            169 238 
 ZAR  HZ EP        910 25.38                             122   -0.42 9  188 275 
 ZAR  HN ES        910 48.93                             122   -0.25 9  188 275 
 ZAR  HZ I         910 51.88         5.2 0.50            123            188 275 
 SPBC HZ EP   2    910 29.48                             119    0.90 4  213 208 
 SPBC HN ES        910 54.57                             119    0.44 8  213 208 
 SPBC HZ I         911  0.16         3.2 0.10            119            213 208 
                                                                                
