 2015  9 4 0658  6.8 L   6.800 -73.142147.7  RSN 12 0.4 1.7LRSN                1
 GAP=183        0.97       2.5     4.2  5.0 -0.3129E-01  0.3734E+01  0.4318E+00E
 Epicentro: LOS SANTOS - SANTANDER                                             3
 ACTION:UPD 15-10-28 16:24 OP:cam  STATUS:               ID:20150904065806 L   I
 OLDACT:DUP 15-09-04 19:02 OP:ak   STATUS:               ID:20150904064751d    3
 2015-09-04-0647-50M.COL___355                                                 6
 STAT SP IPHASW D HRMM SECON CODA AMPLIT PERI AZIMU VELO AIN AR TRES W  DIS CAZ7
 BAR2 EZ EP        658 26.74                             171    0.0810 23.4 191 
 BAR2 EZ ES        658 41.60                             171   -0.5510 23.4 191 
 BAR2 EZ I         658 43.08        14.7 0.14            170           23.4 191 
 BRR  HZ EP        658 28.72                             153    0.5510 71.6 298 
 BRR  HN ES        658 45.73                             153    0.8910 71.6 298 
 BRR  HZ I         658 48.26         6.3 0.32            150           71.6 298 
 RUS  HZ EP        658 30.85                             144    0.1210  101 176 
 RUS  HN ES        658 49.33                             144   -0.0710  101 176 
 RUS  HZ I         658 50.58         6.4 0.28            146            101 176 
 PTB  HZ EP        658 33.54                             132   -0.42 9  148 259 
 PTB  HN ES        658 54.58                             132   -0.56 9  148 259 
 PTB  HZ I         658 57.07         5.5 0.20            131            148 259 
 OCA  HZ EP        658 34.98                             130   -0.28 9  160 353 
 OCA  HN ES        658 57.86                             130    0.40 9  160 353 
 OCA  HZ I         659  1.55        13.9 0.30            130            160 353 
 SPBC HZ EP        658 35.75                             129    0.28 9  163 219 
 SPBC HN ES        658 57.59                             129   -0.24 9  163 219 
 SPBC HZ I         659  0.42        14.0 0.20            129            163 219 
 ZAR  HZ EP        658 39.23                             123   -0.18 9  204 292 
 ZAR  HE ES        659  4.48                             123   -0.36 9  204 292 
 ZAR  HZ I         659 10.15         3.5 0.10            122            204 292 
 SML  HZ EP        658 42.98                             118   -0.57 8  244 335 
 SML  HE ES        659 11.86                             118   -0.35 8  244 335 
 SML  HZ I         659 18.87         5.5 0.06            118            244 335 
 CHI  HZ EP        658 44.84                             117    0.23 8  249 195 
 CHI  HN ES        659 14.00                             117   -0.11 8  249 195 
 CHI  HZ I         659 19.90         2.1 0.26            118            249 195 
 HEL  HZ EP   1    658 47.99                             115    0.84 6  272 256 
 HEL  HN ES        659 18.83                             115    0.20 8  272 256 
 HEL  HZ I         659 25.74         2.6 0.24            115            272 256 
 GUY2CHZ EP        658 50.66                             113    0.13 7  302 235 
 GUY2CHN ES        659 25.10                             113    0.45 7  302 235 
 GUY2CHZ I         659 33.26         2.1 0.24                           302 235 
 PRA  HZ EP        659  0.19                             107   -0.22 6  392 210 
 PRA  HN ES        659 42.19                             107   -0.04 6  392 210 
 PRA  HZ I         659 47.95         2.0 0.22            107            392 210 
                                                                                
