 2013  4 4 0837 56.2 L   6.820 -73.163149.6  RSN  5 0.4 1.2LRSN                1
 GAP=181        0.75       4.5     5.9  9.0  0.9152E+01 -0.1991E+01  0.6330E+00E
 Epicentro: LOS SANTOS - SANTANDER                                             3
 ACTION:UPD 13-05-22 14:35 OP:EP   STATUS:               ID:20130404083756 L   I
 2013-04-04-0836-41M.COL___209                                                 6
 STAT SP IPHASW D HRMM SECON CODA AMPLIT PERI AZIMU VELO AIN AR TRES W  DIS CAZ7
 BRR  HZ EP        838 17.87                             154    0.2710 68.5 298 
 BRR  HE ES   1    838 34.61                             154    0.31 7 68.5 298 
 BRR  HZ I         838 37.21         2.6 0.68            152           68.5 298 
 RUS  HN EP        838 20.76                             144    0.2810  103 175 
 RUS  HE ES   1    838 39.10                             144   -0.33 7  103 175 
 RUS  HN I         838 40.44         2.4 0.26            146            103 175 
 PTB  HZ EP   1    838 22.96                             133   -0.38 7  146 258 
 PTB  HN ES   1    838 44.05                             133   -0.47 7  146 258 
 PTB  HZ I         838 46.53         1.5 0.24            133            146 258 
 OCA  HN ES   1    838 46.20                             131   -0.51 7  158 354 
 ZAR  HZ EP   2    838 28.25                             123   -0.37 4  201 292 
 ZAR  HN ES   1    838 54.36                             123    0.45 6  201 292 
 ZAR  HZ I         838 59.15         2.4 0.54            124            201 292 
                                                                                
