 2016  4 4 0336 22.7 L   6.783 -73.174141.8  RSN  6 0.2 1.6LRSN                1
 GAP=134        0.60       2.7     2.7  4.4 -0.9504E+00  0.4407E+01 -0.1375E+01E
 Epicentro: LOS SANTOS - SANTANDER                                             3
 ACTION:UPD 16-05-05 14:18 OP:rebc STATUS:               ID:20160404033622 L   I
 OLDACT:UP  16-04-04 17:22 OP:mh   STATUS:               ID:20160404032743     3
 OLDACT:UP  16-04-04 17:20 OP:mh   STATUS:               ID:20160404032743     3
 OLDACT:REG 16-04-04 12:28 OP:mh   STATUS:               ID:20160404032743     3
 2016-04-04-0327-43M.COL___312                                                 6
 STAT SP IPHASW D HRMM SECON CODA AMPLIT PERI AZIMU VELO AIN AR TRES W  DIS CAZ7
 BAR2 EZ EP        336 41.79                             171    0.0310 21.1 183 
 BAR2 EZ ES        336 56.81                             171    0.1510 21.1 183 
 BAR2 EZ I         336 57.79        11.5 0.23            171           21.1 183 
 PAM  EZ EP        336 44.65                             149   -0.0110 80.8  40 
 PAM  EN ES        337  1.69                             149   -0.1310 80.8  40 
 PAM  EZ I         337  4.02         4.7 0.53            152           80.8  40 
 RUS  HZ EP        336 45.84                             143   -0.0610 99.0 174 
 RUS  HN ES        337  4.07                             143    0.0510 99.0 174 
 RUS  HZ I         337  5.06         4.4 0.26            146           99.0 174 
 PTB  HZ EP        336 48.45                             132   -0.54 9  144 259 
 PTB  HN ES        337  9.33                             132   -0.20 9  144 259 
 PTB  HZ I         337 11.36         5.5 0.82            132            144 259 
 SPBC HZ EP        336 50.63                             129    0.11 9  160 219 
 SPBC HN ES        337 12.34                             129    0.08 9  160 219 
 SPBC HZ I         337 18.41         4.3 0.27            130            160 219 
 ZAR  HZ EP        336 55.13                             122    0.51 9  202 293 
 ZAR  HN ES        337 19.65                             122    0.10 9  202 293 
 ZAR  HZ I         337 25.56         5.7 0.37            123            202 293 
                                                                                
