 2015  3 4 0102 38.7 L   6.809 -73.183145.3  RSN  4 0.2 0.9LRSN                1
 GAP=131        0.58       4.2     4.3  7.2 -0.6446E+01  0.1328E+02 -0.1529E+01E
 Epicentro: ZAPATOCA - SANTANDER                                               3
 ACTION:UPD 15-04-30 16:22 OP:nd   STATUS:               ID:20150304010238 L   I
 OLDACT:REG 15-03-04 12:22 OP:spq  STATUS:               ID:20150304005749     3
 2015-03-04-0057-49M.COL___290                                                 6
 STAT SP IPHASW D HRMM SECON CODA AMPLIT PERI AZIMU VELO AIN AR TRES W  DIS CAZ7
 BRR  HZ EP        1 2 59.95                             154    0.4210 67.1 299 
 PAM  SZ EP        1 3  0.96                             150    0.0210 79.3  42 
 PAM  SE ES        1 3 18.15                             150   -0.1610 79.3  42 
 PAM  SZ I         1 3 19.30         1.7 0.32            153           79.3  42 
 RUS  HZ EP   1    1 3  2.28                             143   -0.18 7  102 174 
 RUS  HE ES   1    1 3 21.17                             143    0.15 7  102 174 
 RUS  HZ I         1 3 21.52         0.7 0.58            146            102 174 
 PTB  HZ EP        1 3  5.00                             133   -0.24 9  144 258 
 PTB  HN ES   1    1 3 25.87                             133   -0.10 7  144 258 
 PTB  HZ I         1 3 28.64         1.4 0.12            134            144 258 
                                                                                
