 2011  8 4 0436 13.8 L   6.744 -73.111146.8  RSN  6 0.3 1.6LRSN                1
 GAP=144        0.49       3.9     4.9  5.0 -0.1091E+01  0.4786E+00  0.2805E+01E
 Epicentro: JORDAN - SANTANDER                                                 3
 ACTION:UPD 12-07-25 14:06 OP:epov STATUS:               ID:20110804043613 L   I
 2011-08-04-0435-05S.COL___139                                                 6
 STAT SP IPHASW D HRMM SECON CODA AMPLIT PERI AZIMU VELO AIN AR TRES W  DIS CAZ7
 BAR2 SZ EP   1    436 33.37                             172   -0.08 7 18.5 205 
 BAR2 SZ ES   1    436 48.67                             172   -0.12 7 18.5 205 
 BAR2 SZ I         436 50.07         9.1 0.41                          18.5 205 
 BRR  HZ EP        436 35.30                             151   -0.1110 77.6 301 
 BRR  HN ES   1    436 52.61                             151    0.33 7 77.6 301 
 BRR  HZ I         437 26.27        10.7 0.62                          77.6 301 
 PAM  SZ EP   1    436 36.38                             150    0.12 7 80.0  35 
 PAM  SN ES   2    436 53.39                             150   -0.41 5 80.0  35 
 RUS  HZ EP   1    436 37.21                             146    0.02 7 94.2 178 
 RUS  HN ES   2    436 55.82                             146    0.38 5 94.2 178 
 RUS  HZ I         436 57.12         3.3 0.35                          94.2 178 
 RREF HN ES   2    437 35.07                             111   -0.71 3  321 231 
 RREF HZ I         437 43.23         2.0 0.40                           321 231 
 PRA  HZ EP   2    437  7.59                             107    0.65 3  389 211 
                                                                                
