 2011  8 4 0641  4.0 L   6.742 -73.091153.1  RSN  4 0.4 1.3LRSN                1
 GAP=239        0.73       7.7     9.5  7.2  0.3606E+02 -0.3734E+01  0.3606E+01E
 Epicentro: JORDAN - SANTANDER                                                 3
 ACTION:UPD 12-07-25 14:06 OP:epov STATUS:               ID:20110804064104 L   I
 2011-08-04-0639-57S.COL___139                                                 6
 STAT SP IPHASW D HRMM SECON CODA AMPLIT PERI AZIMU VELO AIN AR TRES W  DIS CAZ7
 BAR2 SZ EP        641 24.13                             172   -0.3010 19.4 211 
 BAR2 SZ ES        641 40.08                             172   -0.2910 19.4 211 
 BAR2 SZ I         641 41.51         4.8 0.51                          19.4 211 
 BRR  HZ EP        641 26.39                             151   -0.0210 79.7 301 
 BRR  HN ES        641 44.14                             151    0.2410 79.7 301 
 BRR  HZ I         641 47.60         5.2 0.42                          79.7 301 
 RUS  HZ EP   1    641 28.43                             147    0.42 7 93.9 179 
 RUS  HE ES   2    641 47.50                             147    0.75 5 93.9 179 
 RUS  HZ I         641 49.86         2.5 0.54                          93.9 179 
 NOR  SN ES   2    642  8.23                             120   -0.39 4  236 237 
                                                                                
