 2010  8 4 0529 23.0 L   7.540 -73.319 12.6  RSN  8 0.5 1.7LRSN                1
 GAP=191        0.96       4.4     5.8  9.6 -0.1879E+02 -0.2458E+01  0.9635E+01E
 Epicentro: EL PLAYON - SANTANDER                                              3
 ACTION:UP  10-09-07 10:52 OP:vdl  STATUS:               ID:20100804052923 L   I
 2010-08-04-0525-22S.COL___124                                                 6
 STAT SP IPHASW D HRMM SECON CODA AMPLIT PERI AZIMU VELO SNR AR TRES W  DIS CAZ7
 GIR2 SZ EP   1    529 31.80                             100    -0.1 7   53 165 
 GIR2 SZ ES   2    529 38.33                             100    -0.5 5   53 165 
 GUE  SZ EP        529 31.91                             100    -0.310   54  54 
 GUE  SZ ES   2    529 39.47                             100     0.0 5   54  54 
 GUE  SZ I         529 39.80        37.8 0.08                            54  54 
 BRI  SZ EP   1    529 34.15                              99     1.0 7   61  71 
 BRI  SZ ES   2    529 41.75                              99     0.8 5   61  71 
 BRR  HZ EP   1    529 33.51                              98     0.0 7   65 222 
 BRR  HE ES   2    529 42.42                              98     0.8 5   65 222 
 BRR  HZ I         529 43.55        16.4 0.16                            65 222 
 GRA  SZ EP   1    529 33.92                              98    -0.3 7   68  56 
 GRA  SZ ES   2    529 42.48                              98    -0.5 5   68  56 
 GRA  SZ I         529 43.35        71.0 0.28                            68  56 
 BTL  SZ EP        529 34.25                              98    -0.110   69 175 
 BAR2 SZ EP   1    529 39.50                              95    -0.5 7  106 172 
 BAR2 SZ ES   2    529 53.71                              95     0.5 5  106 172 
 BAR2 SZ I         529 55.73        14.9 0.30                           106 172 
 RUS  HZ EP   1    529 51.24                              56     0.1 7  184 172 
 RUS  HE ES   2    530 13.09                              56     0.0 4  184 172 
 RUS  HZ I         530 14.93        10.5 0.23                           184 172 
                                                                                
