 2013  8 4 0825 53.2 L   6.796 -73.154150.5  RSN  8 0.4 2.1LRSN                1
 GAP=194        0.89       3.6     5.1  6.3 -0.2578E+01  0.3997E+01 -0.1435E+01E
 Epicentro: LOS SANTOS - SANTANDER                                             3
 ACTION:UPD 14-01-14 08:58 OP:ep   STATUS:               ID:20130804082553 L   I
 OLDACT:REG 13-08-04 07:48 OP:carl STATUS:               ID:20130804081959     3
 2013-08-04-0819-59M.COL___269                                                 6
 STAT SP IPHASW D HRMM SECON CODA AMPLIT PERI AZIMU VELO AIN AR TRES W  DIS CAZ7
 BAR2 SZ IP     D  826 13.23                             171   -0.1410 22.7 188 
 BAR2 SZ ES   1    826 28.30                             171   -0.81 7 22.7 188 
 BAR2 SZ I         826 30.98        15.7 0.28            171           22.7 188 
 GIR2 SZ EP        826 13.35                             168   -0.0710 31.6 352 
 GIR2 SZ ES   1    826 29.20                             168   -0.01 7 31.6 352 
 GIR2 SZ I         826 30.46        11.6 0.12            164           31.6 352 
 BRR  HZ IP     C  826 15.16                             153    0.3510 70.6 299 
 BRR  HN ES   1    826 32.74                             153    1.06 7 70.6 299 
 BRR  HN I         826 33.61        44.1 0.22            149           70.6 299 
 PTB  HZ EP        826 20.32                             133   -0.13 9  147 259 
 PTB  HN ES        826 41.50                             133   -0.22 9  147 259 
 PTB  HZ I         826 46.72        10.7 0.48            132            147 259 
 OCA  HZ EP   1    826 22.15                             131    0.26 7  161 353 
 OCA  HN ES        826 44.54                             131    0.25 9  161 353 
 OCA  HZ I         826 48.68         9.4 0.14            131            161 353 
 SPBC HZ EP        826 22.30                             130    0.35 9  162 219 
 SPBC HN ES   1    826 44.37                             130   -0.03 7  162 219 
 SPBC HZ I         826 47.09        13.3 0.34            131            162 219 
 ZAR  HZ EP   1    826 25.90                             123    0.03 6  203 292 
 ZAR  HN ES        826 51.25                             123   -0.12 9  203 292 
 ZAR  HZ I         826 58.33        19.1 0.28            123            203 292 
 SML  HZ EP   1    826 29.73                             118   -0.35 6  244 336 
 SML  HN ES        826 58.26                             118   -0.60 8  244 336 
 SML  HZ I         827  4.90        15.2 0.30            119            244 336 
                                                                                
