 2017  1 4 0941 25.6 L   6.792 -73.160141.9  RSN 29 0.3 3.0LRSN 3.4WRSN        1
 SPEC AVERAGE  MO 14.2 ST0.543 OM  2.2 f0 1.55 R1.5909 AL 0.00 WI 30.0 MW  3.4 3
 SPEC SD       MO  0.4 ST0.887 OM  0.4 f00.882 R0.6874 AL      WI      MW  0.2 3
 GAP= 71        0.66       1.9     1.8  2.9 -0.4812E-01  0.1718E+01 -0.1104E+00E
 Epicentro: LOS SANTOS - SANTANDER                                             3
 SPEC RUS HH Z MO 14.3 ST0.622 OM  2.3 f0 1.78 R1.0809 AL-0.00 WI 30.0 MW  3.4 3
 SPEC RUS HH Z T 942 5 K 0.000 GD  173 VS 5.20 DE 3.50 Q0750.0 QA 1.50 VS 5.20 3
 SPEC ZAR HH Z MO 14.0 ST  3.4 OM  1.9 f0 3.80 R0.5063 AL-0.00 WI 30.0 MW  3.3 3
 SPEC ZAR HH Z T 94221 K 0.000 GD  247 VS 5.20 DE 3.50 Q0750.0 QA 1.50 VS 5.20 3
 SPEC CHI HH Z MO 14.6 ST0.127 OM  2.4 f00.822 R2.3406 AL-0.00 WI 30.0 MW  3.7 3
 SPEC CHI HH Z T 94230 K 0.000 GD  284 VS 5.20 DE 3.50 Q0750.0 QA 1.50 VS 5.20 3
 SPEC ROSCBH Z MO 14.8 ST0.209 OM  2.6 f00.830 R2.3181 AL-0.00 WI 30.0 MW  3.8 3
 SPEC ROSCBH Z T 94233 K 0.000 GD  288 VS 5.20 DE 3.50 Q0750.0 QA 1.50 VS 5.20 3
 SPECGUY2CHH Z MO 14.7 ST  0.1 OM  2.4 f00.746 R  2.58 AL-0.00 WI 30.0 MW  3.7 3
 SPECGUY2CHH Z T 94240 K       GD331.0 VS 5.20 DE 3.50 Q0750.0 QA 1.50 VS 5.20 3
 SPEC PTGCHH Z MO 13.8 ST0.579 OM  1.6 f0 2.38 R0.8084 AL-0.00 WI 30.0 MW  3.2 3
 SPEC PTGCHH Z T 94239 K 0.000 GD  339 VS 5.20 DE 3.50 Q0750.0 QA 1.50 VS 5.20 3
 SPEC ELA HH Z MO 14.7 ST0.144 OM  2.4 f00.797 R2.4141 AL-0.00 WI 30.0 MW  3.7 3
 SPEC ELA HH Z T 94249 K 0.000 GD  356 VS 5.20 DE 3.50 Q0750.0 QA 1.50 VS 5.20 3
 SPEC CBOCHH Z MO 14.4 ST0.060 OM  2.1 f00.746 R2.5791 AL-0.00 WI 30.0 MW  3.5 3
 SPEC CBOCHH Z T 94247 K 0.000 GD  361 VS 5.20 DE 3.50 Q0750.0 QA 1.50 VS 5.20 3
 SPEC DBB EH Z MO 13.9 ST0.536 OM  1.6 f0 2.26 R0.8513 AL-0.00 WI 30.0 MW  3.2 3
 SPEC DBB EH Z T 94246 K 0.000 GD  366 VS 5.20 DE 3.50 Q0750.0 QA 1.50 VS 5.20 3
 SPEC ORTCHH Z MO 14.4 ST0.290 OM  2.1 f0 1.20 R1.6033 AL-0.00 WI 30.0 MW  3.6 3
 SPEC ORTCHH Z T 943 0 K 0.000 GD  418 VS 5.20 DE 3.50 Q0750.0 QA 1.50 VS 5.20 3
 SPEC PAL HH Z MO 14.0 ST0.062 OM  1.7 f00.969 R1.9856 AL-0.00 WI 30.0 MW  3.3 3
 SPEC PAL HH Z T 943 2 K 0.000 GD  428 VS 5.20 DE 3.50 Q0750.0 QA 1.50 VS 5.20 3
 SPEC SJC HH Z MO 14.1 ST0.254 OM  1.8 f0 1.43 R1.3455 AL-0.00 WI 30.0 MW  3.4 3
 SPEC SJC HH Z T 94257 K 0.000 GD  432 VS 5.20 DE 3.50 Q0750.0 QA 1.50 VS 5.20 3
 SPEC MACCHH Z MO 13.9 ST0.194 OM  1.5 f0 1.53 R1.2575 AL-0.00 WI 30.0 MW  3.2 3
 SPEC MACCHH Z T 94322 K 0.000 GD  538 VS 5.20 DE 3.50 Q0750.0 QA 1.50 VS 5.20 3
 OLDACT:REG 17-01-04 13:00 OP:lv   STATUS:               ID:20170104093746     3
 ACTION:UPD 17-05-22 15:55 OP:jn   STATUS:               ID:20170104094125 L   I
 OLDACT:UP  17-01-04 17:37 OP:lv   STATUS:               ID:20170104093746     3
 2017-01-04-0938-00M.COL___360                                                 6
 STAT SP IPHASW D HRMM SECON CODA AMPLIT PERI AZIMU VELO AIN AR TRES W  DIS CAZ7
 BAR2 EZ IP     D  941 44.72                             171   -0.0410 22.3 186 
 BAR2 EZ ES        941 59.48                             171   -0.2110 22.3 186 
 BAR2 EZ I         942  0.81       365.3 0.34            170           22.3 186 
 BRR  HZ IP     C  941 46.48                             152    0.1910 70.2 300 
 BRR  HE ES        942  2.82                             152    0.4010 70.2 300 
 BRR  HZ I         942  6.74       144.1 0.28            151           70.2 300 
 PAM  EZ EP        941 47.56                             150    0.0410 79.1  40 
 PAM  EN ES        942  4.59                             150   -0.0210 79.1  40 
 PAM  EZ I         942  7.97       105.7 0.52            147           79.1  40 
 RUS  HZ EP        941 48.69                             143   -0.2410 99.8 175 
 RUS  HN ES        942  7.21                             143    0.0910 99.8 175 
 RUS  HZ I         942  8.37       109.5 0.20            141           99.8 175 
 PTB  HZ EP        941 51.47                             131   -0.64 9  146 259 
 PTB  HN ES        942 12.54                             131   -0.24 9  146 259 
 PTB  HZ I         942 14.41       117.7 0.16            129            146 259 
 TAM  HZ IP     D  941 53.15                             129    0.04 9  156 105 
 TAM  HZ I         942 14.05        74.7 0.40            126            156 105 
 TAM  HN ES        942 14.64                             129    0.08 9  156 105 
 ZAR  HZ EP        941 57.61                             122   -0.08 9  203 293 
 ZAR  HN ES        942 22.65                             122   -0.06 9  203 293 
 ZAR  HZ I         942 27.88       137.0 0.36            119            203 293 
 CHI  HZ EP        942  2.84                             116   -0.13 8  247 195 
 CHI  HN ES        942 32.15                             116    0.05 8  247 195 
 CHI  HZ I         942 37.33        70.6 0.42            114            247 195 
 ROSC BZ EP   9    942  4.60                             116    1.24 0  251 211 
 ROSC BN ES        942 34.55                                    0.51 8  251 211 
 ROSC BZ I         942 39.41       227.5 0.40            114            251 211 
 URE  HZ EP   4    942  5.09                             113   -1.28 0  283 292 
 URE  HE ES   4    942 35.16                             113   -3.00 0  283 292 
 URE  HZ I         942 43.79        65.9 0.14            111            283 292 
 GUY2CHZ EP        942  9.25                             112    0.41 7  299 235 
 GUY2CHN ES        942 42.34                             112   -0.22 7  299 235 
 GUY2CHZ I         942 50.95        70.3 0.34                           299 235 
 LL1C HZ EP        942  9.86                             111    0.75 7  307 352 
 LL1C HE ES   4    942 44.53                             111    1.50 0  307 352 
 PTGC HZ EP   4    942  7.84                             111   -1.43 0  308 158 
 PTGC HN ES   4    942 41.11                             111   -2.22 0  308 158 
 PTGC HZ I         942 43.98        36.2 0.36            109            308 158 
 ELA  HZ EP   4    942 14.00                             110    1.90 0  327 229 
 ELA  HN ES   4    942 50.52                             110    2.16 0  327 229 
 ELA  HZ I         942 57.44        47.8 0.58            108            327 229 
 CBOC HZ EP        942 12.34                             109    0.17 7  332 252 
 CBOC HE ES        942 48.73                             109    0.25 7  332 252 
 CBOC HZ I         942 57.60        15.0 0.52            107            332 252 
 DBB  EZ EP        942 12.80                             109    0.04 7  338 274 
 DBB  HN ES   4    942 48.02                             109   -1.52 0  338 274 
 DBB  EZ I         942 50.22        29.2 0.32            107            338 274 
 ARGC HZ EP        942 14.79                             108   -0.37 6  359 341 
 ARGC HN ES        942 53.78                             108   -0.02 6  359 341 
 ARGC HZ I         943  4.09        17.7 0.26            105            359 341 
 ORTC HZ EP        942 19.12                             106   -0.09 6  394 216 
 ORTC HN ES   4    943  2.44                             106    1.42 0  394 216 
 ORTC HZ I         943  6.13        44.4 0.22            104            394 216 
 APAC HZ EP        942 19.44                             106   -0.09 6  397 288 
 APAC HN ES   4    942 58.39                             106   -3.19 0  397 288 
 APAC HZ I         943  3.78        22.3 0.27            104            397 288 
 PAL  HZ EP        942 20.14                             105   -0.30 6  404 239 
 PAL  HN ES        943  4.18                             105    0.98 6  404 239 
 PAL  HZ I         943 10.10        14.5 0.26            103            404 239 
 SJC  HZ EP   4    942 18.41                             105   -2.63 0  409 327 
 SJC  HN ES   4    942 59.31                             105   -4.95 0  409 327 
 SJC  HZ I         943 14.51        24.1 0.72            103            409 327 
 LCBC HN ES        943  6.43                             105   -0.19 5  421 303 
 CRJC HZ EP   4    942 25.08                             103   -3.04 0  469   4 
 CRJC HE ES   4    943 12.88                             103   -4.00 0  469   4 
 CRJC HZ I         943 17.51        30.0 0.38            101            469   4 
 GUA  EZ EP   4    942 26.53                             103   -2.05 0  473 173 
 GUA  EN ES   4    943 15.57                             103   -2.13 0  473 173 
 GUA  EZ I         943 19.17        14.8 0.22            101            473 173 
 SMAR HZ EP   4    942 29.90                             102   -1.54 0  497 346 
 SMAR HN ES   4    943 18.68                             102   -4.11 0  497 346 
 SMAR HZ I         943 23.24        12.5 0.17            100            497 346 
 MACC HZ EP   4    942 31.80                             101   -2.30 0  519 188 
 MACC HN ES   4    943 23.98                             101   -3.54 0  519 188 
 MACC HZ I         943 29.47        11.7 0.31             99            519 188 
 URI  HZ EP   4    942 34.92                             100   -3.76 0  558  13 
 URI  HE ES   4    943 32.81                             100   -2.85 0  558  13 
 URI  HZ I         943 37.83         5.1 0.15             98            558  13 
 GARC HZ EP   4    942 38.83                             100   -1.78 0  571 207 
 GARC HE ES   4    943 35.76                             100   -3.34 0  571 207 
 GARC HZ I         943 43.03        16.5 0.24             98            571 207 
 CONO HZ EP        942 45.77                              99    0.06 3  610 216 
 CONO HE ES   4    943 41.99                              99   -6.20 0  610 216 
 CONO HZ I         943 53.85         4.0 0.48             97            610 216 
 FLO2 HZ EP   4    942 47.29                              98   -1.20 0  639 206 
 FLO2 HE ES   4    943 54.41                              98    1.28 0  639 206 
 SOTO HZ EP   4    942 50.14                              98    0.77 0  641 217 
 SOTO HN ES   4    943 58.83                              98    4.13 0  641 217 
                                                                                
