 2017 11 4 0322 57.6 L   6.804 -73.140144.0  RSN 10 0.3 1.5LRSN                1
 GAP=112        0.79       3.2     3.2  4.8 -0.3366E-01  0.1182E+01  0.1903E+01E
 Epicentro: LOS SANTOS - SANTANDER                                             3
 ACTION:UPD 17-12-12 19:51 OP:rebc STATUS:               ID:20171104032257 L   I
 OLDACT:UP  17-11-04 15:04 OP:dnl  STATUS:               ID:20171104031738     3
 OLDACT:REG 17-11-04 13:42 OP:dnl  STATUS:               ID:20171104031738     3
 2017-11-04-0318-00M.COL___423                                                 6
 STAT SP IPHASW D HRMM SECON CODA AMPLIT PERI AZIMU VELO AIN AR TRES W  DIS CAZ7
 BAR2 EZ EP        323 16.77                             170   -0.2310 23.9 191 
 BAR2 EZ ES        323 31.95                             170   -0.2010 23.9 191 
 BAR2 EZ I         323 32.83         9.9 0.36            169           23.9 191 
 BRR  HZ EP        323 18.49                             152   -0.0610 71.5 298 
 BRR  HN ES        323 35.68                             152    0.7710 71.5 298 
 BRR  HZ I         323 39.90         6.5 0.18            154           71.5 298 
 PAM  EZ IP     C  323 19.72                             151    0.1710 76.7  39 
 PAM  EN ES        323 36.59                             151   -0.1110 76.7  39 
 PAM  EZ I         323 38.95         4.6 0.48            153           76.7  39 
 RUS  HZ EP        323 20.99                             143   -0.1910  101 176 
 RUS  HN ES        323 39.70                             143    0.1110  101 176 
 RUS  HZ I         323 40.41         2.4 0.30            143            101 176 
 PTB  HZ EP        323 24.40                             132   -0.05 9  148 259 
 PTB  HE ES        323 44.88                             132   -0.54 9  148 259 
 PTB  HZ I         323 46.64         2.3 0.18            132            148 259 
 SPBC HZ EP        323 26.04                             129    0.04 9  164 219 
 SPBC HE ES        323 48.48                             129    0.31 9  164 219 
 SPBC HZ I         323 52.28         5.7 0.60            129            164 219 
 YPLC HZ EP        323 27.24                             126   -0.00 9  177 152 
 YPLC HE ES   4    323 51.42                             126    1.03 0  177 152 
 YPLC HZ I         323 59.23         2.0 0.34            127            177 152 
 ZAR  HZ EP   4    323 32.60                             122    2.66 0  204 292 
 ZAR  HE ES        323 54.95                             122   -0.24 9  204 292 
 ZAR  HZ I         323 59.99         3.8 0.34            123            204 292 
 CHI  HZ EP   9    323 34.16                             117   -1.07 0  249 195 
 CHI  HE ES        324  3.62                             116    0.08 8  249 195 
 CHI  HZ I         324  7.78         2.3 0.68            117            249 195 
 GUY2CHZ EP   2    323 42.26                             112    1.08 4  302 235 
 GUY2CHN ES   4    324 17.94                             112    2.75 0  302 235 
 GUY2CHZ I         324 23.03         1.8 0.34                           302 235 
                                                                                
