 2017  7 4 0020 21.4 L   6.765 -73.137141.4  RSN 11 0.4 1.8LRSN                1
 GAP= 96        0.84       4.5     3.1  5.5 -0.3603E+01  0.1074E+01  0.6486E+01E
 Epicentro: LOS SANTOS - SANTANDER                                             3
 ACTION:UPD 17-08-30 15:29 OP:rebc STATUS:               ID:20170704002021 L   I
 OLDACT:UP  17-07-04 13:30 OP:edw  STATUS:               ID:20170704001741     3
 OLDACT:UP  17-07-04 13:29 OP:edw  STATUS:               ID:20170704001741     3
 OLDACT:REG 17-07-04 12:22 OP:edw  STATUS:               ID:20170704001741     3
 2017-07-04-0018-00M.COL___377                                                 6
 STAT SP IPHASW D HRMM SECON CODA AMPLIT PERI AZIMU VELO AIN AR TRES W  DIS CAZ7
 BAR2 EZ IP     C  020 40.35                             172   -0.0810 19.7 195 
 BAR2 EZ ES        020 55.00                             172   -0.2810 19.7 195 
 BAR2 EZ I         020 56.11        22.8 0.18            170           19.7 195 
 BRR  HZ IP     C  020 42.24                             151    0.0010 73.9 301 
 BRR  HN ES        020 59.02                             151    0.5310 73.9 301 
 BRR  HZ I         021  0.72        11.3 0.16            150           73.9 301 
 PAM  EZ IP     C  020 43.40                             149    0.1010 79.9  37 
 PAM  EN ES        021  0.32                             149   -0.0710 79.9  37 
 PAM  EZ I         021  2.51        15.0 0.54            152           79.9  37 
 PTB  HZ EP        020 47.10                             131   -0.93 9  148 260 
 PTB  HE ES        021  8.78                             131   -0.02 9  148 260 
 PTB  HZ I         021 10.32         6.7 0.18            130            148 260 
 TAM  HZ IP     D  020 48.78                             130    0.22 9  153 104 
 SPBC HZ EP        020 49.63                             128    0.29 9  161 220 
 SPBC HN ES        021 11.17                             128    0.05 9  161 220 
 SPBC HZ I         021 13.26        11.1 0.16            128            161 220 
 ZAR  HZ EP   4    020 52.09                             121   -1.72 0  206 293 
 ZAR  HN ES        021 18.90                             121   -0.18 8  206 293 
 HEL  HZ EP   2    021  1.65                             114    0.26 4  272 257 
 HEL  HN ES   4    021 30.33                             114   -2.25 0  272 257 
 HEL  HZ I         021 40.23         3.9 0.32            114            272 257 
 GUY2CHZ EP   2    021  5.10                             112    0.46 4  300 235 
 GUY2CHN ES   4    021 41.73                             112    3.36 0  300 235 
 GUY2CHZ I         021 45.75         3.9 0.24                           300 235 
 CBOC HZ EP   4    021  9.76                             109    1.66 0  333 253 
 CBOC HN ES        021 44.97                             109    0.44 7  333 253 
 CBOC HZ I         021 49.46         1.2 0.38            109            333 253 
 SJC  HZ EP   4    021 15.36                             105   -1.90 0  413 327 
 SJC  HN ES   4    021 56.62                             105   -4.22 0  413 327 
 SJC  HZ I         021 59.64         1.5 0.52            105            413 327 
                                                                                
