 2011  1 4 0841 45.3 L   6.880 -73.107124.2  RSN  4 0.4 1.6LRSN                1
 GAP=187        0.74       4.0    34.2  9.1  0.2079E+02  0.6514E+02 -0.4606E+01E
 Epicentro: LOS SANTOS - SANTANDER                                             3
 ACTION:UP  11-02-08 08:38 OP:pat  STATUS:               ID:20110104084145 L   I
 2011-01-04-0839-31S.COL___135                                                 6
 STAT SP IPHASW D HRMM SECON CODA AMPLIT PERI AZIMU VELO SNR AR TRES W  DIS CAZ7
 BAR2 SZ EP   1    842  3.10                             164     0.4 7   33 195 
 BAR2 SZ ES   1    842 16.19                             164     0.0 7   33 195 
 BAR2 SZ I         842 17.40        29.6 0.38                            33 195 
 RUS  HZ EP   2    842  8.30                             136     0.6 5  109 179 
 RUS  HN ES   2    842 24.47                             136    -0.8 5  109 179 
 OCA  SZ EP   1    842 10.81                             126    -0.4 7  152 351 
 OCA  SZ ES   1    842 31.53                             126     0.1 7  152 351 
 OCA  SZ I         842 36.38         6.2 0.22                           152 351 
 CHI  HZ EP   2    842 22.79                             111    -0.2 4  258 196 
 CHI  HE ES   2    842 52.45                             111     0.0 4  258 196 
 CHI  HZ I         842 57.50         1.2 0.42                           258 196 
                                                                                
