 2016  7 4 0613 43.4 L   6.786 -73.187158.1  RSN  6 0.3 1.6LRSN                1
 GAP=132        0.84       6.3     5.0 10.5 -0.7915E+01 -0.2074E+02  0.2612E+02E
 Epicentro: ZAPATOCA - SANTANDER                                               3
 ACTION:UPD 17-03-29 16:46 OP:lp   STATUS:               ID:20160704061343 L   I
 OLDACT:UP  16-07-04 20:02 OP:dani STATUS:               ID:20160704060745     3
 OLDACT:UP  16-07-04 20:02 OP:dani STATUS:               ID:20160704060745     3
 OLDACT:UP  16-07-04 20:02 OP:dani STATUS:               ID:20160704060745     3
 OLDACT:UP  16-07-04 19:59 OP:dani STATUS:               ID:20160704060745     3
 OLDACT:REG 16-07-04 13:30 OP:dani STATUS:               ID:20160704060745     3
 2016-07-04-0607-45M.COL___319                                                 6
 STAT SP IPHASW D HRMM SECON CODA AMPLIT PERI AZIMU VELO AIN AR TRES W  DIS CAZ7
 BRR  HZ EP        614  6.02                             156    0.3110 68.0 302 
 BRR  HN ES        614 23.32                             156    0.1910 68.0 302 
 BRR  HZ I         614 24.89         5.3 0.22            163           68.0 302 
 PAM  EZ EP        614  6.82                             152   -0.3410 81.6  41 
 PAM  EN ES   4    614 29.74                             152    4.03 0 81.6  41 
 PAM  EZ I         614 31.20         5.8 0.22            148           81.6  41 
 RUS  HZ EP        614  8.51                             146    0.2210 99.4 173 
 RUS  HZ I         614 27.53         5.3 0.34            140           99.4 173 
 PTB  HZ EP        614 10.75                             136   -0.22 9  143 259 
 PTB  HN ES        614 31.86                             136   -0.62 9  143 259 
 PTB  HZ I         614 33.14         4.1 0.14            137            143 259 
 ZAR  HN ES        614 42.22                             125    0.25 9  200 293 
 ZAR  HZ I         614 47.95         5.7 0.36            127            200 293 
 NOR  HE ES        614 47.71                             122    0.27 8  230 234 
                                                                                
