 2017 12 4 0037 15.0 L   6.827 -73.216135.0  RSN  4 0.4 1.1LRSN                1
 GAP=148        1.04       6.1     5.8  8.9 -0.1103E+02  0.1506E+02 -0.5404E+01E
 Epicentro: ZAPATOCA - SANTANDER                                               3
 ACTION:UPD 18-01-04 13:16 OP:rebc STATUS:               ID:20171204003715 L   I
 OLDACT:REG 17-12-04 12:52 OP:leo  STATUS:               ID:20171204002738     3
 2017-12-04-0028-00M.COL___486                                                 6
 STAT SP IPHASW D HRMM SECON CODA AMPLIT PERI AZIMU VELO AIN AR TRES W  DIS CAZ7
 BAR2 EZ EP        037 33.25                             168   -0.1710 26.2 172 
 BAR2 EZ ES        037 47.03                             168   -0.7410 26.2 172 
 PAM  EZ EP        037 36.21                             148   -0.0810 80.5  45 
 PAM  EZ ES        037 53.33                             148    0.4410 80.5  45 
 PAM  EZ I         037 55.36         4.0 0.48            152           80.5  45 
 RUS  HZ EP        037 37.77                             140   -0.2410  104 172 
 RUS  HN ES        037 56.52                             140    0.5710  104 172 
 RUS  HZ I         037 57.13         1.8 0.32            146            104 172 
 PTB  HZ EP        037 40.45                             131   -0.02 9  141 257 
 PTB  HN ES        038  0.59                             131    0.26 9  141 257 
 PTB  HZ I         038  8.19         1.7 0.42            131            141 257 
                                                                                
