 2012  6 4 0128 32.3 L   6.966 -73.219142.5  RSN  5 0.4 1.5LRSN                1
 GAP=119        0.91       5.0     7.4 10.8 -0.2360E+01  0.4642E+01 -0.1354E+02E
 Epicentro: BETULIA - SANTANDER                                                3
 ACTION:UPD 12-08-06 17:47 OP:ep   STATUS:               ID:20120604012832 L   I
 2012-06-04-0120-00M.COL___201                                                 6
 STAT SP IPHASW D HRMM SECON CODA AMPLIT PERI AZIMU VELO AIN AR TRES W  DIS CAZ7
 BAR2 SZ EP        128 52.88                             163    0.8710 41.6 174 
 BAR2 SZ ES   1    129  7.25                             163   -0.16 7 41.6 174 
 BAR2 SZ I         129  7.70         9.5 0.12                          41.6 174 
 PAM  SZ EP   1    128 53.53                             152   -0.20 7 70.7  54 
 RUS  HZ EP   1    128 56.76                             138   -0.41 7  120 173 
 RUS  HE ES   1    129 16.26                             138   -0.34 7  120 173 
 RUS  HZ I         129 17.43         3.4 0.52                           120 173 
 OCA  HZ EP   1    128 58.28                             133   -0.26 7  141 356 
 OCA  HN ES   1    129 18.97                             133   -0.08 7  141 356 
 PTB  HZ EP   1    128 58.41                             132   -0.26 7  145 251 
 PTB  HZ I         128 59.23         3.6 0.17                           145 251 
 PTB  HN ES   1    129 19.33                             132    0.05 7  145 251 
                                                                                
