 2010  8 4 0116 42.1 L   6.793 -73.086143.1  RSN 14 0.4 2.6LRSN                1
 GAP=165        0.85       3.2     7.3  5.0 -0.6556E+01  0.1807E+01  0.2669E+01E
 Epicentro: LOS SANTOS - SANTANDER                                             3
 ACTION:UP  10-09-07 10:51 OP:vdl  STATUS:               ID:20100804011642 L   I
 2010-08-04-0112-01S.COL___126                                                 6
 STAT SP IPHASW D HRMM SECON CODA AMPLIT PERI AZIMU VELO SNR AR TRES W  DIS CAZ7
 BTL  SZ IP        117  1.63                             170     0.210   24 305 
 BTL  SZ ES   1    117 16.58                             170     0.0 7   24 305 
 BAR2 SZ EP        117  1.48                             170     0.010   25 206 
 BAR2 SZ ES   1    117 16.76                                     0.2 7   25 206 
 BAR2 SZ I         117 19.93        53.2 0.46                            25 206 
 GIR2 SZ EP   2    117  1.62                             166     0.1 5   34 339 
 GIR2 SZ ES   2    117 16.33                             166    -0.4 5   34 339 
 BRR  HZ IP     D  117  3.42                             150     0.010   77 297 
 BRR  HN ES   1    117 20.14                                     0.2 7   77 297 
 BRR  HZ I         117 21.58        50.1 0.15                            77 297 
 RUS  HZ EP        117  5.54                             143     0.010  100 180 
 RUS  HN ES   1    117 23.72                                    -0.1 7  100 180 
 RUS  HZ I         117 25.33        39.7 0.28                           100 180 
 GUE  SZ EP        117  6.59                             138     0.010  116   9 
 GRA  SZ IP        117  7.37                             136     0.310  125  14 
 GRA  SZ ES   1    117 26.86                             136     0.4 7  125  14 
 GRA  SZ I         117 28.40        60.5 0.28                           125  14 
 OCA  SZ EP   1    117  9.69                                    -0.7 7  162 351 
 OCA  SZ ES   1    117 31.47                             128    -1.0 7  162 351 
 CHI  HZ EP        117 19.79                             116     0.0 8  250 197 
 CHI  HE ES   2    117 48.30                             116    -0.9 4  250 197 
 CHI  HZ I         117 52.71        17.0 0.47                           250 197 
 CVER SZ EP   2    117 22.57                             114     0.0 4  274 204 
 CVER SZ I         117 24.99        33.4 0.29                           274 204 
 HEL  HZ EP   1    117 23.24                             113     0.3 6  278 256 
 GUY  SZ EP   3    117 27.13                             111     0.9 2  306 236 
 GUY  SZ I         118  7.59        43.5 0.49                           306 236 
 RREF HZ EP   1    117 29.70                             110     1.0 5  326 230 
 RREF HZ I         118 12.22        13.9 0.26                           326 230 
 PRA  HZ EP        117 35.42                             106    -0.5 6  395 210 
 PRA  HN ES   2    118 16.95                             106    -0.8 3  395 210 
 PRA  HZ I         118 23.98        10.8 0.43                           395 210 
                                                                                
