 2013  2 4 0823 26.9 L   6.796 -73.145148.0  RSN 11 0.4 2.5LRSN                1
 GAP= 71        0.85       2.8     3.2  5.5  0.9475E+00  0.2471E+01  0.2610E+01E
 Epicentro: LOS SANTOS - SANTANDER                                             3
 ACTION:UPD 13-03-12 09:30 OP:ep   STATUS:               ID:20130204082326 L   I
 2013-02-04-0820-00M.COL___241                                                 6
 STAT SP IPHASW D HRMM SECON CODA AMPLIT PERI AZIMU VELO AIN AR TRES W  DIS CAZ7
 BAR2 SZ EP        823 46.73                             171   -0.0810 22.9 191 
 BAR2 SZ ES   1    824  2.09                             171   -0.24 7 22.9 191 
 BAR2 SZ I         824  3.30        71.2 0.38            165           22.9 191 
 BRR  HZ IP     C  823 48.61                             153    0.2810 71.5 299 
 BRR  HN ES   1    824  5.71                             153    0.68 7 71.5 299 
 BRR  HN I         824  6.16       106.1 0.30            144           71.5 299 
 PAM  SZ EP        823 49.53                             151    0.1410 77.7  39 
 PAM  SN ES        824  6.95                             151    0.0310 77.7  39 
 PAM  SN I         824  7.66        34.2 0.48            149           77.7  39 
 RUS  HZ EP     D  823 50.61                             144   -0.2510  100 176 
 RUS  HN ES   2    824  9.20                             144   -0.33 5  100 176 
 RUS  HN I         824  9.71        38.3 0.32            136            100 176 
 PTB  HZ EP   1    823 53.53                             133   -0.55 7  148 259 
 PTB  HN ES   1    824 14.79                             133   -0.46 7  148 259 
 PTB  HN I         824 16.12        49.5 0.38            123            148 259 
 TAM  HZ IP     D  823 54.92                             131    0.16 9  155 105 
 TAM  HN ES   1    824 16.71                             131    0.24 7  155 105 
 TAM  HN I         824 17.20        32.4 0.40            126            155 105 
 OCA  HZ EP   1    823 55.70                             130    0.25 7  161 353 
 OCA  HN ES        824 17.53                             130   -0.18 9  161 353 
 ZAR  HN ES        824 25.44                             123    0.45 9  204 292 
 ZAR  HN I         824 28.00        43.9 0.12            115            204 292 
 SML  HZ EP        824  3.21                             118   -0.52 8  244 335 
 SML  HN ES   1    824 31.55                             118   -0.88 6  244 335 
 SML  HN I         824 34.02        82.5 0.30            111            244 335 
 CHI  HZ EP        824  4.77                             118    0.07 8  248 195 
 CHI  HN ES        824 33.98                             118   -0.18 8  248 195 
 CHI  HN I         824 38.39        18.6 0.52            110            248 195 
 HEL  HZ EP   1    824  8.42                             115    1.17 6  272 256 
 HEL  HN I         824 47.29         9.7 0.48            108            272 256 
                                                                                
