 2017  6 4 0114 29.6 L   6.814 -73.146140.0  RSN  9 0.3 1.7LRSN                1
 GAP=214        0.69       3.8     3.2  7.3  0.6215E+01 -0.5397E+01 -0.1303E+02E
 Epicentro: LOS SANTOS - SANTANDER                                             3
 ACTION:UPD 17-09-14 16:49 OP:jn   STATUS:               ID:20170604011429 L   I
 OLDACT:UP  17-06-04 14:44 OP:osc  STATUS:               ID:20170604010736d    3
 OLDACT:DUP 17-06-04 14:33 OP:osc  STATUS:               ID:20170604010736d    3
 2017-06-04-0108-00M.COL___362                                                 6
 STAT SP IPHASW D HRMM SECON CODA AMPLIT PERI AZIMU VELO AIN AR TRES W  DIS CAZ7
 BRR  HZ EP        114 50.19                             152    0.1510 70.4 297 
 BRR  HZ I         115 11.70         7.0 0.16            149           70.4 297 
 RUS  HZ EP        114 52.92                             142    0.0610  102 176 
 RUS  HN ES        115 10.91                             142   -0.1310  102 176 
 RUS  HZ I         115 11.53         5.0 0.26            147            102 176 
 PTB  HZ EP        114 56.03                             131   -0.05 9  148 258 
 PTB  HN ES        115 16.24                             131   -0.54 9  148 258 
 SPBC HZ EP        114 57.69                             128   -0.04 9  164 219 
 SPBC HE ES        115 19.77                             128    0.05 9  164 219 
 SPBC HZ I         115 25.33         6.4 0.10            130            164 219 
 YPLC HZ EP        114 58.61                             125   -0.47 9  178 152 
 YPLC HN ES        115 22.52                             125    0.42 9  178 152 
 ZAR  HZ EP        115  1.64                             121    0.08 9  203 292 
 ZAR  HN ES        115 26.95                             121    0.42 9  203 292 
 ZAR  HZ I         115 32.33         7.6 0.36            121            203 292 
 NOR  HZ EP   4    115  3.93                             117   -1.12 0  236 234 
 NOR  HE ES        115 32.86                             117    0.12 8  236 234 
 NOR  HZ I         115 37.77         4.6 0.38            118            236 234 
 CHI  HZ EP   9    115  6.69                             116   -0.42 0  250 195 
 CHI  HN ES        115 36.39                                    0.41 8  250 195 
 CHI  HZ I         115 44.56         2.0 0.40            118            250 195 
 ROSC BN ES   4    115 41.36                             115    4.24 0  254 211 
 ORTC HN ES   2    116  5.78                             105    0.32 3  397 216 
                                                                                
