 2013  1 4 0927 26.0 L   6.774 -73.166142.6  RSN  5 0.4 1.7LRSN                1
 GAP=233        1.10       8.1     8.2  7.9  0.3343E+02  0.9560E+01  0.1325E+02E
 Epicentro: LOS SANTOS - SANTANDER                                             3
 ACTION:UPD 13-02-15 09:12 OP:ep   STATUS:               ID:20130104092726 L   I
 2013-01-04-0919-37M.COL___182                                                 6
 STAT SP IPHASW D HRMM SECON CODA AMPLIT PERI AZIMU VELO AIN AR TRES W  DIS CAZ7
 BAR2 SZ EP        927 44.84                             172   -0.3510 20.2 185 
 BAR2 SZ ES        927 59.55                             172   -0.6010 20.2 185 
 BAR2 SZ I         928  0.85        10.0 0.34            166           20.2 185 
 BRR  HZ EP        927 46.84                             152    0.0610 70.7 301 
 BRR  HN ES        928  3.73                             152    0.7410 70.7 301 
 BRR  HN I         928  4.39        15.6 0.30            150           70.7 301 
 RUS  HZ EP        927 49.48                             144    0.2410 97.9 175 
 RUS  HE ES        928  7.63                             144    0.2610 97.9 175 
 RUS  HZ I         928  9.20         3.9 0.30            143           97.9 175 
 PTB  HZ EP        927 51.97                             132   -0.49 9  145 260 
 PTB  HN ES        928 12.90                             132   -0.20 9  145 260 
 PTB  HN I         928 18.16         7.8 0.24            130            145 260 
 CHI  HZ EP        928  3.58                             117    0.42 8  245 195 
                                                                                
