 2014  2 4 0833 27.2 L   6.800 -73.143145.5  RSN  5 0.4 1.2LRSN                1
 GAP=137        0.71       4.6     6.4  9.1  0.3039E+00  0.3543E+02 -0.1797E+01E
 Epicentro: LOS SANTOS - SANTANDER                                             3
 ACTION:UPD 14-03-10 08:07 OP:ep   STATUS:               ID:20140204083327 L   I
 OLDACT:UP  14-02-04 12:59 OP:mh   STATUS:               ID:20140204083000     3
 OLDACT:REG 14-02-04 08:24 OP:mh   STATUS:               ID:20140204083000     3
 2014-02-04-0830-00M.COL___288                                                 6
 STAT SP IPHASW D HRMM SECON CODA AMPLIT PERI AZIMU VELO AIN AR TRES W  DIS CAZ7
 PAM  SN ES   1    834  6.64                             151    0.00 8 77.1  39 
 RUS  HZ EP   1    833 50.61                             144   -0.28 7  101 176 
 RUS  HN ES        834  9.49                             144    0.0910  101 176 
 RUS  HZ I         834 10.87         1.6 0.35            144            101 176 
 PTB  HZ EP   1    833 53.43                             132   -0.71 7  148 259 
 PTB  HN ES   2    834 14.60                             132   -0.58 5  148 259 
 PTB  HZ I         834 16.98         1.8 0.23            131            148 259 
 SPBC HZ EP        833 55.86                             129    0.19 9  163 219 
 SPBC HN ES   2    834 18.32                             129    0.42 5  163 219 
 SPBC HZ I         834 25.52         2.4 0.15            129            163 219 
 ZAR  HZ EP   1    834  0.19                             122    0.57 6  204 292 
 ZAR  HN ES   2    834 25.27                             122    0.33 4  204 292 
 ZAR  HZ I         834 27.85         2.0 0.16            124            204 292 
                                                                                
