 2015  9 4 0803 43.8 L   6.858 -73.267126.5  RSN 11 0.4 1.7LRSN                1
 GAP=165        0.58       3.0     4.2  5.3  0.4142E+01  0.5863E+01 -0.1126E+01E
 Epicentro: ZAPATOCA - SANTANDER                                               3
 ACTION:UPD 15-10-28 16:24 OP:cam  STATUS:               ID:20150904080344dL   I
 OLDACT:DUP 15-09-04 19:11 OP:stll STATUS:               ID:20150904075750d    3
 2015-09-04-0757-47M.COL___349                                                 6
 STAT SP IPHASW D HRMM SECON CODA AMPLIT PERI AZIMU VELO AIN AR TRES W  DIS CAZ7
 BAR2 EZ IP     D  8 4  1.43                             166    0.0810 30.9 162 
 BAR2 EZ ES        8 4 15.06                             166    0.0410 30.9 162 
 BAR2 EZ I         8 4 15.73         9.3 0.28            166           30.9 162 
 BRR  HZ EP        8 4  1.82                             154   -0.2510 56.4 299 
 BRR  HN ES        8 4 16.22                             154   -0.0710 56.4 299 
 BRR  HZ I         8 4 16.63         7.2 0.12            146           56.4 299 
 RUS  HE ES        8 4 24.20                             137    0.1910  109 169 
 PTB  HZ EP   2    8 4  8.72                             130    0.53 5  136 255 
 PTB  HN ES   2    8 4 27.16                             130   -0.03 5  136 255 
 PTB  HZ I         8 4 29.03         4.6 0.20            122            136 255 
 OCA  HZ EP   4    8 4  6.74                             126   -3.23 0  153 358 
 OCA  HN ES   2    8 4 30.23                             126   -0.14 5  153 358 
 OCA  HZ I         8 4 36.83        12.6 0.38            118            153 358 
 SPBC HN ES   2    8 4 30.74                             125   -0.83 5  160 214 
 SPBC HZ I         8 4 36.94         4.8 0.14            118            160 214 
 ZAR  HZ EP   2    8 4 12.80                             120   -0.71 4  189 292 
 ZAR  HN ES   2    8 4 37.18                             120    0.51 4  189 292 
 ZAR  HZ I         8 4 39.69         6.3 0.30            112            189 292 
 SML  HE ES   2    8 4 45.45                             114    0.45 4  232 338 
 SML  HZ I         8 4 51.30         8.1 0.10            107            232 338 
 HEL  HZ EP   9    8 4 23.89                             112    2.03 0  261 254 
 HEL  HE ES   2    8 4 53.00                                   -0.55 4  261 254 
 HEL  HZ I         8 4 55.73         2.7 0.26            105            261 254 
 URE  HN ES   4    8 4 50.06                             111   -2.32 0  269 292 
 URE  HZ I         8 5  0.91         2.8 0.20            104            269 292 
 GUY2CHN ES   2    8 4 59.13                             109    0.55 4  294 232 
 GUY2CHZ I         8 5  5.11         1.7 0.42                           294 232 
                                                                                
