 2014 12 4 0520 12.1 L   6.566 -73.560109.9  RSN 15 0.5 2.1LRSN                1
 GAP= 59        1.19       2.5     3.3  5.8 -0.2295E+01  0.7195E+01 -0.1365E+01E
 Epicentro: EL CARMEN - SANTANDER                                              3
 ACTION:UPD 15-02-10 17:00 OP:nd   STATUS:               ID:20141204052012 L   I
 OLDACT:REG 14-12-04 12:51 OP:carl STATUS:               ID:20141204051747     3
 2014-12-04-0517-47M.COL___300                                                 6
 STAT SP IPHASW D HRMM SECON CODA AMPLIT PERI AZIMU VELO AIN AR TRES W  DIS CAZ7
 BAR2 SZ EP        520 28.42                             158    0.3510 41.8  86 
 BAR2 SZ ES        520 40.91                             158    0.3510 41.8  86 
 BAR2 SZ I         520 42.51       101.6 0.44            163           41.8  86 
 BRR  HZ EP        520 29.17                             148    0.3210 62.1 344 
 BRR  HN ES        520 42.59                             148    0.6410 62.1 344 
 RUS  HZ EP        520 31.64                             138   -0.0510 91.3 145 
 RUS  HN ES        520 47.16                             138    0.1510 91.3 145 
 RUS  HZ I         520 48.59        12.3 0.32            142           91.3 145 
 PTB  HZ IP     C  520 31.22                             135   -0.4910 99.2 268 
 PTB  HN ES        520 46.26                             135   -0.7810 99.2 268 
 PTB  HZ I         520 49.58        25.2 0.16            135           99.2 268 
 SPBC HZ EP        520 33.34                             130    0.0210  116 209 
 SPBC HN ES        520 49.56                             130   -0.3510  116 209 
 SPBC HZ I         520 55.43        32.8 0.26            132            116 209 
 PAM  SZ EP        520 35.02                             127    0.0310  128  48 
 PAM  SN ES        520 52.38                             127   -0.5110  128  48 
 PAM  SZ I         520 53.95         7.3 0.48            131            128  48 
 ZAR  HZ EP        520 40.02                             117    0.64 9  176 306 
 ZAR  HN ES   4    521  2.76                             117    2.07 0  176 306 
 ZAR  HZ I         521  4.84        27.6 0.36            119            176 306 
 NOR  HZ EP        520 40.11                             116   -0.01 9  183 233 
 NOR  HN ES        521  1.44                             116   -0.57 9  183 233 
 NOR  HZ I         521  5.51        11.1 0.16            118            183 233 
 OCA  HZ EP        520 40.69                             116   -0.03 9  187   8 
 OCA  HN ES        521  3.22                             116    0.13 9  187   8 
 OCA  HZ I         521  7.92         8.6 0.18            118            187   8 
 CHI  HZ EP        520 43.85                             112   -0.35 8  215 185 
 CHI  HN ES        521  9.14                             112   -0.13 8  215 185 
 HEL  HZ EP        520 45.99                             111    1.08 8  222 259 
 HEL  HN ES        521 11.15                             111    0.62 8  222 259 
 HEL  HZ I         521 16.51         7.4 0.22            113            222 259 
 GUY2CHZ EP        520 48.40                             109    0.24 8  249 233 
 GUY2CHN ES        521 16.19                             109   -0.13 8  249 233 
 GUY2CHZ I         521 26.64         6.3 0.36                           249 233 
 SML  HZ EP        520 48.12                             108    0.04 8  253 347 
 SML  HN ES        521 14.79                             108   -1.39 8  253 347 
 SML  HZ I         521 21.57        16.1 0.10            110            253 347 
 TOL  SZ EP        520 53.26                             105    0.09 7  293 222 
 TOL  SN ES        521 25.39                             105    0.16 7  293 222 
 TOL  SZ I         521 30.73         8.7 0.34            107            293 222 
 MON  HZ EP        520 57.14                             102   -0.83 7  337 317 
 MON  HN ES        521 34.37                             102    0.59 7  337 317 
 MON  HZ I         521 35.00         3.8 0.42            104            337 317 
                                                                                
