 2015  5 4 0843  6.6 L   6.472 -73.543113.7  RSN  5 0.3 1.6LRSN                1
 GAP=166        0.82       4.2     5.4  7.0  0.1151E+02  0.1255E+02 -0.2900E+01E
 Epicentro: SANTA HELENA DEL OPON - SANTANDER                                  3
 ACTION:UPD 15-09-10 22:01 OP:cam  STATUS:               ID:20150504084306 L   I
 OLDACT:REG 15-05-04 13:50 OP:drio STATUS:               ID:20150504083748     3
 2015-05-04-0837-48M.COL___274                                                 6
 STAT SP IPHASW D HRMM SECON CODA AMPLIT PERI AZIMU VELO AIN AR TRES W  DIS CAZ7
 BAR2 EZ EP        843 23.42                             158    0.3210 42.1  72 
 BAR2 EZ ES        843 35.84                             158   -0.0910 42.1  72 
 BRR  HZ EP   1    843 24.22                             145   -0.31 7 72.7 345 
 BRR  HE ES        843 38.11                             145   -0.3810 72.7 345 
 BRR  HZ I         843 44.60         4.8 0.50            144           72.7 345 
 RUS  HZ EP   1    843 25.20                             142   -0.69 7 81.8 141 
 RUS  HN ES        843 41.31                             142    0.4110 81.8 141 
 ZAR  HZ EP   1    843 35.05                             117    0.04 7  184 308 
 ZAR  HE ES        843 57.35                             117    0.20 9  184 308 
 ZAR  HZ I         843 59.97         6.4 0.56            119            184 308 
 OCA  HZ EP   1    843 36.34                             115   -0.28 6  197   7 
 OCA  HE ES        844  0.35                             115    0.34 9  197   7 
 OCA  HZ I         844  5.16         6.4 0.22            117            197   7 
                                                                                
