 2015  3 4 0011 11.0 L   6.722 -73.192150.0  RSN  5 0.3 1.3LRSN                1
 GAP=226        0.56       3.9     4.6  5.9  0.4984E+01 -0.5698E+01  0.3799E+01E
 Epicentro: VILLANUEVA - SANTANDER                                             3
 ACTION:UPD 15-04-30 16:22 OP:nd   STATUS:               ID:20150304001111 L   I
 OLDACT:REG 15-03-04 12:17 OP:spq  STATUS:               ID:20150304000750     3
 2015-03-04-0007-50M.COL___290                                                 6
 STAT SP IPHASW D HRMM SECON CODA AMPLIT PERI AZIMU VELO AIN AR TRES W  DIS CAZ7
 BRR  HZ EP        011 32.62                             153   -0.0210 71.6 307 
 BRR  HN ES        011 49.71                             153    0.2010 71.6 307 
 BRR  HZ I         011 52.44         5.9 0.40            150           71.6 307 
 RUS  HZ EP        011 34.60                             147   -0.0210 92.5 173 
 RUS  HE ES   1    011 52.78                             147   -0.26 7 92.5 173 
 RUS  HZ I         011 53.94         1.0 0.38            146           92.5 173 
 PTB  HZ EP   1    011 37.35                             134   -0.41 7  141 262 
 PTB  HN ES        011 58.48                             134   -0.14 9  141 262 
 PTB  HZ I         012  5.23         2.1 0.25            131            141 262 
 SPBC HN ES   1    012  0.98                             132    0.28 7  153 220 
 SPBC HZ I         012  5.71         5.0 0.35            130            153 220 
 CHI  HZ EP   1    011 48.40                             119    0.49 6  239 195 
                                                                                
