 2012  8 4 0427  2.1 L   6.739 -73.174153.6  RSN  4 0.4 0.9LRSN                1
 GAP=229        0.71       8.7     7.7  8.8  0.3611E+02  0.4209E+01  0.9200E+01E
 Epicentro: VILLANUEVA - SANTANDER                                             3
 ACTION:UPD 12-09-10 11:54 OP:ep   STATUS:               ID:20120804042702 L   I
 2012-08-04-0420-00M.COL___215                                                 6
 STAT SP IPHASW D HRMM SECON CODA AMPLIT PERI AZIMU VELO AIN AR TRES W  DIS CAZ7
 BAR2 SZ EP   1    427 21.93                             174   -0.62 7 16.3 183 
 BAR2 SZ ES   2    427 38.61                             174    0.10 5 16.3 183 
 BRR  HN ES   1    427 41.57                             154    0.23 7 72.0 304 
 RUS  HZ EP   1    427 26.78                             147    0.59 7 94.1 174 
 RUS  HN ES   1    427 44.84                             147   -0.14 7 94.1 174 
 RUS  HZ I         427 46.18         1.3 0.21                          94.1 174 
 PTB  HZ EP   1    427 29.32                             135   -0.02 7  144 261 
 PTB  HN ES   1    427 50.49                             135   -0.10 7  144 261 
 PTB  HZ I         427 51.90         1.1 0.16                           144 261 
                                                                                
