 2013  3 4 0650 22.8 L   6.783 -73.118153.2  RSN  6 0.3 1.7LRSN                1
 GAP=141        0.67       3.5     4.5  5.7  0.2185E+01  0.2252E-01 -0.1950E+01E
 Epicentro: LOS SANTOS - SANTANDER                                             3
 ACTION:UPD 13-04-09 13:59 OP:ep   STATUS:               ID:20130304065022 L   I
 2013-03-04-0650-00M.COL___228                                                 6
 STAT SP IPHASW D HRMM SECON CODA AMPLIT PERI AZIMU VELO AIN AR TRES W  DIS CAZ7
 BAR2 SZ IP        650 43.33                             171    0.0210 22.3 199 
 BAR2 SZ I         650 43.58         9.3 0.18            172           22.3 199 
 BRR  HZ EP        650 45.29                             153    0.3310 74.8 299 
 BRR  HN ES        651  2.35                             153    0.1110 74.8 299 
 BRR  HN I         651  3.36        15.8 0.22            154           74.8 299 
 PAM  SZ EP   1    650 46.22                             152    0.43 7 76.9  37 
 PAM  SN ES   1    651  3.66                             152   -0.06 7 76.9  37 
 PAM  SZ I         651  5.61         6.9 0.62            153           76.9  37 
 RUS  HZ EP        650 47.13                             146   -0.0210 98.5 178 
 RUS  HE ES   1    651  5.64                             146   -0.50 7 98.5 178 
 RUS  HE I         651  7.22         4.7 0.20            147           98.5 178 
 PTB  HZ EP   1    650 50.40                             133   -0.22 7  150 260 
 PTB  HE ES   1    651 12.55                             133    0.23 7  150 260 
 SML  HZ EP        650 59.99                             119   -0.19 8  247 335 
 SML  HE ES   1    651 28.59                             119   -0.74 6  247 335 
                                                                                
