 2015  7 4 0039 49.5 L   6.836 -73.139141.7  RSN 14 0.4 2.1LRSN                1
 GAP=136        0.87       2.4     4.0  6.8 -0.1065E+01  0.1391E+02  0.1694E+01E
 Epicentro: LOS SANTOS - SANTANDER                                             3
 ACTION:UPD 15-09-08 21:46 OP:cam  STATUS:               ID:20150704003949 L   I
 OLDACT:UP  15-07-04 18:45 OP:mh   STATUS:               ID:20150704003746     3
 OLDACT:UP  15-07-04 15:29 OP:mh   STATUS:               ID:20150704003746     3
 OLDACT:UP  15-07-04 15:28 OP:mh   STATUS:               ID:20150704003746     3
 OLDACT:UP  15-07-04 15:27 OP:mh   STATUS:               ID:20150704003746     3
 OLDACT:UP  15-07-04 15:27 OP:mh   STATUS:               ID:20150704003746     3
 OLDACT:REG 15-07-04 13:27 OP:mh   STATUS:               ID:20150704003746     3
 2015-07-04-0037-46M.COL___334                                                 6
 STAT SP IPHASW D HRMM SECON CODA AMPLIT PERI AZIMU VELO AIN AR TRES W  DIS CAZ7
 BAR2 EZ EP        040  8.75                             169    0.0310 27.4 190 
 BAR2 EZ I         040 24.64        32.7 0.14            170           27.4 190 
 PAM  EZ EP        040 11.72                             151    0.6610 73.8  41 
 PAM  EN ES        040 28.39                             151    0.5110 73.8  41 
 PAM  EZ I         040 31.38        12.6 0.44            154           73.8  41 
 RUS  HZ EP        040 12.87                             142   -0.2610  105 177 
 RUS  HN ES        040 31.38                             142   -0.2010  105 177 
 RUS  HZ I         040 34.63         7.2 0.20            145            105 177 
 OCA  HZ EP        040 16.89                             129   -0.23 9  156 353 
 OCA  HN ES        040 38.10                             129   -0.57 9  156 353 
 OCA  HZ I         040 42.76        23.3 0.24            132            156 353 
 ZAR  HZ EP   1    040 22.08                             122    0.49 6  203 291 
 ZAR  HN ES        040 46.76                             122    0.13 9  203 291 
 ZAR  HZ I         040 52.94        11.5 0.38            124            203 291 
 NOR  HZ EP   1    040 25.13                             117   -0.18 6  238 234 
 NOR  HN ES        040 53.02                             117   -0.22 8  238 234 
 NOR  HZ I         040 55.46        11.3 0.28            120            238 234 
 SML  HZ EP   1    040 25.34                             117   -0.19 6  240 335 
 SML  HN ES        040 53.01                             117   -0.63 8  240 335 
 SML  HZ I         041  2.94         8.9 0.10            119            240 335 
 CHI  HZ EP   1    040 26.90                             116   -0.51 6  253 195 
 CHI  HN ES   1    040 56.81                             116   -0.18 6  253 195 
 HEL  HZ EP   1    040 30.40                             114    0.71 6  274 255 
 HEL  HN ES   1    041  1.50                             114    0.45 6  274 255 
 HEL  HZ I         041  7.01         7.4 0.34            116            274 255 
 URE  HZ EP   1    040 30.95                             113    0.67 6  283 291 
 URE  HN ES   4    040 59.66                             113   -2.43 0  283 291 
 URE  HZ I         041  5.16         6.1 0.18            115            283 291 
 GUY2CHZ EP        040 33.73                             111    0.48 7  304 234 
 GUY2CHN ES        041  7.18                             111   -0.20 7  304 234 
 GUY2CHZ I         041 15.79         4.8 0.24                           304 234 
 MON  HZ EP   4    040 41.78                             108    3.66 0  352 308 
 MON  HN ES   4    041 14.04                             108   -2.01 0  352 308 
 MON  HZ I         041 15.24         2.2 0.22            110            352 308 
 PRA  HZ EP        040 42.89                             106   -0.43 6  396 209 
 PRA  HN ES        041 25.24                             106   -0.08 6  396 209 
 PRA  HZ I         041 31.54         6.7 0.28            108            396 209 
 ORTC HN ES   4    041 26.27                             105    0.28 0  399 216 
 ORTC HZ I         041 31.32         3.1 0.62            108            399 216 
                                                                                
