 2017  9 4 0314 42.9 L   6.743 -73.090141.9  RSN  5 0.1 1.3LRSN                1
 GAP=178        0.45       3.4     3.7  4.2 -0.7398E+01  0.3282E+00  0.6596E+00E
 Epicentro: JORDAN - SANTANDER                                                 3
 ACTION:UPD 17-10-05 19:08 OP:rebc STATUS:               ID:20170904031442 L   I
 OLDACT:UP  17-09-04 14:51 OP:dnl  STATUS:               ID:20170904030741     3
 OLDACT:UP  17-09-04 14:51 OP:dnl  STATUS:               ID:20170904030741     3
 OLDACT:REG 17-09-04 12:24 OP:dnl  STATUS:               ID:20170904030741     3
 2017-09-04-0308-00M.COL___417                                                 6
 STAT SP IPHASW D HRMM SECON CODA AMPLIT PERI AZIMU VELO AIN AR TRES W  DIS CAZ7
 BAR2 EZ EP   2    315  2.03                             172    0.05 5 19.5 212 
 BAR2 EZ ES        315 16.78                             172   -0.0910 19.5 212 
 BAR2 EZ I         315 18.33         4.4 0.18            168           19.5 212 
 PAM  EZ EP        315  4.97                             150    0.1910 78.8  33 
 PAM  EE ES        315 21.82                             150   -0.0410 78.8  33 
 PAM  EZ I         315 22.50         2.3 0.30            149           78.8  33 
 BRR  HZ EP        315  3.87                             149   -0.2610 79.7 300 
 BRR  HN ES        315 20.84                             149    0.1410 79.7 300 
 BRR  HZ I         315 21.79         3.7 0.22            143           79.7 300 
 SPBC HZ EP   4    315 12.71                             128    1.69 0  162 222 
 SPBC HE ES        315 33.03                             128    0.07 9  162 222 
 SPBC HZ I         315 34.46         3.5 0.10            127            162 222 
 ZAR  HZ EP   4    315 13.29                             120   -2.65 0  212 293 
 ZAR  HE ES   4    315 44.42                             120    2.71 0  212 293 
 ZAR  HZ I         315 48.35         2.5 0.26            118            212 293 
                                                                                
