 2016 12 4 0356 52.5 L   6.742 -73.145146.7  RSN  6 0.3 1.8LRSN                1
 GAP=158        0.85       5.4     4.0  5.8 -0.7269E+01  0.6052E+01  0.4020E+01E
 Epicentro: LOS SANTOS - SANTANDER                                             3
 ACTION:UPD 17-01-11 20:12 OP:rebc STATUS:               ID:20161204035652 L   I
 OLDACT:REG 16-12-04 12:38 OP:dani STATUS:               ID:20161204034739     3
 2016-12-04-0348-00M.COL___349                                                 6
 STAT SP IPHASW D HRMM SECON CODA AMPLIT PERI AZIMU VELO AIN AR TRES W  DIS CAZ7
 BAR2 EZ EP     C  357 12.37                             173    0.2610 17.1 194 
 BAR2 EZ ES        357 27.22                             173   -0.2110 17.1 194 
 BAR2 EZ I         357 28.66        12.6 0.24            173           17.1 194 
 BRR  HZ EP        357 14.16                             152    0.2410 74.6 303 
 BRR  HN ES        357 31.13                             152    0.4810 74.6 303 
 BRR  HZ I         357 33.64        14.5 0.14            148           74.6 303 
 PAM  EZ EP        357 15.34                             149    0.2510 82.4  37 
 PAM  EE ES        357 32.36                             149   -0.3810 82.4  37 
 PAM  EZ I         357 34.07         4.8 0.38            151           82.4  37 
 PTB  HZ EP        357 19.19                             132   -0.24 9  147 261 
 PTB  HN ES        357 40.16                             132   -0.29 9  147 261 
 PTB  HZ I         357 43.47         6.6 0.12            132            147 261 
 ZAR  HZ EP        357 25.32                             122    0.07 8  207 294 
 ZAR  HE ES        357 50.54                             122   -0.27 8  207 294 
 ZAR  HZ I         357 57.62         8.5 0.18            122            207 294 
 NOR  HZ EP        357 27.32                             119   -0.55 8  231 236 
 NOR  HE ES        357 55.97                             119    0.48 8  231 236 
 NOR  HZ I         357 58.80         4.8 0.34            120            231 236 
                                                                                
