 2017  5 4 0752  1.3 L   6.481 -73.668 99.6  RSN  6 0.3 1.2LRSN                1
 GAP=139        1.06       3.4     4.3  8.0  0.2109E+01  0.7023E+01  0.1258E+01E
 Epicentro: SANTA HELENA DEL OPON - SANTANDER                                  3
 ACTION:UPD 17-06-16 13:32 OP:jn   STATUS:               ID:20170504075201 L   I
 OLDACT:UP  17-05-04 18:23 OP:edw  STATUS:               ID:20170504074747d    3
 OLDACT:DUP 17-05-04 18:20 OP:edw  STATUS:               ID:20170504074747d    3
 2017-05-04-0748-00M.COL___371                                                 6
 STAT SP IPHASW D HRMM SECON CODA AMPLIT PERI AZIMU VELO AIN AR TRES W  DIS CAZ7
 BRR  HZ EP        752 17.20                             142   -0.4010 69.4 356 
 BRR  HN ES        752 30.59                             142    0.2910 69.4 356 
 BRR  HZ I         752 34.43         6.7 0.38            147           69.4 356 
 PTB  HZ EP   9    752 17.72                             135   -1.37 0 87.5 274 
 PTB  HN ES        752 30.72                             135   -0.8510 87.5 274 
 PTB  HZ I         752 31.29         2.2 0.26            139           87.5 274 
 RUS  HZ EP        752 20.39                             134    0.2710 91.8 135 
 RUS  HN ES        752 34.64                             134   -0.1310 91.8 135 
 RUS  HZ I         752 37.78         3.8 0.34            136           91.8 135 
 SPBC HZ EP        752 19.81                             130   -0.6910  102 206 
 SPBC HN ES        752 35.67                             130    0.2210  102 206 
 SPBC HZ I         752 39.85         4.7 0.10            133            102 206 
 NOR  HZ EP        752 27.56                             116    0.37 9  167 233 
 NOR  HN ES        752 47.37                             116    0.02 9  167 233 
 NOR  HZ I         752 51.97         1.8 0.30            118            167 233 
 ZAR  HZ EP        752 27.85                             115    0.14 9  173 310 
 ZAR  HN ES        752 48.29                             115   -0.00 9  173 310 
                                                                                
