 2010  6 4 0316 45.1 L   6.819 -73.238140.4  RSN  5 0.1 1.9LRSN                1
 GAP=190        0.36       3.8    12.6  4.7 -0.2663E+02  0.6084E+01 -0.6950E+01E
 Epicentro: ZAPATOCA - SANTANDER                                               3
 ACTION:UP  10-08-24 10:08 OP:vdl  STATUS:               ID:20100604031645 L   I
 2010-06-04-0313-19S.COL___109                                                 6
 STAT SP IPHASW D HRMM SECON CODA AMPLIT PERI AZIMU VELO SNR AR TRES W  DIS CAZ7
 BAR2 SZ EP   1    317  4.15                             169     0.0 8   26 167 
 BAR2 SZ ES   1    317 18.88                             169    -0.1 8   26 167 
 GIR2 SZ EP   2    317  4.32                             168     0.3 5   29  10 
 GUE  SZ IP        317  9.17                             138    -0.210  117  17 
 GRA  SZ IP        317 10.03                             135     0.110  127  22 
 GRA  SZ ES   1    317 29.46                             135     0.1 7  127  22 
 OCA  SZ ES   2    317 34.21                             129     0.0 5  157 357 
 OCA  SZ I         317 39.07         9.3 0.18                           157 357 
                                                                                
