 2013  6 4 0106 59.8 L   6.778 -73.173153.8  RSN  5 0.5 1.9LRSN                1
 GAP=207        0.88       6.5     9.7  9.3  0.4529E+00 -0.1880E+02 -0.8972E+01E
 Epicentro: LOS SANTOS - SANTANDER                                             3
 ACTION:UPD 14-01-08 09:52 OP:ep   STATUS:               ID:20130604010659 L   I
 2013-06-04-0100-00M.COL___257                                                 6
 STAT SP IPHASW D HRMM SECON CODA AMPLIT PERI AZIMU VELO AIN AR TRES W  DIS CAZ7
 BAR2 SZ EP   1    1 7 20.13                             172   -0.25 7 20.6 183 
 BAR2 SZ I         1 7 36.26         5.6 0.20            163           20.6 183 
 BRR  HZ EP   1    1 7 22.29                             155    0.51 7 69.8 301 
 BRR  HN ES        1 7 39.14                             155    0.2510 69.8 301 
 BRR  HN I         1 7 40.09        20.9 0.20            161           69.8 301 
 PTB  HZ EP   1    1 7 26.89                             135   -0.27 7  144 260 
 PTB  HN ES   1    1 7 47.83                             135   -0.65 7  144 260 
 PTB  HN I         1 7 48.71         6.9 0.32            136            144 260 
 ZAR  HZ EP   1    1 7 33.13                             125    0.50 6  202 293 
 ZAR  HN ES   2    1 7 58.99                             125    0.79 4  202 293 
 ZAR  HN I         1 8  6.81        11.4 0.42            125            202 293 
 SML  HZ EP   1    1 7 37.25                             119    0.23 6  245 336 
 SML  HN ES        1 8  5.44                             119   -0.59 8  245 336 
 SML  HN I         1 8 11.04         9.3 0.10            117            245 336 
                                                                                
