 2017  5 4 0516 31.7 L   5.742 -73.914113.2  RSN 24 0.5 2.2LRSN                1
 GAP= 51        1.39       3.1     3.3  5.9  0.8488E+00  0.1251E+01 -0.9396E+00E
 Epicentro: ALBANIA - SANTANDER                                                3
 ACTION:UPD 17-06-16 13:32 OP:jn   STATUS:               ID:20170504051631 L   I
 OLDACT:UP  17-05-04 17:29 OP:edw  STATUS:               ID:20170504050745d    3
 OLDACT:UP  17-05-04 17:28 OP:edw  STATUS:               ID:20170504050745d    3
 OLDACT:UP  17-05-04 17:26 OP:edw  STATUS:               ID:20170504050745d    3
 OLDACT:DUP 17-05-04 17:08 OP:edw  STATUS:               ID:20170504050745d    3
 2017-05-04-0508-00M.COL___371                                                 6
 STAT SP IPHASW D HRMM SECON CODA AMPLIT PERI AZIMU VELO AIN AR TRES W  DIS CAZ7
 SPBC HZ IP     D  516 46.75                             169   -0.3610 20.1 240 
 SPBC HN ES        516 58.29                             169   -0.8610 20.1 240 
 SPBC HZ I         516 58.93        76.5 0.14            169           20.1 240 
 TABC EZ IP     D  516 52.02                             140    0.7810 87.0 202 
 TABC EZ ES        517  6.61                             140    0.1110 87.0 202 
 TABC EZ I         517 11.16        49.2 0.50            138           87.0 202 
 RUS  HZ IP     C  516 52.10                             137    0.2910 93.5  80 
 RUS  HN ES        517  7.55                             137    0.0510 93.5  80 
 RUS  HZ I         517 11.17        24.1 0.58            136           93.5  80 
 PTB  HZ EP   9 D  516 51.31                             133   -0.96 0  107 326 
 PTB  HN ES        517  6.67                             134   -0.6910  107 326 
 PTB  HZ I         517  8.48        12.7 0.36            133            107 326 
 NOR  HZ EP   9    516 51.72                             133   -0.69 0  108 259 
 NOR  HN ES        517  6.79                             134   -1.0910  108 259 
 NOR  HZ I         517  9.47        36.2 0.18            132            108 259 
 ROSC BZ EP        516 53.47                             132    0.4410  109 204 
 ROSC BE ES   4    517 10.75                             132    1.06 0  109 204 
 ROSC BZ I         517 15.05        30.6 0.35            131            109 204 
 CHI  HZ EP   9    516 52.74                             128   -1.73 0  125 171 
 CHI  HE ES        517 11.71                             129    1.2010  125 171 
 CHI  HZ I         517 15.70        14.7 0.36            126            125 171 
 BRR  HZ IP     C  516 57.03                             122    0.34 9  153   8 
 BRR  HN ES        517 16.77                             122    0.58 9  153   8 
 BRR  HZ I         517 19.63        53.5 0.18            121            153   8 
 YPLC HZ EP   4    517  0.20                             118    1.13 0  174 103 
 YPLC HN ES   4    517 22.73                             118    2.31 0  174 103 
 YPLC HZ I         517 23.41        66.9 0.26            116            174 103 
 VIL  EZ EP        516 59.85                             117   -0.12 9  182 172 
 VIL  EN ES        517 22.44                             117    0.41 9  182 172 
 VIL  EZ I         517 24.72        40.6 0.36            115            182 172 
 HEL  HZ EP     D  517  1.19                             117    0.53 9  185 286 
 HEL  HN ES        517 22.82                             117   -0.44 9  185 286 
 HEL  HZ I         517 27.33        10.3 0.36            116            185 286 
 ELA  HZ EP        517  1.36                             116   -0.15 9  191 239 
 ELA  HE ES        517 25.07                             116    0.29 9  191 239 
 ELA  HZ I         517 29.98        15.8 0.36            115            191 239 
 ANIL HZ EP        517  4.02                             112    0.15 8  215 230 
 ANIL HE ES   4    517 29.76                             112    0.78 0  215 230 
 ANIL HZ I         517 30.58        40.7 0.24            112            215 230 
 ZAR  HZ EP        517  3.57                             112   -0.44 8  220 332 
 ZAR  HN ES        517 28.54                             112   -0.68 8  220 332 
 ZAR  HZ I         517 35.82        16.1 0.36            111            220 332 
 PAM  EZ EP     D  517  5.51                             112    0.66 8  222  37 
 PAM  EN ES   4    517 33.11                             112    2.39 0  222  37 
 PAM  EZ I         517 38.89         7.6 0.24            111            222  37 
 CBOC HZ EP        517  5.91                             111    0.23 8  233 273 
 CBOC HN ES        517 32.16                             111   -0.04 8  233 273 
 CBOC HZ I         517 35.10         5.8 0.66            110            233 273 
 ORTC HZ EP        517  7.40                             109   -0.19 8  251 216 
 ORTC HN ES   4    517 36.96                             109    1.36 0  251 216 
 ORTC HZ I         517 38.94        13.2 0.42            108            251 216 
 PTGC HZ EP        517  8.54                             108   -0.18 8  261 131 
 PTGC HN ES        517 36.82                             108   -0.78 8  261 131 
 PTGC HZ I         517 47.50         5.2 0.18            106            261 131 
 PAL  HZ EP   4    517 12.12                             106    1.30 0  278 251 
 PAL  HN ES   4    517 43.00                             106    1.65 0  278 251 
 PAL  HZ I         517 45.76         6.0 0.42            106            278 251 
 DBB  EZ EP   4    517 12.96                             105    0.71 0  290 299 
 DBB  EN ES        517 43.90                             105    0.00 7  290 299 
 MACC HZ EP        517 23.44                              99   -1.51 6  398 179 
 MACC HN ES   4    518  2.88                              99   -3.61 0  398 179 
 MACC HZ I         518  4.70         4.2 0.14             99            398 179 
 GARC HZ EP   9    517 27.16                              98   -2.01 0  430 204 
 GARC HN ES        518 11.26                              99   -0.74 5  430 204 
 GARC HZ I         518 16.54         7.9 0.28             97            430 204 
 SJC  HZ EP        517 33.89                              97   -1.04 5  480 343 
 SJC  HN ES   4    518 20.16                              97   -4.10 0  480 343 
 SJC  HZ I         518 21.99         4.4 0.24             96            480 343 
 FLO2 HZ EP        517 36.45                              96   -0.70 4  499 203 
 FLO2 HZ I         518 18.27         2.7 0.66             95            499 203 
                                                                                
