 2011  2 4 0739 50.4 L   6.792 -73.141137.4  RSN  7 0.4 1.3LRSN                1
 GAP=159        0.79       5.3    12.5 11.8 -0.3371E+02  0.9436E+01  0.5784E+01E
 Epicentro: LOS SANTOS - SANTANDER                                             3
 ACTION:UP  11-03-28 15:05 OP:jfem STATUS:               ID:20110204073950 L   I
 2011-02-04-0737-29S.COL___138                                                 6
 STAT SP IPHASW D HRMM SECON CODA AMPLIT PERI AZIMU VELO SNR AR TRES W  DIS CAZ7
 BTL  SZ EP   2    740  9.09                             171     0.1 5   20 315 
 BAR2 SZ EP   1    740  8.88                             170    -0.1 7   23 192 
 BAR2 SZ ES   2    740 23.42                             170    -0.1 5   23 192 
 BAR2 SZ I         740 25.23         4.8 0.21                            23 192 
 RUS  HZ EP   1    740 12.99                             142    -0.3 7  100 176 
 RUS  HZ I         740 14.16         1.8 0.17                           100 176 
 GRA  SZ EP   1    740 15.75                             134     0.8 7  126  17 
 GRA  SZ ES   2    740 33.77                             134    -0.4 5  126  17 
 GRA  SZ I         740 38.07         2.7 0.38                           126  17 
 OCA  SZ EP   2    740 17.20                             127    -1.0 5  161 353 
 OCA  SZ ES   2    740 39.86                             127     0.0 5  161 353 
 OCA  SZ I         740 49.51         4.1 0.46                           161 353 
 NOR  SN ES   2    740 53.33                             116     0.2 4  235 235 
 CHI  HZ EP   2    740 27.48                             115    -0.1 4  248 195 
 CHI  HN ES   2    740 56.95                             115     0.4 4  248 195 
 CHI  HZ I         741  3.39         1.1 0.89                           248 195 
                                                                                
