 2011  3 4 0840  1.6 L   7.649 -73.223136.7  RSN  4 0.3 1.4LRSN                1
 GAP=173        0.63       4.6    13.1  9.8 -0.2133E+01  0.5257E+02  0.1341E+02E
 Epicentro: EL PLAYON - SANTANDER                                              3
 ACTION:UP  11-06-16 14:31 OP:jfem STATUS:               ID:20110304084001 L   I
 2011-03-04-0837-11S.COL___136                                                 6
 STAT SP IPHASW D HRMM SECON CODA AMPLIT PERI AZIMU VELO SNR AR TRES W  DIS CAZ7
 GRA  SZ EP        840 20.92                             158    -0.110   53  61 
 GRA  SZ ES   1    840 36.22                             158     0.0 7   53  61 
 GRA  SZ I         840 40.45         8.6 0.42                            53  61 
 OCA  SZ EP   1    840 22.03                             153     0.4 7   66 351 
 OCA  SZ ES   2    840 37.07                             153    -0.3 5   66 351 
 OCA  SZ I         840 41.03         5.8 0.27                            66 351 
 BAR2 SZ EP   1    840 25.15                             137    -0.2 7  117 178 
 BAR2 SZ I         840 26.96         5.8 0.66                           117 178 
 BAR2 SZ ES   2    840 43.70                             137    -0.3 5  117 178 
 RUS  HZ EP   3    840 32.60                             122    -0.5 2  195 175 
 RUS  HE ES   2    840 58.46                             122     0.7 4  195 175 
 RUS  HZ I         840 58.72         0.8 0.29                           195 175 
                                                                                
