 2014  3 4 0055  2.3 L   6.079 -73.717114.6  RSN 23 0.4 2.7LRSN                1
 GAP= 74        1.03       2.2     2.2  4.7 -0.1307E+01  0.1977E+01 -0.1212E+01E
 Epicentro: BOLIVAR - SANTANDER                                                3
 2014-03-04-0050-45M.COL___234                                                 6
 OLDACT:REG 14-03-04 09:17 OP:nd   STATUS:               ID:20140304005045     3
 ACTION:UPD 14-04-09 23:14 OP:nd   STATUS:               ID:20140304005502 L   I
 OLDACT:UP  14-03-04 11:22 OP:nd   STATUS:               ID:20140304005045     3
 STAT SP IPHASW D HRMM SECON CODA AMPLIT PERI AZIMU VELO AIN AR TRES W  DIS CAZ7
 SPBC HZ EP     C  055 19.91                             150    0.2010 61.4 220 
 SPBC HN ES        055 33.47                             150    0.2110 61.4 220 
 SPBC HZ I         055 35.55       300.1 0.16            146           61.4 220 
 RUS  HZ IP     D  055 21.15                             145    0.1110 73.1 106 
 RUS  HN ES        055 35.11                             145   -0.5310 73.1 106 
 RUS  HZ I         055 37.23       126.0 0.32            141           73.1 106 
 BAR2 SZ EP        055 21.81                             142    0.4910 82.0  46 
 BAR2 SZ ES        055 36.51                             142    0.3710 82.0  46 
 BAR2 SZ I         055 38.15      1067.6 0.30            135           82.0  46 
 PTB  HZ EP     C  055 21.73                             137   -0.4210 96.4 302 
 PTB  HN ES        055 37.02                             137   -0.6010 96.4 302 
 PTB  HZ I         055 40.46       119.1 0.26            130           96.4 302 
 BRR  HZ EP     C  055 24.07                             132    0.4210  114   0 
 BRR  HN ES        055 40.03                             132   -0.2410  114   0 
 BRR  HZ I         055 50.28        68.3 0.14            125            114   0 
 NOR  HZ EP        055 25.85                             125   -0.35 9  140 246 
 NOR  HN ES        055 45.05                             125    0.23 9  140 246 
 NOR  HZ I         055 47.37       144.2 0.32            121            140 246 
 ROSC BZ EP   2    055 27.93                             123    0.00 5  152 206 
 ROSC BN ES        055 48.85                             123    0.96 9  152 206 
 ROSC BZ I         055 55.11        80.8 0.30            119            152 206 
 CHI  HZ EP        055 28.44                             121   -0.32 9  160 181 
 CHI  HN ES   2    055 48.50                             121   -0.88 5  160 181 
 CHI  HZ I         055 51.86        76.0 0.38            117            160 181 
 PAM  SZ EP        055 31.10                             118    0.25 9  179  39 
 PAM  SN ES        055 53.42                             118    0.32 9  179  39 
 PAM  SZ I         055 57.75        36.4 0.42            114            179  39 
 HEL  HZ EP        055 33.19                             115    0.12 9  201 274 
 HEL  HN ES        055 56.46                             115   -0.59 9  201 274 
 HEL  HZ I         056  6.11        41.8 0.52            111            201 274 
 ZAR  HZ EP        055 32.55                             115   -0.05 9  201 321 
 ZAR  HN ES        055 56.33                             115    0.12 9  201 321 
 ZAR  HZ I         055 58.19       146.3 0.36            111            201 321 
 TAM  HZ EP        055 34.54                             113    0.12 8  217  79 
 TAM  HZ I         055 58.59        36.6 0.22            109            217  79 
 TAM  HN ES        055 58.66                             113   -0.78 8  217  79 
 OCA  HZ EP        055 37.97                             110    0.45 8  243  10 
 OCA  HN ES        056  5.23                             110    0.26 8  243  10 
 OCA  HZ I         056 13.90        47.5 0.38            107            243  10 
 CBOC HZ EP        055 39.48                             109    0.52 8  255 265 
 CBOC HN ES        056  7.43                             109   -0.10 8  255 265 
 CBOC HZ I         056 16.23        17.4 0.68            106            255 265 
 PTGC HZ EP   4    055 39.74                             107   -0.96 0  272 140 
 PTGC HN ES   4    056  8.60                             107   -2.03 0  272 140 
 PTGC HZ I         056 13.63        32.0 0.46            105            272 140 
 URE  HE ES   4    056  8.73                             107   -2.10 0  273 313 
 ORTC HZ EP        055 43.09                             106   -0.19 7  294 215 
 ORTC HN ES        056 15.00                             106   -0.23 7  294 215 
 ORTC HZ I         056 21.10        54.6 0.40            104            294 215 
 DBB  SZ EP        055 43.69                             106    0.26 7  295 291 
 DBB  SZ ES        056 15.99                             106    0.50 7  295 291 
 DBB  SZ I         056 19.30        66.6 0.36            104            295 291 
 SML  HZ EP        055 44.24                             105   -0.14 7  304 353 
 SML  HE ES        056 16.11                             105   -1.06 7  304 353 
 SML  HZ I         056 27.28        39.3 0.34            103            304 353 
 YOT  HZ EP        055 52.07                             101   -0.62 6  372 232 
 YOT  HN ES   4    056 36.45                             101    4.48 0  372 232 
 YOT  HZ I         056 45.02         2.8 0.54            101            372 232 
 COD  HZ EP   4    056  0.13                              99    0.97 0  428   4 
 COD  HN ES   4    056 45.69                              99    2.20 0  428   4 
 COD  HZ I         056 54.77         9.2 0.52             99            428   4 
 MACC HZ EP   4    055 57.99                              99   -2.12 0  435 182 
 MACC HN ES   4    056 41.40                              99   -3.79 0  435 182 
 MACC HZ I         056 43.52        13.6 0.24             99            435 182 
 SJC  HZ EP   4    056  0.53                              98   -1.66 0  452 339 
 SJC  HN ES   4    056 45.67                              98   -3.21 0  452 339 
 SJC  HZ I         056 49.24        12.1 0.68             98            452 339 
 SDV  BZ EP   4    056  3.24                              98   -0.15 0  461  48 
 SDV  BN ES   4    056 48.99                              98   -2.04 0  461  48 
 SDV  BZ I         056 57.78         4.4 0.25             98            461  48 
                                                                                
