 2013  1 4 0020 33.7 L   6.532 -74.021  2.8  RSN  4 0.2 1.6LRSN                1
 GAP=147        0.58       2.4     1.3  4.2 -0.5909E+00  0.4500E+00 -0.3765E+01E
 Epicentro: PUERTO PARRA - SANTANDER                                           3
 ACTION:UPD 13-02-15 09:11 OP:ep   STATUS:               ID:20130104002033 L   I
 2013-01-04-0019-37M.COL___205                                                 6
 STAT SP IPHASW D HRMM SECON CODA AMPLIT PERI AZIMU VELO AIN AR TRES W  DIS CAZ7
 PTB  HZ EP        020 41.56                              47   -0.2410 48.2 271 
 PTB  HN ES        020 48.22                              47    0.1110 48.2 271 
 PTB  HN I         020 48.44        73.9 0.10             90           48.2 271 
 BRR  HZ EP        020 45.26                              47   -0.1610 72.1  28 
 BRR  HN ES        020 54.70                              47    0.1610 72.1  28 
 BRR  HN I         020 55.27        21.2 0.30             90           72.1  28 
 BAR2 SZ EP        020 49.06                              47    0.2410 93.0  86 
 BAR2 SZ ES        021  0.33                              47   -0.2710 93.0  86 
 BAR2 SZ I         021  1.56        12.9 0.12             90           93.0  86 
 RUS  HZ EP        020 54.20                              47    0.1710  126 124 
 RUS  HN I         021 10.36         9.8 0.48             90            126 124 
                                                                                
