 2012  3 4 0622 30.8 L   6.728 -73.198148.8  RSN  4 0.1 1.6LRSN                1
 GAP=226        0.33       3.5     3.7  4.3  0.4783E+01  0.1271E+01 -0.2258E+01E
 ACTION:UP  12-03-31 23:16 OP:EP   STATUS:               ID:20120304062230 L   I
 2012-03-04-0620-00M.COL___191                                                 6
 STAT SP IPHASW D HRMM SECON CODA AMPLIT PERI AZIMU VELO SNR AR TRES W  DIS CAZ7
 BAR2 SZ EP   2    622 50.45                             174    -0.2 5   15 173 
 BAR2 SZ I         623  6.48         6.3 0.20                            15 173 
 BRR  HZ EP        622 52.34                             153     0.110   71 306 
 BRR  HZ I         622 52.81        11.7 0.03                            71 306 
 BRR  HN ES   1    623  8.98                             153     0.0 7   71 306 
 RUS  HE ES   1    623 12.75                             147     0.0 7   93 172 
 PTB  HZ EP        622 57.40                             134     0.0 9  141 262 
 PTB  HN ES   1    623 18.13                             134     0.0 7  141 262 
                                                                                
