 2010  2 4 0635 46.8 L   6.746 -72.886155.3  RSN  7 0.4 1.7LRSN                1
 GAP=209        0.95       5.8    20.0  9.3 -0.4274E+02  0.3758E+02 -0.2750E+01E
 Epicentro: SAN ANDRES - SANTANDER                                             3
 ACTION:UP  10-08-24 09:47 OP:vdl  STATUS:               ID:20100204063546 L   I
 2010-02-04-0635-15S.COL___097                                                 6
 STAT SP IPHASW D HRMM SECON CODA AMPLIT PERI AZIMU VELO SNR AR TRES W  DIS CAZ7
 BAR2 SZ EP        636  7.54                             166    -0.310   37 243 
 GIR2 SZ EP        636  8.91                             161     0.710   50 317 
 GIR2 SZ ES   1    636 24.75                             161    -0.1 7   50 317 
 RUS  BZ EP   1    636 10.92                             147    -0.3 7   97 193 
 RUS  BE ES   1    636 30.32                             147     0.0 7   97 193 
 RUS  BZ I         636 31.12         5.6 0.35                            97 193 
 OCA  SZ EP        636 16.71                             129    -0.2 9  172 344 
 CHI  HZ EP   2    636 25.43                             119     0.1 4  252 202 
 CHI  HE ES   2    636 54.95                             119    -0.5 4  252 202 
 CHI  HZ I         637  0.59         2.6 0.38                           252 202 
 HEL  HZ EP   2    636 29.60                             114    -0.8 4  299 258 
 HEL  HZ I         637  7.21         2.0 0.22                           299 258 
 PRA  HZ EP   1    636 41.93                             108     0.1 4  402 214 
 PRA  HE ES   1    637 25.51                             108     0.8 4  402 214 
 PRA  HZ I         637 29.02         3.3 0.38                           402 214 
                                                                                
