 2011  4 4 0543 34.6 L   6.301 -73.031  0.9  RSN  7 0.5 1.5LRSN                1
 GAP=195        0.92       4.6     8.9  8.6 -0.1358E+02 -0.3160E+01 -0.1208E+01E
 Epicentro: COROMORO - SANTANDER                                               3
 ACTION:UP  11-06-22 15:28 OP:REBC STATUS:               ID:20110404054334 L   I
 2011-04-04-0540-00S.COL___143                                                 6
 STAT SP IPHASW D HRMM SECON CODA AMPLIT PERI AZIMU VELO SNR AR TRES W  DIS CAZ7
 BAR2 SZ EP   1    543 40.50                              47    -0.9 7   36 333 
 BAR2 SZ I         543 45.40        22.7 0.15                            36 333 
 BTL  SZ EP   1    543 47.47                              47     0.5 7   73 339 
 BRR  HZ EP   1    543 53.69                              47     0.4 7  117 320 
 BRR  HN ES   2    544  7.69                              47    -0.2 5  117 320 
 BRR  HZ I         544 14.53        13.1 0.12                           117 320 
 GRA  SZ EP   1    544  2.43                              47    -0.1 7  177   8 
 GRA  SZ ES   1    544 24.54                              47     0.1 7  177   8 
 GRA  SZ I         544 25.57        12.2 0.29                           177   8 
 CHI  HZ EP   2    544  6.32                              37     0.4 4  200 203 
 CHI  HZ I         544 10.32         2.5 0.38                           200 203 
 CHI  HE ES   2    544 30.06                              37    -0.3 4  200 203 
 OCA  SZ EP   2    544  7.03                              37    -0.6 4  217 352 
 OCA  SZ ES   2    544 33.71                              37     0.3 4  217 352 
 OCA  SZ I         544 39.82         7.0 0.23                           217 352 
 HEL  HZ EP   2    544 15.68                              37     0.3 4  277 268 
 HEL  HZ I         544 50.49         2.2 0.24                           277 268 
                                                                                
