 2013  6 4 0813 24.5 L   6.791 -73.141144.0  RSN  8 0.5 2.0LRSN                1
 GAP=183        0.92       4.1     7.1  7.1  0.1452E+01  0.1202E+02 -0.1865E+00E
 Epicentro: LOS SANTOS - SANTANDER                                             3
 ACTION:UPD 14-01-08 09:52 OP:ep   STATUS:               ID:20130604081324 L   I
 2013-06-04-0810-00M.COL___257                                                 6
 STAT SP IPHASW D HRMM SECON CODA AMPLIT PERI AZIMU VELO AIN AR TRES W  DIS CAZ7
 BAR2 SZ EP        813 43.78                             171   -0.1710 22.4 192 
 BAR2 SZ ES   1    813 58.92                             171   -0.16 7 22.4 192 
 BAR2 SZ I         813 59.71        13.1 0.18            166           22.4 192 
 BRR  HZ EP   1    813 45.72                             152    0.16 7 72.2 299 
 BRR  HE ES        814  2.43                             152    0.4810 72.2 299 
 BRR  HE I         814  3.34        35.7 0.22            147           72.2 299 
 RUS  HN ES   1    814  6.63                             144    0.25 7 99.5 176 
 RUS  HN I         814  7.77        14.7 0.30            143           99.5 176 
 PTB  HZ EP   1    813 50.73                             132   -0.67 7  148 259 
 PTB  HN ES   1    814 11.69                             132   -0.66 7  148 259 
 PTB  HN I         814 16.78         8.9 0.40            128            148 259 
 OCA  HN ES   1    814 14.45                             129   -0.43 7  161 353 
 OCA  HN I         814 17.28        25.5 0.30            129            161 353 
 SML  HZ EP   1    814  0.47                             117   -0.73 6  245 335 
 SML  HN ES   1    814 30.82                             117    1.03 6  245 335 
 SML  HN I         814 31.36        18.4 0.26            116            245 335 
 HEL  HZ EP   1    814  4.96                             115    0.26 6  272 256 
 HEL  HE ES   2    814 35.86                             115   -0.16 4  272 256 
 HEL  HE I         814 44.16         3.1 0.58            113            272 256 
 PRA  HZ EP   1    814 18.68                             106    0.75 4  391 210 
 PRA  HN ES   1    815  0.09                             106    0.52 4  391 210 
 PRA  HN I         815  5.32         1.1 0.22            105            391 210 
                                                                                
