 2013  8 4 0720 14.8 L   6.791 -73.143153.7  RSN  8 0.4 1.8LRSN                1
 GAP=198        0.94       3.8     5.8  5.8 -0.1497E+01  0.8008E+01 -0.1754E+01E
 Epicentro: LOS SANTOS - SANTANDER                                             3
 ACTION:UPD 14-01-14 08:58 OP:ep   STATUS:               ID:20130804072014 L   I
 OLDACT:REG 13-08-04 07:47 OP:carl STATUS:               ID:20130804071959     3
 2013-08-04-0719-59M.COL___268                                                 6
 STAT SP IPHASW D HRMM SECON CODA AMPLIT PERI AZIMU VELO AIN AR TRES W  DIS CAZ7
 BAR2 SZ EP        720 35.42                             171    0.0210 22.5 191 
 BAR2 SZ ES        720 51.23                             171   -0.2210 22.5 191 
 BAR2 SZ I         720 52.71         6.8 0.24            171           22.5 191 
 GIR2 SZ EP        720 35.45                             168   -0.0310 32.3 350 
 GIR2 SZ ES        720 51.23                             168   -0.3510 32.3 350 
 GIR2 SZ I         720 52.65         4.8 0.36            163           32.3 350 
 BRR  HZ EP        720 37.26                             153    0.3710 72.0 299 
 BRR  HN ES        720 55.06                             153    0.9710 72.0 299 
 BRR  HN I         720 58.89        15.1 0.18            149           72.0 299 
 PTB  HZ EP        720 42.40                             134   -0.07 9  148 259 
 PTB  HN ES   1    721  3.22                             134   -0.82 7  148 259 
 PTB  HZ I         721  9.01         5.8 0.44            133            148 259 
 OCA  HN ES   1    721  6.47                             131   -0.04 7  161 353 
 OCA  HN I         721 15.13        16.8 0.64            131            161 353 
 SPBC HZ EP        720 44.00                             131    0.10 9  163 219 
 SPBC HN ES        721  6.48                             131   -0.10 9  163 219 
 SPBC HZ I         721  9.13         5.9 0.30            132            163 219 
 ZAR  HZ EP   1    720 48.19                             124    0.31 6  205 292 
 ZAR  HN ES        721 13.69                             124    0.04 9  205 292 
 ZAR  HZ I         721 20.36         4.3 0.48            124            205 292 
 SML  HZ EP        720 51.77                             119   -0.25 8  245 335 
 SML  HN ES        721 20.62                             119   -0.41 8  245 335 
 SML  HZ I         721 23.20         6.8 0.10            119            245 335 
                                                                                
