 2017  6 4 0955  5.6 L   6.723 -73.227152.5  RSN  4 0.2 1.4LRSN                1
 GAP=199        0.46       4.1     3.9  6.7  0.2922E+01 -0.1261E+02  0.9711E+01E
 Epicentro: VILLANUEVA - SANTANDER                                             3
 ACTION:UPD 17-09-14 16:49 OP:jn   STATUS:               ID:20170604095505 L   I
 OLDACT:UP  17-06-04 16:56 OP:and  STATUS:               ID:20170604094745     3
 OLDACT:REG 17-06-04 14:00 OP:osc  STATUS:               ID:20170604094745     3
 2017-06-04-0948-00M.COL___335                                                 6
 STAT SP IPHASW D HRMM SECON CODA AMPLIT PERI AZIMU VELO AIN AR TRES W  DIS CAZ7
 BRR  HZ EP        955 27.30                             155   -0.0610 68.4 308 
 BRR  HE ES        955 44.39                             155    0.0710 68.4 308 
 BRR  HZ I         955 48.39         5.3 0.13            157           68.4 308 
 PTB  HZ EP   2    955 32.33                             136    0.07 5  137 262 
 PTB  HN ES        955 52.85                             136   -0.19 9  137 262 
 PTB  HZ I         955 55.79         2.2 0.29            139            137 262 
 SPBC HN ES   2    955 55.73                             133    0.42 5  151 218 
 SPBC HZ I         955 57.36         5.1 0.26            136            151 218 
 YPLC HZ EP        955 35.83                             128    0.18 9  174 147 
 YPLC HE ES   2    955 58.62                             128   -0.46 4  174 147 
                                                                                
