 2017  4 4 0836 13.8 L   6.763 -73.192145.4  RSN  5 0.3 1.0LRSN                1
 GAP=229        0.55       5.8     7.7  6.9  0.2513E+02  0.1923E+02 -0.8983E+01E
 Epicentro: LOS SANTOS - SANTANDER                                             3
 ACTION:UPD 17-05-30 21:08 OP:jn   STATUS:               ID:20170404083613 L   I
 OLDACT:UP  17-04-04 16:32 OP:and  STATUS:               ID:20170404082739     3
 OLDACT:UP  17-04-04 16:32 OP:and  STATUS:               ID:20170404082739     3
 OLDACT:REG 17-04-04 12:37 OP:and  STATUS:               ID:20170404082739     3
 2017-04-04-0828-00M.COL___359                                                 6
 STAT SP IPHASW D HRMM SECON CODA AMPLIT PERI AZIMU VELO AIN AR TRES W  DIS CAZ7
 BAR2 EZ EP        836 33.15                             172   -0.1910 18.9 177 
 BAR2 EZ ES   2    836 48.06                             172   -0.48 5 18.9 177 
 BRR  HZ EP        836 34.99                             153    0.1710 69.0 304 
 BRR  HN ES   2    836 51.66                             153    0.48 5 69.0 304 
 RUS  HZ EP   2    836 37.79                             145    0.50 5 97.0 173 
 RUS  HN ES        836 55.58                             145   -0.0010 97.0 173 
 RUS  HZ I         836 56.89         2.0 0.34            146           97.0 173 
 PTB  HZ EP        836 40.06                             133   -0.19 9  142 260 
 PTB  HE ES   3    837  1.46                             133    0.61 2  142 260 
 PTB  HZ I         837  3.70         0.9 0.19            131            142 260 
 ZAR  HZ EP        836 46.04                             123    0.10 9  201 294 
 ZAR  HN ES   3    837  9.91                             123   -1.06 2  201 294 
 ZAR  HZ I         837 17.13         1.3 0.24            122            201 294 
                                                                                
