 2016  9 4 0427 40.1 L   6.758 -73.184152.3  RSN  5 0.3 1.3LRSN                1
 GAP=230        0.88       5.2     6.1  7.9  0.1501E+02 -0.1171E+01 -0.3426E+00E
 Epicentro: LOS SANTOS - SANTANDER                                             3
 ACTION:UPD 17-08-17 21:06 OP:lp   STATUS:               ID:20160904042740 L   I
 OLDACT:UP  16-09-04 15:38 OP:drio STATUS:               ID:20160904041738     3
 OLDACT:REG 16-09-04 12:53 OP:drio STATUS:               ID:20160904041738     3
 2016-09-04-0418-00M.COL___356                                                 6
 STAT SP IPHASW D HRMM SECON CODA AMPLIT PERI AZIMU VELO AIN AR TRES W  DIS CAZ7
 BRR  HZ EP        428  2.23                             154    0.3210 69.9 304 
 BRR  HN ES        428 19.25                             154    0.3510 69.9 304 
 RUS  HZ EP        428  3.92                             146   -0.3110 96.3 173 
 RUS  HE ES        428 22.69                             146   -0.3410 96.3 173 
 RUS  HZ I         428 23.66         1.9 0.24            145           96.3 173 
 PTB  HZ EP        428  7.17                             134   -0.01 9  143 260 
 PTB  HE ES        428 27.98                             134   -0.31 9  143 260 
 PTB  HZ I         428 34.27         2.2 0.50            132            143 260 
 SPBC HZ EP        428  8.81                             132    0.26 9  157 219 
 SPBC HN ES        428 31.20                             132    0.48 9  157 219 
 SPBC HZ I         428 33.55         3.8 0.26            130            157 219 
 ZAR  HN ES        428 37.75                             124   -0.51 9  202 294 
                                                                                
