 2013  8 4 0957  3.6 L   6.778 -73.094149.5  RSN  7 0.5 2.0LRSN                1
 GAP=224        1.05       5.5     6.7  7.9 -0.7379E+01  0.1592E+02 -0.6722E+01E
 Epicentro: LOS SANTOS - SANTANDER                                             3
 ACTION:UPD 14-01-14 08:59 OP:ep   STATUS:               ID:20130804095703 L   I
 OLDACT:DUP 13-08-04 11:49 OP:carl STATUS:               ID:20130804094960d    3
 2013-08-04-0949-59M.COL___269                                                 6
 STAT SP IPHASW D HRMM SECON CODA AMPLIT PERI AZIMU VELO AIN AR TRES W  DIS CAZ7
 BAR2 SZ EP        957 23.96                             171    0.3110 22.8 205 
 BAR2 SZ ES   1    957 39.11                             171   -0.19 7 22.8 205 
 BAR2 SZ I         957 41.80        12.3 0.30            169           22.8 205 
 GIR2 SZ ES        957 39.41                             166   -0.1610 35.0 342 
 GIR2 SZ I         957 43.50         5.1 0.14            168           35.0 342 
 BRR  HZ EP        957 25.52                             151    0.0410 77.3 298 
 BRR  HN ES   1    957 43.31                             151    0.74 7 77.3 298 
 BRR  HN I         957 44.09        32.8 0.16            152           77.3 298 
 PTB  HZ EP        957 31.60                             132    0.28 9  153 260 
 PTB  HE ES        957 52.04                             132   -0.92 9  153 260 
 PTB  HZ I         957 56.04         7.2 0.26            133            153 260 
 ZAR  HE ES        958  3.52                             122    0.62 8  210 292 
 NOR  HE ES        958  8.27                             119    0.07 8  238 236 
 NOR  HE I         958 13.10        11.0 0.16            120            238 236 
 SML  HZ EP        957 40.48                             118   -0.43 8  248 334 
 SML  HE ES        958  9.76                             118   -0.27 8  248 334 
 SML  HZ I         958 11.01        15.8 0.10            120            248 334 
                                                                                
