 2013 11 4 0654 52.2 L   6.820 -73.168149.3  RSN  5 0.6 1.3LRSN                1
 GAP=133        1.46       6.2     7.5 11.2  0.3986E+00  0.1204E+02 -0.1008E+02E
 Epicentro: LOS SANTOS - SANTANDER                                             3
 ACTION:UPD 14-01-09 16:25 OP:ep   STATUS:               ID:20131104065452 L   I
 OLDACT:REG 13-11-04 08:44 OP:stll STATUS:               ID:20131104064837     3
 2013-11-04-0648-37M.COL___214                                                 6
 STAT SP IPHASW D HRMM SECON CODA AMPLIT PERI AZIMU VELO AIN AR TRES W  DIS CAZ7
 BRR  HZ EP        655 13.75                             154    0.2410 67.9 298 
 BRR  HN ES        655 31.08                             154    0.9110 67.9 298 
 PAM  SZ EP        655 15.40                             151    0.6610 77.3  42 
 PAM  SN ES        655 31.88                             151   -0.4810 77.3  42 
 PAM  SZ I         655 34.09         4.1 0.52            152           77.3  42 
 RUS  HZ EP        655 16.55                             144    0.1210  103 175 
 RUS  HN ES        655 34.82                             144   -0.5410  103 175 
 RUS  HZ I         655 36.89         1.5 0.32            146            103 175 
 PTB  HZ EP        655 19.77                             133    0.54 9  146 258 
 PTB  HN ES        655 39.72                             133   -0.64 9  146 258 
 PTB  HZ I         655 42.29         2.5 0.40            134            146 258 
 SML  HZ EP        655 27.85                             118   -0.80 8  241 336 
 SML  HN ES        655 56.61                             118   -0.51 8  241 336 
 SML  HZ I         656  2.04         3.1 0.10            119            241 336 
                                                                                
