 2016 10 4 0407  3.8 L   6.820 -73.137143.6  RSN 33 0.5 3.1LRSN                1
 GAP= 71        0.99       2.7     2.7  4.2 -0.4486E+00  0.3229E+01  0.2160E+01E
 Epicentro: LOS SANTOS - SANTANDER                                             3
 ACTION:UPD 16-11-09 19:16 OP:rebc STATUS:               ID:20161004035742 L   I
 OLDACT:UP  16-10-04 16:38 OP:dani STATUS:               ID:20161004035742 L   3
 OLDACT:UP  16-10-04 16:35 OP:dani STATUS:               ID:20161004035742 L   3
 OLDACT:UP  16-10-04 16:34 OP:dani STATUS:               ID:20161004035742 L   3
 OLDACT:UP  16-10-04 16:34 OP:dani STATUS:               ID:20161004035742 L   3
 OLDACT:UP  16-10-04 16:34 OP:dani STATUS:               ID:20161004035742 L   3
 OLDACT:UPD 16-10-04 12:58 OP:edw  STATUS:               ID:20161004035742 L   3
 2016-10-04-0358-00M.COL___366                                                 6
 STAT SP IPHASW D HRMM SECON CODA AMPLIT PERI AZIMU VELO AIN AR TRES W  DIS CAZ7
 BAR2 EZ IP     D  4 7 23.08                             169   -0.1110 25.7 191 
 BAR2 HE ES        4 7 38.14                             169   -0.2010 25.7 191 
 BAR2 EZ I         4 7 39.53       498.5 0.52            170           25.7 191 
 BRR  HZ IP     D  4 7 24.94                             152    0.2710 71.0 297 
 BRR  HN ES        4 7 41.70                             152    0.7210 71.0 297 
 BRR  HZ I         4 7 44.89       345.2 0.38            139           71.0 297 
 PAM  EZ IP     D  4 7 25.87                             151    0.2510 75.1  40 
 PAM  EN ES        4 7 42.86                             151    0.2010 75.1  40 
 PAM  EZ I         4 7 44.88       324.6 0.42            138           75.1  40 
 RUS  HZ EP        4 7 27.12                             143   -0.3410  103 177 
 RUS  HE ES        4 7 45.26                             143   -0.6910  103 177 
 RUS  HZ I         4 7 47.35       320.0 0.38            134            103 177 
 PTB  HZ EP   4    4 7 29.65                             131   -1.03 0  149 258 
 PTB  HE ES        4 7 51.51                             131   -0.17 9  149 258 
 PTB  HZ I         4 7 56.07       281.3 0.28            119            149 258 
 TAM  HZ IP     D  4 7 31.51                             130    0.27 9  155 106 
 TAM  HN ES        4 7 52.96                             130    0.28 9  155 106 
 TAM  HZ I         4 7 53.62       129.1 0.60            118            155 106 
 OCA  HZ EP        4 7 31.29                             129   -0.42 9  158 353 
 OCA  HN ES        4 7 52.91                             129   -0.60 9  158 353 
 OCA  HZ I         4 7 55.10       238.3 0.18            115            158 353 
 SPBC HZ EP     C  4 7 32.08                             128   -0.24 9  165 219 
 SPBC HE ES        4 7 54.16                             128   -0.43 9  165 219 
 SPBC HZ I         4 7 56.33       305.5 0.18            117            165 219 
 ZAR  HZ EP        4 7 35.99                             122   -0.08 9  204 291 
 ZAR  HN ES        4 8  1.91                             122    0.63 9  204 291 
 ZAR  HZ I         4 8  6.47       215.0 0.48            110            204 291 
 NOR  HZ EP        4 7 39.62                             118    0.03 8  237 234 
 NOR  HN ES        4 8  7.22                             118   -0.31 8  237 234 
 NOR  HZ I         4 8 11.10       143.5 0.42            107            237 234 
 CHI  HZ EP        4 7 41.51                             116   -0.09 8  251 195 
 CHI  HN ES   4    4 8  9.89                             116   -1.22 0  251 195 
 CHI  HZ I         4 8 14.18        74.5 0.24            106            251 195 
 ROSC BZ EP        4 7 43.03                             116    1.01 8  255 211 
 ROSC BN ES   4    4 8 14.35                             116    2.48 0  255 211 
 ROSC BZ I         4 8 16.94       137.0 0.35            106            255 211 
 HEL  HZ EP        4 7 43.54                             114   -0.49 8  274 255 
 HEL  HE ES   4    4 8 17.26                             114    1.83 0  274 255 
 HEL  HZ I         4 8 20.79        85.0 0.28            104            274 255 
 URE  HZ EP   9    4 7 43.40                             113   -1.33 0  284 291 
 URE  HE ES        4 8 14.73                             114   -0.63 7  284 291 
 URE  HZ I         4 8 18.07       105.0 0.14            102            284 291 
 GUY2CHZ EP        4 7 47.83                             112    0.33 7  303 235 
 GUY2CHN ES        4 8 22.40                             112    0.78 7  303 235 
 GUY2CHZ I         4 8 30.29        75.3 0.58                           303 235 
 PTGC HZ EP   4 D  4 7 46.36                             111   -1.36 0  310 159 
 PTGC HN ES   4    4 8 19.80                             111   -2.21 0  310 159 
 PTGC HZ I         4 8 22.32        97.5 0.44            101            310 159 
 ELA  HZ EP   4    4 7 52.44                             110    1.67 0  331 229 
 ELA  HE ES   4    4 8 31.04                             110    3.61 0  331 229 
 ELA  HZ I         4 8 39.14        82.7 0.38            100            331 229 
 CBOC HZ EP        4 7 51.23                             109    0.46 7  335 252 
 CBOC HE ES        4 8 27.52                             109    0.09 7  335 252 
 CBOC HZ I         4 8 44.29        34.3 0.66             99            335 252 
 DBB  EZ EP        4 7 51.51                             109    0.27 7  340 274 
 ARGC HZ EP   4    4 7 54.67                             108    1.54 0  357 340 
 ARGC HZ I         4 8 50.09        13.6 0.30             97            357 340 
 ANIL HZ EP        4 7 54.69                             108    0.95 6  360 224 
 ANIL HN ES   4    4 8 35.26                             108    2.53 0  360 224 
 ANIL HZ I         4 8 45.20       141.2 0.42             98            360 224 
 PRA  HZ EP        4 7 57.05                             106   -0.44 6  394 210 
 PRA  HE ES        4 8 39.18                             106   -0.21 6  394 210 
 PRA  HZ I         4 8 44.99        56.2 0.24             96            394 210 
 PAL  HZ EP        4 7 59.40                             105    0.32 6  408 239 
 PAL  HZ I         4 8 48.22        33.9 0.36             95            408 239 
 SJC  HZ EP   4    4 7 57.60                             105   -1.50 0  408 327 
 SJC  HE ES   4    4 8 39.84                             105   -2.42 0  408 327 
 SJC  HZ I         4 8 48.62        17.2 0.28             95            408 327 
 LCBC HZ EP        4 8  0.19                             105   -0.42 5  422 303 
 LCBC HE ES        4 8 43.72                             105   -1.24 5  422 303 
 LCBC HZ I         4 8 52.90        29.9 0.27             94            422 303 
 CRJC HZ EP   4    4 8  3.29                             103   -2.65 0  465   3 
 CRJC HE ES   4    4 8 49.33                             103   -5.10 0  465   3 
 CRJC HZ I         4 9  0.65        25.3 0.27                           465   3 
 YOT  HZ EP        4 8  6.29                             103   -0.71 5  474 229 
 YOT  HZ I         4 9  6.09         7.8 0.35                           474 229 
 MARO HZ EP        4 8 14.60                             101   -0.41 4  539 216 
 MARO HZ I         4 9 16.89         7.4 0.17             90            539 216 
 URI  HZ EP   4    4 8 13.96                             100   -2.48 0  554  13 
 URI  HZ I         4 9 12.02         5.4 0.25             90            554  13 
 CONO HZ EP        4 8 25.09                              99    0.72 3  614 216 
 FLO2 HZ EP        4 8 26.26                              98   -0.87 2  643 206 
 SOTO HZ EP   4    4 8 29.48                              98    1.45 0  645 217 
 BBAC HZ EP        4 8 33.99                              97   -0.22 1  700 221 
 BBAC HZ I         4 9 47.69         4.1 0.28             90            700 221 
 GCUF HZ EP        4 8 43.70                              96   -0.00 0  775 217 
 GCUF HZ I         4 9 15.57         2.2 0.31             90            775 217 
                                                                                
