 2015 11 4 0928 51.4 L   6.827 -73.105143.3  RSN  8 0.4 1.5LRSN                1
 GAP=140        0.92       3.8     4.2  5.9 -0.1843E+01  0.9330E+01  0.9404E+00E
 Epicentro: LOS SANTOS - SANTANDER                                             3
 ACTION:UPD 15-12-28 16:08 OP:cam  STATUS:               ID:20151104092851 L   I
 OLDACT:UP  15-11-04 18:51 OP:ak   STATUS:               ID:20151104091743     3
 OLDACT:UP  15-11-04 18:50 OP:ak   STATUS:               ID:20151104091743     3
 OLDACT:REG 15-11-04 13:39 OP:cara STATUS:               ID:20151104091743     3
 2015-11-04-0917-43M.COL___298                                                 6
 STAT SP IPHASW D HRMM SECON CODA AMPLIT PERI AZIMU VELO AIN AR TRES W  DIS CAZ7
 BAR2 EZ EP        929 10.71                             169   -0.1510 27.3 198 
 BAR2 EZ ES        929 25.31                             169   -0.6910 27.3 198 
 BAR2 EZ I         929 27.34         5.0 0.16            168           27.3 198 
 PAM  EZ EP        929 13.45                             152    0.3610 72.3  38 
 PAM  EN ES        929 29.87                             152   -0.1010 72.3  38 
 PAM  EZ I         929 32.56         7.8 0.52            155           72.3  38 
 BRR  HZ EP        929 12.55                             151    0.0710 73.9 295 
 BRR  HN ES        929 29.67                             151    0.7910 73.9 295 
 BRR  HZ I         929 33.40         6.4 0.44            149           73.9 295 
 RUS  HZ EP        929 15.04                             142   -0.1110  103 179 
 RUS  HE ES        929 33.90                             142    0.2610  103 179 
 RUS  HZ I         929 35.38         3.4 0.40            146            103 179 
 ZAR  HZ EP   1    929 23.81                             121   -0.24 6  207 291 
 ZAR  HN ES        929 48.98                             121   -0.50 8  207 291 
 ZAR  HZ I         929 56.06         4.3 0.24            122            207 291 
 NOR  HZ EP   1    929 27.39                             117   -0.22 6  240 235 
 NOR  HE ES        929 55.76                             117   -0.06 8  240 235 
 NOR  HZ I         930  0.96         3.0 0.46            119            240 235 
 SML  HZ EP   1    929 27.64                             117   -0.21 6  243 334 
 GUY2CHZ EP   1    929 36.11                             111    0.57 5  307 235 
 GUY2CHN ES        930 10.04                             111    0.10 7  307 235 
 GUY2CHZ I         930 18.88         1.7 0.60                           307 235 
                                                                                
