 2013 12 4 0514  7.0 L   6.732 -73.156150.2  RSN  5 0.5 1.2LRSN                1
 GAP=231        1.18       7.8     7.6  9.8  0.1454E+02  0.2137E+02  0.1099E+02E
 Epicentro: VILLANUEVA - SANTANDER                                             3
 ACTION:UPD 14-01-13 10:15 OP:ep   STATUS:               ID:20131204051407 L   I
 OLDACT:UP  13-12-04 10:26 OP:carl STATUS:               ID:20131204051001d    3
 OLDACT:DUP 13-12-04 10:23 OP:carl STATUS:               ID:20131204051001d    3
 2013-12-04-0510-00M.COL___285                                                 6
 STAT SP IPHASW D HRMM SECON CODA AMPLIT PERI AZIMU VELO AIN AR TRES W  DIS CAZ7
 BAR2 SZ ES        514 42.40                             174   -0.2710 15.7 190 
 BRR  HZ EP        514 28.72                             152   -0.0710 74.1 304 
 BRR  HE ES        514 46.44                             152    0.6510 74.1 304 
 BRR  HZ I         514 48.62         4.0 0.14            150           74.1 304 
 RUS  HZ EP        514 31.11                             147    0.4310 93.2 175 
 RUS  HN ES        514 48.97                             147   -0.1810 93.2 175 
 RUS  HZ I         514 50.65         1.5 0.32            148           93.2 175 
 PTB  HZ EP        514 33.57                             134   -0.54 9  145 262 
 PTB  HN ES        514 54.65                             134   -0.61 9  145 262 
 PTB  HZ I         515  2.25         2.5 0.36            133            145 262 
 NOR  HE ES        515 10.73                             120    0.66 8  229 236 
                                                                                
