 2013  3 4 0854  6.3 L   6.694 -73.147138.7  RSN  7 0.4 1.6LRSN                1
 GAP=141        0.98       5.7     5.4  7.8  0.7440E+01 -0.7556E-01 -0.1042E+02E
 Epicentro: VILLANUEVA - SANTANDER                                             3
 ACTION:UPD 13-04-09 13:59 OP:ep   STATUS:               ID:20130304085406 L   I
 2013-03-04-0850-00M.COL___228                                                 6
 STAT SP IPHASW D HRMM SECON CODA AMPLIT PERI AZIMU VELO AIN AR TRES W  DIS CAZ7
 BAR2 SZ EP        854 25.33                             175    0.4610 11.9 199 
 BAR2 SZ ES        854 38.66                             175   -0.7110 11.9 199 
 BAR2 SZ I         854 41.59         9.7 0.24            174           11.9 199 
 BRR  HZ EP        854 27.14                             149    0.1010 77.4 306 
 BRR  HN ES        854 43.92                             149    0.6910 77.4 306 
 BRR  HN I         854 48.59        17.2 0.29            149           77.4 306 
 PAM  SZ EP        854 28.27                             146   -0.0810 86.8  35 
 RUS  HZ EP   1    854 28.30                             146   -0.20 7 88.9 175 
 RUS  HN ES   1    854 46.15                             146    0.32 7 88.9 175 
 RUS  HN I         854 48.75         5.2 0.19            150           88.9 175 
 PTB  HZ EP        854 32.42                             131   -0.08 9  146 263 
 PTB  HN E         854 34.46                                            146 263 
 PTB  HN ES        854 52.75                             131   -0.19 9  146 263 
 ZAR  HN ES   1    855  3.74                             120   -0.34 6  209 295 
 ZAR  HZ I         855  9.35         2.8 0.30            122            209 295 
 SML  HN ES   1    855 12.42                             115   -0.45 6  254 336 
                                                                                
