 2017  2 4 0757 47.9 L   6.777 -73.094153.8  RSN  6 0.3 1.4LRSN                1
 GAP=144        0.76       4.6     4.6  6.3 -0.1698E+01  0.7985E+01  0.2612E+00E
 Epicentro: LOS SANTOS - SANTANDER                                             3
 ACTION:UPD 17-05-24 15:32 OP:jn   STATUS:               ID:20170204075747 L   I
 OLDACT:REG 17-02-04 12:45 OP:dnl  STATUS:               ID:20170204074744     3
 2017-02-04-0748-00M.COL___328                                                 6
 STAT SP IPHASW D HRMM SECON CODA AMPLIT PERI AZIMU VELO AIN AR TRES W  DIS CAZ7
 BAR2 EZ EP        758  8.59                             171    0.0610 22.7 205 
 BAR2 EZ ES        758 24.08                             171   -0.5010 22.7 205 
 BAR2 EZ I         758 25.65         4.8 0.18            170           22.7 205 
 PAM  EZ EP   2    758 10.24                             153   -0.70 5 75.9  35 
 PAM  EN ES        758 28.96                             153    0.0910 75.9  35 
 PAM  EZ I         758 31.07         2.1 0.52            156           75.9  35 
 BRR  HZ EP        758 10.57                             152    0.2610 77.4 298 
 BRR  HN ES        758 27.99                             152    0.2410 77.4 298 
 BRR  HZ I         758 35.21         2.9 0.24            149           77.4 298 
 RUS  HZ EP   2    758 12.90                             146    0.60 5 97.8 179 
 RUS  HE ES        758 31.48                             146    0.1810 97.8 179 
 RUS  HZ I         758 33.82         2.9 0.52            151           97.8 179 
 PTB  HZ EP        758 15.62                             133   -0.41 9  153 260 
 PTB  HE ES        758 37.98                             133    0.04 9  153 260 
 PTB  HN I         758 42.26         8.2 0.38            133            153 260 
 ZAR  HE ES   4    758 42.90                             123   -4.87 0  210 292 
 ZAR  HZ I         758 52.45         4.1 0.64            124            210 292 
 SJC  HZ EP   4    758 42.65                             107   -1.74 0  414 326 
 SJC  HN ES   4    759 23.96                             107   -4.46 0  414 326 
                                                                                
