 2017 10 4 0953 58.1 L   6.812 -73.161142.1  RSN  7 0.3 1.6LRSN                1
 GAP=243        0.51       3.0     4.0  5.3  0.4908E+01  0.1220E+02  0.4144E+01E
 Epicentro: LOS SANTOS - SANTANDER                                             3
 ACTION:UPD 17-11-07 19:28 OP:rebc STATUS:               ID:20171004095358 L   I
 OLDACT:UP  17-10-04 16:38 OP:dnl  STATUS:               ID:20171004094740     3
 OLDACT:UP  17-10-04 16:37 OP:dnl  STATUS:               ID:20171004094740     3
 OLDACT:UP  17-10-04 16:37 OP:dnl  STATUS:               ID:20171004094740     3
 OLDACT:REG 17-10-04 13:46 OP:y    STATUS:               ID:20171004094740     3
 2017-10-04-0948-00M.COL___437                                                 6
 STAT SP IPHASW D HRMM SECON CODA AMPLIT PERI AZIMU VELO AIN AR TRES W  DIS CAZ7
 BAR2 EZ EP   2    954 17.21                             170   -0.12 5 24.4 185 
 BAR2 EZ ES        954 32.21                             170   -0.1010 24.4 185 
 BAR2 EZ I         954 35.08        12.1 0.48            166           24.4 185 
 RUS  HZ EP   2    954 21.74                             143    0.12 5  102 175 
 RUS  HN ES        954 40.10                             143    0.1510  102 175 
 RUS  HZ I         954 41.15         6.2 0.36            144            102 175 
 SPBC HZ EP   2    954 26.14                             128   -0.20 5  163 218 
 SPBC HE ES        954 48.58                             128    0.23 9  163 218 
 SPBC HZ I         954 51.37        11.0 0.10            127            163 218 
 ZAR  HZ EP   2    954 31.12                             122    1.01 4  202 292 
 ZAR  HN ES        954 54.88                             122   -0.18 9  202 292 
 ZAR  HZ I         955  4.21         3.6 0.18            121            202 292 
 NOR  HZ EP   2    954 33.43                             118   -0.14 4  234 234 
 NOR  HE ES        955  1.21                             118   -0.02 8  234 234 
 NOR  HZ I         955  9.11         2.9 0.16            117            234 234 
 CHI  HZ EP   2    954 35.51                             116   -0.20 4  250 195 
 CHI  HN ES        955  4.73                             116   -0.30 8  250 195 
 CHI  HZ I         955 10.38         1.6 0.32            117            250 195 
 GUY2CHZ EP   4    954 42.86                             112    1.37 0  301 234 
 GUY2CHE ES   4    955 19.28                             112    3.96 0  301 234 
 GUY2CHZ I         955 27.49         2.0 0.46                           301 234 
                                                                                
