 2016 10 4 0748 37.1 L   6.564 -73.540111.9  RSN 11 0.4 1.8LRSN                1
 GAP= 65        0.90       3.3     3.7  7.8 -0.6517E+01  0.1794E+02 -0.1161E+02E
 Epicentro: EL CARMEN - SANTANDER                                              3
 ACTION:UPD 16-11-09 19:16 OP:rebc STATUS:               ID:20161004074837 L   I
 OLDACT:UP  16-10-04 16:06 OP:dnl  STATUS:               ID:20161004073744     3
 OLDACT:REG 16-10-04 13:26 OP:dani STATUS:               ID:20161004073744     3
 2016-10-04-0738-00M.COL___360                                                 6
 STAT SP IPHASW D HRMM SECON CODA AMPLIT PERI AZIMU VELO AIN AR TRES W  DIS CAZ7
 BAR2 EZ IP     D  748 53.49                             159    0.2010 39.7  85 
 BAR2 EZ ES        749  5.93                             159    0.0410 39.7  85 
 BAR2 EZ I         749  7.74        44.6 0.22            167           39.7  85 
 BRR  HZ EP   3    748 54.31                             148    0.11 2 63.0 342 
 BRR  HE ES   3    749  7.74                             148    0.23 2 63.0 342 
 BRR  HZ I         749 16.05         7.5 0.26            148           63.0 342 
 RUS  HZ EP        748 56.65                             139   -0.1910 89.8 146 
 RUS  HE ES        749 12.43                             139    0.2210 89.8 146 
 RUS  HZ I         749 13.66         7.9 0.38            151           89.8 146 
 PTB  HZ IP     C  748 56.33                             135   -0.8210  101 269 
 PTB  HN ES   4    749 11.21                             135   -1.55 0  101 269 
 PTB  HZ I         749 12.14         8.0 0.30            137            101 269 
 SPBC HZ EP        748 58.45                             130   -0.1910  117 210 
 SPBC HE ES        749 15.26                             130   -0.1510  117 210 
 SPBC HZ I         749 20.66        20.4 0.22            137            117 210 
 PAM  EZ EP        749  0.09                             128   -0.0110  126  47 
 PAM  EN ES        749 17.85                             128   -0.1510  126  47 
 PAM  EZ I         749 20.38         4.6 0.16            135            126  47 
 ZAR  HZ EP        749  5.28                             117    0.50 9  178 305 
 ZAR  HE ES   4    749 28.23                             117    1.88 0  178 305 
 ZAR  HZ I         749 29.98        10.5 0.28            121            178 305 
 NOR  HZ EP   2    749  5.34                             117   -0.14 4  184 233 
 NOR  HE ES        749 28.43                             117    0.84 9  184 233 
 NOR  HZ I         749 31.04         8.3 0.14            122            184 233 
 OCA  HZ EP   2    749  6.85                             116    0.93 4  187   7 
 OCA  HN ES        749 28.36                             116   -0.00 9  187   7 
 OCA  HZ I         749 35.62        16.8 0.30            121            187   7 
 HEL  HZ EP   2    749 10.82                             112    0.50 4  224 259 
 HEL  HN ES        749 35.72                             112   -0.47 8  224 259 
 HEL  HZ I         749 41.24         4.3 0.36            116            224 259 
 URE  HZ EP   2    749 13.95                             108    0.36 4  256 301 
 URE  HN ES   4    749 40.77                             108   -1.26 0  256 301 
 URE  HZ I         749 49.50         3.6 0.24            112            256 301 
                                                                                
