 2015  2 4 0209 16.2 L   6.821 -73.179144.3  RSN  9 0.5 1.6LRSN                1
 GAP= 69        1.35       4.2     5.6  7.8 -0.1740E+01  0.2100E+01 -0.1772E+01E
 Epicentro: ZAPATOCA - SANTANDER                                               3
 ACTION:UPD 15-04-30 21:21 OP:nd   STATUS:               ID:20150204020916 L   I
 OLDACT:REG 15-02-04 11:57 OP:stll STATUS:               ID:20150204020749     3
 2015-02-04-0207-49M.COL___274                                                 6
 STAT SP IPHASW D HRMM SECON CODA AMPLIT PERI AZIMU VELO AIN AR TRES W  DIS CAZ7
 BAR2 EZ EP        2 9 35.50                             170   -0.2410 25.3 181 
 BAR2 EZ ES        2 9 50.59                             170   -0.3610 25.3 181 
 BAR2 EZ I         2 9 51.99         7.9 0.26            170           25.3 181 
 BRR  HZ EP        2 9 37.64                             154    0.6410 66.8 298 
 BRR  HN ES        2 9 54.42                             154    1.2410 66.8 298 
 BRR  HZ I         2 9 58.80         6.0 0.14            151           66.8 298 
 PAM  SZ EP        2 9 38.74                             150    0.3910 78.1  43 
 PAM  SN ES        2 9 55.53                             150   -0.0610 78.1  43 
 RUS  HZ EP        2 9 40.34                             143    0.2910  103 174 
 RUS  HN ES        2 9 58.47                             143   -0.1410  103 174 
 RUS  HZ I         2 9 59.52         4.8 0.26            145            103 174 
 PTB  HZ EP        2 9 42.76                             132   -0.05 9  145 258 
 PTB  HN ES        210  3.42                             132   -0.10 9  145 258 
 PTB  HZ I         210 11.01         2.7 0.16            132            145 258 
 OCA  HN ES        210  5.07                             130   -0.92 9  158 354 
 TAM  HZ EP        2 9 44.24                             129    0.04 9  159 105 
 TAM  HZ I         2 9 44.47         7.7 0.38            134            159 105 
 SPBC HZ EP        2 9 44.84                             129    0.25 9  163 217 
 SPBC HN ES        210  5.79                             129   -0.90 9  163 217 
 SML  HZ EP        2 9 52.15                             118   -0.24 8  240 336 
 SML  HN ES        210 20.29                             118   -0.30 8  240 336 
 SML  HZ I         210 22.84         7.4 0.24            119            240 336 
                                                                                
