 2011  9 4 0656 36.4 L   6.758 -73.101145.2  RSN  7 0.3 1.6LRSN                1
 GAP=187        0.53       3.5     5.4  5.7  0.2559E+01  0.2755E+00  0.8687E+00E
 Epicentro: LOS SANTOS - SANTANDER                                             3
 ACTION:UPD 12-07-13 15:55 OP:ep   STATUS:               ID:20110904065636 L   I
 2011-09-04-0655-26S.COL___171                                                 6
 STAT SP IPHASW D HRMM SECON CODA AMPLIT PERI AZIMU VELO AIN AR TRES W  DIS CAZ7
 BAR2 SZ EP   1    656 55.76                             172   -0.13 7 20.4 206 
 BAR2 SZ ES   2    657 10.57                             172   -0.54 5 20.4 206 
 BAR2 SZ I         657 12.37         5.7 0.15                          20.4 206 
 GIR2 SZ EP   1    656 56.66                             165    0.50 7 36.9 344 
 BRR  HZ EP   1    656 57.60                             150   -0.26 7 77.8 300 
 BRR  HE ES   1    657 14.89                             150    0.28 7 77.8 300 
 BRR  HZ I         657 19.74         7.1 0.14                          77.8 300 
 RUS  HZ EP   1    656 59.59                             145   -0.14 7 95.7 179 
 RUS  HN ES   2    657 18.10                             145    0.15 5 95.7 179 
 RUS  HZ I         657 19.76         3.1 0.37                          95.7 179 
 OCA  SZ EP   1    657  5.34                             128    0.19 7  166 352 
 OCA  SZ ES   2    657 27.20                             128   -0.39 5  166 352 
 OCA  SZ I         657 31.80         5.0 0.20                           166 352 
 ZAR  HN ES   2    657 34.89                             121   -0.35 4  210 293 
 ZAR  HZ I         657 37.02         4.3 0.22                           210 293 
 RREF HZ EP   1    657 22.52                             111   -0.07 5  323 231 
 RREF HE ES   2    657 58.89                             111    0.26 3  323 231 
 RREF HZ I         658  5.16         2.4 0.27                           323 231 
                                                                                
