 2015  2 4 0519 19.5 L   6.802 -73.156141.5  RSN  9 0.4 1.8LRSN                1
 GAP= 70        1.11       3.6     4.8  7.3  0.3800E+00  0.2429E+00 -0.5201E+00E
 Epicentro: LOS SANTOS - SANTANDER                                             3
 ACTION:UPD 15-04-30 21:21 OP:nd   STATUS:               ID:20150204051919 L   I
 OLDACT:REG 15-02-04 12:02 OP:stll STATUS:               ID:20150204051747     3
 2015-02-04-0517-47M.COL___262                                                 6
 STAT SP IPHASW D HRMM SECON CODA AMPLIT PERI AZIMU VELO AIN AR TRES W  DIS CAZ7
 BAR2 EZ EP        519 38.87                             170    0.2610 23.4 187 
 BAR2 EZ I         519 56.68         9.1 0.54            162           23.4 187 
 BRR  HZ EP        519 40.77                             152    0.6610 70.0 299 
 BRR  HN ES        519 57.00                             152    0.8110 70.0 299 
 BRR  HZ I         520  0.92         7.4 0.44            146           70.0 299 
 PAM  SZ EP        519 41.62                             150    0.3410 77.9  40 
 PAM  SZ I         519 41.97        16.7 0.24            152           77.9  40 
 PAM  SN ES        519 58.16                             150   -0.1210 77.9  40 
 RUS  HZ EP        519 42.85                             143    0.0010  101 175 
 RUS  HN ES        520  0.35                             143   -0.7110  101 175 
 RUS  HZ I         520  2.64         5.8 0.38            135            101 175 
 PTB  HZ EP        519 45.91                             131   -0.10 9  147 259 
 PTB  HN ES        520  6.24                             131   -0.45 9  147 259 
 PTB  HZ I         520  9.10         5.5 0.16            124            147 259 
 TAM  HZ EP        519 46.85                             129   -0.09 9  156 105 
 TAM  HZ I         519 47.12        13.1 0.20            126            156 105 
 OCA  HZ EP        519 47.41                             129   -0.02 9  160 354 
 OCA  HN ES        520  8.91                             129   -0.32 9  160 354 
 OCA  HZ I         520 14.56         9.6 0.30            126            160 354 
 SPBC HZ EP        519 47.90                             128    0.29 9  163 219 
 SPBC HZ I         520 13.82        14.5 0.38            121            163 219 
 SML  HZ EP        519 55.45                             117   -0.35 8  243 336 
 SML  HE ES        520 23.47                             117   -0.65 8  243 336 
 SML  HZ I         520 27.37        12.7 0.10            113            243 336 
                                                                                
