 2013  4 4 0504 51.6 L   6.809 -73.121143.0  RSN  5 0.4 1.3LRSN                1
 GAP=241        0.75       7.0     6.1  9.3  0.1062E+02  0.9787E+01  0.1675E+02E
 Epicentro: LOS SANTOS - SANTANDER                                             3
 ACTION:UPD 13-05-22 14:35 OP:EP   STATUS:               ID:20130404050451 L   I
 2013-04-04-0500-00M.COL___245                                                 6
 STAT SP IPHASW D HRMM SECON CODA AMPLIT PERI AZIMU VELO AIN AR TRES W  DIS CAZ7
 BAR2 SZ EP   1    5 5 10.84                             170   -0.12 7 25.0 196 
 BAR2 SZ ES   1    5 5 26.17                             170    0.13 7 25.0 196 
 BAR2 SZ I         5 5 28.54         7.2 0.28            166           25.0 196 
 BRR  HZ EP   2    5 5 12.63                             151    0.04 5 73.2 297 
 BRR  HN ES   1    5 5 29.27                             151    0.33 7 73.2 297 
 RUS  HZ EP   1    5 5 15.23                             143    0.06 7  101 178 
 RUS  HN ES   1    5 5 33.37                             143   -0.17 7  101 178 
 RUS  HZ I         5 5 34.84         1.4 0.36            142            101 178 
 PTB  HN ES   1    5 5 38.89                             131   -0.81 7  151 259 
 PTB  HZ I         5 5 40.81         3.6 0.56            131            151 259 
 NOR  HN ES   1    5 5 56.19                             118    0.70 6  238 235 
 NOR  HZ I         5 5 59.62         1.3 0.18            118            238 235 
                                                                                
