 2016  5 4 0502 28.9 L   6.796 -73.173146.3  RSN  6 0.4 1.3LRSN                1
 GAP=133        1.02       4.9     5.1  7.4 -0.6080E+01  0.5287E+01  0.1948E+01E
 Epicentro: LOS SANTOS - SANTANDER                                             3
 ACTION:UPD 16-08-18 17:41 OP:cam  STATUS:               ID:20160504050228 L   I
 OLDACT:REG 16-05-04 13:23 OP:ak   STATUS:               ID:20160504045744     3
 2016-05-04-0457-44M.COL___292                                                 6
 STAT SP IPHASW D HRMM SECON CODA AMPLIT PERI AZIMU VELO AIN AR TRES W  DIS CAZ7
 BAR2 EZ EP   2    5 2 48.21                             171   -0.37 5 22.5 183 
 BAR2 EZ ES        5 3  3.60                             171   -0.3310 22.5 183 
 BRR  HZ EP        5 2 50.25                             153    0.2710 68.9 300 
 BRR  HN ES        5 3  7.22                             153    0.8010 68.9 300 
 BRR  HZ I         5 3 11.63         4.3 0.13            152           68.9 300 
 PAM  EZ EP        5 2 51.41                             150    0.1010 79.7  41 
 PAM  EN ES        5 3  8.45                             150   -0.3410 79.7  41 
 PAM  EZ I         5 3  8.64         3.8 0.22            153           79.7  41 
 RUS  HZ EP        5 2 52.79                             144    0.1010  100 174 
 RUS  HE ES        5 3 11.35                             144    0.1110  100 174 
 RUS  HZ I         5 3 12.21         2.1 0.44            147            100 174 
 PTB  HZ EP        5 2 55.38                             133   -0.26 9  145 259 
 PTB  HN ES        5 3 15.72                             133   -0.78 9  145 259 
 PTB  HZ I         5 3 19.18         4.8 0.27            133            145 259 
 SPBC HZ EP   2    5 2 57.25                             130    0.02 5  161 218 
 SPBC HN ES        5 3 19.66                             130    0.34 9  161 218 
                                                                                
