 2014  5 4 0043  6.2 L   6.184 -73.837 60.0  RSN  8 0.5 1.8LRSN                1
 GAP=103        1.16       3.2     3.9 10.8 -0.2089E+01  0.3243E+01 -0.9503E+01E
 Epicentro: LANDAZURI - SANTANDER                                              3
 ACTION:UPD 15-03-16 16:55 OP:nd   STATUS:               ID:20140504004306 L   I
 OLDACT:REG 14-05-04 12:38 OP:mh   STATUS:               ID:20140504004000     3
 2014-05-04-0040-00M.COL___273                                                 6
 STAT SP IPHASW D HRMM SECON CODA AMPLIT PERI AZIMU VELO AIN AR TRES W  DIS CAZ7
 SPBC HZ EP     C  043 18.92                             127    0.3010 64.3 204 
 SPBC HZ IP     C  043 18.97                             127           64.3 204 
 SPBC HN ES        043 29.00                             127    0.6610 64.3 204 
 SPBC HZ I         043 29.59        29.4 0.12            125           64.3 204 
 PTB  HZ IP     D  043 19.97                             120   -0.0810 79.1 300 
 PTB  HN ES        043 30.41                             120   -0.4710 79.1 300 
 PTB  HZ I         043 31.25        45.1 0.28            117           79.1 300 
 RUS  HZ EP        043 20.99                             117   -0.7910 89.4 111 
 RUS  HN ES   4    043 32.24                             117   -1.72 0 89.4 111 
 RUS  HZ I         043 33.99        11.8 0.26            117           89.4 111 
 BRR  HZ EP        043 22.57                             113   -0.1210  103   8 
 BRR  HZ IP        043 22.57                             113            103   8 
 BRR  HN ES        043 35.89                             113    0.3110  103   8 
 BRR  HZ I         043 37.20        26.7 0.16            110            103   8 
 NOR  HZ EP        043 26.32                             106    0.0310  133 239 
 NOR  HN ES        043 41.29                             106   -0.7010  133 239 
 NOR  HZ I         043 42.90        10.2 0.22            104            133 239 
 ZAR  HZ EP        043 32.60                             101    0.33 9  184 322 
 ZAR  HN ES        043 52.59                             101   -0.05 9  184 322 
 ZAR  HZ I         043 59.42         8.0 0.18             99            184 322 
 HEL  HZ EP        043 34.00                             101    0.83 9  187 270 
 HEL  HN ES        043 54.06                             101   -0.18 9  187 270 
 HEL  HZ I         044  0.13         6.7 0.42             99            187 270 
 SML  HN ES   1    044 16.18                              96    0.25 5  291 355 
                                                                                
