 2015  6 4 0441 19.0 L   6.805 -73.136139.9  RSN 19 0.6 2.1LRSN                1
 GAP=138        1.24       2.9     4.6  5.9 -0.2819E+01  0.1085E+02  0.1920E+01E
 Epicentro: LOS SANTOS - SANTANDER                                             3
 ACTION:UPD 15-09-10 22:09 OP:cam  STATUS:               ID:20150604044119 L   I
 OLDACT:UP  15-06-11 08:26 OP:AR   STATUS:               ID:20150604044119 L   3
 OLDACT:UP  15-06-04 16:38 OP:ak   STATUS:               ID:20150604043748     3
 OLDACT:REG 15-06-04 13:01 OP:ak   STATUS:               ID:20150604043748     3
 2015-06-04-0437-48M.COL___297                                                 6
 STAT SP IPHASW D HRMM SECON CODA AMPLIT PERI AZIMU VELO AIN AR TRES W  DIS CAZ7
 BAR2 EZ IP     D  441 37.99                             170    0.0510 24.0 192 
 BAR2 EZ ES        441 52.35                             170   -0.3710 24.0 192 
 BAR2 EZ I         441 53.88        27.0 0.14            168           24.0 192 
 BRR  HZ EP        441 39.85                             151    0.2910 71.9 298 
 BRR  HN ES        441 56.72                             151    1.1310 71.9 298 
 BRR  HZ I         441 58.46        32.7 0.14            150           71.9 298 
 PAM  SZ IP     D  441 40.90                             150    0.3710 76.3  39 
 PAM  SN ES        441 57.34                             150    0.0210 76.3  39 
 PAM  SZ I         442  0.18        33.8 0.62            155           76.3  39 
 RUS  HZ EP        441 42.61                             142    0.4010  101 177 
 RUS  HN ES        441 59.73                             142   -0.5910  101 177 
 RUS  HZ I         442  1.63        13.6 0.32            144            101 177 
 OCA  HZ EP        441 46.57                             128   -0.25 9  160 353 
 OCA  HE ES        442  7.56                             128   -0.97 9  160 353 
 SPBC HZ EP        441 47.46                             127    0.30 9  164 219 
 SPBC HN ES        442  9.56                             127    0.44 9  164 219 
 SPBC HZ I         442 13.58        13.7 0.31            128            164 219 
 ZAR  HZ EP        441 51.37                             121    0.22 9  205 292 
 ZAR  HN ES        442 16.92                             121    0.69 9  205 292 
 ZAR  HZ I         442 22.95        24.1 0.30            122            205 292 
 NOR  HZ EP        441 55.41                             117    0.89 8  236 235 
 NOR  HN ES        442 21.58                             117   -0.65 8  236 235 
 NOR  HZ I         442 25.23         7.3 0.16            118            236 235 
 SML  HZ EP        441 54.90                             116   -0.40 8  244 335 
 SML  HN ES        442 22.68                             116   -0.93 8  244 335 
 SML  HZ I         442 26.22        16.4 0.13            118            244 335 
 CHI  HZ EP        441 56.84                             116    0.37 8  249 195 
 CHI  HN ES        442 24.96                             116   -0.73 8  249 195 
 HEL  HZ EP        441 59.26                             113    0.21 8  273 256 
 HEL  HE ES        442 29.41                             113   -0.88 8  273 256 
 HEL  HZ I         442 35.35         5.0 0.36            114            273 256 
 GUY2CHZ EP        442  3.22                             111    0.74 7  302 235 
 GUY2CHN ES        442 36.54                             111    0.15 7  302 235 
 GUY2CHZ I         442 43.42         5.7 0.28                           302 235 
 PTGC HZ EP   4    442  1.09                             110   -1.52 0  309 159 
 PTGC HN ES   4    442 33.45                             110   -3.18 0  309 159 
 CBOC HZ EP        442  6.04                             109    0.23 7  335 252 
 CBOC HE ES   4    442 40.59                             109   -1.74 0  335 252 
 CBOC HZ I         442 47.13         3.6 0.60            110            335 252 
 TOL  SZ EP   1    442  7.14                             108   -0.02 5  345 225 
 TOL  SN ES        442 44.41                             108   -0.31 7  345 225 
 TOL  SZ I         442 51.46         2.7 0.21            109            345 225 
 MON  HZ EP   4    442  5.97                             107   -1.87 0  354 308 
 MON  HE ES   4    442 44.73                             107   -1.20 0  354 308 
 MON  HZ I         442 45.27         3.4 0.20            109            354 308 
 PRA  HZ EP        442 12.08                             105   -0.36 6  393 210 
 PRA  HN ES        442 53.92                             105   -0.20 6  393 210 
 PRA  HZ I         442 59.88         4.5 0.32            107            393 210 
 ORTC HZ EP   1    442 11.93                             105   -0.92 4  396 216 
 ORTC HN ES        442 54.42                             105   -0.43 6  396 216 
 ORTC HZ I         443  1.08         3.7 0.42            107            396 216 
 PAL  HZ EP        442 14.28                             105    0.17 6  407 239 
 PAL  HN ES        442 56.40                             105   -0.69 6  407 239 
 PAL  HZ I         442 59.35         2.3 0.22            106            407 239 
 SJC  HZ EP   4    442 12.68                             105   -1.71 0  409 327 
 SJC  HN ES   4    442 54.13                             105   -3.47 0  409 327 
 SJC  HZ I         442 57.76         4.3 0.24            106            409 327 
                                                                                
