 2010 11 4 0048 19.8 L   6.777 -73.093150.8  RSN  7 0.2 1.6LRSN                1
 GAP=165        0.43       2.7     5.0  5.2 -0.4535E+01  0.2306E+01  0.5506E+00E
 Epicentro: LOS SANTOS - SANTANDER                                             3
 ACTION:UP  10-12-17 16:50 OP:REBC STATUS:               ID:20101104004819 L   I
 2010-11-04-0044-49S.COL___128                                                 6
 STAT SP IPHASW D HRMM SECON CODA AMPLIT PERI AZIMU VELO SNR AR TRES W  DIS CAZ7
 BAR2 SZ EP   1    048 39.98                             171     0.0 7   23 206 
 BAR2 SZ I         048 40.24         7.9 0.22                            23 206 
 BAR2 SZ ES   2    048 55.68                             171    -0.1 5   23 206 
 BRR  HZ EP   1    048 41.90                             151     0.1 7   78 298 
 BRR  HZ I         048 58.21        11.0 0.30                            78 298 
 BRR  HN ES   2    048 59.21                             151     0.2 5   78 298 
 RUS  HZ EP   1    048 43.92                             145     0.1 7   98 179 
 RUS  HN ES   2    049  2.71                             145     0.1 5   98 179 
 RUS  HZ I         049  3.61         2.7 0.31                            98 179 
 GUE  SZ EP   2    048 45.27                             140     0.2 5  118   9 
 GRA  SZ EP   2    048 45.44                             138    -0.1 5  127  15 
 GRA  SZ ES   1    049  5.47                             138    -0.2 7  127  15 
 GRA  SZ I         049  6.34         4.4 0.33                           127  15 
 OCA  SZ EP   2    048 49.25                             130     0.5 5  164 351 
 OCA  SZ ES   2    049 11.22                             130    -0.2 5  164 351 
 OCA  SZ I         049 15.12         5.9 0.50                           164 351 
 NOR  SZ EP   2    048 55.44                             119    -0.7 4  238 236 
 NOR  SN ES   2    049 24.66                             119     0.1 4  238 236 
                                                                                
