 2017 11 4 0528 48.0 L   6.813 -73.174143.9  RSN  6 0.3 1.3LRSN                1
 GAP=132        0.72       3.8     3.4  6.6 -0.2590E+01  0.1005E+02 -0.3490E+01E
 Epicentro: LOS SANTOS - SANTANDER                                             3
 ACTION:UPD 17-12-12 19:51 OP:rebc STATUS:               ID:20171104052848 L   I
 OLDACT:UP  17-11-04 15:30 OP:dnl  STATUS:               ID:20171104051737     3
 OLDACT:REG 17-11-04 13:48 OP:dnl  STATUS:               ID:20171104051737     3
 2017-11-04-0518-00M.COL___414                                                 6
 STAT SP IPHASW D HRMM SECON CODA AMPLIT PERI AZIMU VELO AIN AR TRES W  DIS CAZ7
 BAR2 EZ EP        529  7.83                             170    0.3610 24.5 182 
 BAR2 EZ ES        529 22.75                             170    0.1310 24.5 182 
 BAR2 EZ I         529 23.31         3.8 0.26            170           24.5 182 
 PAM  EZ EP        529 10.14                             150    0.0310 78.3  42 
 PAM  EE ES        529 26.84                             150   -0.4910 78.3  42 
 PAM  EZ I         529 28.97         5.5 0.58            152           78.3  42 
 RUS  HZ EP   2    529 11.86                             143    0.13 5  102 174 
 RUS  HN ES        529 30.32                             143    0.1110  102 174 
 RUS  HZ I         529 32.37         1.3 0.30            144            102 174 
 PTB  HZ EP   2    529 14.54                             132   -0.06 5  145 258 
 PTB  HN ES        529 35.24                             132   -0.07 9  145 258 
 PTB  HZ I         529 36.88         2.1 0.38            133            145 258 
 ZAR  HZ EP   2    529 20.06                             122    0.06 4  201 292 
 ZAR  HN ES        529 45.28                             122    0.35 9  201 292 
 ZAR  HZ I         529 46.86         2.6 0.44            123            201 292 
 GUY2CHZ EP   4    529 33.06                             112    1.69 0  299 234 
 GUY2CHN ES        530  4.46                             112   -0.70 7  299 234 
 GUY2CHZ I         530 15.48         1.1 0.38                           299 234 
                                                                                
