 2016  7 4 0349  6.2 L   6.836 -73.135146.0  RSN  7 0.5 1.5LRSN                1
 GAP=242        1.04       5.5     6.1  6.9  0.4855E+01  0.1112E+02  0.4668E+01E
 Epicentro: LOS SANTOS - SANTANDER                                             3
 ACTION:UPD 17-03-29 16:46 OP:lp   STATUS:               ID:20160704034906 L   I
 OLDACT:UP  16-07-04 17:02 OP:dani STATUS:               ID:20160704034743     3
 OLDACT:REG 16-07-04 13:09 OP:dani STATUS:               ID:20160704034743     3
 2016-07-04-0347-43M.COL___328                                                 6
 STAT SP IPHASW D HRMM SECON CODA AMPLIT PERI AZIMU VELO AIN AR TRES W  DIS CAZ7
 BAR2 EZ EP        349 25.95                             169    0.0410 27.4 191 
 BAR2 EZ ES        349 41.26                             169   -0.0510 27.4 191 
 BAR2 EZ I         349 42.61         6.6 0.24            168           27.4 191 
 BRR  HZ EP        349 27.80                             153    0.5110 70.5 295 
 BRR  HN ES        349 44.36                             153    0.5810 70.5 295 
 BRR  HZ I         349 52.00         4.0 0.36            150           70.5 295 
 RUS  HZ EP   2    349 29.67                             143   -0.54 5  104 177 
 RUS  HN ES   2    349 48.73                             143   -0.25 5  104 177 
 RUS  HZ I         349 49.55         1.8 0.32            147            104 177 
 PTB  HZ EP        349 32.86                             132   -0.47 9  150 257 
 PTB  HN ES        349 54.06                             132   -0.46 9  150 257 
 PTB  HZ I         349 59.89         4.2 0.52            132            150 257 
 SPBC HZ EP        349 34.76                             129   -0.28 9  167 218 
 SPBC HN ES        349 57.34                             129   -0.23 9  167 218 
 SPBC HZ I         350  2.85         8.0 0.22            131            167 218 
 ZAR  HZ EP        349 38.45                             123   -0.14 9  204 291 
 ZAR  HE ES        350  3.35                             123   -0.53 9  204 291 
 ZAR  HZ I         350 10.40         4.1 0.52            124            204 291 
 GUY2CHZ EP        349 50.89                             112    0.74 7  304 234 
 GUY2CHN ES        350 25.33                             112    0.87 7  304 234 
 GUY2CHZ I         350 32.59         1.8 0.34                           304 234 
                                                                                
