 2013  3 4 0027 38.4 L   6.763 -73.135151.0  RSN  4 0.4 1.4LRSN                1
 GAP=236        0.63       7.1     7.3  7.9  0.3237E+02 -0.4646E+00 -0.3160E+01E
 Epicentro: LOS SANTOS - SANTANDER                                             3
 ACTION:UPD 13-04-09 13:59 OP:ep   STATUS:               ID:20130304002738 L   I
 2013-03-04-0020-00M.COL___228                                                 6
 STAT SP IPHASW D HRMM SECON CODA AMPLIT PERI AZIMU VELO AIN AR TRES W  DIS CAZ7
 BRR  HZ EP   1    028  0.36                             152    0.02 8 74.3 301 
 BRR  HN ES   1    028 17.21                             152   -0.21 8 74.3 301 
 BRR  HZ I         028 18.03         5.1 0.37            152           74.3 301 
 RUS  HZ EP   1    028  2.77                             146    0.34 8 96.4 177 
 RUS  HN ES   1    028 21.15                             146    0.01 8 96.4 177 
 RUS  HZ I         028 23.25         1.2 0.16            146           96.4 177 
 PTB  HZ EP        028  5.61                             133   -0.2810  148 260 
 PTB  HE ES   1    028 27.22                             133   -0.07 7  148 260 
 PTB  HZ I         028 28.06         4.3 0.68            133            148 260 
 ZAR  HN ES   2    028 38.35                             123    1.04 5  207 293 
 ZAR  HZ I         028 40.55         5.0 0.82            123            207 293 
                                                                                
