 2017  3 4 0716  4.2 L   6.476 -73.485111.0  RSN  4 0.1 0.7LRSN                1
 GAP=128        0.37       2.7     2.3  4.2  0.3704E+01  0.5385E+01  0.5625E+01E
 Epicentro: SIMACOTA - SANTANDER                                               3
 ACTION:UPD 17-05-25 18:36 OP:jn   STATUS:               ID:20170304071604 L   I
 OLDACT:DUP 17-03-04 17:13 OP:lv   STATUS:               ID:20170304070644d    3
 2017-03-04-0707-00M.COL___397                                                 6
 STAT SP IPHASW D HRMM SECON CODA AMPLIT PERI AZIMU VELO AIN AR TRES W  DIS CAZ7
 BAR2 EZ ES        716 32.40                             161   -0.0610 35.9  69 
 BAR2 EZ I         716 33.83         1.6 0.09            166           35.9  69 
 BRR  HN ES        716 35.78                             144    0.0510 74.1 340 
 RUS  HZ EP        716 22.79                             143   -0.1210 78.4 145 
 RUS  HN ES        716 37.63                             143    0.1010 78.4 145 
 RUS  HZ I         716 38.84         0.9 0.22            145           78.4 145 
 PTB  HZ EP        716 24.78                             132    0.1110  108 274 
 PTB  HN ES        716 40.58                             132   -0.0810  108 274 
 PTB  HZ I         716 43.32         1.7 0.14            134            108 274 
                                                                                
