 2017  9 4 0159 47.4 L   6.809 -73.140143.5  RSN  5 0.4 1.2LRSN                1
 GAP=137        0.75       4.3     4.6  7.2  0.4842E+01  0.1027E+02 -0.1192E+00E
 Epicentro: LOS SANTOS - SANTANDER                                             3
 ACTION:UPD 17-10-05 19:08 OP:rebc STATUS:               ID:20170904015947 L   I
 OLDACT:UP  17-09-04 14:07 OP:dnl  STATUS:               ID:20170904015743     3
 OLDACT:UP  17-09-04 14:06 OP:dnl  STATUS:               ID:20170904015743     3
 OLDACT:UP  17-09-04 14:06 OP:dnl  STATUS:               ID:20170904015743     3
 OLDACT:REG 17-09-04 12:20 OP:dnl  STATUS:               ID:20170904015743     3
 2017-09-04-0158-00M.COL___417                                                 6
 STAT SP IPHASW D HRMM SECON CODA AMPLIT PERI AZIMU VELO AIN AR TRES W  DIS CAZ7
 BAR2 EZ EP        2 0  7.12                             170    0.3310 24.4 191 
 BAR2 EZ ES        2 0 22.04                             170    0.1410 24.4 191 
 BAR2 EZ I         2 0 23.06         3.9 0.36            169           24.4 191 
 BRR  HZ EP   2    2 0  7.14                             152   -1.18 5 71.3 298 
 BRR  HN ES        2 0 24.67                             152    0.0410 71.3 298 
 BRR  HZ I         2 0 35.86         5.5 0.46            149           71.3 298 
 PAM  EZ EP   2    2 0 10.07                             151    0.76 5 76.2  40 
 PAM  EN ES        2 0 26.11                             151   -0.2910 76.2  40 
 PAM  EZ I         2 0 29.05         2.4 0.50            156           76.2  40 
 RUS  HZ EP   2    2 0 10.89                             143   -0.12 5  102 176 
 RUS  HN ES        2 0 29.27                             143   -0.1410  102 176 
 RUS  HZ I         2 0 31.55         1.8 0.38            149            102 176 
 ZAR  HZ EP   2    2 0 19.48                             122   -0.25 4  204 292 
 ZAR  HN ES        2 0 45.08                             122    0.14 9  204 292 
 ZAR  HZ I         2 0 51.27         2.0 0.38            124            204 292 
                                                                                
