 2012  1 4 0803  8.3 L   6.803 -73.141143.5  RSN  9 0.4 1.9LRSN                1
 GAP=137        0.82       3.7     5.1  6.3 -0.2630E+01  0.8239E+01  0.2512E+01E
 Epicentro: LOS SANTOS - SANTANDER                                             3
 ACTION:UP  12-02-03 08:14 OP:REBC STATUS:               ID:20120104080308 L   I
 2012-01-04-0800-00M.COL___183                                                 6
 STAT SP IPHASW D HRMM SECON CODA AMPLIT PERI AZIMU VELO SNR AR TRES W  DIS CAZ7
 BAR2 SZ EP   1    8 3 27.52                             170    -0.1 7   24 191 
 BAR2 SZ ES   1    8 3 42.44                             170    -0.3 7   24 191 
 BAR2 SZ I         8 3 43.89        17.8 0.39                            24 191 
 BRR  HZ EP   1    8 3 29.36                             152     0.1 7   72 298 
 BRR  HE ES   1    8 3 46.20                             152     0.7 7   72 298 
 BRR  HZ I         8 3 47.12        22.0 0.21                            72 298 
 PAM  SZ EP   1    8 3 30.27                             151     0.0 7   77  39 
 PAM  SN ES   1    8 3 47.10                             151    -0.2 7   77  39 
 RUS  HZ EP   1    8 3 31.78                             143    -0.1 7  101 176 
 RUS  HN ES   1    8 3 50.31                             143     0.1 7  101 176 
 RUS  HZ I         8 3 51.85         5.2 0.36                           101 176 
 PTB  HZ EP   1    8 3 34.29                             131    -0.8 7  148 259 
 PTB  HN ES   2    8 3 55.66                             131    -0.4 5  148 259 
 OCA  SZ EP   1    8 3 36.71                             129     0.3 7  160 353 
 OCA  SZ ES   2    8 3 58.28                             129    -0.1 5  160 353 
 OCA  SZ I         8 4  2.58         9.5 0.41                           160 353 
 ZAR  HZ EP   2    8 3 41.20                             122     0.6 4  204 292 
 ZAR  HN ES   2    8 4  5.94                             122     0.1 4  204 292 
 ZAR  HZ I         8 4 12.70         9.2 0.25                           204 292 
 NOR  SZ EP   1    8 3 43.45                             118    -0.5 6  235 234 
 NOR  SN ES   1    8 4 11.64                             118    -0.1 6  235 234 
 CHI  HZ EP   1    8 3 46.17                             117     0.3 6  249 195 
 CHI  HE ES   1    8 4 16.01                             117     0.8 6  249 195 
 CHI  HZ I         8 4 20.63         4.6 0.63                           249 195 
                                                                                
