 2011  6 4 0616 52.6 L   6.778 -73.092146.9  RSN 13 0.3 3.1LRSN                1
 GAP=145        0.60       2.4     4.5  4.1 -0.4904E+01  0.3134E+01  0.2485E+01E
 Epicentro: LOS SANTOS - SANTANDER                                             3
 ACTION:UP  11-07-14 19:03 OP:ep   STATUS:               ID:20110604061652 L   I
 2011-06-04-0614-28S.COL___132                                                 6
 STAT SP IPHASW D HRMM SECON CODA AMPLIT PERI AZIMU VELO SNR AR TRES W  DIS CAZ7
 BAR2 SZ IP        617 12.33                             171     0.010   23 206 
 BAR2 SZ ES   1    617 27.51                             171    -0.2 7   23 206 
 BAR2 SZ I         617 29.22       286.9 0.24                            23 206 
 PAM  SZ EP   1    617 15.15                             151     0.3 7   76  35 
 PAM  SN ES   1    617 32.00                             151    -0.2 7   76  35 
 BRR  HZ EP   1    617 14.25                             151     0.0 7   78 298 
 BRR  HN ES   1    617 31.53                             151     0.4 7   78 298 
 BRR  HZ I         617 34.49       387.4 0.21                            78 298 
 RUS  HZ EP   1    617 16.14                             145    -0.1 7   98 179 
 RUS  HZ I         617 17.11        66.6 0.30                            98 179 
 RUS  HN ES   2    617 35.16                             145     0.4 5   98 179 
 BRI  SZ EP   1    617 16.87                             141     0.3 7  109  17 
 BRI  SZ ES   1    617 35.11                             141    -0.2 7  109  17 
 BRI  SZ I         617 42.21       144.8 0.49                           109  17 
 GRA  SZ IP        617 18.14                             137     0.110  126  15 
 GRA  SZ ES   1    617 37.74                             137    -0.1 7  126  15 
 GRA  SZ I         617 39.48       231.7 0.32                           126  15 
 OCA  SZ EP   1    617 20.84                             129    -0.4 7  163 351 
 OCA  SZ ES   1    617 43.64                             129     0.0 7  163 351 
 OCA  SZ I         617 46.34       151.7 0.23                           163 351 
 NOR  SZ EP   1    617 28.21                             118    -0.5 6  238 236 
 NOR  SE ES   2    617 56.81                             118    -0.2 4  238 236 
 CHI  HZ EP   1    617 30.32                             117     0.0 6  248 197 
 CHI  HE ES   1    617 59.41                             117    -0.3 6  248 197 
 CHI  HZ I         618  9.28        73.2 0.39                           248 197 
 HEL  HZ EP   1    617 33.52                             114     0.1 6  277 257 
 HEL  HZ I         618 11.05        89.3 0.34                           277 257 
 VIL  SZ EP   1    617 36.42                             112     0.5 5  302 193 
 TOL  SZ EP   1    617 41.67                             109     0.5 5  346 226 
 PRA  HZ EP   1    617 45.79                             107    -0.5 4  393 211 
 PRA  HE ES   2    618 27.78                             107    -0.3 3  393 211 
                                                                                
