 2016  3 4 0525 32.8 L   6.807 -73.130141.8  RSN 11 0.4 1.9LRSN                1
 GAP=127        0.98       2.9     3.8  5.6 -0.2943E+01  0.4410E+01 -0.2352E+00E
 Epicentro: LOS SANTOS - SANTANDER                                             3
 ACTION:UPD 16-05-13 21:21 OP:cam  STATUS:               ID:20160304052532 L   I
 OLDACT:UP  16-03-04 17:09 OP:mh   STATUS:               ID:20160304051747     3
 OLDACT:UP  16-03-04 17:08 OP:mh   STATUS:               ID:20160304051747     3
 OLDACT:UP  16-03-04 17:07 OP:mh   STATUS:               ID:20160304051747     3
 OLDACT:UP  16-03-04 17:06 OP:mh   STATUS:               ID:20160304051747     3
 OLDACT:REG 16-03-04 12:58 OP:mh   STATUS:               ID:20160304051747     3
 2016-03-04-0517-47M.COL___327                                                 6
 STAT SP IPHASW D HRMM SECON CODA AMPLIT PERI AZIMU VELO AIN AR TRES W  DIS CAZ7
 BAR2 EZ I         525 52.10        23.7 0.40            167           24.5 194 
 BAR2 EZ IP     C  525 52.15                             170    0.2010 24.5 194 
 BAR2 EZ ES        526  6.74                             170   -0.1610 24.5 194 
 PAM  EZ EP        525 55.01                             151    0.5510 75.7  39 
 PAM  EN ES        526 11.70                             151    0.3210 75.7  39 
 PAM  EZ I         526 13.94        19.1 0.46            145           75.7  39 
 RUS  HZ EP        525 56.18                             143   -0.0010  101 177 
 RUS  HN ES        526 14.54                             143    0.1010  101 177 
 RUS  HZ I         526 15.27        10.7 0.34            136            101 177 
 PTB  HZ EP        525 58.85                             131   -0.74 9  150 259 
 PTB  HN ES        526 20.17                             131   -0.33 9  150 259 
 PTB  HZ I         526 23.24         7.8 0.16            123            150 259 
 OCA  HZ EP        526  0.53                             129   -0.19 9  160 352 
 OCA  HN ES        526 21.90                             129   -0.62 9  160 352 
 OCA  HZ I         526 23.42        18.1 0.16            121            160 352 
 SPBC HZ EP        526  1.10                             128   -0.03 9  165 219 
 SPBC HN ES        526 23.26                             128    0.01 9  165 219 
 SPBC HZ I         526 25.95        15.4 0.18            120            165 219 
 ZAR  HZ EP   1    526  5.66                             121    0.56 6  205 292 
 ZAR  HN ES        526 31.01                             121    0.70 8  205 292 
 NOR  HZ EP        526  8.79                             117    0.31 8  237 235 
 NOR  HE ES        526 36.19                             117   -0.13 8  237 235 
 NOR  HZ I         526 43.02         6.2 0.18            111            237 235 
 CHI  HZ EP        526 10.89                             116    0.50 8  250 196 
 CHI  HN ES        526 39.23                             116   -0.49 8  250 196 
 CHI  HZ I         526 42.66         2.9 0.54            110            250 196 
 URE  HZ EP   4    526 16.15                             113    2.35 0  285 292 
 URE  HN ES   4    526 45.34                             113   -0.46 0  285 292 
 GUY2CHZ EP   4    526 17.91                             111    1.50 0  303 235 
 GUY2CHN ES   4    526 53.00                             111    2.55 0  303 235 
 SDV  BZ EP        526 21.86                             108   -0.59 6  359  50 
 SDV  BN ES   4    526 58.06                             108   -3.14 0  359  50 
 SDV  BZ I         527  1.46         1.5 0.35            102            359  50 
 SJC  HZ EP   4    526 30.69                             105    2.45 0  410 327 
 SJC  HN ES   4    527  7.47                             105   -4.03 0  410 327 
 SJC  HZ I         527 15.98         2.3 0.44            100            410 327 
                                                                                
