 2012  8 4 0004 57.2 L   6.751 -73.154145.7  RSN  7 0.4 1.6LRSN                1
 GAP=138        0.71       4.6     4.2  6.4  0.2190E+01  0.4847E+01  0.5574E+01E
 Epicentro: LOS SANTOS - SANTANDER                                             3
 ACTION:UPD 12-09-10 11:54 OP:ep   STATUS:               ID:20120804000457 L   I
 2012-08-04-0000-00M.COL___215                                                 6
 STAT SP IPHASW D HRMM SECON CODA AMPLIT PERI AZIMU VELO AIN AR TRES W  DIS CAZ7
 BAR2 SZ EP   1    0 5 16.87                             173    0.14 7 17.8 190 
 BAR2 SZ ES   1    0 5 32.15                             173    0.19 7 17.8 190 
 BAR2 SZ I         0 5 32.96        12.4 0.22                          17.8 190 
 BRR  HZ EP   2    0 5 18.86                             152    0.40 5 73.2 303 
 BRR  HN ES   1    0 5 35.73                             152    0.68 7 73.2 303 
 BRR  HZ I         0 5 39.88        13.2 0.12                          73.2 303 
 PAM  SZ EP   1    0 5 19.76                             149    0.05 7 82.2  38 
 PAM  SN ES   1    0 5 36.78                             149   -0.48 7 82.2  38 
 RUS  HZ EP   1    0 5 20.61                             145    0.04 7 95.2 175 
 RUS  HN ES   1    0 5 38.56                             145   -0.24 7 95.2 175 
 RUS  HZ I         0 5 40.33         7.3 0.30                          95.2 175 
 PTB  HZ EP   1    0 5 23.56                             132   -0.44 7  146 261 
 PTB  HN ES   1    0 5 44.45                             132   -0.46 7  146 261 
 PTB  HZ I         0 5 47.59         4.3 0.17                           146 261 
 ZAR  HN ES   1    0 5 55.08                             122   -0.11 6  205 294 
 CHI  HZ EP   1    0 5 34.81                             118    0.50 6  243 195 
 CHI  HZ I         0 5 37.84         1.9 0.19                           243 195 
                                                                                
