 2011 11 4 0401 58.1 L   6.781 -73.109138.0  RSN  5 0.1 1.7LRSN                1
 GAP=142        0.33       2.7     2.4  3.6  0.3443E+00 -0.8569E+00  0.7221E+00E
 Epicentro: LOS SANTOS - SANTANDER                                             3
 ACTION:UPD 12-07-13 16:08 OP:ep   STATUS:               ID:20111104040158 L   I
 2011-11-04-0345-00M.COL___176                                                 6
 STAT SP IPHASW D HRMM SECON CODA AMPLIT PERI AZIMU VELO AIN AR TRES W  DIS CAZ7
 BAR2 SZ EP   1    4 2 16.73                             170   -0.09 7 22.4 201 
 BAR2 SZ ES   2    4 2 31.26                             170   -0.13 5 22.4 201 
 BAR2 SZ I         4 2 32.64        11.6 0.32                          22.4 201 
 BRR  HZ EP        4 2 18.72                             149   -0.0110 75.7 298 
 BRR  HE ES        4 2 34.83                             149    0.0410 75.7 298 
 BRR  HZ I         4 2 36.53         9.1 0.18                          75.7 298 
 PAM  SZ EP        4 2 19.62                             150    0.1310 76.6  36 
 PAM  SN ES   1    4 2 36.01                             150   -0.12 7 76.6  36 
 RUS  HZ EP   2    4 2 20.75                             143   -0.22 5 98.3 178 
 RUS  HN ES   2    4 2 39.00                             143    0.23 5 98.3 178 
 RUS  HZ I         4 2 40.64         4.7 0.42                          98.3 178 
 ZAR  HN ES   2    4 2 55.78                             120   -0.08 4  209 292 
 ZAR  HZ I         4 3  2.62         7.2 0.14                           209 292 
                                                                                
