 2014  4 4 0010 34.4 L   6.806 -73.165142.6  RSN  8 0.5 2.0LRSN                1
 GAP= 70        1.13       4.2     4.5  9.4  0.1131E+01  0.7913E+01  0.2211E+01E
 Epicentro: LOS SANTOS - SANTANDER                                             3
 ACTION:UPD 14-05-13 23:06 OP:nd   STATUS:               ID:20140404001034 L   I
 OLDACT:UP  14-04-04 14:00 OP:cam  STATUS:               ID:20140404000806     3
 OLDACT:REG 14-04-04 12:46 OP:cam  STATUS:               ID:20140404000806     3
 2014-04-04-0008-06M.COL___261                                                 6
 STAT SP IPHASW D HRMM SECON CODA AMPLIT PERI AZIMU VELO AIN AR TRES W  DIS CAZ7
 PAM  SZ EP     D  010 56.51                             150    0.2210 78.2  41 
 PAM  SN ES        011 13.50                             150    0.1110 78.2  41 
 PAM  SZ I         011 15.45        27.2 0.62            145           78.2  41 
 RUS  HZ EP        010 57.46                             143   -0.3910  101 175 
 RUS  HN ES        011 16.24                             143    0.0610  101 175 
 RUS  HZ I         011 16.97         7.0 0.34            134            101 175 
 PTB  HZ EP   1    011  0.34                             132   -0.55 7  146 258 
 PTB  HN ES        011 20.74                             132   -0.84 9  146 258 
 PTB  HZ I         011 23.03        14.0 0.46            121            146 258 
 TAM  HZ EP        011  1.84                             129   -0.15 9  157 105 
 TAM  HZ I         011  1.88        22.7 0.20            122            157 105 
 OCA  HN ES   4    011 25.74                             129    1.58 0  159 354 
 SPBC HZ EP   1    011  2.17                             128   -0.36 7  162 218 
 SPBC HZ I         011 31.97         8.7 0.28            118            162 218 
 ZAR  HZ EP        011  6.68                             122    0.31 9  202 292 
 ZAR  HN ES        011 32.17                             122    0.83 9  202 292 
 ZAR  HZ I         011 38.42        11.0 0.26            113            202 292 
 SML  HZ EP   4    011  9.46                             117   -1.19 0  242 336 
 SML  HN ES   1    011 38.63                             117   -0.32 6  242 336 
 SML  HZ I         011 45.85        13.8 0.26            109            242 336 
 CHI  HZ EP   2    011 11.79                             116   -0.10 4  249 195 
 CHI  HN ES        011 42.12                             116    0.96 8  249 195 
 CHI  HZ I         011 47.66         3.2 0.50            108            249 195 
 SJC  HZ EP   4    011 27.85                             105   -1.77 0  408 327 
 SJC  HN ES   4    012  9.87                             105   -2.85 0  408 327 
                                                                                
