 2015  3 4 0440 27.2 L   6.802 -73.140142.2  RSN  5 0.2 1.2LRSN                1
 GAP=137        0.50       3.3     3.2  5.0  0.2875E+01  0.6174E+01  0.1813E+01E
 Epicentro: LOS SANTOS - SANTANDER                                             3
 ACTION:UPD 15-04-30 16:22 OP:nd   STATUS:               ID:20150304044027 L   I
 OLDACT:DUP 15-03-04 16:12 OP:spq  STATUS:               ID:20150304043751d    3
 2015-03-04-0437-49M.COL___290                                                 6
 STAT SP IPHASW D HRMM SECON CODA AMPLIT PERI AZIMU VELO AIN AR TRES W  DIS CAZ7
 BRR  HZ EP        440 48.03                             152    0.0910 71.7 298 
 BRR  HN ES   1    441  4.40                             152    0.24 7 71.7 298 
 BRR  HZ I         441  9.21         3.5 0.12            151           71.7 298 
 PAM  SE ES   1    441  5.85                             150   -0.11 7 76.9  39 
 PAM  SZ I         441  7.68         3.6 0.48            154           76.9  39 
 RUS  HZ EP   1    440 50.70                             143    0.13 7  101 176 
 RUS  HE ES   1    441  8.64                             143   -0.18 7  101 176 
 RUS  HZ I         441 10.13         1.6 0.24            149            101 176 
 PTB  HZ EP        440 54.16                             131    0.27 9  148 259 
 PTB  HE ES   1    441 14.55                             131   -0.19 7  148 259 
 PTB  HZ I         441 16.31         1.4 0.16            134            148 259 
 ZAR  HZ EP        440 59.07                             121   -0.35 9  205 292 
 ZAR  HN ES        441 24.57                             121   -0.02 9  205 292 
 ZAR  HZ I         441 30.37         1.7 0.28            124            205 292 
                                                                                
