 2013  3 4 0959 49.3 L   5.815 -73.816112.7  RSN  5 0.2 1.6LRSN                1
 GAP=143        0.42       2.1     2.5  4.8  0.1305E+01  0.5090E+01  0.1394E+01E
 Epicentro: JESUS MARIA - SANTANDER                                            3
 ACTION:UPD 13-04-09 13:59 OP:ep   STATUS:               ID:20130304095949 L   I
 2013-03-04-0958-50M.COL___193                                                 6
 STAT SP IPHASW D HRMM SECON CODA AMPLIT PERI AZIMU VELO AIN AR TRES W  DIS CAZ7
 RUS  HZ EP       10 0  8.27                             142   -0.1510 81.5  84 
 RUS  HN ES       10 0 23.35                             142    0.0110 81.5  84 
 RUS  HE I        10 0 24.70         3.9 0.36            144           81.5  84 
 PTB  HZ EP       10 0  9.63                             133   -0.2310  107 319 
 PTB  HN ES   1   10 0 26.00                             133    0.09 7  107 319 
 BAR2 SZ EP       10 0 10.64                             132    0.1310  111  39 
 BAR2 SZ ES       10 0 27.00                             132   -0.0710  111  39 
 BAR2 SZ I        10 0 28.38        25.7 0.38            133            111  39 
 CHI  HZ EP   2   10 0 12.59                             127   -0.09 5  131 176 
 CHI  HN ES   2   10 0 31.24                             127    0.31 5  131 176 
 BRR  HZ EP       10 0 13.57                             124    0.26 9  143   5 
 BRR  HN ES       10 0 32.02                             124   -0.03 9  143   5 
 BRR  HE I        10 0 39.09         5.7 0.18            124            143   5 
                                                                                
