 2013  6 4 0653 33.6 L   6.806 -73.159145.7  RSN  7 0.4 1.7LRSN                1
 GAP=135        1.01       4.3     5.1  8.0 -0.3186E+01  0.6953E+01  0.3544E+00E
 Epicentro: LOS SANTOS - SANTANDER                                             3
 ACTION:UPD 14-01-08 09:52 OP:ep   STATUS:               ID:20130604065333 L   I
 2013-06-04-0650-00M.COL___257                                                 6
 STAT SP IPHASW D HRMM SECON CODA AMPLIT PERI AZIMU VELO AIN AR TRES W  DIS CAZ7
 BAR2 SZ EP        653 53.29                             170    0.0610 23.7 186 
 BAR2 SZ ES   1    654  8.35                             170   -0.19 7 23.7 186 
 BAR2 SZ I         654 14.09         4.4 0.20            167           23.7 186 
 BRR  HZ EP     C  653 55.04                             153    0.3910 69.6 299 
 BRR  HN ES        654 11.79                             153    0.7210 69.6 299 
 BRR  HN I         654 12.45        28.8 0.20            149           69.6 299 
 PAM  SZ IP     D  653 56.21                             151    0.3810 77.9  41 
 PAM  SN ES        654 13.06                             151   -0.1210 77.9  41 
 PAM  SN I         654 15.05         9.5 0.62            156           77.9  41 
 RUS  HZ EP   1    653 57.46                             144    0.07 7  101 175 
 RUS  HN ES        654 15.77                             144   -0.1810  101 175 
 RUS  HN I         654 18.91         5.1 0.40            143            101 175 
 PTB  HZ EP        654  0.03                             132   -0.41 9  146 258 
 PTB  HN ES        654 20.93                             132   -0.44 9  146 258 
 PTB  HN I         654 23.41         9.2 0.48            130            146 258 
 OCA  HE ES        654 23.18                             130   -0.67 9  159 354 
 OCA  HE I         654 27.00        14.2 0.38            131            159 354 
 HEL  HZ EP   4    654 15.71                             115    2.05 0  271 256 
 HEL  HN ES   2    654 45.74                             115    0.83 4  271 256 
 HEL  HN I         655  3.41         1.7 0.30            114            271 256 
                                                                                
