 2016  5 4 0126 36.8 L   6.766 -73.093141.2  RSN  7 0.3 1.5LRSN                1
 GAP=145        0.81       3.7     4.0  6.2 -0.4464E+00  0.7213E+01  0.2228E+01E
 Epicentro: LOS SANTOS - SANTANDER                                             3
 ACTION:UPD 16-08-18 17:41 OP:cam  STATUS:               ID:20160504012636 L   I
 OLDACT:REG 16-05-04 12:18 OP:ak   STATUS:               ID:20160504011745     3
 2016-05-04-0117-45M.COL___298                                                 6
 STAT SP IPHASW D HRMM SECON CODA AMPLIT PERI AZIMU VELO AIN AR TRES W  DIS CAZ7
 BAR2 EZ EP   2    126 55.54                             171   -0.27 5 21.6 207 
 BAR2 EZ ES        127 10.45                             171   -0.2210 21.6 207 
 BAR2 EZ I         127 11.76         6.9 0.14            171           21.6 207 
 PAM  EZ IP     D  126 58.82                             150    0.3610 76.8  34 
 PAM  EN ES        127 15.13                             150   -0.2510 76.8  34 
 PAM  EZ I         127 17.85         8.1 0.58            151           76.8  34 
 BRR  HZ EP   1    126 58.08                             149    0.25 7 78.1 299 
 BRR  HE ES        127 14.85                             149    0.5810 78.1 299 
 RUS  HZ EP        126 59.58                             144   -0.2010 96.6 179 
 RUS  HN ES        127 17.74                             144    0.0110 96.6 179 
 RUS  HZ I         127 19.85         3.4 0.36            145           96.6 179 
 PTB  HZ EP   2    127  3.68                             130   -0.15 5  153 261 
 PTB  HN ES   4    127 22.83                             130   -2.12 0  153 261 
 PTB  HZ I         127 25.96         3.4 0.20            131            153 261 
 ZAR  HZ EP   4    127  7.87                             120   -1.76 0  211 292 
 ZAR  HN ES        127 34.58                             120   -0.68 8  211 292 
 ZAR  HZ I         127 36.57         3.1 0.19            122            211 292 
 NOR  HZ EP   2    127 12.65                             117    0.13 4  237 236 
 NOR  HN ES        127 40.62                             117    0.21 8  237 236 
 NOR  HZ I         127 41.71         2.7 0.12            118            237 236 
                                                                                
