 2011  7 4 0627 46.8 L   6.797 -73.059139.9  RSN  6 0.2 1.4LRSN                1
 GAP=148        0.50       2.8     5.3  4.6 -0.2442E+01 -0.5789E+01 -0.1992E-01E
 Epicentro: LOS SANTOS - SANTANDER                                             3
 ACTION:UPD 12-07-25 13:58 OP:epov STATUS:               ID:20110704062746 L   I
 2011-07-04-0625-20S.COL___140                                                 6
 STAT SP IPHASW D HRMM SECON CODA AMPLIT PERI AZIMU VELO AIN AR TRES W  DIS CAZ7
 BAR2 SZ EP   1    628  5.82                             169    0.01 7 26.4 211 
 BAR2 SZ ES   1    628 20.70                             169    0.07 7 26.4 211 
 BAR2 SZ I         628 22.32         4.6 0.28                          26.4 211 
 GIR2 SZ EP   1    628  5.85                             165   -0.04 7 34.5 334 
 GIR2 SZ ES   1    628 20.26                             165   -0.50 7 34.5 334 
 PAM  SZ EP   1    628  8.44                             152    0.36 7 71.9  33 
 PAM  SN ES   2    628 24.90                             152    0.23 5 71.9  33 
 BRR  HZ EP   1    628  7.67                             148   -0.19 7 79.9 295 
 BRR  HZ I         628  7.93        10.0 0.20                          79.9 295 
 BRR  HN ES   1    628 24.65                             148    0.37 7 79.9 295 
 RUS  HZ EP   1    628  9.89                             143   -0.07 7  100 182 
 RUS  HN ES   1    628 28.04                             143    0.03 7  100 182 
 RUS  HZ I         628 30.39         3.3 0.31                           100 182 
 GRA  SZ EP   1    628 11.20                             136   -0.15 7  124  13 
 GRA  SZ ES   1    628 30.50                             136    0.01 7  124  13 
 GRA  SZ I         628 32.41         3.7 0.26                           124  13 
                                                                                
