 2013  2 4 0701 50.9 L   6.785 -73.121147.4  RSN 11 0.5 2.2LRSN                1
 GAP= 73        1.15       3.4     4.7  6.8  0.6578E+00  0.6693E+01  0.1774E+01E
 Epicentro: LOS SANTOS - SANTANDER                                             3
 ACTION:UPD 13-03-12 09:30 OP:ep   STATUS:               ID:20130204070150 L   I
 2013-02-04-0700-00M.COL___241                                                 6
 STAT SP IPHASW D HRMM SECON CODA AMPLIT PERI AZIMU VELO AIN AR TRES W  DIS CAZ7
 BAR2 SZ IP     C  7 2 10.72                             171    0.0610 22.3 198 
 BAR2 SZ ES   1    7 2 26.35                             171    0.25 7 22.3 198 
 BAR2 SZ I         7 2 28.46        20.1 0.22            167           22.3 198 
 BRR  HZ IP     C  7 2 12.65                             152    0.2910 74.4 299 
 BRR  HN ES        7 2 30.16                             152    1.0310 74.4 299 
 BRR  HN I         7 2 33.26        46.8 0.18            148           74.4 299 
 PAM  SZ EP        7 2 13.51                             151    0.2910 77.0  37 
 PAM  SN ES        7 2 30.79                             151    0.1310 77.0  37 
 PAM  SN I         7 2 31.96        11.2 0.46            156           77.0  37 
 RUS  HZ EP     D  7 2 14.58                             145   -0.0510 98.7 178 
 RUS  HN ES        7 2 32.37                             145   -0.8110 98.7 178 
 RUS  HN I         7 2 34.91         7.2 0.18            145           98.7 178 
 PTB  HZ EP        7 2 17.55                             132   -0.61 9  150 260 
 PTB  HN ES   1    7 2 39.02                             132   -0.45 7  150 260 
 PTB  HN I         7 2 44.02        50.7 0.60            130            150 260 
 TAM  HZ EP   1    7 2 18.61                             132    0.23 7  152 105 
 TAM  HN ES   2    7 2 39.28                             132   -0.56 5  152 105 
 OCA  HZ EP   1    7 2 19.45                             130   -0.03 7  162 352 
 OCA  HN ES        7 2 41.34                             130   -0.46 9  162 352 
 ZAR  HZ EP   1    7 2 23.86                             122    0.13 6  207 292 
 ZAR  HN ES   2    7 2 49.51                             122    0.14 4  207 292 
 ZAR  HN I         7 2 55.30        19.3 0.64            122            207 292 
 SML  HZ EP   1    7 2 28.53                             118    0.67 6  246 335 
 SML  HN ES        7 2 55.57                             118   -1.15 8  246 335 
 SML  HN I         7 3  2.68        37.4 0.10            118            246 335 
 CHI  HZ EP        7 2 28.86                             118    0.32 8  248 196 
 CHI  HN ES        7 2 58.07                             118    0.13 8  248 196 
 CHI  HN I         7 3  5.72         7.0 0.50            118            248 196 
 HEL  HZ EP   1    7 2 32.12                             115    0.73 6  274 256 
 HEL  HN ES   1    7 3  2.84                             115   -0.18 6  274 256 
 HEL  HN I         7 3 13.57         4.0 0.54            115            274 256 
                                                                                
