 2014  1 4 0342 42.2 L   6.673 -73.165138.7  RSN  6 0.5 1.3LRSN                1
 GAP=139        1.17       4.7     5.8  7.8 -0.2612E+01  0.5330E+01  0.9197E+01E
 Epicentro: VILLANUEVA - SANTANDER                                             3
 ACTION:UPD 14-03-13 09:51 OP:ep   STATUS:               ID:20140104034242 L   I
 OLDACT:DUP 14-01-04 12:30 OP:stll STATUS:               ID:20140104033811d    3
 2014-01-04-0338-10M.COL___240                                                 6
 STAT SP IPHASW D HRMM SECON CODA AMPLIT PERI AZIMU VELO AIN AR TRES W  DIS CAZ7
 BAR2 SZ EP        343  0.66                             176   -0.1410 9.16 192 
 BAR2 SZ ES        343 15.14                             176   -0.1510 9.16 192 
 BAR2 SZ I         343 17.01         8.3 0.26            173           9.16 192 
 BRR  HZ EP        343  3.24                             149    0.2610 77.2 308 
 BRR  HN ES        343 19.35                             149    0.1810 77.2 308 
 RUS  HZ EP        343  4.80                             146    0.4910 86.8 174 
 RUS  HN ES        343 22.28                             146    0.7410 86.8 174 
 RUS  HZ I         343 24.72         3.2 0.32            146           86.8 174 
 PAM  SZ EP        343  4.45                             146   -0.0710 89.9  35 
 PAM  SE ES        343 21.28                             146   -0.6210 89.9  35 
 PAM  SZ I         343 23.59         5.1 0.40            149           89.9  35 
 PTB  HZ EP        343  8.65                             131    0.41 9  144 264 
 PTB  HN ES        343 28.18                             131   -0.35 9  144 264 
 PTB  HZ I         343 31.55         2.9 0.36            132            144 264 
 CHI  HZ EP        343 17.92                             117   -0.09 8  235 196 
 CHI  HN ES        343 44.89                             117   -1.02 8  235 196 
 CHI  HZ I         343 51.02         1.0 0.40            118            235 196 
                                                                                
