 2010 11 4 0106 55.8 L   6.792 -73.138149.7  RSN  4 0.2 1.2LRSN                1
 GAP=165        0.40       6.6    14.3 12.5  0.6368E+02 -0.1264E+03 -0.4942E+02E
 Epicentro: LOS SANTOS - SANTANDER                                             3
 ACTION:UP  10-12-17 16:50 OP:REBC STATUS:               ID:20101104010655 L   I
 2010-11-04-0104-49S.COL___128                                                 6
 STAT SP IPHASW D HRMM SECON CODA AMPLIT PERI AZIMU VELO SNR AR TRES W  DIS CAZ7
 BAR2 SZ EP   2    1 7 15.55                             171    -0.3 5   23 193 
 BAR2 SZ I         1 7 33.08         5.2 0.48                            23 193 
 BRR  HZ EP   2    1 7 17.31                             153    -0.1 5   72 299 
 BRR  HZ I         1 7 19.92         4.1 0.30                            72 299 
 BRR  HN ES   2    1 7 34.40                             153     0.1 5   72 299 
 RUS  HZ EP   2    1 7 20.11                             145     0.3 5  100 176 
 RUS  HZ I         1 7 36.07         1.0 0.37                           100 176 
 RUS  HE ES   2    1 7 38.61                             145     0.0 5  100 176 
 GUE  SZ EP   2    1 7 21.01                             140     0.1 5  117  12 
                                                                                
