 2017  6 4 0647 21.0 L   6.770 -73.140142.0  RSN  9 0.4 1.6LRSN                1
 GAP=210        0.67       4.0     4.9  6.0  0.4813E+01  0.2791E+01  0.5679E+01E
 Epicentro: LOS SANTOS - SANTANDER                                             3
 ACTION:UPD 17-09-14 16:49 OP:jn   STATUS:               ID:20170604064721 L   I
 OLDACT:UP  17-06-04 17:39 OP:and  STATUS:               ID:20170604063737     3
 OLDACT:UP  17-06-04 17:39 OP:and  STATUS:               ID:20170604063737     3
 OLDACT:REG 17-06-04 13:42 OP:osc  STATUS:               ID:20170604063737     3
 2017-06-04-0638-00M.COL___350                                                 6
 STAT SP IPHASW D HRMM SECON CODA AMPLIT PERI AZIMU VELO AIN AR TRES W  DIS CAZ7
 BRR  HZ IP     C  647 41.74                             151   -0.1510 73.3 301 
 BRR  HN ES        647 58.42                             151    0.2510 73.3 301 
 BRR  HZ I         648  0.98         7.8 0.18            143           73.3 301 
 RUS  HZ EP   2    647 44.36                             144    0.19 5 97.3 176 
 RUS  HN ES   2    648  2.28                             144    0.06 5 97.3 176 
 RUS  HZ I         648  4.71         4.5 0.32            139           97.3 176 
 PTB  HZ EP        647 46.98                             132   -0.71 9  148 260 
 PTB  HZ I         648 10.44         4.1 0.23            124            148 260 
 SPBC HZ EP        647 48.95                             129   -0.08 9  161 220 
 SPBC HE ES        648 10.95                             129    0.07 9  161 220 
 SPBC HZ I         648 16.33         5.4 0.10            122            161 220 
 YPLC HZ EP   2    647 50.62                             127    0.38 4  174 151 
 YPLC HN ES   2    648 13.28                             127    0.26 4  174 151 
 YPLC HZ I         648 16.92         3.6 0.24            122            174 151 
 ZAR  HZ EP   2    647 53.68                             122    0.26 4  206 293 
 ZAR  HN ES   2    648 19.17                             122    0.49 4  206 293 
 ZAR  HZ I         648 24.65         7.3 0.34            115            206 293 
 NOR  HZ EP        647 56.40                             118    0.01 8  233 235 
 NOR  HN ES   2    648 23.56                             118   -0.41 4  233 235 
 NOR  HZ I         648 29.73         5.1 0.18            112            233 235 
 HEL  HN ES   2    648 32.49                             114    0.27 4  272 257 
 HEL  HZ I         648 39.62         2.1 0.26            108            272 257 
 CBOC HZ EP   2    648  9.09                             110    1.35 3  333 253 
 CBOC HN ES   2    648 44.75                             110    0.58 3  333 253 
 CBOC HZ I         648 50.34         1.1 0.52            104            333 253 
                                                                                
