 2017  8 4 0313 41.9 L   6.815 -73.137146.0  RSN 13 0.7 1.7LRSN                1
 GAP=112        1.49       4.9     4.8  7.8  0.2529E+01  0.7949E+01  0.6616E+01E
 Epicentro: LOS SANTOS - SANTANDER                                             3
 ACTION:UPD 17-09-04 20:16 OP:rebc STATUS:               ID:20170804031341 L   I
 OLDACT:REG 17-08-04 12:51 OP:osc  STATUS:               ID:20170804030742     3
 2017-08-04-0308-00M.COL___374                                                 6
 STAT SP IPHASW D HRMM SECON CODA AMPLIT PERI AZIMU VELO AIN AR TRES W  DIS CAZ7
 BAR2 EZ IP     C  314  1.50                             170   -0.0710 25.2 191 
 BAR2 EZ ES        314 15.96                             170   -0.9710 25.2 191 
 BAR2 EZ I         314 18.72        16.1 0.26            169           25.2 191 
 BRR  HZ EP        314  3.56                             152    0.5110 71.2 297 
 BRR  HE ES        314 20.31                             152    0.7510 71.2 297 
 BRR  HZ I         314 23.30        17.2 0.32            153           71.2 297 
 PAM  EZ EP        314  4.48                             151    0.4810 75.4  40 
 PAM  EN ES        314 21.17                             151   -0.0810 75.4  40 
 PAM  EZ I         314 23.48         9.7 0.44            155           75.4  40 
 RUS  HZ EP        314  5.54                             143   -0.2210  102 177 
 RUS  HN ES        314 23.85                             143   -0.5510  102 177 
 RUS  HZ I         314 28.39         2.3 0.18            145            102 177 
 PTB  HZ EP        314  8.41                             131   -0.56 9  149 258 
 PTB  HN ES        314 29.33                             131   -0.78 9  149 258 
 PTB  HZ I         314 31.70         8.4 0.16            133            149 258 
 SPBC HZ EP        314 10.50                             128   -0.07 9  165 219 
 SPBC HE ES        314 33.88                             128    0.92 9  165 219 
 SPBC HZ I         314 38.19         7.5 0.10            130            165 219 
 YPLC HZ IP     C  314 11.97                             126    0.19 9  178 152 
 YPLC HE ES        314 35.87                             126    0.75 9  178 152 
 YPLC HZ I         314 38.25         7.7 0.28            129            178 152 
 ZAR  HZ EP   4    314 11.46                             122   -2.90 0  204 292 
 ZAR  HN ES        314 39.79                             122    0.10 9  204 292 
 ZAR  HZ I         314 46.06         7.7 0.14            124            204 292 
 CHI  HZ EP        314 19.96                             117    0.17 8  251 195 
 CHI  HN ES        314 48.81                             117   -0.55 8  251 195 
 CHI  HZ I         314 51.46         1.5 0.19            119            251 195 
 HEL  HZ EP   2    314 19.98                             114   -2.26 4  273 256 
 HEL  HN ES        314 54.03                             114    0.29 8  273 256 
 GUY2CHZ EP   9    314 28.02                             112    2.33 0  303 235 
 GUY2CHN ES        315  2.74                                    0.54 7  303 235 
 GUY2CHZ I         315  8.94         2.0 0.30                           303 235 
 CBOC HZ EP        314 30.31                             110    1.35 7  335 252 
 CBOC HN ES        315  5.67                             110   -0.02 7  335 252 
 CBOC HZ I         315  9.83         1.0 0.19            111            335 252 
 SJC  HZ EP        314 36.02                             106   -1.31 6  408 327 
 SJC  HN ES   4    315 15.08                             106   -5.51 0  408 327 
                                                                                
