 2014  4 4 0709 35.8 L   6.826 -73.160147.0  RSN 22 0.5 2.9LRSN                1
 GAP= 69        0.95       2.0     2.7  5.1 -0.6895E+00  0.4089E+01  0.6241E+00E
 Epicentro: LOS SANTOS - SANTANDER                                             3
 ACTION:UPD 14-05-13 23:06 OP:nd   STATUS:               ID:20140404070935 L   I
 OLDACT:UP  14-04-07 05:25 OP:Mher STATUS:               ID:20140404070935 L   3
 OLDACT:REG 14-04-04 13:40 OP:cam  STATUS:               ID:20140404070813     3
 2014-04-04-0708-13M.COL___255                                                 6
 STAT SP IPHASW D HRMM SECON CODA AMPLIT PERI AZIMU VELO AIN AR TRES W  DIS CAZ7
 PAM  SZ EP     C  7 9 58.50                             151    0.4310 76.2  42 
 PAM  SN ES        710 15.76                             151    0.3110 76.2  42 
 PAM  SZ I         710 18.89        69.5 0.44            142           76.2  42 
 RUS  HZ EP        7 9 59.58                             143   -0.3010  104 175 
 RUS  HE ES        710 18.33                             143   -0.3410  104 175 
 RUS  HZ I         710 19.60        69.5 0.46            137            104 175 
 PTB  HZ EP        710  2.20                             132   -0.57 9  147 258 
 PTB  HN ES        710 23.12                             132   -0.70 9  147 258 
 PTB  HZ I         710 28.36        82.0 0.46            125            147 258 
 TAM  HZ IP     D  710  4.12                             130    0.34 9  157 106 
 TAM  HZ I         710 24.71        48.1 0.36            122            157 106 
 TAM  HN ES        710 25.91                             130    0.30 9  157 106 
 OCA  HZ EP        710  3.89                             130   -0.02 9  157 354 
 OCA  HN ES        710 26.19                             130    0.34 9  157 354 
 OCA  HZ I         710 34.06       101.7 0.24            121            157 354 
 SPBC HZ EP   1    710  4.48                             129   -0.02 7  164 218 
 SPBC HN ES        710 26.57                             129   -0.33 9  164 218 
 SPBC HZ I         710 35.15       110.1 0.30            122            164 218 
 ZAR  HZ EP        710  8.00                             123   -0.06 9  202 292 
 ZAR  HN ES        710 33.40                             123    0.18 9  202 292 
 ZAR  HZ I         710 39.08        89.9 0.54            115            202 292 
 NOR  HZ EP     D  710 11.87                             119    0.23 8  235 234 
 NOR  HN ES        710 39.65                             119    0.05 8  235 234 
 NOR  HZ I         710 44.61        54.5 0.18            112            235 234 
 SML  HZ EP   1    710 11.30                             118   -0.83 6  240 335 
 SML  HN ES        710 40.10                             118   -0.38 8  240 335 
 SML  HZ I         710 47.55        78.1 0.24            110            240 335 
 CHI  HZ EP        710 13.80                             117   -0.02 8  251 195 
 CHI  HN ES        710 43.34                             117   -0.14 8  251 195 
 CHI  HZ I         710 48.23        55.8 0.38            110            251 195 
 ROSC BZ EP   4    710 15.81                             117    1.65 0  254 210 
 HEL  HZ EP   1    710 16.12                             115    0.14 6  271 255 
 HEL  HN ES        710 48.17                             115    0.85 8  271 255 
 HEL  HZ I         710 54.20        42.7 0.30            108            271 255 
 URE  HZ EP   1    710 15.59                             114   -1.05 6  281 291 
 URE  HN ES   4    710 45.21                             114   -3.29 0  281 291 
 URE  HZ I         710 57.70        60.8 0.18            107            281 291 
 GUY2CHZ EP        710 19.79                             112    0.29 7  302 234 
 GUY2CHN ES   1    710 54.57                             112    0.98 5  302 234 
 GUY2CHZ I         711  1.94        51.1 0.62                           302 234 
 VIL  SZ EP        710 19.11                             112   -0.44 7  306 191 
 VIL  SN ES        710 53.49                             112   -0.19 7  306 191 
 VIL  SZ I         711  3.64        69.2 0.52            106            306 191 
 PTGC HZ EP   4 D  710 18.80                             111   -1.27 0  312 159 
 RREF HZ EP   1    710 22.10                             111    0.04 5  322 229 
 RREF HE E         710 59.74                                            322 229 
 RREF HE ES   4    711  0.11                             111    1.95 0  322 229 
 RREF HZ I         711  2.61        47.0 0.26            105            322 229 
 CBOC HZ EP        710 23.32                             110    0.63 7  333 252 
 CBOC HN ES   4    710 57.86                             110   -1.41 0  333 252 
 CBOC HZ I         711  9.12        12.2 0.46            104            333 252 
 COD  HZ EP   1    710 23.39                             109   -0.48 5  345 355 
 COD  HE ES        711  0.68                             109   -0.68 7  345 355 
 COD  HZ I         711 12.33        12.9 0.72            103            345 355 
 ARGC HZ EP   1    710 25.49                             108    0.37 5  356 340 
 ARGC HN ES   1    711  4.42                             108    0.83 5  356 340 
 ARGC HZ I         711 11.27        16.7 0.26            102            356 340 
 ANIL HZ EP   4    710 27.03                             108    1.28 0  358 224 
 ANIL HN ES   4    711  6.85                             108    2.12 0  358 224 
 SDV  BZ EP   4    710 25.27                             108   -0.53 0  360  51 
 PRA  HZ EP        710 29.44                             106   -0.12 6  394 209 
 PRA  HN ES        711 10.68                             106   -0.81 6  394 209 
 PRA  HZ I         711 15.98        52.3 0.70            101            394 209 
 ORTC HZ EP        710 30.12                             106    0.20 6  397 216 
 ORTC HN ES        711 13.39                             106    1.25 6  397 216 
 ORTC HZ I         711 18.71        21.8 0.44            101            397 216 
 SJC  HZ EP   4    710 29.85                             106   -1.16 0  406 327 
 SJC  HN ES   4    711 10.65                             106   -3.43 0  406 327 
 SJC  HZ I    4    711 14.20        10.1 0.32            100            406 327 
 PAL  HZ EP        710 31.31                             106    0.30 6  406 239 
 PAL  HN ES   1    711 14.49                             106    0.41 4  406 239 
 PAL  HZ I         711 19.58        14.1 0.52            100            406 239 
 MACC HZ EP   4 C  710 42.78                             102   -2.06 0  523 188 
 MACC HN ES   4    711 34.08                             102   -4.62 0  523 188 
 MACC HZ I         711 40.36         7.3 0.64             96            523 188 
                                                                                
