 2015  1 4 0659 57.7 L   6.805 -73.162149.8  RSN  5 0.6 1.2LRSN                1
 GAP=192        1.42       7.2    10.9 11.2 -0.1026E+02  0.1628E+02 -0.2271E+02E
 Epicentro: LOS SANTOS - SANTANDER                                             3
 ACTION:UPD 15-03-02 15:36 OP:nd   STATUS:               ID:20150104065957 L   I
 OLDACT:REG 15-01-04 14:37 OP:stll STATUS:               ID:20150104065743     3
 2015-01-04-0657-43M.COL___274                                                 6
 STAT SP IPHASW D HRMM SECON CODA AMPLIT PERI AZIMU VELO AIN AR TRES W  DIS CAZ7
 BAR2 EZ EP        7 0 17.52                             171   -0.3310 23.7 186 
 BAR2 EZ ES     C  7 0 33.06                             171   -0.4910 23.7 186 
 BAR2 EZ I         7 0 34.18         3.5 0.36            174           23.7 186 
 BRR  HZ EP        7 0 19.59                             154    0.3810 69.4 299 
 BRR  HN ES        7 0 36.58                             154    0.6110 69.4 299 
 BRR  HZ I         7 0 37.25         2.0 0.46            150           69.4 299 
 PTB  HZ EP        7 0 25.50                             133    0.62 9  146 258 
 PTB  HN ES        7 0 45.59                             133   -0.47 9  146 258 
 PTB  HZ I         7 0 47.49         1.1 0.10            133            146 258 
 OCA  HN ES        7 0 49.22                             131    0.67 9  159 354 
 SML  HZ EP        7 0 34.20                             118   -0.24 8  242 336 
 SML  HE ES        7 1  1.96                             118   -1.12 8  242 336 
 SML  HZ I         7 1 11.33         2.0 0.10            118            242 336 
                                                                                
