 2012  1 4 0958 43.2 L   6.726 -73.139142.5  RSN  8 0.4 1.9LRSN                1
 GAP=141        1.03       4.8     6.5  7.9  0.5910E+00  0.6480E+01  0.1786E+01E
 Epicentro: JORDAN - SANTANDER                                                 3
 ACTION:UP  12-02-03 08:14 OP:REBC STATUS:               ID:20120104095843 L   I
 2012-01-04-0950-00M.COL___183                                                 6
 STAT SP IPHASW D HRMM SECON CODA AMPLIT PERI AZIMU VELO SNR AR TRES W  DIS CAZ7
 BAR2 SZ EP        959  2.02                             173    -0.310   16 198 
 BAR2 SZ ES   1    959 17.72                             173     0.5 7   16 198 
 BAR2 SZ I         959 18.60        19.8 0.17                            16 198 
 BRR  HZ EP        959  3.79                             150    -0.510   76 304 
 BRR  HZ I         959  4.06        35.3 0.14                            76 304 
 BRR  HN ES   1    959 21.03                             150     0.3 7   76 304 
 PAM  SZ EP   1    959  5.05                             148    -0.4 7   83  36 
 PAM  SN ES   1    959 22.18                             148    -0.6 7   83  36 
 RUS  HZ EP   1    959  6.08                             145     0.1 7   92 176 
 RUS  HZ I         959  6.88         7.4 0.34                            92 176 
 RUS  HN ES   1    959 23.96                             145     0.1 7   92 176 
 PTB  HN ES   1    959 30.35                             131    -0.3 7  147 262 
 OCA  SZ EP   1    959 12.85                             127     0.8 7  168 353 
 OCA  SZ ES   1    959 35.17                             127     0.6 7  168 353 
 OCA  SZ I         959 39.40        11.6 0.28                           168 353 
 ZAR  HZ EP   1    959 15.58                             121    -0.2 6  208 294 
 ZAR  HN ES   2    959 41.13                             121    -0.2 4  208 294 
 ZAR  HZ I         959 45.98         7.1 0.42                           208 294 
 CHI  HZ EP        959 20.31                             117     0.5 8  241 196 
                                                                                
