 2017  8 4 0255  6.5 L   6.776 -73.165146.8  RSN 11 0.6 1.7LRSN                1
 GAP=111        1.28       4.4     4.4  7.0  0.3502E+01  0.9311E+01  0.8077E+01E
 Epicentro: LOS SANTOS - SANTANDER                                             3
 ACTION:UPD 17-09-04 20:16 OP:rebc STATUS:               ID:20170804025506 L   I
 OLDACT:DUP 17-08-04 15:02 OP:osc  STATUS:               ID:20170804024742d    3
 2017-08-04-0248-00M.COL___374                                                 6
 STAT SP IPHASW D HRMM SECON CODA AMPLIT PERI AZIMU VELO AIN AR TRES W  DIS CAZ7
 BAR2 EZ EP        255 26.22                             172    0.0610 20.4 185 
 BAR2 EZ ES        255 41.36                             172   -0.1710 20.4 185 
 BAR2 EZ I         255 42.26        17.2 0.30            171           20.4 185 
 BRR  HZ EP     C  255 27.82                             153    0.1310 70.6 301 
 BRR  HN ES        255 44.84                             153    0.5910 70.6 301 
 PAM  EZ EP        255 29.02                             150    0.0310 80.8  40 
 PAM  EN ES        255 46.26                             150   -0.3110 80.8  40 
 PAM  EZ I         255 48.22        14.1 0.56            153           80.8  40 
 RUS  HZ EP        255 30.10                             145   -0.0410 98.1 175 
 RUS  HN ES        255 48.99                             145    0.3810 98.1 175 
 RUS  HZ I         255 49.68         3.4 0.22            145           98.1 175 
 PTB  HZ EP        255 33.41                             133    0.14 9  145 260 
 PTB  HE ES        255 54.02                             133   -0.17 9  145 260 
 PTB  HZ I         255 58.93         3.1 0.14            133            145 260 
 SPBC HE ES   2    255 55.41                             130   -1.34 5  160 219 
 YPLC HZ EP        255 36.54                             127    0.34 9  176 150 
 YPLC HN ES        255 59.25                             127   -0.16 9  176 150 
 YPLC HZ I         256  3.12         4.3 0.30            129            176 150 
 ZAR  HZ EP        255 38.67                             123   -0.20 9  203 293 
 ZAR  HE ES        256  3.65                             123   -0.50 9  203 293 
 ZAR  HZ I         256 11.02         5.4 0.10            123            203 293 
 CHI  HZ EP        255 44.01                             118    0.14 8  245 195 
 CHI  HE ES        256 12.84                             118   -0.22 8  245 195 
 CHI  HZ I         256 17.01         3.6 0.50            119            245 195 
 GUY2CHZ EP        255 47.71                             113   -2.03 7  298 235 
 GUY2CHN ES        256 24.07                             113    0.57 7  298 235 
 GUY2CHZ I         256 32.31         2.2 0.32                           298 235 
 CBOC HZ EP        255 54.40                             110    1.32 7  331 252 
 CBOC HE ES        256 29.95                             110    0.50 7  331 252 
                                                                                
