 2015  9 4 0645 58.3 L   6.795 -73.141143.8  RSN 13 0.4 1.7LRSN                1
 GAP=137        1.05       2.8     3.7  5.4 -0.1365E+01  0.6777E+01 -0.4428E+00E
 Epicentro: LOS SANTOS - SANTANDER                                             3
 ACTION:UPD 15-10-28 16:24 OP:cam  STATUS:               ID:20150904064558 L   I
 OLDACT:REG 15-09-04 12:54 OP:ak   STATUS:               ID:20150904063748     3
 2015-09-04-0637-48M.COL___355                                                 6
 STAT SP IPHASW D HRMM SECON CODA AMPLIT PERI AZIMU VELO AIN AR TRES W  DIS CAZ7
 BAR2 EZ EP        646 17.56                             171   -0.0910 22.9 191 
 BAR2 EZ ES        646 32.33                             171   -0.4410 22.9 191 
 BAR2 EZ I         646 34.62         7.3 0.34            169           22.9 191 
 BRR  HZ EP        646 19.67                             152    0.4210 71.9 299 
 BRR  HN ES        646 36.26                             152    0.6510 71.9 299 
 BRR  HZ I         646 41.99         6.6 0.14            149           71.9 299 
 PAM  EZ EP        646 20.49                             150    0.2110 77.5  39 
 PAM  EN ES        646 37.90                             150    0.4510 77.5  39 
 PAM  EZ I         646 38.89         3.5 0.18            155           77.5  39 
 RUS  HZ EP        646 22.00                             144    0.2110  100 176 
 RUS  HE ES        646 39.87                             144   -0.2610  100 176 
 RUS  HZ I         646 41.58         4.4 0.26            147            100 176 
 PTB  HZ EP        646 24.25                             131   -0.86 9  148 259 
 PTB  HN ES        646 45.84                             131   -0.21 9  148 259 
 PTB  HZ I         646 50.91         4.8 0.20            131            148 259 
 OCA  HZ EP        646 26.57                             129    0.08 9  161 353 
 OCA  HN ES        646 48.00                             129   -0.49 9  161 353 
 OCA  HZ I         646 53.65        13.7 0.22            131            161 353 
 SPBC HZ EP        646 26.54                             129   -0.07 9  163 219 
 SPBC HN ES        646 48.56                             129   -0.15 9  163 219 
 SPBC HZ I         646 51.80         7.9 0.19            130            163 219 
 ZAR  HZ EP        646 30.92                             122    0.26 9  205 292 
 ZAR  HN ES        646 56.52                             122    0.60 9  205 292 
 ZAR  HZ I         647  2.82         8.7 0.32            122            205 292 
 SML  HZ EP        646 34.15                             117   -0.71 8  244 335 
 SML  HE ES        647  2.73                             117   -0.67 8  244 335 
 SML  HZ I         647  5.66         8.7 0.30            118            244 335 
 HEL  HN ES        647  9.70                             114   -0.04 8  272 256 
 HEL  HZ I         647 17.87         2.2 0.30            115            272 256 
 URE  HZ EP   1    646 40.07                             113    0.75 6  284 292 
 URE  HN ES        647 11.13                             113   -0.20 7  284 292 
 URE  HZ I         647 21.86         3.6 0.24            114            284 292 
 GUY2CHZ EP        646 42.55                             112    0.75 7  301 235 
 GUY2CHN ES        647 15.83                             112    0.08 7  301 235 
 GUY2CHZ I         647 25.33         1.8 0.74                           301 235 
 PRA  HZ EP        646 52.20                             106    0.51 6  392 210 
 PRA  HE ES        647 32.90                             106   -0.46 6  392 210 
 PRA  HZ I         647 39.60         1.0 0.22            108            392 210 
                                                                                
