 2010  5 4 0559 33.5 L   6.767 -73.003142.3  RSN  7 0.4 1.8LRSN                1
 GAP=202        0.69       4.8    10.0  7.1 -0.1753E+02 -0.2314E+01 -0.2558E+01E
 Epicentro: CEPITA - SANTANDER                                                 3
 ACTION:UP  10-08-24 10:02 OP:vdl  STATUS:               ID:20100504055933 L   I
 2010-05-04-0558-20S.COL___105                                                 6
 STAT SP IPHASW D HRMM SECON CODA AMPLIT PERI AZIMU VELO AIN AR TRES W  DIS CAZ7
 BAR2 SZ IP        559 52.69                             168    -0.110   28 226 
 BAR2 SZ ES   1    6 0  7.67                             168    -0.2 7   28 226 
 BRR  HZ EP   2    559 55.28                             147     0.0 5   87 296 
 BRR  HZ I         559 56.57        13.5 0.07                            87 296 
 BRR  HE ES   2    6 0 12.94                             147     0.7 5   87 296 
 GUE  SZ EP   2    559 58.01                             138     0.0 5  118   4 
 GRA  SZ EP   1    559 58.53                             136     0.1 7  125  10 
 GRA  SZ ES   1    6 0 18.33                             136     0.5 7  125  10 
 OCA  SZ EP   1    6 0  1.95                             128    -0.2 7  166 348 
 OCA  SZ ES   1    6 0 23.91                             128    -0.6 7  166 348 
 OCA  SZ I         6 0 28.98         8.0 0.41                           166 348 
 HEL  HZ EP   2    6 0 15.21                             113     0.0 4  287 257 
 HEL  HZ I         6 0 51.93         4.1 0.36                           287 257 
 PRA  HZ EP   2    6 0 28.20                             106     0.7 3  397 212 
 PRA  HZ I         6 1 10.97         1.7 0.41                           397 212 
                                                                                
