 2017  1 4 0428 58.7 L   6.809 -73.121146.0  RSN  6 0.4 1.1LRSN                1
 GAP=139        0.94       4.8     4.2  6.8  0.1704E+01  0.5741E+01  0.7130E+00E
 Epicentro: LOS SANTOS - SANTANDER                                             3
 ACTION:UPD 17-05-22 15:55 OP:jn   STATUS:               ID:20170104042858 L   I
 OLDACT:DUP 17-01-04 14:41 OP:lv   STATUS:               ID:20170104041749d    3
 2017-01-04-0418-00M.COL___369                                                 6
 STAT SP IPHASW D HRMM SECON CODA AMPLIT PERI AZIMU VELO AIN AR TRES W  DIS CAZ7
 BAR2 EZ EP        429 18.37                             170    0.0110 24.9 196 
 BAR2 EZ ES        429 33.98                             170    0.2610 24.9 196 
 BAR2 EZ I         429 34.25         2.8 0.29            170           24.9 196 
 BRR  HZ EP        429 20.77                             152    0.8110 73.1 297 
 BRR  HN ES        429 36.58                             152    0.0210 73.1 297 
 PAM  EZ EP        429 20.87                             152    0.1010 74.9  38 
 PAM  EN ES        429 37.52                             152   -0.4810 74.9  38 
 PAM  EZ I         429 40.22         3.1 0.48            152           74.9  38 
 RUS  HZ EP        429 22.46                             144   -0.0510  101 178 
 RUS  HN ES        429 41.09                             144   -0.0110  101 178 
 RUS  HZ I         429 42.95         0.8 0.32            145            101 178 
 PTB  HZ EP        429 25.32                             131   -0.60 9  151 259 
 PTB  HN ES        429 46.96                             131   -0.21 9  151 259 
 PTB  HZ I         429 48.98         1.1 0.15            132            151 259 
 ZAR  HE ES        429 56.89                             122    0.04 8  206 292 
 ZAR  HZ I         430  1.83         1.8 0.30            122            206 292 
                                                                                
