 2011  5 4 0248 12.5 L   6.821 -73.347122.0  RSN  6 0.4 1.5LRSN                1
 GAP=144        0.79       5.4     9.0  8.9 -0.5999E+01 -0.1636E+01 -0.4118E+01E
 Epicentro: ZAPATOCA - SANTANDER                                               3
 ACTION:UP  11-06-29 08:50 OP:tino STATUS:               ID:20110504024812 L   I
 2011-05-04-0244-00S.COL___132                                                 6
 STAT SP IPHASW D HRMM SECON CODA AMPLIT PERI AZIMU VELO SNR AR TRES W  DIS CAZ7
 BTL  SZ IP        248 29.27                             173     0.210   14  39 
 BAR2 SZ IP        248 29.81                             165     0.410   31 144 
 BAR2 SZ I         248 29.99        15.7 0.17                            31 144 
 BAR2 SZ ES   1    248 42.66                             165    -0.1 7   31 144 
 BRR  HZ EP   1    248 29.80                             156    -0.1 7   51 308 
 BRR  HZ I         248 30.15        12.0 0.16                            51 308 
 BRR  HN ES   2    248 43.36                             156    -0.2 5   51 308 
 PAM  SZ EP   1    248 32.94                             141    -0.3 7   92  51 
 PAM  SN ES   2    248 50.09                             141     0.6 5   92  51 
 RUS  HZ EP   1    248 34.49                             136     0.0 7  107 164 
 RUS  HN ES   2    248 50.70                             136    -0.9 5  107 164 
 RUS  HZ I         248 53.62         2.2 0.29                           107 164 
 GRA  SZ EP   2    248 35.89                             129    -0.4 5  132  27 
 GRA  SZ ES   2    248 54.26                             129    -0.6 5  132  27 
 GRA  SZ I         248 56.31         3.7 0.34                           132  27 
                                                                                
