 2017  4 4 0504 42.9 L   6.713 -73.183147.5  RSN  5 0.3 1.0LRSN                1
 GAP=226        0.41       6.3     5.8  6.6  0.2243E+02  0.6052E+01  0.5718E+00E
 Epicentro: VILLANUEVA - SANTANDER                                             3
 ACTION:UPD 17-05-30 21:08 OP:jn   STATUS:               ID:20170404050442 L   I
 OLDACT:UP  17-04-04 14:27 OP:and  STATUS:               ID:20170404045644d    3
 OLDACT:DUP 17-04-04 14:25 OP:and  STATUS:               ID:20170404045644d    3
 2017-04-04-0457-00M.COL___359                                                 6
 STAT SP IPHASW D HRMM SECON CODA AMPLIT PERI AZIMU VELO AIN AR TRES W  DIS CAZ7
 BAR2 EZ EP   2    5 5  2.31                             175   -0.25 5 13.3 180 
 BAR2 EZ ES   2    5 5 17.58                             175   -0.33 5 13.3 180 
 BAR2 EZ I         5 5 18.56         2.8 0.22            169           13.3 180 
 BRR  HZ EP   2    5 5  4.42                             152    0.11 5 72.9 307 
 BRR  HN ES   2    5 5 21.21                             152    0.18 5 72.9 307 
 RUS  HZ EP   2    5 5  6.16                             147   -0.00 5 91.4 173 
 RUS  HN ES   2    5 5 24.75                             147    0.43 5 91.4 173 
 RUS  HZ I         5 5 27.19         1.2 0.52            144           91.4 173 
 PTB  HZ EP   2    5 5  9.40                             134   -0.08 5  142 262 
 PTB  HE ES   2    5 5 29.89                             134   -0.34 5  142 262 
 PTB  HZ I         5 5 30.80         1.1 0.09            134            142 262 
 ZAR  HN ES   2    5 5 41.17                             123    0.32 4  204 295 
                                                                                
