 2013  5 4 0335 42.5 L   6.775 -73.127155.3  RSN  8 0.5 1.8LRSN                1
 GAP=140        1.10       5.1     5.7  6.8 -0.6775E+01  0.9958E+01 -0.1567E+01E
 Epicentro: LOS SANTOS - SANTANDER                                             3
 ACTION:UPD 13-06-20 09:47 OP:ep   STATUS:               ID:20130504033542 L   I
 2013-05-04-0330-00M.COL___253                                                 6
 STAT SP IPHASW D HRMM SECON CODA AMPLIT PERI AZIMU VELO AIN AR TRES W  DIS CAZ7
 BAR2 SZ EP   1    336  3.06                             172   -0.17 7 21.1 197 
 BAR2 SZ ES   1    336 20.68                             172    1.27 7 21.1 197 
 BAR2 SZ I         336 24.06         9.0 0.16            170           21.1 197 
 GIR2 SZ EP   1    336  3.27                             167   -0.12 7 34.4 348 
 GIR2 SZ ES   1    336 19.32                             167   -0.36 7 34.4 348 
 BRR  HZ IP     C  336  5.05                             153    0.2010 74.4 300 
 BRR  HN ES        336 22.72                             153    0.4310 74.4 300 
 BRR  HZ I         336 27.33        12.1 0.14            151           74.4 300 
 PAM  SZ EP        336  5.91                             152    0.1210 78.3  37 
 PAM  SN ES        336 23.34                             152   -0.6110 78.3  37 
 RUS  HZ EP   1    336  7.05                             146    0.05 7 97.7 177 
 RUS  HN ES        336 26.05                             146   -0.0610 97.7 177 
 RUS  HZ I         336 27.03         3.4 0.20            149           97.7 177 
 PTB  HZ EP        336  9.79                             134   -0.60 9  149 260 
 PTB  HN ES        336 31.47                             134   -0.67 9  149 260 
 PTB  HZ I         336 38.76        10.7 0.34            134            149 260 
 NOR  HZ EP        336 19.03                             120    0.23 8  235 235 
 NOR  HE ES   1    336 47.45                             120    0.33 6  235 235 
 NOR  HZ I         336 50.79         7.2 0.18            122            235 235 
 SML  HZ EP        336 20.53                             119    0.49 8  247 335 
 SML  HE ES   2    336 49.79                             119    0.47 4  247 335 
 HEL  HZ EP   4    336 25.35                             116    2.00 0  273 256 
 HEL  HE ES   4    336 57.94                             116    2.72 0  273 256 
                                                                                
