 2014  1 4 0354  5.8 L   6.830 -73.165142.9  RSN 12 0.7 1.9LRSN                1
 GAP=133        1.61       4.2     6.2  8.2 -0.6912E+01  0.1534E+02  0.8290E+00E
 Epicentro: LOS SANTOS - SANTANDER                                             3
 ACTION:UPD 14-03-13 09:51 OP:ep   STATUS:               ID:20140104035405 L   I
 OLDACT:DUP 14-01-04 12:40 OP:stll STATUS:               ID:20140104034806d    3
 2014-01-04-0348-05M.COL___240                                                 6
 STAT SP IPHASW D HRMM SECON CODA AMPLIT PERI AZIMU VELO AIN AR TRES W  DIS CAZ7
 BAR2 SZ EP        354 25.40                             169    0.2710 26.4 184 
 BAR2 SZ ES        354 39.89                             169   -0.3310 26.4 184 
 BAR2 SZ I         354 41.98        17.9 0.24            169           26.4 184 
 BRR  HZ IP     C  354 27.16                             153    0.7410 67.7 297 
 BRR  HN ES        354 43.44                             153    0.9210 67.7 297 
 BRR  HZ I         354 47.13        16.4 0.46            149           67.7 297 
 PAM  SZ IP     D  354 28.29                             151    0.6710 76.3  42 
 PAM  SZ I         354 28.47        11.4 0.22            153           76.3  42 
 PAM  SN ES        354 44.52                             151   -0.1410 76.3  42 
 RUS  HZ EP        354 29.40                             142   -0.1010  104 175 
 RUS  HZ I         354 30.13         6.4 0.34            145            104 175 
 RUS  HN ES        354 47.91                             142   -0.1010  104 175 
 PTB  HZ EP        354 31.77                             132   -0.61 9  146 257 
 PTB  HN ES        354 52.37                             132   -0.76 9  146 257 
 PTB  HZ I         354 58.12        12.9 0.12            130            146 257 
 OCA  HZ EP        354 32.88                             130   -0.65 9  157 354 
 OCA  HN ES        354 55.02                             130   -0.16 9  157 354 
 OCA  HZ I         354 59.75        11.3 0.22            129            157 354 
 SPBC HZ EP        354 34.36                             128    0.19 9  164 218 
 SPBC HZ I         354 34.95        11.6 0.30            129            164 218 
 SPBC HN ES        354 57.32                             128    0.99 9  164 218 
 NOR  HZ EP        354 41.40                             118    0.04 8  235 233 
 NOR  HN ES        355  7.90                             118   -1.21 8  235 233 
 NOR  HZ I         355 16.32         5.7 0.16            118            235 233 
 SML  HZ EP        354 41.79                             117   -0.02 8  240 335 
 SML  HN ES        355  9.14                             117   -0.79 8  240 335 
 SML  HZ I         355 18.35        12.5 0.24            117            240 335 
 CHI  HZ EP        354 43.28                             116   -0.32 8  251 194 
 CHI  HZ I         354 45.34         2.0 0.24            118            251 194 
 CHI  HN ES        355 11.75                             116   -1.36 8  251 194 
 HEL  HZ EP        354 45.76                             114    0.06 8  271 255 
 HEL  HN ES        355 16.78                             114   -0.06 8  271 255 
 HEL  HZ I         355 25.80         4.2 0.54            114            271 255 
 GUY2CHZ EP        354 50.65                             112    1.38 7  301 234 
 GUY2CHN ES        355 24.34                             112    1.15 7  301 234 
 GUY2CHZ I         355 34.29        11.7 0.92                           301 234 
                                                                                
