 2017 12 4 0423 56.1 L   6.827 -73.152141.6  RSN 23 0.7 2.3LRSN                1
 GAP= 55        1.54       3.0     3.9  6.9 -0.1110E+01  0.5788E+01 -0.2958E+01E
 Epicentro: LOS SANTOS - SANTANDER                                             3
 ACTION:UPD 18-01-04 13:16 OP:rebc STATUS:               ID:20171204042356 L   I
 OLDACT:UP  17-12-04 16:50 OP:leo  STATUS:               ID:20171204041739     3
 OLDACT:REG 17-12-04 13:40 OP:leo  STATUS:               ID:20171204041739     3
 2017-12-04-0418-00M.COL___489                                                 6
 STAT SP IPHASW D HRMM SECON CODA AMPLIT PERI AZIMU VELO AIN AR TRES W  DIS CAZ7
 BAR2 EZ EP        424 15.33                             169    0.0710 26.2 187 
 BAR2 EZ ES        424 29.88                             169   -0.3610 26.2 187 
 BAR2 EZ I         424 31.33        57.3 0.16            168           26.2 187 
 PAM  EZ EP        424 18.24                             151    0.5110 75.5  41 
 PAM  EE ES        424 35.34                             151    0.7110 75.5  41 
 PAM  EZ I         424 37.64        55.7 0.66            153           75.5  41 
 RUS  HZ EP        424 19.39                             142   -0.2510  104 176 
 RUS  HN ES        424 37.56                             142   -0.4710  104 176 
 RUS  HZ I         424 38.92        22.1 0.32            143            104 176 
 PTB  HZ EP        424 22.21                             131   -0.49 9  148 258 
 PTB  HN ES        424 43.19                             131   -0.28 9  148 258 
 PTB  HZ I         424 45.35        31.3 0.14            131            148 258 
 TAM  HZ IP     D  424 23.67                             129    0.11 9  157 106 
 OCA  HZ EP        424 23.93                             129    0.16 9  157 353 
 OCA  HN ES        424 45.47                             129    0.10 9  157 353 
 OCA  HZ I         424 49.54        56.4 0.28            131            157 353 
 SPBC HZ EP        424 24.38                             128   -0.06 9  165 218 
 SPBC HN ES        424 46.29                             128   -0.28 9  165 218 
 SPBC HZ I         424 49.52        25.5 0.42            128            165 218 
 YPLC HZ EP        424 25.70                             125   -0.16 9  180 152 
 YPLC HN ES        424 49.55                             125    0.45 9  180 152 
 YPLC HZ I         424 52.16        17.3 0.28            127            180 152 
 ZAR  HZ EP        424 28.25                             122    0.18 9  202 291 
 ZAR  HN ES        424 53.95                             122    0.93 9  202 291 
 ZAR  HZ I         424 59.80        39.2 0.40            122            202 291 
 NOR  HZ EP        424 31.81                             117    0.11 8  236 234 
 NOR  HE ES        424 59.34                             117   -0.14 8  236 234 
 NOR  HZ I         425  3.51        17.4 0.52            118            236 234 
 CHI  HZ EP        424 33.62                             116   -0.22 8  251 195 
 CHI  HN ES        425  2.50                             116   -0.81 8  251 195 
 CHI  HZ I         425  8.63         7.3 0.42            117            251 195 
 ROSC BZ EP   4    424 35.53                             116    1.32 0  255 211 
 ROSC BN ES   4    425  5.16                             116    1.19 0  255 211 
 URE  HZ EP        424 35.56                             113   -1.19 7  282 291 
 URE  HN ES        425  6.47                             113   -2.00 7  282 291 
 URE  HZ I         425 11.86        15.5 0.28            113            282 291 
 DRL03HZ EP        424 37.96                             113    0.83 7  286 353 
 DRL03HN ES        425 10.82                             113    1.66 7  286 353 
 GUY2CHZ EP   4    424 40.65                             111    1.02 0  302 234 
 GUY2CHN ES   4    425 15.26                             111    1.66 0  302 234 
 GUY2CHZ I         425 20.38        13.4 0.34                           302 234 
 PTGC HZ EP   4    424 38.45                             111   -1.64 0  312 159 
 PTGC HN ES   4    425 11.98                             111   -2.45 0  312 159 
 PTGC HZ I         425 16.51         7.3 0.32            112            312 159 
 LL6C HZ EP        424 40.78                             110   -0.46 7  322 358 
 LL6C HE ES   4    425 14.79                             110   -1.69 0  322 358 
 CBOC HZ EP        424 44.26                             109    1.41 7  334 252 
 CBOC HN ES        425 19.95                             109    0.61 7  334 252 
 CBOC HZ I         425 30.05         3.9 0.18            110            334 252 
 ARGC HZ EP        424 45.87                             108    0.66 6  356 340 
 ARGC HN ES        425 22.56                             108   -0.98 6  356 340 
 SDV  BZ EP        424 45.08                             108   -0.71 6  359  51 
 SDV  B2 ES        425 23.76                             108   -0.81 6  359  51 
 SDV  BZ I         425 26.52         2.8 0.45            109            359  51 
 PRA  HZ EP        424 49.88                             106    0.16 6  394 209 
 PRA  HE ES        425 32.12                             106    0.55 6  394 209 
 PRA  HZ I         425 36.36         9.9 0.26            106            394 209 
 APAC HZ EP        424 49.77                             106   -0.17 6  397 288 
 APAC HN ES        425 32.78                             106    0.83 6  397 288 
 ORTC HZ EP        424 50.26                             105    0.17 6  398 216 
 ORTC HE ES        425 33.90                             105    1.67 6  398 216 
 ORTC HZ I         425 38.35         6.4 0.38            106            398 216 
 SJC  HN ES        425 32.29                             105   -1.83 6  406 327 
                                                                                
