 2016 12 4 0628 19.1 L   6.186 -73.651127.2  RSN  5 0.4 1.3LRSN                1
 GAP=187        0.84       4.2     6.8  9.2  0.3281E+01 -0.5035E+01  0.3912E+01E
 Epicentro: LA PAZ - SANTANDER                                                 3
 ACTION:UPD 17-01-11 20:12 OP:rebc STATUS:               ID:20161204062819 L   I
 OLDACT:UP  16-12-04 15:34 OP:dani STATUS:               ID:20161204062747     3
 OLDACT:UP  16-12-04 15:32 OP:dani STATUS:               ID:20161204062747     3
 OLDACT:UP  16-12-04 15:31 OP:dani STATUS:               ID:20161204062747     3
 OLDACT:UP  16-12-04 15:31 OP:dani STATUS:               ID:20161204062747     3
 OLDACT:REG 16-12-04 12:48 OP:dani STATUS:               ID:20161204062747     3
 2016-12-04-0628-00M.COL___349                                                 6
 STAT SP IPHASW D HRMM SECON CODA AMPLIT PERI AZIMU VELO AIN AR TRES W  DIS CAZ7
 PTB  HZ EP        628 39.92                             140   -0.1810 97.3 294 
 PTB  HN ES        628 56.24                             140   -0.2810 97.3 294 
 PTB  HZ I         628 58.09         3.8 0.11            137           97.3 294 
 BRR  HZ EP        628 40.82                             139    0.3610  102 356 
 BRR  HN ES        628 57.05                             139   -0.1010  102 356 
 BRR  HZ I         628 58.67         4.8 0.13            137            102 356 
 NOR  HN ES   3    629  6.32                             127    1.11 2  151 243 
 CHI  HN ES   1    629  9.99                             123    0.20 7  172 183 
 ZAR  HZ EP        628 49.06                             119   -0.50 9  197 317 
 ZAR  HN ES        629 13.93                             119    0.57 9  197 317 
 ZAR  HZ I         629 18.46         2.0 0.25            118            197 317 
                                                                                
