 2012  4 4 0726 14.0 L   6.707 -73.238155.9  RSN  4 0.2 1.2LRSN                1
 GAP=219        0.60       6.7     6.5  7.9  0.2902E+02 -0.6232E+00 -0.2908E+01E
 Epicentro: VILLANUEVA - SANTANDER                                             3
 ACTION:UPD 12-07-05 11:50 OP:tino STATUS:               ID:20120404072614 L   I
 2012-04-04-0720-00M.COL___196                                                 6
 STAT SP IPHASW D HRMM SECON CODA AMPLIT PERI AZIMU VELO AIN AR TRES W  DIS CAZ7
 BRR  HZ EP   1    726 35.86                             155    -0.2 7   69 310 
 BRR  HZ I         726 37.55         4.2 0.13                            69 310 
 BRR  HE ES   1    726 53.27                             155    -0.1 7   69 310 
 RUS  HZ EP   1    726 38.09                             148    -0.1 7   92 169 
 RUS  HN ES   1    726 57.21                             148     0.2 7   92 169 
 RUS  HZ I         726 58.37         1.8 0.43                            92 169 
 PTB  HZ EP   1    726 40.86                             137     0.1 7  136 262 
 PTB  HN ES   1    727  1.34                             137    -0.3 7  136 262 
 PTB  HZ I         727  3.93         1.6 0.28                           136 262 
 ZAR  HN ES   1    727 12.49                             125     0.5 6  199 296 
                                                                                
