 2015  4 4 0653  9.5 L   6.787 -73.132152.0  RSN 10 0.4 1.8LRSN                1
 GAP=139        1.07       3.3     4.6  7.0 -0.1658E+01  0.6144E+01 -0.1159E+01E
 Epicentro: LOS SANTOS - SANTANDER                                             3
 ACTION:UPD 15-06-03 16:52 OP:cam  STATUS:               ID:20150404065309 L   I
 OLDACT:UP  15-04-04 16:41 OP:mh   STATUS:               ID:20150404064744     3
 OLDACT:UP  15-04-04 16:41 OP:mh   STATUS:               ID:20150404064744     3
 OLDACT:REG 15-04-04 13:25 OP:mh   STATUS:               ID:20150404064744     3
 2015-04-04-0647-44M.COL___276                                                 6
 STAT SP IPHASW D HRMM SECON CODA AMPLIT PERI AZIMU VELO AIN AR TRES W  DIS CAZ7
 BAR2 EZ EP        653 30.08                             171    0.1810 22.3 195 
 BAR2 EZ I         653 48.53         6.7 0.18            170           22.3 195 
 BRR  HZ EP        653 32.01                             153    0.5310 73.2 299 
 BRR  HN ES        653 49.47                             153    0.8810 73.2 299 
 BRR  HZ I         653 51.56         6.9 0.12            153           73.2 299 
 PAM  SZ EP        653 32.46                             152    0.0310 77.5  38 
 PAM  SN ES        653 50.31                             152    0.0210 77.5  38 
 PAM  SZ I         653 52.02         9.8 0.56            153           77.5  38 
 RUS  HZ EP        653 33.40                             146   -0.4010 99.1 177 
 RUS  HN ES        653 52.58                             146   -0.1510 99.1 177 
 RUS  HZ I         653 53.90         3.5 0.40            146           99.1 177 
 PTB  HZ EP   1    653 36.91                             133   -0.23 7  149 259 
 PTB  HN ES        653 57.94                             133   -0.72 9  149 259 
 PTB  HZ I         654  3.00         6.6 0.46            133            149 259 
 OCA  HZ EP        653 38.04                             131   -0.45 9  162 353 
 OCA  HN ES        654  0.83                             131   -0.24 9  162 353 
 OCA  HZ I         654  5.68        12.3 0.38            132            162 353 
 SPBC HZ EP        653 38.84                             131    0.33 9  163 220 
 SPBC HN ES   1    654  0.51                             131   -0.60 7  163 220 
 SPBC HZ I         654  7.78        10.5 0.26            131            163 220 
 ZAR  HZ EP        653 42.75                             124    0.15 8  206 292 
 ZAR  HN ES        654  8.41                             124    0.02 8  206 292 
 ZAR  HZ I         654 14.21         6.2 0.44            124            206 292 
 SML  HZ EP        653 47.19                             119    0.46 8  246 335 
 SML  HN ES        654 15.08                             119   -0.66 8  246 335 
 SML  HZ I         654 19.47         8.7 0.10            119            246 335 
 URE  HZ EP   4    653 52.87                             115    1.73 0  286 292 
 URE  HE ES   4    654 21.49                             115   -2.10 0  286 292 
 TOL  SN ES        654 36.46                             110    0.55 7  344 225 
                                                                                
