 2011  8 4 0427  9.7 L   6.771 -73.052135.3  RSN  4 0.3 1.7LRSN                1
 GAP=150        0.69       5.7     7.0  7.5  0.9946E+01 -0.1352E+02  0.5163E+00E
 Epicentro: LOS SANTOS - SANTANDER                                             3
 ACTION:UPD 12-07-25 14:05 OP:epov STATUS:               ID:20110804042709 L   I
 2011-08-04-0423-38S.COL___139                                                 6
 STAT SP IPHASW D HRMM SECON CODA AMPLIT PERI AZIMU VELO AIN AR TRES W  DIS CAZ7
 BAR2 SZ EP        427 28.12                             169    0.0410 24.4 216 
 BAR2 SZ I         427 28.54         7.8 0.18                          24.4 216 
 BAR2 SZ ES   1    427 41.94                             169   -0.48 7 24.4 216 
 PAM  SZ EP   1    427 30.82                             150    0.24 7 74.0  32 
 PAM  SE ES   2    427 46.88                             150    0.00 5 74.0  32 
 BRR  HZ EP        427 29.95                             147   -0.4310 81.8 297 
 BRR  HE ES        427 46.84                             147    0.3210 81.8 297 
 BRR  HZ I         427 48.36        12.9 0.16                          81.8 297 
 RUS  HZ EP   1    427 32.38                             143    0.22 7 97.2 182 
 RUS  HE ES   2    427 50.01                             143    0.32 5 97.2 182 
                                                                                
