 2013  4 4 0700  2.9 L   6.759 -73.182146.4  RSN  7 0.3 1.5LRSN                1
 GAP=176        0.66       4.3     4.5  5.0  0.6809E+01  0.7746E+01  0.6624E+01E
 Epicentro: VILLANUEVA - SANTANDER                                             3
 ACTION:UPD 13-05-22 14:35 OP:EP   STATUS:               ID:20130404070002 L   I
 2013-04-04-0655-50M.COL___215                                                 6
 STAT SP IPHASW D HRMM SECON CODA AMPLIT PERI AZIMU VELO AIN AR TRES W  DIS CAZ7
 BAR2 SZ EP        7 0 22.43                             173   -0.0610 18.5 180 
 BAR2 SZ ES        7 0 37.58                             173   -0.2110 18.5 180 
 BAR2 SZ I         7 0 38.93        11.9 0.16            170           18.5 180 
 GIR2 SZ EP   1    7 0 22.60                             165   -0.14 7 35.3 358 
 GIR2 SZ ES   1    7 0 38.53                             165    0.30 7 35.3 358 
 GIR2 SZ I         7 0 43.82         8.8 0.46            162           35.3 358 
 BRR  HZ EP        7 0 24.38                             153    0.3510 70.1 303 
 BRR  HN ES   1    7 0 40.90                             153    0.38 7 70.1 303 
 BRR  HZ I         7 0 45.07         5.7 0.16            148           70.1 303 
 RUS  HZ EP        7 0 26.36                             145   -0.0310 96.5 173 
 RUS  HN ES   1    7 0 44.66                             145   -0.08 7 96.5 173 
 RUS  HZ I         7 0 46.18         2.6 0.22            150           96.5 173 
 PTB  HZ EP        7 0 29.04                             133   -0.42 9  143 260 
 PTB  HN ES   1    7 0 49.85                             133   -0.35 7  143 260 
 PTB  HZ I         7 0 57.30         5.0 0.30            132            143 260 
 ZAR  HN ES   1    7 1  0.27                             123   -0.07 6  202 294 
 ZAR  HZ I         7 1  9.12         2.6 0.32            123            202 294 
 PRA  HZ EP   1    7 0 56.38                             107    0.65 4  386 209 
 PRA  HN ES   1    7 1 37.67                             107    0.72 4  386 209 
                                                                                
