 2013  4 4 0923 14.0 L   6.840 -73.105143.6  RSN  4 0.3 1.0LRSN                1
 GAP=248        0.62       7.1     6.4  9.3  0.3013E+02 -0.1536E+01 -0.9646E+01E
 Epicentro: LOS SANTOS - SANTANDER                                             3
 ACTION:UPD 13-05-22 14:35 OP:EP   STATUS:               ID:20130404092314 L   I
 2013-04-04-0920-00M.COL___245                                                 6
 STAT SP IPHASW D HRMM SECON CODA AMPLIT PERI AZIMU VELO AIN AR TRES W  DIS CAZ7
 RUS  HZ EP        923 38.13                             142    0.2410  105 179 
 RUS  HN ES   1    923 56.39                             142   -0.11 7  105 179 
 RUS  HZ I         923 59.83         1.3 0.50            144            105 179 
 PTB  HZ EP        923 41.01                             130   -0.31 9  153 258 
 PTB  HN ES   1    924  2.33                             130   -0.27 7  153 258 
 PTB  HZ I         924  9.41         1.6 0.34            132            153 258 
 ZAR  HN ES   1    924 12.45                             121    0.43 6  207 291 
 PRA  HZ EP   2    924  7.66                             106   -0.54 3  398 210 
 PRA  HE ES   1    924 50.97                             106    0.52 4  398 210 
                                                                                
