 2014  4 4 0229 50.9 L   6.787 -73.139140.9  RSN  4 0.3 1.4LRSN                1
 GAP=244        0.65       6.1     5.7  8.8  0.2287E+02 -0.1274E+02 -0.2883E+02E
 Epicentro: LOS SANTOS - SANTANDER                                             3
 ACTION:UPD 14-05-13 23:06 OP:nd   STATUS:               ID:20140404022950 L   I
 OLDACT:UP  14-04-04 14:49 OP:cam  STATUS:               ID:20140404022813     3
 OLDACT:REG 14-04-04 12:56 OP:cam  STATUS:               ID:20140404022813     3
 2014-04-04-0228-13M.COL___255                                                 6
 STAT SP IPHASW D HRMM SECON CODA AMPLIT PERI AZIMU VELO AIN AR TRES W  DIS CAZ7
 RUS  HZ EP   1    230 14.05                             143    0.01 7 99.1 176 
 RUS  HN ES        230 32.11                             143    0.0010 99.1 176 
 RUS  HZ I         230 33.50         2.4 0.28            144           99.1 176 
 PTB  HZ EP        230 17.11                             131   -0.38 9  148 259 
 PTB  HN ES        230 37.92                             131   -0.32 9  148 259 
 PTB  HZ I         230 45.37         2.7 0.26            129            148 259 
 SPBC HZ EP        230 18.89                             128   -0.05 9  162 220 
 SPBC HN ES        230 41.15                             128    0.33 9  162 220 
 SPBC HZ I         230 46.96         5.4 0.28            128            162 220 
 ZAR  HZ EP   1    230 23.61                             121    0.48 6  205 292 
 ZAR  HN ES        230 48.53                             121    0.24 8  205 292 
 ZAR  HZ I         230 53.85         2.1 0.24            122            205 292 
                                                                                
