 2017  8 4 0431  6.3 L   6.745 -73.103154.0  RSN  5 0.5 1.2LRSN                1
 GAP=238        1.02       6.2     7.3  7.9  0.6822E+01  0.1223E+02  0.1092E+01E
 Epicentro: LOS SANTOS - SANTANDER                                             3
 ACTION:UPD 17-09-04 20:16 OP:rebc STATUS:               ID:20170804043106 L   I
 OLDACT:UP  17-08-04 16:27 OP:osc  STATUS:               ID:20170804042739     3
 OLDACT:REG 17-08-04 12:59 OP:osc  STATUS:               ID:20170804042739     3
 2017-08-04-0428-00M.COL___374                                                 6
 STAT SP IPHASW D HRMM SECON CODA AMPLIT PERI AZIMU VELO AIN AR TRES W  DIS CAZ7
 BAR2 EZ EP        431 26.93                             173    0.1210 19.0 208 
 BAR2 EZ ES        431 42.40                             173   -0.4310 19.0 208 
 BAR2 EZ I         431 43.86         3.4 0.15            167           19.0 208 
 BRR  HZ EP        431 28.85                             151    0.1410 78.4 301 
 BRR  HE ES        431 46.59                             151    0.3810 78.4 301 
 RUS  HZ EP   3    431 27.97                             147   -2.43 2 94.2 179 
 RUS  HN ES        431 49.19                             147   -0.0410 94.2 179 
 RUS  HZ I         431 52.16         1.9 0.36            144           94.2 179 
 PTB  HZ EP        431 33.79                             133   -0.45 9  151 261 
 PTB  HE ES        431 55.63                             133   -0.42 9  151 261 
 SPBC HZ EP        431 35.88                             131    0.62 9  162 222 
 SPBC HN ES        431 58.13                             131    0.26 9  162 222 
 SPBC HZ I         432  3.90         3.0 0.05            129            162 222 
                                                                                
