 2010  8 4 0335 51.1 L   6.808 -73.040136.0  RSN  5 0.3 1.1LRSN                1
 GAP=176        0.68       5.8    11.6 11.0  0.1648E+02 -0.6034E+02 -0.2003E+02E
 Epicentro: CEPITA - SANTANDER                                                 3
 ACTION:UP  10-09-07 10:52 OP:vdl  STATUS:               ID:20100804033551 L   I
 2010-08-04-0330-44S.COL___126                                                 6
 STAT SP IPHASW D HRMM SECON CODA AMPLIT PERI AZIMU VELO SNR AR TRES W  DIS CAZ7
 BTL  SZ IP        336  9.94                                     0.310   28 296 
 BTL  SZ ES   2    336 24.39                             168     0.3 5   28 296 
 BAR2 SZ EP   1    336  9.82                             167     0.1 7   29 214 
 BRR  HZ EP        336 11.53                             147    -0.310   81 294 
 BRR  HE ES   2    336 28.20                             147     0.2 5   81 294 
 BRR  HZ I         336 30.28         4.0 0.16                            81 294 
 RUS  HZ EP   1    336 14.18                             141     0.2 7  101 183 
 RUS  HZ I         336 14.45         1.6 0.36                           101 183 
 RUS  HE ES   2    336 31.08                             141    -0.7 5  101 183 
 GUE  SZ EP        336 14.54                             138    -0.110  114   6 
                                                                                
