 2014  9 4 0059 18.1 L   6.799 -73.137147.5  RSN 11 0.4 2.1LRSN                1
 GAP=138        0.94       3.4     4.2  6.5 -0.4550E+01  0.3961E+01  0.4781E+01E
 Epicentro: LOS SANTOS - SANTANDER                                             3
 ACTION:UPD 14-10-03 23:02 OP:nd   STATUS:               ID:20140904005918 L   I
 OLDACT:UP  14-09-04 14:09 OP:mh   STATUS:               ID:20140904005819     3
 OLDACT:REG 14-09-04 12:41 OP:mh   STATUS:               ID:20140904005819     3
 2014-09-04-0058-19M.COL___269                                                 6
 STAT SP IPHASW D HRMM SECON CODA AMPLIT PERI AZIMU VELO AIN AR TRES W  DIS CAZ7
 BAR2 SZ EP        059 37.89                             171   -0.0110 23.4 192 
 BAR2 SZ I         059 54.26        36.3 0.10            171           23.4 192 
 BRR  HZ EP   1    059 39.39                             153   -0.05 7 72.1 298 
 BRR  HN ES        059 56.91                             153    0.7810 72.1 298 
 BRR  HZ I         059 57.84        24.7 0.17            151           72.1 298 
 PAM  SZ EP        059 40.69                             151    0.2610 76.8  39 
 PAM  SN ES        059 57.81                             151   -0.0710 76.8  39 
 PAM  SZ I         059 59.91        15.0 0.58            152           76.8  39 
 RUS  HZ EP   1    059 41.57                             144   -0.40 7  100 177 
 RUS  HN ES   1    1 0  0.65                             144    0.02 7  100 177 
 RUS  HZ I         1 0  1.16        16.0 0.24            145            100 177 
 PTB  HZ EP   1    059 44.46                             132   -0.79 7  149 259 
 PTB  HN ES        1 0  5.72                             132   -0.74 9  149 259 
 PTB  HZ I         1 0 12.87        18.5 0.30            132            149 259 
 OCA  HZ EP   1    059 46.76                             130    0.24 7  160 353 
 OCA  HN ES        1 0  8.23                             130   -0.49 9  160 353 
 OCA  HZ I         1 0 14.60        19.0 0.28            130            160 353 
 SPBC HZ EP   1    059 46.73                             129   -0.01 7  164 219 
 SPBC HN ES        1 0  8.86                             129   -0.26 9  164 219 
 SPBC HZ I         1 0 14.57        15.1 0.28            129            164 219 
 ZAR  HZ EP        059 51.10                             123    0.39 9  205 292 
 ZAR  HN ES   1    1 0 16.30                             123    0.12 6  205 292 
 ZAR  HZ I         1 0 22.89        14.6 0.32            122            205 292 
 NOR  HN ES   1    1 0 22.35                             119    0.37 6  235 235 
 NOR  HZ I         1 0 23.97         7.7 0.14            119            235 235 
 GUY2CHZ EP   1    1 0  1.43                             113   -0.40 5  302 235 
 GUY2CHE ES   1    1 0 36.81                             113    0.84 5  302 235 
 GUY2CHZ I         1 0 46.16         4.1 0.62                           302 235 
 PRA  HZ EP        1 0 12.19                             107    0.51 6  392 210 
 PRA  HN ES        1 0 53.67                             107    0.15 6  392 210 
 PRA  HZ I         1 0 58.61         4.4 0.20            107            392 210 
 SJC  HZ EP   4    1 0 11.87                             106   -1.87 0  410 327 
 SJC  HN ES   4    1 0 53.20                             106   -3.98 0  410 327 
                                                                                
