 2011 10 4 0902 56.4 L   6.783 -73.129147.3  RSN  7 0.4 2.1LRSN                1
 GAP=139        0.85       4.0     5.3  7.0 -0.1560E+01  0.1151E+02 -0.1179E+01E
 Epicentro: LOS SANTOS - SANTANDER                                             3
 ACTION:UPD 12-07-13 16:01 OP:ep   STATUS:               ID:20111004090256 L   I
 2011-10-04-0900-47S.COL___171                                                 6
 STAT SP IPHASW D HRMM SECON CODA AMPLIT PERI AZIMU VELO AIN AR TRES W  DIS CAZ7
 BAR2 SZ EP        9 3 16.19                             171    0.0210 21.9 195 
 BAR2 SZ ES   1    9 3 31.44                             171   -0.16 7 21.9 195 
 BAR2 SZ I         9 3 33.01        27.2 0.35                          21.9 195 
 BRR  HZ EP        9 3 18.08                             152    0.2410 73.7 299 
 BRR  HZ I         9 3 18.42        55.6 0.18                          73.7 299 
 BRR  HE ES   1    9 3 35.42                             152    0.85 7 73.7 299 
 PAM  SZ EP   1    9 3 19.08                             151    0.29 7 77.7  38 
 PAM  SZ I         9 3 19.28        10.9 0.19                          77.7  38 
 PAM  SN ES   1    9 3 35.75                             151   -0.50 7 77.7  38 
 RUS  HZ EP   1    9 3 20.08                             145   -0.07 7 98.6 177 
 RUS  HZ I         9 3 33.20        12.7 0.51                          98.6 177 
 RUS  HN ES   1    9 3 38.80                             145    0.12 7 98.6 177 
 OCA  SZ EP   1    9 3 24.53                             130   -0.48 7  162 353 
 OCA  SZ ES   1    9 3 47.12                             130   -0.22 7  162 353 
 OCA  SZ I         9 3 52.66        18.8 0.23                           162 353 
 ZAR  HZ EP   1    9 3 29.77                             122    0.59 6  206 292 
 ZAR  HE ES   1    9 3 54.25                             122   -0.50 6  206 292 
 ZAR  HZ I         9 4  1.39        16.6 0.30                           206 292 
 NOR  SZ EP   1    9 3 32.40                             119    0.15 6  235 235 
 NOR  SN ES   1    9 3 59.36                             119   -0.86 6  235 235 
                                                                                
