 2017  2 4 0417 44.8 L   6.700 -73.197144.8  RSN  5 0.4 1.4LRSN                1
 GAP=224        0.94       7.1     6.5  7.5  0.2845E+02  0.8856E+01  0.1530E+01E
 Epicentro: VILLANUEVA - SANTANDER                                             3
 ACTION:UPD 17-05-24 15:32 OP:jn   STATUS:               ID:20170204041744 L   I
 OLDACT:REG 17-02-04 12:35 OP:dnl  STATUS:               ID:20170204040740     3
 2017-02-04-0408-00M.COL___346                                                 6
 STAT SP IPHASW D HRMM SECON CODA AMPLIT PERI AZIMU VELO AIN AR TRES W  DIS CAZ7
 BAR2 EZ EP        418  3.69                             175   -0.4210 12.1 172 
 BAR2 EZ ES        418 18.75                             175   -0.4410 12.1 172 
 BAR2 EZ I         418 19.92         7.5 0.46            173           12.1 172 
 BRR  HZ EP        418  5.74                             152   -0.1510 72.5 308 
 BRR  HE ES        418 22.89                             152    0.5310 72.5 308 
 BRR  HZ I         418 23.55         4.7 0.16            150           72.5 308 
 RUS  HZ EP        418  8.02                             147    0.3210 90.2 172 
 RUS  HN ES        418 25.94                             147    0.3510 90.2 172 
 RUS  HZ I         418 26.66         3.7 0.22            147           90.2 172 
 PTB  HZ EP        418 11.00                             133    0.00 9  140 263 
 PTB  HN ES        418 31.02                             133   -0.43 9  140 263 
 PTB  HZ I         418 34.00         2.1 0.12            132            140 263 
 ZAR  HE ES        418 42.52                             122    0.25 9  203 296 
 ZAR  HZ I         418 46.80         3.3 0.10            122            203 296 
                                                                                
