 2013  6 4 0303 11.9 L   6.808 -73.120144.2  RSN 17 0.4 2.6LRSN                1
 GAP=111        0.83       2.3     2.8  4.7 -0.2084E+00  0.6482E+00  0.5785E+00E
 Epicentro: LOS SANTOS - SANTANDER                                             3
 ACTION:UPD 14-01-08 09:52 OP:ep   STATUS:               ID:20130604030311 L   I
 2013-06-04-0300-00M.COL___257                                                 6
 STAT SP IPHASW D HRMM SECON CODA AMPLIT PERI AZIMU VELO AIN AR TRES W  DIS CAZ7
 BAR2 SZ EP        3 3 31.40                             170   -0.0210 24.8 196 
 BAR2 SZ ES   1    3 3 46.31                             170   -0.30 7 24.8 196 
 BAR2 SZ I         3 3 48.91        53.7 0.20            170           24.8 196 
 BRR  HZ EP     C  3 3 33.20                             152    0.1610 73.3 297 
 BRR  HN ES        3 3 50.06                             152    0.5610 73.3 297 
 BRR  HN I         3 3 50.75       129.7 0.44            151           73.3 297 
 RUS  HZ EP   1    3 3 35.45                             143   -0.15 7  101 178 
 RUS  HN ES   1    3 3 54.16                             143    0.12 7  101 178 
 RUS  HN I         3 3 55.50        47.5 0.30            144            101 178 
 PTB  HZ EP   1    3 3 38.15                             131   -0.91 7  151 259 
 PTB  HN ES        3 3 59.83                             131   -0.37 9  151 259 
 PTB  HN I         3 4  2.16        38.5 0.18            131            151 259 
 TAM  HZ IP     C  3 3 39.74                             131    0.47 9  153 106 
 TAM  HN ES   1    3 4  0.25                             131   -0.33 7  153 106 
 TAM  HN I         3 4  2.14        29.2 0.40            132            153 106 
 OCA  HZ EP   1    3 3 39.76                             129   -0.32 7  160 352 
 OCA  HN ES        3 4  2.04                             129    0.01 9  160 352 
 OCA  HN I         3 4  5.55        74.7 0.20            129            160 352 
 YOP  SZ EP   1    3 3 42.17                             126    0.34 7  178 154 
 YOP  SN ES   4    3 4  6.46                             126    1.32 0  178 154 
 YOP  SZ I         3 4  6.72        31.7 0.24            127            178 154 
 ZAR  HZ EP   1    3 3 44.48                             122   -0.05 6  206 292 
 ZAR  HN ES   2    3 4  9.22                             122   -0.72 4  206 292 
 ZAR  HN I         3 4 15.70        50.8 0.16            122            206 292 
 NOR  HZ EP   1    3 3 47.57                             118   -0.32 6  238 235 
 NOR  HN ES        3 4 15.66                             118   -0.26 8  238 235 
 NOR  HN I         3 4 20.77        57.4 0.16            118            238 235 
 SML  HZ EP   1    3 3 47.91                             117   -0.62 6  244 335 
 SML  HN ES        3 4 17.03                             117   -0.03 8  244 335 
 SML  HN I         3 4 18.60        59.1 0.10            117            244 335 
 CHI  HZ IP   1    3 3 49.43                             117   -0.30 6  250 196 
 CHI  HN ES   1    3 4 19.02                             117   -0.19 6  250 196 
 CHI  HN I         3 4 23.41        24.2 0.28            117            250 196 
 HEL  HZ EP   1    3 3 53.00                             114    0.59 6  275 256 
 HEL  HN ES   1    3 4 24.15                             114    0.18 6  275 256 
 HEL  HN I         3 4 29.03        11.4 0.28            114            275 256 
 URE  HZ EP   4    3 3 50.39                             113   -2.81 0  286 292 
 URE  HE ES   4    3 4 22.69                             113   -2.68 0  286 292 
 URE  HE I         3 4 24.18        23.8 0.22            113            286 292 
 GUY2CHZ EP   1    3 3 56.68                             112    0.88 5  304 235 
 GUY2CHN ES        3 4 30.99                             112    0.98 7  304 235 
 GUY2CHZ I         3 4 37.41        11.2 0.38                           304 235 
 COD  HZ EP   1    3 3 59.95                             109   -0.24 5  348 354 
 COD  HN ES   2    3 4 37.84                             109    0.02 3  348 354 
 COD  HN I         3 4 42.45         7.7 0.48            109            348 354 
 ARGC HZ EP   1    3 4  2.43                             108    0.87 5  359 340 
 ARGC HE ES   2    3 4 39.97                             108   -0.28 3  359 340 
 ARGC HE I         3 4 48.11         9.2 0.30            108            359 340 
 PRA  HZ EP        3 4  5.12                             106   -0.55 6  394 210 
 PRA  HN ES   1    3 4 47.15                             106   -0.42 4  394 210 
 PRA  HN I         3 4 52.50         8.1 0.74            106            394 210 
                                                                                
