 2012 11 4 0355 36.0 L   6.787 -73.106143.2  RSN  7 0.2 1.9LRSN                1
 GAP=142        0.46       2.4     4.2  3.6 -0.1877E+01  0.1537E+01  0.3497E+01E
 Epicentro: LOS SANTOS - SANTANDER                                             3
 ACTION:UPD 12-12-05 15:31 OP:}ep  STATUS:               ID:20121104035536 L   I
 2012-11-04-0350-00M.COL___229                                                 6
 STAT SP IPHASW D HRMM SECON CODA AMPLIT PERI AZIMU VELO AIN AR TRES W  DIS CAZ7
 BAR2 SZ EP        355 55.32                             170   -0.0310 23.2 201 
 BAR2 SZ ES   1    356 10.51                             170    0.10 7 23.2 201 
 BAR2 SZ I         356 11.33        20.5 0.24                          23.2 201 
 GIR2 SZ EP   1    355 55.39                             166   -0.08 7 33.6 343 
 GIR2 SZ ES   1    356 10.18                             166   -0.44 7 33.6 343 
 PAM  SN I         356 16.01        20.2 0.48                          75.8  36 
 BRR  HN I         356 14.38        19.4 0.18                          75.8 298 
 PAM  SN ES   1    356 14.73                             151   -0.18 7 75.8  36 
 BRR  HZ EP        355 57.16                             150   -0.0110 75.8 298 
 BRR  HN ES   1    356 13.97                             150    0.31 7 75.8 298 
 PAM  SZ EP   1    355 58.18                             151    0.30 7 75.8  36 
 RUS  HZ EP        355 59.41                             144   -0.0110 99.0 179 
 RUS  HN ES   1    356 17.86                             144    0.21 7 99.0 179 
 RUS  HN I         356 19.41         5.8 0.24                          99.0 179 
 CHI  HZ EP   1    356 13.74                             117    0.17 6  248 196 
 CHI  HN ES   1    356 42.82                             117   -0.04 6  248 196 
 CHI  HN I         356 47.40         4.1 0.22                           248 196 
 PRA  HZ EP   1    356 29.47                             106   -0.11 4  393 210 
 PRA  HN ES   1    357 10.80                             106   -0.55 4  393 210 
 PRA  HN I         357 16.87         2.0 0.72                           393 210 
                                                                                
