 2013  4 4 0944 54.8 L   6.811 -73.347125.0  RSN  7 0.3 1.6LRSN                1
 GAP=113        0.67       4.5     4.2  5.6  0.9306E+01  0.3143E+01 -0.6182E+01E
 Epicentro: ZAPATOCA - SANTANDER                                               3
 ACTION:UPD 13-05-22 14:35 OP:EP   STATUS:               ID:20130404094454 L   I
 2013-04-04-0940-00M.COL___245                                                 6
 STAT SP IPHASW D HRMM SECON CODA AMPLIT PERI AZIMU VELO AIN AR TRES W  DIS CAZ7
 BAR2 SZ IP        945 12.24                             166    0.1410 30.3 143 
 BAR2 SZ ES   1    945 25.46                             166   -0.15 7 30.3 143 
 BAR2 SZ I         945 26.68        18.8 0.26            174           30.3 143 
 GIR2 SZ EP     D  945 11.85                             164   -0.2310 34.1  30 
 BRR  HZ EP        945 12.76                             156    0.1410 52.0 309 
 BRR  HN ES   1    945 26.72                             156    0.18 7 52.0 309 
 BRR  HZ I         945 29.17         9.2 0.26            151           52.0 309 
 RUS  HZ EP   1    945 17.25                             138    0.29 7  106 164 
 RUS  HN ES   1    945 34.31                             138    0.05 7  106 164 
 PTB  HZ EP        945 17.68                             132   -0.4210  126 256 
 PTB  HN ES   2    945 35.77                             132   -0.53 5  126 256 
 PTB  HZ I         945 39.13         3.8 0.16            134            126 256 
 ZAR  HZ EP        945 24.11                             120    0.39 9  183 294 
 ZAR  HN ES        945 46.59                             120    0.29 9  183 294 
 ZAR  HZ I         945 50.82         3.1 0.34            121            183 294 
 SML  HZ EP        945 28.84                             114   -0.41 8  234 340 
 SML  HN ES   4    945 52.99                             114   -3.15 0  234 340 
 SML  HZ I         946  6.31         6.2 0.08            114            234 340 
                                                                                
