 2013  4 4 0344 57.2 L   6.625 -73.544102.0  RSN  5 0.4 1.1LRSN                1
 GAP=117        0.78       5.6     4.9  8.9  0.1512E+02  0.1593E+02  0.1077E+02E
 Epicentro: EL CARMEN DE CHUCURI - SANTANDER                                   3
 ACTION:UPD 13-05-22 14:35 OP:EP   STATUS:               ID:20130404034457 L   I
 2013-04-04-0340-00M.COL___245                                                 6
 STAT SP IPHASW D HRMM SECON CODA AMPLIT PERI AZIMU VELO AIN AR TRES W  DIS CAZ7
 BAR2 SZ EP   1    345 12.03                             157   -0.20 7 40.2  95 
 BAR2 SZ ES   1    345 24.07                             157    0.10 7 40.2  95 
 BAR2 SZ I         345 25.79         4.9 0.42            161           40.2  95 
 BRR  HZ EP        345 12.47                             149   -0.3210 56.4 341 
 BRR  HN ES   1    345 24.98                             149    0.02 7 56.4 341 
 BRR  HZ I         345 29.54         3.6 0.32            152           56.4 341 
 RUS  HZ EP   1    345 16.66                             134    0.15 7 95.8 148 
 RUS  HN ES   1    345 31.95                             134    0.36 7 95.8 148 
 RUS  HZ I         345 33.25         1.3 0.26            141           95.8 148 
 PTB  HZ EP   1    345 16.04                             131   -0.33 7  101 265 
 PTB  HN ES   1    345 31.03                             131   -0.30 7  101 265 
 PTB  HZ I         345 32.84         4.4 0.10            137            101 265 
 ZAR  HN ES   1    345 45.57                             115    0.96 7  174 304 
                                                                                
