 2014  1 4 0758 19.9 L   7.282 -73.446 94.0  RSN 12 0.7 1.9LRSN                1
 GAP= 78        1.63       3.9     5.0 11.9 -0.1674E+01  0.2893E+02  0.5456E+01E
 Epicentro: SABANA DE TORRES - SANTANDER                                       3
 ACTION:UPD 14-03-13 09:51 OP:ep   STATUS:               ID:20140104075819 L   I
 OLDACT:DUP 14-01-04 14:41 OP:stll STATUS:               ID:20140104074809d    3
 2014-01-04-0748-08M.COL___231                                                 6
 STAT SP IPHASW D HRMM SECON CODA AMPLIT PERI AZIMU VELO AIN AR TRES W  DIS CAZ7
 BAR2 SZ EP        758 36.92                             137   -0.0810 81.7 159 
 BAR2 SZ I         758 37.11        37.4 0.34            137           81.7 159 
 BAR2 SZ ES        758 50.47                             137    0.1610 81.7 159 
 PAM  SZ EP        758 37.12                             137   -0.3110 82.7  86 
 PAM  SZ I         758 38.09        16.4 0.10            141           82.7  86 
 PAM  SN ES        758 51.73                             137    0.6510 82.7  86 
 OCA  HZ EP        758 38.55                             128   -0.6510  107   8 
 OCA  HN ES        758 54.18                             128   -0.0410  107   8 
 OCA  HZ I         758 54.62        23.0 0.20            131            107   8 
 PTB  HZ EP        758 40.99                             120   -1.29 9  139 234 
 PTB  HN ES        758 59.79                             120    0.08 9  139 234 
 PTB  HZ I         759  3.77        20.4 0.20            120            139 234 
 ZAR  HN EP        758 44.41                             117    0.07 9  158 279 
 ZAR  HE ES        759  4.52                             117    1.14 9  158 279 
 RUS  HZ EP        758 45.35                             117    0.25 9  159 165 
 RUS  HZ I         758 45.73         7.5 0.10            118            159 165 
 RUS  HN ES        759  4.40                             117   -0.32 9  159 165 
 SML  HZ EP        758 46.55                             113   -0.47 9  182 338 
 SPBC HN ES        759 10.33                             112   -0.37 9  193 201 
 NOR  HZ EP        758 55.12                             107    0.44 8  247 220 
 NOR  HE ES        759 21.81                             107    0.03 8  247 220 
 NOR  HZ I         759 28.27         8.9 0.14            107            247 220 
 HEL  HZ EP        758 57.61                             106    0.97 8  260 242 
 HEL  HN ES        759 23.71                             106   -1.55 8  260 242 
 HEL  HZ I         759 32.57         4.8 0.20            106            260 242 
 CHI  HZ EP        759  2.19                             104    1.31 7  295 186 
 CHI  HN ES        759 32.10                             104   -0.72 7  295 186 
 CHI  HZ I         759 39.52         1.6 0.30            105            295 186 
 GUY2CHZ EP        759  3.85                             103    0.94 7  311 223 
 GUY2CHE ES        759 37.04                             103    0.61 7  311 223 
 GUY2CHZ I         759 43.28         5.4 0.36                           311 223 
                                                                                
