 2013  3 4 0320 28.9 L   6.773 -73.132151.9  RSN  8 0.3 1.8LRSN                1
 GAP=139        0.70       3.4     3.7  4.8  0.2974E+00  0.3209E+01 -0.7289E+00E
 Epicentro: LOS SANTOS - SANTANDER                                             3
 ACTION:UPD 13-04-09 13:59 OP:ep   STATUS:               ID:20130304032028 L   I
 2013-03-04-0320-00M.COL___228                                                 6
 STAT SP IPHASW D HRMM SECON CODA AMPLIT PERI AZIMU VELO AIN AR TRES W  DIS CAZ7
 BAR2 SZ EP        320 49.20                             172    0.0010 20.7 195 
 BAR2 SZ I         320 49.46        11.2 0.24            170           20.7 195 
 BAR2 SZ ES        321  4.75                             172   -0.3010 20.7 195 
 BRR  HZ EP        320 51.08                             153    0.2410 74.0 300 
 BRR  HE ES        321  8.35                             153    0.3710 74.0 300 
 BRR  HE I         321  9.42        17.4 0.33            150           74.0 300 
 PAM  SZ EP        320 52.02                             151    0.1910 78.9  37 
 PAM  SE ES        321  9.34                             151   -0.4010 78.9  37 
 PAM  SZ I         321 11.38         3.9 0.31            154           78.9  37 
 RUS  HZ EP        320 53.08                             146    0.0610 97.5 177 
 RUS  HN ES   1    321 12.27                             146    0.42 7 97.5 177 
 RUS  HN I         321 13.80         5.0 0.26            148           97.5 177 
 PTB  HZ EP   1    320 56.15                             133   -0.28 7  149 260 
 PTB  HE ES   1    321 17.52                             133   -0.40 7  149 260 
 PTB  HZ I         321 23.07         5.5 0.39            132            149 260 
 OCA  HE ES   1    321 21.01                             130    0.35 7  163 353 
 OCA  HE I         321 23.20        18.1 0.24            131            163 353 
 ZAR  HZ EP   1    321  1.70                             123   -0.28 6  207 293 
 ZAR  HN ES   1    321 27.96                             123    0.15 6  207 293 
 ZAR  HZ I         321 34.06         5.8 0.48            123            207 293 
 SML  HZ EP   1    321  5.73                             118   -0.48 6  247 335 
                                                                                
