 2017  7 4 0823 23.6 L   6.710 -73.176150.7  RSN  7 0.6 1.5LRSN                1
 GAP=211        0.92       7.8     6.2  7.0  0.1763E+02  0.3073E+01  0.1588E+02E
 Epicentro: VILLANUEVA - SANTANDER                                             3
 ACTION:UPD 17-08-30 15:29 OP:rebc STATUS:               ID:20170704082323 L   I
 OLDACT:UP  17-07-04 16:49 OP:edw  STATUS:               ID:20170704081651     3
 OLDACT:REG 17-07-04 13:04 OP:edw  STATUS:               ID:20170704081651     3
 2017-07-04-0818-00M.COL___371                                                 6
 STAT SP IPHASW D HRMM SECON CODA AMPLIT PERI AZIMU VELO AIN AR TRES W  DIS CAZ7
 BAR2 EZ EP     D  823 43.61                             175   -0.0310 13.0 183 
 BAR2 EZ ES        823 59.02                             175   -0.2710 13.0 183 
 BAR2 EZ I         823 59.65         8.3 0.40            173           13.0 183 
 BRR  HZ EP        823 45.68                             152    0.2810 73.7 307 
 BRR  HN ES        824  2.56                             152    0.1410 73.7 307 
 BRR  HZ I         824  6.84         5.1 0.44            149           73.7 307 
 PTB  HZ EP        823 50.68                             134    0.17 9  143 262 
 PTB  HN ES        824 11.22                             134   -0.30 9  143 262 
 PTB  HZ I         824 14.10         2.2 0.22            132            143 262 
 SPBC HZ EP   2    823 52.37                             132    0.82 5  153 220 
 SPBC HN ES   2    824 14.06                             132    0.69 5  153 220 
 SPBC HZ I         824 16.43         5.0 0.52            131            153 220 
 ZAR  HZ EP   2    823 57.09                             123    0.65 4  205 295 
 ZAR  HN ES   2    824 22.39                             123    0.32 4  205 295 
 ZAR  HZ I         824 28.34         3.5 0.38            122            205 295 
 URE  HN ES   2    824 35.05                             114   -2.21 4  285 294 
 PTGC HZ EP        824  6.32                             113   -0.44 7  301 157 
                                                                                
