 2011  3 4 0341 10.5 L   6.862 -73.166140.0  RSN 11 0.4 2.3LRSN                1
 GAP=160        0.71       3.1     5.1  6.4  0.3391E+01  0.1578E+02  0.2246E+01E
 Epicentro: ZAPATOCA - SANTANDER                                               3
 ACTION:UP  11-06-16 14:31 OP:jfem STATUS:               ID:20110304034110 L   I
 2011-03-04-0339-06S.COL___135                                                 6
 STAT SP IPHASW D HRMM SECON CODA AMPLIT PERI AZIMU VELO SNR AR TRES W  DIS CAZ7
 BAR2 SZ EP   1    341 29.87                             167     0.3 8   30 184 
 BAR2 SZ ES   1    341 44.44                             167     0.0 8   30 184 
 BAR2 SZ I         341 46.23        76.9 0.14                            30 184 
 RUS  HZ EP        341 33.90                             141    -0.310  108 175 
 RUS  HN ES   2    341 52.29                             141    -0.4 5  108 175 
 RUS  HZ I         341 53.60        27.7 0.22                           108 175 
 OCA  SZ EP   1    341 38.05                             130     0.4 7  153 354 
 OCA  SZ ES   1    341 59.08                             130     0.2 7  153 354 
 OCA  SZ I         342  5.08        38.5 0.25                           153 354 
 YOP  SZ EP   1    341 40.77                             124    -0.1 7  186 154 
 YOP  SE ES   1    342  4.65                             124     0.1 7  186 154 
 CHI  HZ EP   1    341 48.60                             115     0.1 6  255 194 
 CHI  HE ES   2    342 18.84                             115     0.6 4  255 194 
 CHI  HZ I         342 25.36        11.5 0.34                           255 194 
 HEL  HZ EP   1    341 50.71                             114     0.3 6  272 254 
 HEL  HE ES   2    342 21.74                             114     0.3 4  272 254 
 HEL  HZ I         342 28.28        19.0 0.32                           272 254 
 RREF HZ EP   1    341 56.96                             110     0.2 5  325 228 
 RREF HE ES   2    342 32.66                             110    -0.1 3  325 228 
 RREF HZ I         342 41.94        15.7 0.30                           325 228 
 DBB  SZ EP   1    341 57.92                             109     0.5 5  337 273 
 DBB  SZ ES   2    342 33.72                             109    -0.3 3  337 273 
 DBB  SZ I         342 49.37         2.9 0.43                           337 273 
 TOL  SZ EP   1    341 59.28                             108     0.4 5  347 224 
 MON  HZ EP        341 57.50                             108    -1.0 7  347 308 
 PRA  HZ EP   3    342  4.92                             105     0.5 1  397 209 
 PRA  HN ES   1    342 46.18                             105    -0.3 4  397 209 
                                                                                
