 2013  1 4 0036  8.7 L   6.733 -73.208141.4  RSN  4 0.4 1.6LRSN                1
 GAP=223        1.12       8.9     8.9  9.4  0.4252E+02  0.1850E+02  0.1012E+02E
 Epicentro: VILLANUEVA - SANTANDER                                             3
 ACTION:UPD 13-02-15 09:11 OP:ep   STATUS:               ID:20130104003608 L   I
 2013-01-04-0029-37M.COL___208                                                 6
 STAT SP IPHASW D HRMM SECON CODA AMPLIT PERI AZIMU VELO AIN AR TRES W  DIS CAZ7
 BAR2 SZ ES        036 41.84                             173   -0.6010 15.8 170 
 BAR2 SZ I         036 43.62        11.1 0.18            174           15.8 170 
 BRR  HZ EP        036 29.13                             152   -0.1110 69.4 307 
 BRR  HN ES        036 45.84                             152    0.5510 69.4 307 
 BRR  HN I         036 46.99        10.2 0.48            152           69.4 307 
 RUS  HZ EP        036 31.24                             145   -0.2810 93.9 172 
 RUS  HE ES        036 49.89                             145    0.5510 93.9 172 
 PTB  HZ EP        036 34.84                             133    0.29 9  140 261 
 PTB  HN ES        036 54.33                             133   -0.41 9  140 261 
 PTB  HN I         036 56.40         4.5 0.22            133            140 261 
                                                                                
