 2017  4 4 0626 45.2 L   6.765 -73.128147.5  RSN  6 0.4 1.3LRSN                1
 GAP=237        0.78       6.1     6.9  6.5  0.2534E+02  0.1409E+02  0.2281E+01E
 Epicentro: LOS SANTOS - SANTANDER                                             3
 ACTION:UPD 17-05-30 21:08 OP:jn   STATUS:               ID:20170404062645 L   I
 OLDACT:UP  17-04-04 14:43 OP:and  STATUS:               ID:20170404061741     3
 OLDACT:UP  17-04-04 14:42 OP:and  STATUS:               ID:20170404061741     3
 OLDACT:UP  17-04-04 14:42 OP:and  STATUS:               ID:20170404061741     3
 OLDACT:UP  17-04-04 14:41 OP:and  STATUS:               ID:20170404061741     3
 OLDACT:REG 17-04-04 12:28 OP:and  STATUS:               ID:20170404061741     3
 2017-04-04-0618-00M.COL___359                                                 6
 STAT SP IPHASW D HRMM SECON CODA AMPLIT PERI AZIMU VELO AIN AR TRES W  DIS CAZ7
 BAR2 EZ EP        627  4.94                             172   -0.0610 20.0 198 
 BAR2 EZ ES        627 20.10                             172   -0.3210 20.0 198 
 BAR2 EZ I         627 22.26         5.0 0.22            168           20.0 198 
 BRR  HZ EP        627  7.11                             151    0.3410 74.9 300 
 BRR  HN ES   2    627 24.36                             151    0.79 5 74.9 300 
 BRR  HZ I         627 27.36         2.9 0.28            149           74.9 300 
 RUS  HZ EP        627  8.84                             145   -0.0310 96.6 177 
 RUS  HN ES        627 27.37                             145    0.0710 96.6 177 
 RUS  HZ I         627 28.23         3.2 0.50            146           96.6 177 
 PTB  HZ EP        627 11.92                             132   -0.53 9  149 260 
 PTB  HN ES   3    627 32.29                             132   -1.39 2  149 260 
 PTB  HZ I         627 33.50         2.3 0.15            131            149 260 
 SPBC HZ EP        627 13.92                             130    0.22 9  161 220 
 SPBC HN ES   2    627 36.64                             130    0.74 5  161 220 
 SPBC HZ I         627 41.53         1.7 0.17            130            161 220 
 ZAR  HN ES        627 43.79                             122    0.00 8  207 293 
 ZAR  HZ I         627 50.10         2.4 0.26            123            207 293 
                                                                                
