 2012  5 4 0315  4.5 L   6.720 -73.229146.6  RSN  5 0.3 1.5LRSN                1
 GAP=211        0.76       7.7     6.9  8.1  0.3234E+02  0.9634E+01  0.2295E+01E
 Epicentro: VILLANUEVA - SANTANDER                                             3
 ACTION:UP  12-07-05 12:02 OP:pat  STATUS:               ID:20120504031504 L   I
 2012-05-04-0310-00M.COL___189                                                 6
 STAT SP IPHASW D HRMM SECON CODA AMPLIT PERI AZIMU VELO SNR AR TRES W  DIS CAZ7
 BAR2 SZ EP   1    315 23.78                             174    -0.3 7   15 160 
 BAR2 SZ I         315 23.96         5.8 0.13                            15 160 
 BAR2 SZ ES   1    315 39.19                             174    -0.2 7   15 160 
 BRR  HZ EP   1    315 25.84                             154     0.2 7   68 309 
 BRR  HN ES   1    315 42.08                             154     0.0 7   68 309 
 BRR  HZ I         315 46.68        10.7 0.17                            68 309 
 RUS  HZ EP   1    315 27.71                             146    -0.1 7   93 170 
 RUS  HN ES   1    315 46.50                             146     0.5 7   93 170 
 RUS  HZ I         315 47.29         2.4 0.33                            93 170 
 PTB  HZ EP   1    315 30.60                             134     0.0 7  137 262 
 PTB  HN ES   1    315 50.57                             134    -0.4 7  137 262 
 PTB  HZ I         315 58.88         3.3 0.41                           137 262 
 ZAR  HN ES   1    316  1.94                             123     0.4 6  199 295 
 ZAR  HZ I         316  7.88         5.0 0.14                           199 295 
                                                                                
