 2013  6 4 0226 32.0 L   6.511 -73.735 97.8  RSN  8 0.5 1.7LRSN                1
 GAP=149        1.04       4.8     4.7 10.5 -0.7663E+01  0.2188E+02 -0.6231E+01E
 Epicentro: SANTA HELENA DEL OPON - SANTANDER                                  3
 ACTION:UPD 14-01-08 09:52 OP:ep   STATUS:               ID:20130604022632 L   I
 2013-06-04-0220-00M.COL___257                                                 6
 STAT SP IPHASW D HRMM SECON CODA AMPLIT PERI AZIMU VELO AIN AR TRES W  DIS CAZ7
 BAR2 SZ EP   1    226 47.93                             146    0.09 7 61.7  82 
 BAR2 SZ ES        227  0.15                             146   -0.0710 61.7  82 
 BAR2 SZ I         227  1.33        23.9 0.44            150           61.7  82 
 BRR  HZ EP        226 48.09                             143    0.2910 66.0   2 
 BRR  HN ES   1    227  0.88                             143    0.72 7 66.0   2 
 BRR  HZ I         227  1.52         9.9 0.10            143           66.0   2 
 PTB  HZ IP     D  226 48.56                             138   -0.3510 79.9 272 
 PTB  HN ES   1    227  1.27                             138   -0.87 7 79.9 272 
 PTB  HN I         227  6.02        12.0 0.48            135           79.9 272 
 NOR  HZ EP   1    226 57.52                             117    0.23 7  164 230 
 NOR  HN ES   1    227 17.57                             117    0.51 7  164 230 
 NOR  HZ I         227 21.19         7.7 0.18            116            164 230 
 ZAR  HN ES   1    227 17.97                             116    0.75 7  165 311 
 OCA  HN ES   1    227 22.91                             112   -0.98 6  197  13 
 HEL  HN ES   1    227 25.08                             112   -0.33 6  202 260 
 HEL  HN I         227 31.02         3.5 0.48            111            202 260 
 GUY2CHE ES   4    227 29.58                             109   -1.88 0  230 232 
 SML  HN ES   1    227 35.92                             107    0.05 6  256 352 
 SML  HN I         227 42.47        10.1 0.10            107            256 352 
                                                                                
