 2012 10 4 0030 40.3 L   6.547 -74.167 18.6  RSN  5 0.4 1.1LRSN                1
 GAP=144        0.85       5.4     3.2  7.2 -0.3124E+01  0.3505E+01  0.2215E+02E
 Epicentro: PUERTO PARRA - SANTANDER                                           3
 ACTION:UPD 12-11-22 17:01 OP:ep   STATUS:               ID:20121004003040 L   I
 2012-10-04-0030-00M.COL___220                                                 6
 STAT SP IPHASW D HRMM SECON CODA AMPLIT PERI AZIMU VELO AIN AR TRES W  DIS CAZ7
 BRR  HN ES   1    031  2.96                             101   -0.26 8 79.8  39 
 BRR  HZ I         031  4.52         6.6 0.15                          79.8  39 
 BAR2 SZ EP   1    030 57.63                              98   -0.14 8  109  87 
 BAR2 SZ I         031 11.50         9.8 0.23                           109  87 
 RUS  HZ EP        031  2.81                              56    0.4510  140 121 
 RUS  HN ES   1    031 19.03                              56   -0.57 7  140 121 
 RUS  HZ I         031 20.69         1.0 0.17                           140 121 
 HEL  HZ EP   1    031  4.72                              56    0.54 7  156 255 
 HEL  HN ES   1    031 22.29                              56   -0.55 7  156 255 
 PAM  SE ES   1    031 29.71                              56    0.26 7  184  62 
                                                                                
