 2014  3 4 0534 59.2 L   6.434 -73.616  4.1  RSN  5 0.4 1.4LRSN                1
 GAP=119        1.13       4.4     4.0 18.5  0.4637E+01  0.5163E+02  0.2800E+02E
 Epicentro: SANTA HELENA DEL OPON - SANTANDER                                  3
 ACTION:UPD 14-04-09 23:14 OP:nd   STATUS:               ID:20140304053459 L   I
 OLDACT:REG 14-03-04 10:24 OP:nd   STATUS:               ID:20140304053044     3
 2014-03-04-0530-44M.COL___224                                                 6
 STAT SP IPHASW D HRMM SECON CODA AMPLIT PERI AZIMU VELO AIN AR TRES W  DIS CAZ7
 BAR2 SZ EP        535 10.11                             121    0.2410 51.1  70 
 BAR2 SZ ES        535 17.79                             121   -0.4410 51.1  70 
 BAR2 SZ I         535 19.21        27.1 0.10             47           51.1  70 
 RUS  HZ EP        535 13.58                             105    0.0610 84.0 135 
 RUS  HN ES        535 24.16                             105   -0.5710 84.0 135 
 RUS  HZ I         535 25.08         5.9 0.18             47           84.0 135 
 PTB  HZ EP        535 14.39                             101    0.2410 93.6 277 
 PTB  HN ES        535 25.20                             101   -0.6410 93.6 277 
 PTB  HZ I         535 27.33        15.8 0.22             47           93.6 277 
 SPBC HZ EP        535 15.44                             100    0.3910  100 210 
 SPBC HN ES        535 28.09                             100    0.6510  100 210 
 SPBC HZ I         535 29.15        10.7 0.28             47            100 210 
 ZAR  HZ EP        535 25.08                              93    0.10 9  180 311 
 ZAR  HZ I         535 52.55         2.8 0.38             37            180 311 
                                                                                
