 2010  3 4 0839 57.0 L   6.804 -73.042144.7  RSN  8 0.2 2.1LRSN                1
 GAP=134        0.53       1.7     3.9  3.9 -0.1039E+01 -0.2742E+01  0.1108E+01E
 Epicentro: LOS SANTOS - SANTANDER                                             3
 ACTION:UP  10-08-24 09:51 OP:vdl  STATUS:               ID:20100304083957 L   I
 2010-03-04-0838-24S.COL___096                                                 6
 STAT SP IPHASW D HRMM SECON CODA AMPLIT PERI AZIMU VELO SNR AR TRES W  DIS CAZ7
 BRR  HZ IP        840 18.43                             149    -0.210   81 294 
 BRR  HN ES        840 35.73                             149     0.210   81 294 
 BRR  HZ I         840 37.60        26.2 0.34                            81 294 
 RUS  BZ EP        840 20.76                             143     0.110  101 183 
 RUS  BN ES        840 38.99                             143    -0.210  101 183 
 RUS  BZ I         840 41.26        14.8 1.00                           101 183 
 OCA  SZ EP        840 25.18                             129    -0.2 9  162 349 
 OCA  SZ ES        840 47.61                             129     0.1 9  162 349 
 CHI  HZ EP        840 35.21                             116     0.2 8  252 198 
 CHI  HN ES        841  4.63                             116    -0.1 8  252 198 
 CHI  HZ I         841  8.83         8.0 0.29                           252 198 
 HEL  HZ EP   1    840 38.10                             113    -0.3 6  283 256 
 HEL  HN ES   3    841 10.22                             113    -0.5 2  283 256 
 HEL  HZ I         841 16.93         5.6 0.23                           283 256 
 SDV  BZ EP        840 46.29                             109     0.3 6  351  49 
 SDV  BZ I         840 47.35         9.0 0.11                           351  49 
 TOL  SZ EP   1    840 46.50                             109     0.3 5  352 226 
 TOL  SZ ES   2    841 24.85                             109     0.3 3  352 226 
 PRA  HZ EP   1    840 50.87                             106    -0.4 4  398 211 
 PRA  HN ES        841 33.96                             106     0.5 6  398 211 
                                                                                
