 2016  8 4 0735 45.6 L   6.741 -73.116144.7  RSN  8 0.4 1.7LRSN                1
 GAP=143        0.99       5.8     5.9  6.7 -0.1573E+02  0.6924E+01  0.9594E+01E
 Epicentro: LOS SANTOS - SANTANDER                                             3
 ACTION:UPD 16-10-29 15:32 OP:rebc STATUS:               ID:20160804073545 L   I
 OLDACT:UP  16-08-04 16:02 OP:dani STATUS:               ID:20160804072736     3
 OLDACT:UP  16-08-04 16:00 OP:dani STATUS:               ID:20160804072736     3
 OLDACT:UP  16-08-04 16:00 OP:dani STATUS:               ID:20160804072736     3
 OLDACT:UP  16-08-04 16:00 OP:dani STATUS:               ID:20160804072736     3
 OLDACT:UP  16-08-04 16:00 OP:dani STATUS:               ID:20160804072736     3
 OLDACT:REG 16-08-04 12:33 OP:dani STATUS:               ID:20160804072736     3
 2016-08-04-0728-00M.COL___323                                                 6
 STAT SP IPHASW D HRMM SECON CODA AMPLIT PERI AZIMU VELO AIN AR TRES W  DIS CAZ7
 BAR2 EZ EP        736  4.65                             173   -0.3210 18.0 204 
 BAR2 EZ ES        736 20.00                             173   -0.1110 18.0 204 
 BAR2 EZ I         736 20.89        24.0 0.28                          18.0 204 
 BRR  HZ IP     C  736  6.45                             150   -0.5110 77.3 302 
 BRR  HE ES        736 23.75                             150    0.1110 77.3 302 
 BRR  HZ I         736 27.95         9.1 0.26                          77.3 302 
 PAM  EZ EP        736  7.57                             150   -0.2910 80.6  35 
 PAM  EZ ES        736 25.79                             150    0.5410 80.6  35 
 PAM  EZ I         736 27.48         8.2 0.42                          80.6  35 
 RUS  HZ EP   4    736  7.41                             146   -1.32 0 93.9 178 
 RUS  HN ES   2    736 27.33                             146    0.52 5 93.9 178 
 RUS  HZ I         736 28.28         6.0 0.28                          93.9 178 
 SPBC HZ EP        736 13.64                             129   -0.07 9  160 221 
 SPBC HE ES        736 35.44                             129   -0.22 9  160 221 
 SPBC HZ I         736 41.31         8.1 0.18                           160 221 
 ZAR  HZ EP   4    736 11.63                             121   -6.89 0  210 293 
 ZAR  HE ES   4    736 42.47                             121   -1.75 0  210 293 
 HEL  HZ EP   4    736 27.61                             114    1.70 0  274 257 
 HEL  HE ES        736 57.47                             114    0.09 8  274 257 
 HEL  HZ I         737  4.84         2.0 0.26                           274 257 
 GUY2CHZ EP        736 30.19                             112    1.18 7  300 236 
 GUY2CHN ES   4    737  5.59                             112    2.69 0  300 236 
 GUY2CHZ I         737 13.20         2.2 0.40                           300 236 
 PRA  HZ EP        736 38.67                             107    0.09 6  388 210 
 PRA  HZ I         737 25.90         1.6 0.28                           388 210 
                                                                                
