 2016 11 4 0728 46.8 L   6.803 -73.155145.7  RSN  5 0.4 1.0LRSN                1
 GAP=135        0.93       6.0     5.7  7.3  0.7246E+01 -0.2389E+01 -0.6811E+01E
 Epicentro: LOS SANTOS - SANTANDER                                             3
 ACTION:UPD 17-10-26 21:04 OP:lp   STATUS:               ID:20161104072846 L   I
 OLDACT:DUP 16-11-04 16:14 OP:dani STATUS:               ID:20161104071747d    3
 OLDACT:REG 16-11-04 13:11 OP:dani STATUS:               ID:20161104071746     3
 2016-11-04-0718-00M.COL___343                                                 6
 STAT SP IPHASW D HRMM SECON CODA AMPLIT PERI AZIMU VELO AIN AR TRES W  DIS CAZ7
 BAR2 EZ ES        729 21.15                             170   -0.6010 23.5 187 
 BRR  HZ EP        729  7.94                             153    0.0510 70.1 299 
 BRR  HN ES        729 24.84                             153    0.5010 70.1 299 
 BRR  HZ I         729 30.19         2.7 0.42            151           70.1 299 
 PAM  EZ EP        729  8.98                             151   -0.0610 77.8  40 
 RUS  HZ EP        729 10.93                             144    0.3410  101 175 
 RUS  HN ES        729 29.35                             144    0.2110  101 175 
 RUS  HZ I         729 30.07         1.2 0.21            148            101 175 
 PTB  HZ EP        729 13.24                             132   -0.45 9  147 259 
 PTB  HE ES        729 34.61                             132   -0.04 9  147 259 
 PTB  HZ I         729 38.65         1.0 0.40            133            147 259 
                                                                                
