 2015  4 4 0956  5.3 L   6.740 -73.153146.5  RSN  7 0.4 1.2LRSN                1
 GAP=138        1.11       4.1     4.9  8.0  0.5017E+00  0.8691E+01 -0.4222E+01E
 Epicentro: LOS SANTOS - SANTANDER                                             3
 ACTION:UPD 15-06-03 16:52 OP:cam  STATUS:               ID:20150404095605 L   I
 OLDACT:UP  15-04-04 17:50 OP:mh   STATUS:               ID:20150404094739d    3
 OLDACT:UP  15-04-04 17:50 OP:mh   STATUS:               ID:20150404094739d    3
 OLDACT:DUP 15-04-04 17:32 OP:mh   STATUS:               ID:20150404094739d    3
 2015-04-04-0947-37M.COL___276                                                 6
 STAT SP IPHASW D HRMM SECON CODA AMPLIT PERI AZIMU VELO AIN AR TRES W  DIS CAZ7
 BRR  HZ EP        956 26.35                             152   -0.3610 73.9 303 
 BRR  HN ES        956 43.91                             152    0.5210 73.9 303 
 BRR  HZ I         956 51.78         3.0 0.45            153           73.9 303 
 PAM  SZ EP        956 27.82                             149   -0.1510 83.1  37 
 PAM  SN ES        956 45.25                             149   -0.3810 83.1  37 
 PAM  SZ I         956 48.03         2.2 0.73            154           83.1  37 
 RUS  HZ EP        956 29.42                             146    0.7210 94.1 175 
 RUS  HN ES        956 46.94                             146    0.0210 94.1 175 
 RUS  HZ I         956 49.15         1.4 0.13            151           94.1 175 
 PTB  HZ EP        956 31.40                             133   -0.78 9  146 261 
 PTB  HN ES        956 52.64                             133   -0.48 9  146 261 
 PTB  HZ I         956 55.92         1.7 0.16            136            146 261 
 OCA  HN ES        956 57.12                             129    0.21 9  167 354 
 ZAR  HZ EP        956 38.60                             122    0.59 8  206 294 
 ZAR  HN ES        957  3.77                             122    0.27 8  206 294 
 ZAR  HZ I         957  6.98         1.7 0.24            126            206 294 
 SML  HZ EP        956 42.61                             117   -0.00 8  249 336 
 SML  HN ES        957 11.62                             117   -0.07 8  249 336 
 SML  HZ I         957 13.53         1.7 0.10            121            249 336 
                                                                                
