 2017  9 4 0536  2.3 L   6.831 -73.120147.0  RSN 25 0.4 2.6LRSN                1
 GAP= 67        0.97       3.1     2.6  4.3  0.9022E+00  0.3484E+01  0.5443E+00E
 Epicentro: LOS SANTOS - SANTANDER                                             3
 ACTION:UPD 17-10-05 19:08 OP:rebc STATUS:               ID:20170904053602 L   I
 OLDACT:UP  17-09-04 15:54 OP:dnl  STATUS:               ID:20170904052742     3
 OLDACT:UP  17-09-04 15:53 OP:dnl  STATUS:               ID:20170904052742     3
 OLDACT:REG 17-09-04 12:33 OP:dnl  STATUS:               ID:20170904052742     3
 2017-09-04-0528-00M.COL___408                                                 6
 STAT SP IPHASW D HRMM SECON CODA AMPLIT PERI AZIMU VELO AIN AR TRES W  DIS CAZ7
 BAR2 EZ IP     C  536 22.01                             169   -0.1210 27.2 195 
 BAR2 EZ ES        536 36.80                             169   -0.8210 27.2 195 
 BAR2 EZ I         536 38.33        88.4 0.18            166           27.2 195 
 BRR  HZ IP     C  536 23.81                             152    0.2010 72.2 295 
 BRR  HN ES        536 40.64                             152    0.3910 72.2 295 
 BRR  HZ I         536 44.45        81.5 0.14            151           72.2 295 
 PAM  EZ EP        536 24.81                             152    0.4510 73.0  40 
 PAM  EN ES        536 41.80                             152    0.2110 73.0  40 
 PAM  EZ I         536 42.45        58.9 0.18            156           73.0  40 
 RUS  HZ EP        536 26.07                             143   -0.3010  104 178 
 RUS  HE ES        536 44.82                             143   -0.3510  104 178 
 RUS  HZ I         536 45.84        33.7 0.40            142            104 178 
 TAM  HZ IP     C  536 30.40                             131    0.52 9  153 106 
 TAM  HN ES        536 51.66                             131    0.26 9  153 106 
 TAM  HZ I         536 52.48        29.8 0.36            133            153 106 
 SPBC HZ EP        536 31.06                             128   -0.22 9  168 219 
 SPBC HE ES        536 53.66                             128   -0.25 9  168 219 
 SPBC HZ I         536 57.60        26.0 0.11            127            168 219 
 YPLC HZ IP     C  536 32.58                             127    0.27 9  178 153 
 YPLC HN ES        536 55.34                             127   -0.40 9  178 153 
 YPLC HZ I         536 58.98        22.1 0.32            126            178 153 
 ZAR  HZ EP        536 34.80                             122   -0.14 8  205 291 
 ZAR  HE ES        537  0.76                             122    0.34 8  205 291 
 ZAR  HZ I         537  5.68        66.4 0.36            122            205 291 
 NOR  HZ EP        536 38.45                             118   -0.08 8  239 234 
 NOR  HN ES        537  7.18                             118    0.37 8  239 234 
 NOR  HZ I         537  8.20        38.1 0.24            117            239 234 
 CHI  HZ EP        536 40.50                             117    0.03 8  253 196 
 CHI  HE ES   4    537 11.53                             117    1.26 0  253 196 
 CHI  HZ I         537 14.98        16.5 0.28            116            253 196 
 ROSC BZ EP   9    536 42.21                             116    1.28 0  257 211 
 ROSC BN ES        537 12.77                             116    0.41 8  257 211 
 ROSC BZ I         537 16.75        34.0 0.35            116            257 211 
 HEL  HZ EP        536 43.65                             115    0.70 7  276 255 
 HEL  HN ES        537 15.30                             115    0.63 7  276 255 
 HEL  HZ I         537 20.31        21.5 0.36            114            276 255 
 URE  HZ EP        536 42.96                             114   -0.60 7  285 291 
 URE  HN ES   4    537 13.04                             114   -2.72 0  285 291 
 URE  HZ I         537 17.64        26.1 0.12            113            285 291 
 GUY2CHZ EP        536 46.57                             112    0.15 7  305 235 
 GUY2CHN ES   4    537 24.16                             112    3.31 0  305 235 
 GUY2CHZ I         537 28.36        18.2 0.44                           305 235 
 VIL  EZ EP   4    536 44.45                             112   -1.73 0  307 192 
 VIL  EN ES   4    537 19.84                             112   -0.59 0  307 192 
 VIL  EZ I         537 24.27        17.0 0.60            112            307 192 
 PTGC HZ EP   4    536 45.35                             112   -1.07 0  311 159 
 PTGC HN ES   4    537 18.89                             112   -1.97 0  311 159 
 PTGC HZ I         537 25.87        12.2 0.20            112            311 159 
 DBB  EZ EP        536 49.92                             109   -0.18 7  342 274 
 DBB  EN ES   4    537 25.47                             109   -1.93 0  342 274 
 DBB  EZ I         537 33.95        10.7 0.44            109            342 274 
 ARGC HZ EP   2    536 51.56                             108   -0.16 3  357 340 
 ARGC HE ES   4    537 31.81                             108    1.52 0  357 340 
 ARGC HZ I         537 32.86         5.6 0.28            109            357 340 
 ANIL HZ EP   9    536 54.01                             108    1.38 0  362 224 
 ANIL HN ES        537 34.26                             108    0.97 6  362 224 
 ANIL HZ I         537 38.51        36.8 0.28            108            362 224 
 PRA  HZ EP   2    536 56.15                             106   -0.19 3  396 210 
 PRA  HE ES   4    537 37.78                             106   -0.74 0  396 210 
 PRA  HZ I         537 44.64        25.3 0.28            106            396 210 
 APAC HZ EP   2    536 56.16                             106   -0.54 3  400 287 
 APAC HN ES        537 38.26                             106   -0.89 6  400 287 
 APAC HZ I         537 43.24         6.7 0.36            106            400 287 
 ORTC HZ EP        536 57.08                             106    0.33 6  400 216 
 ORTC HE ES   4    537 41.26                             106    2.02 0  400 216 
 ORTC HZ I         537 44.49        13.9 0.50            106            400 216 
 SJC  HZ EP        536 56.54                             106   -1.19 6  408 326 
 SJC  HN ES   4    537 37.50                             106   -3.48 0  408 326 
 SJC  HZ I         537 41.76         7.5 0.66            106            408 326 
 PAL  HZ EP        536 58.02                             106    0.06 6  410 239 
 PAL  HN ES   4    537 44.27                             106    2.87 0  410 239 
 PAL  HZ I         537 45.73         5.1 0.62            106            410 239 
 YOT  HZ EP   4    537  5.02                             103   -0.85 0  476 229 
 YOT  HN ES   4    537 58.37                             103    2.90 0  476 229 
 GUA  EZ EP   4    537  4.55                             103   -1.27 0  477 173 
 GUA  EE ES   4    537 54.45                             103   -0.93 0  477 173 
 GUA  EZ I         538  0.43         9.6 0.34            103            477 173 
                                                                                
