 2015  3 4 0737 59.2 L   6.801 -73.128152.0  RSN  7 0.4 1.3LRSN                1
 GAP=139        0.93       4.5     4.5  7.0 -0.2380E+01  0.5545E+01  0.4862E+01E
 Epicentro: LOS SANTOS - SANTANDER                                             3
 ACTION:UPD 15-04-30 16:22 OP:nd   STATUS:               ID:20150304073759 L   I
 OLDACT:REG 15-03-04 12:50 OP:spq  STATUS:               ID:20150304072744     3
 2015-03-04-0727-44M.COL___284                                                 6
 STAT SP IPHASW D HRMM SECON CODA AMPLIT PERI AZIMU VELO AIN AR TRES W  DIS CAZ7
 BAR2 EZ EP        738 19.51                             171   -0.1210 23.9 195 
 BAR2 EZ ES   1    738 35.17                             171   -0.36 7 23.9 195 
 BAR2 EZ I         738 35.78         2.2 0.28            169           23.9 195 
 BRR  HZ EP        738 21.43                             153    0.2710 72.9 298 
 BRR  HN ES        738 38.76                             153    0.5110 72.9 298 
 BRR  HZ I         738 43.71         5.4 0.54            150           72.9 298 
 PAM  SZ EP        738 22.32                             152    0.2810 76.1  38 
 PAM  SE ES        738 39.66                             152   -0.1710 76.1  38 
 PAM  SZ I         738 41.31         3.8 0.60            156           76.1  38 
 RUS  HZ EP   1    738 23.98                             145    0.37 7  101 177 
 RUS  HE ES   1    738 42.02                             145   -0.59 7  101 177 
 RUS  HZ I         738 42.89         1.0 0.38            148            101 177 
 PTB  HZ EP        738 26.24                             133   -0.65 9  150 259 
 PTB  HN ES   1    738 48.41                             133   -0.06 7  150 259 
 PTB  HZ I         738 53.27         2.5 0.50            132            150 259 
 SPBC HZ EP        738 28.37                             130    0.03 9  165 220 
 SPBC HN ES        738 51.56                             130    0.51 9  165 220 
 SPBC HZ I         738 56.39         2.8 0.40            131            165 220 
 ZAR  HN ES        738 57.64                             123   -0.41 8  206 292 
 ZAR  HZ I         739  3.57         2.9 0.34            124            206 292 
                                                                                
