 2012  8 4 0858 58.7 L   6.725 -73.163142.1  RSN  9 0.4 1.8LRSN                1
 GAP=138        0.82       4.3     4.7  6.7 -0.9470E-01  0.8593E+01  0.1790E+01E
 Epicentro: VILLANUEVA - SANTANDER                                             3
 ACTION:UPD 12-09-10 11:54 OP:ep   STATUS:               ID:20120804085858 L   I
 2012-08-04-0857-39M.COL___209                                                 6
 STAT SP IPHASW D HRMM SECON CODA AMPLIT PERI AZIMU VELO AIN AR TRES W  DIS CAZ7
 BAR2 SZ EP   1    859 17.88                             174    0.17 7 14.8 188 
 BAR2 SZ ES   1    859 32.72                             174    0.15 7 14.8 188 
 BAR2 SZ I         859 34.95        14.8 0.24                          14.8 188 
 GIR2 SZ EP   1    859 18.26                             164    0.11 7 39.3 355 
 GIR2 SZ ES   1    859 33.79                             164    0.44 7 39.3 355 
 BRR  HZ EP   1    859 19.98                             151    0.40 7 73.9 305 
 BRR  HZ I         859 20.81        15.0 0.14                          73.9 305 
 BRR  HN ES   1    859 36.46                             151    0.56 7 73.9 305 
 PAM  SZ EP   1    859 21.11                             148    0.13 7 85.1  37 
 PAM  SN ES   1    859 38.00                             148   -0.39 7 85.1  37 
 RUS  HZ EP   1    859 21.68                             145    0.20 7 92.5 175 
 RUS  HZ I         859 22.86         8.7 0.18                          92.5 175 
 RUS  HN ES   1    859 38.76                             145   -0.52 7 92.5 175 
 PTB  HZ EP   1    859 24.45                             132   -0.59 7  144 262 
 PTB  HN ES   1    859 45.07                             132   -0.54 7  144 262 
 PTB  HZ I         859 46.69         6.4 0.11                           144 262 
 OCA  HE ES   1    859 49.22                             127   -0.71 7  168 354 
 ZAR  HN ES   1    859 56.26                             121   -0.02 6  206 294 
 HEL  HZ EP   1    859 38.87                             114    0.59 6  268 257 
 HEL  HZ I         9 0 16.92         5.5 0.27                           268 257 
                                                                                
