 2014  2 4 0025 26.1 L   6.785 -73.199135.5  RSN  6 0.2 1.4LRSN                1
 GAP=131        0.38       2.4     3.3  4.4 -0.2125E+01  0.6454E+01 -0.8503E+00E
 Epicentro: ZAPATOCA - SANTANDER                                               3
 ACTION:UPD 14-03-10 08:07 OP:ep   STATUS:               ID:20140204002526 L   I
 OLDACT:UP  14-02-04 08:52 OP:mh   STATUS:               ID:20140204002000     3
 OLDACT:REG 14-02-04 07:29 OP:mh   STATUS:               ID:20140204002000     3
 2014-02-04-0020-00M.COL___288                                                 6
 STAT SP IPHASW D HRMM SECON CODA AMPLIT PERI AZIMU VELO AIN AR TRES W  DIS CAZ7
 BAR2 SZ ES   1    025 58.71                             171   -0.03 7 21.4 175 
 PAM  SZ EP   1    025 47.33                             147   -0.21 7 82.5  42 
 PAM  SN ES        026  4.38                             147    0.1110 82.5  42 
 PAM  SZ I         026  6.36         6.0 0.56            150           82.5  42 
 RUS  HZ EP   1    025 48.72                             142   -0.03 7 99.5 173 
 RUS  HN ES   2    026  6.29                             142   -0.14 5 99.5 173 
 RUS  HZ I         026  7.84         1.6 0.30            146           99.5 173 
 PTB  HZ EP   1    025 51.97                             131    0.32 7  142 259 
 PTB  HN ES   2    026 11.42                             131   -0.18 5  142 259 
 PTB  HZ I         026 14.40         1.9 0.10            132            142 259 
 OCA  HN ES   2    026 15.30                             127    0.04 5  161 355 
 OCA  HZ I         026 18.69         7.1 0.33            128            161 355 
 SML  HE ES   2    026 29.79                             115   -0.31 4  243 337 
 SML  HZ I         026 32.07         3.5 0.07            117            243 337 
                                                                                
