 2015  9 4 0444 23.4 L   6.348 -73.462  4.0  RSN  6 0.5 1.0LRSN                1
 GAP= 91        1.19       2.3     2.4  6.5 -0.7014E+00  0.1524E+00 -0.7427E+00E
 Epicentro: CONTRATACION - SANTANDER                                           3
 ACTION:UPD 15-10-28 16:23 OP:cam  STATUS:               ID:20150904044423 L   I
 OLDACT:UP  15-09-04 18:04 OP:ak   STATUS:               ID:20150904043746     3
 OLDACT:REG 15-09-04 12:46 OP:ak   STATUS:               ID:20150904043746     3
 2015-09-04-0437-46M.COL___352                                                 6
 STAT SP IPHASW D HRMM SECON CODA AMPLIT PERI AZIMU VELO AIN AR TRES W  DIS CAZ7
 BAR2 EZ EP        444 30.47                              47    0.0210 41.1  49 
 BAR2 EZ ES        444 35.45                              47   -0.5110 41.1  49 
 BAR2 EZ I         444 37.36         9.4 0.18             47           41.1  49 
 RUS  HZ EP        444 34.91                              47    0.4910 65.6 140 
 RUS  HN ES        444 43.18                              47    0.1510 65.6 140 
 RUS  HZ I         444 43.94         4.7 0.15             47           65.6 140 
 BRR  HZ EP        444 37.86                              47    0.4910 88.4 342 
 BRR  HN ES        444 48.42                              47    0.1410 88.4 342 
 BRR  HZ I         444 49.76         4.8 0.09             47           88.4 342 
 SPBC HZ EP   1    444 40.18                              47    0.59 7  102 221 
 SPBC HN ES        444 51.24                              47   -0.9810  102 221 
 SPBC HZ I         444 59.21         4.1 0.10             47            102 221 
 PTB  HZ EP        444 41.31                              47    0.3510  112 281 
 PTB  HN ES        444 54.51                              47   -0.1610  112 281 
 PAM  EZ EP   1    444 45.73                              47    0.29 7  138  38 
 PAM  EN ES        445  2.14                              47   -0.51 9  138  38 
 PAM  EZ I         445  3.78         4.4 0.22             47            138  38 
                                                                                
