 2013  7 4 0112 44.4 L   6.733 -73.163149.0  RSN  6 0.4 1.7LRSN                1
 GAP=180        0.94       6.5     5.9  7.4  0.1966E+02  0.2200E+01 -0.5101E+01E
 Epicentro: VILLANUEVA - SANTANDER                                             3
 ACTION:UPD 13-08-12 10:35 OP:ep   STATUS:               ID:20130704011244 L   I
 OLDACT:REG 13-07-04 08:06 OP:stll STATUS:               ID:20130704010850     3
 2013-07-04-0108-50M.COL___229                                                 6
 STAT SP IPHASW D HRMM SECON CODA AMPLIT PERI AZIMU VELO AIN AR TRES W  DIS CAZ7
 BAR2 SZ EP        113  3.69                             174   -0.6410 15.7 188 
 BAR2 SZ ES        113 19.59                             174   -0.2610 15.7 188 
 BAR2 SZ I         113 20.97         8.5 0.24            170           15.7 188 
 GIR2 SZ EP        113  4.82                             165    0.1110 38.4 355 
 BRR  HZ EP        113  6.23                             152    0.1610 73.4 304 
 BRR  HN ES        113 23.41                             152    0.4810 73.4 304 
 BRR  HN I         113 27.84        13.7 0.24            152           73.4 304 
 RUS  HZ EP        113  8.54                             146    0.5310 93.3 175 
 RUS  HN ES        113 26.29                             146   -0.1010 93.3 175 
 RUS  HN I         113 29.92         5.5 0.64            147           93.3 175 
 PTB  HZ EP        113 11.31                             133   -0.08 9  145 262 
 PTB  HN ES        113 32.55                             133    0.14 9  145 262 
 PTB  HN I         113 37.94        10.5 0.24            134            145 262 
 ZAR  HE ES        113 42.33                             123   -0.45 8  205 294 
                                                                                
