 2013  5 4 0005 42.8 L   6.835 -73.131148.2  RSN  8 0.4 2.0LRSN                1
 GAP=137        0.97       4.3     4.8  6.5 -0.1595E+01  0.8197E+01  0.3005E+00E
 Epicentro: LOS SANTOS - SANTANDER                                             3
 ACTION:UPD 13-06-20 09:47 OP:ep   STATUS:               ID:20130504000542 L   I
 2013-05-04-0000-00M.COL___253                                                 6
 STAT SP IPHASW D HRMM SECON CODA AMPLIT PERI AZIMU VELO AIN AR TRES W  DIS CAZ7
 BAR2 SZ IP     D  0 6  3.00                             169    0.1510 27.5 192 
 BAR2 SZ I         0 6  3.34        18.5 0.10            168           27.5 192 
 BAR2 SZ ES        0 6 18.13                             169   -0.3210 27.5 192 
 BRR  HZ IP     C  0 6  4.61                             153    0.3810 70.9 295 
 BRR  HN ES        0 6 21.59                             153    0.6710 70.9 295 
 BRR  HZ I         0 6 24.48        21.5 0.34            153           70.9 295 
 PAM  SZ EP   1    0 6  5.40                             152    0.32 7 73.3  40 
 PAM  SZ I         0 6  5.85        20.7 0.20            156           73.3  40 
 PAM  SE ES   1    0 6 22.30                             152   -0.12 7 73.3  40 
 RUS  HZ EP        0 6  7.14                             143    0.0410  104 177 
 RUS  HN ES        0 6 25.88                             143   -0.1510  104 177 
 RUS  HZ I         0 6 28.32         7.3 0.44            144            104 177 
 PTB  HZ EP        0 6  9.53                             132   -0.69 9  150 257 
 PTB  HN ES        0 6 31.46                             132   -0.12 9  150 257 
 PTB  HZ I         0 6 33.39        19.1 0.36            132            150 257 
 NOR  HZ EP        0 6 19.59                             119    0.49 8  238 234 
 NOR  HN ES        0 6 47.08                             119   -0.30 8  238 234 
 NOR  HZ I         0 6 53.18         8.9 0.18            119            238 234 
 SML  HZ EP   2    0 6 19.26                             118   -0.04 4  241 335 
 SML  HN ES   1    0 6 46.68                             118   -1.05 6  241 335 
 HEL  HN ES   2    0 6 55.64                             115    0.50 4  275 255 
                                                                                
