 2012  1 4 0640 15.5 L   6.773 -73.078148.6  RSN 13 0.3 2.6LRSN                1
 GAP=147        0.60       2.3     3.7  4.3 -0.1448E+01  0.4752E+01  0.7134E+00E
 Epicentro: LOS SANTOS - SANTANDER                                             3
 ACTION:UP  12-02-03 08:13 OP:REBC STATUS:               ID:20120104064015 L   I
 2012-01-04-0640-00M.COL___183                                                 6
 STAT SP IPHASW D HRMM SECON CODA AMPLIT PERI AZIMU VELO SNR AR TRES W  DIS CAZ7
 BAR2 SZ IP        640 35.44                             171    -0.110   23 210 
 BAR2 SZ I         640 35.55        86.3 0.10                            23 210 
 BAR2 SZ ES   1    640 51.33                             171     0.3 7   23 210 
 PAM  SZ IP        640 38.18                             152     0.310   75  34 
 PAM  SE ES   1    640 55.40                             152     0.0 7   75  34 
 BRR  HZ IP     D  640 37.30                             150    -0.110   79 298 
 BRR  HZ I         640 39.65        88.5 0.11                            79 298 
 BRR  HE ES   1    640 54.86                             150     0.3 7   79 298 
 RUS  HZ EP        640 39.32                             145     0.010   97 180 
 RUS  HN ES   1    640 57.43                             145    -0.5 7   97 180 
 RUS  HZ I         640 58.77        23.7 0.24                            97 180 
 OCA  SZ EP   1    640 44.34                             129    -0.1 7  164 351 
 OCA  SZ ES   2    641  6.57                             129    -0.4 5  164 351 
 OCA  SZ I         641 12.86        60.0 0.51                           164 351 
 ZAR  HZ EP   1    640 48.63                             122    -0.4 6  212 292 
 ZAR  HN ES   2    641 15.31                             122     0.2 4  212 292 
 ZAR  HZ I         641 19.43        68.7 0.32                           212 292 
 NOR  SZ EP   1    640 51.49                             119    -0.4 6  239 236 
 NOR  SN ES   2    641 19.60                             119    -0.7 4  239 236 
 CHI  HZ EP   1    640 53.97                             118     0.7 6  248 197 
 CHI  HN ES   1    641 22.66                             118    -0.1 6  248 197 
 CHI  HZ I         641 30.90         9.3 0.34                           248 197 
 HEL  HZ EP   2    640 56.90                             115     0.3 4  279 257 
 HEL  HE ES   2    641 28.62                             115     0.0 4  279 257 
 HEL  HZ I         641 34.37        26.5 0.30                           279 257 
 VIL  SN ES   2    641 32.66                             113    -0.1 4  302 193 
 RREF HZ EP   1    641  2.66                             111     0.4 5  326 231 
 RREF HN ES   2    641 39.09                             111     0.4 3  326 231 
 RREF HZ I         641 46.99        20.1 0.40                           326 231 
 COD  HZ EP   2    641  4.19                             109    -0.3 3  352 353 
 COD  HN ES   2    641 42.57                             109     0.0 3  352 353 
 COD  HZ I         641 48.99        19.6 0.42                           352 353 
 PRA  HE ES   2    641 51.25                             107     0.0 3  393 211 
                                                                                
