 2017 10 4 0223 12.2 L   6.788 -73.104142.9  RSN  8 0.4 1.7LRSN                1
 GAP=116        0.85       3.2     4.3  8.3  0.3320E+00  0.1267E+02  0.5115E+01E
 Epicentro: LOS SANTOS - SANTANDER                                             3
 ACTION:UPD 17-11-07 19:28 OP:rebc STATUS:               ID:20171004022312 L   I
 OLDACT:UP  17-10-04 14:14 OP:dnl  STATUS:               ID:20171004021741     3
 OLDACT:UP  17-10-04 14:14 OP:dnl  STATUS:               ID:20171004021741     3
 OLDACT:REG 17-10-04 12:39 OP:dnl  STATUS:               ID:20171004021741     3
 2017-10-04-0218-00M.COL___447                                                 6
 STAT SP IPHASW D HRMM SECON CODA AMPLIT PERI AZIMU VELO AIN AR TRES W  DIS CAZ7
 BAR2 EZ EP        223 31.29                             170   -0.1710 23.3 202 
 BAR2 EZ I         223 46.67         8.1 0.20            168           23.3 202 
 PAM  EZ EP        223 34.16                             151    0.1810 75.6  36 
 PAM  EN ES        223 50.95                             151   -0.0410 75.6  36 
 PAM  EZ I         223 52.81         8.1 0.66            151           75.6  36 
 RUS  HZ EP        223 35.28                             144   -0.2610 99.0 179 
 RUS  HN ES        223 53.21                             144   -0.5510 99.0 179 
 RUS  HZ I         223 54.49         4.2 0.24            142           99.0 179 
 SPBC HZ EP        223 40.33                             128   -0.31 9  165 221 
 SPBC HE ES        224  3.29                             128    0.44 9  165 221 
 SPBC HZ I         224  8.02         8.5 0.20            125            165 221 
 YPLC HZ EP   2    223 41.75                             126    0.32 4  173 152 
 YPLC HN ES        224  4.99                             126    0.74 9  173 152 
 YPLC HZ I         224  8.03        11.0 0.24            125            173 152 
 ZAR  HZ EP   4    223 47.27                             121    2.33 0  209 292 
 ZAR  HE ES        224 10.82                             121    0.33 8  209 292 
 ZAR  HZ I         224 18.32         6.7 0.30            118            209 292 
 NOR  HZ EP   2    223 47.46                             117   -0.61 4  238 235 
 NOR  HN ES   4    224 14.29                             117   -1.77 0  238 235 
 NOR  HZ I         224 20.86         4.7 0.38            115            238 235 
 CHI  HZ EP   2    223 49.67                             116   -0.04 4  249 196 
 CHI  HE ES        224 18.92                             116   -0.07 8  249 196 
 CHI  HZ I         224 29.10         1.7 0.50            115            249 196 
                                                                                
