 2011  9 4 0246 24.5 L   6.792 -73.127145.4  RSN 12 0.3 2.1LRSN                1
 GAP=139        0.47       1.9     3.1  3.7 -0.1522E+01  0.4828E+01  0.1017E+01E
 Epicentro: LOS SANTOS - SANTANDER                                             3
 ACTION:UPD 12-07-13 15:55 OP:ep   STATUS:               ID:20110904024624 L   I
 2011-09-04-0244-51S.COL___171                                                 6
 STAT SP IPHASW D HRMM SECON CODA AMPLIT PERI AZIMU VELO AIN AR TRES W  DIS CAZ7
 BAR2 SZ EP        246 44.05                             171   -0.0210 22.9 195 
 BAR2 SZ ES   1    246 59.10                             171   -0.25 7 22.9 195 
 BAR2 SZ I         247  0.82        19.4 0.17                          22.9 195 
 GIR2 SZ EP        246 44.13                             167   -0.0310 32.5 347 
 BRR  HZ EP        246 45.92                             152    0.1910 73.4 298 
 BRR  HN ES   2    247  2.63                             152    0.34 5 73.4 298 
 BRR  HZ I         247  7.41        22.6 0.12                          73.4 298 
 PAM  SZ EP   2    246 46.49                             151   -0.14 5 76.8  38 
 PAM  SZ I         246 47.15         8.6 0.20                          76.8  38 
 PAM  SN ES   1    247  4.06                             151    0.15 7 76.8  38 
 RUS  HZ EP        246 47.98                             144   -0.1610 99.6 177 
 RUS  HN ES   1    247  6.84                             144    0.26 7 99.6 177 
 RUS  HZ I         247  8.40        13.1 0.20                          99.6 177 
 OCA  SZ EP   1    246 52.82                             129   -0.06 7  161 352 
 OCA  SZ ES   1    247 14.92                             129   -0.10 7  161 352 
 OCA  SZ I         247 19.27        10.3 0.19                           161 352 
 NOR  SZ EP   1    246 59.86                             118   -0.46 6  236 235 
 NOR  SN ES   1    247 28.19                             118   -0.08 6  236 235 
 CHI  HZ EP   1    247  1.82                             117   -0.32 6  248 196 
 CHI  HN ES   1    247 31.38                             117   -0.12 6  248 196 
 HEL  HZ EP   1    247  5.32                             114    0.44 6  274 256 
 HEL  HN ES   1    247 35.97                             114   -0.41 6  274 256 
 HEL  HZ I         247 42.51         7.0 0.53                           274 256 
 RREF HZ EP   2    247 10.69                             111   -0.04 3  323 230 
 RREF HE ES   2    247 46.70                             111   -0.09 3  323 230 
 RREF HZ I         247 53.77         9.5 0.44                           323 230 
 TOL  SZ EP   1    247 13.25                             109    0.42 5  344 225 
 PRA  HZ EP   1    247 18.46                             106    0.43 4  392 210 
 PRA  HZ I         247 19.84        22.6 0.17                           392 210 
 PRA  HN ES   1    248  0.43                             106    0.64 4  392 210 
                                                                                
