 2013  2 4 0104  2.3 L   6.802 -73.146149.3  RSN  8 0.5 1.9LRSN                1
 GAP=136        1.00       3.8     4.7  6.5 -0.7226E+00  0.5546E+01  0.4633E+01E
 Epicentro: LOS SANTOS - SANTANDER                                             3
 ACTION:UPD 13-03-12 09:30 OP:ep   STATUS:               ID:20130204010402 L   I
 2013-02-04-0100-00M.COL___241                                                 6
 STAT SP IPHASW D HRMM SECON CODA AMPLIT PERI AZIMU VELO AIN AR TRES W  DIS CAZ7
 BAR2 SZ EP        1 4 22.31                             171   -0.0510 23.5 190 
 BAR2 SZ ES        1 4 37.60                             171   -0.4110 23.5 190 
 BRR  HZ EP        1 4 24.15                             153    0.3210 71.0 298 
 BRR  HN ES        1 4 41.34                             153    0.7310 71.0 298 
 BRR  HZ I         1 4 45.05         6.1 0.18            150           71.0 298 
 PAM  SZ EP        1 4 25.22                             151    0.3310 77.3  40 
 PAM  SN ES        1 4 42.51                             151    0.0010 77.3  40 
 PAM  SN I         1 4 44.26        12.8 0.54            152           77.3  40 
 RUS  HZ EP        1 4 26.20                             144   -0.2210  101 176 
 RUS  HN ES        1 4 45.22                             144    0.0010  101 176 
 RUS  HZ I         1 4 46.18         4.1 0.60            146            101 176 
 PTB  HZ EP   1    1 4 29.17                             133   -0.39 7  148 259 
 PTB  HN ES        1 4 50.40                             133   -0.42 9  148 259 
 PTB  HZ I         1 4 51.97         7.9 0.40            131            148 259 
 SML  HE ES   1    1 5  6.47                             118   -1.35 6  244 335 
 SML  HE I         1 5 14.55        19.6 0.26            117            244 335 
 CHI  HZ EP        1 4 40.34                             118    0.12 8  249 195 
 CHI  HN ES        1 5  9.76                             118   -0.03 8  249 195 
 CHI  HN I         1 5 12.17         9.1 0.36            118            249 195 
 HEL  HZ EP   2    1 4 43.44                             115    0.74 4  272 256 
 HEL  HE ES   1    1 5 14.72                             115    0.52 6  272 256 
 HEL  HZ I         1 5 20.13         3.6 0.30            115            272 256 
                                                                                
