 2012  3 4 0609 50.1 L   5.772 -73.908116.9  RSN  4 0.6 1.3LRSN                1
 GAP=216        1.26      13.8    10.8 21.9 -0.9344E+02 -0.1020E+03  0.7084E+02E
 ACTION:UP  12-03-31 23:16 OP:EP   STATUS:               ID:20120304060950 L   I
 2012-03-04-0604-40S.COL___147                                                 6
 STAT SP IPHASW D HRMM SECON CODA AMPLIT PERI AZIMU VELO SNR AR TRES W  DIS CAZ7
 PTB  HZ EP   1    610  9.99                             135    -0.8 7  104 324 
 PTB  HN ES   1    610 26.78                             135    -0.2 7  104 324 
 NOR  SN ES   1    610 28.08                             134     0.3 7  109 258 
 BAR2 SZ EP   1    610 13.34                             131     0.7 7  121  42 
 BAR2 SZ ES   1    610 29.54                             131    -0.6 7  121  42 
 BAR2 SZ I         610 31.21         3.2 0.29                           121  42 
 BRR  HZ EP   1    610 14.85                             124    -0.2 7  149   8 
 BRR  HE ES   1    610 35.27                             124     0.8 7  149   8 
 BRR  HZ I         610 36.54         3.8 0.09                           149   8 
                                                                                
