 2017 12 4 0048  8.5 L   6.817 -73.178149.7  RSN  4 0.3 1.2LRSN                1
 GAP=208        0.68       8.0     4.0  6.2  0.8956E+01 -0.5010E+01 -0.1978E+02E
 Epicentro: ZAPATOCA - SANTANDER                                               3
 ACTION:UPD 18-01-04 13:16 OP:rebc STATUS:               ID:20171204004808 L   I
 OLDACT:DUP 17-12-04 14:49 OP:leo  STATUS:               ID:20171204003742d    3
 2017-12-04-0038-00M.COL___495                                                 6
 STAT SP IPHASW D HRMM SECON CODA AMPLIT PERI AZIMU VELO AIN AR TRES W  DIS CAZ7
 BAR2 EZ EP        048 28.74                             170    0.1210 24.9 181 
 BAR2 EZ ES        048 44.19                             170   -0.1410 24.9 181 
 BAR2 EZ I         048 50.54         4.5 0.28            176           24.9 181 
 RUS  HZ EP        048 32.27                             144   -0.5210  103 174 
 RUS  HN ES        048 52.01                             144    0.2710  103 174 
 RUS  HZ I         048 53.55         3.5 0.32            152            103 174 
 PTB  HZ EP        048 35.70                             134    0.20 9  145 258 
 PTB  HN ES        048 56.54                             134   -0.03 9  145 258 
 PTB  HZ I         048 58.05         1.2 0.32            140            145 258 
 TAM  HZ EP        048 36.99                             131    0.15 9  159 105 
                                                                                
