 2015  9 4 0417 25.8 L   6.902 -72.961176.5  RSN 11 0.4 1.9LRSN                1
 GAP=156        0.96       5.0     7.4  5.7 -0.3328E+01  0.1703E+02 -0.2255E+01E
 Epicentro: SANTA BARBARA - SANTANDER                                          3
 ACTION:UPD 15-10-28 16:23 OP:cam  STATUS:               ID:20150904041725 L   I
 OLDACT:UP  15-09-04 17:44 OP:ak   STATUS:               ID:20150904040751d    3
 OLDACT:DUP 15-09-04 17:38 OP:ak   STATUS:               ID:20150904040751d    3
 OLDACT:REG 15-09-04 12:42 OP:ak   STATUS:               ID:20150904040750     3
 2015-09-04-0407-50M.COL___352                                                 6
 STAT SP IPHASW D HRMM SECON CODA AMPLIT PERI AZIMU VELO AIN AR TRES W  DIS CAZ7
 BAR2 EZ EP        417 49.44                             166   -0.0810 42.1 216 
 BAR2 EZ ES        418  8.17                             166    0.1110 42.1 216 
 BAR2 EZ I         418  9.02        10.3 0.24            166           42.1 216 
 PAM  EZ EP        417 50.86                             162    0.4810 56.4  31 
 PAM  EN ES        418  9.40                             162   -0.1910 56.4  31 
 BRR  HZ EP        417 51.45                             153    0.3910 86.1 285 
 BRR  HN ES        418 10.96                             153    0.1510 86.1 285 
 BRR  HZ I         418 11.95        13.0 0.15            152           86.1 285 
 RUS  HZ EP        417 53.72                             146    0.3210  112 187 
 RUS  HN ES        418 14.60                             146   -0.3710  112 187 
 PTB  HZ EP        417 56.71                             134   -0.56 9  170 256 
 SPBC HZ EP        417 58.13                             132   -0.57 9  185 222 
 SML  HZ EP        418  3.85                             123   -0.37 8  243 330 
 HEL  HZ EP   1    418 10.31                             118    0.20 5  295 255 
 GUY2CHZ EP   1    418 14.32                             116    0.85 5  324 235 
 CBOC HZ EP        418 17.32                             113    0.67 6  357 251 
 SJC  HZ EP        418 22.00                             110   -0.74 6  412 324 
                                                                                
