 2010  5 4 0541 35.2 L   6.771 -72.955145.1  RSN  7 0.4 1.9LRSN                1
 GAP=203        0.78       7.4    10.8  9.3 -0.4520E+02  0.1339E+02 -0.1931E+02E
 Epicentro: CEPITA - SANTANDER                                                 3
 ACTION:UP  10-08-24 10:02 OP:vdl  STATUS:               ID:20100504054135 L   I
 2010-05-04-0540-03S.COL___105                                                 6
 STAT SP IPHASW D HRMM SECON CODA AMPLIT PERI AZIMU VELO AIN AR TRES W  DIS CAZ7
 BAR2 SZ EP   1    541 55.21                             167     0.2 8   32 232 
 BAR2 SZ ES   1    542 10.20                             167    -0.2 8   32 232 
 BRR  HZ EP   1    541 57.62                             146     0.0 8   92 294 
 BRR  HZ I         542 14.73        12.3 0.07                            92 294 
 BRI  SZ EP   1    541 59.70                             142     0.8 8  106   9 
 GRA  SZ IP        541 59.96                             137    -0.310  124   8 
 OCA  SZ EP   2    542  3.64                             128    -0.5 5  167 346 
 OCA  SZ ES   2    542 26.53                             128    -0.2 5  167 346 
 OCA  SZ I         542 31.56         7.1 0.25                           167 346 
 HEL  HZ EP   3    542 16.82                             113    -0.8 2  292 257 
 HEL  HN ES   2    542 51.17                             113     0.5 4  292 257 
 HEL  HZ I         542 53.32         3.1 0.31                           292 257 
 PRA  HZ EP   2    542 29.49                             106    -0.2 3  400 212 
 PRA  HE ES   2    543 11.94                             106    -0.2 3  400 212 
 PRA  HZ I         543 16.57         3.1 0.32                           400 212 
                                                                                
