 2013  4 4 0007  5.5 L   5.928 -73.678114.9  RSN 10 0.4 1.9LRSN                1
 GAP= 89        0.79       2.8     3.2  7.2 -0.4191E+00  0.8151E+01  0.2385E+01E
 Epicentro: PUENTE NACIONAL - SANTANDER                                        3
 ACTION:UPD 13-05-22 14:35 OP:EP   STATUS:               ID:20130404000705 L   I
 2013-04-04-0000-00M.COL___245                                                 6
 STAT SP IPHASW D HRMM SECON CODA AMPLIT PERI AZIMU VELO AIN AR TRES W  DIS CAZ7
 RUS  HZ EP        0 7 23.67                             148   -0.1010 66.0  93 
 RUS  HN ES   1    0 7 38.07                             148    0.05 7 66.0  93 
 RUS  HZ I         0 7 41.07         4.9 0.30            141           66.0  93 
 BAR2 SZ EP   1    0 7 25.10                             139   -0.17 7 91.6  37 
 BAR2 SZ ES   1    0 7 40.43                             139   -0.27 7 91.6  37 
 BAR2 SZ I         0 7 41.99        78.5 0.52            131           91.6  37 
 PTB  HZ EP   1    0 7 26.37                             133   -0.12 7  110 308 
 PTB  HN ES   1    0 7 42.27                             133   -0.59 7  110 308 
 PTB  HZ I         0 7 46.28        12.4 0.16            127            110 308 
 CTAB SZ EP   4    0 7 29.05                             131    1.28 0  117 210 
 BRR  HZ EP   1    0 7 28.30                             128   -0.11 7  130 358 
 BRR  HN ES   1    0 7 46.62                             128    0.34 7  130 358 
 BRR  HZ I         0 7 48.16        18.2 0.18            121            130 358 
 NOR  HZ EP   1    0 7 29.60                             126    0.38 7  138 253 
 NOR  HE ES   1    0 7 48.58                             126    0.86 7  138 253 
 NOR  HZ I         0 7 52.49        17.7 0.14            120            138 253 
 GIR2 SZ EP   1    0 7 30.19                             126    0.85 7  138  23 
 GIR2 SZ ES   1    0 7 48.20                             126    0.26 7  138  23 
 GIR2 SZ I         0 7 50.39        15.8 0.52            119            138  23 
 CHI  HZ EP   1    0 7 30.35                             125    0.08 7  144 182 
 CHI  HE ES   1    0 7 49.23                             125   -0.35 7  144 182 
 CHI  HZ I         0 7 52.91         6.4 0.30            119            144 182 
 HEL  HZ EP   1    0 7 37.26                             114    0.34 6  207 278 
 HEL  HN ES   1    0 8  1.30                             114   -0.14 6  207 278 
 HEL  HZ I         0 8  8.35         4.2 0.44            110            207 278 
 ZAR  HZ EP   1    0 7 36.99                             113   -0.56 6  217 323 
 ZAR  HN ES   1    0 8  2.11                             113   -0.44 6  217 323 
 ZAR  HZ I         0 8  4.03        12.1 0.40            108            217 323 
 PRA  HZ EP   1    0 7 44.26                             107   -0.49 6  279 209 
 PRA  HN ES   4    0 8 13.58                             107   -1.79 0  279 209 
 PRA  HZ I         0 8 20.20         5.7 0.26            104            279 209 
                                                                                
