 2013  4 4 0550 12.2 L   6.755 -73.190144.1  RSN  4 0.3 1.0LRSN                1
 GAP=229        0.54       5.7     5.8  7.9  0.1687E+02 -0.9289E+01 -0.4118E+01E
 Epicentro: VILLANUEVA - SANTANDER                                             3
 ACTION:UPD 13-05-22 14:35 OP:EP   STATUS:               ID:20130404055012 L   I
 2013-04-04-0550-00M.COL___245                                                 6
 STAT SP IPHASW D HRMM SECON CODA AMPLIT PERI AZIMU VELO AIN AR TRES W  DIS CAZ7
 BAR2 SZ EP   1    550 31.41                             173   -0.16 7 18.0 177 
 BAR2 SZ I         550 47.88         3.6 0.31            170           18.0 177 
 BRR  HZ EP   1    550 32.82                             153   -0.30 7 69.6 304 
 BRR  HN ES   1    550 49.64                             153    0.24 7 69.6 304 
 RUS  HZ EP   1    550 35.95                             145    0.45 7 96.1 173 
 RUS  HN ES   1    550 53.45                             145   -0.19 7 96.1 173 
 RUS  HZ I         550 55.23         0.7 0.20            143           96.1 173 
 PTB  HZ EP   2    550 38.54                             133   -0.02 5  142 260 
 PTB  HN ES   1    550 59.05                             133   -0.03 7  142 260 
 PTB  HZ I         551  3.59         1.8 0.47            131            142 260 
                                                                                
