 2017 10 4 0647  5.9 L   6.812 -73.186135.1  RSN  4 0.2 1.3LRSN                1
 GAP=185        0.56       4.4     7.0  5.9 -0.2419E+02  0.1401E+02 -0.6250E+01E
 Epicentro: ZAPATOCA - SANTANDER                                               3
 ACTION:UPD 17-11-07 19:28 OP:rebc STATUS:               ID:20171004064705 L   I
 OLDACT:DUP 17-10-04 15:43 OP:dnl  STATUS:               ID:20171004063740d    3
 2017-10-04-0638-00M.COL___447                                                 6
 STAT SP IPHASW D HRMM SECON CODA AMPLIT PERI AZIMU VELO AIN AR TRES W  DIS CAZ7
 BAR2 EZ EP   2    647 24.13                             169   -0.15 5 24.3 179 
 BAR2 EZ ES        647 38.63                             169    0.0210 24.3 179 
 BAR2 EZ I         647 40.62         6.1 0.22            168           24.3 179 
 PAM  EZ EP        647 27.49                             148    0.3610 79.4  43 
 PAM  EN ES        647 43.41                             148   -0.2710 79.4  43 
 PAM  EZ I         647 46.07         1.6 0.20            152           79.4  43 
 RUS  HZ EP   2    647 28.32                             141   -0.44 5  102 174 
 RUS  HE ES        647 46.63                             141    0.0510  102 174 
 RUS  HZ I         647 47.82         3.3 0.28            144            102 174 
 SPBC HZ EP   2    647 33.08                             126   -0.36 5  161 217 
 SPBC HE ES        647 55.01                             126    0.09 9  161 217 
 SPBC HZ I         648  1.43         4.2 0.22            126            161 217 
                                                                                
