 2010  3 4 0843 17.6 L   6.339 -73.565114.4  RSN 12 0.4 2.4LRSN                1
 GAP= 76        0.88       2.7     3.9  5.9 -0.9676E+00  0.1213E+02  0.2123E+01E
 Epicentro: SANTA HELENA DEL OPON - SANTANDER                                  3
 ACTION:UP  10-08-24 09:51 OP:vdl  STATUS:               ID:20100304084317 L   I
 2010-03-04-0838-24S.COL___096                                                 6
 STAT SP IPHASW D HRMM SECON CODA AMPLIT PERI AZIMU VELO SNR AR TRES W  DIS CAZ7
 BAR2 SZ IP        843 34.72                             155     0.210   51  57 
 BAR2 SZ ES   1    843 47.93                             155     0.2 7   51  57 
 RUS  BZ IP        843 35.98                             146    -0.310   73 133 
 RUS  BN ES        843 50.63                             146    -0.210   73 133 
 RUS  BZ I         843 51.73        29.1 0.48                            73 133 
 BRR  HZ EP        843 36.31                             140    -0.310   87 349 
 BRR  HZ I         843 39.51        49.0 0.52                            87 349 
 BRR  HN ES        843 51.30                             140    -0.110   87 349 
 CHI  HZ EP        843 46.75                             117    -0.4 9  190 186 
 CHI  HN ES   1    844 10.84                             117     0.6 7  190 186 
 CHI  HZ I         844 13.95        15.5 0.25                           190 186 
 OCA  SZ EP        843 49.33                             114     0.1 8  212   7 
 OCA  SZ ES   1    844 14.84                             114     0.9 6  212   7 
 OCA  SZ I         844 20.63        76.6 0.37                           212   7 
 HEL  HZ EP        843 50.32                             113     0.1 8  218 266 
 HEL  HN ES   1    844 15.25                             113    -0.4 6  218 266 
 HEL  HZ I         844 20.08        25.8 0.22                           218 266 
 RREF BZ EP   1    843 54.72                             109     0.1 6  253 231 
 RREF BE ES   1    844 24.38                             109     0.9 6  253 231 
 RREF BZ I         844 28.98        15.8 0.08                           253 231 
 TOL  SZ EP   1    843 57.26                             107     0.6 6  275 225 
 TOL  SZ ES   3    844 27.69                             107     0.5 2  275 225 
 ANIL BZ EP   1    843 58.55                             106     0.3 5  288 225 
 ANIL BN ES   2    844 29.40                             106    -0.5 4  288 225 
 ANIL BZ I         844 34.13        26.4 0.38                           288 225 
 DBB  SZ IP        843 59.18                             105    -0.4 7  302 285 
 DBB  SZ ES   2    844 31.56                             105    -0.7 4  302 285 
 PRA  HZ EP        844  1.73                             104    -0.5 7  325 207 
 PRA  HN ES   1    844 37.55                             104     0.5 5  325 207 
 PRA  HZ I         844 46.40        12.2 0.36                           325 207 
 SDV  BZ EP        844 14.82                              99     0.0 5  429  49 
 SDV  BZ I         844 18.48         7.5 0.13                           429  49 
                                                                                
