 2015  6 4 0800 49.8 L   6.814 -73.124146.2  RSN  7 0.6 1.3LRSN                1
 GAP=203        1.28       5.3     7.7  8.6  0.9946E+01  0.1750E+02 -0.3727E+01E
 Epicentro: LOS SANTOS - SANTANDER                                             3
 ACTION:UPD 15-09-10 22:09 OP:cam  STATUS:               ID:20150604080049 L   I
 OLDACT:REG 15-06-04 13:19 OP:ak   STATUS:               ID:20150604075749     3
 2015-06-04-0757-49M.COL___294                                                 6
 STAT SP IPHASW D HRMM SECON CODA AMPLIT PERI AZIMU VELO AIN AR TRES W  DIS CAZ7
 BAR2 EZ EP        8 1  9.64                             170    0.1510 25.4 195 
 BAR2 EZ ES        8 1 24.65                             170   -0.2310 25.4 195 
 BAR2 EZ I         8 1 25.95         3.0 0.24            164           25.4 195 
 BRR  HZ EP        8 1 11.43                             152    0.3810 72.6 297 
 BRR  HN ES        8 1 28.28                             152    0.6410 72.6 297 
 BRR  HZ I         8 1 31.78         3.0 0.12            148           72.6 297 
 RUS  HZ EP        8 1 13.85                             143    0.1910  102 177 
 RUS  HN ES        8 1 31.46                             143   -0.8410  102 177 
 RUS  HZ I         8 1 34.26         2.1 0.38            144            102 177 
 SPBC HZ EP   1    8 1 18.87                             129    0.31 7  166 219 
 SPBC HN ES        8 1 41.84                             129    0.82 9  166 219 
 SPBC HZ I         8 1 49.37         3.2 0.11            128            166 219 
 ZAR  HZ EP        8 1 22.81                             122    0.40 8  206 291 
 ZAR  HN ES        8 1 47.12                             122   -0.76 8  206 291 
 ZAR  HZ I         8 1 54.97         3.3 0.26            122            206 291 
 SML  HZ EP   1    8 1 26.32                             118   -0.06 6  243 335 
 SML  HN ES   1    8 1 54.06                             118   -0.87 6  243 335 
 GUY2CHZ EP   1    8 1 32.85                             112   -0.87 5  304 235 
 GUY2CHN ES        8 2  7.47                             112   -0.53 7  304 235 
 GUY2CHZ I         8 2 16.62         1.5 0.28                           304 235 
                                                                                
