 2016  8 4 0913 53.3 L   6.769 -73.152141.9  RSN  5 0.2 1.2LRSN                1
 GAP=137        0.48       2.5     3.0  4.4  0.5150E+00  0.4236E+01 -0.1600E+01E
 Epicentro: LOS SANTOS - SANTANDER                                             3
 ACTION:UPD 16-10-29 15:32 OP:rebc STATUS:               ID:20160804091353 L   I
 OLDACT:UP  16-08-04 16:33 OP:dani STATUS:               ID:20160804090730     3
 OLDACT:REG 16-08-04 12:39 OP:dani STATUS:               ID:20160804090730     3
 2016-08-04-0908-00M.COL___323                                                 6
 STAT SP IPHASW D HRMM SECON CODA AMPLIT PERI AZIMU VELO AIN AR TRES W  DIS CAZ7
 BAR2 EZ ES        914 27.38                             172    0.0710 19.8 190 
 BRR  HZ EP        914 14.45                             151    0.3410 72.3 301 
 BRR  HZ I         914 31.53         5.5 0.14                          72.3 301 
 PAM  EZ EP        914 15.21                             149   -0.1110 80.5  38 
 PAM  EE ES        914 32.43                             149   -0.0510 80.5  38 
 PAM  EZ I         914 34.16         1.9 0.18                          80.5  38 
 RUS  HZ EP        914 16.41                             144   -0.0310 97.2 175 
 RUS  HN ES        914 34.40                             144   -0.0810 97.2 175 
 RUS  HZ I         914 36.33         1.6 0.28                          97.2 175 
 ZAR  HE ES        914 50.56                             121   -0.19 9  205 293 
 ZAR  HZ I         914 57.17         1.8 0.21                           205 293 
                                                                                
