 2016  9 4 0925 25.7 L   6.815 -73.112150.6  RSN  6 0.4 1.4LRSN                1
 GAP=242        0.96       5.6     5.9  7.1  0.1359E+02  0.5356E+01  0.1698E+01E
 Epicentro: LOS SANTOS - SANTANDER                                             3
 ACTION:UPD 17-08-17 21:06 OP:lp   STATUS:               ID:20160904092525 L   I
 OLDACT:UP  16-09-04 17:01 OP:drio STATUS:               ID:20160904091732d    3
 OLDACT:DUP 16-09-04 16:55 OP:drio STATUS:               ID:20160904091732d    3
 2016-09-04-0918-00M.COL___343                                                 6
 STAT SP IPHASW D HRMM SECON CODA AMPLIT PERI AZIMU VELO AIN AR TRES W  DIS CAZ7
 BAR2 EZ EP        925 45.75                             170   -0.2210 25.8 198 
 BAR2 EZ ES        926  1.59                             170   -0.1810 25.8 198 
 BAR2 EZ I         926  2.84         5.6 0.28            162           25.8 198 
 BRR  HZ EP        925 48.01                             152    0.4910 73.7 296 
 BRR  HE ES        926  4.93                             152    0.4010 73.7 296 
 RUS  HZ EP        925 50.14                             144    0.1010  102 178 
 RUS  HE ES        926  8.72                             144   -0.2910  102 178 
 RUS  HZ I         926 10.74         1.6 0.30            141            102 178 
 PTB  HZ EP        925 52.85                             132   -0.58 9  152 258 
 PTB  HE ES        926 14.63                             132   -0.41 9  152 258 
 PTB  HZ I         926 19.37         4.0 0.30            129            152 258 
 SPBC HZ EP        925 55.13                             129    0.21 9  167 220 
 SPBC HE ES        926 18.33                             129    0.63 9  167 220 
 SPBC HZ I         926 25.21         2.8 0.16            126            167 220 
 ZAR  HZ EP   4    926  0.28                             123    1.52 0  207 291 
 ZAR  HE ES        926 24.33                             123   -0.21 8  207 291 
 ZAR  HZ I         926 29.79         4.6 0.24            122            207 291 
                                                                                
