 2013  2 4 0418 10.6 L   6.788 -73.117154.6  RSN  4 0.3 1.0LRSN                1
 GAP=141        0.73       5.6     5.1  9.8 -0.1128E+01  0.1836E+01  0.2639E+02E
 Epicentro: LOS SANTOS - SANTANDER                                             3
 ACTION:UPD 13-03-12 09:30 OP:ep   STATUS:               ID:20130204041810 L   I
 2013-02-04-0417-50M.COL___180                                                 6
 STAT SP IPHASW D HRMM SECON CODA AMPLIT PERI AZIMU VELO AIN AR TRES W  DIS CAZ7
 BRR  HZ EP   1    418 32.95                             153    0.08 7 74.7 298 
 BRR  HZ I         418 36.45         2.0 0.56            147           74.7 298 
 BRR  HN ES        418 50.65                             153    0.3910 74.7 298 
 PAM  SE ES        418 51.46                             153   -0.2410 76.4  37 
 RUS  HZ EP        418 35.21                             146    0.1110 99.1 178 
 RUS  HN ES   1    418 54.27                             146    0.04 7 99.1 178 
 RUS  HZ I         418 54.95         0.7 0.38            144           99.1 178 
 PTB  HE ES   1    418 59.68                             133   -0.66 7  151 260 
 PTB  HE I         419  4.77         2.3 0.62            129            151 260 
                                                                                
