 2014  8 4 0829 30.7 L   6.744 -73.123146.9  RSN  5 0.5 1.5LRSN                1
 GAP=236        1.15       7.7     7.6  8.9  0.1556E+02  0.1126E+02  0.1422E+02E
 Epicentro: LOS SANTOS - SANTANDER                                             3
 ACTION:UPD 14-09-15 21:46 OP:nd   STATUS:               ID:20140804082930 L   I
 OLDACT:DUP 14-08-04 14:30 OP:carl STATUS:               ID:20140804081814d    3
 2014-08-04-0818-13M.COL___242                                                 6
 STAT SP IPHASW D HRMM SECON CODA AMPLIT PERI AZIMU VELO AIN AR TRES W  DIS CAZ7
 BAR2 SZ EP        829 50.80                             173    0.4210 18.0 201 
 BAR2 SZ ES        830  5.33                             173   -0.4010 18.0 201 
 BAR2 SZ I         830  6.83        10.4 0.22            167           18.0 201 
 BRR  HN ES        830  9.60                             151    0.4810 76.5 302 
 RUS  HZ EP        829 53.56                             146   -0.5710 94.2 177 
 RUS  HN ES        830 12.49                             146    0.1010 94.2 177 
 RUS  HZ I         830 14.15         3.8 0.22            144           94.2 177 
 PTB  HZ EP        829 57.44                             132   -0.46 9  149 261 
 PTB  HN ES        830 18.62                             132   -0.49 9  149 261 
 PTB  HZ I         830 21.76         3.8 0.20            131            149 261 
 SPBC HZ EP        829 59.64                             130    0.64 9  160 221 
 SPBC HN ES        830 21.37                             130    0.30 9  160 221 
 SPBC HZ I         830 25.96         3.6 0.42            128            160 221 
                                                                                
