 2016  1 4 0450 10.2 L   6.822 -73.166145.5  RSN 14 0.5 1.9LRSN                1
 GAP=133        1.25       3.1     5.0  6.4 -0.3871E+01  0.8643E+01  0.1301E+01E
 Epicentro: LOS SANTOS - SANTANDER                                             3
 ACTION:UPD 16-03-09 23:22 OP:cam  STATUS:               ID:20160104045010 L   I
 OLDACT:REG 16-01-04 13:03 OP:drio STATUS:               ID:20160104044735     3
 2016-01-04-0447-35M.COL___314                                                 6
 STAT SP IPHASW D HRMM SECON CODA AMPLIT PERI AZIMU VELO AIN AR TRES W  DIS CAZ7
 BAR2 EZ EP        450 29.95                             170    0.1110 25.5 184 
 BAR2 EZ ES        450 45.00                             170   -0.1610 25.5 184 
 BAR2 EZ I         450 45.75        22.3 0.26            168           25.5 184 
 BRR  HZ EP        450 31.76                             153    0.6110 68.1 298 
 BRR  HN ES        450 48.78                             153    1.3010 68.1 298 
 BRR  HZ I         450 51.87        10.2 0.38            152           68.1 298 
 PAM  EZ EP        450 32.72                             151    0.3610 77.0  42 
 PAM  EN ES        450 49.44                             151   -0.2110 77.0  42 
 PAM  EZ I         450 52.10         6.0 0.36            155           77.0  42 
 RUS  HZ EP        450 33.77                             143   -0.3510  103 175 
 RUS  HN ES        450 52.29                             143   -0.4810  103 175 
 RUS  HZ I         450 53.77         6.9 0.32            144            103 175 
 PTB  HZ EP        450 36.78                             132   -0.21 9  146 258 
 PTB  HN ES        450 57.15                             132   -0.74 9  146 258 
 PTB  HZ I         451  0.25         8.7 0.10            132            146 258 
 OCA  HZ EP        450 38.10                             130   -0.14 9  158 354 
 OCA  HN ES        450 59.97                             130   -0.13 9  158 354 
 OCA  HZ I         451  4.46        24.1 0.26            132            158 354 
 SPBC HZ EP        450 38.91                             129    0.18 9  164 218 
 SPBC HN ES        451  0.76                             129   -0.22 9  164 218 
 SPBC HZ I         451  7.79        13.5 0.16            129            164 218 
 SML  HZ EP        450 46.15                             118   -0.32 8  241 336 
 SML  HN ES        451 14.05                             118   -0.70 8  241 336 
 SML  HZ I         451 17.11        11.5 0.20            119            241 336 
 CHI  HZ EP        450 47.91                             117   -0.17 8  250 195 
 CHI  HN ES        451 17.71                             117    0.09 8  250 195 
 CHI  HZ I         451 23.49         3.9 0.28            118            250 195 
 ROSC BZ EP   4    450 49.51                             117    1.10 0  254 210 
 ROSC BN ES        451 19.06                             117    0.85 8  254 210 
 ROSC BZ I         451 26.06         6.5 0.50            117            254 210 
 HEL  HZ EP        450 51.07                             115    0.85 8  271 255 
 HEL  HE ES        451 21.34                             115   -0.10 8  271 255 
 HEL  HZ I         451 29.07         4.1 0.48            115            271 255 
 GUY2CHZ EP   4    450 55.00                             112    1.25 0  301 234 
 GUY2CHN ES        451 27.05                             112   -0.67 7  301 234 
 GUY2CHZ I         451 36.61         4.9 0.36                           301 234 
 PRA  HZ EP        451  4.43                             106    0.60 6  393 209 
 PRA  HN ES        451 45.07                             106   -0.59 6  393 209 
 PRA  HZ I         451 50.76         3.3 0.24            107            393 209 
 SJC  HZ EP   4    451  4.40                             106   -0.97 0  406 327 
 SJC  HN ES   4    451 43.63                             106   -4.77 0  406 327 
 SJC  HZ I         451 49.81         2.9 0.52            107            406 327 
                                                                                
