 2015  1 4 0544  2.2 L   6.872 -73.349122.8  RSN  6 0.6 1.8LRSN                1
 GAP=148        1.48       6.4     7.4 10.3 -0.6028E+01  0.1597E+02 -0.2625E+02E
 Epicentro: SAN VICENTE DE CHUCURI - SANTANDER                                 3
 ACTION:UPD 15-03-02 15:36 OP:nd   STATUS:               ID:20150104054402 L   I
 OLDACT:REG 15-01-04 14:34 OP:stll STATUS:               ID:20150104053739     3
 2015-01-04-0537-39M.COL___274                                                 6
 STAT SP IPHASW D HRMM SECON CODA AMPLIT PERI AZIMU VELO AIN AR TRES W  DIS CAZ7
 BAR2 EZ EP     D  544 19.83                             163    0.4010 36.0 149 
 BAR2 EZ I         544 19.93        31.0 0.10            168           36.0 149 
 BAR2 EZ ES        544 32.58                             163   -0.3110 36.0 149 
 BRR  HZ EP     D  544 20.20                             157    0.6310 47.8 303 
 BRR  HN ES        544 33.91                             157    0.7610 47.8 303 
 BRR  HZ I         544 35.89        10.2 0.16            153           47.8 303 
 PTB  HZ EP        544 25.16                             131   -0.3110  128 253 
 PTB  HN ES        544 42.56                             131   -1.0910  128 253 
 PTB  HZ I         544 47.42         5.8 0.20            130            128 253 
 OCA  HZ EP        544 28.01                             126    0.11 9  151   1 
 OCA  HN ES        544 46.98                             126   -0.98 9  151   1 
 OCA  HZ I         544 48.97         8.7 0.28            126            151   1 
 ZAR  HZ EP        544 30.74                             120    0.05 9  180 292 
 ZAR  HN ES        544 53.65                             120    0.72 9  180 292 
 ZAR  HZ I         544 58.26         6.7 0.34            120            180 292 
 SML  HZ EP        544 35.88                             114    0.05 8  228 340 
 SML  HN ES        545  1.95                             114   -0.13 8  228 340 
 SML  HZ I         545  8.27         9.6 0.10            114            228 340 
                                                                                
