 2015 12 4 0426 10.3 L   6.805 -73.165145.6  RSN  6 0.4 1.5LRSN                1
 GAP=199        1.03       5.7     6.9  7.9  0.2058E+02  0.5160E+01 -0.8856E+01E
 Epicentro: LOS SANTOS - SANTANDER                                             3
 ACTION:UPD 16-02-04 15:02 OP:cam  STATUS:               ID:20151204042610 L   I
 OLDACT:UP  15-12-04 14:41 OP:mh   STATUS:               ID:20151204041744d    3
 OLDACT:DUP 15-12-04 14:41 OP:mh   STATUS:               ID:20151204041744d    3
 2015-12-04-0417-43M.COL___309                                                 6
 STAT SP IPHASW D HRMM SECON CODA AMPLIT PERI AZIMU VELO AIN AR TRES W  DIS CAZ7
 BAR2 EZ EP   1    426 30.01                             170    0.10 7 23.6 185 
 BAR2 EZ ES        426 44.82                             170   -0.3910 23.6 185 
 BAR2 EZ I         426 45.92         9.6 0.44            168           23.6 185 
 BRR  HZ EP   1    426 31.90                             153    0.59 7 69.0 299 
 BRR  HN ES        426 48.41                             153    0.7210 69.0 299 
 BRR  HZ I         426 51.13         7.8 0.44            151           69.0 299 
 RUS  HZ EP        426 34.26                             144    0.1710  101 175 
 RUS  HN ES        426 52.52                             144   -0.1210  101 175 
 RUS  HZ I         426 54.33         2.5 0.28            145            101 175 
 PTB  HZ EP   1    426 36.76                             132   -0.31 7  146 258 
 PTB  HN ES        426 57.47                             132   -0.48 9  146 258 
 PTB  HZ I         427  1.16         2.8 0.16            131            146 258 
 ZAR  HZ EP        426 42.69                             123    0.18 9  202 292 
 ZAR  HN ES        427  7.85                             123    0.23 9  202 292 
 ZAR  HZ I         427 14.20         4.1 0.40            123            202 292 
 SML  HN ES        427 14.42                             118   -0.79 8  242 336 
                                                                                
