 2014 10 4 0056  6.3 L   6.495 -73.438 27.5  RSN  5 0.1 1.2LRSN                1
 GAP=123        0.44       1.2     1.4  2.3  0.4227E+00  0.1078E+01 -0.1885E+00E
 Epicentro: SIMACOTA - SANTANDER                                               3
 ACTION:UPD 14-11-29 23:46 OP:nd   STATUS:               ID:20141004005606 L   I
 OLDACT:DUP 14-10-04 15:50 OP:stll STATUS:               ID:20141004004743d    3
 2014-10-04-0047-42M.COL___286                                                 6
 STAT SP IPHASW D HRMM SECON CODA AMPLIT PERI AZIMU VELO AIN AR TRES W  DIS CAZ7
 BAR2 SZ EP        056 13.05                             128    0.0110 30.3  69 
 BAR2 SZ I         056 19.23         9.8 0.44            145           30.3  69 
 BRR  HZ EP        056 18.54                              99   -0.0310 74.2 336 
 BRR  HE ES        056 28.16                              99   -0.0210 74.2 336 
 BRR  HZ I         056 28.71         9.8 0.26            113           74.2 336 
 RUS  HZ EP        056 19.88                              99    0.3210 77.3 149 
 RUS  HZ I         056 20.16         7.6 0.18            113           77.3 149 
 RUS  HN ES        056 29.71                              99   -0.2310 77.3 149 
 PTB  HZ EP        056 23.60                              61   -0.0510  113 273 
 PTB  HN ES        056 37.23                              61    0.0110  113 273 
 PTB  HZ I         056 39.18         4.7 0.16            103            113 273 
 PAM  SN ES        056 40.74                              61   -0.0110  124  41 
 PAM  SZ I         056 41.01         5.3 0.22            101            124  41 
                                                                                
