 2017 11 4 0952  6.9 L   6.789 -73.093139.9  RSN  8 0.4 1.6LRSN                1
 GAP=144        0.94       4.6     5.3  6.4  0.4228E+01  0.4280E+01  0.1788E+01E
 Epicentro: LOS SANTOS - SANTANDER                                             3
 ACTION:UPD 17-12-12 19:51 OP:rebc STATUS:               ID:20171104095206 L   I
 OLDACT:UP  17-11-04 16:48 OP:dnl  STATUS:               ID:20171104094743     3
 OLDACT:REG 17-11-04 13:58 OP:dnl  STATUS:               ID:20171104094743     3
 2017-11-04-0948-00M.COL___414                                                 6
 STAT SP IPHASW D HRMM SECON CODA AMPLIT PERI AZIMU VELO AIN AR TRES W  DIS CAZ7
 BAR2 EZ EP        952 25.70                             170   -0.1610 23.9 204 
 BAR2 EZ ES        952 40.36                             170   -0.2610 23.9 204 
 BAR2 EZ I         952 42.20         8.7 0.78            174           23.9 204 
 PAM  EZ EP        952 28.50                             150    0.1410 74.8  36 
 PAM  EZ I         952 46.30        26.2 1.06            140           74.8  36 
 BRR  HZ EP   2    952 27.62                             150   -0.16 5 76.9 297 
 BRR  HE ES        952 44.72                             150    0.6710 76.9 297 
 BRR  HZ I         952 45.89         9.5 0.48            148           76.9 297 
 RUS  HZ EP        952 30.03                             143    0.0410 99.1 179 
 RUS  HN ES        952 47.84                             143   -0.1410 99.1 179 
 RUS  HZ I         952 50.26         3.8 0.86            141           99.1 179 
 SPBC HZ EP        952 34.97                             127   -0.27 9  166 221 
 SPBC HN ES        952 57.52                             127    0.19 9  166 221 
 SPBC HZ I         953  4.85         3.7 0.38            126            166 221 
 ZAR  HZ EP   4    952 38.12                             120   -1.48 0  210 292 
 ZAR  HE ES        953  4.34                             120   -0.75 8  210 292 
 ZAR  HZ I         953  8.75         2.7 0.26            117            210 292 
 NOR  HZ EP   2    952 42.46                             117   -0.29 4  239 236 
 NOR  HN IS   4    953  9.80                             117   -0.90 0  239 236 
 NOR  HZ I         953 12.21         1.7 0.34            114            239 236 
 GUY2CHZ EP        952 51.53                             111    0.81 7  305 236 
 GUY2CHE ES   4    953 27.42                             111    2.53 0  305 236 
 GUY2CHZ I         953 31.53         1.3 0.50                           305 236 
                                                                                
