 2017  1 4 0855 55.1 L   6.407 -73.612 93.9  RSN  5 0.4 0.7LRSN                1
 GAP=145        1.00       5.6     5.1  9.7  0.1704E+02  0.2367E+02  0.1214E+02E
 Epicentro: SANTA HELENA DEL OPON - SANTANDER                                  3
 ACTION:UPD 17-05-22 15:55 OP:jn   STATUS:               ID:20170104085555 L   I
 OLDACT:UP  17-04-19 20:53 OP:nlst STATUS:               ID:20170104085555 L   3
 OLDACT:REG 17-01-04 12:58 OP:lv   STATUS:               ID:20170104084744     3
 2017-01-04-0848-00M.COL___360                                                 6
 STAT SP IPHASW D HRMM SECON CODA AMPLIT PERI AZIMU VELO AIN AR TRES W  DIS CAZ7
 BAR2 EZ ES        856 21.20                             149   -0.2410 51.7  67 
 BRR  HN ES        856 24.34                             137   -0.0010 78.2 352 
 RUS  HZ EP        856 11.99                             136   -0.5010 81.6 134 
 RUS  HN ES        856 26.68                             136    0.6210 81.6 134 
 RUS  HZ I         856 27.94         0.8 0.29            137           81.6 134 
 PTB  HZ EP   4    856 11.72                             131   -1.27 0 94.5 279 
 PTB  HN ES        856 26.65                             131   -0.3110 94.5 279 
 PTB  HZ I         856 28.05         1.1 0.08            131           94.5 279 
 ZAR  HZ EP        856 22.33                             113    0.02 9  183 311 
 ZAR  HN ES        856 44.07                             113    0.52 9  183 311 
 ZAR  HZ I         856 45.87         1.2 0.42            113            183 311 
                                                                                
