 2013 11 4 0219  9.2 L   6.825 -73.180146.9  RSN  7 0.5 1.5LRSN                1
 GAP=131        1.31       5.0     6.5  9.6 -0.7266E+01  0.7496E+01  0.9862E+00E
 Epicentro: ZAPATOCA - SANTANDER                                               3
 ACTION:UPD 14-01-09 16:25 OP:ep   STATUS:               ID:20131104021909 L   I
 OLDACT:REG 13-11-04 08:37 OP:stll STATUS:               ID:20131104021848     3
 2013-11-04-0218-48M.COL___214                                                 6
 STAT SP IPHASW D HRMM SECON CODA AMPLIT PERI AZIMU VELO AIN AR TRES W  DIS CAZ7
 BAR2 SZ EP        219 29.21                             170    0.1510 25.7 181 
 BAR2 SZ I         219 29.52        10.5 0.36            167           25.7 181 
 BAR2 SZ ES        219 44.94                             170    0.4210 25.7 181 
 BRR  HZ EP        219 30.94                             154    0.6810 66.5 298 
 BRR  HZ I         219 31.19         6.7 0.30            153           66.5 298 
 BRR  HN ES        219 47.34                             154    0.6910 66.5 298 
 PAM  SZ EP        219 32.03                             151    0.4310 77.8  43 
 PAM  SN ES        219 48.80                             151   -0.2510 77.8  43 
 RUS  HZ EP        219 33.27                             143   -0.0610  104 174 
 RUS  HZ I         219 34.42         3.2 0.16            141            104 174 
 RUS  HN ES        219 51.56                             143   -0.5610  104 174 
 PTB  HZ EP        219 36.04                             133    0.02 9  145 257 
 PTB  HN ES        219 56.46                             133   -0.44 9  145 257 
 OCA  HN ES        219 58.22                             130   -1.05 9  157 354 
 SPBC HN ES        219 59.78                             129   -0.31 9  163 217 
 SPBC HZ I         220  6.49         5.0 0.20            128            163 217 
                                                                                
