 2015  2 4 0529 47.3 L   6.814 -73.166137.1  RSN 10 0.6 1.8LRSN                1
 GAP=133        1.58       4.8     6.9  9.2 -0.5085E+01  0.1636E+02 -0.3766E+01E
 Epicentro: LOS SANTOS - SANTANDER                                             3
 ACTION:UPD 15-04-30 21:21 OP:nd   STATUS:               ID:20150204052947 L   I
 OLDACT:REG 15-02-04 12:03 OP:stll STATUS:               ID:20150204052745     3
 2015-02-04-0527-45M.COL___262                                                 6
 STAT SP IPHASW D HRMM SECON CODA AMPLIT PERI AZIMU VELO AIN AR TRES W  DIS CAZ7
 BAR2 EZ EP        530  6.20                             169    0.2710 24.6 184 
 BAR2 EZ ES        530 19.91                             169   -0.5410 24.6 184 
 BAR2 EZ I         530 22.00        12.8 0.24            171           24.6 184 
 BRR  HZ EP     C  530  8.01                             152    0.6410 68.4 298 
 BRR  HN ES        530 24.42                             152    1.4010 68.4 298 
 BRR  HZ I         530 28.67        11.3 0.16            153           68.4 298 
 PAM  SZ EP        530  8.81                             149    0.1810 77.7  42 
 PAM  SZ I         530 28.04        11.5 0.50            145           77.7  42 
 RUS  HZ EP        530 10.30                             141   -0.0610  102 175 
 RUS  HN ES        530 28.05                             141   -0.2810  102 175 
 RUS  HZ I         530 30.63         8.0 0.30            142            102 175 
 PTB  HZ EP        530 13.16                             130   -0.25 9  146 258 
 PTB  HN ES        530 32.76                             130   -1.00 9  146 258 
 PTB  HZ I         530 36.28         8.3 0.52            132            146 258 
 OCA  HE ES        530 35.63                             128   -0.59 9  158 354 
 SPBC HZ EP        530 15.34                             127    0.20 9  163 218 
 SPBC HN ES        530 36.95                             127    0.10 9  163 218 
 SPBC HZ I         530 39.83        13.8 0.22            128            163 218 
 SML  HZ EP        530 22.74                             116   -0.46 8  241 336 
 SML  HN ES        530 50.71                             116   -0.49 8  241 336 
 SML  HZ I         530 53.15         9.4 0.26            115            241 336 
 HEL  HZ EP        530 28.40                             113    1.50 8  270 255 
 HEL  HE ES        530 57.67                             113   -0.10 8  270 255 
 HEL  HZ I         531  5.21         3.7 0.60            113            270 255 
 GUY2CHZ EP        530 29.59                             111   -0.84 7  300 234 
 GUY2CHN ES        531  3.99                             111   -0.07 7  300 234 
 GUY2CHZ I         531 12.70         3.1 0.66                           300 234 
                                                                                
