 2016 11 4 0404 41.9 L   6.833 -73.086148.0  RSN  4 0.2 1.2LRSN                1
 GAP=246        0.65       4.2     6.5  5.3  0.8323E+01  0.3425E+01  0.3728E+01E
 Epicentro: LOS SANTOS - SANTANDER                                             3
 ACTION:UPD 17-10-26 21:04 OP:lp   STATUS:               ID:20161104040441 L   I
 OLDACT:UP  16-11-04 14:50 OP:dani STATUS:               ID:20161104035740     3
 OLDACT:REG 16-11-04 12:59 OP:dani STATUS:               ID:20161104035740     3
 2016-11-04-0358-00M.COL___349                                                 6
 STAT SP IPHASW D HRMM SECON CODA AMPLIT PERI AZIMU VELO AIN AR TRES W  DIS CAZ7
 BAR2 EZ ES        4 5 17.28                             169   -0.2810 28.7 202 
 BRR  HZ EP        4 5  3.84                             151    0.2710 75.5 294 
 BRR  HN ES        4 5 20.45                             151    0.0010 75.5 294 
 BRR  HZ I         4 5 24.37         3.5 0.38            147           75.5 294 
 RUS  HZ EP        4 5  6.22                             143    0.0710  104 180 
 RUS  HE ES        4 5 25.23                             143    0.1910  104 180 
 RUS  HZ I         4 5 25.77         1.9 0.29            143            104 180 
 SPBC HZ EP        4 5 10.82                             128   -0.45 9  170 220 
 SPBC HN ES        4 5 34.29                             128    0.14 9  170 220 
 SPBC HZ I         4 5 38.77         2.4 0.23            127            170 220 
                                                                                
