 2016 10 4 0631  5.9 L   6.758 -73.190150.8  RSN  7 0.4 1.2LRSN                1
 GAP=133        1.13       6.6     6.0  8.0  0.1368E+02  0.1552E+01 -0.1996E+01E
 Epicentro: LOS SANTOS - SANTANDER                                             3
 ACTION:UPD 16-11-09 19:16 OP:rebc STATUS:               ID:20161004063105 L   I
 OLDACT:UP  16-10-04 17:18 OP:dani STATUS:               ID:20161004062743     3
 OLDACT:UP  16-10-04 17:18 OP:dani STATUS:               ID:20161004062743     3
 OLDACT:REG 16-10-04 13:21 OP:dani STATUS:               ID:20161004062743     3
 2016-10-04-0628-00M.COL___360                                                 6
 STAT SP IPHASW D HRMM SECON CODA AMPLIT PERI AZIMU VELO AIN AR TRES W  DIS CAZ7
 BAR2 EZ EP        631 25.87                             173   -0.2010 18.3 177 
 BAR2 EZ ES        631 41.29                             173   -0.5010 18.3 177 
 BAR2 EZ I         631 41.88         5.9 0.28            170           18.3 177 
 BRR  HZ EP     C  631 27.60                             154    0.0810 69.4 304 
 BRR  HN ES        631 44.82                             154    0.4510 69.4 304 
 BRR  HZ I         631 46.48         2.5 0.12            151           69.4 304 
 PAM  EZ EP        631 28.75                             150   -0.3310 84.1  40 
 RUS  HZ EP        631 30.38                             146    0.4910 96.4 173 
 RUS  HN ES        631 49.03                             146    0.4610 96.4 173 
 RUS  HZ I         631 50.01         3.0 0.26            146           96.4 173 
 PTB  HZ EP        631 33.26                             134    0.45 9  142 260 
 PTB  HN ES        631 53.18                             134   -0.60 9  142 260 
 PTB  HZ I         631 59.27         1.6 0.13            132            142 260 
 SPBC HZ EP        631 33.57                             131   -0.63 9  156 219 
 ZAR  HZ EP   4    631 40.09                             124    1.66 0  201 294 
 ZAR  HE ES        632  4.07                             124    0.29 9  201 294 
 ZAR  HZ I         632 10.09         1.6 0.13            123            201 294 
                                                                                
