 2017 12 4 0940 30.0 L   6.807 -73.148147.3  RSN 27 0.4 2.7LRSN                1
 GAP= 55        0.94       1.9     2.7  4.2 -0.2855E-01  0.2008E+01 -0.8460E+00E
 Epicentro: LOS SANTOS - SANTANDER                                             3
 ACTION:UPD 18-01-04 13:17 OP:rebc STATUS:               ID:20171204094030 L   I
 OLDACT:UP  17-12-04 18:52 OP:dnl  STATUS:               ID:20171204093743     3
 OLDACT:UP  17-12-04 18:51 OP:dnl  STATUS:               ID:20171204093743     3
 OLDACT:UP  17-12-04 18:49 OP:dnl  STATUS:               ID:20171204093743     3
 OLDACT:UP  17-12-04 18:49 OP:dnl  STATUS:               ID:20171204093743     3
 OLDACT:UP  17-12-04 18:48 OP:dnl  STATUS:               ID:20171204093743     3
 OLDACT:REG 17-12-04 14:32 OP:leo  STATUS:               ID:20171204093743     3
 2017-12-04-0938-00M.COL___453                                                 6
 STAT SP IPHASW D HRMM SECON CODA AMPLIT PERI AZIMU VELO AIN AR TRES W  DIS CAZ7
 BAR2 EZ IP     D  940 49.82                             170    0.0110 24.0 189 
 BAR2 EZ ES        941  4.76                             170   -0.5110 24.0 189 
 BAR2 EZ I         941  7.58       124.6 0.34            167           24.0 189 
 PAM  EZ EP        940 52.64                             151    0.3110 76.9  40 
 PAM  EN ES        941  9.89                             151    0.1210 76.9  40 
 PAM  EZ I         941 11.98        95.5 0.56            153           76.9  40 
 RUS  HZ EP        940 53.73                             144   -0.2110  101 176 
 RUS  HN ES        941 12.57                             144   -0.0510  101 176 
 RUS  HZ I         941 15.55        35.0 0.22            141            101 176 
 PTB  HZ EP        940 56.34                             132   -0.73 9  148 259 
 PTB  HN ES        941 17.47                             132   -0.72 9  148 259 
 PTB  HZ I         941 25.06        78.6 0.38            129            148 259 
 TAM  HZ IP     D  940 58.00                             131    0.18 9  155 105 
 TAM  HZ I         941 18.81        36.5 0.34            130            155 105 
 TAM  HE ES        941 19.68                             131    0.15 9  155 105 
 OCA  HZ IP     C  940 57.85                             130   -0.49 9  160 353 
 OCA  HN ES        941 20.41                             130   -0.05 9  160 353 
 OCA  HZ I         941 28.49        86.0 0.44            129            160 353 
 SPBC HZ EP        940 58.70                             129    0.06 9  164 219 
 SPBC HE ES        941 21.81                             129    0.82 9  164 219 
 SPBC HZ I         941 27.34        70.8 0.22            126            164 219 
 YPLC HZ IP     D  941  0.04                             127    0.08 9  178 151 
 YPLC HN ES        941 23.56                             127    0.22 9  178 151 
 YPLC HZ I         941 26.23        43.6 0.22            125            178 151 
 ZAR  HZ EP        941  2.55                             123    0.07 9  204 292 
 ZAR  HE ES        941 28.41                             123    0.59 9  204 292 
 ZAR  HZ I         941 33.95        82.4 0.36            121            204 292 
 CHI  HZ EP        941  7.85                             117    0.02 8  249 195 
 CHI  HN ES        941 36.95                             117   -0.41 8  249 195 
 CHI  HZ I         941 47.10        21.1 0.44            115            249 195 
 ROSC BZ EP   9    941  9.51                             117    1.27 0  253 211 
 ROSC BN ES        941 39.39                             117    0.04 8  253 211 
 ROSC BZ I         941 47.46        65.4 0.40            115            253 211 
 URE  HZ EP   4    941  9.78                             114   -1.29 0  283 292 
 URE  HE ES   4    941 40.81                             114   -2.31 0  283 292 
 URE  HZ I         941 53.84        33.8 0.18            112            283 292 
 DRL03HZ EP        941 11.36                             113   -0.22 7  288 353 
 DRL03HE ES        941 44.48                             113    0.46 7  288 353 
 GUY2CHZ EP   4    941 14.82                             113    1.13 0  301 235 
 GUY2CHE ES   4    941 50.80                             113    3.02 0  301 235 
 GUY2CHZ I         941 58.54        27.2 0.50                           301 235 
 VIL  EZ EP        941 13.66                             112    0.12 7  304 192 
 VIL  EN ES        941 48.28                             112    0.76 7  304 192 
 VIL  EZ I         941 53.28        33.1 0.46            111            304 192 
 PTGC HZ IP   4 D  941 12.68                             112   -1.31 0  309 159 
 PTGC HN ES   4    941 46.07                             112   -2.25 0  309 159 
 PTGC HZ I         941 46.69        23.7 0.26            110            309 159 
 DRL01HZ EP   2    941 15.98                             111    0.13 3  326 350 
 DRL01HN ES        941 52.34                             111    0.71 7  326 350 
 CBOC HZ EP   4    941 18.46                             110    1.50 0  334 252 
 CBOC HE ES   4    941 52.64                             110   -0.96 0  334 252 
 CBOC HZ I         941 59.03        10.1 0.44            108            334 252 
 ARGC HZ EP        941 20.02                             109    0.42 6  358 340 
 ARGC HN ES        941 58.42                             109    0.11 6  358 340 
 ARGC HZ I         942  5.35         6.0 0.26            108            358 340 
 SDV  BZ EP        941 19.15                             108   -0.89 6  360  50 
 SDV  BZ ES   4    941 57.08                             108   -2.01 0  360  50 
 SDV  BZ I         942  0.62         4.1 0.55            108            360  50 
 PRA  HZ EP        941 23.02                             107   -0.60 6  393 209 
 PRA  HE ES        942  5.36                             107   -0.09 6  393 209 
 PRA  HZ I         942  9.34        25.0 0.60            105            393 209 
 ORTC HZ EP        941 24.80                             107    0.79 6  396 216 
 ORTC HE ES   4    942  7.34                             107    1.19 0  396 216 
 ORTC HZ I         942 12.80        15.3 0.54            105            396 216 
 APAC HZ EP        941 23.87                             106   -0.30 6  398 288 
 APAC HE ES   4    942  5.21                             106   -1.23 0  398 288 
 APAC HZ I         942 14.70         8.0 0.62            105            398 288 
 SJC  HZ EP   4    941 23.64                             106   -1.87 0  408 327 
 SJC  HN ES   4    942  4.53                             106   -4.28 0  408 327 
 SJC  HZ I         942  9.83         8.7 0.52            105            408 327 
 CRJC HZ EP   4    941 28.49                             104   -3.95 0  467   4 
 CRJC HE ES   4    942 18.16                             104   -2.99 0  467   4 
 CRJC HZ I         942 22.04        11.7 0.58            103            467   4 
 SMAR HZ EP        941 35.05                             103   -0.75 4  496 346 
 SMAR HN ES   4    942 23.08                             103   -4.06 0  496 346 
 SMAR HZ I         942 25.83        11.8 0.18            102            496 346 
 MACC HZ EP   4    942 20.19                             102   41.38 0  521 189 
 MACC HE ES   4    943 10.44                             102   37.94 0  521 189 
 MACC HZ I         943 18.21         3.2 0.46            101            521 189 
                                                                                
