 2017  4 4 0818 14.5 L   6.830 -73.167144.7  RSN 19 0.5 2.0LRSN                1
 GAP=116        0.79       2.6     2.9  4.3 -0.8526E+00  0.4966E+01  0.2931E+00E
 Epicentro: LOS SANTOS - SANTANDER                                             3
 ACTION:UPD 17-05-30 21:08 OP:jn   STATUS:               ID:20170404081814 L   I
 OLDACT:UP  17-04-04 16:24 OP:and  STATUS:               ID:20170404081640     3
 OLDACT:UP  17-04-04 16:24 OP:and  STATUS:               ID:20170404081640     3
 OLDACT:UP  17-04-04 16:23 OP:and  STATUS:               ID:20170404081640     3
 OLDACT:UP  17-04-04 16:22 OP:and  STATUS:               ID:20170404081640     3
 OLDACT:UP  17-04-04 16:21 OP:and  STATUS:               ID:20170404081640     3
 OLDACT:UP  17-04-04 16:21 OP:and  STATUS:               ID:20170404081640     3
 OLDACT:UP  17-04-04 16:20 OP:and  STATUS:               ID:20170404081640     3
 OLDACT:UP  17-04-04 16:20 OP:and  STATUS:               ID:20170404081640     3
 OLDACT:UP  17-04-04 16:18 OP:and  STATUS:               ID:20170404081640     3
 OLDACT:UP  17-04-04 16:18 OP:and  STATUS:               ID:20170404081640     3
 OLDACT:UP  17-04-04 16:17 OP:and  STATUS:               ID:20170404081640     3
 OLDACT:REG 17-04-04 12:36 OP:and  STATUS:               ID:20170404081640     3
 2017-04-04-0818-00M.COL___359                                                 6
 STAT SP IPHASW D HRMM SECON CODA AMPLIT PERI AZIMU VELO AIN AR TRES W  DIS CAZ7
 BAR2 EZ IP     C  818 34.08                             169    0.0110 26.4 184 
 BAR2 EZ ES        818 48.96                             169   -0.3810 26.4 184 
 BAR2 EZ I         818 51.96        34.9 0.30            166           26.4 184 
 BRR  HZ EP        818 35.72                             154    0.3910 67.6 297 
 BRR  HN ES   3    818 52.89                             154    1.31 2 67.6 297 
 BRR  HZ I         818 56.95        18.1 0.28            150           67.6 297 
 PAM  EZ IP     C  818 37.08                             151    0.5310 76.4  42 
 PAM  EN ES        818 53.76                             151    0.0210 76.4  42 
 PAM  EZ I         818 56.32        17.2 0.44            157           76.4  42 
 RUS  HZ EP        818 38.17                             142   -0.2410  104 175 
 RUS  HN ES        818 57.13                             142    0.0810  104 175 
 RUS  HZ I         818 58.04        15.4 0.36            144            104 175 
 PTB  HZ EP        818 40.81                             132   -0.43 9  146 257 
 PTB  HN ES        819  1.81                             132   -0.28 9  146 257 
 PTB  HZ I         819  4.50         9.4 0.12            130            146 257 
 SPBC HZ EP        818 43.06                             128    0.03 9  164 218 
 SPBC HN ES        819  4.85                             128   -0.43 9  164 218 
 SPBC HZ I         819 12.07        20.4 0.24            128            164 218 
 ZAR  HZ EP        818 46.49                             122   -0.03 9  201 292 
 ZAR  HN ES        819 11.97                             122    0.47 9  201 292 
 ZAR  HZ I         819 17.32         9.0 0.26            122            201 292 
 NOR  HZ EP        818 50.67                             118    0.50 8  235 233 
 NOR  HN ES        819 17.91                             118   -0.09 8  235 233 
 NOR  HZ I         819 26.01         8.2 0.18            118            235 233 
 CHI  HZ EP        818 52.41                             116   -0.02 8  251 194 
 CHI  HN ES        819 22.35                             116    0.34 8  251 194 
 CHI  HZ I         819 27.90         4.7 0.32            118            251 194 
 ROSC BZ EP   3    818 53.97                             116    1.22 2  254 210 
 ROSC BN ES   4    819 25.87                             116    3.29 0  254 210 
 ROSC BZ I         819 28.82         7.7 0.45            117            254 210 
 HEL  HN ES        819 25.72                             115    0.02 8  271 255 
 HEL  HZ I         819 34.45         6.0 0.36            115            271 255 
 URE  HZ EP        818 54.65                             114   -0.49 7  280 291 
 URE  HN ES   3    819 25.37                             114   -1.46 2  280 291 
 URE  HZ I         819 36.86         4.7 0.18            114            280 291 
 PTGC HZ EP   3    818 57.37                             111   -1.39 2  313 158 
 PTGC HN ES   4    819 30.10                             111   -3.18 0  313 158 
 PTGC HZ I         819 35.61         6.4 0.30            113            313 158 
 CBOC HZ EP   3    819  2.47                             110    1.24 2  332 251 
 CBOC HN ES        819 38.24                             110    0.55 7  332 251 
 CBOC HZ I         819 51.75         1.8 0.26            110            332 251 
 DBB  EN ES   4    819 35.88                             109   -2.52 0  337 274 
 DBB  EZ I         819 41.71         2.6 0.14            110            337 274 
 ARGC HZ EP   4    819  6.14                             108    2.48 0  355 341 
 ARGC HN ES   4    819 43.56                             108    1.56 0  355 341 
 PRA  HZ EP        819  7.99                             106   -0.20 6  394 209 
 PRA  HN ES        819 50.35                             106    0.28 6  394 209 
 PRA  HZ I         819 56.45         5.6 0.36            107            394 209 
 ORTC HZ EP   4    819  5.73                             106   -2.81 0  397 216 
 ORTC HN ES   3    819 51.96                             106    1.27 1  397 216 
 ORTC HZ I         819 58.07         4.6 0.38            107            397 216 
 SJC  HZ EP        819  8.52                             106   -1.03 6  405 327 
 SJC  HN ES   4    819 49.54                             106   -2.94 0  405 327 
 SJC  HZ I         820  1.45         1.8 0.46            107            405 327 
 PAL  HZ EP        819  9.47                             106   -0.12 6  405 238 
                                                                                
