 2010  7 4 0816 39.9 L   6.775 -73.068146.0  RSN 10 0.4 1.9LRSN                1
 GAP=165        0.74       3.4     6.2  6.1 -0.6843E+01 -0.7109E+01  0.1731E+01E
 Epicentro: LOS SANTOS - SANTANDER                                             3
 ACTION:UPD 10-12-01 15:15 OP:pat  STATUS:               ID:20100704081639 L   I
 2010-07-04-0815-16S.COL___118                                                 6
 STAT SP IPHASW D HRMM SECON CODA AMPLIT PERI AZIMU VELO AIN AR TRES W  DIS CAZ7
 BAR2 SZ EP        816 59.46                             170    -0.210   24 212 
 BAR2 SZ ES   2    817 13.98                             170    -1.0 5   24 212 
 BRR  HZ EP        817  1.34                             150    -0.310   80 297 
 BRR  HE ES        817 18.86                             150     0.310   80 297 
 BRR  HZ I         817 20.44        13.4 0.16                            80 297 
 RUS  HZ EP   1    817  3.35                             145    -0.2 7   98 181 
 RUS  HE ES   1    817 22.42                             145     0.5 7   98 181 
 RUS  HZ I         817 23.36         5.7 0.25                            98 181 
 BRI  SZ EP   1    817  4.34                             142     0.5 7  108  16 
 GUE  SZ IP        817  4.82                             139     0.010  118   8 
 GUE  SZ ES   2    817 24.36                             139     0.2 5  118   8 
 GRA  SZ EP        817  5.26                             137     0.010  126  13 
 GRA  SZ ES   1    817 24.60                             137    -0.4 7  126  13 
 OCA  SZ EP   2    817  8.39                             129    -0.3 5  164 350 
 OCA  SZ ES   2    817 31.42                             129     0.4 5  164 350 
 OCA  SZ I         817 37.84         6.8 0.42                           164 350 
 HEL  HZ EP   2    817 21.07                             114     0.1 4  280 257 
 HEL  HZ I         817 57.89         3.6 0.27                           280 257 
 RREF HN ES   2    818  2.59                             111    -0.5 3  327 231 
 RREF HZ I         818 10.91         5.4 0.54                           327 231 
 PRA  HZ EP   1    817 33.79                             107     0.1 4  394 211 
 PRA  HE ES   2    818 15.66                             107     0.0 3  394 211 
 PRA  HZ I         818 21.18         5.1 0.27                           394 211 
                                                                                
