 2011  9 4 0810 11.4 L   5.924 -73.609125.1  RSN  4 0.1 1.5LRSN                1
 GAP=161        0.34       3.0     3.3  5.5 -0.5756E+00  0.5391E+01  0.9944E+00E
 Epicentro: BARBOSA - SANTANDER                                                3
 ACTION:UPD 12-07-13 15:55 OP:ep   STATUS:               ID:20110904081011 L   I
 2011-09-04-0809-49S.COL___171                                                 6
 STAT SP IPHASW D HRMM SECON CODA AMPLIT PERI AZIMU VELO AIN AR TRES W  DIS CAZ7
 RUS  HZ EP   1    810 30.34                             154    0.06 7 58.3  93 
 RUS  HZ I         810 31.33         3.1 0.05                          58.3  93 
 RUS  HN ES   2    810 45.09                             154    0.06 5 58.3  93 
 BAR2 SZ EP   1    810 31.58                             143   -0.22 7 87.7  33 
 BAR2 SZ ES   1    810 47.73                             143   -0.01 7 87.7  33 
 BAR2 SZ I         810 49.37        16.2 0.52                          87.7  33 
 BRR  HZ EP   1    810 35.33                             130    0.18 7  131 355 
 BRR  HZ I         810 35.75         4.6 0.21                           131 355 
 BRR  HN ES   1    810 53.69                             130    0.00 7  131 355 
 NOR  SN ES   2    810 56.12                             127   -0.04 5  145 254 
                                                                                
