 2012  5 4 0546 53.9 L   6.769 -73.197148.2  RSN  6 0.4 1.5LRSN                1
 GAP=132        0.91       6.2     5.4  8.9  0.3193E+01  0.8481E+01  0.6860E+00E
 Epicentro: VILLANUEVA - SANTANDER                                             3
 ACTION:UP  12-07-05 12:02 OP:pat  STATUS:               ID:20120504054653 L   I
 2012-05-04-0540-00M.COL___189                                                 6
 STAT SP IPHASW D HRMM SECON CODA AMPLIT PERI AZIMU VELO SNR AR TRES W  DIS CAZ7
 BAR2 SZ EP   1    547 13.65                             172    -0.1 7   20 175 
 BAR2 SZ ES   1    547 28.97                             172    -0.3 7   20 175 
 BAR2 SZ I         547 29.86         8.3 0.21                            20 175 
 BRR  HZ EP   1    547 15.73                             154     0.6 7   68 303 
 BRR  HZ I         547 16.19         9.7 0.11                            68 303 
 BRR  HE ES   1    547 32.45                             154     0.7 7   68 303 
 PAM  SZ EP   1    547 16.87                             149     0.1 7   84  41 
 PAM  SN ES   1    547 34.15                             149    -0.4 7   84  41 
 RUS  HZ EP   1    547 17.89                             145     0.2 7   98 173 
 RUS  HN ES   1    547 36.25                             145     0.0 7   98 173 
 RUS  HZ I         547 37.73         4.3 0.35                            98 173 
 PTB  HZ EP   1    547 20.19                             134    -0.3 7  142 260 
 PTB  HN ES   1    547 41.19                             134    -0.1 7  142 260 
 PTB  HZ I         547 43.98         3.3 0.17                           142 260 
 ZAR  HN ES   1    547 50.70                             123    -0.5 6  200 294 
 ZAR  HZ I         547 58.01         3.3 0.09                           200 294 
                                                                                
