 2017  2 4 0833 28.4 L   6.753 -73.187148.0  RSN  4 0.3 1.1LRSN                1
 GAP=229        0.69       7.7     5.2  6.3  0.1305E+02  0.3383E+01 -0.1054E+01E
 Epicentro: VILLANUEVA - SANTANDER                                             3
 ACTION:UPD 17-05-24 15:32 OP:jn   STATUS:               ID:20170204083329dL   I
 OLDACT:UP  17-02-04 15:40 OP:and  STATUS:               ID:20170204082746     3
 OLDACT:UP  17-02-04 15:40 OP:and  STATUS:               ID:20170204082746     3
 OLDACT:UP  17-02-04 15:38 OP:and  STATUS:               ID:20170204082746     3
 OLDACT:REG 17-02-04 12:47 OP:dnl  STATUS:               ID:20170204082746     3
 2017-02-04-0828-00M.COL___328                                                 6
 STAT SP IPHASW D HRMM SECON CODA AMPLIT PERI AZIMU VELO AIN AR TRES W  DIS CAZ7
 BAR2 EZ EP        833 48.07                             173   -0.1410 17.8 178 
 BAR2 EZ ES        834  3.30                             173   -0.3510 17.8 178 
 BAR2 EZ I         834  4.25         3.5 0.22            178           17.8 178 
 BRR  HZ EP        833 49.92                             153    0.1910 70.0 304 
 BRR  HN ES   2    834  6.99                             153    0.63 5 70.0 304 
 BRR  HZ I         834 13.07         2.3 0.40            152           70.0 304 
 RUS  HZ EP        833 52.38                             145    0.3310 95.9 173 
 RUS  HN ES   2    834 10.70                             145    0.21 5 95.9 173 
 RUS  HZ I         834 11.76         1.9 0.29            153           95.9 173 
 PTB  HZ EP        833 54.75                             133   -0.33 9  142 261 
 PTB  HN ES        834 15.93                             133    0.05 9  142 261 
 PTB  HZ I         834 17.66         1.8 0.16            136            142 261 
                                                                                
