 2016  3 4 0213 33.2 L   6.804 -73.171139.7  RSN  7 0.3 1.4LRSN                1
 GAP=143        0.75       4.0     4.0  5.5 -0.8108E+01  0.3090E+01  0.5246E+01E
 Epicentro: LOS SANTOS - SANTANDER                                             3
 ACTION:UPD 16-05-13 21:21 OP:cam  STATUS:               ID:20160304021333 L   I
 OLDACT:UP  16-03-04 16:10 OP:mh   STATUS:               ID:20160304020750     3
 OLDACT:REG 16-03-04 12:38 OP:mh   STATUS:               ID:20160304020750     3
 2016-03-04-0207-50M.COL___331                                                 6
 STAT SP IPHASW D HRMM SECON CODA AMPLIT PERI AZIMU VELO AIN AR TRES W  DIS CAZ7
 BAR2 EZ EP        213 52.06                             170    0.0110 23.5 183 
 BAR2 EZ ES        214  6.90                             170    0.1010 23.5 183 
 BAR2 EZ I         214  8.69         8.5 0.34            170           23.5 183 
 PAM  EZ EP        213 54.93                             149    0.1210 78.8  41 
 PAM  EN ES        214 11.68                             149   -0.0310 78.8  41 
 PAM  EZ I         214 14.05         4.6 0.58            154           78.8  41 
 RUS  HN EP   1    213 56.66                             142    0.30 7  101 175 
 RUS  HZ ES   2    214 14.26                             142   -0.21 5  101 175 
 RUS  HN I         214 15.62         4.0 0.46            145            101 175 
 PTB  HZ EP        213 58.95                             131   -0.44 9  145 258 
 PTB  HN ES        214 19.53                             131   -0.32 9  145 258 
 PTB  HZ I         214 25.10         2.9 0.18            132            145 258 
 SPBC HZ EP        214  1.16                             128    0.10 9  162 218 
 SPBC HN ES        214 23.04                             128    0.21 9  162 218 
 SPBC HZ I         214 27.84         3.0 0.34            130            162 218 
 NOR  HN ES        214 36.45                             117    0.70 8  233 234 
 CHI  HZ EP        214 10.52                             116    0.03 8  248 195 
 CHI  HN ES        214 39.00                             116   -0.62 8  248 195 
 CHI  HZ I         214 42.90         1.3 0.60            118            248 195 
                                                                                
