 2015  9 4 0251 38.3 L   6.142 -73.813 95.5  RSN  4 0.2 1.0LRSN                1
 GAP=193        0.62       4.8     2.9  6.2  0.8591E+01  0.4773E+01  0.2970E+00E
 Epicentro: LANDAZURI - SANTANDER                                              3
 ACTION:UPD 15-10-28 16:23 OP:cam  STATUS:               ID:20150904025138 L   I
 OLDACT:UP  15-09-08 11:01 OP:AK   STATUS:               ID:20150904025138 L   3
 OLDACT:UP  15-09-04 16:04 OP:ak   STATUS:               ID:20150904024746     3
 OLDACT:UP  15-09-04 16:03 OP:ak   STATUS:               ID:20150904024746     3
 OLDACT:UP  15-09-04 16:00 OP:ak   STATUS:               ID:20150904024746     3
 OLDACT:REG 15-09-04 12:31 OP:ak   STATUS:               ID:20150904024746     3
 2015-09-04-0247-46M.COL___352                                                 6
 STAT SP IPHASW D HRMM SECON CODA AMPLIT PERI AZIMU VELO AIN AR TRES W  DIS CAZ7
 PTB  HZ EP        251 55.44                             136    0.0610 83.6 302 
 PTB  HN ES        252  8.83                             136    0.1410 83.6 302 
 PTB  HZ I         252 10.18         2.9 0.20            136           83.6 302 
 RUS  HZ EP        251 56.23                             136    0.0510 85.4 109 
 RUS  HN ES        252  9.88                             136   -0.2410 85.4 109 
 RUS  HZ I         252 11.24         1.1 0.26            138           85.4 109 
 BAR2 EZ EP        251 55.77                             135   -0.0910 85.7  54 
 BAR2 EZ ES        252  9.76                             135    0.2210 85.7  54 
 BAR2 EZ I         252 11.61         5.3 0.19            135           85.7  54 
 ZAR  HZ EP        252  6.63                             112    0.32 9  189 322 
 ZAR  HE ES        252 27.66                             112   -0.49 9  189 322 
 ZAR  HZ I         252 32.03         2.3 0.26            112            189 322 
                                                                                
