 2013  8 4 0235 14.8 L   6.798 -73.143147.9  RSN 10 0.4 2.0LRSN                1
 GAP=183        0.99       3.1     4.8  6.8 -0.1093E+00  0.7981E+01 -0.2566E+01E
 Epicentro: LOS SANTOS - SANTANDER                                             3
 ACTION:UPD 14-01-14 08:58 OP:ep   STATUS:               ID:20130804023514 L   I
 OLDACT:REG 13-08-04 07:41 OP:carl STATUS:               ID:20130804022959     3
 2013-08-04-0229-59M.COL___270                                                 6
 STAT SP IPHASW D HRMM SECON CODA AMPLIT PERI AZIMU VELO AIN AR TRES W  DIS CAZ7
 BAR2 SZ EP        235 34.84                             171    0.1210 23.1 191 
 BAR2 SZ ES   1    235 49.94                             171   -0.29 7 23.1 191 
 BAR2 SZ I         235 51.29        18.8 0.40            170           23.1 191 
 GIR2 SZ EP   1    235 34.84                             167    0.07 7 31.6 350 
 GIR2 SZ ES   1    235 50.64                             167    0.32 7 31.6 350 
 GIR2 SZ I         235 52.06        14.9 0.34            165           31.6 350 
 BRR  HZ EP        235 36.79                             153    0.5510 71.6 299 
 BRR  HN ES   1    235 53.71                             153    0.78 7 71.6 299 
 BRR  HN I         235 57.73        23.7 0.24            151           71.6 299 
 RUS  HZ EP        235 38.67                             144   -0.1110  100 176 
 RUS  HN ES        235 57.39                             144   -0.0610  100 176 
 RUS  HZ I         235 59.13         5.7 0.36            148            100 176 
 PTB  HZ EP        235 41.58                             132   -0.43 9  148 259 
 PTB  HN ES        236  2.73                             132   -0.46 9  148 259 
 PTB  HZ I         236  5.85        10.8 0.12            133            148 259 
 OCA  HN ES        236  5.10                             130   -0.47 9  161 353 
 OCA  HN I         236 10.76        24.3 0.30            132            161 353 
 SPBC HZ EP   1    235 43.95                             129    0.45 7  163 219 
 SPBC HN ES        236  5.58                             129   -0.28 9  163 219 
 SPBC HZ I         236  8.48         8.2 0.22            131            163 219 
 ZAR  HZ EP        235 48.23                             123    0.76 9  204 292 
 ZAR  HN ES        236 13.34                             123    0.43 9  204 292 
 ZAR  HZ I         236 19.54         9.9 0.38            124            204 292 
 NOR  HE ES        236 18.47                             119   -0.21 8  235 235 
 NOR  HZ I         236 24.09         7.2 0.26            120            235 235 
 SML  HZ EP   1    235 51.24                             118   -0.39 6  244 335 
 SML  HN ES        236 19.70                             118   -0.62 8  244 335 
                                                                                
