 2011 10 4 0410 42.8 L   6.533 -73.500111.9  RSN  6 0.2 1.4LRSN                1
 GAP= 88        0.41       2.3     2.3  4.7 -0.6703E+00  0.5702E+01  0.1617E+01E
 Epicentro: EL CARMEN DE CHUCURI - SANTANDER                                   3
 ACTION:UPD 12-07-13 16:01 OP:ep   STATUS:               ID:20111004041042 L   I
 2011-10-04-0400-00M.COL___172                                                 6
 STAT SP IPHASW D HRMM SECON CODA AMPLIT PERI AZIMU VELO AIN AR TRES W  DIS CAZ7
 BAR2 SZ EP   1    410 59.07                             161    0.31 7 35.8  79 
 BAR2 SZ ES   1    411 11.08                             161   -0.15 7 35.8  79 
 BAR2 SZ I         411 12.78        37.1 0.41                          35.8  79 
 BRR  HZ EP   1    410 59.94                             146   -0.20 7 67.6 340 
 BRR  HE ES   1    411 13.87                             146    0.19 7 67.6 340 
 BRR  HZ I         411 19.97         5.1 0.11                          67.6 340 
 RUS  HZ EP   1    411  2.26                             141    0.20 7 84.5 147 
 RUS  HE ES   1    411 17.02                             141   -0.09 7 84.5 147 
 RUS  HZ I         411 18.01         2.2 0.18                          84.5 147 
 PAM  SN ES   1    411 23.37                             128   -0.13 7  126  45 
 NOR  SN ES   1    411 33.42                             116   -0.11 7  186 235 
 HEL  HZ EP   1    411 16.19                             111   -0.19 6  228 261 
 HEL  HE ES   1    411 42.69                             111    0.10 6  228 261 
                                                                                
