 2013 11 4 0746  1.4 L   6.794 -73.153149.2  RSN  8 0.4 1.6LRSN                1
 GAP=136        1.15       3.6     5.6  6.9 -0.3397E+01  0.6824E+01 -0.4178E+01E
 Epicentro: LOS SANTOS - SANTANDER                                             3
 ACTION:UPD 14-01-09 16:25 OP:ep   STATUS:               ID:20131104074601 L   I
 OLDACT:DUP 13-11-04 13:06 OP:stll STATUS:               ID:20131104073840d    3
 2013-11-04-0738-39M.COL___214                                                 6
 STAT SP IPHASW D HRMM SECON CODA AMPLIT PERI AZIMU VELO AIN AR TRES W  DIS CAZ7
 BAR2 SZ EP        746 21.18                             171   -0.1910 22.5 188 
 BAR2 SZ ES        746 36.44                             171   -0.5510 22.5 188 
 BAR2 SZ I         746 38.30        10.2 0.28            172           22.5 188 
 BRR  HZ EP        746 23.24                             153    0.3910 70.9 299 
 BRR  HZ I         746 23.54         8.8 0.20            152           70.9 299 
 BRR  HN ES        746 40.75                             153    1.1310 70.9 299 
 PAM  SZ EP        746 24.30                             151    0.3110 78.4  40 
 PAM  SN ES        746 41.45                             151   -0.2010 78.4  40 
 PAM  SZ I         746 43.65         6.1 0.56            153           78.4  40 
 RUS  HZ EP        746 25.42                             145    0.0310 99.9 176 
 RUS  HN ES        746 44.03                             145   -0.1110 99.9 176 
 RUS  HZ I         746 45.11         1.7 0.26            148           99.9 176 
 PTB  HZ EP        746 28.25                             133   -0.27 9  147 259 
 PTB  HN ES        746 49.32                             133   -0.39 9  147 259 
 PTB  HZ I         746 55.20         7.3 0.32            133            147 259 
 OCA  HZ EP        746 30.55                             130    0.57 9  161 353 
 OCA  HE ES        746 52.01                             130   -0.31 9  161 353 
 OCA  HZ I         746 57.67         3.1 0.42            131            161 353 
 SPBC HZ EP        746 30.32                             130    0.31 9  162 219 
 SPBC HZ I         746 30.88         5.1 0.18            131            162 219 
 SPBC HN ES        746 52.30                             130   -0.07 9  162 219 
 SML  HZ EP        746 37.78                             118   -0.42 8  244 336 
 SML  HN ES        747  6.36                             118   -0.59 8  244 336 
 SML  HZ I         747  9.51         5.1 0.10            119            244 336 
                                                                                
