 2011  4 4 0345 48.7 L   6.782 -73.133139.9  RSN 19 0.4 3.5LRSN                1
 GAP=104        0.89       2.7     4.1  5.0 -0.2878E+01  0.3901E+01  0.4193E+01E
 Epicentro: LOS SANTOS - SANTANDER                                             3
 ACTION:UP  11-06-22 15:28 OP:REBC STATUS:               ID:20110404034548 L   I
 2011-04-04-0344-14S.COL___138                                                 6
 STAT SP IPHASW D HRMM SECON CODA AMPLIT PERI AZIMU VELO SNR AR TRES W  DIS CAZ7
 BTL  SZ IP        346  7.94                             171     0.310   21 315 
 BAR2 SZ IP        346  7.81                             171     0.210   22 194 
 BAR2 SZ ES   1    346 21.72                             171    -0.6 7   22 194 
 BAR2 SZ I         346 23.68       955.4 0.22                            22 194 
 GIR2 SZ IP        346  7.91                             166     0.210   33 349 
 GIR2 SZ ES   1    346 22.48                             166    -0.1 7   33 349 
 BRR  HZ IP     C  346  9.74                             151     0.410   73 299 
 BRR  HN ES   1    346 26.08                             151     0.6 7   73 299 
 BRR  HZ I         346 31.10      1020.2 0.11                            73 299 
 PAM  SZ EP        346 10.66                             149     0.310   78  38 
 PAM  SN ES   1    346 27.27                             149     0.0 7   78  38 
 PAM  SZ I         346 29.80       298.6 0.44                            78  38 
 GRA  SZ IP        346 13.77                             135     0.210  127  17 
 GRA  SZ ES   1    346 32.57                             135    -0.4 7  127  17 
 GRA  SZ I         346 34.41       519.9 0.28                           127  17 
 OCA  SZ IP        346 16.47                             128    -0.3 9  162 353 
 OCA  SZ ES   1    346 37.94                             128    -0.7 7  162 353 
 OCA  SZ I         346 43.82       519.5 0.34                           162 353 
 YOP  SZ IP        346 18.53                             125     0.4 9  177 153 
 YOP  SN ES   1    346 40.64                             125    -0.4 7  177 153 
 YOP  SZ I         346 42.90       238.0 0.30                           177 153 
 NOR  SZ EP   1    346 23.93                             117    -0.2 6  235 235 
 NOR  SN ES   1    346 51.21                             117    -0.5 6  235 235 
 CHI  HZ EP   1    346 25.92                             116     0.0 6  247 196 
 CHI  HE ES        346 54.56                             116    -0.4 8  247 196 
 CHI  HZ I         346 58.58       169.5 0.34                           247 196 
 HEL  HZ EP   1    346 27.90                             113    -0.8 6  273 256 
 HEL  HE ES   2    346 59.55                             113    -0.4 4  273 256 
 HEL  HZ I         347  7.33       210.8 0.57                           273 256 
 VIL  SZ EP   1    346 31.35                             111    -0.3 5  302 192 
 VIL  SN ES   1    347  5.08                             111    -0.1 5  302 192 
 VIL  SZ I         347  9.74       144.9 0.27                           302 192 
 GUY  SZ EP   1    346 32.57                             111     0.2 5  304 236 
 GUY  SZ I         347 13.31       331.5 0.29                           304 236 
 DBB  SZ EP        346 36.33                             108     0.2 7  341 275 
 TOL  SZ EP   1    346 37.05                             108     0.4 5  343 225 
 ANIL HZ EP   1    346 38.09                             107    -0.2 5  357 225 
 ANIL HN ES   1    347 17.06                             107     0.2 5  357 225 
 ANIL HZ I         347 23.43       312.9 0.29                           357 225 
 SDV  BZ EP   1    346 37.59                             107    -1.0 5  361  50 
 SDV  BZ I         347 19.87        68.2 0.70                           361  50 
 PRA  HZ EP   1    346 41.85                             105    -0.1 4  391 210 
 PRA  HN ES   1    347 24.01                             105     0.6 4  391 210 
 POP2 HZ EP   1    347  8.23                              98    -0.3 2  612 220 
 POP2 HZ I         347 13.20        28.7 0.28                           612 220 
                                                                                
