 2015 10 4 0940  8.8 L   6.761 -73.141149.7  RSN  5 0.4 1.3LRSN                1
 GAP=201        1.04       4.5     8.2  9.3  0.1618E+02 -0.1070E+02 -0.1252E+02E
 Epicentro: LOS SANTOS - SANTANDER                                             3
 ACTION:UPD 15-12-22 20:37 OP:cam  STATUS:               ID:20151004094008 L   I
 OLDACT:DUP 15-10-04 17:16 OP:drio STATUS:               ID:20151004093749d    3
 2015-10-04-0937-48M.COL___349                                                 6
 STAT SP IPHASW D HRMM SECON CODA AMPLIT PERI AZIMU VELO AIN AR TRES W  DIS CAZ7
 BRR  HZ EP        940 30.70                             152    0.2010 73.8 301 
 BRR  HN ES        940 47.91                             152    0.4810 73.8 301 
 RUS  HZ EP        940 33.08                             146    0.4610 96.3 176 
 RUS  HE ES        940 50.75                             146   -0.4610 96.3 176 
 RUS  HZ I         940 53.86         2.2 0.52            144           96.3 176 
 SPBC HZ EP        940 37.65                             130    0.35 9  160 220 
 SPBC HN ES        940 59.02                             130   -0.53 9  160 220 
 SPBC HZ I         941  4.65         4.2 0.20            129            160 220 
 ZAR  HE ES        941  7.49                             123    0.11 8  206 293 
 SML  HZ EP        940 45.68                             118   -0.39 8  248 336 
 SML  HE ES        941 14.56                             118   -0.59 8  248 336 
                                                                                
