 2015 10 4 0207 37.7 L   6.803 -73.137147.3  RSN 15 0.4 2.0LRSN                1
 GAP=127        1.04       2.6     3.7  4.9 -0.1919E+01  0.3756E+01 -0.2931E+00E
 Epicentro: LOS SANTOS - SANTANDER                                             3
 ACTION:UPD 15-12-22 20:37 OP:cam  STATUS:               ID:20151004020737 L   I
 OLDACT:REG 15-10-04 12:17 OP:drio STATUS:               ID:20151004015751     3
 2015-10-04-0157-51M.COL___355                                                 6
 STAT SP IPHASW D HRMM SECON CODA AMPLIT PERI AZIMU VELO AIN AR TRES W  DIS CAZ7
 BAR2 EZ EP        2 7 57.78                             170    0.2210 23.8 192 
 BAR2 EZ ES        2 8 12.54                             170   -0.4910 23.8 192 
 BAR2 EZ I         2 8 13.91        26.1 0.22            168           23.8 192 
 BRR  HZ EP        2 7 59.66                             152    0.5710 71.9 298 
 BRR  HN ES        2 8 16.57                             152    0.8210 71.9 298 
 BRR  HZ I         2 8 21.49        15.8 0.12            149           71.9 298 
 PAM  EZ EP        2 8  0.61                             151    0.5510 76.5  39 
 PAM  EN ES        2 8 17.60                             151    0.1210 76.5  39 
 PAM  EZ I         2 8 19.46        10.5 0.22            156           76.5  39 
 RUS  HZ EP        2 8  1.69                             144    0.0410  101 177 
 RUS  HE ES        2 8 19.77                             144   -0.5410  101 177 
 RUS  HZ I         2 8 21.65        10.5 0.34            146            101 177 
 PTB  HZ EP        2 8  4.50                             132   -0.42 9  149 259 
 PTB  HE ES        2 8 25.64                             132   -0.49 9  149 259 
 PTB  HZ I         2 8 30.97         8.6 0.12            131            149 259 
 OCA  HZ EP        2 8  5.75                             130   -0.40 9  160 353 
 OCA  HN ES        2 8 27.77                             130   -0.54 9  160 353 
 OCA  HZ I         2 8 31.17        29.8 0.18            131            160 353 
 SPBC HZ EP        2 8  6.80                             129    0.37 9  164 219 
 SPBC HN ES        2 8 28.86                             129    0.04 9  164 219 
 SPBC HZ I         2 8 31.39        22.1 0.30            130            164 219 
 ZAR  HZ EP        2 8 10.42                             123    0.06 9  205 292 
 ZAR  HE ES        2 8 36.16                             123    0.35 9  205 292 
 ZAR  HZ I         2 8 41.95        16.1 0.30            122            205 292 
 NOR  HZ EP        2 8 14.12                             119    0.46 8  236 235 
 NOR  HE ES        2 8 41.38                             119   -0.30 8  236 235 
 NOR  HZ I         2 8 46.95        10.1 0.20            119            236 235 
 SML  HZ EP        2 8 14.20                             118   -0.26 8  244 335 
 SML  HE ES        2 8 43.07                             118   -0.04 8  244 335 
 SML  HZ I         2 8 44.77        16.3 0.28            119            244 335 
 CHI  HZ EP        2 8 15.50                             117   -0.08 8  249 195 
 CHI  HE ES        2 8 45.43                             117    0.34 8  249 195 
 CHI  HZ I         2 8 52.12         3.7 0.26            119            249 195 
 HEL  HZ EP   4    2 8 13.23                             115   -4.91 0  273 256 
 HEL  HN ES   4    2 8 48.05                             115   -1.61 0  273 256 
 HEL  HZ I         2 8 56.78         5.6 0.52            115            273 256 
 URE  HZ EP        2 8 18.44                             114   -0.53 7  285 292 
 URE  HN ES   4    2 8 49.01                             114   -2.12 0  285 292 
 URE  HZ I         2 9  0.45         7.8 0.18            114            285 292 
 GUY2CHZ EP        2 8 22.13                             112    0.61 7  302 235 
 GUY2CHN ES        2 8 55.22                             112   -0.46 7  302 235 
 GUY2CHZ I         2 9  2.43         3.1 0.30                           302 235 
 SDV  BZ EP        2 8 27.16                             108   -0.56 6  359  50 
 SDV  BN ES   4    2 9  3.13                             108   -3.58 0  359  50 
 SJC  HZ EP   4    2 8 31.99                             106   -1.39 0  410 327 
 SJC  HN ES   4    2 9 15.13                             106   -1.65 0  410 327 
                                                                                
