 2011  4 4 0138 58.9 L   6.775 -73.178150.8  RSN 10 0.4 2.3LRSN                1
 GAP=141        0.93       4.9     6.8  7.3 -0.1722E+02  0.5373E+01  0.3735E+01E
 Epicentro: LOS SANTOS - SANTANDER                                             3
 ACTION:UP  11-06-22 15:28 OP:REBC STATUS:               ID:20110404013858 L   I
 2011-04-04-0134-53S.COL___138                                                 6
 STAT SP IPHASW D HRMM SECON CODA AMPLIT PERI AZIMU VELO SNR AR TRES W  DIS CAZ7
 BAR2 SZ EP        139 18.76                             172    -0.310   20 181 
 BAR2 SZ ES   1    139 34.90                             172     0.1 7   20 181 
 BAR2 SZ I         139 36.69        43.2 0.23                            20 181 
 GIR2 SZ EP   1    139 18.86                             167    -0.4 7   34 357 
 BRR  HZ EP        139 20.66                             154     0.210   69 302 
 BRR  HZ I         139 21.06        64.0 0.11                            69 302 
 BRR  HE ES   1    139 37.88                             154     0.6 7   69 302 
 PAM  SZ EP   1    139 21.73                             150    -0.2 7   82  40 
 PAM  SE ES   2    139 39.15                             150    -0.7 5   82  40 
 GRA  SZ EP        139 25.60                             137     0.710  129  19 
 GRA  SZ ES   1    139 45.42                             137     0.3 7  129  19 
 GRA  SZ I         139 46.29        27.0 0.35                           129  19 
 OCA  SZ EP        139 27.46                             130    -0.3 9  163 355 
 OCA  SZ ES   1    139 49.72                             130    -0.6 7  163 355 
 OCA  SZ I         139 54.00        16.2 0.19                           163 355 
 NOR  SZ EP   1    139 34.80                             120     0.4 6  230 234 
 NOR  SE ES   1    140  1.72                             120    -0.4 6  230 234 
 CHI  HZ EP   1    139 36.47                             118     0.0 6  245 195 
 CHI  HE ES   2    140  5.97                             118     0.2 4  245 195 
 CHI  HZ I         140 15.96         8.5 0.33                           245 195 
 HEL  HZ EP   2    139 39.63                             116     0.7 4  268 256 
 HEL  HN ES   2    140  9.78                             116    -0.3 4  268 256 
 HEL  HZ I         140 16.18        10.3 0.25                           268 256 
 DBB  SZ EP   2    139 45.58                             111    -0.6 3  336 275 
                                                                                
