 2010 11 4 0119 11.8 L   6.785 -73.092149.1  RSN  4 0.1 1.4LRSN                1
 GAP=170        0.32       4.8     8.6  6.6  0.2757E+02 -0.3551E+02 -0.1558E+02E
 Epicentro: LOS SANTOS - SANTANDER                                             3
 ACTION:UP  10-12-17 16:50 OP:REBC STATUS:               ID:20101104011911 L   I
 2010-11-04-0114-12S.COL___128                                                 6
 STAT SP IPHASW D HRMM SECON CODA AMPLIT PERI AZIMU VELO SNR AR TRES W  DIS CAZ7
 BAR2 SZ ES   2    119 47.35                             171    -0.1 5   24 205 
 BRR  HZ EP   2    119 33.64                             151     0.0 5   77 298 
 BRR  HZ I         119 33.99         7.1 0.10                            77 298 
 BRR  HN ES   1    119 50.76                             151     0.0 7   77 298 
 RUS  HZ EP   2    119 35.67                             145    -0.1 5   99 179 
 RUS  HN ES   2    119 54.60                             145     0.2 5   99 179 
 RUS  HZ I         119 55.83         3.1 0.45                            99 179 
 GUE  SZ EP   2    119 36.97                             140     0.1 5  117   9 
                                                                                
