 2015  6 4 0554 46.2 L   6.878 -73.063144.6  RSN  5 0.3 1.5LRSN                1
 GAP=213        0.77       4.6     6.0  7.0  0.6566E+01 -0.4180E+01 -0.1507E+02E
 Epicentro: PIEDECUESTA - SANTANDER                                            3
 ACTION:UPD 15-09-10 22:09 OP:cam  STATUS:               ID:20150604055446 L   I
 OLDACT:UP  15-06-12 15:40 OP:cam  STATUS:               ID:20150604055446 L   3
 OLDACT:UP  15-06-12 15:40 OP:cam  STATUS:               ID:20150604055446 L   3
 OLDACT:UP  15-06-11 08:26 OP:AR   STATUS:               ID:20150604055446 L   3
 OLDACT:DUP 15-06-04 16:44 OP:ak   STATUS:               ID:20150604054748d    3
 2015-06-04-0547-47M.COL___297                                                 6
 STAT SP IPHASW D HRMM SECON CODA AMPLIT PERI AZIMU VELO AIN AR TRES W  DIS CAZ7
 BAR2 EZ EP        555  5.96                             166    0.0310 34.2 203 
 BAR2 EZ ES        555 21.08                             166   -0.2710 34.2 203 
 BAR2 EZ I         555 21.71         4.5 0.24            172           34.2 203 
 BRR  HZ EP        555  7.89                             151    0.4110 76.1 290 
 BRR  HN ES        555 24.23                             151    0.1310 76.1 290 
 BRR  HZ I         555 29.18         4.7 0.15            152           76.1 290 
 OCA  HZ EP        555 13.28                             131   -0.44 9  153 349 
 OCA  HN ES        555 35.59                             131    0.37 9  153 349 
 OCA  HZ I         555 41.12         5.8 0.08            132            153 349 
 ZAR  HN ES        555 44.69                             121   -0.12 8  210 289 
 SML  HZ EP   1    555 22.66                             118    0.33 6  240 332 
 SML  HN ES        555 50.10                             118   -0.44 8  240 332 
                                                                                
