 2015 12 4 0844 14.1 L   6.825 -73.158146.9  RSN  7 0.5 1.7LRSN                1
 GAP=182        1.26       4.8     6.7  8.3  0.7466E+01  0.2280E+01 -0.1229E+02E
 Epicentro: LOS SANTOS - SANTANDER                                             3
 ACTION:UPD 16-02-04 15:02 OP:cam  STATUS:               ID:20151204084414 L   I
 OLDACT:UP  15-12-04 17:47 OP:mh   STATUS:               ID:20151204083747     3
 OLDACT:REG 15-12-04 13:04 OP:mh   STATUS:               ID:20151204083747     3
 2015-12-04-0837-47M.COL___309                                                 6
 STAT SP IPHASW D HRMM SECON CODA AMPLIT PERI AZIMU VELO AIN AR TRES W  DIS CAZ7
 BAR2 EZ EP        844 34.09                             170    0.1910 25.8 186 
 BAR2 EZ ES        844 48.77                             170   -0.5910 25.8 186 
 BAR2 EZ I         844 50.25         7.0 0.16            172           25.8 186 
 BRR  HZ EP        844 35.90                             153    0.6810 68.8 297 
 BRR  HN ES        844 52.58                             153    0.8810 68.8 297 
 BRR  HZ I         844 56.14         9.1 0.44            152           68.8 297 
 RUS  HZ EP        844 38.16                             143    0.0110  103 175 
 RUS  HN ES        844 57.05                             143    0.1310  103 175 
 RUS  HZ I         844 58.02         3.1 0.34            147            103 175 
 PTB  HZ EP        844 40.55                             132   -0.53 9  147 258 
 PTB  HN ES        845  1.33                             132   -0.80 9  147 258 
 PTB  HZ I         845  2.97         4.0 0.20            134            147 258 
 OCA  HZ EP        844 42.43                             130    0.21 9  157 353 
 OCA  HN ES        845  3.64                             130   -0.52 9  157 353 
 OCA  HZ I         845  7.57         7.3 0.16            131            157 353 
 ZAR  HZ EP        844 46.66                             123    0.29 9  202 292 
 ZAR  HN ES        845 12.02                             123    0.46 9  202 292 
 ZAR  HZ I         845 18.13         5.6 0.44            124            202 292 
 SML  HZ EP        844 50.11                             118   -0.34 8  241 335 
 SML  HN ES        845 18.46                             118   -0.35 8  241 335 
 SML  HZ I         845 22.54         8.9 0.08            119            241 335 
                                                                                
