 2016  7 4 0854 53.4 L   6.809 -73.144144.3  RSN 19 0.5 2.0LRSN                1
 GAP=102        1.22       4.1     3.6  5.9 -0.8319E+00  0.6684E+01  0.4546E+01E
 Epicentro: LOS SANTOS - SANTANDER                                             3
 ACTION:UPD 17-03-29 16:46 OP:lp   STATUS:               ID:20160704085453 L   I
 OLDACT:UP  16-07-04 21:53 OP:dani STATUS:               ID:20160704084742d    3
 OLDACT:UP  16-07-04 21:52 OP:dani STATUS:               ID:20160704084742d    3
 OLDACT:DUP 16-07-04 21:27 OP:dani STATUS:               ID:20160704084742d    3
 OLDACT:UP  16-07-04 21:27 OP:dani STATUS:               ID:20160704084741     3
 OLDACT:UP  16-07-04 21:26 OP:dani STATUS:               ID:20160704084741     3
 OLDACT:UP  16-07-04 21:17 OP:dani STATUS:               ID:20160704084741     3
 OLDACT:UP  16-07-04 21:16 OP:dani STATUS:               ID:20160704084741     3
 OLDACT:UP  16-07-04 21:16 OP:dani STATUS:               ID:20160704084741     3
 OLDACT:UP  16-07-04 21:16 OP:dani STATUS:               ID:20160704084741     3
 OLDACT:REG 16-07-04 13:43 OP:dani STATUS:               ID:20160704084741     3
 2016-07-04-0847-41M.COL___313                                                 6
 STAT SP IPHASW D HRMM SECON CODA AMPLIT PERI AZIMU VELO AIN AR TRES W  DIS CAZ7
 BAR2 EZ EP        855 12.52                             170   -0.3310 24.3 190 
 BAR2 EZ ES        855 27.90                             170   -0.1410 24.3 190 
 BAR2 EZ I         855 30.24        19.1 0.40            167           24.3 190 
 BRR  HZ EP        855 14.62                             152    0.2710 70.9 298 
 BRR  HE ES        855 31.20                             152    0.4910 70.9 298 
 BRR  HZ I         855 36.20        13.8 0.44            150           70.9 298 
 PAM  EZ EP        855 15.46                             151    0.0810 76.5  40 
 PAM  EE ES        855 32.74                             151    0.1910 76.5  40 
 PAM  EZ I         855 34.68        16.1 0.52            157           76.5  40 
 RUS  HZ EP        855 16.69                             143   -0.3710  102 176 
 RUS  HE ES        855 35.62                             143    0.1010  102 176 
 RUS  HZ I         855 38.25         7.4 0.24            145            102 176 
 PTB  HZ EP        855 19.44                             132   -0.83 9  148 258 
 PTB  HN ES        855 40.50                             132   -0.73 9  148 258 
 PTB  HZ I         855 47.74        23.7 0.40            131            148 258 
 TAM  HZ EP   4    855 22.10                             130    1.15 0  155 105 
 TAM  HE ES        855 42.59                             130    0.15 9  155 105 
 SPBC HZ EP        855 21.47                             129   -0.38 9  164 219 
 SPBC HN ES        855 43.52                             129   -0.54 9  164 219 
 SPBC HZ I         855 50.03        17.1 0.24            129            164 219 
 ZAR  HZ EP        855 25.25                             122   -0.46 9  204 292 
 ZAR  HN ES        855 51.48                             122    0.55 9  204 292 
 ZAR  HZ I         855 56.65        17.9 0.26            123            204 292 
 NOR  HZ EP        855 29.03                             118   -0.08 8  235 234 
 NOR  HN ES        855 56.61                             118   -0.36 8  235 234 
 NOR  HZ I         856  0.32        11.7 0.20            119            235 234 
 CHI  HZ EP   4    855 29.95                             117   -1.16 0  250 195 
 CHI  HN ES        856  1.82                             117    1.29 8  250 195 
 CHI  HZ I         856  9.67         5.0 0.34            118            250 195 
 ROSC BZ EP   9    855 32.65                             116    1.12 0  254 211 
 ROSC BE ES        856  3.52                             117    1.12 8  254 211 
 ROSC BZ I         856 10.19         9.9 0.40            118            254 211 
 HEL  HZ EP        855 34.47                             115    0.90 8  273 256 
 HEL  HE ES        856  4.96                             115    0.04 8  273 256 
 HEL  HZ I         856 11.59         9.4 0.34            115            273 256 
 URE  HZ EP   9    855 32.49                             113   -1.87 0  284 292 
 URE  HE ES        856  4.60                             114    0.15 7  284 292 
 URE  HZ I         856 16.51         8.1 0.16            115            284 292 
 GUY2CHZ EP        855 37.50                             112    0.49 7  302 235 
 GUY2CHE ES   4    856 12.84                             112    1.81 0  302 235 
 GUY2CHZ I         856 18.03         6.1 0.26                           302 235 
 PTGC HZ EP   4    855 35.48                             111   -1.79 0  310 159 
 PTGC HN ES   4    856  8.87                             111   -2.62 0  310 159 
 PTGC HZ I         856  9.40         5.0 0.26            114            310 159 
 CBOC HZ EP        855 40.50                             110    0.21 7  334 252 
 CBOC HN ES        856 17.92                             110    1.03 7  334 252 
 CBOC HZ I         856 21.14         1.8 0.38            111            334 252 
 PRA  HZ EP        855 46.67                             106   -0.29 6  393 210 
 PRA  HN ES        856 28.84                             106    0.08 6  393 210 
 PRA  HZ I         856 32.67         4.5 0.30            108            393 210 
 ORTC HZ EP        855 46.94                             106   -0.42 6  396 216 
 ORTC HE ES   4    856 31.35                             106    1.89 0  396 216 
 ORTC HZ I         856 36.39         2.8 0.50            108            396 216 
 SJC  HZ EP   4    855 46.83                             106   -1.98 0  409 327 
 SJC  HE ES   4    856 29.01                             106   -3.04 0  409 327 
 SJC  HZ I         856 36.14         2.4 0.74            107            409 327 
                                                                                
