 2016  3 4 0802 13.3 L   6.843 -73.221135.6  RSN  6 0.3 1.4LRSN                1
 GAP=174        0.76       6.3     7.7  6.3 -0.3888E+02  0.7283E+01  0.5651E+01E
 Epicentro: ZAPATOCA - SANTANDER                                               3
 ACTION:UPD 16-05-13 21:21 OP:cam  STATUS:               ID:20160304080213 L   I
 OLDACT:UP  16-03-04 19:02 OP:mh   STATUS:               ID:20160304075748     3
 OLDACT:UP  16-03-04 19:01 OP:mh   STATUS:               ID:20160304075748     3
 OLDACT:REG 16-03-04 14:50 OP:mh   STATUS:               ID:20160304075748     3
 2016-03-04-0757-48M.COL___321                                                 6
 STAT SP IPHASW D HRMM SECON CODA AMPLIT PERI AZIMU VELO AIN AR TRES W  DIS CAZ7
 BAR2 EZ EP        8 2 31.95                             168    0.1110 28.1 171 
 BAR2 EZ ES        8 2 46.11                             168   -0.1810 28.1 171 
 BAR2 EZ I         8 2 47.87         7.2 0.29            169           28.1 171 
 PAM  EZ EP        8 2 34.86                             148    0.2510 79.6  46 
 PAM  EN ES        8 2 51.05                             148   -0.1610 79.6  46 
 PAM  EZ I         8 2 53.49         6.5 0.48            151           79.6  46 
 SPBC HZ EP        8 2 41.06                             127    0.12 9  162 216 
 SPBC HN ES        8 3  3.07                             127    0.60 9  162 216 
 SPBC HZ I         8 3  5.58         2.8 0.12            126            162 216 
 ZAR  HZ EP   4    8 2 40.49                             121   -3.64 0  195 292 
 ZAR  HN ES   4    8 3 10.03                             121    1.88 0  195 292 
 ZAR  HZ I         8 3 15.23         3.6 0.32            119            195 292 
 NOR  HN ES        8 3 14.66                             117   -0.49 8  231 232 
 NOR  HZ I         8 3 21.38         1.7 0.16            116            231 232 
 CHI  HZ EP        8 2 50.38                             115   -0.38 8  251 193 
 CHI  HN ES        8 3 19.86                             115   -0.11 8  251 193 
 CHI  HZ I         8 3 24.49         0.9 0.54            116            251 193 
                                                                                
