 2016  9 4 0534 32.1 L   6.793 -73.139143.1  RSN 12 0.5 2.0LRSN                1
 GAP=138        1.15       3.3     4.5  6.1 -0.2292E+01  0.6604E+01  0.2140E+01E
 Epicentro: LOS SANTOS - SANTANDER                                             3
 ACTION:UPD 17-08-17 21:06 OP:lp   STATUS:               ID:20160904053432 L   I
 OLDACT:UP  16-09-04 15:53 OP:drio STATUS:               ID:20160904052734     3
 OLDACT:REG 16-09-04 12:55 OP:drio STATUS:               ID:20160904052734     3
 2016-09-04-0528-00M.COL___350                                                 6
 STAT SP IPHASW D HRMM SECON CODA AMPLIT PERI AZIMU VELO AIN AR TRES W  DIS CAZ7
 BAR2 EZ EP        534 51.43                             171    0.0710 22.7 192 
 BAR2 EZ ES        535  6.23                             171   -0.1710 22.7 192 
 BAR2 EZ I         535  7.21        34.2 0.30            168           22.7 192 
 BRR  HZ EP        534 53.43                             152    0.4410 72.3 299 
 BRR  HE IS        535 10.27                             152    0.9710 72.3 299 
 BRR  HZ I         535 15.93        19.4 0.14            150           72.3 299 
 PAM  EZ EP        534 54.37                             150    0.3710 77.5  39 
 PAM  EE ES        535 11.06                             150   -0.0510 77.5  39 
 PAM  EZ I         535 13.31        29.0 0.58            156           77.5  39 
 RUS  HZ EP        534 55.44                             143   -0.0510 99.7 176 
 RUS  HN ES        535 13.81                             143    0.0510 99.7 176 
 RUS  HZ I         535 15.66         8.9 0.36            146           99.7 176 
 PTB  HZ EP        534 58.44                             131   -0.43 9  148 259 
 PTB  HE ES        535 19.07                             131   -0.71 9  148 259 
 PTB  HZ I         535 26.54        10.6 0.44            132            148 259 
 OCA  HZ EP        534 59.54                             129   -0.71 9  161 353 
 OCA  HN ES        535 21.71                             129   -0.53 9  161 353 
 OCA  HZ I         535 26.95        22.2 0.20            132            161 353 
 SPBC HZ EP        535  0.61                             128    0.26 9  163 219 
 SPBC HN ES        535 22.26                             128   -0.14 9  163 219 
 SPBC HZ I         535 32.11         8.9 0.24            130            163 219 
 ZAR  HZ EP        535  4.90                             122    0.46 9  205 292 
 ZAR  HE ES        535 29.42                             122   -0.28 9  205 292 
 ZAR  HZ I         535 36.37        11.5 0.40            123            205 292 
 NOR  HZ EP        535  8.28                             118    0.62 8  235 235 
 NOR  HE ES        535 35.34                             118   -0.08 8  235 235 
 CHI  HZ EP        535  8.97                             117   -0.58 8  248 195 
 CHI  HN ES        535 38.44                             117   -0.35 8  248 195 
 CHI  HZ I         535 45.80         3.3 0.36            119            248 195 
 GUY2CHZ EP        535 16.33                             112    0.76 7  301 235 
 GUY2CHN ES   4    535 51.71                             112    2.21 0  301 235 
 GUY2CHZ I         535 56.61         3.2 0.24                           301 235 
 SJC  HZ EP   4    535 26.01                             105   -1.66 0  410 327 
 SJC  HE ES   4    536  7.61                             105   -3.43 0  410 327 
 SJC  HZ I         536 11.69         4.4 0.60            107            410 327 
                                                                                
