 2013  3 4 0120  1.4 L   6.801 -73.190153.5  RSN  7 0.6 1.5LRSN                1
 GAP=131        1.20       6.5     6.5 10.1 -0.4469E+00  0.1748E+01 -0.7114E+01E
 Epicentro: ZAPATOCA - SANTANDER                                               3
 ACTION:UPD 13-04-09 13:59 OP:ep   STATUS:               ID:20130304012000 L   I
 2013-03-04-0120-00M.COL___228                                                 6
 STAT SP IPHASW D HRMM SECON CODA AMPLIT PERI AZIMU VELO AIN AR TRES W  DIS CAZ7
 BAR2 SZ EP   2    120 21.14                             171   -0.85 5 23.1 178 
 BAR2 SZ I         120 38.97        10.3 0.10            168           23.1 178 
 BRR  HZ IP     C  120 23.85                             155    0.6510 66.9 300 
 BRR  HN ES        120 40.84                             155    0.6710 66.9 300 
 PAM  SZ EP        120 25.03                             151    0.3710 80.5  42 
 PAM  SN ES   1    120 41.98                             151   -0.79 7 80.5  42 
 RUS  HZ EP   1    120 26.70                             145    0.70 7  101 173 
 RUS  HN ES   1    120 44.73                             145   -0.42 7  101 173 
 RUS  HZ I         120 46.32         2.1 0.33            141            101 173 
 PTB  HZ EP        120 28.13                             135   -0.50 9  143 258 
 PTB  HN ES        120 49.38                             135   -0.45 9  143 258 
 PTB  HZ I         120 53.10         3.4 0.15            131            143 258 
 ZAR  HZ EP   2    120 34.09                             125    0.16 4  199 293 
 ZAR  HN ES   2    120 59.24                             125   -0.04 4  199 293 
 ZAR  HZ I         121  7.24         4.6 0.31            122            199 293 
 SML  HZ EP   1    120 37.61                             119   -0.67 6  242 336 
 SML  HN ES   1    121  6.59                             119   -0.42 6  242 336 
                                                                                
