 2012  6 4 0330 19.3 L   6.803 -73.127137.9  RSN 10 0.6 2.7LRSN                1
 GAP=139        1.08       4.2     5.7  8.2 -0.3455E+01  0.1611E+02  0.2876E+01E
 Epicentro: LOS SANTOS - SANTANDER                                             3
 ACTION:UPD 12-08-06 17:47 OP:ep   STATUS:               ID:20120604033019 L   I
 2012-06-04-0330-00M.COL___201                                                 6
 STAT SP IPHASW D HRMM SECON CODA AMPLIT PERI AZIMU VELO AIN AR TRES W  DIS CAZ7
 BAR2 SZ EP        330 38.10                             170    0.1410 24.1 195 
 BAR2 SZ ES   1    330 52.80                             170    0.26 7 24.1 195 
 BAR2 SZ I         330 55.53        95.8 0.18                          24.1 195 
 PAM  SZ EP        330 40.89                             150    0.3410 75.8  39 
 PAM  SN ES   1    330 56.82                             150   -0.33 7 75.8  39 
 RUS  HZ EP   1    330 42.44                             142    0.18 7  101 177 
 RUS  HE ES   1    331  0.81                             142    0.61 7  101 177 
 RUS  HZ I         331  2.50        69.0 0.32                           101 177 
 PTB  HZ EP   1    330 45.20                             130   -0.59 7  150 259 
 PTB  HN ES   1    331  5.53                             130   -0.95 7  150 259 
 PTB  HZ I         331  8.72        31.6 0.19                           150 259 
 OCA  HZ EP   1    330 46.61                             128   -0.36 7  160 352 
 OCA  HN ES   1    331  7.70                             128   -0.87 7  160 352 
 OCA  HZ I         331 12.12        50.2 0.15                           160 352 
 ZAR  HZ EP   1    330 52.35                             120    0.96 6  206 292 
 ZAR  HN ES   1    331 17.41                             120    0.96 6  206 292 
 ZAR  HZ I         331 22.27        84.2 0.65                           206 292 
 NOR  SZ EP   1    330 54.71                             117   -0.04 6  237 235 
 NOR  SE ES   1    331 22.13                             117   -0.30 6  237 235 
 CHI  HZ EP        330 56.23                             115   -0.40 8  249 196 
 CHI  HZ I         330 58.83        17.7 0.73                           249 196 
 CHI  HN ES   1    331 25.41                             115   -0.37 6  249 196 
 HEL  HZ EP   1    331  0.27                             113    0.95 6  274 256 
 HEL  HZ I         331 35.36       152.4 0.68                           274 256 
 PRA  HZ EP   1    331 12.00                             105   -0.68 4  393 210 
                                                                                
