 2016 10 4 0331 38.1 L   6.811 -73.160141.1  RSN  4 0.3 1.3LRSN                1
 GAP=134        0.69       3.7     3.3  7.7 -0.2320E+00  0.8729E+01  0.3041E-01E
 Epicentro: LOS SANTOS - SANTANDER                                             3
 ACTION:UPD 16-11-09 19:16 OP:rebc STATUS:               ID:20161004032345dL   I
 OLDACT:DUP 16-10-04 16:14 OP:dani STATUS:               ID:20161004032345dL   3
 OLDACT:UP  16-10-04 16:13 OP:dani STATUS:               ID:20161004032344 L   3
 OLDACT:UPD 16-10-04 12:58 OP:edw  STATUS:               ID:20161004032344 L   3
 2016-10-04-0328-00M.COL___369                                                 6
 STAT SP IPHASW D HRMM SECON CODA AMPLIT PERI AZIMU VELO AIN AR TRES W  DIS CAZ7
 PAM  EZ EP        331 59.87                             150    0.0110 77.5  41 
 PAM  EN ES        332 16.70                             150   -0.1010 77.5  41 
 PAM  EZ I         332 18.82         7.5 0.54            153           77.5  41 
 RUS  HZ EP        332  1.35                             142   -0.1710  102 175 
 RUS  HN ES        332 20.07                             142    0.3010  102 175 
 RUS  HZ I         332 21.23         2.8 0.23            145            102 175 
 PTB  HZ EP        332  4.65                             131    0.05 9  146 258 
 PTB  HN ES        332 24.80                             131   -0.45 9  146 258 
 PTB  HZ I         332 27.57         2.2 0.19            134            146 258 
 ZAR  HN ES        332 35.42                             122    0.43 9  202 292 
                                                                                
