 2013  7 4 0311 37.3 L   6.820 -73.149146.0  RSN 12 0.5 2.0LRSN                1
 GAP= 70        1.19       3.5     3.7  6.0  0.1418E+01  0.1735E+01  0.1773E+01E
 Epicentro: LOS SANTOS - SANTANDER                                             3
 ACTION:UPD 13-08-12 10:35 OP:ep   STATUS:               ID:20130704031137 L   I
 OLDACT:REG 13-07-04 08:09 OP:stll STATUS:               ID:20130704030848     3
 2013-07-04-0308-48M.COL___238                                                 6
 STAT SP IPHASW D HRMM SECON CODA AMPLIT PERI AZIMU VELO AIN AR TRES W  DIS CAZ7
 BAR2 SZ EP        311 56.93                             170   -0.0710 25.4 188 
 BAR2 SZ ES        312 12.51                             170    0.1410 25.4 188 
 BAR2 SZ I         312 12.80         9.9 0.26            169           25.4 188 
 GIR2 SZ EP        311 56.89                             168   -0.0510 29.1 350 
 GIR2 SZ ES        312 11.75                             168   -0.5110 29.1 350 
 BRR  HZ EP        311 58.80                             153    0.4110 69.9 297 
 BRR  HN ES        312 15.56                             153    0.7110 69.9 297 
 BRR  HN I         312 16.28        32.1 0.22            151           69.9 297 
 PAM  SZ EP        311 59.63                             151    0.1810 76.0  41 
 PAM  SN ES        312 16.76                             151    0.0310 76.0  41 
 RUS  HZ EP        312  1.04                             143   -0.1910  103 176 
 RUS  HN ES        312 19.57                             143   -0.3310  103 176 
 RUS  HN I         312 22.65         4.4 0.24            143            103 176 
 CAPV BZ EP        312  4.01                             132   -0.56 9  148  39 
 PTB  HZ EP        312  3.83                             132   -0.46 9  148 258 
 PTB  HN ES        312 24.57                             132   -0.77 9  148 258 
 TAM  HZ EP        312  5.29                             130    0.22 9  156 106 
 TAM  HE ES        312 26.98                             130    0.23 9  156 106 
 TAM  HE I         312 28.19        10.5 0.62            131            156 106 
 OCA  HN ES        312 27.79                             130    0.44 9  158 353 
 ZAR  HZ EP        312 10.36                             123    0.73 9  203 292 
 ZAR  HE ES        312 35.47                             123    0.61 9  203 292 
 ZAR  HE I         312 41.02        23.0 0.22            122            203 292 
 SML  HE ES        312 40.94                             118   -1.16 8  242 335 
 SML  HE I         312 48.02        15.6 0.10            117            242 335 
 CHI  HZ EP        312 15.20                             117   -0.02 8  251 195 
 CHI  HN ES        312 45.19                             117    0.38 8  251 195 
 CHI  HN I         312 47.40         4.5 0.30            117            251 195 
                                                                                
