 2017  3 4 0637 30.9 L   6.738 -73.219154.0  RSN  5 0.4 1.1LRSN                1
 GAP=219        0.95       7.6     6.8  8.5  0.3259E+02  0.1095E+01 -0.4279E+01E
 Epicentro: VILLANUEVA - SANTANDER                                             3
 ACTION:UPD 17-05-25 18:36 OP:jn   STATUS:               ID:20170304063731 L   I
 OLDACT:UP  17-04-21 20:58 OP:jn   STATUS:               ID:20170304063731 L   3
 OLDACT:UP  17-04-21 20:50 OP:nlst STATUS:               ID:20170304063731 L   3
 OLDACT:REG 17-03-04 12:30 OP:lv   STATUS:               ID:20170304062744     3
 2017-03-04-0628-00M.COL___397                                                 6
 STAT SP IPHASW D HRMM SECON CODA AMPLIT PERI AZIMU VELO AIN AR TRES W  DIS CAZ7
 BAR2 EZ EP        637 50.66                             174   -0.7010 16.6 166 
 BAR2 EZ I         638  7.14         5.1 0.29            172           16.6 166 
 BAR2 EZ ES        638  7.62                             174    0.2610 16.6 166 
 BRR  HZ EP        637 53.27                             155    0.5410 68.1 307 
 BRR  HN ES        638  9.51                             155   -0.2810 68.1 307 
 RUS  HZ EP        637 55.07                             147    0.0510 94.7 171 
 RUS  HN ES        638 14.00                             147    0.1310 94.7 171 
 RUS  HZ I         638 14.46         1.9 0.34            142           94.7 171 
 PTB  HZ EP   4    637 56.94                             136   -0.77 0  139 261 
 PTB  HN ES        638 18.48                             136   -0.17 9  139 261 
 PTB  HZ I         638 23.55         0.9 0.07            131            139 261 
 ZAR  HZ EP   4    638  6.05                             125    2.68 0  199 295 
 ZAR  HE ES        638 28.94                             125    0.20 9  199 295 
                                                                                
