 2012  1 4 0250 10.9 L   6.775 -73.093146.2  RSN 16 0.3 2.7LRSN                1
 GAP=145        0.57       2.3     2.9  3.9 -0.1027E+01  0.3161E+01  0.2287E+01E
 Epicentro: LOS SANTOS - SANTANDER                                             3
 ACTION:UP  12-02-03 08:13 OP:REBC STATUS:               ID:20120104025010 L   I
 2012-01-04-0250-00M.COL___183                                                 6
 STAT SP IPHASW D HRMM SECON CODA AMPLIT PERI AZIMU VELO SNR AR TRES W  DIS CAZ7
 BAR2 SZ IP        250 30.56                             171     0.010   23 206 
 BAR2 SZ ES   1    250 45.54                             171    -0.4 7   23 206 
 BAR2 SZ I         250 48.52        92.4 0.46                            23 206 
 PAM  SZ EP        250 33.27                             151     0.210   76  35 
 PAM  SN ES   1    250 50.59                             151     0.2 7   76  35 
 BRR  HZ EP        250 32.48                             151     0.010   78 298 
 BRR  HN ES   1    250 49.62                             151     0.3 7   78 298 
 BRR  HZ I         250 51.67        92.1 0.16                            78 298 
 RUS  HZ EP        250 34.32                             145    -0.210   98 179 
 RUS  HN ES   1    250 53.00                             145     0.1 7   98 179 
 RUS  HZ I         250 54.46        31.1 0.48                            98 179 
 PTB  HN ES   2    250 59.68                             131    -0.1 5  153 260 
 OCA  SZ EP   2    250 39.62                             129     0.0 5  164 351 
 OCA  SZ ES   2    251  1.95                             129     0.0 5  164 351 
 OCA  SZ I         251  5.82        52.0 0.60                           164 351 
 ZAR  HZ EP   2    250 43.62                             122    -0.4 4  210 292 
 ZAR  HN ES   1    251  9.14                             122    -0.8 6  210 292 
 ZAR  HZ I         251 14.96        59.2 0.37                           210 292 
 NOR  SZ EP        250 46.61                             118    -0.4 8  238 236 
 NOR  SN ES   1    251 15.72                             118     0.5 6  238 236 
 CHI  HZ EP   1    250 48.50                             117     0.0 6  248 197 
 CHI  HN ES   2    251 17.34                             117    -0.5 4  248 197 
 CHI  HZ I         251 26.77        19.8 0.56                           248 197 
 HEL  HZ EP   2    250 52.04                             114     0.3 4  277 257 
 HEL  HN ES   2    251 23.95                             114     0.4 4  277 257 
 HEL  HZ I         251 29.80        25.7 0.37                           277 257 
 VIL  SZ EP   2    250 54.21                             112     0.0 4  302 193 
 VIL  SN ES   2    251 27.95                             112     0.0 4  302 193 
 VIL  SZ I         251 37.80        15.3 0.37                           302 193 
 GUY  SZ EP   1    250 55.55                             112     0.4 5  307 236 
 GUY  SE ES   2    251 29.98                             112     0.3 4  307 236 
 GUY  SZ I         251 37.09        54.2 0.37                           307 236 
 RREF HZ EP   1    250 57.56                             111     0.2 5  324 230 
 RREF HN ES   2    251 34.08                             111     0.5 3  324 230 
 RREF HZ I         251 42.93        25.6 0.27                           324 230 
 TOL  SZ EP   1    250 59.78                             109     0.3 5  346 226 
 TOL  SZ ES   2    251 37.33                             109     0.0 3  346 226 
 COD  HN ES   2    251 37.78                             109     0.1 3  352 354 
 COD  HZ I         251 42.41        28.4 0.63                           352 354 
 PRA  HZ EP   1    251  4.53                             106     0.0 4  393 211 
 PRA  HN ES   1    251 46.18                             106    -0.1 4  393 211 
                                                                                
