 2014  1 4 0822 29.2 L   6.212 -73.734108.3  RSN  5 0.6 1.0LRSN                1
 GAP=121        1.50       6.7     6.7 16.6 -0.5321E+01 -0.2062E+02  0.2376E+02E
 Epicentro: LANDAZURI - SANTANDER                                              3
 ACTION:UPD 14-03-13 09:51 OP:ep   STATUS:               ID:20140104082229 L   I
 OLDACT:REG 14-01-04 07:56 OP:stll STATUS:               ID:20140104081810     3
 2014-01-04-0818-10M.COL___231                                                 6
 STAT SP IPHASW D HRMM SECON CODA AMPLIT PERI AZIMU VELO AIN AR TRES W  DIS CAZ7
 SPBC HN ES        823  0.92                             144    0.6710 72.4 211 
 BAR2 SZ EP        822 47.19                             143    0.2310 74.1  55 
 BAR2 SZ ES        823  1.57                             143    0.7310 74.1  55 
 BAR2 SZ I         823  2.39         9.2 0.14            144           74.1  55 
 RUS  HZ EP        822 47.65                             141   -0.1310 80.2 116 
 RUS  HN ES        823  1.33                             141   -0.9710 80.2 116 
 RUS  HZ I         823  4.77         0.7 0.26            142           80.2 116 
 PTB  HN ES        823  1.57                             138   -0.6110 87.7 294 
 CHI  HN ES        823 18.43                             117    0.10 9  175 180 
                                                                                
