 2013 12 4 0207 59.2 L   7.453 -73.184133.9  RSN  7 0.4 2.1LRSN                1
 GAP=113        1.00       3.6     4.4  7.1  0.7599E+00  0.1085E+02 -0.1508E+01E
 Epicentro: EL PLAYON - SANTANDER                                              3
 ACTION:UPD 14-01-13 10:15 OP:ep   STATUS:               ID:20131204020759 L   I
 OLDACT:REG 13-12-04 07:38 OP:carl STATUS:               ID:20131204020000     3
 2013-12-04-0200-00M.COL___285                                                 6
 STAT SP IPHASW D HRMM SECON CODA AMPLIT PERI AZIMU VELO AIN AR TRES W  DIS CAZ7
 PAM  SZ EP        2 8 19.35                             157    0.3910 55.0 103 
 PAM  SN ES        2 8 34.45                             157    0.1210 55.0 103 
 BRR  HZ EP        2 8 19.18                             151    0.1410 69.7 237 
 BRR  HN ES        2 8 34.29                             151   -0.1910 69.7 237 
 BRR  HZ I         2 8 36.32        16.3 0.18            151           69.7 237 
 OCA  HN ES        2 8 37.40                             145    0.3810 88.2 350 
 BAR2 SZ EP        2 8 21.12                             143    0.0310 95.2 180 
 BAR2 SZ ES        2 8 37.65                             143   -0.4810 95.2 180 
 BAR2 SZ I         2 8 38.62        32.5 0.16            143           95.2 180 
 PTB  HZ EP        2 8 27.56                             124   -0.20 9  173 234 
 PTB  HE ES        2 8 49.96                             124   -0.03 9  173 234 
 SML  HZ EP        2 8 28.03                             123   -0.23 9  178 327 
 SML  HN ES        2 8 50.01                             123   -0.87 9  178 327 
 SML  HZ I         2 8 51.36        18.8 0.22            124            178 327 
 ZAR  HZ EP   1    2 8 29.04                             122    0.10 7  185 271 
 ZAR  HN ES        2 8 52.89                             122    0.79 9  185 271 
                                                                                
