 2010  9 4 0012 29.2 L   6.762 -73.138140.4  RSN  7 0.5 2.1LRSN                1
 GAP=235        1.07       8.0    11.5  9.8  0.3338E+02  0.4699E+02  0.2398E+02E
 Epicentro: LOS SANTOS - SANTANDER                                             3
 ACTION:UP  11-02-18 10:59 OP:tino STATUS:               ID:20100904001229 L   I
 2010-09-04-0000-00S.COL___105                                                 6
 STAT SP IPHASW D HRMM SECON CODA AMPLIT PERI AZIMU VELO SNR AR TRES W  DIS CAZ7
 BAR2 SZ EP        012 47.84                             171    -0.310   20 195 
 BAR2 SZ ES   1    013  2.67                             171    -0.2 7   20 195 
 BAR2 SZ I         013  3.91        30.3 0.25                            20 195 
 BRR  HZ IP     C  012 49.64                             150    -0.310   74 301 
 BRR  HZ I         013  6.16        26.4 0.10                            74 301 
 BRR  HN ES   1    013  6.42                             150     0.3 7   74 301 
 RUS  HZ EP   1    012 51.88                             144    -0.2 7   96 176 
 RUS  HE ES   1    013 10.54                             144     0.6 7   96 176 
 RUS  HZ I         013 11.65        13.5 0.20                            96 176 
 CHI  HE ES   2    013 34.12                             116    -0.9 4  245 196 
 CHI  HZ I         013 37.76        10.8 0.30                           245 196 
 HEL  HZ EP   1    013 10.02                             114     0.9 6  272 257 
 HEL  HE ES   2    013 39.38                             114    -0.9 4  272 257 
 HEL  HZ I         013 45.96         5.7 0.35                           272 257 
 RREF HZ EP   1    013 15.83                             110     1.0 5  320 230 
 RREF HZ I         013 57.27         7.0 0.53                           320 230 
 PRA  HZ EP   1    013 22.01                             106    -0.1 4  389 210 
 PRA  HE ES   2    014  3.28                             106    -0.2 3  389 210 
 PRA  HZ I         014  8.06         8.7 0.44                           389 210 
                                                                                
